 2012  411 2004 54.4 L   6.799 -73.136146.1  RSN 21 0.5 3.9LRSN 4.2WRSN        1
 SPEC AVERAGE  MO 15.4 ST 45.5 OM  3.1 f0 2.22 R0.6946 AL 1.87 WI 34.2 MW  4.2 3
 GAP=104        0.98       3.2     3.6  5.3 -0.1495E+01  0.2481E+01  0.4216E+01E
 Epicentro: LOS SANTOS - SANTANDER                                             3
 SPEC BRR HH E MO 15.6 ST154.4 OM  4.0 f0 3.02 R0.4868 AL 1.82 WI 15.0 MW  4.3 3
 SPEC BRR HH E T20 532 K 0.020 GD  162 VS 4.20 DE 3.20 Q0230.0 QA 0.60 VS 4.20 3
 SPEC HEL HH Z MO 15.2 ST 15.7 OM  2.5 f0 1.99 R0.7387 AL 1.72 WI 32.4 MW  4.1 3
 SPEC HEL HH Z T20 533 K 0.020 GD  309 VP 7.60 DE 3.20 Q0230.0 QA 0.60 VS 4.20 3
 SPEC ANILHH Z MO 15.8 ST 34.8 OM  3.0 f0 1.64 R0.8963 AL 1.64 WI 37.7 MW  4.4 3
 SPEC ANILHH Z T20 544 K 0.020 GD  386 VP 7.60 DE 3.20 Q0230.0 QA 0.60 VS 4.20 3
 SPEC RREFHH Z MO 15.4 ST 42.3 OM  2.7 f0 2.27 R0.6476 AL 2.52 WI 36.6 MW  4.2 3
 SPEC RREFHH Z T20 539 K 0.020 GD  354 VP 7.60 DE 3.20 Q0230.0 QA 0.60 VS 4.20 3
 SPEC PTB HH Z MO 15.1 ST 42.1 OM  2.6 f0 2.92 R0.5034 AL 1.90 WI 19.6 MW  4.0 3
 SPEC PTB HH Z T20 520 K 0.020 GD  208 VP 7.60 DE 3.20 Q0230.0 QA 0.60 VS 4.20 3
 SPEC HEL HH N MO 15.2 ST 13.2 OM  3.3 f0 1.84 R0.7989 AL 1.63 WI 51.3 MW  4.1 3
 SPEC HEL HH N T20 6 3 K 0.020 GD  309 VS 4.20 DE 3.20 Q0230.0 QA 0.60 VS 4.20 3
 SPEC CHI HH N MO 15.3 ST 16.0 OM  3.4 f0 1.86 R0.7903 AL 1.89 WI 46.7 MW  4.1 3
 SPEC CHI HH N T20 6 0 K 0.020 GD  288 VS 4.20 DE 3.20 Q0230.0 QA 0.60 VS 4.20 3
 ACTION:UP  12-07-05 14:00 OP:tino STATUS:               ID:20120411200454 L   I
 2012-04-11-2000-00M.COL___177                                                 6
 STAT SP IPHASW D HRMM SECON CODA AMPLIT PERI AZIMU VELO AIN AR TRES W  DIS CAZ7
 BAR2 SZ IP       20 5 14.20                             170    0.1210 23.4 193 
 BAR2 SZ ES   1   20 5 28.69                             170   -0.73 7 23.4 193 
 BAR2 SZ I        20 5 30.48      1773.4 0.20                          23.4 193 
 BRR  HZ IP     D 20 5 16.07                             152    0.4210 72.2 298 
 BRR  HE ES   1   20 5 32.65                             152    0.43 7 72.2 298 
 BRR  HZ I        20 5 34.07      1653.5 0.36                          72.2 298 
 PAM  SZ IP       20 5 17.10                             151    0.4810 76.8  39 
 PAM  SN ES   1   20 5 33.93                             151   -0.02 7 76.8  39 
 PTB  HZ EP       20 5 20.68                             132   -0.81 9  149 259 
 PTB  HE ES   1   20 5 42.35                             132   -0.27 7  149 259 
 PTB  HZ I        20 5 44.04       464.3 0.16                           149 259 
 OCA  SZ IP       20 5 22.82                             130    0.05 9  161 353 
 OCA  SZ ES   1   20 5 44.81                             130   -0.08 7  161 353 
 YOP  SZ IP       20 5 24.14                             126   -0.27 9  178 154 
 YOP  SE ES   1   20 5 48.10                             126    0.29 7  178 154 
 ZAR  HZ EP       20 5 26.82                             122   -0.16 9  205 292 
 ZAR  HE ES   1   20 5 53.07                             122    0.68 6  205 292 
 ZAR  HZ I        20 5 58.10       620.4 0.66                           205 292 
 NOR  SZ EP       20 5 29.87                             118   -0.37 8  235 235 
 NOR  SN ES   1   20 5 57.76                             118   -0.43 6  235 235 
 CHI  HZ EP       20 5 32.39                             117    0.26 8  249 195 
 CHI  HN ES   2   20 6  1.56                             117    0.00 4  249 195 
 HEL  HZ EP       20 5 34.23                             115   -0.52 8  273 256 
 HEL  HE ES   1   20 6  6.04                             115   -0.17 6  273 256 
 HEL  HZ I        20 6 13.21       422.7 0.32                           273 256 
 VIL  SZ EP       20 5 37.86                             112    0.02 7  303 192 
 GUY  SZ EP   1   20 5 38.77                             112    0.39 5  304 235 
 GUY  SE ES   2   20 6 12.94                             112    0.26 4  304 235 
 GUY  SZ I        20 6 20.93       443.6 0.38                           304 235 
 RREF HZ EP       20 5 41.22                             111    0.58 7  323 230 
 RREF HN ES   1   20 6 16.77                             111    0.06 5  323 230 
 RREF HZ I        20 6 23.92       307.3 0.40                           323 230 
 DBB  SZ EP       20 5 42.47                             109    0.45 7  341 274 
 COD  HZ EP       20 5 42.22                             109   -0.60 6  349 354 
 COD  HN ES   3   20 6 20.89                             109    0.30 2  349 354 
 COD  HZ I        20 6 41.46       202.6 0.42                           349 354 
 ANIL HZ EP   1   20 5 45.32                             108    1.02 5  358 225 
 ANIL HZ I        20 6 31.12       603.0 0.34                           358 225 
 SDV  BZ EP       20 5 43.80                             108   -0.57 6  360  50 
 PRA  HZ EP       20 5 47.48                             106   -0.50 6  392 210 
 SJA  SZ EP   1   20 5 50.16                             106    1.18 4  400 193 
 SJA  SZ I        20 6 38.70       375.7 0.34                           400 193 
 PAL  HZ EP       20 5 49.93                             106    0.25 6  407 239 
 YOT  HZ EP   2   20 5 57.15                             103   -0.39 2  473 229 
                                                                                
