 2012  511 2325 10.3 L   6.785 -73.159140.0  RSN 11 0.5 2.2LRSN                1
 GAP=136        1.15       5.2     6.0  8.5 -0.8095E+00  0.1609E+02  0.8333E+01E
 Epicentro: LOS SANTOS - SANTANDER                                             3
 ACTION:UP  12-07-05 12:04 OP:pat  STATUS:               ID:20120511232510 L   I
 2012-05-11-2320-00M.COL___195                                                 6
 STAT SP IPHASW D HRMM SECON CODA AMPLIT PERI AZIMU VELO SNR AR TRES W  DIS CAZ7
 BAR2 SZ EP       2325 29.17                             171     0.010   21 187 
 BAR2 SZ ES   1   2325 44.22                             171     0.3 7   21 187 
 BAR2 SZ I        2325 45.15        75.4 0.28                            21 187 
 BRR  HZ EP       2325 31.03                             152     0.210   71 300 
 BRR  HE ES   1   2325 47.87                             152     1.1 7   71 300 
 BRR  HZ I        2325 48.99        47.5 0.14                            71 300 
 PAM  SZ EP   1   2325 32.00                             149    -0.1 7   80  40 
 PAM  SN ES   1   2325 48.82                             149    -0.2 7   80  40 
 RUS  HZ EP   1   2325 32.88                             143    -0.5 7   99 175 
 RUS  HN ES   1   2325 51.38                             143     0.0 7   99 175 
 PTB  HZ EP   1   2325 35.83                             131    -0.8 7  146 259 
 PTB  HN ES   1   2325 56.12                             131    -1.1 7  146 259 
 PTB  HZ I        2325 58.01        12.7 0.24                           146 259 
 OCA  HN ES   1   2325 59.72                             128    -0.5 7  162 354 
 ZAR  HZ EP   1   2325 42.80                             121     0.5 6  203 293 
 ZAR  HN ES   1   2326  7.03                             121    -0.2 6  203 293 
 ZAR  HZ I        2326 10.19        14.0 0.14                           203 293 
 NOR  SZ EP   1   2325 45.69                             117     0.2 6  232 235 
 NOR  SN ES   1   2326 12.88                             117     0.0 6  232 235 
 CHI  HZ EP   1   2325 47.78                             116     0.3 6  247 195 
 CHI  HZ I        2326 20.53         6.7 0.40                           247 195 
 HEL  HZ EP   1   2325 51.02                             114     1.0 6  270 256 
 HEL  HZ I        2326 28.25         8.8 0.29                           270 256 
 PRA  HZ EP   1   2326  3.67                             106     0.3 4  390 209 
                                                                                
