 2015  811 2326  7.1 L   6.427 -73.923 20.8  RSN  6 0.4 1.6LRSN                1
 GAP=115        1.01       2.3     3.0  5.0 -0.2191E+01  0.2573E+01 -0.3130E+01E
 Epicentro: CIMITARRA - SANTANDER                                              3
 ACTION:UPD 15-09-15 23:01 OP:cam  STATUS:               ID:20150811232607 L   I
 OLDACT:REG 15-08-12 02:56 OP:drio STATUS:               ID:20150811231750     3
 2015-08-11-2317-50M.COL___319                                                 6
 STAT SP IPHASW D HRMM SECON CODA AMPLIT PERI AZIMU VELO AIN AR TRES W  DIS CAZ7
 BRR  HZ EP       2326 19.88                             103   -0.0710 78.7  17 
 BRR  HE ES       2326 30.13                             103    0.1910 78.7  17 
 BRR  HZ I        2326 30.77        20.5 0.10            104           78.7  17 
 BAR2 EZ EP       2326 21.01                             102    0.0410 83.9  77 
 BAR2 EZ ES       2326 31.34                             102   -0.4110 83.9  77 
 BAR2 EZ I        2326 32.46        12.5 0.12            104           83.9  77 
 SPBC HZ EP       2326 21.65                             101    0.3410 87.3 191 
 SPBC HN ES       2326 32.69                             101    0.3310 87.3 191 
 SPBC HZ I        2326 33.79        25.0 0.26            103           87.3 191 
 RUS  HZ EP     D 2326 25.17                              99    0.0310  110 122 
 RUS  HN ES       2326 38.83                              99   -0.3410  110 122 
 RUS  HZ I        2326 39.84        10.1 0.18             56            110 122 
 PAM  EZ EP       2326 33.13                              56    0.49 9  169  53 
 PAM  EN ES       2326 52.81                              56    0.28 9  169  53 
 PAM  EZ I        2326 54.03        11.8 0.16             56            169  53 
 HEL  HZ EP       2326 32.89                              56   -0.97 9  180 262 
 HEL  HN ES   4   2326 52.27                              56   -2.43 0  180 262 
 HEL  HZ I        2326 53.29         5.3 0.28             56            180 262 
                                                                                
