 2017  911 2043  5.5 L   6.835 -73.342118.8  RSN  7 0.3 2.0LRSN                1
 GAP=105        0.89       3.1     3.5  5.8 -0.5503E+00  0.7556E+01  0.2169E+01E
 Epicentro: ZAPATOCA - SANTANDER                                               3
 ACTION:UPD 17-10-05 19:11 OP:rebc STATUS:               ID:20170911204305 L   I
 OLDACT:REG 17-09-12 02:29 OP:dani STATUS:               ID:20170911203749     3
 2017-09-11-2038-00M.COL___431                                                 6
 STAT SP IPHASW D HRMM SECON CODA AMPLIT PERI AZIMU VELO AIN AR TRES W  DIS CAZ7
 BAR2 EZ EP     C 2043 22.20                             164    0.0110 32.2 147 
 BAR2 EZ ES       2043 34.88                             164   -0.3010 32.2 147 
 BAR2 EZ I        2043 36.02        77.9 0.36            166           32.2 147 
 BRR  HZ EP     C 2043 22.15                             155   -0.4810 50.7 306 
 BRR  HN ES       2043 36.02                             155    0.0610 50.7 306 
 BRR  HZ I        2043 38.69        15.9 0.50            155           50.7 306 
 PAM  EZ EP       2043 26.57                             140    0.6610 90.3  52 
 PAM  EN ES       2043 41.90                             140    0.1010 90.3  52 
 PAM  EZ I        2043 45.72         7.8 0.20            145           90.3  52 
 RUS  HZ EP       2043 27.36                             135   -0.0210  108 165 
 RUS  HE ES       2043 44.24                             135   -0.1710  108 165 
 RUS  HZ I        2043 45.45        14.3 0.21            138            108 165 
 SPBC HZ EP       2043 30.60                             124   -0.55 9  154 212 
 SPBC HN ES       2043 51.80                             124    0.67 9  154 212 
 SPBC HZ I        2043 57.62        11.3 0.27            126            154 212 
 ZAR  HZ EP       2043 33.82                             119   -0.22 9  183 294 
 ZAR  HN ES       2043 56.37                             119    0.09 9  183 294 
 ZAR  HZ I        2043 59.39        17.0 0.30            121            183 294 
 NOR  HZ EP       2043 38.23                             114    0.04 8  220 230 
 NOR  HN ES       2044  3.80                             114    0.15 8  220 230 
 NOR  HZ I        2044  7.50         9.3 0.15            116            220 230 
                                                                                
