 2016  611 2137 42.3 L   6.795 -73.171140.9  RSN 15 0.4 2.3LRSN                1
 GAP=134        0.84       2.8     2.9  4.5 -0.5795E+00  0.5325E+01  0.2474E+01E
 Epicentro: LOS SANTOS - SANTANDER                                             3
 ACTION:UPD 16-07-21 22:17 OP:rebc STATUS:               ID:20160611213742 L   I
 OLDACT:UP  16-06-12 05:13 OP:ak   STATUS:               ID:20160611212744d    3
 OLDACT:DUP 16-06-12 05:04 OP:ak   STATUS:               ID:20160611212744d    3
 OLDACT:REG 16-06-12 03:36 OP:ak   STATUS:               ID:20160611212743     3
 2016-06-11-2127-43M.COL___340                                                 6
 STAT SP IPHASW D HRMM SECON CODA AMPLIT PERI AZIMU VELO AIN AR TRES W  DIS CAZ7
 BAR2 EZ EP       2138  1.20                             170   -0.1510 22.4 183 
 BAR2 EZ ES       2138 16.39                             170    0.2010 22.4 183 
 BAR2 EZ I        2138 17.04        53.3 0.14                          22.4 183 
 BRR  HZ EP       2138  3.10                             152    0.2810 69.0 300 
 BRR  HN ES       2138 19.64                             152    0.8310 69.0 300 
 BRR  HZ I        2138 25.10        52.0 0.14                          69.0 300 
 PAM  EZ IP     C 2138  4.00                             149   -0.1610 79.7  41 
 PAM  EN ES       2138 21.08                             149   -0.1210 79.7  41 
 PAM  EZ I        2138 23.04        39.2 0.54                          79.7  41 
 RUS  HZ EP       2138  5.23                             143   -0.3410  100 174 
 RUS  HN ES       2138 23.60                             143   -0.1110  100 174 
 RUS  HZ I        2138 25.36        25.1 0.34                           100 174 
 PTB  HZ EP       2138  8.07                             132   -0.56 9  145 259 
 PTB  HN ES       2138 28.61                             132   -0.54 9  145 259 
 PTB  HZ I        2138 31.63        31.4 0.12                           145 259 
 OCA  HZ EP   4   2138  7.23                             129   -3.05 0  161 354 
 SPBC HZ EP       2138 10.26                             128    0.02 9  161 218 
 SPBC HN ES       2138 31.74                             128   -0.27 9  161 218 
 SPBC HZ I        2138 35.38        25.8 0.21                           161 218 
 NOR  HZ EP       2138 17.73                             118    0.24 8  232 234 
 NOR  HN ES       2138 45.08                             118    0.17 8  232 234 
 NOR  HZ I        2138 47.98        18.5 0.24                           232 234 
 CHI  HZ EP       2138 19.67                             116    0.06 8  247 195 
 CHI  HN ES       2138 48.92                             116    0.22 8  247 195 
 CHI  HZ I        2138 54.47         4.7 0.30                           247 195 
 HEL  HZ EP   2   2138 22.69                             114    0.72 4  269 256 
 HEL  HN ES       2138 52.40                             114   -0.49 8  269 256 
 HEL  HZ I        2139  0.59        10.0 0.30                           269 256 
 URE  HZ EP   2   2138 21.87                             113   -1.02 4  281 292 
 URE  HN ES       2138 54.19                             113   -0.34 7  281 292 
 URE  HZ I        2139  5.30        21.3 0.30                           281 292 
 GUY2CHZ EP   1   2138 25.85                             112    0.44 5  299 235 
 GUY2CHN ES       2138 59.49                             112    0.48 7  299 235 
 GUY2CHZ I        2139  6.62         9.4 0.26                           299 235 
 CBOC HZ EP       2138 29.44                             109    0.73 7  331 252 
 CBOC HN ES       2139  4.48                             109   -0.41 7  331 252 
 CBOC HZ I        2139  7.45         3.7 0.18                           331 252 
 DBB  SZ EP       2138 29.23                             109   -0.05 7  337 274 
 DBB  SZ ES       2139  6.17                             109    0.26 7  337 274 
 PRA  HZ EP   2   2138 36.19                             106    0.73 3  390 209 
 PRA  HE ES       2139 17.15                             106    0.25 6  390 209 
 PRA  HZ I        2139 22.29         4.6 0.56                           390 209 
 ORTC HN ES       2139 17.69                             106    0.13 6  393 216 
                                                                                
