 2016  712 0159 25.9 L   6.964 -73.180119.7  RSN  4 0.4 1.4LRSN                1
 GAP=247        0.93      10.2    11.0  8.0  0.9637E+02 -0.1311E+01 -0.6120E+01E
 Epicentro: GIRON - SANTANDER                                                  3
 ACTION:UPD 17-03-29 16:49 OP:lp   STATUS:               ID:20160712015925 L   I
 OLDACT:REG 16-07-12 12:17 OP:lv   STATUS:               ID:20160712015759     3
 2016-07-12-0157-59S.COL___331                                                 6
 STAT SP IPHASW D HRMM SECON CODA AMPLIT PERI AZIMU VELO AIN AR TRES W  DIS CAZ7
 BAR2 EZ EP        159 43.71                             160    0.7110 41.2 180 
 BAR2 EZ ES        159 56.10                             160   -0.2410 41.2 180 
 BAR2 EZ I         159 57.79        14.0 0.30            162           41.2 180 
 BRR  HZ EP        159 43.60                             151   -0.0510 60.9 285 
 BRR  HN ES        159 57.31                             151   -0.1910 60.9 285 
 BRR  HZ I         2 0  1.78         4.3 0.22            151           60.9 285 
 RUS  HZ EP        159 48.28                             132   -0.5010  119 175 
 RUS  HN ES        2 0  6.82                             132    0.1910  119 175 
 RUS  HZ I         2 0  7.18         2.3 0.18            136            119 175 
 ZAR  HZ EP   2    159 55.17                             117   -0.56 4  194 288 
 ZAR  HE ES        2 0 19.24                             117    0.24 9  194 288 
 ZAR  HZ I         2 0 20.86         3.5 0.10            119            194 288 
                                                                                
