 2012 1112 0123 32.3 L   6.770 -73.165145.1  RSN  9 0.3 1.6LRSN                1
 GAP=135        0.57       2.9     3.3  4.6  0.1784E+00  0.3106E+01  0.1730E+01E
 Epicentro: LOS SANTOS - SANTANDER                                             3
 ACTION:UPD 12-12-05 15:32 OP:}ep  STATUS:               ID:20121112012332 L   I
 2012-11-12-0120-00M.COL___230                                                 6
 STAT SP IPHASW D HRMM SECON CODA AMPLIT PERI AZIMU VELO AIN AR TRES W  DIS CAZ7
 BAR2 SZ EP   1    123 51.82                             172   -0.01 7 19.8 185 
 BAR2 SZ ES   1    124  6.85                             172   -0.17 7 19.8 185 
 GIR2 SZ EP   1    123 51.87                             166   -0.15 7 34.2 355 
 GIR2 SZ ES   1    124  7.30                             166   -0.06 7 34.2 355 
 BRR  HZ EP   1    123 53.78                             152    0.37 7 71.0 302 
 BRR  HN ES   1    124 10.37                             152    0.54 7 71.0 302 
 BRR  HZ I         124 14.80         8.2 0.28                          71.0 302 
 PAM  SZ EP   1    123 54.66                             150   -0.07 7 81.3  39 
 PAM  SN ES   1    124 11.82                             150   -0.36 7 81.3  39 
 PAM  SZ I         124 13.82         3.7 0.20                          81.3  39 
 RUS  HZ EP   1    123 55.78                             145   -0.03 7 97.5 175 
 RUS  HN ES   1    124 14.37                             145    0.26 7 97.5 175 
 RUS  HZ I         124 15.45         5.9 0.24                          97.5 175 
 PTB  HZ EP   1    123 58.63                             132   -0.38 7  145 260 
 PTB  HN ES   1    124 19.65                             132   -0.15 7  145 260 
 PTB  HZ I         124 22.10        10.1 0.14                           145 260 
 OCA  HN ES   1    124 23.46                             129    0.31 7  163 354 
 ZAR  HN ES   1    124 29.54                             122   -0.34 6  203 293 
 PRA  HZ EP   1    124 25.77                             107    0.39 4  388 210 
                                                                                
