 2011  112 0300 43.2 L   6.720 -73.933 17.8  RSN  5 0.4 1.6LRSN                1
 GAP=152        0.86       4.7     4.3  5.6 -0.2832E+01  0.7322E+01  0.2609E+01E
 Epicentro: PUERTO PARRA - SANTANDER                                           3
 ACTION:UP  11-02-08 08:40 OP:pat  STATUS:               ID:20110112030043 L   I
 2011-01-12-0258-30S.COL___136                                                 6
 STAT SP IPHASW D HRMM SECON CODA AMPLIT PERI AZIMU VELO SNR AR TRES W  DIS CAZ7
 BTL  SZ EP        3 0 55.64                             101    -0.310   77  73 
 BAR2 SZ EP        3 0 56.98                             100     0.010   84 100 
 BAR2 SZ I         3 0 57.22        11.0 0.16                            84 100 
 RUS  HZ EP   1    3 1  4.63                              56     0.3 7  131 134 
 RUS  HN ES   1    3 1 20.47                              56    -0.3 7  131 134 
 RUS  HZ I         3 1 22.55         7.3 0.31                           131 134 
 GRA  SZ EP   1    3 1 10.53                              56     0.6 7  179  44 
 GRA  SZ ES   1    3 1 30.56                              56    -0.2 7  179  44 
 GRA  SZ I         3 1 32.22        26.3 0.44                           179  44 
 HEL  HZ EP   1    3 1 11.42                              56     0.4 7  186 252 
 HEL  HN ES   2    3 1 31.88                              56    -0.8 4  186 252 
 HEL  HZ I         3 1 34.13         3.1 0.38                           186 252 
                                                                                
