 2011  712 0111 18.0 L   6.794 -73.057140.2  RSN  5 0.2 1.4LRSN                1
 GAP=166        0.55       4.9     9.1  7.4  0.2267E+02 -0.3661E+02 -0.1708E+02E
 Epicentro: LOS SANTOS - SANTANDER                                             3
 ACTION:UPD 12-07-25 14:00 OP:epov STATUS:               ID:20110712011117 L   I
 2011-07-12-0110-03S.COL___143                                                 6
 STAT SP IPHASW D HRMM SECON CODA AMPLIT PERI AZIMU VELO AIN AR TRES W  DIS CAZ7
 BAR2 SZ EP        111 36.83                             169   -0.1610 26.3 212 
 BAR2 SZ ES   1    111 51.50                             169   -0.33 7 26.3 212 
 BAR2 SZ I         111 52.79         5.1 0.25                          26.3 212 
 BTL  SZ EP   1    111 37.07                             169    0.05 7 27.1 301 
 BRR  HZ EP   1    111 38.74                             148   -0.33 7 80.2 296 
 BRR  HZ I         111 39.11        11.4 0.11                          80.2 296 
 BRR  HE ES   1    111 55.84                             148    0.31 7 80.2 296 
 RUS  HZ EP   1    111 41.22                             143    0.11 7 99.7 182 
 RUS  HN ES   1    111 59.42                             143    0.26 7 99.7 182 
 RUS  HZ I         111 59.74         2.3 0.36                          99.7 182 
 BRI  SZ EP   1    111 41.37                             141    0.23 7  106  16 
                                                                                
