 2015 1112 0320 23.0 L   6.751 -73.231146.5  RSN  4 0.1 1.3LRSN                1
 GAP=216        0.45       2.6     4.0  3.9  0.2057E+01  0.3783E+00  0.9780E+00E
 Epicentro: ZAPATOCA - SANTANDER                                               3
 *GUY2C                                                                        3
 ACTION:UPD 15-12-28 16:10 OP:cam  STATUS:               ID:20151112032023 L   I
 OLDACT:DUP 15-11-12 17:07 OP:dnl  STATUS:               ID:20151112031752d    3
 2015-11-12-0317-50M.COL___319                                                 6
 STAT SP IPHASW D HRMM SECON CODA AMPLIT PERI AZIMU VELO AIN AR TRES W  DIS CAZ7
 BAR2 EZ EP        320 42.37                             172   -0.2210 18.4 163 
 BAR2 EZ ES        320 57.74                             172   -0.1610 18.4 163 
 BAR2 EZ I         320 58.57         6.7 0.22            170           18.4 163 
 BRR  HZ EP        320 43.90                             154   -0.0110 66.1 307 
 BRR  HN ES        321  0.42                             154    0.1710 66.1 307 
 RUS  HZ EP        320 46.66                             145    0.1810 96.4 170 
 RUS  HE ES        321  4.97                             145    0.1410 96.4 170 
 RUS  HZ I         321  5.59         2.1 0.52            144           96.4 170 
 SPBC HZ EP   2    320 50.58                             131    0.01 5  153 217 
 SPBC HN ES        321 12.01                             131   -0.10 9  153 217 
 SPBC HZ I         321 15.77         3.2 0.36            129            153 217 
                                                                                
