 2012  412 0451 18.2 L   6.772 -73.127140.1  RSN  9 0.3 2.2LRSN                1
 GAP=160        0.75       3.6     3.8  4.6 -0.5708E+01  0.4470E+01  0.1927E+01E
 Epicentro: LOS SANTOS - SANTANDER                                             3
 ACTION:UPD 12-07-05 11:52 OP:tino STATUS:               ID:20120412045118 L   I
 2012-04-12-0450-00M.COL___181                                                 6
 STAT SP IPHASW D HRMM SECON CODA AMPLIT PERI AZIMU VELO AIN AR TRES W  DIS CAZ7
 BAR2 SZ EP        451 37.19                             171     0.110   21 197 
 BAR2 SZ ES        451 51.74                             171    -0.110   21 197 
 BAR2 SZ I         451 53.29        44.4 0.42                            21 197 
 BRR  HZ IP     C  451 39.08                             150     0.210   74 300 
 BRR  HZ I         451 42.42        31.9 0.12                            74 300 
 BRR  HN ES        451 55.48                             150     0.410   74 300 
 PAM  SZ EP        451 40.04                             149     0.210   79  37 
 PAM  SE ES        451 56.47                             149    -0.310   79  37 
 PTB  HZ EP        451 44.14                             130    -0.7 9  149 260 
 PTB  HE ES   1    452  5.49                             130    -0.1 7  149 260 
 OCA  SZ EP        451 46.45                             128     0.1 9  164 353 
 OCA  SZ ES   1    452  8.21                             128    -0.1 7  164 353 
 ZAR  HZ EP   1    451 50.56                             121     0.0 6  207 293 
 ZAR  HN ES   1    452 15.46                             121    -0.4 6  207 293 
 ZAR  HZ I         452 21.44        16.4 0.40                           207 293 
 NOR  SZ EP        451 53.41                             117    -0.1 8  235 235 
 NOR  SN ES        452 21.36                             117     0.2 8  235 235 
 HEL  HZ EP   1    451 58.95                             113     0.7 6  273 257 
 HEL  HZ I         452 36.36         6.2 0.51                           273 257 
 PRA  HZ EP   1    452 11.18                             106    -0.1 4  390 210 
 PRA  HE ES   1    452 52.70                             106     0.0 4  390 210 
                                                                                
