 2017  412 0706 50.4 L   6.810 -73.139149.9  RSN 10 0.6 1.6LRSN                1
 GAP=119        1.28       4.3     5.3  7.9 -0.1321E+01  0.8593E+01  0.3620E+01E
 Epicentro: LOS SANTOS - SANTANDER                                             3
 ACTION:UPD 17-05-30 21:11 OP:jn   STATUS:               ID:20170412070650 L   I
 OLDACT:UP  17-04-12 18:51 OP:edw  STATUS:               ID:20170412065742     3
 OLDACT:UP  17-04-12 18:49 OP:edw  STATUS:               ID:20170412065742     3
 OLDACT:REG 17-04-12 13:21 OP:edw  STATUS:               ID:20170412065742     3
 2017-04-12-0658-00M.COL___368                                                 6
 STAT SP IPHASW D HRMM SECON CODA AMPLIT PERI AZIMU VELO AIN AR TRES W  DIS CAZ7
 BRR  HZ EP        7 7 12.47                             153    0.5110 71.3 297 
 BRR  HN ES        7 7 28.71                             153   -0.1010 71.3 297 
 PAM  EZ EP        7 7 13.43                             151    0.4910 76.1  40 
 PAM  EN ES        7 7 30.40                             151   -0.1510 76.1  40 
 PAM  EZ I         7 7 33.21         3.3 0.52            156           76.1  40 
 RUS  HZ EP        7 7 14.61                             144    0.0210  102 176 
 RUS  HN ES        7 7 33.29                             144   -0.2010  102 176 
 RUS  HZ I         7 7 34.56         7.5 0.22            144            102 176 
 PTB  HZ EP        7 7 17.57                             132   -0.17 9  149 258 
 PTB  HN ES        7 7 38.51                             132   -0.60 9  149 258 
 PTB  HZ I         7 7 41.54         3.7 0.30            132            149 258 
 SPBC HZ EP        7 7 19.64                             129    0.34 9  164 219 
 SPBC HN ES        7 7 41.16                             129   -0.71 9  164 219 
 SPBC HZ I         7 7 46.21         6.1 0.20            130            164 219 
 ZAR  HZ EP        7 7 22.31                             123   -0.79 9  204 292 
 ZAR  HN ES        7 7 49.48                             123    0.85 9  204 292 
 ZAR  HZ I         7 7 53.97         6.2 0.42            124            204 292 
 NOR  HZ EP        7 7 26.47                             119    0.01 8  236 234 
 NOR  HN ES        7 7 55.41                             119    0.80 8  236 234 
 NOR  HZ I         7 8  2.16         2.7 0.14            119            236 234 
 CHI  HZ EP        7 7 28.84                             117    0.42 8  250 195 
 CHI  HE ES        7 7 58.20                             117    0.09 8  250 195 
 CHI  HZ I         7 8  6.67         1.7 0.40            118            250 195 
 PTGC HZ EP   9    7 7 33.64                             112   -0.85 0  309 159 
 PTGC HE ES        7 8  7.21                             113   -0.85 7  309 159 
 SJC  HZ EP        7 7 44.47                             106   -1.52 6  409 327 
 SJC  HN ES   4    7 8 26.03                             106   -3.36 0  409 327 
                                                                                
