 2016  612 0635 19.0 L   5.747 -73.870111.6  RSN 11 0.5 1.4LRSN                1
 GAP=127        1.38       5.1     4.0  8.2 -0.8823E+01  0.5529E+01 -0.1040E+02E
 Epicentro: ALBANIA - SANTANDER                                                3
 ACTION:UPD 16-07-21 22:18 OP:rebc STATUS:               ID:20160612063519 L   I
 OLDACT:UP  16-06-12 18:44 OP:dani STATUS:               ID:20160612062745d    3
 OLDACT:UP  16-06-12 18:43 OP:dani STATUS:               ID:20160612062745d    3
 OLDACT:DUP 16-06-12 18:34 OP:dani STATUS:               ID:20160612062745d    3
 2016-06-12-0627-44M.COL___325                                                 6
 STAT SP IPHASW D HRMM SECON CODA AMPLIT PERI AZIMU VELO AIN AR TRES W  DIS CAZ7
 SPBC HZ EP        635 33.73                             167   -0.6610 24.7 245 
 SPBC HE ES        635 45.65                             167   -0.7210 24.7 245 
 RUS  HZ EP     C  635 38.49                             139   -0.1210 88.6  80 
 RUS  HN ES        635 53.88                             139   -0.0010 88.6  80 
 RUS  HZ I         635 55.15         1.9 0.22                          88.6  80 
 PTB  HZ EP   4 C  635 38.13                             132   -1.57 0  109 324 
 PTB  HE ES        635 55.83                             132    0.0110  109 324 
 PTB  HZ I         635 57.44         5.7 0.14                           109 324 
 ROSC BE ES        635 58.28                             132    1.0610  112 206 
 NOR  HZ EP     D  635 39.15                             131   -0.9210  113 260 
 NOR  HE ES        635 56.42                             131   -0.0610  113 260 
 NOR  HZ I         635 57.28        13.1 0.16                           113 260 
 BAR2 EZ EP        635 41.10                             129    0.0410  121  39 
 BAR2 EZ ES        635 58.51                             129    0.2610  121  39 
 BAR2 EZ I         636  0.83         4.7 0.26                           121  39 
 BRR  HZ EP     D  635 43.58                             122   -0.23 9  151   7 
 BRR  HN ES        636  3.99                             122    0.86 9  151   7 
 BRR  HZ I         636  4.51         7.1 0.26                           151   7 
 GUY2CHZ EP   4    635 45.66                             118   -1.31 0  175 251 
 GUY2CHN ES        636  9.58                             118    0.82 9  175 251 
 GUY2CHZ I         636 14.33         3.0 0.30                           175 251 
 HEL  HZ EP        635 48.81                             116    0.39 9  190 285 
 HEL  HN ES        636 11.16                             116   -0.19 9  190 285 
 HEL  HZ I         636 14.00         1.7 0.32                           190 285 
 PAM  EZ EP        635 51.78                             112    0.03 8  219  36 
 CBOC HZ EP        635 53.16                             110   -0.36 8  238 273 
 CBOC HN ES   4    636 21.56                             110    1.15 0  238 273 
 CBOC HZ I         636 23.42         1.2 0.56                           238 273 
                                                                                
