 2014  612 0209 35.5 L   6.820 -73.143146.1  RSN 12 0.4 1.8LRSN                1
 GAP=201        0.81       3.2     4.9  6.2  0.1552E+01  0.9126E+01  0.2809E+00E
 Epicentro: LOS SANTOS - SANTANDER                                             3
 ACTION:UPD 14-07-01 22:53 OP:nd   STATUS:               ID:20140612020935 L   I
 OLDACT:UP  14-06-12 16:04 OP:mh   STATUS:               ID:20140612020819     3
 OLDACT:REG 14-06-12 12:22 OP:mh   STATUS:               ID:20140612020819     3
 2014-06-12-0208-19M.COL___250                                                 6
 STAT SP IPHASW D HRMM SECON CODA AMPLIT PERI AZIMU VELO AIN AR TRES W  DIS CAZ7
 BAR2 SZ EP   1    2 9 55.67                             170    0.41 8 25.5 190 
 BAR2 SZ ES   1    210 10.40                             170   -0.24 8 25.5 190 
 RUS  HZ EP        2 9 59.33                             143   -0.1510  103 176 
 RUS  HN ES   1    210 18.23                             143    0.08 7  103 176 
 RUS  HZ I         210 19.75         3.3 0.23            145            103 176 
 PTB  HZ EP   1    210  2.56                             132   -0.05 7  149 258 
 PTB  HN ES   1    210 23.86                             132    0.14 7  149 258 
 PTB  HZ I         210 29.61         8.0 0.08            130            149 258 
 SPBC HZ EP        210  4.63                             129    0.38 9  165 219 
 SPBC HN ES   1    210 27.07                             129    0.43 7  165 219 
 ZAR  HZ EP        210  8.21                             123    0.25 9  204 292 
 ZAR  HN ES   1    210 33.02                             123   -0.22 6  204 292 
 ZAR  HZ I         210 40.13         6.6 0.25            121            204 292 
 NOR  HZ EP        210 10.62                             118   -0.84 8  236 234 
 NOR  HN ES        210 38.86                             118   -0.61 8  236 234 
 NOR  HZ I         210 43.48         4.6 0.30            118            236 234 
 SML  HN ES        210 40.43                             118    0.01 8  242 335 
 SML  HN IS        210 40.43                             118            242 335 
 HEL  HN ES   4    210 51.30                             115    3.98 0  273 255 
 GUY2CHZ EP   4    210 16.76                             112   -2.58 0  303 234 
 GUY2CHE ES   4    210 55.84                             112    2.34 0  303 234 
 GUY2CHZ I         211  2.97         4.8 0.73                           303 234 
 CBOC HZ EP   1    210 23.07                             110    0.49 5  335 252 
 TOL  SZ EP   1    210 24.52                             109    0.50 5  345 224 
 TOL  SN ES        211  2.36                             109    0.54 7  345 224 
 TOL  SZ I         211  9.63         6.6 0.32            110            345 224 
 PRA  HZ EP        210 28.64                             106   -0.67 6  394 209 
 PRA  HE ES   1    211 11.50                             106    0.25 4  394 209 
 PRA  HZ I         211 17.64         3.1 0.28            107            394 209 
 SJC  HZ EP   4    210 29.43                             106   -1.49 0  408 327 
 SJC  HN ES   4    211 11.47                             106   -2.65 0  408 327 
 SJC  HZ I         211 22.52         1.1 0.19            107            408 327 
                                                                                
