 2017  512 0908 38.5 L   6.765 -73.204151.5  RSN  5 0.1 1.2LRSN                1
 GAP=131        0.44       2.8     2.5  3.9  0.2894E+01 -0.1347E+01 -0.2815E+01E
 Epicentro: ZAPATOCA - SANTANDER                                               3
 ACTION:UPD 17-06-16 13:35 OP:jn   STATUS:               ID:20170512090838 L   I
 OLDACT:UP  17-05-12 18:37 OP:osc  STATUS:               ID:20170512090731     3
 OLDACT:UP  17-05-12 18:37 OP:osc  STATUS:               ID:20170512090731     3
 OLDACT:UP  17-05-12 18:36 OP:osc  STATUS:               ID:20170512090731     3
 OLDACT:REG 17-05-12 13:27 OP:osc  STATUS:               ID:20170512090731     3
 2017-05-12-0908-00M.COL___353                                                 6
 STAT SP IPHASW D HRMM SECON CODA AMPLIT PERI AZIMU VELO AIN AR TRES W  DIS CAZ7
 BRR  HZ EP     C  9 9  0.13                             155    0.0410 67.7 304 
 BRR  HN ES        9 9 16.78                             155   -0.1410 67.7 304 
 PAM  HZ EP        9 9  1.76                             150    0.0010 84.5  41 
 PAM  EN ES   4    9 9 17.47                             150   -2.42 0 84.5  41 
 RUS  HZ EP        9 9  2.42                             146   -0.1810 97.4 172 
 RUS  HN ES        9 9 21.61                             146    0.2210 97.4 172 
 RUS  HZ I         9 9 23.33         2.9 0.40            145           97.4 172 
 PTB  HZ EP        9 9  5.20                             135   -0.13 9  141 260 
 PTB  HN ES        9 9 26.14                             135   -0.11 9  141 260 
 PTB  HZ I         9 9 27.91         2.0 0.56            135            141 260 
 ZAR  HZ EP        9 9 11.04                             124    0.16 9  200 294 
 ZAR  HN ES        9 9 36.34                             124    0.20 9  200 294 
                                                                                
