 2013  312 0709 29.5 L   6.530 -73.666103.4  RSN 15 0.5 2.7LRSN 2.9WRSN        1
 SPEC AVERAGE  MO 13.4 ST  3.2 OM  2.1 f0 4.02 R0.4072 AL 2.58 WI 20.4 MW  2.9 3
 SPEC SD       MO  0.1 ST  3.0 OM  0.4 f0 1.25 R0.1368 AL      WI      MW  0.1 3
 GAP= 56        1.08       2.6     3.2  6.7 -0.1970E+00  0.4953E+01  0.3950E+01E
 Epicentro: SANTA HELENA DEL OPON - SANTANDER                                  3
 SPEC TAM HH E MO 13.6 ST  9.0 OM  1.8 f0 5.63 R0.2611 AL 3.58 WI 19.7 MW  3.0 3
 SPEC TAM HH E T 71021 K 0.000 GD  232 VS 4.20 DE 3.20 Q0300.0 QA 0.60 VS 4.20 3
 SPEC ROSCBH Z MO 13.2 ST0.929 OM  1.5 f0 3.36 R0.4375 AL 3.35 WI 27.4 MW  2.8 3
 SPEC ROSCBH Z T 71023 K 0.000 GD  225 VS 4.20 DE 3.20 Q0300.0 QA 0.60 VS 4.20 3
 SPEC PAM SH N MO 13.4 ST  4.5 OM  1.8 f0 4.94 R0.2976 AL 3.53 WI 16.7 MW  2.9 3
 SPEC PAM SH N T 71010 K 0.000 GD  173 VS 4.20 DE 3.20 Q0300.0 QA 0.60 VS 4.20 3
 SPEC RUS HH N MO 13.2 ST  1.4 OM  1.7 f0 3.88 R0.3789 AL 2.35 WI 14.7 MW  2.8 3
 SPEC RUS HH N T 710 2 K 0.000 GD  140 VS 4.20 DE 3.20 Q0300.0 QA 0.60 VS 4.20 3
 SPEC CHI HH N MO 13.5 ST0.630 OM  1.7 f0 2.50 R0.5880 AL 1.75 WI 21.2 MW  2.9 3
 SPEC CHI HH N T 71022 K 0.000 GD  234 VS 4.20 DE 3.20 Q0300.0 QA 0.60 VS 4.20 3
 SPEC HEL HH N MO 13.6 ST0.682 OM  1.8 f0 2.38 R0.6176 AL 1.26 WI 15.8 MW  3.0 3
 SPEC HEL HH N T 71023 K 0.000 GD  233 VS 4.20 DE 3.20 Q0300.0 QA 0.60 VS 4.20 3
 SPEC BRR HH N MO 13.4 ST  5.4 OM  1.9 f0 5.45 R0.2697 AL 2.22 WI 27.1 MW  2.9 3
 SPEC BRR HH N T 7 957 K 0.000 GD  121 VS 4.20 DE 3.20 Q0300.0 QA 0.60 VS 4.20 3
 ACTION:UPD 13-04-09 14:01 OP:ep   STATUS:               ID:20130312070929 L   I
 2013-03-12-0708-39M.COL___195                                                 6
 STAT SP IPHASW D HRMM SECON CODA AMPLIT PERI AZIMU VELO AIN AR TRES W  DIS CAZ7
 BAR2 SZ IP        7 9 45.40                             150    0.0010 53.9  83 
 BAR2 SZ ES   1    7 9 58.02                             150    0.18 7 53.9  83 
 BAR2 SZ I         7 9 59.44       222.5 0.14            150           53.9  83 
 BRR  HZ EP        7 9 45.40                             146   -0.3110 64.0 355 
 BRR  HN ES        7 9 58.09                             146   -0.3010 64.0 355 
 BRR  HN I         7 9 58.97       151.4 0.12            143           64.0 355 
 RUS  HZ EP        7 9 48.32                             134   -0.5710 95.5 138 
 RUS  HN ES   2    710  3.59                             134   -0.45 5 95.5 138 
 RUS  HN I         710  5.40        37.7 0.22            133           95.5 138 
 PAM  SZ EP        7 9 53.19                             122    0.09 9  139  50 
 PAM  SN ES        710 11.96                             122    0.42 9  139  50 
 PAM  SZ I         710 13.25        41.1 0.20            121            139  50 
 ZAR  HZ EP     C  7 9 55.54                             116   -0.13 9  169 309 
 ZAR  HN ES        710 16.63                             116    0.51 9  169 309 
 ZAR  HN I         710 18.60        53.5 0.10            115            169 309 
 OCA  HZ EP   1    7 9 58.11                             113   -0.36 7  193  11 
 OCA  HN ES   1    710 21.90                             113    0.80 7  193  11 
 OCA  HN I         710 26.89       216.2 0.20            112            193  11 
 ROSC BZ EP        710  0.63                             112    1.00 9  200 201 
 ROSC BN ES        710 23.83                             112    0.67 9  200 201 
 TAM  HZ EP   1    710  0.35                             111    0.35 6  208  93 
 TAM  HN ES        710 23.67                             111   -0.16 8  208  93 
 TAM  HN I         710 25.68        67.1 0.44            111            208  93 
 HEL  HZ EP   1    7 9 59.92                             111   -0.71 6  209 260 
 HEL  HN ES   2    710 24.30                             111   -0.64 4  209 260 
 HEL  HZ I         710 27.77        30.6 0.26            110            209 260 
 HEL  HN I         710 28.56        34.4 0.44                           209 260 
 CHI  HZ EP   1    710  0.78                             111    0.01 6  210 182 
 CHI  HN ES   1    710 24.14                             111   -1.06 6  210 182 
 CHI  HN I         710 27.24        30.4 0.48            110            210 182 
 URE  HZ EP   1    710  3.62                             107   -0.84 6  247 303 
 SML  HZ EP        710  4.65                             106   -0.80 8  255 350 
 SML  HN ES   1    710 34.12                             106    0.60 6  255 350 
 SML  HN I         710 48.53        73.2 0.10            106            255 350 
 VIL  SZ EP   1    710  6.89                             105   -0.17 6  267 181 
 VIL  SN ES   2    710 36.28                             105   -0.11 4  267 181 
 VIL  SN I         710 47.49        58.1 0.36            106            267 181 
 PRA  HZ EP   2    710 15.38                             100   -0.16 3  339 204 
 PRA  HN ES        710 52.36                             100    0.88 7  339 204 
 PRA  HZ I         710 57.57        16.6 0.30            102            339 204 
 SDV  BZ EP        710 26.27                              96    0.34 5  424  52 
                                                                                
