 2010 1212 0727 20.4 L   6.788 -73.158142.7  RSN  9 0.2 1.6LRSN                1
 GAP=157        0.43       2.2     5.1  5.0 -0.5518E+01  0.1084E+02 -0.2687E+01E
 Epicentro: LOS SANTOS - SANTANDER                                             3
 ACTION:UP  11-01-14 15:24 OP:pat  STATUS:               ID:20101212072720 L   I
 2010-12-12-0720-00M.COL___136                                                 6
 STAT SP IPHASW D HRMM SECON CODA AMPLIT PERI AZIMU VELO SNR AR TRES W  DIS CAZ7
 BTL  SZ EP        727 39.70                             172     0.210   19 320 
 BAR2 SZ EP   1    727 39.55                             171     0.0 7   22 187 
 BAR2 SZ ES   2    727 54.42                             171    -0.2 5   22 187 
 BAR2 SZ I         728  1.81         7.1 0.36                            22 187 
 RUS  HZ EP   2    727 43.77                             143     0.1 5   99 175 
 RUS  HE ES   1    728  1.99                             143     0.1 7   99 175 
 RUS  HZ I         728  3.72         4.4 0.39                            99 175 
 GUE  SZ EP   2    727 45.41                             138     0.5 5  118  13 
 GRA  SZ EP        727 45.50                             136     0.010  127  18 
 GRA  SZ ES   1    728  4.90                             136    -0.2 7  127  18 
 GRA  SZ I         728  6.46         5.4 0.30                           127  18 
 OCA  SZ EP   2    727 48.28                             129    -0.3 5  161 354 
 OCA  SZ ES   2    728 10.11                             129    -0.4 5  161 354 
 OCA  SZ I         728 14.48         8.7 0.36                           161 354 
 CHI  HZ EP   2    727 57.46                             116    -0.2 4  247 195 
 CHI  HE ES   2    728 26.75                             116    -0.1 4  247 195 
 CHI  HZ I         728 32.43         2.2 0.27                           247 195 
 HEL  HZ EP   2    728  0.53                             114     0.3 4  270 256 
 HEL  HE ES   2    728 31.45                             114     0.1 4  270 256 
 HEL  HZ I         728 38.84         2.1 0.40                           270 256 
 PRA  HZ EP   2    728 13.03                             106    -0.5 3  390 209 
 PRA  HN ES   2    728 54.46                             106    -0.6 3  390 209 
                                                                                
