 2016  312 0329 48.2 L   6.820 -73.130142.1  RSN 23 0.6 2.6LRSN                1
 GAP= 56        1.29       3.2     3.2  5.7 -0.1520E+01  0.5373E+01  0.1990E+01E
 Epicentro: LOS SANTOS - SANTANDER                                             3
 ACTION:UPD 16-05-13 21:23 OP:cam  STATUS:               ID:20160312032948 L   I
 OLDACT:UP  16-03-12 16:10 OP:ar   STATUS:               ID:20160312032752     3
 OLDACT:REG 16-03-12 13:27 OP:ar   STATUS:               ID:20160312032752     3
 2016-03-12-0327-52M.COL___307                                                 6
 STAT SP IPHASW D HRMM SECON CODA AMPLIT PERI AZIMU VELO AIN AR TRES W  DIS CAZ7
 BAR2 EZ EP        330  7.52                             169    0.0810 25.9 193 
 BAR2 EZ ES        330 22.16                             169   -0.2910 25.9 193 
 BAR2 EZ I         330 23.68       108.4 0.16            168           25.9 193 
 PAM  EZ IP     D  330 10.41                             151    0.5610 74.5  40 
 PAM  EN ES        330 27.31                             151    0.5710 74.5  40 
 PAM  EZ I         330 29.79        59.0 0.54            150           74.5  40 
 RUS  HZ EP     C  330 11.49                             142   -0.2610  103 177 
 RUS  HN ES        330 29.94                             142   -0.1810  103 177 
 RUS  HZ I         330 31.22        51.8 0.30            140            103 177 
 PTB  HZ EP        330 14.18                             131   -0.88 9  150 258 
 PTB  HN ES        330 35.70                             131   -0.32 9  150 258 
 PTB  HZ I         330 38.52        40.8 0.18            130            150 258 
 TAM  HZ IP     D  330 15.84                             130    0.35 9  154 106 
 TAM  HZ I         330 36.40        25.1 0.42            128            154 106 
 TAM  HN ES        330 37.22                             130    0.45 9  154 106 
 OCA  HZ EP        330 16.04                             129    0.01 9  158 352 
 OCA  HN ES        330 37.61                             129   -0.13 9  158 352 
 OCA  HZ I         330 42.54        96.6 0.28            129            158 352 
 SPBC HZ EP        330 16.48                             128   -0.21 9  166 219 
 SPBC HN ES        330 37.92                             128   -0.99 9  166 219 
 SPBC HZ I         330 43.16        64.8 0.44            127            166 219 
 ZAR  HZ EP        330 20.75                             121    0.27 9  205 291 
 ZAR  HN ES        330 46.49                             121    0.82 9  205 291 
 ZAR  HZ I         330 52.22        58.9 0.56            121            205 291 
 NOR  HZ EP        330 24.02                             117    0.01 8  237 234 
 NOR  HN ES        330 51.16                             117   -0.78 8  237 234 
 NOR  HZ I         330 53.42        42.5 0.18            117            237 234 
 CHI  HZ EP        330 25.64                             116   -0.34 8  251 195 
 CHI  HN ES        330 56.32                             116    0.87 8  251 195 
 CHI  HZ I         331  0.76        16.4 0.34            115            251 195 
 ROSC BZ EP        330 27.33                             116    0.90 8  256 211 
 ROSC BN ES   4    330 59.64                             116    3.39 0  256 211 
 ROSC BZ I         331  3.80        29.0 0.35            115            256 211 
 HEL  HZ EP        330 28.65                             114    0.18 8  274 255 
 HEL  HE ES        330 59.19                             114   -0.70 8  274 255 
 HEL  HZ I         331  4.51        15.9 0.50            113            274 255 
 GUY2CHZ EP        330 31.91                             111   -0.03 7  304 235 
 GUY2CHN ES        331  6.52                             111    0.45 7  304 235 
 GUY2CHZ I         331 12.52        24.8 0.28                           304 235 
 VIL  SZ EP        330 31.10                             111   -0.64 7  306 192 
 VIL  SN ES        331  5.23                             111   -0.47 7  306 192 
 PTGC HZ EP   1 C  330 30.56                             111   -1.50 5  310 159 
 PTGC HN ES   4    331  3.81                             111   -2.46 0  310 159 
 PTGC HZ I         331 16.32        17.7 0.36            109            310 159 
 CBOC HZ EP        330 35.54                             109    0.31 7  336 252 
 CBOC HN ES        331 12.90                             109    0.99 7  336 252 
 CBOC HZ I         331 14.76         6.3 0.20            108            336 252 
 DBB  SZ EP     C  330 35.59                             109   -0.11 7  341 274 
 DBB  SZ ES        331 12.26                             109   -0.50 7  341 274 
 DBB  SZ I         331 15.88        59.9 0.44            108            341 274 
 MON  HZ EP   9    330 35.18                             108   -1.87 0  354 308 
 MON  HN ES        331 13.17                             108   -0.12 6  354 308 
 MON  HZ I         331 16.50         8.5 0.16            107            354 308 
 SDV  BZ EP        330 37.23                             108   -0.55 6  358  50 
 SDV  BN ES   4    331 14.45                             108   -2.00 0  358  50 
 SDV  BZ I         331 16.66         6.2 0.55            107            358  50 
 ANIL HZ EP        330 38.97                             108    0.78 6  360 224 
 ANIL HN ES        331 18.77                             108    1.59 6  360 224 
 ANIL HZ I         331 24.15        51.7 0.28            107            360 224 
 ORTC HZ EP        330 42.31                             105   -0.02 6  398 216 
 ORTC HN ES        331 25.65                             105    1.10 6  398 216 
 ORTC HZ I         331 31.84        13.7 0.34            105            398 216 
 PAL  HZ EP        330 43.56                             105    0.01 6  408 239 
 PAL  HN ES        331 26.33                             105   -0.39 6  408 239 
 SJC  HZ EP        330 42.21                             105   -1.32 6  408 327 
 SJC  HN ES   4    331 23.17                             105   -3.52 0  408 327 
 SJC  HZ I         331 27.54         9.6 0.46            105            408 327 
 PAL  HZ I         331 30.47        10.3 0.22            104            408 239 
                                                                                
