 2016  412 0109 55.5 L   6.742 -73.180139.9  RSN  4 0.4 1.1LRSN                1
 GAP=272        0.92       7.9     6.0  7.8  0.7513E+01  0.1261E+02 -0.2956E+01E
 Epicentro: VILLANUEVA - SANTANDER                                             3
 ACTION:UPD 16-05-05 14:20 OP:rebc STATUS:               ID:20160412010955 L   I
 OLDACT:UP  16-04-12 13:25 OP:mh   STATUS:               ID:20160412010748     3
 OLDACT:REG 16-04-12 12:27 OP:mh   STATUS:               ID:20160412010748     3
 2016-04-12-0107-48M.COL___316                                                 6
 STAT SP IPHASW D HRMM SECON CODA AMPLIT PERI AZIMU VELO AIN AR TRES W  DIS CAZ7
 BAR2 EZ EP   1    110 14.02                             173   -0.31 7 16.6 181 
 BAR2 EZ ES        110 29.04                             173    0.0410 16.6 181 
 BAR2 EZ I         110 30.19         3.2 0.19            168           16.6 181 
 RUS  HZ EP        110 18.18                             144   -0.0910 94.5 173 
 RUS  HN ES        110 36.15                             144    0.1510 94.5 173 
 RUS  HZ I         110 38.99         1.3 0.44            144           94.5 173 
 PTB  HZ EP        110 21.19                             132   -0.39 9  143 261 
 PTB  HE ES        110 42.20                             132    0.31 9  143 261 
 PTB  HZ I         110 48.23         1.6 0.40            131            143 261 
 SPBC HZ EP        110 23.57                             129    0.69 9  156 219 
 SPBC HN ES        110 43.69                             129   -0.52 9  156 219 
 SPBC HZ I         110 48.34         3.0 0.23            129            156 219 
                                                                                
