 2017  212 0726  6.6 L   6.787 -73.148144.0  RSN  8 0.4 1.6LRSN                1
 GAP= 99        0.94       4.2     3.4  5.5 -0.2885E+00  0.3082E+01  0.1825E+01E
 Epicentro: LOS SANTOS - SANTANDER                                             3
 ACTION:UPD 17-05-24 15:35 OP:jn   STATUS:               ID:20170212072606 L   I
 OLDACT:REG 17-02-12 13:02 OP:and  STATUS:               ID:20170212071745     3
 2017-02-12-0718-00M.COL___331                                                 6
 STAT SP IPHASW D HRMM SECON CODA AMPLIT PERI AZIMU VELO AIN AR TRES W  DIS CAZ7
 BAR2 EZ EP        726 25.90                             171   -0.1010 21.9 190 
 BAR2 EZ ES        726 41.14                             171    0.0210 21.9 190 
 BAR2 EZ I         726 42.12        15.5 0.20            170           21.9 190 
 BRR  HZ EP        726 27.71                             152    0.1210 71.7 300 
 BRR  HN ES        726 44.65                             152    0.6910 71.7 300 
 BRR  HZ I         726 48.59        10.9 0.12            149           71.7 300 
 PAM  EZ EP        726 28.75                             150    0.0410 78.6  39 
 PAM  EN ES        726 45.62                             150   -0.3310 78.6  39 
 PAM  EZ I         726 47.54         4.1 0.19            153           78.6  39 
 RUS  HZ EP        726 30.08                             144   -0.0010 99.1 176 
 RUS  HN ES        726 48.50                             144    0.1110 99.1 176 
 RUS  HZ I         726 49.41         4.4 0.30            147           99.1 176 
 PTB  HZ EP        726 32.87                             132   -0.52 9  147 259 
 PTB  HN ES        726 53.37                             132   -0.90 9  147 259 
 PTB  HZ I         726 59.02         5.7 0.24            131            147 259 
 TAM  HZ IP        726 34.15                             130    0.02 9  155 104 
 ZAR  HZ EP        726 39.18                             122    0.21 9  204 293 
 ZAR  HE ES        727  4.30                             122    0.08 9  204 293 
 ZAR  HZ I         727 12.28         4.6 0.15            122            204 293 
 NOR  HZ EP        726 42.51                             118    0.39 8  234 235 
 NOR  HN ES        727 10.16                             118    0.33 8  234 235 
 NOR  HZ I         727 15.24         2.9 0.16            119            234 235 
                                                                                
