 2016  812 0755 23.4 L   6.808 -73.391126.0  RSN  6 0.4 1.2LRSN                1
 GAP=183        0.66       4.8     4.3  7.1  0.7545E+01 -0.2023E+01  0.8447E+01E
 Epicentro: SAN VICENTE DE CHUCURI - SANTANDER                                 3
 ACTION:UPD 16-10-29 15:34 OP:rebc STATUS:               ID:20160812075523 L   I
 OLDACT:REG 16-08-12 12:54 OP:dani STATUS:               ID:20160812074733     3
 2016-08-12-0748-00M.COL___374                                                 6
 STAT SP IPHASW D HRMM SECON CODA AMPLIT PERI AZIMU VELO AIN AR TRES W  DIS CAZ7
 BAR2 EZ EP        755 40.70                             164   -0.2510 33.1 136 
 BAR2 EZ ES   2    755 53.86                             164   -0.76 5 33.1 136 
 BAR2 EZ I         755 55.11         5.0 0.38                          33.1 136 
 BRR  HZ EP   2    755 40.79                             158   -0.42 5 48.6 313 
 BRR  HN ES        755 55.47                             158    0.3810 48.6 313 
 BRR  HZ I         755 56.07         5.8 0.16                          48.6 313 
 RUS  HZ EP        755 45.88                             138    0.1110  107 161 
 RUS  HN ES        756  3.36                             138    0.1410  107 161 
 RUS  HZ I         756  4.38         1.4 0.18                           107 161 
 PTB  HZ EP   2    755 46.49                             133    0.10 5  122 256 
 PTB  HE ES        756  4.05                             133   -0.2610  122 256 
 PTB  HZ I         756  7.83         1.8 0.14                           122 256 
 SPBC HN ES   2    756  9.43                             127    0.47 5  148 211 
 SPBC HZ I         756 14.12         2.1 0.66                           148 211 
 ZAR  HZ EP   3    755 52.66                             122    0.68 2  179 295 
 ZAR  HN ES   4    756 16.17                             122    1.91 0  179 295 
 ZAR  HZ I         756 20.27         2.0 0.40                           179 295 
                                                                                
