 2013  712 0049 26.4 L   6.788 -73.133152.9  RSN  8 0.3 2.0LRSN                1
 GAP=188        0.77       7.1     6.2  5.6  0.2689E+02  0.7178E+01  0.4101E+01E
 Epicentro: LOS SANTOS - SANTANDER                                             3
 ACTION:UPD 13-08-12 10:37 OP:ep   STATUS:               ID:20130712004926 L   I
 OLDACT:REG 13-07-12 09:20 OP:nd   STATUS:               ID:20130712004750     3
 2013-07-12-0047-50M.COL___216                                                 6
 STAT SP IPHASW D HRMM SECON CODA AMPLIT PERI AZIMU VELO AIN AR TRES W  DIS CAZ7
 BAR2 SZ EP        049 46.67                             171   -0.2110 22.3 194 
 BAR2 SZ ES        050  2.56                             171   -0.2910 22.3 194 
 BAR2 SZ I         050  4.97        12.1 0.10            173           22.3 194 
 GIR2 SZ EP        049 47.04                             167    0.0610 32.8 348 
 GIR2 SZ ES   2    050  2.17                             167   -0.85 5 32.8 348 
 GIR2 SZ I         050  5.31        14.7 0.10            165           32.8 348 
 BRR  HZ EP        049 48.85                             153    0.4110 73.0 299 
 BRR  HN ES        050  6.06                             153    0.4410 73.0 299 
 BRR  HZ I         050  9.69        14.3 0.14            152           73.0 299 
 RUS  HZ EP        049 51.06                             146    0.2910 99.2 177 
 RUS  HN ES   2    050 10.12                             146    0.34 5 99.2 177 
 RUS  HZ I         050 11.65         6.1 0.40            150           99.2 177 
 PTB  HZ EP        049 53.78                             133   -0.29 9  149 259 
 PTB  HN ES   2    050 15.46                             133   -0.18 5  149 259 
 PTB  HZ I         050 17.17        16.9 0.56            135            149 259 
 OCA  HZ EP   4    049 56.11                             131    0.69 0  162 353 
 OCA  HN ES   4    050 17.62                             131   -0.43 0  162 353 
 OCA  HZ I         050 21.10        10.4 0.16            132            162 353 
 ZAR  HZ EP        049 59.19                             124   -0.32 8  206 292 
 ZAR  HE ES        050 25.25                             124   -0.08 8  206 292 
 ZAR  HZ I         050 30.77        19.2 0.28            125            206 292 
 GUY2CHZ EP   4    050 12.89                             114    2.49 0  302 235 
 GUY2CHN ES   4    050 50.18                             114    5.47 0  302 235 
 GUY2CHZ I         050 55.33         5.6 0.68                           302 235 
                                                                                
