 2017  112 0708 35.6 L   6.803 -73.165147.4  RSN 14 0.5 2.0LRSN                1
 GAP= 70        1.12       3.8     3.9  5.7 -0.4966E+00  0.3542E+01  0.3927E+01E
 Epicentro: LOS SANTOS - SANTANDER                                             3
 ACTION:UPD 17-05-22 15:58 OP:jn   STATUS:               ID:20170112070835 L   I
 OLDACT:UP  17-01-12 20:51 OP:dani STATUS:               ID:20170112065742     3
 OLDACT:UP  17-01-12 20:51 OP:dani STATUS:               ID:20170112065742     3
 OLDACT:REG 17-01-12 20:08 OP:and  STATUS:               ID:20170112065742     3
 2017-01-12-0658-00M.COL___334                                                 6
 STAT SP IPHASW D HRMM SECON CODA AMPLIT PERI AZIMU VELO AIN AR TRES W  DIS CAZ7
 BAR2 EZ EP        7 8 55.34                             170   -0.0410 23.4 185 
 BAR2 EZ ES        7 9 10.37                             170   -0.4710 23.4 185 
 BAR2 EZ I         7 9 12.44        22.6 0.30            169           23.4 185 
 BRR  HZ EP        7 8 57.16                             153    0.3910 69.2 299 
 BRR  HE ES        7 9 14.41                             153    1.1010 69.2 299 
 BRR  HZ I         7 9 17.69        13.5 0.21            150           69.2 299 
 PAM  EZ EP        7 8 58.18                             151    0.1810 78.4  41 
 PAM  EN ES        7 9 15.24                             151   -0.2710 78.4  41 
 PAM  EZ I         7 9 17.52        29.5 0.50            155           78.4  41 
 RUS  HZ EP        7 8 59.38                             144   -0.1210  101 175 
 RUS  HE ES        7 9 18.10                             144   -0.0810  101 175 
 RUS  HZ I         7 9 19.11        16.4 0.25            146            101 175 
 PTB  HZ EP        7 9  2.09                             133   -0.38 9  146 259 
 PTB  HN ES        7 9 23.00                             133   -0.47 9  146 259 
 PTB  HZ I         7 9 30.22         8.0 0.21            131            146 259 
 TAM  HZ EP        7 9  3.75                             130    0.20 9  157 105 
 ZAR  HZ EP        7 9  7.85                             123   -0.04 9  202 292 
 ZAR  HN ES        7 9 32.61                             123   -0.50 9  202 292 
 ZAR  HZ I         7 9 42.18         8.1 0.25            122            202 292 
 NOR  HZ EP        7 9 11.39                             119    0.17 8  233 234 
 NOR  HE ES        7 9 39.69                             119    0.65 8  233 234 
 NOR  HZ I         7 9 44.02         7.9 0.30            119            233 234 
 CHI  HZ EP        7 9 13.21                             117   -0.11 8  248 195 
 CHI  HN ES        7 9 42.46                             117   -0.32 8  248 195 
 CHI  HZ I         7 9 46.34         6.4 0.48            119            248 195 
 ROSC BZ EP        7 9 14.50                             117    0.82 8  252 211 
 ROSC BN ES   1    7 9 42.90                             117   -0.52 6  252 211 
 ROSC BZ I         7 9 49.84        10.2 0.28            118            252 211 
 URE  HZ EP        7 9 15.97                             114   -0.50 7  282 292 
 URE  HE ES   4    7 9 46.21                             114   -2.17 0  282 292 
 URE  HZ I         7 9 56.49         5.8 0.14            114            282 292 
 GUY2CHZ EP   9    7 9 20.30                             113    1.23 0  300 234 
 GUY2CHE ES        7 9 54.85                             113    0.61 7  300 234 
 GUY2CHZ I         710  1.65         5.3 0.28                           300 234 
 LL6C HZ EP   9    7 9  1.36                             111   -19.9 0  324 358 
 LL6C HE ES        7 9 36.20                                   -0.82 7  324 358 
 SJC  HZ EP   3    7 9 29.55                             106   -1.45 1  408 327 
                                                                                
