 2012  312 0552  3.1 L   6.690 -73.216146.5  RSN  4 0.1 1.0LRSN                1
 GAP=220        0.40       4.3     4.3  5.3  0.1209E+02  0.4188E+00 -0.1172E+01E
 ACTION:UP  12-03-31 23:19 OP:EP   STATUS:               ID:20120312055203 L   I
 2012-03-12-0550-00M.COL___193                                                 6
 STAT SP IPHASW D HRMM SECON CODA AMPLIT PERI AZIMU VELO SNR AR TRES W  DIS CAZ7
 BRR  HZ EP   1    552 24.15                             152    -0.2 7   72 310 
 BRR  HN ES   1    552 41.07                             152     0.1 7   72 310 
 BRR  HZ I         552 46.93         4.1 0.08                            72 310 
 RUS  HZ EP   1    552 26.36                             147     0.2 7   89 171 
 RUS  HN ES   1    552 44.09                             147    -0.1 7   89 171 
 RUS  HZ I         552 46.15         1.0 0.19                            89 171 
 PTB  HZ EP   1    552 29.35                             134     0.0 7  138 263 
 PTB  HN ES   1    552 49.66                             134    -0.1 7  138 263 
 PTB  HZ I         552 56.23         1.2 0.13                           138 263 
 ZAR  HN ES   1    553  0.65                             123     0.1 6  202 296 
                                                                                
