 2014 1012 0707 49.1 L   6.862 -73.172150.0  RSN  6 0.4 1.6LRSN                1
 GAP=113        1.04       5.0     6.4 10.2 -0.1982E+00 -0.2671E+02  0.3166E+01E
 Epicentro: ZAPATOCA - SANTANDER                                               3
 ACTION:UPD 14-11-29 23:49 OP:nd   STATUS:               ID:20141012070749 L   I
 OLDACT:REG 14-10-12 13:51 OP:stll STATUS:               ID:20141012065742     3
 2014-10-12-0657-42M.COL___284                                                 6
 STAT SP IPHASW D HRMM SECON CODA AMPLIT PERI AZIMU VELO AIN AR TRES W  DIS CAZ7
 BAR2 SZ EP        7 8  9.18                             168   -0.2210 29.8 182 
 BRR  HZ EP        7 8 10.81                             155    0.3910 65.6 294 
 BRR  HN ES        7 8 27.64                             155    0.6010 65.6 294 
 BRR  HZ I         7 8 31.67         5.7 0.12            155           65.6 294 
 PTB  HZ EP        7 8 16.20                             133   -0.11 9  146 256 
 PTB  HN ES        7 8 37.04                             133   -0.49 9  146 256 
 PTB  HZ I         7 8 41.18         2.9 0.44            136            146 256 
 OCA  HN ES        7 8 38.19                             132   -0.75 9  153 354 
 OCA  HZ I         7 8 42.01         3.3 0.10            134            153 354 
 TAM  HZ EP        7 8 17.63                             131    0.08 9  160 107 
 SML  HZ EP        7 8 25.34                             119    0.15 8  236 335 
 SML  HN ES        7 8 53.69                             119    0.36 8  236 335 
 SML  HZ I         7 8 57.59         6.9 0.10            121            236 335 
                                                                                
