 2014  812 0656 51.1 L   6.555 -73.522110.9  RSN 18 0.4 2.5LRSN                1
 GAP= 63        0.94       2.1     3.0  4.9 -0.5247E+00  0.7451E+01  0.8799E+00E
 Epicentro: EL CARMEN - SANTANDER                                              3
 ACTION:UPD 14-09-15 21:49 OP:nd   STATUS:               ID:20140812065651 L   I
 OLDACT:UP  14-08-12 15:05 OP:cam  STATUS:               ID:20140812065000     3
 OLDACT:UP  14-08-12 15:05 OP:cam  STATUS:               ID:20140812065000     3
 OLDACT:REG 14-08-12 12:34 OP:cam  STATUS:               ID:20140812065000     3
 2014-08-12-0650-00M.COL___285                                                 6
 STAT SP IPHASW D HRMM SECON CODA AMPLIT PERI AZIMU VELO AIN AR TRES W  DIS CAZ7
 BAR2 SZ IP     C  657  7.07                             160    0.0610 37.8  84 
 BAR2 SZ ES        657 19.16                             160   -0.2910 37.8  84 
 BAR2 SZ I         657 21.29       191.0 0.38            161           37.8  84 
 BRR  HZ EP        657  7.81                             147   -0.3110 64.6 341 
 BRR  HE ES        657 21.84                             147    0.4210 64.6 341 
 BRR  HZ I         657 28.16        58.9 0.18            142           64.6 341 
 RUS  HZ EP        657 10.20                             139   -0.3110 87.8 146 
 RUS  HE ES        657 26.04                             139    0.3610 87.8 146 
 PTB  HZ IP   4 C  657 10.01                             134   -1.16 0  103 269 
 PTB  HN ES   4    657 24.99                             134   -1.86 0  103 269 
 PTB  HZ I         657 26.27        92.0 0.22            129            103 269 
 SPBC HZ I         657 26.34        54.1 0.24            127            117 211 
 SPBC HN ES        657 28.75                             130   -0.4710  117 211 
 PAM  SZ EP        657 14.07                             128    0.2110  126  46 
 PAM  SN ES        657 31.58                             128   -0.0710  126  46 
 PAM  SZ I         657 32.48        32.8 0.38            126            126  46 
 ZAR  HZ EP        657 19.25                             117    0.36 9  180 305 
 ZAR  HN ES        657 40.92                             117    0.32 9  180 305 
 ZAR  HZ I         657 43.57        32.6 0.36            114            180 305 
 ROSC BZ EP   4    657 22.21                             113   -0.36 0  209 205 
 ROSC BN ES   4    657 48.98                             113    1.83 0  209 205 
 ROSC BZ I         657 53.61        18.3 0.50            111            209 205 
 CHI  HZ EP        657 22.59                             112   -0.56 8  214 186 
 CHI  HN ES        657 48.58                             112    0.40 8  214 186 
 HEL  HZ EP        657 24.39                             111   -0.01 8  226 260 
 HEL  HN ES        657 50.04                             111   -0.37 8  226 260 
 HEL  HZ I         657 54.15        18.4 0.40            109            226 260 
 GUY2CHZ EP        657 28.07                             109    0.56 8  252 234 
 GUY2CHN ES        657 55.65                             109   -0.29 8  252 234 
 GUY2CHZ I         658  2.75        15.7 0.58                           252 234 
 SML  HZ EP        657 26.90                             108   -0.49 8  256 346 
 SML  HE ES        657 56.08                             108    0.36 8  256 346 
 SML  HZ I         658  0.99        45.6 0.10            107            256 346 
 URE  HZ EP        657 26.85                             108   -0.89 8  259 301 
 URE  HN ES   4    657 54.52                             108   -1.83 0  259 301 
 URE  HZ I         657 57.19        26.0 0.12            106            259 301 
 CBOC HZ EP   1    657 31.66                             106    0.51 6  286 255 
 TOL  SZ EP        657 31.99                             105   -0.44 7  295 223 
 TOL  SZ ES   4    658  4.32                             105   -0.37 0  295 223 
 TOL  SZ I         658 13.89        18.6 0.56            105            295 223 
 DBB  SZ EP        657 32.95                             104    0.09 7  302 280 
 DBB  SZ I         658  9.17        19.8 0.20            104            302 280 
 PRA  HZ EP        657 38.38                             102   -0.03 6  349 206 
 PRA  HE ES        658 16.22                             102    0.88 6  349 206 
 PRA  HZ I         658 20.39         8.6 0.24            102            349 206 
 ORTC HZ EP        657 39.22                             102    0.72 6  349 213 
 ORTC HN ES        658 15.65                             102    0.14 6  349 213 
 ORTC HZ I         658 22.11         6.3 0.44            102            349 213 
 ARGC HZ EP   4    657 41.27                             100   -0.12 0  374 348 
                                                                                
