 2012  812 0801 58.5 L   6.728 -73.210150.4  RSN  4 0.2 1.3LRSN                1
 GAP=221        0.46       4.9     5.3  7.2  0.1386E+02 -0.1339E+02 -0.8608E+01E
 Epicentro: VILLANUEVA - SANTANDER                                             3
 ACTION:UPD 12-09-10 11:56 OP:ep   STATUS:               ID:20120812080158 L   I
 2012-08-12-0800-00M.COL___218                                                 6
 STAT SP IPHASW D HRMM SECON CODA AMPLIT PERI AZIMU VELO AIN AR TRES W  DIS CAZ7
 BAR2 SZ EP   1    8 2 18.91                             174    0.39 7 15.4 168 
 BAR2 SZ I         8 2 36.03         6.4 0.32                          15.4 168 
 BRR  HZ EP        8 2 19.95                             154   -0.0710 69.5 307 
 BRR  HN ES   1    8 2 36.74                             154   -0.10 7 69.5 307 
 BRR  HZ I         8 2 40.62         3.7 0.21                          69.5 307 
 RUS  HZ EP   1    8 2 21.97                             147   -0.22 7 93.5 171 
 RUS  HE ES   1    8 2 40.67                             147   -0.02 7 93.5 171 
 RUS  HZ I         8 2 43.28         2.0 0.51                          93.5 171 
 PTB  HE ES   1    8 2 45.92                             135    0.09 7  139 261 
                                                                                
