 2016  312 0501 54.0 L   7.100 -73.172  2.0  RSN  5 0.3 1.3LRSN                1
 GAP=140        0.65       2.0     1.7  3.7 -0.9805E+00  0.1639E+01  0.5237E+00E
 Epicentro: GIRON - SANTANDER                                                  3
 ACTION:UPD 16-05-13 21:23 OP:cam  STATUS:               ID:20160312050154 L   I
 OLDACT:REG 16-03-12 13:35 OP:ar   STATUS:               ID:20160312045751     3
 2016-03-12-0457-51M.COL___307                                                 6
 STAT SP IPHASW D HRMM SECON CODA AMPLIT PERI AZIMU VELO AIN AR TRES W  DIS CAZ7
 PAM  EZ EP        5 2  4.56                              47    0.2810 58.5  63 
 PAM  EN ES        5 2 12.02                              47   -0.2510 58.5  63 
 PAM  EZ I         5 2 12.67        20.9 0.40             47           58.5  63 
 RUS  HZ EP        5 2 15.78                              47    0.0710  134 176 
 RUS  HN ES        5 2 32.67                              47    0.0510  134 176 
 RUS  HZ I         5 2 32.91         2.5 0.62             47            134 176 
 PTB  HN ES        5 2 37.04                              47   -0.37 9  155 246 
 SPBC HZ EP   9    5 2 24.71                              37    1.41 0  189 212 
 SPBC HN ES        5 2 47.72                                    0.18 9  189 212 
 SPBC HZ I         5 2 53.56         2.3 0.24             37            189 212 
 ZAR  HZ EP        5 2 23.35                              37   -0.17 9  191 283 
 ZAR  HN ES        5 2 46.93                              37    0.40 9  191 283 
 ZAR  HZ I         5 2 47.82         4.1 0.26             37            191 283 
                                                                                
