 2016  712 0745  1.1 L   6.763 -73.161149.0  RSN  6 0.5 1.6LRSN                1
 GAP=233        1.15       6.4     6.8  8.3  0.1743E+02  0.9266E+01  0.1952E+01E
 Epicentro: LOS SANTOS - SANTANDER                                             3
 ACTION:UPD 17-03-29 16:49 OP:lp   STATUS:               ID:20160712073701dL   I
 OLDACT:UPD 16-07-12 17:14 OP:dnl  STATUS:               ID:20160712073760 L   3
 2016-07-12-0737-59S.COL___313                                                 6
 STAT SP IPHASW D HRMM SECON CODA AMPLIT PERI AZIMU VELO AIN AR TRES W  DIS CAZ7
 BAR2 EZ EP        745 20.84                             172   -0.2010 19.1 187 
 BAR2 EZ ES        745 36.02                             172   -0.5810 19.1 187 
 BAR2 EZ I         745 37.60         5.7 0.28            166           19.1 187 
 BRR  HZ EP        745 22.79                             153    0.1610 71.8 302 
 BRR  HN ES        745 40.20                             153    0.7710 71.8 302 
 BRR  HZ I         745 45.02         6.2 0.20            149           71.8 302 
 RUS  HZ EP        745 25.01                             146    0.1210 96.7 175 
 RUS  HN ES        745 43.53                             146    0.0710 96.7 175 
 RUS  HZ I         745 44.49         2.9 0.26            146           96.7 175 
 PTB  HZ EP        745 27.59                             133   -0.53 9  145 260 
 PTB  HN ES        745 48.39                             133   -0.81 9  145 260 
 PTB  HZ I         745 56.45         4.7 0.48            131            145 260 
 SPBC HZ EP        745 29.82                             131    0.36 9  159 219 
 SPBC HN ES        745 52.10                             131    0.52 9  159 219 
 SPBC HZ I         745 58.91         9.0 0.26            129            159 219 
 ZAR  HZ EP   2    745 33.52                             123   -0.24 4  204 293 
 ZAR  HE ES        745 59.41                             123    0.17 9  204 293 
 ZAR  HZ I         746  4.54         5.7 0.32            123            204 293 
                                                                                
