 2016  712 0758 56.5 L   6.818 -73.149148.0  RSN  6 0.3 1.7LRSN                1
 GAP=244        0.71       5.0     4.3  5.5  0.8856E+01  0.5348E+01 -0.3028E+01E
 Epicentro: LOS SANTOS - SANTANDER                                             3
 ACTION:UPD 17-03-29 16:49 OP:lp   STATUS:               ID:20160712075856 L   I
 OLDACT:REG 16-07-12 12:53 OP:y    STATUS:               ID:20160712075759     3
 2016-07-12-0757-59S.COL___313                                                 6
 STAT SP IPHASW D HRMM SECON CODA AMPLIT PERI AZIMU VELO AIN AR TRES W  DIS CAZ7
 BAR2 EZ EP        759 16.46                             170    0.0110 25.2 188 
 BAR2 EZ ES        759 32.39                             170    0.3810 25.2 188 
 BAR2 EZ I         759 33.02         7.5 0.20            165           25.2 188 
 RUS  HZ EP        759 20.35                             144   -0.2810  103 176 
 RUS  HN ES        759 39.23                             144   -0.2110  103 176 
 RUS  HZ I         759 40.47         3.1 0.30            143            103 176 
 PTB  HZ EP        759 23.42                             133   -0.25 9  148 258 
 PTB  HN ES        759 44.39                             133   -0.46 9  148 258 
 PTB  HZ I         759 47.78         4.5 0.18            130            148 258 
 SPBC HZ EP        759 25.38                             129    0.07 9  165 218 
 SPBC HN ES        759 48.16                             129    0.39 9  165 218 
 SPBC HZ I         759 52.66         8.8 0.17            127            165 218 
 ZAR  HZ EP   2    759 29.24                             123    0.24 4  203 292 
 ZAR  HE ES        759 54.41                             123    0.07 9  203 292 
 ZAR  HZ I         8 0  0.81         4.8 0.28            122            203 292 
 CBOC HZ EP        759 44.10                             110    0.54 7  334 252 
 CBOC HN ES   3    8 0 20.32                             110    0.07 2  334 252 
 CBOC HZ I         8 0 28.21         4.6 1.00            110            334 252 
                                                                                
