 2010  612 0722 55.3 L   6.889 -73.287114.2  RSN  6 0.3 1.3LRSN                1
 GAP=190        0.92       6.2    21.7 12.0  0.1999E+02 -0.5313E+02 -0.4245E+02E
 Epicentro: BETULIA - SANTANDER                                                3
 ACTION:UP  10-08-24 10:09 OP:vdl  STATUS:               ID:20100612072255 L   I
 2010-06-12-0720-44S.COL___117                                                 6
 STAT SP IPHASW D HRMM SECON CODA AMPLIT PERI AZIMU VELO SNR AR TRES W  DIS CAZ7
 BAR2 SZ EP        723 11.78                             162     0.210   35 161 
 BAR2 SZ ES   1    723 23.95                             162    -0.3 7   35 161 
 BRI  SZ EP        723 16.76                             134     0.510  106  31 
 GUE  SZ EP        723 16.81                             133    -0.110  112  21 
 RUS  HZ EP   2    723 17.29                             132     0.1 5  112 168 
 RUS  HZ I         723 28.97         2.4 0.53                           112 168 
 GRA  SZ EP        723 17.08                             129    -0.610  122  26 
 OCA  SZ EP        723 20.09                             123    -0.2 9  149 359 
 OCA  SZ ES   1    723 40.00                             123     0.3 7  149 359 
 OCA  SZ I         723 41.25         5.2 0.22                           149 359 
                                                                                
