 2011  612 0421 10.9 L   6.262 -73.761101.4  RSN  8 0.4 2.0LRSN                1
 GAP= 85        0.87       3.5     4.8  9.7 -0.6168E+01  0.1875E+02 -0.5207E+01E
 Epicentro: LANDAZURI - SANTANDER                                              3
 ACTION:UP  11-07-14 19:04 OP:ep   STATUS:               ID:20110612042111 L   I
 2011-06-12-0420-00M.COL___122                                                 6
 STAT SP IPHASW D HRMM SECON CODA AMPLIT PERI AZIMU VELO SNR AR TRES W  DIS CAZ7
 BAR2 SZ EP   1    421 28.02                             141     0.0 7   74  60 
 BAR2 SZ ES   1    421 40.86                             141    -0.5 7   74  60 
 BAR2 SZ I         421 42.70       103.1 0.34                            74  60 
 RUS  HZ EP        421 29.09                             137    -0.210   85 119 
 RUS  HZ I         421 29.56        12.1 0.21                            85 119 
 BRR  HZ IP     C  421 29.33                             133     0.010   94   3 
 BRR  HN ES   1    421 43.93                             133     0.2 7   94   3 
 BRR  HZ I         421 44.84        25.8 0.11                            94   3 
 NOR  SZ EP        421 34.62                             120     0.2 9  145 238 
 NOR  SN ES   1    421 52.77                             120     0.0 7  145 238 
 CHI  HN ES   2    422  1.25                             114     0.7 4  181 179 
 CHI  HZ I         422  9.92         5.4 0.47                           181 179 
 GRA  SZ ES   1    422  5.34                             110    -0.2 6  208  30 
 OCA  SZ EP   1    421 43.99                             108     0.6 6  224  13 
 OCA  SZ ES   1    422  9.36                             108     0.6 6  224  13 
 OCA  SZ I         422 15.36         7.6 0.24                           224  13 
 MON  HZ EP   1    421 57.03                              98    -1.0 5  349 323 
 MON  HE ES   1    422 34.12                              98    -0.6 5  349 323 
                                                                                
