 2012  812 0851 15.8 L   6.750 -73.117137.0  RSN  4 0.3 1.5LRSN                1
 GAP=142        0.72       4.5     6.7  7.0 -0.3477E+00 -0.3304E+01  0.2332E+00E
 Epicentro: LOS SANTOS - SANTANDER                                             3
 ACTION:UPD 12-09-10 11:56 OP:ep   STATUS:               ID:20120812085115 L   I
 2012-08-12-0850-00M.COL___218                                                 6
 STAT SP IPHASW D HRMM SECON CODA AMPLIT PERI AZIMU VELO AIN AR TRES W  DIS CAZ7
 BAR2 SZ ES   1    851 48.41                             172   -0.31 7 18.8 202 
 BAR2 SZ I         851 50.41        16.1 0.36                          18.8 202 
 BRR  HZ EP        851 36.02                             149   -0.3410 76.7 301 
 BRR  HZ I         851 36.23         9.3 0.16                          76.7 301 
 BRR  HN ES   1    851 52.77                             149    0.39 7 76.7 301 
 PAM  SZ EP        851 37.14                             148   -0.1210 79.9  35 
 PAM  SN ES   1    851 54.21                             148    0.21 7 79.9  35 
 PAM  SZ I         851 56.25         5.4 0.63                          79.9  35 
 RUS  HZ EP        851 38.69                             143    0.4010 94.8 178 
 RUS  HZ I         851 39.52         2.1 0.17                          94.8 178 
 RUS  HN ES   1    851 55.63                             143   -0.19 7 94.8 178 
                                                                                
