 2017  212 0348 37.6 L   6.796 -73.148150.0  RSN  7 0.4 1.4LRSN                1
 GAP=136        0.83       4.2     4.2  5.7  0.2118E+01  0.7234E+01  0.3324E+01E
 Epicentro: LOS SANTOS - SANTANDER                                             3
 ACTION:UPD 17-05-24 15:35 OP:jn   STATUS:               ID:20170212034837 L   I
 OLDACT:UP  17-02-12 16:38 OP:and  STATUS:               ID:20170212034747     3
 OLDACT:UP  17-02-12 16:38 OP:and  STATUS:               ID:20170212034747     3
 OLDACT:UP  17-02-12 16:38 OP:and  STATUS:               ID:20170212034747     3
 OLDACT:REG 17-02-12 12:42 OP:and  STATUS:               ID:20170212034747     3
 2017-02-12-0348-00M.COL___352                                                 6
 STAT SP IPHASW D HRMM SECON CODA AMPLIT PERI AZIMU VELO AIN AR TRES W  DIS CAZ7
 BAR2 EZ EP        348 57.63                             171   -0.1210 22.9 189 
 BAR2 EZ ES        349 13.45                             171   -0.0010 22.9 189 
 BAR2 EZ I         349 14.09         7.5 0.24            170           22.9 189 
 BRR  HZ EP        348 59.52                             153    0.3010 71.1 299 
 BRR  HN ES        349 16.70                             153    0.6310 71.1 299 
 PAM  EZ IP     C  349  0.61                             151    0.3010 77.9  40 
 PAM  EN ES        349 17.62                             151   -0.3910 77.9  40 
 PAM  EZ I         349 22.18         2.7 0.66            155           77.9  40 
 RUS  HZ EP        349  1.59                             145   -0.1710  100 176 
 RUS  HN ES        349 20.57                             145   -0.0210  100 176 
 RUS  HZ I         349 21.26         2.2 0.30            146            100 176 
 PTB  HZ EP        349  4.70                             133   -0.20 9  147 259 
 PTB  HN ES   2    349 25.61                             133   -0.58 5  147 259 
 PTB  HZ I         349 31.44         3.4 0.09            133            147 259 
 ZAR  HN ES        349 35.28                             123   -0.57 9  204 292 
 NOR  HZ EP        349 13.78                             119    0.23 8  234 235 
 NOR  HN ES   3    349 42.75                             119    1.18 2  234 235 
 NOR  HZ I         349 47.89         2.4 0.30            120            234 235 
                                                                                
