 2017  312 0609 37.8 L   6.757 -73.524106.9  RSN  5 0.4 0.9LRSN                1
 GAP=144        1.10       6.4     5.5  8.2  0.2103E+02  0.1564E+02  0.9456E+01E
 Epicentro: EL CARMEN - SANTANDER                                              3
 ACTION:UPD 17-05-25 18:39 OP:jn   STATUS:               ID:20170312060937 L   I
 OLDACT:REG 17-03-12 13:14 OP:ar   STATUS:               ID:20170312060742     3
 2017-03-12-0608-00M.COL___391                                                 6
 STAT SP IPHASW D HRMM SECON CODA AMPLIT PERI AZIMU VELO AIN AR TRES W  DIS CAZ7
 BAR2 EZ EP        6 9 53.35                             157   -0.1010 41.9 116 
 BAR2 EZ ES        610  5.66                             157   -0.0210 41.9 116 
 BRR  HZ EP        6 9 52.64                             156   -0.5610 44.0 332 
 BRR  HN ES        610  5.24                             156    0.0010 44.0 332 
 PTB  HZ EP        6 9 57.23                             132   -0.5310  106 257 
 PTB  HE ES        610 13.06                             132   -0.3010  106 257 
 PTB  HZ I         610 13.73         1.9 0.10            132            106 257 
 RUS  HZ EP        6 9 58.73                             132    0.1910  107 153 
 RUS  HN ES        610 15.20                             132    0.4610  107 153 
 RUS  HZ I         610 16.25         1.6 0.20            131            107 153 
 ZAR  HZ EP        610  4.20                             117    0.13 9  168 299 
 ZAR  HN ES        610 25.52                             117    0.94 9  168 299 
                                                                                
