 2016 1212 0027  5.7 L   6.313 -73.533121.2  RSN  6 0.1 1.2LRSN                1
 GAP=108        0.35       1.7     2.3  3.6  0.2485E+00  0.5213E+01  0.1727E+01E
 Epicentro: CONTRATACION - SANTANDER                                           3
 ACTION:UPD 17-01-11 20:14 OP:rebc STATUS:               ID:20161212002705 L   I
 OLDACT:UP  16-12-12 15:43 OP:edw  STATUS:               ID:20161212001747     3
 OLDACT:UP  16-12-12 15:43 OP:edw  STATUS:               ID:20161212001747     3
 OLDACT:REG 16-12-12 11:38 OP:edw  STATUS:               ID:20161212001747     3
 2016-12-12-0018-00M.COL___386                                                 6
 STAT SP IPHASW D HRMM SECON CODA AMPLIT PERI AZIMU VELO AIN AR TRES W  DIS CAZ7
 BAR2 EZ EP        027 23.31                             156   -0.0210 49.6  51 
 BAR2 EZ ES        027 37.18                             156    0.0810 49.6  51 
 BAR2 EZ I         027 38.66        11.9 0.34            151           49.6  51 
 RUS  HZ EP        027 24.88                             149    0.1410 68.1 133 
 RUS  HN ES        027 39.52                             149   -0.0810 68.1 133 
 RUS  HZ I         027 40.84         3.2 0.44            144           68.1 133 
 BRR  HZ EP        027 25.41                             141   -0.1710 90.0 347 
 BRR  HN ES        027 41.12                             141    0.0210 90.0 347 
 PTB  HZ EP   4    027 24.50                             136   -2.32 0  105 284 
 PTB  HN ES   4    027 39.43                             136   -3.88 0  105 284 
 PTB  HZ I         027 40.00         1.8 0.10            137            105 284 
 CHI  HN ES   2    027 58.24                             119   -0.30 4  187 187 
 GUY2CHZ EP        027 40.88                             113    0.10 8  236 239 
 GUY2CHN ES        028  8.17                             113    0.02 8  236 239 
 GUY2CHZ I         028 11.70         1.0 0.24                           236 239 
                                                                                
