 2016  612 0830 21.9 L   6.804 -73.170139.7  RSN 15 0.4 2.1LRSN                1
 GAP= 70        0.91       2.6     3.2  4.9 -0.3104E+01  0.5346E+01 -0.1093E+01E
 Epicentro: LOS SANTOS - SANTANDER                                             3
 ACTION:UPD 16-07-21 22:18 OP:rebc STATUS:               ID:20160612083021 L   I
 OLDACT:UP  16-06-12 18:14 OP:dani STATUS:               ID:20160612082743     3
 OLDACT:UP  16-06-12 18:13 OP:dani STATUS:               ID:20160612082743     3
 OLDACT:REG 16-06-12 13:42 OP:dani STATUS:               ID:20160612082743     3
 2016-06-12-0827-43M.COL___319                                                 6
 STAT SP IPHASW D HRMM SECON CODA AMPLIT PERI AZIMU VELO AIN AR TRES W  DIS CAZ7
 BAR2 EZ EP        830 40.83                             170    0.0210 23.5 183 
 BAR2 EZ ES        830 55.22                             170   -0.3310 23.5 183 
 BAR2 EZ I         830 57.11        45.7 0.16                          23.5 183 
 BRR  HZ EP        830 42.73                             152    0.4810 68.6 299 
 BRR  HN ES   4    831  0.01                             152    1.89 0 68.6 299 
 BRR  HZ I         831  2.92        27.0 0.32                          68.6 299 
 PAM  EZ EP        830 43.70                             149    0.1410 78.8  41 
 PAM  EE ES        831  0.89                             149    0.4410 78.8  41 
 PAM  EZ I         831  2.92        22.4 0.58                          78.8  41 
 RUS  HZ EP        830 44.72                             142   -0.4010  101 175 
 RUS  HN ES        831  3.51                             142    0.2910  101 175 
 RUS  HZ I         831  4.24        15.6 0.24                           101 175 
 PTB  HZ EP        830 47.53                             131   -0.62 9  145 258 
 PTB  HE ES        831  8.57                             131   -0.05 9  145 258 
 PTB  HZ I         831 16.02        17.0 0.32                           145 258 
 TAM  HZ EP        830 49.04                             129   -0.33 9  158 105 
 OCA  HZ EP        830 49.45                             128   -0.23 9  160 354 
 OCA  HN ES        831 11.13                             128   -0.21 9  160 354 
 OCA  HZ I         831 14.31        29.1 0.18                           160 354 
 SPBC HZ EP        830 49.79                             128   -0.03 9  162 218 
 SPBC HN ES        831 11.58                             128   -0.01 9  162 218 
 SPBC HZ I         831 17.79        22.8 0.20                           162 218 
 NOR  HZ EP        830 57.11                             117    0.02 8  233 234 
 NOR  HE ES        831 24.12                             117   -0.40 8  233 234 
 NOR  HZ I         831 28.44         9.3 0.16                           233 234 
 HEL  HZ EP        831  2.50                             114    0.96 8  270 256 
 HEL  HE ES        831 32.38                             114   -0.08 8  270 256 
 HEL  HZ I         831 40.21         7.0 0.26                           270 256 
 GUY2CHZ EP   4    831  6.80                             111    1.77 0  299 234 
 GUY2CHN ES        831 39.68                             111    1.02 7  299 234 
 GUY2CHZ I         831 48.78         4.2 0.46                           299 234 
 CBOC HZ EP   4    831  9.50                             109    1.20 0  331 252 
 CBOC HE ES        831 43.92                             109   -0.57 7  331 252 
 CBOC HZ I         831 56.24         2.4 0.46                           331 252 
 ARGC HZ EP        831 11.34                             107    0.15 6  358 341 
 ARGC HN ES        831 49.68                             107    0.06 6  358 341 
 ARGC HZ I         832  1.67         1.9 0.32                           358 341 
 PRA  HZ EP        831 14.73                             105   -0.39 6  391 209 
 PRA  HE ES        831 56.78                             105    0.16 6  391 209 
 PRA  HZ I         832  1.46         4.5 0.36                           391 209 
 ORTC HZ EP        831 15.81                             105    0.32 6  394 216 
 ORTC HE ES   4    831 59.03                             105    1.75 0  394 216 
 ORTC HZ I         832  4.81         2.9 0.46                           394 216 
 SJC  HZ EP   4    831 15.22                             105   -1.84 0  407 327 
 SJC  HN ES   4    831 56.61                             105   -3.47 0  407 327 
                                                                                
