 2013  612 0037  3.3 L   5.834 -73.758118.1  RSN  6 0.4 1.8LRSN                1
 GAP=123        0.86       4.0     4.6  9.3  0.3695E+01  0.1594E+02  0.1161E+02E
 Epicentro: JESUS MARIA - SANTANDER                                            3
 ACTION:UPD 14-01-08 09:54 OP:ep   STATUS:               ID:20130612003703 L   I
 OLDACT:REG 13-06-12 07:32 OP:mh   STATUS:               ID:20130612002959     3
 2013-06-12-0029-59M.COL___260                                                 6
 STAT SP IPHASW D HRMM SECON CODA AMPLIT PERI AZIMU VELO AIN AR TRES W  DIS CAZ7
 RUS  HZ EP        037 22.36                             145   -0.0910 75.0  85 
 RUS  HN ES        037 37.28                             145   -0.1310 75.0  85 
 RUS  HN I         037 38.37         7.6 0.16            123           75.0  85 
 BAR2 SZ EP   1    037 24.38                             135   -0.06 7  105  37 
 BAR2 SZ I         037 42.64        10.6 0.32            115            105  37 
 PTB  HZ IP        037 24.02                             134   -0.5210  110 315 
 PTB  HZ EP        037 24.02                             134            110 315 
 PTB  HN ES        037 40.92                             134   -0.2110  110 315 
 PTB  HN I         037 42.29         7.8 0.36            117            110 315 
 BRR  HZ EP   1    037 27.57                             126    0.16 7  141   2 
 BRR  HN ES        037 46.98                             126    0.73 9  141   2 
 BRR  HN I         037 49.26        22.7 0.24            109            141   2 
 PRA  HZ EP   1    037 41.52                             109    0.43 6  266 208 
 PRA  HN ES   1    038 11.10                             109    0.51 6  266 208 
 PRA  HN I         038 17.35         2.4 0.30             99            266 208 
 SML  HN ES   2    038 23.15                             104   -0.67 3  330 354 
 SML  HN I         038 26.81         7.0 0.30             97            330 354 
                                                                                
