 2016  212 0925 11.5 L   6.487 -73.549114.0  RSN  5 0.4 1.2LRSN                1
 GAP=126        1.01       5.3     4.6  9.5  0.4750E+01  0.1670E+02 -0.1445E+02E
 Epicentro: SANTA HELENA DEL OPON - SANTANDER                                  3
 ACTION:UPD 16-03-04 21:25 OP:rebc STATUS:               ID:20160212092511 L   I
 OLDACT:UP  16-02-12 19:21 OP:ak   STATUS:               ID:20160212091746     3
 OLDACT:UP  16-02-12 19:20 OP:ak   STATUS:               ID:20160212091746     3
 OLDACT:REG 16-02-12 16:21 OP:ak   STATUS:               ID:20160212091746     3
 2016-02-12-0917-46M.COL___283                                                 6
 STAT SP IPHASW D HRMM SECON CODA AMPLIT PERI AZIMU VELO AIN AR TRES W  DIS CAZ7
 BAR2 EZ EP        925 27.97                             159   -0.0110 42.2  74 
 BAR2 EZ ES        925 41.11                             159    0.2610 42.2  74 
 BAR2 EZ I         925 42.95         4.0 0.21            164           42.2  74 
 RUS  HZ EP   2    925 31.00                             142    0.10 5 83.6 142 
 RUS  HN ES        925 45.78                             142   -0.2610 83.6 142 
 RUS  HZ I         925 46.79         1.7 0.28            149           83.6 142 
 PTB  HZ IP        925 30.79                             136   -0.8210  100 273 
 PTB  HE ES        925 47.02                             136   -0.2810  100 273 
 PTB  HZ I         925 50.17         4.8 0.14            137            100 273 
 SPBC HZ EP   2    925 33.21                             134    0.76 5  109 212 
 SPBC HN ES        925 49.27                             134    0.4610  109 212 
 SPBC HZ I         925 52.41         3.5 0.20            137            109 212 
 ZAR  HZ EP        925 39.81                             118    0.11 9  182 308 
 ZAR  HN ES        926  2.19                             118    0.48 9  182 308 
 ZAR  HZ I         926  8.75         3.9 0.26            120            182 308 
                                                                                
