 2011  912 0838 28.8 L   6.699 -73.384124.5  RSN  8 0.2 1.8LRSN                1
 GAP= 91        0.42       2.2     2.9  3.6  0.1143E+00  0.3672E+01  0.8130E-01E
 Epicentro: EL CARMEN DE CHUCURI - SANTANDER                                   3
 ACTION:UPD 12-07-13 15:57 OP:ep   STATUS:               ID:20110912083828 L   I
 2011-09-12-0835-08S.COL___168                                                 6
 STAT SP IPHASW D HRMM SECON CODA AMPLIT PERI AZIMU VELO AIN AR TRES W  DIS CAZ7
 BAR2 SZ EP   1    838 45.96                             168    0.09 7 25.2 118 
 BAR2 SZ ES   1    838 58.98                             168   -0.25 7 25.2 118 
 BAR2 SZ I         839  0.42        39.2 0.41                          25.2 118 
 GIR2 SZ EP   1    838 46.59                             158    0.08 7 47.0  27 
 GIR2 SZ ES   1    839  0.44                             158    0.08 7 47.0  27 
 BRR  HZ EP   1    838 46.75                             153   -0.10 7 57.9 321 
 BRR  HN ES   1    839  1.29                             153    0.33 7 57.9 321 
 BRR  HZ I         839  2.77        26.1 0.28                          57.9 321 
 RUS  HZ EP   1    838 50.06                             140    0.01 7 95.2 160 
 RUS  HZ I         838 50.92         4.3 0.33                          95.2 160 
 RUS  HN ES   2    839  6.67                             140    0.01 5 95.2 160 
 OCA  SZ EP   1    838 56.67                             122    0.14 7  170   2 
 OCA  SZ ES   1    839 17.77                             122   -0.43 7  170   2 
 OCA  SZ I         839 19.50        10.1 0.33                           170   2 
 ZAR  HZ EP   2    838 58.10                             120    0.24 4  185 298 
 ZAR  HZ I         838 58.91         8.9 0.32                           185 298 
 ZAR  HE ES   2    839 20.56                             120   -0.01 4  185 298 
 NOR  SN ES   2    839 24.80                             117   -0.06 4  207 233 
 HEL  HZ EP   2    839  5.09                             113    0.32 4  244 257 
 HEL  HN ES   2    839 32.28                             113   -0.58 4  244 257 
 HEL  HZ I         839 37.51         2.6 0.33                           244 257 
                                                                                
