 2017  512 0514 57.2 L   6.339 -73.579118.9  RSN 14 0.5 2.1LRSN                1
 GAP= 87        1.20       3.2     2.9  6.8  0.2168E+01  0.3356E+01 -0.7191E-01E
 Epicentro: SANTA HELENA DEL OPON - SANTANDER                                  3
 ACTION:UPD 17-06-16 13:35 OP:jn   STATUS:               ID:20170512051457 L   I
 OLDACT:REG 17-05-12 12:56 OP:osc  STATUS:               ID:20170512050742     3
 2017-05-12-0508-00M.COL___362                                                 6
 STAT SP IPHASW D HRMM SECON CODA AMPLIT PERI AZIMU VELO AIN AR TRES W  DIS CAZ7
 RUS  HZ IP     D  515 16.07                             146   -0.2910 73.8 132 
 RUS  HN ES        515 30.93                             146   -0.4010 73.8 132 
 RUS  HZ I         515 31.96        34.6 0.18            144           73.8 132 
 BRR  HZ EP        515 16.35                             141   -0.2010 86.2 350 
 BRR  HE ES        515 31.85                             141    0.1710 86.2 350 
 BRR  HZ I         515 32.07        33.9 0.12            141           86.2 350 
 SPBC HZ EP        515 17.00                             139   -0.2510 93.5 216 
 SPBC HE ES        515 33.02                             139    0.1010 93.5 216 
 SPBC HZ I         515 33.65        39.2 0.16            137           93.5 216 
 PTB  HZ IP     D  515 16.55                             137   -1.0810 99.5 283 
 PTB  HN ES   4    515 31.64                             137   -1.97 0 99.5 283 
 PTB  HZ I         515 33.90        47.0 0.30            136           99.5 283 
 PAM  EZ EP        515 22.98                             125    0.32 9  147  41 
 PAM  EN ES   2    515 43.28                             125    0.73 5  147  41 
 PAM  EZ I         515 47.55         9.8 0.26            124            147  41 
 NOR  HZ EP        515 23.43                             121   -0.63 9  167 239 
 NOR  HN ES        515 45.33                             121    0.29 9  167 239 
 NOR  HZ I         515 49.63        22.6 0.16            120            167 239 
 YPLC HZ EP        515 24.59                             121    0.28 9  169 128 
 YPLC HN ES        515 46.42                             121    0.93 9  169 128 
 YPLC HZ I         515 48.12        31.5 0.32            119            169 128 
 ROSC BZ EP   9    515 28.96                             119    2.53 0  185 206 
 ROSC BE ES        515 51.15                                   -0.64 9  185 206 
 ROSC BZ I         515 53.18        11.2 0.40            117            185 206 
 ZAR  HZ EP        515 26.26                             117   -0.26 9  190 312 
 ZAR  HE ES        515 49.36                             117   -0.06 9  190 312 
 ZAR  HZ I         515 53.96        42.9 0.44            116            190 312 
 CHI  HZ EP        515 27.13                             118    0.15 9  190 185 
 CHI  HE ES        515 50.88                             118    0.64 9  190 185 
 CHI  HZ I         515 54.08         8.0 0.40            116            190 185 
 HEL  HZ EP        515 30.43                             114    0.60 8  216 266 
 HEL  HN ES        515 55.35                             114    0.03 8  216 266 
 HEL  HZ I         516  1.27        12.6 0.30            113            216 266 
 CBOC HZ EP        515 36.67                             108    0.49 8  274 259 
 CBOC HN ES        516  6.29                             108   -0.32 8  274 259 
 CBOC HZ I         516  9.45         4.1 0.22            107            274 259 
 PTGC HZ EP        515 36.53                             107   -0.75 7  286 146 
 PTGC HE ES        516  8.02                             107   -0.55 7  286 146 
 PTGC HZ I         516 23.87         5.8 0.18            106            286 146 
 DBB  EZ EP        515 39.40                             106    0.31 7  300 285 
 DBB  EN ES        516 12.67                             106    0.88 7  300 285 
 DBB  EZ I         516 14.25         7.0 0.30            105            300 285 
                                                                                
