 2017  712 0503 33.9 L   6.787 -73.154144.0  RSN  8 0.4 1.5LRSN                1
 GAP=149        0.95       4.9     4.6  6.2 -0.9028E+01  0.5781E+01  0.4809E+01E
 Epicentro: LOS SANTOS - SANTANDER                                             3
 ACTION:UPD 17-08-30 15:32 OP:rebc STATUS:               ID:20170712050333 L   I
 OLDACT:UP  17-07-12 13:57 OP:dnl  STATUS:               ID:20170712045638     3
 OLDACT:REG 17-07-12 12:36 OP:dnl  STATUS:               ID:20170712045638     3
 2017-07-12-0457-00M.COL___359                                                 6
 STAT SP IPHASW D HRMM SECON CODA AMPLIT PERI AZIMU VELO AIN AR TRES W  DIS CAZ7
 BAR2 EZ EP        5 3 52.94                             171   -0.3210 21.8 188 
 BAR2 EZ ES        5 4  8.10                             171   -0.2810 21.8 188 
 BAR2 EZ I         5 4 10.71        10.0 0.34            170           21.8 188 
 BRR  HZ EP        5 3 54.72                             152   -0.1010 71.1 300 
 BRR  HN ES        5 4 11.80                             152    0.6410 71.1 300 
 BRR  HZ I         5 4 15.88         6.1 0.18            152           71.1 300 
 PAM  EZ EP        5 3 55.90                             150   -0.1010 79.1  39 
 PAM  EZ IP     C  5 3 55.90                             150   -0.1010 79.1  39 
 PAM  EN ES        5 4 13.50                             150    0.2410 79.1  39 
 PAM  EZ I         5 4 15.16         4.3 0.26            155           79.1  39 
 PTB  HZ EP        5 4  0.23                             132   -0.36 9  147 259 
 PTB  HN ES   4    5 4 20.16                             132   -1.26 0  147 259 
 PTB  HZ I         5 4 23.29         1.8 0.12            133            147 259 
 SPBC HZ EP        5 4  2.11                             129    0.04 9  161 219 
 SPBC HE ES        5 4 24.36                             129    0.29 9  161 219 
 SPBC HZ I         5 4 29.60         5.0 0.26            131            161 219 
 ZAR  HZ EP   2    5 4  6.29                             122    0.12 4  204 293 
 ZAR  HN ES        5 4 30.94                             122   -0.42 9  204 293 
 ZAR  HZ I         5 4 36.16         3.4 0.26            124            204 293 
 NOR  HZ EP   2    5 4 10.40                             118    1.07 4  233 235 
 NOR  HN ES        5 4 36.47                             118   -0.51 8  233 235 
 NOR  HZ I         5 4 42.57         2.3 0.20            120            233 235 
 GUY2CHZ EP        5 4 18.19                             112    0.97 7  300 235 
 GUY2CHE ES   4    5 4 54.67                             112    3.64 0  300 235 
 GUY2CHZ I         5 4 59.12         1.6 0.28                           300 235 
                                                                                
