 2011 1112 0130 13.7 L   6.816 -73.111143.8  RSN  8 0.4 1.8LRSN                1
 GAP=140        0.80       3.5     4.8  7.4  0.5822E+00  0.1122E+02  0.4826E+01E
 Epicentro: LOS SANTOS - SANTANDER                                             3
 ACTION:UPD 12-07-13 16:09 OP:ep   STATUS:               ID:20111112013013 L   I
 2011-11-12-0128-41S.COL___178                                                 6
 STAT SP IPHASW D HRMM SECON CODA AMPLIT PERI AZIMU VELO AIN AR TRES W  DIS CAZ7
 BAR2 SZ EP   1    130 33.18                             169    0.08 7 26.0 198 
 PAM  SZ EP   1    130 35.64                             152    0.21 7 73.6  38 
 PAM  SN ES   1    130 52.50                             152    0.08 7 73.6  38 
 BRR  HZ EP   1    130 34.98                             151    0.24 7 73.8 296 
 BRR  HN ES   1    130 51.71                             151    0.53 7 73.8 296 
 BRR  HZ I         130 52.71        15.9 0.13                          73.8 296 
 RUS  HZ EP   1    130 37.22                             143   -0.10 7  102 178 
 RUS  HZ I         130 38.41         5.6 0.18                           102 178 
 RUS  HN ES   1    130 55.62                             143   -0.17 7  102 178 
 OCA  SZ EP   1    130 41.60                             129   -0.09 7  159 352 
 OCA  SZ ES   1    131  3.05                             129   -0.51 7  159 352 
 OCA  SZ I         131  8.02         7.8 0.33                           159 352 
 ZAR  HZ EP   1    130 45.76                             122   -0.51 6  207 291 
 ZAR  HN ES   1    131 11.08                             122   -0.63 6  207 291 
 ZAR  HZ I         131 16.99         8.3 0.17                           207 291 
 CHI  HZ EP   1    130 52.12                             116    0.58 6  251 196 
 CHI  HN ES   1    131 20.18                             116   -0.91 6  251 196 
 CHI  HZ I         131 23.31         3.8 0.44                           251 196 
 HEL  HZ EP   1    130 54.93                             114    0.70 6  276 256 
 HEL  HN ES   1    131 26.33                             114    0.45 6  276 256 
 HEL  HZ I         131 31.59         4.7 0.39                           276 256 
                                                                                
