 2013  612 0300 17.3 L   6.809 -73.186139.0  RSN 10 0.4 1.9LRSN                1
 GAP=175        0.75       2.8     4.8  6.2 -0.2315E+01  0.1433E+02 -0.3901E+01E
 Epicentro: ZAPATOCA - SANTANDER                                               3
 ACTION:UPD 14-01-08 09:54 OP:ep   STATUS:               ID:20130612030017 L   I
 OLDACT:UP  13-06-12 10:49 OP:mh   STATUS:               ID:20130612025959     3
 OLDACT:UP  13-06-12 10:48 OP:mh   STATUS:               ID:20130612025959     3
 OLDACT:REG 13-06-12 07:39 OP:mh   STATUS:               ID:20130612025959     3
 2013-06-12-0259-59M.COL___260                                                 6
 STAT SP IPHASW D HRMM SECON CODA AMPLIT PERI AZIMU VELO AIN AR TRES W  DIS CAZ7
 BAR2 SZ EP        3 0 36.40                             170    0.2310 24.0 179 
 BAR2 SZ ES   1    3 0 50.89                             170    0.03 7 24.0 179 
 BAR2 SZ ESg       3 0 50.89                             170    0.0310 24.0 179 
 BAR2 SZ I         3 0 52.58         7.0 0.14            171           24.0 179 
 GIR2 SZ EP   1    3 0 36.29                             167    0.13 7 29.8 358 
 GIR2 SZ I         3 0 53.07         4.6 0.20            162           29.8 358 
 BRR  HZ EP   1    3 0 38.14                             153    0.63 7 66.8 300 
 BRR  HN ES   4    3 0 55.39                             153    2.15 0 66.8 300 
 BRR  HN I         3 0 55.79        39.8 0.16            150           66.8 300 
 RUS  HN ES   1    3 0 58.46                             142   -0.17 7  102 174 
 RUS  HN I         3 1  0.76        10.5 0.36            139            102 174 
 PTB  HZ EP   1    3 0 43.71                             131    0.33 7  144 258 
 PTB  HN ES   1    3 1  3.22                             131   -0.47 7  144 258 
 PTB  HN I         3 1  6.88         7.4 0.24            128            144 258 
 OCA  HN ES        3 1  6.19                             128   -0.36 9  159 355 
 OCA  HN I         3 1 14.76        20.9 0.66            123            159 355 
 ZAR  HN ES   1    3 1 14.26                             121    0.78 6  200 292 
 ZAR  HN I         3 1 19.71        13.2 0.26            117            200 292 
 NOR  HN ES        3 1 19.22                             117   -0.45 8  232 234 
 NOR  HN I         3 1 26.57         8.7 0.18            114            232 234 
 SML  HZ EP   1    3 0 52.73                             116   -0.56 6  241 336 
 SML  HE ES   1    3 1 21.15                             116   -0.18 6  241 336 
 SML  HE I         3 1 26.64        10.5 0.10            112            241 336 
 PRA  HZ EP   1    3 1 10.36                             105   -0.12 4  391 209 
 PRA  HN ES   1    3 1 52.02                             105    0.08 4  391 209 
 PRA  HN I         3 1 58.62         1.3 0.20            102            391 209 
                                                                                
