 2016 1212 0755 16.4 L   6.697 -73.156144.0  RSN  4 0.4 1.0LRSN                1
 GAP=248        0.69       8.5     5.3  6.0  0.9190E+01  0.7056E+01  0.2655E+01E
 Epicentro: VILLANUEVA - SANTANDER                                             3
 ACTION:UPD 17-01-11 20:14 OP:rebc STATUS:               ID:20161212075516 L   I
 OLDACT:REG 16-12-12 15:36 OP:and  STATUS:               ID:20161212074744     3
 2016-12-12-0748-00M.COL___389                                                 6
 STAT SP IPHASW D HRMM SECON CODA AMPLIT PERI AZIMU VELO AIN AR TRES W  DIS CAZ7
 BAR2 EZ EP        755 35.72                             175    0.0610 11.9 194 
 BAR2 EZ ES        755 50.63                             175   -0.0310 11.9 194 
 BAR2 EZ I         755 53.70         3.5 0.48            173           11.9 194 
 BRR  HZ EP        755 37.34                             150   -0.3410 76.4 306 
 BRR  HE ES        755 54.57                             150    0.3110 76.4 306 
 BRR  HZ I         755 55.53         2.9 0.44            150           76.4 306 
 PTB  HZ E         752 51.74                                            145 263 
 PTB  HZ EP        755 42.97                             132   -0.01 9  145 263 
 PTB  HN ES        756  3.73                             132    0.04 9  145 263 
 PTB  HZ I         756  6.60         0.7 0.44            133            145 263 
 ZAR  HZ EP   2    755 49.93                             121    0.81 4  208 295 
 ZAR  HN ES   2    756 13.68                             121   -0.94 4  208 295 
 ZAR  HZ I         756 17.89         0.8 0.18            123            208 295 
                                                                                
