 2012  512 0651 31.5 L   6.816 -73.363128.3  RSN  4 0.2 1.7LRSN                1
 GAP=191        0.36       9.0     7.6 10.2  0.2420E+02 -0.2521E+02  0.4594E+02E
 Epicentro: ZAPATOCA - SANTANDER                                               3
 ACTION:UP  12-07-05 12:04 OP:pat  STATUS:               ID:20120512065131 L   I
 2012-05-12-0650-00M.COL___195                                                 6
 STAT SP IPHASW D HRMM SECON CODA AMPLIT PERI AZIMU VELO SNR AR TRES W  DIS CAZ7
 BAR2 SZ EP        651 49.21                             165     0.010   32 141 
 BAR2 SZ I         652  3.53        12.6 0.40                            32 141 
 BRR  HZ EP   3    651 49.38                             157    -0.2 2   50 310 
 BRR  HN ES   1    652  3.79                             157     0.0 7   50 310 
 RUS  HN ES   3    652 11.75                             138     0.1 2  107 163 
 PTB  HZ EP   3    651 55.55                             133     0.6 2  125 256 
 PTB  HE ES   3    652 12.83                             133    -0.4 2  125 256 
                                                                                
