 2017  512 0221 14.8 L   6.789 -73.202122.7  RSN  5 0.3 1.2LRSN                1
 GAP=130        0.69       3.2     2.9  6.9  0.7026E+00  0.2489E+01  0.2023E+01E
 Epicentro: ZAPATOCA - SANTANDER                                               3
 ACTION:UPD 17-06-16 13:35 OP:jn   STATUS:               ID:20170512022114 L   I
 OLDACT:UP  17-05-12 15:51 OP:osc  STATUS:               ID:20170512021646d    3
 OLDACT:DUP 17-05-12 15:26 OP:osc  STATUS:               ID:20170512021646d    3
 2017-05-12-0218-00M.COL___365                                                 6
 STAT SP IPHASW D HRMM SECON CODA AMPLIT PERI AZIMU VELO AIN AR TRES W  DIS CAZ7
 BRR  HZ EP        221 33.56                             150    0.3810 66.4 302 
 BRR  HN ES        221 47.49                             150   -0.0410 66.4 302 
 BRR  HZ I         221 50.97         5.6 0.34            153           66.4 302 
 PAM  EZ EP        221 34.67                             144   -0.2710 82.3  42 
 PAM  EN ES        221 50.65                             144   -0.0110 82.3  42 
 PAM  EZ I         221 54.95         3.1 0.40            146           82.3  42 
 RUS  HZ EP        221 36.19                             139   -0.1010  100 172 
 RUS  HN ES        221 53.29                             139    0.2210  100 172 
 PTB  HN ES        221 58.09                             127   -0.43 9  141 259 
 PTB  HZ I         221 58.85         2.2 0.40            133            141 259 
 ZAR  HN ES        222  9.32                             117    0.28 9  199 293 
                                                                                
