 2016  112 0437 56.1 L   7.450 -73.388117.1  RSN  5 0.4 1.4LRSN                1
 GAP=124        1.05       5.6     4.4  8.8 -0.6049E+01  0.1331E+02  0.4340E+01E
 Epicentro: SABANA DE TORRES - SANTANDER                                       3
 ACTION:UPD 16-03-09 23:24 OP:cam  STATUS:               ID:20160112043756 L   I
 OLDACT:REG 16-01-12 13:06 OP:mh   STATUS:               ID:20160112043355     3
 2016-01-12-0433-55M.COL___246                                                 6
 STAT SP IPHASW D HRMM SECON CODA AMPLIT PERI AZIMU VELO AIN AR TRES W  DIS CAZ7
 BRR  HZ EP        438 13.03                             154   -0.0810 52.1 223 
 BRR  HN ES        438 26.22                             154   -0.1410 52.1 223 
 BRR  HZ I         438 34.47         3.1 0.14            158           52.1 223 
 PAM  EZ EP        438 15.79                             145    0.4310 77.0  99 
 PAM  EN ES        438 30.60                             145    0.2410 77.0  99 
 PAM  EZ I         438 32.48         3.9 0.18            155           77.0  99 
 OCA  HN ES        438 30.48                             141   -0.4410 87.6   5 
 OCA  HZ I         438 36.76        11.4 0.20            146           87.6   5 
 PTB  HZ EP        438 21.25                             123   -0.43 9  155 230 
 PTB  HN ES        438 41.32                             123   -0.28 9  155 230 
 PTB  HZ I         438 43.30         2.8 0.34            130            155 230 
 ZAR  HZ EP        438 22.22                             122   -0.19 9  162 272 
 ZAR  HN ES        438 43.80                             122    0.89 9  162 272 
 ZAR  HZ I         438 47.71         5.6 0.05            128            162 272 
                                                                                
