 2016 1212 0521 15.5 L   6.774 -73.378121.1  RSN  5 0.5 1.5LRSN                1
 GAP=178        1.33       8.6     7.8  9.8  0.4162E+02  0.2133E+02  0.6770E+01E
 Epicentro: SAN VICENTE DE CHUCURI - SANTANDER                                 3
 ACTION:UPD 17-01-11 20:14 OP:rebc STATUS:               ID:20161212052115 L   I
 OLDACT:DUP 16-12-12 21:20 OP:ar   STATUS:               ID:20161212051743d    3
 2016-12-12-0518-00M.COL___389                                                 6
 STAT SP IPHASW D HRMM SECON CODA AMPLIT PERI AZIMU VELO AIN AR TRES W  DIS CAZ7
 BAR2 EZ EP        521 32.23                             166   -0.1410 29.5 133 
 BAR2 EZ ES        521 45.10                             166   -0.4110 29.5 133 
 BRR  HZ EP        521 32.55                             155   -0.4110 52.2 315 
 BRR  HE ES        521 46.71                             155    0.1610 52.2 315 
 BRR  HZ I         521 47.08         5.0 0.14            153           52.2 315 
 RUS  HZ EP        521 37.17                             137    0.0510  103 161 
 RUS  HN ES        521 54.79                             137    0.8310  103 161 
 PTB  HZ EP        521 37.47                             132   -0.6910  122 258 
 PTB  HN ES        521 55.32                             132   -0.4810  122 258 
 PTB  HZ I         521 59.27         6.3 0.16            129            122 258 
 ZAR  HZ EP        521 44.47                             120    0.37 9  182 296 
 ZAR  HN ES        522  7.33                             120    0.94 9  182 296 
 ZAR  HZ I         522 10.71         5.3 0.40            119            182 296 
                                                                                
