 2010  812 0304 46.6 L   6.545 -73.500112.7  RSN 17 0.4 2.7LRSN                1
 GAP= 66        0.93       2.9     4.0  5.7 -0.4400E+01  0.7161E+01  0.1724E+01E
 Epicentro: EL CARMEN DE CHUCURI - SANTANDER                                   3
 ACTION:UP  10-09-07 10:54 OP:vdl  STATUS:               ID:20100812030446 L   I
 2010-08-12-0302-25S.COL___127                                                 6
 STAT SP IPHASW D HRMM SECON CODA AMPLIT PERI AZIMU VELO SNR AR TRES W  DIS CAZ7
 BAR2 SZ IP        3 5  2.91                             161     0.310   35  82 
 BAR2 SZ ES   1    3 5 14.43                             161    -0.8 7   35  82 
 BAR2 SZ I         3 5 16.96       369.0 0.42                            35  82 
 BTL  SZ IP        3 5  3.41                             155     0.110   49  32 
 BRR  HZ EP        3 5  3.65                             147    -0.310   66 339 
 BRR  HN ES        3 5 17.74                             147     0.210   66 339 
 BRR  HZ I         3 5 23.48       116.8 0.15                            66 339 
 GIR2 SZ EP        3 5  4.37                             147     0.110   68  30 
 RUS  HZ EP        3 5  5.98                             140    -0.110   86 147 
 RUS  HE ES   1    3 5 21.16                             140    -0.1 7   86 147 
 RUS  HZ I         3 5 25.64        48.8 0.40                            86 147 
 GRA  SZ IP        3 5 13.24                             120     0.0 9  167  27 
 GRA  SZ ES        3 5 34.81                             120     0.7 9  167  27 
 GRA  SZ I         3 5 36.23        39.5 0.50                           167  27 
 OCA  SZ EP        3 5 15.33                             116    -0.3 9  188   6 
 OCA  SZ ES   1    3 5 37.64                             116    -0.6 7  188   6 
 OCA  SZ I         3 5 43.66        66.1 0.30                           188   6 
 ROSC BZ EP   1    3 5 18.98                             114     0.8 6  209 206 
 CHI  HZ EP   1    3 5 18.67                             113     0.0 6  213 187 
 CHI  HZ I         3 5 20.78        21.0 0.39                           213 187 
 CHI  HN ES   2    3 5 44.22                             113     0.5 4  213 187 
 HEL  HZ EP   1    3 5 20.12                             111    -0.1 6  228 260 
 HEL  HE ES   1    3 5 46.10                             111    -0.4 6  228 260 
 HEL  HZ I         3 5 49.99        29.8 0.28                           228 260 
 GUY  SZ EP   2    3 5 23.27                             109     0.0 4  253 235 
 GUY  SN ES   1    3 5 52.57                             109     0.7 6  253 235 
 GUY  SZ I         3 5 58.72        95.3 0.51                           253 235 
 RREF HZ EP   1    3 5 26.49                             107     0.6 6  274 228 
 RREF HN ES   1    3 5 55.94                             107    -0.6 6  274 228 
 RREF HZ I         3 6  5.87        26.2 0.40                           274 228 
 DBB  SZ EP   1    3 5 28.91                             105     0.2 5  304 280 
 ANIL HZ EP   1    3 5 29.00                             104    -0.7 5  310 223 
 ANIL HN ES   1    3 6  3.22                             104    -0.1 5  310 223 
 ANIL HZ I         3 6 13.28        47.2 0.31                           310 223 
 PRA  HZ EP        3 5 33.75                             102    -0.2 6  349 206 
 PRA  HZ I         3 6 19.79        19.6 0.27                           349 206 
 SDV  BZ EP   1    3 5 40.63                              99    -0.7 4  409  51 
 SDV  BZ I         3 6 25.39         8.5 0.28                           409  51 
 URI  HZ EP   2    3 6  2.92                              94    -0.6 1  594  16 
 URI  HN ES   2    3 7  3.09                              94    -0.5 1  594  16 
                                                                                
