 2014 1012 0921 55.6 L   6.849 -73.153142.5  RSN 11 0.5 1.8LRSN                1
 GAP=133        1.13       3.2     4.8  6.3 -0.7765E+00  0.4291E+01 -0.2036E+01E
 Epicentro: LOS SANTOS - SANTANDER                                             3
 ACTION:UPD 14-11-29 23:49 OP:nd   STATUS:               ID:20141012092155 L   I
 OLDACT:DUP 14-10-12 18:24 OP:stll STATUS:               ID:20141012091745d    3
 2014-10-12-0917-44M.COL___277                                                 6
 STAT SP IPHASW D HRMM SECON CODA AMPLIT PERI AZIMU VELO AIN AR TRES W  DIS CAZ7
 BAR2 SZ EP        922 14.71                             168   -0.2010 28.5 187 
 BAR2 SZ ES        922 30.01                             168    0.0010 28.5 187 
 BAR2 SZ I         922 31.03        10.9 0.26            168           28.5 187 
 BRR  HZ EP        922 16.73                             153    0.5610 68.0 295 
 BRR  HN ES        922 32.74                             153    0.4910 68.0 295 
 PAM  SZ EP        922 17.61                             151    0.4010 73.9  43 
 PAM  SZ I         922 17.85        15.1 0.18            154           73.9  43 
 RUS  HZ EP        922 18.94                             142   -0.4510  106 176 
 RUS  HN ES        922 38.01                             142    0.0310  106 176 
 RUS  HZ I         922 39.34         5.8 0.32            143            106 176 
 PTB  HZ EP        922 22.16                             131   -0.13 9  148 257 
 PTB  HN ES        922 42.11                             131   -1.03 9  148 257 
 PTB  HZ I         922 45.28         5.3 0.18            131            148 257 
 OCA  HZ EP        922 23.30                             130    0.20 9  155 353 
 OCA  HE ES        922 44.42                             130   -0.16 9  155 353 
 OCA  HZ I         922 47.80         5.1 0.26            130            155 353 
 SPBC HZ EP        922 23.76                             128   -0.40 9  167 218 
 SPBC HN ES        922 46.59                             128    0.12 9  167 218 
 SPBC HZ I         922 53.00         6.9 0.30            128            167 218 
 ZAR  HZ EP        922 27.59                             122    0.09 9  201 291 
 ZAR  HN ES        922 52.64                             122    0.22 9  201 291 
 ZAR  HZ I         922 59.12         5.0 0.24            122            201 291 
 SML  HZ EP        922 31.11                             117   -0.32 8  238 335 
 SML  HN ES        922 58.88                             117   -0.53 8  238 335 
 SML  HZ I         923  4.59         8.1 0.24            118            238 335 
 GUY2CHZ EP        922 40.52                             111    1.23 7  304 234 
 GUY2CHN ES        923 13.95                             111    0.54 7  304 234 
 GUY2CHZ I         923 22.78         2.6 0.38                           304 234 
 PRA  HZ EP        922 48.80                             106   -0.66 6  396 209 
 PRA  HZ I         922 51.78         1.9 0.32            106            396 209 
                                                                                
