 2014 1212 0606  2.7 L   6.819 -73.128145.0  RSN  6 0.4 1.4LRSN                1
 GAP=203        0.87       3.7     5.2  8.7  0.2910E+01  0.1309E+01 -0.1161E+02E
 Epicentro: LOS SANTOS - SANTANDER                                             3
 ACTION:UPD 15-02-10 17:03 OP:nd   STATUS:               ID:20141212060602 L   I
 OLDACT:REG 14-12-12 13:10 OP:fm   STATUS:               ID:20141212055744     3
 2014-12-12-0557-44M.COL___294                                                 6
 STAT SP IPHASW D HRMM SECON CODA AMPLIT PERI AZIMU VELO AIN AR TRES W  DIS CAZ7
 RUS  HZ EP        6 6 26.49                             143   -0.0710  103 177 
 RUS  HN ES        6 6 45.40                             143    0.2710  103 177 
 RUS  HZ I         6 6 47.25         2.5 0.36            151            103 177 
 PTB  HZ EP        6 6 30.12                             131    0.26 9  150 258 
 PTB  HN ES        6 6 50.34                             131   -0.67 9  150 258 
 PTB  HZ I         6 6 54.76         2.7 0.16            135            150 258 
 SPBC HZ EP        6 6 30.90                             128   -0.55 9  166 219 
 SPBC HN ES        6 6 53.89                             128    0.04 9  166 219 
 SPBC HZ I         6 7  1.65         4.5 0.24            134            166 219 
 ZAR  HE ES   1    6 7  1.20                             122    0.60 6  205 291 
 ZAR  HZ I         6 7  8.79         1.6 0.30            126            205 291 
 SML  HZ EP        6 6 39.02                             117   -0.19 8  243 335 
 SML  HN ES        6 7  7.76                             117    0.10 8  243 335 
 SML  HZ I         6 7 15.74         3.6 0.10            121            243 335 
 GUY2CHZ EP        6 6 47.09                             112    0.46 7  304 235 
 GUY2CHN ES        6 7 21.19                             112    0.32 7  304 235 
 GUY2CHZ I         6 7 28.13         1.0 0.32                           304 235 
                                                                                
