 2013 1012 0525 34.3 L   6.799 -73.149144.4  RSN 18 0.5 2.0LRSN                1
 GAP=119        1.06       2.7     3.9  6.0 -0.1240E+01  0.5111E+01  0.3104E+01E
 Epicentro: LOS SANTOS - SANTANDER                                             3
 ACTION:UPD 13-11-25 09:21 OP:ep   STATUS:               ID:20131012052534 L   I
 OLDACT:UP  13-10-12 11:35 OP:mh   STATUS:               ID:20131012051959     3
 OLDACT:UP  13-10-12 11:33 OP:mh   STATUS:               ID:20131012051959     3
 OLDACT:UP  13-10-12 11:32 OP:mh   STATUS:               ID:20131012051959     3
 OLDACT:REG 13-10-12 08:23 OP:mh   STATUS:               ID:20131012051959     3
 2013-10-12-0519-59M.COL___273                                                 6
 STAT SP IPHASW D HRMM SECON CODA AMPLIT PERI AZIMU VELO AIN AR TRES W  DIS CAZ7
 BAR2 SZ EP        525 54.02                             170    0.2310 23.2 189 
 BRR  HZ IP        525 55.84                             152    0.5310 70.9 299 
 BRR  HN ES   1    526 11.86                             152    0.18 7 70.9 299 
 BRR  HZ I         526 16.32        19.9 0.27            148           70.9 299 
 PAM  SZ EP        525 56.90                             150    0.4910 77.7  40 
 PAM  SN ES        526 13.67                             150    0.0310 77.7  40 
 PAM  SZ I         526 16.87         9.5 0.15            151           77.7  40 
 RUS  HZ EP   1    525 57.96                             143    0.03 7  101 176 
 RUS  HN ES        526 16.25                             143   -0.1010  101 176 
 RUS  HZ I         526 17.81        10.1 0.27            146            101 176 
 PTB  HZ EP        526  0.51                             132   -0.63 9  147 259 
 PTB  HN ES        526 21.46                             132   -0.60 9  147 259 
 PTB  HZ I         526 23.88        11.7 0.20            130            147 259 
 OCA  HZ EP   1    526  2.02                             129   -0.52 7  160 353 
 OCA  HN ES        526 24.78                             129    0.24 9  160 353 
 OCA  HZ I         526 34.67        12.9 0.28            128            160 353 
 SPBC HZ EP        526  2.89                             129    0.20 9  163 219 
 SPBC HN ES        526 24.13                             129   -0.68 9  163 219 
 SPBC HZ I         526 30.68        16.1 0.24            129            163 219 
 ZAR  HZ EP        526  7.07                             122    0.42 9  204 292 
 ZAR  HN ES        526 31.81                             122   -0.05 9  204 292 
 ZAR  HZ I         526 37.76        10.9 0.24            121            204 292 
 NOR  HZ EP        526  9.42                             118   -0.51 8  234 234 
 NOR  HN ES        526 38.13                             118    0.42 8  234 234 
 NOR  HZ I         526 43.14         9.3 0.18            118            234 234 
 SML  HZ EP   1    526 10.51                             117   -0.36 6  244 335 
 SML  HN ES        526 38.55                             117   -0.82 8  244 335 
 CHI  HZ EP   1    526 12.39                             117    0.47 6  248 195 
 CHI  HN ES        526 41.50                             117    0.25 8  248 195 
 CHI  HZ I         526 46.94         6.3 0.35            118            248 195 
 HEL  HZ EP        526 14.34                             114   -0.08 8  272 256 
 HEL  HN ES   1    526 46.77                             114    1.07 6  272 256 
 GUY2CHZ EP        526 18.78                             112    0.95 7  301 235 
 GUY2CHN ES   4    526 55.03                             112    3.27 0  301 235 
 GUY2CHZ I         527  0.32         6.6 0.33                           301 235 
 PTGC HZ EP        526 17.16                             111   -0.96 7  309 159 
 RREF HZ EP   4    526 22.12                             111    1.75 0  321 229 
 RREF HN ES   4    526 57.89                             111    1.61 0  321 229 
 RREF HZ I         527  1.26         7.1 0.22            111            321 229 
 PRA  HZ EP        526 27.87                             106    0.11 6  392 210 
 PRA  HN ES        527  9.58                             106    0.13 6  392 210 
 PRA  HZ I         527 14.26         6.6 0.32            107            392 210 
 ORTC HZ EP   1    526 27.45                             106   -0.71 4  395 216 
 ORTC HN ES   1    527 10.56                             106    0.41 4  395 216 
 ORTC HZ I         527 17.17         3.0 0.24            106            395 216 
 SJC  HZ EP   4    526 28.56                             105   -1.27 0  409 327 
 SJC  HN ES   4    527  7.87                             105   -5.25 0  409 327 
 SJC  HZ I         527 45.98         2.2 0.16            105            409 327 
                                                                                
