 2013 1212 0156  0.5 L   6.810 -73.121148.5  RSN 11 0.4 1.8LRSN                1
 GAP=203        0.90       3.3     4.7  5.3  0.3579E+01  0.2669E+01 -0.3858E+00E
 Epicentro: LOS SANTOS - SANTANDER                                             3
 ACTION:UPD 14-01-13 10:17 OP:ep   STATUS:               ID:20131212015600 L   I
 OLDACT:DUP 13-12-12 08:50 OP:jn   STATUS:               ID:20131212015001d    3
 OLDACT:REG 13-12-12 06:48 OP:jn   STATUS:               ID:20131212015000     3
 2013-12-12-0150-00M.COL___285                                                 6
 STAT SP IPHASW D HRMM SECON CODA AMPLIT PERI AZIMU VELO AIN AR TRES W  DIS CAZ7
 BAR2 SZ EP        156 20.85                             170    0.3610 25.0 196 
 BAR2 SZ ES        156 35.82                             170   -0.2710 25.0 196 
 BAR2 SZ I         156 39.66        19.8 0.78             37           25.0 196 
 BRR  HZ EP        156 22.37                             152    0.3310 73.1 297 
 BRR  HN ES        156 39.43                             152    0.5710 73.1 297 
 BRR  HZ I         156 43.88         9.4 0.26             47           73.1 297 
 RUS  HZ EP        156 24.74                             144    0.1610  102 178 
 RUS  HN ES        156 42.90                             144   -0.4710  102 178 
 RUS  HZ I         156 44.66         4.8 0.30             37            102 178 
 PTB  HZ EP        156 27.77                             132   -0.17 9  151 259 
 PTB  HN ES        156 48.85                             132   -0.50 9  151 259 
 PTB  HZ I         156 51.76         8.0 0.20             47            151 259 
 SPBC HZ EP   1    156 29.82                             129    0.38 7  166 219 
 SPBC HN ES   1    156 52.54                             129    0.51 7  166 219 
 SPBC HZ I         156 57.46        11.6 0.40             37            166 219 
 ZAR  HZ I         151 36.11         4.8 0.28            148            206 292 
 ZAR  HN ES        156 59.13                             123    0.18 8  206 292 
 NOR  HZ EP        156 36.18                             119   -0.50 8  238 235 
 NOR  HN ES        157  4.93                             119    0.01 8  238 235 
 NOR  HZ I         157 12.54         5.4 0.16             37            238 235 
 SML  HZ EP        156 36.73                             118   -0.56 8  244 335 
 SML  HN ES        157  5.71                             118   -0.28 8  244 335 
 CHI  HZ EP        156 38.81                             117    0.27 8  250 196 
 CHI  HN ES   2    157  7.82                             117   -0.39 4  250 196 
 CHI  HZ I         157 11.25         1.7 0.28             36            250 196 
 GUY2CHE ES   4    157 19.24                             113    0.33 0  304 235 
 GUY2CHZ I         157 27.70         5.3 0.78                           304 235 
 PRA  HZ EP   2    156 55.52                             107    1.14 3  394 210 
 PRA  HZ I         157 42.68         3.0 0.40             36            394 210 
                                                                                
