 2010  812 0601 41.2 L   6.771 -73.097146.6  RSN  4 0.0 1.2LRSN                1
 GAP=191        0.29       4.5     5.2  5.9 -0.1607E+02 -0.1890E+02  0.1498E+02E
 Epicentro: LOS SANTOS - SANTANDER                                             3
 ACTION:UP  10-09-07 10:54 OP:vdl  STATUS:               ID:20100812060141 L   I
 2010-08-12-0557-33S.COL___127                                                 6
 STAT SP IPHASW D HRMM SECON CODA AMPLIT PERI AZIMU VELO SNR AR TRES W  DIS CAZ7
 BAR2 SZ EP   1    6 2  0.90                             171     0.0 7   22 206 
 BAR2 SZ I         6 2 17.42         5.4 0.14                            22 206 
 BRR  HZ EP        6 2  2.83                             150     0.010   78 299 
 BRR  HZ I         6 2 17.29         5.4 0.37                            78 299 
 BRR  HE ES   1    6 2 19.64                             150     0.0 7   78 299 
 GUE  SZ EP   2    6 2  6.12                             139     0.0 5  119   9 
 GUE  SZ I         6 2 27.53         0.7 0.23                           119   9 
 GRA  SZ EP   1    6 2  6.65                             137     0.0 7  127  15 
 GRA  SZ ES   1    6 2 26.52                             137     0.0 7  127  15 
 GRA  SZ I         6 2 29.56         2.8 0.50                           127  15 
                                                                                
