 2016  312 0535 31.5 L   6.822 -73.130140.4  RSN 18 0.5 2.1LRSN                1
 GAP= 61        1.22       3.4     3.3  5.9 -0.2326E+01  0.4223E+01 -0.9596E+00E
 Epicentro: LOS SANTOS - SANTANDER                                             3
 ACTION:UPD 16-05-13 21:23 OP:cam  STATUS:               ID:20160312053531 L   I
 OLDACT:UP  16-03-14 19:27 OP:Ak   STATUS:               ID:20160312053531 L   3
 OLDACT:UP  16-03-12 16:58 OP:ar   STATUS:               ID:20160312052747     3
 OLDACT:UP  16-03-12 16:54 OP:ar   STATUS:               ID:20160312052747     3
 OLDACT:UP  16-03-12 16:54 OP:ar   STATUS:               ID:20160312052747     3
 OLDACT:REG 16-03-12 13:36 OP:ar   STATUS:               ID:20160312052747     3
 2016-03-12-0527-47M.COL___307                                                 6
 STAT SP IPHASW D HRMM SECON CODA AMPLIT PERI AZIMU VELO AIN AR TRES W  DIS CAZ7
 BAR2 EZ IP     C  535 50.69                             169    0.1310 26.1 193 
 BAR2 EZ ES        536  5.29                             169   -0.1210 26.1 193 
 BAR2 EZ I         536  6.60        23.1 0.44            167           26.1 193 
 PAM  EZ IP     D  535 53.54                             151    0.5610 74.4  40 
 PAM  EN ES        536 10.28                             151    0.5610 74.4  40 
 PAM  EZ I         536 12.59        18.6 0.40            152           74.4  40 
 RUS  HZ EP        535 54.63                             142   -0.2810  103 177 
 RUS  HN ES        536 13.02                             142   -0.1410  103 177 
 RUS  HZ I         536 13.89        12.3 0.24            141            103 177 
 PTB  HZ EP        535 57.61                             130   -0.64 9  150 258 
 PTB  HN ES        536 18.15                             130   -0.96 9  150 258 
 PTB  HZ I         536 22.12        11.6 0.10            131            150 258 
 TAM  HZ EP        535 58.94                             129    0.27 9  154 106 
 TAM  HN ES        536 20.19                             129    0.33 9  154 106 
 TAM  HZ I         536 30.13         4.5 0.40            129            154 106 
 OCA  HZ EP        535 58.96                             129   -0.24 9  158 352 
 OCA  HN ES        536 20.50                             129   -0.30 9  158 352 
 OCA  HZ I         536 28.23        33.8 0.46            130            158 352 
 SPBC HZ EP        535 59.61                             127   -0.29 9  166 219 
 SPBC HE ES        536 22.07                             127    0.04 9  166 219 
 SPBC HZ I         536 26.08        20.2 0.38            127            166 219 
 ZAR  HZ EP        536  3.88                             121    0.19 9  205 291 
 ZAR  HN ES        536 29.54                             121    0.75 9  205 291 
 ZAR  HZ I         536 34.55        20.4 0.42            122            205 291 
 NOR  HZ EP        536  7.33                             117    0.08 8  238 234 
 NOR  HN ES        536 35.09                             117   -0.03 8  238 234 
 NOR  HZ I         536 38.76         8.8 0.44            117            238 234 
 CHI  HZ EP        536  9.41                             116    0.18 8  251 195 
 CHI  HN ES        536 38.44                             116   -0.21 8  251 195 
 CHI  HZ I         536 44.55         4.1 0.32            115            251 195 
 ROSC BZ EP   4    536 11.37                             115    1.69 0  256 211 
 ROSC BN ES   4    536 42.79                             115    3.35 0  256 211 
 ROSC BZ I         536 46.85        16.5 0.55            115            256 211 
 HEL  HZ EP        536 12.84                             113    1.12 8  274 255 
 HEL  HN ES        536 42.51                             113   -0.56 8  274 255 
 HEL  HZ I         536 49.28         5.8 0.42            114            274 255 
 SOCV BZ EP        536 12.69                             111   -1.31 7  298  57 
 SOCV BN ES   4    536 44.65                             111   -2.49 0  298  57 
 GUY2CHZ EP        536 16.10                             111    0.90 7  304 235 
 GUY2CHN ES   4    536 52.27                             111    2.99 0  304 235 
 GUY2CHZ I         536 55.91         7.5 0.22                           304 235 
 PTGC HZ EP   9    536 13.56                             110   -1.76 0  310 159 
 PTGC HN ES        536 47.28                             110   -0.45 7  310 159 
 PTGC HZ I         537  5.39         6.1 0.36            110            310 159 
 CBOC HZ EP        536 19.08                             109    0.59 7  336 252 
 CBOC HN ES   4    536 53.24                             109   -1.89 0  336 252 
 CBOC HZ I         536 58.48         2.5 0.22            109            336 252 
 DBB  SZ EP   4    536 17.72                             108   -1.24 0  341 274 
 DBB  SZ ES   4    536 53.26                             108   -2.71 0  341 274 
 DBB  SZ I         536 59.42        17.0 0.74            109            341 274 
 SDV  BZ EP        536 20.44                             107   -0.58 6  357  50 
 SDV  BN ES   4    536 56.15                             107   -3.48 0  357  50 
 SDV  BZ I         537  0.54         3.3 0.45            108            357  50 
                                                                                
