 2013  612 0150 47.2 L   6.562 -73.598 91.2  RSN  7 0.3 1.4LRSN                1
 GAP= 91        0.70       4.1     3.8  8.6  0.1018E+01 -0.6561E+00  0.9447E+01E
 Epicentro: EL CARMEN DE CHUCURI - SANTANDER                                   3
 ACTION:UPD 14-01-08 09:54 OP:ep   STATUS:               ID:20130612015047 L   I
 OLDACT:REG 13-06-12 07:36 OP:mh   STATUS:               ID:20130612014959     3
 2013-06-12-0149-59M.COL___260                                                 6
 STAT SP IPHASW D HRMM SECON CODA AMPLIT PERI AZIMU VELO AIN AR TRES W  DIS CAZ7
 BAR2 SZ EP     D  151  1.59                             151    0.1910 46.0  86 
 BAR2 SZ I         151 15.07        10.2 0.24            150           46.0  86 
 BRR  HZ EP     C  151  2.44                             143    0.3510 61.5 348 
 BRR  HN ES   1    151 13.21                             143   -0.47 7 61.5 348 
 BRR  HN I         151 25.36        11.4 0.18            148           61.5 348 
 GIR2 SZ EP        151  2.91                             139   -0.2410 72.5  38 
 RUS  HZ EP   1    151  5.47                             131    0.01 7 93.4 142 
 RUS  HN ES   2    151 19.77                             131    0.10 5 93.4 142 
 RUS  HN I         151 23.73         3.2 0.16            140           93.4 142 
 PTB  HZ EP   1    151  4.48                             130   -0.49 7 95.0 269 
 PTB  HN ES   1    151 19.15                             130    0.36 7 95.0 269 
 PTB  HN I         151 19.72         8.7 0.40            147           95.0 269 
 GUY2CHZ EP   1    151 21.99                             106   -0.26 6  245 233 
 GUY2CHE ES   4    151 51.61                             106    2.06 0  245 233 
 SML  HN ES   2    151 50.75                             105    0.63 4  253 348 
                                                                                
