 2012  412 0503 31.6 L   6.742 -73.139136.0  RSN  4 0.1 1.5LRSN                1
 GAP=160        0.39       6.3     4.6  4.2 -0.3980E+01  0.4272E+01 -0.1187E+01E
 Epicentro: JORDAN - SANTANDER                                                 3
 ACTION:UPD 12-07-05 11:52 OP:tino STATUS:               ID:20120412050331 L   I
 2012-04-12-0500-00M.COL___181                                                 6
 STAT SP IPHASW D HRMM SECON CODA AMPLIT PERI AZIMU VELO AIN AR TRES W  DIS CAZ7
 BAR2 SZ ES   1    5 4  4.26                             172     0.0 7   17 196 
 BAR2 SZ I         5 4  6.39         7.8 0.31                            17 196 
 BRR  HZ EP        5 3 51.89                             149    -0.110   75 303 
 BRR  HZ I         5 3 52.87         5.6 0.33                            75 303 
 BRR  HN ES   1    5 4  7.91                             149     0.1 7   75 303 
 PAM  SZ EP   2    5 3 52.93                             147    -0.2 5   82  36 
 PTB  HZ EP        5 3 57.86                             130     0.1 9  147 261 
 PTB  HE ES   2    5 4 17.81                             130    -0.3 5  147 261 
                                                                                
