 2013  512 0235 31.9 L   6.835 -73.156145.8  RSN 17 0.4 3.0LRSN 3.1WRSN        1
 SPEC AVERAGE  MO 13.8 ST  5.4 OM  2.7 f0 3.87 R0.4262 AL 1.69 WI 28.0 MW  3.1 3
 SPEC SD       MO  0.1 ST  3.8 OM  0.5 f00.891 R0.1067 AL      WI      MW  0.1 3
 GAP= 64        0.94       2.5     3.4  5.0  0.8943E+00  0.4746E+01  0.2708E+01E
 Epicentro: LOS SANTOS - SANTANDER                                             3
 SPEC OCA HH Z MO 13.9 ST 11.8 OM  2.2 f0 4.93 R0.3152 AL 1.62 WI 50.5 MW  3.2 3
 SPEC OCA HH Z T 23616 K 0.000 GD  213 VS 4.20 DE 3.20 Q0300.0 QA 0.60 VS 4.20 3
 SPEC PAM SH Z MO 13.7 ST  3.6 OM  2.1 f0 3.93 R0.3954 AL 2.52 WI 13.4 MW  3.1 3
 SPEC PAM SH Z T 23610 K 0.000 GD  164 VS 4.20 DE 3.20 Q0300.0 QA 0.60 VS 4.20 3
 SPEC CHI HH Z MO 14.0 ST  1.9 OM  2.1 f0 2.62 R0.5931 AL 1.86 WI 40.4 MW  3.3 3
 SPEC CHI HH Z T 23636 K 0.000 GD  291 VS 4.20 DE 3.20 Q0300.0 QA 0.60 VS 4.20 3
 SPEC BRR HH Z MO 13.8 ST  8.6 OM  2.2 f0 4.88 R0.3184 AL 1.13 WI 19.9 MW  3.1 3
 SPEC BRR HH Z T 236 7 K 0.000 GD  161 VS 4.20 DE 3.20 Q0300.0 QA 0.60 VS 4.20 3
 SPEC GIR2SH Z MO 13.6 ST1.000 OM  2.0 f0 2.85 R0.5453 AL 1.09 WI 22.8 MW  3.0 3
 SPEC GIR2SH Z T 236 4 K 0.000 GD  148 VS 4.20 DE 3.20 Q0300.0 QA 0.60 VS 4.20 3
 SPEC BAR2SH Z MO 13.9 ST  5.5 OM  2.3 f0 3.99 R0.3895 AL 1.94 WI 20.9 MW  3.2 3
 SPEC BAR2SH Z T 236 4 K 0.000 GD  148 VS 4.20 DE 3.20 Q0300.0 QA 0.60 VS 4.20 3
 ACTION:UPD 13-06-20 09:49 OP:ep   STATUS:               ID:20130512023531 L   I
 2013-05-12-0230-00M.COL___256                                                 6
 STAT SP IPHASW D HRMM SECON CODA AMPLIT PERI AZIMU VELO AIN AR TRES W  DIS CAZ7
 BAR2 SZ IP     D  235 51.37                             169   -0.2010 27.0 186 
 BAR2 SZ ES   1    236  6.47                             169   -0.47 7 27.0 186 
 BAR2 SZ I         236  7.33       222.0 0.24            168           27.0 186 
 GIR2 SZ IP     C  235 51.38                             169   -0.0510 27.3 351 
 GIR2 SZ ES   1    236  6.48                             169   -0.22 7 27.3 351 
 GIR2 SZ I         236  8.16       166.8 0.50            168           27.3 351 
 BRR  HZ IP     C  235 53.19                             153    0.3410 68.4 296 
 BRR  HE ES   1    236 10.25                             153    1.02 7 68.4 296 
 BRR  HZ I         236 10.97       214.2 0.12            152           68.4 296 
 PAM  SZ IP     C  235 54.08                             151    0.1310 75.2  42 
 PAM  SN ES   1    236 11.23                             151    0.06 7 75.2  42 
 PAM  SZ I         236 13.29       219.2 0.52            150           75.2  42 
 RUS  HZ IP     C  235 55.37                             143   -0.5210  104 176 
 RUS  HN ES   1    236 14.45                             143   -0.19 7  104 176 
 RUS  HZ I         236 15.71       154.8 0.30            140            104 176 
 PTB  HZ EP        235 58.26                             132   -0.54 9  147 257 
 PTB  HN ES   4    236 19.14                             132   -0.67 0  147 257 
 PTB  HZ I         236 26.59       134.3 0.48            129            147 257 
 OCA  HZ EP        236  0.55                             130    0.75 9  156 353 
 OCA  HN ES   1    236 21.18                             130   -0.41 7  156 353 
 OCA  HZ I         236 24.43       151.6 0.22            128            156 353 
 TAM  HZ IP     C  235 59.74                             130    0.01 9  157 106 
 TAM  HZ I         236 20.39        84.3 0.30            128            157 106 
 TAM  HN ES   1    236 21.44                             130   -0.03 7  157 106 
 YOP  SZ IP     C  236  2.21                             126   -0.08 9  183 154 
 YOP  SN ES        236 26.79                             126    0.77 9  183 154 
 YOP  SZ I         236 30.09        72.4 0.44            123            183 154 
 NOR  HZ EP     C  236  7.84                             118    0.11 8  236 234 
 NOR  HE ES   1    236 35.75                             118    0.04 6  236 234 
 NOR  HZ I         236 41.45       107.1 0.22            116            236 234 
 SML  HZ EP        236  8.04                             118   -0.02 8  240 335 
 SML  HN ES        236 35.60                             118   -0.69 8  240 335 
 SML  HZ I         236 45.34        81.1 0.22            116            240 335 
 CHI  HZ EP        236  9.74                             117   -0.19 8  252 195 
 CHI  HN ES   1    236 38.89                             117   -0.73 6  252 195 
 CHI  HZ I         236 42.52        64.7 0.74            114            252 195 
 ROSC BZ EP   4    236 11.14                             116    0.87 0  255 210 
 ROSC BN ES   4    236 41.86                             116    1.62 0  255 210 
 ROSC BZ I         236 46.04       139.0 0.45            114            255 210 
 HEL  HZ EP        236 12.80                             115    0.74 8  272 255 
 HEL  HN ES   1    236 43.57                             115    0.16 6  272 255 
 HEL  HZ I         236 49.74        83.9 0.30            113            272 255 
 URE  HE ES   4    236 42.47                             114   -2.00 0  281 291 
 VIL  SZ EP        236 15.28                             112   -0.40 7  307 191 
 VIL  SN ES   1    236 50.05                             112    0.20 5  307 191 
 VIL  SZ I         236 58.88        77.6 0.48            110            307 191 
 COD  HN ES   2    236 57.15                             109   -0.01 3  344 355 
 COD  HZ I         237  0.64        11.1 0.30            107            344 355 
 PRA  HZ EP        236 25.55                             106   -0.15 6  395 209 
 PRA  HN ES        237  8.11                             106    0.41 6  395 209 
 PRA  HZ I         237 13.81        76.0 0.26            104            395 209 
 SJC  HZ EP   4    236 25.30                             106   -1.67 0  405 327 
 SJC  HN ES   4    237  6.54                             106   -3.42 0  405 327 
                                                                                
