 2015 1212 0822 37.0 L   6.771 -73.133153.7  RSN  5 0.3 1.6LRSN                1
 GAP=255        0.83       5.5     5.7  6.4  0.4857E+01  0.6121E+01  0.4741E+01E
 Epicentro: LOS SANTOS - SANTANDER                                             3
 ACTION:UPD 16-02-04 15:04 OP:cam  STATUS:               ID:20151212082237 L   I
 OLDACT:REG 15-12-12 11:26 OP:drio STATUS:               ID:20151212081748     3
 2015-12-12-0817-48M.COL___340                                                 6
 STAT SP IPHASW D HRMM SECON CODA AMPLIT PERI AZIMU VELO AIN AR TRES W  DIS CAZ7
 BAR2 EZ IP     D  822 57.36                             172   -0.2210 20.5 195 
 BAR2 EZ ES        823 13.39                             172   -0.2110 20.5 195 
 BAR2 EZ I         823 15.13         4.2 0.28            165           20.5 195 
 BRR  HZ EP        822 59.40                             153    0.1910 74.0 300 
 BRR  HE ES        823 16.89                             153    0.3910 74.0 300 
 BRR  HZ I         823 18.94         4.2 0.14            153           74.0 300 
 PTB  HZ EP        823  4.40                             134   -0.34 9  149 260 
 PTB  HZ EPg       823  4.64                             134   -0.10 9  149 260 
 PTB  HN ES        823 25.77                             134   -0.58 9  149 260 
 PTB  HZ I         823 31.28         5.8 0.26            133            149 260 
 SPBC HZ EP        823  6.40                             131    0.38 9  162 220 
 SPBC HE ES        823 29.00                             131    0.37 9  162 220 
 SPBC HZ I         823 35.48         8.7 0.38            130            162 220 
 ZAR  HN ES        823 36.36                             124    0.17 8  207 293 
                                                                                
