 2016  212 0851 40.0 L   7.307 -73.140  5.3  RSN  6 0.3 1.6LRSN                1
 GAP= 97        0.73       1.5     1.9  5.9 -0.4108E+00  0.5840E+01 -0.1585E+01E
 Epicentro: RIONEGRO - SANTANDER                                               3
 ACTION:UPD 16-03-04 21:25 OP:rebc STATUS:               ID:20160212085140 L   I
 OLDACT:UP  16-02-12 19:12 OP:ak   STATUS:               ID:20160212084750     3
 OLDACT:UP  16-02-12 19:08 OP:ak   STATUS:               ID:20160212084750     3
 OLDACT:UP  16-02-12 19:07 OP:ak   STATUS:               ID:20160212084750     3
 OLDACT:REG 16-02-12 16:20 OP:ak   STATUS:               ID:20160212084750     3
 2016-02-12-0847-50M.COL___283                                                 6
 STAT SP IPHASW D HRMM SECON CODA AMPLIT PERI AZIMU VELO AIN AR TRES W  DIS CAZ7
 PAM  EZ EP     D  851 48.52                              92    0.0310 48.8  86 
 PAM  EN ES        851 55.07                              92   -0.0510 48.8  86 
 PAM  EZ I         851 56.37        21.9 0.24             47           48.8  86 
 BAR2 EZ EP   2    851 53.32                              91    0.48 5 79.2 183 
 BAR2 EZ ES        852  2.42                              91   -0.4310 79.2 183 
 BAR2 EZ I         852  4.76        14.8 0.20             47           79.2 183 
 OCA  HZ EP        851 57.20                              91    0.5510  105 349 
 OCA  HE ES        852  9.23                              91   -0.4110  105 349 
 OCA  HZ I         852 10.39        17.6 0.34             47            105 349 
 RUS  HZ EP   2    852  5.24                              90    0.42 5  157 178 
 RUS  HN ES        852 24.40                              90    0.22 9  157 178 
 RUS  HZ I         852 25.34         5.8 0.18             47            157 178 
 PTB  HZ EP        852  6.06                              90   -0.07 9  168 240 
 PTB  HN ES        852 26.58                              90    0.08 9  168 240 
 PTB  HZ I         852 27.55        11.2 0.22             47            168 240 
 ZAR  HZ EP        852  8.78                              56   -0.22 9  191 276 
 ZAR  HN ES        852 31.73                              56    0.11 9  191 276 
 ZAR  HZ I         852 33.16         6.0 0.06             37            191 276 
                                                                                
