 2012  212 0623 11.1 L   7.527 -73.045156.0  RSN  7 0.1 1.3LRSN                1
 GAP=140        0.35       3.3     3.8  3.5 -0.2177E+01  0.2001E+01 -0.1530E+01E
 ACTION:UP  12-03-07 16:29 OP:epov STATUS:               ID:20120212062311 L   I
 2012-02-12-0620-00M.COL___188                                                 6
 STAT SP IPHASW D HRMM SECON CODA AMPLIT PERI AZIMU VELO AIN AR TRES W  DIS CAZ7
 PAM  SZ EP   1    623 32.97                             164    0.07 8 43.4 119 
 PAM  SN ES   1    623 49.69                             164   -0.19 8 43.4 119 
 GIR2 SZ EP   1    623 32.77                             161    0.05 8 52.2 198 
 OCA  SZ EP   1    623 34.42                             150    0.05 8 84.3 339 
 BRR  HE ES   1    623 52.39                             149   -0.01 8 87.1 238 
 BRR  HZ I         623 53.72         4.6 0.11                          87.1 238 
 BAR2 SZ EP        623 35.95                             144    0.1310  104 188 
 BAR2 SZ ES   1    623 55.19                             144    0.12 7  104 188 
 BAR2 SZ I         623 56.16         4.0 0.14                           104 188 
 RUS  HZ EP   1    623 42.46                             128   -0.17 7  181 181 
 RUS  HZ I         623 42.95         1.3 0.08                           181 181 
 PTB  HZ EP   1    623 42.70                             127   -0.23 7  190 235 
                                                                                
