 2011 1212 0045 33.6 L   5.842 -73.714120.0  RSN  7 0.2 1.2LRSN                1
 GAP= 95        0.43       3.3     2.7  5.5 -0.2866E+01  0.7127E+01  0.1082E+01E
 Epicentro: PUENTE NACIONAL - SANTANDER                                        3
 ACTION:UPD 12-07-13 16:15 OP:ep   STATUS:               ID:20111212004533 L   I
 2011-12-12-0040-00M.COL___186                                                 6
 STAT SP IPHASW D HRMM SECON CODA AMPLIT PERI AZIMU VELO AIN AR TRES W  DIS CAZ7
 RUS  HZ EP   1    045 52.89                             148    0.20 7 70.1  85 
 RUS  HE ES        046  7.48                             148   -0.0810 70.1  85 
 RUS  HZ I         046  8.88         2.5 0.28                          70.1  85 
 CTAU SZ EP   1    045 53.71                             145    0.35 7 79.5 207 
 CTAU SZ I         045 54.49         2.5 0.27                          79.5 207 
 BAR2 SZ EP   2    045 54.80                             137    0.12 5  102  35 
 BAR2 SZ ES   1    046 11.09                             137   -0.02 7  102  35 
 BAR2 SZ I         046 12.19         9.0 0.28                           102  35 
 PTB  HZ EP   1    045 55.08                             134   -0.24 7  113 313 
 NOR  SZ EP   1    045 57.12                             129    0.02 7  132 257 
 NOR  SN ES   1    046 15.46                             129    0.04 7  132 257 
 CHI  HZ EP   1    045 57.48                             129   -0.34 7  134 181 
 CHI  HZ I         045 58.26         1.4 0.22                           134 181 
 GIR2 SZ EP   2    045 58.98                             125    0.12 5  148  23 
                                                                                
