 2016 1212 0204 19.7 L   6.743 -73.108144.7  RSN  8 0.3 1.4LRSN                1
 GAP=144        0.72       3.1     4.7  4.7 -0.3691E+01 -0.1860E+01  0.3811E+01E
 Epicentro: LOS SANTOS - SANTANDER                                             3
 ACTION:UPD 17-01-11 20:14 OP:rebc STATUS:               ID:20161212020419 L   I
 OLDACT:UP  16-12-12 17:31 OP:edw  STATUS:               ID:20161212015741     3
 OLDACT:UP  16-12-12 17:30 OP:edw  STATUS:               ID:20161212015741     3
 OLDACT:REG 16-12-12 11:49 OP:edw  STATUS:               ID:20161212015741     3
 2016-12-12-0158-00M.COL___390                                                 6
 STAT SP IPHASW D HRMM SECON CODA AMPLIT PERI AZIMU VELO AIN AR TRES W  DIS CAZ7
 BAR2 EZ EP        2 4 38.96                             172   -0.1610 18.6 206 
 BAR2 EZ ES        2 4 53.79                             172   -0.4710 18.6 206 
 BAR2 EZ I         2 4 56.60         8.2 0.19            172           18.6 206 
 BRR  HZ IP     C  2 4 40.81                             150   -0.3310 78.0 301 
 BRR  HN ES        2 4 58.21                             150    0.3610 78.0 301 
 PAM  EZ EP        2 4 41.96                             150   -0.0010 79.9  34 
 PAM  EN ES        2 4 59.38                             150    0.0610 79.9  34 
 PAM  EZ I         2 5  2.15         5.0 0.20            152           79.9  34 
 RUS  HZ EP        2 4 43.41                             145    0.5210 94.1 178 
 RUS  HN ES        2 5  1.09                             145    0.1210 94.1 178 
 RUS  HZ I         2 5  2.52         4.6 0.26            148           94.1 178 
 PTB  HZ EP   9    2 4 45.48                             131   -1.39 0  151 262 
 PTB  HN ES        2 5  6.81                             134    0.15 9  151 262 
 PTB  HZ I         2 5 12.42         3.5 0.06            132            151 262 
 CHI  HN ES        2 5 25.70                             117   -0.05 8  244 197 
 GUY2CHZ EP   4    2 5  3.58                             112    0.33 0  301 236 
 GUY2CHN ES   2    2 5 36.90                             112   -0.31 4  301 236 
 GUY2CHZ I         2 5 44.66         1.1 0.54                           301 236 
 PRA  HZ EP        2 5 12.73                             106   -0.07 6  389 211 
 PRA  HN ES   4    2 5 50.43                             106   -3.77 0  389 211 
 SJC  HZ EP   4    2 5 13.09                             105   -3.04 0  417 327 
 SJC  HN ES   4    2 5 55.30                             105   -4.83 0  417 327 
                                                                                
