 2017  112 0810 40.5 L   6.060 -73.864104.0  RSN  5 0.4 1.0LRSN                1
 GAP=139        0.76       4.9     2.7  8.2 -0.5907E+00  0.5662E+01  0.1667E+02E
 Epicentro: EL PENON - SANTANDER                                               3
 ACTION:UPD 17-05-22 15:58 OP:jn   STATUS:               ID:20170112081040 L   I
 OLDACT:UP  17-01-12 21:30 OP:dani STATUS:               ID:20170112080742     3
 OLDACT:UP  17-01-12 21:30 OP:dani STATUS:               ID:20170112080742     3
 OLDACT:UP  17-01-12 21:29 OP:dani STATUS:               ID:20170112080742     3
 OLDACT:UP  17-01-12 21:29 OP:dani STATUS:               ID:20170112080742     3
 OLDACT:REG 17-01-12 20:09 OP:and  STATUS:               ID:20170112080742     3
 2017-01-12-0808-00M.COL___334                                                 6
 STAT SP IPHASW D HRMM SECON CODA AMPLIT PERI AZIMU VELO AIN AR TRES W  DIS CAZ7
 PTB  HZ EP        810 58.07                             138   -0.3110 84.3 309 
 PTB  HN ES        811 12.42                             138    0.1010 84.3 309 
 PTB  HZ I         811 15.78         1.3 0.12            141           84.3 309 
 RUS  HZ EP        810 59.53                             137    0.1610 88.4 102 
 RUS  HN ES        811 13.92                             137   -0.1710 88.4 102 
 RUS  HZ I         811 15.67         1.8 0.38            142           88.4 102 
 BAR2 EZ EP   3    811  0.52                             134    0.88 2 95.6  52 
 BAR2 HE ES   1    811 14.84                             134    0.27 7 95.6  52 
 NOR  HZ EP        811  1.64                             126   -0.4310  124 244 
 NOR  HN ES        811 18.87                             126   -0.0310  124 244 
 NOR  HZ I         811 20.68         4.7 0.22            130            124 244 
 GUY2CHZ EP        811  9.95                             114    0.29 9  190 241 
 GUY2CHE ES   2    811 33.60                             114    1.19 4  190 241 
 GUY2CHZ I         811 39.03         2.0 0.51                           190 241 
                                                                                
