 2012  212 0204 22.5 L   6.778 -73.165146.5  RSN 11 0.3 1.9LRSN                1
 GAP=135        0.61       2.7     3.1  4.5 -0.1145E+01  0.2822E+01  0.2726E+01E
 ACTION:UP  12-03-07 16:29 OP:epov STATUS:               ID:20120212020422 L   I
 2012-02-12-0200-00M.COL___188                                                 6
 STAT SP IPHASW D HRMM SECON CODA AMPLIT PERI AZIMU VELO AIN AR TRES W  DIS CAZ7
 BAR2 SZ EP   1    2 4 42.32                             172    0.17 7 20.7 185 
 BAR2 SZ ES   1    2 4 57.48                             172   -0.02 7 20.7 185 
 BAR2 SZ I         2 5  0.24        29.1 0.22                          20.7 185 
 GIR2 SZ EP   1    2 4 42.35                             167    0.05 7 33.4 355 
 BRR  HZ EP   1    2 4 44.10                             153    0.43 7 70.5 301 
 BRR  HN ES   1    2 5  0.97                             153    0.76 7 70.5 301 
 BRR  HZ I         2 5  4.09        21.2 0.14                          70.5 301 
 PAM  SZ EP   1    2 4 44.93                             150   -0.04 7 80.6  40 
 PAM  SN ES        2 5  2.24                             150   -0.2710 80.6  40 
 RUS  HZ EP        2 4 46.08                             145   -0.0710 98.4 175 
 RUS  HN ES   1    2 5  4.57                             145   -0.04 7 98.4 175 
 RUS  HZ I         2 5  6.08         8.8 0.03                          98.4 175 
 PTB  HZ EP   1    2 4 48.89                             133   -0.39 7  145 260 
 PTB  HN ES   1    2 5  9.72                             133   -0.46 7  145 260 
 OCA  SZ EP   1    2 4 50.90                             129   -0.15 7  162 354 
 ZAR  HN ES   1    2 5 20.00                             123   -0.13 6  203 293 
 ZAR  HZ I         2 5 28.03         7.5 0.23                           203 293 
 NOR  SZ EP   2    2 4 57.96                             119    0.04 4  232 235 
 NOR  SN ES   1    2 5 25.33                             119   -0.23 6  232 235 
 CHI  HZ EP   1    2 5  0.19                             118    0.28 6  246 195 
 CHI  HN ES   1    2 5 29.13                             118    0.03 6  246 195 
 CHI  HZ I         2 5 37.31         5.1 0.16                           246 195 
 PRA  HZ EP   1    2 5 16.21                             107    0.55 4  389 209 
                                                                                
