 2017  412 0005 50.7 L   6.783 -73.135151.1  RSN  6 0.4 1.5LRSN                1
 GAP=139        0.94       4.2     5.0  6.3 -0.2258E+01  0.3023E+01  0.6697E+01E
 Epicentro: LOS SANTOS - SANTANDER                                             3
 ACTION:UPD 17-05-30 21:11 OP:jn   STATUS:               ID:20170412000550 L   I
 OLDACT:UP  17-04-12 14:36 OP:edw  STATUS:               ID:20170411235958d    3
 OLDACT:UP  17-04-12 14:36 OP:edw  STATUS:               ID:20170411235958d    3
 OLDACT:DUP 17-04-12 14:26 OP:edw  STATUS:               ID:20170411235958d    3
 2017-04-12-0000-15M.COL___368                                                 6
 STAT SP IPHASW D HRMM SECON CODA AMPLIT PERI AZIMU VELO AIN AR TRES W  DIS CAZ7
 BAR2 EZ EP        0 6 10.71                             171   -0.1910 21.7 194 
 BAR2 EZ ES        0 6 26.48                             171   -0.2110 21.7 194 
 BAR2 EZ I         0 6 26.87         6.2 0.26            170           21.7 194 
 BRR  HZ EP        0 6 12.91                             153    0.4110 73.2 299 
 BRR  HN ES        0 6 30.21                             153    0.6810 73.2 299 
 PAM  EZ EP        0 6 13.52                             151    0.0310 78.1  38 
 PAM  EN ES        0 6 30.95                             151   -0.3410 78.1  38 
 PAM  EZ I         0 6 32.83         8.3 0.50            154           78.1  38 
 RUS  HZ EP        0 6 14.75                             145   -0.0510 98.6 177 
 RUS  HN ES        0 6 33.87                             145    0.2410 98.6 177 
 RUS  HZ I         0 6 34.93         4.5 0.42            145           98.6 177 
 PTB  HZ EP        0 6 17.69                             133   -0.46 9  149 260 
 PTB  HE ES        0 6 39.09                             133   -0.49 9  149 260 
 PTB  HZ I         0 6 43.03         2.2 0.28            133            149 260 
 CHI  HZ EP        0 6 29.00                             118    0.50 8  247 196 
 CHI  HN ES        0 6 57.92                             118   -0.09 8  247 196 
 CHI  HZ I         0 7  1.64         1.9 0.42            119            247 196 
                                                                                
