 2016  912 0453 40.8 L   6.858 -73.162145.3  RSN  6 0.4 1.4LRSN                1
 GAP=132        1.07       5.1     5.3  7.3 -0.6783E+01  0.5317E+01  0.4690E+01E
 Epicentro: ZAPATOCA - SANTANDER                                               3
 ACTION:UPD 17-08-17 21:09 OP:lp   STATUS:               ID:20160912045340 L   I
 OLDACT:UP  16-09-12 20:37 OP:ar   STATUS:               ID:20160912044452d    3
 OLDACT:DUP 16-09-12 20:34 OP:ar   STATUS:               ID:20160912044452d    3
 2016-09-12-0448-00M.COL___298                                                 6
 STAT SP IPHASW D HRMM SECON CODA AMPLIT PERI AZIMU VELO AIN AR TRES W  DIS CAZ7
 BAR2 EZ EP        454  0.28                             168   -0.2810 29.5 184 
 BAR2 EZ ES        454 15.55                             168   -0.3910 29.5 184 
 BAR2 EZ I         454 17.27         4.4 0.17            166           29.5 184 
 BRR  HZ EP        454  1.83                             154    0.1310 66.8 294 
 BRR  HN ES        454 18.52                             154    0.5510 66.8 294 
 BRR  HZ I         454 22.35         6.9 0.28            153           66.8 294 
 PAM  EZ EP        454  3.24                             152    0.4410 73.8  44 
 PAM  EN ES        454 19.81                             152   -0.1110 73.8  44 
 PAM  EZ I         454 20.48         4.8 0.34            157           73.8  44 
 RUS  HZ EP        454  5.09                             142    0.0610  107 175 
 RUS  HE ES        454 23.76                             142   -0.1410  107 175 
 RUS  HZ I         454 25.20         1.9 0.16            143            107 175 
 PTB  HZ EP        454  7.09                             132   -0.65 9  147 256 
 PTB  HN ES        454 28.22                             132   -0.50 9  147 256 
 PTB  HZ I         454 30.24         2.7 0.11            132            147 256 
 SPBC HZ EP        454  9.79                             128    0.11 9  167 217 
 SPBC HN ES        454 32.96                             128    0.78 9  167 217 
 SPBC HZ I         454 41.34         3.1 0.20            129            167 217 
                                                                                
