 2013 1212 0142 24.9 L   6.789 -73.164147.1  RSN  6 0.3 1.8LRSN                1
 GAP=235        0.87       5.3     5.2  6.1  0.1296E+01  0.4848E+01  0.6517E+01E
 Epicentro: LOS SANTOS - SANTANDER                                             3
 ACTION:UPD 14-01-13 10:17 OP:ep   STATUS:               ID:20131212014224 L   I
 OLDACT:REG 13-12-12 06:47 OP:jn   STATUS:               ID:20131212014000     3
 2013-12-12-0140-00M.COL___285                                                 6
 STAT SP IPHASW D HRMM SECON CODA AMPLIT PERI AZIMU VELO AIN AR TRES W  DIS CAZ7
 BAR2 SZ EP        142 44.57                             171   -0.0710 21.9 185 
 BAR2 SZ ES        142 59.65                             171   -0.4010 21.9 185 
 BAR2 SZ I         143  0.91        19.8 0.20            165           21.9 185 
 BRR  HZ EP        142 46.39                             153    0.2910 70.0 300 
 BRR  HN ES        143  3.19                             153    0.5310 70.0 300 
 BRR  HZ I         143  4.14         7.9 0.12            152           70.0 300 
 RUS  HZ EP        142 48.51                             144   -0.1710 99.6 175 
 RUS  HE ES   1    143  7.52                             144    0.26 7 99.6 175 
 RUS  HZ I         143  8.86         5.2 0.46            142           99.6 175 
 PTB  HZ EP        142 51.21                             133   -0.54 9  146 259 
 PTB  HN ES        143 12.20                             133   -0.51 9  146 259 
 PTB  HZ I         143 14.19         7.1 0.42            131            146 259 
 SPBC HZ EP        142 53.56                             130    0.29 9  161 219 
 SPBC HN ES        143 15.57                             130    0.16 9  161 219 
 SPBC HZ I         143 22.63         9.3 0.22            128            161 219 
 NOR  HZ EP        143  0.60                             119    0.17 8  232 234 
 NOR  HE ES   1    143 28.44                             119    0.28 6  232 234 
 NOR  HZ I         143 33.59         4.3 0.38            118            232 234 
                                                                                
