 2012 1112 0217 27.1 L   7.326 -73.285119.7  RSN  7 0.3 1.8LRSN                1
 GAP=172        0.60       4.1     3.0  4.8  0.1727E+01  0.4147E+01  0.1484E+00E
 Epicentro: RIONEGRO - SANTANDER                                               3
 ACTION:UPD 12-12-05 15:32 OP:}ep  STATUS:               ID:20121112021727 L   I
 2012-11-12-0210-00M.COL___230                                                 6
 STAT SP IPHASW D HRMM SECON CODA AMPLIT PERI AZIMU VELO AIN AR TRES W  DIS CAZ7
 GIR2 SZ EP   1    217 43.56                             165   -0.05 7 29.1 160 
 GIR2 SZ ES   1    217 56.28                             165   -0.21 7 29.1 160 
 BRR  HZ EP        217 44.30                             154   -0.1010 53.0 243 
 BRR  HN ES   1    217 58.17                             154    0.26 7 53.0 243 
 PAM  SZ EP   1    217 45.75                             150   -0.02 7 64.6  89 
 PAM  SN ES   1    218  0.05                             150   -0.29 7 64.6  89 
 PAM  SZ I         218  2.53         6.4 0.24                          64.6  89 
 BAR2 SZ EP        217 46.83                             143    0.2610 81.9 172 
 BAR2 SZ ES   1    218  2.13                             143    0.36 7 81.9 172 
 BAR2 SZ I         218  4.00        30.2 0.24                          81.9 172 
 PTB  HZ EP   1    217 52.61                             124   -0.28 7  156 236 
 PTB  HN ES   1    218 12.31                             124   -0.71 7  156 236 
 RUS  HZ EP   1    217 53.90                             123   -0.03 7  160 172 
 RUS  HN ES   1    218 15.00                             123    0.13 7  160 172 
 ZAR  HZ EP   1    217 54.96                             120    0.14 7  175 276 
 ZAR  HE ES   1    218 16.83                             120    0.38 7  175 276 
 ZAR  HZ I         218 20.25         9.7 0.18                           175 276 
                                                                                
