 2011  312 0303  1.1 L   6.774 -72.585119.3  RSN  4 0.4 1.4LRSN                1
 GAP=184        1.06       4.3    16.6 18.7  0.1962E+02 -0.2470E+03 -0.2308E+02E
 Epicentro: CONCEPCION - SANTANDER                                             3
 ACTION:UP  11-06-16 14:33 OP:jfem STATUS:               ID:20110312030301 L   I
 2011-03-12-0300-18S.COL___135                                                 6
 STAT SP IPHASW D HRMM SECON CODA AMPLIT PERI AZIMU VELO SNR AR TRES W  DIS CAZ7
 BAR2 SZ ES        3 3 33.79                             148    -0.310   69 253 
 BAR2 SZ I         3 3 34.23         6.4 0.16                            69 253 
 RUS  HZ EP   1    3 3 23.67                             134     0.4 7  112 210 
 RUS  HN ES        3 3 40.94                             134     0.310  112 210 
 RUS  HZ I         3 3 42.92         3.5 0.28                           112 210 
 GRA  SZ EP        3 3 23.61                             130    -0.410  125 349 
 GRA  SZ ES   1    3 3 42.59                             130     0.6 7  125 349 
 GRA  SZ I         3 3 44.64         2.5 0.31                           125 349 
 YOP  SZ EP   1    3 3 27.40                             123     0.2 7  158 173 
 YOP  SZ I         3 3 33.04         5.8 0.36                           158 173 
 YOP  SN ES        3 3 47.37                             123    -0.2 9  158 173 
                                                                                
