 2012  312 0917 42.2 L   6.683 -73.219149.1  RSN  4 0.2 1.3LRSN                1
 GAP=220        0.43       4.6     4.6  5.0  0.1404E+02 -0.2826E+00 -0.3491E+01E
 ACTION:UP  12-03-31 23:19 OP:EP   STATUS:               ID:20120312091742 L   I
 2012-03-12-0910-00M.COL___193                                                 6
 STAT SP IPHASW D HRMM SECON CODA AMPLIT PERI AZIMU VELO SNR AR TRES W  DIS CAZ7
 BRR  HZ EP   1    918  3.44                             153    -0.3 7   72 311 
 BRR  HN ES   1    918 20.69                             153     0.2 7   72 311 
 BRR  HZ I         918 25.61         4.8 0.10                            72 311 
 RUS  HZ EP   1    918  5.62                             148     0.2 7   89 170 
 RUS  HN ES   1    918 23.47                             148    -0.1 7   89 170 
 RUS  HZ I         918 25.07         2.9 0.29                            89 170 
 PTB  HZ EP   1    918  8.69                             135     0.2 7  138 263 
 PTB  HN ES   1    918 29.03                             135    -0.1 7  138 263 
 PTB  HZ I         918 37.16         2.9 0.29                           138 263 
 ZAR  HZ EP   1    918 14.57                             123     0.0 6  202 296 
 ZAR  HN ES   1    918 39.91                             123     0.0 6  202 296 
                                                                                
