 2012 1112 0807 46.3 L   6.799 -73.149150.0  RSN 12 0.4 2.7LRSN                1
 GAP= 71        0.79       3.1     3.2  4.9  0.3151E+00  0.1945E+01  0.3527E+01E
 Epicentro: LOS SANTOS - SANTANDER                                             3
 ACTION:UPD 12-12-05 15:32 OP:}ep  STATUS:               ID:20121112080746 L   I
 2012-11-12-0805-49M.COL___209                                                 6
 STAT SP IPHASW D HRMM SECON CODA AMPLIT PERI AZIMU VELO AIN AR TRES W  DIS CAZ7
 BAR2 SZ EP        8 8  6.45                             171   -0.0310 23.2 189 
 BAR2 SZ ES   1    8 8 22.14                             171   -0.04 7 23.2 189 
 BAR2 SZ I         8 8 22.83       138.0 0.30                          23.2 189 
 GIR2 SZ EP   1    8 8  6.53                             168    0.01 7 31.3 351 
 GIR2 SZ ES   1    8 8 22.32                             168    0.07 7 31.3 351 
 BRR  HZ EP        8 8  8.31                             153    0.3810 70.9 299 
 BRR  HE ES   1    8 8 25.61                             153    0.84 7 70.9 299 
 BRR  HZ I         8 8 30.21        71.5 0.12                          70.9 299 
 PAM  SZ EP        8 8  9.23                             151    0.2010 77.7  40 
 PAM  SE ES   1    8 8 26.45                             151   -0.27 7 77.7  40 
 PAM  SZ I         8 8 28.67        66.6 0.58                          77.7  40 
 RUS  HZ EP        8 8 10.31                             145   -0.2010  101 176 
 RUS  HN ES   1    8 8 28.88                             145   -0.47 7  101 176 
 RUS  HZ I         8 8 30.31        43.2 0.38                           101 176 
 PTB  HZ EP        8 8 13.10                             133   -0.52 9  147 259 
 PTB  HN ES   1    8 8 34.22                             133   -0.68 7  147 259 
 PTB  HZ I         8 8 41.74       115.7 0.32                           147 259 
 TAM  HZ IP     C  8 8 14.59                             131    0.20 9  155 105 
 TAM  HN ES   1    8 8 36.28                             131    0.01 7  155 105 
 OCA  HZ EP   1    8 8 14.35                             130   -0.64 7  160 353 
 OCA  HE ES   1    8 8 37.31                             130   -0.02 7  160 353 
 OCA  HZ I         8 8 41.36        93.1 0.36                           160 353 
 ZAR  HZ EP   1    8 8 18.97                             123   -0.07 6  204 292 
 ZAR  HE ES   1    8 8 44.69                             123    0.16 6  204 292 
 ZAR  HZ I         8 8 50.91        52.0 0.20                           204 292 
 SML  HZ EP   4    8 8 22.53                             118   -0.67 0  244 335 
 CHI  HZ EP   1    8 8 24.38                             118    0.12 6  248 195 
 CHI  HN ES   1    8 8 54.18                             118    0.35 6  248 195 
 CHI  HZ I         8 8 59.33        15.6 0.50                           248 195 
 ROSC BZ EP   4    8 8 25.84                             117    1.17 0  252 211 
 HEL  HZ EP   4    8 8 27.02                             116    0.29 0  272 256 
 RREF HZ EP   4    8 8 33.42                             112    0.79 0  321 229 
 TOL  SZ EP   1    8 8 35.72                             110    0.99 5  343 225 
 TOL  SZ I         8 9 17.60        14.7 0.20                           343 225 
 PRA  HZ EP   1    8 8 39.67                             107   -0.31 4  392 210 
 PRA  HN ES   1    8 9 22.48                             107    0.67 4  392 210 
 PRA  HZ I         8 9 27.92        26.3 0.66                           392 210 
                                                                                
