 2013  412 0602 59.3 L   6.500 -73.576107.1  RSN  9 0.5 2.3LRSN                1
 GAP= 93        1.28       4.8     4.1  7.4 -0.2757E+01  0.6818E+01  0.6063E+01E
 Epicentro: SANTA HELENA DEL OPON - SANTANDER                                  3
 ACTION:UPD 13-05-22 14:37 OP:EP   STATUS:               ID:20130412060259 L   I
 2013-04-12-0558-51M.COL___210                                                 6
 STAT SP IPHASW D HRMM SECON CODA AMPLIT PERI AZIMU VELO AIN AR TRES W  DIS CAZ7
 BAR2 SZ IP        6 3 15.22                             156    0.0810 44.7  77 
 BAR2 SZ ES        6 3 27.42                             156   -0.0810 44.7  77 
 BAR2 SZ I         6 3 28.80       182.2 0.48             47           44.7  77 
 BRR  HZ EP        6 3 16.09                             145   -0.1710 68.7 347 
 BRR  HN ES        6 3 30.01                             145    0.5310 68.7 347 
 BRR  HN I         6 3 36.56        46.3 0.16             47           68.7 347 
 GIR2 SZ IP        6 3 16.79                             142   -0.2510 76.7  33 
 GIR2 SZ ES        6 3 30.81                             142   -0.0610 76.7  33 
 RUS  HZ EP        6 3 18.26                             138   -0.0410 86.6 141 
 RUS  HE ES        6 3 33.53                             138    0.4110 86.6 141 
 RUS  HN I         6 3 34.94        18.0 0.36             47           86.6 141 
 PTB  HZ IP     C  6 3 17.99                             134   -0.5810 97.5 273 
 PTB  HN ES        6 3 32.76                             134   -0.8310 97.5 273 
 PTB  HN I         6 3 33.89        40.4 0.20             47           97.5 273 
 NOR  HZ EP        6 3 26.56                             116   -0.02 9  177 234 
 NOR  HE ES        6 3 48.52                             116    0.66 9  177 234 
 NOR  HN I         6 3 50.22        25.6 0.16             47            177 234 
 OCA  HZ EP        6 3 29.71                             114    1.05 9  194   8 
 OCA  HN I         6 3 55.75        76.4 0.20             37            194   8 
 TAM  HZ EP        6 3 28.07                             113   -0.80 9  198  92 
 HEL  HZ EP        6 3 32.12                             111    0.43 8  219 261 
 HEL  HN I         6 4  2.45         6.6 0.58             37            219 261 
                                                                                
