 2010  912 0554  9.0 L   6.804 -73.197135.5  RSN  8 0.2 1.6LRSN                1
 GAP=153        0.57       3.9    13.3  6.6 -0.3150E+02  0.5051E+02 -0.1403E+02E
 Epicentro: ZAPATOCA - SANTANDER                                               3
 ACTION:UP  11-02-18 11:02 OP:tino STATUS:               ID:20100912055409 L   I
 2010-09-12-0550-45S.COL___120                                                 6
 STAT SP IPHASW D HRMM SECON CODA AMPLIT PERI AZIMU VELO SNR AR TRES W  DIS CAZ7
 BAR2 SZ EP        554 27.78                             170     0.410   24 176 
 BAR2 SZ ES   1    554 41.74                             170     0.0 7   24 176 
 BAR2 SZ I         554 43.69        13.2 0.20                            24 176 
 GIR2 SZ EP   2    554 27.81                             167     0.4 5   30   1 
 RUS  HZ EP   2    554 31.63                             141    -0.2 5  102 173 
 RUS  HE ES   1    554 49.38                             141    -0.3 7  102 173 
 RUS  HZ I         554 52.55         3.2 0.18                           102 173 
 GUE  SZ EP   1    554 32.79                             137    -0.1 7  117  15 
 GRA  SZ EP   1    554 33.53                             134     0.0 7  127  20 
 GRA  SZ I         554 34.83         9.0 0.32                           127  20 
 OCA  SZ EP        554 36.22                             127    -0.2 9  159 355 
 OCA  SZ I         555  3.00         6.2 0.12                           159 355 
 CHI  HZ EP   1    554 46.17                             115     0.1 6  248 194 
 CHI  HZ I         555 22.76         2.0 0.63                           248 194 
 PRA  HZ EP   2    555  2.18                             105     0.3 3  390 209 
 PRA  HE ES   1    555 43.00                             105    -0.2 4  390 209 
 PRA  HZ I         555 50.11         2.2 0.26                           390 209 
                                                                                
