 2014  412 0657 15.4 L   6.823 -73.193145.1  RSN  6 0.3 1.6LRSN                1
 GAP=150        0.76       2.8     4.1  6.8 -0.4421E+01  0.5772E+01  0.1584E+01E
 Epicentro: ZAPATOCA - SANTANDER                                               3
 ACTION:UPD 14-05-13 23:07 OP:nd   STATUS:               ID:20140412065715 L   I
 OLDACT:UP  14-04-15 04:25 OP:CAM  STATUS:               ID:20140412065715 L   3
 OLDACT:REG 14-04-12 14:52 OP:stll STATUS:               ID:20140412064819     3
 2014-04-12-0648-19M.COL___230                                                 6
 STAT SP IPHASW D HRMM SECON CODA AMPLIT PERI AZIMU VELO AIN AR TRES W  DIS CAZ7
 PAM  SZ EP        657 38.06                             150    0.4710 79.0  44 
 PAM  SN ES        657 54.94                             150    0.0010 79.0  44 
 PAM  HZ I         657 56.69         6.1 0.58            133           79.0  44 
 PTB  HZ EP        657 41.93                             133    0.08 9  143 257 
 PTB  HZ I         658  1.77         4.2 1.46            119            143 257 
 PTB  HN ES        658  2.57                             133    0.06 9  143 257 
 SPBC HZ EP        657 43.30                             129   -0.38 9  162 217 
 SPBC HN ES        658  5.64                             129   -0.14 9  162 217 
 SML  HZ EP        657 51.61                             118    0.15 8  239 336 
 SML  HN ES        658 19.09                             118   -0.53 8  239 336 
 CHI  HZ EP        657 53.02                             117   -0.12 8  250 194 
 CHI  HZ I         658 21.39         3.3 1.00            104            250 194 
 CHI  HN ES        658 22.31                             117   -0.30 8  250 194 
 GUY2CHZ EP   4    658  0.98                             112    2.36 0  298 234 
 GUY2CHE ES        658 33.02                             112    0.66 7  298 234 
 GUY2CHZ I         658 38.77         3.4 2.66                           298 234 
                                                                                
