 2014  712 0715 33.3 L   6.574 -73.578105.2  RSN  5 0.3 1.1LRSN                1
 GAP=101        0.87       3.8     4.0  8.9  0.1444E+01  0.1191E+02  0.3451E+01E
 Epicentro: EL CARMEN - SANTANDER                                              3
 ACTION:UPD 15-03-16 20:43 OP:nd   STATUS:               ID:20140712071533 L   I
 OLDACT:REG 14-07-12 12:30 OP:stll STATUS:               ID:20140712070820     3
 2014-07-12-0708-20M.COL___262                                                 6
 STAT SP IPHASW D HRMM SECON CODA AMPLIT PERI AZIMU VELO AIN AR TRES W  DIS CAZ7
 BAR2 SZ EP        715 48.90                             156    0.0510 43.8  87 
 BAR2 SZ ES        716  1.13                             156    0.1210 43.8  87 
 BAR2 SZ I         716  2.33        12.7 0.36            161           43.8  87 
 BRR  HZ EP        715 49.75                             148    0.2610 60.8 346 
 BRR  HE ES        716  2.23                             148    0.0810 60.8 346 
 BRR  HZ I         716  4.82         4.1 0.38            153           60.8 346 
 RUS  HN ES        716  7.30                             136   -0.4610 93.1 144 
 RUS  HZ I         716  8.95         1.5 0.20            138           93.1 144 
 PTB  HZ EP        715 52.10                             134   -0.2410 97.2 268 
 PTB  HN ES        716  6.85                             134   -0.3710 97.2 268 
 PTB  HZ I         716  7.95         3.0 0.48            136           97.2 268 
 SPBC HN ES        716 11.02                             128    0.5910  116 208 
 SPBC HZ I         716 17.78         2.2 0.24            130            116 208 
                                                                                
