 2013 1112 0329 42.2 L   6.767 -73.129146.1  RSN  7 0.5 1.5LRSN                1
 GAP=140        1.15       4.8     5.7  7.4 -0.5776E+01  0.7460E+01 -0.1037E+01E
 Epicentro: LOS SANTOS - SANTANDER                                             3
 ACTION:UPD 14-01-09 16:27 OP:ep   STATUS:               ID:20131112032942 L   I
 OLDACT:REG 13-11-12 12:26 OP:nd   STATUS:               ID:20131112032745     3
 2013-11-12-0327-45M.COL___219                                                 6
 STAT SP IPHASW D HRMM SECON CODA AMPLIT PERI AZIMU VELO AIN AR TRES W  DIS CAZ7
 BAR2 SZ EP        330  1.97                             172    0.1510 20.3 197 
 BAR2 SZ ES        330 17.03                             172   -0.0910 20.3 197 
 BAR2 SZ I         330 18.19        12.7 0.24            170           20.3 197 
 BRR  HZ EP        330  3.84                             151    0.2510 74.6 300 
 BRR  HN ES        330 21.05                             151    0.7810 74.6 300 
 BRR  HZ I         330 22.97         3.8 0.14            151           74.6 300 
 PAM  SZ EP        330  4.77                             150    0.2110 79.1  37 
 PAM  SN ES        330 21.51                             150   -0.4910 79.1  37 
 PAM  SZ I         330 23.37         6.4 0.84            153           79.1  37 
 RUS  HZ EP        330  6.20                             145    0.4710 96.9 177 
 RUS  HN ES        330 23.65                             145   -0.4310 96.9 177 
 RUS  HZ I         330 25.53         3.5 0.24            146           96.9 177 
 PTB  HZ EP        330  8.76                             132   -0.55 9  149 260 
 PTB  HN ES        330 29.87                             132   -0.58 9  149 260 
 PTB  HZ I         330 32.23         3.2 0.10            132            149 260 
 SPBC HZ EP        330 10.92                             129    0.34 9  162 220 
 SPBC HN ES        330 32.87                             129    0.15 9  162 220 
 SPBC HZ I         330 39.43         4.3 0.38            130            162 220 
 SML  HZ EP   1    330 18.23                             117   -1.06 6  248 335 
 SML  HN ES   2    330 48.81                             117    0.59 4  248 335 
 SML  HZ I         330 50.62         3.4 0.22            118            248 335 
                                                                                
