 2017  212 0011 53.7 L   6.782 -73.112146.2  RSN  9 0.4 1.6LRSN                1
 GAP=123        0.77       3.1     3.9  4.7  0.7517E+00 -0.9624E+00  0.4830E+01E
 Epicentro: LOS SANTOS - SANTANDER                                             3
 ACTION:UPD 17-05-24 15:35 OP:jn   STATUS:               ID:20170212001153 L   I
 OLDACT:UP  17-02-12 15:25 OP:and  STATUS:               ID:20170212000742     3
 OLDACT:UP  17-02-12 15:25 OP:and  STATUS:               ID:20170212000742     3
 OLDACT:UP  17-02-12 15:22 OP:and  STATUS:               ID:20170212000742     3
 OLDACT:REG 17-02-12 12:19 OP:and  STATUS:               ID:20170212000742     3
 2017-02-12-0008-00M.COL___352                                                 6
 STAT SP IPHASW D HRMM SECON CODA AMPLIT PERI AZIMU VELO AIN AR TRES W  DIS CAZ7
 BAR2 EZ ES        012 28.48                             171   -0.2710 22.4 200 
 BAR2 EZ I         012 31.12        13.2 0.30            167           22.4 200 
 BRR  HZ EP   2    012 15.21                             151    0.02 5 75.4 299 
 BRR  HN ES        012 32.29                             151    0.3810 75.4 299 
 PAM  EZ EP        012 16.07                             151    0.1010 76.7  36 
 PAM  EN ES        012 33.25                             151   -0.0510 76.7  36 
 PAM  EZ I         012 35.50         8.4 0.46            154           76.7  36 
 RUS  HZ EP        012 17.52                             144    0.1410 98.4 178 
 RUS  HN ES        012 36.03                             144    0.2110 98.4 178 
 RUS  HZ I         012 37.20         6.4 0.32            144           98.4 178 
 PTB  HZ EP   9    012 20.05                             132   -1.00 0  151 260 
 PTB  HN ES        012 40.92                                   -0.43 9  151 260 
 PTB  HZ I         012 46.08         3.7 0.24            128            151 260 
 ZAR  HN ES        012 51.81                             122   -0.52 8  208 292 
 ZAR  HZ I         013  0.22         4.6 0.20            120            208 292 
 NOR  HZ EP   4    012 30.61                             118    0.90 0  237 235 
 CHI  HZ EP        012 31.65                             117    0.28 8  248 196 
 CHI  HN ES        013  0.87                             117    0.16 8  248 196 
 CHI  HZ I         013  7.00         1.7 0.30            116            248 196 
 PTGC HZ EP        012 36.43                             112   -0.83 7  305 159 
 PTGC HN ES   3    013  9.97                             112   -1.23 2  305 159 
 PRA  HZ EP   2    012 47.34                             107    0.04 3  392 210 
 PRA  HN ES   3    013 30.81                             107    1.75 1  392 210 
 PRA  HZ I         013 35.51         2.0 0.38            106            392 210 
                                                                                
