 2012 1012 0253 49.8 L   6.770 -73.105146.5  RSN  6 0.1 1.5LRSN                1
 GAP= 96        0.33       2.6     3.2  4.3 -0.5811E+00 -0.1588E+01  0.3835E+01E
 Epicentro: LOS SANTOS - SANTANDER                                             3
 ACTION:UPD 12-11-22 17:03 OP:ep   STATUS:               ID:20121012025349 L   I
 2012-10-12-0250-00M.COL___231                                                 6
 STAT SP IPHASW D HRMM SECON CODA AMPLIT PERI AZIMU VELO AIN AR TRES W  DIS CAZ7
 BAR2 SZ EP        254  9.40                             171   -0.0810 21.5 203 
 BAR2 SZ I         254  9.54         9.4 0.40                          21.5 203 
 GIR2 SZ EP   3    254  9.46                             166   -0.21 2 35.5 344 
 BRR  HZ EP        254 11.28                             151   -0.0610 76.7 299 
 BRR  HE ES   1    254 28.27                             151    0.13 7 76.7 299 
 BRR  HN I         254 32.89         9.2 0.16                          76.7 299 
 PAM  SZ EP        254 12.21                             151    0.1310 77.3  35 
 PAM  SN ES   1    254 29.33                             151   -0.13 7 77.3  35 
 PAM  SN I         254 29.85         5.1 0.38                          77.3  35 
 RUS  HZ EP        254 13.35                             145   -0.0210 97.1 179 
 RUS  HE ES   2    254 31.85                             145    0.09 5 97.1 179 
 RUS  HN I         254 33.72         3.1 0.34                          97.1 179 
 TAM  HZ EP   3    254 17.56                             132    0.50 2  150 104 
                                                                                
