 2014 1112 0759 37.9 L   5.880 -73.944 96.5  RSN  6 0.4 1.3LRSN                1
 GAP=120        1.06       3.5     3.8  7.7 -0.4681E+01 -0.2782E+00 -0.3370E+01E
 Epicentro: LA BELLEZA - SANTANDER                                             3
 ACTION:UPD 14-12-19 15:42 OP:nd   STATUS:               ID:20141112075937 L   I
 OLDACT:ARG 14-11-12 12:06 OP:stll STATUS:               ID:20141112075736     3
 2014-11-12-0757-36M.COL___274                                                 6
 STAT SP IPHASW D HRMM SECON CODA AMPLIT PERI AZIMU VELO AIN AR TRES W  DIS CAZ7
 SPBC HZ EP        759 52.05                             162    0.4010 29.0 209 
 SPBC HN ES        8 0  2.70                             162    0.3510 29.0 209 
 SPBC HZ I         8 0  3.77        18.7 0.14            160           29.0 209 
 RUS  HZ EP        759 56.68                             133   -0.0910 95.3  89 
 RUS  HN ES        8 0 10.68                             133   -0.7810 95.3  89 
 RUS  HZ I         8 0 12.94         2.4 0.24            133           95.3  89 
 NOR  HZ EP        759 57.43                             128    0.0210  108 251 
 NOR  HE ES        8 0 11.87                             128   -0.7210  108 251 
 NOR  HZ I         8 0 15.00         4.7 0.26            129            108 251 
 BAR2 SZ EP        759 58.45                             126    0.1110  115  47 
 BAR2 SZ I         759 58.56         9.3 0.32            128            115  47 
 BAR2 SZ ES        8 0 14.31                             126    0.0610  115  47 
 BRR  HZ EP        8 0  0.17                             121   -0.20 9  138  11 
 BRR  HZ I         8 0  0.26         4.6 0.24            123            138  11 
 BRR  HN ES        8 0 18.32                             121    0.46 9  138  11 
 CHI  HZ EP        8 0  1.12                             121   -0.02 9  140 170 
 CHI  HE ES        8 0 19.71                             121    0.47 9  140 170 
 CHI  HZ I         8 0 24.42         1.9 0.38            120            140 170 
                                                                                
