 2012  512 0823  2.4 L   6.791 -73.168149.6  RSN  5 0.5 1.3LRSN                1
 GAP=181        0.88       9.8    11.6 12.0  0.3797E+02  0.3439E+01  0.1492E+02E
 Epicentro: LOS SANTOS - SANTANDER                                             3
 ACTION:UP  12-07-05 12:04 OP:pat  STATUS:               ID:20120512082302 L   I
 2012-05-12-0820-00M.COL___195                                                 6
 STAT SP IPHASW D HRMM SECON CODA AMPLIT PERI AZIMU VELO SNR AR TRES W  DIS CAZ7
 BAR2 SZ EP   2    823 21.35                             172    -1.1 5   22 184 
 BRR  HZ EP        823 24.19                             153     0.310   70 300 
 BRR  HZ I         823 24.32         6.5 0.34                            70 300 
 BRR  HE ES   1    823 40.75                             153     0.1 7   70 300 
 RUS  HZ EP   2    823 26.95                             145     0.5 5  100 175 
 RUS  HZ I         823 27.49         1.3 0.20                           100 175 
 RUS  HE ES   2    823 45.06                             145    -0.2 5  100 175 
 PTB  HZ EP        823 29.40                             133     0.0 9  145 259 
 PTB  HN ES   2    823 50.13                             133    -0.4 5  145 259 
 PTB  HZ I         823 51.80         1.9 0.18                           145 259 
 OCA  HN ES   3    823 52.52                             130    -0.9 2  161 354 
 OCA  HZ I         823 55.73         4.8 0.16                           161 354 
                                                                                
