 2016  812 0512  7.9 L   6.820 -73.161149.0  RSN 21 0.4 2.3LRSN                1
 GAP= 70        0.94       2.9     2.8  4.2 -0.1496E+01  0.1506E+01  0.2939E+00E
 Epicentro: LOS SANTOS - SANTANDER                                             3
 ACTION:UPD 16-10-29 15:34 OP:rebc STATUS:               ID:20160812051207 L   I
 OLDACT:UP  16-08-12 15:02 OP:dani STATUS:               ID:20160812050734     3
 OLDACT:UP  16-08-12 15:02 OP:dani STATUS:               ID:20160812050734     3
 OLDACT:UP  16-08-12 15:02 OP:dani STATUS:               ID:20160812050734     3
 OLDACT:UP  16-08-12 15:01 OP:dani STATUS:               ID:20160812050734     3
 OLDACT:UP  16-08-12 14:55 OP:dani STATUS:               ID:20160812050734     3
 OLDACT:REG 16-08-12 12:37 OP:dani STATUS:               ID:20160812050734     3
 2016-08-12-0508-00M.COL___389                                                 6
 STAT SP IPHASW D HRMM SECON CODA AMPLIT PERI AZIMU VELO AIN AR TRES W  DIS CAZ7
 BAR2 EZ EP        512 27.93                             170   -0.0310 25.3 185 
 BAR2 EZ ES        512 43.09                             170   -0.5210 25.3 185 
 BAR2 EZ I         512 44.17        44.4 0.30                          25.3 185 
 BRR  HZ EP        512 29.77                             154    0.5110 68.7 298 
 BRR  HN ES        512 46.56                             154    0.6310 68.7 298 
 BRR  HZ I         512 48.08        26.1 0.36                          68.7 298 
 PAM  EZ EP        512 30.74                             151    0.3110 76.8  42 
 PAM  EE ES        512 48.00                             151    0.0010 76.8  42 
 PAM  EZ I         512 50.06        42.5 0.52                          76.8  42 
 RUS  HZ EP        512 31.94                             144   -0.1910  103 175 
 RUS  HE ES        512 50.92                             144   -0.1210  103 175 
 RUS  HZ I         512 52.44        13.5 0.46                           103 175 
 PTB  HZ EP   4    512 31.45                             133   -3.58 0  147 258 
 PTB  HN ES        512 56.22                             133    0.04 9  147 258 
 PTB  HZ I         513  2.53        13.8 0.16                           147 258 
 TAM  HZ EP        512 36.24                             131    0.20 9  157 106 
 TAM  HZ I         513  0.23        10.8 0.40                           157 106 
 SPBC HZ EP        512 36.89                             130    0.18 9  164 218 
 SPBC HE ES        512 58.52                             130   -0.66 9  164 218 
 SPBC HZ I         513  5.36        30.3 0.18                           164 218 
 ZAR  HZ EP        512 40.31                             123   -0.01 9  202 292 
 ZAR  HN ES        513  5.87                             123    0.27 9  202 292 
 ZAR  HZ I         513 12.66        17.8 0.42                           202 292 
 NOR  HZ EP        512 44.24                             119    0.43 8  235 234 
 NOR  HE ES        513 11.99                             119    0.17 8  235 234 
 NOR  HZ I         513 17.44        15.0 0.48                           235 234 
 CHI  HZ EP        512 46.19                             118    0.23 8  250 195 
 CHI  HZ I         513 19.23        12.8 0.52                           250 195 
 ROSC BZ EP   4    512 48.20                             117    1.89 0  254 210 
 ROSC BZ I         513 22.61        20.6 0.42                           254 210 
 HEL  HZ EP   4    512 50.92                             115    2.76 0  271 255 
 HEL  HE ES        513 19.06                             115   -0.50 8  271 255 
 URE  HZ EP        512 48.44                             114   -0.42 7  281 292 
 URE  HE ES   4    513 19.28                             114   -1.54 0  281 292 
 URE  HZ I         513 30.19         8.3 0.18                           281 292 
 GUY2CHZ EP   4    512 53.32                             113    1.67 0  301 234 
 GUY2CHE ES   4    513 26.70                             113    0.93 0  301 234 
 GUY2CHZ I         513 34.19         8.4 0.36                           301 234 
 SOCV BZ EP        512 50.71                             113   -0.41 7  302  57 
 SOCV BN ES   4    513 23.00                             113   -1.83 0  302  57 
 VIL  EE ES        513 26.02                             112    0.21 7  305 191 
 PTGC HZ EP   4    512 51.12                             112   -1.08 0  311 159 
 LL6C HZ EP        512 53.05                             111   -0.43 7  323 358 
 LL6C HZ I         513 31.45         8.9 0.47                           323 358 
 CBOC HZ EP        512 55.45                             111    0.60 7  333 252 
 CBOC HN ES        513 30.63                             111   -0.83 7  333 252 
 CBOC HZ I         513 38.33         2.5 0.39                           333 252 
 PRA  HZ EP        513  1.74                             107    0.08 6  393 209 
 PRA  HE ES        513 44.00                             107    0.41 6  393 209 
 PRA  HZ I         513 49.16        10.3 0.30                           393 209 
 SJC  HZ EP        513  2.07                             106   -1.18 6  406 327 
 SJC  HN ES   4    513 43.36                             106   -3.06 0  406 327 
 SJC  HZ I         513 51.01         3.9 0.44                           406 327 
 CRJC HZ EP   4    513  8.23                             104   -2.01 0  466   4 
 CRJC HZ I         514  3.02         7.9 0.37                           466   4 
                                                                                
