 2010  712 0142 24.0 L   6.788 -73.032136.1  RSN 11 0.4 2.0LRSN                1
 GAP=169        0.98       4.4     8.0  7.4 -0.1697E+02  0.2776E+01  0.4505E+01E
 Epicentro: CEPITA - SANTANDER                                                 3
 ACTION:UPD 10-12-01 15:17 OP:pat  STATUS:               ID:20100712014224 L   I
 2010-07-12-0138-31S.COL___120                                                 6
 STAT SP IPHASW D HRMM SECON CODA AMPLIT PERI AZIMU VELO AIN AR TRES W  DIS CAZ7
 BAR2 SZ IP        142 42.70                             168     0.110   27 218 
 BAR2 SZ ES   1    142 57.16                             168     0.1 7   27 218 
 BAR2 SZ I         142 58.34        32.6 0.19                            27 218 
 BRR  HZ IP     C  142 44.62                             147    -0.310   83 295 
 BRR  HZ I         142 45.08        42.6 0.11                            83 295 
 BRR  HE ES   1    143  1.28                             147     0.1 7   83 295 
 RUS  HZ EP   1    142 46.65                             142    -0.1 7   99 183 
 RUS  HN ES   2    143  3.94                             142    -0.5 5   99 183 
 RUS  HZ I         143  7.31        11.6 0.38                            99 183 
 BRI  SZ EP   1    142 46.53                             140    -0.3 7  106  14 
 BRI  SZ ES   2    143  4.67                             140     0.1 5  106  14 
 BRI  SZ I         143 10.20        18.0 0.43                           106  14 
 GUE  SZ EP   1    142 48.09                             137     0.3 7  116   6 
 GUE  SZ I         143  8.70         4.3 0.16                           116   6 
 GRA  SZ IP        142 48.82                             135     0.510  124  12 
 GRA  SZ ES   1    143  7.73                             135     0.5 7  124  12 
 GRA  SZ I         143 10.41        18.5 0.36                           124  12 
 OCA  SZ EP   1    142 51.58                             127    -0.4 7  164 349 
 OCA  SZ ES   1    143 12.84                             127    -0.9 7  164 349 
 OCA  SZ I         143 17.04        11.5 0.45                           164 349 
 ROSC BZ EP   2    143  2.86                             114     0.6 4  258 214 
 ROSC BZ I         143 37.49         6.0 0.36                           258 214 
 HEL  HZ EP   2    143  4.71                             112    -0.4 4  284 257 
 HEL  HZ I         143 41.68         7.7 0.44                           284 257 
 RREF HZ EP   1    143 11.26                             108     0.5 5  331 231 
 RREF HN ES   1    143 48.00                             108     0.7 5  331 231 
 RREF HZ I         143 51.90         5.3 0.29                           331 231 
 PRA  HZ EP   1    143 16.97                             105    -0.9 4  397 211 
 PRA  HN ES   1    143 59.49                             105    -0.3 4  397 211 
 PRA  HZ I         144  3.34         3.4 0.25                           397 211 
                                                                                
