 2016 1212 0015 28.6 L   6.806 -73.105146.3  RSN  8 0.3 1.5LRSN                1
 GAP=141        0.84       3.4     3.8  5.0 -0.4611E+00  0.3069E+01  0.4598E+01E
 Epicentro: LOS SANTOS - SANTANDER                                             3
 ACTION:UPD 17-01-11 20:14 OP:rebc STATUS:               ID:20161212001528 L   I
 OLDACT:UP  16-12-12 15:34 OP:edw  STATUS:               ID:20161212000745     3
 OLDACT:REG 16-12-12 11:36 OP:edw  STATUS:               ID:20161212000745     3
 2016-12-12-0008-00M.COL___381                                                 6
 STAT SP IPHASW D HRMM SECON CODA AMPLIT PERI AZIMU VELO AIN AR TRES W  DIS CAZ7
 BAR2 EZ EP        015 48.23                             170   -0.1210 25.1 200 
 BAR2 EZ ES        016  3.74                             170    0.0010 25.1 200 
 BAR2 EZ I         016  6.04         7.3 0.13            170           25.1 200 
 PAM  EZ EP        015 50.99                             152    0.2910 74.1  37 
 PAM  EE ES        016  7.60                             152   -0.3210 74.1  37 
 PAM  EZ I         016 10.17         6.9 0.21            154           74.1  37 
 BRR  HZ IP     D  015 49.99                             151   -0.0410 74.9 296 
 BRR  HN ES        016  7.39                             151    0.6510 74.9 296 
 BRR  HZ I         016 11.21         9.3 0.36            152           74.9 296 
 RUS  HZ EP        015 52.34                             144   -0.1110  101 179 
 RUS  HN ES        016 10.93                             144   -0.1110  101 179 
 RUS  HZ I         016 12.01         7.3 0.28            145            101 179 
 PTB  HZ EP   9    015 55.09                             131   -0.95 0  152 259 
 PTB  HN ES        016 16.11                             130   -0.37 9  152 259 
 PTB  HZ I         016 18.86         3.2 0.14            133            152 259 
 ZAR  HN ES        016 26.64                             122   -0.51 8  208 292 
 CHI  HZ EP        016  6.10                             117   -0.44 8  250 196 
 CHI  HN ES        016 36.42                             117    0.30 8  250 196 
 CHI  HZ I         016 40.42         1.4 0.21            119            250 196 
 GUY2CHZ EP        016 13.28                             112    0.58 7  305 235 
 GUY2CHN ES        016 46.92                             112   -0.17 7  305 235 
 GUY2CHZ I         016 56.47         1.9 0.62                           305 235 
                                                                                
