 2012  312 0950  5.5 L   7.213 -73.692 15.2  RSN  4 0.5 1.0LRSN                1
 GAP=232        1.08       7.6     6.8  5.7  0.3272E+02 -0.6474E+01 -0.4773E+01E
 ACTION:UP  12-03-31 23:19 OP:EP   STATUS:               ID:20120312095005 L   I
 2012-03-12-0947-41M.COL___178                                                 6
 STAT SP IPHASW D HRMM SECON CODA AMPLIT PERI AZIMU VELO SNR AR TRES W  DIS CAZ7
 BRR  HZ EP   1    950  8.59                             139    -0.1 7   12 191 
 BRR  HZ I         950  8.79        27.6 0.12                            12 191 
 BRR  HN ES   1    950 11.09                             139    -0.1 7   12 191 
 PTB  HZ EP   1    950 24.03                              96     0.8 7  113 229 
 PTB  HN ES   1    950 37.11                              96     0.0 7  113 229 
 PTB  HZ I         950 38.49         2.2 0.14                           113 229 
 ZAR  HZ EP   1    950 26.78                              95     0.5 7  132 284 
 ZAR  HN ES   1    950 41.68                              95    -0.7 7  132 284 
 ZAR  HZ I         950 43.35         5.1 0.14                           132 284 
 RUS  HN ES   1    950 49.63                              56    -0.3 7  161 155 
                                                                                
