 2017  912 0721 34.1 L   6.772 -73.104143.5  RSN  8 0.5 1.5LRSN                1
 GAP=165        0.95       4.2     4.9  5.5  0.5061E+01 -0.3924E+01  0.1943E+01E
 Epicentro: LOS SANTOS - SANTANDER                                             3
 ACTION:UPD 17-10-05 19:11 OP:rebc STATUS:               ID:20170912072134 L   I
 OLDACT:UP  17-09-12 15:19 OP:and  STATUS:               ID:20170912071743     3
 OLDACT:UP  17-09-12 15:18 OP:and  STATUS:               ID:20170912071743     3
 OLDACT:REG 17-09-12 13:02 OP:mg   STATUS:               ID:20170912071743     3
 2017-09-12-0718-00M.COL___442                                                 6
 STAT SP IPHASW D HRMM SECON CODA AMPLIT PERI AZIMU VELO AIN AR TRES W  DIS CAZ7
 BAR2 EZ IP     D  721 53.36                             171   -0.1110 21.7 204 
 BAR2 EZ ES        722  8.04                             171   -0.5010 21.7 204 
 BAR2 EZ I         722 10.39         5.1 0.18            169           21.7 204 
 BRR  HZ EP        721 55.08                             150   -0.2910 76.7 299 
 BRR  HN ES        722 12.50                             150    0.5710 76.7 299 
 BRR  HZ I         722 13.74         6.3 0.14            149           76.7 299 
 RUS  HZ EP   9    721 57.89                             144    0.45 0 97.3 179 
 RUS  HN ES        722 16.24                             145    0.1810 97.3 179 
 RUS  HZ I         722 17.27         5.1 0.30            144           97.3 179 
 TAM  HZ EP        722  1.76                             131    0.61 9  150 104 
 SPBC HZ EP        722  2.70                             128    0.17 9  164 221 
 SPBC HN ES        722 24.61                             128   -0.06 9  164 221 
 SPBC HZ I         722 26.12         6.8 0.18            128            164 221 
 ZAR  HZ EP        722  6.56                             121   -0.45 8  210 292 
 ZAR  HN ES        722 32.68                             121    0.03 8  210 292 
 ZAR  HZ I         722 37.63         3.1 0.28            121            210 292 
 CHI  HZ EP        722 11.58                             117    0.05 8  247 196 
 CHI  HN ES        722 41.28                             117    0.58 8  247 196 
 CHI  HZ I         722 44.62         2.0 0.56            117            247 196 
 PTGC HZ EP        722 16.74                             112   -0.65 7  304 159 
 PTGC HN ES   3    722 49.40                             112   -1.71 2  304 159 
                                                                                
