 2016  112 0221 16.7 L   6.571 -73.477123.5  RSN  5 0.4 1.0LRSN                1
 GAP=105        1.05       4.4     4.5  9.9 -0.4566E+01 -0.2328E+01 -0.3341E+01E
 Epicentro: EL CARMEN - SANTANDER                                              3
 ACTION:UPD 16-03-09 23:24 OP:cam  STATUS:               ID:20160112022116 L   I
 OLDACT:UP  16-02-23 20:51 OP:AR   STATUS:               ID:20160112022116 L   3
 OLDACT:UP  16-01-12 16:03 OP:mh   STATUS:               ID:20160112021756d    3
 OLDACT:DUP 16-01-12 16:01 OP:mh   STATUS:               ID:20160112021756d    3
 2016-01-12-0217-55M.COL___231                                                 6
 STAT SP IPHASW D HRMM SECON CODA AMPLIT PERI AZIMU VELO AIN AR TRES W  DIS CAZ7
 BRR  HZ EP        221 35.51                             150    0.4710 64.7 336 
 BRR  HN ES        221 49.84                             150    0.4610 64.7 336 
 BRR  HZ I         221 52.33         3.8 0.42            152           64.7 336 
 RUS  HZ EP   1    221 37.02                             143   -0.21 7 86.8 150 
 RUS  HN ES        221 53.15                             143   -0.1210 86.8 150 
 RUS  HZ I         221 54.62         1.1 0.28            147           86.8 150 
 PTB  HZ EP        221 38.06                             136   -0.2210  108 268 
 PTB  HN ES        221 54.47                             136   -0.6810  108 268 
 PTB  HZ I         221 57.55         2.3 0.10            139            108 268 
 SPBC HN ES        221 57.79                             132    0.4710  121 213 
 PAM  EZ EP        221 40.18                             133    0.1710  121  45 
 PAM  EN ES        221 57.78                             133   -0.4410  121  45 
 PAM  EZ I         221 59.57         1.2 0.52            136            121  45 
                                                                                
