 2013  212 0724 36.0 L   6.799 -73.145150.4  RSN  8 0.4 1.4LRSN                1
 GAP=137        0.86       3.9     5.3  7.3 -0.1447E+01  0.3393E+01  0.4813E+01E
 Epicentro: LOS SANTOS - SANTANDER                                             3
 ACTION:UPD 13-03-12 09:32 OP:ep   STATUS:               ID:20130212072436 L   I
 2013-02-12-0720-00M.COL___240                                                 6
 STAT SP IPHASW D HRMM SECON CODA AMPLIT PERI AZIMU VELO AIN AR TRES W  DIS CAZ7
 BAR2 SZ EP        724 56.12                             171   -0.0810 23.2 190 
 BAR2 SZ ES   1    725 11.96                             171    0.01 7 23.2 190 
 BAR2 SZ I         725 12.84         9.6 0.38            173           23.2 190 
 BRR  HZ IP     C  724 58.04                             153    0.3710 71.3 299 
 BRR  HN ES   1    725 15.34                             153    0.77 7 71.3 299 
 BRR  HZ I         725 17.61         3.9 0.12            151           71.3 299 
 PAM  SZ EP        724 58.94                             151    0.2110 77.4  39 
 PAM  SN ES   1    725 16.41                             151   -0.04 7 77.4  39 
 PAM  SZ I         725 20.28         2.1 0.40            153           77.4  39 
 RUS  HZ EP   1    725  0.26                             145    0.04 7  100 176 
 RUS  HN ES   1    725 18.56                             145   -0.54 7  100 176 
 RUS  HZ I         725 19.81         3.4 0.38            149            100 176 
 PTB  HZ EP   1    725  2.77                             133   -0.60 7  148 259 
 PTB  HN ES   1    725 24.15                             133   -0.55 7  148 259 
 PTB  HZ I         725 29.98         3.2 0.18            134            148 259 
 OCA  HN ES   1    725 26.32                             131   -0.76 7  160 353 
 OCA  HZ I         725 32.07         4.7 0.16            131            160 353 
 ZAR  HN ES   2    725 34.76                             123    0.43 4  204 292 
 CHI  HZ EP   1    725 14.20                             118    0.23 6  249 195 
 CHI  HN ES   1    725 43.93                             118    0.36 6  249 195 
                                                                                
