 2010 1112 0220 16.3 L   6.853 -73.166137.2  RSN  7 0.4 1.7LRSN                1
 GAP=156        1.00       4.3     8.1  9.0 -0.6364E+01 -0.1635E+02 -0.3612E+00E
 Epicentro: LOS SANTOS - SANTANDER                                             3
 ACTION:UP  10-12-17 16:51 OP:REBC STATUS:               ID:20101112022016 L   I
 2010-11-12-0217-01S.COL___129                                                 6
 STAT SP IPHASW D HRMM SECON CODA AMPLIT PERI AZIMU VELO SNR AR TRES W  DIS CAZ7
 BAR2 SZ ES   2    220 49.26                             168    -0.4 5   29 184 
 BRR  HZ EP        220 36.69                             152     0.410   67 295 
 BRR  HN ES        220 52.19                             152     0.410   67 295 
 BRR  HZ I         220 54.58        21.0 0.24                            67 295 
 RUS  HZ EP        220 39.60                             140    -0.110  107 175 
 RUS  HN ES   1    220 57.65                             140    -0.3 7  107 175 
 RUS  HZ I         220 59.73         4.8 0.52                           107 175 
 GRA  SZ EP        220 40.35                             136     0.010  121  19 
 GRA  SZ ES   1    220 59.27                             136     0.1 7  121  19 
 GRA  SZ I         221  0.80        19.0 0.05                           121  19 
 OCA  SZ EP        220 43.37                             129     0.0 9  154 354 
 OCA  SZ ES   1    221  3.51                             129    -1.0 7  154 354 
 OCA  SZ I         221  9.25        11.7 1.14                           154 354 
 NOR  SN ES   2    221 18.54                             116    -0.8 4  237 233 
 NOR  SZ I         221 23.18         0.7 0.00                           237 233 
 RREF HN ES   2    221 38.08                             109    -0.2 3  324 228 
 RREF HZ I         221 45.52         2.9 0.08                           324 228 
                                                                                
