 2015 1212 0308 25.8 L   6.792 -73.123155.3  RSN 14 0.4 2.0LRSN                1
 GAP=140        0.85       2.3     3.0  4.2 -0.1257E+01  0.4252E+01 -0.2886E+00E
 Epicentro: LOS SANTOS - SANTANDER                                             3
 ACTION:UPD 16-02-04 15:04 OP:cam  STATUS:               ID:20151212030825 L   I
 OLDACT:REG 15-12-12 11:15 OP:drio STATUS:               ID:20151212030750     3
 2015-12-12-0307-50M.COL___340                                                 6
 STAT SP IPHASW D HRMM SECON CODA AMPLIT PERI AZIMU VELO AIN AR TRES W  DIS CAZ7
 BAR2 EZ EP        3 8 46.13                             171   -0.4510 23.0 196 
 BAR2 EZ ES        3 9  2.37                             171   -0.4110 23.0 196 
 BAR2 EZ I         3 9  3.46        11.1 0.30            170           23.0 196 
 BRR  HZ IP     D  3 8 48.49                             153    0.3510 73.8 298 
 BRR  HN ES        3 9  6.14                             153    0.5910 73.8 298 
 BRR  HZ I         3 9 12.02        13.8 0.18            151           73.8 298 
 PAM  EZ EP        3 8 49.52                             153    0.5210 76.6  38 
 PAM  EN ES        3 9  6.94                             153   -0.1510 76.6  38 
 PAM  EZ I         3 9  8.96         6.5 0.62            156           76.6  38 
 RUS  HZ EP        3 8 50.33                             146   -0.1110 99.5 177 
 RUS  HN ES        3 9  9.55                             146   -0.0910 99.5 177 
 RUS  HZ I         3 9 12.31         4.8 0.32            149           99.5 177 
 PTB  HZ EP        3 8 53.60                             134   -0.17 9  150 259 
 PTB  HE ES        3 9 15.75                             134    0.18 9  150 259 
 PTB  HZ I         3 9 16.49        14.4 0.14            133            150 259 
 OCA  HZ EP        3 8 55.41                             131    0.42 9  161 352 
 OCA  HN ES        3 9 17.72                             131   -0.03 9  161 352 
 OCA  HZ I         3 9 20.84        18.0 0.16            133            161 352 
 SPBC HZ EP     C  3 8 55.47                             131    0.33 9  164 220 
 SPBC HN ES        3 9 18.05                             131    0.04 9  164 220 
 SPBC HZ I         3 9 22.44        14.5 0.20            132            164 220 
 ZAR  HZ EP        3 8 58.56                             124   -0.60 8  207 292 
 ZAR  HN ES        3 9 25.51                             124    0.34 8  207 292 
 ZAR  HZ I         3 9 30.23        13.3 0.64            124            207 292 
 NOR  HZ EP        3 9  2.34                             120    0.07 8  236 235 
 NOR  HE ES        3 9 30.31                             120   -0.39 8  236 235 
 NOR  HZ I         3 9 34.22         5.8 0.17            121            236 235 
 SML  HZ EP        3 9  2.81                             119   -0.38 8  246 335 
 SML  HE ES        3 9 31.88                             119   -0.46 8  246 335 
 SML  HZ I         3 9 38.05        13.7 0.10            120            246 335 
 HEL  HZ EP        3 9  7.30                             116    0.54 8  274 256 
 HEL  HN ES        3 9 38.50                             116   -0.21 8  274 256 
 HEL  HZ I         3 9 45.64         5.2 0.32            117            274 256 
 URE  HZ EP        3 9  7.07                             115   -0.58 7  286 292 
 URE  HN ES        3 9 40.24                             115   -0.05 7  286 292 
 URE  HZ I         3 9 50.87         6.1 0.18            116            286 292 
 GUY2CHZ EP   4    3 9 11.74                             114    1.70 0  303 235 
 GUY2CHN ES        3 9 44.51                             114   -0.03 7  303 235 
 GUY2CHZ I         3 9 51.99         3.8 0.52                           303 235 
 PRA  HZ EP        3 9 20.05                             108    0.32 6  392 210 
 PRA  HE ES        310  2.03                             108    0.25 6  392 210 
 PRA  HZ I         310  5.79         3.9 0.56            110            392 210 
                                                                                
