 2013  812 0923 40.4 L   6.766 -73.129142.3  RSN  7 0.4 1.8LRSN                1
 GAP=140        1.11       5.1     5.5  9.0 -0.7942E+01  0.3069E+01  0.7262E+01E
 Epicentro: LOS SANTOS - SANTANDER                                             3
 ACTION:UPD 14-01-14 09:01 OP:ep   STATUS:               ID:20130812092340 L   I
 OLDACT:REG 13-08-12 08:48 OP:stll STATUS:               ID:20130812091841     3
 2013-08-12-0918-41M.COL___221                                                 6
 STAT SP IPHASW D HRMM SECON CODA AMPLIT PERI AZIMU VELO AIN AR TRES W  DIS CAZ7
 BAR2 SZ EP        923 59.65                             172    0.1110 20.1 197 
 BAR2 SZ I         924  0.02        10.2 0.10            169           20.1 197 
 GIR2 SZ EP        923 59.68                             165   -0.0910 35.3 348 
 BRR  HZ EP        924  1.47                             151    0.1010 74.7 300 
 BRR  HN ES        924 18.46                             151    0.7310 74.7 300 
 BRR  HN I         924 19.08        24.3 0.30            152           74.7 300 
 PAM  SZ EP        924  2.57                             150    0.2310 79.2  37 
 PAM  SN ES        924 19.09                             150   -0.3810 79.2  37 
 PAM  SN I         924 21.21         8.5 0.70            154           79.2  37 
 RUS  HZ EP        924  3.72                             144    0.2010 96.7 177 
 RUS  HN ES        924 21.17                             144   -0.3910 96.7 177 
 RUS  HN I         924 23.43         5.5 0.34            145           96.7 177 
 PTB  HZ EP        924  6.58                             131   -0.60 9  149 260 
 PTB  HN ES        924 27.33                             131   -0.75 9  149 260 
 PTB  HN I         924 32.55        10.4 0.54            132            149 260 
 SPBC HZ EP        924  8.68                             129    0.22 9  161 220 
 SPBC HN ES        924 30.90                             129    0.55 9  161 220 
 SPBC HN I         924 36.05        10.1 0.34            130            161 220 
                                                                                
