 2010  812 0155 48.5 L   6.811 -73.345114.0  RSN  6 0.3 1.3LRSN                1
 GAP=145        0.73       4.8    12.2 10.2  0.5544E+01 -0.4143E+02 -0.9896E+01E
 Epicentro: ZAPATOCA - SANTANDER                                               3
 ACTION:UP  10-09-07 10:54 OP:vdl  STATUS:               ID:20100812015548 L   I
 2010-08-12-0153-46S.COL___127                                                 6
 STAT SP IPHASW D HRMM SECON CODA AMPLIT PERI AZIMU VELO SNR AR TRES W  DIS CAZ7
 BTL  SZ EP        156  4.44                             172     0.310   15  36 
 BAR2 SZ EP   1    156  4.64                             164     0.1 7   30 144 
 BAR2 SZ ES   2    156 16.92                             164    -0.1 5   30 144 
 BAR2 SZ I         156 18.12         8.3 0.15                            30 144 
 GIR2 SZ EP   1    156  5.10                             162     0.6 7   34  29 
 BRR  HZ EP   2    156  5.11                             155     0.0 5   52 309 
 BRR  HE ES   2    156 17.66                             155    -0.5 5   52 309 
 BRR  HZ I         156 18.47         8.4 0.14                            52 309 
 RUS  HZ EP   1    156  9.41                             135    -0.3 7  106 164 
 RUS  HE ES   2    156 26.02                             135    -0.2 5  106 164 
 RUS  HZ I         156 27.11         2.5 0.16                           106 164 
 GUE  SZ EP        156 10.64                             130    -0.310  122  22 
 GUE  SZ ES   2    156 28.37                             130    -0.1 5  122  22 
 GUE  SZ I         156 29.06         2.3 0.14                           122  22 
                                                                                
