 2012  512 0021 48.5 L   6.712 -73.214145.1  RSN  4 0.2 1.4LRSN                1
 GAP=217        0.43       8.0     7.6  7.1 -0.1270E+02 -0.8554E+01  0.2553E+02E
 Epicentro: VILLANUEVA - SANTANDER                                             3
 ACTION:UP  12-07-05 12:04 OP:pat  STATUS:               ID:20120512002148 L   I
 2012-05-12-0020-00M.COL___195                                                 6
 STAT SP IPHASW D HRMM SECON CODA AMPLIT PERI AZIMU VELO SNR AR TRES W  DIS CAZ7
 BAR2 SZ EP   3    022  7.89                             174     0.0 2   14 165 
 BRR  HZ EP        022  9.71                             153     0.110   70 308 
 BRR  HZ I         022 18.05        10.2 0.34                            70 308 
 BRR  HN ES   1    022 25.80                             153    -0.2 7   70 308 
 RUS  HN ES   3    022 29.65                             146     0.1 2   92 171 
 PTB  HZ EP        022 14.50                             134    -0.1 9  139 262 
 PTB  HN ES   2    022 35.31                             134     0.3 5  139 262 
 PTB  HZ I         022 36.91         1.5 0.32                           139 262 
                                                                                
