 2015 1112 0919 16.7 L   6.806 -73.119142.9  RSN  9 0.5 1.5LRSN                1
 GAP=140        1.09       3.2     5.0  6.4 -0.1762E+01  0.1079E+02 -0.1456E+01E
 Epicentro: LOS SANTOS - SANTANDER                                             3
 ACTION:UPD 15-12-28 16:10 OP:cam  STATUS:               ID:20151112091916 L   I
 OLDACT:UP  15-11-12 20:09 OP:ak   STATUS:               ID:20151112091736     3
 OLDACT:REG 15-11-12 13:48 OP:dnl  STATUS:               ID:20151112091736     3
 2015-11-12-0917-36M.COL___319                                                 6
 STAT SP IPHASW D HRMM SECON CODA AMPLIT PERI AZIMU VELO AIN AR TRES W  DIS CAZ7
 BAR2 EZ EP        919 36.00                             170    0.0310 24.7 197 
 BAR2 EZ ES        919 50.83                             170   -0.2010 24.7 197 
 BAR2 EZ I         919 52.09         9.5 0.16            170           24.7 197 
 BRR  HZ EP        919 37.93                             151    0.3010 73.5 297 
 BRR  HN ES        919 54.33                             151    0.3410 73.5 297 
 PAM  EZ EP        919 39.06                             151    0.6410 75.0  38 
 PAM  EN ES        919 55.97                             151    0.5710 75.0  38 
 PAM  EZ I         919 58.31         6.7 0.64            154           75.0  38 
 RUS  HZ EP        919 40.06                             143   -0.1110  101 178 
 RUS  HE ES        919 58.15                             143   -0.3510  101 178 
 RUS  HZ I         919 59.57         2.2 0.34            145            101 178 
 OCA  HZ EP   1    919 43.95                             129   -0.77 7  160 352 
 OCA  HE ES        920  5.87                             129   -0.73 9  160 352 
 SPBC HZ EP        919 44.89                             128   -0.28 9  166 220 
 SPBC HN ES        920  7.03                             128   -0.38 9  166 220 
 SPBC HZ I         920 10.98         3.4 0.16            129            166 220 
 ZAR  HZ EP   1    919 50.02                             121    0.84 6  207 292 
 ZAR  HE ES        920 14.68                             121    0.14 8  207 292 
 ZAR  HZ I         920 20.78         4.0 0.30            122            207 292 
 SML  HZ EP        919 52.58                             117   -0.61 8  244 335 
 SML  HN ES        920 21.39                             117   -0.30 8  244 335 
 SML  HZ I         920 24.02         2.6 0.09            118            244 335 
 GUY2CHZ EP        920  1.14                             112    0.68 7  304 235 
 GUY2CHE ES        920 34.84                             112    0.22 7  304 235 
 GUY2CHZ I         920 42.59         1.5 0.52                           304 235 
                                                                                
