 2017  512 0744  6.2 L   6.719 -73.187149.9  RSN  4 0.2 0.8LRSN                1
 GAP=226        0.50       4.2     4.3  5.9  0.1236E+02 -0.3113E+01 -0.4108E+01E
 Epicentro: VILLANUEVA - SANTANDER                                             3
 ACTION:UPD 17-06-16 13:35 OP:jn   STATUS:               ID:20170512074406 L   I
 OLDACT:DUP 17-05-12 17:11 OP:osc  STATUS:               ID:20170512073738d    3
 2017-05-12-0738-00M.COL___359                                                 6
 STAT SP IPHASW D HRMM SECON CODA AMPLIT PERI AZIMU VELO AIN AR TRES W  DIS CAZ7
 BRR  HZ EP        744 27.78                             153   -0.0910 72.1 307 
 BRR  HN ES        744 44.89                             153    0.1410 72.1 307 
 BRR  HZ I         744 48.06         2.1 0.28            155           72.1 307 
 RUS  HZ EP        744 29.99                             147    0.1910 92.1 173 
 RUS  HN ES        744 47.98                             147   -0.2110 92.1 173 
 RUS  HZ I         744 49.02         0.7 0.50            152           92.1 173 
 PTB  HN ES        744 54.03                             134    0.15 9  142 262 
 ZAR  HN ES        745  4.12                             123   -0.22 9  203 295 
                                                                                
