 2013  512 0942 60.0 L   6.814 -73.117148.0  RSN 10 0.5 1.9LRSN                1
 GAP=140        0.92       3.5     5.4  6.7 -0.1607E+01  0.9863E+01  0.2450E+01E
 Epicentro: LOS SANTOS - SANTANDER                                             3
 ACTION:UPD 13-06-20 09:49 OP:ep   STATUS:               ID:20130512094260 L   I
 2013-05-12-0940-00M.COL___256                                                 6
 STAT SP IPHASW D HRMM SECON CODA AMPLIT PERI AZIMU VELO AIN AR TRES W  DIS CAZ7
 BAR2 SZ EP     C  943 19.71                             170   -0.2010 25.6 196 
 BAR2 SZ ES   1    943 35.69                             170    0.22 7 25.6 196 
 BAR2 SZ I         943 36.54        15.2 0.30            168           25.6 196 
 BRR  HZ EP   1    943 21.70                             152    0.23 7 73.3 296 
 BRR  HE ES   1    943 39.11                             152    0.86 7 73.3 296 
 BRR  HZ I         943 43.96         9.9 0.12            148           73.3 296 
 PAM  SZ EP   1    943 22.62                             153    0.39 7 74.2  38 
 PAM  SN ES   1    943 39.82                             153    0.22 7 74.2  38 
 PAM  SZ I         943 41.89        19.0 0.54            156           74.2  38 
 RUS  HZ EP   1    943 23.75                             144   -0.28 7  102 178 
 RUS  HN ES   1    943 42.60                             144   -0.21 7  102 178 
 RUS  HZ I         943 43.32         6.9 0.30            147            102 178 
 PTB  HZ EP   1    943 26.57                             132   -0.85 7  151 258 
 PTB  HN ES   1    943 48.25                             132   -0.59 7  151 258 
 PTB  HZ I         943 53.54        11.9 0.22            131            151 258 
 OCA  HZ EP   2    943 28.80                             131    0.46 5  159 352 
 OCA  HN ES   1    943 50.07                             131   -0.41 7  159 352 
 OCA  HZ I         943 56.06         9.3 0.32            131            159 352 
 SML  HZ EP   1    943 36.24                             118   -0.47 6  244 334 
 SML  HN ES   1    944  4.83                             118   -0.54 6  244 334 
 SML  HZ I         944  8.86        13.7 0.22            119            244 334 
 CHI  HZ EP   1    943 38.01                             118   -0.03 6  251 196 
 CHI  HN ES   1    944  7.32                             118   -0.42 6  251 196 
 CHI  HZ I         944 11.16         3.6 0.30            119            251 196 
 HEL  HZ EP   1    943 41.99                             115    1.32 6  276 256 
 HEL  HN ES   1    944 12.79                             115    0.36 6  276 256 
 HEL  HZ I         944 19.04         3.3 0.70            115            276 256 
 PRA  HZ EP   1    943 54.29                             107    0.39 4  395 210 
 PRA  HE ES   1    944 36.51                             107    0.53 4  395 210 
 PRA  HZ I         944 41.43         4.1 0.38            108            395 210 
                                                                                
