 2012  612 0848 32.5 L   6.845 -73.161142.1  RSN  5 0.2 1.4LRSN                1
 GAP=182        0.40       2.5     3.4  5.1  0.1544E+01  0.4034E+01 -0.1283E+01E
 Epicentro: LOS SANTOS - SANTANDER                                             3
 ACTION:UPD 12-08-06 17:48 OP:ep   STATUS:               ID:20120612084830 L   I
 2012-06-12-0840-00M.COL___201                                                 6
 STAT SP IPHASW D HRMM SECON CODA AMPLIT PERI AZIMU VELO AIN AR TRES W  DIS CAZ7
 BAR2 SZ EP   1    848 51.87                             168    0.10 7 28.1 185 
 BAR2 SZ ES   1    849  6.76                             168   -0.06 7 28.1 185 
 BAR2 SZ I         849  9.11         5.5 0.33            166           28.1 185 
 RUS  HZ EP   1    848 56.29                             141    0.04 7  106 175 
 RUS  HN ES   1    849 14.92                             141    0.13 7  106 175 
 RUS  HZ I         849 16.52         5.1 0.34            143            106 175 
 PTB  HZ EP   1    848 58.96                             131   -0.14 7  147 257 
 PTB  HN ES   1    849 19.64                             131   -0.22 7  147 257 
 PTB  HZ I         849 24.11         3.4 0.16            132            147 257 
 OCA  HN ES   1    849 21.40                             130   -0.09 7  155 354 
 ZAR  HN ES   2    849 29.76                             122    0.58 4  201 291 
                                                                                
