 2010  612 0756 37.4 L   6.891 -73.282116.4  RSN  4 0.2 1.0LRSN                1
 GAP=190        0.48       2.5    18.7  5.6  0.2231E+02  0.1487E+01 -0.5129E+01E
 Epicentro: BETULIA - SANTANDER                                                3
 ACTION:UP  10-08-24 10:09 OP:vdl  STATUS:               ID:20100612075637 L   I
 2010-06-12-0753-05S.COL___126                                                 6
 STAT SP IPHASW D HRMM SECON CODA AMPLIT PERI AZIMU VELO SNR AR TRES W  DIS CAZ7
 BAR2 SZ EP        756 53.98                             162     0.110   35 162 
 BAR2 SZ ES   1    757  6.82                             162     0.1 7   35 162 
 GUE  SZ EP        756 59.05                             133     0.010  111  21 
 RUS  HZ EP        756 59.28                             133    -0.110  113 169 
 RUS  HE ES   1    757 16.39                             133    -0.2 7  113 169 
 RUS  HZ I         757 17.67         1.4 0.30                           113 169 
 OCA  SZ EP        757  2.55                             124     0.1 9  149 358 
 OCA  SZ ES   1    757 21.65                             124    -0.3 7  149 358 
 OCA  SZ I         757 27.20         2.4 0.18                           149 358 
                                                                                
