 2012  312 0935 31.3 L   6.644 -73.214143.8  RSN  4 0.1 1.1LRSN                1
 GAP=196        0.36       5.6     3.6  5.7  0.3088E+01 -0.2317E+00  0.1544E+02E
 ACTION:DUP 12-03-31 23:19 OP:EP   STATUS:               ID:20120312093532dL   I
 2012-03-12-0930-00M.COL___190                                                 6
 STAT SP IPHASW D HRMM SECON CODA AMPLIT PERI AZIMU VELO SNR AR TRES W  DIS CAZ7
 BAR2 SZ EP   1    935 50.56                             177     0.1 7    7 149 
 BAR2 SZ I         936  6.33         3.7 0.32                             7 149 
 BRR  HZ EP   1    935 52.28                             151    -0.2 7   75 313 
 BRR  HN ES        936  8.94                             151     0.010   75 313 
 BRR  HZ I         936 13.37         3.7 0.36                            75 313 
 PTB  HZ EP   1    935 57.20                             134     0.0 7  138 265 
 PTB  HN ES   1    936 17.36                             134     0.0 7  138 265 
 PTB  HZ I         936 24.02         1.1 0.29                           138 265 
 ZAR  HN ES   1    936 28.97                             122     0.1 6  204 297 
                                                                                
