 2016  412 0550 52.9 L   6.796 -73.156141.2  RSN 11 0.4 2.0LRSN                1
 GAP=135        0.93       3.4     3.7  5.7 -0.2373E+01  0.8149E+01 -0.1475E+01E
 Epicentro: LOS SANTOS - SANTANDER                                             3
 ACTION:UPD 16-05-05 14:20 OP:rebc STATUS:               ID:20160412055052 L   I
 OLDACT:UP  16-04-12 17:27 OP:mh   STATUS:               ID:20160412054744     3
 OLDACT:REG 16-04-12 12:36 OP:mh   STATUS:               ID:20160412054744     3
 2016-04-12-0547-44M.COL___313                                                 6
 STAT SP IPHASW D HRMM SECON CODA AMPLIT PERI AZIMU VELO AIN AR TRES W  DIS CAZ7
 BAR2 EZ EP     C  551 12.14                             170    0.1810 22.8 187 
 BAR2 EZ ES        551 26.39                             170   -0.4410 22.8 187 
 BAR2 EZ I         551 28.38        18.8 0.15            175           22.8 187 
 PAM  EZ EP        551 15.00                             149    0.3110 78.4  40 
 PAM  EN ES        551 32.05                             149    0.3610 78.4  40 
 PAM  EZ I         551 32.48        15.0 0.18            141           78.4  40 
 RUS  HZ EP        551 16.04                             143   -0.1410  100 175 
 RUS  HN ES        551 34.49                             143    0.1610  100 175 
 RUS  HZ I         551 35.61         9.0 0.28            141            100 175 
 PTB  HZ EP        551 19.25                             131   -0.13 9  147 259 
 PTB  HN ES        551 39.32                             131   -0.72 9  147 259 
 PTB  HZ I         551 41.75        14.2 0.12            126            147 259 
 OCA  HZ EP        551 20.29                             128   -0.59 9  161 354 
 OCA  HZ I         551 49.27        26.3 0.28            120            161 354 
 SPBC HZ EP        551 21.10                             128    0.15 9  162 219 
 SPBC HN ES        551 42.93                             128    0.10 9  162 219 
 SPBC HZ I         551 45.38        14.0 0.26            124            162 219 
 ZAR  HZ EP   1    551 25.15                             121    0.20 6  203 292 
 ZAR  HN ES        551 50.24                             121    0.29 9  203 292 
 ZAR  HZ I         551 58.56        16.8 0.50            115            203 292 
 CHI  HZ EP   1    551 30.34                             116    0.07 6  248 195 
 CHI  HN ES   1    551 59.32                             116   -0.10 6  248 195 
 CHI  HZ I         552  6.37         2.2 0.20            112            248 195 
 HEL  HZ EP        551 32.55                             114   -0.19 8  271 256 
 HEL  HN ES        552  4.87                             114    1.05 8  271 256 
 HEL  HZ I         552 10.94         5.6 0.38            109            271 256 
 GUY2CHZ EP        551 35.82                             111   -0.34 7  300 235 
 GUY2CHN ES   4    552 11.55                             111    1.64 0  300 235 
 GUY2CHZ I         552 19.34         4.1 0.70                           300 235 
 SJC  HZ EP   4    551 46.49                             105   -1.79 0  409 327 
 SJC  HN ES   4    552 28.58                             105   -2.89 0  409 327 
 SJC  HZ I         552 32.06         2.4 0.64            100            409 327 
                                                                                
