 2014  612 0735 41.8 L   6.795 -73.141149.5  RSN 11 0.5 2.1LRSN                1
 GAP=137        1.06       3.3     5.0  7.1 -0.1153E+01  0.1331E+02  0.1329E+01E
 Epicentro: LOS SANTOS - SANTANDER                                             3
 ACTION:UPD 14-07-01 22:53 OP:nd   STATUS:               ID:20140612073541 L   I
 OLDACT:UP  14-06-12 19:04 OP:mh   STATUS:               ID:20140612072819d    3
 OLDACT:DUP 14-06-12 18:57 OP:mh   STATUS:               ID:20140612072819d    3
 2014-06-12-0728-17M.COL___250                                                 6
 STAT SP IPHASW D HRMM SECON CODA AMPLIT PERI AZIMU VELO AIN AR TRES W  DIS CAZ7
 BAR2 SZ EP        736  2.30                             171    0.4310 22.9 192 
 BAR2 SZ ES   1    736 17.38                             171   -0.15 7 22.9 192 
 BAR2 SZ I         736 19.05        21.9 0.25            166           22.9 192 
 PAM  SZ EP        736  4.64                             151    0.2310 77.4  39 
 PAM  SN ES        736 22.44                             151    0.3810 77.4  39 
 RUS  HZ EP        736  5.42                             145   -0.4610  100 176 
 RUS  HN ES   1    736 24.25                             145   -0.41 7  100 176 
 PTB  HZ EP        736  9.09                             133   -0.02 9  148 259 
 PTB  HN ES   1    736 29.88                             133   -0.54 7  148 259 
 SPBC HZ EP        736 10.87                             130    0.29 9  163 219 
 SPBC HN ES   1    736 33.95                             130    0.92 7  163 219 
 SPBC HZ I         736 40.67        15.6 0.37            129            163 219 
 ZAR  HZ EP        736 14.59                             123    0.03 9  205 292 
 ZAR  HN ES        736 40.28                             123    0.17 9  205 292 
 ZAR  HZ I         736 46.79        10.0 0.07            123            205 292 
 NOR  HZ EP        736 18.42                             119    0.66 8  235 235 
 NOR  HN ES   1    736 46.20                             119    0.39 6  235 235 
 NOR  HZ I         736 53.68         7.5 0.25            119            235 235 
 SML  HZ EP        736 18.39                             118   -0.32 8  244 335 
 SML  HN ES        736 46.64                             118   -0.86 8  244 335 
 SML  HZ I         736 52.02        17.3 0.06            120            244 335 
 CHI  HZ EP   1    736 19.46                             118   -0.21 6  248 195 
 CHI  HN ES        736 48.13                             118   -1.07 8  248 195 
 HEL  HZ EP   4    736 23.81                             115    1.56 0  272 256 
 HEL  HN ES   4    736 55.49                             115    1.69 0  272 256 
 HEL  HZ I         737  1.20         4.2 0.17            116            272 256 
 CBOC HZ EP   4    736 27.08                             110   -1.83 0  334 252 
 PRA  HZ EP        736 35.90                             107    0.47 6  392 210 
 PRA  HN ES   1    737 17.00                             107   -0.26 4  392 210 
 PRA  HZ I         737 24.10         4.2 0.43            108            392 210 
                                                                                
