 2011  412 0804 20.1 L   6.728 -73.137140.0  RSN  9 0.5 2.0LRSN                1
 GAP=160        0.94      10.3     8.1 13.3 -0.5544E+02 -0.2826E+02  0.8187E+02E
 Epicentro: JORDAN - SANTANDER                                                 3
 ACTION:UP  11-06-22 15:30 OP:REBC STATUS:               ID:20110412080420 L   I
 2011-04-12-0802-22S.COL___139                                                 6
 STAT SP IPHASW D HRMM SECON CODA AMPLIT PERI AZIMU VELO SNR AR TRES W  DIS CAZ7
 BAR2 SZ EP   1    8 4 38.90                             173     0.0 7   16 198 
 BAR2 SZ I         8 4 57.15        34.2 0.29                            16 198 
 BTL  SZ EP   1    8 4 39.03                             169    -0.1 7   26 326 
 GIR2 SZ EP   1    8 4 40.03                             164     0.7 7   39 351 
 BRR  HZ EP   1    8 4 40.79                             150    -0.1 7   76 303 
 BRR  HN ES   1    8 4 57.54                             150     0.4 7   76 303 
 BRR  HZ I         8 4 59.07        52.6 0.18                            76 303 
 PAM  SZ EP   1    8 4 41.75                             148    -0.3 7   83  36 
 PAM  SZ I         8 4 42.10        17.2 0.17                            83  36 
 PAM  SN ES   2    8 4 58.73                             148    -0.5 5   83  36 
 GRA  SZ EP   1    8 4 45.80                             134     0.3 7  133  16 
 GRA  SZ ES   1    8 5  4.90                             134    -0.4 7  133  16 
 GRA  SZ I         8 5  6.43        14.2 0.26                           133  16 
 NOR  SZ EP   1    8 4 55.11                             118     0.0 6  231 236 
 NOR  SN ES   2    8 5 23.04                             118     0.6 4  231 236 
 NOR  SZ I         8 5 28.10         1.8 0.26                           231 236 
 CHI  HZ EP   2    8 4 56.06                             117    -0.6 4  241 196 
 CHI  HZ I         8 5 34.34         4.0 0.25                           241 196 
 HEL  HZ EP   2    8 5  0.63                             114     0.7 4  271 257 
 HEL  HN ES   1    8 5 30.00                             114    -1.0 6  271 257 
 HEL  HZ I         8 5 39.32         7.6 0.22                           271 257 
                                                                                
