 2016  812 0849 32.2 L   6.807 -73.116132.9  RSN  7 0.4 1.4LRSN                1
 GAP=140        0.87       3.1     4.2  8.9 -0.3227E+01  0.1514E+02 -0.2594E+01E
 Epicentro: LOS SANTOS - SANTANDER                                             3
 ACTION:UPD 16-10-29 15:34 OP:rebc STATUS:               ID:20160812084932 L   I
 OLDACT:REG 16-08-12 12:59 OP:dani STATUS:               ID:20160812084737     3
 2016-08-12-0848-00M.COL___374                                                 6
 STAT SP IPHASW D HRMM SECON CODA AMPLIT PERI AZIMU VELO AIN AR TRES W  DIS CAZ7
 BAR2 EZ EP   3    849 50.66                             169    0.34 2 24.9 197 
 BAR2 EZ ES   3    850  4.83                             169    0.37 2 24.9 197 
 BAR2 EZ I         850  6.95         6.1 0.40                          24.9 197 
 PAM  EZ EP        849 53.23                             149    0.3410 74.7  38 
 PAM  EN ES        850  9.47                             149    0.4310 74.7  38 
 PAM  EZ I         850 10.72         3.1 0.36                          74.7  38 
 RUS  HZ EP   2    849 55.05                             141    0.30 5  101 178 
 RUS  HN ES        850 11.95                             141   -0.4010  101 178 
 RUS  HZ I         850 15.48         1.6 0.34                           101 178 
 PTB  HZ EP   2    849 58.41                             128   -0.06 5  151 259 
 PTB  HE ES        850 18.81                             128   -0.15 9  151 259 
 PTB  HZ I         850 21.81         3.4 0.10                           151 259 
 OCA  HZ EP   2    849 58.70                             126   -0.80 5  160 352 
 OCA  HN ES        850 20.04                             126   -0.77 9  160 352 
 OCA  HZ I         850 23.35         6.6 0.12                           160 352 
 SPBC HZ EP        849 59.93                             125   -0.08 9  166 220 
 SPBC HN ES        850 21.76                             125    0.06 9  166 220 
 SPBC HZ I         850 29.42         4.3 0.26                           166 220 
 ZAR  HZ EP   2    850  4.69                             119    0.56 4  207 292 
 ZAR  HE ES        850 29.55                             119    0.52 8  207 292 
 ZAR  HZ I         850 35.52         4.4 0.34                           207 292 
                                                                                
