 2013  212 0727 26.3 L   6.979 -73.304130.5  RSN  7 0.5 1.6LRSN                1
 GAP=103        1.12       5.0     5.4  9.3 -0.1422E+01  0.6428E+01 -0.5439E+01E
 Epicentro: BETULIA - SANTANDER                                                3
 ACTION:UPD 13-03-12 09:32 OP:ep   STATUS:               ID:20130212072726 L   I
 2013-02-12-0720-00M.COL___240                                                 6
 STAT SP IPHASW D HRMM SECON CODA AMPLIT PERI AZIMU VELO AIN AR TRES W  DIS CAZ7
 BAR2 SZ EP        727 45.04                             160    0.2910 44.9 162 
 BAR2 SZ ES   1    727 59.22                             160    0.04 7 44.9 162 
 BAR2 SZ I         728  0.20        22.3 0.32            165           44.9 162 
 BRR  HZ IP     C  727 44.82                             159    0.3210 47.2 287 
 BRR  HN ES   1    727 59.13                             159    0.40 7 47.2 287 
 BRR  HZ I         727 59.69        33.4 0.36            157           47.2 287 
 PAM  SZ EP        727 47.39                             148    0.4910 77.8  59 
 PAM  SN ES   1    728  2.82                             148   -0.18 7 77.8  59 
 PAM  SZ I         728  4.87         5.9 0.24            150           77.8  59 
 RUS  HZ EP   1    727 50.49                             134    0.13 7  123 168 
 RUS  HN ES   1    728  8.84                             134   -0.32 7  123 168 
 RUS  HZ I         728 10.22         1.5 0.34            139            123 168 
 PTB  HZ EP        727 50.60                             131   -0.34 9  136 249 
 PTB  HN ES   1    728  9.12                             131   -1.08 7  136 249 
 PTB  HZ I         728 14.14         4.7 0.18            132            136 249 
 OCA  HZ EP        727 50.92                             130   -0.49 9  139 359 
 OCA  HN ES   1    728 10.39                             130   -0.64 7  139 359 
 OCA  HZ I         728 16.46         5.3 0.34            131            139 359 
 ZAR  HN ES   1    728 19.01                             122    1.06 7  181 288 
 ZAR  HZ I         728 22.10         5.7 0.40            123            181 288 
                                                                                
