 2011  712 0938 14.2 L   6.752 -73.106143.2  RSN  7 0.3 1.5LRSN                1
 GAP=161        0.62       3.3     5.7  6.2 -0.1539E+01 -0.2441E+01 -0.4703E+01E
 Epicentro: LOS SANTOS - SANTANDER                                             3
 ACTION:UPD 12-07-25 14:00 OP:epov STATUS:               ID:20110712093814 L   I
 2011-07-12-0934-20S.COL___142                                                 6
 STAT SP IPHASW D HRMM SECON CODA AMPLIT PERI AZIMU VELO AIN AR TRES W  DIS CAZ7
 BAR2 SZ EP   1    938 33.48                             172    0.04 7 19.6 206 
 BAR2 SZ ES   1    938 47.93                             172   -0.52 7 19.6 206 
 BAR2 SZ I         938 50.18         4.6 0.23                          19.6 206 
 GIR2 SZ EP   1    938 33.63                             165   -0.11 7 37.4 345 
 BRR  HZ EP   1    938 35.22                             150   -0.22 7 77.6 300 
 BRR  HE ES   1    938 52.15                             150    0.13 7 77.6 300 
 BRR  HZ I         938 55.96        11.0 0.39                          77.6 300 
 RUS  HZ EP   1    938 37.32                             145    0.02 7 95.1 178 
 RUS  HZ I         938 38.22         2.1 0.12                          95.1 178 
 RUS  HE ES   1    938 55.68                             145    0.36 7 95.1 178 
 BRI  SZ EP   1    938 38.41                             140    0.30 7  112  18 
 OCA  SZ EP   1    938 42.35                             128   -0.51 7  166 352 
 OCA  SZ ES   1    939  5.66                             128    0.44 7  166 352 
 OCA  SZ I         939  7.49         6.7 0.34                           166 352 
 NOR  SN ES   1    939 17.75                             118    0.11 6  235 236 
                                                                                
