 2013  412 0800 33.3 L   6.299 -73.650108.2  RSN  5 0.1 1.6LRSN                1
 GAP=161        0.42       2.4     1.9  3.7  0.1545E+01  0.1175E+01  0.3644E+00E
 Epicentro: SANTA HELENA DEL OPON - SANTANDER                                  3
 ACTION:UPD 13-05-22 14:37 OP:EP   STATUS:               ID:20130412080033 L   I
 2013-04-12-0758-36M.COL___212                                                 6
 STAT SP IPHASW D HRMM SECON CODA AMPLIT PERI AZIMU VELO AIN AR TRES W  DIS CAZ7
 BAR2 SZ EP        8 0 50.26                             149    0.1010 61.0  58 
 BAR2 SZ ES        8 1  3.07                             149   -0.2710 61.0  58 
 BAR2 SZ I         8 1  4.34        16.2 0.16            149           61.0  58 
 RUS  HZ EP        8 0 51.57                             142   -0.0610 77.1 126 
 RUS  HN ES        8 1  6.13                             142    0.1610 77.1 126 
 RUS  HN I         8 1  6.62         2.4 0.16            149           77.1 126 
 BRR  HZ EP        8 0 51.94                             137    0.0010 89.7 356 
 BRR  HN ES        8 1  6.70                             137    0.1910 89.7 356 
 BRR  HN I         8 1 14.52         9.9 0.12            137           89.7 356 
 PTB  HZ EP        8 0 52.20                             136   -0.0510 93.1 287 
 PTB  HN ES        8 1  7.02                             136   -0.0410 93.1 287 
 PTB  HN I         8 1  9.08        18.4 0.40            138           93.1 287 
 GIR2 SZ EP        8 0 52.97                             134   -0.0410 99.9  30 
                                                                                
