 2013  412 0314 14.7 L   6.740 -73.155143.2  RSN  4 0.5 1.5LRSN                1
 GAP=232        1.22       9.6     9.7 12.5  0.4832E+02 -0.1303E+02 -0.9438E+01E
 Epicentro: JORDAN - SANTANDER                                                 3
 ACTION:UPD 13-05-22 14:37 OP:EP   STATUS:               ID:20130412031414 L   I
 2013-04-12-0308-43M.COL___212                                                 6
 STAT SP IPHASW D HRMM SECON CODA AMPLIT PERI AZIMU VELO AIN AR TRES W  DIS CAZ7
 BAR2 SZ EP        314 33.61                             173   -0.3110 16.6 191 
 BAR2 SZ I         314 33.73         7.7 0.10            171           16.6 191 
 BRR  HZ EP        314 35.46                             151   -0.2810 73.8 303 
 BRR  HN ES        314 52.44                             151    0.3010 73.8 303 
 BRR  HN I         314 55.74         9.0 0.30            151           73.8 303 
 RUS  HZ EP        314 37.48                             145   -0.2710 94.0 175 
 RUS  HN ES        314 55.98                             145    0.2710 94.0 175 
 RUS  HN I         314 57.64         4.4 0.32            147           94.0 175 
 PTB  HZ EP        314 42.24                             132    0.95 9  146 261 
 PTB  HN ES        315  1.39                             132   -0.61 9  146 261 
 PTB  HN I         315  6.62         4.2 0.40            133            146 261 
                                                                                
