 2016 1112 0130 16.7 L   6.770 -73.192129.5  RSN 11 0.4 1.8LRSN                1
 GAP=117        0.83       3.4     4.1  6.4 -0.8940E+00  0.1312E+02  0.5288E+01E
 Epicentro: ZAPATOCA - SANTANDER                                               3
 ACTION:UPD 17-10-26 21:07 OP:lp   STATUS:               ID:20161112013016 L   I
 OLDACT:UP  16-11-12 14:12 OP:and  STATUS:               ID:20161112012746     3
 OLDACT:UP  16-11-12 14:11 OP:and  STATUS:               ID:20161112012746     3
 OLDACT:UP  16-11-12 14:10 OP:and  STATUS:               ID:20161112012746     3
 OLDACT:UP  16-11-12 14:10 OP:and  STATUS:               ID:20161112012746     3
 OLDACT:UP  16-11-12 14:05 OP:and  STATUS:               ID:20161112012746     3
 OLDACT:REG 16-11-12 12:28 OP:and  STATUS:               ID:20161112012746     3
 2016-11-12-0128-00M.COL___340                                                 6
 STAT SP IPHASW D HRMM SECON CODA AMPLIT PERI AZIMU VELO AIN AR TRES W  DIS CAZ7
 BAR2 HZ EP        130 34.19                             171   -0.1610 19.7 177 
 BAR2 HN ES        130 47.70                             171   -0.3810 19.7 177 
 BAR2 HZ ES        130 47.97                             170           19.7 177 
 BAR2 HZ I         130 51.65        19.7 0.26            173           19.7 177 
 BRR  HZ IP     C  130 35.97                             150   -0.0210 68.4 303 
 BRR  HZ I         130 55.55        11.0 0.32            144           68.4 303 
 PAM  EE ES        130 54.35                             145    0.4010 83.2  41 
 PAM  EZ I         130 56.52         4.6 0.28            141           83.2  41 
 PTB  HZ EP   3    130 40.72                             129   -1.17 2  142 260 
 PTB  HN ES        131  1.50                             129   -0.01 9  142 260 
 PTB  HZ I         131  3.72         6.3 0.07            124            142 260 
 ZAR  HZ EP        130 47.87                             119    0.06 9  201 294 
 ZAR  HE ES        131 11.78                             119   -0.26 9  201 294 
 ZAR  HZ I         131 17.70         5.3 0.08            114            201 294 
 NOR  HZ EP        130 50.47                             115   -0.44 8  229 234 
 NOR  HN ES        131 18.36                             115    0.80 8  229 234 
 NOR  HZ I         131 26.03         4.2 0.20            112            229 234 
 CHI  HN ES        131 21.66                             114    0.21 8  244 194 
 CHI  HZ I         131 24.90         4.2 0.26            111            244 194 
 ROSC BZ EP   4    130 54.85                             113    1.43 0  247 210 
 ROSC BN ES   4    131 24.51                             113    2.48 0  247 210 
 ROSC BZ I         131 28.90         8.6 0.35            110            247 210 
 URE  HE ES   4    131 24.97                             110   -2.84 0  280 293 
 URE  HZ I         131 38.74         6.5 0.18            107            280 293 
 PTGC HZ EP   9    130 57.48                             108   -2.31 0  308 158 
 PTGC HE ES        131 30.43                             109   -0.63 7  308 158 
 PRA  HZ EP        131  9.37                             104    0.26 6  387 209 
 PRA  HN ES        131 49.73                             104   -0.23 6  387 209 
 PRA  HZ I         131 57.99         2.4 0.42            101            387 209 
                                                                                
