 2011  912 0445 13.5 L   6.786 -73.081149.3  RSN 14 0.3 2.6LRSN                1
 GAP=146        0.42       1.6     2.9  3.0 -0.2928E+00  0.2036E+01  0.1079E+01E
 Epicentro: LOS SANTOS - SANTANDER                                             3
 ACTION:UPD 12-07-13 15:57 OP:ep   STATUS:               ID:20110912044513 L   I
 2011-09-12-0443-33S.COL___168                                                 6
 STAT SP IPHASW D HRMM SECON CODA AMPLIT PERI AZIMU VELO AIN AR TRES W  DIS CAZ7
 BAR2 SZ IP        445 33.60                             170    0.0210 24.2 208 
 BAR2 SZ ES   1    445 48.88                             170   -0.35 7 24.2 208 
 BAR2 SZ I         445 50.37       156.2 0.18                          24.2 208 
 GIR2 SZ EP   1    445 33.67                             166   -0.02 7 34.7 339 
 GIR2 SZ ES   2    445 49.10                             166   -0.34 5 34.7 339 
 PAM  SZ EP   2    445 36.38                             152    0.46 5 74.3  34 
 PAM  SN ES   2    445 53.68                             152    0.28 5 74.3  34 
 BRR  HZ IP     C  445 35.46                             151    0.0110 78.3 297 
 BRR  HE ES   1    445 52.76                             151    0.20 7 78.3 297 
 BRR  HZ I         445 55.21        75.0 0.32                          78.3 297 
 RUS  HZ IP     D  445 37.43                             145   -0.0510 98.8 180 
 RUS  HN ES   2    445 56.03                             145   -0.15 5 98.8 180 
 RUS  HZ I         445 57.50        38.2 0.38                          98.8 180 
 OCA  SZ EP   1    445 42.17                             130   -0.16 7  163 351 
 OCA  SZ ES   1    446  5.08                             130    0.27 7  163 351 
 OCA  SZ I         446 10.95        37.0 0.30                           163 351 
 ZAR  HZ EP   1    445 46.99                             122    0.06 6  211 292 
 ZAR  HE ES   2    446 12.73                             122   -0.27 4  211 292 
 ZAR  HZ I         446 17.62        22.7 0.17                           211 292 
 NOR  SZ EP   1    445 49.52                             119   -0.46 6  240 236 
 NOR  SN ES   2    446 18.24                             119   -0.19 4  240 236 
 CHI  HZ EP   1    445 51.72                             118    0.26 6  249 197 
 CHI  HN ES   2    446 21.51                             118    0.46 4  249 197 
 CHI  HZ I         446 30.49        19.1 0.67                           249 197 
 ROSC BZ EP   2    445 52.86                             117    0.77 4  255 213 
 ROSC BE ES   2    446 22.19                             117    0.01 4  255 213 
 ROSC BZ I         446 29.48        43.0 0.58                           255 213 
 HEL  HZ EP   1    445 54.84                             115    0.21 6  279 256 
 HEL  HE ES   2    446 26.89                             115    0.18 4  279 256 
 HEL  HZ I         446 31.94        14.1 0.40                           279 256 
 VIL  SZ EP   2    445 56.95                             113   -0.14 4  303 193 
 VIL  SN ES   1    446 31.15                             113    0.07 5  303 193 
 VIL  SZ I         446 41.44        17.3 0.58                           303 193 
 COD  HZ EP   2    446  1.52                             109   -0.77 3  351 353 
 COD  HE ES   2    446 40.11                             109   -0.23 3  351 353 
 COD  HZ I         446 50.67        23.9 0.66                           351 353 
 PRA  HZ EP   1    446  7.15                             107   -0.27 4  394 211 
 PRA  HE ES   2    446 49.47                             107    0.01 3  394 211 
                                                                                
