 2016  912 0751 21.8 L   6.799 -73.145144.8  RSN 17 0.3 2.0LRSN                1
 GAP=137        0.78       2.1     2.8  4.0 -0.1022E+01  0.3396E+01 -0.2669E+00E
 Epicentro: LOS SANTOS - SANTANDER                                             3
 ACTION:UPD 17-08-17 21:09 OP:lp   STATUS:               ID:20160912075121 L   I
 OLDACT:REG 16-09-12 16:18 OP:and  STATUS:               ID:20160912074739     3
 2016-09-12-0748-00M.COL___300                                                 6
 STAT SP IPHASW D HRMM SECON CODA AMPLIT PERI AZIMU VELO AIN AR TRES W  DIS CAZ7
 BAR2 EZ EP        751 41.20                             170   -0.1110 23.3 190 
 BAR2 EZ ES        751 56.45                             170   -0.0810 23.3 190 
 BAR2 EZ I         751 57.98        25.6 0.21            170           23.3 190 
 BRR  HZ IP     D  751 43.08                             152    0.2310 71.3 299 
 BRR  HE ES        751 59.60                             152    0.3410 71.3 299 
 BRR  HZ I         752  3.50        13.5 0.14            150           71.3 299 
 PAM  EZ EP        751 44.09                             151    0.1810 77.4  39 
 PAM  EN ES        752  1.36                             151    0.2110 77.4  39 
 PAM  EZ I         752  3.62        34.1 0.59            153           77.4  39 
 RUS  HZ EP        751 45.20                             144   -0.2510  101 176 
 RUS  HE ES        752  4.06                             144    0.1710  101 176 
 RUS  HZ I         752  5.53         5.6 0.18            145            101 176 
 PTB  HZ EP        751 48.59                             132   -0.10 9  148 259 
 PTB  HN ES        752  9.27                             132   -0.40 9  148 259 
 PTB  HZ I         752 14.60        12.0 0.18            131            148 259 
 OCA  HZ EP        751 49.41                             129   -0.63 9  160 353 
 OCA  HE ES        752 11.53                             129   -0.54 9  160 353 
 OCA  HZ I         752 15.29        33.2 0.20            130            160 353 
 SPBC HZ IP     C  751 50.17                             129   -0.05 9  163 219 
 SPBC HE ES        752 12.34                             129   -0.05 9  163 219 
 SPBC HZ I         752 18.56        18.0 0.28            129            163 219 
 ZAR  HZ EP        751 54.55                             122    0.36 9  204 292 
 ZAR  HE ES        752 19.49                             122    0.04 9  204 292 
 ZAR  HZ I         752 26.28         9.1 0.13            122            204 292 
 CHI  HZ EP        751 59.05                             117   -0.39 8  249 195 
 CHI  HE ES        752 29.20                             117    0.41 8  249 195 
 CHI  HZ I         752 36.67         3.1 0.21            118            249 195 
 HEL  HZ EP   4    752  5.88                             115    3.91 0  272 256 
 HEL  HN ES        752 32.89                             115   -0.41 8  272 256 
 HEL  HZ I         752 40.27         4.0 0.44            115            272 256 
 URE  HZ EP   4    752  5.90                             113    3.07 0  284 292 
 URE  HN ES   4    752 32.89                             113   -1.95 0  284 292 
 URE  HZ I         752 37.32         6.0 0.14            113            284 292 
 GUY2CHZ EP   4    752  7.75                             112    2.39 0  301 235 
 GUY2CHN ES        752 39.44                             112    0.10 7  301 235 
 GUY2CHZ I         752 48.48         3.6 0.29                           301 235 
 PTGC HZ EP   4    752  4.29                             111   -1.31 0  309 159 
 PTGC HE ES   4    752 37.26                             111   -2.50 0  309 159 
 PTGC HZ I         752 42.78         5.5 0.38            112            309 159 
 LL6C HZ EP   4    752  6.45                             110   -1.01 0  325 358 
 LL6C HN ES   4    752 44.48                             110    1.40 0  325 358 
 LL6C HZ I         752 50.76         8.3 0.59            111            325 358 
 CBOC HZ EP        752  9.10                             110    0.42 7  334 252 
 CBOC HN ES        752 45.39                             110    0.15 7  334 252 
 CBOC HZ I         752 50.86         1.5 0.22            110            334 252 
 ARGC HZ EP        752 11.56                             108    0.13 6  359 340 
 ARGC HN ES        752 51.05                             108    0.91 6  359 340 
 ARGC HZ I         752 57.42         2.1 0.22            108            359 340 
 SJC  HZ EP   4    752 15.62                             106   -1.72 0  409 327 
 SJC  HN ES   4    752 57.05                             106   -3.61 0  409 327 
 SJC  HZ I         753  1.19         1.9 0.16            106            409 327 
                                                                                
