 2011  412 0317  5.8 L   6.727 -73.057135.4  RSN  7 0.4 1.5LRSN                1
 GAP=193        0.74      10.3    11.4 11.6 -0.6703E+02 -0.7389E+01  0.2503E+02E
 Epicentro: ARATOCA - SANTANDER                                                3
 ACTION:UP  11-06-22 15:30 OP:REBC STATUS:               ID:20110412031707 L   I
 2011-04-12-0314-06S.COL___139                                                 6
 STAT SP IPHASW D HRMM SECON CODA AMPLIT PERI AZIMU VELO SNR AR TRES W  DIS CAZ7
 BAR2 SZ ES   3    317 38.42                             169     0.0 2   20 223 
 BAR2 SZ I         317 41.08        11.5 0.20                            20 223 
 BTL  SZ EP        317 24.68                             155     0.310   31 312 
 GIR2 SZ EP   2    317 23.87                             150    -0.7 5   42 339 
 GIR2 SZ ES   3    317 39.18                                    -0.1 2   42 339 
 PAM  SZ EP   2    317 27.18                             138     0.2 5   78  30 
 PAM  SE ES   2    317 42.95                             138    -0.6 5   78  30 
 PAM  SZ I         317 46.45         2.3 0.34                            78  30 
 BRR  HZ EP   1    317 26.27                             135    -0.4 7   84 300 
 BRR  HN ES   2    317 43.17                             135     0.3 5   84 300 
 BRR  HZ I         317 47.42        12.2 0.14                            84 300 
 GRA  SZ EP   2    317 31.29                             123     0.7 5  131  12 
 GRA  SZ ES   1    317 50.06                             123     0.1 7  131  12 
 GRA  SZ I         317 52.00         4.7 0.28                           131  12 
 OCA  SZ EP   2    317 33.64                                    -0.6 5  170 350 
                                                                                
