 2014  912 0543 41.7 L   6.786 -73.139138.0  RSN 10 0.5 1.9LRSN                1
 GAP=183        1.26       4.1     5.3  7.1 -0.1823E+01  0.1166E+02 -0.1247E+01E
 Epicentro: LOS SANTOS - SANTANDER                                             3
 ACTION:UPD 14-10-03 23:04 OP:nd   STATUS:               ID:20140912054341 L   I
 OLDACT:REG 14-09-12 12:50 OP:carl STATUS:               ID:20140912053819     3
 2014-09-12-0538-19M.COL___292                                                 6
 STAT SP IPHASW D HRMM SECON CODA AMPLIT PERI AZIMU VELO AIN AR TRES W  DIS CAZ7
 BAR2 SZ EP        544  0.43                             171    0.1010 21.9 193 
 BAR2 SZ ES        544 14.87                             171   -0.0210 21.9 193 
 BAR2 SZ I         544 16.58        27.4 0.20            168           21.9 193 
 BRR  HZ EP        544  2.46                             151    0.4010 72.6 299 
 BRR  HN ES        544 18.53                             151    0.5610 72.6 299 
 BRR  HZ I         544 23.14        25.4 0.16            149           72.6 299 
 RUS  HZ EP        544  4.64                             143    0.1010 99.0 176 
 RUS  HN ES        544 22.65                             143    0.2710 99.0 176 
 RUS  HZ I         544 27.12         5.1 0.22            146           99.0 176 
 PTB  HZ EP        544  7.55                             130   -0.50 9  148 259 
 PTB  HN ES        544 28.39                             130   -0.24 9  148 259 
 PTB  HZ I         544 35.39        11.6 0.46            131            148 259 
 OCA  HZ EP        544  8.92                             128   -0.62 9  162 353 
 OCA  HN ES        544 30.50                             128   -0.78 9  162 353 
 OCA  HZ I         544 34.81        18.0 0.48            131            162 353 
 SPBC HZ EP        544  9.50                             127   -0.01 9  162 220 
 SPBC HN ES        544 30.45                             127   -0.77 9  162 220 
 SPBC HZ I         544 36.69         8.9 0.20            129            162 220 
 ZAR  HZ EP        544 13.82                             120    0.07 8  205 292 
 ZAR  HN ES        544 39.90                             120    1.12 8  205 292 
 ZAR  HZ I         544 45.26        11.4 0.30            122            205 292 
 NOR  HZ EP        544 17.69                             117    0.77 8  234 235 
 NOR  HN ES        544 44.18                             117   -0.25 8  234 235 
 NOR  HZ I         544 46.54         6.5 0.16            119            234 235 
 HEL  HZ EP        544 22.20                             113    0.67 8  272 256 
 HEL  HN ES        544 51.71                             113   -0.92 8  272 256 
 HEL  HZ I         545  1.11         5.7 0.34            115            272 256 
 CBOC HZ EP        544 28.57                             108    0.27 7  334 252 
 CBOC HN ES        545  4.41                             108   -0.26 7  334 252 
 CBOC HZ I         545 10.11         2.6 0.66            111            334 252 
                                                                                
