 2016  612 0203 26.5 L   6.080 -73.676105.9  RSN 11 0.5 1.4LRSN                1
 GAP=100        1.11       5.7     4.3  7.9 -0.1572E+02  0.1138E+02 -0.1848E+02E
 Epicentro: CHIPATA - SANTANDER                                                3
 ACTION:UPD 16-07-21 22:17 OP:rebc STATUS:               ID:20160612020326 L   I
 OLDACT:UP  16-06-12 14:58 OP:dani STATUS:               ID:20160612015746     3
 OLDACT:UP  16-06-12 14:58 OP:dani STATUS:               ID:20160612015746     3
 OLDACT:UP  16-06-12 14:57 OP:dani STATUS:               ID:20160612015746     3
 OLDACT:UP  16-06-12 14:57 OP:dani STATUS:               ID:20160612015746     3
 OLDACT:REG 16-06-12 12:24 OP:dani STATUS:               ID:20160612015746     3
 2016-06-12-0157-46M.COL___340                                                 6
 STAT SP IPHASW D HRMM SECON CODA AMPLIT PERI AZIMU VELO AIN AR TRES W  DIS CAZ7
 SPBC HZ EP     D  2 3 42.39                             145   -0.7410 64.6 223 
 SPBC HE ES        2 3 56.31                             145    0.1710 64.6 223 
 SPBC HZ I         2 3 58.24        10.0 0.26                          64.6 223 
 RUS  HZ EP     C  2 3 44.15                             144    0.1610 68.8 108 
 RUS  HE ES        2 3 57.73                             144    0.0610 68.8 108 
 RUS  HZ I         2 3 59.81         5.6 0.18                          68.8 108 
 BAR2 EZ EP     C  2 3 44.87                             140    0.5110 78.6  44 
 BAR2 EZ I         2 4  1.03        17.6 0.22                          78.6  44 
 PTB  HZ EP   9 D  2 3 44.53                             133   -1.33 0  100 300 
 PTB  HN ES        2 3 59.23                             133   -0.4410  100 300 
 PTB  HZ I         2 4  0.15         3.4 0.20                           100 300 
 BRR  HZ EP     D  2 3 47.05                             129   -0.0210  114 358 
 BRR  HN ES   4    2 4  4.10                             129    0.94 0  114 358 
 BRR  HZ I         2 4  6.83         5.4 0.12                           114 358 
 NOR  HZ EP   4    2 3 49.40                             121   -0.77 0  144 247 
 NOR  HN ES        2 4  8.26                             121   -0.41 9  144 247 
 NOR  HZ I         2 4  9.15         6.3 0.24                           144 247 
 CHI  HN ES   4    2 4 14.90                             118    2.30 0  161 182 
 CHI  HZ I         2 4 18.64         2.7 0.38                           161 182 
 PAM  EZ EP        2 3 54.44                             116    0.27 9  176  38 
 PAM  EE ES        2 4 15.22                             116   -0.57 9  176  38 
 PAM  EZ I         2 4 17.80         1.8 0.14                           176  38 
 HEL  HZ EP        2 3 57.94                             111    0.66 8  205 274 
 HEL  HE ES   4    2 4 23.16                             111    1.84 0  205 274 
 HEL  HZ I         2 4 23.22         2.5 0.40                           205 274 
 GUY2CHZ EP        2 3 57.31                             111   -0.58 8  210 243 
 GUY2CHN ES        2 4 23.03                             111    0.61 8  210 243 
 GUY2CHZ I         2 4 25.60         2.9 0.54                           210 243 
 PRA  HN ES   2    2 4 38.67                             103   -0.27 4  294 207 
                                                                                
