 2013  412 0306  5.1 L   6.081 -73.763102.5  RSN  5 0.3 1.6LRSN                1
 GAP=198        0.78       4.8     3.6  7.9  0.6444E+01  0.4159E+01  0.3273E+01E
 Epicentro: BOLIVAR - SANTANDER                                                3
 ACTION:UPD 13-05-22 14:37 OP:EP   STATUS:               ID:20130412030605 L   I
 2013-04-12-0258-50M.COL___212                                                 6
 STAT SP IPHASW D HRMM SECON CODA AMPLIT PERI AZIMU VELO AIN AR TRES W  DIS CAZ7
 RUS  HZ EP        3 6 22.66                             140   -0.3010 78.1 105 
 RUS  HZ I         3 6 22.97         3.9 0.12            143           78.1 105 
 RUS  HN ES        3 6 36.97                             140    0.0510 78.1 105 
 BAR2 SZ EP        3 6 23.74                             137    0.5310 85.5  49 
 BAR2 SZ ES        3 6 37.27                             137   -0.1010 85.5  49 
 BAR2 SZ I         3 6 39.12        32.9 0.48            140           85.5  49 
 PTB  HZ EP        3 6 23.12                             134   -0.3310 91.9 303 
 PTB  HN ES        3 6 38.07                             134    0.2710 91.9 303 
 PTB  HN I         3 6 39.76         7.1 0.30            137           91.9 303 
 BRR  HN ES        3 6 41.03                             128   -0.2610  114   3 
 GIR2 SZ EP        3 6 27.08                             124    0.1510  127  30 
                                                                                
