 2017  812 0847  2.3 L   6.816 -73.108136.1  RSN  6 0.5 1.5LRSN                1
 GAP=141        1.21       5.1     6.0  8.8  0.2096E-01  0.1500E+02 -0.2586E+01E
 Epicentro: LOS SANTOS - SANTANDER                                             3
 ACTION:UPD 17-09-04 20:19 OP:rebc STATUS:               ID:20170812084702 L   I
 OLDACT:REG 17-08-12 12:51 OP:dhb  STATUS:               ID:20170812083738     3
 2017-08-12-0838-00M.COL___414                                                 6
 STAT SP IPHASW D HRMM SECON CODA AMPLIT PERI AZIMU VELO AIN AR TRES W  DIS CAZ7
 BAR2 EZ EP   2    847 20.30                             169   -0.53 5 26.1 198 
 BAR2 EZ ES        847 34.61                             169   -0.6810 26.1 198 
 BAR2 EZ I         847 36.02        10.9 0.38            169           26.1 198 
 PAM  EZ EP        847 23.41                             150    0.1610 73.4  38 
 PAM  EN ES        847 40.10                             150    0.5110 73.4  38 
 PAM  EZ I         847 42.17        10.2 0.44            154           73.4  38 
 BRR  HZ EP        847 22.25                             150   -0.3410 74.1 296 
 BRR  HN ES        847 38.81                             150    0.4010 74.1 296 
 BRR  HZ I         847 45.55         3.3 0.14            150           74.1 296 
 RUS  HZ EP        847 25.09                             141   -0.1410  102 178 
 RUS  HN ES        847 42.85                             141   -0.2710  102 178 
 RUS  HZ I         847 44.54         1.9 0.32            145            102 178 
 SPBC HE ES        847 53.41                             126    0.97 9  167 220 
 SPBC HZ I         847 56.58         3.6 0.18            129            167 220 
 ZAR  HZ EP        847 34.68                             120    0.20 8  207 291 
 ZAR  HN ES        847 58.95                             120   -0.62 8  207 291 
 ZAR  HZ I         848  1.07         4.0 0.48            122            207 291 
                                                                                
