 2012  412 0224 57.4 L   6.725 -73.135144.3  RSN  5 0.3 1.6LRSN                1
 GAP=164        0.67       7.3     4.5  6.2 -0.1010E+02  0.1018E+02 -0.6834E+01E
 Epicentro: JORDAN - SANTANDER                                                 3
 ACTION:UPD 12-07-05 11:52 OP:tino STATUS:               ID:20120412022457 L   I
 2012-04-12-0220-00M.COL___181                                                 6
 STAT SP IPHASW D HRMM SECON CODA AMPLIT PERI AZIMU VELO AIN AR TRES W  DIS CAZ7
 BAR2 SZ ES        225 31.85                             174     0.010   16 199 
 BAR2 SZ I         225 33.43         8.4 0.24                            16 199 
 BRR  HZ EP        225 19.00                             150     0.310   76 304 
 BRR  HZ I         225 20.90        10.0 0.05                            76 304 
 BRR  HN ES   1    225 35.74                             150     0.4 7   76 304 
 PAM  SZ EP   1    225 19.99                             149     0.1 7   83  35 
 PAM  SN ES   1    225 36.92                             149    -0.4 7   83  35 
 PTB  HZ EP        225 24.09                             132    -0.2 9  148 262 
 PTB  HN ES   1    225 44.99                             132    -0.2 7  148 262 
 ZAR  HN ES   1    225 55.59                             121    -0.2 6  208 294 
 ZAR  HZ I         226  1.12         3.5 0.37                           208 294 
                                                                                
