 2016  712 0719 30.9 L   6.741 -73.107146.6  RSN  6 0.4 1.5LRSN                1
 GAP=237        0.80       4.8     6.5  7.0  0.1011E+02  0.5140E+01  0.1598E+01E
 Epicentro: JORDAN - SANTANDER                                                 3
 ACTION:UPD 17-03-29 16:49 OP:lp   STATUS:               ID:20160712071702dL   I
 OLDACT:UPD 16-07-12 17:14 OP:dnl  STATUS:               ID:20160712071760 L   3
 2016-07-12-0717-59S.COL___313                                                 6
 STAT SP IPHASW D HRMM SECON CODA AMPLIT PERI AZIMU VELO AIN AR TRES W  DIS CAZ7
 BAR2 EZ EP        719 50.61                             173    0.0310 18.4 207 
 BAR2 EZ ES   2    720  5.37                             173   -0.53 5 18.4 207 
 BAR2 EZ I         720  6.95         7.0 0.16            171           18.4 207 
 BRR  HZ EP        719 52.76                             151    0.1710 78.2 301 
 BRR  HN ES        720  9.82                             151    0.3510 78.2 301 
 BRR  HZ I         720 10.73         7.2 0.20            150           78.2 301 
 RUS  HZ EP   2    719 54.41                             146    0.11 5 93.8 178 
 RUS  HN ES   2    720 12.19                             146   -0.33 5 93.8 178 
 RUS  HZ I         720 14.45         2.7 0.36            147           93.8 178 
 PTB  HZ EP        719 57.52                             132   -0.74 9  151 262 
 PTB  HE ES   4    720 18.00                             132   -1.57 0  151 262 
 PTB  HZ I         720 19.14         4.1 0.14            132            151 262 
 SPBC HZ EP        719 59.44                             130    0.15 9  161 222 
 SPBC HE ES        720 21.66                             130    0.25 9  161 222 
 SPBC HZ I         720 23.81         5.0 0.18            130            161 222 
 ZAR  HZ EP        720  4.40                             122    0.29 8  211 293 
 ZAR  HE ES        720 29.63                             122   -0.36 8  211 293 
 ZAR  HZ I         720 36.03         4.1 0.22            122            211 293 
                                                                                
