 2010  912 0009 55.5 L   6.808 -73.094140.0  RSN  7 0.1 1.8LRSN                1
 GAP=188        0.30       2.1     4.2  3.4  0.3492E+01 -0.1921E+01 -0.6702E+00E
 Epicentro: LOS SANTOS - SANTANDER                                             3
 ACTION:UP  11-02-18 11:02 OP:tino STATUS:               ID:20100912000955 L   I
 2010-09-12-0000-00S.COL___112                                                 6
 STAT SP IPHASW D HRMM SECON CODA AMPLIT PERI AZIMU VELO SNR AR TRES W  DIS CAZ7
 BAR2 SZ EP   1    010 14.60                             169     0.1 7   26 203 
 BAR2 SZ I         010 30.73        16.6 0.36                            26 203 
 BRR  HZ EP        010 16.42                             150     0.110   76 296 
 BRR  HN ES   1    010 32.52                             150    -0.1 7   76 296 
 BRR  HZ I         010 38.08        14.1 0.27                            76 296 
 RUS  HZ EP   1    010 18.62                             142    -0.2 7  101 179 
 RUS  HN ES   1    010 36.95                             142     0.0 7  101 179 
 RUS  HZ I         010 38.20         8.3 0.28                           101 179 
 OCA  SZ EP   1    010 23.35                             128     0.0 7  160 351 
 CHI  HZ EP   2    010 33.29                             116     0.1 4  251 196 
 CHI  HZ I         011  6.34         2.2 0.26                           251 196 
 HEL  HZ EP   2    010 36.16                             113     0.0 4  278 256 
 HEL  HZ I         011 13.16         4.5 0.63                           278 256 
 PRA  HZ EP   2    010 49.34                             105     0.1 3  396 210 
 PRA  HN ES   2    011 31.05                             105    -0.2 3  396 210 
 PRA  HZ I         011 35.14         4.1 0.48                           396 210 
                                                                                
