 2015 1112 0650 18.3 L   7.342 -73.185130.3  RSN  9 0.4 1.8LRSN                1
 GAP= 99        1.06       3.9     4.9  6.7 -0.6220E+00  0.1253E+02  0.1700E+01E
 Epicentro: RIONEGRO - SANTANDER                                               3
 ACTION:UPD 15-12-28 16:10 OP:cam  STATUS:               ID:20151112065018 L   I
 OLDACT:UP  15-11-12 19:16 OP:dnl  STATUS:               ID:20151112064736     3
 OLDACT:REG 15-11-12 13:29 OP:dnl  STATUS:               ID:20151112064736     3
 2015-11-12-0647-36M.COL___319                                                 6
 STAT SP IPHASW D HRMM SECON CODA AMPLIT PERI AZIMU VELO AIN AR TRES W  DIS CAZ7
 PAM  EZ EP        650 38.09                             156    0.5410 53.6  90 
 PAM  EN ES        650 53.04                             156    0.4810 53.6  90 
 PAM  EZ I         650 55.87         8.1 0.28            151           53.6  90 
 BRR  HZ EP     C  650 37.31                             152   -0.0610 63.7 246 
 BRR  HN ES        650 52.24                             152    0.0110 63.7 246 
 BRR  HZ I         650 52.76        14.5 0.10            143           63.7 246 
 BAR2 EZ EP        650 39.23                             146    0.3110 82.9 180 
 BAR2 EZ ES        650 54.11                             146   -0.8810 82.9 180 
 OCA  HZ EP        650 39.58                             140   -0.5110  100 352 
 OCA  HN ES        650 56.87                             140   -0.2010  100 352 
 OCA  HZ I         651  0.68        24.9 0.28            129            100 352 
 ZAR  HZ EP        650 47.86                             121    0.03 9  185 275 
 ZAR  HE ES        651 11.46                             121    0.60 9  185 275 
 ZAR  HZ I         651 15.14        10.1 0.38            113            185 275 
 SPBC HZ EP        650 50.52                             118   -0.14 8  211 208 
 SPBC HN ES        651 16.14                             118    0.26 8  211 208 
 SPBC HZ I         651 25.69         6.6 0.14            110            211 208 
 URE  HZ EP        650 55.89                             112   -0.42 8  263 280 
 URE  HZ I         651 35.61         6.2 0.22            106            263 280 
 MON  HZ EP   4    651  0.62                             108   -1.76 0  316 300 
 MON  HN ES   4    651 33.86                             108   -2.89 0  316 300 
 MON  HZ I         651 36.48         1.6 0.22            103            316 300 
 PRA  HZ EP        651 17.44                             102    0.01 5  443 205 
 PRA  HE ES   4    652  7.30                             102    3.75 0  443 205 
 PRA  HZ I         652 11.53         1.9 0.32             99            443 205 
                                                                                
