 2011  112 0713 10.8 L   6.246 -73.579105.9  RSN  5 0.2 1.4LRSN                1
 GAP=117        0.57       5.3     4.7  8.5 -0.1266E+02  0.2824E+02 -0.1312E+02E
 Epicentro: LA PAZ - SANTANDER                                                 3
 ACTION:UP  11-02-08 08:40 OP:pat  STATUS:               ID:20110112071310 L   I
 2011-01-12-0711-21S.COL___136                                                 6
 STAT SP IPHASW D HRMM SECON CODA AMPLIT PERI AZIMU VELO SNR AR TRES W  DIS CAZ7
 BAR2 SZ EP        713 27.21                             149     0.010   58  49 
 BAR2 SZ ES   1    713 40.33                             149     0.3 7   58  49 
 BAR2 SZ I         713 41.51        15.8 0.26                            58  49 
 RUS  HZ EP   1    713 28.52                             145     0.3 7   67 125 
 RUS  HZ I         713 29.09         3.7 0.24                            67 125 
 RUS  HN ES   1    713 41.50                             145    -0.3 7   67 125 
 BTL  SZ EP   1    713 28.56                             139    -0.4 7   82  25 
 NOR  SZ EP   1    713 36.45                             118     0.1 7  162 242 
 NOR  SN ES   1    713 56.24                             118    -0.1 7  162 242 
 HEL  HZ EP   1    713 42.75                             111     0.0 6  216 268 
 HEL  HZ I         714 11.44         2.2 0.52                           216 268 
                                                                                
