 2013  512 0014 55.3 L   6.752 -73.165144.4  RSN  7 0.4 1.7LRSN                1
 GAP=136        0.90       4.7     5.6  7.0  0.5924E+00  0.3557E+01 -0.5379E-01E
 Epicentro: LOS SANTOS - SANTANDER                                             3
 ACTION:UPD 13-06-20 09:49 OP:ep   STATUS:               ID:20130512001455 L   I
 2013-05-12-0010-00M.COL___256                                                 6
 STAT SP IPHASW D HRMM SECON CODA AMPLIT PERI AZIMU VELO AIN AR TRES W  DIS CAZ7
 BAR2 SZ EP        015 14.63                             173   -0.0510 17.8 186 
 BAR2 SZ ES   1    015 29.50                             173   -0.28 7 17.8 186 
 BAR2 SZ I         015 30.90        11.9 0.16            171           17.8 186 
 GIR2 SZ EP        015 14.92                             165   -0.0510 36.2 355 
 GIR2 SZ ES   1    015 30.11                             165   -0.19 7 36.2 355 
 BRR  HZ EP        015 17.01                             152    0.6410 72.1 303 
 BRR  HN ES   1    015 33.64                             152    0.86 7 72.1 303 
 BRR  HZ I         015 38.65        16.9 0.38            150           72.1 303 
 PAM  SZ EP        015 17.75                             149    0.0310 82.8  38 
 PAM  SN ES   1    015 34.94                             149   -0.25 7 82.8  38 
 PAM  SZ I         015 36.92         7.8 0.68            154           82.8  38 
 RUS  HZ EP        015 18.43                             145   -0.1410 95.5 175 
 RUS  HE ES   1    015 36.93                             145    0.22 7 95.5 175 
 RUS  HZ I         015 38.44         4.1 0.50            149           95.5 175 
 PTB  HZ EP   1    015 21.84                             132   -0.06 7  145 261 
 PTB  HN ES   1    015 41.86                             132   -0.77 7  145 261 
 PTB  HZ I         015 47.67         8.0 0.46            133            145 261 
 SML  HN ES   1    016  0.55                             117   -0.59 6  248 336 
                                                                                
