 2013  412 0759 14.6 L   6.763 -73.119141.5  RSN  5 0.2 1.6LRSN                1
 GAP=191        0.62       4.2     4.2  4.9  0.6873E+01  0.2561E+00 -0.1862E+01E
 Epicentro: LOS SANTOS - SANTANDER                                             3
 ACTION:UPD 13-05-22 14:37 OP:EP   STATUS:               ID:20130412075914 L   I
 2013-04-12-0758-36M.COL___212                                                 6
 STAT SP IPHASW D HRMM SECON CODA AMPLIT PERI AZIMU VELO AIN AR TRES W  DIS CAZ7
 BAR2 SZ EP        759 33.57                             171   -0.1010 20.2 200 
 BAR2 SZ ES        759 48.40                             171   -0.1310 20.2 200 
 BAR2 SZ I         759 49.77         8.8 0.24            173           20.2 200 
 GIR2 SZ EP        759 33.57                             165   -0.3410 35.9 347 
 BRR  HZ EP        759 35.99                             150    0.4210 75.8 300 
 BRR  HN ES        759 52.10                             150    0.1810 75.8 300 
 BRR  HE I         759 56.72         7.5 0.44            150           75.8 300 
 RUS  HZ EP        759 37.80                             144    0.1610 96.3 178 
 RUS  HN ES        759 55.69                             144    0.0910 96.3 178 
 RUS  HN I         759 56.65         3.1 0.42            148           96.3 178 
 PTB  HZ EP        759 41.26                             131   -0.18 9  150 261 
 PTB  HN ES        8 0  2.23                             131   -0.13 9  150 261 
 PTB  HN I         8 0  3.86         7.7 0.24            133            150 261 
                                                                                
