 2013  412 0447 54.9 L   6.790 -73.051148.1  RSN  4 0.2 1.7LRSN                1
 GAP=208        0.67       7.2    13.1  7.1  0.7340E+02 -0.4962E+02 -0.2487E+02E
 Epicentro: LOS SANTOS - SANTANDER                                             3
 ACTION:UPD 13-05-22 14:37 OP:EP   STATUS:               ID:20130412044754 L   I
 2013-04-12-0438-50M.COL___209                                                 6
 STAT SP IPHASW D HRMM SECON CODA AMPLIT PERI AZIMU VELO AIN AR TRES W  DIS CAZ7
 BAR2 SZ EP        448 14.70                             169   -0.1610 26.3 213 
 BAR2 SZ ES        448 30.54                             169    0.1010 26.3 213 
 BAR2 SZ I         448 31.40         7.4 0.40            170           26.3 213 
 GIR2 SZ EP        448 14.95                             166   -0.0110 35.6 334 
 BRR  HZ EP        448 16.58                             150   -0.2810 81.0 296 
 BRR  HN ES        448 34.16                             150    0.1610 81.0 296 
 BRR  HN I         448 35.02        11.2 0.20            150           81.0 296 
 RUS  HZ EP        448 19.23                             145    0.4510 99.3 182 
 RUS  HN ES        448 37.16                             145   -0.2610 99.3 182 
                                                                                
