 2016  312 0815  0.4 L   6.804 -73.135145.6  RSN 27 0.5 2.7LRSN                1
 GAP= 71        1.01       2.8     2.8  4.7 -0.1120E+01  0.3953E+01  0.1282E+01E
 Epicentro: LOS SANTOS - SANTANDER                                             3
 ACTION:UPD 16-05-13 21:23 OP:cam  STATUS:               ID:20160312081500 L   I
 OLDACT:UP  16-03-14 19:27 OP:Ak   STATUS:               ID:20160312081500 L   3
 OLDACT:UP  16-03-12 18:57 OP:ar   STATUS:               ID:20160312080750     3
 OLDACT:UP  16-03-12 18:51 OP:ar   STATUS:               ID:20160312080750     3
 OLDACT:REG 16-03-12 13:45 OP:ar   STATUS:               ID:20160312080750     3
 2016-03-12-0807-50M.COL___303                                                 6
 STAT SP IPHASW D HRMM SECON CODA AMPLIT PERI AZIMU VELO AIN AR TRES W  DIS CAZ7
 BAR2 EZ EP     D  815 19.93                             170   -0.0810 24.0 193 
 BAR2 EZ ES        815 35.57                             170    0.2510 24.0 193 
 BAR2 EZ I         815 36.90        84.6 0.28            169           24.0 193 
 PAM  EZ EP        815 22.76                             151    0.2410 76.2  39 
 PAM  EE ES        815 39.35                             151   -0.4310 76.2  39 
 PAM  EZ I         815 42.73        34.7 0.54            154           76.2  39 
 RUS  HZ EP     D  815 23.71                             144   -0.4410  101 177 
 RUS  HN ES        815 42.84                             144    0.1510  101 177 
 RUS  HZ I         815 44.15        51.8 0.50            145            101 177 
 PTB  HZ EP        815 26.51                             132   -0.95 9  149 259 
 PTB  HN ES        815 48.39                             132   -0.18 9  149 259 
 PTB  HZ I         815 49.94       105.1 0.14            130            149 259 
 TAM  HZ IP     C  815 28.06                             131    0.10 9  154 105 
 TAM  HN ES        815 49.97                             131    0.51 9  154 105 
 TAM  HZ I         815 50.33        30.6 0.26            135            154 105 
 OCA  HZ EP        815 28.73                             130    0.07 9  160 353 
 OCA  HE ES        815 50.88                             130    0.18 9  160 353 
 OCA  HZ I         815 54.90       122.5 0.24            130            160 353 
 SPBC HZ EP        815 28.78                             129   -0.20 9  164 219 
 SPBC HN ES        815 51.35                             129    0.07 9  164 219 
 SPBC HZ I         815 55.00       104.2 0.18            129            164 219 
 ZAR  HZ EP        815 32.47                             122   -0.45 9  205 292 
 ZAR  HN ES        815 58.98                             122    0.69 9  205 292 
 ZAR  HZ I         816  4.85        78.8 0.36            121            205 292 
 NOR  HZ EP        815 35.66                             118   -0.59 8  236 235 
 NOR  HN ES        816  3.57                             118   -0.64 8  236 235 
 NOR  HZ I         816  7.57        53.0 0.18            118            236 235 
 CHI  HZ EP        815 37.95                             117   -0.22 8  249 195 
 CHI  HN ES        816  7.08                             117   -0.55 8  249 195 
 CHI  HZ I         816 13.26        23.8 0.62            118            249 195 
 ROSC BZ EP        815 39.61                             116    0.99 8  254 211 
 ROSC BN ES   4    816 10.94                             116    2.51 0  254 211 
 ROSC BZ I         816 17.42        44.3 0.45            117            254 211 
 HEL  HZ EP        815 40.74                             115    0.00 8  273 256 
 HEL  HN ES        816 12.75                             115    0.54 8  273 256 
 HEL  HZ I         816 18.25        39.9 0.34            114            273 256 
 URE  HZ EP   4    815 39.76                             113   -1.80 0  285 292 
 URE  HN ES   4    816 11.07                             113   -2.59 0  285 292 
 URE  HZ I         816 24.30        36.2 0.16            113            285 292 
 SOCV BZ EP   4    815 41.41                             112   -1.88 0  300  57 
 SOCV BN ES   4    816 13.65                             112   -3.10 0  300  57 
 GUY2CHZ EP        815 44.40                             112    0.27 7  302 235 
 GUY2CHE ES   4    816 20.95                             112    2.70 0  302 235 
 GUY2CHZ I         816 25.44        29.6 0.56                           302 235 
 VIL  SZ EP        815 44.05                             112    0.17 7  304 192 
 VIL  SN ES   4    816 16.68                             112   -1.12 0  304 192 
 PTGC HZ EP   4    815 42.72                             111   -1.52 0  309 159 
 PTGC HN ES   4    816 15.78                             111   -2.67 0  309 159 
 PTGC HZ I         816 16.93        23.6 0.26            113            309 159 
 ELA  HZ EP   9    815 49.60                             110    2.22 0  330 230 
 ELA  HN ES        816 26.09                             111   -0.16 7  330 230 
 ELA  HZ I         816 32.27        27.9 0.36            110            330 230 
 CBOC HZ EP        815 47.64                             110    0.19 7  335 252 
 CBOC HN ES        816 24.66                             110    0.51 7  335 252 
 CBOC HZ I         816 29.30        11.4 0.32            110            335 252 
 MON  HZ EP   4    815 46.95                             108   -2.51 0  354 308 
 MON  HN ES   4    816 26.14                             108   -1.59 0  354 308 
 MON  HZ I         816 40.72        13.5 0.44            109            354 308 
 ANIL HZ EP        815 51.13                             108    0.80 6  359 225 
 ANIL HN ES   4    816 32.20                             108    2.93 0  359 225 
 ANIL HZ I         816 37.61        55.3 0.26            109            359 225 
 ORTC HZ EP        815 55.11                             106    0.68 6  397 216 
 ORTC HN ES   4    816 38.02                             106    1.43 0  397 216 
 ORTC HZ I         816 42.62        11.7 0.34            107            397 216 
 PAL  HZ EP        815 55.58                             106   -0.12 6  407 239 
 PAL  HN ES   4    816 40.16                             106    1.33 0  407 239 
 PAL  HZ I         816 43.47        10.4 0.22            106            407 239 
 SJC  HZ EP   4    815 53.69                             106   -2.29 0  409 327 
 SJC  HN ES   4    816 35.46                             106   -3.87 0  409 327 
 SJC  HZ I         816 43.30        10.3 0.48            106            409 327 
 CRJC HZ EP   9    815 59.38                             103   -3.44 0  467   3 
 CRJC HN ES        816 47.08                             105   -0.99 5  467   3 
 CRJC HZ I         816 54.33        15.6 0.46            104            467   3 
 SMAR HZ EP        816  5.40                             102   -0.84 4  497 346 
 SMAR HN ES   4    816 53.06                             102   -4.54 0  497 346 
 SMAR HZ I         816 57.42        13.5 0.16            103            497 346 
 MACC HZ EP   9    816  6.57                             101   -2.61 0  521 189 
 MACC HN ES        816 59.64                             101   -0.58 4  521 189 
 MACC HZ I         817  2.40         3.8 0.46            102            521 189 
 SOTA HZ EP        816 24.14                              99   -0.41 2  644 217 
 SOTA HN ES   4    817 34.68                              99    4.49 0  644 217 
                                                                                
