 2012  112 0405 26.3 L   6.772 -73.165153.7  RSN  7 0.4 1.7LRSN                1
 GAP=180        0.83       7.0     8.8  8.7  0.2540E+02  0.1272E+02  0.2239E+02E
 Epicentro: LOS SANTOS - SANTANDER                                             3
 ACTION:UP  12-02-03 08:16 OP:REBC STATUS:               ID:20120112040526 L   I
 2012-01-12-0400-00M.COL___187                                                 6
 STAT SP IPHASW D HRMM SECON CODA AMPLIT PERI AZIMU VELO SNR AR TRES W  DIS CAZ7
 BAR2 SZ EP   2    4 5 46.26                             172    -0.5 5   20 185 
 BAR2 SZ I         4 5 47.06        11.3 0.40                            20 185 
 BAR2 SZ ES   2    4 6  2.42                             172    -0.4 5   20 185 
 GIR2 SZ EP   2    4 5 46.46                             167    -0.5 5   34 355 
 GIR2 SZ ES   2    4 6  3.07                             167     0.0 5   34 355 
 BRR  HZ IP     C  4 5 48.39                             154     0.110   71 302 
 BRR  HZ I         4 5 48.74        18.6 0.13                            71 302 
 BRR  HE ES   1    4 6  5.92                             154     0.5 7   71 302 
 RUS  HZ EP   1    4 5 50.98                             146     0.4 7   98 175 
 RUS  HN ES   2    4 6  9.06                             146    -0.5 5   98 175 
 RUS  HZ I         4 6 10.00         4.7 0.35                            98 175 
 PTB  HZ EP   1    4 5 52.85                             134    -0.8 7  145 260 
 PTB  HN ES   2    4 6 14.90                             134    -0.1 5  145 260 
 ZAR  HE ES   2    4 6 24.76                             124     0.0 4  203 293 
 CHI  HZ EP   1    4 6  4.54                             119     0.5 6  245 195 
 CHI  HZ I         4 6  7.23         1.9 0.35                           245 195 
 CHI  HN ES   2    4 6 33.81                             119     0.3 4  245 195 
                                                                                
