 2011 1212 0905 15.8 L   6.663 -73.445124.9  RSN  5 0.4 1.4LRSN                1
 GAP=108        0.68       9.0     5.2  8.0 -0.2683E+01  0.4979E+01  0.9752E+01E
 Epicentro: EL CARMEN DE CHUCURI - SANTANDER                                   3
 ACTION:UPD 12-07-13 16:15 OP:ep   STATUS:               ID:20111212090516dL   I
 2011-12-12-0900-00M.COL___186                                                 6
 STAT SP IPHASW D HRMM SECON CODA AMPLIT PERI AZIMU VELO AIN AR TRES W  DIS CAZ7
 BAR2 SZ EP   1    9 5 33.34                             166    0.20 7 30.1 105 
 BAR2 SZ ES   1    9 5 46.57                             166   -0.07 7 30.1 105 
 BAR2 SZ I         9 5 47.54         7.1 0.36                          30.1 105 
 GIR2 SZ EP   1    9 5 33.39                             155   -0.58 7 53.7  31 
 BRR  HZ EP   1    9 5 34.04                             153    0.10 7 57.2 329 
 BRR  HE ES   1    9 5 48.41                             153    0.34 7 57.2 329 
 BRR  HZ I         9 5 48.59         5.0 0.51                          57.2 329 
 RUS  HZ EP   3    9 5 37.63                             141    0.53 2 94.2 155 
 PTB  HZ EP   1    9 5 38.32                             135    0.38 7  113 263 
 PTB  HN ES   1    9 5 54.76                             135   -0.42 7  113 263 
                                                                                
