 2017  812 0831 18.9 L   6.756 -73.065145.7  RSN 16 0.4 2.0LRSN                1
 GAP=128        0.81       2.7     3.1  4.2 -0.1222E+01  0.2889E+01  0.3896E+01E
 Epicentro: LOS SANTOS - SANTANDER                                             3
 ACTION:UPD 17-09-04 20:19 OP:rebc STATUS:               ID:20170812083118 L   I
 OLDACT:UP  17-08-12 18:41 OP:dnl  STATUS:               ID:20170812082738     3
 OLDACT:UP  17-08-12 18:41 OP:dnl  STATUS:               ID:20170812082738     3
 OLDACT:REG 17-08-12 12:51 OP:dhb  STATUS:               ID:20170812082738     3
 2017-08-12-0828-00M.COL___414                                                 6
 STAT SP IPHASW D HRMM SECON CODA AMPLIT PERI AZIMU VELO AIN AR TRES W  DIS CAZ7
 BAR2 EZ EP        831 38.42                             171   -0.0910 22.2 216 
 BAR2 EZ ES        831 53.64                             171   -0.1610 22.2 216 
 BAR2 EZ I         831 56.27        29.6 0.30            166           22.2 216 
 PAM  EZ EP        831 41.37                             151    0.3210 76.2  32 
 PAM  EE ES        831 58.54                             151    0.2310 76.2  32 
 PAM  EZ I         832  1.71        10.0 0.50            157           76.2  32 
 BRR  HZ IP     D  831 40.27                             149   -0.3810 81.3 299 
 BRR  HN ES        831 57.35                             149   -0.2710 81.3 299 
 BRR  HZ I         832  1.46        19.3 0.28            148           81.3 299 
 RUS  HZ EP        831 42.35                             145    0.0610 95.5 181 
 RUS  HE ES        832  0.87                             145    0.3410 95.5 181 
 RUS  HZ I         832  2.48        11.8 0.32            145           95.5 181 
 SPBC HZ EP        831 47.42                             129   -0.18 9  165 222 
 SPBC HE ES        832  9.87                             129   -0.11 9  165 222 
 SPBC HZ I         832 16.42        14.2 0.22            128            165 222 
 NOR  HZ EP        831 54.74                             118   -0.38 8  239 237 
 NOR  HE ES        832 22.45                             118   -0.92 8  239 237 
 NOR  HZ I         832 28.01         6.4 0.20            118            239 237 
 CHI  HZ EP        831 56.74                             117    0.38 8  246 197 
 CHI  HN ES        832 26.14                             117    0.56 8  246 197 
 CHI  HZ I         832 36.08         4.0 0.36            118            246 197 
 ROSC BZ EP   4    831 58.83                             117    1.74 0  253 213 
 ROSC BN ES   4    832 29.87                             117    3.00 0  253 213 
 ROSC BZ I         832 33.12        13.4 0.45            117            253 213 
 HEL  HZ EP        832  0.28                             114    0.33 7  280 257 
 HEL  HE ES        832 32.76                             114    0.80 7  280 257 
 HEL  HZ I         832 38.78         3.5 0.38            115            280 257 
 URE  HN ES   4    832 28.90                             113   -5.11 0  294 292 
 URE  HZ I         832 39.86         5.8 0.16            114            294 292 
 PTGC HZ EP        832  1.61                             112   -0.28 7  301 160 
 PTGC HN ES        832 34.93                             112   -0.48 7  301 160 
 PTGC HZ I         832 39.84         5.3 0.34            114            301 160 
 GUY2CHZ EP   2    832  3.80                             112    0.77 4  306 236 
 GUY2CHE ES        832 37.61                             112    0.17 7  306 236 
 GUY2CHZ I         832 44.66         6.0 0.30                           306 236 
 LL6C HZ EP   4    832  3.88                             110   -1.34 0  330 356 
 LL6C HE ES   2    832 41.62                             110    0.28 3  330 356 
 CBOC HZ EP        832  6.71                             109    0.08 7  341 253 
 CBOC HN ES   4    832 41.21                             109   -2.64 0  341 253 
 CBOC HZ I         832 53.46         1.2 0.52            110            341 253 
 PRA  HZ EP        832 12.13                             106   -0.33 6  392 211 
 PRA  HN ES        832 54.15                             106   -0.07 6  392 211 
 PRA  HZ I         833  0.68         7.1 0.38            107            392 211 
 ORTC HZ EP   2    832 12.85                             106   -0.14 3  397 218 
 ORTC HE ES        832 55.52                             106    0.34 6  397 218 
 ORTC HZ I         833  2.19         2.9 0.68            107            397 218 
                                                                                
