 2013  212 0915 18.4 L   6.785 -73.155145.7  RSN  7 0.3 1.5LRSN                1
 GAP=136        0.69       3.3     4.4  6.2 -0.7117E+00  0.3381E+01 -0.1456E+00E
 Epicentro: LOS SANTOS - SANTANDER                                             3
 ACTION:UPD 13-03-12 09:32 OP:ep   STATUS:               ID:20130212091518 L   I
 2013-02-12-0910-00M.COL___240                                                 6
 STAT SP IPHASW D HRMM SECON CODA AMPLIT PERI AZIMU VELO AIN AR TRES W  DIS CAZ7
 BAR2 SZ EP   1    915 38.02                             171    0.02 7 21.6 188 
 BAR2 SZ ES   1    915 52.86                             171   -0.42 7 21.6 188 
 BAR2 SZ I         915 54.36        19.2 0.16            172           21.6 188 
 BRR  HZ EP   1    915 39.89                             152    0.34 7 71.1 300 
 BRR  HN ES   1    915 56.80                             152    0.76 7 71.1 300 
 BRR  HZ I         916  0.81        10.4 0.44            153           71.1 300 
 PAM  SZ EP        915 40.87                             150    0.1310 79.3  39 
 PAM  SN ES   1    915 57.84                             150   -0.30 7 79.3  39 
 PAM  SZ I         915 59.93         5.0 0.36            153           79.3  39 
 RUS  HZ EP   1    915 42.15                             144    0.10 7 99.0 175 
 RUS  HN ES   1    916  0.58                             144    0.10 7 99.0 175 
 RUS  HZ I         916  1.80         1.6 0.18            148           99.0 175 
 PTB  HZ EP   1    915 44.97                             132   -0.29 7  146 259 
 PTB  HN ES   1    916  5.83                             132   -0.37 7  146 259 
 PTB  HZ I         916  7.95         3.4 0.20            134            146 259 
 SML  HN ES   1    916 23.43                             117   -0.38 6  245 336 
 CHI  HN ES   1    916 25.12                             117   -0.04 6  247 195 
                                                                                
