 2013  212 0307 55.7 L   6.813 -73.142146.1  RSN 15 0.5 2.5LRSN                1
 GAP= 71        0.88       2.7     3.3  5.4 -0.4387E-01  0.4313E+01  0.3800E+00E
 Epicentro: LOS SANTOS - SANTANDER                                             3
 ACTION:UPD 13-03-12 09:32 OP:ep   STATUS:               ID:20130212030755 L   I
 2013-02-12-0300-00M.COL___240                                                 6
 STAT SP IPHASW D HRMM SECON CODA AMPLIT PERI AZIMU VELO AIN AR TRES W  DIS CAZ7
 BAR2 SZ IP        3 8 15.50                             170    0.0610 24.8 190 
 BAR2 SZ ES   1    3 8 30.54                             170   -0.27 7 24.8 190 
 BAR2 SZ I         3 8 32.20       158.1 0.26            168           24.8 190 
 BRR  HZ IP     D  3 8 17.33                             153    0.4210 70.9 297 
 BRR  HN ES   1    3 8 34.26                             153    0.84 7 70.9 297 
 BRR  HZ I         3 8 35.30        40.0 0.28            150           70.9 297 
 PAM  SZ EP        3 8 18.33                             151    0.4110 76.1  40 
 PAM  SN ES   1    3 8 35.62                             151    0.41 7 76.1  40 
 PAM  SZ I         3 8 36.38        26.9 0.18            155           76.1  40 
 RUS  HZ IP     D  3 8 19.36                             144   -0.2710  102 176 
 RUS  HN ES   1    3 8 38.06                             144   -0.20 7  102 176 
 RUS  HZ I         3 8 39.38        16.0 0.28            144            102 176 
 PTB  HZ EP        3 8 22.24                             132   -0.55 9  148 258 
 PTB  HN ES   1    3 8 43.16                             132   -0.73 7  148 258 
 PTB  HZ I         3 8 49.17        36.0 0.52            131            148 258 
 TAM  HZ EP   1    3 8 23.76                             131    0.31 7  155 106 
 TAM  HN ES   1    3 8 44.73                             131   -0.33 7  155 106 
 TAM  HN I         3 8 46.25        70.1 0.34            134            155 106 
 OCA  HZ EP   1    3 8 23.42                             130   -0.53 7  159 353 
 OCA  HN ES   1    3 8 45.42                             130   -0.54 7  159 353 
 OCA  HZ I         3 8 48.94        34.1 0.20            131            159 353 
 ZAR  HZ EP   2    3 8 28.15                             122   -0.04 4  204 292 
 ZAR  HN ES   1    3 8 53.57                             122    0.07 6  204 292 
 ZAR  HZ I         3 8 59.44        26.6 0.28            122            204 292 
 SML  HZ EP        3 8 31.86                             118   -0.40 8  243 335 
 SML  HN ES   1    3 9  0.09                             118   -0.66 6  243 335 
 SML  HZ I         3 9  4.76        31.5 0.10            118            243 335 
 CHI  HZ IP     D  3 8 33.53                             117   -0.09 8  250 195 
 CHI  HN ES   1    3 9  2.76                             117   -0.40 6  250 195 
 CHI  HZ I         3 9  6.48        15.5 0.50            117            250 195 
 ROSC BZ EP   2    3 8 34.88                             117    0.85 4  254 211 
 ROSC BN ES   1    3 9  4.41                             117    0.51 6  254 211 
 ROSC BZ I         3 9 13.30        37.3 0.35            117            254 211 
 HEL  HZ EP        3 8 36.66                             115    0.61 8  273 256 
 HEL  HN ES   1    3 9  7.64                             115    0.15 6  273 256 
 HEL  HZ I         3 9 13.48        19.5 0.32            115            273 256 
 DBB  SZ EP   1    3 8 43.57                             110    0.31 5  340 274 
 DBB  SZ ES   4    3 9 19.24                             110   -1.09 0  340 274 
 COD  HN ES   1    3 9 22.15                             109    0.56 5  347 355 
 COD  HZ I         3 9 26.35        19.0 0.92            110            347 355 
 ANIL HN ES   2    3 9 24.99                             108    0.32 3  359 224 
 ANIL HZ I         3 9 29.24        14.3 0.46            109            359 224 
                                                                                
