 2013  712 0217  2.2 L   6.492 -73.587107.9  RSN  6 0.4 1.6LRSN                1
 GAP=133        1.14       4.5     4.9  7.8  0.4440E+01  0.9403E+01 -0.3744E+01E
 Epicentro: SANTA HELENA DEL OPON - SANTANDER                                  3
 ACTION:UPD 13-08-12 10:37 OP:ep   STATUS:               ID:20130712021702 L   I
 OLDACT:REG 13-07-12 08:21 OP:nd   STATUS:               ID:20130712020959     3
 2013-07-12-0209-59M.COL___266                                                 6
 STAT SP IPHASW D HRMM SECON CODA AMPLIT PERI AZIMU VELO AIN AR TRES W  DIS CAZ7
 BAR2 SZ IP     C  217 18.41                             155    0.2610 46.1  76 
 BAR2 SZ ES        217 30.68                             155    0.0510 46.1  76 
 BAR2 SZ I         217 31.99        33.2 0.46            156           46.1  76 
 BRR  HZ EP        217 19.33                             145    0.1010 69.4 349 
 BRR  HN ES        217 33.46                             145    0.9110 69.4 349 
 BRR  HZ I         217 36.82         7.1 0.52            144           69.4 349 
 GIR2 SZ EP        217 19.86                             141   -0.2110 78.1  34 
 GIR2 SZ ES        217 33.20                             141   -0.8510 78.1  34 
 GIR2 SZ I         217 34.49         9.3 0.10            142           78.1  34 
 RUS  HZ EP        217 21.73                             139    0.5010 86.7 140 
 RUS  HN ES        217 35.94                             139   -0.1710 86.7 140 
 RUS  HZ I         217 37.29         3.5 0.28            142           86.7 140 
 PTB  HZ EP        217 21.18                             135   -0.2010 96.3 273 
 PTB  HN ES        217 36.04                             135   -0.3310 96.3 273 
 PTB  HZ I         217 37.56         5.9 0.26            136           96.3 273 
 SML  HZ EP        217 38.68                             107   -0.28 8  261 348 
 SML  HN ES        218  7.83                             107    0.16 8  261 348 
 SML  HZ I         218 12.95         5.9 0.10            108            261 348 
                                                                                
