 2012  612 0341  0.5 L   6.821 -73.156146.0  RSN  7 0.3 1.9LRSN                1
 GAP=182        0.49       2.7     3.2  5.3  0.4474E+00  0.7195E+01 -0.8556E+00E
 Epicentro: LOS SANTOS - SANTANDER                                             3
 ACTION:UPD 12-08-06 17:48 OP:ep   STATUS:               ID:20120612034058 L   I
 2012-06-12-0340-00M.COL___201                                                 6
 STAT SP IPHASW D HRMM SECON CODA AMPLIT PERI AZIMU VELO AIN AR TRES W  DIS CAZ7
 BAR2 SZ EP   1    341 20.49                             170    0.28 7 25.5 187 
 BAR2 SZ ES   1    341 35.63                             170    0.06 7 25.5 187 
 BAR2 SZ I         341 37.60        23.9 0.34            167           25.5 187 
 RUS  HZ EP   1    341 24.23                             143   -0.22 7  103 176 
 RUS  HN ES   1    341 43.12                             143   -0.01 7  103 176 
 RUS  HZ I         341 43.96         6.4 0.37            145            103 176 
 PTB  HZ EP   1    341 27.21                             132   -0.22 7  147 258 
 PTB  HN ES   1    341 48.30                             132   -0.13 7  147 258 
 PTB  HZ I         341 51.19        10.6 0.18            131            147 258 
 OCA  HE ES   1    341 50.33                             130   -0.19 7  158 353 
 ZAR  HZ EP   2    341 32.86                             123    0.09 4  202 292 
 ZAR  HN ES   1    341 58.27                             123    0.34 6  202 292 
 ZAR  HZ I         342  2.12         8.1 0.10            123            202 292 
 NOR  SE ES   1    342  4.45                             118    0.24 6  235 234 
 HEL  HZ EP   1    341 41.05                             115    0.38 6  272 255 
 HEL  HN ES   1    342 11.49                             115   -0.51 6  272 255 
 HEL  HZ I         342 19.59         3.9 0.41            115            272 255 
                                                                                
