 2012 1112 0457 45.7 L   6.785 -73.166142.9  RSN  9 0.4 1.8LRSN                1
 GAP=135        0.82       4.1     4.2  6.0  0.9455E+00  0.8594E+01  0.5821E+01E
 Epicentro: LOS SANTOS - SANTANDER                                             3
 ACTION:UPD 12-12-05 15:32 OP:}ep  STATUS:               ID:20121112045745 L   I
 2012-11-12-0455-40M.COL___212                                                 6
 STAT SP IPHASW D HRMM SECON CODA AMPLIT PERI AZIMU VELO AIN AR TRES W  DIS CAZ7
 BAR2 SZ EP   1    458  4.99                             171    0.00 7 21.4 185 
 BAR2 SZ ES   1    458 19.66                             171   -0.34 7 21.4 185 
 BAR2 SZ I         458 22.10        23.1 0.30                          21.4 185 
 GIR2 SZ EP   1    458  4.84                             167   -0.28 7 32.6 355 
 GIR2 SZ ES   1    458 20.60                             167    0.38 7 32.6 355 
 BRR  HZ EP   1    458  6.61                             152    0.09 7 70.1 301 
 BRR  HN ES   1    458 23.25                             152    0.52 7 70.1 301 
 BRR  HZ I         458 28.34        10.2 0.14                          70.1 301 
 PAM  SZ EP   1    458  7.61                             149   -0.21 7 80.1  40 
 PAM  SN ES   1    458 24.70                             149   -0.34 7 80.1  40 
 PAM  SZ I         458 27.08        14.9 0.62                          80.1  40 
 RUS  HZ EP   1    458  9.23                             144    0.12 7 99.1 175 
 RUS  HN ES   1    458 27.65                             144    0.32 7 99.1 175 
 RUS  HZ I         458 28.48         8.3 0.24                          99.1 175 
 PTB  HZ EP   1    458 11.42                             132   -0.83 7  145 259 
 PTB  HN ES   1    458 32.80                             132   -0.13 7  145 259 
 PTB  HZ I         458 34.70         7.5 0.15                           145 259 
 ZAR  HZ EP   1    458 18.70                             122    0.84 6  203 293 
 ZAR  HE ES   1    458 42.67                             122   -0.24 6  203 293 
 ZAR  HZ I         458 45.58         7.8 0.18                           203 293 
 CHI  HZ EP   1    458 23.10                             117    0.05 6  246 195 
 CHI  HN ES   1    458 52.19                             117    0.05 6  246 195 
 CHI  HZ I         458 56.01         2.1 0.39                           246 195 
 HEL  HZ EP   1    458 26.39                             114    0.86 6  270 256 
 HEL  HN ES   1    458 55.85                             114   -0.71 6  270 256 
 HEL  HZ I         459  4.10         4.5 0.36                           270 256 
                                                                                
