 2017  412 0656 49.9 L   6.865 -73.506110.9  RSN  6 0.4 1.4LRSN                1
 GAP=170        1.08       5.0     4.9  7.9  0.1082E+02  0.1085E+02  0.4705E+01E
 Epicentro: SAN VICENTE DE CHUCURI - SANTANDER                                 3
 ACTION:UPD 17-05-30 21:11 OP:jn   STATUS:               ID:20170412065649 L   I
 OLDACT:UP  17-04-12 18:42 OP:edw  STATUS:               ID:20170412064740     3
 OLDACT:REG 17-04-12 13:19 OP:edw  STATUS:               ID:20170412064740     3
 2017-04-12-0648-00M.COL___368                                                 6
 STAT SP IPHASW D HRMM SECON CODA AMPLIT PERI AZIMU VELO AIN AR TRES W  DIS CAZ7
 BRR  HZ IP     D  657  4.99                             161   -0.4510 35.1 320 
 BRR  HN ES        657 17.43                             161   -0.0910 35.1 320 
 BRR  HZ I         657 18.33         6.6 0.42            162           35.1 320 
 BAR2 EZ IP     C  657  6.21                             156   -0.1110 46.8 130 
 BAR2 EZ ES        657 19.24                             156    0.1610 46.8 130 
 BAR2 EZ I         657 19.66         7.3 0.28            156           46.8 130 
 PTB  HZ EP        657 10.20                             131   -0.5410  111 251 
 PTB  HN ES        657 26.41                             131   -0.5510  111 251 
 PTB  HZ I         657 27.86         6.4 0.28            131            111 251 
 RUS  HZ EP        657 11.99                             130    0.0310  117 156 
 RUS  HN ES        657 29.47                             130    0.3410  117 156 
 RUS  HZ I         657 32.91         2.2 0.22            130            117 156 
 SPBC HN ES        657 33.84                             123    0.28 9  148 205 
 ZAR  HZ EP        657 16.30                             119    0.22 9  165 295 
 ZAR  HN ES        657 37.41                             119    0.94 9  165 295 
 ZAR  HZ I         657 39.95         5.9 0.26            120            165 295 
                                                                                
