 2016  212 0747 13.4 L   6.893 -73.177142.0  RSN  9 0.4 1.6LRSN                1
 GAP=128        0.95       3.4     4.1  7.3 -0.3487E+01  0.1376E+02 -0.1060E+01E
 Epicentro: BETULIA - SANTANDER                                                3
 ACTION:UPD 16-03-04 21:25 OP:rebc STATUS:               ID:20160212074713 L   I
 OLDACT:UP  16-02-12 18:46 OP:ak   STATUS:               ID:20160212073750d    3
 OLDACT:DUP 16-02-12 18:41 OP:ak   STATUS:               ID:20160212073750d    3
 OLDACT:REG 16-02-12 16:16 OP:ak   STATUS:               ID:20160212073749     3
 2016-02-12-0737-49M.COL___283                                                 6
 STAT SP IPHASW D HRMM SECON CODA AMPLIT PERI AZIMU VELO AIN AR TRES W  DIS CAZ7
 BAR2 EZ EP        747 32.59                             166   -0.2710 33.3 181 
 BAR2 EZ ES        747 47.98                             166   -0.0310 33.3 181 
 BAR2 EZ I         747 48.67         7.1 0.16            166           33.3 181 
 PAM  EZ EP        747 35.15                             152    0.2110 72.3  47 
 PAM  EN ES        747 52.35                             152    0.6310 72.3  47 
 PAM  EZ I         747 53.90         8.3 0.28            155           72.3  47 
 RUS  HZ EP   2    747 37.32                             140   -0.29 5  111 175 
 RUS  HN ES        747 56.55                             140    0.0710  111 175 
 RUS  HZ I         747 57.22         3.0 0.36            141            111 175 
 PTB  HZ EP   1    747 39.44                             132   -0.56 7  147 255 
 PTB  HN ES        748  0.20                             132   -0.52 9  147 255 
 PTB  HZ I         748  2.03         8.1 0.32            131            147 255 
 OCA  HZ EP   2    747 40.57                             131    0.11 5  150 354 
 OCA  HE ES        748  0.81                             131   -0.73 9  150 354 
 OCA  HZ I         748  2.44         9.9 0.16            132            150 354 
 SPBC HZ EP        747 41.76                             127   -0.47 9  169 216 
 SPBC HN ES        748  4.77                             127    0.08 9  169 216 
 SPBC HZ I         748  9.70         5.5 0.20            127            169 216 
 ZAR  HZ EP   2    747 45.64                             123    0.72 4  197 290 
 ZAR  HN ES        748 10.09                             123    0.62 9  197 290 
 HEL  HZ EP   2    747 53.56                             114    0.18 4  271 254 
 HEL  HN ES        748 25.07                             114    0.53 8  271 254 
 HEL  HZ I         748 32.65         2.3 0.56            115            271 254 
 GUY2CHZ EP   2    747 57.75                             111    0.51 4  304 233 
 GUY2CHN ES        748 31.64                             111    0.24 7  304 233 
 GUY2CHZ I         748 39.82         2.7 0.32                           304 233 
                                                                                
