 2017  712 0107 40.8 L   6.751 -73.117145.2  RSN  6 0.4 1.8LRSN                1
 GAP=261        0.81       4.8     5.1  6.7  0.7998E+00  0.8806E+01  0.8029E+01E
 Epicentro: LOS SANTOS - SANTANDER                                             3
 ACTION:UPD 17-08-30 15:32 OP:rebc STATUS:               ID:20170712010740 L   I
 OLDACT:DUP 17-07-12 12:56 OP:dnl  STATUS:               ID:20170712005747d    3
 2017-07-12-0058-00M.COL___368                                                 6
 STAT SP IPHASW D HRMM SECON CODA AMPLIT PERI AZIMU VELO AIN AR TRES W  DIS CAZ7
 BAR2 EZ EP        1 8  0.22                             172   -0.0510 19.0 202 
 BAR2 EZ ES        1 8 15.18                             172   -0.2910 19.0 202 
 BAR2 EZ I         1 8 16.58        13.0 0.24            171           19.0 202 
 BRR  HZ EP        1 8  2.36                             151    0.1710 76.6 301 
 BRR  HE ES        1 8 19.45                             151    0.5710 76.6 301 
 BRR  HZ I         1 8 25.04         7.8 0.28            148           76.6 301 
 PTB  HZ EP   2    1 8  7.13                             131   -0.77 5  150 261 
 PTB  HE ES        1 8 28.58                             131   -0.48 9  150 261 
 PTB  HZ I         1 8 30.69         4.9 0.24            132            150 261 
 SPBC HZ EP        1 8  8.94                             129   -0.10 9  161 221 
 SPBC HE ES        1 8 31.27                             129    0.19 9  161 221 
 SPBC HZ I         1 8 34.97         8.5 0.24            131            161 221 
 ZAR  HE ES        1 8 39.19                             121   -0.20 8  209 293 
 ZAR  HZ I         1 8 45.16         7.3 0.36            122            209 293 
 GUY2CHZ EP   2    1 8 25.22                             112    0.91 4  301 236 
 GUY2CHE ES        1 8 58.51                             112    0.24 7  301 236 
 GUY2CHZ I         1 9  6.44         3.8 0.34                           301 236 
                                                                                
