 2017  112 0724 56.1 L   6.761 -73.163143.5  RSN  6 0.4 1.2LRSN                1
 GAP=136        0.94       5.8     5.0  7.3  0.1096E+02 -0.1014E+01 -0.7921E+01E
 Epicentro: LOS SANTOS - SANTANDER                                             3
 ACTION:UPD 17-05-22 15:58 OP:jn   STATUS:               ID:20170112072456 L   I
 OLDACT:UP  17-04-20 13:33 OP:nlst STATUS:               ID:20170112072456 L   3
 OLDACT:DUP 17-01-12 21:09 OP:dani STATUS:               ID:20170112071744d    3
 OLDACT:UP  17-01-12 21:09 OP:dani STATUS:               ID:20170112071743     3
 OLDACT:UP  17-01-12 21:07 OP:dani STATUS:               ID:20170112071743     3
 OLDACT:REG 17-01-12 20:09 OP:and  STATUS:               ID:20170112071743     3
 2017-01-12-0718-00M.COL___334                                                 6
 STAT SP IPHASW D HRMM SECON CODA AMPLIT PERI AZIMU VELO AIN AR TRES W  DIS CAZ7
 BAR2 HZ EP        725 14.62                             172   -0.7610 18.7 186 
 BAR2 HZ ES        725 30.88                             172    0.4710 18.7 186 
 BRR  HZ EP        725 17.28                             152    0.2410 71.7 302 
 BRR  HE ES        725 33.29                             152   -0.0710 71.7 302 
 BRR  HZ I         725 35.93         4.0 0.46            153           71.7 302 
 PAM  HZ EP        725 18.29                             149   -0.0710 82.0  39 
 RUS  HZ EP        725 19.74                             145    0.4110 96.4 175 
 RUS  HN ES        725 37.17                             145   -0.2810 96.4 175 
 RUS  HZ I         725 39.08         2.2 0.26            146           96.4 175 
 PTB  HZ EP        725 22.93                             132    0.29 9  145 260 
 PTB  HE ES        725 43.18                             132   -0.16 9  145 260 
 PTB  HZ I         725 45.27         1.5 0.16            133            145 260 
 ZAR  HN ES        725 53.49                             122   -0.08 9  204 293 
                                                                                
