 2013 1012 0754 42.9 L   6.771 -73.131135.5  RSN  5 0.5 1.1LRSN                1
 GAP=140        1.11       8.0     6.2 17.5  0.1354E+02 -0.3385E+02 -0.7394E+02E
 Epicentro: LOS SANTOS - SANTANDER                                             3
 ACTION:UPD 13-11-25 09:21 OP:ep   STATUS:               ID:20131012075442 L   I
 OLDACT:UP  13-10-12 13:01 OP:mh   STATUS:               ID:20131012074959     3
 OLDACT:UP  13-10-12 12:59 OP:mh   STATUS:               ID:20131012074959     3
 OLDACT:REG 13-10-12 08:45 OP:mh   STATUS:               ID:20131012074959     3
 2013-10-12-0749-59M.COL___273                                                 6
 STAT SP IPHASW D HRMM SECON CODA AMPLIT PERI AZIMU VELO AIN AR TRES W  DIS CAZ7
 RUS  HZ EP   1    755  5.50                             142    0.10 8 97.2 177 
 RUS  HN ES   1    755 23.47                             142    0.52 8 97.2 177 
 RUS  HZ I         755 25.81         1.7 0.42            146           97.2 177 
 PTB  HZ EP   4    755  6.99                             129   -2.15 0  149 260 
 PTB  HN ES        755 28.78                             129   -0.8210  149 260 
 PTB  HZ I         755 31.91         2.7 0.14            133            149 260 
 CAPV BZ EP        755  9.29                             129   -0.3310  151  37 
 SPBC HZ EP        755 10.46                             127   -0.0210  162 220 
 SPBC HN ES   4    755 33.46                             127    1.47 0  162 220 
 ZAR  HZ EP   1    755 15.38                             120    0.40 7  207 293 
 ZAR  HE ES        755 40.70                             120    0.69 9  207 293 
                                                                                
