 2013 1112 0241 11.9 L   6.794 -73.136144.4  RSN 11 0.3 1.8LRSN                1
 GAP=138        0.76       2.6     4.2  5.9 -0.3424E+01  0.1247E+02 -0.3167E+01E
 Epicentro: LOS SANTOS - SANTANDER                                             3
 ACTION:UPD 14-01-09 16:27 OP:ep   STATUS:               ID:20131112024111 L   I
 OLDACT:REG 13-11-12 08:52 OP:nd   STATUS:               ID:20131112024000     3
 2013-11-12-0240-00M.COL___273                                                 6
 STAT SP IPHASW D HRMM SECON CODA AMPLIT PERI AZIMU VELO AIN AR TRES W  DIS CAZ7
 BAR2 SZ EP        241 31.38                             171    0.0310 22.9 193 
 BAR2 SZ ES   2    241 46.30                             171   -0.23 5 22.9 193 
 BAR2 SZ I         241 47.57        18.5 0.28            168           22.9 193 
 BRR  HZ EP        241 33.25                             152    0.2810 72.5 299 
 BRR  HN ES   2    241 49.61                             152    0.20 5 72.5 299 
 BRR  HZ I         241 57.90         9.8 0.14            148           72.5 299 
 PAM  SZ EP        241 34.13                             151    0.1810 77.2  39 
 PAM  SN ES        241 51.41                             151    0.2510 77.2  39 
 PAM  SZ I         241 58.98        10.6 0.24            155           77.2  39 
 RUS  HZ EP        241 35.52                             144    0.0610 99.8 177 
 RUS  HN ES        241 53.31                             144   -0.5310 99.8 177 
 RUS  HZ I         241 55.19         5.6 0.40            153           99.8 177 
 PTB  HZ EP        241 38.17                             131   -0.67 9  149 259 
 PTB  HN ES   2    241 59.81                             131   -0.04 5  149 259 
 PTB  HZ I         242  5.22         8.4 0.22            133            149 259 
 OCA  HZ EP   2    241 40.50                             129    0.33 5  161 353 
 OCA  HN ES        242  2.05                             129   -0.18 9  161 353 
 OCA  HZ I         242  9.81         9.3 0.32            132            161 353 
 SPBC HZ EP        241 40.37                             129    0.07 9  163 219 
 SPBC HN ES        242  2.88                             129    0.41 9  163 219 
 SPBC HZ I         242  7.42        12.6 0.42            133            163 219 
 ZAR  HZ EP        241 44.65                             122    0.27 8  205 292 
 ZAR  HN ES   4    242 10.26                             122    0.54 0  205 292 
 ZAR  HZ I         242 15.58         8.7 0.30            124            205 292 
 SML  HZ EP        241 48.32                             117   -0.24 8  245 335 
 SML  HN ES   2    242 16.13                             117   -1.03 4  245 335 
 SML  HZ I         242 22.78        15.5 0.10            120            245 335 
 CBOC HZ EP   4    241 58.94                             110    0.09 0  334 252 
 CBOC HN ES        242 35.73                             110    0.26 7  334 252 
 CBOC HZ I         242 48.85         1.1 0.42            113            334 252 
 SJC  HZ EP   4    242  5.54                             105   -2.00 0  410 327 
 SJC  HN ES   4    242 45.42                             105   -5.53 0  410 327 
 SJC  HZ I         242 55.70         1.4 0.42            109            410 327 
                                                                                
