 2016 1112 0623 28.9 L   6.758 -73.145148.0  RSN  5 0.4 1.2LRSN                1
 GAP=155        0.94       7.8     4.5  6.8 -0.7242E+01  0.8537E+01 -0.2299E+01E
 Epicentro: LOS SANTOS - SANTANDER                                             3
 ACTION:UPD 17-10-26 21:07 OP:lp   STATUS:               ID:20161112062328 L   I
 OLDACT:DUP 16-11-12 17:35 OP:and  STATUS:               ID:20161112061750d    3
 2016-11-12-0618-00M.COL___340                                                 6
 STAT SP IPHASW D HRMM SECON CODA AMPLIT PERI AZIMU VELO AIN AR TRES W  DIS CAZ7
 BAR2 EZ EP        623 48.86                             172    0.1810 18.8 193 
 BAR2 EZ ES        624  3.94                             172   -0.2010 18.8 193 
 BAR2 EZ I         624  4.77         5.7 0.32            174           18.8 193 
 BRR  HZ EP     C  623 50.38                             152   -0.0110 73.6 302 
 BRR  HE ES        624  7.78                             152    0.6010 73.6 302 
 PAM  EZ EP        623 51.61                             150    0.0810 80.9  37 
 PAM  EN ES        624  8.94                             150   -0.2710 80.9  37 
 PTB  HZ EP        623 55.54                             133   -0.41 9  147 261 
 PTB  HN ES        624 17.15                             133    0.07 9  147 261 
 PTB  HZ I         624 17.31         1.3 0.18            132            147 261 
 ZAR  HZ EP        624  2.21                             123    0.56 8  206 293 
 ZAR  HN ES        624 26.56                             123   -0.66 8  206 293 
 ZAR  HZ I         624 34.32         1.5 0.26            121            206 293 
                                                                                
