 2010 1012 0847 21.6 L   6.795 -73.119149.7  RSN 17 0.5 4.3LRSN                1
 GAP=104        1.01       3.8     4.8  6.6 -0.7208E+01  0.7246E+00  0.7952E+01E
 Epicentro: LOS SANTOS - SANTANDER                                             3
 ACTION:UP  11-02-18 11:09 OP:tino STATUS:               ID:20101012084721 L   I
 2010-10-12-0845-07S.COL___121                                                 6
 STAT SP IPHASW D HRMM SECON CODA AMPLIT PERI AZIMU VELO SNR AR TRES W  DIS CAZ7
 BAR2 SZ IP        847 41.56                             171    -0.210   24 198 
 BAR2 SZ ES   1    847 56.63                             171    -0.8 7   24 198 
 BAR2 SZ I         847 57.95      5769.8 0.25                            24 198 
 URB  SZ EP   1    847 42.98                             159     0.5 7   54 334 
 BRR  HZ IP     C  847 43.52                             152     0.110   74 298 
 BRR  HN ES   1    848  0.90                             152     0.6 7   74 298 
 BRR  HZ I         848  4.77      2751.3 0.30                            74 298 
 GRA  SZ IP        847 47.42                             138     0.210  125  16 
 GRA  SZ ES   1    848  7.39                             138     0.2 7  125  16 
 GRA  SZ I         848  8.73      2418.7 0.54                           125  16 
 OCA  SZ IP        847 49.93                             130    -0.4 9  161 352 
 OCA  SZ ES   1    848 13.07                             130     0.3 7  161 352 
 OCA  SZ I         848 16.77      2633.5 0.23                           161 352 
 YOP  SZ IP        847 52.03                             127     0.2 9  177 154 
 NOR  SZ EP   1    847 57.22                             119    -0.6 6  237 235 
 NOR  SN ES   1    848 25.54                             119    -0.5 6  237 235 
 CHI  HZ EP   1    847 59.50                             118    -0.1 6  249 196 
 CHI  HE ES   1    848 28.87                             118    -0.3 6  249 196 
 CHI  HZ I         848 32.48       888.9 0.48                           249 196 
 CVER SZ EP   1    848  2.90                             115     0.6 6  273 203 
 CVER SZ I         848 45.47      1333.2 0.44                           273 203 
 HEL  HZ EP   1    848  2.08                             115    -0.3 6  275 256 
 HEL  HN ES   1    848 34.29                             115     0.2 6  275 256 
 HEL  HZ I         848 41.24       543.2 0.28                           275 256 
 RREF HZ EP        848  7.78                             111    -0.4 7  324 230 
 RREF HN ES   1    848 45.38                             111     0.9 5  324 230 
 RREF HZ I         848 53.55      1281.6 0.46                           324 230 
 DBB  SZ EP        848  9.33                             110    -0.3 7  342 274 
 DBB  SZ ES   1    848 46.12                             110    -0.9 5  342 274 
 TOL  SZ EP        848 11.07                             110     0.8 7  345 225 
 SDV  BZ IP        848 10.98                             109    -0.6 6  358  50 
 SDV  BZ I         848 50.37       311.2 0.53                           358  50 
 ANIL HZ EP   1    848 12.63                             109     0.8 5  359 225 
 ANIL HE ES   1    848 50.72                             109    -0.2 5  359 225 
 ANIL HZ I         848 55.44      2080.0 0.38                           359 225 
 PRA  HZ EP   1    848 14.97                             107    -0.4 4  393 210 
 PRA  HE ES   1    848 57.87                             107     0.5 4  393 210 
 PRA  HZ I         849  0.97      1751.2 0.27                           393 210 
 SOL  SZ EP   2    848 26.04                             103     0.6 2  479 263 
                                                                                
