 2010  112 0345 44.3 L   6.770 -73.113147.5  RSN  7 0.3 1.8LRSN                1
 GAP=186        0.62       3.3     7.1  6.0 -0.6505E+01  0.1200E+02  0.1686E+01E
 Epicentro: LOS SANTOS - SANTANDER                                             3
 ACTION:UP  10-08-24 09:43 OP:vdl  STATUS:               ID:20100112034544 L   I
 2010-01-12-0340-04S.COL___097                                                 6
 STAT SP IPHASW D HRMM SECON CODA AMPLIT PERI AZIMU VELO SNR AR TRES W  DIS CAZ7
 BAR2 SZ IP        346  3.87                             171    -0.210   21 202 
 BAR2 SZ ES   1    346 19.36                             171    -0.1 7   21 202 
 GIR2 SZ EP   1    346  4.20                             166    -0.1 7   35 345 
 RUS  BZ EP   1    346  7.77                             145    -0.2 7   97 178 
 RUS  BZ I         346  8.84         5.4 0.23                            97 178 
 RUS  BE ES   2    346 26.66                             145     0.3 5   97 178 
 OCA  SZ EP   1    346 12.95                             129    -0.1 7  164 352 
 OCA  SZ ES   1    346 36.00                             129     0.5 7  164 352 
 OCA  SZ I         346 39.86        33.0 0.36                           164 352 
 NOR  SZ EP   1    346 19.98                             119    -0.2 6  236 236 
 NOR  SZ ES   1    346 48.11                             119    -0.2 6  236 236 
 NOR  SZ I         346 51.58         2.9 0.31                           236 236 
 CHI  HZ IP        346 21.95                             118     0.1 8  246 196 
 CHI  HZ I         346 24.00         3.8 0.17                           246 196 
 CHI  HE ES   2    346 52.23                             118     1.1 4  246 196 
 PRA  HZ EP   1    346 37.90                             107     0.2 4  391 210 
                                                                                
