 2016 1012 0750 32.6 L   6.792 -73.153142.8  RSN  5 0.3 1.1LRSN                1
 GAP=136        0.82       4.2     3.7  7.2  0.1037E+01  0.4733E+01  0.3236E+01E
 Epicentro: LOS SANTOS - SANTANDER                                             3
 ACTION:UPD 16-11-09 19:18 OP:rebc STATUS:               ID:20161012075032 L   I
 OLDACT:DUP 16-10-12 18:44 OP:lv   STATUS:               ID:20161012074745d    3
 2016-10-12-0748-00M.COL___366                                                 6
 STAT SP IPHASW D HRMM SECON CODA AMPLIT PERI AZIMU VELO AIN AR TRES W  DIS CAZ7
 BRR  HZ EP        750 53.41                             152   -0.0010 70.9 299 
 BRR  HN ES        751  9.83                             152    0.1810 70.9 299 
 PAM  EZ EP        750 54.57                             150   -0.0110 78.6  40 
 PAM  EE ES        751 11.53                             150   -0.1910 78.6  40 
 PAM  EZ I         751 13.10         2.7 0.18            153           78.6  40 
 RUS  HZ EP        750 56.53                             143    0.5210 99.8 176 
 RUS  HE ES        751 14.19                             143   -0.0710 99.8 176 
 RUS  HZ I         751 16.96         1.4 0.27            144           99.8 176 
 PTB  HZ EP        750 58.65                             131   -0.59 9  147 259 
 PTB  HE ES        751 19.78                             131   -0.23 9  147 259 
 PTB  HZ I         751 22.21         2.4 0.21            133            147 259 
 ZAR  HE ES        751 30.32                             122    0.39 9  204 292 
                                                                                
