 2017  912 0707 16.9 L   6.789 -73.132140.2  RSN  5 0.4 1.4LRSN                1
 GAP=238        0.63       4.4     4.7  5.8  0.7720E+01  0.6506E+01  0.3432E+01E
 Epicentro: LOS SANTOS - SANTANDER                                             3
 ACTION:UPD 17-10-05 19:11 OP:rebc STATUS:               ID:20170912070716 L   I
 OLDACT:UP  17-09-12 15:14 OP:and  STATUS:               ID:20170912065745     3
 OLDACT:REG 17-09-12 13:00 OP:mg   STATUS:               ID:20170912065745     3
 2017-09-12-0658-00M.COL___439                                                 6
 STAT SP IPHASW D HRMM SECON CODA AMPLIT PERI AZIMU VELO AIN AR TRES W  DIS CAZ7
 BAR2 EZ EP        7 7 35.78                             170   -0.0810 22.5 194 
 BAR2 EZ ES        7 7 50.49                             170   -0.1410 22.5 194 
 BAR2 EZ I         7 7 53.54         5.7 0.30            164           22.5 194 
 BRR  HZ EP   2    7 7 37.40                             151   -0.17 5 73.1 299 
 BRR  HN ES   2    7 7 54.62                             151    0.94 5 73.1 299 
 RUS  HZ EP        7 7 40.02                             143   -0.0110 99.3 177 
 RUS  HN ES   2    7 7 58.36                             143    0.31 5 99.3 177 
 RUS  HZ I         7 7 59.65         4.8 0.34            143           99.3 177 
 SPBC HZ EP        7 7 45.01                             128    0.02 9  163 220 
 SPBC HN ES        7 8  6.90                             128    0.01 9  163 220 
 SPBC HZ I         7 8 13.60         3.6 0.22            127            163 220 
 ZAR  HZ EP   3    7 7 51.25                             121    2.06 2  206 292 
 ZAR  HN ES        7 8 14.15                             121   -0.22 8  206 292 
 ZAR  HZ I         7 8 19.44         1.9 0.28            121            206 292 
                                                                                
