 2014  612 0715 45.2 L   6.832 -73.168141.9  RSN 12 0.4 2.2LRSN                1
 GAP=132        0.88       2.8     3.8  5.7 -0.3138E+01  0.9824E+01 -0.4591E+00E
 Epicentro: LOS SANTOS - SANTANDER                                             3
 ACTION:UPD 14-07-01 22:53 OP:nd   STATUS:               ID:20140612071545 L   I
 OLDACT:REG 14-06-12 13:07 OP:mh   STATUS:               ID:20140612070814     3
 2014-06-12-0708-14M.COL___250                                                 6
 STAT SP IPHASW D HRMM SECON CODA AMPLIT PERI AZIMU VELO AIN AR TRES W  DIS CAZ7
 BAR2 SZ EP        716  4.77                             169    0.3410 26.6 183 
 BAR2 SZ ES   1    716 19.64                             169    0.20 7 26.6 183 
 BAR2 SZ I         716 20.85        45.8 0.29            169           26.6 183 
 PAM  SZ EP        716  7.06                             150    0.1210 76.3  43 
 PAM  SN ES        716 24.14                             150    0.2510 76.3  43 
 RUS  HZ EP        716  8.86                             142    0.0110  104 175 
 RUS  HN ES   1    716 26.69                             142   -0.61 7  104 175 
 PTB  HZ EP        716 11.16                             131   -0.54 9  146 257 
 PTB  HN ES   1    716 31.87                             131   -0.49 7  146 257 
 PTB  HZ I         716 34.72        13.1 0.26            130            146 257 
 OCA  HZ EP        716 13.11                             129    0.26 9  156 354 
 OCA  HN ES        716 34.23                             129   -0.18 9  156 354 
 OCA  HZ I         716 37.75       106.0 0.14            129            156 354 
 SPBC HZ EP        716 13.19                             128   -0.33 9  164 218 
 SPBC HN ES   1    716 35.94                             128    0.33 7  164 218 
 ZAR  HZ EP   1    716 17.25                             122    0.23 6  200 291 
 ZAR  HN ES   1    716 42.82                             122    0.99 6  200 291 
 NOR  HZ EP        716 20.43                             118   -0.29 8  235 233 
 NOR  HN ES        716 47.97                             118   -0.45 8  235 233 
 SML  HZ EP        716 20.51                             117   -0.63 8  239 335 
 SML  HN ES   1    716 48.78                             117   -0.40 6  239 335 
 SML  HZ I         716 57.90        11.9 0.11            117            239 335 
 HEL  HZ EP        716 25.53                             114    0.48 8  271 255 
 HEL  HN ES   1    716 56.12                             114   -0.01 6  271 255 
 HEL  HZ I         717  5.60         4.2 0.16            114            271 255 
 CBOC HZ EP        716 31.83                             109    0.02 7  332 251 
 CBOC HN ES   1    717  8.58                             109    0.41 5  332 251 
 CBOC HZ I         717 20.40         5.0 0.87            110            332 251 
 PRA  HZ EP        716 39.64                             106    0.83 6  394 209 
 PRA  HN ES   1    717 21.34                             106    0.71 4  394 209 
                                                                                
