 2011  512 0847 36.0 L   7.431 -73.222134.3  RSN  9 0.3 1.5LRSN                1
 GAP=117        0.62       4.2     5.7  5.4 -0.9225E+01  0.8417E+00  0.5796E+00E
 Epicentro: EL PLAYON - SANTANDER                                              3
 ACTION:UP  11-06-29 08:52 OP:tino STATUS:               ID:20110512084736 L   I
 2011-05-12-0844-27S.COL___129                                                 6
 STAT SP IPHASW D HRMM SECON CODA AMPLIT PERI AZIMU VELO SNR AR TRES W  DIS CAZ7
 GIR2 SZ EP   1    847 54.74                             163     0.2 7   39 175 
 GIR2 SZ ES   1    848  8.85                             163    -0.2 7   39 175 
 BRI  SZ EP   1    847 55.75                             156     0.4 7   57  56 
 BRI  SZ I         847 56.25        11.3 0.15                            57  56 
 BTL  SZ EP   1    847 55.27                             156    -0.2 7   57 185 
 PAM  SZ EP   1    847 56.00                             155     0.1 7   59 100 
 PAM  SN ES   1    848 11.68                             155     0.2 7   59 100 
 BRR  HZ EP   1    847 55.71                             153     0.2 7   65 237 
 BRR  HE ES   1    848 10.98                             153     0.2 7   65 237 
 BRR  HZ I         848 12.27         6.2 0.14                            65 237 
 GRA  SZ EP   1    847 56.08                             152     0.1 7   68  43 
 GRA  SZ ES   1    848 11.24                             152    -0.3 7   68  43 
 GRA  SZ I         848 12.38         9.0 0.30                            68  43 
 OCA  SZ ES   2    848 13.74                             144    -0.3 5   90 353 
 OCA  SZ I         848 19.23         4.4 0.51                            90 353 
 BAR2 SZ ES   1    848 14.74                             143     0.1 7   93 177 
 BAR2 SZ I         848 14.80        11.0 0.54                            93 177 
 RUS  HZ EP   1    848  4.38                             125    -0.6 7  171 175 
 RUS  HZ I         848 13.63         1.1 0.40                           171 175 
                                                                                
