 2011  512 0234 34.4 L   6.796 -73.084143.0  RSN 11 0.3 1.8LRSN                1
 GAP=145        0.56       3.4     5.5  5.1 -0.7274E+01  0.4375E+00  0.2194E+01E
 Epicentro: LOS SANTOS - SANTANDER                                             3
 ACTION:UP  11-06-29 08:52 OP:tino STATUS:               ID:20110512023434 L   I
 2011-05-12-0231-03S.COL___129                                                 6
 STAT SP IPHASW D HRMM SECON CODA AMPLIT PERI AZIMU VELO SNR AR TRES W  DIS CAZ7
 BTL  SZ EP   1    234 53.68                             170    -0.1 7   24 304 
 BTL  SZ ES   1    235  8.94                             170     0.1 7   24 304 
 BAR2 SZ EP   1    234 53.69                             169    -0.1 7   25 206 
 BAR2 SZ I         235  9.91        18.9 0.24                            25 206 
 PAM  SZ EP   1    234 56.54                             152     0.4 7   74  35 
 PAM  SN ES   2    235 12.99                             152    -0.1 5   74  35 
 BRR  HZ EP   1    234 55.48                             150    -0.2 7   77 296 
 BRR  HN ES   2    235 12.58                             150     0.4 5   77 296 
 BRR  HZ I         235 16.54        21.0 0.16                            77 296 
 RUS  HZ EP   1    234 57.78                             143    -0.1 7  100 180 
 RUS  HN ES   2    235 15.94                             143    -0.2 5  100 180 
 RUS  HZ I         235 17.56         6.5 0.43                           100 180 
 BRI  SZ EP   1    234 58.18                             141     0.2 7  107  17 
 BRI  SZ ES   2    235 15.67                             141    -0.6 5  107  17 
 BRI  SZ I         235 21.65         6.7 0.36                           107  17 
 GRA  SZ EP   1    234 59.37                             137     0.1 7  124  14 
 GRA  SZ I         235  0.76         6.7 0.26                           124  14 
 GRA  SZ ES   2    235 19.09                             137     0.4 5  124  14 
 OCA  SZ EP   2    235  2.12                             129    -0.6 5  162 351 
 OCA  SZ ES   2    235 24.18                             129    -0.5 5  162 351 
 OCA  SZ I         235 28.62        12.0 0.24                           162 351 
 HEL  HZ EP   2    235 15.80                             113     0.5 4  279 256 
 HEL  HZ I         235 52.81         3.2 0.35                           279 256 
 GUY  SE ES   2    235 53.45                             111     0.0 4  309 236 
 GUY  SZ I         236  0.84         3.0 0.89                           309 236 
 PRA  HZ EP   2    235 28.10                             106    -0.1 3  395 210 
                                                                                
