 2017  212 0626 15.9 L   6.819 -73.126148.0  RSN  5 0.3 1.3LRSN                1
 GAP=138        0.54       2.9     2.6  5.9  0.1534E+00  0.3444E+01 -0.1453E+00E
 Epicentro: LOS SANTOS - SANTANDER                                             3
 ACTION:UPD 17-05-24 15:35 OP:jn   STATUS:               ID:20170212062615 L   I
 OLDACT:UP  17-02-12 18:46 OP:and  STATUS:               ID:20170212061741     3
 OLDACT:UP  17-02-12 18:45 OP:and  STATUS:               ID:20170212061741     3
 OLDACT:UP  17-02-12 18:45 OP:and  STATUS:               ID:20170212061741     3
 OLDACT:UP  17-02-12 18:44 OP:and  STATUS:               ID:20170212061741     3
 OLDACT:UP  17-02-12 18:44 OP:and  STATUS:               ID:20170212061741     3
 OLDACT:UP  17-02-12 18:44 OP:and  STATUS:               ID:20170212061741     3
 OLDACT:REG 17-02-12 12:56 OP:and  STATUS:               ID:20170212061741     3
 2017-02-12-0618-00M.COL___337                                                 6
 STAT SP IPHASW D HRMM SECON CODA AMPLIT PERI AZIMU VELO AIN AR TRES W  DIS CAZ7
 BRR  HZ EP        626 37.39                             152    0.1010 72.2 296 
 BRR  HN ES   2    626 54.78                             152    0.76 5 72.2 296 
 BRR  HZ I         626 57.70         3.8 0.24            152           72.2 296 
 PAM  EZ IP     C  626 38.26                             152    0.1310 74.3  39 
 PAM  EN ES        626 55.29                             152   -0.2110 74.3  39 
 PAM  EZ I         626 57.28         3.6 0.52            155           74.3  39 
 RUS  HZ EP        626 40.09                             143    0.1310  103 177 
 RUS  HN ES        626 58.65                             143   -0.1210  103 177 
 RUS  HZ I         627  0.19         3.0 0.36            148            103 177 
 PTB  HZ EP   3    626 42.36                             132   -0.87 2  150 258 
 PTB  HN ES        627  4.55                             132   -0.04 9  150 258 
 PTB  HZ I         627  6.02         2.3 0.14            134            150 258 
 ZAR  HN ES        627 13.91                             122   -0.18 8  205 291 
 ZAR  HZ I         627 19.34         2.3 0.29            124            205 291 
                                                                                
