 2014  612 0436 43.4 L   6.804 -73.118146.3  RSN 14 0.4 2.1LRSN                1
 GAP=140        0.90       2.7     3.9  5.7 -0.2312E+01  0.8214E+01  0.2866E+00E
 Epicentro: LOS SANTOS - SANTANDER                                             3
 OLDACT:DUP 14-06-12 18:20 OP:mh   STATUS:               ID:20140612042816d    3
 ACTION:UPD 14-07-01 22:53 OP:nd   STATUS:               ID:20140612043643 L   I
 OLDACT:UP  14-06-12 18:26 OP:mh   STATUS:               ID:20140612042816d    3
 2014-06-12-0428-15M.COL___247                                                 6
 STAT SP IPHASW D HRMM SECON CODA AMPLIT PERI AZIMU VELO AIN AR TRES W  DIS CAZ7
 BAR2 SZ EP   1    437  3.32                             170    0.16 7 24.5 197 
 BAR2 SZ ES   1    437 18.20                             170   -0.34 7 24.5 197 
 BAR2 SZ I         437 19.70        32.5 0.14            167           24.5 197 
 PAM  SZ EP        437  6.05                             152    0.4710 75.1  38 
 PAM  SN ES        437 23.28                             152    0.4310 75.1  38 
 PAM  SZ I         437 25.21        28.2 0.54            155           75.1  38 
 RUS  HZ EP   1    437  7.47                             144    0.20 7  101 178 
 RUS  HN ES   1    437 25.55                             144   -0.30 7  101 178 
 RUS  SZ I         437 26.80         8.7 0.28            145            101 178 
 PTB  HZ EP   1    437 10.05                             131   -0.68 7  151 259 
 PTB  HN ES   1    437 31.24                             131   -0.78 7  151 259 
 PTB  SZ I         437 35.63        12.1 0.14            129            151 259 
 OCA  HZ EP        437 11.37                             130   -0.41 9  160 352 
 OCA  HN ES   1    437 33.56                             130   -0.33 7  160 352 
 OCA  SZ I         437 39.27        13.9 0.52            130            160 352 
 SPBC HZ EP        437 12.35                             129    0.15 9  165 220 
 SPBC HN ES        437 34.67                             129    0.04 9  165 220 
 SPBC SZ I         437 37.63         9.8 0.22            128            165 220 
 ZAR  HZ EP        437 16.29                             122    0.10 8  207 292 
 ZAR  HN ES        437 42.23                             122    0.49 8  207 292 
 ZAR  SZ I         437 48.15        18.7 0.38            121            207 292 
 NOR  HZ EP        437 19.13                             118   -0.37 8  237 235 
 NOR  HN ES   1    437 47.75                             118    0.13 6  237 235 
 NOR  SZ I         437 53.56         8.1 0.20            118            237 235 
 SML  HZ EP   1    437 19.25                             117   -0.94 6  245 335 
 SML  HN ES   1    437 48.75                             117   -0.10 6  245 335 
 SML  SZ I         437 55.71        21.6 0.08            117            245 335 
 CHI  HZ EP        437 20.86                             117   -0.45 8  250 196 
 CHI  HN ES        437 50.66                             117   -0.18 8  250 196 
 CHI  SZ I         438  4.29         4.8 1.40            117            250 196 
 ROSC BZ EP   4    437 19.39                             117   -2.42 0  255 212 
 ROSC BN ES   4    437 54.24                             117    2.51 0  255 212 
 ROSC SZ I         438  1.77         8.5 0.35            117            255 212 
 HEL  HZ EP        437 24.59                             115    0.57 8  275 256 
 HEL  HN ES   1    437 55.87                             115    0.20 6  275 256 
 HEL  SZ I         438  1.49         4.4 0.36            114            275 256 
 TOL  SZ EP        437 32.72                             109    0.72 6  346 225 
 TOL  SN ES   1    438 10.46                             109    0.58 5  346 225 
 TOL  SZ I         438 15.75        13.8 0.98            109            346 225 
 SJC  HZ EP   4    437 37.56                             106   -1.61 0  410 327 
 SJC  HN ES   4    438 18.43                             106   -4.21 0  410 327 
 SJC  SZ I         438 35.45        10.1 3.94            106            410 327 
                                                                                
