 2012  812 0626 21.1 L   6.710 -73.234150.0  RSN  4 0.2 1.7LRSN                1
 GAP=207        0.50       4.7     5.1  5.8  0.1172E+02 -0.3343E+01  0.1191E+01E
 Epicentro: VILLANUEVA - SANTANDER                                             3
 ACTION:UPD 12-09-10 11:56 OP:ep   STATUS:               ID:20120812062621 L   I
 2012-08-12-0620-00M.COL___218                                                 6
 STAT SP IPHASW D HRMM SECON CODA AMPLIT PERI AZIMU VELO AIN AR TRES W  DIS CAZ7
 BAR2 SZ EP   1    626 40.72                             174   -0.38 7 14.2 156 
 BAR2 SZ I         626 41.33         5.9 0.18                          14.2 156 
 BRR  HZ EP        626 42.51                             154   -0.0710 68.7 310 
 BRR  HZ I         626 42.85         5.5 0.18                          68.7 310 
 BRR  HN ES        626 59.46                             154    0.1310 68.7 310 
 RUS  HZ EP   1    626 44.94                             147    0.26 7 91.9 170 
 RUS  HE ES   1    627  3.07                             147    0.00 7 91.9 170 
 PTB  HZ EP   1    626 47.66                             135    0.23 7  136 262 
 PTB  HE ES   1    627  7.76                             135   -0.21 7  136 262 
 PTB  HZ I         627 26.64        15.7 0.92                           136 262 
                                                                                
