 2014  712 0941 57.6 L   6.834 -73.158133.4  RSN  8 0.5 1.8LRSN                1
 GAP=182        1.14       3.9     5.3  7.5 -0.2037E+00  0.1552E+02 -0.9017E+00E
 Epicentro: LOS SANTOS - SANTANDER                                             3
 ACTION:UPD 15-03-16 20:43 OP:nd   STATUS:               ID:20140712094157 L   I
 OLDACT:UP  14-07-28 10:52 OP:CAM  STATUS:               ID:20140712094157 L   3
 OLDACT:REG 14-07-12 12:35 OP:stll STATUS:               ID:20140712093815     3
 2014-07-12-0938-15M.COL___250                                                 6
 STAT SP IPHASW D HRMM SECON CODA AMPLIT PERI AZIMU VELO AIN AR TRES W  DIS CAZ7
 BAR2 SZ EP        942 16.37                             168    0.5110 26.9 186 
 BAR2 SZ ES        942 30.74                             168    0.6610 26.9 186 
 BAR2 SZ I         942 32.39        16.7 0.18            166           26.9 186 
 RUS  HZ EP        942 20.41                             140   -0.0810  104 175 
 RUS  HN ES        942 37.86                             140   -0.4610  104 175 
 RUS  HZ I         942 39.59         5.2 0.26            141            104 175 
 PTB  HZ EP        942 23.60                             129    0.04 9  147 257 
 PTB  HN ES        942 43.22                             129   -0.57 9  147 257 
 PTB  HZ I         942 46.34         6.8 0.16            128            147 257 
 OCA  HZ EP        942 24.26                             127   -0.36 9  156 353 
 OCA  HN ES        942 45.23                             127   -0.45 9  156 353 
 ZAR  HZ EP        942 29.82                             120    0.81 9  201 291 
 ZAR  HN ES        942 53.09                             120   -0.40 9  201 291 
 ZAR  HZ I         943  0.54         6.3 0.20            120            201 291 
 HEL  HZ EP        942 37.50                             112    0.31 8  272 255 
 HEL  HE ES   1    943  8.96                             112    0.90 6  272 255 
 HEL  HZ I         943 15.51         3.7 0.38            113            272 255 
 GUY2CHZ EP        942 41.34                             110    0.52 7  302 234 
 GUY2CHN ES        943 14.27                             110   -0.23 7  302 234 
 GUY2CHZ I         943 23.81         2.5 0.44                           302 234 
 PRA  HZ EP        942 50.42                             104   -0.64 6  395 209 
 PRA  HN ES        943 32.14                             104   -0.60 6  395 209 
 PRA  HZ I         943 39.26         2.5 0.28            105            395 209 
                                                                                
