 2012 1212 0513 43.6 L   6.106 -73.788 98.5  RSN  4 0.4 1.2LRSN                1
 GAP=196        0.75       7.8     4.8  9.8  0.2269E+02  0.1458E+02  0.2170E+01E
 Epicentro: EL PEON - SANTANDER                                                3
 ACTION:UPD 13-01-04 14:27 OP:ep   STATUS:               ID:20121212051343 L   I
 2012-12-12-0510-00M.COL___242                                                 6
 STAT SP IPHASW D HRMM SECON CODA AMPLIT PERI AZIMU VELO AIN AR TRES W  DIS CAZ7
 RUS  HZ EP   1    514  1.38                             138   -0.04 7 81.5 107 
 RUS  HN ES   1    514 15.78                             138    0.47 7 81.5 107 
 RUS  HZ I         514 16.55         1.3 0.25                          81.5 107 
 BAR2 SZ EP   1    514  1.46                             136    0.02 7 85.9  51 
 BAR2 SZ ES   1    514 14.95                             136   -0.39 7 85.9  51 
 BAR2 SZ I         514 16.57        11.2 0.18                          85.9  51 
 PTB  HZ EP   1    514  0.70                             135   -0.62 7 88.1 303 
 PTB  HN ES   1    514 15.11                             135   -0.03 7 88.1 303 
 PTB  HZ I         514 19.66         1.9 0.15                          88.1 303 
 ZAR  HZ EP   1    514 12.47                             113    0.17 6  194 322 
 ZAR  HN ES   1    514 35.27                             113    0.60 6  194 322 
 ZAR  HZ I         514 37.37         3.5 0.46                           194 322 
                                                                                
