 2012  412 0132 47.8 L   6.741 -73.119152.2  RSN  4 0.3 1.8LRSN                1
 GAP=168        0.60       8.8     5.1  5.7 -0.2684E+02  0.2354E+01  0.3387E+01E
 Epicentro: JORDAN - SANTANDER                                                 3
 ACTION:UPD 12-07-05 11:52 OP:tino STATUS:               ID:20120412013247 L   I
 2012-04-12-0130-00M.COL___181                                                 6
 STAT SP IPHASW D HRMM SECON CODA AMPLIT PERI AZIMU VELO AIN AR TRES W  DIS CAZ7
 BAR2 SZ EP   2    133  7.72                             173    -0.4 5   18 203 
 BAR2 SZ ES   1    133 24.26                             173     0.3 7   18 203 
 BAR2 SZ I         133 24.64         8.6 0.35                            18 203 
 BRR  HZ EP        133 10.15                             152     0.110   77 302 
 BRR  HZ I         133 10.51        15.6 0.19                            77 302 
 BRR  HE ES   1    133 27.49                             152     0.2 7   77 302 
 PAM  SZ EP        133 11.06                             151     0.110   81  35 
 PAM  SE ES   1    133 28.57                             151    -0.4 7   81  35 
 PTB  HZ EP        133 15.46                             133     0.0 9  150 261 
 PTB  HE ES   1    133 36.73                             133    -0.3 7  150 261 
                                                                                
