 2014  212 0911 59.3 L   6.821 -73.158148.0  RSN 10 0.4 1.6LRSN                1
 GAP=182        0.85       2.3     4.2  5.2  0.6346E+00  0.5039E+01  0.7054E-01E
 Epicentro: LOS SANTOS - SANTANDER                                             3
 ACTION:UPD 14-03-10 08:09 OP:ep   STATUS:               ID:20140212091159 L   I
 OLDACT:REG 14-02-12 08:22 OP:carl STATUS:               ID:20140212091000     3
 2014-02-12-0910-00M.COL___199                                                 6
 STAT SP IPHASW D HRMM SECON CODA AMPLIT PERI AZIMU VELO AIN AR TRES W  DIS CAZ7
 BAR2 SZ EP        912 19.06                             170   -0.1510 25.4 186 
 BAR2 SZ ES        912 35.45                             170    0.6810 25.4 186 
 BAR2 SZ I         912 37.34        10.6 0.36            168           25.4 186 
 RUS  HZ EP        912 23.57                             144    0.1510  103 175 
 RUS  HN ES        912 42.09                             144   -0.1610  103 175 
 RUS  HZ I         912 43.80         2.1 0.34            146            103 175 
 PTB  HZ EP        912 25.79                             133   -0.55 9  147 258 
 PTB  HN ES        912 47.15                             133   -0.31 9  147 258 
 PTB  HZ I         912 53.07         6.6 0.26            132            147 258 
 OCA  HZ I         912 47.96         2.5 0.10            133            158 354 
 OCA  HN ES        912 49.21                             131   -0.35 9  158 354 
 SPBC HZ EP        912 28.15                             130    0.12 9  164 218 
 SPBC HN ES        912 50.46                             130   -0.00 9  164 218 
 SPBC HZ I         912 57.30         7.3 0.38            130            164 218 
 ZAR  HZ EP        912 31.59                             123   -0.05 9  202 292 
 ZAR  HE ES        912 57.45                             123    0.56 9  202 292 
 ZAR  HZ I         913  3.52         4.6 0.52            123            202 292 
 NOR  HZ EP        912 35.47                             119    0.31 8  235 234 
 NOR  HE ES        913  3.23                             119    0.08 8  235 234 
 SML  HZ EP        912 35.93                             118    0.20 8  241 335 
 SML  HN ES        913  3.97                             118   -0.20 8  241 335 
 SML  HZ I         913 14.29         3.1 0.10            120            241 335 
 CHI  HZ EP        912 37.18                             118   -0.12 8  251 195 
 CHI  HN ES        913  6.32                             118   -0.64 8  251 195 
 CHI  HZ I         913 10.50         1.3 0.34            119            251 195 
 PRA  HZ EP        912 53.82                             107    0.79 6  393 209 
 PRA  HN ES        913 34.94                             107   -0.01 6  393 209 
 PRA  HZ I         913 37.24         1.4 0.32            108            393 209 
                                                                                
