 2011 1012 0007 45.6 L   7.128 -73.203128.7  RSN  4 0.1 1.7LRSN                1
 GAP=160        0.30       2.3     2.6  3.3 -0.1888E+00  0.3160E+00  0.4344E+00E
 Epicentro: LEBRIJA - SANTANDER                                                3
 ACTION:UPD 12-07-13 16:03 OP:ep   STATUS:               ID:20111012000745 L   I
 2011-10-12-0000-00M.COL___171                                                 6
 STAT SP IPHASW D HRMM SECON CODA AMPLIT PERI AZIMU VELO AIN AR TRES W  DIS CAZ7
 BRR  HZ EP        0 8  3.98                             155   -0.1110 56.2 268 
 BRR  HZ I         0 8  4.13        19.1 0.13                          56.2 268 
 BRR  HN ES   1    0 8 18.59                             155    0.09 7 56.2 268 
 BAR2 SZ EP        0 8  4.65                             154    0.0510 59.3 178 
 BAR2 SZ ES   1    0 8 19.37                             154   -0.04 7 59.3 178 
 BAR2 SZ I         0 8 21.09        25.6 0.15                          59.3 178 
 PAM  SZ EP   1    0 8  5.13                             154    0.11 7 60.3  67 
 PAM  SE ES   1    0 8 20.08                             154   -0.07 7 60.3  67 
 RUS  HZ EP   2    0 8 10.84                             130   -0.05 5  137 174 
 RUS  HE ES   1    0 8 30.63                             130    0.02 7  137 174 
 RUS  HZ I         0 8 32.03         2.5 0.23                           137 174 
                                                                                
