 2016  712 0510 45.2 L   6.799 -73.138146.7  RSN  8 0.4 1.7LRSN                1
 GAP=238        0.92       4.3     4.7  5.8  0.6416E+01  0.7349E+01  0.3534E+01E
 Epicentro: LOS SANTOS - SANTANDER                                             3
 ACTION:UPD 17-03-29 16:49 OP:lp   STATUS:               ID:20160712050760 L   I
 OLDACT:UPD 16-07-12 17:14 OP:dnl  STATUS:               ID:20160712050760 L   3
 2016-07-12-0507-59S.COL___325                                                 6
 STAT SP IPHASW D HRMM SECON CODA AMPLIT PERI AZIMU VELO AIN AR TRES W  DIS CAZ7
 BAR2 EZ EP        511  4.81                             171   -0.1210 23.4 192 
 BAR2 EZ ES        511 20.01                             171   -0.3210 23.4 192 
 BAR2 EZ I         511 21.34        14.4 0.26            165           23.4 192 
 BRR  HZ EP        511  6.62                             152    0.1410 71.9 298 
 BRR  HN ES        511 23.70                             152    0.6210 71.9 298 
 BRR  HZ I         511 24.95         7.1 0.12            149           71.9 298 
 RUS  HZ EP        511  8.82                             144   -0.2010  100 177 
 RUS  HN ES        511 27.80                             144    0.1910  100 177 
 RUS  HZ I         511 28.41         3.4 0.22            143            100 177 
 PTB  HZ EP        511 11.52                             132   -0.78 9  149 259 
 PTB  HE ES        511 32.97                             132   -0.48 9  149 259 
 PTB  HZ I         511 39.25         4.3 0.13            129            149 259 
 SPBC HZ EP        511 14.04                             129    0.24 9  164 219 
 SPBC HN ES        511 36.31                             129    0.20 9  164 219 
 SPBC HZ I         511 40.60         9.7 0.20            127            164 219 
 ZAR  HZ EP        511 18.19                             122    0.42 9  205 292 
 ZAR  HE ES        511 42.90                             122   -0.29 9  205 292 
 ZAR  HZ I         511 48.08         4.5 0.15            122            205 292 
 HEL  HZ EP   4    511 27.00                             115    1.47 0  273 256 
 HEL  HE ES        511 57.27                             115    0.27 8  273 256 
 HEL  HZ I         512  2.84         2.6 0.30            114            273 256 
 PRA  HZ EP        511 39.24                             107    0.46 6  392 210 
 PRA  HN ES        512 20.55                             107   -0.03 6  392 210 
 PRA  HZ I         512 27.17         3.4 0.33            107            392 210 
                                                                                
