 2017  412 0700  9.8 L   6.762 -73.217130.9  RSN  4 0.3 1.1LRSN                1
 GAP=224        0.77       5.6     5.5  6.7  0.1586E+02  0.2275E+01  0.2348E+01E
 Epicentro: ZAPATOCA - SANTANDER                                               3
 ACTION:UPD 17-05-30 21:11 OP:jn   STATUS:               ID:20170412070009 L   I
 OLDACT:UP  17-04-12 18:54 OP:edw  STATUS:               ID:20170412065743d    3
 OLDACT:DUP 17-04-12 18:52 OP:edw  STATUS:               ID:20170412065743d    3
 OLDACT:UP  17-04-12 18:51 OP:edw  STATUS:               ID:20170412065742     3
 OLDACT:UP  17-04-12 18:49 OP:edw  STATUS:               ID:20170412065742     3
 OLDACT:REG 17-04-12 13:21 OP:edw  STATUS:               ID:20170412065742     3
 2017-04-12-0658-00M.COL___368                                                 6
 STAT SP IPHASW D HRMM SECON CODA AMPLIT PERI AZIMU VELO AIN AR TRES W  DIS CAZ7
 BAR2 EZ EP        7 0 27.46                             171   -0.1110 19.1 169 
 BAR2 EZ ES        7 0 41.88                             171    0.4610 19.1 169 
 BRR  HZ EP        7 0 29.41                             151    0.3010 66.8 305 
 BRR  HN ES        7 0 43.67                             151   -0.4810 66.8 305 
 RUS  HZ EP        7 0 31.79                             141   -0.0910 97.2 171 
 RUS  HN ES        7 0 48.86                             141   -0.2210 97.2 171 
 RUS  HZ I         7 0 50.45         2.2 0.26            141           97.2 171 
 PTB  HZ EP   2    7 0 34.79                             130   -0.02 5  139 260 
 PTB  HN ES        7 0 54.47                             130    0.17 9  139 260 
                                                                                
