 2011  312 0751 37.3 L   6.799 -73.179131.2  RSN  9 0.3 2.8LRSN                1
 GAP=133        0.52       2.1     3.8  6.9 -0.1677E+01  0.1031E+02  0.3698E+01E
 Epicentro: LOS SANTOS - SANTANDER                                             3
 ACTION:UP  11-06-16 14:33 OP:jfem STATUS:               ID:20110312075137 L   I
 2011-03-12-0749-32S.COL___135                                                 6
 STAT SP IPHASW D HRMM SECON CODA AMPLIT PERI AZIMU VELO SNR AR TRES W  DIS CAZ7
 RUS  HZ EP   1    751 59.71                             141     0.1 7  101 174 
 RUS  HZ I         752  1.03        72.1 0.16                           101 174 
 RUS  HN ES   2    752 16.77                             141    -0.3 5  101 174 
 GRA  SZ EP   1    752  1.70                             133     0.3 7  127  19 
 GRA  SZ ES   1    752 20.12                             133    -0.1 7  127  19 
 GRA  SZ I         752 22.44        99.1 0.35                           127  19 
 OCA  SZ EP   1    752  4.15                             126    -0.3 7  160 354 
 OCA  SZ ES   1    752 25.83                             126     0.1 7  160 354 
 YOP  SZ EP   1    752  6.39                             123    -0.1 7  181 152 
 NOR  SZ EP   1    752 11.90                             116     0.0 6  232 234 
 NOR  SN ES   1    752 39.35                             116     0.5 6  232 234 
 NOR  SZ I         752 45.28        16.3 0.33                           232 234 
 CHI  HZ EP   1    752 14.03                             114    -0.1 6  248 194 
 CHI  HN ES   1    752 42.76                             114    -0.1 6  248 194 
 HEL  HZ EP   1    752 16.69                             112     0.3 6  269 256 
 HEL  HZ I         752 57.04        41.0 0.32                           269 256 
 DBB  SZ EP   1    752 23.60                             107    -0.2 5  336 274 
 DBB  SZ ES   2    752 59.19                             107    -0.9 3  336 274 
 DBB  SZ I         753  2.17         8.9 0.30                           336 274 
 PRA  HZ EP   1    752 29.86                             104    -0.3 4  390 209 
 PRA  HN ES   2    753 11.77                             104     0.5 3  390 209 
 PRA  HZ I         753 17.09       174.4 0.23                           390 209 
                                                                                
