 2010  312 0000 39.5 L   6.820 -73.013144.7  RSN  4 0.4 1.6LRSN                1
 GAP=252        0.61       7.4    12.8  8.7  0.4349E+02  0.1787E+01  0.9734E+01E
 Epicentro: CEPITA - SANTANDER                                                 3
 ACTION:UP  10-08-24 09:53 OP:vdl  STATUS:               ID:20100312000039 L   I
 2010-03-12-0000-14S.COL___094                                                 6
 STAT SP IPHASW D HRMM SECON CODA AMPLIT PERI AZIMU VELO SNR AR TRES W  DIS CAZ7
 BAR2 SZ EP   1    0 0 59.38                             167     0.2 7   31 217 
 BAR2 SZ ES   2    0 1 13.87                             167    -0.6 5   31 217 
 BRR  HZ EP   1    0 1  1.10                             148    -0.1 7   84 292 
 BRR  HE ES   2    0 1 18.39                             148     0.2 5   84 292 
 BRR  HZ I         0 1 18.90         6.0 0.47                            84 292 
 RUS  BZ EP   1    0 1  3.40                             143     0.1 7  103 184 
 RUS  BZ I         0 1  4.17         2.4 0.10                           103 184 
 RUS  BN ES   2    0 1 21.95                             143     0.1 5  103 184 
 PRA  HZ EP   2    0 1 32.93                             106    -1.1 3  401 211 
 PRA  HN ES   2    0 2 16.97                             106     0.4 3  401 211 
 PRA  HZ I         0 2 19.80         2.5 0.67                           401 211 
                                                                                
