 2016  312 0505 12.4 L   7.049 -73.134  0.0  RSN  5 0.6 1.0LRSN                1
 GAP=132        1.40       4.4     4.0  9.1 -0.4869E+01  0.1049E+02 -0.6401E+01E
 Epicentro: GIRON - SANTANDER                                                  3
 ACTION:UPD 16-05-13 21:23 OP:cam  STATUS:               ID:20160312050512 L   I
 OLDACT:DUP 16-03-12 16:46 OP:ar   STATUS:               ID:20160312045752d    3
 OLDACT:REG 16-03-12 13:35 OP:ar   STATUS:               ID:20160312045751     3
 2016-03-12-0457-51M.COL___307                                                 6
 STAT SP IPHASW D HRMM SECON CODA AMPLIT PERI AZIMU VELO AIN AR TRES W  DIS CAZ7
 PAM  EZ I         5 5 30.84         7.2 0.20            107           57.7  56 
 PAM  EN ES        5 5 30.85                              47   -0.1110 57.7  56 
 RUS  HZ EP        5 5 32.72                              47   -0.7510  128 177 
 RUS  HN ES        5 5 50.70                              47    0.8010  128 177 
 RUS  HZ I         5 5 52.08         1.8 0.32             97            128 177 
 PTB  HZ EP   4    5 5 34.95                              47   -2.38 0  157 249 
 PTB  HN ES        5 5 56.35                              47   -0.41 9  157 249 
 SPBC HZ EP   9    5 5 36.83                              37   -4.87 0  186 214 
 SPBC HN ES        5 5 58.91                                   -0.77 9  186 214 
 SPBC HZ I         5 6  1.47         1.9 0.22             56            186 214 
 ZAR  HZ EP   2    5 5 42.21                              37   -0.71 4  197 285 
 ZAR  HN ES   2    5 6  6.50                              37   -0.22 4  197 285 
 ZAR  HE ES        5 6  7.51                              37    0.79 9  197 285 
                                                                                
