 2010  212 0114 27.9 L   6.828 -73.199150.1  RSN  7 0.5 2.2LRSN                1
 GAP=175        1.04       4.2    11.6  9.2  0.2262E+01  0.6398E+02  0.6820E+01E
 Epicentro: ZAPATOCA - SANTANDER                                               3
 ACTION:UP  10-08-24 09:48 OP:vdl  STATUS:               ID:20100212011427 L   I
 2010-02-12-0059-51S.COL___086                                                 6
 STAT SP IPHASW D HRMM SECON CODA AMPLIT PERI AZIMU VELO SNR AR TRES W  DIS CAZ7
 BAR2 SZ IP        114 47.98                             170    -0.110   26 176 
 BAR2 SZ ES   1    115  2.91                             170    -1.0 7   26 176 
 GIR2 SZ EP        114 48.12                             169     0.110   28   1 
 GIR2 SZ ES   1    115  4.17                             169     0.5 7   28   1 
 OCA  SZ EP        114 56.07                             131    -0.1 9  157 355 
 OCA  SZ ES        115 18.76                             131     0.5 9  157 355 
 CHI  HZ EP        115  6.03                             118     0.0 8  250 194 
 CHI  HE ES   1    115 35.87                             118     0.1 6  250 194 
 CHI  HZ I         115 41.24         5.1 0.48                           250 194 
 DBB  SZ EP        115 14.42                             111    -0.4 7  333 274 
 MON  HZ EP   1    115 15.33                             110    -1.0 5  346 309 
 MON  HN ES   1    115 54.05                             110     0.0 5  346 309 
 MON  HZ I         116 10.35         5.7 0.53                           346 309 
 PRA  HZ EP   1    115 22.43                             107     0.9 4  392 209 
 PRA  HN ES   1    116  4.45                             107     1.0 4  392 209 
 PRA  HZ I         116 12.45         6.5 0.43                           392 209 
                                                                                
