 2017  912 0054 52.4 L   6.808 -73.176141.1  RSN  4 0.3 1.3LRSN                1
 GAP=235        0.61       5.2     8.2  5.6  0.1293E+02  0.1297E+02  0.3293E+01E
 Epicentro: LOS SANTOS - SANTANDER                                             3
 ACTION:UPD 17-10-05 19:11 OP:rebc STATUS:               ID:20170912005452 L   I
 OLDACT:DUP 17-09-12 14:07 OP:mg   STATUS:               ID:20170912004739d    3
 OLDACT:UP  17-09-12 14:06 OP:mg   STATUS:               ID:20170912004738     3
 OLDACT:UP  17-09-12 14:06 OP:mg   STATUS:               ID:20170912004738     3
 OLDACT:REG 17-09-12 11:53 OP:mg   STATUS:               ID:20170912004738     3
 2017-09-12-0048-00M.COL___437                                                 6
 STAT SP IPHASW D HRMM SECON CODA AMPLIT PERI AZIMU VELO AIN AR TRES W  DIS CAZ7
 BAR2 EZ EP        055 11.43                             170   -0.0210 23.8 182 
 BAR2 EZ ES        055 26.12                             170   -0.2010 23.8 182 
 BAR2 EZ I         055 28.37         3.6 0.19            158           23.8 182 
 BRR  HZ EP        055 13.03                             153    0.2110 67.9 299 
 BRR  HN ES   2    055 28.77                             153   -0.01 5 67.9 299 
 BRR  HZ I         055 32.83         6.5 0.36            144           67.9 299 
 RUS  HZ EP        055 15.43                             142   -0.3110  102 174 
 RUS  HN ES   1    055 34.54                             142    0.56 7  102 174 
 RUS  HZ I         055 35.13         2.8 0.36            140            102 174 
 SPBC HZ EP        055 20.45                             128    0.07 9  162 218 
 SPBC HN ES   2    055 41.99                             128   -0.23 5  162 218 
 SPBC HZ I         055 49.27         2.7 0.20            124            162 218 
                                                                                
