 2014 1012 0608  8.4 L   6.993 -73.554110.5  RSN  6 0.4 1.3LRSN                1
 GAP=153        0.92       3.2     4.7  6.9  0.2177E+01  0.5581E+01 -0.4936E+01E
 Epicentro: SAN VICENTE DE CHUCURI - SANTANDER                                 3
 ACTION:UPD 14-11-29 23:49 OP:nd   STATUS:               ID:20141012060808 L   I
 OLDACT:DUP 14-10-12 17:40 OP:stll STATUS:               ID:20141012055746d    3
 2014-10-12-0557-44M.COL___290                                                 6
 STAT SP IPHASW D HRMM SECON CODA AMPLIT PERI AZIMU VELO AIN AR TRES W  DIS CAZ7
 BRR  HZ EP        6 8 23.76                             168    0.3710 21.6 306 
 BRR  HN ES        6 8 35.30                             168    0.2010 21.6 306 
 BRR  HZ I         6 8 37.11         4.3 0.32            166           21.6 306 
 BAR2 SZ EP        6 8 26.10                             149    0.6210 60.4 137 
 BAR2 SZ ES        6 8 38.59                             149   -0.2210 60.4 137 
 BAR2 SZ I         6 8 39.76        14.3 0.22            153           60.4 137 
 PTB  HZ EP        6 8 29.36                             131    0.1510  112 243 
 PTB  HN ES        6 8 45.19                             131   -0.2610  112 243 
 PTB  HZ I         6 8 50.55         3.2 0.34            131            112 243 
 RUS  HE ES        6 8 49.52                             126   -0.5610  132 157 
 RUS  HZ I         6 8 50.95         1.7 0.18            129            132 157 
 SPBC HN ES        6 8 54.10                             120    0.11 9  159 201 
 SML  HZ EP        6 8 39.03                             113   -0.21 8  208 344 
 SML  HN ES        6 9  2.88                             113   -0.42 8  208 344 
                                                                                
