 2010 1212 0412 24.8 L   6.747 -73.115145.5  RSN 11 0.3 2.0LRSN                1
 GAP=163        0.53       2.5     6.5  5.6 -0.7564E+01  0.1534E+02 -0.2311E+01E
 Epicentro: LOS SANTOS - SANTANDER                                             3
 ACTION:UP  11-01-14 15:24 OP:pat  STATUS:               ID:20101212041224 L   I
 2010-12-12-0411-34S.COL___137                                                 6
 STAT SP IPHASW D HRMM SECON CODA AMPLIT PERI AZIMU VELO SNR AR TRES W  DIS CAZ7
 BAR2 SZ EP   2    412 44.37                             172     0.0 5   19 204 
 BAR2 SZ ES   2    412 59.83                             172     0.3 5   19 204 
 BAR2 SZ I         413  1.27        35.8 0.32                            19 204 
 BTL  SZ EP        412 44.60                             170     0.110   25 318 
 RUS  HZ EP   1    412 47.88                             145    -0.3 7   95 178 
 RUS  HE ES   1    413  6.28                             145     0.0 7   95 178 
 RUS  HZ I         413  8.40        17.0 0.32                            95 178 
 GRA  SZ EP        412 50.50                             136     0.010  130  15 
 GRA  SZ ES   1    413 10.56                             136     0.1 7  130  15 
 GRA  SZ I         413 12.18        13.2 0.33                           130  15 
 OCA  SZ EP   1    412 53.34                             128    -0.4 7  167 352 
 OCA  SZ ES   1    413 16.07                             128    -0.2 7  167 352 
 OCA  SZ I         413 20.68         9.7 0.29                           167 352 
 NOR  SZ EP   2    413  0.88                             118     0.4 4  234 236 
 NOR  SN ES   2    413 27.71                             118    -0.6 4  234 236 
 CHI  HZ EP   2    413  1.81                             118    -0.2 4  244 196 
 CHI  HE ES   2    413 30.60                             118    -0.4 4  244 196 
 CHI  HZ I         413 34.71         4.8 0.30                           244 196 
 ROSC BZ EP   2    413  3.19                             117     0.6 4  250 212 
 ROSC BZ I         413 41.32         7.3 0.20                           250 212 
 HEL  HZ EP   2    413  5.85                             114     0.6 4  274 257 
 HEL  HZ I         413 43.72         7.5 0.69                           274 257 
 RREF HZ EP   2    413 11.25                             111     0.4 3  321 231 
 PRA  HZ EP   2    413 18.12                             107     0.2 3  389 210 
                                                                                
