 2010  812 0708 35.8 L   6.771 -73.093151.4  RSN  5 0.1 1.3LRSN                1
 GAP=192        0.35       5.5     6.2  7.0 -0.2306E+02 -0.2675E+02  0.2172E+02E
 Epicentro: LOS SANTOS - SANTANDER                                             3
 ACTION:UP  10-09-07 10:54 OP:vdl  STATUS:               ID:20100812070835 L   I
 2010-08-12-0706-35S.COL___127                                                 6
 STAT SP IPHASW D HRMM SECON CODA AMPLIT PERI AZIMU VELO SNR AR TRES W  DIS CAZ7
 BAR2 SZ EP   1    7 8 56.07                             171     0.0 7   22 207 
 BAR2 SZ I         7 9 10.79         4.5 0.58                            22 207 
 GIR2 SZ EP   2    7 8 56.48                             166     0.2 5   36 342 
 BRR  HZ EP        7 8 57.93                             151     0.010   78 299 
 BRR  HZ I         7 8 58.21        10.3 0.16                            78 299 
 BRR  HE ES   1    7 9 15.27                             151     0.0 7   78 299 
 GUE  SZ EP   2    7 9  1.03                             140    -0.2 5  119   9 
 GUE  SZ I         7 9 22.79         0.8 0.18                           119   9 
 GRA  SZ EP   1    7 9  1.84                             138     0.1 7  127  15 
 GRA  SZ ES   1    7 9 21.84                             138     0.0 7  127  15 
 GRA  SZ I         7 9 22.51         2.9 0.35                           127  15 
                                                                                
