 2011 1012 0316 28.6 L   6.763 -73.129140.3  RSN  5 0.1 1.5LRSN                1
 GAP=140        0.33       2.1     2.9  3.8 -0.8305E+00  0.9633E+00  0.1097E+01E
 Epicentro: LOS SANTOS - SANTANDER                                             3
 ACTION:UPD 12-07-13 16:03 OP:ep   STATUS:               ID:20111012031628 L   I
 2011-10-12-0300-00M.COL___171                                                 6
 STAT SP IPHASW D HRMM SECON CODA AMPLIT PERI AZIMU VELO AIN AR TRES W  DIS CAZ7
 BAR2 SZ EP   2    316 47.34                             172   -0.18 5 19.8 198 
 BAR2 SZ I         317  3.60        12.0 0.29                          19.8 198 
 GIR2 SZ EP   2    316 47.63                             165   -0.14 5 35.7 348 
 BRR  HZ EP        316 49.31                             150   -0.0810 74.9 301 
 BRR  HN ES   1    317  5.70                             150    0.10 7 74.9 301 
 BRR  HZ I         317  8.65         8.2 0.11                          74.9 301 
 PAM  SZ EP        316 50.43                             149    0.0510 79.5  37 
 PAM  SN ES        317  7.34                             149   -0.0210 79.5  37 
 PAM  SZ I         317  9.52         3.7 0.45                          79.5  37 
 RUS  HZ EP   1    316 51.70                             144    0.18 7 96.4 177 
 RUS  HN ES   1    317  9.32                             144   -0.07 7 96.4 177 
 RUS  HZ I         317 12.12         3.9 0.27                          96.4 177 
                                                                                
