 2010  712 0410 33.9 L   6.757 -73.159147.5  RSN  6 0.5 1.5LRSN                1
 GAP=158        1.17       7.6    17.5 13.1  0.3968E+02 -0.1019E+03 -0.3898E+02E
 Epicentro: LOS SANTOS - SANTANDER                                             3
 ACTION:UPD 10-12-01 15:17 OP:pat  STATUS:               ID:20100712041033 L   I
 2010-07-12-0407-04S.COL___120                                                 6
 STAT SP IPHASW D HRMM SECON CODA AMPLIT PERI AZIMU VELO AIN AR TRES W  DIS CAZ7
 BAR2 SZ EP   1    410 53.38                             173    -0.3 7   18 189 
 BAR2 SZ ES   1    411  8.46                             173    -0.6 7   18 189 
 BAR2 SZ I         411  9.88         8.6 0.24                            18 189 
 BRR  HZ IP     C  410 55.34                             152     0.010   72 302 
 BRR  HZ I         410 55.70        10.5 0.09                            72 302 
 BRR  HN ES   1    411 12.01                             152     0.0 7   72 302 
 RUS  HZ EP   1    410 57.95                             145     0.5 7   96 175 
 RUS  HE ES   2    411 16.36                             145     0.5 5   96 175 
 RUS  HZ I         411 18.05         2.5 0.31                            96 175 
 GUE  SZ IP        410 59.51                             138     0.310  121  12 
 GUE  SZ I         411  1.13         2.7 0.07                           121  12 
 GRA  SZ EP   2    410 59.28                             136    -0.4 5  131  17 
 GRA  SZ I         411  0.46         6.2 0.27                           131  17 
 OCA  SZ EP   1    411  1.80                             129    -1.0 7  165 354 
 OCA  SZ ES   1    411 25.94                             129     0.6 7  165 354 
 OCA  SZ I         411 29.57         5.1 0.18                           165 354 
                                                                                
