 2012  112 0029 23.5 L   6.832 -73.330128.4  RSN  7 0.3 1.9LRSN                1
 GAP=119        0.68       4.5     5.0  6.7  0.3877E+01  0.4816E+01  0.3680E+01E
 Epicentro: ZAPATOCA - SANTANDER                                               3
 ACTION:UP  12-02-03 08:16 OP:REBC STATUS:               ID:20120112002923 L   I
 2012-01-12-0028-59S.COL___187                                                 6
 STAT SP IPHASW D HRMM SECON CODA AMPLIT PERI AZIMU VELO SNR AR TRES W  DIS CAZ7
 BAR2 SZ EP   1    029 41.54                             165     0.3 7   31 148 
 GIR2 SZ EP        029 41.15                             165     0.010   31  29 
 GIR2 SZ ES   2    029 54.30                             165    -0.5 5   31  29 
 BAR2 SZ ES   2    029 54.99                             165    -0.1 5   31 148 
 BAR2 SZ I         029 55.88        41.3 0.20                            31 148 
 BRR  HZ EP        029 41.99                             157     0.310   52 306 
 BRR  HE ES   1    029 56.04                             157     0.1 7   52 306 
 BRR  HZ I         029 56.71        23.5 0.16                            52 306 
 RUS  HZ EP   1    029 46.49                             138     0.4 7  107 165 
 RUS  HN ES   2    030  3.61                             138    -0.2 5  107 165 
 PTB  HZ IP     D  029 46.76                             132    -0.610  129 256 
 PTB  HE ES   2    030  6.12                             132     0.2 5  129 256 
 OCA  SZ EP   2    029 49.93                             126    -0.1 5  156   0 
 OCA  SZ ES   2    030 10.47                             126    -0.3 5  156   0 
 ZAR  HE ES   2    030 15.87                             121     0.3 4  184 294 
 ZAR  HZ I         030 20.13         4.6 0.18                           184 294 
                                                                                
