 2016  212 0204 28.2 L   6.727 -73.167158.3  RSN  4 0.1 1.1LRSN                1
 GAP=272        0.42       3.8     2.8  3.6  0.7552E+00  0.1935E+01 -0.1700E+01E
 Epicentro: VILLANUEVA - SANTANDER                                             3
 ACTION:UPD 16-03-04 21:25 OP:rebc STATUS:               ID:20160212020428 L   I
 OLDACT:REG 16-02-12 15:20 OP:ak   STATUS:               ID:20160212015750     3
 2016-02-12-0157-50M.COL___285                                                 6
 STAT SP IPHASW D HRMM SECON CODA AMPLIT PERI AZIMU VELO AIN AR TRES W  DIS CAZ7
 BAR2 EZ EP        2 4 49.19                             174   -0.0210 15.0 186 
 BAR2 EZ ES        2 5  5.64                             174    0.0410 15.0 186 
 RUS  HZ EP        2 4 52.93                             148    0.2510 92.8 174 
 RUS  HN ES        2 5 11.60                             148   -0.1810 92.8 174 
 RUS  HZ I         2 5 12.52         1.2 0.28            148           92.8 174 
 PTB  HZ EP        2 4 55.73                             135   -0.16 9  144 262 
 PTB  HN ES        2 5 17.55                             135    0.05 9  144 262 
 PTB  HZ I         2 5 22.08         1.6 0.35            134            144 262 
 SPBC HZ EP        2 4 56.90                             133   -0.09 9  155 220 
 SPBC HN ES        2 5 19.55                             133    0.10 9  155 220 
 SPBC HZ I         2 5 23.27         2.0 0.14            132            155 220 
                                                                                
