 2013  212 0348  6.1 L   6.801 -73.140152.2  RSN  9 0.5 1.6LRSN                1
 GAP=137        1.06       4.0     5.9  8.3  0.2658E+01  0.6400E+01 -0.3453E+01E
 Epicentro: LOS SANTOS - SANTANDER                                             3
 ACTION:UPD 13-03-12 09:32 OP:ep   STATUS:               ID:20130212034806 L   I
 2013-02-12-0340-00M.COL___240                                                 6
 STAT SP IPHASW D HRMM SECON CODA AMPLIT PERI AZIMU VELO AIN AR TRES W  DIS CAZ7
 BAR2 SZ EP        348 26.52                             171    0.0310 23.5 191 
 BAR2 SZ ES   1    348 42.25                             171   -0.16 7 23.5 191 
 BAR2 SZ I         348 46.25         7.6 0.26            169           23.5 191 
 BRR  HZ IP     D  348 28.46                             153    0.5010 71.7 298 
 BRR  HN ES   1    348 45.89                             153    0.87 7 71.7 298 
 BRR  HZ I         348 48.77         8.0 0.16            151           71.7 298 
 PAM  SZ EP        348 29.52                             152    0.5610 76.9  39 
 PAM  SN ES   1    348 46.66                             152   -0.15 7 76.9  39 
 PAM  SZ I         348 48.74         8.4 0.56            155           76.9  39 
 RUS  HZ EP        348 30.43                             145   -0.0510  101 176 
 RUS  HN ES   1    348 48.95                             145   -0.56 7  101 176 
 RUS  HZ I         348 50.17         2.6 0.44            146            101 176 
 PTB  HZ EP   1    348 33.10                             133   -0.54 7  148 259 
 PTB  HN ES   1    348 54.51                             133   -0.62 7  148 259 
 PTB  HZ I         348 56.59         6.2 0.14            132            148 259 
 OCA  HN ES   1    348 56.69                             131   -0.69 7  160 353 
 OCA  HZ I         349  0.64         4.9 0.14            132            160 353 
 ZAR  HN ES   1    349  5.41                             124    0.72 6  205 292 
 ZAR  HZ I         349 11.55         6.3 0.24            123            205 292 
 SML  HZ EP        348 43.03                             119   -0.07 8  244 335 
 SML  HN ES        349 11.27                             119   -0.69 8  244 335 
 SML  HZ I         349 19.77         6.7 0.28            119            244 335 
 CHI  HN ES   1    349 14.00                             118    0.11 6  249 195 
 CHI  HZ I         349 23.52         1.7 0.36            119            249 195 
                                                                                
