 2016  112 0029  7.7 L   6.824 -73.146152.0  RSN 12 0.4 1.7LRSN                1
 GAP=135        0.90       2.8     3.9  5.5 -0.2948E+00  0.4735E+01  0.1851E+01E
 Epicentro: LOS SANTOS - SANTANDER                                             3
 ACTION:UPD 16-03-09 23:24 OP:cam  STATUS:               ID:20160112002907 L   I
 OLDACT:UP  16-01-12 14:55 OP:mher STATUS:               ID:20160112002753     3
 OLDACT:REG 16-01-12 12:42 OP:mh   STATUS:               ID:20160112002753     3
 2016-01-12-0027-53M.COL___268                                                 6
 STAT SP IPHASW D HRMM SECON CODA AMPLIT PERI AZIMU VELO AIN AR TRES W  DIS CAZ7
 BAR2 EZ EP        029 28.10                             170   -0.0410 25.9 189 
 BAR2 EZ I         029 44.36         9.4 0.25            168           25.9 189 
 BRR  HZ EP     C  029 29.82                             154    0.3510 70.0 297 
 BRR  HN ES        029 47.06                             154    0.6210 70.0 297 
 BRR  HZ I         029 49.46         8.8 0.22            147           70.0 297 
 PAM  EZ EP        029 30.52                             153    0.0410 75.4  41 
 PAM  EN ES        029 48.30                             153    0.0710 75.4  41 
 PAM  EZ I         029 50.39         4.3 0.50            149           75.4  41 
 RUS  HZ EP        029 32.17                             145   -0.0910  103 176 
 RUS  HN ES        029 51.10                             145   -0.3110  103 176 
 RUS  HZ I         029 51.50         5.0 0.24            140            103 176 
 PTB  HZ EP        029 34.68                             133   -0.55 9  148 258 
 PTB  HN ES   1    029 55.66                             133   -1.04 7  148 258 
 PTB  HZ I         029 57.52         5.1 0.14            127            148 258 
 SPBC HZ EP        029 36.86                             130   -0.02 9  165 218 
 SPBC HN ES        029 59.78                             130    0.15 9  165 218 
 SPBC HZ I         030  6.00         8.9 0.34            124            165 218 
 ZAR  HN ES        030  6.12                             124    0.11 9  203 291 
 ZAR  HZ I         030 11.69         3.9 0.08            118            203 291 
 NOR  HZ EP        029 43.70                             120   -0.26 8  236 234 
 NOR  HN ES   1    030 12.69                             120    0.45 6  236 234 
 NOR  HZ I         030 16.62         4.0 0.26            114            236 234 
 SML  HZ EP        029 44.38                             119   -0.05 8  241 335 
 SML  HN ES        030 12.61                             119   -0.47 8  241 335 
 SML  HZ I         030 16.06         7.8 0.24            113            241 335 
 CHI  HZ EP        029 45.97                             118   -0.06 8  251 195 
 CHI  HN ES        030 16.23                             118    0.31 8  251 195 
 CHI  HZ I         030 17.69         3.3 0.38            113            251 195 
 HEL  HZ EP   1    029 49.35                             116    1.04 6  273 255 
 HEL  HZ I         030 27.42         3.5 0.34            111            273 255 
 GUY2CHZ EP   1    029 51.79                             114    0.01 5  303 234 
 GUY2CHN ES   4    030 30.07                             114    3.92 0  303 234 
 GUY2CHZ I         030 35.65         1.9 0.22                           303 234 
                                                                                
