 2013  612 0557 19.8 L   6.773 -73.173144.2  RSN  7 0.3 1.8LRSN                1
 GAP=178        0.63       5.1     5.6  6.1  0.9707E+01 -0.1746E+01 -0.9349E+01E
 Epicentro: LOS SANTOS - SANTANDER                                             3
 ACTION:UPD 14-01-08 09:54 OP:ep   STATUS:               ID:20130612055719 L   I
 OLDACT:UP  13-06-12 12:02 OP:mh   STATUS:               ID:20130612054960d    3
 OLDACT:DUP 13-06-12 11:55 OP:mh   STATUS:               ID:20130612054960d    3
 OLDACT:UP  13-06-12 11:54 OP:mh   STATUS:               ID:20130612054959     3
 OLDACT:UP  13-06-12 11:53 OP:mh   STATUS:               ID:20130612054959     3
 OLDACT:REG 13-06-12 07:51 OP:mh   STATUS:               ID:20130612054959     3
 2013-06-12-0549-59M.COL___260                                                 6
 STAT SP IPHASW D HRMM SECON CODA AMPLIT PERI AZIMU VELO AIN AR TRES W  DIS CAZ7
 BAR2 SZ EP   1    557 39.17                             172   -0.02 7 20.0 183 
 BAR2 SZ ES   1    557 53.91                             172   -0.40 7 20.0 183 
 BAR2 SZ I         557 54.87         7.8 0.34            164           20.0 183 
 GIR2 SZ EP   1    557 39.12                             166   -0.25 7 33.9 356 
 GIR2 SZ I         557 57.46         3.7 0.22            146           33.9 356 
 BRR  HZ EP   1    557 40.91                             153    0.18 7 70.1 302 
 BRR  HN ES   1    557 57.44                             153    0.40 7 70.1 302 
 BRR  HN I         557 58.29        32.7 0.32            136           70.1 302 
 RUS  HZ EP   1    557 43.71                             144    0.50 7 97.9 174 
 RUS  HN ES   1    558  1.49                             144    0.02 7 97.9 174 
 RUS  HN I         558  3.42         9.6 0.36            155           97.9 174 
 PTB  HZ EP   1    557 45.83                             132   -0.50 7  144 260 
 PTB  HN ES   1    558  7.04                             132    0.02 7  144 260 
 PTB  HN I         558 29.71         9.3 0.70            124            144 260 
 OCA  HN ES   4    558 25.30                             129   14.87 0  163 354 
 OCA  HN I         558 31.16        17.0 0.26            118            163 354 
 SML  HZ EP   1    557 56.50                             117   -0.01 6  245 336 
 SML  HN ES   4    558 22.77                             117   -2.36 0  245 336 
 SML  HN I         558 44.13         8.9 0.10            110            245 336 
 GUY2CHN ES   4    558 38.44                             112    1.97 0  297 235 
                                                                                
