 2012 1212 0805 27.8 L   6.758 -73.147142.1  RSN  8 0.4 1.5LRSN                1
 GAP=138        0.87       4.5     5.0  7.1  0.5718E+00  0.9454E+01  0.2719E-01E
 Epicentro: LOS SANTOS - SANTANDER                                             3
 ACTION:UPD 13-01-04 14:27 OP:ep   STATUS:               ID:20121212080527 L   I
 2012-12-12-0800-00M.COL___242                                                 6
 STAT SP IPHASW D HRMM SECON CODA AMPLIT PERI AZIMU VELO AIN AR TRES W  DIS CAZ7
 BAR2 SZ EP   1    8 5 47.12                             172    0.19 7 18.8 192 
 BAR2 SZ ES   1    8 6  1.47                             172   -0.36 7 18.8 192 
 BAR2 SZ I         8 6  2.87        19.7 0.22                          18.8 192 
 GIR2 SZ EP   1    8 5 47.17                             165   -0.03 7 35.8 352 
 GIR2 SZ ES   1    8 6  2.62                             165    0.32 7 35.8 352 
 GIR2 SZ I         8 6  4.19         5.5 0.38                          35.8 352 
 BRR  HZ EP   1    8 5 49.00                             151    0.30 7 73.3 302 
 BRR  HN ES   1    8 6  5.78                             151    0.79 7 73.3 302 
 BRR  HZ I         8 6  9.83         5.1 0.10                          73.3 302 
 PAM  SZ EP   1    8 5 50.06                             149    0.18 7 81.1  38 
 PAM  SN ES   1    8 6  6.94                             149   -0.14 7 81.1  38 
 PAM  SZ I         8 6  9.28         6.1 0.66                          81.1  38 
 RUS  HZ EP   1    8 5 51.33                             144    0.44 7 96.0 176 
 RUS  HN ES   1    8 6  8.58                             144   -0.29 7 96.0 176 
 RUS  HZ I         8 6 10.93         3.1 0.50                          96.0 176 
 PTB  HZ EP   1    8 5 53.79                             131   -0.61 7  147 261 
 PTB  HN ES   1    8 6 14.55                             131   -0.58 7  147 261 
 PTB  HZ I         8 6 17.51         4.0 0.14                           147 261 
 OCA  HE ES   1    8 6 17.61                             128   -0.88 7  165 353 
 ZAR  HZ EP   1    8 6  0.35                             121    0.15 6  206 293 
 ZAR  HN ES   1    8 6 25.81                             121    0.36 6  206 293 
 ZAR  HZ I         8 6 28.37         3.0 0.15                           206 293 
                                                                                
