 2013 1212 0027 26.6 L   6.802 -73.203140.9  RSN  8 0.4 1.8LRSN                1
 GAP=129        1.07       4.1     5.6  7.8 -0.7005E+01  0.1036E+02  0.1148E+01E
 Epicentro: ZAPATOCA - SANTANDER                                               3
 ACTION:UPD 14-01-13 10:17 OP:ep   STATUS:               ID:20131212002726 L   I
 OLDACT:REG 13-12-12 06:43 OP:jn   STATUS:               ID:20131212002000     3
 2013-12-12-0020-00M.COL___285                                                 6
 STAT SP IPHASW D HRMM SECON CODA AMPLIT PERI AZIMU VELO AIN AR TRES W  DIS CAZ7
 BAR2 SZ EP        027 45.84                             170    0.1710 23.3 174 
 BAR2 SZ ES        028  0.37                             170   -0.1610 23.3 174 
 BAR2 SZ I         028  1.40        34.2 0.28            169           23.3 174 
 BRR  HZ EP        027 47.72                             153    0.7810 65.6 301 
 BRR  HN ES   4    028  4.70                             153    1.92 0 65.6 301 
 BRR  HZ I         028  8.60        12.5 0.12            151           65.6 301 
 PAM  SZ EP        027 48.86                             148    0.2810 81.4  43 
 PAM  SN ES        028  5.68                             148   -0.0210 81.4  43 
 PAM  SZ I         028  6.64         8.5 0.18            154           81.4  43 
 RUS  HZ EP        027 50.01                             142    0.0410  101 173 
 RUS  HE ES        028  7.85                             142   -0.3210  101 173 
 RUS  HZ I         028  9.04         8.0 0.22            144            101 173 
 PTB  HZ EP        027 52.15                             132   -0.49 9  142 258 
 PTB  HN ES        028 12.68                             132   -0.26 9  142 258 
 PTB  HZ I         028 18.79         7.4 0.24            131            142 258 
 SPBC HN ES        028 16.84                             128    0.77 9  159 217 
 SPBC HZ I         028 18.71         9.3 0.16            129            159 217 
 OCA  HN ES   1    028 15.52                             128   -0.69 7  159 355 
 OCA  HZ I         028 17.75        10.8 0.14            130            159 355 
 CHI  HZ EP        028  3.46                             116   -0.45 8  247 194 
 CHI  HN ES   1    028 32.57                             116   -0.43 6  247 194 
 CHI  HZ I         028 41.48         1.5 0.48            118            247 194 
 SJC  HZ EP   4    028 20.83                             105   -0.78 0  406 328 
                                                                                
