 2016 1112 0139 18.7 L   6.684 -73.102143.8  RSN  6 0.2 1.4LRSN                1
 GAP=156        0.50       5.1     2.9  4.2 -0.5062E+01 -0.4201E+01  0.1073E+02E
 Epicentro: JORDAN - SANTANDER                                                 3
 ACTION:UPD 17-10-26 21:07 OP:lp   STATUS:               ID:20161112013918 L   I
 OLDACT:UP  16-11-12 14:21 OP:and  STATUS:               ID:20161112013744     3
 OLDACT:UP  16-11-12 14:20 OP:and  STATUS:               ID:20161112013744     3
 OLDACT:UP  16-11-12 14:19 OP:and  STATUS:               ID:20161112013744     3
 OLDACT:REG 16-11-12 12:29 OP:and  STATUS:               ID:20161112013744     3
 2016-11-12-0138-00M.COL___340                                                 6
 STAT SP IPHASW D HRMM SECON CODA AMPLIT PERI AZIMU VELO AIN AR TRES W  DIS CAZ7
 BAR2 EZ EP        139 37.68                             174   -0.2510 13.4 221 
 BAR2 EZ ES        139 52.87                             174   -0.0610 13.4 221 
 BAR2 EZ I         139 55.45         5.4 0.28            172           13.4 221 
 BRR  HZ EP   2    139 39.84                             149   -0.45 5 82.1 305 
 BRR  HN ES        139 57.28                             149    0.1510 82.1 305 
 TAM  HZ EP        139 45.76                             132    0.24 9  148 101 
 PTB  HZ EP   9    139 44.66                             131   -1.11 0  151 264 
 PTB  HN ES        140  5.91                                    0.14 9  151 264 
 PTB  HZ I         140  7.95         3.4 0.17            132            151 264 
 ZAR  HN ES   4    140 16.24                             121   -1.76 0  214 295 
 ZAR  HZ I         140 18.58         2.9 0.21            122            214 295 
 NOR  HZ EP        139 54.11                             118    0.14 8  232 238 
 NOR  HN ES        140 21.47                             118   -0.02 8  232 238 
 NOR  HZ I         140 24.00         1.8 0.12            119            232 238 
                                                                                
