 2010 1012 0122 22.3 L   6.741 -73.103143.8  RSN  7 0.6 1.7LRSN                1
 GAP=182        1.23       8.3    13.3 11.2 -0.5996E+02 -0.2528E+02  0.9470E+01E
 Epicentro: JORDAN - SANTANDER                                                 3
 ACTION:UP  11-02-18 11:09 OP:tino STATUS:               ID:20101012012222 L   I
 2010-10-12-0121-03S.COL___121                                                 6
 STAT SP IPHASW D HRMM SECON CODA AMPLIT PERI AZIMU VELO SNR AR TRES W  DIS CAZ7
 BAR2 SZ EP   2    122 42.17                             172     0.6 5   19 208 
 BAR2 SZ ES   1    122 56.24                             172    -0.4 7   19 208 
 BAR2 SZ I         122 58.41        26.7 0.31                            19 208 
 BRR  HZ EP        122 43.69                             150     0.110   79 301 
 BRR  HE ES   1    123  0.61                             150     0.3 7   79 301 
 BRR  HZ I         123  5.41        20.6 0.05                            79 301 
 GUE  SZ EP        122 46.43                             137    -0.810  122   9 
 GUE  SZ I         122 55.42         2.0 0.18                           122   9 
 GRA  SZ EP        122 48.48                             135     0.710  131  15 
 GRA  SZ ES   2    123  8.36                             135     0.7 5  131  15 
 GRA  SZ I         123 10.80         7.2 0.30                           131  15 
 OCA  SZ EP   2    122 50.84                             128    -0.2 5  167 352 
 OCA  SZ ES   2    123 12.56                             128    -1.0 5  167 352 
 OCA  SZ I         123 17.33        10.4 0.40                           167 352 
 NOR  SZ EP   1    122 57.72                             118    -0.2 6  235 237 
 NOR  SN ES   2    123 26.01                             118     0.3 4  235 237 
 NOR  SZ I         123 30.53         1.0 0.18                           235 237 
 CHI  HZ EP   2    122 59.72                             117     0.4 4  244 197 
 CHI  HE ES   2    123 27.74                             117    -0.5 4  244 197 
 CHI  HZ I         123 31.48         3.7 0.31                           244 197 
                                                                                
