 2014  612 0008 56.7 L   6.837 -73.146144.7  RSN 28 0.5 3.3LRSN                1
 GAP= 70        0.93       2.5     2.8  4.7 -0.1032E+01  0.3609E+01  0.2130E+01E
 Epicentro: LOS SANTOS - SANTANDER                                             3
 ACTION:UPD 14-07-01 22:53 OP:nd   STATUS:               ID:20140612000856 L   I
 OLDACT:UP  14-06-16 16:28 OP:mh   STATUS:               ID:20140612000856 L   3
 OLDACT:UP  14-06-16 08:56 OP:STLL STATUS:               ID:20140612000856 L   3
 OLDACT:UP  14-06-12 14:02 OP:mh   STATUS:               ID:20140612000820     3
 OLDACT:REG 14-06-12 12:17 OP:mh   STATUS:               ID:20140612000820     3
 2014-06-12-0008-20M.COL___257                                                 6
 STAT SP IPHASW D HRMM SECON CODA AMPLIT PERI AZIMU VELO AIN AR TRES W  DIS CAZ7
 BAR2 SZ IP     D  0 9 16.40                             169    0.1010 27.4 188 
 BAR2 SZ ES   1    0 9 31.80                             169    0.22 7 27.4 188 
 BAR2 SZ I         0 9 34.74       432.6 0.44            172           27.4 188 
 BRR  HZ IP     C  0 9 18.15                             153    0.5210 69.3 296 
 BRR  HN ES   1    0 9 34.25                             153    0.29 7 69.3 296 
 BRR  HZ I         0 9 39.30       272.1 0.10            150           69.3 296 
 PAM  SZ EP        0 9 18.98                             151    0.3510 74.3  42 
 PAM  SN ES   1    0 9 35.99                             151    0.27 7 74.3  42 
 PAM  SZ I         0 9 38.23       245.7 0.63            147           74.3  42 
 RUS  HZ EP     C  0 9 20.37                             142   -0.2810  105 176 
 RUS  HN ES   1    0 9 39.09                             142   -0.24 7  105 176 
 RUS  HZ I         0 9 41.22       173.2 0.26            143            105 176 
 PTB  HZ EP     C  0 9 22.86                             132   -0.80 9  149 257 
 PTB  HN ES   1    0 9 44.44                             132   -0.24 7  149 257 
 PTB  HZ I         0 9 47.73       274.3 0.07            130            149 257 
 OCA  HZ EP   1    0 9 24.27                             130   -0.28 7  156 353 
 OCA  HN ES   1    0 9 45.77                             130   -0.50 7  156 353 
 OCA  HZ I         0 9 50.21       127.5 0.63            126            156 353 
 TAM  HZ IP     D  0 9 24.64                             130    0.23 9  156 106 
 TAM  HZ I         0 9 45.39        78.6 0.36            128            156 106 
 TAM  HE ES   1    0 9 46.21                             130    0.20 7  156 106 
 SPBC HZ EP     C  0 9 25.32                             128   -0.11 9  166 218 
 SPBC HN ES   1    0 9 47.39                             128   -0.44 7  166 218 
 SPBC HZ I         0 9 50.61       248.9 0.18            128            166 218 
 ZAR  HZ EP   1    0 9 28.67                             122   -0.25 6  202 291 
 ZAR  HN ES   1    0 9 54.43                             122    0.38 6  202 291 
 ZAR  HZ I         010  0.10       330.9 0.61            120            202 291 
 CTAU SZ EP   4    0 9 31.30                             122    1.33 0  206 209 
 CTAB SZ EP   4    0 9 33.96                             119    1.19 0  233 210 
 CTAB SZ ES   4    010  2.56                             119    1.67 0  233 210 
 NOR  HZ EP        0 9 32.41                             118   -0.22 8  237 234 
 NOR  HN ES        010  0.25                             118   -0.40 8  237 234 
 NOR  HZ I         010  5.67       157.1 0.17            117            237 234 
 SML  HZ EP        0 9 32.57                             118   -0.30 8  240 335 
 SML  HN ES   1    010  0.58                             118   -0.49 6  240 335 
 SML  HZ I         010  4.23       176.6 0.07            115            240 335 
 CHI  HZ EP        0 9 34.68                             116   -0.10 8  253 195 
 CHI  HN ES        010  4.07                             116   -0.40 8  253 195 
 CHI  HZ I         010  7.97        59.7 0.62            116            253 195 
 ROSC BZ EP        0 9 36.15                             116    1.00 8  256 211 
 ROSC BN ES   4    010  7.40                             116    2.26 0  256 211 
 HEL  HZ EP        0 9 37.56                             114    0.58 8  273 255 
 HEL  HN ES   1    010  7.96                             114   -0.42 6  273 255 
 HEL  HZ I         010 17.31       107.1 0.38            113            273 255 
 URE  HZ EP   4    0 9 36.18                             113   -1.37 0  282 291 
 URE  HN ES   4    010  7.12                             113   -2.29 0  282 291 
 URE  HZ I         010 23.82       118.8 0.07            112            282 291 
 GUY2CHZ EP        0 9 41.23                             112    0.70 7  304 234 
 GUY2CHN ES        010 14.28                             112   -0.43 7  304 234 
 GUY2CHZ I         010 22.69        89.8 0.44                           304 234 
 VIL  SZ EP        0 9 39.97                             111   -0.56 7  307 191 
 VIL  SN ES   1    010 14.28                             111   -0.43 5  307 191 
 VIL  SZ I         010 20.22        94.1 0.31            110            307 191 
 PTGC HZ EP   4    0 9 39.36                             111   -1.59 0  313 159 
 PTGC HN ES   4    010 12.79                             111   -2.67 0  313 159 
 PTGC HZ I         010 14.82        44.6 0.42            110            313 159 
 RREF HZ EP        0 9 43.64                             110    0.53 7  324 229 
 RREF HN ES   1    010 18.38                             110   -0.91 5  324 229 
 RREF HZ I         010 26.17       325.1 0.05            109            324 229 
 CBOC HZ EP        0 9 44.46                             110    0.74 7  335 251 
 CBOC HE ES        010 21.00                             110    0.61 7  335 251 
 CBOC HZ I         010 25.69        25.9 0.24            108            335 251 
 DBB  SZ EP        0 9 43.98                             109   -0.12 7  339 274 
 DBB  SZ ES   4    010 17.20                             109   -3.87 0  339 274 
 DBB  SZ I         010 23.02       330.5 0.36            108            339 274 
 TOL  SZ EP        0 9 45.17                             109   -0.08 6  346 224 
 TOL  SN ES   1    010 23.99                             109    0.87 5  346 224 
 TOL  SZ I         010 28.45       138.4 0.12            108            346 224 
 ANIL HZ EP   4    0 9 47.25                             108    0.44 0  360 224 
 ANIL HN ES   4    010 28.31                             108    2.43 0  360 224 
 ANIL HZ I         010 30.88       229.6 0.26            107            360 224 
 PRA  HZ EP   1    0 9 49.27                             106   -1.34 4  396 209 
 PRA  HN ES   1    010 33.23                             106    0.58 4  396 209 
 PRA  HZ I         010 39.25        85.1 0.15            105            396 209 
 ORTC HZ EP        0 9 50.69                             106   -0.29 6  399 216 
 ORTC HN ES   1    010 34.21                             106    0.91 4  399 216 
 ORTC HZ I         010 40.15        51.6 0.04            105            399 216 
 SJC  HZ EP   4    0 9 49.91                             106   -1.92 0  406 327 
 SJC  HN ES   4    010 30.29                             106   -4.53 0  406 327 
 SJC  HZ I         010 36.47        21.1 0.32            104            406 327 
 PAL  HZ EP        0 9 52.27                             106    0.19 6  408 239 
 PAL  HN ES   1    010 35.61                             106    0.35 4  408 239 
 PAL  HZ I         010 39.20        96.9 0.16            104            408 239 
 SMAR HZ EP   1    010  1.11                             102   -0.97 3  493 346 
 SMAR HN ES   4    010 48.72                             102   -4.34 0  493 346 
 GARC HZ EP   4    010  9.66                             100   -2.71 0  576 207 
 GARC HN ES   4    011  7.58                             100   -3.81 0  576 207 
                                                                                
