 2017  412 0151 43.9 L   6.799 -73.162145.3  RSN 10 0.4 1.7LRSN                1
 GAP=110        1.05       3.7     4.4  6.0  0.2360E+01  0.2114E+01  0.7745E+01E
 Epicentro: LOS SANTOS - SANTANDER                                             3
 ACTION:UPD 17-05-30 21:11 OP:jn   STATUS:               ID:20170412015143 L   I
 OLDACT:UP  17-04-12 16:52 OP:edw  STATUS:               ID:20170412014741     3
 OLDACT:REG 17-04-12 12:56 OP:edw  STATUS:               ID:20170412014741     3
 2017-04-12-0148-00M.COL___368                                                 6
 STAT SP IPHASW D HRMM SECON CODA AMPLIT PERI AZIMU VELO AIN AR TRES W  DIS CAZ7
 BAR2 EZ EP        152  3.44                             171   -0.0310 22.9 186 
 BAR2 EZ ES        152 18.63                             171   -0.1110 22.9 186 
 BAR2 EZ I         152 19.82        18.9 0.60            169           22.9 186 
 BRR  HZ EP        152  5.32                             153    0.4010 69.7 299 
 BRR  HN ES        152 21.88                             153    0.5710 69.7 299 
 PAM  EZ EP     C  152  6.37                             150    0.2210 78.6  40 
 PAM  EN ES        152 22.96                             150   -0.5410 78.6  40 
 PAM  EZ I         152 26.62         3.8 0.52            153           78.6  40 
 RUS  HZ EP        152  7.61                             144   -0.0010  101 175 
 RUS  HN ES        152 25.98                             144   -0.1210  101 175 
 RUS  HZ I         152 27.31         9.0 0.36            144            101 175 
 SPBC HZ EP        152 12.35                             129    0.10 9  162 219 
 SPBC HN ES        152 33.58                             129   -0.78 9  162 219 
 SPBC HZ I         152 39.28         7.9 0.18            128            162 219 
 YPLC HZ IP     C  152 13.85                             126    0.11 9  178 151 
 YPLC HN ES        152 37.58                             126    0.57 9  178 151 
 YPLC HZ I         152 38.77         5.3 0.26            128            178 151 
 ZAR  HZ EP   4    152 18.07                             122    1.92 0  202 292 
 ZAR  HN ES        152 41.01                             122   -0.30 9  202 292 
 ZAR  HZ I         152 48.43         3.7 0.26            122            202 292 
 CHI  HZ EP        152 21.74                             117    0.23 8  248 195 
 CHI  HN ES        152 51.27                             117    0.42 8  248 195 
 CHI  HZ I         152 54.52         2.6 0.40            117            248 195 
 PTGC HZ IP     D  152 26.64                             111   -1.16 7  309 158 
 PTGC HN ES   4    152 59.72                             111   -2.32 0  309 158 
 PRA  HZ EP        152 37.38                             106    0.09 6  391 209 
 PRA  HN ES   4    153 17.51                             106   -1.42 0  391 209 
 PRA  HZ I         153 25.68         2.7 0.40            107            391 209 
 SJC  HZ EP   4    152 37.23                             106   -2.12 0  408 327 
 SJC  HN ES   4    153 18.62                             106   -3.97 0  408 327 
                                                                                
