 2017  612 0917 25.4 L   6.081 -73.765110.0  RSN 17 0.6 2.3LRSN                1
 GAP= 77        1.25       2.9     3.7  6.9  0.4037E-01 -0.3925E+01  0.2397E+00E
 Epicentro: EL PENON - SANTANDER                                               3
 ACTION:UPD 17-09-14 16:51 OP:jn   STATUS:               ID:20170612091725 L   I
 OLDACT:UP  17-06-12 15:38 OP:dani STATUS:               ID:20170612090739     3
 OLDACT:UP  17-06-12 15:37 OP:dani STATUS:               ID:20170612090739     3
 OLDACT:UP  17-06-12 15:35 OP:dani STATUS:               ID:20170612090739     3
 OLDACT:REG 17-06-12 13:09 OP:dani STATUS:               ID:20170612090739     3
 2017-06-12-0908-00M.COL___347                                                 6
 STAT SP IPHASW D HRMM SECON CODA AMPLIT PERI AZIMU VELO AIN AR TRES W  DIS CAZ7
 SPBC HZ EP     D  917 41.90                             150   -0.1810 58.4 216 
 SPBC HN ES        917 55.00                             150   -0.1110 58.4 216 
 SPBC HZ I         917 55.80        59.8 0.40            150           58.4 216 
 PTB  HZ EP        917 43.55                             137   -0.8610 91.8 304 
 PTB  HN ES        917 59.90                             137    0.6510 91.8 304 
 PTB  HZ I         918  4.02        18.9 0.10            136           91.8 304 
 BRR  HZ EP        917 46.38                             131    0.0710  114   3 
 BRR  HE ES        918  3.14                             131    0.4910  114   3 
 BRR  HZ I         918  6.96        34.9 0.10            128            114   3 
 TABC EZ EP        917 48.97                             127    0.6710  128 202 
 NOR  HZ EP        917 47.70                             125   -0.7610  135 245 
 NOR  HE ES        918  6.75                             125    0.2910  135 245 
 NOR  HZ I         918  9.47        48.2 0.44            124            135 245 
 ROSC BZ EP   9    917 52.02                             122    1.56 0  150 204 
 ROSC BE ES        918 11.94                             123    0.35 9  150 204 
 ROSC BZ I         918 16.23        23.9 0.35            121            150 204 
 CHI  HN EP        917 51.06                             120   -0.49 9  161 179 
 CHI  HE ES        918 11.28                             120   -0.69 9  161 179 
 CHI  HN I         918 15.08        33.2 0.36            118            161 179 
 HEL  HZ EP        917 55.72                             115    0.42 9  196 274 
 HEL  HE ES   3    918 20.29                             115    1.66 2  196 274 
 HEL  HZ I         918 23.21        14.5 0.24            113            196 274 
 ZAR  HZ EP        917 55.20                             114    0.17 9  197 322 
 ZAR  HE ES        918 17.38                             114   -0.78 9  197 322 
 ZAR  HZ I         918 22.16        42.2 0.48            112            197 322 
 VIL  EZ EP        917 58.27                             112    0.78 8  218 178 
 VIL  HE ES        918 22.87                             112    0.32 8  218 178 
 VIL  EZ I         918 24.98        21.4 0.44            110            218 178 
 TAM  HZ EP        917 57.78                             111   -0.06 8  222  80 
 TAM  HZ I         918 21.85        16.5 0.20            109            222  80 
 TAM  HE ES        918 23.28                             111    0.13 8  222  80 
 ELA  HZ EP   3    918  0.59                             111    1.68 2  226 233 
 ELA  HE ES        918 24.62                             111   -0.45 8  226 233 
 ELA  HZ I         918 33.71         9.3 0.32            110            226 233 
 CBOC HZ EP        918  2.00                             109    0.78 8  250 265 
 CBOC HE ES   4    918 26.73                             109   -2.45 0  250 265 
 URE  HZ EP        918  2.39                             107   -0.83 8  269 314 
 URE  HE ES   4    918 30.65                             107   -2.09 0  269 314 
 URE  HZ I         918 35.02        20.9 0.18            105            269 314 
 PTGC HZ EP   9    918  2.91                             106   -1.10 0  276 139 
 PTGC HE ES        918 32.55                             106   -0.49 7  276 139 
 PTGC HZ I         918 34.90         7.3 0.24            104            276 139 
 ORTC HZ EP        918  6.26                             105    0.41 7  291 214 
 ORTC HE ES   3    918 38.82                             105    1.40 2  291 214 
 ORTC HZ I         918 43.62         8.6 0.30            104            291 214 
 MACC HZ EP   3    918 21.45                              98   -1.65 1  435 181 
 MACC HN ES   4    919  3.88                              98   -4.24 0  435 181 
 MACC HZ I         919  8.46         4.5 0.30             96            435 181 
                                                                                
