 2013  212 0733 28.8 L   6.825 -73.152148.1  RSN  5 0.4 1.3LRSN                1
 GAP=134        0.80       5.8     5.5  7.8 -0.6219E+01  0.6215E+00  0.2182E+01E
 Epicentro: LOS SANTOS - SANTANDER                                             3
 ACTION:UPD 13-03-12 09:32 OP:ep   STATUS:               ID:20130212073328 L   I
 2013-02-12-0730-00M.COL___240                                                 6
 STAT SP IPHASW D HRMM SECON CODA AMPLIT PERI AZIMU VELO AIN AR TRES W  DIS CAZ7
 BAR2 SZ EP   1    733 48.56                             170   -0.19 7 26.0 187 
 BAR2 SZ ES   1    734  3.89                             170   -0.44 7 26.0 187 
 BAR2 SZ I         734  5.14         6.3 0.40            170           26.0 187 
 BRR  HN ES   1    734  7.29                             153    0.60 7 69.3 297 
 PAM  SZ EP        733 51.48                             152    0.3310 75.7  41 
 PAM  SN ES   1    734  8.15                             152   -0.45 7 75.7  41 
 PAM  SZ I         734 10.84         2.8 0.30            152           75.7  41 
 RUS  HZ EP   1    733 53.18                             143    0.21 7  103 176 
 RUS  HE ES   1    734 12.10                             143    0.26 7  103 176 
 RUS  HZ I         734 13.35         2.4 0.34            144            103 176 
 PTB  HZ EP   1    733 55.36                             132   -0.57 7  148 258 
 PTB  HE ES   1    734 17.02                             132   -0.08 7  148 258 
                                                                                
