 2013  112 0653  0.0 L   6.774 -73.155142.0  RSN  9 0.5 2.5LRSN                1
 GAP=182        1.08       3.3     5.0  6.3  0.3365E+01  0.4290E+01  0.2906E+01E
 Epicentro: LOS SANTOS - SANTANDER                                             3
 ACTION:UPD 13-02-15 09:13 OP:ep   STATUS:               ID:20130112065300 L   I
 2013-01-12-0650-00M.COL___241                                                 6
 STAT SP IPHASW D HRMM SECON CODA AMPLIT PERI AZIMU VELO AIN AR TRES W  DIS CAZ7
 BAR2 SZ EP        653 19.27                             171    0.1010 20.3 188 
 BAR2 SZ ES        653 34.15                             171    0.0710 20.3 188 
 BAR2 SZ I         653 35.55        79.4 0.26            167           20.3 188 
 BRR  HZ IP     D  653 21.19                             152    0.3710 71.7 301 
 BRR  HN ES        653 37.53                             152    0.5110 71.7 301 
 BRR  HN I         653 42.36       108.1 0.16            147           71.7 301 
 RUS  HZ EP        653 23.32                             144    0.0910 97.8 175 
 RUS  HN ES        653 40.96                             144   -0.3410 97.8 175 
 RUS  HN I         653 42.43        33.0 0.24            144           97.8 175 
 PTB  HZ EP        653 26.08                             131   -0.49 9  146 260 
 PTB  HN ES        653 46.85                             131   -0.40 9  146 260 
 PTB  HN I         653 52.33        35.4 0.36            129            146 260 
 OCA  HZ EP        653 27.60                             128   -0.73 9  163 354 
 OCA  HN ES        653 50.11                             128   -0.28 9  163 354 
 OCA  HN I         653 54.13       114.1 0.20            129            163 354 
 ZAR  HZ EP        653 33.14                             122    0.88 9  204 293 
 ZAR  HN ES        653 57.56                             122    0.17 9  204 293 
 ZAR  HN I         654  7.29        28.0 0.30            120            204 293 
 CHI  HZ EP        653 37.57                             117    0.37 8  246 195 
 CHI  HN ES        654  6.84                             117    0.65 8  246 195 
 CHI  HN I         654 12.78        15.2 0.32            117            246 195 
 HEL  HE ES        654 10.41                             114   -0.54 8  270 256 
 HEL  HE I         654 18.45        11.0 0.38            113            270 256 
 VIL  SZ EP        653 43.00                             112    0.05 7  300 191 
 VIL  SN ES        654 15.79                             112   -0.62 7  300 191 
 VIL  SN I         654 24.33        29.1 0.42            112            300 191 
                                                                                
