 2011 1212 0043 37.5 L   6.747 -73.125148.0  RSN  5 0.5 1.2LRSN                1
 GAP=142        0.94       8.9    13.2 12.2  0.5112E+02 -0.4659E+02 -0.2869E+02E
 Epicentro: LOS SANTOS - SANTANDER                                             3
 ACTION:UPD 12-07-13 16:15 OP:ep   STATUS:               ID:20111212004337 L   I
 2011-12-12-0040-00M.COL___186                                                 6
 STAT SP IPHASW D HRMM SECON CODA AMPLIT PERI AZIMU VELO AIN AR TRES W  DIS CAZ7
 BAR2 SZ ES   2    044 11.73                             173   -0.99 5 18.3 200 
 BAR2 SZ I         044 14.97         4.2 0.33                          18.3 200 
 BRR  HZ EP   1    043 59.43                             152    0.30 7 76.1 302 
 BRR  HN ES   1    044 16.08                             152    0.05 7 76.1 302 
 PAM  SZ EP   1    044  0.30                             150    0.19 7 80.6  36 
 RUS  HZ EP   1    044  0.30                             146   -0.71 7 94.6 177 
 RUS  HE ES   1    044 20.07                             146    0.68 7 94.6 177 
 RUS  HZ I         044 20.91         2.4 0.19                          94.6 177 
 PTB  HZ EP   2    044  4.52                             133   -0.20 5  149 261 
                                                                                
