 2015  612 0330 58.4 L   6.810 -73.110148.0  RSN 17 0.4 2.0LRSN                1
 GAP=141        0.90       2.9     3.9  5.1 -0.2072E+01  0.5959E+01  0.2105E+01E
 Epicentro: LOS SANTOS - SANTANDER                                             3
 ACTION:UPD 15-09-10 22:11 OP:cam  STATUS:               ID:20150612033058 L   I
 OLDACT:REG 15-06-12 13:19 OP:ak   STATUS:               ID:20150612032751d    3
 2015-06-12-0327-50M.COL___300                                                 6
 STAT SP IPHASW D HRMM SECON CODA AMPLIT PERI AZIMU VELO AIN AR TRES W  DIS CAZ7
 BAR2 EZ EP     C  331 18.15                             170   -0.2110 25.3 198 
 BAR2 EZ ES   1    331 33.72                             170   -0.19 7 25.3 198 
 BAR2 EZ I         331 34.84        13.4 0.18            168           25.3 198 
 PAM  SZ EP        331 21.22                             152    0.5410 74.1  38 
 PAM  SN ES   1    331 38.36                             152    0.31 7 74.1  38 
 PAM  SZ I         331 40.31        12.8 0.48            157           74.1  38 
 BRR  HZ EP     D  331 20.10                             152    0.1310 74.2 296 
 BRR  HN ES        331 37.42                             152    0.6310 74.2 296 
 BRR  HZ I         331 41.82        14.2 0.22            150           74.2 296 
 RUS  HZ EP   1    331 21.97                             144   -0.48 7  101 178 
 RUS  HE ES   1    331 40.89                             144   -0.30 7  101 178 
 RUS  HZ I         331 42.94         5.2 0.28            146            101 178 
 OCA  HZ EP        331 27.10                             130    0.25 9  160 352 
 OCA  HE ES        331 48.58                             130   -0.45 9  160 352 
 OCA  HZ I         331 53.07        21.6 0.32            133            160 352 
 SPBC HZ EP        331 27.12                             129   -0.28 9  166 220 
 SPBC HN ES        331 49.69                             129   -0.31 9  166 220 
 SPBC HZ I         331 54.96        22.8 0.14            130            166 220 
 ZAR  HZ EP        331 30.78                             122   -0.56 8  207 291 
 ZAR  HN ES        331 56.59                             122   -0.43 8  207 291 
 ZAR  HZ I         332  2.53        12.4 0.30            123            207 291 
 NOR  HZ EP        331 34.38                             118   -0.30 8  238 235 
 NOR  HE ES   1    332  3.16                             118    0.19 6  238 235 
 NOR  HZ I         332  5.82         7.2 0.32            120            238 235 
 SML  HN ES   1    332  3.35                             118   -0.62 6  244 334 
 SML  HZ I         332  6.67        17.7 0.10            120            244 334 
 HEL  HZ EP   1    331 39.87                             115    0.68 6  276 256 
 HEL  HE ES   1    332 10.94                             115   -0.05 6  276 256 
 HEL  HZ I         332 16.82         5.0 0.32            116            276 256 
 GUY2CHZ EP        331 43.18                             112    0.63 7  305 235 
 GUY2CHE ES   4    332 18.70                             112    1.71 0  305 235 
 GUY2CHZ I         332 25.01         8.2 0.74                           305 235 
 RREF HZ EP   4    331 46.25                             111    1.18 0  325 230 
 RREF HE ES   4    332 23.92                             111    2.46 0  325 230 
 RREF HZ I         332 26.82         2.1 0.22            113            325 230 
 CBOC HZ EP        331 45.99                             110    0.11 7  338 252 
 CBOC HN ES        332 23.76                             110    0.85 7  338 252 
 CBOC HZ I         332 26.29         1.6 0.38            111            338 252 
 TOL  SZ EP   1    331 47.22                             109    0.06 5  347 225 
 TOL  SN ES   4    332 26.81                             109    1.62 0  347 225 
 TOL  SZ I         332 29.27         4.2 0.24            111            347 225 
 MON  HZ EP   4    331 45.15                             109   -2.63 0  356 308 
 MON  HN ES   4    332 24.10                             109   -2.19 0  356 308 
 MON  HZ I         332 26.50         2.2 0.46            110            356 308 
 PRA  HZ EP        331 52.63                             107    0.29 6  395 210 
 PRA  HN ES   4    332 35.66                             107    1.25 0  395 210 
 PRA  HZ I         332 39.62         4.3 0.62            108            395 210 
 ORTC HZ EP   1    331 52.50                             107   -0.28 4  399 217 
 SJC  HZ EP   4    331 52.42                             106   -1.78 0  410 326 
                                                                                
