 2016  912 0417 30.8 L   6.778 -73.143158.0  RSN  5 0.4 1.3LRSN                1
 GAP=183        1.10       4.6     7.8  9.9  0.1472E+00 -0.5169E+01  0.3860E+01E
 Epicentro: LOS SANTOS - SANTANDER                                             3
 ACTION:UPD 17-08-17 21:09 OP:lp   STATUS:               ID:20160912041730 L   I
 OLDACT:DUP 16-09-12 19:49 OP:ar   STATUS:               ID:20160912040740d    3
 2016-09-12-0408-00M.COL___300                                                 6
 STAT SP IPHASW D HRMM SECON CODA AMPLIT PERI AZIMU VELO AIN AR TRES W  DIS CAZ7
 BRR  HZ EP        417 53.75                             154    0.4010 72.7 300 
 BRR  HN ES        418 11.50                             154    0.5510 72.7 300 
 BRR  HZ I         418 11.95         2.9 0.36            151           72.7 300 
 RUS  HZ EP        417 55.20                             147   -0.4010 98.1 176 
 RUS  HN ES        418 14.77                             147   -0.1810 98.1 176 
 RUS  HZ I         418 16.87         2.2 0.50            146           98.1 176 
 PTB  HZ EP        417 58.49                             135   -0.28 9  148 260 
 PTB  HN ES        418 19.95                             135   -0.64 9  148 260 
 PTB  HZ I         418 27.29         3.1 0.40            133            148 260 
 SPBC HZ EP        418  0.74                             132    0.64 9  161 220 
 SPBC HN ES        418 23.16                             132    0.20 9  161 220 
 SPBC HZ I         418 28.08         3.5 0.48            131            161 220 
 OCA  HN ES        418 23.01                             132   -0.32 9  163 353 
                                                                                
