 2012  112 0614  4.6 L   6.767 -73.178145.7  RSN  7 0.4 1.4LRSN                1
 GAP=177        0.77       6.6     7.1  8.8  0.1656E+02  0.1094E+02  0.1438E+02E
 Epicentro: LOS SANTOS - SANTANDER                                             3
 ACTION:UP  12-02-03 08:16 OP:REBC STATUS:               ID:20120112061404 L   I
 2012-01-12-0610-00M.COL___187                                                 6
 STAT SP IPHASW D HRMM SECON CODA AMPLIT PERI AZIMU VELO SNR AR TRES W  DIS CAZ7
 BAR2 SZ EP   2    614 23.91                             172    -0.3 5   19 181 
 BAR2 SZ ES   2    614 38.70                             172    -0.7 5   19 181 
 BAR2 SZ I         614 40.47         5.2 0.24                            19 181 
 GIR2 SZ ES   2    614 39.32                             166    -0.5 5   34 357 
 BRR  HZ EP        614 25.88                             153     0.210   70 303 
 BRR  HE ES   2    614 43.04                             153     0.9 5   70 303 
 BRR  HZ I         614 46.77         6.6 0.30                            70 303 
 RUS  HZ EP   1    614 28.48                             145     0.3 7   97 174 
 RUS  HN ES   2    614 47.06                             145     0.6 5   97 174 
 RUS  HZ I         614 47.92         3.0 0.26                            97 174 
 PTB  HZ EP   1    614 30.94                             133    -0.3 7  144 260 
 PTB  HN ES   1    614 51.86                             133    -0.1 7  144 260 
 ZAR  HN ES   2    615  1.90                             123    -0.1 4  202 293 
 ZAR  HZ I         615  7.69         1.8 0.18                           202 293 
 CHI  HZ EP   2    614 41.41                             118    -0.5 4  244 195 
 CHI  HN ES   2    615 10.75                             118    -0.1 4  244 195 
 CHI  HZ I         615 14.10         1.4 0.47                           244 195 
                                                                                
