 2014  512 0332  1.8 L   6.913 -73.067123.2  RSN  5 0.5 1.1LRSN                1
 GAP=140        1.04       5.3     5.9 13.7  0.2619E+01  0.3423E+02  0.9367E+01E
 Epicentro: PIEDECUESTA - SANTANDER                                            3
 OLDACT:DUP 14-05-12 16:51 OP:spq  STATUS:               ID:20140512032808d    3
 ACTION:UPD 15-03-16 16:56 OP:nd   STATUS:               ID:20140512033201 L   I
 OLDACT:UP  14-05-12 17:01 OP:spq  STATUS:               ID:20140512032808d    3
 2014-05-12-0328-07M.COL___248                                                 6
 STAT SP IPHASW D HRMM SECON CODA AMPLIT PERI AZIMU VELO AIN AR TRES W  DIS CAZ7
 PAM  SZ EPg  1    332 20.97                             152    0.25 8 62.2  41 
 PAM  SN ESg  1    332 34.91                             152   -0.57 8 62.2  41 
 PAM  SZ I         332 41.71         3.3 0.66            153           62.2  41 
 RUS  HZ EP        332 24.50                             135    0.0610  113 181 
 RUS  HN ES        332 42.64                             135    0.5410  113 181 
 RUS  SZ I         332 43.79         2.5 0.72            143            113 181 
 PTB  HE ES   1    332 48.29                             124   -0.42 7  159 255 
 SPBC HZ EP   1    332 29.64                             121   -0.61 7  178 219 
 SPBC HE ES   1    332 51.69                             121   -0.74 7  178 219 
 ZAR  HN ES        332 58.43                             116    0.56 9  208 288 
                                                                                
