 2010  112 0511 25.4 L   6.793 -73.043143.6  RSN  5 0.2 1.7LRSN                1
 GAP=226        0.40       4.2     6.1  4.5 -0.3649E+01  0.8050E+01  0.7555E+01E
 Epicentro: LOS SANTOS - SANTANDER                                             3
 ACTION:UP  10-08-24 09:43 OP:vdl  STATUS:               ID:20100112051125 L   I
 2010-01-12-0508-01S.COL___097                                                 6
 STAT SP IPHASW D HRMM SECON CODA AMPLIT PERI AZIMU VELO SNR AR TRES W  DIS CAZ7
 BAR2 SZ EP   2    511 44.86                             169     0.0 6   27 215 
 BAR2 SZ ES   1    512  0.04                             169     0.010   27 215 
 GIR2 SZ EP   2    511 44.84                             165    -0.1 6   36 332 
 CHI  HZ IP        512  3.23                             116     0.010  251 198 
 CHI  HE ES   1    512 32.68                             116    -0.1 7  251 198 
 CHI  HZ I         512 35.60         2.2 0.44                           251 198 
 HEL  HZ EP   2    512  7.27                             113     0.6 5  283 257 
 HEL  HN ES   2    512 38.55                             113    -0.4 5  283 257 
 HEL  HZ I         512 42.91         2.0 0.48                           283 257 
 PRA  HZ IP        512 19.22                             106    -0.2 7  397 211 
 PRA  HE ES   1    513  1.87                             106     0.3 6  397 211 
 PRA  HZ I         513  5.04         2.3 0.53                           397 211 
                                                                                
