 2011  212 0705 43.9 L   6.775 -73.082149.6  RSN  7 0.4 1.7LRSN                1
 GAP=166        0.69       4.0     8.5  8.1 -0.1606E+02  0.2676E+02 -0.4754E+01E
 Epicentro: LOS SANTOS - SANTANDER                                             3
 ACTION:UP  11-03-28 15:07 OP:jfem STATUS:               ID:20110212070543 L   I
 2011-02-12-0704-16S.COL___136                                                 6
 STAT SP IPHASW D HRMM SECON CODA AMPLIT PERI AZIMU VELO SNR AR TRES W  DIS CAZ7
 BAR2 SZ EP   1    7 6  3.82                             171    -0.1 8   23 209 
 BAR2 SZ ES   2    7 6 19.80                             171     0.2 5   23 209 
 BAR2 SZ I         7 6 20.04        13.3 0.48                            23 209 
 RUS  HZ EP   1    7 6  7.68                             145    -0.1 8   98 180 
 RUS  HZ I         7 6  9.33         6.3 0.48                            98 180 
 RUS  HN ES   2    7 6 26.47                             145     0.0 5   98 180 
 GRA  SZ IP        7 6  9.61                             138     0.110  127  14 
 GRA  SZ ES   2    7 6 28.69                             138    -0.8 5  127  14 
 OCA  SZ EP   1    7 6 12.76                             130    -0.1 7  164 351 
 OCA  SZ ES   2    7 6 36.30                             130     0.9 5  164 351 
 OCA  SZ I         7 6 40.22        15.0 0.28                           164 351 
 NOR  SZ EP   1    7 6 19.99                             119    -0.3 6  239 236 
 NOR  SN ES   2    7 6 48.11                             119    -0.6 4  239 236 
 NOR  SZ I         7 6 54.99         1.3 0.31                           239 236 
 CHI  HZ EP   1    7 6 21.80                             118     0.1 6  248 197 
 CHI  HE ES   2    7 6 51.93                             118     0.7 4  248 197 
 CHI  HZ I         7 6 57.05         3.6 0.17                           248 197 
 HEL  HZ EP   1    7 6 25.15                             115     0.2 6  278 257 
 HEL  HZ I         7 7  4.41         4.7 0.22                           278 257 
                                                                                
