 2012  712 0231 34.1 L   6.789 -73.313127.6  RSN  5 0.3 1.6LRSN                1
 GAP=198        0.87       6.7     6.0  8.0  0.2506E+02  0.9953E+01 -0.3066E+01E
 Epicentro: ZAPATOCA - SANTANDER                                               3
 ACTION:UPD 12-08-14 11:44 OP:ep   STATUS:               ID:20120712023134 L   I
 2012-07-12-0230-00M.COL___194                                                 6
 STAT SP IPHASW D HRMM SECON CODA AMPLIT PERI AZIMU VELO AIN AR TRES W  DIS CAZ7
 BAR2 SZ EP   1    231 51.96                             168     0.3 8   26 146 
 BAR2 SZ ES   1    232  5.36                             168     0.1 8   26 146 
 BAR2 SZ I         232  6.41        24.9 0.22            169             26 146 
 BRR  HZ EP   1    231 52.50                             155     0.0 8   56 309 
 BRR  HN ES   1    232  6.50                             155    -0.3 8   56 309 
 BRR  HZ I         232  7.40        16.1 0.12            154             56 309 
 RUS  HZ EP   1    231 56.71                             139     0.5 7  102 166 
 RUS  HE ES        232 13.31                             139    -0.210  102 166 
 PTB  HZ EP        231 57.31                             132    -0.610  129 258 
 PTB  HN ES        232 16.84                             132     0.310  129 258 
 PTB  HZ I         232 19.03         2.7 0.20            131            129 258 
 ZAR  HZ EP   1    232  3.84                             120     0.2 7  188 295 
 ZAR  HN ES        232 26.79                             120     0.0 9  188 295 
 ZAR  HZ I         232 29.93         2.4 0.09            121            188 295 
