 2012  712 0917 14.5 L   6.376 -73.476  4.0  RSN  8 0.4 1.7LRSN                1
 GAP= 99        1.01       2.3     2.6  7.2  0.7784E+00  0.6667E+01  0.1506E+01E
 Epicentro: CONTRATACION - SANTANDER                                           3
 ACTION:UPD 12-08-14 11:44 OP:ep   STATUS:               ID:20120712091714 L   I
 2012-07-12-0910-00M.COL___194                                                 6
 STAT SP IPHASW D HRMM SECON CODA AMPLIT PERI AZIMU VELO AIN AR TRES W  DIS CAZ7
 BAR2 SZ EP   1    917 21.78                              47     0.4 7   40  54 
 BAR2 SZ ES   1    917 26.37                              47    -0.4 7   40  54 
 BAR2 SZ I         917 28.19        63.9 0.11             47             40  54 
 RUS  HZ IP     D  917 26.50                              47     0.510   69 141 
 RUS  HN ES        917 34.68                              47    -0.310   69 141 
 RUS  HZ I         917 36.77        20.5 0.19             47             69 141 
 BRR  HZ EP   1    917 28.11                              47     0.2 7   85 342 
 BRR  HN ES        917 38.30                              47    -0.110   85 342 
 BRR  HZ I         917 39.60        31.4 0.17             47             85 342 
 PTB  HZ EP   1    917 31.93                              47     0.2 7  110 279 
 PTB  HN ES   1    917 44.96                              47    -0.2 7  110 279 
 PTB  HZ I         917 46.28        16.9 0.13             47            110 279 
 PAM  SZ EP   1    917 36.40                              47     0.1 7  137  39 
 PAM  SN ES   1    917 52.64                              47    -0.6 7  137  39 
 NOR  SZ EP   1    917 42.46                              37     0.4 7  179 240 
 NOR  SN ES   1    918  3.29                              37    -0.4 7  179 240 
 OCA  HZ EP   1    917 46.27                              37     0.5 6  207   5 
 OCA  HN ES   1    918 10.65                              37     0.5 6  207   5 
 OCA  HZ I         918 14.79        22.0 0.30             37            207   5 
 HEL  HZ EP   1    917 47.81                              37    -0.9 6  228 265 
 HEL  HZ I         918 15.61         3.1 0.15             37            228 265 
