 2013 1012 0934  7.8 L   6.830 -73.126142.5  RSN 24 0.5 3.1LRSN                1
 GAP= 67        0.99       2.4     2.9  5.4 -0.1545E+00  0.2402E+01  0.1054E+01E
 Epicentro: LOS SANTOS - SANTANDER                                             3
 ACTION:UPD 13-11-25 09:21 OP:ep   STATUS:               ID:20131012093407 L   I
 OLDACT:UP  13-10-12 10:27 OP:mh   STATUS:               ID:20131012092959     3
 OLDACT:UP  13-10-12 10:25 OP:mh   STATUS:               ID:20131012092959     3
 OLDACT:REG 13-10-12 08:50 OP:mh   STATUS:               ID:20131012092959     3
 2013-10-12-0929-59M.COL___273                                                 6
 STAT SP IPHASW D HRMM SECON CODA AMPLIT PERI AZIMU VELO AIN AR TRES W  DIS CAZ7
 BAR2 SZ IP     C  934 27.17                             169    0.0910 27.0 193 
 BAR2 SZ ES   1    934 41.85                             169   -0.30 7 27.0 193 
 BAR2 SZ I         934 43.18       314.2 0.26            171           27.0 193 
 BRR  HZ IP     C  934 29.05                             152    0.4610 71.6 295 
 BRR  HN ES   1    934 45.34                             152    0.52 7 71.6 295 
 BRR  HZ I         934 50.67       145.3 0.16            152           71.6 295 
 PAM  SZ EP   1    934 29.97                             151    0.57 7 73.5  40 
 PAM  SZ I         934 48.95       391.4 0.44            151           73.5  40 
 RUS  HZ EP   1    934 31.28                             142   -0.15 7  104 177 
 RUS  HN ES   1    934 49.29                             142   -0.59 7  104 177 
 RUS  HZ I         934 51.63       164.7 0.41            144            104 177 
 PTB  HZ EP   1    934 33.72                             131   -1.00 7  151 258 
 PTB  HN ES   1    934 55.44                             131   -0.31 7  151 258 
 TAM  HZ EP        934 35.56                             130    0.49 9  154 106 
 TAM  HN ES   2    934 56.32                             130   -0.05 5  154 106 
 OCA  HZ EP   1    934 35.37                             129   -0.17 7  157 352 
 OCA  HN ES        934 56.82                             129   -0.38 9  157 352 
 OCA  HZ I         935  0.35       133.4 0.34            130            157 352 
 SPBC HZ EP        934 36.10                             128   -0.29 9  167 219 
 SPBC HN ES   1    934 58.01                             128   -0.71 7  167 219 
 SPBC HN I         935  4.41       309.9 0.36            129            167 219 
 YOP  SZ EP   1    934 38.01                             125    0.24 7  181 154 
 YOP  SN ES        935  1.69                             125    0.51 9  181 154 
 YOP  SZ I         935  2.49       207.3 0.39            127            181 154 
 ZAR  HZ EP        934 40.00                             121   -0.08 9  205 291 
 ZAR  HN ES        935  5.81                             121    0.52 9  205 291 
 ZAR  HZ I         935 11.07       111.8 0.35            122            205 291 
 NOR  HZ EP   1    934 43.19                             117   -0.51 6  238 234 
 NOR  HN ES        935 11.45                             117   -0.28 8  238 234 
 NOR  HZ I         935 13.37        50.1 0.10            119            238 234 
 SML  HZ EP        934 43.23                             117   -0.76 8  242 335 
 SML  HE ES   1    935 12.92                             117    0.68 6  242 335 
 SML  HZ I         935 15.69        90.4 0.12            117            242 335 
 CHI  HZ EP   1    934 45.46                             116   -0.23 6  252 195 
 CHI  HN ES   4    935 13.80                             116   -1.47 0  252 195 
 CHI  HZ I         935 17.60        35.1 0.36            117            252 195 
 ROSC BZ EP        934 47.03                             116    0.89 8  257 211 
 ROSC BN ES        935 15.99                             116   -0.08 8  257 211 
 HEL  HZ EP   1    934 49.07                             114    0.93 6  275 255 
 HEL  HN ES        935 19.30                             114   -0.33 8  275 255 
 HEL  HZ I         935 27.68        59.7 0.53            115            275 255 
 URE  HZ EP   4    934 47.39                             113   -1.38 0  285 291 
 URE  HN ES   4    935 18.84                             113   -1.91 0  285 291 
 URE  HZ I         935 20.95        88.8 0.16            114            285 291 
 GUY2CHZ EP   1    934 51.88                             111    0.24 5  305 235 
 GUY2CHN ES        935 26.18                             111    0.32 7  305 235 
 GUY2CHZ I         935 34.96        42.4 0.46                           305 235 
 VIL  SZ EP   1    934 51.01                             111   -0.44 5  307 192 
 VIL  SN ES   1    935 24.79                             111   -0.73 5  307 192 
 VIL  SZ I         935 35.03        56.1 0.38            112            307 192 
 PTGC HZ EP   4    934 50.51                             111   -1.23 0  311 159 
 PTGC HN ES   4    935 23.46                             111   -2.57 0  311 159 
 PTGC HZ  AMP      935 28.63       986.3 0.20                           311 159 
 RREF HZ EP   1    934 53.95                             110   -0.25 5  326 229 
 RREF HN ES   4    935 30.51                             110    0.09 0  326 229 
 CBOC HZ EP        934 55.45                             109    0.55 7  337 252 
 CBOC HN ES        935 32.64                             109    0.98 7  337 252 
 CBOC HZ I         935 35.47        18.7 0.30            110            337 252 
 COD  HZ EP        934 54.78                             108   -0.88 7  345 354 
 COD  HN ES   2    935 32.55                             108   -0.47 3  345 354 
 COD  HZ I         935 41.87         9.0 0.34            109            345 354 
 PRA  HZ EP   1    935  0.93                             106   -0.70 4  396 210 
 PRA  HN ES        935 43.41                             106   -0.24 6  396 210 
 PRA  HZ I         935 49.11        38.8 0.25            107            396 210 
 ORTC HZ EP   1    935  1.98                             106   -0.06 4  399 216 
 ORTC HN ES   1    935 44.43                             106    0.07 4  399 216 
 ORTC HZ I         935 50.48        28.7 0.35            106            399 216 
 SJC  HZ EP   4    935  1.50                             105   -1.54 0  408 326 
 SJC  HN ES   4    935 42.79                             105   -3.36 0  408 326 
                                                                                
