 2014  212 0904 56.6 L   6.807 -73.146144.8  RSN 11 0.4 2.0LRSN                1
 GAP=136        0.96       2.4     3.9  5.4 -0.1607E+01  0.6907E+01 -0.1778E+00E
 Epicentro: LOS SANTOS - SANTANDER                                             3
 ACTION:UPD 14-03-10 08:09 OP:ep   STATUS:               ID:20140212090456 L   I
 OLDACT:REG 14-02-12 08:21 OP:carl STATUS:               ID:20140212090000     3
 2014-02-12-0900-00M.COL___199                                                 6
 STAT SP IPHASW D HRMM SECON CODA AMPLIT PERI AZIMU VELO AIN AR TRES W  DIS CAZ7
 BAR2 SZ EP        9 5 16.18                             170    0.0610 24.0 190 
 BAR2 SZ ES        9 5 31.36                             170    0.0110 24.0 190 
 BAR2 SZ I         9 5 32.89        22.7 0.26            170           24.0 190 
 PAM  SZ EP        9 5 18.91                             151    0.2410 76.9  40 
 PAM  SN ES        9 5 36.38                             151    0.4910 76.9  40 
 PAM  SZ I         9 5 38.35        12.2 0.20            155           76.9  40 
 RUS  HZ EP        9 5 20.07                             143   -0.2310  101 176 
 RUS  HN ES        9 5 38.38                             143   -0.4110  101 176 
 RUS  HZ I         9 5 40.19         5.9 0.30            146            101 176 
 PTB  HZ EP        9 5 23.12                             132   -0.36 9  148 259 
 PTB  HN ES        9 5 43.79                             132   -0.67 9  148 259 
 PTB  HZ I         9 5 51.54        10.3 0.54            132            148 259 
 OCA  HZ EP        9 5 24.61                             129   -0.15 9  160 353 
 OCA  HN ES        9 5 46.96                             129    0.24 9  160 353 
 OCA  HZ I         9 5 54.58        10.5 0.36            131            160 353 
 SPBC HZ EP        9 5 25.21                             129    0.15 9  164 219 
 SPBC HN ES        9 5 47.55                             129    0.28 9  164 219 
 SPBC HZ I         9 5 52.25        14.8 0.40            130            164 219 
 ZAR  HZ EP        9 5 29.31                             122    0.37 9  204 292 
 ZAR  HE ES        9 5 54.58                             122    0.41 9  204 292 
 ZAR  HN I         9 5 58.50        16.3 0.16            123            204 292 
 ZAR  HZ I         9 6  0.51        10.5 0.30                           204 292 
 NOR  HZ EP        9 5 32.46                             118    0.16 8  235 234 
 NOR  HN ES        9 6  0.45                             118    0.29 8  235 234 
 NOR  HZ I         9 6  4.01         6.7 0.24            120            235 234 
 SML  HZ EP        9 5 32.65                             117   -0.44 8  243 335 
 SML  HN ES        9 6  0.95                             117   -0.60 8  243 335 
 SML  HZ I         9 6  5.79        14.8 0.10            119            243 335 
 CHI  HZ EP        9 5 34.24                             117   -0.07 8  249 195 
 CHI  HN ES        9 6  3.19                             117   -0.54 8  249 195 
 CHI  HZ I         9 6  9.53         2.9 0.40            119            249 195 
 PRA  HZ EP        9 5 50.14                             106   -0.01 6  393 210 
 PRA  HN ES        9 6 33.34                             106    1.42 6  393 210 
 PRA  HZ I         9 6 37.96         4.8 0.34            108            393 210 
                                                                                
