 2012  712 0924 24.6 L   6.781 -73.183138.4  RSN  5 0.4 1.3LRSN                1
 GAP=133        1.01       6.9     5.9  9.9 -0.4902E+01  0.6367E+01  0.2991E+01E
 Epicentro: LOS SANTOS - SANTANDER                                             3
 ACTION:UPD 12-08-14 11:44 OP:ep   STATUS:               ID:20120712092424 L   I
 2012-07-12-0920-00M.COL___194                                                 6
 STAT SP IPHASW D HRMM SECON CODA AMPLIT PERI AZIMU VELO AIN AR TRES W  DIS CAZ7
 BAR2 SZ EP   1    924 43.40                             171     0.1 8   21 180 
 BAR2 SZ I         924 43.72         6.0 0.11            169             21 180 
 BAR2 SZ ES   1    924 57.31                             171    -0.6 8   21 180 
 BRR  HZ EP   1    924 45.22                             152     0.4 8   69 302 
 BRR  HZ I         924 46.24         7.6 0.10            152             69 302 
 BRR  HN ES   1    925  1.36                             152     0.8 8   69 302 
 PAM  SZ EP   1    924 46.36                             148     0.0 8   82  41 
 PAM  SZ I         924 46.66         5.1 0.18            150             82  41 
 PAM  SE ES   1    925  2.97                             148    -0.3 8   82  41 
 RUS  HZ EP   1    924 47.50                             143     0.0 8   99 174 
 RUS  HN ES   1    925  5.90                             143     0.5 8   99 174 
 RUS  HZ I         925  7.77         2.2 0.26            141             99 174 
 PTB  HZ EP   1    924 50.34                             131    -0.3 7  143 259 
 PTB  HN ES        925 10.48                             131    -0.410  143 259 
 PTB  HZ I         925 13.90         2.1 0.17            130            143 259 
