 2012  712 0541 38.9 L   6.823 -73.162138.5  RSN 12 0.5 2.1LRSN                1
 GAP=111        1.18       3.7     4.6  7.9 -0.5478E+00  0.1429E+02  0.4631E+01E
 Epicentro: LOS SANTOS - SANTANDER                                             3
 ACTION:UPD 12-08-14 11:44 OP:ep   STATUS:               ID:20120712054138 L   I
 OLDACT:UP  12-07-13 16:44 OP:ep   STATUS:               ID:20120712054000     3
 2012-07-12-0540-00M.COL___194                                                 6
 STAT SP IPHASW D HRMM SECON CODA AMPLIT PERI AZIMU VELO AIN AR TRES W  DIS CAZ7
 BAR2 SZ EP   1    541 57.71                             169     0.0 7   26 185 
 BAR2 SZ ES   1    542 12.13                             169    -0.2 7   26 185 
 BAR2 SZ I         542 14.09        39.0 0.17            170             26 185 
 BRR  HZ EP   1    541 59.59                             152     0.5 7   68 297 
 BRR  HE ES   1    542 15.54                             152     0.7 7   68 297 
 BRR  HZ I         542 18.39        21.3 0.09            150             68 297 
 PAM  SZ EP   1    542  0.67                             150     0.4 7   77  42 
 PAM  SN ES        542 17.31                             150     0.410   77  42 
 PAM  SZ I         542 19.59        10.2 0.43            153             77  42 
 RUS  HZ EP   1    542  1.81                             141    -0.3 7  103 175 
 RUS  HZ I         542  2.95        15.7 0.16            144            103 175 
 RUS  HN ES        542 19.78                             141    -0.510  103 175 
 PTB  HZ EP   1    542  4.61                             130    -0.5 7  147 258 
 PTB  HN ES   1    542 25.22                             130    -0.4 7  147 258 
 PTB  HZ I         542 28.91        10.2 0.12            131            147 258 
 OCA  HZ EP   1    542  5.74                             128    -0.6 7  157 354 
 OCA  HN ES        542 27.21                             128    -0.6 9  157 354 
 OCA  HZ I         542 32.14        29.2 0.28            129            157 354 
 YOP  SZ EP   1    542  8.41                             124    -0.3 7  182 153 
 YOP  SE ES   1    542 31.97                             124     0.0 7  182 153 
 YOP  SZ I         542 34.07         4.8 0.25            127            182 153 
 ZAR  HZ EP   1    542 11.29                             121     0.7 6  201 292 
 ZAR  HN ES   1    542 35.58                             121     0.3 6  201 292 
 ZAR  HZ I         542 42.64        15.4 0.33            121            201 292 
 NOR  SZ EP   1    542 14.32                             117     0.1 6  235 234 
 NOR  SE ES   1    542 41.86                             117     0.1 6  235 234 
 CHI  HN ES   1    542 46.80                             115     1.1 6  251 195 
 HEL  HZ EP   1    542 19.55                             113     1.0 6  271 255 
 HEL  HN ES        542 48.95                             113    -0.6 8  271 255 
 HEL  HZ I         542 56.09         8.9 0.34            114            271 255 
 GUY  SZ EP   1    542 21.96                             111    -0.5 5  304 234 
 GUY  SN ES        542 56.52                             111     0.1 7  304 234 
 GUY  SZ I         543  2.60        10.9 0.36            112            304 234 
