 2017  812 0351 21.2 L   6.861 -73.140139.2  RSN  5 0.4 1.3LRSN                1
 GAP=243        1.00       5.9     7.3  7.9  0.2303E+02  0.8330E+01 -0.3751E+01E
 Epicentro: LOS SANTOS - SANTANDER                                             3
 ACTION:UPD 17-09-04 20:19 OP:rebc STATUS:               ID:20170812035121 L   I
 OLDACT:UP  17-08-12 16:06 OP:dhb  STATUS:               ID:20170812034738     3
 OLDACT:REG 17-08-12 12:28 OP:dhb  STATUS:               ID:20170812034738     3
 2017-08-12-0348-00M.COL___417                                                 6
 STAT SP IPHASW D HRMM SECON CODA AMPLIT PERI AZIMU VELO AIN AR TRES W  DIS CAZ7
 BAR2 EZ EP        351 40.19                             167    0.0210 30.1 189 
 BAR2 EZ ES        351 54.41                             167   -0.5810 30.1 189 
 BAR2 EZ I         351 56.45         3.1 0.11            168           30.1 189 
 BRR  HZ EP        351 42.04                             152    0.5710 68.8 293 
 BRR  HE ES        351 57.82                             152    0.5110 68.8 293 
 BRR  HZ I         352  1.87         3.9 0.28            150           68.8 293 
 RUS  HZ EP        351 44.85                             141    0.0710  107 177 
 RUS  HN ES        352  3.11                             141   -0.1010  107 177 
 RUS  HZ I         352  4.73         3.7 0.36            144            107 177 
 SPBC HE ES        352 12.20                             126    0.20 9  169 218 
 ZAR  HZ EP        351 52.52                             121   -0.48 9  202 290 
 ZAR  HN ES        352 17.41                             121   -0.42 9  202 290 
 ZAR  HZ I         352 23.57         2.8 0.23            122            202 290 
                                                                                
