 2011 1012 0752 24.1 L   6.784 -73.114139.1  RSN  7 0.4 1.7LRSN                1
 GAP=141        0.78       4.1     5.4  7.6  0.3057E+01  0.2759E+01 -0.2961E+01E
 Epicentro: LOS SANTOS - SANTANDER                                             3
 ACTION:UPD 12-07-13 16:03 OP:ep   STATUS:               ID:20111012075224 L   I
 2011-10-12-0740-00M.COL___171                                                 6
 STAT SP IPHASW D HRMM SECON CODA AMPLIT PERI AZIMU VELO AIN AR TRES W  DIS CAZ7
 BAR2 SZ EP        752 42.97                             170    0.0310 22.5 200 
 BAR2 SZ ES   1    752 57.06                             170   -0.55 7 22.5 200 
 BAR2 SZ I         752 58.95        12.7 0.15                          22.5 200 
 GIR2 SZ EP   1    752 43.00                             166   -0.09 7 33.8 345 
 BRR  HZ EP        752 44.96                             150    0.1610 75.1 298 
 BRR  HN ES   1    753  1.65                             150    0.73 7 75.1 298 
 BRR  HZ I         753  3.15        10.4 0.13                          75.1 298 
 PAM  SZ EP        752 45.83                             150    0.2310 76.7  37 
 PAM  SN ES   1    753  2.54                             150    0.20 7 76.7  37 
 RUS  HZ EP   1    752 46.93                             143   -0.16 7 98.6 178 
 RUS  HN ES   1    753  4.93                             143   -0.06 7 98.6 178 
 RUS  HZ I         753  6.46         5.1 0.37                          98.6 178 
 OCA  SZ ES   1    753 13.26                             128   -0.74 7  163 352 
 OCA  SZ I         753 16.93         9.3 0.21                           163 352 
 ZAR  HE ES   1    753 21.56                             120   -0.30 6  208 292 
                                                                                
