 2016  912 0338 19.4 L   6.811 -73.135146.7  RSN 12 0.5 2.0LRSN                1
 GAP=137        1.14       3.3     4.8  6.0 -0.1846E+01  0.9059E+01  0.1251E+01E
 Epicentro: LOS SANTOS - SANTANDER                                             3
 ACTION:UPD 17-08-17 21:09 OP:lp   STATUS:               ID:20160912033819 L   I
 OLDACT:UP  16-09-12 19:18 OP:ar   STATUS:               ID:20160912032739d    3
 OLDACT:UP  16-09-12 19:17 OP:ar   STATUS:               ID:20160912032739d    3
 OLDACT:DUP 16-09-12 19:11 OP:ar   STATUS:               ID:20160912032739d    3
 OLDACT:UP  16-09-12 19:09 OP:ar   STATUS:               ID:20160912032738     3
 OLDACT:REG 16-09-12 15:20 OP:and  STATUS:               ID:20160912032738     3
 2016-09-12-0328-00M.COL___303                                                 6
 STAT SP IPHASW D HRMM SECON CODA AMPLIT PERI AZIMU VELO AIN AR TRES W  DIS CAZ7
 BAR2 EZ EP        338 38.89                             170   -0.2510 24.8 192 
 BAR2 EZ ES        338 54.49                             170   -0.0710 24.8 192 
 BAR2 EZ I         338 56.79        19.7 0.18            169           24.8 192 
 BRR  HZ IP     C  338 40.92                             152    0.2710 71.7 297 
 BRR  HN ES        338 58.14                             152    0.9010 71.7 297 
 BRR  HZ I         339  2.06        17.9 0.18            152           71.7 297 
 PAM  EZ EP        338 42.05                             152    0.4710 75.6  39 
 PAM  EN ES        338 59.00                             152    0.1010 75.6  39 
 PAM  EZ I         339  1.27        22.6 0.48            155           75.6  39 
 RUS  HZ EP        338 43.59                             144    0.2910  102 177 
 RUS  HN ES        339  1.91                             144   -0.0510  102 177 
 RUS  HZ I         339  2.94        14.0 0.32            145            102 177 
 PTB  HZ EP        338 46.08                             132   -0.47 9  149 258 
 PTB  HN ES   4    339  6.59                             132   -1.15 0  149 258 
 PTB  HZ I         339  8.75         6.7 0.42            132            149 258 
 OCA  HZ EP        338 47.17                             130   -0.48 9  159 353 
 OCA  HN ES        339  8.69                             130   -1.02 9  159 353 
 OCA  HZ I         339 12.61        20.9 0.16            132            159 353 
 SPBC HZ EP        338 48.12                             129    0.01 9  165 219 
 SPBC HN ES        339  9.80                             129   -0.72 9  165 219 
 SPBC HZ I         339 12.47        16.7 0.30            130            165 219 
 ZAR  HZ EP        338 52.37                             122    0.42 9  205 292 
 ZAR  HN ES        339 17.50                             122    0.15 9  205 292 
 ZAR  HZ I         339 22.46         9.6 0.58            123            205 292 
 CHI  HZ EP        338 57.21                             117   -0.08 8  250 195 
 CHI  HN ES        339 26.63                             117   -0.23 8  250 195 
 CHI  HZ I         339 36.50         4.6 0.48            119            250 195 
 ROSC BZ EP   9    339  0.32                             117    2.59 0  254 211 
 ROSC BN ES        339 30.24                                    0.01 8  254 211 
 ROSC BZ I         339 31.20         8.3 0.30            118            254 211 
 HEL  HZ EP        339  0.22                             115    0.42 8  274 256 
 HEL  HN ES        339 30.87                             115   -0.46 8  274 256 
 HEL  HZ I         339 37.93         2.6 0.40            116            274 256 
 GUY2CHZ EP        339  3.96                             112    0.74 7  303 235 
 GUY2CHE ES   4    339 41.55                             112    4.13 0  303 235 
 GUY2CHZ I         339 45.01         3.7 0.36                           303 235 
                                                                                
