 2017  312 0415  0.7 L   6.810 -73.153146.9  RSN  8 0.4 1.9LRSN                1
 GAP=135        1.02       4.3     4.3  6.5 -0.1449E+01  0.6620E+01  0.3854E+01E
 Epicentro: LOS SANTOS - SANTANDER                                             3
 ACTION:UPD 17-05-25 18:39 OP:jn   STATUS:               ID:20170312041500 L   I
 OLDACT:UP  17-03-12 16:32 OP:ar   STATUS:               ID:20170312040742     3
 OLDACT:REG 17-03-12 13:10 OP:ar   STATUS:               ID:20170312040742     3
 2017-03-12-0408-00M.COL___394                                                 6
 STAT SP IPHASW D HRMM SECON CODA AMPLIT PERI AZIMU VELO AIN AR TRES W  DIS CAZ7
 BAR2 EZ EP        415 20.29                             170   -0.1910 24.3 188 
 BAR2 EZ ES        415 35.90                             170   -0.0110 24.3 188 
 BAR2 EZ I         415 38.71        15.6 0.70            168           24.3 188 
 BRR  HZ EP        415 22.00                             153    0.1010 70.0 298 
 BRR  HN ES        415 38.86                             153    0.4210 70.0 298 
 BRR  HZ I         415 42.86        15.0 0.30            152           70.0 298 
 PAM  EZ IP     C  415 23.10                             151    0.0910 77.0  40 
 PAM  EN ES        415 40.43                             151    0.0210 77.0  40 
 PAM  EZ I         415 41.98        11.6 0.52            156           77.0  40 
 RUS  HZ EP     D  415 24.62                             144   -0.0210  102 176 
 RUS  HN ES        415 43.12                             144   -0.1910  102 176 
 RUS  HZ I         415 44.79         7.5 0.22            146            102 176 
 PTB  HZ EP        415 26.79                             132   -0.91 9  147 258 
 PTB  HN ES        415 48.23                             132   -0.54 9  147 258 
 PTB  HZ I         415 50.37        12.0 0.42            133            147 258 
 SPBC HZ EP        415 29.32                             129    0.01 9  164 219 
 SPBC HN ES        415 51.94                             129    0.30 9  164 219 
 SPBC HZ I         415 58.30        11.2 0.44            130            164 219 
 ZAR  HZ EP   4    415 34.73                             123    1.63 0  203 292 
 ZAR  HN ES        415 58.38                             123    0.01 9  203 292 
 ZAR  HZ I         416  3.54         9.2 0.28            124            203 292 
 NOR  HZ EP        415 37.53                             119    1.04 8  235 234 
 NOR  HE ES   2    416  4.95                             119    0.54 4  235 234 
 NOR  HZ I         416 10.40         3.9 0.30            120            235 234 
                                                                                
