 2017  212 0248 55.0 L   6.801 -73.152147.0  RSN  6 0.4 1.5LRSN                1
 GAP=136        0.81       4.1     4.2  5.5 -0.1388E+01  0.2607E+01  0.4552E+01E
 Epicentro: LOS SANTOS - SANTANDER                                             3
 ACTION:UPD 17-05-24 15:35 OP:jn   STATUS:               ID:20170212024855 L   I
 OLDACT:UP  17-02-12 16:20 OP:and  STATUS:               ID:20170212023740     3
 OLDACT:UP  17-02-12 16:19 OP:and  STATUS:               ID:20170212023740     3
 OLDACT:UP  17-02-12 16:19 OP:and  STATUS:               ID:20170212023740     3
 OLDACT:UP  17-02-12 16:18 OP:and  STATUS:               ID:20170212023740     3
 OLDACT:REG 17-02-12 12:35 OP:and  STATUS:               ID:20170212023740     3
 2017-02-12-0238-00M.COL___352                                                 6
 STAT SP IPHASW D HRMM SECON CODA AMPLIT PERI AZIMU VELO AIN AR TRES W  DIS CAZ7
 BAR2 EZ EP   2    249 15.43                             171    0.60 5 23.3 188 
 BAR2 EZ ES        249 29.91                             171   -0.3410 23.3 188 
 BAR2 EZ I         249 32.41        10.7 0.30            168           23.3 188 
 BRR  HZ EP        249 16.40                             153    0.1010 70.6 299 
 BRR  HN ES        249 33.45                             153    0.5810 70.6 299 
 PAM  EZ IP     C  249 17.55                             151    0.1310 77.8  40 
 PAM  EN ES        249 34.62                             151   -0.2510 77.8  40 
 PAM  EZ I         249 36.77         4.3 0.42            153           77.8  40 
 RUS  HZ EP        249 18.79                             144   -0.1410  101 176 
 RUS  HN ES        249 37.73                             144    0.1710  101 176 
 RUS  HZ I         249 38.50         4.8 0.38            143            101 176 
 PTB  HZ EP        249 21.64                             132   -0.42 9  147 259 
 PTB  HN ES        249 42.83                             132   -0.30 9  147 259 
 PTB  HZ I         249 43.41         3.2 0.18            133            147 259 
 CHI  HZ EP        249 33.05                             117    0.25 8  249 195 
 CHI  HN ES   3    250  3.84                             117    1.59 2  249 195 
 CHI  HZ I         250  8.40         1.6 0.32            117            249 195 
                                                                                
