 2016  412 0142 40.8 L   6.848 -73.111144.3  RSN  5 0.5 1.3LRSN                1
 GAP=248        1.20       8.1     7.5  9.8  0.2569E+02  0.1119E+02 -0.1887E+02E
 Epicentro: LOS SANTOS - SANTANDER                                             3
 ACTION:UPD 16-05-05 14:20 OP:rebc STATUS:               ID:20160412014240 L   I
 OLDACT:UP  16-04-12 13:34 OP:mh   STATUS:               ID:20160412013744     3
 OLDACT:REG 16-04-12 12:28 OP:mh   STATUS:               ID:20160412013744     3
 2016-04-12-0137-44M.COL___322                                                 6
 STAT SP IPHASW D HRMM SECON CODA AMPLIT PERI AZIMU VELO AIN AR TRES W  DIS CAZ7
 BAR2 EZ EP        143  0.86                             168    0.4310 29.4 196 
 BAR2 EZ ES        143 15.33                             168   -0.3910 29.4 196 
 BAR2 EZ I         143 18.62         2.4 0.41            166           29.4 196 
 RUS  HZ EP        143  4.93                             142    0.1110  106 178 
 RUS  HN ES        143 23.67                             142    0.1410  106 178 
 RUS  HZ I         143 24.82         1.4 0.44            144            106 178 
 PTB  HZ EP        143  7.69                             131   -0.44 9  153 257 
 PTB  HN ES        143 28.74                             131   -0.68 9  153 257 
 PTB  HZ I         143 31.94         2.6 0.28            131            153 257 
 SPBC HZ EP        143  9.23                             127   -0.62 9  170 219 
 SPBC HE ES        143 33.24                             127    0.76 9  170 219 
 SPBC HZ I         143 37.61         2.7 0.18            129            170 219 
 ZAR  HZ EP        143 13.48                             122    0.12 8  206 290 
 ZAR  HN ES        143 39.39                             122    0.67 8  206 290 
 ZAR  HZ I         143 44.53         4.4 0.28            123            206 290 
                                                                                
