 2013  712 0258 30.5 L   6.812 -73.164146.0  RSN 18 0.3 2.3LRSN                1
 GAP= 70        0.73       2.0     2.3  3.9 -0.3127E+00  0.2422E+01 -0.1720E+00E
 Epicentro: LOS SANTOS - SANTANDER                                             3
 ACTION:UPD 13-08-12 10:37 OP:ep   STATUS:               ID:20130712025830 L   I
 OLDACT:REG 13-07-12 09:22 OP:nd   STATUS:               ID:20130712025749     3
 2013-07-12-0257-49M.COL___218                                                 6
 STAT SP IPHASW D HRMM SECON CODA AMPLIT PERI AZIMU VELO AIN AR TRES W  DIS CAZ7
 BAR2 SZ IP     D  258 50.38                             170    0.1710 24.4 185 
 BAR2 SZ ES        259  5.42                             170   -0.1410 24.4 185 
 BAR2 SZ I         259  6.86        66.1 0.26            168           24.4 185 
 GIR2 SZ EP        258 50.39                             168    0.2010 29.7 354 
 GIR2 SZ I         259  7.29        29.9 0.10            168           29.7 354 
 BRR  HZ IP     C  258 52.09                             153    0.5210 68.8 298 
 BRR  HN ES   2    259  8.35                             153    0.36 5 68.8 298 
 BRR  HZ I         259 13.25        38.1 0.28            152           68.8 298 
 PAM  SZ IP     D  258 53.25                             151    0.4610 77.7  41 
 PAM  SN ES        259 10.17                             151    0.0110 77.7  41 
 PAM  SZ I         259 13.14        21.8 0.76            148           77.7  41 
 RUS  HZ EP        258 54.29                             143   -0.1210  102 175 
 RUS  HN ES        259 12.44                             143   -0.6010  102 175 
 RUS  HZ I         259 14.37        22.6 0.22            140            102 175 
 PTB  HZ EP        258 57.43                             132    0.07 9  146 258 
 PTB  HN ES   1    259 17.92                             132   -0.37 7  146 258 
 PTB  HZ I         259 20.67        22.2 0.14            130            146 258 
 TAM  HZ IP     C  258 58.70                             130    0.26 9  157 105 
 TAM  HZ I         259 19.53        11.7 0.42            127            157 105 
 TAM  HN ES        259 20.16                             130   -0.05 9  157 105 
 OCA  HZ EP        258 58.58                             130   -0.14 9  159 354 
 OCA  HN ES        259 20.56                             130   -0.14 9  159 354 
 OCA  HZ I         259 23.89        19.9 0.16            127            159 354 
 ZAR  HZ EP   2    259  1.80                             123   -0.95 4  202 292 
 ZAR  HE ES        259 28.00                             123    0.12 9  202 292 
 ZAR  HZ I         259 33.51        31.3 0.28            120            202 292 
 NOR  HZ EP        259  6.39                             118    0.21 8  234 234 
 NOR  HN ES        259 34.18                             118    0.19 8  234 234 
 NOR  HZ I         259 43.69        11.0 0.36            116            234 234 
 SML  HZ EP   2    259  7.07                             118    0.12 4  242 336 
 SML  HN ES   1    259 35.46                             118    0.10 6  242 336 
 SML  HZ I         259 38.69        29.0 0.26            115            242 336 
 CHI  HZ EP   4    259  8.62                             117    0.30 0  249 195 
 CHI  HN ES   4    259 37.83                             117    0.03 0  249 195 
 CHI  HZ I         259 41.30        12.7 0.62            114            249 195 
 HEL  HZ EP   4    259 12.39                             115    1.81 0  270 255 
 HEL  HN ES   4    259 42.48                             115    0.67 0  270 255 
 HEL  HZ I         259 48.73         9.4 0.38            113            270 255 
 GUY2CHZ EP   4    259 14.69                             112    0.64 0  300 234 
 GUY2CHN ES   4    259 47.65                             112   -0.34 0  300 234 
 GUY2CHZ I         259 56.52        13.7 0.34                           300 234 
 RREF HZ EP   4    259 17.69                             111    1.08 0  321 229 
 RREF HN ES   4    259 55.34                             111    2.80 0  321 229 
 RREF HZ I         259 57.47        12.2 0.26            109            321 229 
 COD  HZ EP        259 18.28                             109   -0.47 6  347 355 
 COD  HN ES        259 55.46                             109   -0.90 6  347 355 
 COD  HZ I         3 0  0.78         5.6 0.48            107            347 355 
 PRA  HZ EP        259 24.05                             106   -0.03 6  392 209 
 PRA  HN ES        3 0  5.66                             106   -0.18 6  392 209 
 PRA  HZ I         3 0 12.56        15.5 0.36            104            392 209 
 ORTC HZ EP        259 24.64                             106    0.20 6  395 216 
 ORTC HN ES   2    3 0  6.02                             106   -0.47 3  395 216 
 ORTC HZ I         3 0 11.71         6.7 0.28            104            395 216 
                                                                                
