 2012  612 0019 49.7 L   6.824 -73.169146.6  RSN  9 0.3 2.2LRSN                1
 GAP=243        0.50       3.5     3.4  4.7  0.4519E+01  0.6111E+01  0.3972E+01E
 Epicentro: LOS SANTOS - SANTANDER                                             3
 ACTION:UPD 12-08-06 17:48 OP:ep   STATUS:               ID:20120612001947 L   I
 2012-06-12-0020-00M.COL___201                                                 6
 STAT SP IPHASW D HRMM SECON CODA AMPLIT PERI AZIMU VELO AIN AR TRES W  DIS CAZ7
 BAR2 SZ EP   1    020  9.59                             170    0.11 7 25.7 183 
 BAR2 SZ ES   1    020 24.77                             170   -0.14 7 25.7 183 
 BAR2 SZ I         020 26.25        39.2 0.18            166           25.7 183 
 RUS  HZ EP   1    020 13.70                             143   -0.04 7  103 175 
 RUS  HE ES   1    020 32.68                             143    0.18 7  103 175 
 RUS  HZ I         020 33.40        23.1 0.29            145            103 175 
 PTB  HZ EP   1    020 16.10                             133   -0.46 7  146 258 
 PTB  HN ES   1    020 37.35                             133   -0.16 7  146 258 
 PTB  HZ I         020 44.32        10.9 0.13            131            146 258 
 ZAR  HN ES   1    020 47.27                             123    0.33 6  201 292 
 ZAR  HZ I         020 53.22        16.7 0.45            123            201 292 
 NOR  SZ EP   1    020 25.90                             119    0.47 6  234 234 
 NOR  SE ES   1    020 53.74                             119    0.45 6  234 234 
 CHI  HZ EP   2    020 27.75                             117    0.10 4  251 194 
 CHI  HE ES   1    020 57.14                             117   -0.12 6  251 194 
 CHI  HZ I         021  0.63        10.2 0.40            119            251 194 
 HEL  HZ EP   1    020 29.85                             115    0.09 6  270 255 
 HEL  HE ES   1    021  0.54                             115   -0.46 6  270 255 
 HEL  HZ I         021  7.76        11.2 0.25            116            270 255 
 VIL  SN ES   2    021  7.11                             112   -0.37 4  305 191 
 PRA  HZ EP   1    020 43.03                             107   -0.34 4  393 209 
 PRA  HE ES   1    021 25.40                             107    0.16 4  393 209 
                                                                                
