 2017  412 0033 29.1 L   6.676 -73.356147.6  RSN  5 0.3 1.4LRSN                1
 GAP=155        0.68       6.3     6.3  5.3  0.3022E+02 -0.4490E+01 -0.4770E+01E
 Epicentro: GALAN - SANTANDER                                                  3
 ACTION:UPD 17-05-30 21:11 OP:jn   STATUS:               ID:20170412003329 L   I
 OLDACT:UP  17-04-12 14:45 OP:edw  STATUS:               ID:20170412002742     3
 OLDACT:REG 17-04-12 12:47 OP:edw  STATUS:               ID:20170412002742     3
 2017-04-12-0028-00M.COL___368                                                 6
 STAT SP IPHASW D HRMM SECON CODA AMPLIT PERI AZIMU VELO AIN AR TRES W  DIS CAZ7
 BAR2 EZ EP        033 48.43                             171   -0.4910 21.3 116 
 BAR2 EZ ES        034  4.32                             171   -0.0610 21.3 116 
 BAR2 EZ I         034  4.48         6.5 0.52             47           21.3 116 
 BRR  HZ EP        033 50.09                             156    0.1310 61.8 321 
 BRR  HN ES        034  6.47                             156    0.2410 61.8 321 
 RUS  HZ EP        033 52.76                             147    0.3310 91.7 161 
 RUS  HN ES        034 10.57                             147   -0.0510 91.7 161 
 RUS  HZ I         034 12.36         2.2 0.20             47           91.7 161 
 PTB  HZ EP   9    033 54.30                             138    0.24 0  123 263 
 PTB  HN ES        034 13.55                             136   -0.2110  123 263 
 PTB  HZ I         034 15.47         5.5 0.10             47            123 263 
 ZAR  HZ EP   4    034  2.89                             125    2.75 0  189 299 
 ZAR  HN ES        034 24.22                             125   -0.12 9  189 299 
                                                                                
