 2010  112 0118 49.6 L   6.851 -72.904143.5  RSN  9 0.4 1.9LRSN                1
 GAP=207        0.96       4.3     9.6  8.4 -0.1115E+02  0.2742E+02 -0.3459E+00E
 Epicentro: GUACA - SANTANDER                                                  3
 ACTION:UP  10-08-24 09:43 OP:vdl  STATUS:               ID:20100112011849 L   I
 2010-01-12-0118-58S.COL___097                                                 6
 STAT SP IPHASW D HRMM SECON CODA AMPLIT PERI AZIMU VELO SNR AR TRES W  DIS CAZ7
 GIR2 SZ EP   1    119 10.24                             163     1.0 8   41 308 
 BAR2 SZ ES   1    119 24.61                             163    -0.4 8   42 227 
 RUS  BZ EP   1    119 13.61                             141     0.0 8  108 191 
 RUS  BN ES   1    119 32.36                             141     0.0 8  108 191 
 RUS  BZ I         119 33.57         5.1 0.50                           108 191 
 OCA  SZ IP        119 17.46                             129    -0.210  160 343 
 OCA  SZ ES   1    119 39.58                             129    -0.1 7  160 343 
 OCA  SZ I         119 43.22        21.4 0.27                           160 343 
 CHI  HZ EP   1    119 27.97                             115    -0.7 6  262 201 
 CHI  HZ I         119 30.32         2.8 0.54                           262 201 
 CHI  HE ES   1    119 59.44                             115     0.4 6  262 201 
 HEL  HN ES   1    120  6.12                             112    -0.3 6  299 256 
 HEL  HZ I         120  8.59         5.3 0.34                           299 256 
 RREF BZ IP        119 38.87                             109     0.5 7  346 232 
 RREF BE ES   1    120 16.90                             109     0.4 5  346 232 
 RREF BZ I         120 26.47         4.5 0.55                           346 232 
 TOL  SZ IP        119 39.91                             107    -0.5 7  367 227 
 PRA  HN ES   1    120 28.39                             105    -0.2 5  411 212 
 PRA  HZ I         120 31.74         3.6 0.50                           411 212 
                                                                                
