 2015  512 0228 53.2 L   6.821 -73.114137.1  RSN  9 0.4 2.1LRSN                1
 GAP=186        0.85       2.5     5.2  6.1  0.2817E+01  0.6538E+01  0.6757E+00E
 Epicentro: LOS SANTOS - SANTANDER                                             3
 ACTION:UPD 15-09-10 22:03 OP:cam  STATUS:               ID:20150512022853 L   I
 OLDACT:UP  15-05-12 16:12 OP:mh   STATUS:               ID:20150512022750     3
 OLDACT:REG 15-05-12 12:35 OP:mh   STATUS:               ID:20150512022750     3
 2015-05-12-0227-50M.COL___282                                                 6
 STAT SP IPHASW D HRMM SECON CODA AMPLIT PERI AZIMU VELO AIN AR TRES W  DIS CAZ7
 BRR  HZ EP        229 13.78                             150    0.2810 73.3 296 
 BRR  HN ES        229 29.57                             150    0.2010 73.3 296 
 BRR  HZ I         229 34.11        15.8 0.38            149           73.3 296 
 RUS  HZ EP        229 16.41                             141    0.1810  103 178 
 RUS  HN ES        229 34.34                             141    0.1110  103 178 
 RUS  HZ I         229 35.20        48.8 1.06            145            103 178 
 OCA  HN ES        229 41.65                             128   -0.41 9  158 352 
 OCA  HZ I         229 44.88        17.5 0.28            131            158 352 
 SPBC HZ EP        229 21.79                             126    0.38 9  167 219 
 SPBC HN ES   1    229 43.32                             126   -0.12 7  167 219 
 SPBC HZ I         229 48.96         9.9 0.22            129            167 219 
 ZAR  HZ EP        229 25.28                             120   -0.03 8  206 291 
 ZAR  HN ES        229 50.21                             120   -0.18 8  206 291 
 ZAR  HZ I         229 56.10         7.6 0.28            122            206 291 
 SML  HZ EP        229 28.67                             116   -0.58 8  243 334 
 SML  HE ES        229 57.61                             116    0.22 8  243 334 
 SML  HZ I         229 58.61        11.5 0.32            119            243 334 
 CHI  HN ES        229 59.10                             115   -0.97 8  252 196 
 HEL  HZ EP        229 33.68                             113    0.29 7  276 256 
 HEL  HN ES   1    230  4.50                             113   -0.28 6  276 256 
 GUY2CHZ EP        229 37.31                             110    0.44 7  305 235 
 GUY2CHN ES   4    230 14.00                             110    3.04 0  305 235 
 MON  HZ EP   4    229 38.25                             107   -3.74 0  355 308 
 MON  HN ES   4    230 17.62                             107   -2.46 0  355 308 
                                                                                
