 2012  812 0834 18.7 L   6.815 -73.155143.9  RSN  5 0.3 1.4LRSN                1
 GAP=135        0.59       4.2     5.1  6.8 -0.1962E+01  0.3699E+01  0.3545E+01E
 Epicentro: LOS SANTOS - SANTANDER                                             3
 ACTION:UPD 12-09-10 11:56 OP:ep   STATUS:               ID:20120812083418 L   I
 2012-08-12-0830-00M.COL___218                                                 6
 STAT SP IPHASW D HRMM SECON CODA AMPLIT PERI AZIMU VELO AIN AR TRES W  DIS CAZ7
 BAR2 SZ EP   1    834 38.10                             170   -0.07 7 24.8 187 
 BAR2 SZ I         834 38.56         5.9 0.13                          24.8 187 
 BRR  HZ EP   1    834 39.66                             153    0.07 7 69.5 298 
 BRR  HZ I         834 40.16         4.2 0.29                          69.5 298 
 BRR  HN ES   1    834 56.12                             153    0.27 7 69.5 298 
 PAM  SZ EP        834 40.99                             151    0.2710 76.8  41 
 PAM  SN ES   1    834 57.44                             151   -0.43 7 76.8  41 
 RUS  HZ EP   1    834 42.54                             143    0.11 7  102 176 
 RUS  HN ES   1    835  0.92                             143    0.01 7  102 176 
 PTB  HZ EP   1    834 45.00                             132   -0.49 7  147 258 
 PTB  HZ I         834 45.52         4.9 0.34                           147 258 
                                                                                
