 2013  512 0156 37.8 L   6.793 -73.178147.3  RSN  5 0.2 1.2LRSN                1
 GAP=133        0.55       3.5     3.8  5.3 -0.2391E+01  0.2133E+01 -0.1428E+01E
 Epicentro: LOS SANTOS - SANTANDER                                             3
 ACTION:UPD 13-06-20 09:49 OP:ep   STATUS:               ID:20130512015637 L   I
 2013-05-12-0150-00M.COL___256                                                 6
 STAT SP IPHASW D HRMM SECON CODA AMPLIT PERI AZIMU VELO AIN AR TRES W  DIS CAZ7
 BAR2 SZ EP   1    156 57.59                             171   -0.01 7 22.2 181 
 BAR2 SZ ES   1    157 13.48                             171    0.45 7 22.2 181 
 BAR2 SZ I         157 13.80         5.5 0.18            170           22.2 181 
 BRR  HN ES   2    157 15.62                             154    0.14 5 68.5 301 
 PAM  SZ EP        157  0.58                             150    0.2210 80.3  41 
 PAM  SN ES   1    157 17.53                             150   -0.42 7 80.3  41 
 PAM  SZ I         157 18.85         3.2 0.44            154           80.3  41 
 RUS  HZ EP        157  1.74                             144    0.0710  100 174 
 RUS  HN ES        157 20.09                             144   -0.2010  100 174 
 RUS  HZ I         157 21.90         1.4 0.18            146            100 174 
 PTB  HZ EP   1    157  4.39                             133   -0.18 7  144 259 
 PTB  HN ES   1    157 25.33                             133   -0.11 7  144 259 
 PTB  HZ I         157 31.36         2.8 0.16            132            144 259 
                                                                                
