 2013  412 0719  0.9 L   6.721 -73.173148.3  RSN  5 0.3 1.3LRSN                1
 GAP=177        0.76       5.2     5.7  6.4  0.7978E+01  0.1355E+02  0.4526E+01E
 Epicentro: VILLANUEVA - SANTANDER                                             3
 ACTION:UPD 13-05-22 14:37 OP:EP   STATUS:               ID:20130412071900 L   I
 2013-04-12-0708-40M.COL___212                                                 6
 STAT SP IPHASW D HRMM SECON CODA AMPLIT PERI AZIMU VELO AIN AR TRES W  DIS CAZ7
 BAR2 SZ EP        719 20.83                             174    0.1710 14.3 184 
 BAR2 SZ ES        719 36.20                             174    0.1010 14.3 184 
 BAR2 SZ I         719 37.22         4.6 0.16            171           14.3 184 
 GIR2 SZ ES        719 36.35                             164   -0.5210 39.6 357 
 BRR  HZ EP        719 22.43                             152    0.0210 73.3 306 
 BRR  HN ES        719 39.72                             152    0.5110 73.3 306 
 BRR  HN I         719 40.54         4.3 0.20            151           73.3 306 
 RUS  HN ES        719 42.57                             147    0.0210 92.1 174 
 PTB  HZ EP        719 27.53                             133   -0.12 9  143 262 
 PTB  HN ES        719 48.30                             133   -0.23 9  143 262 
 PTB  HN I         719 52.68         1.8 0.18            132            143 262 
                                                                                
