 2014 1112 0342  1.6 L   6.768 -73.137137.9  RSN 13 0.6 1.8LRSN                1
 GAP= 73        1.46       4.3     4.1  7.4 -0.3047E+01  0.6328E+01  0.4411E+01E
 Epicentro: LOS SANTOS - SANTANDER                                             3
 ACTION:UPD 14-12-19 15:42 OP:nd   STATUS:               ID:20141112034201 L   I
 OLDACT:DUP 14-11-12 15:42 OP:stll STATUS:               ID:20141112033748d    3
 2014-11-12-0337-47M.COL___289                                                 6
 STAT SP IPHASW D HRMM SECON CODA AMPLIT PERI AZIMU VELO AIN AR TRES W  DIS CAZ7
 BAR2 SZ EP        342 20.54                             171    0.3010 20.1 195 
 BAR2 SZ ES        342 35.14                             171    0.3810 20.1 195 
 BAR2 SZ I         342 36.77        18.7 0.16            170           20.1 195 
 BRR  HZ IP     C  342 22.40                             150    0.3210 73.8 301 
 BRR  HZ I         342 22.56        15.0 0.26            150           73.8 301 
 BRR  HN ES        342 38.78                             150    0.7510 73.8 301 
 PAM  SZ EP     C  342 23.29                             149    0.1510 79.5  37 
 PAM  SN ES        342 40.18                             149    0.2610 79.5  37 
 PAM  SZ I         342 42.41        21.7 0.56            152           79.5  37 
 RUS  HZ EP        342 24.46                             143    0.1210 97.0 176 
 RUS  HN ES        342 42.26                             143    0.2010 97.0 176 
 RUS  HZ I         342 43.96         5.2 0.34            144           97.0 176 
 PTB  HZ EP        342 27.47                             130   -0.52 9  148 260 
 PTB  HN ES        342 47.84                             130   -0.71 9  148 260 
 PTB  HZ I         342 52.72         6.9 0.12            130            148 260 
 TAM  HZ EP        342 28.84                             129    0.33 9  153 104 
 TAM  HZ I         342 29.03        13.3 0.38            132            153 104 
 TAM  HN ES        342 47.84                             129   -1.64 9  153 104 
 SPBC HZ EP   1    342 29.80                             128    0.48 7  161 220 
 SPBC HE ES        342 50.44                             128   -0.49 9  161 220 
 SPBC HZ I         342 58.48         9.5 0.54            128            161 220 
 OCA  HZ EP        342 28.82                             127   -0.86 9  164 353 
 OCA  HN ES        342 51.58                             127    0.02 9  164 353 
 OCA  HZ I         342 57.64        12.2 0.42            129            164 353 
 NOR  HZ EP        342 37.06                             117    0.29 8  233 235 
 NOR  HN ES        343  3.72                             117   -0.47 8  233 235 
 NOR  HZ I         343  6.11         6.1 0.18            118            233 235 
 CHI  HZ EP        342 39.28                             116    0.73 8  246 196 
 CHI  HN ES        343  7.84                             116    0.48 8  246 196 
 CHI  HZ I         343 15.32         3.2 0.58            117            246 196 
 HEL  HZ EP        342 42.33                             113    0.87 8  272 257 
 HEL  HE ES        343 11.52                             113   -1.01 8  272 257 
 HEL  HZ I         343 20.80         4.1 0.62            114            272 257 
 CBOC HZ EP        342 48.76                             108    0.55 7  333 253 
 CBOC HN ES        343 24.04                             108   -0.50 7  333 253 
 CBOC HZ I         343 31.32         1.1 0.30            109            333 253 
 MON  HZ EP   9    342 48.11                             107   -2.56 0  357 309 
 MON  HN ES        343 25.91                                   -0.46 6  357 309 
 MON  HZ I         343 27.36         2.4 0.20            108            357 309 
                                                                                
