 2013  412 0812 47.0 L   6.731 -73.170145.6  RSN  5 0.3 1.5LRSN                1
 GAP=229        0.74       5.4     5.5  5.3  0.1493E+02  0.4806E+01  0.6370E+01E
 Epicentro: VILLANUEVA - SANTANDER                                             3
 ACTION:UPD 13-05-22 14:37 OP:EP   STATUS:               ID:20130412081247 L   I
 2013-04-12-0808-36M.COL___212                                                 6
 STAT SP IPHASW D HRMM SECON CODA AMPLIT PERI AZIMU VELO AIN AR TRES W  DIS CAZ7
 BAR2 SZ EP        813  6.13                             174   -0.3610 15.4 185 
 BAR2 SZ ES        813 21.38                             174   -0.3010 15.4 185 
 BRR  HZ EP        813  8.17                             152   -0.0710 72.9 305 
 BRR  HN ES        813 25.27                             152    0.4710 72.9 305 
 RUS  HZ EP        813 10.61                             146    0.3910 93.2 174 
 RUS  HN ES        813 28.41                             146    0.0810 93.2 174 
 RUS  HN I         813 29.53         4.9 0.26            145           93.2 174 
 PTB  HZ EP        813 13.44                             133   -0.16 9  144 262 
 PTB  HN ES        813 34.20                             133   -0.15 9  144 262 
 PTB  HN I         813 37.77         5.3 0.18            131            144 262 
 CHI  HZ EP        813 23.92                             118    0.10 8  241 195 
                                                                                
