 2010 1112 0606 22.0 L   6.778 -73.102144.0  RSN  8 0.5 1.7LRSN                1
 GAP=164        0.97       5.2     6.7  7.3 -0.6124E+01  0.4869E+01  0.3021E+01E
 Epicentro: LOS SANTOS - SANTANDER                                             3
 ACTION:UP  10-12-17 16:51 OP:REBC STATUS:               ID:20101112060622 L   I
 2010-11-12-0601-46S.COL___128                                                 6
 STAT SP IPHASW D HRMM SECON CODA AMPLIT PERI AZIMU VELO SNR AR TRES W  DIS CAZ7
 BAR2 SZ EP   1    6 6 41.21                             171    -0.2 7   23 204 
 BAR2 SZ ES   1    6 6 56.06                             171    -0.5 7   23 204 
 BAR2 SZ I         6 6 57.19        26.8 0.75                            23 204 
 BTL  SZ EP        6 6 41.77                             170     0.410   24 310 
 BRR  HZ EP        6 6 43.08                             150    -0.210   77 298 
 BRR  HN ES        6 7  0.09                             150     0.210   77 298 
 BRR  HZ I         6 7  2.49        12.4 0.10                            77 298 
 RUS  HZ EP        6 6 45.37                             144     0.010   98 179 
 RUS  HN ES   1    6 7  3.91                             144     0.3 7   98 179 
 RUS  HZ I         6 7  5.31         4.4 0.06                            98 179 
 GRA  SZ EP        6 6 47.06                             136    -0.110  127  15 
 GRA  SZ ES   2    6 7  6.80                             136     0.0 5  127  15 
 GRA  SZ I         6 7  8.98         5.7 0.36                           127  15 
 NOR  SZ EP   1    6 6 56.80                             118    -1.1 6  237 236 
 NOR  SE ES   2    6 7 25.03                             118    -0.9 4  237 236 
 HEL  HZ EP   1    6 7  2.78                             114     0.2 6  276 257 
 HEL  HE ES   2    6 7 33.96                             114    -0.3 4  276 257 
 HEL  HZ I         6 7 40.25         3.1 0.58                           276 257 
 RREF HZ EP   1    6 7  8.96                             110     0.7 5  324 230 
 RREF HN ES   2    6 7 45.87                             110     1.5 3  324 230 
 RREF HZ I         6 7 53.63         2.7 0.54                           324 230 
                                                                                
