 2011  412 0924 44.3 L   6.758 -73.122142.0  RSN  7 0.4 2.0LRSN                1
 GAP=160        0.92       5.5     8.5  8.0 -0.2160E+02 -0.1027E+01  0.6951E+01E
 Epicentro: LOS SANTOS - SANTANDER                                             3
 ACTION:UP  11-06-22 15:30 OP:REBC STATUS:               ID:20110412092444 L   I
 2011-04-12-0923-09S.COL___138                                                 6
 STAT SP IPHASW D HRMM SECON CODA AMPLIT PERI AZIMU VELO SNR AR TRES W  DIS CAZ7
 BAR2 SZ EP   1    925  3.49                             172     0.1 7   20 200 
 BAR2 SZ ES   1    925 18.00                             172    -0.3 7   20 200 
 BAR2 SZ I         925 19.58        30.5 0.33                            20 200 
 BRR  HZ EP   1    925  5.25                             150     0.0 7   76 301 
 BRR  HN ES   1    925 21.98                             150     0.3 7   76 301 
 BRR  HZ I         925 22.92        30.0 0.09                            76 301 
 PAM  SZ EP   1    925  6.37                             149     0.2 7   79  36 
 PAM  SN ES   1    925 23.13                             149    -0.2 7   79  36 
 GRA  SZ EP   1    925 10.19                             135     0.7 7  129  16 
 GRA  SZ ES   1    925 29.47                             135     0.3 7  129  16 
 GRA  SZ I         925 30.61         9.2 0.37                           129  16 
 OCA  SZ EP   1    925 11.78                             128    -1.0 7  165 352 
 OCA  SZ ES   2    925 34.39                             128    -0.6 5  165 352 
 OCA  SZ I         925 36.62        14.5 0.13                           165 352 
 NOR  SN ES   2    925 47.74                             118     0.3 4  234 236 
 CHI  HZ EP   1    925 21.59                             117     0.2 6  245 196 
 CHI  HE ES   2    925 49.63                             117    -0.7 4  245 196 
 CHI  HZ I         926  0.29         3.6 0.50                           245 196 
                                                                                
