 2016  912 0736  3.9 L   6.848 -72.937146.4  RSN  4 0.2 1.0LRSN                1
 GAP=260        0.45       5.2     6.0  3.9  0.2614E+02 -0.5475E+01 -0.7322E+01E
 Epicentro: GUACA - SANTANDER                                                  3
 ACTION:UPD 17-08-17 21:09 OP:lp   STATUS:               ID:20160912073603 L   I
 OLDACT:DUP 16-09-12 20:48 OP:lv   STATUS:               ID:20160912072746d    3
 2016-09-12-0728-00M.COL___300                                                 6
 STAT SP IPHASW D HRMM SECON CODA AMPLIT PERI AZIMU VELO AIN AR TRES W  DIS CAZ7
 BAR2 EZ EP        736 24.35                             164    0.2810 39.2 224 
 BAR2 EZ ES        736 39.78                             164    0.0110 39.2 224 
 BAR2 EZ I         736 40.86         1.7 0.06            158           39.2 224 
 BRR  HZ EP        736 26.10                             147   -0.2410 90.3 289 
 BRR  HN ES        736 43.78                             147   -0.0410 90.3 289 
 BRR  HZ I         736 45.65         2.5 0.29            143           90.3 289 
 RUS  HZ EP        736 28.25                             142    0.0410  107 189 
 RUS  HN ES        736 47.06                             142   -0.0910  107 189 
 RUS  HZ I         736 48.74         0.9 0.34            140            107 189 
 ZAR  HZ EP        736 38.40                             120   -0.09 8  224 289 
 ZAR  HN ES        737  5.60                             120    0.15 8  224 289 
 ZAR  HZ I         737  8.84         1.3 0.26            119            224 289 
                                                                                
