 2017  512 0321 21.6 L   6.748 -73.154145.2  RSN  4 0.2 1.1LRSN                1
 GAP=232        0.45       3.6     3.7  4.1  0.9226E+01 -0.8358E+00 -0.2763E+01E
 Epicentro: LOS SANTOS - SANTANDER                                             3
 ACTION:UPD 17-06-16 13:35 OP:jn   STATUS:               ID:20170512032121 L   I
 OLDACT:REG 17-05-12 12:46 OP:osc  STATUS:               ID:20170512031742     3
 2017-05-12-0318-00M.COL___362                                                 6
 STAT SP IPHASW D HRMM SECON CODA AMPLIT PERI AZIMU VELO AIN AR TRES W  DIS CAZ7
 BRR  HZ EP        321 42.69                             152   -0.1410 73.3 303 
 BRR  HE ES        321 59.53                             152    0.1510 73.3 303 
 RUS  HZ EP        321 44.91                             145   -0.0010 94.9 175 
 RUS  HN ES        322  3.00                             145   -0.0810 94.9 175 
 RUS  HZ I         322  3.73         2.4 0.26            144           94.9 175 
 PTB  HZ EP        321 48.69                             132    0.32 9  146 261 
 PTB  HN ES        322  9.17                             132   -0.06 9  146 261 
 PTB  HZ I         322 11.26         1.6 0.22            131            146 261 
 ZAR  HZ EP        321 54.11                             122   -0.06 8  205 294 
 ZAR  HN ES        322 19.40                             122   -0.16 8  205 294 
                                                                                
