 2011  512 0906  1.1 L   6.824 -73.082137.3  RSN  4 0.3 1.0LRSN                1
 GAP=165        0.61       6.4    11.8  9.2  0.4188E+02 -0.4835E+02 -0.2419E+02E
 Epicentro: LOS SANTOS - SANTANDER                                             3
 ACTION:UP  11-06-29 08:52 OP:tino STATUS:               ID:20110512090601 L   I
 2011-05-12-0901-49S.COL___129                                                 6
 STAT SP IPHASW D HRMM SECON CODA AMPLIT PERI AZIMU VELO SNR AR TRES W  DIS CAZ7
 BTL  SZ EP   1    9 6 19.79                             170     0.1 7   23 297 
 BTL  SZ ES   1    9 6 33.90                             170    -0.3 7   23 297 
 BRR  HZ EP   1    9 6 21.24                             149    -0.4 7   76 294 
 BRR  HE ES   1    9 6 37.94                             149     0.3 7   76 294 
 BRR  HZ I         9 6 42.52         3.4 0.23                            76 294 
 RUS  HN ES   1    9 6 42.29                             141     0.1 7  103 180 
 RUS  HZ I         9 6 43.73         1.1 0.32                           103 180 
 GRA  SZ EP   2    9 6 25.49                             136     0.3 5  121  15 
                                                                                
