 2016 1012 0837 22.4 L   6.801 -73.147143.3  RSN 11 0.4 1.9LRSN                1
 GAP=136        0.93       3.1     3.8  5.1 -0.1514E+00  0.4864E+01  0.3919E+01E
 Epicentro: LOS SANTOS - SANTANDER                                             3
 ACTION:UPD 16-11-09 19:18 OP:rebc STATUS:               ID:20161012083722 L   I
 OLDACT:REG 16-10-12 14:42 OP:ar   STATUS:               ID:20161012082742     3
 2016-10-12-0828-00M.COL___366                                                 6
 STAT SP IPHASW D HRMM SECON CODA AMPLIT PERI AZIMU VELO AIN AR TRES W  DIS CAZ7
 BAR2 EZ EP        837 41.76                             170   -0.0010 23.4 190 
 BAR2 EZ ES        837 56.76                             170   -0.0910 23.4 190 
 BAR2 EZ I         837 58.36        22.3 0.15            169           23.4 190 
 BRR  HZ IP     C  837 43.49                             152    0.1910 71.0 299 
 BRR  HN ES        838  0.17                             152    0.5910 71.0 299 
 BRR  HZ I         838  1.10        11.6 0.12            152           71.0 299 
 PAM  EZ EP        837 44.61                             150    0.2310 77.4  40 
 PAM  EN ES        838  1.23                             150   -0.2810 77.4  40 
 PAM  EZ I         838  3.80         7.8 0.54            154           77.4  40 
 RUS  HZ EP        837 45.71                             143   -0.2310  101 176 
 RUS  HE ES        838  4.39                             143    0.1010  101 176 
 RUS  HZ I         838  5.76         5.3 0.26            144            101 176 
 PTB  HZ EP        837 48.55                             131   -0.63 9  148 259 
 PTB  HN ES        838  9.36                             131   -0.69 9  148 259 
 PTB  HZ I         838 12.04         6.4 0.14            132            148 259 
 SPBC HZ EP        837 50.63                             128   -0.10 9  163 219 
 SPBC HE ES        838 13.02                             128    0.21 9  163 219 
 SPBC HZ I         838 17.09        11.7 0.08            129            163 219 
 ZAR  HZ EP        837 54.82                             122    0.13 9  204 292 
 ZAR  HN ES        838 20.00                             122    0.14 9  204 292 
 ZAR  HZ I         838 24.95         7.9 0.13            123            204 292 
 CHI  HZ EP        838  0.10                             117    0.11 8  249 195 
 CHI  HN ES        838 29.44                             117    0.15 8  249 195 
 CHI  HZ I         838 33.03         3.9 0.37            118            249 195 
 ROSC BZ EP        837 59.78                             116   -0.63 8  253 211 
 ROSC BN ES        838 30.29                             116    0.25 8  253 211 
 ROSC BZ I         838 36.19        10.3 0.40            117            253 211 
 GUY2CHZ EP        838  6.76                             112    0.85 7  301 235 
 GUY2CHE ES   4    838 44.02                             112    4.19 0  301 235 
 GUY2CHZ I         838 58.58        10.4 0.22                           301 235 
 SJC  HZ EP   9    838 15.90                             105   -1.99 0  409 327 
 SJC  HN ES        838 58.33                                   -0.83 6  409 327 
                                                                                
