 2011  212 0240 30.1 L   6.828 -73.202140.1  RSN  5 0.2 1.6LRSN                1
 GAP=152        0.50       4.9    19.0  7.1 -0.6916E+02  0.4446E+02 -0.6355E+01E
 Epicentro: ZAPATOCA - SANTANDER                                               3
 ACTION:UP  11-03-28 15:07 OP:jfem STATUS:               ID:20110212024030 L   I
 2011-02-12-0236-57S.COL___136                                                 6
 STAT SP IPHASW D HRMM SECON CODA AMPLIT PERI AZIMU VELO SNR AR TRES W  DIS CAZ7
 BTL  SZ EP   1    240 49.06                             174     0.2 7   12 324 
 BAR2 SZ EP   1    240 49.10                             169     0.0 7   26 175 
 BAR2 SZ ES   2    241  3.50                             169    -0.4 5   26 175 
 BAR2 SZ I         241  4.99        17.2 0.34                            26 175 
 RUS  HZ EP   1    240 53.45                             142    -0.1 7  104 173 
 RUS  HE ES   2    241 12.05                             142     0.2 5  104 173 
 RUS  HZ I         241 12.80         5.3 0.19                           104 173 
 GRA  SZ EP   1    240 54.84                             136     0.1 7  125  21 
 GRA  SZ ES   2    241 13.80                             136    -0.2 5  125  21 
 GRA  SZ I         241 15.44         6.2 0.41                           125  21 
 CHI  HZ EP   1    241  7.20                             116    -0.4 6  250 194 
 CHI  HN ES   2    241 37.23                             116     0.4 4  250 194 
 CHI  HZ I         241 47.40         2.1 0.48                           250 194 
                                                                                
