 2016  512 0325 51.9 L   6.800 -73.137145.5  RSN  9 0.4 1.7LRSN                1
 GAP=138        0.92       2.9     3.9  5.2 -0.1522E+01  0.4602E+01  0.6772E+00E
 Epicentro: LOS SANTOS - SANTANDER                                             3
 ACTION:UPD 16-08-18 17:45 OP:cam  STATUS:               ID:20160512032551 L   I
 OLDACT:REG 16-05-12 12:14 OP:drio STATUS:               ID:20160512031744     3
 2016-05-12-0317-44M.COL___307                                                 6
 STAT SP IPHASW D HRMM SECON CODA AMPLIT PERI AZIMU VELO AIN AR TRES W  DIS CAZ7
 BAR2 EZ EP        326 11.42                             170   -0.1010 23.5 192 
 BAR2 EZ ES        326 26.30                             170   -0.5110 23.5 192 
 BAR2 EZ I         326 27.28        10.9 0.32            168           23.5 192 
 BRR  HZ EP        326 13.27                             152    0.1810 72.1 298 
 BRR  HE ES        326 30.36                             152    0.7610 72.1 298 
 BRR  HZ I         326 33.17        10.4 0.30            151           72.1 298 
 PAM  EZ EP        326 14.43                             151    0.3610 76.8  39 
 PAM  EN ES        326 31.33                             151   -0.0210 76.8  39 
 PAM  EZ I         326 33.41        14.2 0.56            155           76.8  39 
 RUS  HZ EP        326 15.36                             144   -0.2710  100 177 
 RUS  HE ES        326 34.44                             144    0.3110  100 177 
 RUS  HZ I         326 34.88         3.6 0.24            144            100 177 
 PTB  HZ EP        326 18.80                             132   -0.15 9  149 259 
 PTB  HE ES        326 39.24                             132   -0.80 9  149 259 
 PTB  HZ I         326 40.98         4.5 0.48            131            149 259 
 OCA  HZ EP        326 20.00                             130   -0.22 9  160 353 
 OCA  HN ES        326 41.97                             130   -0.33 9  160 353 
 SPBC HZ EP        326 20.40                             129   -0.05 9  164 219 
 SPBC HN ES        326 42.96                             129    0.25 9  164 219 
 SPBC HZ I         326 51.69         4.5 0.10            129            164 219 
 ZAR  HZ EP        326 24.65                             122    0.21 9  205 292 
 ZAR  HN ES        326 50.06                             122    0.25 9  205 292 
 ZAR  HZ I         326 56.10         6.8 0.46            122            205 292 
 PRA  HZ EP        326 45.70                             106    0.22 6  392 210 
 PRA  HE ES        327 27.32                             106    0.06 6  392 210 
 PRA  HZ I         327 34.17         1.2 0.52            107            392 210 
                                                                                
