 2016  412 0552 20.8 L   6.791 -73.168133.1  RSN  8 0.3 1.5LRSN                1
 GAP=134        0.73       3.6     3.7  5.3 -0.4969E+01  0.6646E+01 -0.2061E+00E
 Epicentro: LOS SANTOS - SANTANDER                                             3
 ACTION:UPD 16-05-05 14:20 OP:rebc STATUS:               ID:20160412055220 L   I
 OLDACT:UP  16-04-12 17:31 OP:mh   STATUS:               ID:20160412054745d    3
 OLDACT:UP  16-04-12 17:30 OP:mh   STATUS:               ID:20160412054745d    3
 OLDACT:DUP 16-04-12 17:27 OP:mh   STATUS:               ID:20160412054745d    3
 OLDACT:REG 16-04-12 12:36 OP:mh   STATUS:               ID:20160412054744     3
 2016-04-12-0547-44M.COL___313                                                 6
 STAT SP IPHASW D HRMM SECON CODA AMPLIT PERI AZIMU VELO AIN AR TRES W  DIS CAZ7
 BAR2 EZ EP        552 38.87                             170    0.0110 22.1 184 
 BAR2 EZ ES        552 52.85                             170   -0.1110 22.1 184 
 BAR2 EZ I         552 54.59         5.8 0.16            169           22.1 184 
 PAM  EZ EP        552 41.63                             147   -0.1810 79.7  40 
 PAM  EN ES        552 58.42                             147    0.2010 79.7  40 
 PAM  EZ I         553  0.64         9.4 0.46            151           79.7  40 
 RUS  HZ EP        552 43.05                             141   -0.1910 99.8 175 
 RUS  HN ES        553  0.90                             141    0.1310 99.8 175 
 RUS  HZ I         553  2.29         4.3 0.28            143           99.8 175 
 PTB  HZ EP   1    552 46.51                             129    0.02 7  145 259 
 PTB  HN ES        553  6.02                             129   -0.53 9  145 259 
 PTB  HZ I         553  8.89         2.6 0.56            132            145 259 
 SPBC HZ EP        552 47.99                             126   -0.11 9  161 219 
 SPBC HN ES        553  9.72                             126    0.29 9  161 219 
 SPBC HZ I         553 12.71         5.5 0.20            128            161 219 
 ZAR  HN ES   2    553 17.95                             120    1.20 4  202 293 
 GUY2CHZ EP        553  3.97                             110    0.44 7  299 235 
 GUY2CHN ES   4    553 39.37                             110    2.49 0  299 235 
 GUY2CHZ I         553 45.37         1.4 0.36                           299 235 
 SJC  HZ EP   4    553 14.13                             103   -1.75 0  409 327 
 SJC  HN ES   4    553 54.96                             103   -3.91 0  409 327 
 SJC  HZ I         553 55.15         1.3 0.33            106            409 327 
                                                                                
