 2010 1012 0141  7.8 L   6.788 -73.055142.0  RSN  7 0.3 1.9LRSN                1
 GAP=190        0.71       5.6    10.9 10.6 -0.3446E+02 -0.6128E+02  0.3346E+02E
 Epicentro: LOS SANTOS - SANTANDER                                             3
 ACTION:UP  11-02-18 11:09 OP:tino STATUS:               ID:20101012014107 L   I
 2010-10-12-0139-00S.COL___121                                                 6
 STAT SP IPHASW D HRMM SECON CODA AMPLIT PERI AZIMU VELO SNR AR TRES W  DIS CAZ7
 BAR2 SZ EP   1    141 27.47                             169     0.5 7   26 213 
 BAR2 SZ I         141 43.94        22.2 0.22                            26 213 
 BRR  HZ EP        141 29.29                             149     0.210   81 296 
 BRR  HN ES   1    141 45.57                             149    -0.2 7   81 296 
 BRR  HZ I         141 50.11        17.8 0.14                            81 296 
 GUE  SZ EP        141 31.76                             139    -0.410  116   7 
 OCA  SZ EP   1    141 36.30                             128     0.2 7  163 350 
 OCA  SZ I         142  2.82        16.2 0.46                           163 350 
 NOR  SZ EP   1    141 43.92                             117    -0.2 6  242 236 
 NOR  SZ I         142 16.83         1.0 0.21                           242 236 
 CHI  HZ EP   1    141 45.58                             116     0.1 6  250 197 
 CHI  HN ES   2    142 14.20                             116    -0.6 4  250 197 
 CHI  HZ I         142 18.28         3.5 0.25                           250 197 
 PRA  HZ EP   1    142  1.40                             106    -0.2 4  396 211 
 PRA  HZ I         142  2.89        11.0 0.10                           396 211 
 PRA  HN ES   2    142 43.81                             106     0.2 3  396 211 
                                                                                
