 2015  512 0228 53.6 L   6.765 -73.144139.8  RSN  4 0.3 2.0LRSN                1
 GAP=235        0.86       5.3     8.2  7.1  0.1278E+02  0.1028E+02  0.7970E+01E
 Epicentro: LOS SANTOS - SANTANDER                                             3
 ACTION:UPD 15-09-10 22:03 OP:cam  STATUS:               ID:20150512022854dL   I
 OLDACT:REG 15-05-12 20:42 OP:drio STATUS:               ID:20150512021748     3
 2015-05-12-0217-48M.COL___279                                                 6
 STAT SP IPHASW D HRMM SECON CODA AMPLIT PERI AZIMU VELO AIN AR TRES W  DIS CAZ7
 BAR2 EZ ES        229 26.74                             172   -0.3710 19.6 192 
 BAR2 EZ I         229 30.16         8.2 0.22            166           19.6 192 
 BRR  HZ EP        229 13.86                             151   -0.3410 73.2 301 
 BRR  HN ES        229 30.71                             151    0.4210 73.2 301 
 BRR  HZ I         229 34.30        15.8 0.38            148           73.2 301 
 RUS  HZ EP        229 16.44                             144   -0.0310 96.8 176 
 RUS  HN ES        229 34.64                             144    0.3210 96.8 176 
 RUS  HZ I         229 35.40        48.8 1.06            145           96.8 176 
 SPBC HZ EP        229 21.69                             128    0.34 9  160 220 
 SPBC HN ES        229 42.67                             128   -0.34 9  160 220 
 SPBC HZ I         229 48.76         9.9 0.22            128            160 220 
                                                                                
