 2017  412 0834 43.5 L   6.807 -73.155145.1  RSN  6 0.4 1.4LRSN                1
 GAP=135        0.99       4.7     4.9  6.8 -0.5733E+01  0.4555E+01  0.3602E+01E
 Epicentro: LOS SANTOS - SANTANDER                                             3
 ACTION:UPD 17-05-30 21:11 OP:jn   STATUS:               ID:20170412083443 L   I
 OLDACT:UP  17-04-12 19:18 OP:edw  STATUS:               ID:20170412082333d    3
 OLDACT:DUP 17-04-12 19:15 OP:edw  STATUS:               ID:20170412082333d    3
 2017-04-12-0828-00M.COL___368                                                 6
 STAT SP IPHASW D HRMM SECON CODA AMPLIT PERI AZIMU VELO AIN AR TRES W  DIS CAZ7
 BAR2 EZ EP        835  2.86                             170   -0.1610 24.0 187 
 BAR2 EZ ES        835 17.95                             170   -0.3310 24.0 187 
 BAR2 EZ I         835 18.91         9.6 0.42            170           24.0 187 
 BRR  HZ EP        835  4.77                             153    0.3110 69.9 298 
 BRR  HN ES        835 21.07                             153    0.2310 69.9 298 
 PAM  EZ IP     D  835  5.91                             151    0.3110 77.4  41 
 PAM  EN ES        835 22.96                             151    0.0810 77.4  41 
 PAM  EZ I         835 26.11         2.8 0.48            152           77.4  41 
 RUS  HZ EP        835  6.80                             143   -0.4010  101 175 
 RUS  HN ES        835 25.67                             143   -0.0610  101 175 
 RUS  HZ I         835 26.98         3.2 0.28            144            101 175 
 PTB  HZ EP        835  9.80                             132   -0.49 9  147 258 
 PTB  HN ES        835 30.71                             132   -0.51 9  147 258 
 PTB  HZ I         835 32.93         2.5 0.20            133            147 258 
 SPBC HZ EP        835 12.11                             129    0.21 9  163 219 
 SPBC HN ES        835 34.93                             129    0.85 9  163 219 
 SPBC HZ I         835 38.26         4.8 0.22            130            163 219 
                                                                                
