 2012  912 0501 32.8 L   6.760 -73.084140.0  RSN  7 0.3 1.9LRSN                1
 GAP=146        0.54       4.1     3.6  5.3  0.1788E+01  0.4988E+01  0.7373E+01E
 Epicentro: LOS SANTOS - SANTANDER                                             3
 ACTION:UPD 12-10-22 14:18 OP:ep   STATUS:               ID:20120912050132 L   I
 2012-09-12-0500-00M.COL___227                                                 6
 STAT SP IPHASW D HRMM SECON CODA AMPLIT PERI AZIMU VELO AIN AR TRES W  DIS CAZ7
 BAR2 SZ EP        5 1 51.80                             171    0.1210 21.5 210 
 BAR2 SZ ES   2    5 2  5.95                             171   -0.48 5 21.5 210 
 BAR2 SZ I         5 2  7.88        32.6 0.18                          21.5 210 
 GIR2 SZ EP        5 1 51.94                             165   -0.0110 37.2 341 
 PAM  SZ EP   2    5 1 54.78                             150    0.42 5 76.9  34 
 PAM  SZ I         5 1 55.03        18.2 0.23                          76.9  34 
 PAM  SN ES        5 2 11.07                             150   -0.1210 76.9  34 
 BRR  HZ EP        5 1 53.69                             149   -0.1110 79.3 299 
 BRR  HN ES        5 2 10.57                             149    0.3710 79.3 299 
 BRR  HZ I         5 2 13.14        19.6 0.14                          79.3 299 
 RUS  HZ EP   2    5 1 55.28                             144   -0.35 5 95.9 180 
 RUS  HN ES   2    5 2 13.65                             144    0.20 5 95.9 180 
 RUS  HZ I         5 2 15.27         7.2 0.22                          95.9 180 
 ZAR  HZ EP   2    5 2  5.79                             120    0.09 4  212 293 
 ZAR  HN ES   1    5 2 30.87                             120   -0.49 6  212 293 
 ZAR  HZ I         5 2 36.53         6.7 0.40                           212 293 
 PRA  HZ EP   1    5 2 26.02                             106   -0.04 4  392 211 
                                                                                
