 2013  212 0450 52.4 L   6.766 -73.138150.3  RSN  7 0.4 1.6LRSN                1
 GAP=236        0.81       5.3     5.5  7.1  0.1257E+02  0.6770E+01  0.9528E+01E
 Epicentro: LOS SANTOS - SANTANDER                                             3
 ACTION:UPD 13-03-12 09:32 OP:ep   STATUS:               ID:20130212045052 L   I
 2013-02-12-0450-00M.COL___240                                                 6
 STAT SP IPHASW D HRMM SECON CODA AMPLIT PERI AZIMU VELO AIN AR TRES W  DIS CAZ7
 BAR2 SZ EP        451 12.18                             172   -0.3510 19.8 194 
 BAR2 SZ ES   1    451 28.55                             172    0.33 7 19.8 194 
 BAR2 SZ I         451 30.23        11.5 0.36            164           19.8 194 
 BRR  HZ EP     D  451 14.27                             152    0.0610 73.8 301 
 BRR  HN ES   1    451 31.58                             152    0.38 7 73.8 301 
 BRR  HZ I         451 33.96         5.2 0.18            149           73.8 301 
 RUS  HZ EP        451 16.51                             146    0.1510 96.8 176 
 RUS  HN ES   1    451 34.80                             146   -0.23 7 96.8 176 
 RUS  HZ I         451 37.73         2.7 0.40            144           96.8 176 
 PTB  HZ EP   1    451 19.26                             133   -0.52 7  148 260 
 PTB  HN ES   1    451 40.27                             133   -0.85 7  148 260 
 PTB  HZ I         451 46.16         7.7 0.40            130            148 260 
 ZAR  HN ES   1    451 51.32                             123    0.20 6  206 293 
 ZAR  HZ I         451 57.17         5.0 0.32            123            206 293 
 CHI  HZ EP        451 30.36                             118    0.35 8  245 196 
 CHI  HN ES   1    451 59.42                             118    0.09 6  245 196 
 CHI  HZ I         452  5.51         1.7 0.22            118            245 196 
 HEL  HN ES   1    452  5.07                             116    0.66 6  272 257 
 HEL  HZ I         452 10.38         2.1 0.28            115            272 257 
                                                                                
