 2013 1212 0551 42.2 L   6.845 -73.155139.4  RSN  7 0.5 1.7LRSN                1
 GAP=193        1.00       3.7     6.6  8.3 -0.5106E+01  0.1439E+02 -0.7517E+01E
 Epicentro: LOS SANTOS - SANTANDER                                             3
 ACTION:UPD 14-01-13 10:17 OP:ep   STATUS:               ID:20131212055142 L   I
 OLDACT:REG 13-12-12 07:07 OP:jn   STATUS:               ID:20131212055000     3
 2013-12-12-0550-00M.COL___285                                                 6
 STAT SP IPHASW D HRMM SECON CODA AMPLIT PERI AZIMU VELO AIN AR TRES W  DIS CAZ7
 BAR2 SZ EP        552  1.46                             168    0.2510 28.1 186 
 BAR2 SZ ES        552 15.64                             168   -0.3710 28.1 186 
 BAR2 SZ I         552 17.34        15.8 0.18            167           28.1 186 
 BRR  HZ EP        552  3.16                             153    0.6510 68.0 295 
 BRR  HN ES   3    552 19.85                             153    1.52 2 68.0 295 
 PTB  HZ EP        552  8.43                             130   -0.26 9  148 257 
 PTB  HN ES        552 28.76                             130   -0.57 9  148 257 
 PTB  HZ I         552 32.99         4.8 0.14            129            148 257 
 OCA  HN ES        552 31.02                             129    0.13 9  155 353 
 OCA  HZ I         552 34.57         5.5 0.32            130            155 353 
 SPBC HZ EP        552 10.57                             127    0.00 9  166 218 
 SPBC HN ES        552 32.75                             127    0.08 9  166 218 
 SPBC HZ I         552 38.63         4.8 0.32            128            166 218 
 ZAR  HN ES   1    552 39.58                             121    0.84 6  201 291 
 ZAR  HZ I         552 45.78         5.3 0.38            121            201 291 
 SML  HZ EP        552 17.86                             116   -0.10 8  239 335 
 SML  HN ES        552 45.27                             116   -0.56 8  239 335 
                                                                                
