 2016  512 0802  5.3 L   6.802 -73.161145.1  RSN  9 0.3 1.8LRSN                1
 GAP=134        0.78       2.3     3.2  4.4 -0.5814E+00  0.2586E+01  0.6754E+00E
 Epicentro: LOS SANTOS - SANTANDER                                             3
 ACTION:UPD 16-08-18 17:45 OP:cam  STATUS:               ID:20160512080205 L   I
 OLDACT:REG 16-05-12 12:22 OP:drio STATUS:               ID:20160512075744     3
 2016-05-12-0757-44M.COL___298                                                 6
 STAT SP IPHASW D HRMM SECON CODA AMPLIT PERI AZIMU VELO AIN AR TRES W  DIS CAZ7
 BAR2 EZ IP        8 2 24.82                             170   -0.0410 23.3 186 
 BAR2 EZ ES        8 2 40.17                             170    0.0710 23.3 186 
 BAR2 EZ I         8 2 41.38        12.1 0.12            170           23.3 186 
 BRR  HZ IP     D  8 2 26.90                             153    0.6110 69.6 299 
 BRR  HN ES        8 2 42.98                             153    0.3210 69.6 299 
 BRR  HZ I         8 2 47.79        11.9 0.14            151           69.6 299 
 PAM  EZ EP        8 2 27.80                             150    0.2910 78.3  41 
 PAM  EE ES        8 2 44.58                             150   -0.2410 78.3  41 
 PAM  EZ I         8 2 47.48        14.4 0.70            154           78.3  41 
 RUS  HZ EP        8 2 28.83                             144   -0.1910  101 175 
 RUS  HN ES        8 2 47.68                             144    0.1710  101 175 
 RUS  HZ I         8 2 48.57         8.2 0.32            146            101 175 
 PTB  HZ EP        8 2 31.71                             132   -0.36 9  146 259 
 PTB  HN ES        8 2 52.62                             132   -0.33 9  146 259 
 PTB  HZ I         8 2 59.95         3.4 0.18            132            146 259 
 OCA  HZ EP        8 2 33.57                             130    0.04 9  160 354 
 OCA  HE ES        8 2 54.97                             130   -0.57 9  160 354 
 OCA  HZ I         8 3  0.02         9.7 0.46            131            160 354 
 SPBC HZ EP        8 2 33.35                             129   -0.32 9  162 218 
 SPBC HN ES        8 2 55.57                             129   -0.22 9  162 218 
 SPBC HZ I         8 2 57.56        11.7 0.20            130            162 218 
 ZAR  HZ EP        8 2 37.88                             122    0.34 9  202 292 
 ZAR  HN ES        8 3  2.87                             122    0.20 9  202 292 
 ZAR  HZ I         8 3  8.53         5.1 0.14            123            202 292 
 CHI  HZ EP        8 2 42.98                             117    0.03 8  248 195 
 CHI  HN ES        8 3 12.43                             117    0.13 8  248 195 
 CHI  HZ I         8 3 22.18         3.1 0.40            119            248 195 
                                                                                
