 2017  712 0215 21.1 L   6.814 -73.148136.0  RSN  5 0.4 1.6LRSN                1
 GAP=251        0.91       6.2     6.8  8.5  0.5972E+01  0.1809E+02 -0.5350E+01E
 Epicentro: LOS SANTOS - SANTANDER                                             3
 ACTION:UPD 17-08-30 15:32 OP:rebc STATUS:               ID:20170712021521 L   I
 OLDACT:UP  17-07-12 13:06 OP:dnl  STATUS:               ID:20170712020554     3
 OLDACT:REG 17-07-12 12:18 OP:dnl  STATUS:               ID:20170712020554     3
 2017-07-12-0208-00M.COL___362                                                 6
 STAT SP IPHASW D HRMM SECON CODA AMPLIT PERI AZIMU VELO AIN AR TRES W  DIS CAZ7
 BAR2 EZ EP   2    215 39.80                             169    0.19 5 24.8 189 
 BAR2 EZ ES        215 53.89                             169   -0.1410 24.8 189 
 BAR2 EZ I         215 55.92        11.5 0.28            169           24.8 189 
 BRR  HZ EP        215 41.51                             151    0.3510 70.2 298 
 BRR  HE ES   4    215 58.82                             151    2.03 0 70.2 298 
 BRR  HZ I         216  2.60         7.2 0.52            149           70.2 298 
 PTB  HZ EP        215 46.47                             130   -0.84 9  148 258 
 PTB  HN ES        216  7.55                             130   -0.19 9  148 258 
 PTB  HZ I         216  9.83         3.0 0.20            131            148 258 
 SPBC HZ EP        215 49.01                             127    0.02 9  164 219 
 SPBC HE ES        216 11.14                             127    0.42 9  164 219 
 SPBC HZ I         216 15.74         9.4 0.12            130            164 219 
 ZAR  HZ EP   2    215 53.48                             120    0.63 4  203 292 
 ZAR  HN ES        216 17.81                             120    0.20 9  203 292 
 ZAR  HZ I         216 23.29         5.0 0.34            123            203 292 
                                                                                
