 2012  112 0543 29.6 L   6.793 -73.101151.4  RSN  9 0.4 1.6LRSN                1
 GAP=143        0.70       5.1     5.7  7.1  0.2996E+01  0.5696E+01  0.1596E+02E
 Epicentro: LOS SANTOS - SANTANDER                                             3
 ACTION:UP  12-02-03 08:16 OP:REBC STATUS:               ID:20120112054329 L   I
 2012-01-12-0540-00M.COL___187                                                 6
 STAT SP IPHASW D HRMM SECON CODA AMPLIT PERI AZIMU VELO SNR AR TRES W  DIS CAZ7
 BAR2 SZ EP   1    543 49.89                             171     0.0 7   24 202 
 BAR2 SZ ES   2    544  5.49                             171    -0.3 5   24 202 
 BAR2 SZ I         544  7.96        11.7 0.44                            24 202 
 GIR2 SZ EP   2    543 49.39                             167    -0.6 5   33 342 
 GIR2 SZ ES   2    544  5.71                             167    -0.2 5   33 342 
 PAM  SZ EP   2    543 52.53                             153     0.3 5   75  36 
 PAM  SE ES   2    544  9.74                             153    -0.2 5   75  36 
 BRR  HZ EP   1    543 51.89                             152     0.3 7   76 297 
 BRR  HE ES   1    544  9.48                             152     0.7 7   76 297 
 BRR  HZ I         544 13.20        10.1 0.44                            76 297 
 RUS  HZ EP   1    543 53.92                             145     0.1 7  100 179 
 RUS  HN ES   2    544 12.18                             145    -0.6 5  100 179 
 RUS  HZ I         544 13.41         3.3 0.38                           100 179 
 PTB  HZ EP   1    543 57.01                             132    -0.4 7  152 259 
 PTB  HN ES   2    544 19.12                             132    -0.1 5  152 259 
 ZAR  HE ES   2    544 28.11                             123    -0.8 4  209 292 
 ZAR  HZ I         544 34.41         5.4 0.39                           209 292 
 CHI  HZ EP   1    544  8.15                             118     0.5 6  249 196 
 CHI  HE ES   2    544 37.56                             118     0.2 4  249 196 
 CHI  HZ I         544 43.33         2.6 0.57                           249 196 
 PRA  HZ EP   2    544 23.36                             107    -0.2 3  394 210 
 PRA  HE ES   2    545  5.64                             107     0.1 3  394 210 
                                                                                
