 2014  412 0101 59.6 L   6.160 -74.061 83.1  RSN  9 0.4 1.6LRSN                1
 GAP=148        0.94       2.5     3.3  5.9 -0.1194E+01  0.9916E+00  0.3542E+01E
 Epicentro: CIMITARRA - SANTANDER                                              3
 ACTION:UPD 14-05-13 23:07 OP:nd   STATUS:               ID:20140412010159 L   I
 OLDACT:REG 14-04-12 14:04 OP:stll STATUS:               ID:20140412005814     3
 2014-04-12-0058-14M.COL___266                                                 6
 STAT SP IPHASW D HRMM SECON CODA AMPLIT PERI AZIMU VELO AIN AR TRES W  DIS CAZ7
 SPBC HZ EP        1 2 13.42                             143    0.0110 56.1 181 
 SPBC HN ES        1 2 24.33                             143    0.1710 56.1 181 
 SPBC HZ I         1 2 25.68        31.2 0.50            144           56.1 181 
 PTB  HZ EP        1 2 13.36                             141   -0.2910 60.6 314 
 PTB  HN ES        1 2 24.79                             141    0.2010 60.6 314 
 PTB  HZ I         1 2 28.68         7.7 0.08            146           60.6 314 
 NOR  HZ EP        1 2 18.20                             122   -0.2210  111 234 
 NOR  HN ES        1 2 32.71                             122   -0.3810  111 234 
 NOR  HZ I         1 2 33.56        19.6 0.12            125            111 234 
 BRR  HZ EP        1 2 18.31                             122   -0.0910  112  20 
 BRR  HN ES        1 2 33.38                             122    0.3310  112  20 
 BRR  HZ I         1 2 34.46         9.2 0.24            125            112  20 
 HEL  HZ EP        1 2 24.66                             112    0.17 9  163 271 
 HEL  HE ES        1 2 43.18                             112   -0.70 9  163 271 
 HEL  HZ I         1 2 45.37         3.2 0.76            115            163 271 
 CHI  HZ EP        1 2 25.50                             111   -0.26 9  173 168 
 CHI  HN ES        1 2 45.60                             111   -0.55 9  173 168 
 CHI  HZ I         1 2 56.17         7.9 2.20            112            173 168 
 GUY2CHZ EP        1 2 26.64                             110    0.27 9  178 234 
 GUY2CHE ES        1 2 47.81                             110    0.58 9  178 234 
 GUY2CHZ I         1 2 53.84         5.2 0.58                           178 234 
 RREF HZ EP        1 2 29.10                             108    0.02 9  199 226 
 ORTC HZ EP        1 2 38.44                             102    0.26 7  281 208 
 ORTC HZ I         1 2 40.86         2.2 0.18            103            281 208 
 ORTC HN ES        1 3  9.17                             102    0.91 7  281 208 
                                                                                
