 2010  112 0355  2.8 L   6.829 -73.127148.3  RSN  5 0.1 1.8LRSN                1
 GAP=201        0.33       4.3     7.2  3.0 -0.2369E+02  0.5650E+00 -0.1740E+01E
 Epicentro: LOS SANTOS - SANTANDER                                             3
 ACTION:UP  10-08-24 09:43 OP:vdl  STATUS:               ID:20100112035502 L   I
 2010-01-12-0350-44S.COL___097                                                 6
 STAT SP IPHASW D HRMM SECON CODA AMPLIT PERI AZIMU VELO SNR AR TRES W  DIS CAZ7
 BAR2 SZ EP   1    355 23.00                             169     0.212   27 193 
 BAR2 SZ ES   1    355 38.35                             169    -0.112   27 193 
 RUS  BZ EP   1    355 27.16                             143     0.112  104 177 
 RUS  BN ES   1    355 45.86                             143    -0.112  104 177 
 RUS  BZ I         355 46.44         5.4 0.58                           104 177 
 CHI  HZ EP   1    355 41.07                             117     0.0 9  252 195 
 CHI  HN ES   2    356 10.99                             117     0.1 6  252 195 
 CHI  HZ I         356 13.93         3.1 0.56                           252 195 
 SDV  BZ IP        355 52.46                             109    -0.110  357  50 
 PRA  HZ EP   1    355 56.80                             107    -0.1 7  396 210 
 PRA  HE ES   2    356 38.65                             107    -0.4 5  396 210 
 PRA  HZ I         356 44.72         3.8 0.71                           396 210 
                                                                                
