 2013  912 0623 30.2 L   5.997 -73.757107.2  RSN  6 0.2 1.4LRSN                1
 GAP=124        0.51       2.4     2.1  4.3 -0.2838E+01  0.3881E+01 -0.1707E+01E
 Epicentro: BOLIVAR - SANTANDER                                                3
 ACTION:UPD 13-10-22 09:22 OP:ep   STATUS:               ID:20130912062330 L   I
 OLDACT:REG 13-09-12 07:49 OP:carl STATUS:               ID:20130912061959     3
 2013-09-12-0619-59M.COL___269                                                 6
 STAT SP IPHASW D HRMM SECON CODA AMPLIT PERI AZIMU VELO AIN AR TRES W  DIS CAZ7
 SPBC HZ EP        623 45.98                             152   -0.2210 51.7 222 
 SPBC HN ES   1    623 58.79                             152    0.10 7 51.7 222 
 SPBC HZ I         623 59.67         8.1 0.16            158           51.7 222 
 RUS  HZ EP        623 48.42                             143    0.0710 75.5  99 
 RUS  HN ES        624  2.53                             143    0.0210 75.5  99 
 RUS  HZ I         624  4.30         2.0 0.40            151           75.5  99 
 BAR2 SZ EP        623 49.01                             136   -0.2510 91.5  44 
 BAR2 SZ ES        624  4.19                             136    0.0510 91.5  44 
 BAR2 SZ I         624  7.30        19.5 0.32            137           91.5  44 
 BRR  HZ EP        623 51.93                             127    0.1310  123   2 
 BRR  HN ES        624  8.59                             127   -0.0610  123   2 
 BRR  HN I         624 23.14         6.7 0.18            126            123   2 
 NOR  HZ EP        623 53.10                             125    0.3110  132 249 
 NOR  HN ES        624 10.55                             125    0.1410  132 249 
 GUY2CHZ EP        624  0.43                             114    0.11 9  198 244 
 GUY2CHN ES        624 23.45                             114   -0.38 9  198 244 
 GUY2CHZ I         624 30.01         1.3 0.52                           198 244 
                                                                                
