 2014 1112 0536  9.3 L   6.761 -73.138139.9  RSN  5 0.4 1.1LRSN                1
 GAP=139        1.16       6.0     5.9  8.5 -0.3219E+01  0.6702E+01  0.2031E+01E
 Epicentro: LOS SANTOS - SANTANDER                                             3
 ACTION:UPD 14-12-19 15:42 OP:nd   STATUS:               ID:20141112053609 L   I
 OLDACT:DUP 14-11-12 17:14 OP:stll STATUS:               ID:20141112052744d    3
 2014-11-12-0527-43M.COL___283                                                 6
 STAT SP IPHASW D HRMM SECON CODA AMPLIT PERI AZIMU VELO AIN AR TRES W  DIS CAZ7
 BAR2 SZ EP        536 28.33                             172    0.2010 19.3 195 
 BAR2 SZ ES        536 42.62                             172   -0.2110 19.3 195 
 BRR  HZ EP        536 30.15                             150    0.1910 74.0 301 
 BRR  HZ I         536 30.47         3.6 0.24            151           74.0 301 
 BRR  HN ES        536 46.90                             150    0.8010 74.0 301 
 PAM  SZ EP        536 31.24                             149    0.1910 80.3  37 
 PAM  SZ I         536 31.38         1.4 0.20            149           80.3  37 
 PAM  SN ES        536 47.43                             149   -0.6110 80.3  37 
 RUS  HZ EP        536 32.56                             144    0.4210 96.2 176 
 RUS  HN ES        536 49.94                             144   -0.0310 96.2 176 
 RUS  HZ I         536 51.89         2.0 0.26            142           96.2 176 
 PTB  HZ EP        536 35.08                             131   -0.70 9  148 261 
 PTB  HZ I         536 37.66         2.5 0.38            130            148 261 
 PTB  HN ES        536 56.05                             131   -0.39 9  148 261 
                                                                                
