 2016  412 0317 50.8 L   6.833 -73.162143.2  RSN 12 0.5 2.0LRSN                1
 GAP=118        1.10       3.4     4.2  6.1 -0.3450E+01  0.2643E+01 -0.1088E+01E
 Epicentro: LOS SANTOS - SANTANDER                                             3
 ACTION:UPD 16-05-05 14:20 OP:rebc STATUS:               ID:20160412031750 L   I
 OLDACT:UP  16-04-12 16:23 OP:mh   STATUS:               ID:20160412030743     3
 OLDACT:REG 16-04-12 12:32 OP:mh   STATUS:               ID:20160412030743     3
 2016-04-12-0307-43M.COL___322                                                 6
 STAT SP IPHASW D HRMM SECON CODA AMPLIT PERI AZIMU VELO AIN AR TRES W  DIS CAZ7
 BAR2 EZ EP        318 10.50                             169    0.2810 26.8 185 
 BAR2 EZ ES        318 24.47                             169   -0.8710 26.8 185 
 BAR2 EZ I         318 26.71        28.3 0.16            171           26.8 185 
 PAM  EZ EP        318 13.49                             151    0.8310 75.8  42 
 PAM  EN ES        318 30.02                             151    0.3210 75.8  42 
 PAM  EZ I         318 32.61        11.9 0.37            152           75.8  42 
 RUS  HZ EP        318 14.44                             142   -0.1610  104 175 
 RUS  HN ES        318 33.59                             142    0.4410  104 175 
 RUS  HZ I         318 34.23        12.1 0.33            146            104 175 
 PTB  HZ EP        318 17.14                             132   -0.35 9  147 257 
 PTB  HN ES        318 38.00                             132   -0.29 9  147 257 
 PTB  HZ I         318 44.62        12.8 0.60            131            147 257 
 OCA  HZ EP   1    318 18.70                             130    0.13 7  156 354 
 OCA  HN ES        318 40.00                             130   -0.20 9  156 354 
 OCA  HZ I         318 48.70        22.6 0.28            129            156 354 
 SPBC HZ EP   1    318 19.22                             128   -0.07 7  165 218 
 SPBC HN ES        318 41.74                             128    0.24 9  165 218 
 SPBC HZ I         318 42.43        16.9 0.10            130            165 218 
 ZAR  HZ EP   1    318 22.91                             122    0.13 6  201 291 
 ZAR  HN ES        318 47.78                             122    0.07 9  201 291 
 ZAR  HZ I         318 54.58        11.7 0.10            122            201 291 
 CHI  HZ EP   1    318 27.91                             116   -0.81 6  252 195 
 CHI  HN ES        318 58.08                             116   -0.20 8  252 195 
 CHI  HZ I         319  2.90         7.4 0.34            118            252 195 
 ROSC BZ EP   4    318 27.08                             116   -1.97 0  255 210 
 ROSC BN ES   4    319  0.87                             116    2.00 0  255 210 
 SOCV BZ EP        318 33.18                             111   -0.52 7  301  58 
 SOCV BN ES   4    319  4.70                             111   -2.44 0  301  58 
 GUY2CHZ EP        318 35.31                             112    0.92 7  302 234 
 GUY2CHE ES   4    319 12.29                             112    3.92 0  302 234 
 GUY2CHZ I         319 16.68         4.9 0.34                           302 234 
 SDV  BZ EP        318 40.06                             108   -0.59 6  359  51 
 SJC  HZ EP   4    318 44.35                             105   -1.47 0  405 327 
 SJC  HN ES   4    319 25.96                             105   -2.76 0  405 327 
 SJC  HZ I         319 35.10         2.1 0.54            106            405 327 
                                                                                
