 2016 1212 0837  3.2 L   6.797 -73.097147.0  RSN  8 0.4 1.4LRSN                1
 GAP=223        1.03       4.9     5.8  6.0  0.1629E+02  0.4564E+01  0.8071E+01E
 Epicentro: LOS SANTOS - SANTANDER                                             3
 ACTION:UPD 17-01-11 20:14 OP:rebc STATUS:               ID:20161212083703 L   I
 OLDACT:UP  16-12-12 17:32 OP:and  STATUS:               ID:20161212082749d    3
 OLDACT:UP  16-12-12 17:29 OP:and  STATUS:               ID:20161212082749d    3
 OLDACT:DUP 16-12-12 17:27 OP:and  STATUS:               ID:20161212082749d    3
 2016-12-12-0828-00M.COL___389                                                 6
 STAT SP IPHASW D HRMM SECON CODA AMPLIT PERI AZIMU VELO AIN AR TRES W  DIS CAZ7
 BAR2 EZ EP        837 23.20                             170    0.2310 24.5 203 
 BAR2 EZ ES        837 37.92                             170   -0.5010 24.5 203 
 BAR2 EZ I         837 40.96         7.1 0.30            168           24.5 203 
 BRR  HZ EP        837 25.19                             151    0.4510 76.2 297 
 BRR  HN ES        837 42.02                             151    0.4610 76.2 297 
 RUS  HZ EP        837 27.45                             144    0.4510  100 179 
 RUS  HN ES        837 45.90                             144    0.3110  100 179 
 RUS  HZ I         837 47.04         2.9 0.25            145            100 179 
 PTB  HZ EP        837 30.26                             131   -0.45 9  153 259 
 PTB  HE ES        837 51.80                             131   -0.40 9  153 259 
 PTB  HZ I         837 53.48         2.5 0.16            131            153 259 
 ZAR  HZ EP        837 35.96                             122   -0.27 8  209 292 
 ZAR  HN ES        838  1.57                             122   -0.44 8  209 292 
 ZAR  HZ I         838  7.08         1.9 0.17            122            209 292 
 CHI  HZ EP        837 41.41                             117    0.35 8  250 196 
 CHI  HN ES        838 10.61                             117   -0.00 8  250 196 
 PTGC HZ EP        837 46.38                             112   -0.44 7  306 160 
 PTGC HN ES        838 19.99                             112   -0.89 7  306 160 
 PRA  HZ EP        837 57.08                             107    0.07 6  394 210 
 PRA  HN ES        838 39.75                             107    0.74 6  394 210 
 PRA  HZ I         838 43.53         1.2 0.32            107            394 210 
 SJC  HZ EP   4    837 57.93                             106   -1.22 0  412 326 
 SJC  HN ES   4    838 38.86                             106   -3.96 0  412 326 
                                                                                
