 2016  912 0508 53.6 L   6.787 -73.146148.9  RSN  6 0.4 1.6LRSN                1
 GAP=137        1.15       4.6     6.0  7.7 -0.3233E+01  0.4663E+01 -0.3945E+01E
 Epicentro: LOS SANTOS - SANTANDER                                             3
 ACTION:UPD 17-08-17 21:09 OP:lp   STATUS:               ID:20160912050853 L   I
 OLDACT:DUP 16-09-12 21:20 OP:ar   STATUS:               ID:20160912050736d    3
 OLDACT:UP  16-09-12 21:17 OP:ar   STATUS:               ID:20160912050735     3
 OLDACT:UP  16-09-12 21:13 OP:ar   STATUS:               ID:20160912050735     3
 OLDACT:REG 16-09-12 15:41 OP:and  STATUS:               ID:20160912050735     3
 2016-09-12-0508-00M.COL___297                                                 6
 STAT SP IPHASW D HRMM SECON CODA AMPLIT PERI AZIMU VELO AIN AR TRES W  DIS CAZ7
 BAR2 HZ EP        5 9 13.70                             171    0.1510 21.9 191 
 BAR2 HZ ES        5 9 29.12                             171   -0.0210 21.9 191 
 BAR2 HZ I         5 9 32.65         9.8 0.66            174           21.9 191 
 BRR  HZ EP        5 9 15.58                             153    0.4810 71.9 300 
 BRR  HE ES        5 9 32.82                             153    0.9310 71.9 300 
 BRR  HZ I         5 9 37.67         4.8 0.12            152           71.9 300 
 PAM  HZ EP        5 9 16.53                             151    0.3410 78.5  39 
 PAM  EN ES        5 9 33.58                             151   -0.2510 78.5  39 
 PAM  HZ I         5 9 35.92         4.0 0.58            153           78.5  39 
 RUS  HZ EP        5 9 17.55                             145    0.0210 99.1 176 
 RUS  HN ES        5 9 35.92                             145   -0.3010 99.1 176 
 RUS  HZ I         5 9 37.36         3.4 0.36            151           99.1 176 
 PTB  HZ EP        5 9 20.69                             133   -0.08 9  147 259 
 PTB  HN ES        5 9 41.31                             133   -0.67 9  147 259 
 PTB  HZ I         5 9 43.92         6.1 0.18            135            147 259 
 OCA  HZ EP        5 9 22.10                             130   -0.16 9  162 353 
 OCA  HN ES        5 9 43.97                             130   -0.67 9  162 353 
 OCA  HZ I         5 9 51.08        11.4 0.32            132            162 353 
                                                                                
