 2012  212 0018 12.2 L   6.783 -73.170141.8  RSN  6 0.4 1.3LRSN                1
 GAP=134        0.85       5.9     5.6  8.8 -0.5734E+01  0.2224E+01  0.9947E+00E
 ACTION:UP  12-03-07 16:29 OP:epov STATUS:               ID:20120212001812 L   I
 2012-02-12-0010-00M.COL___188                                                 6
 STAT SP IPHASW D HRMM SECON CODA AMPLIT PERI AZIMU VELO AIN AR TRES W  DIS CAZ7
 BAR2 SZ ES   2    018 45.79                             171   -0.45 5 21.1 184 
 BAR2 SZ I         018 47.46         6.2 0.16                          21.1 184 
 GIR2 SZ EP   2    018 31.36                             166   -0.11 5 32.9 355 
 BRR  HZ EP   1    018 33.12                             152    0.25 7 69.8 301 
 BRR  HN ES   1    018 49.84                             152    0.87 7 69.8 301 
 BRR  HZ I         018 53.05         8.2 0.10                          69.8 301 
 PAM  SZ EP        018 34.25                             149    0.0310 80.6  40 
 PAM  SN ES   1    018 50.86                             149   -0.52 7 80.6  40 
 RUS  HZ EP   1    018 35.80                             143    0.34 7 98.9 174 
 RUS  HE ES   1    018 53.70                             143    0.11 7 98.9 174 
 RUS  HZ I         018 57.67         1.5 0.65                          98.9 174 
 PTB  HZ EP   1    018 38.25                             132   -0.35 7  145 259 
 PTB  HE ES   1    018 58.55                             132   -0.62 7  145 259 
                                                                                
