 2012 1212 0631  4.7 L   6.771 -73.156139.2  RSN  5 0.4 1.0LRSN                1
 GAP=182        0.69       6.0     5.8  9.1  0.8901E+01  0.2094E+02 -0.1882E+01E
 Epicentro: LOS SANTOS - SANTANDER                                             3
 ACTION:UPD 13-01-04 14:27 OP:ep   STATUS:               ID:20121212063104 L   I
 2012-12-12-0630-00M.COL___242                                                 6
 STAT SP IPHASW D HRMM SECON CODA AMPLIT PERI AZIMU VELO AIN AR TRES W  DIS CAZ7
 BAR2 SZ EP   1    631 23.60                             171    0.10 7 19.9 188 
 BAR2 SZ I         631 39.91         2.8 0.19                          19.9 188 
 GIR2 SZ EP   1    631 23.71                             165    0.01 7 34.3 353 
 GIR2 SZ ES   1    631 38.26                             165   -0.25 7 34.3 353 
 GIR2 SZ I         631 40.27         3.1 0.42                          34.3 353 
 RUS  HZ I         631 44.83         1.7 0.52                          97.4 175 
 RUS  HN ES   1    631 45.79                             143    0.34 7 97.4 175 
 PTB  HZ EP   1    631 30.47                             131   -0.53 7  146 260 
 PTB  HN ES   1    631 51.15                             131   -0.34 7  146 260 
 PTB  HZ I         631 55.69         1.3 0.22                           146 260 
 ZAR  HZ EP   2    631 37.01                             121    0.25 4  204 293 
 ZAR  HE ES   1    632  2.42                             121    0.67 6  204 293 
                                                                                
