 2017  512 0218 60.0 L   6.753 -73.112143.6  RSN  4 0.3 1.1LRSN                1
 GAP=143        0.84       4.5     5.7  8.0  0.2191E+01  0.4256E+01  0.2548E+01E
 Epicentro: LOS SANTOS - SANTANDER                                             3
 ACTION:UPD 17-06-16 13:35 OP:jn   STATUS:               ID:20170512021860 L   I
 OLDACT:UP  17-05-12 15:42 OP:osc  STATUS:               ID:20170512021645     3
 OLDACT:UP  17-05-12 15:42 OP:edw  STATUS:               ID:20170512021645     3
 OLDACT:REG 17-05-12 12:35 OP:osc  STATUS:               ID:20170512021645     3
 2017-05-12-0218-00M.COL___365                                                 6
 STAT SP IPHASW D HRMM SECON CODA AMPLIT PERI AZIMU VELO AIN AR TRES W  DIS CAZ7
 BRR  HZ EP     D  219 21.38                             150    0.1710 77.0 301 
 BRR  HN ES        219 37.80                             150    0.0110 77.0 301 
 PAM  EZ EP     D  219 22.52                             150    0.4710 79.3  35 
 PAM  EN ES        219 38.99                             150   -0.3010 79.3  35 
 PAM  EZ I         219 42.05         1.9 0.50            151           79.3  35 
 RUS  HZ EP        219 22.53                             145   -0.5710 95.2 178 
 RUS  HN ES        219 41.45                             145    0.2910 95.2 178 
 RUS  HZ I         219 43.13         1.3 0.36            147           95.2 178 
 ZAR  HZ EP   2    219 32.88                             121    0.05 4  210 293 
 ZAR  HN ES   2    219 58.07                             121   -0.40 4  210 293 
 ZAR  HZ I         220  1.34         1.7 0.38            123            210 293 
                                                                                
