 2010  112 0909 50.2 L   6.801 -73.124138.4  RSN  5 0.1 1.7LRSN                1
 GAP=203        0.37       2.5    11.6  5.2 -0.1303E+02  0.2082E+02  0.2555E+01E
 Epicentro: LOS SANTOS - SANTANDER                                             3
 ACTION:UP  10-08-24 09:43 OP:vdl  STATUS:               ID:20100112090950 L   I
 2010-01-12-0900-00S.COL___096                                                 6
 STAT SP IPHASW D HRMM SECON CODA AMPLIT PERI AZIMU VELO SNR AR TRES W  DIS CAZ7
 BAR2 SZ EP   2    910  8.98                             170     0.0 6   24 196 
 BAR2 SZ ES   2    910 23.61                             170     0.0 6   24 196 
 GIR2 SZ EP   2    910  9.23                             166     0.2 6   32 346 
 OCA  SZ EP   1    910 18.19                             128     0.2 9  160 352 
 OCA  SZ ES   1    910 39.47                             128    -0.2 9  160 352 
 OCA  SZ I         910 43.55        10.5 0.17                           160 352 
 CHI  HZ IP        910 27.49                             115    -0.110  249 196 
 CHI  HZ I         911  6.23         1.3 0.56                           249 196 
 PRA  HZ EP   1    910 43.53                             105    -0.1 6  393 210 
 PRA  HE ES   1    911 25.51                             105     0.2 6  393 210 
 PRA  HZ I         911 31.03         2.0 0.46                           393 210 
                                                                                
