 2010 1212 0412 57.9 L   6.789 -73.066141.7  RSN  5 0.1 1.9LRSN                1
 GAP=191        0.33       2.8     9.7  6.7 -0.5026E+01  0.1854E+02 -0.1107E+01E
 Epicentro: LOS SANTOS - SANTANDER                                             3
 ACTION:UP  11-01-14 15:24 OP:pat  STATUS:               ID:20101212041257 L   I
 2010-12-12-0411-34S.COL___137                                                 6
 STAT SP IPHASW D HRMM SECON CODA AMPLIT PERI AZIMU VELO SNR AR TRES W  DIS CAZ7
 BAR2 SZ EP   2    413 16.87                             169    -0.2 5   25 211 
 BAR2 SZ ES   2    413 31.87                             169    -0.1 5   25 211 
 BAR2 SZ I         413 33.35        13.4 0.21                            25 211 
 BTL  SZ EP   2    413 17.00                             169    -0.1 5   26 303 
 RUS  HZ EP   2    413 21.11                             143     0.0 5   99 181 
 RUS  HE ES   2    413 39.41                             143     0.2 5   99 181 
 RUS  HZ I         413 41.71         8.7 0.28                            99 181 
 OCA  SZ ES   2    413 48.25                             128     0.1 5  163 350 
 OCA  SZ I         413 52.05        12.2 0.33                           163 350 
 ROSC BN ES   2    414  6.04                             115     0.0 4  256 213 
 ROSC BZ I         414 11.83         7.0 0.15                           256 213 
                                                                                
