 2012  512 0957 28.9 L   6.730 -73.149142.0  RSN  7 0.5 1.7LRSN                1
 GAP=139        0.90       6.1     6.0  8.3  0.1199E+01  0.4312E+01  0.4313E+01E
 Epicentro: JORDAN - SANTANDER                                                 3
 ACTION:UP  12-07-05 12:04 OP:pat  STATUS:               ID:20120512095728 L   I
 2012-05-12-0950-00M.COL___195                                                 6
 STAT SP IPHASW D HRMM SECON CODA AMPLIT PERI AZIMU VELO SNR AR TRES W  DIS CAZ7
 BAR2 SZ EP        957 48.00                             173     0.010   16 193 
 BAR2 SZ ES   1    958  2.82                             173     0.0 7   16 193 
 BAR2 SZ I         958  3.87        14.0 0.26                            16 193 
 BRR  HZ EP        957 50.14                             151     0.310   75 304 
 BRR  HZ I         957 50.98        13.9 0.36                            75 304 
 BRR  HE ES   1    958  6.92                             151     0.7 7   75 304 
 PAM  SZ EP        957 51.15                             148     0.010   84  36 
 PAM  SN ES   1    958  8.01                             148    -0.4 7   84  36 
 RUS  HZ EP        957 51.73                             145     0.010   93 175 
 RUS  HN ES   2    958  9.63                             145     0.1 5   93 175 
 RUS  HZ I         958 11.37         7.8 0.56                            93 175 
 PTB  HZ EP   2    957 54.88                             131    -0.5 5  146 262 
 PTB  HN ES   2    958 14.94                             131    -1.2 5  146 262 
 PTB  HZ I         958 20.75         4.4 0.26                           146 262 
 OCA  HN ES   3    958 18.79                             127    -1.3 2  168 354 
 ZAR  HZ EP   2    958  2.04                             121     0.6 4  207 294 
 ZAR  HE ES   2    958 26.01                             121    -0.7 4  207 294 
                                                                                
