 2014  912 0305 27.8 L   6.812 -73.136149.1  RSN  9 0.5 1.8LRSN                1
 GAP=184        1.21       4.3     5.9  7.4  0.3218E+00  0.1236E+02  0.3117E+01E
 Epicentro: LOS SANTOS - SANTANDER                                             3
 ACTION:UPD 14-10-03 23:04 OP:nd   STATUS:               ID:20140912030527 L   I
 OLDACT:REG 14-09-12 12:46 OP:carl STATUS:               ID:20140912025820     3
 2014-09-12-0258-20M.COL___293                                                 6
 STAT SP IPHASW D HRMM SECON CODA AMPLIT PERI AZIMU VELO AIN AR TRES W  DIS CAZ7
 BAR2 SZ EP        3 5 47.89                             170    0.0410 24.9 192 
 BAR2 SZ ES        3 6  3.18                             170   -0.3110 24.9 192 
 BAR2 SZ I         3 6  5.50        16.1 0.26            170           24.9 192 
 BRR  HZ EP        3 5 49.85                             153    0.5410 71.5 297 
 BRR  HN ES        3 6  7.27                             153    1.1710 71.5 297 
 RUS  HZ EP        3 5 51.89                             144   -0.0710  102 177 
 RUS  HN ES        3 6 10.63                             144   -0.1710  102 177 
 RUS  HZ I         3 6 11.21         4.2 0.36            149            102 177 
 PTB  HZ EP        3 5 54.55                             132   -0.60 9  149 258 
 PTB  HN ES        3 6 15.75                             132   -0.74 9  149 258 
 PTB  HZ I         3 6 23.45        10.1 0.36            132            149 258 
 OCA  HN ES        3 6 17.96                             131   -0.48 9  159 353 
 OCA  HZ I         3 6 26.37         7.5 0.20            130            159 353 
 SPBC HZ EP        3 5 56.73                             129    0.02 9  165 219 
 SPBC HN ES        3 6 19.24                             129   -0.02 9  165 219 
 ZAR  HZ EP        3 6  1.04                             123    0.54 9  205 292 
 ZAR  HN ES        3 6 25.42                             123   -0.60 9  205 292 
 ZAR  HZ I         3 6 36.76         7.0 0.34            122            205 292 
 NOR  HZ EP        3 6  4.14                             119    0.25 8  236 234 
 NOR  HE ES        3 6 32.20                             119    0.15 8  236 234 
 NOR  HZ I         3 6 39.01         6.1 0.18            120            236 234 
 GUY2CHZ EP        3 6 11.58                             113   -0.16 7  303 235 
 GUY2CHN ES        3 6 46.45                             113    0.43 7  303 235 
 GUY2CHZ I         3 6 54.66         5.5 0.74                           303 235 
                                                                                
