 2014  812 0720 12.3 L   6.794 -73.152151.5  RSN 12 0.4 2.2LRSN                1
 GAP=136        0.89       2.7     3.5  5.0 -0.2034E+00  0.3534E+01  0.6136E+00E
 Epicentro: LOS SANTOS - SANTANDER                                             3
 ACTION:UPD 14-09-15 21:49 OP:nd   STATUS:               ID:20140812072012 L   I
 OLDACT:UP  14-08-12 17:09 OP:cam  STATUS:               ID:20140812072000     3
 OLDACT:UP  14-08-12 17:08 OP:cam  STATUS:               ID:20140812072000     3
 OLDACT:UP  14-08-12 17:08 OP:cam  STATUS:               ID:20140812072000     3
 OLDACT:UP  14-08-12 17:08 OP:cam  STATUS:               ID:20140812072000     3
 OLDACT:UP  14-08-12 17:06 OP:cam  STATUS:               ID:20140812072000     3
 OLDACT:UP  14-08-12 17:06 OP:cam  STATUS:               ID:20140812072000     3
 OLDACT:REG 14-08-12 12:34 OP:cam  STATUS:               ID:20140812072000     3
 2014-08-12-0720-00M.COL___285                                                 6
 STAT SP IPHASW D HRMM SECON CODA AMPLIT PERI AZIMU VELO AIN AR TRES W  DIS CAZ7
 BAR2 SZ EP     C  720 32.60                             171   -0.0510 22.6 189 
 BAR2 SZ ES        720 48.24                             171   -0.2510 22.6 189 
 BAR2 SZ I         720 51.24        80.5 0.82            170           22.6 189 
 BRR  HZ EP     D  720 34.46                             154    0.3710 70.9 299 
 BRR  HN ES        720 51.97                             154    0.9110 70.9 299 
 BRR  HZ I         720 55.72        18.2 0.12            152           70.9 299 
 PAM  SZ EP        720 35.42                             151    0.2010 78.3  40 
 PAM  SZ I         720 35.68        48.1 0.22            156           78.3  40 
 PAM  SN ES   1    720 52.85                             151   -0.22 7 78.3  40 
 RUS  HZ EP        720 36.55                             145   -0.0710  100 176 
 RUS  HN ES        720 55.30                             145   -0.2610  100 176 
 RUS  HZ I         720 57.77        16.4 0.50            147            100 176 
 PTB  HZ EP     D  720 39.43                             133   -0.28 9  147 259 
 PTB  HN ES        721  0.63                             133   -0.43 9  147 259 
 PTB  HZ I         721  6.43        21.7 0.40            133            147 259 
 SPBC HZ EP     C  720 41.48                             131    0.28 9  162 219 
 SPBC HN ES        721  3.74                             131    0.03 9  162 219 
 SPBC HZ I         721  7.61        18.6 0.14            131            162 219 
 ZAR  HN ES        721 10.97                             124    0.28 9  204 292 
 ZAR  HZ I         721 17.18        15.8 0.30            124            204 292 
 SML  HZ EP        720 49.02                             119   -0.30 8  244 336 
 SML  HE ES        721 17.51                             119   -0.66 8  244 336 
 SML  HZ I         721 21.65        12.2 0.30            120            244 336 
 CHI  HZ EP        720 50.47                             118    0.19 8  248 195 
 CHI  HN ES        721 19.91                             118    0.04 8  248 195 
 CHI  HZ I         721 25.23         6.5 0.32            120            248 195 
 ROSC BZ EP   4    720 53.60                             118    2.92 0  252 211 
 HEL  HZ EP   4    720 54.79                             116    2.03 0  271 256 
 HEL  HN ES        721 23.95                             116   -0.34 8  271 256 
 HEL  HZ I         721 30.61         7.5 0.42            117            271 256 
 GUY2CHZ EP   1    720 56.98                             113    0.87 5  300 235 
 GUY2CHN ES        721 29.92                             113   -0.34 7  300 235 
 GUY2CHZ I         721 39.21         6.7 0.26                           300 235 
 PRA  HZ EP   2    721  6.12                             107    0.16 3  391 210 
                                                                                
