 2010  712 0458  0.5 L   6.756 -73.094151.1  RSN  5 0.1 1.3LRSN                1
 GAP=162        0.31       3.2     4.5  5.1 -0.1902E+01 -0.1071E+02 -0.3757E+01E
 Epicentro: LOS SANTOS - SANTANDER                                             3
 ACTION:UPD 10-12-01 15:17 OP:pat  STATUS:               ID:20100712045800 L   I
 2010-07-12-0453-37S.COL___120                                                 6
 STAT SP IPHASW D HRMM SECON CODA AMPLIT PERI AZIMU VELO AIN AR TRES W  DIS CAZ7
 BRR  HZ IP     C  458 22.61                             151     0.010   79 300 
 BRR  HZ I         458 22.93         8.2 0.09                            79 300 
 BRR  HE ES   1    458 39.95                             151     0.0 7   79 300 
 RUS  HN ES   2    458 43.08                             146     0.0 5   96 179 
 RUS  HZ I         458 44.63         3.0 0.43                            96 179 
 BRI  SZ EP   2    458 25.22                             142     0.1 5  111  17 
 BRI  SZ I         458 33.81         2.9 0.70                           111  17 
 GUE  SZ EP   2    458 25.85                             140    -0.2 5  120   9 
 GUE  SZ I         458 49.64         1.1 0.12                           120   9 
 GRA  SZ IP        458 26.53                             137     0.110  129  14 
 GRA  SZ I         458 28.04         3.4 0.42                           129  14 
 GRA  SZ ES   2    458 46.65                             137    -0.1 5  129  14 
                                                                                
