 2014 1212 0532 56.7 L   6.824 -73.173142.4  RSN 19 0.5 2.1LRSN                1
 GAP=132        1.04       2.2     3.5  5.0 -0.1727E+01  0.7226E+01 -0.5725E+00E
 Epicentro: ZAPATOCA - SANTANDER                                               3
 ACTION:UPD 15-02-10 17:03 OP:nd   STATUS:               ID:20141212053256 L   I
 OLDACT:REG 14-12-12 13:09 OP:fm   STATUS:               ID:20141212052744     3
 2014-12-12-0527-44M.COL___294                                                 6
 STAT SP IPHASW D HRMM SECON CODA AMPLIT PERI AZIMU VELO AIN AR TRES W  DIS CAZ7
 BAR2 EZ EP        533 16.25                             169    0.3110 25.6 182 
 BAR2 EZ ES        533 31.02                             169    0.0410 25.6 182 
 BAR2 EZ I         533 33.97        29.1 0.26            169           25.6 182 
 PAM  SZ EP        533 18.94                             150    0.4210 77.4  43 
 PAM  SE ES        533 35.85                             150    0.2710 77.4  43 
 PAM  SZ I         533 38.42        20.9 0.20            156           77.4  43 
 RUS  HZ EP        533 20.09                             142   -0.2110  103 174 
 RUS  HE ES        533 37.98                             142   -0.7610  103 174 
 RUS  HZ I         533 40.05         9.3 0.46            146            103 174 
 PTB  HZ EP        533 23.22                             132    0.08 9  145 258 
 PTB  HN ES        533 43.64                             132   -0.15 9  145 258 
 PTB  HZ I         533 50.13        17.7 0.20            132            145 258 
 OCA  HZ EP        533 23.58                             129   -0.86 9  157 354 
 OCA  HE ES        533 45.60                             129   -0.50 9  157 354 
 OCA  HZ I         533 54.83        14.4 0.20            132            157 354 
 SPBC HZ EP        533 25.10                             128    0.17 9  163 218 
 SPBC HN ES        533 47.61                             128    0.64 9  163 218 
 SPBC HZ I         533 53.09        27.5 0.14            130            163 218 
 ZAR  HZ EP        533 29.05                             122    0.55 9  200 292 
 ZAR  HN ES        533 54.25                             122    0.92 9  200 292 
 ZAR  HZ I         533 59.80        14.0 0.50            123            200 292 
 NOR  HZ EP        533 32.44                             118    0.34 8  234 233 
 NOR  HE ES        533 59.86                             118    0.11 8  234 233 
 NOR  HZ I         534  4.09        10.6 0.22            120            234 233 
 SML  HZ EP        533 33.08                             117    0.37 8  240 336 
 SML  HE ES        534  0.61                             117   -0.21 8  240 336 
 SML  HZ I         534  4.87        23.4 0.10            119            240 336 
 CHI  HZ EP        533 34.00                             116   -0.37 8  250 194 
 CHI  HN ES        534  3.44                             116   -0.35 8  250 194 
 CHI  HZ I         534 12.61         4.7 0.38            119            250 194 
 ROSC BZ EP        533 35.28                             116    0.60 8  253 210 
 ROSC BE ES        534  4.74                             116    0.40 8  253 210 
 ROSC BZ I         534 13.99        14.2 0.50            119            253 210 
 HEL  HZ EP        533 37.01                             114    0.55 8  270 255 
 HEL  HE ES        534  7.08                             114   -0.41 8  270 255 
 HEL  HZ I         534 14.94         5.7 0.38            116            270 255 
 GUY2CHZ EP        533 40.02                             112    0.01 7  300 234 
 GUY2CHE ES        534 13.53                             112   -0.30 7  300 234 
 GUY2CHZ I         534 23.09        10.7 0.76                           300 234 
 RREF HZ EP        533 42.60                             110    0.00 7  321 229 
 RREF HE ES        534 18.50                             110    0.07 7  321 229 
 RREF HZ I         534 27.99         7.1 0.50            112            321 229 
 CBOC HZ EP        533 43.30                             109    0.09 7  332 251 
 CBOC HE ES        534 17.99                             109   -1.52 7  332 251 
 CBOC HZ I         534 24.73         3.8 0.20            111            332 251 
 TOL  SZ EP        533 44.53                             109   -0.23 7  343 224 
 TOL  SN ES        534 22.12                             109   -0.16 7  343 224 
 MON  HZ EP        533 44.55                             108   -0.52 6  350 308 
 MON  HE ES        534 22.40                             108   -0.43 6  350 308 
 MON  HZ I         534 38.86         3.0 0.42            110            350 308 
 ARGC HZ EP        533 45.51                             108   -0.28 6  356 341 
 ARGC HN ES        534 24.44                             108    0.34 6  356 341 
 ARGC HZ I         534 30.74         3.8 0.30            110            356 341 
 ORTC HZ EP        533 50.37                             106   -0.14 6  396 216 
 ORTC HN ES        534 32.76                             106    0.24 6  396 216 
 ORTC HZ I         534 40.96         4.8 0.22            108            396 216 
                                                                                
