 2010  312 0806 49.9 L   6.924 -73.355112.4  RSN  4 0.2 1.5LRSN                1
 GAP=151        0.53       3.2     7.5  5.8  0.1157E+02 -0.1391E+02 -0.5232E+01E
 Epicentro: BETULIA - SANTANDER                                                3
 ACTION:UP  10-08-24 09:53 OP:vdl  STATUS:               ID:20100312080649 L   I
 2010-03-12-0802-20S.COL___094                                                 6
 STAT SP IPHASW D HRMM SECON CODA AMPLIT PERI AZIMU VELO SNR AR TRES W  DIS CAZ7
 BAR2 SZ IP        8 7  6.42                             158     0.310   41 153 
 BAR2 SZ ES   1    8 7 18.77                             158    -0.1 7   41 153 
 BRR  HZ IP        8 7  5.80                             157    -0.110   44 297 
 BRR  HZ I         8 7  6.03        20.0 0.13                            44 297 
 BRR  HN ES   1    8 7 18.55                             157     0.1 7   44 297 
 RUS  BZ EP   1    8 7 11.81                             130    -0.2 7  118 165 
 RUS  BZ I         8 7 13.92         2.0 0.16                           118 165 
 RUS  BN ES   2    8 7 29.26                             130    -0.1 5  118 165 
 OCA  SZ EP   1    8 7 14.50                             124     0.2 7  145   2 
 OCA  SZ ES   1    8 7 33.11                             124    -0.2 7  145   2 
 OCA  SZ I         8 7 35.12         8.6 0.28                           145   2 
                                                                                
