 2014 1012 0035 17.4 L   6.758 -73.175136.5  RSN 15 0.6 2.2LRSN                1
 GAP= 71        1.40       4.2     4.5  6.6 -0.2857E+01  0.6560E+01  0.4534E+01E
 Epicentro: LOS SANTOS - SANTANDER                                             3
 ACTION:UPD 14-11-29 23:48 OP:nd   STATUS:               ID:20141012003517 L   I
 OLDACT:DUP 14-10-12 14:40 OP:stll STATUS:               ID:20141012002748d    3
 2014-10-12-0027-44M.COL___293                                                 6
 STAT SP IPHASW D HRMM SECON CODA AMPLIT PERI AZIMU VELO AIN AR TRES W  DIS CAZ7
 BAR2 SZ EP        035 35.86                             172    0.0710 18.3 182 
 BAR2 SZ ES        035 50.37                             172    0.2110 18.3 182 
 BAR2 SZ I         035 52.01       105.5 0.22            173           18.3 182 
 BRR  HZ IP     D  035 37.84                             151    0.3410 70.8 303 
 BRR  HN ES        035 53.94                             151    0.7410 70.8 303 
 BRR  HZ I         035 55.55        29.9 0.14            143           70.8 303 
 PAM  SZ EP        035 38.89                             147   -0.0810 83.1  39 
 PAM  SZ I         035 39.09        37.0 0.24            142           83.1  39 
 PAM  SN ES        035 55.44                             147   -0.3910 83.1  39 
 RUS  HZ IP     D  035 39.92                             143    0.0210 96.2 174 
 RUS  HN ES        035 57.32                             143   -0.1510 96.2 174 
 RUS  HZ I         035 59.34        20.0 0.22            141           96.2 174 
 PTB  HZ EP        035 42.57                             131   -0.65 9  144 260 
 PTB  HE ES        036  2.66                             131   -0.72 9  144 260 
 PTB  HZ I         036  6.93        24.1 0.16            124            144 260 
 TAM  HZ IP     C  035 44.21                             128   -0.31 9  157 103 
 TAM  HZ I         035 44.40        44.2 0.36            125            157 103 
 SPBC HZ EP        035 44.69                             128    0.07 9  157 219 
 SPBC HE ES        036  6.59                             128    0.71 9  157 219 
 SPBC HZ I         036 12.26        21.5 0.18            123            157 219 
 ZAR  HZ EP        035 49.39                             120    0.29 9  203 294 
 ZAR  HN ES        036 13.86                             120    0.01 9  203 294 
 ZAR  HZ I         036 16.65        17.9 0.14            114            203 294 
 CHI  HZ EP        035 53.34                             116   -0.64 8  243 195 
 CHI  HN ES        036 23.03                             116    0.49 8  243 195 
 CHI  HZ I         036 31.48         5.2 0.44            112            243 195 
 SML  HZ EP        035 53.06                             115   -0.75 8  247 336 
 SML  HZ I         036 33.42        13.0 0.26            110            247 336 
 GUY2CHZ EP        036  0.58                             111    0.63 7  296 235 
 GUY2CHN ES        036 31.49                             111   -1.68 7  296 235 
 GUY2CHZ I         036 43.86         8.2 0.64                           296 235 
 RREF HZ EP   9    035 59.73                             109   -2.76 0  316 230 
 RREF HN ES        036 33.76                                   -1.17 7  316 230 
 RREF HZ I         036 45.93         7.0 0.26            105            316 230 
 CBOC HZ EP        036  4.94                             108    1.55 7  329 253 
 CBOC HN ES        036 39.32                             108    0.03 7  329 253 
 CBOC HZ I         036 47.21         3.4 0.42            104            329 253 
 TOL  SZ EP        036  5.52                             108    0.91 7  338 225 
 TOL  SE ES        036 41.15                             108   -0.32 7  338 225 
 PRA  HZ EP        036 10.42                             105    0.51 6  386 209 
 PRA  HE ES        036 50.31                             105   -0.59 6  386 209 
 PRA  HZ I         036 59.23         5.8 0.34            102            386 209 
                                                                                
