 2016  212 0635 46.9 L   6.760 -73.150133.7  RSN  5 0.3 1.2LRSN                1
 GAP=138        0.78       3.4     3.6  7.6 -0.1938E+01  0.9713E+01 -0.9732E+00E
 Epicentro: LOS SANTOS - SANTANDER                                             3
 ACTION:UPD 16-03-04 21:25 OP:rebc STATUS:               ID:20160212063546 L   I
 OLDACT:UP  16-02-12 18:23 OP:ak   STATUS:               ID:20160212062747     3
 OLDACT:REG 16-02-12 16:08 OP:ak   STATUS:               ID:20160212062747     3
 2016-02-12-0627-47M.COL___286                                                 6
 STAT SP IPHASW D HRMM SECON CODA AMPLIT PERI AZIMU VELO AIN AR TRES W  DIS CAZ7
 PAM  EZ EP        636  8.17                             147    0.0710 81.1  38 
 PAM  EN ES        636 24.50                             147   -0.1310 81.1  38 
 PAM  EZ I         636 25.71         2.5 0.20            151           81.1  38 
 RUS  HZ EP        636  9.16                             142   -0.0010 96.2 176 
 RUS  HN ES        636 26.71                             142    0.1910 96.2 176 
 RUS  HZ I         636 29.02         1.9 0.28            146           96.2 176 
 PTB  HZ EP        636 12.31                             129   -0.49 9  146 260 
 PTB  HN ES        636 32.52                             129   -0.47 9  146 260 
 PTB  HZ I         636 34.81         1.8 0.14            131            146 260 
 SPBC HZ EP        636 14.16                             127    0.02 9  159 220 
 SPBC HN ES        636 35.58                             127    0.19 9  159 220 
 SPBC HZ I         636 37.75         3.8 0.10            129            159 220 
 ZAR  HZ EP   2    636 19.32                             119    0.59 4  205 293 
 ZAR  HN ES        636 44.15                             119    0.60 8  205 293 
 ZAR  HZ I         636 49.06         2.6 0.22            121            205 293 
                                                                                
