 2014 1112 0402 58.9 L   6.501 -73.608103.8  RSN  4 0.3 0.9LRSN                1
 GAP=133        0.85       4.9     4.0  8.0  0.8312E+01  0.9397E+01  0.1101E+02E
 Epicentro: SANTA HELENA DEL OPON - SANTANDER                                  3
 ACTION:UPD 14-12-19 15:42 OP:nd   STATUS:               ID:20141112040258 L   I
 OLDACT:ARG 14-11-12 12:06 OP:stll STATUS:               ID:20141112035744     3
 2014-11-12-0357-44M.COL___283                                                 6
 STAT SP IPHASW D HRMM SECON CODA AMPLIT PERI AZIMU VELO AIN AR TRES W  DIS CAZ7
 BAR2 SZ EP        4 3 14.49                             153   -0.0610 48.2  78 
 BAR2 SZ ES        4 3 26.20                             153   -0.5710 48.2  78 
 BAR2 SZ I         4 3 28.76         7.9 0.32            156           48.2  78 
 BRR  HZ EP        4 3 15.71                             144    0.2410 67.9 350 
 BRR  HN ES        4 3 28.73                             144    0.3310 67.9 350 
 RUS  HZ EP        4 3 17.69                             137   -0.1010 88.9 139 
 RUS  HZ I         4 3 17.84         0.9 0.34            139           88.9 139 
 RUS  HN ES        4 3 33.00                             137    0.4610 88.9 139 
 PTB  HZ EP        4 3 17.31                             134   -0.2510 93.9 273 
 PTB  HN ES        4 3 32.09                             134   -0.0410 93.9 273 
 PTB  HZ I         4 3 33.61         1.7 0.18            137           93.9 273 
                                                                                
