 2017  412 0141 58.8 L   6.763 -73.127144.1  RSN 15 0.4 1.9LRSN                1
 GAP=115        1.23       4.3     4.6  6.4  0.6021E+00  0.1596E+01  0.7454E+01E
 Epicentro: LOS SANTOS - SANTANDER                                             3
 ACTION:UPD 17-05-30 21:11 OP:jn   STATUS:               ID:20170412014158 L   I
 OLDACT:UP  17-04-12 16:44 OP:edw  STATUS:               ID:20170412013741     3
 OLDACT:REG 17-04-12 12:55 OP:edw  STATUS:               ID:20170412013741     3
 2017-04-12-0138-00M.COL___368                                                 6
 STAT SP IPHASW D HRMM SECON CODA AMPLIT PERI AZIMU VELO AIN AR TRES W  DIS CAZ7
 BAR2 EZ EP        142 18.28                             172    0.1410 19.9 198 
 BAR2 EZ ES        142 33.20                             172   -0.0410 19.9 198 
 BRR  HZ EP        142 20.20                             151    0.2410 75.0 300 
 BRR  HN ES        142 36.88                             151    0.3810 75.0 300 
 PAM  EZ EP     C  142 21.22                             150    0.2910 79.3  36 
 PAM  EN ES        142 38.10                             150   -0.1110 79.3  36 
 PAM  EZ I         142 40.19         4.2 0.24            155           79.3  36 
 RUS  HZ EP        142 22.20                             145    0.1410 96.4 177 
 RUS  HN ES        142 39.54                             145   -0.6810 96.4 177 
 RUS  HZ I         142 41.87        11.5 0.26            143           96.4 177 
 PTB  HZ EP   9    142 23.84                             131   -1.88 0  149 261 
 PTB  HN ES        142 45.78                             131    0.91 9  149 261 
 SPBC HZ EP        142 27.18                             129    0.21 9  161 220 
 SPBC HN ES        142 48.86                             129   -0.11 9  161 220 
 SPBC HZ I         142 55.61        12.0 0.16            127            161 220 
 YPLC HZ EP     D  142 28.55                             127    0.56 9  172 151 
 ZAR  HZ EP        142 30.46                             122   -1.01 8  208 293 
 ZAR  HN ES        142 56.44                             122   -0.54 8  208 293 
 ZAR  HZ I         143  1.90         9.2 0.50            121            208 293 
 NOR  HN ES   2    143  1.95                             118   -0.13 4  234 236 
 CHI  HZ EP        142 36.48                             117    0.47 8  245 196 
 CHI  HN ES        143  5.09                             117    0.03 8  245 196 
 CHI  HZ I         143  9.29         1.9 0.46            117            245 196 
 ROSC BZ EP   4    142 38.27                             117    1.73 0  250 212 
 ROSC BN ES   4    143 10.09                             117    4.09 0  250 212 
 ROSC BZ I         143 14.69         8.6 0.40            116            250 212 
 HEL  HZ EP   4    142 40.36                             114    1.34 0  273 257 
 HEL  HN ES        143 10.93                             114    0.52 8  273 257 
 HEL  HZ I         143 17.68         4.9 0.40            114            273 257 
 PTGC HZ EP        142 41.27                             112   -0.76 7  304 159 
 PTGC HN ES   4    143 13.91                             112   -1.87 0  304 159 
 PRA  HZ EP        142 51.97                             106    0.03 6  390 210 
 PRA  HN ES   4    143 35.42                             106    2.01 0  390 210 
 PRA  HZ I         143 42.75         4.2 0.66            106            390 210 
 SJC  HZ EP   9    142 52.38                             105   -2.43 0  414 327 
 SJC  HN ES        143 34.36                             106   -1.74 6  414 327 
                                                                                
