 2017  512 0212 27.1 L   7.126 -73.360  1.0  RSN  8 0.4 1.9LRSN                1
 GAP=148        1.41       8.2     3.1  7.2 -0.8947E+01 -0.1384E+01  0.3325E+02E
 Epicentro: LEBRIJA - SANTANDER                                                3
 ACTION:UPD 17-06-16 13:35 OP:jn   STATUS:               ID:20170512021227 L   I
 OLDACT:UP  17-05-12 14:58 OP:osc  STATUS:               ID:20170512020735d    3
 OLDACT:UP  17-05-12 14:58 OP:osc  STATUS:               ID:20170512020735d    3
 OLDACT:DUP 17-05-12 14:48 OP:osc  STATUS:               ID:20170512020735d    3
 2017-05-12-0208-00M.COL___365                                                 6
 STAT SP IPHASW D HRMM SECON CODA AMPLIT PERI AZIMU VELO AIN AR TRES W  DIS CAZ7
 BRR  HZ EP        212 33.10                              47   -0.8710 38.9 267 
 BRR  HE ES        212 39.43                              47    0.0710 38.9 267 
 PAM  EZ EP        212 40.26                              47    0.0710 76.7  72 
 PAM  EN ES        212 50.30                              47   -0.1310 76.7  72 
 PTB  HZ EP   9    212 48.13                              47   -0.78 0  137 242 
 PTB  HN ES        213  3.95                              47   -1.23 9  137 242 
 PTB  HZ I         213  7.08        26.9 0.34             47            137 242 
 RUS  HZ EP   9    212 48.00                              47   -1.75 0  140 167 
 RUS  HN ES        213  4.96                              47   -0.75 9  140 167 
 RUS  HZ I         213  6.19        22.3 0.36             47            140 167 
 ZAR  HZ EP        212 54.02                              47    0.14 9  170 284 
 ZAR  HN ES        213 14.90                              47    0.09 9  170 284 
 ZAR  HZ I         213 16.89         9.1 0.30             47            170 284 
 SPBC HZ EP   9    212 56.81                              37    1.27 0  181 206 
 SPBC HN ES        213 18.75                              37   -0.28 9  181 206 
 NOR  HN ES        213 31.48                              37    0.62 8  240 224 
 HEL  HZ EP        213  6.36                              37    0.47 8  261 247 
 HEL  HE ES   4    213 35.86                              37   -0.33 0  261 247 
 HEL  HZ I         213 40.05         4.3 0.28             37            261 247 
                                                                                
