 2015  212 0950 16.5 L   6.296 -73.624 98.6  RSN 10 0.5 1.4LRSN                1
 GAP=128        1.25       4.0     4.8  8.6 -0.5796E+01  0.1014E+02  0.5793E+01E
 Epicentro: SANTA HELENA DEL OPON - SANTANDER                                  3
 ACTION:UPD 15-04-30 21:25 OP:nd   STATUS:               ID:20150212095016 L   I
 OLDACT:REG 15-02-12 13:26 OP:fm   STATUS:               ID:20150212094744     3
 2015-02-12-0947-44M.COL___293                                                 6
 STAT SP IPHASW D HRMM SECON CODA AMPLIT PERI AZIMU VELO AIN AR TRES W  DIS CAZ7
 BAR2 EZ EP        950 32.92                             147    0.6110 58.8  56 
 BAR2 EZ ES        950 45.01                             147    0.4110 58.8  56 
 BAR2 EZ I         950 48.08        10.9 0.20            149           58.8  56 
 SPBC HZ EP        950 34.64                             136    0.3810 86.8 215 
 SPBC HN ES        950 47.67                             136   -0.4010 86.8 215 
 SPBC HZ I         950 51.49         8.1 0.24            136           86.8 215 
 PTB  HZ EP        950 34.34                             133   -0.6210 95.9 286 
 PTB  HE ES        950 49.30                             133   -0.0310 95.9 286 
 PTB  HZ I         950 51.70         6.5 0.14            132           95.9 286 
 NOR  HZ EP        950 41.59                             118    0.07 9  160 240 
 NOR  HN ES        951  0.82                             118   -0.18 9  160 240 
 NOR  HZ I         951  5.69         4.6 0.16            117            160 240 
 CHI  HZ EP        950 43.84                             114   -0.90 9  185 184 
 CHI  HN ES        951  6.08                             114   -0.65 9  185 184 
 CHI  HZ I         951 11.55         1.4 0.50            114            185 184 
 GUY2CHZ EP        950 49.96                             110    0.37 8  226 238 
 GUY2CHN ES        951 15.35                             110   -0.02 8  226 238 
 GUY2CHZ I         951 22.95         1.9 0.52                           226 238 
 RREF HZ EP        950 52.74                             108    0.71 8  245 231 
 RREF HE ES        951 19.86                             108    0.16 8  245 231 
 RREF HZ I         951 25.17      15.7e8 9.58            107            245 231 
 TOL  SE ES        951 24.42                             106    0.92 8  267 225 
 TOL  SZ I         951 28.61         2.4 0.78            105            267 225 
 SML  HE ES        951 25.16                             105   -0.70 7  281 350 
 SML  HZ I         951 31.47         2.2 0.10            103            281 350 
 MON  HZ EP   4    951  2.35                             102   -1.99 0  355 321 
 MON  HN ES   4    951 39.42                             102   -2.20 0  355 321 
 MON  HZ I         951 44.86         0.8 0.54             99            355 321 
                                                                                
