 2016  912 0618 53.4 L   6.791 -73.134141.5  RSN 10 0.6 1.5LRSN                1
 GAP=138        1.36       4.0     5.7  7.6 -0.2374E+01  0.7947E+01  0.3600E+01E
 Epicentro: LOS SANTOS - SANTANDER                                             3
 ACTION:UPD 17-08-17 21:09 OP:lp   STATUS:               ID:20160912061853 L   I
 OLDACT:UP  16-09-12 19:39 OP:and  STATUS:               ID:20160912060733d    3
 OLDACT:UP  16-09-12 19:37 OP:and  STATUS:               ID:20160912060733d    3
 OLDACT:DUP 16-09-12 19:25 OP:and  STATUS:               ID:20160912060733d    3
 OLDACT:UP  16-09-12 19:22 OP:and  STATUS:               ID:20160912060732     3
 OLDACT:UP  16-09-12 19:21 OP:and  STATUS:               ID:20160912060732     3
 OLDACT:UP  16-09-12 19:13 OP:and  STATUS:               ID:20160912060732     3
 OLDACT:UP  16-09-12 19:01 OP:and  STATUS:               ID:20160912060732     3
 OLDACT:REG 16-09-12 15:53 OP:and  STATUS:               ID:20160912060732     3
 2016-09-12-0608-00M.COL___300                                                 6
 STAT SP IPHASW D HRMM SECON CODA AMPLIT PERI AZIMU VELO AIN AR TRES W  DIS CAZ7
 BAR2 EZ EP        619 12.34                             170   -0.2010 22.6 194 
 BAR2 EZ ES        619 26.43                             170   -1.0110 22.6 194 
 BAR2 EZ I         619 30.37        10.1 0.23            169           22.6 194 
 BRR  HZ EP        619 14.30                             151    0.0810 72.8 299 
 BRR  HN ES        619 31.34                             151    0.9110 72.8 299 
 BRR  HZ I         619 34.47         5.8 0.27            151           72.8 299 
 PAM  EZ EP     D  619 15.48                             150    0.2810 77.4  38 
 PAM  EE ES        619 32.65                             150    0.4710 77.4  38 
 PAM  EZ I         619 34.70         5.3 0.38            155           77.4  38 
 RUS  HZ EP        619 16.64                             143   -0.0510 99.5 177 
 RUS  HN ES        619 34.93                             143    0.1010 99.5 177 
 RUS  HZ I         619 36.66         2.0 0.29            145           99.5 177 
 PTB  HZ EP        619 20.54                             131    0.38 9  149 259 
 PTB  HE ES        619 40.28                             131   -0.72 9  149 259 
 PTB  HZ I         619 46.60         2.9 0.18            132            149 259 
 OCA  HZ EP        619 20.58                             128   -0.95 9  161 353 
 OCA  HN ES        619 43.50                             128    0.05 9  161 353 
 OCA  HZ I         619 46.29         7.4 0.20            131            161 353 
 SPBC HZ EP        619 21.40                             128   -0.21 9  163 220 
 SPBC HN ES        619 44.36                             128    0.77 9  163 220 
 SPBC HZ I         619 46.72         4.8 0.12            129            163 220 
 ZAR  HZ EP   2    619 25.23                             121   -0.54 4  206 292 
 ZAR  HE ES        619 50.72                             121   -0.27 8  206 292 
 ZAR  HZ I         619 55.68         2.9 0.16            123            206 292 
 CHI  HZ EP        619 31.11                             116    0.28 8  248 196 
 CHI  HN ES        619 59.49                             116   -0.51 8  248 196 
 CHI  HZ I         620  8.64         1.9 0.20            118            248 196 
 GUY2CHZ EP        619 37.75                             111    0.85 7  302 235 
 GUY2CHE ES   4    620 13.87                             111    3.07 0  302 235 
 GUY2CHZ I         620 19.82         1.6 0.32                           302 235 
                                                                                
