 2010 1012 0647 44.1 L   7.550 -73.070149.4  RSN  4 0.1 1.3LRSN                1
 GAP=153        0.31       2.7     6.3  4.3  0.1287E+01  0.4385E+01  0.4164E+01E
 Epicentro: EL PLAYON - SANTANDER                                              3
 *GRA-BAR2-OCA                                                                 3
 ACTION:UP  11-02-18 11:09 OP:tino STATUS:               ID:20101012064744 L   I
 2010-10-12-0646-04S.COL___121                                                 6
 STAT SP IPHASW D HRMM SECON CODA AMPLIT PERI AZIMU VELO SNR AR TRES W  DIS CAZ7
 GUE  SZ EP   1    648  4.60                             166     0.0 7   35  27 
 GRA  SZ EP   1    648  4.65                             162    -0.1 7   47  38 
 GRA  SZ ES   1    648 20.90                             162     0.0 7   47  38 
 GRA  SZ I         648 22.11         4.3 0.39                            47  38 
 OCA  SZ EP   1    648  6.55                             150     0.1 7   81 340 
 OCA  SZ ES   1    648 23.79                             150    -0.1 7   81 340 
 OCA  SZ I         648 26.53         3.3 0.13                            81 340 
 BAR2 SZ EP   1    648  8.27                             143     0.0 7  107 187 
 BAR2 SZ ES   2    648 27.20                             143     0.0 5  107 187 
 BAR2 SZ I         648 30.68         2.5 0.25                           107 187 
                                                                                
