 2013  212 0049 36.3 L   6.834 -73.140145.7  RSN 14 0.4 2.4LRSN                1
 GAP= 70        0.89       3.0     3.0  5.4  0.1453E+00  0.2245E+01  0.1699E+01E
 Epicentro: LOS SANTOS - SANTANDER                                             3
 ACTION:UPD 13-03-12 09:32 OP:ep   STATUS:               ID:20130212004936 L   I
 2013-02-12-0046-51M.COL___182                                                 6
 STAT SP IPHASW D HRMM SECON CODA AMPLIT PERI AZIMU VELO AIN AR TRES W  DIS CAZ7
 BAR2 SZ EP        049 56.00                             169    0.0010 27.2 190 
 BAR2 SZ ES   1    050 11.21                             169   -0.15 7 27.2 190 
 BAR2 SZ I         050 12.41        78.8 0.26            167           27.2 190 
 BRR  HZ IP     D  049 57.73                             153    0.3610 70.0 296 
 BRR  HE ES   1    050 14.71                             153    0.91 7 70.0 296 
 BRR  HZ I         050 15.28        48.6 0.10            148           70.0 296 
 PAM  SZ EP        049 58.73                             152    0.4210 74.1  41 
 PAM  SE ES   1    050 15.59                             152    0.11 7 74.1  41 
 PAM  SZ I         050 17.77        41.5 0.56            138           74.1  41 
 RUS  HZ IP     D  050  0.06                             143   -0.2510  104 177 
 RUS  HN ES   1    050 18.68                             143   -0.36 7  104 177 
 RUS  HZ I         050 19.94        12.5 0.26            134            104 177 
 PTB  HZ EP        050  2.72                             132   -0.66 9  149 257 
 PTB  HN ES   1    050 23.55                             132   -0.95 7  149 257 
 PTB  HZ I         050 25.81        20.4 0.26            124            149 257 
 TAM  HZ IP     D  050  4.37                             130    0.36 9  156 106 
 TAM  HZ I         050 24.48        15.8 0.20            118            156 106 
 TAM  HE ES   1    050 25.54                             130   -0.08 7  156 106 
 OCA  HE ES   1    050 25.62                             130   -0.44 7  157 353 
 OCA  HZ I         050 31.83        29.4 0.38            119            157 353 
 ZAR  HZ EP   1    050  8.75                             122    0.10 6  203 291 
 ZAR  HN ES   1    050 33.99                             122    0.11 6  203 291 
 ZAR  HZ I         050 40.29        29.1 0.42            114            203 291 
 SML  HZ EP   2    050 11.89                             118   -0.68 4  241 335 
 SML  HE ES   1    050 40.39                             118   -0.48 6  241 335 
 SML  HZ I         050 43.78        41.7 0.22            109            241 335 
 CHI  HZ IP     C  050 14.40                             117    0.00 8  252 195 
 CHI  HN ES   1    050 44.15                             117    0.03 6  252 195 
 CHI  HZ I         050 49.06        10.6 0.50            108            252 195 
 ROSC BZ EP   1    050 15.43                             116    0.63 6  256 211 
 ROSC BN ES   1    050 44.73                             116   -0.10 6  256 211 
 ROSC BZ I         050 53.86        20.4 0.30            108            256 211 
 HEL  HZ EP   1 D  050 17.48                             115    0.81 6  274 255 
 HEL  HN ES   1    050 48.67                             115    0.50 6  274 255 
 HEL  HZ I         050 55.38        17.7 0.36            107            274 255 
 DBB  SZ EP   1    050 23.70                             109   -0.11 5  340 274 
 DBB  SZ ES   1    051  0.86                             109    0.00 5  340 274 
 DBB  SZ I         051  2.92        12.3 0.32            102            340 274 
 SDV  BZ EP        050 25.39                             108   -0.61 6  358  51 
 SDV  BZ I         051  4.33         3.5 0.35            100            358  51 
                                                                                
