 2012  112 0039 20.4 L   6.786 -73.078150.9  RSN 15 0.3 2.7LRSN                1
 GAP=146        0.62       2.3     4.0  3.8 -0.1307E+01  0.4654E+01  0.3923E+00E
 Epicentro: LOS SANTOS - SANTANDER                                             3
 ACTION:UP  12-02-03 08:16 OP:REBC STATUS:               ID:20120112003920 L   I
 2012-01-12-0038-59S.COL___187                                                 6
 STAT SP IPHASW D HRMM SECON CODA AMPLIT PERI AZIMU VELO SNR AR TRES W  DIS CAZ7
 BAR2 SZ EP        039 40.75                             170     0.110   24 208 
 BAR2 SZ ES   1    039 56.07                             170    -0.4 7   24 208 
 BAR2 SZ I         039 57.55        84.5 0.35                            24 208 
 GIR2 SZ EP        039 40.84                             166     0.010   35 339 
 GIR2 SZ ES   1    039 56.51                             166    -0.2 7   35 339 
 PAM  SZ EP   1    039 43.56                             153     0.6 7   74  34 
 PAM  SN ES   2    040  1.02                             153     0.4 5   74  34 
 BRR  HZ IP     C  039 42.65                             151     0.110   79 297 
 BRR  HZ I         039 42.94       219.6 0.19                            79 297 
 BRR  HE ES   1    040  0.14                             151     0.3 7   79 297 
 RUS  HZ EP   1    039 44.60                             145     0.0 7   99 180 
 RUS  HN ES   1    040  3.00                             145    -0.4 7   99 180 
 RUS  HZ I         040  4.64        33.0 0.23                            99 180 
 PTB  HZ EP   2    039 47.83                             132    -0.6 5  155 260 
 OCA  SZ EP        039 49.04                             130    -0.3 9  163 351 
 OCA  SZ ES   1    040 12.17                             130     0.2 7  163 351 
 OCA  SZ I         040 17.30        84.3 0.29                           163 351 
 ZAR  HZ EP   1    039 53.29                             122    -0.7 6  212 292 
 ZAR  HN ES   2    040 20.05                             122    -0.1 4  212 292 
 ZAR  HZ I         040 24.58        51.0 0.36                           212 292 
 NOR  SZ EP   1    039 57.09                             119     0.1 6  240 236 
 NOR  SZ ES   2    040 25.57                             119     0.0 4  240 236 
 CHI  HZ EP        039 58.62                             118     0.1 8  249 197 
 CHI  HZ I         040  1.44        17.1 0.42                           249 197 
 CHI  HE ES   1    040 28.40                             118     0.2 6  249 197 
 HEL  HZ EP   2    040  1.95                             115     0.3 4  279 256 
 HEL  HN ES   2    040 34.23                             115     0.4 4  279 256 
 HEL  HZ I         040 39.47        29.4 0.38                           279 256 
 RREF HZ EP   2    040  7.52                             111     0.2 3  326 230 
 RREF HN ES   2    040 43.94                             111     0.0 3  326 230 
 RREF HZ I         040 52.99        22.1 0.37                           326 230 
 DBB  SZ EP        040  9.18                             110     0.2 6  347 274 
 COD  HZ EP   1    040  8.75                             110    -0.5 5  351 353 
 COD  HN ES   2    040 47.37                             110     0.0 3  351 353 
 COD  HZ I         040 50.80        31.1 0.62                           351 353 
 PRA  HZ EP   2    040 14.41                             107     0.0 3  394 211 
 PRA  HN ES   2    040 56.40                             107    -0.1 3  394 211 
                                                                                
