 2014  512 0424  8.9 L   7.442 -73.258131.3  RSN  6 0.4 1.3LRSN                1
 GAP=105        0.89       4.2     4.3  9.3  0.3936E+01  0.2021E+02  0.1192E+02E
 Epicentro: EL PLAYON - SANTANDER                                              3
 OLDACT:DUP 14-05-12 17:10 OP:spq  STATUS:               ID:20140512041808d    3
 OLDACT:DUP 14-05-12 17:40 OP:spq  STATUS:               ID:20140512041809d    3
 OLDACT:UP  14-05-12 17:39 OP:spq  STATUS:               ID:20140512041808d    3
 ACTION:UPD 15-03-16 16:56 OP:nd   STATUS:               ID:20140512042408 L   I
 OLDACT:UP  14-05-12 17:51 OP:spq  STATUS:               ID:20140512041809d    3
 2014-05-12-0418-07M.COL___248                                                 6
 STAT SP IPHASW D HRMM SECON CODA AMPLIT PERI AZIMU VELO AIN AR TRES W  DIS CAZ7
 PAM  SZ EP        424 29.03                             153    0.3510 62.6 100 
 PAM  SN ES        424 44.38                             153    0.2510 62.6 100 
 PAM  SZ I         424 45.90         2.3 0.64            162           62.6 100 
 OCA  HZ EP   1    424 29.70                             144   -0.14 7 88.4 356 
 OCA  HN ES   1    424 45.82                             144   -0.37 7 88.4 356 
 OCA  SZ I         424 54.30         3.0 0.44            160           88.4 356 
 PTB  HZ EP        424 36.65                             125    0.19 9  166 233 
 PTB  HN ES   1    424 57.52                             125   -0.47 7  166 233 
 PTB  SZ I         425 13.64         5.9 2.90            129            166 233 
 RUS  HZ EP   1    424 36.96                             124   -0.79 7  172 174 
 RUS  HN ES   1    424 59.89                             124   -0.39 7  172 174 
 RUS  SZ I         425 17.03         2.2 1.06            130            172 174 
 SML  HE ES   1    424 58.91                             123   -0.68 7  175 329 
 ZAR  HZ EP        424 37.91                             123    0.36 9  177 272 
 ZAR  HN ES        425  0.31                             123    0.38 9  177 272 
 ZAR  SZ I         425  6.30         2.8 0.72            130            177 272 
 SPBC HN ES   4    425  5.10                             117   -2.67 0  217 205 
                                                                                
