 2011  212 0436  9.5 L   6.741 -73.099140.0  RSN  6 0.2 1.3LRSN                1
 GAP=165        0.47       3.2     5.8  6.2 -0.1071E+02  0.4985E+01  0.8715E+00E
 Epicentro: JORDAN - SANTANDER                                                 3
 ACTION:UP  11-03-28 15:07 OP:jfem STATUS:               ID:20110212043609 L   I
 2011-02-12-0434-36S.COL___136                                                 6
 STAT SP IPHASW D HRMM SECON CODA AMPLIT PERI AZIMU VELO SNR AR TRES W  DIS CAZ7
 BAR2 SZ IP        436 28.14                             172    -0.210   19 210 
 BAR2 SZ I         436 28.67        10.7 0.34                            19 210 
 BAR2 SZ ES   2    436 43.12                             172     0.1 5   19 210 
 BTL  SZ EP   1    436 28.50                             168     0.0 7   27 316 
 RUS  HZ EP   1    436 32.14                             145     0.0 7   94 179 
 RUS  HN ES   2    436 50.23                             145     0.3 5   94 179 
 RUS  HZ I         436 51.87         3.1 0.40                            94 179 
 GRA  SZ EP   1    436 34.98                             134     0.4 7  131  14 
 GRA  SZ ES   2    436 53.92                             134    -0.3 5  131  14 
 GRA  SZ I         436 55.69         3.5 0.44                           131  14 
 NOR  SN ES   1    437 12.75                             117     0.1 6  235 237 
 CHI  HZ EP   1    436 46.35                             116     0.0 6  244 197 
 CHI  HZ I         436 54.35         0.8 0.49                           244 197 
 CHI  HN ES   1    437 14.93                             116    -0.2 6  244 197 
                                                                                
