 2016  312 0326 12.9 L   6.790 -73.155138.3  RSN  8 0.5 1.9LRSN                1
 GAP= 71        1.21       4.0     3.9  7.6 -0.8712E+00  0.5825E+01 -0.3647E+01E
 Epicentro: LOS SANTOS - SANTANDER                                             3
 ACTION:UPD 16-05-13 21:23 OP:cam  STATUS:               ID:20160312032612 L   I
 OLDACT:REG 16-03-12 13:27 OP:ar   STATUS:               ID:20160312031751     3
 2016-03-12-0317-51M.COL___304                                                 6
 STAT SP IPHASW D HRMM SECON CODA AMPLIT PERI AZIMU VELO AIN AR TRES W  DIS CAZ7
 BAR2 EZ EP     C  326 31.64                             170    0.0610 22.1 188 
 BAR2 EZ ES        326 46.21                             170    0.0310 22.1 188 
 BAR2 EZ I         326 47.76        27.6 0.20            170           22.1 188 
 PAM  EZ EP        326 34.52                             149    0.1310 78.9  40 
 PAM  EN ES        326 51.36                             149    0.1810 78.9  40 
 PAM  EZ I         326 53.75        23.8 0.52            150           78.9  40 
 RUS  HZ EP        326 36.04                             142    0.2210 99.6 175 
 RUS  HN ES        326 53.32                             142   -0.4110 99.6 175 
 RUS  HZ I         326 54.81         7.6 0.22            144           99.6 175 
 PTB  HZ EP        326 38.51                             130   -0.62 9  147 259 
 PTB  HZ I         326 47.82         2.8 0.28            129            147 259 
 PTB  HN ES        326 59.11                             130   -0.51 9  147 259 
 TAM  HZ EP     D  326 40.02                             129   -0.02 9  156 104 
 TAM  HE ES        327  1.66                             129    0.44 9  156 104 
 TAM  HZ I         327  1.96         4.3 0.24            131            156 104 
 OCA  HZ EP        326 39.97                             128   -0.74 9  161 354 
 OCA  HN ES        327  1.97                             128   -0.45 9  161 354 
 OCA  HZ I         327  5.65        22.0 0.16            127            161 354 
 SPBC HZ EP        326 40.32                             128   -0.35 9  162 219 
 SPBC HN ES        327  2.72                             128    0.37 9  162 219 
 SPBC HZ I         327  6.94         8.1 0.36            127            162 219 
 ZAR  HZ EP        326 45.76                             121    0.97 9  204 293 
 ZAR  HN ES        327 10.65                             121    0.96 9  204 293 
 ZAR  HZ I         327 18.44        10.4 0.46            120            204 293 
                                                                                
