 2012 1112 0648  4.4 L   6.793 -73.153146.9  RSN 10 0.4 2.0LRSN                1
 GAP=136        0.81       3.5     4.7  6.2 -0.2409E+00  0.6043E+01  0.6921E+01E
 Epicentro: LOS SANTOS - SANTANDER                                             3
 ACTION:UPD 12-12-05 15:32 OP:}ep  STATUS:               ID:20121112064804 L   I
 2012-11-12-0646-36M.COL___209                                                 6
 STAT SP IPHASW D HRMM SECON CODA AMPLIT PERI AZIMU VELO AIN AR TRES W  DIS CAZ7
 BAR2 SZ EP   1    648 24.10                             171   -0.01 7 22.4 188 
 BAR2 SZ ES   1    648 39.12                             171   -0.40 7 22.4 188 
 BAR2 SZ I         648 41.82        42.1 0.28                          22.4 188 
 GIR2 SZ EP   1    648 24.17                             167   -0.02 7 31.9 352 
 GIR2 SZ ES   1    648 39.91                             167    0.25 7 31.9 352 
 BRR  HZ EP   1    648 25.94                             153    0.32 7 70.8 299 
 BRR  HE ES   1    648 42.96                             153    0.76 7 70.8 299 
 BRR  HZ I         648 45.63        13.0 0.14                          70.8 299 
 PAM  SZ EP   1    648 26.91                             151    0.14 7 78.5  40 
 PAM  SN ES   1    648 44.18                             151   -0.07 7 78.5  40 
 PAM  SZ I         648 46.37        18.8 0.22                          78.5  40 
 RUS  HZ EP   1    648 27.95                             144   -0.23 7 99.8 176 
 RUS  HN ES   1    648 46.64                             144   -0.11 7 99.8 176 
 RUS  HZ I         648 47.93         9.1 0.42                          99.8 176 
 PTB  HZ EP   1    648 30.73                             132   -0.61 7  147 259 
 PTB  HN ES   1    648 51.49                             132   -0.88 7  147 259 
 PTB  HZ I         648 57.96        11.7 0.24                           147 259 
 OCA  HN ES   1    648 54.83                             130   -0.20 7  161 353 
 OCA  HZ I         649  0.29        15.5 0.29                           161 353 
 ZAR  HN ES   1    649  2.42                             123    0.26 6  204 292 
 ZAR  HZ I         649  8.39        13.5 0.32                           204 292 
 CHI  HZ EP   1    648 42.12                             117    0.10 6  248 195 
 CHI  HN ES   1    649 11.64                             117    0.25 6  248 195 
 CHI  HZ I         649 20.10         3.9 0.35                           248 195 
 PRA  HZ EP   1    648 57.68                             107   -0.11 4  391 210 
 PRA  HN ES   1    649 40.80                             107    1.33 4  391 210 
                                                                                
