 2013  212 0504 51.1 L   6.796 -73.138151.1  RSN  7 0.4 1.5LRSN                1
 GAP=138        0.91       6.0     5.6  9.1 -0.1085E+01  0.2054E+01  0.6434E+00E
 Epicentro: LOS SANTOS - SANTANDER                                             3
 ACTION:UPD 13-03-12 09:32 OP:ep   STATUS:               ID:20130212050451 L   I
 2013-02-12-0500-00M.COL___240                                                 6
 STAT SP IPHASW D HRMM SECON CODA AMPLIT PERI AZIMU VELO AIN AR TRES W  DIS CAZ7
 BAR2 SZ EP        5 5 11.31                             171   -0.0910 23.1 192 
 BAR2 SZ I         5 5 27.94         7.2 0.38            162           23.1 192 
 BRR  HZ IP     C  5 5 13.11                             153    0.2010 72.1 299 
 BRR  HN ES   1    5 5 30.80                             153    0.91 7 72.1 299 
 BRR  HZ I         5 5 32.96         4.0 0.32            154           72.1 299 
 PAM  SZ EP        5 5 14.12                             152    0.2210 77.2  39 
 PAM  SN ES   1    5 5 30.98                             152   -0.69 7 77.2  39 
 PAM  SZ I         5 5 33.46         2.7 0.56            151           77.2  39 
 RUS  HZ EP   1    5 5 15.59                             145    0.22 7  100 177 
 RUS  HZ I         5 5 28.22         2.5 0.42            136            100 177 
 PTB  HZ EP   1    5 5 18.28                             133   -0.32 7  148 259 
 PTB  HN ES   1    5 5 39.27                             133   -0.76 7  148 259 
 PTB  HZ I         5 5 41.34         3.3 0.12            129            148 259 
 ZAR  HN ES   2    5 5 49.98                             123    0.30 4  205 292 
 ZAR  HZ I         5 5 56.28         5.0 0.32            121            205 292 
 SML  HZ EP        5 5 28.15                             118    0.01 8  244 335 
 SML  HN ES   1    5 5 56.67                             118   -0.33 6  244 335 
 SML  HZ I         5 6  3.94         5.6 0.28            116            244 335 
                                                                                
