 2010  112 0604  7.2 L   6.788 -72.756143.6  RSN  4 0.3 1.6LRSN                1
 GAP=226        0.62       3.6    29.9 10.7 -0.1695E+01 -0.2222E+03 -0.2718E+01E
 Epicentro: CONCEPCION - SANTANDER                                             3
 ACTION:UP  10-08-24 09:43 OP:vdl  STATUS:               ID:20100112060407 L   I
 2010-01-12-0603-37S.COL___097                                                 6
 STAT SP IPHASW D HRMM SECON CODA AMPLIT PERI AZIMU VELO SNR AR TRES W  DIS CAZ7
 BAR2 SZ IP        6 4 27.69                             159     0.210   52 245 
 BAR2 SZ ES   1    6 4 43.02                             159    -0.3 7   52 245 
 GIR2 SZ EP   1    6 4 27.62                             157     0.0 7   58 304 
 OCA  SZ IP        6 4 36.05                             127    -0.4 9  172 339 
 OCA  SZ ES        6 4 59.48                             127     0.2 9  172 339 
 OCA  SZ I         6 5  1.60         8.9 0.21                           172 339 
 CHI  HZ EP   2    6 4 46.49                             115     0.3 4  262 204 
 CHI  HN ES   2    6 5 16.49                             115    -0.2 4  262 204 
 CHI  HZ I         6 5 24.42         1.3 0.41                           262 204 
                                                                                
