 2013 1212 0516 49.8 L   6.826 -73.138147.0  RSN  9 0.5 1.7LRSN                1
 GAP=184        1.08       4.1     5.8  6.9  0.2723E+01  0.4793E+01 -0.5169E+00E
 Epicentro: LOS SANTOS - SANTANDER                                             3
 ACTION:UPD 14-01-13 10:17 OP:ep   STATUS:               ID:20131212051649 L   I
 OLDACT:DUP 13-12-12 10:27 OP:jn   STATUS:               ID:20131212051001d    3
 OLDACT:REG 13-12-12 07:00 OP:jn   STATUS:               ID:20131212051000     3
 2013-12-12-0510-00M.COL___285                                                 6
 STAT SP IPHASW D HRMM SECON CODA AMPLIT PERI AZIMU VELO AIN AR TRES W  DIS CAZ7
 BAR2 SZ EP        517  9.89                             169    0.2210 26.3 191 
 BAR2 SZ ES        517 25.24                             169    0.0910 26.3 191 
 BAR2 SZ I         517 26.24        13.5 0.18            169           26.3 191 
 BRR  HZ EP        517 11.61                             153    0.5310 70.7 296 
 BRR  HN ES        517 28.37                             153    0.7110 70.7 296 
 BRR  HZ I         517 30.96         7.9 0.14            152           70.7 296 
 RUS  HZ EP        517 13.92                             143    0.0210  103 177 
 RUS  HN ES   1    517 31.89                             143   -0.79 7  103 177 
 RUS  HZ I         517 33.91         4.1 0.22            145            103 177 
 PTB  HZ EP        517 16.71                             132   -0.32 9  149 258 
 PTB  HN ES        517 37.44                             132   -0.80 9  149 258 
 PTB  HZ I         517 40.37         6.1 0.10            132            149 258 
 OCA  HE ES   1    517 39.08                             130   -0.87 7  158 353 
 OCA  HZ I         517 42.81         6.6 0.24            132            158 353 
 SPBC HZ EP        517 18.89                             129    0.20 9  166 219 
 SPBC HN ES   1    517 40.97                             129   -0.22 7  166 219 
 ZAR  HE ES        517 47.99                             123    0.30 9  204 291 
 NOR  HZ EP        517 26.29                             118    0.40 8  237 234 
 NOR  HN ES   1    517 54.05                             118    0.04 6  237 234 
 NOR  HZ I         517 59.91         5.1 0.16            119            237 234 
 SML  HZ EP        517 26.07                             118   -0.22 8  242 335 
 SML  HN ES   1    517 54.27                             118   -0.46 6  242 335 
                                                                                
