 2013 1212 0702 31.4 L   6.820 -73.150146.6  RSN  7 0.5 1.7LRSN                1
 GAP=135        1.14       3.8     8.2  7.2  0.3100E+01  0.2464E+00 -0.2055E+01E
 Epicentro: LOS SANTOS - SANTANDER                                             3
 ACTION:UPD 14-01-13 10:17 OP:ep   STATUS:               ID:20131212070231 L   I
 OLDACT:REG 13-12-12 07:08 OP:jn   STATUS:               ID:20131212070000     3
 2013-12-12-0700-00M.COL___285                                                 6
 STAT SP IPHASW D HRMM SECON CODA AMPLIT PERI AZIMU VELO AIN AR TRES W  DIS CAZ7
 BAR2 SZ EP        7 2 51.25                             170    0.1010 25.5 188 
 BAR2 SZ ES        7 3  6.23                             170   -0.3410 25.5 188 
 BAR2 SZ I         7 3  7.78        19.4 0.20            169           25.5 188 
 BRR  HZ EP        7 2 53.06                             153    0.5310 69.7 297 
 BRR  HN ES        7 3  9.64                             153    0.6110 69.7 297 
 BRR  HZ I         7 3 12.54         8.1 0.32            156           69.7 297 
 PAM  SZ EP        7 2 54.17                             151    0.5810 76.0  41 
 PAM  SZ I         7 3 11.92         6.0 0.26            144           76.0  41 
 RUS  HZ EP        7 2 55.18                             143   -0.1910  103 176 
 RUS  HN ES        7 3 13.55                             143   -0.5410  103 176 
 RUS  HZ I         7 3 14.96         3.3 0.70            142            103 176 
 SPBC HZ EP        7 3  0.16                             129    0.09 9  165 218 
 SPBC HN ES        7 3 22.40                             129   -0.06 9  165 218 
 SPBC HZ I         7 3 26.73         7.0 0.72            130            165 218 
 SML  HZ EP        7 3  7.15                             118   -0.65 8  241 335 
 SML  HN ES        7 3 35.35                             118   -0.87 8  241 335 
 CHI  HZ EP        7 3  9.78                             117    0.44 8  251 195 
 CHI  HN ES        7 3 38.82                             117   -0.13 8  251 195 
 CHI  HZ I         7 3 42.29         3.3 0.50            116            251 195 
                                                                                
