 2017  412 0037 21.2 L   6.747 -73.306143.7  RSN  5 0.3 1.4LRSN                1
 GAP=190        0.77       5.7     5.0  6.2  0.1741E+02  0.5806E+01  0.2633E+01E
 Epicentro: ZAPATOCA - SANTANDER                                               3
 ACTION:UPD 17-05-30 21:11 OP:jn   STATUS:               ID:20170412003721 L   I
 OLDACT:UP  17-04-12 14:48 OP:edw  STATUS:               ID:20170412002743d    3
 OLDACT:DUP 17-04-12 14:46 OP:edw  STATUS:               ID:20170412002743d    3
 OLDACT:UP  17-04-12 14:45 OP:edw  STATUS:               ID:20170412002742     3
 OLDACT:REG 17-04-12 12:47 OP:edw  STATUS:               ID:20170412002742     3
 2017-04-12-0028-00M.COL___368                                                 6
 STAT SP IPHASW D HRMM SECON CODA AMPLIT PERI AZIMU VELO AIN AR TRES W  DIS CAZ7
 BAR2 EZ EP        037 40.48                             171   -0.0410 21.9 142 
 BAR2 EZ ES        037 55.36                             171   -0.2610 21.9 142 
 BAR2 EZ I         037 56.36         5.6 0.26            168           21.9 142 
 BRR  HZ EP        037 41.91                             156    0.4110 60.0 312 
 BRR  HN ES        037 57.60                             156    0.2510 60.0 312 
 RUS  HZ EP        037 44.30                             144   -0.2110 97.7 165 
 RUS  HN ES        038  2.75                             144    0.0410 97.7 165 
 RUS  HZ I         038  4.51         5.3 0.30            143           97.7 165 
 PTB  HZ EP        037 46.45                             136    0.1110  129 260 
 PTB  HN ES        038  6.18                             136    0.2110  129 260 
 PTB  HZ I         038 10.55         2.1 0.50            134            129 260 
 ZAR  HE ES        038 15.53                             124   -0.63 9  190 296 
                                                                                
