 2012 1012 0834 41.7 L   6.760 -73.144143.4  RSN  5 0.3 1.5LRSN                1
 GAP=139        0.37       4.5    12.3  9.8 -0.2669E+01 -0.6549E+02 -0.1401E+02E
 Epicentro: LOS SANTOS - SANTANDER                                             3
 ACTION:UPD 12-11-22 17:03 OP:ep   STATUS:               ID:20121012083441 L   I
 2012-10-12-0830-00M.COL___231                                                 6
 STAT SP IPHASW D HRMM SECON CODA AMPLIT PERI AZIMU VELO AIN AR TRES W  DIS CAZ7
 BAR2 SZ EP   3    835  0.45                             172   -0.54 2 19.0 193 
 BAR2 SZ ES   3    835 15.82                             172   -0.19 2 19.0 193 
 BAR2 SZ I         835 17.49         9.2 0.28                          19.0 193 
 GIR2 SZ EP   2    835  0.89                             165   -0.35 5 35.7 351 
 GIR2 SZ ES   3    835 16.79                             165    0.32 2 35.7 351 
 BRR  HN ES   3    835 19.48                             151    0.32 2 73.6 301 
 BRR  HN I         835 20.60        13.2 0.18                          73.6 301 
 PAM  SZ EP        835  3.94                             149    0.0510 80.7  37 
 PAM  SZ I         835  4.20         3.8 0.22                          80.7  37 
 RUS  HZ EP   2    835  5.19                             144    0.27 5 96.2 176 
 RUS  HN ES   2    835 22.93                             144   -0.09 5 96.2 176 
 RUS  HN I         835 25.21         2.4 0.42                          96.2 176 
                                                                                
