 2016 1112 0338 32.7 L   6.446 -73.800 99.1  RSN  6 0.1 1.7LRSN                1
 GAP=154        0.74       3.2     2.7  5.9 -0.2360E+01  0.3754E+01  0.3199E+01E
 Epicentro: CIMITARRA - SANTANDER                                              3
 ACTION:UPD 17-10-26 21:07 OP:lp   STATUS:               ID:20161112033832 L   I
 OLDACT:DUP 16-11-12 15:48 OP:and  STATUS:               ID:20161112032747d    3
 OLDACT:UP  16-11-12 15:42 OP:and  STATUS:               ID:20161112032746     3
 OLDACT:UP  16-11-12 15:36 OP:and  STATUS:               ID:20161112032746     3
 OLDACT:REG 16-11-12 12:38 OP:and  STATUS:               ID:20161112032746     3
 2016-11-12-0328-00M.COL___340                                                 6
 STAT SP IPHASW D HRMM SECON CODA AMPLIT PERI AZIMU VELO AIN AR TRES W  DIS CAZ7
 BAR2 EZ EP        338 49.13                             141   -0.1510 70.2  77 
 BAR2 EZ ES        339  2.28                             141    0.0410 70.2  77 
 BAR2 EZ I         339  3.96        12.6 0.30            140           70.2  77 
 PTB  HZ EP   9    338 47.74                             140   -1.47 0 73.3 278 
 PTB  HE ES        338 59.89                                   -0.7510 73.3 278 
 PTB  HZ I         339  0.32         8.8 0.12            138           73.3 278 
 BRR  HZ EP        338 48.99                             139   -0.2410 73.8   8 
 BRR  HE ES        339  2.17                             139    0.0310 73.8   8 
 NOR  HZ EP        338 57.16                             118    0.19 9  153 231 
 NOR  HN ES        339 15.85                             118   -0.07 9  153 231 
 NOR  HZ I         339 16.87        11.2 0.18            117            153 231 
 PAM  EN ES        339 17.63                             117    0.07 9  157  51 
 ZAR  HZ EP        338 58.11                             116   -0.01 9  165 315 
 ZAR  HE ES        339 18.18                             116    0.20 9  165 315 
 ZAR  HZ I         339 22.53         7.7 0.18            114            165 315 
                                                                                
