 2014  112 0214  6.3 L   6.527 -73.572108.9  RSN  9 0.4 1.8LRSN                1
 GAP= 76        1.13       2.8     3.7  6.3 -0.1895E+01  0.4844E+01 -0.7482E+00E
 Epicentro: EL CARMEN DE CHUCURI - SANTANDER                                   3
 ACTION:UPD 14-03-13 09:54 OP:ep   STATUS:               ID:20140112021406 L   I
 OLDACT:REG 14-01-12 07:13 OP:carl STATUS:               ID:20140112021000     3
 2014-01-12-0210-00M.COL___285                                                 6
 STAT SP IPHASW D HRMM SECON CODA AMPLIT PERI AZIMU VELO AIN AR TRES W  DIS CAZ7
 BAR2 SZ IP     C  214 22.73                             157    0.4110 43.7  81 
 BAR2 SZ ES        214 34.81                             157    0.0210 43.7  81 
 BAR2 SZ I         214 36.65       121.5 0.50            159           43.7  81 
 BRR  HZ EP        214 23.61                             146    0.3410 66.0 346 
 BRR  HN ES        214 37.18                             146    0.6910 66.0 346 
 RUS  HZ EP        214 25.59                             138   -0.0610 88.6 142 
 RUS  HE ES        214 40.23                             138   -0.5110 88.6 142 
 RUS  HZ I         214 43.77         3.0 0.22            140           88.6 142 
 PTB  HZ EP        214 25.47                             135   -0.3010 97.8 271 
 PTB  HN ES        214 40.34                             135   -0.6010 97.8 271 
 PTB  HZ I         214 44.85        10.0 0.10            135           97.8 271 
 PAM  SZ EP        214 29.46                             126   -0.1210  132  47 
 PAM  SN ES        214 47.39                             126   -0.3310  132  47 
 NOR  HZ EP        214 34.19                             116    0.27 9  179 233 
 NOR  HN ES        214 55.18                             116   -0.28 9  179 233 
 NOR  HZ I         214 58.22         5.6 0.16            117            179 233 
 OCA  HZ EP        214 34.74                             115   -0.70 9  191   8 
 OCA  HN ES        214 58.16                             115    0.01 9  191   8 
 OCA  HZ I         215  2.80         7.8 0.40            116            191   8 
 CHI  HZ EP        214 37.82                             112   -0.10 8  211 185 
 CHI  HN ES        215  3.57                             112    1.01 8  211 185 
 CHI  HZ I         215  7.74         2.1 0.56            113            211 185 
 SML  HZ EP        214 42.61                             107   -0.16 8  257 348 
 SML  HN ES        215 11.85                             107    0.65 8  257 348 
 SML  HZ I         215 16.33         9.8 0.12            108            257 348 
                                                                                
