 2011  412 0739  4.1 L   6.715 -73.099143.1  RSN 11 0.4 1.9LRSN                1
 GAP=164        0.69       5.3     6.0  5.8 -0.1841E+02  0.2397E+01  0.4899E+01E
 Epicentro: JORDAN - SANTANDER                                                 3
 ACTION:UP  11-06-22 15:30 OP:REBC STATUS:               ID:20110412073904 L   I
 2011-04-12-0735-59S.COL___140                                                 6
 STAT SP IPHASW D HRMM SECON CODA AMPLIT PERI AZIMU VELO SNR AR TRES W  DIS CAZ7
 BAR2 SZ EP   1    739 23.38                             173     0.1 7   16 214 
 BAR2 SZ ES   1    739 38.21                             173     0.0 7   16 214 
 BAR2 SZ I         739 39.98        42.1 0.19                            16 214 
 BTL  SZ EP   1    739 23.48                             168     0.0 7   29 320 
 GIR2 SZ EP   2    739 24.68                             163     0.9 5   42 345 
 BRR  HZ EP   1    739 25.30                             149    -0.2 7   80 303 
 BRR  HN ES   1    739 42.44                             149     0.2 7   80 303 
 BRR  HZ I         739 44.30        25.9 0.10                            80 303 
 PAM  SZ EP   1    739 26.20                             149    -0.1 7   82  33 
 PAM  SN ES   1    739 43.24                             149    -0.4 7   82  33 
 PAM  SZ I         739 46.05         6.0 0.52                            82  33 
 GRA  SZ EP   1    739 30.24                             134     0.5 7  133  14 
 GRA  SZ ES   1    739 49.60                             134    -0.2 7  133  14 
 GRA  SZ I         739 54.40        12.9 0.31                           133  14 
 OCA  SZ EP   1    739 33.07                             127    -0.1 7  170 352 
 NOR  SZ EP   1    739 39.19                             118    -0.4 6  234 237 
 NOR  SN ES   2    740  7.52                             118     0.3 4  234 237 
 NOR  SZ I         740 12.86         1.8 0.24                           234 237 
 CHI  HZ EP   2    739 41.23                             117     0.4 4  241 197 
 CHI  HZ I         739 42.37         7.9 0.15                           241 197 
 HEL  HN ES   2    740 15.46                             114    -0.5 4  275 258 
 PRA  HZ EP   2    739 55.96                             106    -0.9 3  386 211 
                                                                                
