 2012 1212 0907  5.5 L   6.710 -73.309130.1  RSN  4 0.4 0.7LRSN                1
 GAP=210        0.69       6.7     6.7  9.3  0.2980E+02  0.6052E+01  0.2987E+01E
 Epicentro: GALAN - SANTANDER                                                  3
 ACTION:UPD 13-01-04 14:27 OP:ep   STATUS:               ID:20121212090705 L   I
 2012-12-12-0900-00M.COL___242                                                 6
 STAT SP IPHASW D HRMM SECON CODA AMPLIT PERI AZIMU VELO AIN AR TRES W  DIS CAZ7
 BRR  HZ EP   1    9 7 24.44                             153    0.01 7 62.6 315 
 BRR  HN ES   1    9 7 38.94                             153   -0.28 7 62.6 315 
 RUS  HZ EP   1    9 7 27.30                             142    0.12 7 93.7 165 
 RUS  HE ES   1    9 7 44.34                             142    0.22 7 93.7 165 
 RUS  HZ I         9 7 45.96         0.6 0.44                          93.7 165 
 PTB  HZ EP   1    9 7 28.85                             132   -0.53 7  128 262 
 PTB  HE ES   1    9 7 47.92                             132   -0.12 7  128 262 
 PTB  HZ I         9 7 51.22         0.8 0.13                           128 262 
 ZAR  HN ES   1    9 7 59.86                             120    0.70 7  192 297 
 ZAR  HZ I         9 8  4.03         1.0 0.30                           192 297 
                                                                                
