 2012  112 0212 13.1 L   6.742 -73.165158.2  RSN  4 0.4 1.6LRSN                1
 GAP=179        0.64       8.1     8.7  9.4  0.1552E+02  0.1514E+02  0.1028E+02E
 Epicentro: VILLANUEVA - SANTANDER                                             3
 ACTION:UP  12-02-03 08:16 OP:REBC STATUS:               ID:20120112021213 L   I
 2012-01-12-0210-00M.COL___187                                                 6
 STAT SP IPHASW D HRMM SECON CODA AMPLIT PERI AZIMU VELO SNR AR TRES W  DIS CAZ7
 GIR2 SZ EP   2    212 34.20                             166    -0.3 5   37 355 
 GIR2 SZ ES   2    212 50.54                             166    -0.5 5   37 355 
 BRR  HZ EP   1    212 36.01                             154     0.3 7   73 304 
 BRR  HZ I         212 36.17         7.0 0.13                            73 304 
 BRR  HN ES   2    212 53.84                             154     0.5 5   73 304 
 RUS  HZ EP   2    212 37.29                             148    -0.4 5   94 174 
 RUS  HN ES   2    212 57.31                             148     0.4 5   94 174 
 PTB  HZ EP   1    212 40.93                             135     0.1 7  145 261 
 PTB  HN ES   2    213  1.91                             135    -0.6 5  145 261 
                                                                                
