 2012  912 0230 27.4 L   6.764 -73.150146.5  RSN  8 0.3 2.1LRSN                1
 GAP=111        0.53       4.2     3.9  5.8  0.6546E+01 -0.5927E+01 -0.4030E+01E
 Epicentro: LOS SANTOS - SANTANDER                                             3
 ACTION:UPD 12-10-22 14:18 OP:ep   STATUS:               ID:20120912023027 L   I
 2012-09-12-0230-00M.COL___227                                                 6
 STAT SP IPHASW D HRMM SECON CODA AMPLIT PERI AZIMU VELO AIN AR TRES W  DIS CAZ7
 BAR2 SZ EP        230 46.93                             172   -0.1410 19.3 191 
 BAR2 SZ ES   2    231  1.80                             172   -0.59 5 19.3 191 
 BAR2 SZ I         231  3.91        37.5 0.20                          19.3 191 
 GIR2 SZ EP   1    230 47.04                             166   -0.26 7 35.2 352 
 BRR  HZ EP        230 49.07                             152    0.3210 72.8 301 
 BRR  HN ES   1    231  5.66                             152    0.29 7 72.8 301 
 BRR  HZ I         231  9.59        22.5 0.16                          72.8 301 
 RUS  HZ EP        230 51.07                             145    0.1010 96.6 176 
 RUS  HN ES   1    231  9.47                             145    0.14 7 96.6 176 
 RUS  HZ I         231 12.65        14.6 0.49                          96.6 176 
 PTB  HE ES   2    231 14.96                             132   -0.38 5  147 260 
 TAM  HZ EP   1    230 55.07                             131   -0.05 7  155 103 
 ZAR  HZ EP   2    230 59.63                             122   -0.40 4  205 293 
 ZAR  HN ES   2    231 25.20                             122   -0.26 4  205 293 
 ZAR  HZ I         231 31.33        15.3 0.20                           205 293 
 NOR  SN ES   2    231 30.56                             119   -0.02 4  232 235 
                                                                                
