 2014  412 0642 19.7 L   5.960 -73.717123.4  RSN 14 0.4 1.9LRSN                1
 GAP= 85        0.93       2.5     2.5  5.6 -0.1996E+01  0.1352E+01 -0.1710E+00E
 Epicentro: GUAVATA - SANTANDER                                                3
 2014-04-12-0638-18M.COL___230                                                 6
 ACTION:UPD 14-05-13 23:07 OP:nd   STATUS:               ID:20140412064219 L   I
 OLDACT:UP  14-04-15 04:25 OP:CAM  STATUS:               ID:20140412064219 L   3
 OLDACT:DUP 14-04-12 18:39 OP:stll STATUS:               ID:20140412063819d    3
 STAT SP IPHASW D HRMM SECON CODA AMPLIT PERI AZIMU VELO AIN AR TRES W  DIS CAZ7
 SPBC HZ EP        642 37.27                             156   -0.2210 52.0 229 
 SPBC HZ I         642 37.68        16.4 0.10            159           52.0 229 
 RUS  HZ EP        642 39.05                             149   -0.0810 70.6  96 
 RUS  HZ I         642 53.77         8.9 1.36            149           70.6  96 
 RUS  HN ES        642 54.46                             149    0.1610 70.6  96 
 PTB  HZ EP        642 40.60                             137   -0.3210  104 308 
 PTB  HN ES        642 57.11                             137   -0.3810  104 308 
 PTB  HZ I         643  2.22        12.4 0.42            140            104 308 
 NOR  HZ EP        642 43.79                             129    0.0510  135 251 
 NOR  HN ES        643  2.90                             129    0.4010  135 251 
 CHI  HZ EP        642 45.05                             127   -0.34 9  147 181 
 CHI  HZ I         642 45.45         5.3 0.26            129            147 181 
 CHI  HN ES        643  4.83                             127   -0.62 9  147 181 
 PAM  SZ EP        642 50.38                             119    0.54 9  190  36 
 PAM  SN ES        643 13.75                             119    0.38 9  190  36 
 PAM  SZ I         643 17.04         5.1 0.18            121            190  36 
 GUY2CHZ EP        642 51.43                             118    0.50 9  200 246 
 GUY2CHN ES        643 15.70                             118    0.40 9  200 246 
 GUY2CHZ I         643 20.59         9.6 0.28                           200 246 
 HEL  HZ EP        642 51.28                             117    0.24 9  202 277 
 HEL  HE ES        643 15.45                             117   -0.04 9  202 277 
 HEL  HZ I         643 19.48        12.5 0.52            120            202 277 
 RREF HZ EP        642 53.12                             116    0.31 8  215 237 
 RREF HN ES        643 18.74                             116    0.09 8  215 237 
 RREF HZ I         643 21.82         6.7 0.24            119            215 237 
 TAM  HZ EP        642 53.04                             115    0.52 8  220  76 
 TAM  HZ I         642 53.44        10.8 0.32            117            220  76 
 ANIL HN ES        643 24.59                             112    0.31 8  248 229 
 PRA  HZ EP        642 58.54                             109   -0.84 7  280 208 
 PRA  HN ES        643 30.52                             109    0.18 7  280 208 
 PRA  HZ I         643 33.58         7.6 0.64            111            280 208 
 ORTC HZ EP        642 59.48                             109   -0.24 7  283 217 
 ORTC HN ES   4    643 28.22                             109   -2.73 0  283 217 
 ORTC HZ I         643 34.65         5.0 0.56            111            283 217 
 SML  HZ EP        643  3.04                             106   -0.52 7  317 353 
 SML  HN ES        643 37.08                             106   -0.70 7  317 353 
 SML  HZ I         643 41.22         6.6 0.82            108            317 353 
                                                                                
