 2010  512 0004  7.5 L   6.764 -73.057142.9  RSN 11 0.4 2.1LRSN                1
 GAP=167        0.90       3.8     7.0  6.2 -0.1012E+02  0.6462E+01 -0.7187E-01E
 Epicentro: LOS SANTOS - SANTANDER                                             3
 ACTION:UP  10-08-24 10:04 OP:vdl  STATUS:               ID:20100512000407 L   I
 2010-05-12-0000-33S.COL___104                                                 6
 STAT SP IPHASW D HRMM SECON CODA AMPLIT PERI AZIMU VELO AIN AR TRES W  DIS CAZ7
 BAR2 SZ EP        0 4 26.74                             170    -0.110   24 216 
 BAR2 SZ ES   1    0 4 41.32                             170    -0.5 7   24 216 
 BRR  HZ IP     C  0 4 29.24                             148     0.210   82 298 
 BRR  HN ES   1    0 4 45.82                             148     0.1 7   82 298 
 BRR  HZ I         0 4 50.01        30.7 0.07                            82 298 
 RUS  HZ EP        0 4 30.63                             145    -0.110   96 182 
 RUS  HN ES   1    0 4 49.18                             145     0.4 7   96 182 
 RUS  HZ I         0 4 51.06        13.1 0.26                            96 182 
 BRI  SZ EP        0 4 31.07                             141    -0.110  109  15 
 GUE  SZ EP        0 4 33.01                             138     0.910  119   7 
 GRA  SZ EP        0 4 32.48                             136    -0.110  127  13 
 GRA  SZ ES   1    0 4 52.02                             136    -0.2 7  127  13 
 OCA  SZ EP   1    0 4 35.49                             128    -0.6 7  166 350 
 OCA  SZ ES   2    0 4 58.03                             128    -0.4 5  166 350 
 OCA  SZ I         0 5  3.45        10.3 0.25                           166 350 
 CHI  HZ EP   2    0 4 44.76                             117    -0.2 4  248 198 
 CHI  HE ES   3    0 5 13.84                             117    -0.3 2  248 198 
 CHI  HZ I         0 5 20.07         5.3 0.24                           248 198 
 HEL  HZ EP        0 4 48.50                             113    -0.1 7  281 257 
 HEL  HZ I         0 5 25.64         5.4 0.46                           281 257 
 RREF BZ EP        0 4 54.18                             110     0.1 7  327 231 
 RREF BN ES   2    0 5 31.11                             110     0.7 3  327 231 
 RREF BZ I         0 5 38.34         7.8 0.33                           327 231 
 PRA  HZ EP        0 5  0.53                             106    -0.6 6  394 211 
 PRA  HN ES   3    0 5 42.64                             106    -0.3 1  394 211 
 PRA  HZ I         0 5 51.22         5.8 0.46                           394 211 
                                                                                
