 2015  212 0429 39.4 L   6.778 -73.204137.5  RSN  5 0.5 1.2LRSN                1
 GAP=195        1.15       4.6     7.9  9.5  0.9046E+01 -0.1054E+02 -0.1118E+02E
 Epicentro: ZAPATOCA - SANTANDER                                               3
 ACTION:UPD 15-04-30 21:25 OP:nd   STATUS:               ID:20150212042939 L   I
 OLDACT:REG 15-02-12 12:52 OP:fm   STATUS:               ID:20150212042741     3
 2015-02-12-0427-41M.COL___302                                                 6
 STAT SP IPHASW D HRMM SECON CODA AMPLIT PERI AZIMU VELO AIN AR TRES W  DIS CAZ7
 BRR  HZ EP        430  0.02                             152    0.5910 66.9 303 
 BRR  HN ES        430 15.61                             152    0.5710 66.9 303 
 BRR  HZ I         430 21.00         2.9 0.60            151           66.9 303 
 RUS  HZ EP        430  2.01                             143   -0.2310 98.8 172 
 RUS  HE ES        430 19.57                             143   -0.4610 98.8 172 
 RUS  HZ I         430 21.97         1.4 0.26            148           98.8 172 
 PTB  HZ EP        430  5.23                             131    0.13 9  141 259 
 PTB  HN ES        430 24.42                             131   -0.71 9  141 259 
 PTB  HZ I         430 30.96         2.0 0.30            133            141 259 
 SPBC HZ EP        430  7.07                             128    0.34 9  157 218 
 SPBC HN ES        430 28.30                             128    0.27 9  157 218 
 SPBC HZ I         430 34.02         2.5 0.22            131            157 218 
 SML  HZ EP        430 15.47                             116   -0.08 8  243 337 
 SML  HN ES        430 43.06                             116   -0.67 8  243 337 
 SML  HZ I         430 50.67         2.3 0.10            118            243 337 
                                                                                
