 2011 1012 0746 27.3 L   6.787 -73.054144.0  RSN  4 0.2 1.3LRSN                1
 GAP=149        0.45       4.0     4.6  5.4 -0.1368E+01  0.6927E+00  0.2379E+01E
 Epicentro: LOS SANTOS - SANTANDER                                             3
 ACTION:UPD 12-07-13 16:03 OP:ep   STATUS:               ID:20111012074627 L   I
 2011-10-12-0740-00M.COL___171                                                 6
 STAT SP IPHASW D HRMM SECON CODA AMPLIT PERI AZIMU VELO AIN AR TRES W  DIS CAZ7
 BAR2 SZ EP   1    746 46.79                             169   -0.01 7 25.8 213 
 BAR2 SZ ES   2    747  1.72                             169   -0.27 5 25.8 213 
 BAR2 SZ I         747  3.02         5.7 0.54                          25.8 213 
 PAM  SZ EP   1    746 49.35                             152    0.28 7 72.5  33 
 PAM  SN ES   1    747  5.91                             152   -0.12 7 72.5  33 
 BRR  HZ EP        746 48.65                             149   -0.2210 80.9 296 
 BRR  HE ES   1    747  5.93                             149    0.26 7 80.9 296 
 BRR  HZ I         747  8.65         4.4 0.15                          80.9 296 
 RUS  HZ EP   2    746 50.87                             144    0.08 5 99.0 182 
 RUS  HN ES   2    747  9.21                             144    0.12 5 99.0 182 
 RUS  HZ I         747 10.66         1.8 0.22                          99.0 182 
                                                                                
