 2012  312 0445 11.8 L   6.683 -73.253140.0  RSN  5 0.4 1.3LRSN                1
 GAP=189        0.89       7.5     7.9  8.1  0.3873E+02  0.1532E+02  0.2477E+01E
 ACTION:UP  12-03-31 23:19 OP:EP   STATUS:               ID:20120312044511 L   I
 2012-03-12-0440-00M.COL___193                                                 6
 STAT SP IPHASW D HRMM SECON CODA AMPLIT PERI AZIMU VELO SNR AR TRES W  DIS CAZ7
 BAR2 SZ EP   1    445 29.93                             175    -0.6 7   13 142 
 BAR2 SZ ES   1    445 45.30                             175     0.1 7   13 142 
 BAR2 SZ I         445 46.92         3.4 0.10                            13 142 
 BRR  HZ EP   1    445 31.81                             152    -0.4 7   69 313 
 BRR  HE ES        445 48.21                             152     0.110   69 313 
 BRR  HZ I         445 49.43         5.5 0.14                            69 313 
 RUS  HZ EP   1    445 34.15                             146     0.0 7   89 168 
 RUS  HN ES        445 51.88                             146     0.310   89 168 
 RUS  HZ I         445 54.69         2.5 0.26                            89 168 
 PTB  HZ EP   1    445 36.89                             134    -0.1 7  134 263 
 PTB  HN ES   1    445 56.31                             134    -0.4 7  134 263 
 PTB  HZ I         446  0.65         1.8 0.08                           134 263 
 ZAR  HZ EP   1    445 44.02                             122     0.7 6  199 297 
 ZAR  HN ES   1    446  8.11                             122     0.2 6  199 297 
 ZAR  HZ I         446 13.63         3.3 0.27                           199 297 
                                                                                
