 2017  112 0727 53.8 L   6.784 -73.165149.4  RSN  4 0.1 0.7LRSN                1
 GAP=234        0.43       3.5     3.5  4.4  0.6275E+01 -0.2191E+01 -0.1287E+01E
 Epicentro: LOS SANTOS - SANTANDER                                             3
 ACTION:UPD 17-05-22 15:58 OP:jn   STATUS:               ID:20170112072753 L   I
 OLDACT:DUP 17-01-12 21:13 OP:dani STATUS:               ID:20170112071745d    3
 OLDACT:DUP 17-01-12 21:09 OP:dani STATUS:               ID:20170112071744d    3
 OLDACT:UP  17-01-12 21:09 OP:dani STATUS:               ID:20170112071743     3
 OLDACT:UP  17-01-12 21:07 OP:dani STATUS:               ID:20170112071743     3
 OLDACT:REG 17-01-12 20:09 OP:and  STATUS:               ID:20170112071743     3
 2017-01-12-0718-00M.COL___334                                                 6
 STAT SP IPHASW D HRMM SECON CODA AMPLIT PERI AZIMU VELO AIN AR TRES W  DIS CAZ7
 BAR2 EZ EP        728 13.72                             172   -0.1510 21.3 185 
 BRR  HZ EP        728 15.60                             153    0.2710 70.2 301 
 BRR  HE ES        728 32.00                             153   -0.0910 70.2 301 
 RUS  HZ EP        728 17.76                             145   -0.0810 99.0 175 
 RUS  HN ES        728 36.65                             145    0.1010 99.0 175 
 RUS  HZ I         728 38.40         0.5 0.20            141           99.0 175 
 PTB  HZ EP        728 20.82                             133   -0.07 9  145 259 
 PTB  HN ES        728 41.99                             133    0.01 9  145 259 
 PTB  HZ I         728 49.05         0.9 0.18            128            145 259 
                                                                                
