 2015  112 0658  8.2 L   6.814 -73.145142.1  RSN 15 0.5 2.4LRSN                1
 GAP= 71        1.14       2.8     3.1  5.4 -0.8166E+00  0.4497E+01  0.1113E+01E
 Epicentro: LOS SANTOS - SANTANDER                                             3
 ACTION:UPD 15-03-02 15:39 OP:nd   STATUS:               ID:20150112065808 L   I
 OLDACT:REG 15-01-12 15:08 OP:carl STATUS:               ID:20150112065749     3
 2015-01-12-0657-49M.COL___256                                                 6
 STAT SP IPHASW D HRMM SECON CODA AMPLIT PERI AZIMU VELO AIN AR TRES W  DIS CAZ7
 BAR2 EZ IP     D  658 27.44                             170   -0.0110 24.9 190 
 BAR2 EZ ES        658 42.03                             170   -0.4110 24.9 190 
 BAR2 EZ I         658 43.11        84.4 0.36            170           24.9 190 
 BRR  HZ IP     C  658 29.26                             152    0.3210 70.5 297 
 BRR  HN ES        658 46.03                             152    0.9310 70.5 297 
 BRR  HZ I         658 49.04        54.6 0.38            149           70.5 297 
 PAM  SZ IP     C  658 30.38                             150    0.4010 76.1  40 
 PAM  SN ES        658 47.18                             150    0.2410 76.1  40 
 PAM  SZ I         658 49.04        42.8 0.48            152           76.1  40 
 RUS  HZ EP        658 31.67                             143   -0.0710  102 176 
 RUS  HN ES        658 50.18                             143    0.1110  102 176 
 RUS  HZ I         658 51.73        36.0 0.26            145            102 176 
 PTB  HZ EP        658 34.13                             131   -0.81 9  148 258 
 PTB  HN ES        658 54.96                             131   -0.81 9  148 258 
 PTB  HZ I         658 57.64        32.0 0.12            130            148 258 
 TAM  HZ IP     D  658 35.86                             130    0.21 9  155 106 
 TAM  HN ES        658 57.02                             130   -0.01 9  155 106 
 TAM  HZ I         658 57.76        15.6 0.22            133            155 106 
 OCA  HZ EP        658 36.36                             129    0.25 9  159 353 
 OCA  HN ES        658 57.30                             129   -0.55 9  159 353 
 OCA  HZ I         659  1.41        18.2 0.12            129            159 353 
 SPBC HZ EP        658 36.37                             128   -0.20 9  164 219 
 SPBC HN ES        658 58.36                             128   -0.32 9  164 219 
 SPBC HZ I         659  6.71        35.8 0.40            128            164 219 
 ZAR  HZ EP        658 40.20                             122   -0.19 9  204 292 
 ZAR  HN ES        659  5.79                             122    0.32 9  204 292 
 ZAR  HZ I         659 11.28        30.3 0.26            121            204 292 
 NOR  HZ EP        658 43.57                             118   -0.29 8  236 234 
 NOR  HN ES        659 11.47                             118   -0.17 8  236 234 
 NOR  HZ I         659 12.99        22.1 0.16            118            236 234 
 SML  HZ EP        658 43.86                             117   -0.64 8  242 335 
 SML  HN ES        659 12.57                             117   -0.22 8  242 335 
 SML  HZ I         659 30.29        30.3 0.10            117            242 335 
 CHI  HZ EP        658 45.76                             116   -0.14 8  250 195 
 CHI  HN ES        659 14.74                             116   -0.53 8  250 195 
 CHI  HZ I         659 19.51         7.2 0.30            117            250 195 
 HEL  HZ EP        658 48.96                             114    0.65 8  273 255 
 HEL  HN ES        659 19.71                             114    0.13 8  273 255 
 HEL  HZ I         659 26.93         9.9 0.28            114            273 255 
 CBOC HZ EP        658 55.23                             109    0.17 7  334 252 
 CBOC HN ES        659 31.73                             109    0.14 7  334 252 
 CBOC HZ I         659 43.13         3.9 0.52            109            334 252 
 TOL  SZ EP        658 57.23                             108    0.75 7  345 224 
 TOL  SN ES        659 35.68                             108    1.57 7  345 224 
 TOL  SZ I         659 41.81        18.1 0.20            109            345 224 
 MON  HZ EP   4    658 54.99                             108   -2.00 0  353 308 
 MON  HN ES   4    659 32.98                             108   -2.04 0  353 308 
                                                                                
