 2010  612 0821 51.4 L   6.806 -73.098153.3  RSN 14 0.5 3.6LRSN                1
 GAP=129        1.20       4.4     7.8  8.2 -0.1400E+02  0.1575E+02  0.4893E+01E
 Epicentro: LOS SANTOS - SANTANDER                                             3
 ACTION:UP  10-08-24 10:09 OP:vdl  STATUS:               ID:20100612082151 L   I
 2010-06-12-0820-19S.COL___117                                                 6
 STAT SP IPHASW D HRMM SECON CODA AMPLIT PERI AZIMU VELO SNR AR TRES W  DIS CAZ7
 GIR2 SZ IP        822 12.86                             168     0.810   32 341 
 GIR2 SZ ES   1    822 28.42                             168     0.3 7   32 341 
 RUS  HZ IP     C  822 15.75                             145    -0.210  101 179 
 RUS  HE ES   1    822 34.61                             145    -0.5 7  101 179 
 RUS  HZ I         822 35.84       503.0 0.44                           101 179 
 BRI  SZ IP        822 16.36                             144     0.510  106  18 
 BRI  SZ ES   1    822 34.58                             144    -0.4 7  106  18 
 GUE  SZ IP        822 16.57                             141    -0.210  115  10 
 GRA  SZ IP        822 16.60                             139    -0.610  124  15 
 OCA  SZ IP        822 20.23                             131    -0.1 9  160 351 
 OCA  SZ ES   1    822 42.90                             131     0.0 7  160 351 
 OCA  SZ I         822 45.44       685.0 0.10                           160 351 
 CHI  HZ EP        822 29.67                             118    -0.1 8  251 196 
 CHI  HE ES   1    822 59.36                             118    -0.3 6  251 196 
 CHI  HZ I         823  6.47       275.4 0.44                           251 196 
 ROSC BZ EP        822 31.52                             118     1.2 8  256 212 
 ROSC BZ I         823  7.97       279.8 0.48                           256 212 
 CVER SZ EP        822 32.36                             116    -0.1 8  275 203 
 HEL  HZ EP        822 31.81                             116    -0.8 7  277 256 
 HEL  HN ES   1    823  4.61                             116    -0.1 6  277 256 
 HEL  HZ I         823 11.63       213.8 0.44                           277 256 
 DBB  SZ IP        822 39.70                             110    -0.1 7  345 274 
 TOL  SZ EP        822 40.86                             110     0.4 6  348 225 
 SDV  BZ IP     D  822 41.15                             110    -0.1 6  356  50 
 SDV  BZ I         822 42.11        98.2 0.18                           356  50 
 HORQ SZ EP        823  2.46                             102    -0.1 4  536 227 
                                                                                
