 2016  412 0154 29.7 L   6.829 -73.155145.5  RSN 14 0.5 2.3LRSN                1
 GAP=118        1.08       3.2     3.9  5.8 -0.2784E+01  0.6603E+01  0.6318E+00E
 Epicentro: LOS SANTOS - SANTANDER                                             3
 ACTION:UPD 16-05-05 14:20 OP:rebc STATUS:               ID:20160412015429 L   I
 OLDACT:UP  16-04-12 13:41 OP:mh   STATUS:               ID:20160412014744     3
 OLDACT:REG 16-04-12 12:28 OP:mh   STATUS:               ID:20160412014744     3
 2016-04-12-0147-44M.COL___316                                                 6
 STAT SP IPHASW D HRMM SECON CODA AMPLIT PERI AZIMU VELO AIN AR TRES W  DIS CAZ7
 BAR2 EZ EP        154 49.39                             169    0.0110 26.4 187 
 BAR2 EZ ES        155  4.75                             169    0.0410 26.4 187 
 BAR2 EZ I         155  5.69        59.4 0.26            169           26.4 187 
 PAM  EZ IP     C  154 52.19                             151    0.4010 75.6  42 
 PAM  EN ES        155  9.50                             151    0.4810 75.6  42 
 PAM  EZ I         155 11.86        16.9 0.42            156           75.6  42 
 RUS  HZ EP        154 53.36                             143   -0.3210  104 176 
 RUS  HN ES        155 12.04                             143   -0.3310  104 176 
 PTB  HZ EP        154 56.14                             132   -0.49 9  147 258 
 PTB  HN ES        155 17.50                             132   -0.12 9  147 258 
 PTB  HZ I         155 23.73        16.8 0.16            132            147 258 
 OCA  HZ EP        154 57.45                             130   -0.24 9  157 353 
 OCA  HN ES        155 19.65                             130    0.14 9  157 353 
 OCA  HZ I         155 22.54        40.5 0.26            133            157 353 
 SPBC HZ EP        154 58.40                             129    0.03 9  165 218 
 SPBC HN ES        155 20.99                             129    0.27 9  165 218 
 SPBC HZ I         155 24.88        34.8 0.24            130            165 218 
 ZAR  HZ EP        155  1.47                             123   -0.45 9  202 291 
 ZAR  HN ES        155 26.26                             123   -0.78 9  202 291 
 ZAR  HZ I         155 32.43        21.7 0.38            124            202 291 
 NOR  HZ EP        155  5.21                             118   -0.33 8  236 234 
 NOR  HN ES        155 33.57                             118    0.09 8  236 234 
 NOR  HZ I         155 38.75        13.2 0.18            120            236 234 
 CHI  HZ EP        155  7.71                             117    0.00 8  251 195 
 CHI  HN ES        155 36.75                             117   -0.59 8  251 195 
 CHI  HZ I         155 40.13        10.1 0.50            119            251 195 
 ROSC BZ EP        155  9.07                             116    1.01 8  255 210 
 ROSC BN ES   4    155 40.00                             116    2.02 0  255 210 
 ROSC BZ I         155 43.87        26.9 0.45            118            255 210 
 HEL  HZ EP        155 11.04                             115    1.15 8  272 255 
 HEL  HN ES        155 41.91                             115    0.68 8  272 255 
 HEL  HZ I         155 47.04         7.1 0.24            116            272 255 
 URE  HZ EP   4    155 13.11                             114    2.58 0  282 291 
 URE  HN ES   4    155 40.35                             114   -2.01 0  282 291 
 URE  HZ I         155 42.51         8.1 0.14            115            282 291 
 SOCV BZ EP   1    155 12.10                             112   -0.55 5  300  57 
 GUY2CHZ EP        155 13.42                             112   -0.01 7  302 234 
 GUY2CHN ES   4    155 50.17                             112    2.65 0  302 234 
 GUY2CHZ I         155 55.27        12.2 0.34                           302 234 
                                                                                
