 2012  112 0415 57.0 L   6.704 -73.215157.4  RSN  4 0.2 1.3LRSN                1
 GAP=222        0.44       6.6     6.6  7.7  0.2549E+02 -0.7506E+00 -0.4851E+01E
 Epicentro: VILLANUEVA - SANTANDER                                             3
 ACTION:UP  12-02-03 08:16 OP:REBC STATUS:               ID:20120112041557 L   I
 2012-01-12-0410-00M.COL___187                                                 6
 STAT SP IPHASW D HRMM SECON CODA AMPLIT PERI AZIMU VELO SNR AR TRES W  DIS CAZ7
 BRR  HZ EP   1    416 19.17                             154    -0.2 7   71 309 
 BRR  HZ I         416 19.49         5.5 0.12                            71 309 
 BRR  HN ES   2    416 37.15                             154     0.3 5   71 309 
 RUS  HZ EP   2    416 21.59                             149     0.3 5   91 171 
 RUS  HE ES   2    416 40.00                             149    -0.2 5   91 171 
 RUS  HZ I         416 40.49         2.4 0.36                            91 171 
 PTB  HZ EP   1    416 24.29                             136     0.1 7  138 263 
 PTB  HN ES   2    416 45.22                             136    -0.1 5  138 263 
 ZAR  HN ES   2    416 55.58                             125    -0.1 4  201 296 
                                                                                
