 2014 1112 0938 10.2 L   7.410 -73.200130.9  RSN 19 0.3 2.4LRSN                1
 GAP=106        0.69       2.5     2.4  3.7 -0.4696E+00  0.1747E+01  0.2847E+01E
 Epicentro: EL PLAYON - SANTANDER                                              3
 ACTION:UPD 14-12-19 15:42 OP:nd   STATUS:               ID:20141112093810 L   I
 OLDACT:DUP 14-11-12 19:50 OP:spq  STATUS:               ID:20141112092736d    3
 OLDACT:UP  14-11-12 19:46 OP:spq  STATUS:               ID:20141112092735     3
 OLDACT:ARG 14-11-12 12:06 OP:stll STATUS:               ID:20141112092735     3
 2014-11-12-0927-35M.COL___272                                                 6
 STAT SP IPHASW D HRMM SECON CODA AMPLIT PERI AZIMU VELO AIN AR TRES W  DIS CAZ7
 PAM  SZ EP     D  938 29.64                             156    0.0210 55.8  98 
 PAM  SE ES        938 44.70                             156   -0.0610 55.8  98 
 PAM  SZ I         938 48.13        43.4 0.44            156           55.8  98 
 BRR  HZ IP     C  938 29.51                             152    0.0710 65.7 239 
 BRR  HN ES        938 44.89                             152    0.4410 65.7 239 
 BRR  HZ I         938 45.33       111.9 0.12            148           65.7 239 
 BAR2 SZ EP     C  938 31.37                             143   -0.0410 90.5 179 
 BAR2 SZ ES   1    938 47.78                             143   -0.17 7 90.5 179 
 OCA  HZ EP        938 31.35                             143   -0.1010 92.5 352 
 OCA  HE ES        938 48.00                             143   -0.0110 92.5 352 
 OCA  HZ I         938 49.96        47.7 0.16            146           92.5 352 
 RUS  HZ EP        938 38.42                             125   -0.24 9  168 176 
 RUS  HE ES   1    939  0.15                             125   -0.70 7  168 176 
 RUS  HZ I         939  1.59        10.3 0.30            123            168 176 
 PTB  HZ EP        938 37.49                             124   -0.60 9  169 235 
 PTB  HN ES        938 59.84                             124    0.00 9  169 235 
 PTB  HZ I         939  3.01        36.3 0.42            122            169 235 
 TAM  HZ EP        938 40.20                             121   -0.02 9  189 125 
 TAM  HN ES        939  3.82                             121    0.19 9  189 125 
 TAM  HZ I         939 10.03        22.0 0.32            120            189 125 
 SPBC HZ EP        938 43.90                             117    0.66 8  217 206 
 SPBC HE ES   1    939  8.96                             117   -0.04 6  217 206 
 SPBC HZ I         939 14.73        25.6 0.36            116            217 206 
 URE  HZ EP   4    938 46.46                             113   -1.45 0  260 278 
 URE  HE ES   4    939 15.03                             113   -2.29 0  260 278 
 URE  HZ I         939 25.38        19.8 0.18            112            260 278 
 NOR  HZ EP     D  938 49.94                             111    0.26 7  275 222 
 NOR  HN ES        939 20.35                             111   -0.11 7  275 222 
 NOR  HZ I         939 27.49        15.3 0.34            110            275 222 
 ROSC BZ EP   1    938 54.08                             109   -0.01 5  310 204 
 ROSC BE ES   4    939 31.70                             109    3.38 0  310 204 
 ROSC BZ I         939 40.56         9.4 0.35            108            310 204 
 MON  HZ EP   4    938 51.73                             108   -1.96 0  311 299 
 MON  HN ES   4    939 24.42                             108   -3.19 0  311 299 
 MON  HZ I         939 28.48         4.0 0.42            108            311 299 
 CHI  HZ EP   1    938 55.36                             108    0.89 5  313 191 
 CHI  HN ES   4    939 31.15                             108    2.16 0  313 191 
 CHI  HZ I         939 42.46         3.9 0.40            107            313 191 
 SDV  BZ EP   4    938 55.22                             108   -0.54 0  327  60 
 SDV  BE ES   4    939 27.74                             108   -3.56 0  327  60 
 SDV  BZ I         939 32.45         7.5 0.40            108            327  60 
 DBB  SZ EP        938 56.36                             107   -0.27 7  335 263 
 DBB  SZ ES   4    939 30.36                             107   -2.47 0  335 263 
 DBB  SZ I         939 33.64        34.7 0.58            106            335 263 
 SJC  HZ EP   4    938 57.15                             106   -1.27 0  351 322 
 SJC  HE ES   4    939 33.93                             106   -2.10 0  351 322 
 SJC  HZ I         939 35.70         4.5 0.36            106            351 322 
 CBOC HZ EP        938 58.79                             106   -0.25 6  355 241 
 TOL  SZ EP   4    939  6.00                             104    2.53 0  391 217 
 TOL  SN ES   4    939 47.40                             104    2.39 0  391 217 
 TOL  SZ I         939 53.51        20.4 0.36            103            391 217 
 PRA  HZ EP        939 10.28                             102    0.20 5  449 205 
 PRA  HE ES   1    939 57.18                             102    0.39 4  449 205 
 PRA  HZ I         940  5.01         6.2 0.36            101            449 205 
                                                                                
