 2014  812 0648 55.8 L   6.751 -73.157145.3  RSN  5 0.3 1.3LRSN                1
 GAP=232        0.78       4.6     4.9  5.9  0.5015E+01  0.3628E+01  0.1715E+01E
 Epicentro: LOS SANTOS - SANTANDER                                             3
 ACTION:UPD 14-09-15 21:49 OP:nd   STATUS:               ID:20140812064855 L   I
 OLDACT:UP  14-08-12 14:58 OP:cam  STATUS:               ID:20140812064000     3
 OLDACT:UP  14-08-12 14:58 OP:cam  STATUS:               ID:20140812064000     3
 OLDACT:REG 14-08-12 12:33 OP:cam  STATUS:               ID:20140812064000     3
 2014-08-12-0640-00M.COL___285                                                 6
 STAT SP IPHASW D HRMM SECON CODA AMPLIT PERI AZIMU VELO AIN AR TRES W  DIS CAZ7
 BAR2 SZ EP        649 15.19                             173   -0.0310 17.8 189 
 BAR2 SZ ES        649 30.09                             173   -0.3210 17.8 189 
 BAR2 SZ I         649 31.10         5.1 0.16            171           17.8 189 
 BRR  HZ EP        649 16.73                             152   -0.2110 72.9 303 
 BRR  HE ES        649 34.05                             152    0.5710 72.9 303 
 BRR  HZ I         649 35.01         3.6 0.22            151           72.9 303 
 RUS  HZ EP        649 19.14                             145    0.0610 95.3 175 
 RUS  HE ES        649 37.32                             145    0.0510 95.3 175 
 PTB  HZ EP        649 22.32                             132   -0.16 9  146 261 
 PTB  HN ES        649 42.93                             132   -0.40 9  146 261 
 PTB  HZ I         649 45.19         2.3 0.12            132            146 261 
 SPBC HZ EP   1    649 24.29                             130    0.55 7  158 220 
 SPBC HN ES        649 45.72                             130    0.14 9  158 220 
 SPBC HZ I         649 48.61         1.5 0.32            130            158 220 
                                                                                
