 2010 1012 0619 47.3 L   6.805 -73.106140.4  RSN 10 0.3 2.2LRSN                1
 GAP=181        0.68       3.6     6.5  5.5 -0.1150E+02 -0.3104E+01  0.2069E+01E
 Epicentro: LOS SANTOS - SANTANDER                                             3
 ACTION:UP  11-02-18 11:09 OP:tino STATUS:               ID:20101012061947 L   I
 2010-10-12-0618-43S.COL___121                                                 6
 STAT SP IPHASW D HRMM SECON CODA AMPLIT PERI AZIMU VELO SNR AR TRES W  DIS CAZ7
 BAR2 SZ IP        620  6.40                             169     0.010   25 200 
 BAR2 SZ ES   1    620 21.25                             169     0.0 7   25 200 
 BAR2 SZ I         620 22.68        25.1 0.17                            25 200 
 BRR  HZ IP     C  620  8.18                             150     0.010   75 297 
 BRR  HN ES   1    620 24.75                             150     0.4 7   75 297 
 BRR  HZ I         620 28.13        49.6 0.14                            75 297 
 GUE  SZ IP        620 11.39                             139    -0.110  115  10 
 GRA  SZ IP        620 12.16                             136     0.210  124  16 
 GRA  SZ ES   1    620 30.92                             136    -0.3 7  124  16 
 GRA  SZ I         620 32.86        21.8 0.40                           124  16 
 OCA  SZ EP        620 15.33                             128     0.1 9  160 352 
 OCA  SZ ES   1    620 36.51                             128    -0.5 7  160 352 
 OCA  SZ I         620 41.26        20.9 0.25                           160 352 
 NOR  SN ES   2    620 50.18                             117    -1.0 4  239 235 
 NOR  SZ I         620 53.06         1.5 0.13                           239 235 
 CHI  HZ EP   2    620 24.95                             116     0.0 4  250 196 
 CHI  HN ES   2    620 53.80                             116    -0.5 4  250 196 
 CHI  HZ I         620 58.23         5.2 0.18                           250 196 
 HEL  HZ EP   2    620 28.43                             113     0.7 4  276 256 
 HEL  HZ I         621  4.87        13.0 0.09                           276 256 
 RREF HZ EP   2    620 33.57                             110    -0.1 3  325 230 
 RREF HZ I         621 20.80         6.1 0.41                           325 230 
 PRA  HZ EP   1    620 41.16                             105     0.2 4  395 210 
 PRA  HZ I         621 28.46        20.7 0.24                           395 210 
                                                                                
