 2015  412 0131  2.0 L   6.808 -73.159144.5  RSN  7 0.4 1.7LRSN                1
 GAP=134        0.99       4.5     4.1  6.3 -0.7127E+00  0.8342E+01  0.1612E+01E
 Epicentro: LOS SANTOS - SANTANDER                                             3
 ACTION:UPD 15-06-03 16:54 OP:cam  STATUS:               ID:20150412013102 L   I
 OLDACT:REG 15-04-12 16:15 OP:carl STATUS:               ID:20150412012749     3
 2015-04-12-0127-49M.COL___266                                                 6
 STAT SP IPHASW D HRMM SECON CODA AMPLIT PERI AZIMU VELO AIN AR TRES W  DIS CAZ7
 BAR2 EZ EP        131 21.38                             170   -0.1410 24.0 186 
 BAR2 EZ ES        131 36.89                             170    0.1710 24.0 186 
 BAR2 EZ I         131 39.16        10.1 0.32            170           24.0 186 
 BRR  HZ EP        131 23.05                             153    0.1010 69.5 298 
 BRR  HN ES        131 39.90                             153    0.6410 69.5 298 
 BRR  HZ I         131 40.59        13.8 0.32            152           69.5 298 
 PAM  SZ EP        131 24.41                             151    0.2810 77.7  41 
 PAM  SE ES        131 40.74                             151   -0.6210 77.7  41 
 PAM  SZ I         131 42.83         5.7 0.16            153           77.7  41 
 RUS  HZ EP        131 25.94                             143    0.2110  102 175 
 RUS  HN ES        131 44.21                             143    0.0010  102 175 
 RUS  HZ I         131 46.22         5.2 0.20            145            102 175 
 PTB  HZ EP        131 28.00                             132   -0.78 9  146 258 
 PTB  HN ES        131 49.39                             132   -0.25 9  146 258 
 PTB  HZ I         131 51.44        10.7 0.12            132            146 258 
 ZAR  HZ EP        131 34.40                             122    0.18 9  202 292 
 ZAR  HN ES        131 59.27                             122   -0.06 9  202 292 
 ZAR  HZ I         132  5.59         7.5 0.36            123            202 292 
 NOR  HZ EP        131 38.18                             118    0.57 8  234 234 
 NOR  HN ES        132  5.05                             118   -0.31 8  234 234 
 NOR  HZ I         132  9.04         3.1 0.18            119            234 234 
                                                                                
