 2011  912 0952  6.3 L   6.742 -73.073153.4  RSN  6 0.2 1.6LRSN                1
 GAP=190        0.35       5.2     8.0  6.2  0.2247E+02 -0.2003E+02 -0.2101E+02E
 Epicentro: JORDAN - SANTANDER                                                 3
 ACTION:UPD 12-07-13 15:57 OP:ep   STATUS:               ID:20110912095206 L   I
 2011-09-12-0947-36S.COL___168                                                 6
 STAT SP IPHASW D HRMM SECON CODA AMPLIT PERI AZIMU VELO AIN AR TRES W  DIS CAZ7
 BAR2 SZ EP   1    952 26.86                             172    0.02 7 20.5 216 
 BAR2 SZ ES   2    952 42.43                             172   -0.41 5 20.5 216 
 BAR2 SZ I         952 43.24         6.2 0.40                          20.5 216 
 GIR2 SZ EP   3    952 26.87                             165   -0.30 2 39.6 340 
 GIR2 SZ ES   3    952 43.54                             165    0.13 2 39.6 340 
 BRR  HZ EP   1    952 28.86                             150   -0.04 7 81.4 300 
 BRR  HZ I         952 29.14        16.1 0.21                          81.4 300 
 BRR  HN ES   2    952 46.73                             150    0.23 5 81.4 300 
 RUS  HE ES   2    952 49.40                             147    0.23 5 93.9 181 
 RUS  HZ I         952 51.36         2.6 0.40                          93.9 181 
 OCA  SZ EP   1    952 36.01                             130    0.06 7  168 351 
 OCA  SZ I         953  2.45         5.3 0.31                           168 351 
 ZAR  HN ES   3    953  6.48                             122   -0.32 2  214 293 
 ZAR  HZ I         953 12.14         3.0 0.20                           214 293 
                                                                                
