 2010  612 0057 23.9 L   6.818 -73.097139.8  RSN  5 0.3 1.4LRSN                1
 GAP=164        0.57       2.9    15.9  9.7 -0.7656E+01  0.3206E+01 -0.4163E+01E
 Epicentro: LOS SANTOS - SANTANDER                                             3
 ACTION:UP  10-08-24 10:09 OP:vdl  STATUS:               ID:20100612005723 L   I
 2010-06-12-0053-47S.COL___117                                                 6
 STAT SP IPHASW D HRMM SECON CODA AMPLIT PERI AZIMU VELO SNR AR TRES W  DIS CAZ7
 GIR2 SZ EP   2    057 43.71                             167     0.9 5   31 340 
 RUS  HZ EP   1    057 47.11                             142    -0.1 7  102 179 
 RUS  HN ES   1    058  5.31                             142    -0.1 7  102 179 
 RUS  HZ I         058  7.56         4.8 0.32                           102 179 
 GUE  SZ EP   1    057 47.62                             139    -0.2 7  113  10 
 GRA  SZ EP   1    057 48.44                             136     0.1 7  122  15 
 GRA  SZ ES   1    058  7.40                             136     0.0 7  122  15 
 OCA  SZ ES   1    058 13.09                             128    -0.2 7  159 351 
                                                                                
