 2012 1112 0612 15.6 L   6.839 -73.102154.0  RSN  7 0.3 1.3LRSN                1
 GAP=140        0.65       4.9     4.3  6.8  0.3698E+01  0.8306E+01  0.9616E+01E
 Epicentro: LOS SANTOS - SANTANDER                                             3
 ACTION:UPD 12-12-05 15:32 OP:}ep  STATUS:               ID:20121112061215 L   I
 2012-11-12-0610-00M.COL___230                                                 6
 STAT SP IPHASW D HRMM SECON CODA AMPLIT PERI AZIMU VELO AIN AR TRES W  DIS CAZ7
 GIR2 SZ EP   1    612 36.54                             169    0.31 7 28.4 339 
 GIR2 SZ ES   1    612 52.24                             169   -0.05 7 28.4 339 
 BAR2 SZ EP   1    612 36.52                             169    0.14 7 28.7 198 
 BAR2 SZ I         612 53.22         4.6 0.18                          28.7 198 
 PAM  SN ES   1    612 55.63                             154   -0.51 7 71.0  39 
 BRR  HZ EP   1    612 38.20                             153    0.38 7 73.7 294 
 BRR  HN ES   1    612 55.53                             153    0.40 7 73.7 294 
 BRR  HZ I         612 58.58         2.6 0.12                          73.7 294 
 RUS  HZ EP   1    612 40.43                             144   -0.07 7  105 179 
 RUS  HN ES   1    613  0.01                             144    0.12 7  105 179 
 RUS  HZ I         613  1.10         1.5 0.38                           105 179 
 PTB  HZ EP   1    612 43.31                             133   -0.48 7  153 258 
 PTB  HN ES   1    613  5.35                             133   -0.40 7  153 258 
 PTB  HZ I         613  7.49         3.5 0.70                           153 258 
 ZAR  HN ES   1    613 14.94                             124    0.03 6  207 291 
 ZAR  HZ I         613 20.52         3.4 0.62                           207 291 
                                                                                
