 2016 1112 0744 14.0 L   6.655 -73.313116.0  RSN  5 0.1 1.2LRSN                1
 GAP=149        0.68       7.1     3.9  5.4 -0.1422E+02  0.3260E+01  0.6268E+01E
 Epicentro: GALAN - SANTANDER                                                  3
 ACTION:UPD 17-10-26 21:07 OP:lp   STATUS:               ID:20161112074414 L   I
 OLDACT:DUP 16-11-12 19:09 OP:and  STATUS:               ID:20161112073741d    3
 2016-11-12-0738-00M.COL___340                                                 6
 STAT SP IPHASW D HRMM SECON CODA AMPLIT PERI AZIMU VELO AIN AR TRES W  DIS CAZ7
 BAR2 EZ IP   9 C  744 31.19                             172    1.32 0 16.1 116 
 BAR2 EZ ES        744 44.23                                    0.6310 16.1 116 
 BAR2 EZ I         744 45.69         8.5 0.13            171           16.1 116 
 BRR  HZ EP        744 31.59                             149   -0.0910 66.6 319 
 BRR  HN ES        744 45.63                             149    0.1310 66.6 319 
 PAM  EN ES        744 51.36                             137   -0.0610  102  42 
 PAM  EZ I         744 54.63         2.4 0.36            138            102  42 
 PTB  HZ EP        744 36.69                             130    0.0310  127 264 
 PTB  HN ES        744 54.27                             130   -0.0810  127 264 
 ZAR  HZ EP   2    744 44.03                             117    0.46 4  194 299 
 ZAR  HN ES        745  6.65                             117   -0.02 9  194 299 
 ZAR  HZ I         745  9.72         1.2 0.18            119            194 299 
                                                                                
