 2016  912 0510 11.5 L   6.817 -73.118143.4  RSN 24 0.6 2.9LRSN                1
 GAP= 72        1.39       3.6     3.5  6.1 -0.2549E+01  0.4161E+01  0.9223E+00E
 Epicentro: LOS SANTOS - SANTANDER                                             3
 ACTION:UPD 17-08-17 21:09 OP:lp   STATUS:               ID:20160912051011 L   I
 OLDACT:UP  16-09-12 21:17 OP:ar   STATUS:               ID:20160912050735     3
 OLDACT:UP  16-09-12 21:13 OP:ar   STATUS:               ID:20160912050735     3
 OLDACT:REG 16-09-12 15:41 OP:and  STATUS:               ID:20160912050735     3
 2016-09-12-0508-00M.COL___297                                                 6
 STAT SP IPHASW D HRMM SECON CODA AMPLIT PERI AZIMU VELO AIN AR TRES W  DIS CAZ7
 BAR2 EZ IP     C  510 30.81                             169   -0.0810 25.9 196 
 BAR2 EZ ES        510 45.87                             169   -0.1510 25.9 196 
 BAR2 EZ I         510 47.15       310.4 0.16            167           25.9 196 
 BRR  HZ IP     C  510 32.68                             152    0.1910 73.0 296 
 BRR  HN ES        510 49.48                             152    0.6210 73.0 296 
 BRR  HZ I         510 57.11        93.0 0.38            151           73.0 296 
 PAM  EZ IP     C  510 33.63                             151    0.3810 74.0  39 
 PAM  EN ES        510 50.72                             151    0.5010 74.0  39 
 PAM  EZ I         510 52.79       120.3 0.48            154           74.0  39 
 RUS  HZ IP     C  510 34.74                             143   -0.4010  102 178 
 RUS  HE ES        510 53.51                             143   -0.0710  102 178 
 RUS  HZ I         510 55.27        38.7 0.28            142            102 178 
 PTB  HZ EP        510 37.55                             131   -1.02 9  151 258 
 PTB  HN ES        510 58.52                             131   -1.18 9  151 258 
 PTB  HZ I         511  4.52        94.5 0.20            130            151 258 
 TAM  HZ IP     C  510 39.04                             130    0.28 9  153 106 
 TAM  HZ I         510 59.57        50.9 0.32            131            153 106 
 TAM  HN ES        511  0.67                             130    0.65 9  153 106 
 OCA  HZ EP        510 39.53                             129    0.05 9  159 352 
 OCA  HN ES        511  1.54                             129    0.24 9  159 352 
 OCA  HZ I         511  4.07       164.0 0.40            130            159 352 
 SPBC HZ EP     C  510 39.66                             128   -0.47 9  167 219 
 SPBC HN ES   4    511  1.40                             128   -1.07 0  167 219 
 SPBC HZ I         511  7.80       157.4 0.38            127            167 219 
 ZAR  HZ EP        510 43.50                             122   -0.50 8  206 291 
 ZAR  HE ES        511  9.07                             122   -0.29 8  206 291 
 ZAR  HZ I         511 15.13        99.6 0.34            121            206 291 
 NOR  HZ EP     C  510 47.07                             118   -0.40 8  238 235 
 NOR  HN ES        511 15.17                             118   -0.36 8  238 235 
 NOR  HZ I         511 22.70        68.5 0.14            117            238 235 
 CHI  HZ EP   4    510 48.94                             116   -0.41 0  251 196 
 CHI  HN ES        511 18.09                             116   -0.79 8  251 196 
 CHI  HZ I         511 23.79        34.7 0.42            116            251 196 
 ROSC BZ EP        510 50.55                             116    0.72 8  256 211 
 ROSC BN ES   4    511 21.77                             116    2.03 0  256 211 
 ROSC BZ I         511 28.58       134.1 0.35            115            256 211 
 HEL  HZ EP        510 52.38                             114    0.42 7  275 256 
 HEL  HN ES        511 23.99                             114    0.46 7  275 256 
 HEL  HZ I         511 29.32        45.4 0.34            113            275 256 
 URE  HZ EP   4    510 51.01                             113   -1.68 0  286 291 
 URE  HN ES   4    511 21.71                             113   -3.10 0  286 291 
 URE  HZ I         511 31.39        65.6 0.18            113            286 291 
 SOCV BZ EP        510 53.61                             112   -0.42 7  298  57 
 SOCV BN ES        511 25.80                             112   -1.40 7  298  57 
 LL1C HZ EP   4    510 55.73                             111    0.91 0  305 351 
 LL1C HN ES   4    511 31.84                             111    3.23 0  305 351 
 GUY2CHZ EP   4    510 54.97                             112   -0.43 0  305 235 
 GUY2CHE ES   4    511 33.27                             112    3.63 0  305 235 
 GUY2CHZ I         511 37.35        69.1 0.48                           305 235 
 VIL  EZ EP   4    510 54.36                             111   -0.73 0  306 192 
 VIL  EN ES   4    511 28.90                             111   -0.19 0  306 192 
 VIL  EZ I         511 32.32        38.0 0.40            111            306 192 
 PTGC HZ IP   4 C  510 53.78                             111   -1.54 0  309 159 
 PTGC HN ES   4    511 27.04                             111   -2.47 0  309 159 
 ELA  HZ EP        510 59.73                             110    1.08 7  333 230 
 ELA  HE ES   4    511 37.99                             110    2.56 0  333 230 
 ELA  HZ I         511 40.96        44.2 0.58            109            333 230 
 CBOC HZ EP        510 58.57                             109   -0.14 7  337 252 
 CBOC HN ES   4    511 37.14                             109    1.60 0  337 252 
 CBOC HZ I         511 53.63        14.4 0.46            109            337 252 
 ARGC HZ EP        511  1.06                             108    0.09 6  358 340 
 ARGC HN ES        511 39.84                             108    0.28 6  358 340 
 ANIL HZ EP        511  3.06                             108    1.45 6  361 225 
 ANIL HN ES        511 41.77                             108    1.07 6  361 225 
 PAL  HZ EP   4    511  6.43                             105   -0.57 0  409 239 
 PAL  HN ES        511 51.09                             105    0.80 6  409 239 
 PAL  HZ I         511 51.91        13.4 0.28            105            409 239 
 SJC  HZ EP   4    511  5.17                             105   -1.82 0  409 326 
 SJC  HN ES   4    511 46.42                             105   -3.85 0  409 326 
 SJC  HZ I         511 52.19         8.7 0.32            105            409 326 
 CRJC HZ EP   4    511 11.23                             103   -2.45 0  466   3 
 CRJC HN ES   4    511 38.14                             103   -24.0 0  466   3 
 GUA  EZ EP   4    511 13.29                             103   -1.47 0  476 173 
 GUA  EN ES   4    512  2.35                             103   -1.76 0  476 173 
 GUA  EZ I         512  6.45        12.8 0.26            102            476 173 
                                                                                
