 2014  812 0625 45.4 L   6.827 -73.203143.6  RSN  7 0.3 1.5LRSN                1
 GAP=196        0.86       3.6     4.7  6.7  0.4267E+01  0.4303E+01 -0.8981E+01E
 Epicentro: ZAPATOCA - SANTANDER                                               3
 ACTION:UPD 14-09-15 21:49 OP:nd   STATUS:               ID:20140812062545 L   I
 OLDACT:REG 14-08-12 12:32 OP:cam  STATUS:               ID:20140812062000     3
 2014-08-12-0620-00M.COL___285                                                 6
 STAT SP IPHASW D HRMM SECON CODA AMPLIT PERI AZIMU VELO AIN AR TRES W  DIS CAZ7
 BAR2 SZ EP        626  4.63                             169   -0.1910 26.0 175 
 BAR2 SZ ES        626 20.14                             169    0.1610 26.0 175 
 BAR2 SZ I         626 20.63         8.9 0.30            168           26.0 175 
 BRR  HZ EP        626  6.54                             155    0.6110 64.2 299 
 BRR  HE ES   4    626 23.58                             155    1.63 0 64.2 299 
 BRR  HZ I         626 26.36         6.3 0.34            153           64.2 299 
 RUS  HZ EP        626  9.28                             142    0.0810  104 173 
 RUS  HE ES        626 27.28                             142   -0.4810  104 173 
 PTB  HZ EP        626 11.59                             133   -0.09 9  142 257 
 PTB  HN ES        626 32.35                             133    0.17 9  142 257 
 PTB  HZ I         626 35.91         2.7 0.12            132            142 257 
 SPBC HZ EP        626 14.03                             129    0.45 9  162 217 
 SPBC HN ES        626 35.57                             129    0.01 9  162 217 
 SPBC HZ I         626 42.55         2.7 0.38            130            162 217 
 ZAR  HZ EP        626 16.26                             123   -0.72 9  197 292 
 ZAR  HN ES        626 41.46                             123   -0.15 9  197 292 
 SML  HZ EP        626 21.44                             118    0.11 8  238 336 
 SML  HN ES        626 49.25                             118   -0.10 8  238 336 
 SML  HZ I         626 51.03         4.6 0.24            120            238 336 
                                                                                
