 2012  212 0243  2.0 L   6.751 -73.157143.1  RSN  9 0.5 1.7LRSN                1
 GAP=137        1.03       5.8     5.6  9.1 -0.5004E+01  0.1075E+02 -0.6954E+01E
 ACTION:UP  12-03-07 16:29 OP:epov STATUS:               ID:20120212024302 L   I
 2012-02-12-0240-00M.COL___188                                                 6
 STAT SP IPHASW D HRMM SECON CODA AMPLIT PERI AZIMU VELO AIN AR TRES W  DIS CAZ7
 BAR2 SZ EP   2    243 21.62                             173    0.41 5 17.8 189 
 BAR2 SZ ES   1    243 35.81                             173   -0.38 7 17.8 189 
 BAR2 SZ I         243 37.42        13.3 0.26                          17.8 189 
 GIR2 SZ EP   1    243 21.57                             165    0.07 7 36.4 354 
 BRR  HZ EP        243 23.37                             151    0.4210 72.8 303 
 BRR  HE ES   1    243 40.05                             151    0.75 7 72.8 303 
 BRR  HZ I         243 41.71        11.5 0.20                          72.8 303 
 PAM  SZ EP   1    243 24.32                             149    0.08 7 82.4  38 
 PAM  SN ES   1    243 40.83                             149   -0.76 7 82.4  38 
 RUS  HZ EP   1    243 25.51                             145    0.40 7 95.3 175 
 RUS  HN ES   1    243 43.52                             145    0.38 7 95.3 175 
 RUS  HZ I         243 45.56         3.5 0.37                          95.3 175 
 PTB  HZ EP   1    243 27.66                             132   -0.89 7  146 261 
 PTB  HN ES   1    243 48.52                             132   -0.73 7  146 261 
 OCA  SZ EP   1    243 30.31                             128   -0.29 7  165 354 
 ZAR  HN ES   1    244  0.21                             122    0.60 6  205 294 
 ZAR  HZ I         244  2.79         6.3 0.30                           205 294 
 NOR  SN ES   1    244  4.14                             118   -0.39 6  231 235 
                                                                                
