 2016 1212 0631 29.9 L   6.758 -73.221146.0  RSN  4 0.4 1.1LRSN                1
 GAP=226        0.72       6.0     6.2  7.0  0.2112E+02 -0.2027E+01 -0.2534E+01E
 Epicentro: ZAPATOCA - SANTANDER                                               3
 ACTION:UPD 17-01-11 20:14 OP:rebc STATUS:               ID:20161212063129 L   I
 OLDACT:UP  16-12-12 19:00 OP:e    STATUS:               ID:20161212062744     3
 OLDACT:REG 16-12-12 15:26 OP:and  STATUS:               ID:20161212062744     3
 2016-12-12-0628-00M.COL___389                                                 6
 STAT SP IPHASW D HRMM SECON CODA AMPLIT PERI AZIMU VELO AIN AR TRES W  DIS CAZ7
 BRR  HZ EP        631 50.61                             154   -0.2410 66.6 305 
 BRR  HN ES        632  7.35                             154    0.1810 66.6 305 
 BRR  HZ I         632  8.00         2.1 0.13            153           66.6 305 
 RUS  HZ EP        631 53.36                             145   -0.0910 96.9 171 
 RUS  HE ES        632 11.95                             145    0.1610 96.9 171 
 RUS  HZ I         632 12.95         2.3 0.24            145           96.9 171 
 PTB  HZ EP        631 55.84                             134   -0.28 9  139 260 
 PTB  HN ES        632 16.55                             134    0.01 9  139 260 
 PTB  HZ I         632 19.35         1.1 0.16            133            139 260 
 ZAR  HZ EP   2    632  3.16                             123    1.36 4  198 294 
 ZAR  HE ES   3    632 26.05                             123   -0.60 2  198 294 
 ZAR  HZ I         632 28.90         1.7 0.15            123            198 294 
                                                                                
