 2013  212 0053 47.1 L   6.794 -73.142147.6  RSN  9 0.5 2.0LRSN                1
 GAP= 71        0.93       4.0     3.9  6.8  0.2525E+01  0.3614E+00  0.5093E+00E
 Epicentro: LOS SANTOS - SANTANDER                                             3
 ACTION:UPD 13-03-12 09:32 OP:ep   STATUS:               ID:20130212005347 L   I
 2013-02-12-0052-49M.COL___180                                                 6
 STAT SP IPHASW D HRMM SECON CODA AMPLIT PERI AZIMU VELO AIN AR TRES W  DIS CAZ7
 BAR2 SZ EP   1    054  7.06                             171    0.08 7 22.7 191 
 BAR2 SZ ES   1    054 22.55                             171    0.09 7 22.7 191 
 BAR2 SZ I         054 23.85        36.8 0.38            169           22.7 191 
 BRR  HZ IP     C  054  8.93                             153    0.4010 71.8 299 
 BRR  HN ES   1    054 26.06                             153    0.85 7 71.8 299 
 BRR  HZ I         054 30.24        14.5 0.44            149           71.8 299 
 PAM  SZ EP        054  9.87                             151    0.3010 77.7  39 
 PAM  SN ES   1    054 27.03                             151   -0.04 7 77.7  39 
 PAM  SZ I         054 29.31        20.2 0.56            155           77.7  39 
 RUS  HZ IP     D  054 11.01                             144   -0.0210 99.9 176 
 RUS  HN ES   1    054 29.07                             144   -0.59 7 99.9 176 
 RUS  HZ I         054 30.93         5.9 0.38            147           99.9 176 
 PTB  HZ EP   1    054 14.04                             132   -0.24 7  148 259 
 PTB  HN ES   1    054 35.08                             132   -0.37 7  148 259 
 PTB  HZ I         054 40.99        13.9 0.44            131            148 259 
 TAM  HZ EP     D  054 15.28                             131    0.36 9  155 105 
 TAM  HN ES   1    054 35.65                             131   -0.93 7  155 105 
 ZAR  HE ES   1    054 44.52                             123   -0.70 6  205 292 
 ZAR  HZ I         054 55.19         8.1 0.22            122            205 292 
 SML  HZ EP   1    054 23.38                             118   -0.57 6  244 335 
 SML  HN ES   1    054 52.14                             118   -0.53 6  244 335 
 SML  HZ I         054 56.30        18.0 0.10            118            244 335 
 CHI  HZ EP   1    054 25.15                             118    0.27 6  248 195 
 CHI  HN ES   1    054 54.64                             118    0.32 6  248 195 
 CHI  HZ I         054 58.40         3.1 0.34            119            248 195 
                                                                                
