 2011  712 0114 22.5 L   6.783 -73.124149.2  RSN 10 0.3 1.9LRSN                1
 GAP=158        0.61       2.7     5.1  4.2 -0.5096E+01 -0.5835E+00  0.8408E+00E
 Epicentro: LOS SANTOS - SANTANDER                                             3
 ACTION:UPD 12-07-25 14:00 OP:epov STATUS:               ID:20110712011422 L   I
 2011-07-12-0110-03S.COL___143                                                 6
 STAT SP IPHASW D HRMM SECON CODA AMPLIT PERI AZIMU VELO AIN AR TRES W  DIS CAZ7
 BTL  SZ EP   1    114 42.68                             171    0.17 7 21.8 313 
 BTL  SZ ES   1    114 57.57                             171   -0.55 7 21.8 313 
 BAR2 SZ EP   1    114 42.41                             171   -0.10 7 22.1 197 
 BAR2 SZ I         114 42.62        15.7 0.16                          22.1 197 
 BAR2 SZ ES   1    114 58.06                             171   -0.06 7 22.1 197 
 GIR2 SZ EP   1    114 42.64                             167    0.00 7 33.6 347 
 GIR2 SZ ES   1    114 58.87                             167    0.53 7 33.6 347 
 BRR  HZ EP   1    114 44.33                             152    0.15 7 74.2 299 
 BRR  HZ I         114 44.61        25.9 0.16                          74.2 299 
 BRR  HE ES   1    115  1.66                             152    0.56 7 74.2 299 
 RUS  HZ EP   1    114 46.37                             145   -0.07 7 98.6 177 
 RUS  HN ES   1    115  5.08                             145   -0.04 7 98.6 177 
 RUS  HZ I         115  7.82         9.8 0.44                          98.6 177 
 BRI  SZ EP   1    114 47.04                             142    0.26 7  109  19 
 BRI  SZ ES   1    115  5.43                             142   -0.29 7  109  19 
 BRI  SZ I         115  8.79         8.7 0.19                           109  19 
 GRA  SZ EP   1    114 48.26                             137    0.13 7  127  16 
 GRA  SZ ES   1    115  8.17                             137    0.04 7  127  16 
 GRA  SZ I         115  8.97        14.6 0.31                           127  16 
 OCA  SZ EP   1    114 51.05                             130   -0.22 7  162 352 
 OCA  SZ ES   1    115 13.27                             130   -0.45 7  162 352 
 OCA  SZ I         115 17.67        13.9 0.21                           162 352 
 NOR  SN ES   1    115 26.17                             119   -0.46 6  236 235 
 CHI  HZ EP   1    115  0.49                             118    0.23 6  248 196 
                                                                                
