 2017  212 0722 50.0 L   6.688 -73.553112.5  RSN  5 0.4 0.7LRSN                1
 GAP=111        0.84       5.0     4.2  7.1  0.8236E+01  0.6274E+01  0.8554E+01E
 Epicentro: EL CARMEN - SANTANDER                                              3
 ACTION:UPD 17-05-24 15:35 OP:jn   STATUS:               ID:20170212072250 L   I
 OLDACT:UP  17-02-12 15:37 OP:ar   STATUS:               ID:20170212071745     3
 OLDACT:REG 17-02-12 13:02 OP:and  STATUS:               ID:20170212071745     3
 2017-02-12-0718-00M.COL___331                                                 6
 STAT SP IPHASW D HRMM SECON CODA AMPLIT PERI AZIMU VELO AIN AR TRES W  DIS CAZ7
 BAR2 EZ EP   2    723  5.56                             158   -0.75 5 42.3 104 
 BAR2 EZ ES        723 18.62                             158   -0.4310 42.3 104 
 BRR  HZ EP        723  6.41                             154    0.0910 49.6 339 
 BRR  HN ES        723 19.56                             154    0.5010 49.6 339 
 BRR  HZ I         723 19.70         2.1 0.12            157           49.6 339 
 PTB  HZ EP        723  9.99                             135   -0.0410  101 261 
 PTB  HN ES        723 25.39                             135   -0.2910  101 261 
 PTB  HZ I         723 29.94         0.8 0.22            134            101 261 
 RUS  HZ EP        723 11.11                             135    0.3510  102 149 
 RUS  HN ES        723 27.10                             135    0.1310  102 149 
 RUS  HZ I         723 28.41         0.8 0.21            136            102 149 
 PAM  EZ EP   2    723 11.73                             130   -0.51 5  119  53 
                                                                                
