 2015 1212 1319 22.3 L   6.793 -73.116151.0  RSN 18 0.4 2.7LRSN                1
 GAP=141        0.95       2.8     3.7  4.7 -0.2991E+01  0.5579E+01  0.1105E+01E
 Epicentro: LOS SANTOS - SANTANDER                                             3
 ACTION:UPD 16-02-04 15:04 OP:cam  STATUS:               ID:20151212131922 L   I
 OLDACT:UP  15-12-12 23:48 OP:mh   STATUS:               ID:20151212131748     3
 OLDACT:UP  15-12-12 23:47 OP:mh   STATUS:               ID:20151212131748     3
 OLDACT:UP  15-12-12 23:39 OP:mh   STATUS:               ID:20151212131748     3
 OLDACT:REG 15-12-12 22:15 OP:mh   STATUS:               ID:20151212131748     3
 2015-12-12-1317-48M.COL___337                                                 6
 STAT SP IPHASW D HRMM SECON CODA AMPLIT PERI AZIMU VELO AIN AR TRES W  DIS CAZ7
 BAR2 EZ IP     D 1319 42.58                             171   -0.0010 23.3 198 
 BAR2 EZ ES       1319 58.00                             171   -0.3810 23.3 198 
 BAR2 EZ I        1320  0.02        39.7 0.18            167           23.3 198 
 BRR  HZ EP     D 1319 44.33                             152    0.1110 74.5 298 
 BRR  HN ES       1320  2.05                             152    0.7510 74.5 298 
 BRR  HZ I        1320  6.33        56.0 0.26            143           74.5 298 
 PAM  EZ EP       1319 45.33                             152    0.3110 76.0  37 
 PAM  EE ES       1320  2.77                             152    0.0610 76.0  37 
 PAM  EZ I        1320  4.61        49.9 0.52            150           76.0  37 
 RUS  HZ EP   1   1319 46.73                             145    0.21 7 99.6 178 
 RUS  HN ES       1320  5.44                             145    0.0410 99.6 178 
 PTB  HZ EP       1319 49.25                             132   -0.75 9  151 259 
 PTB  HN ES       1320 10.81                             132   -0.77 9  151 259 
 PTB  HZ I        1320 16.06        56.2 0.34            126            151 259 
 OCA  HZ EP   1   1319 51.17                             131    0.01 7  161 352 
 OCA  HN ES       1320 13.59                             131   -0.06 9  161 352 
 OCA  HZ I        1320 18.19        61.3 0.24            125            161 352 
 SPBC HZ EP       1319 51.41                             130    0.05 9  165 220 
 SPBC HN ES       1320 13.64                             130   -0.38 9  165 220 
 SPBC HZ I        1320 20.51        94.0 0.32            126            165 220 
 ZAR  HZ EP   1   1319 54.96                             123   -0.50 6  207 292 
 ZAR  HN ES       1320 21.48                             123    0.18 8  207 292 
 ZAR  HZ I        1320 26.81        61.3 0.54            117            207 292 
 NOR  HZ EP   1   1319 58.18                             119   -0.42 6  237 235 
 NOR  HN ES       1320 26.86                             119   -0.03 8  237 235 
 NOR  HZ I        1320 31.09        34.3 0.18            115            237 235 
 SML  HZ EP       1319 58.93                             118   -0.55 8  246 335 
 SML  HN ES   4   1320 27.23                             118   -1.22 0  246 335 
 SML  HZ I        1320 31.92        48.1 0.10            114            246 335 
 HEL  HZ EP   1   1320  4.31                             115    1.17 6  275 256 
 HEL  HN ES       1320 35.84                             115    0.87 8  275 256 
 HEL  HZ I        1320 41.92        16.3 0.26            111            275 256 
 URE  HZ EP   4   1320  2.45                             114   -1.58 0  287 292 
 URE  HN ES   4   1320 34.57                             114   -1.98 0  287 292 
 URE  HZ I        1320 46.77        21.4 0.16            110            287 292 
 GUY2CHZ EP       1320  6.59                             113    0.16 7  303 235 
 GUY2CHN ES   4   1320 43.55                             113    2.72 0  303 235 
 GUY2CHZ I        1320 49.15        22.7 0.36                           303 235 
 ELA  HZ EP   4   1320 11.13                             111    1.50 0  331 230 
 ELA  HN ES       1320 46.57                             111    0.05 7  331 230 
 DBB  SZ EP   1   1320  9.93                             110   -0.47 5  343 274 
 DBB  SZ I        1321  0.99        40.7 0.60            107            343 274 
 ANIL HZ EP       1320 12.70                             109    0.17 6  359 225 
 ANIL HN ES   4   1320 54.43                             109    2.73 0  359 225 
 ANIL HZ I        1320 58.45        46.0 0.46            106            359 225 
 PRA  HZ EP   1   1320 16.10                             107   -0.04 4  393 210 
 PRA  HN ES       1320 58.68                             107    0.57 6  393 210 
 PRA  HZ I        1321  3.52        12.9 0.56            105            393 210 
 ORTC HZ EP   1   1320 16.97                             107    0.39 4  397 217 
 ORTC HN ES       1320 58.97                             107    0.07 6  397 217 
 ORTC HZ I        1321  3.89         9.9 0.30            105            397 217 
                                                                                
