 2010  212 1011 18.6 L   5.975 -73.729118.3  RSN  4 0.3 1.2LRSN                1
 GAP=179        0.58       7.4    21.7 17.0 -0.1405E+03  0.2775E+03 -0.6457E+02E
 Epicentro: BARBOSA - SANTANDER                                                3
 ACTION:UP  10-08-24 09:48 OP:vdl  STATUS:               ID:20100212101118 L   I
 2010-02-12-0959-51S.COL___086                                                 6
 STAT SP IPHASW D HRMM SECON CODA AMPLIT PERI AZIMU VELO SNR AR TRES W  DIS CAZ7
 BAR2 SZ EP   1   1011 38.92                             140     0.3 7   91  41 
 BAR2 SZ ES   2   1011 54.48                             140     0.2 5   91  41 
 GIR2 SZ EP   1   1011 41.97                             127    -0.5 7  136  26 
 GIR2 SZ ES   2   1012  0.92                             127    -0.1 5  136  26 
 CHI  HZ EP   1   1011 44.26                             125     0.2 7  149 180 
 CHI  HE ES   2   1012  3.46                             125    -0.5 5  149 180 
 CHI  HZ I        1012  5.79         1.2 0.43                           149 180 
 PRA  HZ EP   1   1011 58.35                             108     0.2 6  281 207 
 PRA  HE ES   2   1012 29.10                             108     0.0 4  281 207 
 PRA  HZ I        1012 31.76         1.8 0.48                           281 207 
                                                                                
