 2010  612 1448 20.8 L   6.796 -73.174141.9  RSN  7 0.3 2.5LRSN                1
 GAP=160        0.58       3.4    14.3  6.7 -0.3005E+02  0.2931E+02 -0.3679E+01E
 Epicentro: LOS SANTOS - SANTANDER                                             3
 ACTION:UP  10-08-24 10:09 OP:vdl  STATUS:               ID:20100612144820 L   I
 2010-06-12-1446-33S.COL___117                                                 6
 STAT SP IPHASW D HRMM SECON CODA AMPLIT PERI AZIMU VELO SNR AR TRES W  DIS CAZ7
 BAR2 SZ IP     C 1448 39.89                             170     0.010   23 183 
 BAR2 SZ ES   2   1448 54.67                             170    -0.2 5   23 183 
 RUS  HZ EP   1   1448 43.83                             143    -0.3 7  100 174 
 RUS  HN ES   2   1449  2.26                             143    -0.1 5  100 174 
 RUS  HZ I        1449  3.57        62.3 0.20                           100 174 
 BRI  SZ EP   1   1448 44.66                             140     0.2 7  110  22 
 BRI  SZ ES   2   1449  3.21                             140     0.3 5  110  22 
 GUE  SZ EP   1   1448 44.92                             138    -0.3 7  118  14 
 GUE  SZ ES   2   1449  3.73                             138    -0.6 5  118  14 
 GRA  SZ IP     C 1448 45.93                             136     0.110  127  19 
 GRA  SZ ES   2   1449  5.86                             136     0.5 5  127  19 
 OCA  SZ EP   1   1448 48.56                             129    -0.2 7  160 354 
 OCA  SZ ES   2   1449 10.94                             129     0.3 5  160 354 
 CHI  HZ EP   1   1448 58.24                             116     0.1 6  247 194 
 CHI  HN ES   2   1449 28.17                             116     0.9 4  247 194 
 CHI  HZ I        1449 31.44        17.3 0.61                           247 194 
                                                                                
