 2014  912 1427  6.3 L   6.812 -73.165139.7  RSN 22 0.5 2.7LRSN                1
 GAP= 70        1.53       3.4     4.0  6.7 -0.1959E+01  0.7554E+01  0.3638E+01E
 Epicentro: LOS SANTOS - SANTANDER                                             3
 ACTION:UPD 14-10-03 23:04 OP:nd   STATUS:               ID:20140912142706 L   I
 OLDACT:DUP 14-09-12 21:49 OP:stll STATUS:               ID:20140912141820d    3
 2014-09-12-1418-19M.COL___293                                                 6
 STAT SP IPHASW D HRMM SECON CODA AMPLIT PERI AZIMU VELO AIN AR TRES W  DIS CAZ7
 BAR2 SZ IP     D 1427 25.64                             169    0.3810 24.4 185 
 BAR2 SZ I        1427 26.13       207.1 0.14            168           24.4 185 
 BAR2 SZ ES       1427 40.36                             169    0.3510 24.4 185 
 BRR  HZ IP     C 1427 27.48                             152    0.7910 68.7 298 
 BRR  HZ I        1427 27.65       156.9 0.28            145           68.7 298 
 BRR  HN ES       1427 43.27                             152    0.7110 68.7 298 
 PAM  SZ EP     C 1427 28.33                             149    0.4010 77.7  41 
 PAM  SZ I        1427 28.75       239.1 0.20            141           77.7  41 
 PAM  SN ES       1427 44.71                             149   -0.0610 77.7  41 
 RUS  HZ EP     C 1427 29.65                             142    0.0510  102 175 
 RUS  HE ES       1427 47.52                             142   -0.2310  102 175 
 RUS  HZ I        1427 49.99        45.4 0.30            134            102 175 
 PTB  HZ EP       1427 32.27                             131   -0.38 9  146 258 
 PTB  HZ I        1427 33.54        66.0 0.12            122            146 258 
 PTB  HN ES       1427 52.73                             131   -0.44 9  146 258 
 TAM  HZ EP       1427 33.83                             128    0.07 9  157 105 
 TAM  HZ I        1427 54.49        47.6 0.32            119            157 105 
 TAM  HN ES       1427 54.68                             128   -0.48 9  157 105 
 OCA  HZ EP       1427 33.62                             128   -0.41 9  159 354 
 OCA  HN ES       1427 55.15                             128   -0.48 9  159 354 
 OCA  HZ I        1427 58.72        50.9 0.16            119            159 354 
 SPBC HZ EP       1427 34.62                             127    0.27 9  163 218 
 SPBC HE ES       1427 56.20                             127    0.00 9  163 218 
 SPBC HZ I        1427 59.20        70.1 0.18            119            163 218 
 ZAR  HZ EP       1427 38.37                             121    0.23 9  202 292 
 ZAR  HE ES       1428  3.30                             121    0.36 9  202 292 
 ZAR  HZ I        1428  9.26        97.7 0.40            113            202 292 
 NOR  HZ EP       1427 41.92                             117    0.30 8  234 234 
 NOR  HN ES       1428  9.05                             117   -0.09 8  234 234 
 NOR  HZ I        1428 11.74        38.6 0.22            109            234 234 
 SML  HZ EP       1427 41.88                             116   -0.52 8  242 336 
 SML  HN ES       1428  9.67                             116   -0.86 8  242 336 
 SML  HZ I        1428 15.12        67.3 0.10            108            242 336 
 CHI  HZ EP       1427 44.13                             116    0.34 8  249 195 
 CHI  HN ES       1428 12.20                             116   -0.80 8  249 195 
 CHI  HZ I        1428 18.52        13.1 0.32            108            249 195 
 ROSC BE ES       1428 12.77                             115   -0.85 8  253 210 
 ROSC BZ I        1428 20.92        27.6 0.45            108            253 210 
 HEL  HZ EP       1427 46.36                             113    0.31 8  270 255 
 HEL  HE ES       1428 16.49                             113   -0.55 8  270 255 
 HEL  HZ I        1428 23.87        26.7 0.38            106            270 255 
 GUY2CHZ EP       1427 50.18                             111    0.62 7  300 234 
 GUY2CHN ES       1428 22.87                             111   -0.41 7  300 234 
 GUY2CHZ I        1428 31.91        18.9 0.44                           300 234 
 SOCV BZ EP   9   1427 48.28                             111   -0.95 0  302  57 
 SOCV BN ES       1428 18.58                                   -3.16 7  302  57 
 DBB  SZ EP       1427 53.28                             108   -0.04 7  337 274 
 DBB  SZ I        1428 37.07        57.9 0.34            101            337 274 
 TOL  SZ EP       1427 54.38                             108    0.09 7  343 224 
 TOL  SN ES       1428 31.56                             108   -0.14 7  343 224 
 MON  HZ EP   9   1427 53.16                             107   -1.66 0  351 308 
 MON  HE ES       1428 29.60                                   -1.38 6  351 308 
 MON  HZ I        1428 47.56        11.7 0.60            101            351 308 
 ANIL HN ES       1428 33.48                             107   -1.00 6  357 224 
 ANIL HZ I        1428 42.15         5.8 0.26            100            357 224 
 PRA  HZ EP       1428  0.37                             105    0.70 6  392 209 
 PRA  HN ES       1428 40.85                             105   -0.42 6  392 209 
 PRA  HZ I        1428 49.73        17.3 0.32             99            392 209 
 ORTC HZ EP       1428  0.52                             105    0.48 6  395 216 
 ORTC HN ES       1428 43.41                             105    1.49 6  395 216 
 ORTC HZ I        1428 48.10        14.1 0.54             99            395 216 
                                                                                
