 2017  712 1057 56.1 L   6.831 -73.010108.0  RSN  4 0.2 1.3LRSN                1
 GAP=292        0.43       3.4     7.1 13.5  0.1290E+02 -0.7273E+02 -0.2365E+02E
 Epicentro: CEPITA - SANTANDER                                                 3
 *YOT                                                                          3
 ACTION:UPD 17-08-30 15:32 OP:rebc STATUS:               ID:20170712105756 L   I
 OLDACT:DUP 17-07-12 22:32 OP:dhb  STATUS:               ID:20170712104741d    3
 2017-07-12-1048-00M.COL___359                                                 6
 STAT SP IPHASW D HRMM SECON CODA AMPLIT PERI AZIMU VELO AIN AR TRES W  DIS CAZ7
 PTB  HZ EP       1058 21.67                             119   -0.2310  163 259 
 PTB  HN ES       1058 42.26                             119    0.2210  163 259 
 PTB  HZ I        1058 44.57         0.9 0.17            124            163 259 
 SPBC HZ EP       1058 23.51                             117    0.1810  176 222 
 SPBC HN ES       1058 44.43                             117   -0.1610  176 222 
 SPBC HZ I        1058 45.98         4.1 0.09            123            176 222 
 ZAR  HZ EP   1   1058 27.88                             111    0.04 7  217 290 
 ZAR  HN ES       1058 52.53                             111   -0.08 9  217 290 
 ZAR  HZ I        1058 58.02         2.6 0.18            116            217 290 
 NOR  HZ EP   1   1058 31.77                             108    0.18 6  249 236 
 NOR  HE ES       1058 59.23                             108   -0.05 9  249 236 
                                                                                
