 2015  912 1855 55.2 L   6.802 -73.183128.5  RSN  7 0.2 1.5LRSN                1
 GAP=132        0.62       2.4     3.2  5.6 -0.1870E+01  0.5594E+01 -0.3499E+01E
 Epicentro: ZAPATOCA - SANTANDER                                               3
 ACTION:UPD 15-10-28 16:25 OP:cam  STATUS:               ID:20150912185555 L   I
 OLDACT:REG 15-09-12 22:10 OP:stll STATUS:               ID:20150912184748     3
 2015-09-12-1847-48M.COL___335                                                 6
 STAT SP IPHASW D HRMM SECON CODA AMPLIT PERI AZIMU VELO AIN AR TRES W  DIS CAZ7
 BAR2 EZ EP       1856 12.68                             169   -0.0410 23.2 180 
 BAR2 EZ ES       1856 26.22                             169   -0.2010 23.2 180 
 BAR2 EZ I        1856 28.48         7.8 0.38            169           23.2 180 
 BRR  HZ EP       1856 14.69                             150    0.4410 67.5 300 
 PAM  EZ EP       1856 15.74                             146   -0.0010 79.9  42 
 PAM  EN ES       1856 31.91                             146    0.1210 79.9  42 
 PAM  EZ I        1856 34.58         9.2 0.54            151           79.9  42 
 RUS  HZ EP       1856 16.96                             140   -0.3510  101 174 
 RUS  HN ES       1856 34.67                             140    0.0910  101 174 
 RUS  HZ I        1856 36.74         4.0 0.42            143            101 174 
 PTB  HN ES       1856 39.89                             129   -0.20 9  144 258 
 PTB  HZ I        1856 45.13         3.0 0.18            130            144 258 
 SPBC HN ES       1856 43.50                             125    0.27 9  161 218 
 SPBC HZ I        1856 47.63         6.3 0.10            127            161 218 
 SML  HN ES       1856 58.21                             114   -0.16 8  242 336 
                                                                                
