 2013  712 1208 51.0 L   6.770 -73.157141.5  RSN  8 0.3 2.2LRSN                1
 GAP=138        0.79       3.2     3.3  4.5 -0.8152E+00  0.1099E+01 -0.2046E+01E
 Epicentro: LOS SANTOS - SANTANDER                                             3
 ACTION:UPD 13-08-12 10:37 OP:ep   STATUS:               ID:20130712120851 L   I
 OLDACT:DUP 13-07-12 18:12 OP:stll STATUS:               ID:20130712115854d    3
 2013-07-12-1158-53M.COL___213                                                 6
 STAT SP IPHASW D HRMM SECON CODA AMPLIT PERI AZIMU VELO AIN AR TRES W  DIS CAZ7
 BAR2 SZ IP     D 12 9 10.05                             172    0.0410 19.9 188 
 BAR2 SZ I        12 9 10.21        31.1 0.40            171           19.9 188 
 BAR2 SZ ES       12 9 24.85                             172   -0.0210 19.9 188 
 GIR2 SZ EP       12 9 10.07                             166   -0.1510 34.3 353 
 GIR2 SZ ES       12 9 25.08                             166   -0.1510 34.3 353 
 BRR  HZ IP     C 12 9 11.88                             152    0.2010 71.8 301 
 BRR  HN ES       12 9 28.22                             152    0.3810 71.8 301 
 BRR  HN I        12 9 32.49        42.5 0.14            151           71.8 301 
 RUS  HZ EP       12 9 14.16                             144    0.1010 97.4 175 
 RUS  HE ES       12 9 32.23                             144    0.1510 97.4 175 
 RUS  HE I        12 9 33.75        23.6 0.50            145           97.4 175 
 GRA  SZ EP       12 9 16.25                             135    0.1210  129  18 
 GRA  SZ ES       12 9 35.69                             135   -0.0610  129  18 
 PTB  HZ EP       12 9 16.83                             131   -0.59 9  146 260 
 PTB  HN ES       12 9 37.71                             131   -0.34 9  146 260 
 PTB  HN I        12 9 41.42        29.4 0.24            132            146 260 
 CAPV BZ EP       12 9 18.02                             130   -0.31 9  153  38 
 ZAR  HZ EP       12 9 23.94                             121    0.80 9  204 293 
 ZAR  HE ES       12 9 48.09                             121   -0.15 9  204 293 
                                                                                
