 2011 1212 1340 39.1 L   6.794 -73.103149.0  RSN  7 0.3 1.9LRSN                1
 GAP=196        0.48       4.9     4.5  6.6  0.2226E+01  0.1462E+01  0.4056E+01E
 Epicentro: LOS SANTOS - SANTANDER                                             3
 ACTION:UPD 12-07-13 16:15 OP:ep   STATUS:               ID:20111212134039 L   I
 2011-12-12-1340-00M.COL___184                                                 6
 STAT SP IPHASW D HRMM SECON CODA AMPLIT PERI AZIMU VELO AIN AR TRES W  DIS CAZ7
 BAR2 SZ EP   2   1340 59.03                             171   -0.10 5 24.0 202 
 BAR2 SZ ES   2   1341 14.46                             171   -0.30 5 24.0 202 
 BAR2 SZ I        1341 15.33        17.2 0.40                          24.0 202 
 GIR2 SZ EP   2   1340 59.11                             167   -0.10 5 33.0 342 
 BRR  HZ EP   1   1341  0.96                             152    0.10 7 75.7 297 
 BRR  HZ I        1341  1.22        30.2 0.15                          75.7 297 
 BRR  HE ES   2   1341 18.37                             152    0.55 5 75.7 297 
 RUS  HZ EP       1341  3.22                             145    0.1110 99.7 179 
 RUS  HN ES   2   1341 21.79                             145   -0.05 5 99.7 179 
 RUS  HZ I        1341 22.94         6.7 0.40                          99.7 179 
 PTB  HZ EP   2   1341  6.11                             132   -0.63 5  152 259 
 PTB  HN ES   2   1341 27.83                             132   -0.47 5  152 259 
 NOR  SN ES   2   1341 43.76                             119    0.06 4  238 235 
 GUY  SN ES   2   1341 58.62                             112    0.45 4  307 236 
 GUY  SZ I        1342  6.81         4.1 0.53                           307 236 
                                                                                
