 2011  512 1129 54.8 L   6.749 -73.115139.8  RSN  7 0.3 1.6LRSN                1
 GAP=143        0.69       4.4     6.5  5.5 -0.3690E+01 -0.7381E+01 -0.1986E+00E
 Epicentro: LOS SANTOS - SANTANDER                                             3
 ACTION:UP  11-06-29 08:52 OP:tino STATUS:               ID:20110512112954 L   I
 2011-05-12-1125-36S.COL___129                                                 6
 STAT SP IPHASW D HRMM SECON CODA AMPLIT PERI AZIMU VELO SNR AR TRES W  DIS CAZ7
 BAR2 SZ EP       1130 13.46                             172    -0.210   19 203 
 BAR2 SZ ES   1   1130 28.25                             172    -0.1 7   19 203 
 BTL  SZ EP       1130 13.81                             169     0.010   25 318 
 BTL  SZ ES   1   1130 28.46                             169    -0.1 7   25 318 
 GIR2 SZ EP       1130 13.74                             164    -0.310   38 347 
 BRR  HZ EP       1130 15.39                             149    -0.310   77 301 
 BRR  HZ I        1130 15.81        12.3 0.16                            77 301 
 BRR  HN ES   1   1130 32.43                             149     0.5 7   77 301 
 PAM  SZ EP       1130 16.52                             149    -0.110   80  35 
 PAM  SN ES   1   1130 33.49                             149     0.0 7   80  35 
 RUS  HZ EP       1130 17.83                             144     0.210   95 178 
 RUS  HN ES   2   1130 35.65                             144     0.3 5   95 178 
 RUS  HZ I        1130 36.91         2.9 0.13                            95 178 
 GRA  SZ EP       1130 20.37                             134     0.410  130  15 
 GRA  SZ I        1130 20.70         7.7 0.05                           130  15 
                                                                                
