 2013  112 1527 18.0 L   6.713 -73.213141.4  RSN  5 0.4 1.8LRSN                1
 GAP=218        0.89       6.4     7.0  8.0  0.2021E+02  0.3232E+01  0.7963E+01E
 Epicentro: VILLANUEVA - SANTANDER                                             3
 ACTION:UPD 13-02-15 09:13 OP:ep   STATUS:               ID:20130112152718 L   I
 2013-01-12-1518-41M.COL___199                                                 6
 STAT SP IPHASW D HRMM SECON CODA AMPLIT PERI AZIMU VELO AIN AR TRES W  DIS CAZ7
 BAR2 SZ EP       1527 36.55                             174   -0.4310 13.8 166 
 BAR2 SZ I        1527 57.07         7.2 0.52            165           13.8 166 
 BRR  HZ EP       1527 38.61                             152   -0.0510 70.3 308 
 BRR  HN ES       1527 55.21                             152    0.4610 70.3 308 
 BRR  HN I        1527 55.88        28.9 0.30            151           70.3 308 
 RUS  HN ES       1527 58.40                             145   -0.0410 91.9 171 
 PTB  HZ EP       1527 43.70                             133   -0.14 9  139 262 
 PTB  HN ES       1528  3.70                             133   -0.27 9  139 262 
 PTB  HN I        1528  6.62         7.8 0.26            136            139 262 
 CHI  HZ EP       1527 54.95                             117    0.67 8  237 194 
                                                                                
