 2013  112 1841  1.7 L   6.798 -73.150147.3  RSN  9 0.5 2.7LRSN 3.1WRSN        1
 SPEC AVERAGE  MO 13.8 ST 11.0 OM  2.6 f0 4.29 R0.3739 AL 2.45 WI 22.6 MW  3.1 3
 SPEC SD       MO  0.3 ST  9.4 OM  0.6 f0 1.15 R0.1227 AL      WI      MW  0.2 3
 GAP=182        1.23       4.3     6.2  7.4  0.5586E+01  0.1262E+02  0.5749E+01E
 Epicentro: LOS SANTOS - SANTANDER                                             3
 SPEC ZAR HH N MO 13.8 ST 17.9 OM  2.0 f0 6.04 R0.2434 AL 2.15 WI 26.3 MW  3.1 3
 SPEC ZAR HH N T184156 K 0.000 GD  251 VS 4.20 DE 3.00 Q0230.0 QA 0.60 VS 4.20 3
 SPEC RUS HH N MO 13.2 ST  1.1 OM  1.6 f0 3.61 R0.4072 AL 1.87 WI 17.3 MW  2.8 3
 SPEC RUS HH N T184142 K 0.000 GD  178 VS 4.20 DE 3.00 Q0230.0 QA 0.60 VS 4.20 3
 SPEC NOR HH N MO 14.2 ST 27.5 OM  2.4 f0 4.97 R0.2958 AL 3.32 WI 27.7 MW  3.4 3
 SPEC NOR HH N T1842 5 K 0.000 GD  276 VS 4.20 DE 3.00 Q0230.0 QA 0.60 VS 4.20 3
 SPEC OCA HH N MO 13.9 ST  7.4 OM  2.2 f0 4.05 R0.3630 AL 2.37 WI 23.5 MW  3.2 3
 SPEC OCA HH N T184150 K 0.000 GD  217 VS 4.20 DE 3.00 Q0230.0 QA 0.60 VS 4.20 3
 SPEC CHI HH N MO 13.8 ST  1.2 OM  2.0 f0 2.36 R0.6229 AL 1.65 WI 22.2 MW  3.2 3
 SPEC CHI HH N T1842 7 K 0.000 GD  288 VS 4.20 DE 3.00 Q0230.0 QA 0.60 VS 4.20 3
 SPEC BRR HH N MO 13.9 ST 11.1 OM  2.3 f0 4.72 R0.3114 AL 3.36 WI 18.3 MW  3.2 3
 SPEC BRR HH N T184139 K 0.000 GD  163 VS 4.20 DE 3.00 Q0230.0 QA 0.60 VS 4.20 3
 ACTION:UPD 13-02-15 09:13 OP:ep   STATUS:               ID:20130112184101 L   I
 2013-01-12-1838-41M.COL___187                                                 6
 STAT SP IPHASW D HRMM SECON CODA AMPLIT PERI AZIMU VELO AIN AR TRES W  DIS CAZ7
 BAR2 SZ EP       1841 21.59                             171    0.0610 23.0 189 
 BAR2 SZ ES       1841 36.90                             171   -0.0810 23.0 189 
 BAR2 SZ I        1841 38.23       102.4 0.24            171           23.0 189 
 BRR  HZ EP       1841 23.33                             153    0.3110 70.9 299 
 BRR  HN ES       1841 40.77                             153    1.1410 70.9 299 
 BRR  HN I        1841 44.68       110.5 0.18            150           70.9 299 
 RUS  HZ EP       1841 25.55                             144   -0.0610  100 176 
 RUS  HN ES       1841 43.81                             144   -0.4310  100 176 
 RUS  HN I        1841 46.15        41.0 0.30            148            100 176 
 PTB  HZ EP       1841 28.33                             133   -0.43 9  147 259 
 PTB  HN ES       1841 49.07                             133   -0.78 9  147 259 
 PTB  HN I        1841 54.67        68.8 0.52            133            147 259 
 OCA  HN ES       1841 52.00                             130   -0.36 9  160 353 
 OCA  HN I        1841 58.25        90.6 0.38            131            160 353 
 ZAR  HZ EP       1841 33.99                             123   -0.24 9  204 292 
 ZAR  HN ES       1841 59.21                             123   -0.37 9  204 292 
 ZAR  HN I        1842  7.30        46.4 0.28            123            204 292 
 NOR  HZ EP       1841 37.64                             119    0.16 8  234 234 
 NOR  HE ES       1842  5.36                             119   -0.01 8  234 234 
 NOR  HN I        1842  9.43        54.8 0.18            120            234 234 
 CHI  HZ EP       1841 39.32                             117   -0.14 8  248 195 
 CHI  HZ I        1841 40.23        12.9 0.38            120            248 195 
 CHI  HN ES       1842  9.30                             117    0.40 8  248 195 
 HEL  HZ EP       1841 42.96                             115    1.01 8  272 256 
                                                                                
