 2016  112 1626 12.4 L   6.767 -73.143146.2  RSN 10 0.4 2.0LRSN                1
 GAP=155        0.99       3.7     4.2  5.7 -0.4767E+01  0.3868E+01  0.4897E+01E
 Epicentro: LOS SANTOS - SANTANDER                                             3
 ACTION:UPD 16-03-09 23:24 OP:cam  STATUS:               ID:20160112162612 L   I
 OLDACT:DUP 16-01-12 23:24 OP:drio STATUS:               ID:20160112161752d    3
 2016-01-12-1617-51M.COL___277                                                 6
 STAT SP IPHASW D HRMM SECON CODA AMPLIT PERI AZIMU VELO AIN AR TRES W  DIS CAZ7
 BAR2 EZ EP       1626 31.89                             172   -0.1110 19.9 193 
 BAR2 EZ ES       1626 47.28                             172   -0.0210 19.9 193 
 BAR2 EZ I        1626 49.53        13.7 0.30            170           19.9 193 
 BRR  HZ EP       1626 34.06                             152    0.3610 73.3 301 
 BRR  HE ES       1626 51.00                             152    0.6810 73.3 301 
 PAM  EZ EP       1626 34.80                             150   -0.0010 80.0  38 
 PAM  EN ES       1626 52.07                             150   -0.2110 80.0  38 
 PAM  EZ I        1626 54.27        14.8 0.54            154           80.0  38 
 PTB  HZ EP       1626 38.93                             132   -0.43 9  147 260 
 PTB  HN ES       1626 59.80                             132   -0.59 9  147 260 
 PTB  HZ I        1627  3.51        11.7 0.12            133            147 260 
 SPBC HZ EP       1626 41.04                             130    0.37 9  161 220 
 SPBC HN ES       1627  2.08                             130   -0.66 9  161 220 
 SPBC HZ I        1627 10.17        14.3 0.22            130            161 220 
 ZAR  HZ EP   4   1626 46.45                             122    1.42 0  206 293 
 ZAR  HN ES       1627 10.49                             122   -0.00 8  206 293 
 ZAR  HZ I        1627 16.58         9.9 0.44            124            206 293 
 NOR  HZ EP       1626 47.98                             119    0.03 8  233 235 
 NOR  HN ES       1627 15.81                             119    0.13 8  233 235 
 NOR  HZ I        1627 18.32         6.5 0.28            120            233 235 
 CHI  HZ EP       1626 49.20                             118   -0.54 8  245 195 
 CHI  HN ES       1627 19.54                             118    0.66 8  245 195 
 CHI  HZ I        1627 27.44         2.6 0.36            119            245 195 
 SML  HZ EP       1626 49.16                             117   -0.24 8  247 336 
 SML  HN ES   4   1627 17.09                             117   -1.19 0  247 336 
 SML  HZ I        1627 19.94        18.2 0.10            119            247 336 
 GUY2CHZ EP       1626 56.46                             112    0.65 7  299 235 
 GUY2CHN ES       1627 29.80                             112    0.12 7  299 235 
 GUY2CHZ I        1627 39.05         3.9 0.46                           299 235 
                                                                                
