 2012  812 1440 33.0 L   6.756 -73.137148.0  RSN  8 0.4 2.1LRSN                1
 GAP=140        0.86       5.6     5.8  6.6 -0.2959E+01  0.7211E+01  0.9277E+01E
 Epicentro: LOS SANTOS - SANTANDER                                             3
 ACTION:UPD 12-09-10 11:56 OP:ep   STATUS:               ID:20120812144033 L   I
 2012-08-12-1440-00M.COL___219                                                 6
 STAT SP IPHASW D HRMM SECON CODA AMPLIT PERI AZIMU VELO AIN AR TRES W  DIS CAZ7
 BAR2 SZ EP   1   1440 52.64                             172   -0.14 7 18.8 196 
 BAR2 SZ ES   1   1441  8.62                             172    0.38 7 18.8 196 
 BAR2 SZ I        1441 10.65        56.7 0.40                          18.8 196 
 GIR2 SZ EP   1   1440 53.06                             166    0.01 7 36.2 350 
 GIR2 SZ ES   1   1441  9.06                             166    0.35 7 36.2 350 
 BRR  HZ EP   1   1440 54.55                             152    0.01 7 74.5 301 
 BRR  HE ES   1   1441 12.01                             152    0.64 7 74.5 301 
 BRR  HZ I        1441 16.65        23.1 0.15                          74.5 301 
 PAM  SZ EP   1   1440 55.47                             150   -0.14 7 80.6  37 
 PAM  SZ I        1440 55.71        24.9 0.20                          80.6  37 
 PAM  SN ES   1   1441 12.81                             150   -0.46 7 80.6  37 
 RUS  HZ EP   1   1440 56.51                             146   -0.08 7 95.7 176 
 RUS  HN ES   1   1441 14.85                             146   -0.17 7 95.7 176 
 RUS  HZ I        1441 16.52        13.9 0.25                          95.7 176 
 PTB  HZ EP   1   1440 59.57                             133   -0.56 7  148 261 
 PTB  HN ES   1   1441 20.48                             133   -0.83 7  148 261 
 PTB  HZ I        1441 23.84         9.0 0.32                           148 261 
 CHI  HZ EP   1   1441 10.92                             118    0.61 6  244 196 
 CHI  HZ I        1441 44.57         6.3 0.26                           244 196 
 HEL  HZ EP   1   1441 14.06                             115    0.79 6  272 257 
 HEL  HZ I        1441 51.00         7.1 0.33                           272 257 
                                                                                
