 2016  512 1409 50.9 L   6.840 -73.133144.1  RSN  8 0.5 1.7LRSN                1
 GAP=246        1.01       5.1     5.4  6.8  0.8007E+01  0.9579E+01  0.5303E+01E
 Epicentro: LOS SANTOS - SANTANDER                                             3
 ACTION:UPD 16-08-18 17:45 OP:cam  STATUS:               ID:20160512140950 L   I
 OLDACT:REG 16-05-12 21:12 OP:ak   STATUS:               ID:20160512140751     3
 2016-05-12-1407-51M.COL___313                                                 6
 STAT SP IPHASW D HRMM SECON CODA AMPLIT PERI AZIMU VELO AIN AR TRES W  DIS CAZ7
 BAR2 EZ EP       1410  9.92                             168   -0.5010 28.0 191 
 BAR2 EZ ES       1410 25.55                             168   -0.1010 28.0 191 
 BAR2 EZ I        1410 27.59         8.9 0.18            166           28.0 191 
 RUS  HZ EP       1410 14.85                             142    0.0510  105 177 
 RUS  HE ES       1410 34.01                             142    0.5610  105 177 
 RUS  HZ I        1410 34.87         3.7 0.17            143            105 177 
 PTB  HZ EP       1410 17.79                             131   -0.14 9  150 257 
 PTB  HN ES       1410 38.25                             131   -0.77 9  150 257 
 PTB  HZ I        1410 40.84         4.9 0.20            130            150 257 
 SPBC HZ EP   2   1410 20.09                             128    0.41 5  168 218 
 SPBC HN ES       1410 42.46                             128    0.33 9  168 218 
 SPBC HZ I        1410 46.45         9.1 0.07            128            168 218 
 ZAR  HZ EP   2   1410 23.87                             122    0.68 4  204 291 
 ZAR  HN ES       1410 48.95                             122    0.57 9  204 291 
 ZAR  HZ I        1410 54.37         5.4 0.39            122            204 291 
 NOR  HZ EP       1410 26.70                             118   -0.23 8  238 234 
 NOR  HN ES       1410 55.57                             118    0.54 8  238 234 
 NOR  HZ I        1410 59.98         2.8 0.17            118            238 234 
 CHI  HZ EP       1410 29.46                             116    0.45 8  253 195 
 CHI  HN ES       1410 58.11                             116   -0.62 8  253 195 
 CHI  HZ I        1410 59.88         3.6 0.06            117            253 195 
 PRA  HZ EP       1410 44.69                             106   -0.20 6  397 209 
 PRA  HN ES       1411 26.59                             106   -0.42 6  397 209 
 PRA  HZ I        1411 31.24         2.8 0.33            107            397 209 
                                                                                
