 2012  512 1115  7.2 L   6.796 -73.119143.5  RSN 12 0.4 2.8LRSN                1
 GAP=140        0.96       3.3     4.8  6.4 -0.2677E+01  0.8682E+01 -0.2018E+00E
 Epicentro: LOS SANTOS - SANTANDER                                             3
 ACTION:UP  12-07-05 12:04 OP:pat  STATUS:               ID:20120512111507 L   I
 2012-05-12-1110-00M.COL___195                                                 6
 STAT SP IPHASW D HRMM SECON CODA AMPLIT PERI AZIMU VELO SNR AR TRES W  DIS CAZ7
 BAR2 SZ IP       1115 26.59                             170     0.010   24 197 
 BAR2 SZ ES   1   1115 41.64                             170     0.0 7   24 197 
 BRR  HZ IP     C 1115 28.52                             151     0.310   74 298 
 BRR  HZ I        1115 28.90       148.9 0.14                            74 298 
 BRR  HE ES   1   1115 45.21                             151     0.5 7   74 298 
 PAM  SZ EP       1115 29.64                             151     0.610   76  38 
 PAM  SE ES   1   1115 46.30                             151     0.2 7   76  38 
 RUS  HZ IP     C 1115 30.50                             144    -0.210  100 178 
 RUS  HN ES   1   1115 48.61                             144    -0.4 7  100 178 
 RUS  HZ I        1115 50.11        80.5 0.41                           100 178 
 PTB  HZ EP   1   1115 33.19                             131    -1.0 7  151 259 
 PTB  HN ES   2   1115 54.80                             131    -0.5 5  151 259 
 PTB  HZ I        1115 56.82        51.8 0.22                           151 259 
 OCA  HZ EP       1115 34.96                             129    -0.4 9  161 352 
 OCA  HN ES   1   1115 56.84                             129    -0.6 7  161 352 
 OCA  HZ I        1115 58.89       152.2 0.56                           161 352 
 ZAR  HZ EP   1   1115 40.04                             121     0.2 6  207 292 
 ZAR  HE ES   1   1116  5.30                             121     0.1 6  207 292 
 ZAR  HZ I        1116 10.55        98.9 0.53                           207 292 
 CHI  HZ EP   2   1115 45.27                             117     0.5 4  249 196 
 CHI  HN ES   1   1116 13.71                             117    -0.4 6  249 196 
 CHI  HZ I        1116 18.15        31.3 0.28                           249 196 
 HEL  HZ EP   1   1115 48.42                             114     0.8 6  275 256 
 HEL  HN ES   1   1116 19.05                             114    -0.1 6  275 256 
 HEL  HZ I        1116 27.26        38.7 0.32                           275 256 
 RREF HZ EP   1   1115 53.83                             110     0.4 5  324 230 
 RREF HN ES   1   1116 29.64                             110     0.1 5  324 230 
 RREF HZ I        1116 35.88        35.8 0.36                           324 230 
 COD  HZ EP   1   1115 54.90                             108    -0.7 5  349 354 
 COD  HN ES   1   1116 33.29                             108     0.0 5  349 354 
 COD  HZ I        1116 44.29        13.6 0.56                           349 354 
 PRA  HZ EP   1   1116  1.39                             106     0.6 4  393 210 
 PRA  HN ES   2   1116 42.74                             106     0.2 3  393 210 
                                                                                
