 2010 1112 1839 29.3 L   6.747 -73.166142.0  RSN  9 0.4 2.2LRSN                1
 GAP=162        0.63       4.0     6.4  6.4  0.3019E+01  0.4052E+01  0.1462E+01E
 Epicentro: VILLANUEVA - SANTANDER                                             3
 ACTION:UP  10-12-17 16:52 OP:REBC STATUS:               ID:20101112183929 L   I
 2010-11-12-1838-20S.COL___129                                                 6
 STAT SP IPHASW D HRMM SECON CODA AMPLIT PERI AZIMU VELO SNR AR TRES W  DIS CAZ7
 BAR2 SZ EP       1839 48.15                             173    -0.210   17 186 
 BAR2 SZ ES   2   1840  3.38                             173     0.1 5   17 186 
 BAR2 SZ I        1840  5.61        26.6 0.37                            17 186 
 BTL  SZ EP       1839 48.41                             171     0.010   22 329 
 GIR2 SZ EP   2   1839 49.19                             165     0.5 5   37 355 
 BRR  HZ IP     C 1839 49.92                             152    -0.210   72 303 
 BRR  HZ I        1839 50.18        57.8 0.17                            72 303 
 BRR  HN ES   1   1840  6.73                             152     0.4 7   72 303 
 RUS  HZ EP   1   1839 52.23                             145     0.0 7   95 174 
 RUS  HE ES   1   1840 10.15                             145     0.0 7   95 174 
 GUE  SZ EP   2   1839 54.19                             137     0.0 5  123  13 
 NOR  SZ EP   2   1840  4.20                             119    -0.1 4  230 235 
 NOR  SE ES   2   1840 30.65                             119    -0.9 4  230 235 
 CHI  HZ EP   2   1840  6.31                             117     0.2 4  242 195 
 CHI  HN ES   2   1840 35.78                             117     1.0 4  242 195 
 CHI  HZ I        1840 38.16         8.9 0.34                           242 195 
 HEL  HZ EP   2   1840  9.21                             115     0.3 4  268 257 
 HEL  HZ I        1840 46.26         5.8 0.30                           268 257 
                                                                                
