 2011 1012 1039  0.4 L   7.303 -73.142133.4  RSN  5 0.4 1.7LRSN                1
 GAP= 98        0.92       7.7     8.2 10.1 -0.1158E+02  0.1112E+02 -0.3166E+02E
 Epicentro: RIONEGRO - SANTANDER                                               3
 ACTION:UPD 12-07-13 16:03 OP:ep   STATUS:               ID:20111012103900 L   I
 2011-10-12-1020-00M.COL___171                                                 6
 STAT SP IPHASW D HRMM SECON CODA AMPLIT PERI AZIMU VELO AIN AR TRES W  DIS CAZ7
 GIR2 SZ EP   2   1039 18.13                             169   -0.35 5 25.5 193 
 GIR2 SZ ES   3   1039 32.35                             169   -0.21 2 25.5 193 
 PAM  SZ EP       1039 19.49                             159   -0.3210 49.0  85 
 PAM  SN ES   1   1039 34.73                             159   -0.19 7 49.0  85 
 BRR  HZ EP       1039 19.50                             152   -0.4810 66.6 251 
 BRR  HN ES   1   1039 35.11                             152   -0.13 7 66.6 251 
 BRR  HZ I        1039 36.01        10.4 0.12                          66.6 251 
 BAR2 SZ EP       1039 21.15                             148    0.0710 78.8 183 
 BAR2 SZ ES   1   1039 37.87                             148    0.69 7 78.8 183 
 BAR2 SZ I        1039 39.01        12.7 0.30                          78.8 183 
 OCA  SZ EP       1039 23.51                             139    0.6310  105 349 
 OCA  SZ I        1039 45.32         6.1 0.33                           105 349 
                                                                                
