 2014 1012 1023 47.9 L   6.825 -73.170142.8  RSN  9 0.5 1.6LRSN                1
 GAP=189        1.22       5.1     7.3  8.7 -0.6305E+01  0.1846E+01  0.3301E+01E
 Epicentro: LOS SANTOS - SANTANDER                                             3
 ACTION:UPD 14-11-29 23:49 OP:nd   STATUS:               ID:20141012102347 L   I
 OLDACT:REG 14-10-12 20:48 OP:fm   STATUS:               ID:20141012101744     3
 2014-10-12-1017-44M.COL___283                                                 6
 STAT SP IPHASW D HRMM SECON CODA AMPLIT PERI AZIMU VELO AIN AR TRES W  DIS CAZ7
 BAR2 SZ EP       1024  6.99                             169   -0.2510 25.8 183 
 BAR2 SZ ES   1   1024 22.61                             169    0.29 7 25.8 183 
 BAR2 SZ I        1024 25.99         7.3 0.16            171           25.8 183 
 BRR  HZ EP       1024  8.81                             153    0.2810 67.5 298 
 BRR  HN ES       1024 25.38                             153    0.7610 67.5 298 
 BRR  HZ I        1024 29.91         7.5 0.10            154           67.5 298 
 PTB  HZ EP   1   1024 13.89                             132   -0.56 7  146 258 
 PTB  HN ES       1024 34.24                             132   -0.91 9  146 258 
 PTB  HZ I        1024 37.57         4.9 0.54            134            146 258 
 OCA  HZ EP   1   1024 15.43                             130   -0.27 7  157 354 
 OCA  HN ES       1024 36.75                             130   -0.63 9  157 354 
 OCA  HZ I        1024 43.48         6.3 0.38            132            157 354 
 SPBC HN ES       1024 37.98                             128   -0.35 9  164 218 
 SPBC HZ I        1024 41.15         5.2 0.18            131            164 218 
 ZAR  HZ EP       1024 20.12                             122    0.32 9  201 292 
 ZAR  HN ES       1024 45.14                             122    0.46 9  201 292 
 ZAR  HZ I        1024 51.78         4.4 0.28            125            201 292 
 CHI  HZ EP   1   1024 26.35                             116    0.69 6  251 194 
 CHI  HN ES   4   1024 53.91                             116   -1.20 0  251 194 
 CHI  HZ I        1025  0.86         1.6 0.16            119            251 194 
 GUY2CHZ EP       1024 31.83                             112    0.51 7  301 234 
 GUY2CHN ES   4   1025  7.04                             112    1.86 0  301 234 
 GUY2CHZ I        1025 11.62         1.9 0.60                           301 234 
 MON  HZ EP   4   1024 34.52                             108   -1.84 0  350 308 
 MON  HN ES   4   1025 12.20                             108   -1.94 0  350 308 
 MON  HZ I        1025 15.81         1.1 0.50            110            350 308 
                                                                                
