 2011  712 1133 48.4 L   6.784 -73.085146.7  RSN  5 0.4 2.0LRSN                1
 GAP=216        0.68       4.2     8.6  6.3 -0.1227E+02  0.4001E+01  0.5361E+01E
 Epicentro: LOS SANTOS - SANTANDER                                             3
 ACTION:UPD 12-07-25 14:00 OP:epov STATUS:               ID:20110712113348 L   I
 2011-07-12-1132-21S.COL___142                                                 6
 STAT SP IPHASW D HRMM SECON CODA AMPLIT PERI AZIMU VELO AIN AR TRES W  DIS CAZ7
 BAR2 SZ EP       1134  8.19                             170    0.0810 23.8 207 
 BAR2 SZ ES   1   1134 23.44                             170   -0.08 7 23.8 207 
 BAR2 SZ I        1134 24.88        16.4 0.16                          23.8 207 
 BRR  HZ EP   1   1134  9.74                             150   -0.26 7 78.0 297 
 BRR  HZ I        1134 10.39        21.3 0.15                          78.0 297 
 BRR  HN ES   1   1134 26.83                             150   -0.06 7 78.0 297 
 OCA  SZ EP   1   1134 16.32                             129   -0.68 7  163 351 
 OCA  SZ ES   1   1134 40.03                             129    0.69 7  163 351 
 OCA  SZ I        1134 44.54        12.2 0.43                           163 351 
 NOR  SZ EP   1   1134 24.69                             118    0.07 6  239 236 
 NOR  SN ES   2   1134 52.55                             118   -0.36 4  239 236 
 PRA  HZ EP   1   1134 42.48                             107    0.36 4  394 211 
 PRA  HE ES   1   1135 24.58                             107    0.52 4  394 211 
                                                                                
