 2015  212 1137 17.2 L   6.800 -73.165140.1  RSN 20 0.6 2.3LRSN                1
 GAP=118        1.43       3.4     5.2  6.4 -0.5554E+01  0.1112E+02  0.2954E+01E
 Epicentro: LOS SANTOS - SANTANDER                                             3
 ACTION:UPD 15-04-30 21:25 OP:nd   STATUS:               ID:20150212113717 L   I
 OLDACT:REG 15-02-12 20:46 OP:stll STATUS:               ID:20150212112745     3
 2015-02-12-1127-45M.COL___293                                                 6
 STAT SP IPHASW D HRMM SECON CODA AMPLIT PERI AZIMU VELO AIN AR TRES W  DIS CAZ7
 BAR2 EZ IP     D 1137 36.48                             170    0.3610 23.0 185 
 BAR2 EZ ES       1137 51.10                             170    0.2010 23.0 185 
 BAR2 EZ I        1137 54.87        50.3 0.28            168           23.0 185 
 BRR  HZ IP     D 1137 38.33                             152    0.7210 69.3 299 
 BRR  HZ I        1137 38.54        56.0 0.24            150           69.3 299 
 BRR  HE ES       1137 54.09                             152    0.5410 69.3 299 
 PAM  SZ EP       1137 39.28                             149    0.4010 78.8  41 
 PAM  SN ES       1137 55.95                             149    0.1410 78.8  41 
 PAM  SZ I        1137 57.52        31.8 0.18            155           78.8  41 
 RUS  HZ EP       1137 40.02                             143   -0.3710  101 175 
 RUS  HE ES       1137 58.07                             143   -0.4210  101 175 
 RUS  HZ I        1137 59.94        21.1 0.26            143            101 175 
 PTB  HZ EP       1137 42.91                             131   -0.59 9  146 259 
 PTB  HN ES       1138  4.04                             131    0.02 9  146 259 
 PTB  HZ I        1138  6.79        29.2 0.14            130            146 259 
 OCA  HZ EP       1137 44.69                             128   -0.35 9  160 354 
 OCA  HE ES       1138  6.55                             128   -0.21 9  160 354 
 OCA  HZ I        1138 10.50        22.7 0.18            131            160 354 
 SPBC HZ EP       1137 45.28                             128    0.16 9  162 218 
 SPBC HN ES       1138  6.65                             128   -0.26 9  162 218 
 SPBC HZ I        1138 10.21        48.6 0.30            128            162 218 
 NOR  HZ EP       1137 52.16                             117   -0.24 8  233 234 
 NOR  HE ES       1138 19.51                             117   -0.35 8  233 234 
 NOR  HZ I        1138 26.02        24.4 0.30            118            233 234 
 SML  HZ EP       1137 52.89                             116   -0.51 8  243 336 
 SML  HN ES       1138 21.11                             116   -0.54 8  243 336 
 SML  HZ I        1138 24.65        39.9 0.10            118            243 336 
 CHI  HZ EP       1137 53.62                             116   -0.89 8  248 195 
 CHI  HE ES       1138 22.81                             116   -0.81 8  248 195 
 CHI  HZ I        1138 33.37         7.8 0.26            117            248 195 
 GUY2CHZ EP       1138  1.11                             111    0.78 7  299 235 
 GUY2CHN ES       1138 33.47                             111   -0.51 7  299 235 
 GUY2CHZ I        1138 42.99        15.8 0.62                           299 235 
 SOCV BZ EP   9   1137 58.77                             111   -1.41 0  303  57 
 SOCV BN ES       1138 30.41                                   -1.90 7  303  57 
 RREF HZ EP       1138  3.07                             110    0.18 7  320 229 
 RREF HN ES       1138 38.67                             110    0.12 7  320 229 
 RREF HZ I        1138 46.57        14.3 0.34            111            320 229 
 CBOC HZ EP       1138  4.00                             109    0.37 7  332 252 
 CBOC HN ES       1138 38.41                             109   -1.45 7  332 252 
 CBOC HZ I        1139  0.81         5.2 0.36            110            332 252 
 DBB  SZ EP     D 1138  4.02                             108   -0.16 7  337 274 
 TOL  SZ EP       1138  6.70                             108    1.66 7  342 224 
 TOL  SN ES       1138 43.42                             108    1.06 7  342 224 
 MON  HZ EP   9   1138  3.31                             108   -2.47 0  352 309 
 MON  HN ES       1138 40.95                                   -0.26 6  352 309 
 MON  HZ I        1138 43.88         5.4 0.36            109            352 309 
 ANIL HZ EP       1138  8.16                             107    1.57 6  356 224 
 ANIL HE ES       1138 45.60                             107    0.47 6  356 224 
 ANIL HZ I        1138 52.37         3.1 0.40            108            356 224 
 PRA  HZ EP       1138  9.98                             106   -0.40 6  391 209 
 PRA  HN ES       1138 51.24                             106   -0.64 6  391 209 
 PRA  HZ I        1139  0.16         7.2 0.26            107            391 209 
 ORTC HZ EP       1138 10.47                             105   -0.29 6  394 216 
 ORTC HN ES       1138 53.52                             105    0.97 6  394 216 
 ORTC HZ I        1139  0.09         5.6 0.46            106            394 216 
                                                                                
