 2013  312 1142 29.7 L   6.759 -73.054141.3  RSN  4 0.2 1.8LRSN                1
 GAP=151        0.57       3.8     5.4  5.7 -0.1008E+01 -0.1765E+01 -0.1383E+01E
 Epicentro: LOS SANTOS - SANTANDER                                             3
 ACTION:UPD 13-04-09 14:01 OP:ep   STATUS:               ID:20130312114229 L   I
 2013-03-12-1140-00M.COL___231                                                 6
 STAT SP IPHASW D HRMM SECON CODA AMPLIT PERI AZIMU VELO AIN AR TRES W  DIS CAZ7
 BAR2 SZ EP   1   1142 48.38                             170   -0.45 7 23.3 218 
 BAR2 SZ ES   1   1143  3.59                             170   -0.13 7 23.3 218 
 BAR2 SZ I        1143  6.54        13.2 0.16            170           23.3 218 
 PAM  SZ EP       1142 51.66                             151    0.3110 75.2  31 
 PAM  SN ES   1   1143  8.05                             151   -0.15 7 75.2  31 
 PAM  SN I        1143 10.00         7.6 0.19            154           75.2  31 
 BRR  HZ EP       1142 50.94                             148   -0.1410 82.3 298 
 BRR  HN ES   1   1143  7.95                             148    0.22 7 82.3 298 
 BRR  HN I        1143  8.68        21.8 0.25            152           82.3 298 
 RUS  HZ EP   1   1142 52.69                             144   -0.02 7 95.9 182 
 RUS  HN ES   1   1143 10.84                             144    0.21 7 95.9 182 
 RUS  HN I        1143 13.32         7.5 0.29            146           95.9 182 
                                                                                
