 2013 1012 1250 50.7 L   7.408 -73.195130.0  RSN 10 0.5 2.2LRSN                1
 GAP=185        1.12       5.0     4.4  6.6  0.2043E+01  0.8754E+01  0.5651E+01E
 Epicentro: EL PLAYON - SANTANDER                                              3
 ACTION:UPD 13-11-25 09:21 OP:ep   STATUS:               ID:20131012125050 L   I
 OLDACT:REG 13-10-12 15:37 OP:nd   STATUS:               ID:20131012124959     3
 2013-10-12-1249-59M.COL___273                                                 6
 STAT SP IPHASW D HRMM SECON CODA AMPLIT PERI AZIMU VELO AIN AR TRES W  DIS CAZ7
 PAM  SZ EP       1251 10.05                             156    0.0710 55.2  98 
 PAM  SN ES       1251 25.04                             156    0.0210 55.2  98 
 PAM  SZ I        1251 26.79        21.4 0.16            160           55.2  98 
 BRR  HZ IP     C 1251  9.88                             151    0.0210 66.1 240 
 BRR  HN ES       1251 24.89                             151    0.0810 66.1 240 
 BRR  HZ I        1251 25.97        63.9 0.22            147           66.1 240 
 BAR2 SZ IP     D 1251 11.81                             143    0.0110 90.2 179 
 BAR2 SZ ES       1251 28.58                             143    0.3310 90.2 179 
 BAR2 SZ I        1251 29.31        54.9 0.40            142           90.2 179 
 RUS  HZ EP       1251 18.52                             125   -0.54 9  168 176 
 RUS  HN ES       1251 40.67                             125   -0.50 9  168 176 
 RUS  HZ I        1251 43.06         4.7 0.40            125            168 176 
 PTB  HZ EP       1251 18.35                             124   -0.21 9  169 236 
 PTB  HN ES       1251 39.12                             124   -1.16 9  169 236 
 ZAR  HZ IP     C 1251 19.80                             122   -0.24 9  184 273 
 ZAR  HN ES       1251 43.45                             122    0.53 9  184 273 
 ZAR  HZ I        1251 46.42        24.1 0.38            121            184 273 
 SPBC HZ EP       1251 23.78                             117    0.10 8  217 207 
 SPBC HN ES       1251 50.70                             117    1.29 8  217 207 
 SPBC HZ I        1251 56.39        18.0 0.24            117            217 207 
 NOR  HZ IP     D 1251 30.32                             111    0.17 7  275 222 
 NOR  HN ES   2   1252  0.69                             111   -0.23 4  275 222 
 NOR  HZ I        1252  7.43        12.6 0.30            111            275 222 
 HEL  HZ EP   2   1251 32.59                             110    0.27 4  291 243 
 HEL  HN ES   2   1252  4.66                             110   -0.13 4  291 243 
 HEL  HZ I        1252 14.30         7.2 0.36            110            291 243 
 CHI  HZ EP       1251 35.46                             108    0.55 7  313 191 
 CHI  HN ES       1252  9.20                             108   -0.19 7  313 191 
                                                                                
