 2011 1212 1210  1.9 L   6.705 -73.156144.8  RSN  6 0.4 1.5LRSN                1
 GAP=139        0.57       5.8     5.7  7.9 -0.2905E+01  0.6306E+01 -0.2510E+01E
 Epicentro: VILLANUEVA - SANTANDER                                             3
 ACTION:UPD 12-07-13 16:15 OP:ep   STATUS:               ID:20111212121001 L   I
 2011-12-12-1210-00M.COL___186                                                 6
 STAT SP IPHASW D HRMM SECON CODA AMPLIT PERI AZIMU VELO AIN AR TRES W  DIS CAZ7
 BAR2 SZ EP   2   1210 21.69                             175    0.41 5 12.8 193 
 BAR2 SZ ES   2   1210 36.85                             175    0.48 5 12.8 193 
 BAR2 SZ I        1210 39.23         5.3 0.54                          12.8 193 
 GIR2 SZ EP   2   1210 21.37                             163   -0.44 5 41.5 354 
 BRR  HZ EP   1   1210 23.76                             151    0.51 7 75.8 306 
 BRR  HZ I        1210 25.78        10.0 0.47                          75.8 306 
 BRR  HN ES   2   1210 39.51                             151   -0.36 5 75.8 306 
 PAM  SZ EP   2   1210 24.65                             148    0.04 5 86.4  36 
 PAM  SN ES   2   1210 41.97                             148   -0.33 5 86.4  36 
 RUS  HZ EP   2   1210 24.48                             147   -0.39 5 90.2 175 
 RUS  HN ES   2   1210 42.60                             147   -0.16 5 90.2 175 
 RUS  HZ I        1210 44.20         3.7 0.65                          90.2 175 
 PTB  HZ EP   2   1210 28.23                             132   -0.34 5  145 263 
 PTB  HN ES   2   1210 49.21                             132   -0.13 5  145 263 
                                                                                
