 2017  412 1056 41.5 L   6.775 -73.162142.6  RSN 11 0.5 2.0LRSN                1
 GAP=111        1.15       3.7     4.2  6.1  0.1195E+01  0.3575E+01  0.4805E+01E
 Epicentro: LOS SANTOS - SANTANDER                                             3
 ACTION:UPD 17-05-30 21:11 OP:jn   STATUS:               ID:20170412105641 L   I
 OLDACT:UP  17-04-12 21:50 OP:cog  STATUS:               ID:20170412104741     3
 OLDACT:REG 17-04-12 20:22 OP:cog  STATUS:               ID:20170412104741     3
 2017-04-12-1048-00M.COL___368                                                 6
 STAT SP IPHASW D HRMM SECON CODA AMPLIT PERI AZIMU VELO AIN AR TRES W  DIS CAZ7
 BAR2 EZ EP       1057  0.64                             171   -0.0810 20.4 186 
 BAR2 EZ ES       1057 15.88                             171    0.1810 20.4 186 
 BAR2 EZ I        1057 18.45        34.7 0.46            168           20.4 186 
 BRR  HZ EP       1057  2.42                             152    0.1010 70.9 301 
 BRR  HN ES       1057 18.85                             152    0.3110 70.9 301 
 BRR  HZ I        1057 23.54        18.7 0.14            151           70.9 301 
 PAM  EZ EP       1057  3.44                             149   -0.1710 80.7  39 
 PAM  EN ES       1057 21.01                             149    0.1710 80.7  39 
 PAM  EZ I        1057 22.80        15.5 0.52            155           80.7  39 
 RUS  HZ EP       1057  4.50                             144   -0.2810 98.0 175 
 RUS  HN ES       1057 23.25                             144    0.3310 98.0 175 
 PTB  HZ EP   9   1057  7.42                             132   -0.61 0  145 260 
 PTB  HN ES       1057 27.86                             131   -0.23 9  145 260 
 PTB  HZ I        1057 34.11         7.7 0.46            131            145 260 
 SPBC HZ EP       1057  9.83                             129    0.36 9  160 219 
 SPBC HN ES       1057 31.27                             129   -0.00 9  160 219 
 SPBC HZ I        1057 34.24        19.7 0.30            129            160 219 
 YPLC HZ EP       1057 10.99                             126    0.04 9  175 150 
 YPLC HN ES       1057 32.92                             126   -0.98 9  175 150 
 YPLC HZ I        1057 35.94        14.3 0.32            128            175 150 
 ZAR  HZ EP       1057 14.42                             122    0.72 9  203 293 
 ZAR  HE ES       1057 37.34                             122   -1.45 9  203 293 
 ZAR  HZ I        1057 44.00        12.1 0.68            123            203 293 
 NOR  HZ EP       1057 17.14                             118    0.40 8  232 235 
 NOR  HN ES       1057 44.18                             118   -0.03 8  232 235 
 NOR  HZ I        1057 47.49         6.8 0.22            119            232 235 
 CHI  HZ EP       1057 18.91                             117    0.20 8  246 195 
 CHI  HN ES       1057 47.81                             117    0.09 8  246 195 
 CHI  HZ I        1057 58.02         4.8 0.40            118            246 195 
 ROSC BZ EP   4   1057 21.46                             116    2.35 0  249 211 
 ROSC BN ES   4   1057 53.12                             116    4.69 0  249 211 
 ROSC BZ I        1057 58.63        12.2 0.35            117            249 211 
                                                                                
