 2011  312 1559 14.0 L   6.815 -73.149142.2  RSN  7 0.3 2.2LRSN                1
 GAP=158        0.81       4.6     8.6  7.2 -0.2236E+02  0.2602E+02 -0.5348E+01E
 Epicentro: LOS SANTOS - SANTANDER                                             3
 ACTION:UP  11-06-16 14:33 OP:jfem STATUS:               ID:20110312155914 L   I
 2011-03-12-1558-05S.COL___135                                                 6
 STAT SP IPHASW D HRMM SECON CODA AMPLIT PERI AZIMU VELO SNR AR TRES W  DIS CAZ7
 BAR2 SZ EP       1559 33.73                             169     0.510   25 189 
 BAR2 SZ ES   1   1559 48.66                             169     0.4 7   25 189 
 BAR2 SZ I        1559 50.48        48.8 0.35                            25 189 
 RUS  HZ EP       1559 37.54                             143     0.010  102 176 
 RUS  HN ES   1   1559 55.37                             143    -0.5 7  102 176 
 RUS  HZ I        1559 57.57        17.1 0.24                           102 176 
 GRA  SZ EP       1559 38.48                             137    -0.310  124  18 
 GRA  SZ ES   1   1559 58.06                             137    -0.1 7  124  18 
 GRA  SZ I        16 0  1.07        33.7 0.30                           124  18 
 OCA  SZ EP   2   1559 41.91                             129     0.0 5  159 353 
 NOR  SZ EP       1559 49.92                             118     0.3 8  236 234 
 NOR  SN ES   1   16 0 16.84                             118    -0.6 6  236 234 
 CHI  HZ EP   1   1559 51.62                             116    -0.1 6  250 195 
 CHI  HZ I        1559 54.38         5.8 0.18                           250 195 
 CHI  HE ES   3   16 0 21.22                             116     0.1 2  250 195 
 PRA  HZ EP       16 0  7.82                             106     0.2 6  393 209 
                                                                                
