 2012 1112 1521 58.3 L   7.213 -73.584102.2  RSN  8 0.2 1.5LRSN                1
 GAP=111        0.59       2.3     2.9  3.6 -0.1992E+00  0.2710E+01 -0.7044E+00E
 Epicentro: SABANA DE TORRES - SANTANDER                                       3
 ACTION:UPD 12-12-05 15:32 OP:}ep  STATUS:               ID:20121112152158 L   I
 2012-11-12-1520-00M.COL___230                                                 6
 STAT SP IPHASW D HRMM SECON CODA AMPLIT PERI AZIMU VELO AIN AR TRES W  DIS CAZ7
 BRR  HZ EP       1522 12.19                             169   -0.0110 18.4 230 
 BRR  HN ES       1522 23.35                             169    0.2810 18.4 230 
 GIR2 SZ EP       1522 13.43                             154   -0.0410 45.6 109 
 GIR2 SZ ES       1522 24.87                             154   -0.4610 45.6 109 
 BAR2 SZ EP       1522 16.14                             138    0.0610 81.7 147 
 BAR2 SZ ES       1522 30.21                             138    0.2410 81.7 147 
 PAM  SZ EP       1522 17.95                             133    0.0810 98.6  82 
 PAM  SN ES       1522 33.15                             133   -0.0110 98.6  82 
 PAM  SN I        1522 34.35         4.4 0.36                          98.6  82 
 OCA  HN ES       1522 35.43                             127   -0.0210  117  14 
 OCA  HN I        1522 37.80        30.2 0.30                           117  14 
 PTB  HZ EP       1522 19.07                             126   -0.3610  122 232 
 PTB  HE I        1522 42.60         5.3 0.16                           122 232 
 RUS  HZ EP       1522 23.70                             118    0.09 9  156 159 
 RUS  HN I        1522 45.80         3.1 0.26                           156 159 
 SML  HZ EP       1522 26.17                             114    0.18 9  184 343 
                                                                                
