 2017  412 1159 34.8 L   6.785 -73.165141.6  RSN  7 0.3 1.7LRSN                1
 GAP=135        0.79       3.2     3.4  5.3  0.9955E+00  0.3537E+01  0.4057E+01E
 Epicentro: LOS SANTOS - SANTANDER                                             3
 ACTION:UPD 17-05-30 21:11 OP:jn   STATUS:               ID:20170412115934 L   I
 OLDACT:REG 17-04-12 20:31 OP:cog  STATUS:               ID:20170412115741     3
 2017-04-12-1158-00M.COL___374                                                 6
 STAT SP IPHASW D HRMM SECON CODA AMPLIT PERI AZIMU VELO AIN AR TRES W  DIS CAZ7
 BAR2 HZ EP       1159 53.94                             171    0.0110 21.4 185 
 BAR2 HZ ES       12 0  8.95                             171    0.1310 21.4 185 
 BAR2 HZ I        12 0 10.90        17.2 0.24            170           21.4 185 
 BRR  HZ EP       1159 55.93                             152    0.4510 70.2 301 
 BRR  HE ES       12 0 11.57                             152   -0.0110 70.2 301 
 BRR  HZ I        12 0 15.62        13.8 0.12            154           70.2 301 
 PAM  EZ EP       1159 56.93                             149    0.1510 80.0  40 
 PAM  EN ES       12 0 13.81                             149   -0.0710 80.0  40 
 PAM  EZ I        12 0 16.38         7.4 0.58            153           80.0  40 
 RUS  HZ EP       1159 57.95                             143   -0.1310 99.1 175 
 RUS  HN ES       12 0 15.84                             143   -0.3610 99.1 175 
 RUS  HZ I        12 0 17.62         8.6 0.28            145           99.1 175 
 PTB  HZ EP       12 0  0.66                             131   -0.59 9  145 259 
 PTB  HN ES       12 0 21.82                             131   -0.03 9  145 259 
 PTB  HZ I        12 0 24.17         5.7 0.10            133            145 259 
 ZAR  HZ EP   4   12 0  7.21                             122    0.33 0  203 293 
 ZAR  HN ES       12 0 31.90                             122    0.03 9  203 293 
 CHI  HZ EP       12 0 11.88                             116   -0.20 8  246 195 
 CHI  HE ES       12 0 41.87                             116    0.75 8  246 195 
 CHI  HZ I        12 0 46.46         2.3 0.42            118            246 195 
                                                                                
