 2014 1012 1224 12.9 L   6.782 -73.128140.0  RSN  6 0.4 1.5LRSN                1
 GAP=238        0.92       9.2     6.7  7.8  0.2499E+02  0.7958E+01  0.1679E+02E
 Epicentro: LOS SANTOS - SANTANDER                                             3
 ACTION:UPD 14-11-29 23:49 OP:nd   STATUS:               ID:20141012122412 L   I
 OLDACT:REG 14-10-12 21:04 OP:fm   STATUS:               ID:20141012121746     3
 2014-10-12-1217-46M.COL___284                                                 6
 STAT SP IPHASW D HRMM SECON CODA AMPLIT PERI AZIMU VELO AIN AR TRES W  DIS CAZ7
 BAR2 SZ EP       1224 31.88                             171    0.0410 21.8 196 
 BAR2 SZ ES   1   1224 46.96                             171    0.37 7 21.8 196 
 BAR2 SZ I        1224 49.07         8.9 0.26            171           21.8 196 
 BRR  HZ EP       1224 33.70                             151    0.0810 73.9 299 
 BRR  HN ES       1224 49.50                             151   -0.2610 73.9 299 
 BRR  HZ I        1224 50.97         5.2 0.30            148           73.9 299 
 RUS  HZ EP   1   1224 35.83                             143   -0.14 7 98.5 177 
 PTB  HZ EP       1224 38.78                             130   -0.80 9  149 260 
 PTB  HN ES       1225  0.57                             130    0.20 9  149 260 
 PTB  HZ I        1225  2.60         3.8 0.10            130            149 260 
 ZAR  HZ EP   1   1224 46.18                             121    0.90 6  207 292 
 ZAR  HN ES   1   1225 10.57                             121    0.06 6  207 292 
 ZAR  HZ I        1225 18.01         2.8 0.32            121            207 292 
 GUY2CHZ EP   1   1224 56.84                             111    0.50 5  302 235 
                                                                                
