 2013  412 1324  7.8 L   6.740 -73.209141.6  RSN  5 0.5 1.7LRSN                1
 GAP=223        0.99       8.7     8.7  8.2  0.3494E+02  0.1897E+02  0.1351E+02E
 Epicentro: VILLANUEVA - SANTANDER                                             3
 ACTION:UPD 13-05-22 14:37 OP:EP   STATUS:               ID:20130412132407 L   I
 2013-04-12-1320-00M.COL___245                                                 6
 STAT SP IPHASW D HRMM SECON CODA AMPLIT PERI AZIMU VELO AIN AR TRES W  DIS CAZ7
 BAR2 SZ EP       1324 26.50                             173   -0.2810 16.7 170 
 BAR2 SZ ES       1324 41.26                             173   -0.3410 16.7 170 
 BAR2 SZ I        1324 42.40        23.0 0.18            148           16.7 170 
 BRR  HZ EP       1324 28.48                             153    0.1510 68.8 306 
 BRR  HN ES   1   1324 45.25                             153    0.89 7 68.8 306 
 BRR  HZ I        1324 46.38        11.1 0.20            139           68.8 306 
 RUS  HZ EP   1   1324 30.46                             145   -0.23 7 94.8 172 
 RUS  HE ES   1   1324 48.98                             145    0.41 7 94.8 172 
 RUS  HZ I        1324 50.35         6.3 0.26            120           94.8 172 
 PTB  HZ EP       1324 33.41                             133   -0.25 9  140 261 
 PTB  HN ES   1   1324 53.42                             133   -0.44 7  140 261 
 PTB  HZ I        1324 57.00         8.6 0.24            114            140 261 
 CHI  HZ EP   1   1324 45.25                             117    0.90 6  240 194 
 CHI  HZ I        1325 19.63         1.4 0.31            103            240 194 
                                                                                
