 2013 1112 1051 15.9 L   6.772 -73.178145.0  RSN  5 0.3 1.5LRSN                1
 GAP=232        0.71       4.2     4.5  5.3  0.4167E+01  0.3184E+01  0.2265E+01E
 Epicentro: LOS SANTOS - SANTANDER                                             3
 ACTION:UPD 14-01-09 16:27 OP:ep   STATUS:               ID:20131112105115 L   I
 OLDACT:REG 13-11-12 15:30 OP:stll STATUS:               ID:20131112104818     3
 2013-11-12-1048-18M.COL___206                                                 6
 STAT SP IPHASW D HRMM SECON CODA AMPLIT PERI AZIMU VELO AIN AR TRES W  DIS CAZ7
 BAR2 SZ EP       1051 35.26                             172   -0.1210 19.8 181 
 BAR2 SZ I        1051 35.36        10.1 0.40            171           19.8 181 
 BAR2 SZ ES       1051 50.35                             172   -0.2310 19.8 181 
 BRR  HZ EP       1051 37.15                             153    0.2610 69.7 302 
 BRR  HZ I        1051 37.37         6.2 0.46            152           69.7 302 
 BRR  HN ES       1051 53.50                             153    0.2410 69.7 302 
 RUS  HZ EP       1051 39.71                             144    0.3310 97.8 174 
 RUS  HZ I        1051 40.00         2.5 0.34            144           97.8 174 
 RUS  HN ES       1051 57.55                             144   -0.1510 97.8 174 
 PTB  HZ EP       1051 41.90                             133   -0.55 9  144 260 
 PTB  HN ES       1052  3.03                             133   -0.11 9  144 260 
 PTB  HZ I        1052  5.37         5.0 0.14            131            144 260 
 SPBC HZ EP       1051 43.91                             130    0.00 9  158 219 
 SPBC HZ I        1051 44.57         4.8 0.16            129            158 219 
 SPBC HN ES       1052  6.05                             130    0.30 9  158 219 
                                                                                
