 2013 1012 1713 56.2 L   6.770 -73.157139.1  RSN  5 0.4 1.4LRSN                1
 GAP=136        0.99       5.7     5.5  7.6  0.3387E+01  0.1287E+01 -0.3404E+01E
 Epicentro: LOS SANTOS - SANTANDER                                             3
 ACTION:UPD 13-11-25 09:21 OP:ep   STATUS:               ID:20131012171356 L   I
 OLDACT:DUP 13-10-12 18:01 OP:nd   STATUS:               ID:20131012170960d    3
 2013-10-12-1709-59M.COL___273                                                 6
 STAT SP IPHASW D HRMM SECON CODA AMPLIT PERI AZIMU VELO AIN AR TRES W  DIS CAZ7
 BAR2 SZ EP   2   1714 14.67                             172   -0.34 5 19.9 188 
 BAR2 SZ ES       1714 29.68                             172    0.0410 19.9 188 
 BAR2 SZ I        1714 31.05        11.0 0.28            172           19.9 188 
 BRR  HZ EP       1714 16.88                             151    0.1710 71.8 301 
 BRR  HN ES       1714 33.34                             151    0.6610 71.8 301 
 BRR  HZ I        1714 37.94         7.0 0.34            152           71.8 301 
 PAM  SZ IP     C 1714 17.96                             148   -0.0110 80.7  39 
 PAM  SN ES   2   1714 33.93                             148   -0.98 5 80.7  39 
 PAM  SZ I        1714 35.33         2.5 0.30            152           80.7  39 
 RUS  HZ EP       1714 19.46                             144    0.3510 97.4 175 
 RUS  HN ES       1714 36.85                             144   -0.1010 97.4 175 
 RUS  HZ I        1714 39.78         1.7 0.32            146           97.4 175 
 PTB  HZ EP       1714 22.32                             131   -0.19 9  146 260 
 PTB  HN ES       1714 42.28                             131   -0.71 9  146 260 
 PTB  HZ I        1714 45.54         4.5 0.16            133            146 260 
                                                                                
