 2016  412 1905 36.0 L   6.888 -73.329121.9  RSN 22 0.5 2.6LRSN                1
 GAP= 69        1.21       3.1     3.1  6.1 -0.2582E+01  0.2985E+01 -0.2780E-03E
 Epicentro: BETULIA - SANTANDER                                                3
 ACTION:UPD 16-05-05 14:20 OP:rebc STATUS:               ID:20160412190536 L   I
 OLDACT:UP  16-04-13 01:20 OP:ar   STATUS:               ID:20160412185742     3
 OLDACT:REG 16-04-12 22:25 OP:ar   STATUS:               ID:20160412185742     3
 2016-04-12-1857-42M.COL___291                                                 6
 STAT SP IPHASW D HRMM SECON CODA AMPLIT PERI AZIMU VELO AIN AR TRES W  DIS CAZ7
 BAR2 EZ IP     C 19 5 53.27                             162    0.0610 36.5 154 
 BAR2 EZ ES       19 6  6.25                             162   -0.3510 36.5 154 
 PAM  EZ EP       19 5 56.38                             143    0.0210 85.6  54 
 PAM  EE ES       19 6 12.70                             143    0.4910 85.6  54 
 PAM  EZ I        19 6 16.53        62.3 0.42            141           85.6  54 
 RUS  HZ EP       19 5 58.10                             134   -0.5110  113 166 
 RUS  HE ES   4   19 6 15.62                             134   -0.58 0  113 166 
 RUS  HZ I        19 6 18.40        48.0 0.32            131            113 166 
 PTB  HZ IP       19 5 58.52                             130   -0.9910  130 253 
 PTB  HN ES       19 6 17.27                             130   -0.5410  130 253 
 PTB  HZ I        19 6 21.25        73.3 0.42            125            130 253 
 OCA  HZ EP       19 6  1.47                             126   -0.05 9  149   0 
 OCA  HN ES       19 6 21.38                             126   -0.02 9  149   0 
 OCA  HZ I        19 6 22.56       206.2 0.24            122            149   0 
 SPBC HZ EP       19 6  1.84                             124   -0.61 9  159 211 
 SPBC HN ES       19 6 23.18                             124    0.14 9  159 211 
 SPBC HZ I        19 6 26.07        66.1 0.36            120            159 211 
 TAM  HZ IP     C 19 6  4.19                             120   -0.04 9  177 106 
 TAM  HN ES       19 6 26.17                             120   -0.04 9  177 106 
 TAM  HZ I        19 6 26.48        36.4 0.24            118            177 106 
 ZAR  HZ EP       19 6  5.10                             120    0.46 9  182 292 
 ZAR  HN ES       19 6 27.89                             120    0.95 9  182 292 
 ZAR  HZ I        19 6 31.73        43.6 0.44            116            182 292 
 NOR  HZ EP       19 6  8.89                             114   -0.50 8  225 229 
 NOR  HE ES       19 6 36.31                             114    0.91 8  225 229 
 ROSC BZ EP   4   19 6 16.26                             111    3.41 0  252 206 
 ROSC BN ES   4   19 6 46.87                             111    5.31 0  252 206 
 ROSC BZ I        19 6 49.91        15.5 0.45            108            252 206 
 CHI  HZ EP       19 6 13.12                             111    0.01 8  254 190 
 CHI  HZ I        19 6 42.92        12.2 0.50            108            254 190 
 CHI  HN ES       19 6 43.13                             111    1.11 8  254 190 
 URE  HZ EP       19 6 12.79                             110   -0.69 8  261 292 
 URE  HE ES   4   19 6 41.57                             110   -1.12 0  261 292 
 URE  HZ I        19 6 51.47        33.1 0.16            107            261 292 
 GUY2CHZ EP       19 6 18.16                             108    0.69 7  291 231 
 GUY2CHN ES       19 6 49.50                             108   -0.27 7  291 231 
 GUY2CHZ I        19 6 56.72        21.0 0.60                           291 231 
 VIL  SZ EP   2   19 6 19.07                             107   -0.14 4  310 188 
 SOCV BZ EP       19 6 19.68                             106    0.14 7  314  60 
 SOCV BN ES   4   19 6 51.85                             106   -1.62 0  314  60 
 LL6C HZ EP   4   19 6 21.09                             106    1.41 0  315   1 
 LL6C HN ES   4   19 6 54.33                             106    0.62 0  315   1 
 LL6C HZ I        19 7  1.32        11.3 0.40            103            315   1 
 CBOC HZ EP   4   19 6 22.09                             106    1.88 0  318 249 
 CBOC HN ES   4   19 6 48.60                             106   -6.05 0  318 249 
 CBOC HZ I        19 6 54.32        31.2 0.10            103            318 249 
 PTGC HZ EP   4   19 6 28.10                             106    7.19 0  325 156 
 PTGC HN ES   4   19 6 54.31                             106   -1.60 0  325 156 
 PTGC HZ I        19 6 55.74        26.6 0.20            103            325 156 
 SDV  BZ EP       19 6 27.19                             103    0.73 6  370  53 
 SDV  BN ES   4   19 7  2.64                             103   -3.14 0  370  53 
 SDV  BZ I        19 7  6.16        14.3 0.25            101            370  53 
 SJC  HZ EP   4   19 6 27.41                             102   -1.24 0  390 329 
 SJC  HN ES   4   19 7  7.11                             102   -2.57 0  390 329 
 SJC  HZ I        19 7 13.68         8.6 0.34             99            390 329 
 ORTC HZ EP       19 6 29.11                             102    0.28 6  392 213 
 ORTC HN ES   4   19 7 12.98                             102    2.98 0  392 213 
 ORTC HZ I        19 7 17.01         9.3 0.38             99            392 213 
 CRJC HZ EP       19 6 37.24                              99    0.23 5  460   6 
 CRJC HN ES       19 7 23.89                              99   -0.67 5  460   6 
 CRJC HZ I        19 7 29.98        18.0 0.42             97            460   6 
                                                                                
