 2016 1112 1702 11.0 L   6.723 -73.128141.4  RSN  7 0.3 1.8LRSN                1
 GAP=168        0.68       4.5     3.2  5.3 -0.5276E+01  0.4241E+01  0.3180E+01E
 Epicentro: JORDAN - SANTANDER                                                 3
 ACTION:UPD 17-10-26 21:07 OP:lp   STATUS:               ID:20161112170211 L   I
 OLDACT:REG 16-11-12 21:22 OP:dnl  STATUS:               ID:20161112165651     3
 2016-11-12-1658-00M.COL___340                                                 6
 STAT SP IPHASW D HRMM SECON CODA AMPLIT PERI AZIMU VELO AIN AR TRES W  DIS CAZ7
 BAR2 EZ EP       17 2 30.10                             173    0.1610 15.7 203 
 BAR2 EZ ES       17 2 44.89                             173    0.1510 15.7 203 
 BAR2 EZ I        17 2 46.40        19.4 0.22            172           15.7 203 
 BRR  HZ EP   2   17 2 32.63                             150    0.62 5 77.3 303 
 BRR  HE ES       17 2 48.55                             150    0.1310 77.3 303 
 BRR  HZ I        17 2 54.33        13.9 0.16            148           77.3 303 
 PAM  EZ IP     D 17 2 33.15                             148    0.0710 83.0  35 
 PAM  EN ES       17 2 50.01                             148   -0.3110 83.0  35 
 PAM  EZ I        17 2 52.47         9.2 0.64            152           83.0  35 
 PTB  HZ EP       17 2 37.10                             131   -0.54 9  148 262 
 PTB  HE ES       17 2 58.23                             131   -0.20 9  148 262 
 PTB  HZ I        17 3  3.51         6.6 0.28            132            148 262 
 ZAR  HZ EP   2   17 2 43.41                             121   -0.26 4  209 294 
 ZAR  HE ES       17 3  9.45                             121    0.27 8  209 294 
 ZAR  HZ I        17 3 14.57         9.9 0.56            122            209 294 
 NOR  HZ EP   2   17 2 46.89                             118    0.79 4  231 236 
 NOR  HN ES       17 3 13.53                             118    0.02 8  231 236 
 NOR  HZ I        17 3 17.06         2.8 0.16            120            231 236 
 SJC  HZ EP   4   17 3  5.18                             105   -2.18 0  417 327 
 SJC  HN ES   4   17 3 45.68                             105   -5.67 0  417 327 
 SJC  HZ I        17 3 50.46         1.7 0.48            107            417 327 
                                                                                
