 2012  412 1545 14.6 L   6.849 -73.338118.8  RSN  7 0.5 2.3LRSN                1
 GAP=148        1.35       7.9     8.2 10.9  0.2067E+00  0.3112E+02  0.1682E+01E
 Epicentro: ZAPATOCA - SANTANDER                                               3
 ACTION:UPD 12-07-05 11:52 OP:tino STATUS:               ID:20120412154514 L   I
 2012-04-12-1540-00M.COL___181                                                 6
 STAT SP IPHASW D HRMM SECON CODA AMPLIT PERI AZIMU VELO AIN AR TRES W  DIS CAZ7
 BAR2 SZ EP       1545 31.74                             163     0.410   33 149 
 BAR2 SZ ES   1   1545 44.21                             163    -0.1 7   33 149 
 BAR2 SZ I        1545 45.92       109.4 0.30                            33 149 
 BRR  HZ EP       1545 31.70                             156     0.010   50 305 
 BRR  HZ I        1545 38.85        37.5 0.11                            50 305 
 BRR  HN ES   1   1545 45.18                             156     0.2 7   50 305 
 PTB  HZ IP     C 1545 36.48                             129    -1.210  128 255 
 PTB  HZ I        1545 57.28        19.5 0.27                           128 255 
 OCA  SZ EP       1545 40.38                             124     0.0 9  154   1 
 ZAR  HZ EP   1   1545 42.91                             119    -0.2 7  182 293 
 ZAR  HE ES       1546  5.56                             119     0.2 9  182 293 
 ZAR  HZ I        1546  8.37        31.6 0.29                           182 293 
 NOR  SZ EP       1545 47.78                             114     0.3 8  221 230 
 NOR  SN ES   1   1546 13.12                             114     0.1 6  221 230 
 HEL  HZ EP   1   1545 52.41                             110     1.0 6  253 253 
 HEL  HZ I        1546 25.95         9.6 0.55                           253 253 
                                                                                
