 2015 1112 1736 48.5 L   6.773 -73.072137.5  RSN  4 0.4 1.6LRSN                1
 GAP=147        0.95       4.9     7.3  7.8 -0.1068E+01 -0.4049E+01  0.1460E+01E
 Epicentro: LOS SANTOS - SANTANDER                                             3
 ACTION:UPD 15-12-28 16:10 OP:cam  STATUS:               ID:20151112173648 L   I
 OLDACT:UP  15-11-19 06:51 OP:CARA STATUS:               ID:20151112173648 L   3
 OLDACT:UP  15-11-13 00:54 OP:cara STATUS:               ID:20151112172750     3
 OLDACT:REG 15-11-12 20:45 OP:cara STATUS:               ID:20151112172750     3
 2015-11-12-1727-50M.COL___322                                                 6
 STAT SP IPHASW D HRMM SECON CODA AMPLIT PERI AZIMU VELO AIN AR TRES W  DIS CAZ7
 BAR2 EZ EP       1737  7.01                             170   -0.1510 23.4 211 
 BAR2 EZ ES       1737 21.14                             170   -0.5510 23.4 211 
 BAR2 EZ I        1737 23.04         9.1 0.24            171           23.4 211 
 PAM  EZ EP       1737 10.00                             150    0.2810 75.0  33 
 PAM  EE ES       1737 26.26                             150    0.0110 75.0  33 
 PAM  EZ I        1737 28.97        11.1 0.44            151           75.0  33 
 BRR  HZ EP       1737  8.81                             148   -0.5010 79.8 298 
 BRR  HE ES       1737 26.03                             148    0.5010 79.8 298 
 BRR  HZ I        1737 27.51         8.0 0.84            150           79.8 298 
 RUS  HZ EP       1737 11.32                             143    0.0910 97.3 181 
 RUS  HN ES       1737 29.25                             143    0.3110 97.3 181 
 RUS  HZ I        1737 30.75         6.2 0.24            145           97.3 181 
                                                                                
