 2010  812 1036  9.3 L   6.760 -73.184144.8  RSN  7 0.5 1.7LRSN                1
 GAP=155        1.18       5.6    13.3  9.4 -0.1067E+02 -0.1805E+02  0.8276E+00E
 Epicentro: VILLANUEVA - SANTANDER                                             3
 ACTION:UP  10-09-07 10:54 OP:vdl  STATUS:               ID:20100812103609 L   I
 2010-08-12-1033-57S.COL___126                                                 6
 STAT SP IPHASW D HRMM SECON CODA AMPLIT PERI AZIMU VELO SNR AR TRES W  DIS CAZ7
 BAR2 SZ EP       1036 28.46                             172    -0.310   19 180 
 BAR2 SZ ES   2   1036 43.12                                    -0.8 5   19 180 
 BAR2 SZ I        1036 45.24        13.0 0.40                            19 180 
 BTL  SZ EP       1036 28.51                             172    -0.310   20 332 
 BTL  SZ ES   1   1036 43.85                             172    -0.1 7   20 332 
 BRR  HZ EP       1036 30.20                             152    -0.110   70 303 
 BRR  HE ES   1   1036 47.25                             152     0.6 7   70 303 
 BRR  HZ I        1036 49.35        13.3 0.61                            70 303 
 RUS  HZ EP   1   1036 32.59                             144    -0.1 7   97 173 
 RUS  HE ES   1   1036 51.50                             144     0.6 7   97 173 
 RUS  HZ I        1036 51.95         8.5 0.71                            97 173 
 GRA  SZ EP       1036 35.78                             135     0.810  131  19 
 GRA  SZ ES   1   1036 54.68                             135    -0.3 7  131  19 
 GRA  SZ I        1036 56.12         7.4 0.20                           131  19 
 OCA  SZ EP   1   1036 37.20                             128    -0.7 7  164 355 
 OCA  SZ I        1037  3.54         6.2 0.40                           164 355 
 CHI  HZ EP   1   1036 46.65                             117     0.3 6  243 194 
 CHI  HN ES   2   1037 14.83                             117    -0.5 4  243 194 
 CHI  HZ I        1037 19.54         3.6 0.61                           243 194 
                                                                                
