 2012  712 1555 37.7 L   6.722 -73.200146.0  RSN  6 0.3 1.4LRSN                1
 GAP=133        0.89       6.7     5.5  8.4  0.9796E+01 -0.1588E+01 -0.1260E+02E
 Epicentro: VILLANUEVA - SANTANDER                                             3
 ACTION:UPD 12-08-14 11:44 OP:ep   STATUS:               ID:20120712155537 L   I
 2012-07-12-1550-00M.COL___194                                                 6
 STAT SP IPHASW D HRMM SECON CODA AMPLIT PERI AZIMU VELO AIN AR TRES W  DIS CAZ7
 BAR2 SZ EP       1555 57.04                             174    -0.110   15 172 
 BAR2 SZ ES   1   1556 12.43                             174     0.0 7   15 172 
 BAR2 SZ I        1556 14.65         5.8 0.35            143             15 172 
 BRR  HZ EP       1555 59.47                             153     0.710   71 307 
 BRR  HE ES   1   1556 15.26                             153     0.0 7   71 307 
 BRR  HZ I        1556 19.39        17.2 0.61            167             71 307 
 PAM  SZ EP       1556  0.25                             148    -0.310   88  39 
 RUS  HZ EP   1   1556  0.66                             146    -0.2 7   93 172 
 RUS  HN ES   1   1556 19.22                             146     0.2 7   93 172 
 RUS  HZ I        1556 21.49         2.8 0.37            128             93 172 
 PTB  HZ EP       1556  4.05                             134     0.1 9  140 262 
 PTB  HN ES   1   1556 24.08                             134    -0.4 7  140 262 
 PTB  HZ I        1556 26.53         2.2 0.34            140            140 262 
 ZAR  HZ I        1555 34.45         2.0 0.24            141            202 295 
 ZAR  HN ES   1   1556 34.93                             123    -0.1 6  202 295 
