 2012  612 1445 21.8 L   6.805 -73.133144.4  RSN  7 0.3 2.0LRSN                1
 GAP=138        0.70       3.6     4.0  7.4 -0.2895E+01  0.9149E+01 -0.2068E+01E
 Epicentro: LOS SANTOS - SANTANDER                                             3
 ACTION:UPD 12-08-06 17:49 OP:ep   STATUS:               ID:20120612144521 L   I
 2012-06-12-1440-00M.COL___201                                                 6
 STAT SP IPHASW D HRMM SECON CODA AMPLIT PERI AZIMU VELO AIN AR TRES W  DIS CAZ7
 BAR2 SZ EP   1   1445 41.21                             170   -0.04 7 24.1 193 
 BAR2 SZ ES   1   1445 56.53                             170    0.09 7 24.1 193 
 BAR2 SZ I        1445 57.27        21.7 0.20            171           24.1 193 
 PAM  SZ EP       1445 44.26                             151    0.5010 76.1  39 
 PAM  SN ES   1   1446  1.01                             151    0.10 7 76.1  39 
 RUS  HZ EP   1   1445 45.13                             143   -0.28 7  101 177 
 RUS  HN ES   1   1446  3.59                             143   -0.27 7  101 177 
 RUS  HZ I        1446  5.71         7.9 0.31            147            101 177 
 PTB  HZ EP   1   1445 48.19                             131   -0.56 7  149 259 
 PTB  HN ES   1   1446  9.61                             131   -0.19 7  149 259 
 PTB  HZ I        1446 11.85         8.3 0.16            131            149 259 
 OCA  HE ES   1   1446 11.52                             129   -0.39 7  160 353 
 OCA  HZ I        1446 16.15        41.3 0.40            129            160 353 
 ZAR  HN ES   1   1446 19.78                             122    0.23 6  205 292 
 ZAR  HZ I        1446 25.93         8.1 0.17            122            205 292 
 NOR  SN ES   1   1446 25.96                             118    0.47 6  236 235 
                                                                                
