 2010  812 1331 28.0 L   6.803 -73.025138.0  RSN  5 0.6 1.4LRSN                1
 GAP=205        1.62      22.3    26.4 31.3 -0.5015E+02 -0.3219E+03 -0.3441E+03E
 Epicentro: CEPITA - SANTANDER                                                 3
 ACTION:UP  10-09-07 10:54 OP:vdl  STATUS:               ID:20100812133127 L   I
 2010-08-12-1329-30S.COL___126                                                 6
 STAT SP IPHASW D HRMM SECON CODA AMPLIT PERI AZIMU VELO SNR AR TRES W  DIS CAZ7
 BAR2 SZ IP       1331 46.67                             168    -0.210   29 217 
 BAR2 SZ ES   2   1332  0.75                             168    -0.8 5   29 217 
 BAR2 SZ I        1332  2.68         4.7 0.21                            29 217 
 BTL  SZ EP       1331 47.87                             167     1.010   30 295 
 BRR  HZ EP       1331 48.43                             148    -0.610   83 294 
 BRR  HE ES   2   1332  6.29                             148     0.8 5   83 294 
 BRR  HZ I        1332  9.48         8.2 0.14                            83 294 
 GUE  SZ EP   1   1331 51.29                             138    -0.5 7  114   6 
 GRA  SZ EP       1331 52.40                             136     0.110  122  12 
 GRA  SZ I        1331 53.84         3.9 0.21                           122  12 
                                                                                
