 2010  912 1508 13.8 L   6.809 -73.075140.3  RSN  8 0.3 2.0LRSN                1
 GAP=166        0.52       2.5     4.4  4.3 -0.2787E+01  0.1123E+01  0.6616E+00E
 Epicentro: LOS SANTOS - SANTANDER                                             3
 ACTION:UP  11-02-18 11:02 OP:tino STATUS:               ID:20100912150813 L   I
 2010-09-12-1505-34S.COL___120                                                 6
 STAT SP IPHASW D HRMM SECON CODA AMPLIT PERI AZIMU VELO SNR AR TRES W  DIS CAZ7
 BAR2 SZ EP   1   15 8 32.85                             169     0.0 7   27 207 
 BAR2 SZ ES   1   15 8 47.92                             169     0.2 7   27 207 
 BAR2 SZ I        15 8 49.20        22.5 0.35                            27 207 
 GIR2 SZ EP   2   15 8 32.76                             166    -0.1 5   33 336 
 BRR  HZ IP     C 15 8 34.53                             149    -0.210   78 295 
 BRR  HZ I        15 8 34.76        37.8 0.12                            78 295 
 BRR  HE ES   1   15 8 50.88                             149    -0.2 7   78 295 
 RUS  HZ EP   1   15 8 36.98                             142    -0.1 7  101 181 
 RUS  HE ES   1   15 8 55.07                             142    -0.1 7  101 181 
 RUS  HZ I        15 8 57.13         6.8 0.19                           101 181 
 GRA  SZ IP       15 8 38.45                             136     0.210  123  14 
 GRA  SZ I        15 8 39.50        12.7 0.37                           123  14 
 GRA  SZ ES   1   15 8 57.30                             136    -0.1 7  123  14 
 CHI  HZ EP   2   15 8 52.07                             116     0.6 4  252 197 
 CHI  HE ES   2   15 9 21.24                             116     0.3 4  252 197 
 CHI  HZ I        15 9 25.47         3.3 0.40                           252 197 
 HEL  HZ EP   2   15 8 54.69                             113     0.1 4  280 256 
 HEL  HN ES   2   15 9 27.05                             113     0.6 4  280 256 
 HEL  HZ I        15 9 31.85         5.0 0.60                           280 256 
 PRA  HZ EP   1   15 9  7.05                             105    -0.6 4  397 210 
 PRA  HE ES   2   15 9 49.58                             105    -0.1 3  397 210 
 PRA  HZ I        15 9 56.69         4.9 0.24                           397 210 
                                                                                
