 2016 1212 1351 49.9 L   6.784 -73.163145.5  RSN  7 0.5 1.9LRSN                1
 GAP=135        1.16       4.9     5.4  7.3 -0.5068E+01  0.6966E+01  0.9987E+01E
 Epicentro: LOS SANTOS - SANTANDER                                             3
 ACTION:UPD 17-01-11 20:14 OP:rebc STATUS:               ID:20161212135149 L   I
 OLDACT:REG 16-12-12 20:44 OP:ar   STATUS:               ID:20161212134643     3
 2016-12-12-1347-00M.COL___370                                                 6
 STAT SP IPHASW D HRMM SECON CODA AMPLIT PERI AZIMU VELO AIN AR TRES W  DIS CAZ7
 BAR2 EZ EP       1352  9.19                             171   -0.2310 21.3 186 
 BAR2 EZ ES       1352 24.30                             171   -0.3710 21.3 186 
 BAR2 EZ I        1352 25.25        23.9 0.40            169           21.3 186 
 BRR  HZ EP       1352 11.63                             153    0.6910 70.4 301 
 BRR  HN ES       1352 28.15                             153    0.7810 70.4 301 
 BRR  HZ I        1352 32.09        17.1 0.22            150           70.4 301 
 PAM  EZ EP       1352 12.22                             150    0.0110 80.0  40 
 PAM  EN ES       1352 29.27                             150   -0.3610 80.0  40 
 PAM  EZ I        1352 31.77        12.2 0.28            155           80.0  40 
 RUS  HZ EP       1352 13.00                             144   -0.4710 98.9 175 
 RUS  HN ES       1352 32.27                             144    0.3910 98.9 175 
 RUS  HZ I        1352 32.83         7.9 0.18            146           98.9 175 
 PTB  HZ EP       1352 16.19                             132   -0.41 9  146 259 
 PTB  HN ES       1352 36.97                             132   -0.49 9  146 259 
 PTB  HZ I        1352 43.22        10.3 0.46            131            146 259 
 NOR  HZ EP       1352 25.53                             119    0.24 8  232 235 
 NOR  HN ES       1352 52.43                             119   -0.50 8  232 235 
 NOR  HZ I        1353  2.61         6.1 0.46            119            232 235 
 CHI  HZ EP       1352 27.69                             117    0.39 8  246 195 
 CHI  HN ES       1352 56.94                             117    0.44 8  246 195 
 CHI  HZ I        1353  0.46         6.6 0.52            118            246 195 
                                                                                
