 2013  312 1551 48.9 L   6.773 -73.185147.9  RSN  4 0.2 1.4LRSN                1
 GAP=231        0.61       5.0     5.5  6.9  0.1618E+02  0.6024E+01 -0.3192E+01E
 Epicentro: LOS SANTOS - SANTANDER                                             3
 ACTION:UPD 13-04-09 14:01 OP:ep   STATUS:               ID:20130312155148 L   I
 2013-03-12-1550-00M.COL___231                                                 6
 STAT SP IPHASW D HRMM SECON CODA AMPLIT PERI AZIMU VELO AIN AR TRES W  DIS CAZ7
 BRR  HZ EP       1552  9.85                             154   -0.2810 68.9 302 
 BRR  HN ES       1552 26.73                             154    0.0310 68.9 302 
 BRR  HN I        1552 30.75         6.7 0.26            153           68.9 302 
 RUS  HN ES       1552 31.33                             145    0.1310 98.0 173 
 PTB  HZ EP       1552 15.73                             133    0.15 9  143 260 
 PTB  HN ES       1552 36.12                             133   -0.29 9  143 260 
 PTB  HN I        1552 41.06         2.6 0.24            135            143 260 
 ZAR  HN ES       1552 46.69                             123    0.34 9  201 293 
                                                                                
