 2010  312 1535  4.4 L   6.813 -73.015143.1  RSN  8 0.3 2.1LRSN                1
 GAP=196        0.67       2.6     5.8  4.5  0.1219E+01  0.2842E+01  0.1191E+01E
 Epicentro: CEPITA - SANTANDER                                                 3
 ACTION:UP  10-08-24 09:53 OP:vdl  STATUS:               ID:20100312153504 L   I
 2010-03-12-1533-25S.COL___093                                                 6
 STAT SP IPHASW D HRMM SECON CODA AMPLIT PERI AZIMU VELO SNR AR TRES W  DIS CAZ7
 BAR2 SZ EP   1   1535 23.91                             167     0.0 7   31 217 
 BAR2 SZ ES   1   1535 38.66                             167    -0.4 7   31 217 
 BRR  HZ EP       1535 26.02                             148     0.010   84 293 
 BRR  HN ES       1535 43.10                             148     0.210   84 293 
 BRR  HZ I        1535 47.59        33.1 0.12                            84 293 
 RUS  HZ EP       1535 28.02                             143     0.010  102 184 
 RUS  HN ES       1535 46.55                             143     0.110  102 184 
 RUS  HZ I        1535 47.30         9.2 0.37                           102 184 
 OCA  SZ EP       1535 33.06                             129     0.5 9  161 348 
 OCA  SZ ES   1   1535 54.03                             129    -0.6 7  161 348 
 OCA  SZ I        1535 57.80        34.1 0.15                           161 348 
 CHI  HZ EP   1   1535 42.39                             116    -0.2 6  254 198 
 CHI  HN ES   2   1536 12.30                             116     0.0 4  254 198 
 CHI  HZ I        1536 13.62         3.1 1.20                           254 198 
 RREF HZ EP   1   1535 51.21                             109    -0.6 5  334 231 
 RREF HN ES   1   1536 28.88                             109     0.1 5  334 231 
 RREF HZ I        1536 34.57         5.2 0.36                           334 231 
 DBB  SZ EP   1   1535 53.30                             108    -0.1 5  354 274 
 PRA  HZ EP       1535 58.65                             106    -0.2 6  401 211 
 PRA  HN ES   1   1536 41.50                             106     0.2 4  401 211 
 PRA  HZ I        1536 47.27         4.6 0.28                           401 211 
                                                                                
