 2015  512 1518  5.6 L   6.820 -73.184144.3  RSN 10 0.4 2.4LRSN                1
 GAP=131        1.03       2.9     4.4  6.2 -0.2050E+01  0.1052E+02 -0.8382E+00E
 Epicentro: ZAPATOCA - SANTANDER                                               3
 ACTION:UPD 15-09-10 22:03 OP:cam  STATUS:               ID:20150512151805 L   I
 OLDACT:UP  15-05-13 00:09 OP:drio STATUS:               ID:20150512151749     3
 OLDACT:REG 15-05-12 21:24 OP:drio STATUS:               ID:20150512151749     3
 2015-05-12-1517-49M.COL___282                                                 6
 STAT SP IPHASW D HRMM SECON CODA AMPLIT PERI AZIMU VELO AIN AR TRES W  DIS CAZ7
 BAR2 EZ EP       1518 25.00                             170   -0.1110 25.2 179 
 BAR2 EZ ES       1518 40.64                             170    0.3310 25.2 179 
 BAR2 EZ I        1518 41.17        45.3 0.22            170           25.2 179 
 BRR  HZ EP       1518 27.12                             154    0.7810 66.4 299 
 BRR  HN ES       1518 42.86                             154    0.3610 66.4 299 
 PAM  SZ EP       1518 27.79                             150    0.0410 78.5  43 
 PAM  SE ES       1518 44.70                             150   -0.3110 78.5  43 
 PAM  SZ I        1518 47.10        35.4 0.64            154           78.5  43 
 RUS  HZ EP       1518 28.99                             143   -0.4310  103 174 
 RUS  HN ES       1518 47.82                             143   -0.1610  103 174 
 RUS  HZ I        1518 48.67        22.9 0.32            146            103 174 
 OCA  HN ES       1518 55.64                             130    0.28 9  158 355 
 OCA  HZ I        1519  0.32        43.2 0.24            131            158 355 
 SPBC HZ EP       1518 33.99                             129    0.07 9  162 217 
 SPBC HN ES       1518 55.62                             129   -0.37 9  162 217 
 SPBC HZ I        1519  1.91        38.0 0.20            130            162 217 
 ZAR  HZ EP       1518 37.98                             123    0.50 9  199 292 
 ZAR  HN ES       1519  1.70                             123   -0.62 9  199 292 
 ZAR  HZ I        1519  9.61        18.1 0.26            123            199 292 
 NOR  HZ EP       1518 41.60                             118    0.56 8  233 233 
 NOR  HE ES       1519  8.24                             118   -0.42 8  233 233 
 NOR  HZ I        1519 14.04        23.5 0.44            119            233 233 
 SML  HZ EP       1518 41.40                             118   -0.35 8  240 336 
 SML  HN ES       1519  9.25                             118   -0.69 8  240 336 
 SML  HZ I        1519 11.38        14.7 0.28            119            240 336 
 GUY2CHZ EP   4   1518 50.38                             112    1.46 0  299 234 
 GUY2CHN ES       1519 23.03                             112    0.35 7  299 234 
 GUY2CHZ I        1519 31.49        14.4 0.32                           299 234 
                                                                                
