 2014  212 1000 34.4 L   6.834 -73.097142.9  RSN  8 0.3 1.6LRSN                1
 GAP=188        0.60       2.4     3.7  5.3 -0.1154E+01  0.7242E+01 -0.5774E+01E
 Epicentro: LOS SANTOS - SANTANDER                                             3
 ACTION:UPD 14-03-10 08:09 OP:ep   STATUS:               ID:20140212100034 L   I
 OLDACT:UP  14-02-12 15:48 OP:mh   STATUS:               ID:20140212100000     3
 OLDACT:REG 14-02-12 14:50 OP:mh   STATUS:               ID:20140212100000     3
 2014-02-12-1000-00M.COL___199                                                 6
 STAT SP IPHASW D HRMM SECON CODA AMPLIT PERI AZIMU VELO AIN AR TRES W  DIS CAZ7
 BAR2 SZ EP   1   10 0 53.78                             168   -0.02 7 28.4 200 
 BAR2 SZ ES       10 1  9.08                             168    0.1510 28.4 200 
 BAR2 SZ I        10 1 10.61                             172           28.4 200 
 RUS  HN ES       10 1 16.38                             142   -0.2610  104 179 
 RUS  HZ I        10 1 18.14         2.1 0.29            148            104 179 
 PTB  HZ EP       10 1  2.23                             130    0.54 9  154 258 
 PTB  HN ES       10 1 22.70                             130   -0.28 9  154 258 
 OCA  HZ EP   1   10 1  1.79                             129   -0.41 7  157 351 
 OCA  HN ES       10 1 24.14                             129    0.25 9  157 351 
 OCA  HZ I        10 1 29.25         3.1 0.21            130            157 351 
 SPBC HN ES       10 1 25.82                             127   -0.01 9  170 220 
 ZAR  HZ EP       10 1  7.16                             121    0.12 8  208 291 
 ZAR  HN ES       10 1 32.41                             121   -0.09 8  208 291 
 ZAR  HZ I        10 1 38.62         3.3 0.20            123            208 291 
 SML  HZ EP   1   10 1 10.64                             117   -0.10 6  243 334 
 SML  HE ES   1   10 1 38.92                             117   -0.18 6  243 334 
 SML  HZ I        10 1 45.17        10.0 0.05            118            243 334 
 SJC  HZ EP   2   10 1 29.38                             105   -0.47 3  409 326 
 SJC  HN ES   4   10 2 10.23                             105   -2.87 0  409 326 
                                                                                
