 2010 1112 1521 35.2 L   6.759 -73.075146.5  RSN  9 0.4 2.0LRSN                1
 GAP=167        0.66       3.3     5.3  5.4 -0.6108E+01 -0.1561E+01  0.1532E+01E
 Epicentro: LOS SANTOS - SANTANDER                                             3
 ACTION:UP  10-12-17 16:52 OP:REBC STATUS:               ID:20101112152135 L   I
 2010-11-12-1519-37S.COL___129                                                 6
 STAT SP IPHASW D HRMM SECON CODA AMPLIT PERI AZIMU VELO SNR AR TRES W  DIS CAZ7
 BAR2 SZ EP       1521 54.84                             171    -0.110   22 213 
 BAR2 SZ ES   1   1522 10.15                             171    -0.1 7   22 213 
 BAR2 SZ I        1522 12.90        26.7 0.32                            22 213 
 BTL  SZ EP       1521 55.17                             169     0.110   28 310 
 BRR  HZ IP     C 1521 56.83                             150    -0.210   80 299 
 BRR  HE ES       1522 14.24                             150     0.310   80 299 
 RUS  HZ EP   1   1521 59.03                             145     0.3 7   96 181 
 RUS  HE ES   1   1522 16.93                             145    -0.1 7   96 181 
 RUS  HZ I        1522 18.81        10.1 0.26                            96 181 
 GUE  SZ EP   2   1522  0.99                             139     0.7 5  120   8 
 GRA  SZ IP       1522  0.74                             137     0.010  128  14 
 GRA  SZ ES       1522 20.38                             137    -0.210  128  14 
 GRA  SZ I        1522 23.29        12.6 0.33                           128  14 
 NOR  SZ EP   2   1522 11.17                             118    -0.3 4  239 237 
 NOR  SE ES   2   1522 38.82                             118    -0.9 4  239 237 
 RREF HZ EP   2   1522 20.91                             111    -0.9 3  325 231 
 RREF HN ES   2   1522 58.76                             111     0.7 3  325 231 
 RREF HZ I        1523  7.10         5.4 0.29                           325 231 
 PRA  HZ EP   2   1522 29.31                             107     0.5 3  392 211 
                                                                                
