 2010 1112 1727  8.0 L   6.774 -73.088136.1  RSN 14 0.4 2.6LRSN                1
 GAP=165        0.95       3.7     6.2  5.4 -0.5060E+01  0.5514E+01  0.8479E+00E
 Epicentro: LOS SANTOS - SANTANDER                                             3
 ACTION:UP  10-12-17 16:52 OP:REBC STATUS:               ID:20101112172708 L   I
 2010-11-12-1723-21S.COL___129                                                 6
 STAT SP IPHASW D HRMM SECON CODA AMPLIT PERI AZIMU VELO SNR AR TRES W  DIS CAZ7
 BAR2 SZ EP       1727 26.46                             170     0.010   23 208 
 BAR2 SZ ES       1727 40.89                             170     0.010   23 208 
 BAR2 SZ I        1727 42.26       119.5 0.37                            23 208 
 GIR2 SZ EP   1   1727 25.58                             164    -1.1 7   36 341 
 GIR2 SZ ES   2   1727 40.84                             164    -0.4 5   36 341 
 BRR  HZ IP     D 1727 28.40                             148    -0.210   78 298 
 BRR  HE ES       1727 44.87                             148     0.310   78 298 
 BRR  HZ I        1727 49.54        90.0 0.18                            78 298 
 RUS  HZ EP       1727 30.40                             143    -0.210   97 180 
 RUS  HE ES       1727 48.53                             143     0.310   97 180 
 RUS  HZ I        1727 50.54        55.8 0.38                            97 180 
 GUE  SZ EP       1727 32.63                             137     0.710  118   9 
 GRA  SZ IP       1727 32.49                             135     0.010  127  14 
 GRA  SZ I        1727 33.81        66.7 0.17                           127  14 
 OCA  SZ ES   2   1727 57.19                             127    -0.6 5  164 351 
 OCA  SZ I        1728  1.00        78.7 0.17                           164 351 
 NOR  SZ EP       1727 43.08                             116    -0.5 8  238 236 
 NOR  SE ES   2   1728 11.32                             116     0.0 4  238 236 
 CHI  HZ EP   2   1727 44.99                             115    -0.1 4  248 197 
 CHI  HE ES   2   1728 13.44                             115    -0.5 4  248 197 
 CHI  HZ I        1728 17.12        22.2 0.46                           248 197 
 HEL  HZ EP   2   1727 48.61                             112     0.2 4  278 257 
 HEL  HZ I        1728 25.43        15.7 0.77                           278 257 
 GUY  SZ EP       1727 52.04                             110     0.4 7  305 236 
 GUY  SN ES   2   1728 25.72                             110     0.1 4  305 236 
 GUY  SZ I        1728 33.09        18.7 0.32                           305 236 
 RREF HZ EP   2   1727 54.64                             109     0.5 3  325 231 
 RREF HE ES   2   1728 30.38                             109     0.3 3  325 231 
 RREF HZ I        1728 35.13        19.3 0.39                           325 231 
 TOL  SZ EP   2   1727 57.05                             107     0.9 3  346 226 
 PRA  HZ EP   1   1728  0.75                             105    -0.5 4  393 211 
 PRA  HN ES   2   1728 42.25                             105    -0.6 3  393 211 
                                                                                
