 2017  612 1941 36.9 L   6.770 -73.584 97.4  RSN  5 0.4 1.9LRSN                1
 GAP=224        1.08       4.4     7.2  9.4  0.1276E+01  0.2695E+02  0.1480E+02E
 Epicentro: EL CARMEN - SANTANDER                                              3
 ACTION:UPD 17-09-14 16:51 OP:jn   STATUS:               ID:20170612194136 L   I
 OLDACT:UP  17-07-04 16:13 OP:nlst STATUS:               ID:20170612194136 L   3
 OLDACT:DUP 17-06-13 01:18 OP:ar   STATUS:               ID:20170612193739d    3
 2017-06-12-1938-00M.COL___356                                                 6
 STAT SP IPHASW D HRMM SECON CODA AMPLIT PERI AZIMU VELO AIN AR TRES W  DIS CAZ7
 BRR  HZ EP       1941 51.27                             156    0.1610 39.9 339 
 BRR  HE ES       1942  2.01                             156   -0.1510 39.9 339 
 PTB  HZ EP   4   1941 53.79                             131   -1.83 0 99.8 255 
 PTB  HN ES   4   1942  6.75                             131   -3.44 0 99.8 255 
 SPBC HZ EP       1941 58.47                             122   -0.7410  135 204 
 SPBC HN ES       1942 17.23                             122    0.6510  135 204 
 SPBC HZ I        1942 22.48        16.2 0.26            123            135 204 
 ZAR  HZ EP       1942  1.78                             117   -0.23 9  162 300 
 ZAR  HN ES       1942 21.73                             117    0.17 9  162 300 
 ZAR  HZ I        1942 23.85        12.5 0.26            120            162 300 
 NOR  HZ EP       1942  6.07                             112    0.27 9  195 227 
 NOR  HN ES       1942 27.74                             112   -0.56 9  195 227 
 NOR  HZ I        1942 35.03         7.0 0.14            113            195 227 
 HEL  HZ EP       1942 10.29                             109    0.70 8  224 254 
 HEL  HN ES       1942 34.89                             109   -0.17 8  224 254 
 HEL  HZ I        1942 35.44         6.7 0.24            110            224 254 
                                                                                
