 2015 1212 1144 21.0 L   6.792 -73.158141.6  RSN  8 0.4 1.8LRSN                1
 GAP=135        1.04       3.7     4.9  7.1 -0.5150E+01  0.1090E+02 -0.7900E+01E
 Epicentro: LOS SANTOS - SANTANDER                                             3
 ACTION:UPD 16-02-04 15:04 OP:cam  STATUS:               ID:20151212114421 L   I
 OLDACT:UP  15-12-12 23:32 OP:mh   STATUS:               ID:20151212113749     3
 OLDACT:UP  15-12-12 23:31 OP:mh   STATUS:               ID:20151212113749     3
 OLDACT:UP  15-12-12 23:31 OP:mh   STATUS:               ID:20151212113749     3
 OLDACT:UP  15-12-12 23:30 OP:mh   STATUS:               ID:20151212113749     3
 OLDACT:REG 15-12-12 21:49 OP:mh   STATUS:               ID:20151212113749     3
 2015-12-12-1137-49M.COL___334                                                 6
 STAT SP IPHASW D HRMM SECON CODA AMPLIT PERI AZIMU VELO AIN AR TRES W  DIS CAZ7
 BAR2 EZ EP       1144 40.00                             171   -0.1510 22.3 187 
 BAR2 EZ ES       1144 54.91                             171   -0.1410 22.3 187 
 BAR2 EZ I        1144 57.22        13.6 0.22            173           22.3 187 
 BRR  HZ EP       1144 42.24                             152    0.5510 70.4 300 
 BRR  HN ES       1144 58.54                             152    0.7410 70.4 300 
 BRR  HZ I        1144 59.33        21.1 0.38            148           70.4 300 
 PAM  EZ EP       1144 43.26                             149    0.3510 78.9  40 
 PAM  EN ES       1144 59.33                             149   -0.6410 78.9  40 
 PAM  EZ I        1145  2.20         8.2 0.25            149           78.9  40 
 RUS  HN ES       1145  2.68                             143    0.1810 99.8 175 
 PTB  HZ EP       1144 47.26                             131   -0.27 9  146 259 
 PTB  HN ES       1145  7.47                             131   -0.72 9  146 259 
 PTB  HZ I        1145  9.43         6.2 0.42            130            146 259 
 OCA  HZ EP       1144 49.18                             128    0.08 9  161 354 
 OCA  HN ES       1145 10.90                             128   -0.08 9  161 354 
 NOR  HE ES       1145 24.00                             118    0.10 8  233 234 
 NOR  HZ I        1145 28.82         4.5 0.20            118            233 234 
 SML  HZ EP   1   1144 57.02                             116   -0.44 6  244 336 
 SML  HN ES       1145 25.94                             116    0.08 8  244 336 
 SML  HZ I        1145 39.37         9.4 0.40            116            244 336 
                                                                                
