 2013  612 1145 45.3 L   6.739 -73.205157.0  RSN  4 0.1 1.7LRSN                1
 GAP=195        0.29       1.8     2.6  2.8  0.1414E+01 -0.1663E+01 -0.1629E+01E
 Epicentro: VILLANUEVA - SANTANDER                                             3
 ACTION:UPD 14-01-08 09:54 OP:ep   STATUS:               ID:20130612114545 L   I
 OLDACT:REG 13-06-12 14:23 OP:cam  STATUS:               ID:20130612113959     3
 2013-06-12-1139-59M.COL___261                                                 6
 STAT SP IPHASW D HRMM SECON CODA AMPLIT PERI AZIMU VELO AIN AR TRES W  DIS CAZ7
 BRR  HZ EP       1146  7.62                             155    0.0210 69.3 306 
 BRR  HZ I        1146  7.90        10.7 0.22            152           69.3 306 
 BRR  HE ES       1146 25.04                             155    0.0710 69.3 306 
 RUS  HZ EP   1   1146  9.82                             148    0.02 7 94.6 172 
 RUS  HN ES   1   1146 28.81                             148   -0.08 7 94.6 172 
 RUS  HZ I        1146 29.43         4.6 0.32            150           94.6 172 
 PTB  HZ EP       1146 12.61                             136    0.03 9  140 261 
 PTB  HN ES       1146 33.78                             136   -0.05 9  140 261 
 PTB  HZ I        1146 38.61         5.5 0.40            135            140 261 
 SML  HZ EP       1146 23.01                             119    0.03 8  247 337 
 SML  HN ES   1   1146 52.19                             119   -0.16 6  247 337 
 SML  HZ I        1146 57.18         6.2 0.24            119            247 337 
                                                                                
