 2012  712 1933 46.8 L   6.782 -73.132141.5  RSN  5 0.2 1.7LRSN                1
 GAP=139        0.52       3.2     3.3  4.3  0.2820E+01  0.1085E+01  0.2034E+00E
 Epicentro: LOS SANTOS - SANTANDER                                             3
 ACTION:UPD 12-08-14 11:44 OP:ep   STATUS:               ID:20120712193346 L   I
 2012-07-12-1930-00M.COL___197                                                 6
 STAT SP IPHASW D HRMM SECON CODA AMPLIT PERI AZIMU VELO AIN AR TRES W  DIS CAZ7
 BAR2 SZ EP       1934  5.93                             171     0.010   22 195 
 BAR2 SZ ES   1   1934 20.74                             171     0.0 7   22 195 
 BAR2 SZ I        1934 22.37        13.1 0.47            168             22 195 
 BRR  HZ EP       1934  7.55                             151    -0.110   73 299 
 BRR  HE ES       1934 24.14                             151     0.310   73 299 
 BRR  HZ I        1934 26.22        19.6 0.10            147             73 299 
 PAM  SZ EP       1934  8.74                             150     0.110   78  38 
 PAM  SE ES   1   1934 25.33                             150    -0.3 7   78  38 
 RUS  HZ EP       1934 10.08                             143     0.110   99 177 
 RUS  HZ I        1934 11.32         4.2 0.17            144             99 177 
 RUS  HE ES   1   1934 27.90                             143    -0.2 7   99 177 
 ZAR  HZ EP   1   1934 19.15                             121     0.0 6  206 292 
 ZAR  HN ES   1   1934 44.11                             121    -0.4 6  206 292 
 ZAR  HZ I        1934 50.39         5.4 0.33            120            206 292 
