 2016 1212 1831 17.2 L   6.786 -73.101144.4  RSN  4 0.2 1.4LRSN                1
 GAP=143        0.48       2.6     3.8  3.9 -0.2365E+00 -0.1013E+01  0.4077E+00E
 Epicentro: LOS SANTOS - SANTANDER                                             3
 ACTION:UPD 17-01-11 20:14 OP:rebc STATUS:               ID:20161212183117 L   I
 OLDACT:DUP 16-12-13 01:47 OP:ar   STATUS:               ID:20161212182647d    3
 2016-12-12-1827-00M.COL___373                                                 6
 STAT SP IPHASW D HRMM SECON CODA AMPLIT PERI AZIMU VELO AIN AR TRES W  DIS CAZ7
 BAR2 EZ EP       1831 36.57                             170   -0.1210 23.3 203 
 BAR2 EZ ES       1831 51.76                             170   -0.1110 23.3 203 
 BAR2 EZ I        1831 52.63         6.1 0.68            164           23.3 203 
 PAM  EZ EP       1831 39.10                             151   -0.0910 75.6  36 
 PAM  EN ES       1831 56.41                             151    0.1010 75.6  36 
 PAM  EZ I        1831 58.28         5.0 0.44            158           75.6  36 
 BRR  HZ EP       1831 38.35                             151   -0.1710 76.3 298 
 BRR  HN ES       1831 55.29                             151    0.1610 76.3 298 
 BRR  HZ I        1831 58.15        11.4 0.28            157           76.3 298 
 RUS  HZ EP       1831 41.03                             144    0.3110 98.8 179 
 RUS  HN ES       1831 58.96                             144   -0.0810 98.8 179 
 RUS  HZ I        1832 12.00         1.2 0.66            142           98.8 179 
                                                                                
