 2012  812 1354  8.2 L   6.650 -73.177140.1  RSN  5 0.4 1.2LRSN                1
 GAP=175        0.78       7.8     9.7 10.4  0.5166E+02  0.5665E+01 -0.9907E+00E
 Epicentro: VILLANUEVA - SANTANDER                                             3
 ACTION:UPD 12-09-10 11:56 OP:ep   STATUS:               ID:20120812135408 L   I
 2012-08-12-1350-00M.COL___219                                                 6
 STAT SP IPHASW D HRMM SECON CODA AMPLIT PERI AZIMU VELO AIN AR TRES W  DIS CAZ7
 BAR2 SZ EP   2   1354 27.41                             177    0.50 5 6.40 185 
 GIR2 SZ EP   1   1354 27.25                             160   -0.50 7 47.5 358 
 GIR2 SZ ES   2   1354 42.94                             160   -0.07 5 47.5 358 
 BRR  HZ EP   1   1354 29.04                             149   -0.08 7 77.8 311 
 BRR  HZ I        1354 32.69         6.5 0.14                          77.8 311 
 BRR  HN ES   1   1354 45.94                             149    0.49 7 77.8 311 
 RUS  HZ EP   1   1354 30.80                             147    0.55 7 84.4 173 
 RUS  HN ES   1   1354 47.04                             147   -0.43 7 84.4 173 
 RUS  HZ I        1354 51.08         1.6 0.34                          84.4 173 
 ZAR  HN ES   1   1355  5.68                             121   -0.30 6  208 297 
                                                                                
