 2010  812 1052 18.1 L   6.769 -73.132136.0  RSN  7 0.4 1.6LRSN                1
 GAP=160        0.87       5.2    10.4  9.7 -0.1016E+02  0.1872E+02  0.9823E+01E
 Epicentro: LOS SANTOS - SANTANDER                                             3
 ACTION:UP  10-09-07 10:54 OP:vdl  STATUS:               ID:20100812105218 L   I
 2010-08-12-1049-57S.COL___126                                                 6
 STAT SP IPHASW D HRMM SECON CODA AMPLIT PERI AZIMU VELO SNR AR TRES W  DIS CAZ7
 BAR2 SZ EP       1052 36.36                             171    -0.110   20 196 
 BAR2 SZ I        1052 36.70         8.9 0.05                            20 196 
 BAR2 SZ ES   2   1052 51.07                             171     0.2 5   20 196 
 BRR  HZ EP       1052 38.30                             150    -0.110   74 300 
 BRR  HE ES   2   1052 53.72                             150    -0.5 5   74 300 
 BRR  HZ I        1052 58.12        10.2 0.43                            74 300 
 RUS  HZ EP       1052 40.45                             143    -0.210   97 177 
 RUS  HZ I        1052 41.25         3.5 0.09                            97 177 
 RUS  HN ES   2   1052 58.53                             143     0.3 5   97 177 
 GUE  SZ EP   1   1052 41.79                             136    -0.4 7  120  11 
 GRA  SZ ES   1   1053  2.46                             134     0.5 7  129  16 
 GRA  SZ I        1053  5.49         4.2 0.76                           129  16 
 RREF HZ EP   1   1053  4.80                             109     1.1 5  321 230 
 PRA  HZ EP   1   1053 10.88                             105    -0.1 4  390 210 
 PRA  HZ I        1053 59.83         2.3 0.46                           390 210 
                                                                                
