 2015 1212 1939 33.8 L   6.829 -73.155141.5  RSN  7 0.5 1.9LRSN                1
 GAP=134        1.20       4.6     5.3  8.3 -0.1582E+01  0.1871E+02 -0.7880E+01E
 Epicentro: LOS SANTOS - SANTANDER                                             3
 ACTION:UPD 16-02-04 15:04 OP:cam  STATUS:               ID:20151212193933 L   I
 OLDACT:REG 15-12-12 22:38 OP:mh   STATUS:               ID:20151212193746     3
 2015-12-12-1937-46M.COL___340                                                 6
 STAT SP IPHASW D HRMM SECON CODA AMPLIT PERI AZIMU VELO AIN AR TRES W  DIS CAZ7
 BAR2 EZ EP       1939 52.97                             169    0.0010 26.3 187 
 BAR2 EZ ES       1940  7.56                             169   -0.3710 26.3 187 
 BAR2 EZ I        1940 10.99        16.2 0.27            172           26.3 187 
 PAM  EZ EP       1939 55.91                             150    0.4710 75.6  42 
 PAM  EN ES       1940 13.00                             150    0.6710 75.6  42 
 PAM  EZ I        1940 14.83        13.7 0.56            153           75.6  42 
 RUS  HZ EP       1939 56.93                             142   -0.4310  104 176 
 RUS  HN ES       1940 15.40                             142   -0.3510  104 176 
 RUS  HZ I        1940 17.77         7.9 0.42            148            104 176 
 PTB  HZ EP       1939 59.69                             131   -0.69 9  147 258 
 PTB  HN ES       1940 21.47                             131    0.36 9  147 258 
 PTB  HZ I        1940 23.30        10.6 0.68            133            147 258 
 ZAR  HZ EP       1940  5.88                             122    0.15 9  202 291 
 ZAR  HN ES       1940 30.68                             122    0.03 9  202 291 
 ZAR  HZ I        1940 36.97         8.8 0.38            123            202 291 
 NOR  HZ EP       1940 10.33                             117    0.95 8  236 234 
 NOR  HN ES   1   1940 37.67                             117    0.52 6  236 234 
 NOR  HZ I        1940 39.15         4.2 0.30            120            236 234 
 SML  HZ EP       1940  9.61                             117   -0.20 8  240 335 
 SML  HN ES       1940 37.10                             117   -0.81 8  240 335 
 SML  HZ I        1940 46.78         7.1 0.30            119            240 335 
                                                                                
