 2015  512 1622 11.0 L   6.826 -73.148145.6  RSN  8 0.3 1.9LRSN                1
 GAP=201        0.80       2.8     4.3  4.9  0.1087E+01  0.6079E+01 -0.3574E+00E
 Epicentro: LOS SANTOS - SANTANDER                                             3
 ACTION:UPD 15-09-10 22:03 OP:cam  STATUS:               ID:20150512162211 L   I
 OLDACT:REG 15-05-12 21:27 OP:drio STATUS:               ID:20150512161749     3
 2015-05-12-1617-49M.COL___279                                                 6
 STAT SP IPHASW D HRMM SECON CODA AMPLIT PERI AZIMU VELO AIN AR TRES W  DIS CAZ7
 BAR2 EZ EP       1622 30.59                             169   -0.0510 26.1 188 
 BAR2 EZ ES       1622 46.06                             169    0.0810 26.1 188 
 BAR2 EZ I        1622 46.94        11.2 0.22            168           26.1 188 
 BRR  HZ EP       1622 32.45                             153    0.4410 69.7 297 
 BRR  HN ES       1622 48.87                             153    0.4410 69.7 297 
 RUS  HZ EP       1622 34.83                             143   -0.0810  103 176 
 RUS  HE ES       1622 53.14                             143   -0.4510  103 176 
 SPBC HZ EP       1622 39.54                             129   -0.11 9  165 218 
 SPBC HN ES       1623  2.24                             129    0.22 9  165 218 
 SPBC HZ I        1623  3.47        12.1 0.22            128            165 218 
 ZAR  HN ES       1623  8.15                             123   -0.31 9  203 291 
 ZAR  HZ I        1623 14.00         9.1 0.56            121            203 291 
 NOR  HZ EP       1622 47.31                             118    0.46 8  236 234 
 NOR  HN ES       1623 14.43                             118   -0.40 8  236 234 
 NOR  HZ I        1623 22.54         5.4 0.14            118            236 234 
 SML  HZ EP       1622 47.24                             118   -0.05 8  241 335 
 SML  HN ES       1623 15.08                             118   -0.55 8  241 335 
 SML  HZ I        1623 20.26        10.3 0.28            117            241 335 
 GUY2CHZ EP       1622 55.12                             112    0.39 7  303 234 
 GUY2CHN ES       1623 28.68                             112   -0.19 7  303 234 
 GUY2CHZ I        1623 38.38         3.7 0.40                           303 234 
                                                                                
