 2015  112 1242  7.2 L   6.811 -73.146147.5  RSN 17 0.5 2.5LRSN                1
 GAP= 71        1.14       3.0     3.3  5.5 -0.2771E+00  0.4287E+01  0.1420E+01E
 Epicentro: LOS SANTOS - SANTANDER                                             3
 ACTION:UPD 15-03-02 15:39 OP:nd   STATUS:               ID:20150112124207 L   I
 OLDACT:UP  15-01-12 23:59 OP:mh   STATUS:               ID:20150112123748     3
 OLDACT:REG 15-01-12 20:18 OP:mh   STATUS:               ID:20150112123748     3
 2015-01-12-1237-48M.COL___259                                                 6
 STAT SP IPHASW D HRMM SECON CODA AMPLIT PERI AZIMU VELO AIN AR TRES W  DIS CAZ7
 BAR2 EZ EP       1242 26.93                             170   -0.1210 24.5 190 
 BAR2 EZ ES       1242 42.27                             170   -0.2610 24.5 190 
 BAR2 EZ I        1242 43.26        53.4 0.46            170           24.5 190 
 BRR  HZ EP     C 1242 28.88                             153    0.3910 70.7 298 
 BRR  HN ES       1242 45.33                             153    0.2210 70.7 298 
 BRR  HZ I        1242 51.08        39.5 0.14            151           70.7 298 
 PAM  SN ES       1242 47.28                             151    0.3210 76.5  40 
 PAM  SZ I        1242 49.00        31.2 0.60            149           76.5  40 
 RUS  HZ EP       1242 31.23                             144    0.0410  102 176 
 RUS  HN ES       1242 49.93                             144    0.0210  102 176 
 RUS  HZ I        1242 50.19        20.7 0.24            142            102 176 
 PTB  HZ EP       1242 33.63                             132   -0.69 9  148 258 
 PTB  HN ES       1242 54.87                             132   -0.61 9  148 258 
 PTB  HZ I        1242 58.22        41.0 0.12            130            148 258 
 TAM  HZ EP     D 1242 35.08                             131    0.05 9  155 105 
 TAM  HZ I        1242 56.32        14.1 0.32            128            155 105 
 TAM  HN ES       1242 56.87                             131    0.13 9  155 105 
 OCA  HZ EP       1242 35.33                             130   -0.19 9  159 353 
 OCA  HN ES       1242 57.90                             130    0.28 9  159 353 
 OCA  HZ I        1243  2.49        45.6 0.28            127            159 353 
 SPBC HZ EP       1242 35.65                             129   -0.25 9  164 219 
 SPBC HN ES       1242 58.22                             129   -0.08 9  164 219 
 SPBC HZ I        1243  4.85        65.7 0.20            127            164 219 
 ZAR  HZ EP       1242 39.90                             123    0.20 9  204 292 
 ZAR  HN ES       1243  4.55                             123   -0.51 9  204 292 
 ZAR  HZ I        1243 11.16        35.9 0.42            120            204 292 
 NOR  HZ EP   1   1242 42.75                             119   -0.34 6  235 234 
 NOR  HN ES   1   1243 10.90                             119   -0.19 6  235 234 
 NOR  HZ I        1243 13.89        24.4 0.14            116            235 234 
 SML  HZ EP       1242 43.15                             118   -0.65 8  243 335 
 SML  HN ES   1   1243 11.83                             118   -0.52 6  243 335 
 SML  HZ I        1243 16.39        61.5 0.10            115            243 335 
 CHI  HZ EP       1242 44.89                             117   -0.21 8  250 195 
 CHI  HN ES       1243 14.44                             117   -0.24 8  250 195 
 CHI  HZ I        1243 17.91         9.9 0.36            115            250 195 
 ROSC BZ EP   1   1242 46.10                             117    0.59 6  254 211 
 ROSC BE ES   4   1243 17.30                             117    1.90 0  254 211 
 ROSC BZ I        1243 20.07        28.8 0.40            115            254 211 
 HEL  HZ EP       1242 48.41                             115    0.89 8  272 256 
 HEL  HN ES       1243 20.90                             115    1.92 8  272 256 
 HEL  HZ I        1243 27.32        11.5 0.26            113            272 256 
 URE  HZ EP   4   1242 46.89                             114   -1.40 0  283 292 
 URE  HN ES   4   1243 16.94                             114   -3.41 0  283 292 
 URE  HZ I        1243 27.59        22.1 0.30            112            283 292 
 RREF HZ EP   4   1242 53.74                             111    0.25 0  323 229 
 RREF HN ES   4   1243 32.26                             111    2.65 0  323 229 
 RREF HZ I        1243 35.30        18.2 0.24            109            323 229 
 TOL  SZ EP   1   1242 56.31                             109    0.70 5  344 225 
 TOL  SN ES   1   1243 32.87                             109   -0.51 5  344 225 
 TOL  SZ I        1243 40.29        34.9 0.38            107            344 225 
                                                                                
