 2012  212 1812 44.9 L   6.741 -73.124146.7  RSN  6 0.2 1.8LRSN                1
 GAP=142        0.47       3.2     3.4  4.7  0.2815E+01  0.4437E-01 -0.2290E+00E
 ACTION:UP  12-03-07 16:29 OP:epov STATUS:               ID:20120212181244 L   I
 2012-02-12-1810-00M.COL___188                                                 6
 STAT SP IPHASW D HRMM SECON CODA AMPLIT PERI AZIMU VELO AIN AR TRES W  DIS CAZ7
 BAR2 SZ EP   1   1813  4.66                             173    0.15 7 17.7 202 
 BAR2 SZ ES   1   1813 19.93                             173    0.10 7 17.7 202 
 BAR2 SZ I        1813 21.61        15.5 0.29                          17.7 202 
 GIR2 SZ EP   1   1813  4.90                             165    0.04 7 38.1 348 
 BRR  HZ EP   1   1813  6.69                             151    0.26 7 76.6 302 
 BRR  HZ I        1813  6.95        27.0 0.15                          76.6 302 
 BRR  HN ES       1813 23.40                             151    0.1510 76.6 302 
 PAM  SZ EP   1   1813  7.52                             150    0.11 7 81.1  35 
 PAM  SZ I        1813  7.86         8.0 0.18                          81.1  35 
 PAM  SE ES   1   1813 24.68                             150   -0.31 7 81.1  35 
 RUS  HZ EP   1   1813  8.07                             146   -0.18 7 93.9 177 
 RUS  HN ES   1   1813 26.37                             146   -0.11 7 93.9 177 
 RUS  HZ I        1813 28.66         5.7 0.31                          93.9 177 
 ZAR  HN ES   1   1813 43.15                             122   -0.46 6  209 294 
                                                                                
