 2012  212 1440 51.5 L   6.791 -73.088131.8  RSN  5 0.1 1.6LRSN                1
 GAP=144        0.30       1.9     2.1  2.9  0.8285E+00  0.1551E+01 -0.2770E+00E
 ACTION:UP  12-03-07 16:29 OP:epov STATUS:               ID:20120212144051 L   I
 2012-02-12-1440-00M.COL___188                                                 6
 STAT SP IPHASW D HRMM SECON CODA AMPLIT PERI AZIMU VELO AIN AR TRES W  DIS CAZ7
 BAR2 SZ EP   1   1441  9.67                             169    0.15 7 24.4 205 
 BAR2 SZ I        1441 10.28         9.9 0.14                          24.4 205 
 BAR2 SZ ES   1   1441 23.38                             169   -0.16 7 24.4 205 
 PAM  SZ EP   1   1441 12.14                             149    0.05 7 74.3  35 
 PAM  SZ I        1441 12.97         4.5 0.23                          74.3  35 
 PAM  SN ES   1   1441 28.08                             149   -0.04 7 74.3  35 
 BRR  HZ EP   1   1441 11.60                             148    0.02 7 77.3 297 
 BRR  HZ I        1441 11.80        15.2 0.18                          77.3 297 
 BRR  HN ES   1   1441 27.32                             148    0.11 7 77.3 297 
 RUS  HZ EP   1   1441 13.73                             141   -0.12 7 99.4 180 
 RUS  HN ES   1   1441 31.35                             141    0.09 7 99.4 180 
 RUS  HZ I        1441 33.41         4.6 0.20                          99.4 180 
 ZAR  HZ EP   1   1441 23.70                             118   -0.09 6  210 292 
 ZAR  HN ES   1   1441 48.90                             118   -0.03 6  210 292 
 ZAR  HZ I        1441 53.70         6.7 0.21                           210 292 
                                                                                
