 2012  912 1044 55.1 L   7.351 -73.257134.0  RSN  5 0.2 1.5LRSN                1
 GAP=252        0.37       5.5     3.3  5.2  0.8442E+01  0.1599E+01 -0.5709E+01E
 Epicentro: RIONEGRO - SANTANDER                                               3
 ACTION:UPD 12-10-22 14:18 OP:ep   STATUS:               ID:20120912104455 L   I
 2012-09-12-1040-00M.COL___227                                                 6
 STAT SP IPHASW D HRMM SECON CODA AMPLIT PERI AZIMU VELO AIN AR TRES W  DIS CAZ7
 GIR2 SZ ES   2   1045 27.25                             166   -0.36 5 30.9 167 
 BRR  HZ EP   1   1045 14.21                             156    0.01 7 57.0 242 
 BRR  HZ I        1045 14.63         9.6 0.32                          57.0 242 
 BRR  HN ES   1   1045 29.32                             156    0.22 7 57.0 242 
 BAR2 SZ EP   1   1045 16.22                             146    0.04 7 84.3 174 
 BAR2 SZ ES   1   1045 32.63                             146    0.01 7 84.3 174 
 PTB  HN ES   1   1045 43.43                             127   -0.12 7  160 236 
 PTB  HN I        1045 46.48         3.0 0.20                           160 236 
 ZAR  HN ES   1   1045 46.56                             124   -0.05 7  177 275 
 ZAR  HZ I        1045 52.04         3.4 0.28                           177 275 
                                                                                
