 2012  812 1346  0.8 L   6.404 -73.704 12.2  RSN  4 0.4 0.8LRSN                1
 GAP=151        0.72       5.2     3.4  7.7  0.1186E+02 -0.2225E+01 -0.1698E+02E
 Epicentro: SANTA HELENA DEL OPON - SANTANDER                                  3
 ACTION:UPD 12-09-10 11:56 OP:ep   STATUS:               ID:20120812134600 L   I
 2012-08-12-1340-00M.COL___219                                                 6
 STAT SP IPHASW D HRMM SECON CODA AMPLIT PERI AZIMU VELO AIN AR TRES W  DIS CAZ7
 BRR  HZ EP   1   1346 13.19                              96   -0.10 7 77.8 359 
 PTB  HZ EP   1   1346 14.93                              96    0.60 7 84.6 280 
 PTB  HE ES   1   1346 24.42                              96   -0.43 7 84.6 280 
 RUS  HZ EP   1   1346 15.78                              96    0.30 7 89.0 129 
 RUS  HN ES   1   1346 26.58                              96   -0.32 7 89.0 129 
 RUS  HZ I        1346 28.05         1.7 0.16                          89.0 129 
 ZAR  HE ES   1   1346 47.92                              56   -0.07 7  175 313 
 ZAR  HZ I        1346 49.75         1.6 0.11                           175 313 
                                                                                
