 2010 1112 1056  1.4 L   6.557 -73.597 11.7  RSN  4 0.4 1.2LRSN                1
 GAP=206        0.91       4.2     6.6 10.2  0.1777E+02 -0.9544E+01 -0.9883E+01E
 Epicentro: EL CARMEN DE CHUCURI - SANTANDER                                   3
 ACTION:UP  10-12-17 16:52 OP:REBC STATUS:               ID:20101112105601 L   I
 2010-11-12-1053-05S.COL___129                                                 6
 STAT SP IPHASW D HRMM SECON CODA AMPLIT PERI AZIMU VELO SNR AR TRES W  DIS CAZ7
 BAR2 SZ EP       1056  9.43                             101     0.110   46  85 
 BAR2 SZ ES   2   1056 15.16                             101    -0.3 5   46  85 
 BAR2 SZ I        1056 16.59        13.0 0.27                            46  85 
 BRR  HZ EP   1   1056 11.31                              97    -0.2 7   62 348 
 BRR  HE ES   1   1056 19.39                              97     0.0 7   62 348 
 BRR  HZ I        1056 22.28        11.9 0.24                            62 348 
 RUS  HZ EP       1056 17.03                              95     0.410   93 142 
 RUS  HN ES   2   1056 27.57                              95    -0.9 5   93 142 
 RUS  HZ I        1056 29.87         4.2 0.20                            93 142 
 GRA  SZ EP   2   1056 26.74                              56    -0.8 4  171  31 
 GRA  SZ ES   2   1056 48.38                              56     0.4 4  171  31 
 GRA  SZ I        1056 51.68         4.0 0.29                           171  31 
                                                                                
