 2012  812 1016 14.7 L   6.795 -73.097141.8  RSN  5 0.3 1.3LRSN                1
 GAP=143        0.59       4.2     6.8  6.7 -0.3841E+01 -0.1307E+02  0.7189E+01E
 Epicentro: LOS SANTOS - SANTANDER                                             3
 ACTION:UPD 12-09-10 11:56 OP:ep   STATUS:               ID:20120812101614 L   I
 2012-08-12-1010-00M.COL___218                                                 6
 STAT SP IPHASW D HRMM SECON CODA AMPLIT PERI AZIMU VELO AIN AR TRES W  DIS CAZ7
 BAR2 SZ EP   1   1016 33.78                             170   -0.12 7 24.3 203 
 BAR2 SZ ES   1   1016 49.39                             170    0.54 7 24.3 203 
 BAR2 SZ I        1016 49.87         9.6 0.24                          24.3 203 
 GIR2 SZ ES   1   1016 48.61                             166   -0.38 7 33.1 341 
 PAM  SZ EP   1   1016 36.66                             151    0.31 7 74.5  36 
 PAM  SE ES   1   1016 53.10                             151   -0.11 7 74.5  36 
 PAM  SZ I        1016 55.83         4.2 0.46                          74.5  36 
 BRR  HN ES   1   1016 52.16                             150    0.03 7 76.2 297 
 RUS  HZ EP   1   1016 37.91                             143   -0.12 7 99.8 179 
 RUS  HZ I        1016 38.39         1.5 0.29                          99.8 179 
 RUS  HN ES   1   1016 56.05                             143   -0.16 7 99.8 179 
                                                                                
