 2012  212 1258 29.8 L   6.777 -73.091137.0  RSN  4 0.5 1.1LRSN                1
 GAP=145        0.92       6.4     6.3 11.0 -0.4272E+01  0.8816E+01  0.1039E+02E
 ACTION:UP  12-03-07 16:29 OP:epov STATUS:               ID:20120212125829 L   I
 2012-02-12-1256-49S.COL___163                                                 6
 STAT SP IPHASW D HRMM SECON CODA AMPLIT PERI AZIMU VELO AIN AR TRES W  DIS CAZ7
 PAM  SZ EP   1   1258 51.08                             150    0.10 7 75.7  35 
 PAM  SN ES   1   1259  7.04                             150   -0.47 7 75.7  35 
 BRR  HZ EP   1   1258 50.50                             149    0.10 7 77.7 298 
 BRR  HZ I        1258 55.15         3.1 0.18                          77.7 298 
 BRR  HN ES   1   1259  7.11                             149    0.64 7 77.7 298 
 RUS  HZ EP   1   1258 53.20                             143    0.71 7 97.8 179 
 RUS  HE ES   1   1259  9.92                             143   -0.27 7 97.8 179 
 RUS  HZ I        1259 12.77         1.9 0.16                          97.8 179 
 PTB  HZ EP   1   1258 55.90                             129   -0.67 7  153 260 
 PTB  HN ES   1   1259 17.19                             129   -0.28 7  153 260 
                                                                                
