 2011  812 1833 14.1 L   5.977 -73.998 85.2  RSN  4 0.5 1.4LRSN                1
 GAP=149        0.86       6.5     5.2 16.4 -0.1611E+02  0.1596E+00 -0.2740E+02E
 Epicentro: LA BELLEZA - SANTANDER                                             3
 ACTION:UPD 12-07-13 15:51 OP:ep   STATUS:               ID:20110812183314 L   I
 2011-08-12-1831-55S.COL___150                                                 6
 STAT SP IPHASW D HRMM SECON CODA AMPLIT PERI AZIMU VELO AIN AR TRES W  DIS CAZ7
 RUS  HZ EP   2   1833 32.00                             126   -0.69 5  102  95 
 RUS  HE ES   2   1833 46.40                             126   -0.76 5  102  95 
 RUS  HZ I        1833 49.26         1.8 0.72                           102  95 
 NOR  SN ES   1   1833 47.17                             124    0.11 8  107 245 
 BAR2 SZ EP       1833 33.97                             123    0.4610  113  53 
 BAR2 SZ I        1833 34.07        11.0 0.34                           113  53 
 BAR2 SZ ES   1   1833 49.10                             123    0.48 7  113  53 
 BRR  HZ EP       1833 34.64                             118   -0.2510  129  14 
 BRR  HZ I        1833 34.85        10.9 0.32                           129  14 
 BRR  HE ES   1   1833 50.72                             118   -0.35 7  129  14 
                                                                                
