 2014  912 1639  1.4 L   6.797 -73.148138.9  RSN 18 0.5 2.3LRSN                1
 GAP=119        1.67       4.2     5.8  8.0 -0.1805E+01  0.1675E+02  0.5104E+01E
 Epicentro: LOS SANTOS - SANTANDER                                             3
 ACTION:UPD 14-10-03 23:04 OP:nd   STATUS:               ID:20140912163901 L   I
 OLDACT:REG 14-09-12 20:32 OP:stll STATUS:               ID:20140912163820     3
 2014-09-12-1638-20M.COL___293                                                 6
 STAT SP IPHASW D HRMM SECON CODA AMPLIT PERI AZIMU VELO AIN AR TRES W  DIS CAZ7
 BAR2 SZ IP     D 1639 20.26                             170    0.0910 22.9 189 
 BAR2 SZ ES       1639 34.85                             170    0.0310 22.9 189 
 BAR2 SZ I        1639 35.99        70.1 0.14            165           22.9 189 
 BRR  HZ IP     C 1639 22.21                             151    0.4310 71.1 299 
 BRR  HN ES       1639 38.58                             151    0.8910 71.1 299 
 BRR  HZ I        1639 43.12        52.2 0.14            141           71.1 299 
 PAM  SZ EP     C 1639 23.14                             149    0.2510 77.9  40 
 PAM  SZ I        1639 23.47       113.9 0.24            145           77.9  40 
 PAM  SN ES       1639 39.92                             149    0.2510 77.9  40 
 RUS  HZ EP       1639 24.44                             142    0.0110  100 176 
 RUS  HN ES       1639 42.08                             142   -0.3310  100 176 
 RUS  HZ I        1639 43.46        16.4 0.26            136            100 176 
 PTB  HZ EP       1639 27.15                             130   -0.60 9  147 259 
 PTB  HN ES       1639 47.34                             130   -0.99 9  147 259 
 PTB  HZ I        1639 50.46        28.4 0.20            121            147 259 
 OCA  HZ EP   2   1639 28.16                             128   -1.03 5  161 353 
 OCA  HN ES       1639 50.47                             128   -0.42 9  161 353 
 OCA  HZ I        1639 55.23        38.1 0.56            120            161 353 
 ZAR  HZ EP       1639 33.26                             121   -0.11 9  204 292 
 ZAR  HN ES       1639 59.01                             121    0.69 9  204 292 
 ZAR  HZ I        1640  4.79        29.6 0.70            112            204 292 
 NOR  HZ EP       1639 37.11                             117    0.45 8  234 234 
 NOR  HN ES       1640  3.79                             117   -0.39 8  234 234 
 NOR  HZ I        1640 11.00        12.5 0.74            109            234 234 
 SML  HZ EP       1639 36.67                             116   -0.98 8  244 335 
 SML  HE ES       1640  5.94                             116    0.00 8  244 335 
 SML  HZ I        1640 12.36        46.8 0.26            109            244 335 
 CHI  HZ EP       1639 38.43                             115   -0.22 8  248 195 
 CHI  HN ES       1640  7.16                             115   -0.57 8  248 195 
 CHI  HZ I        1640 15.09         5.0 0.38            109            248 195 
 HEL  HZ EP       1639 41.61                             113    0.41 8  272 256 
 HEL  HN ES       1640 12.40                             113    0.13 8  272 256 
 HEL  HZ I        1640 19.88         9.9 0.24            106            272 256 
 GUY2CHZ EP       1639 45.30                             111    0.68 7  301 235 
 GUY2CHN ES       1640 18.06                             111   -0.29 7  301 235 
 GUY2CHZ I        1640 27.83         6.0 0.64                           301 235 
 SOCV BZ EP   9   1639 43.27                             111   -0.90 0  302  57 
 SOCV BN ES       1640 14.23                                   -2.42 7  302  57 
 CBOC HZ EP       1639 48.63                             108    0.66 7  333 252 
 CBOC HZ I        1640 36.35         2.3 0.44            102            333 252 
 DBB  SZ EP       1639 48.24                             108   -0.31 7  339 274 
 DBB  SZ I        1640 38.26        24.1 0.34            102            339 274 
 MON  HZ EP   9   1639 47.80                             107   -2.32 0  354 308 
 MON  HN ES       1640 25.40                                   -0.42 6  354 308 
 MON  HZ I        1640 27.48         4.2 0.18            101            354 308 
 PRA  HZ EP       1639 54.78                             105    0.17 6  392 210 
 PRA  HN ES       1640 36.85                             105    0.72 6  392 210 
 PRA  HZ I        1640 42.09         5.3 0.30            100            392 210 
 SJC  HZ EP   9   1639 54.80                             104   -1.94 0  409 327 
 SJC  HN ES       1640 34.66                                   -3.32 6  409 327 
 SJC  HZ I        1640 40.12         9.2 0.50             99            409 327 
                                                                                
