 2013 1012 1455 52.5 L   6.762 -73.125139.6  RSN  7 0.3 1.7LRSN                1
 GAP=237        0.64       3.2     4.7  4.4  0.2314E+01  0.3528E+01  0.4344E+01E
 Epicentro: LOS SANTOS - SANTANDER                                             3
 ACTION:UPD 13-11-25 09:21 OP:ep   STATUS:               ID:20131012145552 L   I
 OLDACT:REG 13-10-12 15:41 OP:nd   STATUS:               ID:20131012144959     3
 2013-10-12-1449-59M.COL___273                                                 6
 STAT SP IPHASW D HRMM SECON CODA AMPLIT PERI AZIMU VELO AIN AR TRES W  DIS CAZ7
 BAR2 SZ EP       1456 11.22                             171   -0.1310 19.8 199 
 BAR2 SZ ES       1456 26.06                             171    0.0310 19.8 199 
 BAR2 SZ I        1456 28.21        21.3 0.74            169           19.8 199 
 BRR  HZ IP     D 1456 12.99                             150   -0.2710 75.3 301 
 BRR  HN ES       1456 29.66                             150    0.2410 75.3 301 
 BRR  HZ I        1456 31.76         6.0 0.12            151           75.3 301 
 RUS  HZ EP       1456 15.26                             144   -0.1010 96.2 177 
 RUS  HN ES       1456 33.38                             144    0.2210 96.2 177 
 RUS  HZ I        1456 35.03         8.5 0.30            144           96.2 177 
 PTB  HZ EP   4   1456 17.74                             130   -1.40 0  149 261 
 PTB  HN ES   2   1456 39.70                             130   -0.19 5  149 261 
 PTB  HZ I        1456 40.67         7.2 0.10            131            149 261 
 SPBC HZ EP   2   1456 19.87                             128   -0.51 5  161 221 
 SPBC HN ES       1456 41.78                             128   -0.33 9  161 221 
 SPBC HZ I        1456 44.51         8.8 0.12            129            161 221 
 CHI  HZ EP       1456 29.44                             116   -0.07 8  245 196 
 CHI  HN ES       1456 58.49                             116    0.14 8  245 196 
 CHI  HZ I        1457  2.74         3.7 0.54            117            245 196 
 GUY2CHZ EP       1456 36.57                             111    0.78 7  301 236 
 GUY2CHN ES   2   1457  9.51                             111   -0.03 4  301 236 
 GUY2CHZ I        1457 17.32         3.0 0.28                           301 236 
                                                                                
