 2011  212 1828 41.2 L   6.780 -73.142137.9  RSN  6 0.2 1.4LRSN                1
 GAP=159        0.58       4.2     6.6  6.2 -0.1512E+02  0.1958E+02 -0.7390E+01E
 Epicentro: LOS SANTOS - SANTANDER                                             3
 ACTION:UP  11-03-28 15:07 OP:jfem STATUS:               ID:20110212182841 L   I
 2011-02-12-1825-29S.COL___136                                                 6
 STAT SP IPHASW D HRMM SECON CODA AMPLIT PERI AZIMU VELO SNR AR TRES W  DIS CAZ7
 BTL  SZ EP       1829  0.23                             171     0.410   21 318 
 BAR2 SZ EP       1828 59.89                             171     0.010   21 192 
 BAR2 SZ ES   1   1829 14.15                             171    -0.2 7   21 192 
 BAR2 SZ I        1829 17.30         8.8 0.17                            21 192 
 RUS  HZ EP   1   1829  3.74                             143    -0.3 7   98 176 
 RUS  HN ES   1   1829 21.95                             143     0.1 7   98 176 
 RUS  HZ I        1829 25.02         3.2 0.31                            98 176 
 GRA  SZ EP   1   1829  5.85                             135    -0.1 7  128  17 
 GRA  SZ ES   2   1829 24.87                             135    -0.3 5  128  17 
 GRA  SZ I        1829 26.41         8.1 0.42                           128  17 
 NOR  SZ EP       1829 16.40                             117     0.0 8  234 235 
 NOR  SN ES   1   1829 43.73                             117    -0.1 6  234 235 
 CHI  HZ EP   2   1829 17.95                             116    -0.3 4  247 195 
 CHI  HZ I        1829 41.64         1.0 0.29                           247 195 
                                                                                
