 2016 1012 1003 52.3 L   6.781 -73.118141.4  RSN 11 0.4 1.7LRSN                1
 GAP=141        0.86       2.5     3.6  4.5 -0.1465E+01  0.2747E+01  0.9786E+00E
 Epicentro: LOS SANTOS - SANTANDER                                             3
 ACTION:UPD 16-11-09 19:18 OP:rebc STATUS:               ID:20161012100352 L   I
 OLDACT:UP  16-10-12 21:05 OP:edw  STATUS:               ID:20161012095742d    3
 OLDACT:UP  16-10-12 21:03 OP:edw  STATUS:               ID:20161012095742d    3
 OLDACT:UP  16-10-12 21:03 OP:edw  STATUS:               ID:20161012095742d    3
 OLDACT:UP  16-10-12 21:02 OP:edw  STATUS:               ID:20161012095742d    3
 OLDACT:DUP 16-10-12 20:57 OP:edw  STATUS:               ID:20161012095742d    3
 OLDACT:UP  16-10-12 20:55 OP:edw  STATUS:               ID:20161012095741     3
 OLDACT:UP  16-10-12 20:53 OP:edw  STATUS:               ID:20161012095741     3
 OLDACT:REG 16-10-12 19:32 OP:edw  STATUS:               ID:20161012095741     3
 2016-10-12-0958-00M.COL___372                                                 6
 STAT SP IPHASW D HRMM SECON CODA AMPLIT PERI AZIMU VELO AIN AR TRES W  DIS CAZ7
 BAR2 EZ EP       10 4 11.11                             171   -0.2410 22.0 199 
 BAR2 EZ ES       10 4 26.38                             171    0.1410 22.0 199 
 BAR2 EZ I        10 4 27.75        16.8 0.14            168           22.0 199 
 BRR  HZ EP       10 4 13.12                             150   -0.0510 74.9 299 
 BRR  HN ES       10 4 29.79                             150    0.3110 74.9 299 
 BRR  HZ I        10 4 33.94        11.3 0.36            148           74.9 299 
 PAM  EZ EP       10 4 14.06                             150    0.0510 77.1  37 
 PAM  EN ES       10 4 31.12                             150    0.1510 77.1  37 
 RUS  HZ EP       10 4 15.32                             144   -0.1110 98.3 178 
 RUS  HN ES       10 4 33.23                             144   -0.2710 98.3 178 
 RUS  HZ I        10 4 35.20         3.9 0.20            145           98.3 178 
 PTB  HZ EP   9   10 4 18.11                             130   -1.02 0  150 260 
 PTB  HN ES       10 4 38.96                             129   -0.10 9  150 260 
 PTB  HZ I        10 4 46.02         5.0 0.20            129            150 260 
 OCA  HZ EP       10 4 20.06                             128   -0.43 9  163 352 
 OCA  HN ES       10 4 42.63                             128    0.13 9  163 352 
 OCA  HZ I        10 4 46.44         8.2 0.26            130            163 352 
 SPBC HZ EP       10 4 20.35                             128   -0.12 9  164 220 
 SPBC HN ES       10 4 42.53                             128    0.06 9  164 220 
 SPBC HZ I        10 4 47.00         9.0 0.12            128            164 220 
 ZAR  HZ EP       10 4 25.63                             121    0.81 8  208 292 
 ZAR  HN ES       10 4 49.32                             121   -0.89 8  208 292 
 ZAR  HZ I        10 4 54.32         4.4 0.28            121            208 292 
 NOR  HZ EP   4   10 4 24.31                             117   -3.58 0  236 235 
 NOR  HN ES       10 4 55.69                             117    0.01 8  236 235 
 NOR  HZ I        10 5  1.89         3.7 0.18            118            236 235 
 CHI  HZ EP       10 4 29.37                             116   -0.23 8  247 196 
 CHI  HN ES       10 4 58.93                             116    0.21 8  247 196 
 CHI  HZ I        10 5  2.21         3.0 0.36            118            247 196 
 GUY2CHZ EP       10 4 36.59                             111    0.76 7  303 235 
 GUY2CHN ES   4   10 5 14.00                             111    4.19 0  303 235 
 GUY2CHZ I        10 5 17.36         2.4 0.34                           303 235 
 LL6C HZ EP   4   10 4 17.38                             109   -20.7 0  327 357 
 LL6C HN ES   4   10 4 51.58                             109   -22.2 0  327 357 
 SJC  HZ EP   4   10 4 45.38                             105   -2.72 0  413 327 
 SJC  HN ES   4   10 5 27.67                             105   -3.98 0  413 327 
                                                                                
