 2015 1112 1140  5.9 L   6.779 -73.129140.8  RSN  7 0.4 1.6LRSN                1
 GAP=140        1.05       4.2     5.6  6.7  0.5035E+01  0.9562E+01 -0.2960E+01E
 Epicentro: LOS SANTOS - SANTANDER                                             3
 ACTION:UPD 15-12-28 16:10 OP:cam  STATUS:               ID:20151112114005 L   I
 OLDACT:REG 15-11-12 20:23 OP:cara STATUS:               ID:20151112113749     3
 2015-11-12-1137-49M.COL___316                                                 6
 STAT SP IPHASW D HRMM SECON CODA AMPLIT PERI AZIMU VELO AIN AR TRES W  DIS CAZ7
 BAR2 EZ EP       1140 24.62                             171   -0.2710 21.4 196 
 BAR2 EZ ES       1140 39.43                             171   -0.2810 21.4 196 
 BAR2 EZ I        1140 41.14         8.0 0.24            170           21.4 196 
 BRR  HZ EP       1140 26.44                             151   -0.2310 73.9 299 
 BRR  HN ES       1140 43.11                             151    0.2410 73.9 299 
 BRR  HZ I        1140 51.48        18.4 0.54            148           73.9 299 
 PAM  EZ IP     D 1140 27.60                             150   -0.0310 78.1  37 
 PAM  EE ES       1140 44.74                             150    0.1610 78.1  37 
 PAM  EZ I        1140 47.25         3.8 0.52            154           78.1  37 
 RUS  HZ EP       1140 28.24                             144   -0.7510 98.1 177 
 RUS  HN ES       1140 47.69                             144    0.7010 98.1 177 
 RUS  HZ I        1140 49.49         3.2 0.28            149           98.1 177 
 ZAR  HZ EP   4   1140 39.93                             121    1.64 0  207 293 
 ZAR  HE ES       1141  3.24                             121   -0.32 8  207 293 
 ZAR  HZ I        1141 10.51         4.1 0.12            122            207 293 
 SML  HZ EP       1140 43.10                             116    0.53 8  247 335 
 SML  HN ES       1141 11.23                             116    0.06 8  247 335 
 SML  HZ I        1141 17.93         4.9 0.24            118            247 335 
 GUY2CHZ EP       1140 49.94                             111    0.64 7  301 235 
 GUY2CHE ES   4   1141 24.95                             111    1.80 0  301 235 
 GUY2CHZ I        1141 35.04         2.1 0.46                           301 235 
                                                                                
