 2011  912 1654 21.6 L   6.752 -73.114150.6  RSN  5 0.4 1.9LRSN                1
 GAP=237        0.69       6.9     8.2  8.0  0.2941E+02  0.2784E+01 -0.2226E+00E
 Epicentro: LOS SANTOS - SANTANDER                                             3
 ACTION:UPD 12-07-13 15:57 OP:ep   STATUS:               ID:20110912165421 L   I
 2011-09-12-1649-46S.COL___169                                                 6
 STAT SP IPHASW D HRMM SECON CODA AMPLIT PERI AZIMU VELO AIN AR TRES W  DIS CAZ7
 BAR2 SZ EP       1654 41.98                             172    0.1910 19.2 203 
 BAR2 SZ ES   1   1654 56.90                             172   -0.60 7 19.2 203 
 BAR2 SZ I        1655  0.13        20.6 0.35                          19.2 203 
 BRR  HZ EP   1   1654 43.49                             151   -0.16 7 76.9 301 
 BRR  HN ES   1   1655  1.31                             151    0.50 7 76.9 301 
 BRR  HZ I        1655  4.29        27.5 0.11                          76.9 301 
 RUS  HZ EP   1   1654 45.36                             146   -0.14 7 95.1 178 
 RUS  HN ES   1   1655  4.36                             146    0.25 7 95.1 178 
 RUS  HZ I        1655  7.18         7.3 0.18                          95.1 178 
 ZAR  HN ES   2   1655 20.37                             123   -0.57 4  209 293 
 NOR  SN ES   2   1655 25.73                             119    0.00 4  235 236 
                                                                                
