 2017  312 1346 47.7 L   6.547 -74.099 80.4  RSN 15 0.3 2.2LRSN                1
 GAP= 73        0.79       2.2     1.6  4.7 -0.3676E+00 -0.7992E+00  0.5725E+00E
 Epicentro: PUERTO PARRA - SANTANDER                                           3
 ACTION:UPD 17-05-25 18:39 OP:jn   STATUS:               ID:20170312134647 L   I
 OLDACT:REG 17-03-12 21:46 OP:lv   STATUS:               ID:20170312133559     3
 2017-03-12-1338-00M.COL___394                                                 6
 STAT SP IPHASW D HRMM SECON CODA AMPLIT PERI AZIMU VELO AIN AR TRES W  DIS CAZ7
 PTB  HZ IP     C 1346 59.77                             152   -0.2310 39.5 269 
 PTB  HN ES       1347  9.78                             152    0.1910 39.5 269 
 PTB  HZ I        1347 12.10        86.7 0.10            145           39.5 269 
 BRR  HZ IP     C 1347  3.11                             133    0.3910 75.3  35 
 BRR  HE ES   4   1347 15.83                             133    1.41 0 75.3  35 
 BRR  HZ I        1347 16.78        98.5 0.12            129           75.3  35 
 SPBC HZ EP       1347  5.27                             124    0.1410 99.0 178 
 SPBC HN ES       1347 18.80                             124    0.0910 99.0 178 
 BAR2 EZ EP       1347  5.80                             124    0.2210  102  87 
 BAR2 EZ ES       1347 19.70                             124    0.1810  102  87 
 BAR2 EZ I        1347 21.55        77.0 0.06            121            102  87 
 RUS  HZ EP       1347  9.09                             116   -0.2710  134 123 
 RUS  HN ES       1347 25.89                             116   -0.3510  134 123 
 RUS  HZ I        1347 26.34        16.7 0.14            113            134 123 
 ZAR  HZ EP       1347  8.69                             116   -0.0810  134 321 
 ZAR  HN ES       1347 25.19                             116   -0.0110  134 321 
 ZAR  HZ I        1347 28.11        53.6 0.12            111            134 321 
 HEL  HZ EP       1347 12.86                             111    0.35 9  163 256 
 HEL  HN ES       1347 30.95                             111   -0.91 9  163 256 
 HEL  HZ I        1347 35.72        11.5 0.26            107            163 256 
 PAM  EZ EP       1347 14.51                             109    0.13 9  178  60 
 PAM  EN ES       1347 34.80                             109   -0.38 9  178  60 
 PAM  EZ I        1347 37.05        15.9 0.14            106            178  60 
 ROSC BN ES   4   1347 40.23                             108    2.65 0  190 187 
 ROSC BZ I        1347 42.79        17.7 0.55            104            190 187 
 GUY2CHZ EP       1347 17.58                             106    0.30 9  203 224 
 GUY2CHN ES       1347 40.56                             106    0.22 9  203 224 
 URE  HZ EP   4   1347 16.21                             106   -1.01 0  207 310 
 URE  HN ES   4   1347 38.12                             106   -2.12 0  207 310 
 URE  HZ I        1347 39.48        24.3 0.11            103            207 310 
 CHI  HZ EP       1347 18.83                             105    0.04 8  216 169 
 CHI  HN ES   4   1347 44.66                             105    1.64 0  216 169 
 CHI  HZ I        1347 49.97         6.9 0.33            102            216 169 
 ELA  HZ EP       1347 21.27                             104   -0.02 8  236 218 
 ELA  HN ES   4   1347 49.48                             104    2.00 0  236 218 
 ELA  HZ I        1347 54.86         8.8 0.71            101            236 218 
 TAM  HZ EP       1347 23.39                             102    0.30 8  256  93 
 TAM  HN ES       1347 50.25                             102   -0.43 8  256  93 
 TAM  HZ I        1347 53.51        10.5 0.25            100            256  93 
 SJC  HZ EP   4   1347 37.43                              98   -1.93 0  389 342 
 SJC  HN ES   4   1348 16.31                              98   -3.34 0  389 342 
 SJC  HZ I        1348 20.94         3.8 0.33             96            389 342 
                                                                                
