 2013  712 1422 18.3 L   5.977 -73.809 32.1  RSN  5 0.4 1.9LRSN                1
 GAP=214        0.95       4.9     2.6  4.6  0.5853E+01 -0.2620E+01 -0.1306E+02E
 Epicentro: EL PEON - SANTANDER                                                3
 ACTION:UPD 13-08-12 10:37 OP:ep   STATUS:               ID:20130712142218 L   I
 OLDACT:REG 13-07-12 16:11 OP:stll STATUS:               ID:20130712141852     3
 2013-07-12-1418-52M.COL___211                                                 6
 STAT SP IPHASW D HRMM SECON CODA AMPLIT PERI AZIMU VELO AIN AR TRES W  DIS CAZ7
 RUS  HZ EP       1422 32.22                             104    0.2910 80.9  97 
 RUS  HN ES       1422 42.27                             104   -0.2810 80.9  97 
 RUS  HN I        1422 43.36        23.6 0.12            113           80.9  97 
 PTB  HZ EP       1422 32.77                             102   -0.3310 94.8 311 
 PTB  HN ES       1422 44.36                             102   -0.2610 94.8 311 
 PTB  HN I        1422 45.54        47.1 0.22            107           94.8 311 
 BAR2 SZ EP       1422 33.95                             102    0.3010 97.1  46 
 BAR2 SZ ES       1422 45.32                             102   -0.2910 97.1  46 
 BAR2 SZ I        1422 49.57        21.0 0.16            106           97.1  46 
 BRR  HZ EP       1422 37.19                              56    0.2910  125   5 
 BRR  HN ES       1422 51.94                              56    0.5610  125   5 
 BRR  HN I        1422 53.74        31.5 0.18            101            125   5 
 GIR2 SZ EP       1422 39.16                              56    0.32 9  140  29 
 GIR2 SZ ES       1422 54.27                              56   -0.57 9  140  29 
                                                                                
