 2017  912 1459 58.9 L   6.810 -73.130145.2  RSN  5 0.1 1.5LRSN                1
 GAP=240        0.37       2.4     2.8  3.6  0.2323E+00  0.3191E+01  0.2367E+01E
 Epicentro: LOS SANTOS - SANTANDER                                             3
 ACTION:UPD 17-10-05 19:11 OP:rebc STATUS:               ID:20170912145958 L   I
 OLDACT:REG 17-09-12 20:21 OP:dnl  STATUS:               ID:20170912145741     3
 2017-09-12-1458-00M.COL___452                                                 6
 STAT SP IPHASW D HRMM SECON CODA AMPLIT PERI AZIMU VELO AIN AR TRES W  DIS CAZ7
 BAR2 EZ EP       15 0 18.42                             170   -0.0610 24.7 193 
 BAR2 EZ ES       15 0 33.58                             170   -0.1810 24.7 193 
 BAR2 EZ I        15 0 36.15         6.8 0.32            167           24.7 193 
 BRR  HZ EP   2   15 0 20.02                             152   -0.01 5 72.2 297 
 BRR  HN ES       15 0 36.66                             152    0.1410 72.2 297 
 BRR  HZ I        15 0 45.24        12.9 0.22            148           72.2 297 
 RUS  HZ EP   2   15 0 22.70                             143    0.04 5  102 177 
 RUS  HN ES       15 0 41.31                             143    0.1210  102 177 
 RUS  HZ I        15 0 42.64         1.6 0.18            148            102 177 
 SPBC HZ EP   2   15 0 27.52                             129   -0.01 5  165 219 
 SPBC HN ES       15 0 49.97                             129    0.11 9  165 219 
 SPBC HZ I        15 0 54.22         6.7 0.32            130            165 219 
 NOR  HZ EP   2   15 0 35.04                             118    0.24 4  237 234 
 NOR  HN ES       15 1  2.59                             118   -0.22 8  237 234 
 NOR  HZ I        15 1  7.71         2.9 0.16            120            237 234 
                                                                                
