 2014  712 1535 55.7 L   6.785 -73.213145.1  RSN  6 0.4 1.7LRSN                1
 GAP=228        0.94       5.4     5.6  7.5  0.1245E+02  0.1025E+02  0.3622E+01E
 Epicentro: ZAPATOCA - SANTANDER                                               3
 ACTION:UPD 15-03-16 20:43 OP:nd   STATUS:               ID:20140712153555 L   I
 OLDACT:REG 14-07-12 21:00 OP:cam  STATUS:               ID:20140712153000     3
 2014-07-12-1530-00M.COL___282                                                 6
 STAT SP IPHASW D HRMM SECON CODA AMPLIT PERI AZIMU VELO AIN AR TRES W  DIS CAZ7
 BAR2 SZ EP       1536 15.03                             171   -0.1810 21.6 171 
 BAR2 SZ ES       1536 29.90                             171   -0.5310 21.6 171 
 BAR2 SZ I        1536 31.93         9.9 0.20            168           21.6 171 
 BRR  HZ EP   1   1536 16.86                             154    0.39 7 65.7 303 
 BRR  HN ES       1536 33.37                             154    0.7010 65.7 303 
 BRR  HZ I        1536 37.01         9.4 0.14            154           65.7 303 
 RUS  HZ EP   1   1536 19.42                             144    0.10 7 99.7 172 
 RUS  HN ES       1536 37.79                             144    0.0410 99.7 172 
 RUS  HZ I        1536 38.75         6.6 0.36            144           99.7 172 
 PTB  HZ EP       1536 21.60                             133   -0.32 9  140 259 
 PTB  HN ES       1536 42.27                             133   -0.12 9  140 259 
 PTB  HZ I        1536 45.14         6.2 0.20            133            140 259 
 SPBC HZ EP   1   1536 24.17                             130    0.58 7  157 217 
 SPBC HN ES       1536 45.50                             130    0.15 9  157 217 
 SPBC HZ I        1536 52.94         9.2 0.22            130            157 217 
 ZAR  HE ES       1536 51.80                             123   -0.44 9  198 293 
                                                                                
