 2016  312 1858  2.2 L   6.807 -73.115147.6  RSN  4 0.4 1.6LRSN                1
 GAP=140        0.83       3.9     4.9  8.8 -0.3117E+01  0.1749E+02  0.2407E-01E
 Epicentro: LOS SANTOS - SANTANDER                                             3
 ACTION:UPD 16-05-13 21:23 OP:cam  STATUS:               ID:20160312185802 L   I
 OLDACT:REG 16-03-12 23:37 OP:cara STATUS:               ID:20160312184753     3
 2016-03-12-1847-53M.COL___283                                                 6
 STAT SP IPHASW D HRMM SECON CODA AMPLIT PERI AZIMU VELO AIN AR TRES W  DIS CAZ7
 PAM  EZ EP       1858 24.76                             152    0.3510 74.7  38 
 PAM  EN ES       1858 41.40                             152   -0.3710 74.7  38 
 PAM  EZ I        1858 43.58         5.3 0.48            156           74.7  38 
 RUS  HZ EP       1858 26.05                             144   -0.0910  101 178 
 RUS  HE ES       1858 45.25                             144    0.4110  101 178 
 RUS  HZ I        1858 45.51         3.1 0.44            148            101 178 
 SPBC HZ EP       1858 30.60                             129   -0.46 9  166 220 
 SPBC HN ES       1858 53.41                             129   -0.19 9  166 220 
 SPBC HZ I        1858 59.12         8.8 0.20            131            166 220 
 ZAR  HZ EP   2   1858 35.79                             122    0.78 4  207 292 
 ZAR  HE ES       1859  0.77                             122    0.13 8  207 292 
 ZAR  HZ I        1859  7.15         5.6 0.38            123            207 292 
                                                                                
