 2017  312 1236 12.7 L   6.803 -73.160146.4  RSN 10 0.3 1.9LRSN                1
 GAP=135        0.82       3.3     3.8  5.0 -0.3729E+01  0.2044E+01  0.3537E+01E
 Epicentro: LOS SANTOS - SANTANDER                                             3
 ACTION:UPD 17-05-25 18:39 OP:jn   STATUS:               ID:20170312123612 L   I
 OLDACT:DUP 17-03-12 22:56 OP:lv   STATUS:               ID:20170312122747d    3
 2017-03-12-1228-00M.COL___397                                                 6
 STAT SP IPHASW D HRMM SECON CODA AMPLIT PERI AZIMU VELO AIN AR TRES W  DIS CAZ7
 BAR2 EZ EP       1236 32.23                             170   -0.1610 23.5 186 
 BAR2 EZ ES       1236 47.69                             170   -0.0810 23.5 186 
 BAR2 EZ I        1236 48.99        24.6 0.46            170           23.5 186 
 BRR  HZ EP       1236 33.24                             153   -0.5710 69.7 299 
 BRR  HN ES       1236 50.70                             153    0.4010 69.7 299 
 BRR  HZ I        1236 55.37        20.1 0.11            140           69.7 299 
 PAM  EZ EP       1236 35.14                             151    0.1310 78.1  41 
 PAM  EN ES       1236 52.66                             151    0.2410 78.1  41 
 PAM  EZ I        1236 54.56         9.1 0.11            143           78.1  41 
 RUS  HZ EP       1236 36.60                             144    0.0710  101 175 
 RUS  HN ES       1236 55.15                             144    0.0210  101 175 
 RUS  HZ I        1236 56.09         7.6 0.26            142            101 175 
 PTB  HZ EP       1236 39.53                             133   -0.04 9  146 259 
 PTB  HN ES       1237  0.03                             133   -0.51 9  146 259 
 PTB  HZ I        1237  3.29         7.4 0.11            123            146 259 
 SPBC HZ EP       1236 41.14                             129   -0.02 9  163 218 
 SPBC HN ES       1237  3.47                             129    0.09 9  163 218 
 SPBC HZ I        1237  5.59        16.1 0.18            122            163 218 
 ZAR  HZ EP   4   1236 48.45                             123    3.45 0  202 292 
 ZAR  HZ I        1237 14.46         4.9 0.07            113            202 292 
 CHI  HZ EP       1236 50.72                             117    0.31 8  249 195 
 CHI  HN ES       1237 19.41                             117   -0.43 8  249 195 
 CHI  HZ I        1237 23.97         5.0 0.37            112            249 195 
 ROSC BZ EP   9   1236 53.10                             117    2.32 0  252 211 
 ROSC BN ES       1237 22.96                                    0.14 8  252 211 
 ROSC BZ I        1237 28.31         9.8 0.55            111            252 211 
 GUY2CHZ EP   4   1236 58.35                             113    2.15 0  300 235 
 GUY2CHN IS       1237 31.02                             113    0.88 7  300 235 
 GUY2CHZ  IAML    1237 38.84         5.7 0.18                           300 235 
 PTGC HZ EP   4   1236 55.11                             112   -1.56 0  310 158 
 PTGC HN ES   4   1237 28.23                             112   -2.75 0  310 158 
                                                                                
