 2012  912 1536 28.1 L   6.825 -73.283122.9  RSN  5 0.3 1.2LRSN                1
 GAP=137        0.58       5.1     4.9  8.0  0.8297E+01 -0.1745E-01 -0.6303E+01E
 Epicentro: ZAPATOCA - SANTANDER                                               3
 ACTION:UPD 12-10-22 14:18 OP:ep   STATUS:               ID:20120912153628 L   I
 2012-09-12-1530-00M.COL___227                                                 6
 STAT SP IPHASW D HRMM SECON CODA AMPLIT PERI AZIMU VELO AIN AR TRES W  DIS CAZ7
 BAR2 SZ EP   1   1536 45.34                             166    0.25 7 28.1 157 
 BAR2 SZ ES   1   1536 58.74                             166    0.38 7 28.1 157 
 GIR2 SZ EP   1   1536 45.00                             166    0.00 7 29.8  19 
 BRR  HZ EP   1   1536 45.82                             154   -0.12 7 56.7 303 
 BRR  HN ES   1   1536 59.54                             154   -0.33 7 56.7 303 
 RUS  HZ I        1536 17.30         2.5 0.56                           105 168 
 RUS  HE ES   1   1537  6.83                             137   -0.37 7  105 168 
 PTB  HE ES   1   1537 10.70                             129    0.21 7  133 256 
 PTB  HE I        1537 12.63         3.7 0.26                           133 256 
                                                                                
