 2013  512 1858 23.9 L   6.786 -73.095148.0  RSN  7 0.3 1.7LRSN                1
 GAP=144        0.59       3.2     4.0  4.6 -0.3427E+01  0.4687E+01  0.2097E+01E
 Epicentro: LOS SANTOS - SANTANDER                                             3
 ACTION:UPD 13-06-20 09:49 OP:ep   STATUS:               ID:20130512185823 L   I
 2013-05-12-1850-00M.COL___256                                                 6
 STAT SP IPHASW D HRMM SECON CODA AMPLIT PERI AZIMU VELO AIN AR TRES W  DIS CAZ7
 BAR2 SZ ES   1   1858 59.02                             171   -0.31 7 23.5 204 
 PAM  SZ EP       1858 46.47                             152    0.2410 75.2  35 
 PAM  SZ I        1858 46.69        12.1 0.22            154           75.2  35 
 PAM  SN ES       1859  3.62                             152   -0.0210 75.2  35 
 BRR  HZ EP   1   1858 45.55                             151   -0.07 7 76.9 298 
 BRR  HN ES       1859  2.60                             151    0.0410 76.9 298 
 BRR  HZ I        1859  4.25         6.2 0.20            150           76.9 298 
 RUS  HZ EP   2   1858 47.56                             145   -0.19 5 98.8 179 
 RUS  HN ES       1859  6.36                             145    0.0110 98.8 179 
 RUS  HZ I        1859  7.91         7.0 0.44            146           98.8 179 
 PTB  HZ EP   2   1858 50.39                             131   -1.14 5  153 260 
 PTB  HN ES   4   1859 11.56                             131   -1.52 0  153 260 
 PTB  HZ I        1859 16.31         6.3 0.48            131            153 260 
 NOR  HZ EP       1859  0.30                             118    0.14 8  238 236 
 NOR  HZ E      D 1859 14.90                                            238 236 
 NOR  HE ES   1   1859 28.82                             118    0.37 6  238 236 
 NOR  HZ I        1859 29.00         5.2 0.14            119            238 236 
 CHI  HZ EP   2   1859  1.86                             117    0.13 4  249 197 
                                                                                
