 2011  812 1243  8.8 L   6.789 -73.087140.0  RSN  4 0.3 1.8LRSN                1
 GAP=145        0.61       5.3     8.0  8.7  0.1266E+02 -0.3364E+02 -0.6457E+01E
 Epicentro: LOS SANTOS - SANTANDER                                             3
 ACTION:UPD 12-07-13 15:51 OP:ep   STATUS:               ID:20110812124308 L   I
 2011-08-12-1241-46S.COL___150                                                 6
 STAT SP IPHASW D HRMM SECON CODA AMPLIT PERI AZIMU VELO AIN AR TRES W  DIS CAZ7
 BAR2 SZ EP       1243 27.62                             170   -0.0910 24.1 206 
 BAR2 SZ ES   2   1243 41.95                             170   -0.54 5 24.1 206 
 BAR2 SZ I        1243 43.42        11.8 0.30                          24.1 206 
 PAM  SZ EP       1243 30.30                             151    0.1210 74.5  35 
 BRR  HZ EP       1243 29.36                             150   -0.3010 77.5 297 
 BRR  HE ES   1   1243 46.40                             150    0.43 7 77.5 297 
 BRR  HZ I        1243 48.44        12.3 0.26                          77.5 297 
 RUS  HZ EP       1243 31.91                             143    0.0810 99.1 180 
 RUS  HE ES   2   1243 50.14                             143    0.31 5 99.1 180 
                                                                                
