 2013  412 1802 26.6 L   6.384 -73.537109.8  RSN  7 0.4 1.8LRSN                1
 GAP=107        0.90       4.5     3.4  7.0 -0.6017E+01  0.5537E+01  0.1361E+01E
 Epicentro: CONTRATACION - SANTANDER                                           3
 ACTION:UPD 13-05-22 14:37 OP:EP   STATUS:               ID:20130412180226 L   I
 2013-04-12-1800-00M.COL___245                                                 6
 STAT SP IPHASW D HRMM SECON CODA AMPLIT PERI AZIMU VELO AIN AR TRES W  DIS CAZ7
 BAR2 SZ EP       18 2 43.28                             156    0.4810 45.5  60 
 BAR2 SZ ES       18 2 55.25                             156   -0.1710 45.5  60 
 BAR2 SZ I        18 2 57.16        40.1 0.18            157           45.5  60 
 RUS  HZ EP       18 2 44.96                             144    0.0510 74.0 137 
 RUS  HE ES   1   18 2 59.28                             144    0.09 7 74.0 137 
 RUS  HZ I        18 3  1.70         9.0 0.30            145           74.0 137 
 GIR2 SZ EP       18 2 45.76                             139    0.4510 85.7  26 
 GIR2 SZ ES   1   18 2 59.68                             139   -0.21 7 85.7  26 
 GIR2 SZ I        18 3  2.43        13.5 0.42            142           85.7  26 
 PTB  HZ EP       18 2 46.16                             133   -0.4510  103 280 
 PTB  HN ES   1   18 3  1.73                             133   -0.47 7  103 280 
 PTB  HZ I        18 3  4.94        14.9 0.12            136            103 280 
 PAM  SZ EP       18 2 50.89                             124    0.09 9  140  41 
 PAM  SN ES       18 3  9.85                             124    0.19 9  140  41 
 PAM  SZ I        18 3 11.32        10.6 0.64            127            140  41 
 NOR  HZ EP       18 2 53.43                             117   -0.23 9  173 238 
 NOR  HN ES   1   18 3 15.36                             117    0.61 7  173 238 
 NOR  HZ I        18 3 16.56         8.2 0.58            120            173 238 
 TAM  HE ES   1   18 3 17.75                             114   -0.89 7  193  88 
 TAM  HZ I        18 3 22.74         8.8 0.25            117            193  88 
                                                                                
