 2017  112 1102  2.3 L   6.747 -73.130143.2  RSN  5 0.4 1.1LRSN                1
 GAP=141        0.95       5.0     4.9  7.0 -0.2265E+01  0.4421E+01  0.1208E+01E
 Epicentro: LOS SANTOS - SANTANDER                                             3
 ACTION:UPD 17-05-22 15:58 OP:jn   STATUS:               ID:20170112110202 L   I
 OLDACT:REG 17-01-12 20:08 OP:cara STATUS:               ID:20170112105742     3
 2017-01-12-1058-00M.COL___340                                                 6
 STAT SP IPHASW D HRMM SECON CODA AMPLIT PERI AZIMU VELO AIN AR TRES W  DIS CAZ7
 BAR2 EZ EP       11 2 21.69                             172    0.2110 18.1 199 
 BAR2 EZ ES       11 2 36.47                             172    0.0010 18.1 199 
 BAR2 EZ I        11 2 45.60         3.7 0.48            170           18.1 199 
 BRR  HZ EP       11 2 23.62                             150    0.2410 75.6 302 
 BRR  HN ES       11 2 40.43                             150    0.5710 75.6 302 
 PAM  EZ IP       11 2 24.67                             149    0.2610 81.0  36 
 PAM  EN ES       11 2 41.07                             149   -0.6310 81.0  36 
 PAM  EZ I        11 2 42.76         2.2 0.50            157           81.0  36 
 RUS  HZ EP       11 2 25.46                             145    0.1410 94.6 177 
 RUS  HN ES       11 2 43.29                             145   -0.0310 94.6 177 
 RUS  HZ I        11 2 46.40         1.1 0.38            148           94.6 177 
 PTB  HZ EP       11 2 28.57                             131   -0.50 9  148 261 
 PTB  HN ES       11 2 49.61                             131   -0.38 9  148 261 
 PTB  HZ I        11 2 55.62         3.5 0.54            135            148 261 
                                                                                
