 2012 1012 1019  1.9 L   6.768 -73.127144.0  RSN  7 0.3 1.7LRSN                1
 GAP=140        0.62       4.1     4.4  5.3  0.2960E+01  0.6234E+01  0.2782E+01E
 Epicentro: LOS SANTOS - SANTANDER                                             3
 ACTION:UPD 12-11-22 17:03 OP:ep   STATUS:               ID:20121012101901 L   I
 2012-10-12-1017-59S.COL___228                                                 6
 STAT SP IPHASW D HRMM SECON CODA AMPLIT PERI AZIMU VELO AIN AR TRES W  DIS CAZ7
 BAR2 SZ EP   1   1019 21.15                             172   -0.09 7 20.4 198 
 BAR2 SZ ES   1   1019 36.01                             172   -0.33 7 20.4 198 
 BAR2 SZ I        1019 37.51        15.0 0.24                          20.4 198 
 GIR2 SZ EP   1   1019 21.60                             166    0.14 7 35.2 348 
 GIR2 SZ ES   1   1019 36.97                             166    0.25 7 35.2 348 
 BRR  HZ EP   1   1019 22.96                             151   -0.09 7 74.8 300 
 BRR  HN ES   1   1019 39.96                             151    0.41 7 74.8 300 
 PAM  SZ EP   1   1019 23.96                             150   -0.04 7 78.9  37 
 PAM  SN ES   1   1019 41.21                             150   -0.04 7 78.9  37 
 PAM  SN I        1019 42.33         9.2 0.66                          78.9  37 
 RUS  HZ EP   1   1019 24.93                             145   -0.27 7 96.9 177 
 RUS  HN ES   1   1019 43.52                             145    0.14 7 96.9 177 
 RUS  HZ I        1019 44.83         5.1 0.18                          96.9 177 
 ZAR  HN ES   1   1019 59.39                             122   -0.65 6  207 293 
 HEL  HZ EP   1   1019 42.83                             114    0.69 6  273 257 
 HEL  HN I        1020 20.95         3.9 0.38                           273 257 
                                                                                
