 2013 1012 1646 28.9 L   6.768 -73.163146.4  RSN  6 0.4 1.7LRSN                1
 GAP=136        1.16       6.2     6.0  8.5 -0.3426E+01  0.6064E+01  0.2048E+01E
 Epicentro: LOS SANTOS - SANTANDER                                             3
 ACTION:UPD 13-11-25 09:21 OP:ep   STATUS:               ID:20131012164628 L   I
 OLDACT:REG 13-10-12 15:45 OP:nd   STATUS:               ID:20131012164000     3
 2013-10-12-1640-00M.COL___272                                                 6
 STAT SP IPHASW D HRMM SECON CODA AMPLIT PERI AZIMU VELO AIN AR TRES W  DIS CAZ7
 BAR2 SZ IP     C 1646 48.62                             172    0.1010 19.6 186 
 BAR2 SZ ES       1647  3.93                             172    0.0910 19.6 186 
 BAR2 SZ I        1647  6.32        23.4 0.22            174           19.6 186 
 BRR  HZ IP     D 1646 50.51                             152    0.4010 71.3 302 
 BRR  HN ES       1647  7.40                             152    0.7310 71.3 302 
 BRR  HZ I        1647 11.71         9.4 0.12            153           71.3 302 
 PAM  SZ EP       1646 51.36                             150   -0.0410 81.3  39 
 PAM  SN ES       1647  8.33                             150   -0.6410 81.3  39 
 PAM  SZ I        1647 11.52         4.9 0.44            152           81.3  39 
 RUS  HZ EP       1646 52.92                             145    0.4610 97.2 175 
 RUS  HN ES       1647 10.66                             145   -0.1810 97.2 175 
 RUS  HZ I        1647 12.03         7.4 0.42            149           97.2 175 
 PTB  HZ EP       1646 55.20                             133   -0.48 9  145 260 
 PTB  HN ES       1647 15.99                             133   -0.59 9  145 260 
 PTB  HZ I        1647 18.97         6.8 0.14            135            145 260 
 SJC  HZ EP   4   1647 22.37                             106   -2.32 0  411 327 
 SJC  HN ES   4   1648  3.97                             106   -4.26 0  411 327 
 SJC  HZ I        1648  8.36         2.0 0.46            108            411 327 
                                                                                
