 2016  412 1753 47.0 L   7.060 -73.542 99.1  RSN 21 0.6 2.7LRSN                1
 GAP= 76        1.08       2.5     3.1  6.6 -0.1949E+01  0.7680E+01 -0.2407E+01E
 Epicentro: SAN VICENTE DE CHUCURI - SANTANDER                                 3
 ACTION:UPD 16-05-05 14:20 OP:rebc STATUS:               ID:20160412175347 L   I
 OLDACT:REG 16-04-12 22:07 OP:ar   STATUS:               ID:20160412174746     3
 2016-04-12-1747-46M.COL___315                                                 6
 STAT SP IPHASW D HRMM SECON CODA AMPLIT PERI AZIMU VELO AIN AR TRES W  DIS CAZ7
 BAR2 EZ EP     D 1754  3.64                             144    0.4310 65.3 142 
 BAR2 EZ ES       1754 16.25                             144    0.3610 65.3 142 
 BAR2 EZ I        1754 18.11       532.8 0.20            146           65.3 142 
 PAM  EZ IP     C 1754  6.27                             132    0.0210 98.1  72 
 PAM  EN ES       1754 21.15                             132   -0.1510 98.1  72 
 PAM  EZ I        1754 23.89        88.5 0.20            134           98.1  72 
 PTB  HZ EP       1754  7.09                             127   -0.2610  116 240 
 PTB  HN ES       1754 22.74                             127   -0.5210  116 240 
 PTB  HZ I        1754 24.63        78.1 0.12            126            116 240 
 OCA  HZ EP       1754  9.06                             123   -0.1310  133  11 
 OCA  HN ES       1754 26.68                             123    0.1510  133  11 
 OCA  HZ I        1754 33.64       210.5 0.14            123            133  11 
 RUS  HZ EP     D 1754  9.82                             122   -0.44 9  139 159 
 RUS  HE ES       1754 28.09                             122   -0.35 9  139 159 
 RUS  HZ I        1754 31.95        41.2 0.30            123            139 159 
 ZAR  HZ EP       1754 12.02                             119    0.87 9  153 288 
 ZAR  HN ES   4   1754 33.21                             119    3.19 0  153 288 
 ZAR  HZ I        1754 35.18       134.1 0.22            118            153 288 
 SPBC HZ EP     D 1754 12.51                             117   -0.21 9  166 201 
 SPBC HN ES       1754 32.25                             117   -0.57 9  166 201 
 SPBC HZ I        1754 38.56        87.3 0.12            116            166 201 
 NOR  HZ EP       1754 18.63                             110   -0.27 8  221 222 
 NOR  HE ES       1754 44.24                             110    0.41 8  221 222 
 NOR  HZ I        1754 51.66        50.0 0.18            110            221 222 
 URE  HZ EP       1754 19.98                             109   -0.21 8  233 289 
 URE  HN ES       1754 46.24                             109    0.13 8  233 289 
 URE  HZ I        1754 52.28        68.3 0.26            108            233 289 
 ROSC BZ EP   4   1754 25.59                             107    1.70 0  260 199 
 ROSC BE ES   4   1754 55.60                             107    2.90 0  260 199 
 ROSC BZ I        1755  2.13        39.2 0.55            107            260 199 
 CHI  HZ EP       1754 25.79                             106    0.76 8  270 184 
 CHI  HE ES   2   1754 57.59                             106    2.86 4  270 184 
 CHI  HZ I        1755  3.00        24.8 0.36            106            270 184 
 GUY2CHZ EP   4   1754 28.42                             105    1.34 0  286 225 
 GUY2CHN ES   4   1754 56.18                             105   -2.20 0  286 225 
 GUY2CHZ I        1755 11.72        28.8 0.60                           286 225 
 LL6C HZ EP   2   1754 27.37                             104   -0.46 4  297   6 
 LL6C HN ES   2   1754 59.91                             104    0.20 4  297   6 
 LL6C HZ I        1755  9.08        25.9 0.30            104            297   6 
 CBOC HZ EP   4   1754 30.52                             104    1.74 0  304 244 
 CBOC HN ES   4   1755  3.95                             104    2.55 0  304 244 
 CBOC HZ I        1755  5.42        22.7 0.10            104            304 244 
 SOCV BZ EP   2   1754 30.86                             103   -0.41 3  326  65 
 SOCV BN ES   4   1755  3.71                             103   -2.13 0  326  65 
 VIL  SZ EP       1754 31.80                             103    0.32 7  326 183 
 VIL  SE ES   4   1755 10.03                             103    3.83 0  326 183 
 SDV  BZ EP       1754 37.26                             101   -0.65 6  379  58 
 SDV  BE ES   4   1755 14.33                             101   -3.32 0  379  58 
 SDV  BZ I        1755 20.72         7.5 0.35            101            379  58 
 PAL  HZ EP   2   1754 38.88                             101    0.30 3  386 232 
 PAL  HN ES   2   1755 18.07                             101   -0.77 3  386 232 
 PAL  HZ I        1755 24.75         8.6 0.22            101            386 232 
 ORTC HZ EP       1754 40.87                             100    1.06 6  396 209 
 ORTC HN ES       1755 20.39                             100   -0.65 6  396 209 
 ORTC HZ I        1755 33.02         9.4 0.20            100            396 209 
 CRJC HZ EP       1754 44.96                              99   -0.72 5  444   9 
 CRJC HN ES       1755 31.68                              99    0.20 5  444   9 
 CRJC HZ I        1755 35.96        40.8 0.36             99            444   9 
 MACC HZ EP   4   1754 56.80                              97   -1.07 0  545 184 
 MACC HN ES   4   1755 50.54                              97   -2.65 0  545 184 
 MACC HZ I        1755 54.77         7.3 0.24             81            545 184 
                                                                                
