 2015 1212 1125 34.8 L   6.793 -73.138140.2  RSN 11 0.5 1.9LRSN                1
 GAP=154        1.10       3.9     4.5  6.4 -0.5088E+01  0.8371E+01  0.2701E+01E
 Epicentro: LOS SANTOS - SANTANDER                                             3
 ACTION:UPD 16-02-04 15:04 OP:cam  STATUS:               ID:20151212112534 L   I
 OLDACT:UP  15-12-12 23:25 OP:mh   STATUS:               ID:20151212111748     3
 OLDACT:UP  15-12-12 23:24 OP:mh   STATUS:               ID:20151212111748     3
 OLDACT:REG 15-12-12 21:49 OP:mh   STATUS:               ID:20151212111748     3
 2015-12-12-1117-48M.COL___337                                                 6
 STAT SP IPHASW D HRMM SECON CODA AMPLIT PERI AZIMU VELO AIN AR TRES W  DIS CAZ7
 BAR2 EZ EP       1125 53.97                             170    0.2210 22.7 193 
 BAR2 EZ ES       1126  7.73                             170   -0.8010 22.7 193 
 BAR2 EZ I        1126  9.90        10.3 0.20            170           22.7 193 
 BRR  HZ EP       1125 55.42                             151   -0.0010 72.4 299 
 BRR  HN ES       1126 12.10                             151    0.6010 72.4 299 
 BRR  HZ I        1126 29.96        15.5 0.28            148           72.4 299 
 PAM  EZ EP       1125 56.54                             150    0.1110 77.4  39 
 PAM  EN ES       1126 13.85                             150    0.5510 77.4  39 
 PAM  EZ I        1126 16.00         8.5 0.34            154           77.4  39 
 PTB  HZ EP   1   1126  0.84                             131   -0.55 7  148 259 
 PTB  HN ES       1126 21.28                             131   -0.84 9  148 259 
 PTB  HZ I        1126 24.96         8.9 0.30            132            148 259 
 SPBC HZ EP       1126  2.91                             128    0.04 9  163 219 
 SPBC HN ES       1126 24.89                             128    0.12 9  163 219 
 SPBC HZ I        1126 26.29        11.2 0.10            132            163 219 
 ZAR  HZ EP       1126  7.01                             121    0.00 9  205 292 
 ZAR  HN ES       1126 32.35                             121    0.22 9  205 292 
 ZAR  HZ I        1126 37.87        13.0 0.30            123            205 292 
 NOR  HZ EP       1126  9.91                             117   -0.33 8  235 235 
 NOR  HE ES       1126 37.72                             117   -0.16 8  235 235 
 NOR  HZ I        1126 39.35         5.1 0.18            121            235 235 
 SML  HZ EP   1   1126 10.98                             116   -0.26 6  245 335 
 SML  HN ES       1126 39.09                             116   -0.58 8  245 335 
 SML  HZ I        1126 46.40         6.8 0.10            119            245 335 
 HEL  HN ES       1126 46.88                             113    0.86 8  273 256 
 HEL  HZ I        1126 53.00         3.3 0.67            117            273 256 
 GUY2CHZ EP   4   1126 19.56                             111    1.37 0  301 235 
 GUY2CHN ES   1   1126 52.84                             111    0.81 5  301 235 
 GUY2CHZ I        1127  0.52         4.1 0.42                           301 235 
 PRA  HZ EP       1126 27.82                             106   -0.28 6  392 210 
 PRA  HN ES       1127 10.24                             106    0.56 6  392 210 
 PRA  HZ I        1127 15.67         5.3 0.46            109            392 210 
                                                                                
