 2016  812 1330 49.3 L   6.784 -73.133142.7  RSN  9 0.4 1.7LRSN                1
 GAP=139        1.00       4.0     4.1  6.3 -0.2215E+01  0.8087E+01  0.2258E+00E
 Epicentro: LOS SANTOS - SANTANDER                                             3
 ACTION:UPD 16-10-29 15:34 OP:rebc STATUS:               ID:20160812133049 L   I
 OLDACT:REG 16-08-12 20:33 OP:lv   STATUS:               ID:20160812132759     3
 2016-08-12-1327-59S.COL___349                                                 6
 STAT SP IPHASW D HRMM SECON CODA AMPLIT PERI AZIMU VELO AIN AR TRES W  DIS CAZ7
 BAR2 EZ EP       1331  8.71                             171    0.2210 21.9 194 
 BAR2 EZ ES       1331 23.03                             171   -0.4610 21.9 194 
 BAR2 EZ I        1331 26.27        10.7 0.40                          21.9 194 
 BRR  HZ EP       1331 10.39                             151    0.2010 73.2 299 
 BRR  HN ES       1331 27.04                             151    0.5210 73.2 299 
 BRR  HZ I        1331 30.02        14.7 0.30                          73.2 299 
 PAM  EZ EP       1331 11.52                             150    0.3410 77.9  38 
 PAM  EE ES       1331 28.01                             150   -0.2610 77.9  38 
 PAM  EZ I        1331 30.62         7.3 0.23                          77.9  38 
 RUS  HZ EP       1331 11.91                             144   -0.6710 98.7 177 
 RUS  HE ES       1331 31.18                             144    0.4210 98.7 177 
 RUS  HZ I        1331 33.37         8.1 0.34                          98.7 177 
 PTB  HZ EP       1331 15.60                             131   -0.47 9  149 260 
 PTB  HN ES       1331 37.12                             131    0.14 9  149 260 
 PTB  HZ I        1331 39.07         5.9 0.13                           149 260 
 SPBC HN ES       1331 39.41                             128   -0.07 9  163 220 
 SPBC HZ I        1331 42.92         8.6 0.07                           163 220 
 ZAR  HZ EP       1331 21.91                             121    0.20 8  206 292 
 ZAR  HN ES       1331 46.45                             121   -0.56 8  206 292 
 ZAR  HZ I        1331 52.66         4.2 0.09                           206 292 
 NOR  HZ EP       1331 25.32                             118    0.50 8  235 235 
 NOR  HN ES       1331 52.52                             118   -0.04 8  235 235 
 NOR  HZ I        1331 58.85         4.5 0.17                           235 235 
 GUY2CHZ EP   4   1331 34.31                             112    1.57 0  301 235 
 GUY2CHN ES   4   1332  8.22                             112    1.57 0  301 235 
 GUY2CHZ I        1332 15.32         3.1 0.38                           301 235 
                                                                                
