 2012 1012 1138 17.2 L   6.778 -73.105149.3  RSN  8 0.3 2.0LRSN                1
 GAP=143        0.57       3.6     4.1  4.4  0.3106E+01  0.6019E+01  0.3499E+01E
 Epicentro: LOS SANTOS - SANTANDER                                             3
 ACTION:UPD 12-11-22 17:03 OP:ep   STATUS:               ID:20121012113817 L   I
 2012-10-12-1135-50M.COL___193                                                 6
 STAT SP IPHASW D HRMM SECON CODA AMPLIT PERI AZIMU VELO AIN AR TRES W  DIS CAZ7
 BAR2 SZ EP   1   1138 37.03                             171   -0.20 7 22.2 203 
 BAR2 SZ ES   1   1138 52.56                             171   -0.29 7 22.2 203 
 BAR2 SZ I        1138 53.93        24.1 0.36                          22.2 203 
 GIR2 SZ EP   1   1138 37.41                             166    0.03 7 34.7 344 
 GIR2 SZ ES   1   1138 53.57                             166    0.45 7 34.7 344 
 BRR  HZ EP   1   1138 38.89                             151   -0.12 7 76.3 299 
 BRR  HZ I        1138 39.20        21.3 0.17                          76.3 299 
 BRR  HE ES   1   1138 56.45                             151    0.42 7 76.3 299 
 PAM  SZ EP   1   1138 39.75                             152    0.01 7 76.6  36 
 PAM  SN ES   1   1138 57.16                             152   -0.16 7 76.6  36 
 PAM  SN I        1138 58.43        14.2 0.22                          76.6  36 
 RUS  HZ EP   1   1138 41.15                             145    0.04 7 97.9 179 
 RUS  HN ES   1   1138 59.64                             145   -0.12 7 97.9 179 
 RUS  HZ I        1139  0.67         6.3 0.38                          97.9 179 
 ZAR  HZ EP   1   1138 50.43                             122    0.04 6  209 292 
 ZAR  HN ES   1   1139 15.64                             122   -0.64 6  209 292 
 ZAR  HZ I        1139 21.15         9.1 0.28                           209 292 
 CHI  HZ EP   1   1138 55.15                             118    0.18 6  247 196 
 CHI  HN I        1139 28.60         7.7 0.31                           247 196 
 HEL  HZ EP   1   1138 58.46                             115    0.46 6  276 257 
 HEL  HN I        1139 36.59         5.7 0.36                           276 257 
                                                                                
