 2011 1112 1013 59.2 L   6.821 -72.984144.8  RSN  4 0.2 1.6LRSN                1
 GAP=255        0.51       6.6     9.6  5.0  0.4908E+02 -0.5240E+01 -0.3149E+01E
 Epicentro: CEPITA - SANTANDER                                                 3
 ACTION:UPD 12-07-13 16:09 OP:ep   STATUS:               ID:20111112101359 L   I
 2011-11-12-1010-45S.COL___180                                                 6
 STAT SP IPHASW D HRMM SECON CODA AMPLIT PERI AZIMU VELO AIN AR TRES W  DIS CAZ7
 BAR2 SZ EP   1   1014 19.19                             167    0.24 7 33.5 221 
 BAR2 SZ ES   1   1014 34.70                             167    0.33 7 33.5 221 
 BAR2 SZ I        1014 35.72         7.5 0.18                          33.5 221 
 BRR  HZ EP       1014 20.95                             148   -0.2210 86.4 292 
 BRR  HZ I        1014 21.33        13.2 0.12                          86.4 292 
 BRR  HN ES       1014 38.29                             148   -0.0210 86.4 292 
 RUS  HZ EP   1   1014 23.03                             143   -0.01 7  103 186 
 RUS  HE ES   1   1014 41.39                             143   -0.26 7  103 186 
 RUS  HZ I        1014 42.86         4.3 0.26                           103 186 
 HEL  HZ EP   1   1014 41.61                             113    0.26 5  290 256 
 HEL  HZ I        1015 16.06         2.5 0.31                           290 256 
                                                                                
