 2017  712 1716 24.7 L   6.717 -73.154131.2  RSN  8 0.4 1.7LRSN                1
 GAP=157        0.93       5.8     4.1  6.4 -0.9000E+01  0.7407E+01  0.8873E+01E
 Epicentro: VILLANUEVA - SANTANDER                                             3
 ACTION:UPD 17-08-30 15:32 OP:rebc STATUS:               ID:20170712171624 L   I
 OLDACT:REG 17-07-12 21:12 OP:dhb  STATUS:               ID:20170712170743     3
 2017-07-12-1708-00M.COL___380                                                 6
 STAT SP IPHASW D HRMM SECON CODA AMPLIT PERI AZIMU VELO AIN AR TRES W  DIS CAZ7
 BAR2 EZ IP     C 1716 42.75                             173    0.2910 14.1 193 
 BAR2 EZ ES       1716 56.37                             173    0.0910 14.1 193 
 BAR2 EZ I        1717  1.41        10.7 0.13            172           14.1 193 
 BRR  HZ IP     C 1716 44.64                             148    0.0510 75.3 305 
 BRR  HN ES       1717  0.65                             148    0.5710 75.3 305 
 BRR  HZ I        1717  4.18         9.9 0.25            149           75.3 305 
 PAM  EZ EP       1716 45.58                             145   -0.3710 85.2  36 
 PAM  EN ES       1717  2.29                             145   -0.2110 85.2  36 
 PAM  EZ I        1717  3.49         7.9 0.20            151           85.2  36 
 PTB  HZ EP       1716 49.87                             129   -0.47 9  145 262 
 PTB  HN ES       1717  9.69                             129   -0.61 9  145 262 
 PTB  HZ I        1717 14.02         6.0 0.12            131            145 262 
 ZAR  HZ EP   4   1716 58.11                             119    1.52 0  207 295 
 ZAR  HN ES       1717 21.45                             119    0.02 8  207 295 
 ZAR  HZ I        1717 27.79         9.4 0.40            121            207 295 
 NOR  HZ EP       1716 59.40                             116    0.38 8  229 236 
 NOR  HN ES       1717 25.62                             116   -0.13 8  229 236 
 NOR  HZ I        1717 31.30         4.3 0.17            119            229 236 
 GUY2CHZ EP   4   1717  8.02                             110    0.98 0  295 236 
 GUY2CHN ES   4   1717 42.96                             110    2.93 0  295 236 
 GUY2CHZ I        1717 48.12         2.7 0.28                           295 236 
 CBOC HZ EP       1717 11.47                             107    0.79 7  330 254 
 CBOC HE ES       1717 46.48                             107   -0.03 7  330 254 
                                                                                
