 2011  112 1600 32.7 L   6.712 -72.943145.0  RSN  4 0.4 1.8LRSN                1
 GAP=183        0.72       6.5    28.4 12.4 -0.8461E+02 -0.2171E+03  0.1501E+02E
 Epicentro: CEPITA - SANTANDER                                                 3
 ACTION:UP  11-02-08 08:40 OP:pat  STATUS:               ID:20110112160032 L   I
 2011-01-12-1600-00M.COL___136                                                 6
 STAT SP IPHASW D HRMM SECON CODA AMPLIT PERI AZIMU VELO SNR AR TRES W  DIS CAZ7
 BAR2 SZ EP   1   16 0 51.90                             167    -0.5 7   30 243 
 BAR2 SZ ES   2   16 1  7.18                             167    -0.6 5   30 243 
 BAR2 SZ I        16 1  7.92        18.2 0.31                            30 243 
 BTL  SZ EP   1   16 0 53.20                             162     0.4 7   43 302 
 BTL  SZ ES   2   16 1  8.65                             162     0.2 5   43 302 
 RUS  HZ EP   1   16 0 55.70                             146    -0.1 7   92 190 
 RUS  HE ES   2   16 1 14.30                             146     0.5 5   92 190 
 RUS  HZ I        16 1 15.72         7.0 0.45                            92 190 
 GRA  SZ EP   1   16 0 58.32                             136     0.0 7  131   7 
 GRA  SZ ES   2   16 1 18.20                             136     0.0 5  131   7 
 GRA  SZ I        16 1 20.37         9.1 0.39                           131   7 
                                                                                
