 2012  812 1153 27.6 L   6.722 -73.191146.0  RSN  5 0.4 1.3LRSN                1
 GAP=226        0.79       8.0     7.3  8.4  0.3608E+02  0.1005E+02  0.1315E+01E
 Epicentro: VILLANUEVA - SANTANDER                                             3
 ACTION:UPD 12-09-10 11:56 OP:ep   STATUS:               ID:20120812115327 L   I
 2012-08-12-1150-00M.COL___219                                                 6
 STAT SP IPHASW D HRMM SECON CODA AMPLIT PERI AZIMU VELO AIN AR TRES W  DIS CAZ7
 BAR2 SZ EP   1   1153 46.65                             174   -0.46 7 14.4 176 
 BAR2 SZ ES   1   1154  1.81                             174   -0.51 7 14.4 176 
 BAR2 SZ I        1154  3.33         7.5 0.29                          14.4 176 
 BRR  HZ EP   1   1153 49.31                             152    0.52 7 71.6 307 
 BRR  HN ES   1   1154  5.75                             152    0.43 7 71.6 307 
 RUS  HZ EP   1   1153 50.60                             146   -0.20 7 92.5 173 
 RUS  HN ES   1   1154  9.40                             146    0.50 7 92.5 173 
 RUS  HZ I        1154 11.88         2.1 0.49                          92.5 173 
 PTB  HZ EP   1   1153 54.15                             133    0.14 7  141 262 
 PTB  HN ES   1   1154 14.40                             133   -0.21 7  141 262 
 ZAR  HN ES   1   1154 24.87                             123   -0.29 6  203 295 
                                                                                
