 2011  412 1034 38.5 L   6.783 -73.117150.1  RSN  5 0.4 1.9LRSN                1
 GAP=162        0.88       9.2     9.1 10.3 -0.3271E+02 -0.6909E+01  0.2177E+02E
 Epicentro: LOS SANTOS - SANTANDER                                             3
 ACTION:UP  11-06-22 15:30 OP:REBC STATUS:               ID:20110412103438 L   I
 2011-04-12-1032-03S.COL___138                                                 6
 STAT SP IPHASW D HRMM SECON CODA AMPLIT PERI AZIMU VELO SNR AR TRES W  DIS CAZ7
 BAR2 SZ EP   1   1034 58.35                             171    -0.3 7   22 199 
 BRR  HZ EP       1035  0.21                             152    -0.110   75 299 
 BRR  HZ I        1035  0.79        20.5 0.03                            75 299 
 BRR  HN ES   1   1035 17.65                             152     0.3 7   75 299 
 PAM  SZ EP   1   1035  1.18                             152     0.0 7   77  37 
 PAM  SN ES   1   1035 18.58                             152    -0.2 7   77  37 
 GRA  SZ EP   1   1035  5.10                             138     0.9 7  127  16 
 GRA  SZ ES   1   1035 24.31                             138     0.1 7  127  16 
 GRA  SZ I        1035 26.06         9.9 0.49                           127  16 
 OCA  SZ EP   1   1035  6.94                             130    -0.4 7  163 352 
 OCA  SZ ES   2   1035 29.29                             130    -0.6 5  163 352 
 OCA  SZ I        1035 33.31         9.0 0.12                           163 352 
                                                                                
