 2012 1012 1804 48.3 L   6.772 -73.139137.7  RSN  6 0.3 1.8LRSN                1
 GAP=139        0.70       4.5     5.1  6.7  0.4233E+01  0.4925E+01  0.1052E+01E
 Epicentro: LOS SANTOS - SANTANDER                                             3
 ACTION:UPD 12-11-22 17:03 OP:ep   STATUS:               ID:20121012180448 L   I
 2012-10-12-1800-00M.COL___231                                                 6
 STAT SP IPHASW D HRMM SECON CODA AMPLIT PERI AZIMU VELO AIN AR TRES W  DIS CAZ7
 BAR2 SZ ES   1   18 5 20.80                             171   -0.62 7 20.4 194 
 BAR2 SZ I        18 5 24.00        16.1 0.20                          20.4 194 
 GIR2 SZ EP   1   18 5  6.58                             165   -0.54 7 34.5 350 
 GIR2 SZ ES   1   18 5 21.79                             165    0.00 7 34.5 350 
 BRR  HZ EP   1   18 5  8.97                             150    0.24 7 73.4 300 
 BRR  HE ES   1   18 5 25.13                             150    0.48 7 73.4 300 
 PAM  SZ EP   1   18 5  9.92                             149    0.12 7 79.4  38 
 PAM  SZ I        18 5 10.14        12.0 0.22                          79.4  38 
 PAM  SE ES   1   18 5 26.69                             149    0.13 7 79.4  38 
 RUS  HZ EP   1   18 5 11.05                             143    0.01 7 97.4 176 
 RUS  HN ES   1   18 5 29.10                             143    0.33 7 97.4 176 
 RUS  HN I        18 5 31.08        11.5 0.28                          97.4 176 
 ZAR  HE ES   1   18 5 45.30                             120   -0.21 6  206 293 
                                                                                
