 2014  612 1537 17.8 L   6.805 -73.145140.5  RSN 12 0.4 2.0LRSN                1
 GAP=201        0.87       2.7     4.3  5.4  0.1743E+01  0.4334E+01 -0.3670E+00E
 Epicentro: LOS SANTOS - SANTANDER                                             3
 OLDACT:DUP 14-06-13 00:32 OP:fm   STATUS:               ID:20140612152821d    3
 ACTION:UPD 14-07-01 22:53 OP:nd   STATUS:               ID:20140612153717 L   I
 OLDACT:UP  14-06-13 00:38 OP:fm   STATUS:               ID:20140612152821d    3
 2014-06-12-1528-19M.COL___259                                                 6
 STAT SP IPHASW D HRMM SECON CODA AMPLIT PERI AZIMU VELO AIN AR TRES W  DIS CAZ7
 BAR2 SZ EP       1537 37.01                             170    0.1910 23.8 190 
 BAR2 SZ ES   1   1537 51.85                             170    0.20 7 23.8 190 
 BAR2 SZ I        1537 52.70        28.9 0.28            168           23.8 190 
 BRR  HN ES   1   1537 54.80                             152    0.38 7 71.0 298 
 RUS  HZ EP       1537 41.44                             143    0.3610  101 176 
 RUS  HN ES       1537 58.99                             143   -0.2510  101 176 
 RUS  SZ I        1538  1.76         8.9 0.90            143            101 176 
 PTB  HZ EP   1   1537 44.07                             131   -0.29 7  148 259 
 PTB  HN ES       1538  4.76                             131   -0.32 9  148 259 
 PTB  SZ I        1538  7.22         8.8 0.12            129            148 259 
 SPBC HZ EP       1537 45.86                             128   -0.09 9  164 219 
 SPBC HN ES       1538  7.76                             128   -0.14 9  164 219 
 SPBC SZ I        1538 12.81         9.1 0.22            127            164 219 
 ZAR  HZ EP       1537 50.71                             121    0.81 9  204 292 
 ZAR  HN ES       1538 15.23                             121    0.30 9  204 292 
 ZAR  SZ I        1538 21.12         8.4 0.46            121            204 292 
 NOR  HZ EP       1537 53.58                             117    0.31 8  235 234 
 NOR  HN ES       1538 20.83                             117   -0.10 8  235 234 
 NOR  SZ I        1538 29.01         3.5 1.02            117            235 234 
 SML  HZ EP       1537 53.21                             116   -0.88 8  243 335 
 SML  HN ES       1538 21.90                             116   -0.50 8  243 335 
 SML  SZ I        1538 28.09        12.6 0.08            117            243 335 
 CHI  HE ES       1538 24.17                             116   -0.33 8  249 195 
 GUY2CHZ EP   1   1538  1.39                             111    0.18 5  302 235 
 GUY2CHN ES   4   1538 37.08                             111    2.01 0  302 235 
 GUY2CSZ I        1538 41.83         4.3 0.80                           302 235 
 RREF HN ES   1   1538 39.79                             110    0.18 5  322 229 
 PRA  HZ EP       1538 11.70                             106    0.50 6  392 210 
 PRA  HE ES       1538 52.38                             106   -0.47 6  392 210 
 PRA  SZ I        1539  0.64         5.4 1.98            106            392 210 
                                                                                
