 2013  512 1538  0.1 L   6.809 -73.122151.4  RSN 16 0.5 2.6LRSN                1
 GAP= 72        0.97       2.7     3.6  4.6 -0.1518E+01  0.1100E+01  0.1855E-01E
 Epicentro: LOS SANTOS - SANTANDER                                             3
 ACTION:UPD 13-06-20 09:49 OP:ep   STATUS:               ID:20130512153800 L   I
 2013-05-12-1530-00M.COL___256                                                 6
 STAT SP IPHASW D HRMM SECON CODA AMPLIT PERI AZIMU VELO AIN AR TRES W  DIS CAZ7
 BAR2 SZ IP     C 1538 20.35                             170   -0.0610 24.8 196 
 BAR2 SZ ES       1538 35.91                             170   -0.3710 24.8 196 
 BAR2 SZ I        1538 37.57        74.5 0.27            170           24.8 196 
 GIR2 SZ EP       1538 20.41                             168    0.0010 30.9 345 
 GIR2 SZ ES   1   1538 36.71                             168    0.44 7 30.9 345 
 GIR2 SZ I        1538 38.68        38.3 0.26            167           30.9 345 
 BRR  HZ EP       1538 22.21                             153    0.2710 73.1 297 
 BRR  HZ I        1538 22.45        59.4 0.28            151           73.1 297 
 BRR  HN ES       1538 39.74                             153    0.7510 73.1 297 
 PAM  SZ EP     D 1538 23.08                             153    0.3210 75.0  38 
 PAM  SN ES       1538 40.61                             153    0.1610 75.0  38 
 PAM  SZ I        1538 42.58        73.1 0.54            154           75.0  38 
 RUS  HZ EP       1538 24.31                             145   -0.1310  101 178 
 RUS  HN ES       1538 43.27                             145   -0.1810  101 178 
 RUS  HZ I        1538 45.64        60.8 0.48            146            101 178 
 PTB  HZ EP   1   1538 27.41                             133   -0.34 7  150 259 
 PTB  HN ES       1538 48.45                             133   -0.89 9  150 259 
 PTB  HZ I        1538 50.44        80.8 0.30            132            150 259 
 TAM  HZ IP     D 1538 28.49                             132    0.49 9  153 106 
 OCA  HZ EP   1   1538 29.11                             131    0.34 7  160 352 
 OCA  HE ES   1   1538 50.85                             131   -0.30 7  160 352 
 OCA  HZ I        1538 55.31        49.3 0.22            131            160 352 
 NOR  HZ EP       1538 36.18                             119   -0.24 8  237 235 
 NOR  HE ES   1   1539  5.05                             119    0.28 6  237 235 
 NOR  HZ I        1539  8.66        61.1 0.20            119            237 235 
 SML  HZ EP       1538 36.86                             119   -0.19 8  244 335 
 SML  HE ES       1539  5.53                             119   -0.35 8  244 335 
 SML  HZ I        1539  8.71        62.8 0.24            119            244 335 
 CHI  HZ EP       1538 38.52                             118    0.26 8  250 196 
 CHI  HN ES       1539  7.87                             118   -0.18 8  250 196 
 CHI  HZ I        1539 13.21        25.6 0.26            119            250 196 
 HEL  HZ EP   2   1538 42.59                             116    1.71 4  275 256 
 HEL  HN ES   1   1539 13.20                             116    0.49 6  275 256 
 HEL  HZ I        1539 18.67        31.7 0.32            116            275 256 
 URE  HZ EP   2   1538 40.40                             115   -1.25 4  286 292 
 COD  HZ EP   2   1538 48.23                             110   -0.37 3  348 354 
 COD  HN ES   1   1539 26.43                             110   -0.02 5  348 354 
 COD  HZ I        1539 33.12         9.7 0.38            110            348 354 
 SDV  BZ EP   2   1538 49.67                             109   -0.36 3  358  50 
 SDV  BE ES   1   1539 27.51                             109   -1.49 5  358  50 
 SDV  BZ I        1539 29.04        11.1 0.40            110            358  50 
 PRA  HZ EP   2   1538 54.06                             107    0.02 3  394 210 
                                                                                
