 2013  812 1415 29.9 L   6.757 -73.162144.0  RSN  6 0.4 1.5LRSN                1
 GAP=136        0.96       6.6     4.9  9.1 -0.8375E+01  0.1020E+02  0.2879E+00E
 Epicentro: LOS SANTOS - SANTANDER                                             3
 ACTION:UPD 14-01-14 09:01 OP:ep   STATUS:               ID:20130812141529 L   I
 OLDACT:REG 13-08-12 16:26 OP:jn   STATUS:               ID:20130812140959     3
 2013-08-12-1409-59M.COL___271                                                 6
 STAT SP IPHASW D HRMM SECON CODA AMPLIT PERI AZIMU VELO AIN AR TRES W  DIS CAZ7
 GIR2 SZ EP   1   1415 49.25                             165   -0.26 7 35.8 354 
 GIR2 SZ ES   1   1416  4.90                             165    0.11 7 35.8 354 
 BRR  HZ EP       1415 51.35                             152    0.4210 72.1 303 
 BRR  HN ES   1   1416  8.14                             152    0.83 7 72.1 303 
 BRR  HZ I        1416 13.05         7.2 0.54            151           72.1 303 
 PAM  SZ EP       1415 52.37                             149    0.1310 82.2  38 
 PAM  SN ES       1416  9.16                             149   -0.5010 82.2  38 
 PAM  SZ I        1416 11.16         4.5 0.28            152           82.2  38 
 RUS  HN ES   1   1416 11.51                             145    0.21 7 96.0 175 
 PTB  HZ EP   1   1415 56.52                             132    0.02 7  145 261 
 PTB  HN ES       1416 16.60                             132   -0.64 9  145 261 
 PTB  HZ I        1416 19.93         4.7 0.30            134            145 261 
 ZAR  HE ES   1   1416 27.51                             122    0.00 6  204 294 
                                                                                
