 2017  812 1024 14.1 L   6.836 -73.069142.9  RSN  4 0.1 1.4LRSN                1
 GAP=248        0.44       2.7     4.1  3.6  0.2743E+01  0.2559E+00  0.1131E+01E
 Epicentro: LOS SANTOS - SANTANDER                                             3
 ACTION:UPD 17-09-04 20:19 OP:rebc STATUS:               ID:20170812102414 L   I
 OLDACT:REG 17-08-12 20:31 OP:dani STATUS:               ID:20170812101739     3
 2017-08-12-1018-00M.COL___408                                                 6
 STAT SP IPHASW D HRMM SECON CODA AMPLIT PERI AZIMU VELO AIN AR TRES W  DIS CAZ7
 BAR2 EZ EP       1024 33.55                             168    0.0110 29.7 205 
 BAR2 EZ ES       1024 48.47                             168   -0.2210 29.7 205 
 BAR2 EZ I        1024 50.04         5.2 0.12            162           29.7 205 
 BRR  HZ EP       1024 35.38                             150    0.0910 77.1 293 
 BRR  HE ES       1024 51.88                             150    0.0710 77.1 293 
 BRR  HZ I        1024 55.38         7.5 0.13            146           77.1 293 
 RUS  HZ EP       1024 37.95                             142    0.1010  104 181 
 RUS  HN ES       1024 56.49                             142    0.1210  104 181 
 RUS  HZ I        1024 57.69         2.3 0.24            142            104 181 
 SPBC HZ EP       1024 42.91                             127   -0.29 9  172 220 
 SPBC HN ES       1025  5.97                             127    0.08 9  172 220 
 SPBC HZ I        1025 10.71         4.1 0.22            126            172 220 
                                                                                
