 2011  212 1011  8.5 L   6.833 -73.114134.1  RSN 14 0.5 2.4LRSN                1
 GAP=105        1.05       3.4     5.8  6.6 -0.3707E+01  0.1210E+02  0.1705E+01E
 Epicentro: LOS SANTOS - SANTANDER                                             3
 ACTION:UP  11-03-28 15:07 OP:jfem STATUS:               ID:20110212101108 L   I
 2011-02-12-1009-08S.COL___136                                                 6
 STAT SP IPHASW D HRMM SECON CODA AMPLIT PERI AZIMU VELO SNR AR TRES W  DIS CAZ7
 BAR2 SZ IP       1011 26.96                             168     0.110   28 196 
 BAR2 SZ ES   1   1011 40.65                             168    -0.5 7   28 196 
 BAR2 SZ I        1011 44.41        55.7 0.25                            28 196 
 GIR2 SZ EP       1011 26.99                             167     0.310   29 342 
 GIR2 SZ ES   1   1011 41.48                             167     0.6 7   29 342 
 RUS  HZ EP   1   1011 31.02                             140    -0.4 7  104 178 
 RUS  HN ES   1   1011 48.82                             140    -0.4 7  104 178 
 RUS  HZ I        1011 51.37        45.7 0.31                           104 178 
 GRA  SZ IP       1011 32.82                             135     0.510  121  16 
 GRA  SZ ES   1   1011 50.79                             135    -0.1 7  121  16 
 GRA  SZ I        1011 54.32        45.0 0.29                           121  16 
 OCA  SZ EP       1011 36.01                             127     0.4 9  157 352 
 OCA  SZ ES   1   1011 55.94                             127    -0.8 7  157 352 
 OCA  SZ I        1011 58.83        30.9 0.20                           157 352 
 YOP  SZ EP   1   1011 37.55                             123    -0.4 7  181 155 
 YOP  SN ES   1   1012  1.34                             123     0.5 7  181 155 
 YOP  SZ I        1012  5.18        18.1 0.47                           181 155 
 NOR  SZ EP   1   1011 43.55                             115    -0.6 6  240 234 
 CHI  HZ EP   1   1011 45.42                             114    -0.7 6  253 196 
 CHI  HN ES   1   1012 15.38                             114     0.0 6  253 196 
 CHI  HZ I        1012 22.46        10.6 0.31                           253 196 
 ROSC BZ EP   1   1011 47.25                             114     0.7 6  258 211 
 ROSC BZ I        1012 21.94        17.6 0.33                           258 211 
 HEL  HZ EP   1   1011 48.73                             112     0.1 6  276 255 
 HEL  HN ES   1   1012 19.94                             112     0.0 6  276 255 
 HEL  HZ I        1012 26.28        14.3 0.38                           276 255 
 GUY  SZ EP   1   1011 52.04                             110    -0.1 5  306 235 
 GUY  SZ I        1012 36.81        16.3 0.31                           306 235 
 RREF HZ EP   1   1011 55.41                             108     0.7 5  327 229 
 RREF HN ES   1   1012 30.69                             108    -0.1 5  327 229 
 RREF HZ I        1012 36.19        11.8 0.24                           327 229 
 DBB  SZ EP   1   1011 55.55                             107    -0.4 5  343 274 
 SDV  BZ EP   1   1011 56.53                             106    -1.0 5  355  50 
 SDV  BZ I        1012 38.89         8.3 0.57                           355  50 
                                                                                
