 2016 1112 1508 14.2 L   6.711 -73.121142.3  RSN  4 0.4 1.5LRSN                1
 GAP=174        1.02       9.2     5.5  9.6 -0.1794E+02  0.1939E+02 -0.1174E+02E
 Epicentro: JORDAN - SANTANDER                                                 3
 ACTION:UPD 17-10-26 21:07 OP:lp   STATUS:               ID:20161112150814 L   I
 OLDACT:UP  16-11-13 00:28 OP:dnl  STATUS:               ID:20161112150743     3
 OLDACT:REG 16-11-12 21:18 OP:dnl  STATUS:               ID:20161112150743     3
 2016-11-12-1508-00M.COL___343                                                 6
 STAT SP IPHASW D HRMM SECON CODA AMPLIT PERI AZIMU VELO AIN AR TRES W  DIS CAZ7
 BAR2 EZ EP       15 8 33.62                             174    0.3910 14.8 207 
 BAR2 EZ ES       15 8 48.40                             174    0.3010 14.8 207 
 BAR2 EZ I        15 8 51.16         6.9 0.38            174           14.8 207 
 PAM  EZ EP       15 8 36.60                             148    0.2010 83.6  34 
 PAM  EN ES       15 8 53.27                             148   -0.4710 83.6  34 
 PAM  EZ I        15 8 55.64         7.8 0.54            149           83.6  34 
 PTB  HZ EP       15 8 40.43                             131   -0.52 9  149 263 
 PTB  HE ES       15 9  1.47                             131   -0.38 9  149 263 
 PTB  HZ I        15 9  3.35         2.9 0.62            132            149 263 
 ZAR  HE ES       15 9 13.20                             121    0.50 8  210 294 
 ZAR  HZ I        15 9 17.64         3.2 0.28            122            210 294 
                                                                                
