 2014  612 1510 19.8 L   6.807 -73.152144.5  RSN 14 0.5 2.2LRSN                1
 GAP=135        1.04       3.1     4.5  6.4  0.5614E+00  0.6083E+01  0.2418E+01E
 Epicentro: LOS SANTOS - SANTANDER                                             3
 OLDACT:REG 14-06-12 21:02 OP:fm   STATUS:               ID:20140612150819     3
 ACTION:UPD 14-07-01 22:53 OP:nd   STATUS:               ID:20140612151019 L   I
 OLDACT:UP  14-06-13 00:13 OP:fm   STATUS:               ID:20140612150819     3
 2014-06-12-1508-19M.COL___259                                                 6
 STAT SP IPHASW D HRMM SECON CODA AMPLIT PERI AZIMU VELO AIN AR TRES W  DIS CAZ7
 BAR2 SZ EP       1510 39.30                             170    0.0510 23.9 188 
 BAR2 SZ ES   1   1510 53.91                             170   -0.54 7 23.9 188 
 BAR2 SZ I        1510 55.51        62.5 0.24            172           23.9 188 
 BRR  HZ EP       1510 41.10                             153    0.3810 70.2 298 
 BRR  HN ES       1510 57.88                             153    0.8210 70.2 298 
 BRR  SZ I        1510 59.03        19.8 0.14            151           70.2 298 
 PAM  SZ EP   1   1510 42.18                             150    0.35 7 77.3  40 
 PAM  SZ I        1511  2.10        16.7 0.32            142           77.3  40 
 RUS  HZ EP       1510 43.35                             143   -0.0910  101 176 
 RUS  HN ES       1511  1.81                             143   -0.1010  101 176 
 RUS  SZ I        1511  3.21        12.8 0.20            141            101 176 
 PTB  HZ EP       1510 46.15                             132   -0.43 9  147 259 
 PTB  HN ES       1511  6.82                             132   -0.67 9  147 259 
 PTB  SZ I        1511 10.32        12.9 0.28            130            147 259 
 SPBC HZ EP       1510 48.16                             129   -0.01 9  163 219 
 SPBC HN ES       1511 10.14                             129   -0.20 9  163 219 
 SPBC SZ I        1511 17.30        16.4 0.20            127            163 219 
 ZAR  HZ EP       1510 52.02                             122   -0.01 9  203 292 
 ZAR  HN ES       1511 17.77                             122    0.58 9  203 292 
 ZAR  SZ I        1511 23.84        12.0 0.26            119            203 292 
 NOR  HZ EP       1510 55.61                             118    0.21 8  235 234 
 NOR  HN ES       1511 23.43                             118    0.23 8  235 234 
 NOR  SZ I        1511 29.29        10.0 0.16            116            235 234 
 SML  HZ EP   4   1510 54.51                             117   -1.70 0  243 335 
 SML  HN ES       1511 23.78                             117   -0.86 8  243 335 
 SML  SZ I        1511 33.72        14.2 0.06            113            243 335 
 CHI  HZ EP   4   1510 55.64                             117   -1.81 0  249 195 
 CHI  HN ES       1511 26.84                             117    0.00 8  249 195 
 CHI  SZ I        1511 33.75         6.7 0.62            114            249 195 
 GUY2CHZ EP   4   1511  4.51                             112    1.21 0  301 235 
 GUY2CHN ES       1511 36.38                             112   -0.87 7  301 235 
 GUY2CSZ I        1511 47.83         5.6 0.50                           301 235 
 RREF HN ES   1   1511 42.05                             111    0.27 5  322 229 
 TOL  SZ EP   4   1511  9.56                             109    1.59 0  344 224 
 TOL  SN ES   1   1511 45.71                             109    0.14 5  344 224 
 TOL  SZ I        1511 53.22        13.6 0.50            107            344 224 
 PRA  HZ EP       1511 13.42                             106    0.15 6  392 209 
 PRA  HN ES       1511 55.94                             106    0.93 6  392 209 
 PRA  SZ I        1511 59.63         7.7 0.38            104            392 209 
                                                                                
