 2014  712 1554 36.0 L   6.825 -73.150144.1  RSN 16 0.5 2.4LRSN                1
 GAP=135        1.20       3.4     4.3  6.2 -0.1396E+01  0.8257E+01  0.1518E+01E
 Epicentro: LOS SANTOS - SANTANDER                                             3
 ACTION:UPD 15-03-16 20:43 OP:nd   STATUS:               ID:20140712155436 L   I
 OLDACT:UP  14-07-12 22:57 OP:cam  STATUS:               ID:20140712155000     3
 OLDACT:UP  14-07-12 22:57 OP:cam  STATUS:               ID:20140712155000     3
 OLDACT:REG 14-07-12 21:01 OP:cam  STATUS:               ID:20140712155000     3
 2014-07-12-1550-00M.COL___282                                                 6
 STAT SP IPHASW D HRMM SECON CODA AMPLIT PERI AZIMU VELO AIN AR TRES W  DIS CAZ7
 BAR2 SZ EP     C 1554 55.39                             169   -0.1210 26.0 188 
 BAR2 SZ ES       1555  9.69                             169   -1.0210 26.0 188 
 BAR2 SZ I        1555 12.65        34.5 0.22            168           26.0 188 
 BRR  HZ EP       1554 57.13                             153    0.2410 69.5 297 
 BRR  HN ES       1555 14.19                             153    1.0210 69.5 297 
 BRR  HZ I        1555 14.58        38.0 0.30            152           69.5 297 
 PAM  SZ EP       1554 58.23                             151    0.2710 75.6  41 
 PAM  SN ES       1555 15.46                             151    0.4010 75.6  41 
 PAM  SZ I        1555 17.17        52.1 0.50            155           75.6  41 
 RUS  HZ EP       1554 59.74                             143   -0.0710  103 176 
 RUS  HE ES       1555 18.67                             143    0.3010  103 176 
 RUS  HZ I        1555 19.70        32.3 0.30            144            103 176 
 PTB  HZ EP       1555  2.03                             132   -0.83 9  148 258 
 PTB  HN ES       1555 23.32                             132   -0.47 9  148 258 
 PTB  HZ I        1555 25.58        38.0 0.14            132            148 258 
 SPBC HZ EP       1555  4.40                             128   -0.17 9  165 218 
 SPBC HN ES       1555 26.63                             128   -0.20 9  165 218 
 SPBC HZ I        1555 33.70        36.1 0.28            129            165 218 
 ZAR  HZ EP       1555  8.52                             122    0.32 9  203 291 
 ZAR  HN ES       1555 33.35                             122    0.05 9  203 291 
 ZAR  HZ I        1555 38.33        22.1 0.10            123            203 291 
 NOR  HZ EP       1555 11.88                             118    0.10 8  236 234 
 NOR  HE ES       1555 39.45                             118   -0.23 8  236 234 
 NOR  HZ I        1555 43.19        13.9 0.16            119            236 234 
 SML  HZ EP       1555 12.11                             117   -0.15 8  241 335 
 SML  HN ES       1555 39.59                             117   -0.94 8  241 335 
 SML  HZ I        1555 43.63        31.6 0.10            119            241 335 
 CHI  HZ EP       1555 13.95                             116    0.05 8  251 195 
 CHI  HN ES       1555 43.49                             116    0.04 8  251 195 
 CHI  HZ I        1555 47.63         8.3 0.44            118            251 195 
 HEL  HZ EP   4   1555 17.70                             114    1.53 0  272 255 
 HEL  HN ES       1555 48.22                             114    0.73 8  272 255 
 HEL  HZ I        1555 53.79        11.3 0.70            115            272 255 
 URE  HZ EP   4   1555 19.56                             113    2.72 0  282 291 
 URE  HE ES   4   1555 46.35                             113   -2.33 0  282 291 
 URE  HZ I        1555 47.38        17.2 0.12            114            282 291 
 GUY2CHZ EP       1555 20.58                             112    0.89 7  302 234 
 GUY2CHN ES       1555 53.83                             112    0.09 7  302 234 
 GUY2CHZ I        1556  3.40        10.7 0.64                           302 234 
 RREF HZ EP   2   1555 22.44                             110    0.19 3  323 229 
 PRA  HZ EP   2   1555 28.97                             106   -0.77 3  394 209 
 SJC  HZ EP   4   1555 29.50                             105   -1.73 0  407 327 
 SJC  HN ES   4   1556 10.91                             105   -3.37 0  407 327 
 SJC  HZ I        1556 13.89         4.0 0.36            107            407 327 
                                                                                
