 2010 1012 1609  9.8 L   6.824 -73.102144.0  RSN  9 0.4 2.1LRSN                1
 GAP=139        0.79       5.4     6.3  9.8 -0.1778E+02 -0.2081E+02  0.3384E+02E
 Epicentro: LOS SANTOS - SANTANDER                                             3
 ACTION:UP  11-02-18 11:09 OP:tino STATUS:               ID:20101012160909 L   I
 2010-10-12-1606-16S.COL___124                                                 6
 STAT SP IPHASW D HRMM SECON CODA AMPLIT PERI AZIMU VELO SNR AR TRES W  DIS CAZ7
 BAR2 SZ EP       16 9 29.20                             169    -0.110   27 199 
 BRR  HZ EP       16 9 30.96                             151     0.010   74 295 
 BRR  HN ES   1   16 9 48.02                             151     0.5 7   74 295 
 BRR  HZ I        16 9 50.36        30.1 0.11                            74 295 
 GUE  SZ EP       16 9 34.15                             140     0.010  113  10 
 GRA  SZ EP       16 9 34.86                             138     0.310  122  16 
 GRA  SZ ES   1   16 9 53.30                             138    -0.6 7  122  16 
 GRA  SZ I        16 9 55.61        11.5 0.51                           122  16 
 OCA  SZ ES   3   16 9 59.70                             130     0.0 2  158 351 
 YOP  SZ EP       16 9 39.96                             126     0.2 9  179 155 
 NOR  SZ EP       16 9 45.66                             118    -0.4 8  240 235 
 NOR  SE ES   2   1610 13.34                             118    -1.0 4  240 235 
 RREF HZ EP   2   16 9 56.84                             110     0.3 3  327 230 
 RREF HN ES   2   1610 34.01                             110     1.1 3  327 230 
 RREF HZ I        1610 39.97         5.2 0.18                           327 230 
 PRA  HZ EP       1610  4.06                             106     0.2 6  397 210 
 PRA  HE ES   2   1610 45.26                             106    -0.7 3  397 210 
                                                                                
