 2013  312 1759 14.8 L   6.805 -73.051142.2  RSN  6 0.4 2.0LRSN                1
 GAP=149        0.78       5.5     6.0  7.5  0.2900E+01  0.1142E+02  0.6200E+00E
 Epicentro: LOS SANTOS - SANTANDER                                             3
 ACTION:UPD 13-04-09 14:02 OP:ep   STATUS:               ID:20130312175914 L   I
 2013-03-12-1754-49M.COL___204                                                 6
 STAT SP IPHASW D HRMM SECON CODA AMPLIT PERI AZIMU VELO AIN AR TRES W  DIS CAZ7
 BAR2 SZ EP       1759 34.26                             168    0.1310 27.7 212 
 BAR2 SZ ES   1   1759 49.63                             168    0.44 7 27.7 212 
 BAR2 SZ I        1759 51.39        20.7 0.40            166           27.7 212 
 PAM  SN ES   1   1759 52.45                             152   -0.55 7 70.7  33 
 PAM  SN I        1759 55.47        12.4 0.29            134           70.7  33 
 BRR  HZ IP     C 1759 36.16                             149    0.0110 80.3 295 
 BRR  HN ES   1   1759 53.25                             149    0.47 7 80.3 295 
 BRR  HN I        1759 57.90        31.4 0.22            130           80.3 295 
 RUS  HZ EP   1   1759 38.36                             143    0.10 7  101 182 
 RUS  HE ES   1   1759 56.34                             143   -0.20 7  101 182 
 RUS  HE I        1759 58.99        15.6 0.50            131            101 182 
 PTB  HZ EP   4   1759 41.04                             129   -1.44 0  158 259 
 PTB  HE ES   1   18 0  3.30                             129   -0.75 7  158 259 
 PTB  HZ I        18 0  4.56         6.8 0.16            114            158 259 
 ZAR  HZ EP   1   1759 48.23                             120    0.19 6  214 291 
 ZAR  HZ I        18 0 19.41        11.2 0.29            106            214 291 
                                                                                
