 2017  512 1114 53.6 L   6.803 -73.173142.0  RSN 19 0.5 2.6LRSN                1
 GAP=109        1.07       3.1     3.6  5.7  0.1996E+01  0.3848E+01  0.2467E+01E
 Epicentro: LOS SANTOS - SANTANDER                                             3
 ACTION:UPD 17-06-16 13:35 OP:jn   STATUS:               ID:20170512111453 L   I
 OLDACT:UP  17-05-12 21:29 OP:lv   STATUS:               ID:20170512110739     3
 OLDACT:REG 17-05-12 20:24 OP:lv   STATUS:               ID:20170512110739     3
 2017-05-12-1108-00M.COL___365                                                 6
 STAT SP IPHASW D HRMM SECON CODA AMPLIT PERI AZIMU VELO AIN AR TRES W  DIS CAZ7
 BRR  HZ IP     C 1115 14.34                             153    0.1510 68.4 300 
 BRR  HN ES       1115 30.87                             153    0.6210 68.4 300 
 PAM  EZ IP     C 1115 15.39                             150   -0.1410 79.1  41 
 PAM  EN ES       1115 32.66                             150    0.0310 79.1  41 
 PAM  EZ I        1115 35.08        42.0 0.46            148           79.1  41 
 RUS  HZ EP       1115 16.96                             143   -0.0710  101 174 
 RUS  HE ES       1115 35.43                             143    0.1310  101 174 
 RUS  HZ I        1115 36.23        34.4 0.36            139            101 174 
 PTB  HZ EP       1115 19.36                             132   -0.64 9  145 258 
 PTB  HN ES       1115 40.18                             132   -0.41 9  145 258 
 PTB  HZ I        1115 45.93        54.4 0.19            125            145 258 
 SPBC HZ EP       1115 21.66                             129    0.00 9  162 218 
 SPBC HN ES       1115 43.37                             129   -0.17 9  162 218 
 SPBC HZ I        1115 45.39        64.4 0.14            123            162 218 
 YPLC HZ IP     D 1115 23.00                             126   -0.30 9  179 151 
 YPLC HN ES       1115 46.85                             126    0.39 9  179 151 
 YPLC HZ I        1115 49.71        31.4 0.17            122            179 151 
 ZAR  HZ EP       1115 25.07                             122   -0.44 9  201 292 
 ZAR  HN ES       1115 50.09                             122   -0.30 9  201 292 
 ZAR  HZ I        1115 57.32        59.6 0.39            116            201 292 
 TABC EZ EP   4   1115 30.16                             119    1.16 0  229 210 
 TABC EZ ES   4   1116  0.55                             119    3.95 0  229 210 
 TABC EZ I        1116  1.68        38.4 0.24            114            229 210 
 NOR  HZ EP   2   1115 29.52                             118    0.65 4  232 234 
 NOR  HN ES   2   1115 55.60                             118   -0.78 4  232 234 
 NOR  HZ I        1116  3.06        19.8 0.33            113            232 234 
 CHI  HZ EP       1115 30.88                             117   -0.16 8  248 194 
 CHI  HN ES       1115 59.98                             117   -0.26 8  248 194 
 CHI  HZ I        1116  3.96        22.0 0.92            112            248 194 
 ROSC BZ EP   9   1115 32.68                             116    1.30 0  251 210 
 ROSC BN ES       1116  2.48                                    0.34 8  251 210 
 ROSC BZ I        1116  7.36        41.0 0.32            111            251 210 
 HEL  HZ EP       1115 35.29                             114    1.98 8  269 256 
 HEL  HZ I        1116 11.78        12.4 0.19            109            269 256 
 VIL  EZ EP       1115 36.42                             111   -0.40 7  303 191 
 VIL  EN ES       1116 10.54                             111    0.02 7  303 191 
 VIL  EZ I        1116 13.39        38.8 0.14            107            303 191 
 PTGC HZ EP   4   1115 35.64                             111   -1.81 0  310 158 
 PTGC HN ES   4   1116  9.36                             111   -2.29 0  310 158 
 CBOC HZ EP   2   1115 40.62                             110    0.57 3  331 252 
 CBOC HN ES   2   1116 16.86                             110    0.59 3  331 252 
 DBB  EZ EP   1   1115 40.63                             109    0.05 5  336 274 
 DBB  EN ES   4   1116 15.87                             109   -1.35 0  336 274 
 DBB  EZ I        1116 21.73        12.1 0.44            105            336 274 
 ANIL HN ES   4   1116 23.77                             108    2.16 0  355 224 
 ARGC HZ EP       1115 42.58                             108   -0.39 6  358 341 
 ARGC HN ES   4   1116 22.68                             108    1.20 0  358 341 
 ARGC HZ I        1116 29.32        13.5 0.40            104            358 341 
 ORTC HZ EP   1   1115 47.72                             106    0.50 4  394 216 
 ORTC HN ES   4   1116 27.89                             106   -1.14 0  394 216 
 ORTC HZ I        1116 36.19        12.2 0.06            102            394 216 
 APAC HN ES       1116 29.42                             106    0.20 6  395 288 
 APAC HZ I        1116 35.01         9.1 0.62            102            395 288 
 SJC  HZ EP   4   1115 46.68                             105   -2.14 0  407 327 
 SJC  HN ES   4   1116 27.90                             105   -3.99 0  407 327 
 SMAR HZ EP   4   1115 58.12                             102   -1.14 0  496 347 
 SMAR HN ES   4   1116 46.54                             102   -3.94 0  496 347 
 CAP2 HZ EP   4   1115 58.06                             102   -2.27 0  505 294 
 CAP2 HN ES   4   1116 46.29                             102   -6.09 0  505 294 
 CAP2 HZ I        1116 55.75         3.7 0.16             98            505 294 
 URI  HZ EP   4   1116  3.37                             100   -3.21 0  557  13 
 URI  HN ES   4   1116 59.31                             100   -4.18 0  557  13 
                                                                                
