 2015  512 1516 11.7 L   6.659 -73.302112.6  RSN  6 0.4 2.1LRSN                1
 GAP=161        1.04       4.4     5.6  9.5  0.7209E+01  0.2486E+02  0.8810E+01E
 Epicentro: GALAN - SANTANDER                                                  3
 ACTION:UPD 15-09-10 22:03 OP:cam  STATUS:               ID:20150512151611 L   I
 OLDACT:UP  15-05-13 01:34 OP:drio STATUS:               ID:20150512150751d    3
 OLDACT:UP  15-05-13 00:03 OP:drio STATUS:               ID:20150512150751d    3
 OLDACT:UP  15-05-13 00:01 OP:drio STATUS:               ID:20150512150751d    3
 OLDACT:DUP 15-05-12 23:50 OP:drio STATUS:               ID:20150512150751d    3
 OLDACT:UP  15-05-12 23:49 OP:drio STATUS:               ID:20150512150749     3
 OLDACT:UP  15-05-12 23:43 OP:drio STATUS:               ID:20150512150749     3
 OLDACT:UP  15-05-12 23:43 OP:drio STATUS:               ID:20150512150749     3
 OLDACT:REG 15-05-12 21:22 OP:drio STATUS:               ID:20150512150749     3
 2015-05-12-1507-49M.COL___282                                                 6
 STAT SP IPHASW D HRMM SECON CODA AMPLIT PERI AZIMU VELO AIN AR TRES W  DIS CAZ7
 BAR2 EZ EP       1516 27.14                             172   -0.0910 15.2 119 
 BAR2 EZ ES       1516 39.19                             172   -0.1110 15.2 119 
 BAR2 EZ I        1516 40.41        45.3 0.20            172           15.2 119 
 BRR  HZ EP       1516 29.58                             147    0.4310 67.1 318 
 BRR  HN ES       1516 42.95                             147    0.2310 67.1 318 
 RUS  HZ EP       1516 31.16                             140   -0.2210 88.1 164 
 RUS  HN ES       1516 46.89                             140    0.2010 88.1 164 
 SPBC HN ES       1516 53.53                             125   -0.62 9  140 217 
 ZAR  HN ES       1517  3.71                             115   -0.59 9  195 298 
 NOR  HN ES       1517  8.45                             113    0.78 8  212 235 
                                                                                
