 2017  512 1806 31.4 L   6.791 -73.191142.2  RSN  6 0.3 1.6LRSN                1
 GAP=108        0.85       4.4     3.9  6.7 -0.2618E+00 -0.3687E+01  0.9148E+01E
 Epicentro: ZAPATOCA - SANTANDER                                               3
 ACTION:UPD 17-06-16 13:35 OP:jn   STATUS:               ID:20170512180631 L   I
 OLDACT:DUP 17-05-12 23:31 OP:lv   STATUS:               ID:20170512175747d    3
 2017-05-12-1758-00M.COL___368                                                 6
 STAT SP IPHASW D HRMM SECON CODA AMPLIT PERI AZIMU VELO AIN AR TRES W  DIS CAZ7
 BRR  HZ EP       18 6 52.58                             153    0.6310 67.3 301 
 BRR  HN ES       18 7  7.72                             153   -0.2610 67.3 301 
 BRR  HZ I        18 7 10.89        10.1 0.07            151           67.3 301 
 PAM  EZ EP       18 6 53.52                             149    0.0310 81.4  42 
 PAM  EN ES       18 7 10.61                             149   -0.1110 81.4  42 
 PAM  EZ I        18 7 14.29         2.2 0.27            150           81.4  42 
 RUS  HZ EP       18 6 54.93                             143    0.1610  100 173 
 RUS  HN ES       18 7 13.08                             143    0.0810  100 173 
 RUS  HZ I        18 7 14.46         4.4 0.24            146            100 173 
 PTB  HZ EP       18 6 57.03                             132   -0.59 9  143 259 
 PTB  HN ES       18 7 18.24                             132    0.18 9  143 259 
 PTB  HZ I        18 7 20.79         3.9 0.14            132            143 259 
 YPLC HZ EP       18 7  0.89                             125   -0.21 9  178 150 
 YPLC HN ES   4   18 7 22.20                             125   -2.07 0  178 150 
 YPLC HZ I        18 7 24.97         5.5 0.55            128            178 150 
 ZAR  HN EP   9   18 7  5.25                             122    2.08 0  200 293 
 ZAR  HE ES       18 7 29.65                                   -0.38 9  200 293 
 ZAR  HN I        18 7 35.58        10.9 0.12            122            200 293 
                                                                                
