 2014  912 1137 54.6 L   6.781 -73.178145.2  RSN  5 0.2 1.3LRSN                1
 GAP=133        0.46       3.5     2.8  4.1  0.8525E+00  0.4157E+00 -0.3780E+01E
 Epicentro: LOS SANTOS - SANTANDER                                             3
 ACTION:UPD 14-10-03 23:04 OP:nd   STATUS:               ID:20140912113754 L   I
 OLDACT:DUP 14-09-12 21:13 OP:stll STATUS:               ID:20140912112820d    3
 2014-09-12-1128-19M.COL___296                                                 6
 STAT SP IPHASW D HRMM SECON CODA AMPLIT PERI AZIMU VELO AIN AR TRES W  DIS CAZ7
 BAR2 SZ ES       1138 29.34                             172   -0.0110 20.9 181 
 BAR2 SZ I        1138 30.68        12.4 0.48            171           20.9 181 
 BRR  HN ES   2   1138 31.61                             153   -0.34 5 69.1 301 
 PAM  SZ EP       1138 17.18                             149    0.1710 81.3  41 
 PAM  SZ I        1138 17.39         4.4 0.22            152           81.3  41 
 RUS  HZ EP       1138 17.92                             144   -0.2710 98.8 174 
 RUS  HN ES       1138 36.67                             144    0.1010 98.8 174 
 RUS  HZ I        1138 38.08         1.7 0.30            145           98.8 174 
 PTB  HZ EP       1138 21.21                             133    0.02 9  144 259 
 PTB  HE ES       1138 42.00                             133    0.09 9  144 259 
 PTB  HZ I        1138 45.19         1.7 0.38            133            144 259 
                                                                                
