 2015  912 1544 10.0 L   6.822 -73.152146.0  RSN  7 0.4 2.0LRSN                1
 GAP=201        1.10       4.6     6.4  7.3  0.5963E+01  0.4002E+00 -0.5166E+01E
 Epicentro: LOS SANTOS - SANTANDER                                             3
 ACTION:UPD 15-10-28 16:25 OP:cam  STATUS:               ID:20150912154410 L   I
 OLDACT:REG 15-09-12 21:59 OP:stll STATUS:               ID:20150912153749     3
 2015-09-12-1537-49M.COL___332                                                 6
 STAT SP IPHASW D HRMM SECON CODA AMPLIT PERI AZIMU VELO AIN AR TRES W  DIS CAZ7
 BAR2 EZ EP       1544 29.71                             170    0.0510 25.7 187 
 BAR2 EZ ES       1544 44.80                             170   -0.2310 25.7 187 
 BAR2 EZ I        1544 47.72        14.1 0.28            164           25.7 187 
 BRR  HZ EP       1544 31.72                             153    0.6910 69.4 297 
 BRR  HN ES       1544 47.79                             153    0.3310 69.4 297 
 BRR  HZ I        1544 52.15        20.6 0.30            157           69.4 297 
 RUS  HZ EP       1544 33.96                             143    0.0510  103 176 
 RUS  HZ I        1544 55.13         6.5 0.28            139            103 176 
 PTB  HZ EP       1544 36.59                             132   -0.34 9  148 258 
 PTB  HN ES       1544 57.15                             132   -0.81 9  148 258 
 PTB  HZ I        1545  4.79        14.2 0.36            132            148 258 
 SPBC HZ EP       1544 38.65                             129    0.03 9  165 218 
 SPBC HZ I        1544 40.80        14.0 0.20            127            165 218 
 SPBC HN ES       1545  0.99                             129    0.02 9  165 218 
 ZAR  HZ EP       1544 42.83                             123    0.57 9  202 292 
 ZAR  HN ES       1545  7.93                             123    0.48 9  202 292 
 ZAR  HZ I        1545 13.69        11.3 0.36            124            202 292 
 SML  HZ EP       1544 45.55                             118   -0.77 8  241 335 
 SML  HN ES       1545 14.36                             118   -0.32 8  241 335 
                                                                                
