 2013  112 1153 53.2 L   6.739 -73.188143.8  RSN  6 0.3 1.7LRSN                1
 GAP=228        0.84       6.0     5.8  6.1  0.2207E+02  0.8012E+01  0.7658E+01E
 Epicentro: VILLANUEVA - SANTANDER                                             3
 ACTION:UPD 13-02-15 09:13 OP:ep   STATUS:               ID:20130112115353 L   I
 2013-01-12-1148-49M.COL___186                                                 6
 STAT SP IPHASW D HRMM SECON CODA AMPLIT PERI AZIMU VELO AIN AR TRES W  DIS CAZ7
 BAR2 SZ EP       1154 12.24                             173   -0.2810 16.2 178 
 BAR2 SZ ES       1154 27.72                             173    0.1710 16.2 178 
 BAR2 SZ I        1154 28.24        10.7 0.26            175           16.2 178 
 BRR  HZ EP       1154 14.41                             152    0.2510 70.8 305 
 BRR  HN ES       1154 30.23                             152   -0.2410 70.8 305 
 BRR  HN I        1154 35.77        15.9 0.18            150           70.8 305 
 RUS  HZ EP       1154 16.14                             145   -0.2210 94.3 173 
 RUS  HN ES       1154 34.65                             145    0.2610 94.3 173 
 RUS  HN I        1154 36.17         6.3 0.32            149           94.3 173 
 PTB  HZ EP       1154 19.11                             133   -0.42 9  142 261 
 PTB  HZ I        1154 20.21         4.4 0.18            133            142 261 
 PTB  HN ES       1154 39.72                             133   -0.31 9  142 261 
 ZAR  HN ES       1154 51.09                             122    0.62 9  202 294 
 ZAR  HN I        1154 57.70         4.9 0.30            123            202 294 
 CHI  HZ EP       1154 30.38                             118    0.38 8  241 195 
                                                                                
