 2016 1112 1747 17.1 L   6.767 -73.113146.5  RSN 11 0.4 2.2LRSN                1
 GAP=160        0.93       4.9     4.2  6.2 -0.4648E+01  0.3313E+01  0.1403E+02E
 Epicentro: LOS SANTOS - SANTANDER                                             3
 ACTION:UPD 17-10-26 21:07 OP:lp   STATUS:               ID:20161112174717 L   I
 OLDACT:UP  16-11-13 01:14 OP:dnl  STATUS:               ID:20161112173747     3
 OLDACT:REG 16-11-12 21:25 OP:dnl  STATUS:               ID:20161112173747     3
 2016-11-12-1738-00M.COL___340                                                 6
 STAT SP IPHASW D HRMM SECON CODA AMPLIT PERI AZIMU VELO AIN AR TRES W  DIS CAZ7
 BAR2 EZ EP     D 1747 36.79                             172   -0.0010 20.8 202 
 BAR2 EZ ES       1747 51.55                             172   -0.5810 20.8 202 
 BAR2 EZ I        1747 53.44        34.5 0.42            164           20.8 202 
 BRR  HZ EP       1747 38.77                             151    0.1310 76.2 300 
 BRR  HN ES       1747 56.14                             151    0.7310 76.2 300 
 BRR  HZ I        1747 58.26        26.8 0.28            150           76.2 300 
 PAM  EZ EP       1747 39.66                             151    0.2110 78.0  36 
 PAM  EN ES       1747 56.82                             151   -0.0510 78.0  36 
 PAM  EZ I        1747 58.14        10.0 0.18            161           78.0  36 
 PTB  HZ EP       1747 43.82                             131   -0.60 9  151 260 
 PTB  HE ES       1748  5.61                             131   -0.10 9  151 260 
 PTB  HZ I        1748 12.22        29.4 0.46            131            151 260 
 ZAR  HZ EP   2   1747 49.37                             122   -0.74 4  209 293 
 ZAR  HE ES       1748 15.78                             122   -0.06 8  209 293 
 ZAR  HZ I        1748 21.21        22.7 0.36            123            209 293 
 NOR  HZ EP       1747 52.89                             118   -0.11 8  236 236 
 NOR  HN ES       1748 20.80                             118   -0.17 8  236 236 
 NOR  HZ I        1748 24.53        16.1 0.22            119            236 236 
 CHI  HZ EP       1747 54.90                             117    0.31 8  246 196 
 CHI  HN ES   4   1748 25.73                             117    1.91 0  246 196 
 CHI  HZ I        1748 29.46         5.4 0.68            118            246 196 
 LL6C HZ EP   4   1747 41.91                             110   -21.4 0  329 357 
 LL6C HN ES   4   1748 17.47                             110   -21.8 0  329 357 
 LL6C HZ I        1748 29.70         2.8 0.40            114            329 357 
 ELA  HZ EP   4   1748  5.04                             110    0.98 0  330 230 
 ELA  HN ES   4   1748 37.71                             110   -2.96 0  330 230 
 ELA  HZ I        1748 56.59         8.3 0.56            111            330 230 
 PRA  HZ EP       1748 10.57                             107    0.05 6  391 210 
 PRA  HN ES       1748 53.07                             107    0.91 6  391 210 
 PRA  HZ I        1748 57.59         6.3 0.66            108            391 210 
 SJC  HZ EP   4   1748 11.05                             105   -2.25 0  414 327 
 SJC  HN ES   4   1748 52.20                             105   -4.92 0  414 327 
 SJC  HZ I        1748 59.87         3.6 0.42            108            414 327 
                                                                                
