 2014 1212 1615 38.5 L   6.811 -73.179136.5  RSN  4 0.2 1.7LRSN                1
 GAP=144        0.51       3.0     2.9  4.3 -0.2730E+01  0.3659E+01 -0.1229E+01E
 Epicentro: ZAPATOCA - SANTANDER                                               3
 ACTION:UPD 15-02-10 17:03 OP:nd   STATUS:               ID:20141212161538 L   I
 OLDACT:REG 14-12-12 20:43 OP:stll STATUS:               ID:20141212160744     3
 2014-12-12-1607-44M.COL___294                                                 6
 STAT SP IPHASW D HRMM SECON CODA AMPLIT PERI AZIMU VELO AIN AR TRES W  DIS CAZ7
 BAR2 EZ EP       1615 56.99                             169   -0.0510 24.2 181 
 BAR2 EZ ES       1616 11.25                             169   -0.2510 24.2 181 
 PAM  SZ EP       1616  0.01                             148    0.1710 78.9  42 
 PAM  SN ES       1616 16.52                             148    0.0410 78.9  42 
 PAM  SZ I        1616 18.91        13.7 0.58            150           78.9  42 
 RUS  HZ EP       1616  1.44                             141   -0.0310  102 174 
 RUS  HN ES       1616 19.55                             141    0.1610  102 174 
 RUS  HZ I        1616 20.34         4.6 0.26            144            102 174 
 PTB  HZ EP       1616  4.15                             130   -0.27 9  144 258 
 PTB  HN ES       1616 24.86                             130    0.23 9  144 258 
 PTB  HZ I        1616 26.90         7.5 0.12            132            144 258 
                                                                                
