 2010  412 1137  2.1 L   6.756 -72.997143.3  RSN  8 0.4 2.5LRSN                1
 GAP=151        0.89       5.7     7.5  8.2 -0.1602E+02 -0.1197E+02  0.2373E+02E
 Epicentro: CEPITA - SANTANDER                                                 3
 ACTION:UPD 10-08-24 09:58 OP:vdl  STATUS:               ID:20100412113702 L   I
 2010-04-12-1132-18S.COL___099                                                 6
 STAT SP IPHASW D HRMM SECON CODA AMPLIT PERI AZIMU VELO AIN AR TRES W  DIS CAZ7
 BAR2 SZ IP       1137 21.35                             169    -0.110   28 229 
 BAR2 SZ ES   2   1137 36.85                             169     0.2 5   28 229 
 BRR  HZ IP     C 1137 23.72                             147    -0.310   88 296 
 BRR  HZ I        1137 23.96        90.3 0.03                            88 296 
 BRR  HN ES       1137 41.25                             147     0.210   88 296 
 CHI  HZ EP   1   1137 39.54                             117    -0.1 6  249 199 
 CHI  HN ES   1   1138  8.81                             117    -0.2 6  249 199 
 CHI  HZ I        1138 18.30         7.9 0.84                           249 199 
 HEL  HZ EP       1137 43.22                             113    -0.6 7  287 258 
 HEL  HZ I        1138 21.63        17.0 0.61                           287 258 
 RREF HZ EP       1137 50.11                             110     0.9 7  331 232 
 RREF HN ES       1138 26.34                             110     0.4 7  331 232 
 RREF HZ I        1138 28.85        15.8 0.30                           331 232 
 SDV  BZ EP   1   1137 51.50                             108     0.6 5  351  48 
 SDV  BZ I        1137 51.92        10.4 0.13                           351  48 
 TOL  SZ ES   2   1138 29.10                             108    -0.4 3  352 227 
 PRA  HN ES       1138 37.89                             106    -0.2 6  396 212 
 PRA  HZ I        1138 40.43         9.7 0.31                           396 212 
                                                                                
