 2016 1012 1313 10.0 L   6.760 -73.095153.7  RSN  9 0.3 1.7LRSN                1
 GAP=145        0.89       3.7     4.0  5.2 -0.2236E+01  0.4002E+01  0.9868E+00E
 Epicentro: LOS SANTOS - SANTANDER                                             3
 ACTION:UPD 16-11-09 19:18 OP:rebc STATUS:               ID:20161012131310 L   I
 OLDACT:UP  16-10-12 22:33 OP:edw  STATUS:               ID:20161012130741d    3
 OLDACT:UP  16-10-12 22:31 OP:edw  STATUS:               ID:20161012130741d    3
 OLDACT:UP  16-10-12 22:31 OP:edw  STATUS:               ID:20161012130741d    3
 OLDACT:UP  16-10-12 22:30 OP:edw  STATUS:               ID:20161012130741d    3
 OLDACT:UP  16-10-12 22:30 OP:edw  STATUS:               ID:20161012130741d    3
 OLDACT:DUP 16-10-12 22:26 OP:edw  STATUS:               ID:20161012130741d    3
 OLDACT:UP  16-10-12 22:25 OP:edw  STATUS:               ID:20161012130740     3
 OLDACT:UP  16-10-12 22:19 OP:edw  STATUS:               ID:20161012130740     3
 OLDACT:REG 16-10-12 19:57 OP:edw  STATUS:               ID:20161012130740     3
 2016-10-12-1308-00M.COL___366                                                 6
 STAT SP IPHASW D HRMM SECON CODA AMPLIT PERI AZIMU VELO AIN AR TRES W  DIS CAZ7
 BAR2 EZ EP       1313 30.53                             172   -0.0610 20.9 207 
 BAR2 EZ ES       1313 46.29                             172   -0.3110 20.9 207 
 PAM  EZ EP       1313 32.90                             152   -0.2210 77.5  34 
 PAM  EN ES       1313 50.82                             152   -0.2910 77.5  34 
 PAM  EZ I        1313 52.78         5.7 0.60            155           77.5  34 
 BRR  HZ EP       1313 32.47                             151    0.0210 78.2 299 
 BRR  HN ES       1313 50.49                             151    0.5710 78.2 299 
 RUS  HZ EP       1313 34.69                             146    0.4210 96.0 179 
 RUS  HN ES       1313 53.35                             146    0.1910 96.0 179 
 RUS  HZ I        1313 55.51         3.4 0.48            147           96.0 179 
 PTB  HZ EP   9   1313 37.21                             132   -0.88 0  152 261 
 PTB  HN ES       1313 58.25                             132   -0.83 9  152 261 
 PTB  HZ I        1314  0.41         6.1 0.36            132            152 261 
 SPBC HZ EP       1313 39.37                             130    0.18 9  163 221 
 SPBC HN ES       1314  1.53                             130   -0.38 9  163 221 
 SPBC HZ I        1314  7.96         7.7 0.22            130            163 221 
 ZAR  HZ EP       1313 43.54                             123   -0.17 8  211 293 
 ZAR  HN ES       1314 10.12                             123    0.15 8  211 293 
 ZAR  HZ I        1314 15.14         5.2 0.48            123            211 293 
 NOR  HZ EP       1313 46.48                             120    0.01 8  237 236 
 NOR  HE ES       1314 14.65                             120   -0.22 8  237 236 
 NOR  HZ I        1314 17.98         5.1 0.16            120            237 236 
 GUY2CHZ EP   4   1313 56.92                             113    2.65 0  303 236 
 GUY2CHN ES   4   1314 32.75                             113    3.99 0  303 236 
 GUY2CHZ I        1314 35.23         2.7 0.32                           303 236 
 SJC  HZ EP   4   1314  3.95                             106   -2.72 0  416 327 
 SJC  HN ES   4   1314 45.79                             106   -5.04 0  416 327 
                                                                                
