 2012  712 1417 30.6 L   6.824 -73.165140.1  RSN  5 0.3 1.4LRSN                1
 GAP=133        0.96       5.8     5.7  7.5 -0.6183E+01  0.8533E+01  0.2489E+01E
 Epicentro: LOS SANTOS - SANTANDER                                             3
 ACTION:UPD 12-08-14 11:44 OP:ep   STATUS:               ID:20120712141730 L   I
 2012-07-12-1410-00M.COL___194                                                 6
 STAT SP IPHASW D HRMM SECON CODA AMPLIT PERI AZIMU VELO AIN AR TRES W  DIS CAZ7
 BAR2 SZ EP       1417 49.53                             169     0.010   26 184 
 BAR2 SZ ES       1418  4.54                             169     0.110   26 184 
 BAR2 SZ I        1418  6.00         7.5 0.22            171             26 184 
 BRR  HZ EP       1417 51.34                             153     0.410   68 297 
 BRR  HE ES   1   1418  7.11                             153     0.3 7   68 297 
 BRR  HZ I        1418 12.67         7.0 0.07            150             68 297 
 PAM  SZ EP       1417 52.48                             150     0.310   77  42 
 PAM  SN ES       1418  8.48                             150    -0.510   77  42 
 RUS  HZ EP       1417 54.15                             142     0.210  103 175 
 RUS  HN ES   1   1418 12.12                             142    -0.1 7  103 175 
 PTB  HZ EP       1417 56.32                             131    -0.6 9  146 258 
 PTB  HN ES   1   1418 17.43                             131    -0.1 7  146 258 
 PTB  HZ I        1418 19.19         2.1 0.33            132            146 258 
