 2015  812 1341 22.4 L   7.461 -73.229132.0  RSN 16 0.5 2.5LRSN                1
 GAP=110        1.06       2.9     4.0  6.0  0.9042E+00  0.1032E+02  0.1859E+01E
 Epicentro: EL PLAYON - SANTANDER                                              3
 ACTION:UPD 15-09-15 23:01 OP:cam  STATUS:               ID:20150812134122 L   I
 OLDACT:REG 15-08-12 21:55 OP:ar   STATUS:               ID:20150812133749     3
 2015-08-12-1337-49M.COL___317                                                 6
 STAT SP IPHASW D HRMM SECON CODA AMPLIT PERI AZIMU VELO AIN AR TRES W  DIS CAZ7
 PAM  EZ EP       1341 42.10                             154   -0.0210 60.0 103 
 PAM  EN ES       1341 57.39                             154   -0.1310 60.0 103 
 PAM  EZ I        1341 59.89        56.4 0.32            157           60.0 103 
 BRR  HZ IP     D 1341 41.82                             152    0.0810 66.1 234 
 BRR  HN ES       1341 57.06                             152    0.2010 66.1 234 
 BRR  HZ I        1341 57.70        83.3 0.14            148           66.1 234 
 OCA  HZ EP       1341 43.57                             144    0.2910 86.5 353 
 OCA  HN ES       1341 59.78                             144    0.1910 86.5 353 
 OCA  HZ I        1342  6.51       132.5 0.42            147           86.5 353 
 BAR2 EZ EP     C 1341 43.70                             142   -0.4110 96.2 177 
 BAR2 EZ ES       1342  0.32                             142   -0.7410 96.2 177 
 BAR2 EZ I        1342  1.23        83.8 0.16            140           96.2 177 
 RUS  HZ EP   9   1341 50.09                             124   -1.40 0  174 175 
 RUS  HE ES       1342 12.44                                   -0.36 9  174 175 
 SML  HZ EP       1341 50.52                             123   -0.37 9  175 328 
 SML  HN ES       1342 12.97                             123   -0.17 9  175 328 
 SML  HZ I        1342 13.69        76.2 0.10            124            175 328 
 ZAR  HZ EP       1341 51.74                             122    0.32 9  180 271 
 ZAR  HN ES       1342 14.79                             122    0.71 9  180 271 
 ZAR  HZ I        1342 18.42        53.3 0.30            122            180 271 
 SPBC HZ EP       1341 56.09                             117    0.23 8  221 205 
 SPBC HE ES       1342 22.60                             117    0.63 8  221 205 
 SPBC HZ I        1342 29.72        22.9 0.36            116            221 205 
 URE  HN ES       1342 28.65                             113   -0.13 8  256 277 
 URE  HZ I        1342 29.73        19.3 0.16            113            256 277 
 NOR  HZ EP       1342  2.31                             111    0.19 7  277 221 
 NOR  HN ES       1342 32.08                             111   -1.05 7  277 221 
 NOR  HZ I        1342 41.59        16.6 0.40            111            277 221 
 HEL  HN ES   4   1342 35.33                             110   -1.15 0  290 241 
 HEL  HZ I        1342 45.10        12.2 0.32            110            290 241 
 CHI  HZ EP   2   1342  7.22                             108   -0.02 3  318 190 
 CHI  HN ES       1342 43.18                             108    0.94 7  318 190 
 CHI  HZ I        1342 49.10         5.1 0.44            108            318 190 
 DBB  SZ EP       1342  8.62                             107    0.08 7  333 262 
 DBB  SZ ES       1342 43.74                             107   -0.82 7  333 262 
 GUY2CHZ EP   4   1342 12.31                             107    2.19 0  342 224 
 GUY2CHN ES   4   1342 44.05                             107   -3.31 0  342 224 
 GUY2CHZ I        1342 56.23         8.3 0.38                           342 224 
 TOL  SZ EP   4   1342 18.57                             104    2.60 0  393 216 
 TOL  SE ES   4   1343  0.75                             104    2.98 0  393 216 
 TOL  SZ I        1343 10.65         5.6 0.32            104            393 216 
 ANIL HE ES   4   1343  3.65                             103    3.05 0  407 216 
 ANIL HZ I        1343 13.06        17.9 0.34            103            407 216 
                                                                                
