 2016 1212 1342 49.6 L   6.759 -73.210149.8  RSN  4 0.5 1.5LRSN                1
 GAP=226        1.29      10.3     9.6 10.4  0.4813E+02  0.9614E+01  0.3497E+01E
 Epicentro: ZAPATOCA - SANTANDER                                               3
 ACTION:UPD 17-01-11 20:14 OP:rebc STATUS:               ID:20161212134249 L   I
 OLDACT:REG 16-12-12 20:44 OP:ar   STATUS:               ID:20161212133644     3
 2016-12-12-1337-00M.COL___370                                                 6
 STAT SP IPHASW D HRMM SECON CODA AMPLIT PERI AZIMU VELO AIN AR TRES W  DIS CAZ7
 BAR2 EZ EP       1343  9.56                             173   -0.0410 18.7 171 
 BAR2 EZ ES       1343 24.29                             173   -0.9310 18.7 171 
 BAR2 EZ I        1343 27.37         7.5 0.70            167           18.7 171 
 BRR  HZ EP       1343 10.86                             154   -0.1010 67.5 305 
 BRR  HE ES       1343 28.44                             154    0.8010 67.5 305 
 RUS  HZ EP       1343 13.70                             146    0.2410 96.8 172 
 RUS  HN ES       1343 32.57                             146    0.4810 96.8 172 
 RUS  HZ I        1343 32.92         4.9 0.26            145           96.8 172 
 PTB  HZ EP       1343 15.89                             135   -0.29 9  140 260 
 PTB  HN ES       1343 36.73                             135   -0.21 9  140 260 
 PTB  HZ I        1343 43.65         4.9 0.80            132            140 260 
                                                                                
