 2013  212 1307 25.2 L   6.822 -73.120151.8  RSN  5 0.4 1.6LRSN                1
 GAP=139        0.98       5.1     5.7  8.9 -0.3168E+01  0.7417E+00  0.1749E+02E
 Epicentro: LOS SANTOS - SANTANDER                                             3
 ACTION:UPD 13-03-12 09:32 OP:ep   STATUS:               ID:20130212130725 L   I
 2013-02-12-1300-00M.COL___240                                                 6
 STAT SP IPHASW D HRMM SECON CODA AMPLIT PERI AZIMU VELO AIN AR TRES W  DIS CAZ7
 BRR  HZ EP       13 7 47.32                             153    0.2810 72.6 296 
 BRR  HN ES       13 8  4.38                             153    0.2710 72.6 296 
 BRR  HN I        13 8  7.97        14.0 0.18            153           72.6 296 
 PAM  SZ EP   1   13 7 47.53                             153   -0.28 7 73.7  39 
 PAM  SN ES       13 8  5.66                             153    0.1810 73.7  39 
 RUS  HZ EP   1   13 7 48.71                             144   -0.96 7  103 178 
 RUS  HN ES       13 8  8.62                             144   -0.1710  103 178 
 RUS  HZ I        13 8  9.80         3.6 0.44            146            103 178 
 PTB  HN ES       13 8 14.14                             133   -0.43 9  151 258 
 CHI  HZ EP       13 8  4.02                             118    0.48 8  252 196 
 CHI  HN ES   1   13 8 34.09                             118    0.62 6  252 196 
 CHI  HN I        13 8 35.54         2.7 0.52            119            252 196 
                                                                                
