 2013  212 1955  2.9 L   6.758 -73.135156.9  RSN  4 0.2 1.8LRSN                1
 GAP=140        0.61       3.8     3.7  5.7  0.1323E+01 -0.2375E+01 -0.1532E+01E
 Epicentro: LOS SANTOS - SANTANDER                                             3
 ACTION:UPD 13-03-12 09:32 OP:ep   STATUS:               ID:20130212195502 L   I
 2013-02-12-1950-00M.COL___240                                                 6
 STAT SP IPHASW D HRMM SECON CODA AMPLIT PERI AZIMU VELO AIN AR TRES W  DIS CAZ7
 BRR  HZ EP       1955 25.43                             153   -0.0310 74.6 301 
 BRR  HN ES       1955 43.21                             153    0.1710 74.6 301 
 BRR  HN I        1955 47.24        14.9 0.20            152           74.6 301 
 PAM  SZ EP       1955 26.58                             152    0.0910 80.3  37 
 PAM  SN ES   2   1955 44.41                             152   -0.47 5 80.3  37 
 RUS  HZ EP       1955 27.78                             147    0.3210 95.9 177 
 RUS  HN ES       1955 46.45                             147   -0.1510 95.9 177 
 RUS  HN I        1955 46.91         6.6 0.34            150           95.9 177 
 PTB  HZ EP       1955 30.44                             134   -0.40 9  148 261 
 PTB  HN ES       1955 52.70                             134    0.07 9  148 261 
 PTB  HN I        1955 56.76         6.6 0.26            135            148 261 
                                                                                
