 2017  412 1634 10.7 L   6.795 -73.142139.1  RSN  9 0.4 1.8LRSN                1
 GAP=112        1.13       4.3     4.5  6.5  0.3679E+01  0.6582E+01  0.4901E+01E
 Epicentro: LOS SANTOS - SANTANDER                                             3
 ACTION:UPD 17-05-30 21:11 OP:jn   STATUS:               ID:20170412163410 L   I
 OLDACT:REG 17-04-12 20:56 OP:cog  STATUS:               ID:20170412162744     3
 2017-04-12-1628-00M.COL___359                                                 6
 STAT SP IPHASW D HRMM SECON CODA AMPLIT PERI AZIMU VELO AIN AR TRES W  DIS CAZ7
 BAR2 EZ EP       1634 29.39                             170   -0.1010 22.8 191 
 BAR2 EZ ES       1634 44.56                             170    0.4010 22.8 191 
 BAR2 EZ I        1634 45.39        12.7 0.12            169           22.8 191 
 BRR  HZ EP       1634 31.54                             151    0.4010 71.8 299 
 BRR  HN ES       1634 46.58                             151   -0.5210 71.8 299 
 BRR  HZ I        1634 52.44        18.1 0.28            151           71.8 299 
 PAM  EZ EP       1634 32.29                             149    0.1010 77.6  39 
 PAM  EE ES       1634 48.91                             149   -0.0710 77.6  39 
 PAM  EZ I        1634 51.12        20.0 0.60            153           77.6  39 
 RUS  HZ EP       1634 33.13                             142   -0.5910100.0 176 
 RUS  HN ES       1634 51.07                             142   -0.6310100.0 176 
 RUS  HZ I        1634 52.82         7.8 0.32            144          100.0 176 
 PTB  HZ EP   9   1634 36.47                             130   -0.65 0  148 259 
 PTB  HN ES       1634 56.54                             130   -0.56 9  148 259 
 PTB  HZ I        1635  2.26         9.6 0.32            131            148 259 
 YPLC HN ES       1635  3.59                             125    0.86 9  176 151 
 ZAR  HZ EP       1634 42.56                             120   -0.19 9  205 292 
 ZAR  HN ES       1635  8.36                             120    0.59 9  205 292 
 NOR  HZ EP       1634 46.03                             117    0.01 8  235 235 
 NOR  HN ES       1635 13.86                             117    0.28 8  235 235 
 NOR  HZ I        1635 15.40         5.4 0.12            118            235 235 
 CHI  HZ EP       1634 47.70                             115   -0.25 8  248 195 
 CHI  HN ES   4   1635 18.74                             115    1.70 0  248 195 
 CHI  HZ I        1635 23.56         2.3 0.38            117            248 195 
                                                                                
