 2012 1112 1323  9.6 L   6.756 -73.177150.9  RSN  7 0.5 1.8LRSN                1
 GAP=135        1.35       5.9     6.8  9.6  0.9327E+00  0.8736E+01 -0.6553E+01E
 Epicentro: VILLANUEVA - SANTANDER                                             3
 ACTION:UPD 12-12-05 15:32 OP:}ep  STATUS:               ID:20121112132309 L   I
 2012-11-12-1320-00M.COL___230                                                 6
 STAT SP IPHASW D HRMM SECON CODA AMPLIT PERI AZIMU VELO AIN AR TRES W  DIS CAZ7
 BAR2 SZ EP       1323 30.31                             173    0.6010 18.1 182 
 BAR2 SZ ES       1323 45.27                             173   -0.1710 18.1 182 
 BAR2 SZ I        1323 46.74        16.5 0.28                          18.1 182 
 GIR2 SZ EP       1323 30.04                             166    0.0710 35.8 357 
 BRR  HZ EP       1323 31.87                             153    0.6310 70.7 303 
 BRR  HN ES       1323 48.94                             153    0.7910 70.7 303 
 BRR  HN I        1323 49.68        22.6 0.16                          70.7 303 
 PAM  SZ EP       1323 32.81                             150    0.1310 83.4  39 
 PAM  SZ I        1323 33.04         7.9 0.42                          83.4  39 
 PAM  SN ES       1323 50.15                             150   -0.5610 83.4  39 
 RUS  HZ EP       1323 33.82                             146    0.3210 96.0 174 
 RUS  HN ES       1323 51.74                             146   -0.4410 96.0 174 
 RUS  HN I        1323 52.73         6.8 0.32                          96.0 174 
 PTB  HZ EP       1323 35.63                             134   -0.94 9  143 260 
 PTB  HE ES       1323 57.39                             134   -0.24 9  143 260 
 PTB  HN I        1324  3.30        11.0 0.36                           143 260 
 SML  HE ES       1324 15.31                             118   -0.54 8  247 337 
                                                                                
