 2015  112 1513 43.4 L   6.803 -73.147145.9  RSN 19 0.5 2.6LRSN                1
 GAP= 71        1.10       3.1     3.5  5.2 -0.5891E+00  0.3204E+01  0.1757E+01E
 Epicentro: LOS SANTOS - SANTANDER                                             3
 ACTION:UPD 15-03-02 15:39 OP:nd   STATUS:               ID:20150112151343 L   I
 OLDACT:UP  15-01-13 00:34 OP:mh   STATUS:               ID:20150112150748     3
 OLDACT:UP  15-01-13 00:33 OP:mh   STATUS:               ID:20150112150748     3
 OLDACT:UP  15-01-13 00:32 OP:mh   STATUS:               ID:20150112150748     3
 OLDACT:REG 15-01-12 20:34 OP:mh   STATUS:               ID:20150112150748     3
 2015-01-12-1507-48M.COL___259                                                 6
 STAT SP IPHASW D HRMM SECON CODA AMPLIT PERI AZIMU VELO AIN AR TRES W  DIS CAZ7
 BAR2 EZ EP       1514  3.17                             170    0.0910 23.6 189 
 BAR2 EZ ES       1514 17.68                             170   -0.7310 23.6 189 
 BAR2 EZ I        1514 20.49        72.5 0.30            168           23.6 189 
 BRR  HZ EP       1514  5.05                             153    0.4810 70.9 298 
 BRR  HN ES       1514 22.07                             153    1.0010 70.9 298 
 BRR  HZ I        1514 25.32        52.7 0.44            151           70.9 298 
 PAM  SZ EP       1514  5.73                             151    0.0910 77.2  40 
 PAM  SN ES       1514 23.24                             151    0.2610 77.2  40 
 PAM  SZ I        1514 24.96        63.3 0.54            156           77.2  40 
 RUS  HZ EP   1   1514  7.09                             144   -0.12 7  101 176 
 RUS  HN ES   1   1514 25.91                             144    0.14 7  101 176 
 RUS  HZ I        1514 26.41        39.9 0.26            144            101 176 
 PTB  HZ EP   9   1514  9.66                             132   -0.73 0  148 259 
 PTB  HN ES       1514 30.25                                   -0.45 9  148 259 
 PTB  HZ I        1514 36.63        43.7 0.28            131            148 259 
 TAM  HZ EP       1514 11.24                             130    0.11 9  155 105 
 TAM  HN ES       1514 32.50                             130   -0.25 9  155 105 
 TAM  HZ I        1514 33.65        17.2 0.58            134            155 105 
 OCA  HZ EP       1514 11.01                             130   -0.70 9  160 353 
 OCA  HN ES       1514 33.93                             130    0.15 9  160 353 
 OCA  HZ I        1514 39.69        51.8 0.24            132            160 353 
 SPBC HZ EP       1514 12.12                             129    0.17 9  163 219 
 SPBC HN ES       1514 33.55                             129   -0.64 9  163 219 
 ZAR  HZ EP       1514 15.81                             122   -0.04 9  204 292 
 ZAR  HN ES       1514 40.97                             122   -0.17 9  204 292 
 ZAR  HZ I        1514 47.35        58.9 0.38            122            204 292 
 NOR  HZ EP   1   1514 19.02                             118   -0.15 6  235 234 
 NOR  HN ES   1   1514 46.64                             118   -0.40 6  235 234 
 NOR  HZ I        1514 52.27        38.9 0.20            118            235 234 
 SML  HZ EP       1514 19.54                             117   -0.48 8  243 335 
 SML  HN ES   1   1514 47.72                             117   -0.84 6  243 335 
 ROSC BZ EP   4   1514 22.93                             117    1.36 0  253 211 
 ROSC BN ES   4   1514 53.28                             117    1.95 0  253 211 
 ROSC BZ I        1514 57.44        43.3 0.35            117            253 211 
 HEL  HZ EP       1514 23.69                             115    0.06 8  272 256 
 HEL  HN ES   4   1514 57.12                             115    2.12 0  272 256 
 HEL  HZ I        1515  2.19        27.2 0.30            115            272 256 
 URE  HZ EP   4   1514 22.99                             113   -1.48 0  284 292 
 URE  HN ES   4   1514 53.75                             113   -2.73 0  284 292 
 URE  HZ I        1515  1.39        23.3 0.32            114            284 292 
 VIL  SZ EP       1514 27.27                             112    0.39 7  304 192 
 VIL  SN ES   4   1515  1.80                             112    1.03 0  304 192 
 VIL  SZ I        1515 11.88        18.3 0.28            113            304 192 
 RREF HZ EP   4   1514 31.17                             111    1.59 0  322 229 
 RREF HE ES   4   1515  7.53                             111    1.95 0  322 229 
 RREF HZ I        1515 11.52        25.6 0.24            111            322 229 
 TOL  SZ EP       1514 32.95                             109    1.25 7  344 225 
 TOL  SN ES   4   1515 11.14                             109    1.79 0  344 225 
 MON  HZ EP   4   1514 30.08                             108   -2.31 0  353 308 
 MON  HN ES   4   1515  8.36                             108   -2.22 0  353 308 
 MON  HZ I        1515 10.27        10.1 0.46            109            353 308 
 ORTC HZ EP   1   1514 36.94                             106   -0.43 4  396 216 
 ORTC HN ES       1515 19.53                             106    0.09 6  396 216 
 ORTC HZ I        1515 23.94        10.1 0.52            107            396 216 
                                                                                
