 2016  912 1934 19.7 L   6.785 -73.169145.0  RSN  5 0.3 1.6LRSN                1
 GAP=234        0.71       6.4     5.6  6.9  0.1951E+02  0.2728E+01  0.8148E+01E
 Epicentro: LOS SANTOS - SANTANDER                                             3
 ACTION:UPD 17-08-17 21:09 OP:lp   STATUS:               ID:20160912193419 L   I
 OLDACT:DUP 16-09-12 22:28 OP:dnl  STATUS:               ID:20160912192746d    3
 2016-09-12-1928-00M.COL___309                                                 6
 STAT SP IPHASW D HRMM SECON CODA AMPLIT PERI AZIMU VELO AIN AR TRES W  DIS CAZ7
 BAR2 EZ EP       1934 38.97                             171   -0.1910 21.3 184 
 BAR2 EZ ES       1934 54.04                             171   -0.3310 21.3 184 
 BAR2 EZ I        1934 55.79        16.1 0.14            169           21.3 184 
 BRR  HN ES       1934 57.39                             153    0.3710 69.8 301 
 RUS  HZ EP       1934 43.22                             144   -0.0110 99.1 175 
 RUS  HN ES       1935  2.00                             144    0.3810 99.1 175 
 RUS  HZ I        1935  3.64         4.4 0.32            143           99.1 175 
 PTB  HZ EP   2   1934 46.21                             133   -0.10 5  145 259 
 PTB  HN ES       1935  6.83                             133   -0.27 9  145 259 
 PTB  HZ I        1935  9.84         3.0 0.14            131            145 259 
 ZAR  HZ EP   4   1934 53.57                             123    1.69 0  202 293 
 ZAR  HN ES   3   1935 17.93                             123    0.92 2  202 293 
 ZAR  HZ I        1935 20.24         3.6 0.26            122            202 293 
                                                                                
