 2011  512 1127 24.8 L   6.771 -73.049147.9  RSN  4 0.2 1.7LRSN                1
 GAP=242        0.43      11.1    10.5  5.9  0.8393E+02 -0.3159E+02 -0.3079E+02E
 Epicentro: LOS SANTOS - SANTANDER                                             3
 ACTION:UP  11-06-29 08:52 OP:tino STATUS:               ID:20110512112724 L   I
 2011-05-12-1125-36S.COL___129                                                 6
 STAT SP IPHASW D HRMM SECON CODA AMPLIT PERI AZIMU VELO SNR AR TRES W  DIS CAZ7
 BAR2 SZ EP       1127 44.71                             171     0.010   25 217 
 BAR2 SZ ES   1   1128  0.12                             171    -0.1 7   25 217 
 BAR2 SZ I        1128  1.22        10.1 0.23                            25 217 
 BTL  SZ EP       1127 44.98                             168     0.210   29 304 
 BTL  SZ ES   3   1127 59.82                             168    -0.6 2   29 304 
 GIR2 SZ IP       1127 44.87                             165     0.010   38 335 
 GIR2 SZ ES   3   1128  0.53                             165     0.0 2   38 335 
 BRR  HZ EP       1127 46.59                             150    -0.210   82 297 
 BRR  HZ I        1127 52.22        11.3 0.64                            82 297 
 BRR  HN ES   1   1128  4.12                             150     0.1 7   82 297 
                                                                                
