 2011  712 1716 18.9 L   6.748 -73.145150.7  RSN  4 0.1 1.4LRSN                1
 GAP=233        0.31       3.0     3.9  3.3  0.4455E+01  0.3701E+01  0.2213E+01E
 Epicentro: LOS SANTOS - SANTANDER                                             3
 ACTION:UPD 12-07-25 14:00 OP:epov STATUS:               ID:20110712171618 L   I
 2011-07-12-1714-21S.COL___142                                                 6
 STAT SP IPHASW D HRMM SECON CODA AMPLIT PERI AZIMU VELO AIN AR TRES W  DIS CAZ7
 BAR2 SZ EP   1   1716 39.04                             173   -0.03 7 17.7 194 
 BAR2 SZ I        1716 39.51         5.5 0.12                          17.7 194 
 BAR2 SZ ES   1   1716 54.64                             173   -0.13 7 17.7 194 
 BRR  HZ EP   1   1716 40.87                             152    0.07 7 74.2 302 
 BRR  HN ES   1   1716 57.89                             152    0.05 7 74.2 302 
 BRR  HZ I        1716 58.76         9.7 0.21                          74.2 302 
 RUS  HZ EP   1   1716 42.88                             146    0.09 7 94.8 176 
 RUS  HN ES   1   1717  1.43                             146    0.05 7 94.8 176 
 RUS  HZ I        1717  3.20         2.5 0.30                          94.8 176 
 NOR  SZ EP   1   1716 54.42                             120   -0.20 6  231 236 
 NOR  SN ES   2   1717 22.55                             120    0.10 4  231 236 
                                                                                
