 2012  812 1428 34.8 L   6.392 -73.708 13.5  RSN  7 0.4 1.8LRSN                1
 GAP=153        0.80       3.0     2.1  5.0  0.1397E+01  0.1177E+01 -0.3649E+01E
 Epicentro: SANTA HELENA DEL OPON - SANTANDER                                  3
 ACTION:UPD 12-09-10 11:56 OP:ep   STATUS:               ID:20120812142834 L   I
 2012-08-12-1427-59S.COL___217                                                 6
 STAT SP IPHASW D HRMM SECON CODA AMPLIT PERI AZIMU VELO AIN AR TRES W  DIS CAZ7
 BAR2 SZ EP   1   1428 45.19                             100    0.01 7 62.2  69 
 BAR2 SZ ES   1   1428 52.59                             100   -0.69 7 62.2  69 
 BAR2 SZ I        1428 54.34        77.9 0.37                          62.2  69 
 BRR  HZ EP   1   1428 47.65                              97    0.18 7 79.1 360 
 BRR  HN ES   1   1428 57.43                              97    0.08 7 79.1 360 
 BRR  HZ I        1429  2.69        23.9 0.14                          79.1 360 
 PTB  HZ EP   1   1428 48.18                              97   -0.11 7 84.4 281 
 PTB  HE ES   1   1428 58.29                              97   -0.51 7 84.4 281 
 PTB  HZ I        1428 58.61        25.5 0.20                          84.4 281 
 RUS  HZ EP   1   1428 49.91                              97    0.52 7 88.5 129 
 RUS  HN ES   1   1429  0.63                              97   -0.15 7 88.5 129 
 RUS  HZ I        1429  1.92        17.1 0.23                          88.5 129 
 GIR2 SZ EP   1   1428 50.76                              96    0.77 7 94.9  37 
 PAM  SN ES   1   1429 17.41                              56   -0.37 7  153  47 
 PAM  SZ I        1429 18.93        18.1 0.19                           153  47 
 ZAR  HZ EP   1   1429  1.44                              56    0.19 7  176 314 
 ZAR  HN ES   1   1429 21.95                              56    0.08 7  176 314 
                                                                                
