 2011 1212 1450  3.0 L   6.819 -73.161147.3  RSN  5 0.2 1.5LRSN                1
 GAP=134        0.46       5.8     5.2  7.3 -0.1085E+01  0.1430E+02  0.4911E+01E
 Epicentro: LOS SANTOS - SANTANDER                                             3
 ACTION:UPD 12-07-13 16:15 OP:ep   STATUS:               ID:20111212145003 L   I
 2011-12-12-1450-00M.COL___185                                                 6
 STAT SP IPHASW D HRMM SECON CODA AMPLIT PERI AZIMU VELO AIN AR TRES W  DIS CAZ7
 BAR2 SZ EP   1   1450 23.23                             170    0.33 7 25.2 185 
 BAR2 SZ I        1450 34.55         5.4 0.65                          25.2 185 
 BAR2 SZ ES   2   1450 38.11                             170   -0.27 5 25.2 185 
 BRR  HN ES   2   1450 41.03                             154    0.29 5 68.7 298 
 BRR  HZ I        1450 54.00        19.0 0.51                          68.7 298 
 PAM  SN ES   2   1450 42.59                             151   -0.23 5 76.8  41 
 RUS  HN ES   2   1450 45.86                             143   -0.02 5  103 175 
 RUS  HZ I        1450 47.99         2.2 0.31                           103 175 
 PTB  HZ EP   1   1450 29.75                             133   -0.28 7  147 258 
 PTB  HN ES   2   1450 51.11                             133    0.03 5  147 258 
                                                                                
