 2016  812 1435  3.5 L   6.781 -73.151134.5  RSN  4 0.2 1.5LRSN                1
 GAP=243        0.52       4.8     3.8  4.6  0.1167E+02  0.1701E+01 -0.6390E+01E
 Epicentro: LOS SANTOS - SANTANDER                                             3
 ACTION:UPD 16-10-29 15:34 OP:rebc STATUS:               ID:20160812143503 L   I
 OLDACT:REG 16-08-12 20:38 OP:lv   STATUS:               ID:20160812142759     3
 2016-08-12-1427-59S.COL___349                                                 6
 STAT SP IPHASW D HRMM SECON CODA AMPLIT PERI AZIMU VELO AIN AR TRES W  DIS CAZ7
 BAR2 EZ EP       1435 21.78                             171    0.0810 21.1 189 
 BAR2 EZ ES       1435 35.92                             171   -0.0110 21.1 189 
 BAR2 EZ I        1435 38.08         9.7 0.21                          21.1 189 
 RUS  HZ EP       1435 25.81                             142   -0.1710 98.5 176 
 RUS  HE ES       1435 43.57                             142    0.0410 98.5 176 
 RUS  HZ I        1435 45.28         3.4 0.25                          98.5 176 
 PTB  HZ EP       1435 29.84                             129    0.39 9  147 260 
 PTB  HN ES       1435 49.56                             129   -0.16 9  147 260 
 PTB  HZ I        1435 53.07         3.2 0.16                           147 260 
 ZAR  HZ EP       1435 34.97                             120   -0.27 9  204 293 
 ZAR  HE ES       1436  0.09                             120    0.08 9  204 293 
 ZAR  HZ I        1436  6.38         4.3 0.32                           204 293 
                                                                                
