 2013  512 1347 32.9 L   6.793 -73.126154.7  RSN  9 0.4 1.8LRSN                1
 GAP=139        0.90       3.7     5.0  5.5  0.1630E+01  0.8526E+01  0.3000E+00E
 Epicentro: LOS SANTOS - SANTANDER                                             3
 ACTION:UPD 13-06-20 09:49 OP:ep   STATUS:               ID:20130512134732 L   I
 2013-05-12-1340-00M.COL___256                                                 6
 STAT SP IPHASW D HRMM SECON CODA AMPLIT PERI AZIMU VELO AIN AR TRES W  DIS CAZ7
 BAR2 SZ EP       1347 53.53                             171   -0.0510 23.0 196 
 BAR2 SZ ES       1348  9.55                             171   -0.1810 23.0 196 
 BAR2 SZ I        1348 10.34        11.7 0.22            169           23.0 196 
 GIR2 SZ EP   1   1347 53.92                             168    0.27 7 32.5 347 
 GIR2 SZ ES   1   1348  9.88                             168    0.03 7 32.5 347 
 GIR2 SZ I        1348 10.72         5.7 0.15            166           32.5 347 
 BRR  HZ EP       1347 55.48                             153    0.3510 73.5 298 
 BRR  HN ES       1348 13.03                             153    0.5510 73.5 298 
 BRR  HZ I        1348 15.09        12.1 0.58            151           73.5 298 
 PAM  SZ EP   1   1347 56.56                             153    0.55 7 76.6  38 
 PAM  SN ES       1348 13.79                             153   -0.2710 76.6  38 
 PAM  SZ I        1348 15.69         7.4 0.46            156           76.6  38 
 RUS  HZ EP       1347 57.48                             146    0.0210 99.7 177 
 RUS  HN ES       1348 16.39                             146   -0.2410 99.7 177 
 RUS  HZ I        1348 17.26         5.7 0.46            147           99.7 177 
 PTB  HZ EP       1348  0.45                             133   -0.31 9  150 259 
 PTB  HN ES   1   1348 21.90                             133   -0.61 7  150 259 
 PTB  HZ I        1348 28.98        10.2 0.46            133            150 259 
 ZAR  HN ES   2   1348 32.33                             124    0.22 4  206 292 
 NOR  HZ EP       1348  9.87                             120    0.59 8  236 235 
 SML  HZ EP   1   1348  9.19                             119   -1.01 6  245 335 
 SML  HN ES       1348 39.06                             119   -0.24 8  245 335 
 SML  HZ I        1348 40.43        11.5 0.10            120            245 335 
 HEL  HZ EP   4   1348 15.75                             116    1.98 0  274 256 
 SJC  HZ EP   4   1348 27.87                             107   -1.09 0  411 327 
                                                                                
