 2017  212 1333 33.5 L   6.815 -73.150147.1  RSN 17 0.5 2.4LRSN                1
 GAP= 74        1.12       3.5     3.8  5.5  0.3974E+00  0.3827E+01  0.5166E+01E
 Epicentro: LOS SANTOS - SANTANDER                                             3
 ACTION:UPD 17-05-24 15:35 OP:jn   STATUS:               ID:20170212133333 L   I
 OLDACT:UP  17-02-13 00:12 OP:edw  STATUS:               ID:20170212132743     3
 OLDACT:REG 17-02-12 21:07 OP:edw  STATUS:               ID:20170212132743     3
 2017-02-12-1328-00M.COL___346                                                 6
 STAT SP IPHASW D HRMM SECON CODA AMPLIT PERI AZIMU VELO AIN AR TRES W  DIS CAZ7
 BAR2 EZ IP     D 1333 53.26                             170   -0.0910 24.8 188 
 BAR2 EZ ES       1334  7.81                             170   -1.0010 24.8 188 
 BAR2 EZ I        1334  9.33        62.3 0.40            171           24.8 188 
 BRR  HZ EP     D 1333 55.04                             153    0.2810 70.0 298 
 BRR  HN ES       1334 12.14                             153    0.8310 70.0 298 
 BRR  HZ I        1334 15.34        33.7 0.26            149           70.0 298 
 PAM  EZ EP     C 1333 56.13                             150    0.3010 76.4  41 
 PAM  EN ES       1334 13.14                             150   -0.0910 76.4  41 
 PAM  EZ I        1334 15.50        46.1 0.50            146           76.4  41 
 RUS  HZ EP       1333 57.19                             143   -0.3410  102 176 
 RUS  HN ES       1334 16.05                             143   -0.2010  102 176 
 RUS  HZ I        1334 17.58        32.2 0.38            141            102 176 
 PTB  HZ EP   9   1334  0.02                             132   -0.58 0  148 258 
 PTB  HN ES       1334 20.30                             132   -0.83 9  148 258 
 PTB  HZ I        1334 23.95        24.6 0.12            128            148 258 
 TAM  HZ EP     D 1334  1.76                             130    0.37 9  156 106 
 TAM  HZ I        1334 22.61        19.5 0.38            126            156 106 
 TAM  HN ES       1334 23.36                             130    0.23 9  156 106 
 ZAR  HZ EP       1334  5.95                             122   -0.01 9  203 292 
 ZAR  HN ES       1334 31.10                             122   -0.15 9  203 292 
 ZAR  HZ I        1334 36.44        30.3 0.38            118            203 292 
 CHI  HZ EP       1334 11.47                             117    0.01 8  250 195 
 CHI  HN ES       1334 40.77                             117   -0.27 8  250 195 
 CHI  HZ I        1334 44.32        18.3 0.54            113            250 195 
 ROSC BZ EP   4   1334 13.42                             116    1.57 0  254 211 
 ROSC BN ES   4   1334 43.49                             116    1.75 0  254 211 
 ROSC BZ I        1334 47.74        37.7 0.45            113            254 211 
 URE  HZ EP   4   1334 11.64                             113   -2.91 0  283 292 
 URE  HN ES   4   1334 43.94                             113   -2.61 0  283 292 
 URE  HZ I        1334 55.97        14.9 0.30            110            283 292 
 VIL  EZ EP       1334 17.46                             112    0.28 7  305 191 
 VIL  EN ES       1334 51.11                             112   -0.11 7  305 191 
 VIL  EZ I        1334 54.01        26.8 0.40            109            305 191 
 PTGC HZ EP   9   1334 16.30                             111   -1.34 0  310 159 
 PTGC HN ES   2   1334 49.69                             111   -1.01 3  310 159 
 LL6C HN EP   4   1333 59.27                             110   -19.8 0  323 358 
 LL6C HN ES   4   1334 34.39                             110   -20.3 0  323 358 
 ELA  HZ EP   4   1334 23.12                             110    2.60 0  330 229 
 ELA  HN ES   4   1334 59.18                             110    2.01 0  330 229 
 ELA  HZ I        1335  5.98        12.2 0.58            107            330 229 
 CBOC HZ EP   4   1334 21.65                             110    1.14 0  334 252 
 CBOC HN ES   4   1334 55.97                             110   -1.18 0  334 252 
 DBB  EZ EP   2   1334 21.50                             109    0.50 3  339 274 
 DBB  EN ES   4   1334 56.09                             109   -1.93 0  339 274 
 DBB  EZ I        1334 59.16         6.7 0.16            106            339 274 
 ANIL HZ EP   4   1334 26.22                             108    2.74 0  358 224 
 ANIL HN ES   4   1335  4.64                             108    2.20 0  358 224 
 PRA  HZ EP       1334 27.22                             106   -0.02 6  393 209 
 PRA  HN ES       1335  9.15                             106    0.03 6  393 209 
 PRA  HZ I        1335 13.53        12.8 0.38            103            393 209 
 ORTC HZ EP       1334 27.67                             106    0.05 6  396 216 
 ORTC HN ES       1335 10.86                             106    1.06 6  396 216 
 ORTC HZ I        1335 14.69         9.7 0.22            103            396 216 
 SJC  HZ EP       1334 27.57                             105   -1.38 6  408 327 
 SJC  HN ES   4   1335  8.82                             105   -3.35 0  408 327 
 SJC  HZ I        1335 20.64         3.8 0.36            102            408 327 
                                                                                
