 2013 1012 1711 14.6 L   6.745 -73.170136.9  RSN  5 0.3 1.7LRSN                1
 GAP=136        0.90       4.6     4.5  6.6 -0.1764E+01  0.3968E+01  0.1077E+01E
 Epicentro: VILLANUEVA - SANTANDER                                             3
 ACTION:UPD 13-11-25 09:21 OP:ep   STATUS:               ID:20131012171114 L   I
 OLDACT:REG 13-10-12 15:47 OP:nd   STATUS:               ID:20131012170959     3
 2013-10-12-1709-59M.COL___273                                                 6
 STAT SP IPHASW D HRMM SECON CODA AMPLIT PERI AZIMU VELO AIN AR TRES W  DIS CAZ7
 BAR2 SZ EP       1711 33.18                             173    0.0910 17.0 185 
 BAR2 SZ ES       1711 47.77                             173    0.2910 17.0 185 
 BAR2 SZ I        1711 49.35        13.0 0.14            173           17.0 185 
 BRR  HZ EP       1711 35.34                             151    0.4510 72.1 304 
 BRR  HN ES       1711 51.08                             151    0.3910 72.1 304 
 BRR  HZ I        1711 56.12         8.0 0.30            151           72.1 304 
 PAM  SZ IP     C 1711 36.31                             147   -0.0310 83.8  38 
 PAM  SN ES       1711 52.72                             147   -0.5410 83.8  38 
 PAM  SZ I        1711 55.20        13.3 0.52            151           83.8  38 
 RUS  HZ EP       1711 37.29                             144    0.1810 94.8 174 
 RUS  HN ES       1711 54.47                             144   -0.1510 94.8 174 
 RUS  HZ I        1711 57.32         4.7 0.30            147           94.8 174 
 PTB  HZ EP       1711 40.35                             131   -0.21 9  144 261 
 PTB  HN ES       1712  0.21                             131   -0.57 9  144 261 
 PTB  HZ I        1712  4.38         6.8 0.14            133            144 261 
                                                                                
