 2017  112 1322 38.1 L   6.770 -73.146140.0  RSN 10 0.3 2.0LRSN                1
 GAP=138        0.77       2.8     3.0  4.5 -0.3172E+00  0.4423E+01  0.2863E+01E
 Epicentro: LOS SANTOS - SANTANDER                                             3
 ACTION:UPD 17-05-22 15:58 OP:jn   STATUS:               ID:20170112132238 L   I
 OLDACT:REG 17-01-12 20:22 OP:cara STATUS:               ID:20170112131747     3
 2017-01-12-1318-00M.COL___337                                                 6
 STAT SP IPHASW D HRMM SECON CODA AMPLIT PERI AZIMU VELO AIN AR TRES W  DIS CAZ7
 BAR2 EZ IP     D 1322 56.87                             171   -0.0710 20.0 191 
 BAR2 EZ ES       1323 11.96                             171    0.3010 20.0 191 
 BAR2 EZ I        1323 13.27        24.7 0.22            169           20.0 191 
 BRR  HZ EP       1322 59.10                             151    0.4110 72.8 301 
 BRR  HN ES       1323 14.98                             151    0.2010 72.8 301 
 BRR  HZ I        1323 19.74        22.9 0.20            151           72.8 301 
 PAM  EZ IP       1322 59.73                             149   -0.1110 80.1  38 
 PAM  EN ES       1323 16.70                             149   -0.1210 80.1  38 
 PAM  EZ I        1323 18.97        20.8 0.50            155           80.1  38 
 RUS  HZ EP       1323  0.92                             144   -0.0910 97.2 176 
 RUS  HN ES       1323 18.75                             144   -0.1610 97.2 176 
 RUS  HZ I        1323 20.67        15.8 0.34            146           97.2 176 
 PTB  HZ EP       1323  4.34                             131   -0.17 9  147 260 
 PTB  HN ES       1323 24.86                             131   -0.27 9  147 260 
 PTB  HZ I        1323 31.31         7.9 0.10            132            147 260 
 ZAR  HZ EP       1323 10.16                             121   -0.11 8  205 293 
 ZAR  HN ES       1323 35.04                             121   -0.35 8  205 293 
 ZAR  HZ I        1323 40.13        11.4 0.68            123            205 293 
 NOR  HZ EP       1323 13.05                             117   -0.20 8  233 235 
 NOR  HN ES       1323 41.18                             117    0.48 8  233 235 
 NOR  HZ I        1323 46.25         6.5 0.18            119            233 235 
 CHI  HZ EP       1323 15.02                             116   -0.08 8  245 195 
 CHI  HN ES       1323 43.82                             116   -0.16 8  245 195 
 CHI  HZ I        1323 49.46         3.9 0.30            119            245 195 
 GUY2CHZ EP       1323 22.24                             111    1.05 7  299 235 
 GUY2CHN ES       1323 54.41                             111   -0.41 7  299 235 
 GUY2CHZ  IAML    1324  2.94         5.0 0.34                           299 235 
 SJC  HZ EP   4   1323 30.76                             105   -3.02 0  412 327 
 SJC  HN ES   4   1324  9.68                             105   -7.54 0  412 327 
 SJC  HZ I        1324 15.35         2.3 0.20            107            412 327 
                                                                                
