 2011  312 1124 17.3 L   6.814 -73.201129.5  RSN  8 0.5 2.5LRSN                1
 GAP=132        1.12       5.7     8.7  9.1 -0.1705E+02  0.2562E+02  0.4805E+01E
 Epicentro: ZAPATOCA - SANTANDER                                               3
 ACTION:UP  11-06-16 14:33 OP:jfem STATUS:               ID:20110312112417 L   I
 2011-03-12-1123-16S.COL___135                                                 6
 STAT SP IPHASW D HRMM SECON CODA AMPLIT PERI AZIMU VELO SNR AR TRES W  DIS CAZ7
 BAR2 SZ EP   1   1124 35.81                             169     0.8 9   25 176 
 BAR2 SZ ES   1   1124 48.12                             169    -0.7 9   25 176 
 BAR2 SZ I        1124 52.46        87.2 0.19                            25 176 
 RUS  HZ EP   1   1124 39.76                             139     0.1 8  103 173 
 RUS  HN ES   1   1124 57.96                             139     0.8 8  103 173 
 RUS  HZ I        1125  0.27        36.2 0.35                           103 173 
 GRA  SZ EP   1   1124 41.66                             133     0.5 8  126  20 
 GRA  SZ ES   1   1124 59.29                             133    -0.5 8  126  20 
 GRA  SZ I        1125  2.60        34.0 0.53                           126  20 
 YOP  SZ EP       1124 46.44                             122    -0.210  183 152 
 NOR  SZ EP   1   1124 51.91                             115     0.2 7  231 233 
 NOR  SN ES   1   1125 18.64                             115     0.1 7  231 233 
 CHI  HZ EP       1124 53.89                             113    -0.3 9  249 194 
 CHI  HZ I        1124 54.45        13.7 0.14                           249 194 
 DBB  SZ EP   1   1125  3.83                             107     0.4 6  333 274 
 PRA  HZ EP       1125  9.60                             104    -0.5 7  390 209 
 PRA  HZ I        1125 11.65        59.4 0.18                           390 209 
 PRA  HN ES   1   1125 50.69                             104    -0.6 5  390 209 
                                                                                
