 2013  212 1116  6.4 L   6.797 -73.151149.6  RSN  7 0.3 2.0LRSN                1
 GAP=136        0.83       3.5     3.7  5.1  0.1708E+01  0.4473E+01  0.2663E+01E
 Epicentro: LOS SANTOS - SANTANDER                                             3
 ACTION:UPD 13-03-12 09:32 OP:ep   STATUS:               ID:20130212111606 L   I
 2013-02-12-1110-00M.COL___240                                                 6
 STAT SP IPHASW D HRMM SECON CODA AMPLIT PERI AZIMU VELO AIN AR TRES W  DIS CAZ7
 BAR2 SZ EP       1116 26.44                             171   -0.0710 22.9 189 
 BAR2 SZ ES       1116 42.21                             171    0.0410 22.9 189 
 BAR2 SZ I        1116 44.01        36.2 0.28            169           22.9 189 
 BRR  HZ EP       1116 28.14                             153    0.1710 70.9 299 
 BRR  HN ES       1116 45.46                             153    0.6810 70.9 299 
 BRR  HN I        1116 48.84        29.9 0.22            150           70.9 299 
 PAM  SZ IP     C 1116 29.21                             151    0.1310 78.0  40 
 PAM  SN ES       1116 46.46                             151   -0.3010 78.0  40 
 PAM  SN I        1116 47.54        20.3 0.26            156           78.0  40 
 RUS  HZ EP       1116 30.41                             145   -0.1210  100 176 
 RUS  HN ES       1116 49.14                             145   -0.2010  100 176 
 RUS  HZ I        1116 50.21        10.8 0.34            146            100 176 
 PTB  HZ EP       1116 33.56                             133   -0.09 9  147 259 
 PTB  HN ES       1116 54.27                             133   -0.62 9  147 259 
 PTB  HZ I        1117  0.30         8.6 0.16            132            147 259 
 ZAR  HZ EP       1116 38.88                             123   -0.20 9  204 292 
 ZAR  HN ES       1117  4.57                             123    0.02 9  204 292 
 ZAR  HZ I        1117 13.68         7.2 0.24            123            204 292 
 CHI  HZ EP       1116 44.58                             118    0.29 8  248 195 
 CHI  HN ES   1   1117 14.53                             118    0.70 6  248 195 
 CHI  HN I        1117 17.94         7.5 0.26            119            248 195 
                                                                                
