 2016  412 1919 59.5 L   7.413 -73.161134.0  RSN 10 0.3 2.2LRSN                1
 GAP=147        0.64       3.0     2.2  4.2 -0.2842E+01  0.2062E+01 -0.3757E+01E
 Epicentro: EL PLAYON - SANTANDER                                              3
 ACTION:UPD 16-05-05 14:20 OP:rebc STATUS:               ID:20160412191959 L   I
 OLDACT:UP  16-04-13 01:32 OP:ar   STATUS:               ID:20160412191745     3
 OLDACT:REG 16-04-12 22:26 OP:ar   STATUS:               ID:20160412191745     3
 2016-04-12-1917-45M.COL___297                                                 6
 STAT SP IPHASW D HRMM SECON CODA AMPLIT PERI AZIMU VELO AIN AR TRES W  DIS CAZ7
 PAM  EZ EP       1920 19.31                             158    0.2910 51.6  99 
 PAM  EN ES       1920 34.49                             158    0.2110 51.6  99 
 PAM  EZ I        1920 35.84        37.9 0.18            148           51.6  99 
 BAR2 EZ IP       1920 21.02                             144    0.0310 90.7 181 
 BAR2 EZ ES       1920 37.68                             144   -0.1010 90.7 181 
 RUS  HZ EP       1920 28.03                             126   -0.10 9  168 177 
 RUS  HN ES       1920 50.11                             126   -0.37 9  168 177 
 RUS  HZ I        1920 51.50         4.3 0.44            117            168 177 
 PTB  HZ EP       1920 27.48                             125   -0.45 9  173 236 
 PTB  HN ES       1920 50.23                             125    0.10 9  173 236 
 PTB  HZ I        1920 51.98        23.0 0.38            117            173 236 
 ZAR  HZ EP       1920 29.10                             122   -0.34 9  187 273 
 ZAR  HN ES       1920 52.77                             122   -0.05 9  187 273 
 ZAR  HZ I        1920 55.50        23.1 0.42            115            187 273 
 SPBC HZ EP   2   1920 33.08                             118    0.18 4  219 207 
 SPBC HN ES   2   1920 59.34                             118    0.36 4  219 207 
 SPBC HZ I        1921  7.89        19.7 0.28            111            219 207 
 SOCV BZ EP       1920 38.86                             112    0.21 8  272  69 
 SOCV BN ES       1921  8.96                             112   -0.25 8  272  69 
 NOR  HZ EP       1920 39.57                             112    0.15 7  278 223 
 NOR  HN ES       1921 11.08                             112    0.50 7  278 223 
 NOR  HZ I        1921 16.96        11.2 0.18            106            278 223 
 SDV  BZ EP       1920 44.64                             108   -0.05 7  323  60 
 SDV  BZ I        1921 21.12         2.8 0.40            103            323  60 
 GUY2CHZ EP   2   1920 48.71                             107    1.26 3  343 225 
 GUY2CHE ES   4   1921 28.51                             107    3.63 0  343 225 
 GUY2CHZ I        1921 36.90         7.8 0.54                           343 225 
                                                                                
