 2011  912 1017 26.1 L   6.779 -73.122144.9  RSN 10 0.4 2.2LRSN                1
 GAP=140        0.77       4.1     5.6  5.5 -0.1400E+00  0.4080E+01 -0.5810E+00E
 Epicentro: LOS SANTOS - SANTANDER                                             3
 ACTION:UPD 12-07-13 15:57 OP:ep   STATUS:               ID:20110912101726 L   I
 2011-09-12-1015-42S.COL___168                                                 6
 STAT SP IPHASW D HRMM SECON CODA AMPLIT PERI AZIMU VELO AIN AR TRES W  DIS CAZ7
 BAR2 SZ EP       1017 45.60                             171    0.0410 21.7 198 
 BAR2 SZ ES   1   1018  0.06                             171   -0.70 7 21.7 198 
 BAR2 SZ I        1018  2.38        45.6 0.46                          21.7 198 
 GIR2 SZ EP       1017 45.73                             166    0.0210 34.0 347 
 GIR2 SZ ES   1   1018  0.86                             166   -0.17 7 34.0 347 
 BRR  HZ EP       1017 47.35                             151    0.0410 74.6 299 
 BRR  HN ES   1   1018  4.84                             151    0.95 7 74.6 299 
 BRR  HZ I        1018  7.28        27.4 0.16                          74.6 299 
 PAM  SZ EP       1017 48.53                             151    0.3310 77.6  37 
 PAM  SN ES   1   1018  5.30                             151   -0.16 7 77.6  37 
 RUS  HZ EP       1017 49.40                             144   -0.1610 98.2 177 
 RUS  HN ES   1   1018  8.20                             144    0.32 7 98.2 177 
 OCA  SZ EP       1017 54.21                             129   -0.34 9  163 352 
 OCA  SZ I        1018 20.54        17.6 0.33                           163 352 
 ZAR  HZ EP   3   1017 57.99                             122   -0.80 2  207 292 
 ZAR  HN ES   2   1018 23.52                             122   -0.80 4  207 292 
 ZAR  HZ I        1018 29.56        15.2 0.24                           207 292 
 NOR  SZ EP   2   1018  1.46                             118   -0.37 4  236 235 
 CHI  HZ EP   3   1018  3.85                             117    0.30 2  247 196 
 CHI  HZ I        1018  6.00        10.0 0.44                           247 196 
 CHI  HE ES   3   1018 32.99                             117    0.20 2  247 196 
 HEL  HZ EP   2   1018  7.23                             114    0.78 4  274 256 
 HEL  HN ES   3   1018 37.62                             114   -0.33 2  274 256 
 HEL  HZ I        1018 44.33        10.6 0.28                           274 256 
                                                                                
