 2012  312 1002  3.7 L   6.781 -73.177141.5  RSN  7 0.3 2.0LRSN                1
 GAP=134        0.78       5.2     4.7  7.6 -0.1689E+00  0.1520E+02 -0.5847E+01E
 ACTION:UP  12-03-31 23:19 OP:EP   STATUS:               ID:20120312100203 L   I
 2012-03-12-1000-00M.COL___190                                                 6
 STAT SP IPHASW D HRMM SECON CODA AMPLIT PERI AZIMU VELO SNR AR TRES W  DIS CAZ7
 BAR2 SZ EP       10 2 22.68                             171     0.010   21 182 
 BAR2 SZ ES   1   10 2 37.59                             171     0.0 7   21 182 
 BAR2 SZ I        10 2 39.43        25.9 0.32                            21 182 
 BRR  HZ EP       10 2 24.56                             152     0.310   69 301 
 BRR  HZ I        10 2 44.91        21.2 0.16                            69 301 
 PAM  SZ EP   1   10 2 25.49                             149    -0.2 7   81  40 
 PAM  SN ES   1   10 2 42.87                             149     0.1 7   81  40 
 RUS  HZ EP   1   10 2 26.59                             143    -0.3 7   99 174 
 RUS  HN ES   1   10 2 45.16                             143     0.2 7   99 174 
 RUS  HZ I        10 2 46.16        11.0 0.30                            99 174 
 PTB  HZ EP   1   10 2 29.33                             132    -0.6 7  144 259 
 PTB  HN ES   1   10 2 50.26                             132    -0.2 7  144 259 
 ZAR  HZ EP   1   10 2 35.45                             122    -0.1 6  202 293 
 ZAR  HN ES   1   10 3  0.44                             122     0.0 6  202 293 
 ZAR  HZ I        10 3  6.34        17.1 0.51                           202 293 
 HEL  HZ EP   1   10 2 44.18                             114     0.9 6  268 256 
 HEL  HZ I        10 3 21.67         4.9 0.41                           268 256 
                                                                                
