 2015  512 1343 44.5 L   6.786 -73.132148.4  RSN  9 0.4 2.1LRSN                1
 GAP=139        0.95       3.0     4.5  5.5  0.7774E+00  0.8270E+01  0.8739E+00E
 Epicentro: LOS SANTOS - SANTANDER                                             3
 ACTION:UPD 15-09-10 22:03 OP:cam  STATUS:               ID:20150512134344 L   I
 OLDACT:REG 15-05-12 21:14 OP:drio STATUS:               ID:20150512133749     3
 2015-05-12-1337-49M.COL___285                                                 6
 STAT SP IPHASW D HRMM SECON CODA AMPLIT PERI AZIMU VELO AIN AR TRES W  DIS CAZ7
 BAR2 EZ EP       1344  4.33                             171   -0.0810 22.1 195 
 BAR2 EZ ES       1344 19.75                             171   -0.2010 22.1 195 
 BAR2 EZ I        1344 20.84        19.1 0.30            171           22.1 195 
 BRR  HZ EP       1344  6.28                             152    0.2410 73.3 299 
 BRR  HN ES       1344 23.46                             152    0.6110 73.3 299 
 BRR  HZ I        1344 26.40        22.0 0.24            150           73.3 299 
 PAM  SZ EP       1344  7.90                             151    0.9010 77.7  38 
 PAM  SN ES       1344 23.92                             151   -0.6510 77.7  38 
 PAM  SZ I        1344 26.42        18.8 0.22            153           77.7  38 
 RUS  HZ EP       1344  8.24                             145   -0.1410 98.9 177 
 RUS  HZ I        1344  8.67         7.7 0.42            147           98.9 177 
 RUS  HN ES       1344 26.99                             145   -0.0310 98.9 177 
 SPBC HN ES   4   1344 32.92                             130   -2.61 0  163 220 
 ZAR  HZ EP       1344 17.05                             123   -0.26 8  206 292 
 ZAR  HE ES       1344 42.54                             123   -0.37 8  206 292 
 ZAR  HZ I        1344 48.41        18.2 0.16            123            206 292 
 NOR  HZ EP       1344 20.41                             119    0.00 8  235 235 
 NOR  HN ES       1344 48.49                             119    0.07 8  235 235 
 NOR  HZ I        1344 51.77        11.5 0.18            120            235 235 
 SML  HZ EP       1344 21.21                             118   -0.28 8  246 335 
 SML  HN ES       1344 50.34                             118   -0.01 8  246 335 
 SML  HZ I        1344 53.75        21.2 0.10            118            246 335 
 CHI  HZ EP       1344 22.10                             118   -0.11 8  248 196 
 CHI  HZ I        1344 22.71         6.4 0.46            119            248 196 
 CHI  HN ES       1344 51.67                             118    0.03 8  248 196 
 GUY2CHZ EP   4   1344 30.00                             113    1.74 0  302 235 
 GUY2CHN ES   4   1345  4.74                             113    2.35 0  302 235 
 GUY2CHZ I        1345 10.82        11.6 0.78                           302 235 
                                                                                
