 2013  312 1736 43.2 L   6.012 -73.907 25.1  RSN  8 0.5 1.9LRSN                1
 GAP=104        0.95       2.4     2.2  7.4  0.1109E+01  0.9681E+00 -0.4499E+00E
 Epicentro: EL PEON - SANTANDER                                                3
 ACTION:UPD 13-04-09 14:02 OP:ep   STATUS:               ID:20130312173643 L   I
 2013-03-12-1730-00M.COL___231                                                 6
 STAT SP IPHASW D HRMM SECON CODA AMPLIT PERI AZIMU VELO AIN AR TRES W  DIS CAZ7
 PTB  HZ EP       1736 56.77                              95    0.1310 84.2 314 
 PTB  HE ES       1737  7.29                              95    0.1910 84.2 314 
 PTB  HE I        1737  8.92        73.1 0.28             47           84.2 314 
 RUS  HZ EP       1736 57.96                              95   -0.3910 92.2  98 
 RUS  HN ES       1737  9.63                              95   -0.5210 92.2  98 
 RUS  HN I        1737 10.38        29.9 0.36             47           92.2  98 
 BAR2 SZ EP       1736 59.97                              94    0.3010  103  51 
 BAR2 SZ ES       1737 12.60                              94    0.1110  103  51 
 BAR2 SZ I        1737 16.70        22.9 0.40             47            103  51 
 BRR  HZ EP       1737  2.33                              93   -0.1610  123  10 
 BRR  HN ES       1737 17.57                              93    0.0610  123  10 
 BRR  HN I        1737 19.95        34.0 0.16             47            123  10 
 CHI  HZ EP   1   1737  8.05                              93    0.41 7  154 173 
 CHI  HN ES   1   1737 27.35                              93    0.68 7  154 173 
 CHI  HN I        1737 28.79        21.5 0.28             47            154 173 
 HEL  HZ EP   1   1737 10.25                              56   -0.65 7  181 276 
 HEL  HE I        1737 39.05         7.4 0.18             37            181 276 
 ZAR  HZ EP   2   1737 10.95                              56   -1.25 4  194 327 
 ZAR  HZ I        1737 40.47         4.0 0.18             37            194 327 
 PAM  SE ES   1   1737 37.39                              56    0.68 6  198  42 
                                                                                
