 2012 1212 1323 53.4 L   6.766 -73.135151.2  RSN  6 0.5 1.8LRSN                1
 GAP=139        1.23       7.4     6.3 11.2 -0.7000E+01  0.2771E+02 -0.2420E+02E
 Epicentro: LOS SANTOS - SANTANDER                                             3
 ACTION:UPD 13-01-04 14:27 OP:ep   STATUS:               ID:20121212132353 L   I
 2012-12-12-1320-00M.COL___242                                                 6
 STAT SP IPHASW D HRMM SECON CODA AMPLIT PERI AZIMU VELO AIN AR TRES W  DIS CAZ7
 BAR2 SZ EP       1324 13.57                             172   -0.0610 20.0 195 
 BAR2 SZ ES       1324 29.37                             172   -0.0310 20.0 195 
 BAR2 SZ I        1324 31.06         9.1 0.38                          20.0 195 
 BRR  HZ EP       1324 14.30                             153   -1.0010 74.1 301 
 BRR  HN I        1324 35.93        17.5 0.30                          74.1 301 
 PAM  SZ EP       1324 16.95                             151    0.6210 79.5  37 
 PAM  SN ES       1324 34.05                             151   -0.1610 79.5  37 
 PAM  SN I        1324 34.76        13.2 0.42                          79.5  37 
 RUS  HN ES       1324 36.45                             146    0.2710 96.8 177 
 RUS  HN I        1324 38.20         4.2 0.22                          96.8 177 
 PTB  HZ EP       1324 20.86                             133    0.00 9  148 260 
 PTB  HN ES       1324 42.08                             133   -0.20 9  148 260 
 PTB  HN I        1324 44.49         7.2 0.24                           148 260 
 ZAR  HN ES       1324 53.00                             123    0.75 8  207 293 
 ZAR  HN I        1324 58.32        10.6 0.38                           207 293 
                                                                                
