 2013  312 1234 15.6 L   6.809 -73.148145.0  RSN 15 0.4 3.8LRSN 3.8WRSN        1
 SPEC AVERAGE  MO 14.8 ST 14.5 OM  3.3 f0 2.52 R0.6228 AL 2.05 WI 17.5 MW  3.8 3
 SPEC SD       MO  0.3 ST 10.2 OM  0.4 f00.616 R0.1644 AL      WI      MW  0.2 3
 GAP= 71        0.87       2.5     3.0  4.5  0.6961E-01  0.4187E+01  0.1429E+01E
 Epicentro: LOS SANTOS - SANTANDER                                             3
 SPEC VIL SH Z MO 15.1 ST  9.3 OM  3.2 f0 1.72 R0.8547 AL 2.22 WI 30.6 MW  4.0 3
 SPEC VIL SH Z T123528 K 0.000 GD  336 VS 4.20 DE 3.20 Q0300.0 QA 0.60 VS 4.20 3
 SPEC ZAR HH Z MO 14.7 ST  8.8 OM  2.9 f0 2.35 R0.6255 AL 1.10 WI 23.2 MW  3.7 3
 SPEC ZAR HH Z T123510 K 0.000 GD  249 VS 4.20 DE 3.20 Q0300.0 QA 0.60 VS 4.20 3
 SPEC ROSCBH Z MO 15.1 ST  6.8 OM  3.2 f0 1.62 R0.9074 AL 1.88 WI 19.5 MW  4.0 3
 SPEC ROSCBH Z T123522 K 0.000 GD  291 VS 4.20 DE 3.20 Q0300.0 QA 0.60 VS 4.20 3
 SPEC PRA HH Z MO 15.2 ST 39.7 OM  3.2 f0 2.59 R0.5676 AL 2.93 WI 17.1 MW  4.1 3
 SPEC PRA HH Z T123549 K 0.000 GD  418 VS 4.20 DE 3.20 Q0300.0 QA 0.60 VS 4.20 3
 SPEC HEL HH Z MO 14.5 ST  9.1 OM  2.6 f0 2.78 R0.5288 AL 2.11 WI 15.2 MW  3.6 3
 SPEC HEL HH Z T123528 K 0.000 GD  308 VS 4.20 DE 3.20 Q0300.0 QA 0.60 VS 4.20 3
 SPEC OCA HH Z MO 14.5 ST 19.2 OM  2.8 f0 3.45 R0.4261 AL 1.55 WI 12.9 MW  3.6 3
 SPEC OCA HH Z T1235 4 K 0.000 GD  215 VS 4.20 DE 3.20 Q0300.0 QA 0.60 VS 4.20 3
 SPEC PAM SH Z MO 14.3 ST 10.1 OM  2.7 f0 3.29 R0.4468 AL 2.54 WI  7.1 MW  3.5 3
 SPEC PAM SH Z T123454 K 0.000 GD  164 VS 4.20 DE 3.20 Q0300.0 QA 0.60 VS 4.20 3
 SPEC BAR2SH Z MO 14.9 ST 13.1 OM  3.3 f0 2.35 R0.6255 AL 2.07 WI 14.8 MW  3.9 3
 SPEC BAR2SH Z T123446 K 0.000 GD  147 VS 4.20 DE 3.20 Q0300.0 QA 0.60 VS 4.20 3
 ACTION:UPD 13-04-09 14:01 OP:ep   STATUS:               ID:20130312123415 L   I
 2013-03-12-1230-00M.COL___231                                                 6
 STAT SP IPHASW D HRMM SECON CODA AMPLIT PERI AZIMU VELO AIN AR TRES W  DIS CAZ7
 BAR2 SZ IP       1234 35.39                             170    0.2310 24.3 189 
 BAR2 SZ ES   1   1234 49.56                             170   -0.86 7 24.3 189 
 BAR2 SZ I        1234 51.32      1843.5 0.28            167           24.3 189 
 BRR  HZ IP     C 1234 37.13                             153    0.5010 70.5 298 
 BRR  HN ES       1234 53.60                             153    0.5710 70.5 298 
 BRR  HZ I        1234 57.39       846.8 0.20            152           70.5 298 
 PAM  SZ EP     C 1234 38.20                             151    0.5010 76.8  40 
 PAM  SE ES       1234 54.77                             151   -0.1710 76.8  40 
 PAM  SZ I        1234 57.26       858.4 0.52            155           76.8  40 
 RUS  HZ EP     C 1234 39.39                             143    0.0410  102 176 
 RUS  HE ES       1234 57.53                             143   -0.3510  102 176 
 TAM  HZ EP     C 1234 43.83                             130    0.56 9  156 105 
 TAM  HN ES   1   1235  4.70                             130   -0.15 7  156 105 
 TAM  HE I        1235  7.17       841.2 0.59            133            156 105 
 OCA  HZ EP       1234 43.42                             130   -0.34 9  159 353 
 OCA  HE ES   1   1235  5.28                             130   -0.44 7  159 353 
 OCA  HZ I        1235  9.00       635.8 0.19            132            159 353 
 CTAU SZ EP   4   1234 51.51                             122    2.91 0  203 209 
 ZAR  HZ EP       1234 48.03                             122    0.09 9  203 292 
 ZAR  HN ES       1235 13.05                             122   -0.10 9  203 292 
 ZAR  HN I        1235 15.42      1046.2 0.12            123            203 292 
 CTAB SZ EP   4   1234 52.83                             119    1.44 0  231 211 
 CTAB SZ ES   4   1235 20.01                             119    0.71 0  231 211 
 SML  HZ EP       1234 51.57                             117   -0.51 8  243 335 
 SML  HN ES   2   1235 20.16                             117   -0.36 4  243 335 
 ROSC BZ EP   4   1234 55.33                             116    1.57 0  253 211 
 ROSC BN ES   1   1235 23.61                             116    0.09 6  253 211 
 HEL  HZ EP       1234 55.45                             115   -0.33 8  272 256 
 HEL  HN ES   1   1235 27.43                             115    0.32 6  272 256 
 HEL  HZ I        1235 34.82       210.1 0.53            115            272 256 
 URE  HZ EP   4   1234 55.25                             113   -1.32 0  283 292 
 VIL  SZ EP   1   1234 58.81                             112   -0.28 5  304 191 
 VIL  SN ES   1   1235 32.36                             112   -0.65 5  304 191 
 VIL  SZ I        1235 44.04       383.8 0.50            112            304 191 
 RREF HZ EP       1235  1.96                             111    0.19 7  322 229 
 RREF HN ES   1   1235 38.45                             111    0.68 5  322 229 
 RREF HZ I        1235 45.73       284.6 0.31            111            322 229 
 DBB  SZ EP       1235  2.79                             109   -0.22 7  339 274 
 COD  HZ EP   4   1235  2.59                             109   -1.24 0  347 355 
 PRA  HZ EP       1235  9.28                             106    0.09 6  393 209 
 PRA  HN ES       1235 50.57                             106   -0.41 6  393 209 
 PRA  HZ I        1235 56.18       307.0 0.44            107            393 209 
 SJC  HN EP   4   1235  9.07                             106   -1.96 0  408 327 
 SJC  HE ES   4   1235 49.81                             106   -4.44 0  408 327 
 SMAR HZ EP   1   1235 20.33                             102   -1.00 3  496 346 
 SMAR HE ES   4   1236  7.96                             102   -4.64 0  496 346 
                                                                                
