 2016 1012 1620 32.8 L   6.690 -73.096148.1  RSN  6 0.2 1.4LRSN                1
 GAP=244        0.81       6.0     4.9  6.7  0.8821E+01  0.4892E+01 -0.2796E+01E
 Epicentro: JORDAN - SANTANDER                                                 3
 ACTION:UPD 16-11-09 19:19 OP:rebc STATUS:               ID:20161012162032 L   I
 OLDACT:UP  16-10-12 23:40 OP:edw  STATUS:               ID:20161012161744     3
 OLDACT:UP  16-10-12 23:39 OP:edw  STATUS:               ID:20161012161744     3
 OLDACT:UP  16-10-12 23:37 OP:edw  STATUS:               ID:20161012161744     3
 OLDACT:REG 16-10-12 20:08 OP:edw  STATUS:               ID:20161012161744     3
 2016-10-12-1618-00M.COL___369                                                 6
 STAT SP IPHASW D HRMM SECON CODA AMPLIT PERI AZIMU VELO AIN AR TRES W  DIS CAZ7
 BAR2 EZ EP       1620 52.14                             175   -0.4710 14.4 221 
 BAR2 EZ ES       1621  8.13                             175    0.1010 14.4 221 
 BAR2 EZ I        1621  9.69         7.7 0.26            171           14.4 221 
 RUS  HZ EP       1620 56.17                             148    0.1910 88.2 179 
 RUS  HN ES       1621 14.17                             148    0.1410 88.2 179 
 RUS  HZ I        1621 15.92         2.7 0.38            149           88.2 179 
 PTB  HZ EP   9   1620 59.40                             132   -0.93 0  151 264 
 PTB  HN ES       1621 20.16                             130   -0.68 9  151 264 
 PTB  HZ I        1621 27.02         1.7 0.30            131            151 264 
 ZAR  HZ EP   4   1621 11.29                             121    4.83 0  214 295 
 ZAR  HN ES       1621 32.86                             121    0.18 8  214 295 
 ZAR  HZ I        1621 35.23         2.8 0.26            122            214 295 
 NOR  HE ES       1621 36.14                             119   -0.12 8  232 238 
 GUY2CHZ EP   2   1621 16.29                             113   -0.02 4  299 237 
 GUY2CHE ES   4   1621 52.88                             113    2.67 0  299 237 
 GUY2CHZ I        1621 58.21         1.3 0.36                           299 237 
                                                                                
