 2016  412 1021 47.8 L   6.786 -73.150141.2  RSN  6 0.3 1.5LRSN                1
 GAP=137        0.70       3.4     3.9  5.8  0.6177E+00  0.9158E+01 -0.2730E+01E
 Epicentro: LOS SANTOS - SANTANDER                                             3
 ACTION:UPD 16-05-05 14:20 OP:rebc STATUS:               ID:20160412102147 L   I
 OLDACT:REG 16-04-12 21:30 OP:ar   STATUS:               ID:20160412101746     3
 2016-04-12-1017-46M.COL___312                                                 6
 STAT SP IPHASW D HRMM SECON CODA AMPLIT PERI AZIMU VELO AIN AR TRES W  DIS CAZ7
 BAR2 EZ EP       1022  6.75                             171   -0.1110 21.7 189 
 BAR2 EZ ES       1022 21.75                             171    0.0310 21.7 189 
 BAR2 EZ I        1022 21.92        12.3 0.20            173           21.7 189 
 PAM  EZ EP       1022  9.82                             150    0.1810 78.9  39 
 PAM  EN ES       1022 26.58                             150   -0.0810 78.9  39 
 PAM  EZ I        1022 28.99         7.3 0.44            151           78.9  39 
 RUS  HZ EP       1022 10.62                             143   -0.3810 99.0 176 
 RUS  HN ES       1022 29.34                             143    0.2510 99.0 176 
 RUS  HZ I        1022 30.02         3.7 0.26            147           99.0 176 
 PTB  HZ EP   2   1022 13.62                             131   -0.72 5  147 259 
 PTB  HN ES   2   1022 34.68                             131   -0.35 5  147 259 
 PTB  HZ I        1022 37.62         1.8 0.16            131            147 259 
 OCA  HN ES   2   1022 37.24                             128   -0.60 5  162 353 
 OCA  HZ I        1022 41.08         6.6 0.44            128            162 353 
 ZAR  HZ EP       1022 20.53                             121    0.55 9  204 293 
 ZAR  HN ES       1022 45.16                             121    0.09 9  204 293 
 ZAR  HZ I        1022 49.85         2.6 0.30            122            204 293 
                                                                                
