 2012  912 1532 29.6 L   6.509 -73.607105.7  RSN  4 0.1 1.5LRSN                1
 GAP=193        0.34       5.4     2.5  5.2 -0.5708E+01  0.1690E+01 -0.2455E+01E
 Epicentro: SANTA HELENA DEL OPON - SANTANDER                                  3
 ACTION:UPD 12-10-22 14:18 OP:ep   STATUS:               ID:20120912153229 L   I
 2012-09-12-1530-00M.COL___227                                                 6
 STAT SP IPHASW D HRMM SECON CODA AMPLIT PERI AZIMU VELO AIN AR TRES W  DIS CAZ7
 BAR2 SZ EP   1   1532 45.59                             154    0.10 7 47.8  79 
 BAR2 SZ ES   1   1532 57.82                             154   -0.03 7 47.8  79 
 BRR  HZ EP   2   1532 46.52                             145    0.17 5 67.2 350 
 GIR2 SZ EP   1   1532 47.18                             141   -0.16 7 77.8  36 
 GIR2 SZ ES   1   1533  1.18                             141    0.04 7 77.8  36 
 PTB  HN ES   1   1533  3.17                             135   -0.02 7 94.0 272 
 PTB  HN I        1533  4.25         6.9 0.18                          94.0 272 
                                                                                
