 2011 1012 1208 17.8 L   6.781 -73.135142.8  RSN  5 0.3 1.6LRSN                1
 GAP=139        0.55       5.9     6.9  8.4  0.1912E+02 -0.2403E+02 -0.7507E+01E
 Epicentro: LOS SANTOS - SANTANDER                                             3
 ACTION:UPD 12-07-13 16:03 OP:ep   STATUS:               ID:20111012120826 L   I
 2011-10-12-1203-36S.COL___167                                                 6
 STAT SP IPHASW D HRMM SECON CODA AMPLIT PERI AZIMU VELO AIN AR TRES W  DIS CAZ7
 BAR2 SZ EP       12 8 36.99                             171   -0.0710 21.5 194 
 BAR2 SZ I        12 8 37.37         5.7 0.12                          21.5 194 
 BAR2 SZ ES   2   12 8 52.69                             171    0.62 5 21.5 194 
 BRR  HE ES   1   12 8 54.95                             151   -0.16 7 73.3 300 
 BRR  HZ I        12 9  8.60        18.0 0.32                          73.3 300 
 PAM  SZ EP   1   12 8 39.70                             150   -0.08 7 78.3  38 
 RUS  HZ EP   1   12 8 41.44                             144    0.31 7 98.4 177 
 RUS  HN ES   2   12 8 58.77                             144   -0.53 5 98.4 177 
 RUS  HZ I        12 9  0.95         2.9 0.31                          98.4 177 
 ZAR  HE ES   2   12 9 15.65                             121    0.06 4  206 293 
 ZAR  HZ I        12 9 21.37         5.3 0.24                           206 293 
                                                                                
