 2016  312 1024 21.2 L   6.950 -73.186139.5  RSN  5 0.3 1.1LRSN                1
 GAP=123        0.78       4.1     3.6  6.3  0.2542E+00  0.8823E+01 -0.3135E+01E
 Epicentro: BETULIA - SANTANDER                                                3
 ACTION:UPD 16-05-13 21:23 OP:cam  STATUS:               ID:20160312102421 L   I
 OLDACT:REG 16-03-12 21:11 OP:cara STATUS:               ID:20160312101749     3
 2016-03-12-1017-49M.COL___288                                                 6
 STAT SP IPHASW D HRMM SECON CODA AMPLIT PERI AZIMU VELO AIN AR TRES W  DIS CAZ7
 BAR2 EZ IP       1024 40.93                             163    0.4210 39.6 179 
 BAR2 EZ ES       1024 56.10                             163    0.5110 39.6 179 
 BAR2 EZ I        1024 57.83         2.8 0.38            166           39.6 179 
 PAM  EZ EP       1024 42.25                             153    0.0310 68.8  51 
 PAM  EZ I        1024 43.85         2.7 0.20            156           68.8  51 
 PAM  EN ES       1024 58.29                             153   -0.3510 68.8  51 
 RUS  HZ EP       1024 45.48                             138   -0.1610  117 174 
 RUS  HN ES       1025  4.40                             138   -0.3210  117 174 
 RUS  HZ I        1025  5.93         0.9 0.48            142            117 174 
 PTB  HZ EP       1024 47.46                             131   -0.17 9  148 252 
 PTB  HN ES       1025  8.11                             131   -0.15 9  148 252 
 PTB  HZ I        1025 11.33         2.4 0.26            131            148 252 
 ZAR  HZ EP       1024 52.50                             122    0.31 9  194 288 
 ZAR  HE ES       1025 16.22                             122   -0.17 9  194 288 
 ZAR  HZ I        1025 24.52         2.3 0.30            123            194 288 
                                                                                
