 2011 1112 1322 42.4 L   6.746 -73.070147.4  RSN  6 0.4 2.1LRSN                1
 GAP=149        0.83       4.4     5.5  6.8 -0.4113E+01  0.7641E+01 -0.7424E+00E
 Epicentro: JORDAN - SANTANDER                                                 3
 ACTION:UPD 12-07-13 16:09 OP:ep   STATUS:               ID:20111112132242 L   I
 2011-11-12-1318-54S.COL___180                                                 6
 STAT SP IPHASW D HRMM SECON CODA AMPLIT PERI AZIMU VELO AIN AR TRES W  DIS CAZ7
 BAR2 SZ EP       1323  2.12                             171   -0.0810 21.1 216 
 BAR2 SZ I        1323  2.70        24.0 0.40                          21.1 216 
 BAR2 SZ ES   1   1323 17.86                             171    0.24 7 21.1 216 
 PAM  SZ EP       1323  4.88                             151    0.0810 77.3  32 
 PAM  SE ES       1323 21.95                             151   -0.3010 77.3  32 
 BRR  HZ EP       1323  3.96                             149   -0.3810 81.4 299 
 BRR  HZ I        1323  4.30        40.0 0.19                          81.4 299 
 BRR  HN ES       1323 21.72                             149    0.2810 81.4 299 
 RUS  HZ EP   1   1323  6.14                             146    0.25 7 94.4 181 
 RUS  HN ES       1323 24.30                             146    0.1010 94.4 181 
 RUS  HZ I        1323 26.07        10.4 0.39                          94.4 181 
 ZAR  HZ EP   1   1323 16.83                             121    0.83 6  214 293 
 ZAR  HZ I        1323 47.28        13.4 0.24                           214 293 
 NOR  SN ES   1   1323 46.03                             118   -0.83 6  238 237 
                                                                                
