 2013  212 1156 47.9 L   6.806 -73.163146.0  RSN  8 0.4 2.3LRSN                1
 GAP=134        1.03       3.7     4.8  6.4  0.1463E+01  0.6493E+01  0.2637E+01E
 Epicentro: LOS SANTOS - SANTANDER                                             3
 ACTION:UPD 13-03-12 09:32 OP:ep   STATUS:               ID:20130212115647 L   I
 2013-02-12-1150-00M.COL___240                                                 6
 STAT SP IPHASW D HRMM SECON CODA AMPLIT PERI AZIMU VELO AIN AR TRES W  DIS CAZ7
 BAR2 SZ IP     C 1157  7.37                             170   -0.1510 23.7 185 
 BAR2 SZ ES       1157 22.78                             170   -0.0810 23.7 185 
 BAR2 SZ I        1157 23.36        41.9 0.26            170           23.7 185 
 BRR  HZ IP     D 1157  9.11                             153    0.1910 69.3 299 
 BRR  HN ES       1157 26.06                             153    0.7110 69.3 299 
 PAM  SZ IP     D 1157 10.31                             151    0.1710 78.1  41 
 PAM  SZ I        1157 10.50        39.1 0.18            152           78.1  41 
 PAM  SN ES       1157 27.25                             151   -0.2710 78.1  41 
 RUS  HZ EP       1157 11.43                             144   -0.2510  101 175 
 RUS  HN ES       1157 30.29                             144    0.0210  101 175 
 RUS  HZ I        1157 31.56        20.6 0.26            144            101 175 
 PTB  HZ EP       1157 13.83                             132   -0.85 9  146 258 
 PTB  HN ES       1157 34.94                             132   -0.67 9  146 258 
 PTB  HZ I        1157 39.86        19.3 0.48            131            146 258 
 ZAR  HZ EP   1   1157 20.43                             123    0.32 6  202 292 
 ZAR  HN ES   1   1157 45.76                             123    0.49 6  202 292 
 SML  HZ EP   2   1157 24.36                             118    0.01 4  242 336 
 SML  HN ES   1   1157 52.88                             118    0.07 6  242 336 
 SML  HZ I        1157 58.02        30.3 0.10            117            242 336 
 CHI  HZ EP     C 1157 25.87                             117    0.29 8  249 195 
 CHI  HN ES       1157 55.72                             117    0.72 8  249 195 
 CHI  HZ I        1157 58.23         6.4 0.32            117            249 195 
                                                                                
