 2014  112 1256  9.4 L   6.071 -73.725108.2  RSN  8 0.4 1.7LRSN                1
 GAP= 75        1.02       3.2     3.0  8.3 -0.5031E+00  0.9452E+01  0.6866E+01E
 Epicentro: BOLIVAR - SANTANDER                                                3
 ACTION:UPD 14-03-13 09:54 OP:ep   STATUS:               ID:20140112125609 L   I
 OLDACT:DUP 14-01-12 18:22 OP:stll STATUS:               ID:20140112124808d    3
 2014-01-12-1248-07M.COL___243                                                 6
 STAT SP IPHASW D HRMM SECON CODA AMPLIT PERI AZIMU VELO AIN AR TRES W  DIS CAZ7
 RUS  HZ EP       1256 27.37                             143   -0.1510 73.8 105 
 RUS  HN ES       1256 41.44                             143   -0.2110 73.8 105 
 RUS  HZ I        1256 43.36         6.3 0.24            150           73.8 105 
 BAR2 SZ EP       1256 28.09                             140    0.2110 83.3  46 
 BAR2 SZ ES       1256 42.65                             140    0.3510 83.3  46 
 BAR2 SZ I        1256 44.17        63.0 0.34            145           83.3  46 
 PTB  HZ EP       1256 28.08                             135   -0.5510 96.1 303 
 PTB  HN ES       1256 43.03                             135   -0.6110 96.1 303 
 PTB  HZ I        1256 47.37        10.5 0.10            138           96.1 303 
 BRR  HZ EP       1256 30.30                             129    0.0210  115   1 
 BRR  HN ES       1256 46.97                             129    0.3910  115   1 
 BRR  HZ I        1256 50.44        11.5 0.38            134            115   1 
 NOR  HZ EP       1256 32.87                             124    0.17 9  139 246 
 NOR  HN ES       1256 51.30                             124    0.41 9  139 246 
 NOR  HZ I        1256 55.07         9.9 0.28            128            139 246 
 CHI  HZ EP       1256 34.75                             120   -0.59 9  159 180 
 CHI  HZ I        1256 35.22         2.0 0.20            125            159 180 
 CHI  HE ES       1256 55.68                             120    0.11 9  159 180 
 HEL  HZ EP       1256 40.16                             113    0.44 9  200 274 
 HEL  HN ES       1257  2.93                             113   -0.44 9  200 274 
 HEL  HZ I        1257  8.00         3.4 0.50            117            200 274 
 GUY2CHN ES       1257  5.10                             113    0.63 9  204 243 
                                                                                
