 2012 1012 1426 23.5 L   6.791 -73.133149.0  RSN  6 0.2 1.7LRSN                1
 GAP=139        0.46       2.9     3.3  4.2  0.1293E+01  0.1122E+01  0.1452E+01E
 Epicentro: LOS SANTOS - SANTANDER                                             3
 ACTION:UPD 12-11-22 17:03 OP:ep   STATUS:               ID:20121012142623 L   I
 2012-10-12-1420-00M.COL___232                                                 6
 STAT SP IPHASW D HRMM SECON CODA AMPLIT PERI AZIMU VELO AIN AR TRES W  DIS CAZ7
 BAR2 SZ EP   1   1426 43.28                             171   -0.25 7 22.7 194 
 BAR2 SZ ES   1   1426 59.35                             171    0.21 7 22.7 194 
 BAR2 SZ I        1427  0.92        14.6 0.25                          22.7 194 
 BRR  HZ EP   1   1426 45.30                             152    0.18 7 72.9 299 
 BRR  HN ES   1   1427  2.09                             152    0.12 7 72.9 299 
 BRR  HN I        1427  3.45        17.7 0.14                          72.9 299 
 PAM  SZ EP       1426 46.25                             151    0.1810 77.2  38 
 PAM  SE ES   1   1427  3.42                             151   -0.25 7 77.2  38 
 PAM  SN I        1427  4.56         4.2 0.66                          77.2  38 
 RUS  HZ EP   1   1426 47.28                             145   -0.24 7 99.5 177 
 RUS  HN ES   1   1427  6.17                             145   -0.07 7 99.5 177 
 RUS  HN I        1427  7.55         9.5 0.28                          99.5 177 
 ZAR  HN ES   1   1427 21.71                             123   -0.25 6  206 292 
 CHI  HZ EP   1   1427  1.56                             118    0.22 6  248 196 
 CHI  HZ I        1427  3.15         2.1 0.58                           248 196 
                                                                                
