 2011  512 1948 44.2 L   6.814 -73.139152.3  RSN  4 0.2 1.5LRSN                1
 GAP=227        0.63      20.0    22.1 11.3  0.3426E+03 -0.7493E+01  0.4980E+02E
 Epicentro: LOS SANTOS - SANTANDER                                             3
 ACTION:UP  11-06-29 08:52 OP:tino STATUS:               ID:20110512194844 L   I
 2011-05-12-1945-54S.COL___129                                                 6
 STAT SP IPHASW D HRMM SECON CODA AMPLIT PERI AZIMU VELO SNR AR TRES W  DIS CAZ7
 BTL  SZ EP       1949  4.79                             173     0.310   18 309 
 BTL  SZ ES   2   1949 20.01                             173    -0.4 5   18 309 
 BAR2 SZ EP       1949  4.50                             170    -0.110   25 191 
 BAR2 SZ I        1949  5.19         6.5 0.44                            25 191 
 BRR  HZ EP       1949  5.86                             154    -0.210   71 297 
 BRR  HZ I        1949  6.63        14.0 0.21                            71 297 
 BRR  HN ES   2   1949 23.46                             154     0.4 5   71 297 
 RUS  HZ EP   2   1949  8.87                             145     0.2 5  102 177 
 RUS  HZ I        1949 10.16         2.8 0.29                           102 177 
                                                                                
