 2015  112 1951 23.7 L   6.779 -73.161138.9  RSN  7 0.5 1.8LRSN                1
 GAP=136        1.18       5.2     5.5  7.7 -0.3577E+01  0.1107E+02  0.2567E+01E
 Epicentro: LOS SANTOS - SANTANDER                                             3
 ACTION:UPD 15-03-02 15:39 OP:nd   STATUS:               ID:20150112195123 L   I
 OLDACT:UP  15-01-13 01:01 OP:mh   STATUS:               ID:20150112194745     3
 OLDACT:UP  15-01-13 01:01 OP:mh   STATUS:               ID:20150112194745     3
 OLDACT:REG 15-01-12 21:19 OP:mh   STATUS:               ID:20150112194745     3
 2015-01-12-1947-45M.COL___259                                                 6
 STAT SP IPHASW D HRMM SECON CODA AMPLIT PERI AZIMU VELO AIN AR TRES W  DIS CAZ7
 BAR2 EZ EP       1951 41.62                             171   -0.8410 20.8 187 
 BAR2 EZ ES       1951 57.05                             171   -0.0410 20.8 187 
 BAR2 EZ I        1952  0.05        12.7 0.17            169           20.8 187 
 BRR  HZ EP       1951 44.21                             151    0.1110 70.9 301 
 BRR  HN ES       1951 59.97                             151   -0.0410 70.9 301 
 BRR  HZ I        1952  2.06        11.7 0.33            151           70.9 301 
 PAM  SZ EP       1951 45.67                             149    0.2910 80.3  39 
 PAM  SN ES       1952  2.28                             149    0.0010 80.3  39 
 PAM  SZ I        1952  4.85        14.5 0.54            154           80.3  39 
 RUS  HZ EP       1951 46.82                             143    0.2010 98.4 175 
 RUS  HN ES   1   1952  5.01                             143    0.51 7 98.4 175 
 RUS  HZ I        1952  7.07         4.9 0.34            145           98.4 175 
 PTB  HZ EP       1951 49.25                             131   -0.68 9  146 260 
 PTB  HN ES   1   1952  9.90                             131   -0.48 7  146 260 
 PTB  HZ I        1952 12.61         8.2 0.16            132            146 260 
 SPBC HZ EP       1951 50.91                             128   -0.50 9  160 219 
 SPBC HN ES       1952 13.60                             128    0.58 9  160 219 
 SPBC HZ I        1952 21.44         7.0 0.38            129            160 219 
 ZAR  HZ EP       1951 56.58                             121    0.94 9  203 293 
 ZAR  HN ES   1   1952 20.80                             121    0.24 6  203 293 
 ZAR  HZ I        1952 27.54         7.8 0.36            123            203 293 
                                                                                
