 2012 1112 1223 39.3 L   6.715 -73.185150.4  RSN  4 0.4 1.5LRSN                1
 GAP=226        0.97       7.9     7.8  9.8  0.3115E+02 -0.8870E+01 -0.6543E+01E
 Epicentro: VILLANUEVA - SANTANDER                                             3
 ACTION:UPD 12-12-05 15:32 OP:}ep  STATUS:               ID:20121112122339 L   I
 2012-11-12-1220-00M.COL___230                                                 6
 STAT SP IPHASW D HRMM SECON CODA AMPLIT PERI AZIMU VELO AIN AR TRES W  DIS CAZ7
 BAR2 SZ EP       1223 58.60                             175   -0.7510 13.5 179 
 BAR2 SZ I        1224 16.00         8.6 0.16                          13.5 179 
 BRR  HZ EP       1224  1.19                             153    0.1510 72.7 307 
 BRR  HE ES       1224 18.24                             153    0.2410 72.7 307 
 BRR  HE I        1224 18.90         7.9 0.36                          72.7 307 
 RUS  HZ EP       1224  3.44                             147    0.5310 91.6 173 
 RUS  HN ES       1224 21.28                             147   -0.0310 91.6 173 
 PTB  HZ EP       1224  6.14                             134   -0.01 9  142 262 
 PTB  HN ES       1224 26.93                             134   -0.15 9  142 262 
 PTB  HZ I        1224 34.56         1.8 0.32                           142 262 
                                                                                
