 2011 1112 1600 34.5 L   6.717 -73.079149.7  RSN  4 0.2 1.5LRSN                1
 GAP=149        0.61       4.9     7.6  6.0  0.1783E+02 -0.2139E+02 -0.9177E+01E
 Epicentro: JORDAN - SANTANDER                                                 3
 ACTION:UPD 12-07-13 16:09 OP:ep   STATUS:               ID:20111112160034 L   I
 2011-11-12-1557-38S.COL___180                                                 6
 STAT SP IPHASW D HRMM SECON CODA AMPLIT PERI AZIMU VELO AIN AR TRES W  DIS CAZ7
 BAR2 SZ EP       16 0 54.74                             173    0.1910 17.9 220 
 BAR2 SZ ES       16 1 10.12                             173   -0.0410 17.9 220 
 BAR2 SZ I        16 1 10.77         6.8 0.34                          17.9 220 
 PAM  SZ EP       16 0 57.34                             150   -0.0310 80.6  31 
 BRR  HZ EP       16 0 57.02                             150    0.2610 82.2 302 
 BRR  HZ I        16 0 58.47         7.4 0.08                          82.2 302 
 BRR  HE ES       16 1 13.92                             150   -0.1710 82.2 302 
 RUS  HZ EP       16 0 57.67                             147   -0.3710 91.2 180 
 RUS  HE ES   1   16 1 16.66                             147    0.29 7 91.2 180 
 RUS  HZ I        16 1 18.57         3.5 0.42                          91.2 180 
                                                                                
