 2013  312 1312  1.0 L   6.787 -73.097132.2  RSN  4 0.1 1.7LRSN                1
 GAP=143        0.37       3.3     5.2  4.6  0.8854E+01 -0.9196E+01 -0.5731E+01E
 Epicentro: LOS SANTOS - SANTANDER                                             3
 ACTION:UPD 13-04-09 14:01 OP:ep   STATUS:               ID:20130312131201 L   I
 2013-03-12-1310-00M.COL___231                                                 6
 STAT SP IPHASW D HRMM SECON CODA AMPLIT PERI AZIMU VELO AIN AR TRES W  DIS CAZ7
 BAR2 SZ ES   1   1312 32.90                             169   -0.13 7 23.5 204 
 BAR2 SZ I        1312 35.08        12.7 0.14            169           23.5 204 
 PAM  SZ EP   1   1312 21.71                             149    0.06 7 75.3  36 
 BRR  HZ EP       1312 21.07                             148    0.0410 76.6 298 
 BRR  HN ES   1   1312 36.67                             148    0.01 7 76.6 298 
 BRR  HN I        1312 38.18        14.0 0.35            150           76.6 298 
 RUS  HZ EP   1   1312 23.12                             141   -0.18 7 98.9 179 
 RUS  HN ES   1   1312 40.88                             141    0.18 7 98.9 179 
 RUS  HN I        1312 42.82         7.9 0.15            143           98.9 179 
                                                                                
