 2012  612 1253 29.2 L   6.605 -73.594 99.3  RSN  4 0.6 1.5LRSN                1
 GAP=147        1.14      10.3     6.8 13.6  0.3882E+02  0.2677E+02 -0.1305E+02E
 Epicentro: EL CARMEN DE CHUCURI - SANTANDER                                   3
 ACTION:UPD 12-08-06 17:49 OP:ep   STATUS:               ID:20120612125327 L   I
 2012-06-12-1250-00M.COL___201                                                 6
 STAT SP IPHASW D HRMM SECON CODA AMPLIT PERI AZIMU VELO AIN AR TRES W  DIS CAZ7
 BAR2 SZ EP       1253 43.79                             154   -0.4610 45.5  92 
 BAR2 SZ ES   1   1253 55.85                             154   -0.12 7 45.5  92 
 BAR2 SZ I        1253 57.69        40.5 0.38            165           45.5  92 
 PTB  HZ IP       1253 47.21                             133   -0.4710 95.6 266 
 PTB  HN ES   1   1254  1.75                             133   -0.32 7 95.6 266 
 PTB  HZ I        1254  7.47         4.0 0.16            135           95.6 266 
 RUS  HZ EP   1   1253 48.75                             133    0.31 7 96.9 144 
 RUS  HN ES   1   1254  4.22                             133    0.79 7 96.9 144 
 RUS  HZ I        1254  4.79         3.3 0.27            141           96.9 144 
 ZAR  HZ EP   1   1253 55.51                             116    0.13 7  171 305 
 ZAR  HN ES   1   1254 16.90                             116    1.12 7  171 305 
 ZAR  HZ I        1254 20.20         7.7 0.14            120            171 305 
                                                                                
