 2011  612 1404  9.9 L   6.781 -73.110150.0  RSN  9 0.2 2.9LRSN                1
 GAP=160        0.43       2.2     4.6  3.8 -0.3994E+01  0.1764E+01 -0.1337E+01E
 Epicentro: LOS SANTOS - SANTANDER                                             3
 ACTION:UP  11-07-14 19:04 OP:ep   STATUS:               ID:20110612140409 L   I
 2011-06-12-1402-36S.COL___132                                                 6
 STAT SP IPHASW D HRMM SECON CODA AMPLIT PERI AZIMU VELO SNR AR TRES W  DIS CAZ7
 BAR2 SZ EP   1   14 4 29.91                             171    -0.1 8   22 201 
 BAR2 SZ ES   1   14 4 45.75                             171     0.0 8   22 201 
 BAR2 SZ I        14 4 46.72       132.6 0.37                            22 201 
 BTL  SZ EP   1   14 4 30.08                             171     0.0 8   23 311 
 BRR  HZ EP   1   14 4 31.84                             152     0.0 8   76 298 
 BRR  HZ I        14 4 32.14       300.6 0.16                            76 298 
 BRR  HE ES   2   14 4 49.26                             152     0.4 5   76 298 
 RUS  HZ EP   1   14 4 33.98                             145     0.0 8   98 178 
 RUS  HN ES   1   14 4 52.60                             145    -0.1 8   98 178 
 RUS  HZ I        14 4 53.83        66.1 0.44                            98 178 
 BRI  SZ IP       14 4 34.53                             142     0.310  109  18 
 BRI  SZ ES   2   14 4 52.91                             142    -0.4 5  109  18 
 BRI  SZ I        14 4 57.99        76.0 0.42                           109  18 
 GRA  SZ EP   1   14 4 35.72                             138     0.1 7  127  15 
 GRA  SZ ES   2   14 4 55.55                             138    -0.1 5  127  15 
 GRA  SZ I        14 4 56.40       119.3 0.29                           127  15 
 OCA  SZ EP   1   14 4 38.46                             130    -0.4 7  163 352 
 OCA  SZ ES   2   14 5  1.29                             130    -0.1 5  163 352 
 OCA  SZ I        14 5  6.35       146.2 0.29                           163 352 
 NOR  SN ES   2   14 5 14.06                             119    -0.3 4  237 235 
 PRA  HZ EP   1   14 5  3.56                             107    -0.1 4  392 210 
 PRA  HN ES   2   14 5 45.71                             107     0.2 3  392 210 
                                                                                
