 2012 1112 1604 37.8 L   6.782 -73.110147.9  RSN  5 0.2 1.6LRSN                1
 GAP=142        0.52       3.1     4.2  4.6 -0.6380E+00 -0.4590E+00 -0.2663E+01E
 Epicentro: LOS SANTOS - SANTANDER                                             3
 ACTION:UPD 12-12-05 15:32 OP:}ep  STATUS:               ID:20121112160437 L   I
 2012-11-12-1600-00M.COL___230                                                 6
 STAT SP IPHASW D HRMM SECON CODA AMPLIT PERI AZIMU VELO AIN AR TRES W  DIS CAZ7
 BAR2 SZ EP       16 4 57.66                             171   -0.0210 22.5 201 
 BAR2 SZ I        16 4 58.24         7.7 0.16                          22.5 201 
 BAR2 SZ ES       16 5 13.41                             171    0.2310 22.5 201 
 GIR2 SZ EP       16 4 57.64                             166   -0.1710 34.1 344 
 BRR  HZ EP       16 4 59.36                             151   -0.0810 75.6 298 
 BRR  HN ES       16 5 16.33                             151    0.0210 75.6 298 
 BRR  HN I        16 5 20.01        17.0 0.20                          75.6 298 
 PAM  SZ EP       16 5  0.53                             151    0.3310 76.5  36 
 PAM  SN ES       16 5 17.47                             151   -0.2010 76.5  36 
 PAM  SN I        16 5 17.96         6.7 0.40                          76.5  36 
 RUS  HN ES       16 5 20.07                             145   -0.1110 98.4 178 
 RUS  HN I        16 5 21.49         4.6 0.46                          98.4 178 
                                                                                
