 2016  812 1555 10.2 L   5.913 -73.603118.6  RSN  7 0.4 1.5LRSN                1
 GAP= 94        0.98       4.0     3.7  6.7 -0.3168E+01  0.4231E+01  0.8166E+01E
 Epicentro: BARBOSA - SANTANDER                                                3
 ACTION:UPD 16-10-29 15:34 OP:rebc STATUS:               ID:20160812155510 L   I
 OLDACT:REG 16-08-12 20:44 OP:lv   STATUS:               ID:20160812154759     3
 2016-08-12-1547-59S.COL___349                                                 6
 STAT SP IPHASW D HRMM SECON CODA AMPLIT PERI AZIMU VELO AIN AR TRES W  DIS CAZ7
 RUS  HZ EP       1555 28.72                             153    0.3610 57.6  92 
 RUS  HE ES       1555 41.87                             153   -0.6510 57.6  92 
 RUS  HZ I        1555 44.24         6.2 0.24                          57.6  92 
 SPBC HE ES       1555 42.02                             152    0.3410 59.5 241 
 SPBC HZ I        1555 42.84        14.7 0.20                          59.5 241 
 BAR2 EZ EP       1555 30.55                             141    0.4910 88.3  32 
 BAR2 EZ ES       1555 45.85                             141    0.3010 88.3  32 
 BAR2 EZ I        1555 50.90         4.5 0.17                          88.3  32 
 PTB  HZ EP       1555 31.46                             132   -0.7210  117 306 
 PTB  HN ES       1555 49.06                             132   -0.2610  117 306 
 PTB  HZ I        1555 52.27         3.5 0.09                           117 306 
 CHI  HZ EP       1555 34.92                             126   -0.20 9  143 186 
 CHI  HN ES   2   1555 54.28                             126   -0.28 5  143 186 
 CHI  HZ I        1555 57.39         2.2 0.10                           143 186 
 NOR  HZ EP       1555 34.97                             125    0.04 9  146 255 
 NOR  HN ES       1555 54.46                             125    0.24 9  146 255 
 NOR  HZ I        1555 56.32         6.7 0.15                           146 255 
 PRA  HZ EP       1555 49.80                             108   -0.09 7  282 210 
 PRA  HE ES       1556 21.06                             108    0.20 7  282 210 
 PRA  HZ I        1556 24.81         2.4 0.19                           282 210 
                                                                                
