 2011  412 1935 10.3 L   6.740 -73.232144.5  RSN  9 0.4 2.9LRSN                1
 GAP=108        0.93       4.1     6.6  7.0 -0.5685E+00  0.1046E+02  0.2967E+01E
 Epicentro: VILLANUEVA - SANTANDER                                             3
 ACTION:UP  11-06-22 15:30 OP:REBC STATUS:               ID:20110412193510 L   I
 2011-04-12-1932-09S.COL___138                                                 6
 STAT SP IPHASW D HRMM SECON CODA AMPLIT PERI AZIMU VELO SNR AR TRES W  DIS CAZ7
 BAR2 SZ IP       1935 30.05                             173     0.410   17 161 
 BAR2 SZ I        1935 30.34       158.8 0.12                            17 161 
 BAR2 SZ ES       1935 44.40                             173    -0.410   17 161 
 GIR2 SZ EP   1   1935 30.18                             165     0.1 7   38   6 
 BRR  HZ IP     C 1935 31.44                             154     0.410   67 307 
 BRR  HZ I        1935 31.95       214.0 0.14                            67 307 
 BRR  HN ES   2   1935 47.91                             154     0.6 5   67 307 
 PAM  SZ EP       1935 33.33                             147     0.210   89  42 
 PAM  SN ES   1   1935 51.11                             147     0.2 7   89  42 
 OCA  SZ EP       1935 38.51                             128    -0.6 9  166 357 
 OCA  SZ ES   1   1936  0.96                             128    -0.6 7  166 357 
 OCA  SZ I        1936  4.47        97.1 0.27                           166 357 
 YOP  SZ EP   1   1935 40.71                             126     0.6 7  178 150 
 YOP  SN ES   1   1936  2.74                             126    -0.7 7  178 150 
 YOP  SZ I        1936  6.60       108.0 0.30                           178 150 
 NOR  SZ EP   1   1935 44.60                             119    -0.1 6  223 234 
 NOR  SN ES   2   1936 11.21                             119    -0.4 4  223 234 
 CHI  HZ EP   2   1935 46.59                             118    -0.4 4  240 193 
 CHI  HZ I        1936 22.49        25.7 0.39                           240 193 
 PRA  HZ EP   2   1936  2.65                             107     0.1 3  382 209 
 PRA  HE ES   2   1936 43.70                             107     0.4 3  382 209 
                                                                                
