 2010 1212 1856 11.1 L   6.099 -74.033 79.0  RSN  5 0.4 1.5LRSN                1
 GAP=163        0.64       6.8     4.8 16.1 -0.2518E+02 -0.1441E+02  0.6896E+01E
 Epicentro: CIMITARRA - SANTANDER                                              3
 ACTION:UP  11-01-14 15:24 OP:pat  STATUS:               ID:20101212185611 L   I
 2010-12-12-1852-02S.COL___137                                                 6
 STAT SP IPHASW D HRMM SECON CODA AMPLIT PERI AZIMU VELO SNR AR TRES W  DIS CAZ7
 RUS  HZ EP       1856 29.75                             120    -0.110  108 102 
 RUS  HZ I        1856 30.49         3.9 0.39                           108 102 
 BAR2 SZ ES   2   1856 44.23                             120     0.1 5  109  60 
 BAR2 SZ I        1856 45.79        14.9 0.22                           109  60 
 NOR  SZ EP       1856 29.90                             119     0.310  110 238 
 NOR  SN ES   1   1856 43.60                             119    -0.3 7  110 238 
 BTL  SZ EP       1856 31.30                             116     0.010  124  43 
 BTL  SZ ES   2   1856 47.15                             116     0.1 5  124  43 
 GIR2 SZ EP   3   1856 32.00                             112    -1.3 2  143  41 
                                                                                
