 2010  512 1429  1.0 L   6.435 -73.451110.0  RSN  5 0.3 1.7LRSN                1
 GAP=131        0.57       3.5     7.4  7.1 -0.1683E+01  0.2040E+02  0.2353E+01E
 Epicentro: SIMACOTA - SANTANDER                                               3
 ACTION:UP  10-08-24 10:04 OP:vdl  STATUS:               ID:20100512142901 L   I
 2010-05-12-1426-25S.COL___104                                                 6
 STAT SP IPHASW D HRMM SECON CODA AMPLIT PERI AZIMU VELO AIN AR TRES W  DIS CAZ7
 BAR2 SZ EP   1   1429 16.79                             162     0.0 7   34  60 
 BAR2 SZ ES   2   1429 29.43                             162     0.4 5   34  60 
 RUS  HZ EP   1   1429 18.83                             144    -0.4 7   73 146 
 RUS  HE ES   2   1429 33.56                             144     0.1 5   73 146 
 RUS  HZ I        1429 34.70         8.3 0.68                            73 146 
 BRR  HZ EP   1   1429 18.78                             141    -0.3 7   80 339 
 BRR  HN ES   2   1429 33.04                             141    -0.1 5   80 339 
 GUE  SZ EP   1   1429 27.67                             119     0.1 7  165  21 
 GUE  SZ ES   2   1429 48.72                             119     0.5 5  165  21 
 PRA  HZ EP   1   1429 47.59                             102     0.2 5  340 208 
 PRA  HN ES   2   1430 24.24                             102     0.7 3  340 208 
 PRA  HZ I        1430 26.91         3.5 0.28                           340 208 
                                                                                
