 2014  812 1109  3.3 L   6.663 -73.145154.5  RSN  4 0.1 1.2LRSN                1
 GAP=239        0.33       4.3     3.2  4.1  0.9259E+01  0.9532E+00 -0.3344E+01E
 Epicentro: VILLANUEVA - SANTANDER                                             3
 ACTION:UPD 14-09-15 21:49 OP:nd   STATUS:               ID:20140812110903 L   I
 OLDACT:REG 14-08-12 21:24 OP:spq  STATUS:               ID:20140812110819     3
 2014-08-12-1108-19M.COL___263                                                 6
 STAT SP IPHASW D HRMM SECON CODA AMPLIT PERI AZIMU VELO AIN AR TRES W  DIS CAZ7
 BAR2 SZ EP       11 9 23.89                             177    0.1310 8.84 208 
 BAR2 SZ ES   1   11 9 39.68                             177   -0.06 7 8.84 208 
 BAR2 SZ I        11 9 41.53         4.9 0.32            170           8.84 208 
 RUS  HZ EP   1   11 9 26.86                             150   -0.04 7 85.4 175 
 RUS  HN ES   1   11 9 45.29                             150   -0.04 7 85.4 175 
 RUS  HZ I        11 9 48.92         1.7 0.42            149           85.4 175 
 PTB  HZ EP   1   11 9 30.65                             134   -0.13 7  146 265 
 PTB  HE ES   1   11 9 52.36                             134    0.12 7  146 265 
 PTB  HZ I        11 9 56.44         2.0 0.20            133            146 265 
 ZAR  HN ES       1110  3.13                             123   -0.06 8  210 296 
 ZAR  HZ I        1110  8.52         1.1 0.31            124            210 296 
                                                                                
