 2013  212 1149 15.9 L   6.800 -73.176143.2  RSN  7 0.5 1.9LRSN                1
 GAP=133        1.20       5.7     5.2  8.0  0.3537E+01  0.7680E+01  0.7951E+01E
 Epicentro: LOS SANTOS - SANTANDER                                             3
 ACTION:UPD 13-03-12 09:32 OP:ep   STATUS:               ID:20130212114915 L   I
 2013-02-12-1147-49M.COL___181                                                 6
 STAT SP IPHASW D HRMM SECON CODA AMPLIT PERI AZIMU VELO AIN AR TRES W  DIS CAZ7
 BAR2 SZ EP       1149 35.19                             170   -0.0410 22.9 182 
 BAR2 SZ ES       1149 50.00                             170   -0.2910 22.9 182 
 BAR2 SZ I        1149 51.30        17.6 0.22            158           22.9 182 
 BRR  HZ EP       1149 37.01                             153    0.3910 68.3 300 
 BRR  HN ES       1149 53.89                             153    1.1210 68.3 300 
 BRR  HN I        1149 54.16        40.5 0.30            148           68.3 300 
 PAM  SZ EP       1149 37.78                             150   -0.2110 79.6  41 
 PAM  SN ES       1149 54.87                             150   -0.3410 79.6  41 
 RUS  HZ EP       1149 39.58                             143    0.1510  101 174 
 RUS  HN ES       1149 57.74                             143   -0.0310  101 174 
 RUS  HN I        1149 59.55        10.0 0.40            129            101 174 
 PTB  HZ EP       1149 42.04                             132   -0.33 9  144 259 
 PTB  HN ES       1150  2.39                             132   -0.62 9  144 259 
 PTB  HN I        1150  5.59         9.4 0.28            121            144 259 
 ZAR  HN ES       1150 12.46                             122   -0.34 9  201 293 
 CHI  HZ EP       1149 53.94                             117    0.57 8  248 194 
 CHI  HN I        1150 25.18         4.3 0.30            107            248 194 
                                                                                
