 2017  712 1935 56.6 L   6.763 -73.168143.2  RSN  8 0.3 2.0LRSN                1
 GAP=111        0.75       3.2     2.8  5.6 -0.6396E+00  0.3747E+01  0.2951E+01E
 Epicentro: LOS SANTOS - SANTANDER                                             3
 ACTION:UPD 17-08-30 15:32 OP:rebc STATUS:               ID:20170712193556 L   I
 OLDACT:DUP 17-07-13 00:36 OP:lv   STATUS:               ID:20170712192744d    3
 2017-07-12-1928-00M.COL___371                                                 6
 STAT SP IPHASW D HRMM SECON CODA AMPLIT PERI AZIMU VELO AIN AR TRES W  DIS CAZ7
 BAR2 EZ EP       1936 16.13                             172    0.3210 19.0 185 
 BAR2 EZ ES   1   1936 31.11                             172    0.29 7 19.0 185 
 BAR2 EZ I        1936 33.25        13.4 0.24            172           19.0 185 
 PAM  EZ EP       1936 18.99                             149    0.1810 82.1  39 
 PAM  EN ES       1936 36.04                             149   -0.1110 82.1  39 
 PAM  EZ I        1936 38.43        20.8 0.38            152           82.1  39 
 PTB  HZ EP       1936 22.78                             132   -0.26 9  145 260 
 PTB  HN ES       1936 43.82                             132    0.14 9  145 260 
 PTB  HZ I        1936 46.38        33.7 0.04            134            145 260 
 SPBC HZ EP       1936 24.88                             129    0.45 9  158 219 
 SPBC HN ES       1936 45.68                             129   -0.47 9  158 219 
 SPBC HZ I        1936 49.75        15.3 0.32            132            158 219 
 YPLC HZ EP       1936 25.93                             126   -0.03 9  175 150 
 YPLC HN ES       1936 48.48                             126   -0.39 9  175 150 
 YPLC HZ I        1936 51.42         8.6 0.21            130            175 150 
 ZAR  HZ EP       1936 28.39                             122   -0.39 9  203 293 
 ZAR  HN ES   1   1936 53.48                             122   -0.41 6  203 293 
 ZAR  HZ I        1936 59.93        16.6 0.05            124            203 293 
 NOR  HZ EP       1936 31.95                             118    0.27 8  230 235 
 NOR  HN ES       1936 59.35                             118    0.28 8  230 235 
 NOR  HZ I        1937  1.59         5.6 0.27            121            230 235 
 GUY2CHZ EP   4   1936 40.91                             112    1.34 0  297 235 
 GUY2CHN ES   4   1937 11.35                             112   -1.76 0  297 235 
 GUY2CHZ I        1937 22.18         2.7 0.15                           297 235 
 SJC  HZ EP   4   1936 50.11                             105   -2.19 0  411 328 
 SJC  HN ES   4   1937 31.56                             105   -4.20 0  411 328 
                                                                                
