 2013 1112 1733 14.5 L   6.794 -73.167147.7  RSN  7 0.3 2.2LRSN                1
 GAP=199        0.83       3.3     4.6  5.6  0.4640E+01  0.1261E+01 -0.3908E+01E
 Epicentro: LOS SANTOS - SANTANDER                                             3
 ACTION:UPD 14-01-09 16:27 OP:ep   STATUS:               ID:20131112173314 L   I
 OLDACT:REG 13-11-12 15:43 OP:stll STATUS:               ID:20131112172818     3
 2013-11-12-1728-18M.COL___216                                                 6
 STAT SP IPHASW D HRMM SECON CODA AMPLIT PERI AZIMU VELO AIN AR TRES W  DIS CAZ7
 BAR2 SZ EP       1733 34.61                             171    0.2910 22.4 184 
 BAR2 SZ ES       1733 49.91                             171    0.1110 22.4 184 
 BAR2 SZ I        1733 51.17        21.4 0.46            168           22.4 184 
 BRR  HZ EP       1733 35.97                             153    0.2310 69.5 300 
 BRR  HZ I        1733 40.03        14.4 0.42            149           69.5 300 
 BRR  HN ES       1733 52.63                             153    0.3010 69.5 300 
 RUS  HZ EP       1733 38.52                             144    0.1410  100 175 
 RUS  HN ES       1733 56.41                             144   -0.6210  100 175 
 RUS  HZ I        1733 58.05         5.8 0.26            144            100 175 
 PTB  HZ EP       1733 41.17                             133   -0.22 9  145 259 
 PTB  HN ES       1734  2.51                             133    0.13 9  145 259 
 PTB  HZ I        1734  8.30         7.6 0.18            130            145 259 
 SPBC HZ EP       1733 43.38                             130    0.44 9  161 218 
 SPBC HE ES       1734  4.83                             130   -0.31 9  161 218 
 SPBC HZ I        1734 12.44        11.5 0.26            128            161 218 
 ZAR  HN ES       1734 12.09                             123   -0.02 9  202 293 
 ZAR  HZ I        1734 17.92       482.5 1.34            121            202 293 
 SML  HZ EP       1733 51.02                             118   -0.15 8  243 336 
 SML  HN ES       1734 19.20                             118   -0.60 8  243 336 
 SML  HZ I        1734 24.49        10.4 0.10            117            243 336 
                                                                                
