 2013  912 1336  6.2 L   6.535 -73.504112.5  RSN 21 0.6 2.9LRSN 3.2WRSN        1
 SPEC AVERAGE  MO 13.8 ST 59.2 OM  2.3 f0 8.12 R0.2125 AL 0.00 WI 40.9 MW  3.2 3
 SPEC SD       MO  0.1 ST 41.3 OM  0.2 f0 2.36 R0.0728 AL      WI      MW  0.1 3
 GAP= 53        1.35       3.0     3.5  6.5 -0.2307E+01  0.6889E+01  0.1830E+01E
 Epicentro: EL CARMEN DE CHUCURI - SANTANDER                                   3
 SPEC PRA HH N MO 13.8 ST  8.2 OM  1.8 f0 4.97 R0.3127 AL 0.00 WI 35.8 MW  3.1 3
 SPEC PRA HH N T133729 K 0.000 GD  365 VS 4.20 DE 3.20 Q0300.0 QA 0.60 VS 4.20 3
 SPEC SML HH E MO 13.8 ST 81.9 OM  2.0 f0 10.0 R0.1554 AL 0.00 WI 31.7 MW  3.2 3
 SPEC SML HH E T1337 9 K 0.000 GD  281 VS 4.20 DE 3.20 Q0300.0 QA 0.60 VS 4.20 3
 SPEC HEL HH N MO 13.8 ST 11.3 OM  2.0 f0 5.35 R0.2905 AL 0.00 WI 24.7 MW  3.1 3
 SPEC HEL HH N T1337 4 K 0.000 GD  253 VS 4.20 DE 3.20 Q0300.0 QA 0.60 VS 4.20 3
 SPEC NOR HH N MO 13.8 ST 79.3 OM  2.1 f0 10.0 R0.1554 AL 0.00 WI 69.9 MW  3.2 3
 SPEC NOR HH N T133652 K 0.000 GD  216 VS 4.20 DE 3.20 Q0300.0 QA 0.60 VS 4.20 3
 SPEC ZAR HH N MO 14.0 ST124.8 OM  2.3 f0 10.0 R0.1554 AL 0.00 WI 31.1 MW  3.3 3
 SPEC ZAR HH N T133657 K 0.000 GD  214 VS 4.20 DE 3.20 Q0300.0 QA 0.60 VS 4.20 3
 SPEC PAM SH N MO 13.8 ST  9.3 OM  2.2 f0 4.93 R0.3152 AL 0.00 WI 36.4 MW  3.2 3
 SPEC PAM SH N T133645 K 0.000 GD  168 VS 4.20 DE 3.20 Q0300.0 QA 0.60 VS 4.20 3
 SPEC PTB HH N MO 13.9 ST 89.4 OM  2.3 f0 10.0 R0.1554 AL 0.00 WI 71.0 MW  3.2 3
 SPEC PTB HH N T133639 K 0.000 GD  153 VS 4.20 DE 3.20 Q0300.0 QA 0.60 VS 4.20 3
 SPEC BRR HH E MO 13.8 ST 69.5 OM  2.3 f0 9.70 R0.1602 AL 0.00 WI 26.7 MW  3.2 3
 SPEC BRR HH E T133636 K 0.000 GD  131 VS 4.20 DE 3.20 Q0300.0 QA 0.60 VS 4.20 3
 ACTION:UPD 13-10-22 09:22 OP:ep   STATUS:               ID:20130912133606 L   I
 OLDACT:UP  13-09-12 16:09 OP:cam  STATUS:               ID:20130912132959     3
 OLDACT:UP  13-09-12 16:09 OP:cam  STATUS:               ID:20130912132959     3
 OLDACT:UP  13-09-12 16:08 OP:cam  STATUS:               ID:20130912132959     3
 OLDACT:REG 13-09-12 14:58 OP:cam  STATUS:               ID:20130912132959     3
 2013-09-12-1329-59M.COL___269                                                 6
 STAT SP IPHASW D HRMM SECON CODA AMPLIT PERI AZIMU VELO AIN AR TRES W  DIS CAZ7
 BAR2 SZ IP     C 1336 22.44                             161    0.1910 36.2  80 
 BAR2 SZ ES       1336 35.22                             161    0.4410 36.2  80 
 BAR2 SZ I        1336 36.05       658.3 0.50            160           36.2  80 
 BRR  HZ EP       1336 23.24                             147   -0.3410 67.3 340 
 BRR  HE ES       1336 37.31                             147    0.1610 67.3 340 
 BRR  HZ I        1336 46.81       122.4 0.12            146           67.3 340 
 RUS  HZ EP     D 1336 25.33                             141   -0.2210 85.0 147 
 RUS  HN ES   1   1336 40.71                             141    0.04 7 85.0 147 
 RUS  HZ I        1336 42.39        87.2 0.24            138           85.0 147 
 PTB  HZ IP   4 C 1336 25.21                             134   -1.37 0  105 270 
 PTB  HN ES   4   1336 40.04                             134   -2.46 0  105 270 
 PTB  HZ I        1336 40.98       234.2 0.24            132            105 270 
 SPBC HZ IP     C 1336 27.20                             131   -0.4710  116 213 
 SPBC HN ES       1336 43.82                             131   -0.6110  116 213 
 SPBC HZ I        1336 50.62       177.4 0.18            129            116 213 
 PAM  SZ EP     C 1336 29.09                             128   -0.0210  126  45 
 PAM  SN ES       1336 47.08                             128    0.0810  126  45 
 PAM  SZ I        1336 48.37       124.7 0.24            127            126  45 
 ZAR  HZ EP       1336 34.16                             117   -0.24 9  183 305 
 ZAR  HN ES       1336 57.59                             117    1.17 9  183 305 
 ZAR  HZ I        1337  2.10       126.4 0.38            116            183 305 
 NOR  HZ IP     C 1336 33.85                             117   -0.85 9  185 235 
 NOR  HN ES       1336 56.03                             117   -0.91 9  185 235 
 NOR  HZ I        1336 59.14        79.7 0.18            115            185 235 
 OCA  HZ EP       1336 34.78                             116   -0.50 9  189   6 
 OCA  HN ES       1336 57.33                             116   -0.64 9  189   6 
 OCA  HZ I        1337  2.77       155.5 0.16            115            189   6 
 TAM  HZ EP     C 1336 35.33                             116    0.16 9  190  93 
 TAM  HE ES       1336 57.78                             116   -0.00 9  190  93 
 TAM  HZ I        1337  3.33        40.3 0.16            114            190  93 
 ROSC BN EP       1336 39.73                             114    2.09 8  208 206 
 CHI  HZ EP   1   1336 38.32                             113    0.19 6  212 187 
 CHI  HZ I        1337  9.42        41.9 0.36            112            212 187 
 HEL  HZ EP     C 1336 39.52                             111   -0.24 8  227 260 
 HEL  HN ES   1   1337  5.87                             111   -0.09 6  227 260 
 HEL  HZ I        1337  7.98        44.8 0.30            110            227 260 
 GUY2CHZ EP       1336 43.17                             109    0.44 8  252 235 
 SML  HZ EP       1336 42.33                             108   -0.53 8  258 346 
 SML  HE ES       1337 12.01                             108    0.55 8  258 346 
 SML  HZ I        1337 21.05       128.4 0.10            107            258 346 
 RREF HZ EP       1336 45.48                             107    0.15 8  273 229 
 CBOC HZ EP   1   1336 46.86                             106    0.40 5  287 255 
 DBB  SZ EP   2   1336 47.99                             105   -0.30 4  304 280 
 PRA  HZ EP       1336 52.96                             102   -0.47 6  348 206 
 PRA  HN ES       1337 30.47                             102    0.17 6  348 206 
 PRA  HZ I        1337 33.31        30.0 0.24            101            348 206 
 ORTC HZ EP   1   1336 53.71                             102    0.14 5  349 214 
 ORTC HN ES       1337 31.28                             102    0.74 6  349 214 
 ORTC HZ I        1337 38.86        27.8 0.40            101            349 214 
 COD  HZ EP   2   1336 57.42                             101    0.64 3  376   1 
                                                                                
