 2013  312 1054 34.5 L   6.756 -73.110135.9  RSN  7 0.2 2.0LRSN                1
 GAP= 95        0.56       3.3     2.9  3.7  0.2427E+01 -0.3097E+00  0.1194E+00E
 Epicentro: LOS SANTOS - SANTANDER                                             3
 ACTION:UPD 13-04-09 14:01 OP:ep   STATUS:               ID:20130312105434 L   I
 2013-03-12-1050-00M.COL___231                                                 6
 STAT SP IPHASW D HRMM SECON CODA AMPLIT PERI AZIMU VELO AIN AR TRES W  DIS CAZ7
 BAR2 SZ IP       1054 52.79                             171   -0.0310 19.8 204 
 BAR2 SZ ES       1055  7.30                             171    0.1510 19.8 204 
 BAR2 SZ I        1055  9.79        30.2 0.27            159           19.8 204 
 BRR  HZ IP     C 1054 54.62                             149   -0.2810 77.0 300 
 BRR  HE ES       1055 11.10                             149    0.2610 77.0 300 
 BRR  HE I        1055 12.07        42.9 0.17            134           77.0 300 
 PAM  SZ EP       1054 55.64                             148   -0.0710 78.8  35 
 PAM  SE ES   1   1055 12.26                             148   -0.04 7 78.8  35 
 PAM  SZ I        1055 15.10        12.0 0.46            146           78.8  35 
 RUS  HZ EP       1054 56.82                             143   -0.0510 95.6 178 
 RUS  HN ES   1   1055 14.06                             143   -0.29 7 95.6 178 
 RUS  HN I        1055 16.84        10.8 0.33            130           95.6 178 
 TAM  HZ EP       1055  1.06                             129    0.18 9  150 104 
 ZAR  HZ EP   1   1055  7.05                             119    0.19 6  210 293 
 ZAR  HE ES   1   1055 31.64                             119   -0.49 6  210 293 
 ZAR  HZ I        1055 36.87         7.7 0.46            108            210 293 
 HEL  HZ EP   1   1055 15.03                             112    0.55 6  275 257 
 HEL  HZ I        1055 52.54         3.7 0.37            102            275 257 
                                                                                
