 2013  512 1105 34.6 L   6.800 -73.154149.1  RSN  7 0.4 1.8LRSN                1
 GAP=135        0.80       4.4     5.6  6.9  0.4286E+01 -0.9633E+00 -0.1272E+02E
 Epicentro: LOS SANTOS - SANTANDER                                             3
 ACTION:UPD 13-06-20 09:49 OP:ep   STATUS:               ID:20130512110534 L   I
 2013-05-12-1100-00M.COL___256                                                 6
 STAT SP IPHASW D HRMM SECON CODA AMPLIT PERI AZIMU VELO AIN AR TRES W  DIS CAZ7
 BAR2 SZ EP   1   11 5 54.83                             171    0.21 7 23.2 188 
 BAR2 SZ ES       11 6  9.85                             171   -0.3910 23.2 188 
 BAR2 SZ I        11 6 10.80        16.6 0.21            170           23.2 188 
 GIR2 SZ EP       11 5 54.48                             168   -0.1810 31.1 352 
 BRR  HZ EP     C 11 5 56.38                             153    0.3210 70.4 299 
 BRR  HZ I        11 5 56.73         9.1 0.16            151           70.4 299 
 BRR  HN ES   1   11 6 13.71                             153    0.91 7 70.4 299 
 PAM  SZ EP       11 5 57.42                             151    0.2210 78.0  40 
 PAM  SZ I        11 5 57.62        16.9 0.24            153           78.0  40 
 PAM  SE ES   2   11 6 14.47                             151   -0.36 5 78.0  40 
 RUS  HZ EP   1   11 5 58.63                             144   -0.05 7  101 176 
 RUS  HN ES       11 6 17.50                             144    0.0410  101 176 
 RUS  HZ I        11 6 18.42         3.8 0.36            145            101 176 
 PTB  HZ EP   2   11 6  1.83                             133    0.08 5  147 259 
 PTB  HN ES   1   11 6 22.42                             133   -0.52 7  147 259 
 PTB  HZ I        11 6 26.30         6.8 0.12            131            147 259 
 SML  HZ EP   1   11 6 10.97                             118   -0.40 6  243 335 
 SML  HN ES   1   11 6 39.65                             118   -0.40 6  243 335 
 SML  HZ I        11 6 42.51         8.9 0.26            118            243 335 
                                                                                
