 2010  512 1545 39.9 L   6.817 -73.007146.2  RSN  5 0.5 1.7LRSN                1
 GAP=174        0.80       5.9    12.3  9.3 -0.1581E+02 -0.8325E+01  0.8620E+01E
 Epicentro: CEPITA - SANTANDER                                                 3
 ACTION:UP  10-08-24 10:04 OP:vdl  STATUS:               ID:20100512154539 L   I
 2010-05-12-1542-42S.COL___104                                                 6
 STAT SP IPHASW D HRMM SECON CODA AMPLIT PERI AZIMU VELO AIN AR TRES W  DIS CAZ7
 BAR2 SZ EP   1   1545 59.51                             168    -0.213   32 218 
 BAR2 SZ ES   2   1546 14.32                             168    -0.9 9   32 218 
 BRR  HZ EP   1   1546  2.14                             149     0.313   84 292 
 BRR  HE ES   2   1546 19.29                             149     0.3 9   84 292 
 BRR  HZ I        1546 22.21        13.3 0.50                            84 292 
 RUS  HZ EP   1   1546  4.09                             144     0.313  103 185 
 RUS  HE ES   2   1546 23.16                             144     0.7 9  103 185 
 RUS  HZ I        1546 24.37         6.5 0.36                           103 185 
 GRA  SZ EP   1   1546  4.78                             139     0.113  120  11 
 GRA  SZ ES   2   1546 23.77                             139    -0.3 9  120  11 
 PRA  HZ EP       1546 33.87                             106    -0.610  401 211 
                                                                                
