 2015  112 1022 58.8 L   6.784 -73.070148.2  RSN  7 0.4 1.5LRSN                1
 GAP=191        0.94       4.0     5.6  7.2  0.6778E+01 -0.1577E+00 -0.7672E+01E
 Epicentro: LOS SANTOS - SANTANDER                                             3
 ACTION:UPD 15-03-02 15:39 OP:nd   STATUS:               ID:20150112102258 L   I
 OLDACT:UP  15-01-12 22:44 OP:mh   STATUS:               ID:20150112101745     3
 OLDACT:REG 15-01-12 20:11 OP:mh   STATUS:               ID:20150112101745     3
 2015-01-12-1017-45M.COL___256                                                 6
 STAT SP IPHASW D HRMM SECON CODA AMPLIT PERI AZIMU VELO AIN AR TRES W  DIS CAZ7
 BAR2 EZ EP       1023 18.71                             170   -0.0410 24.6 210 
 BAR2 EZ ES   1   1023 34.28                             170   -0.02 7 24.6 210 
 BAR2 EZ I        1023 35.44         9.7 0.22            169           24.6 210 
 BRR  HZ EP       1023 21.36                             150    0.6710 79.5 297 
 BRR  HN ES       1023 38.17                             150    0.4010 79.5 297 
 BRR  HZ I        1023 39.74         5.3 0.46            148           79.5 297 
 RUS  HZ EP       1023 22.90                             145    0.2510 98.6 181 
 RUS  HN ES       1023 40.90                             145   -0.3510 98.6 181 
 PTB  HZ EP   1   1023 26.08                             131   -0.61 7  156 260 
 PTB  HN ES       1023 48.00                             131   -0.44 9  156 260 
 PTB  HZ I        1023 52.55         3.8 0.38            131            156 260 
 OCA  HN ES       1023 49.70                             130   -0.32 9  163 350 
 OCA  HZ I        1023 54.25         3.1 0.24            130            163 350 
 ZAR  HZ EP   1   1023 32.28                             122    0.01 6  213 292 
 ZAR  HN ES       1023 58.76                             122    0.37 8  213 292 
 ZAR  HZ I        1024  3.80         2.2 0.24            121            213 292 
 SML  HZ EP       1023 36.13                             117    0.01 8  249 334 
 SML  HE ES   1   1024  4.45                             117   -0.79 6  249 334 
 SML  HZ I        1024  8.16         3.9 0.10            118            249 334 
                                                                                
