 2012  812 1734 37.2 L   6.796 -73.104142.0  RSN  4 0.3 1.5LRSN                1
 GAP=142        0.56       3.9     5.8  6.1 -0.5882E+00 -0.2382E+01  0.1091E+01E
 Epicentro: LOS SANTOS - SANTANDER                                             3
 ACTION:UPD 12-09-10 11:56 OP:ep   STATUS:               ID:20120812173437 L   I
 2012-08-12-1730-00M.COL___219                                                 6
 STAT SP IPHASW D HRMM SECON CODA AMPLIT PERI AZIMU VELO AIN AR TRES W  DIS CAZ7
 BAR2 SZ EP   1   1734 56.33                             170   -0.08 7 24.2 201 
 BAR2 SZ ES   1   1735 10.98                             170   -0.40 7 24.2 201 
 BAR2 SZ I        1735 12.54        11.7 0.14                          24.2 201 
 PAM  SZ EP   1   1734 59.16                             151    0.28 7 74.8  37 
 PAM  SZ I        1734 59.37         5.4 0.22                          74.8  37 
 PAM  SN ES   1   1735 15.73                             151   -0.04 7 74.8  37 
 BRR  HZ EP   1   1734 57.91                             150   -0.30 7 75.5 297 
 BRR  HZ I        1735  1.53         6.7 0.34                          75.5 297 
 BRR  HE ES   1   1735 14.90                             150    0.32 7 75.5 297 
 RUS  HZ EP   1   1735  0.47                             143   -0.08 7100.0 179 
 RUS  HN ES   1   1735 19.05                             143    0.30 7100.0 179 
 RUS  HZ I        1735 20.28         3.0 0.24                         100.0 179 
                                                                                
