 2010  812 1605 21.8 L   6.774 -73.043146.3  RSN  9 0.4 2.2LRSN                1
 GAP=170        0.90       4.6     8.2  7.9 -0.9697E+01 -0.2756E+01  0.2140E+01E
 Epicentro: LOS SANTOS - SANTANDER                                             3
 ACTION:UP  10-09-07 10:54 OP:vdl  STATUS:               ID:20100812160521 L   I
 2010-08-12-1602-43S.COL___126                                                 6
 STAT SP IPHASW D HRMM SECON CODA AMPLIT PERI AZIMU VELO SNR AR TRES W  DIS CAZ7
 BAR2 SZ IP       16 5 41.42                             170    -0.110   25 218 
 BAR2 SZ I        16 5 41.76        18.4 0.06                            25 218 
 BAR2 SZ ES   2   16 5 56.70                             170    -0.3 5   25 218 
 BTL  SZ IP       16 5 42.55                             168     0.910   30 303 
 BTL  SZ ES   2   16 5 57.54                             168     0.4 5   30 303 
 BRR  HZ EP       16 5 43.31                             149    -0.410   83 297 
 BRR  HN ES   1   16 6  0.62                             149    -0.2 7   83 297 
 BRR  HZ I        16 6  2.97        26.2 0.18                            83 297 
 RUS  HZ EP       16 5 45.30                             145    -0.110   98 183 
 RUS  HN ES   1   16 6  3.70                             145    -0.1 7   98 183 
 RUS  HZ I        16 6  5.29         7.4 0.33                            98 183 
 GUE  SZ EP   2   16 5 46.50                             139    -0.2 5  118   6 
 GRA  SZ EP       16 5 47.12                             137     0.010  126  12 
 GRA  SZ ES   1   16 6  6.69                             137    -0.1 7  126  12 
 GRA  SZ I        16 6  7.96        17.3 0.30                           126  12 
 HEL  HZ EP   2   16 6  2.84                             114    -0.4 4  282 257 
 HEL  HZ I        16 6 37.79         6.4 0.58                           282 257 
 GUY  SZ EP   3   16 6  5.84                             112    -0.5 2  309 237 
 GUY  SN ES   2   16 6 41.86                             112     0.8 4  309 237 
 GUY  SZ I        16 6 48.93        25.9 0.37                           309 237 
 PRA  HZ EP   2   16 6 15.64                             106    -0.1 3  395 211 
 PRA  HN ES   2   16 6 57.76                             106     0.0 3  395 211 
 PRA  HZ I        16 7  3.26         7.8 0.38                           395 211 
                                                                                
