 2016 1012 1310  7.3 L   6.764 -73.121151.4  RSN 10 0.2 2.0LRSN                1
 GAP=141        0.58       3.3     3.4  3.5 -0.5650E+00 -0.6367E+00  0.2747E+01E
 Epicentro: LOS SANTOS - SANTANDER                                             3
 ACTION:UPD 16-11-09 19:18 OP:rebc STATUS:               ID:20161012131007 L   I
 OLDACT:UP  16-10-12 22:25 OP:edw  STATUS:               ID:20161012130740     3
 OLDACT:UP  16-10-12 22:19 OP:edw  STATUS:               ID:20161012130740     3
 OLDACT:REG 16-10-12 19:57 OP:edw  STATUS:               ID:20161012130740     3
 2016-10-12-1308-00M.COL___366                                                 6
 STAT SP IPHASW D HRMM SECON CODA AMPLIT PERI AZIMU VELO AIN AR TRES W  DIS CAZ7
 BAR2 EZ EP       1310 27.32                             172   -0.2710 20.2 200 
 BAR2 EZ ES       1310 43.55                             172    0.1710 20.2 200 
 BAR2 EZ I        1310 43.67         9.2 0.16            171           20.2 200 
 BRR  HZ IP     D 1310 29.24                             152   -0.1010 75.5 300 
 BRR  HN ES       1310 46.50                             152   -0.0010 75.5 300 
 BRR  HZ I        1310 49.71        10.5 0.13            145           75.5 300 
 PAM  EZ EP   9   1310 30.00                             151   -0.24 0 78.8  36 
 PAM  EN ES       1310 47.44                             148   -0.4210 78.8  36 
 PAM  EZ I        1310 48.44         8.3 0.20            149           78.8  36 
 RUS  HZ EP       1310 31.55                             146    0.1910 96.4 178 
 RUS  HN ES       1310 50.07                             146   -0.0310 96.4 178 
 RUS  HZ I        1310 50.80         4.8 0.24            148           96.4 178 
 PTB  HZ EP   9   1310 33.97                             133   -0.98 0  150 261 
 PTB  HN ES       1310 55.73                             132    0.23 9  150 261 
 PTB  HZ I        1310 57.04         8.2 0.16            129            150 261 
 SPBC HZ EP       1310 36.44                             130    0.29 9  162 221 
 SPBC HN ES       1310 58.40                             130   -0.23 9  162 221 
 SPBC HZ I        1311  1.58        13.5 0.18            129            162 221 
 OCA  HZ EP   4   1310 45.36                             130    8.87 0  165 352 
 OCA  HN ES   4   1311  4.57                             130    5.34 0  165 352 
 OCA  HZ I        1311  5.26       396.7 0.84            126            165 352 
 ZAR  HZ EP   9   1310 39.93                             123   -0.64 0  208 293 
 ZAR  HN ES       1311  5.71                             122   -0.14 8  208 293 
 ZAR  HZ I        1311 15.07         4.9 0.10            119            208 293 
 NOR  HZ EP   4   1310 53.16                             119    9.76 0  235 236 
 NOR  HN ES       1311 11.50                             119   -0.02 8  235 236 
 NOR  HZ I        1311 16.80         5.8 0.44            117            235 236 
 GUY2CHZ EP   4   1310 56.04                             113    4.83 0  301 236 
 GUY2CHE ES   4   1311 30.33                             113    4.90 0  301 236 
 GUY2CHZ I        1311 33.81         3.6 0.58                           301 236 
 SJC  HZ EP   4   1311  1.17                             106   -2.49 0  414 327 
 SJC  HN ES   4   1311 42.69                             106   -4.89 0  414 327 
                                                                                
