 2017  512 1829 58.1 L   6.796 -73.144151.6  RSN  6 0.4 1.5LRSN                1
 GAP=137        0.89       4.4     4.4  7.5  0.2606E+01  0.1087E+01  0.6033E+01E
 Epicentro: LOS SANTOS - SANTANDER                                             3
 ACTION:UPD 17-06-16 13:35 OP:jn   STATUS:               ID:20170512182958 L   I
 OLDACT:REG 17-05-12 20:48 OP:lv   STATUS:               ID:20170512182733     3
 2017-05-12-1828-00M.COL___368                                                 6
 STAT SP IPHASW D HRMM SECON CODA AMPLIT PERI AZIMU VELO AIN AR TRES W  DIS CAZ7
 BRR  HZ EP       1830 20.20                             153    0.2510 71.6 299 
 BRR  HN ES       1830 37.63                             153    0.6710 71.6 299 
 PAM  EZ EP       1830 21.14                             152    0.1410 77.6  39 
 PAM  EN ES   1   1830 38.09                             152   -0.74 7 77.6  39 
 PAM  EZ I        1830 42.73         3.1 0.07            153           77.6  39 
 RUS  HZ EP       1830 22.48                             145    0.0410  100 176 
 RUS  HN ES   1   1830 41.27                             145   -0.13 7  100 176 
 RUS  HZ I        1830 42.05         4.4 0.31            146            100 176 
 PTB  HN ES       1830 46.65                             133   -0.38 9  148 259 
 PTB  HZ I        1830 48.09         4.4 0.12            134            148 259 
 ZAR  HZ EP       1830 30.73                             124   -0.29 9  204 292 
 ZAR  HN ES       1830 56.41                             124   -0.25 9  204 292 
 ZAR  HZ I        1831  3.47        10.6 0.29            124            204 292 
 CHI  HZ EP   1   1830 36.66                             118    0.53 6  248 195 
 CHI  HN ES   1   1831  5.56                             118   -0.20 6  248 195 
 CHI  HZ I        1831 11.63         1.0 0.11            119            248 195 
                                                                                
