 2017  412 1102 20.2 L   6.786 -73.156141.1  RSN  5 0.3 1.3LRSN                1
 GAP=136        0.69       4.0     6.3  6.2 -0.7663E+01  0.1947E+02 -0.4927E+01E
 Epicentro: LOS SANTOS - SANTANDER                                             3
 ACTION:UPD 17-05-30 21:11 OP:jn   STATUS:               ID:20170412110220 L   I
 OLDACT:UP  17-04-12 21:53 OP:cog  STATUS:               ID:20170412105740     3
 OLDACT:REG 17-04-12 20:24 OP:cog  STATUS:               ID:20170412105740     3
 2017-04-12-1058-00M.COL___368                                                 6
 STAT SP IPHASW D HRMM SECON CODA AMPLIT PERI AZIMU VELO AIN AR TRES W  DIS CAZ7
 BAR2 EZ EP       11 2 38.89                             171   -0.3710 21.6 188 
 BAR2 EZ ES       11 2 53.77                             171   -0.3310 21.6 188 
 BAR2 EZ I        11 2 59.82         5.4 0.76            166           21.6 188 
 BRR  HZ EP       11 2 41.16                             152    0.3010 71.0 300 
 BRR  HE ES   3   11 2 57.83                             152    0.88 2 71.0 300 
 BRR  HZ I        11 3 10.00        10.5 0.52            146           71.0 300 
 PAM  EZ EP       11 2 41.93                             149   -0.1410 79.3  39 
 PAM  EN ES       11 2 59.25                             149    0.1510 79.3  39 
 PAM  EZ I        11 3  1.28         4.0 0.68            156           79.3  39 
 RUS  HZ EP       11 2 43.75                             143    0.3310 99.1 175 
 RUS  HN ES       11 3  1.60                             143    0.1010 99.1 175 
 RUS  HZ I        11 3  3.74         1.4 0.32            153           99.1 175 
 PTB  HZ EP       11 2 46.58                             131   -0.11 9  146 259 
 PTB  HE ES   4   11 3  5.29                             131   -2.04 0  146 259 
 PTB  HZ I        11 3 10.52         2.6 0.40            132            146 259 
                                                                                
