 2013  112 1618  0.9 L   6.765 -73.100147.5  RSN  4 0.1 1.6LRSN                1
 GAP=240        0.35       2.1     4.6  2.7  0.4609E+01  0.7893E+00  0.1624E+01E
 Epicentro: LOS SANTOS - SANTANDER                                             3
 ACTION:UPD 13-02-15 09:13 OP:ep   STATUS:               ID:20130112161800 L   I
 2013-01-12-1608-41M.COL___196                                                 6
 STAT SP IPHASW D HRMM SECON CODA AMPLIT PERI AZIMU VELO AIN AR TRES W  DIS CAZ7
 BAR2 SZ EP       1618 20.56                             171   -0.1310 21.2 205 
 BAR2 SZ ES       1618 36.07                             171   -0.0710 21.2 205 
 BAR2 SZ I        1618 37.42        10.7 0.40            172           21.2 205 
 BRR  HZ EP       1618 22.71                             151    0.1210 77.5 299 
 BRR  HN ES       1618 39.51                             151   -0.0110 77.5 299 
 BRR  HN I        1618 41.19        18.2 0.24            151           77.5 299 
 RUS  HZ EP       1618 24.51                             145   -0.0210 96.5 179 
 RUS  HZ I        1618 25.64         2.1 0.14            146           96.5 179 
 RUS  HN ES       1618 43.11                             145    0.1410 96.5 179 
 CHI  HZ EP       1618 38.50                             118    0.06 8  246 197 
 CHI  HN ES       1619  7.62                             118   -0.10 8  246 197 
                                                                                
