 2014 1012 1724  5.6 L   6.800 -73.139151.7  RSN 16 0.5 2.2LRSN                1
 GAP=137        1.08       2.7     4.4  5.8 -0.1718E+01  0.6259E+01  0.1180E+01E
 Epicentro: LOS SANTOS - SANTANDER                                             3
 ACTION:UPD 14-11-29 23:49 OP:nd   STATUS:               ID:20141012172405 L   I
 OLDACT:DUP 14-10-12 22:14 OP:fm   STATUS:               ID:20141012171744d    3
 2014-10-12-1717-43M.COL___285                                                 6
 STAT SP IPHASW D HRMM SECON CODA AMPLIT PERI AZIMU VELO AIN AR TRES W  DIS CAZ7
 BAR2 SZ EP     D 1724 26.07                             171    0.1410 23.4 192 
 BAR2 SZ ES   1   1724 41.59                             171   -0.20 7 23.4 192 
 BRR  HZ EP     C 1724 27.93                             153    0.5210 71.9 298 
 BRR  HN ES       1724 45.28                             153    0.8510 71.9 298 
 BRR  HZ I        1724 51.42        21.5 0.30            151           71.9 298 
 PAM  SZ EP       1724 28.81                             152    0.4010 76.9  39 
 PAM  SN ES       1724 46.09                             152   -0.1210 76.9  39 
 PAM  SZ I        1724 48.62        16.6 0.48            155           76.9  39 
 RUS  HZ EP       1724 30.03                             145    0.1110  101 176 
 RUS  HN ES       1724 48.06                             145   -0.8310  101 176 
 RUS  HZ I        1724 49.65        21.6 0.26            147            101 176 
 PTB  HZ EP       1724 32.60                             133   -0.50 9  148 259 
 PTB  HN ES       1724 54.08                             133   -0.49 9  148 259 
 PTB  HZ I        1724 55.95        29.2 0.34            133            148 259 
 OCA  HZ EP       1724 34.09                             131   -0.28 9  160 353 
 OCA  HN ES       1724 57.30                             131    0.48 9  160 353 
 OCA  HZ I        1725  5.97        14.5 0.16            132            160 353 
 SPBC HZ EP       1724 34.94                             130    0.36 9  164 219 
 SPBC HN ES       1724 57.23                             130    0.03 9  164 219 
 SPBC HZ I        1725  1.44        27.3 0.22            131            164 219 
 ZAR  HZ EP       1724 38.25                             124   -0.24 9  205 292 
 ZAR  HE ES       1725  3.79                             124   -0.37 9  205 292 
 ZAR  HZ I        1725 10.79        24.7 0.38            124            205 292 
 SML  HZ EP       1724 41.64                             119   -0.94 8  244 335 
 SML  HN ES       1725 11.22                             119   -0.22 8  244 335 
 SML  HZ I        1725 16.70        23.4 0.10            119            244 335 
 CHI  HZ EP   1   1724 43.52                             118   -0.11 6  249 195 
 CHI  HN ES       1725 13.15                             118   -0.16 8  249 195 
 CHI  HZ I        1725 19.17         5.9 0.40            120            249 195 
 GUY2CHZ EP   4   1724 51.23                             113    1.69 0  302 235 
 GUY2CHE ES   4   1725 26.21                             113    2.39 0  302 235 
 GUY2CHZ I        1725 30.65         5.9 0.28                           302 235 
 PTGC HZ EP   4   1724 48.97                             113   -0.71 0  308 159 
 PTGC HN ES   4   1725 21.10                             113   -2.97 0  308 159 
 PTGC HZ I        1725 26.23        15.6 0.76            115            308 159 
 TOL  SZ EP   1   1724 54.69                             110    0.55 5  344 225 
 TOL  SN ES       1725 32.43                             110    0.42 7  344 225 
 TOL  SZ I        1725 38.22        11.7 0.18            111            344 225 
 ANIL HN ES   4   1725 38.92                             109    4.17 0  358 225 
 ANIL HZ I        1725 45.17         2.0 0.38            110            358 225 
 PRA  HZ EP   1   1724 59.95                             107    0.60 4  392 210 
 PRA  HN ES       1725 42.16                             107    0.87 6  392 210 
 PRA  HZ I        1725 45.87         8.3 0.32            108            392 210 
 PAL  HZ EP   1   1725  0.63                             107   -0.39 4  406 239 
 PAL  HN ES   1   1725 44.71                             107    0.46 4  406 239 
 PAL  HZ I        1725 47.67         2.7 0.24            108            406 239 
                                                                                
