 2015 1012 1949 39.9 L   6.525 -73.494110.3  RSN 27 0.6 3.1LRSN 3.6WRSN        1
 SPEC AVERAGE  MO 14.5 ST0.960 OM  2.6 f0 1.45 R1.7578 AL 0.00 WI 30.0 MW  3.6 3
 SPEC SD       MO  0.4 ST  1.3 OM  0.4 f0 1.16 R0.9041 AL      WI      MW  0.3 3
 GAP= 54        1.26       2.2     2.8  5.3 -0.1706E+01  0.4455E+01  0.4076E-01E
 Epicentro: EL CARMEN - SANTANDER                                              3
     118.0      78.0      80.0  4.0  1.0 10.0  0.1  0.1           RSN FPFIT    F
 SPEC BAR2EH Z MO 14.4 ST  3.4 OM  2.6 f0 2.85 R0.6751 AL-0.00 WI 30.0 MW  3.5 3
 SPEC BAR2EH Z T1950 6 K 0.000 GD  115 VS 5.20 DE 3.50 Q0750.0 QA 1.50 VS 3.50 3
 SPEC RUS HH Z MO 14.4 ST0.603 OM  2.5 f0 1.63 R1.1804 AL-0.00 WI 30.0 MW  3.5 3
 SPEC RUS HH Z T195012 K 0.000 GD  138 VS 5.20 DE 3.50 Q0750.0 QA 1.50 VS 3.50 3
 SPEC ZAR HH Z MO 14.1 ST  2.7 OM  2.1 f0 3.14 R0.6127 AL-0.00 WI 30.0 MW  3.4 3
 SPEC ZAR HH Z T195029 K 0.000 GD  215 VS 5.20 DE 3.50 Q0750.0 QA 1.50 VS 3.50 3
 SPEC OCA HH Z MO 14.7 ST  3.2 OM  2.6 f0 2.25 R0.8551 AL-0.00 WI 30.0 MW  3.7 3
 SPEC OCA HH Z T195029 K 0.000 GD  220 VS 5.20 DE 3.50 Q0750.0 QA 1.50 VS 3.50 3
 SPEC ROSCBH Z MO 14.4 ST0.210 OM  2.3 f0 1.12 R1.7179 AL-0.00 WI 30.0 MW  3.5 3
 SPEC ROSCBH Z T195034 K 0.000 GD  235 VS 5.20 DE 3.50 Q0750.0 QA 1.50 VS 3.50 3
 SPECGUY2CHH Z MO 14.5 ST0.165 OM  2.3 f00.982 R1.9593 AL-0.00 WI 30.0 MW  3.6 3
 SPECGUY2CHH Z T195043 K 0.000 GD  275 VS 5.20 DE 3.50 Q0750.0 QA 1.50 Q1 0.00 3
 SPEC CBOCHH Z MO 14.3 ST0.160 OM  2.1 f0 1.09 R1.7651 AL-0.00 WI 30.0 MW  3.5 3
 SPEC CBOCHH Z T195048 K 0.000 GD  308 VS 5.20 DE 3.50 Q0750.0 QA 1.50 VS 3.50 3
 SPEC DBB SH Z MO 15.1 ST0.280 OM  2.9 f00.699 R2.7525 AL-0.00 WI 30.0 MW  4.0 3
 SPEC DBB SH Z T195053 K 0.000 GD  324 VS 5.20 DE 3.50 Q0750.0 QA 1.50 VS 3.50 3
 SPEC ANILHH Z MO 15.0 ST0.172 OM  2.8 f00.639 R3.0110 AL-0.00 WI 30.0 MW  4.0 3
 SPEC ANILHH Z T195054 K 0.000 GD  328 VS 5.20 DE 3.50 Q0750.0 QA 1.50 VS 3.50 3
 SPEC ORTCHH Z MO 14.6 ST0.109 OM  2.3 f00.778 R2.4730 AL-0.00 WI 30.0 MW  3.7 3
 SPEC ORTCHH Z T1951 2 K 0.000 GD  365 VS 5.20 DE 3.50 Q0750.0 QA 1.50 VS 3.50 3
 SPEC ARGCHH Z MO 14.7 ST0.088 OM  2.4 f00.655 R2.9374 AL-0.00 WI 30.0 MW  3.7 3
 SPEC ARGCHH Z T1951 9 K 0.000 GD  393 VS 5.20 DE 3.50 Q0750.0 QA 1.50 VS 3.50 3
 SPEC SJC HH Z MO 14.3 ST0.183 OM  2.0 f0 1.10 R1.7491 AL-0.00 WI 30.0 MW  3.5 3
 SPEC SJC HH Z T195113 K 0.000 GD  431 VS 5.20 DE 3.50 Q0750.0 QA 1.50 VS 3.50 3
 SPEC CRJCHH Z MO 14.4 ST0.459 OM  2.0 f0 1.41 R1.3645 AL-0.00 WI 30.0 MW  3.6 3
 SPEC CRJCHH Z T195133 K 0.000 GD  513 VS 5.20 DE 3.50 Q0750.0 QA 1.50 VS 3.50 3
 OLDACT:REG 15-10-12 21:46 OP:stll STATUS:               ID:20151012194747     3
 ACTION:UPD 15-12-22 20:39 OP:cam  STATUS:               ID:20151012194939 L   I
 OLDACT:UP  15-10-13 01:51 OP:stll STATUS:               ID:20151012194747     3
 2015-10-12-1947-47M.COL___313                                                 6
 STAT SP IPHASW D HRMM SECON CODA AMPLIT PERI AZIMU VELO AIN AR TRES W  DIS CAZ7
 BAR2 EZ IP     D 1949 56.33                             161    0.6110 35.3  78 
 BAR2 EZ ES       1950  8.49                             161    0.4610 35.3  78 
 BRR  HZ IP     D 1949 57.16                             146   -0.0610 68.8 339 
 BRR  HZ I        1949 57.35       153.1 0.14            139           68.8 339 
 BRR  HN ES       1950 10.98                             146    0.2810 68.8 339 
 RUS  HZ IP     C 1949 59.20                             141    0.2110 83.4 147 
 RUS  HN ES       1950 13.88                             141    0.0410 83.4 147 
 RUS  HZ I        1950 16.20       232.4 0.40            141           83.4 147 
 SPBC HZ IP     C 1950  1.10                             130   -0.1310  116 214 
 SPBC HN ES       1950 17.41                             130   -0.4210  116 214 
 SPBC HZ I        1950 21.02       333.5 0.22            127            116 214 
 PAM  EZ IP     D 1950  2.77                             128    0.0610  126  44 
 PAM  EE ES       1950 20.56                             128    0.0910  126  44 
 PAM  EZ I        1950 22.41       129.9 0.26            124            126  44 
 ZAR  HZ EP       1950  8.16                             116   -0.06 9  185 305 
 ZAR  HN ES       1950 30.74                             116    0.46 9  185 305 
 ZAR  HZ I        1950 33.03       237.4 0.50            112            185 305 
 NOR  HZ IP     C 1950  7.69                             116   -0.68 9  186 235 
 NOR  HE ES       1950 28.99                             116   -1.56 9  186 235 
 NOR  HZ I        1950 30.56       125.9 0.50            113            186 235 
 TAM  HZ IP     D 1950  9.11                             115    0.43 9  189  93 
 TAM  HZ I        1950  9.23        77.3 0.16            114            189  93 
 TAM  HN ES       1950 30.14                             115   -0.96 9  189  93 
 OCA  HZ EP       1950  8.35                             115   -0.69 9  191   6 
 OCA  HE ES       1950 31.07                             115   -0.66 9  191   6 
 OCA  HZ I        1950 37.57       464.3 0.30            112            191   6 
 ROSC BZ IP     C 1950 12.36                             113    1.12 8  208 206 
 ROSC BZ I        1950 14.97        96.5 0.25            111            208 206 
 ROSC BN ES       1950 35.60                             113   -0.05 8  208 206 
 CHI  HZ EP       1950 11.75                             113    0.08 8  211 187 
 CHI  HZ I        1950 13.65        55.1 0.34            111            211 187 
 CHI  HN ES       1950 36.79                             113    0.36 8  211 187 
 HEL  HZ EP       1950 13.50                             111   -0.03 8  228 261 
 HEL  HN ES       1950 39.16                             111   -0.58 8  228 261 
 HEL  HZ I        1950 42.08        89.9 0.44            108            228 261 
 GUY2CHZ EP       1950 16.72                             108    0.28 8  252 235 
 GUY2CHN ES       1950 44.90                             108   -0.00 8  252 235 
 GUY2CHZ I        1950 49.75       111.7 0.70                           252 235 
 SML  HZ EP       1950 16.20                             108   -0.50 8  260 346 
 SML  HN ES       1950 45.99                             108    0.62 8  260 346 
 SML  HZ I        1950 52.30       159.1 0.34            106            260 346 
 URE  HZ EP   4   1950 15.84                             107   -1.26 0  263 301 
 URE  HN ES   4   1950 43.86                             107   -2.23 0  263 301 
 URE  HZ I        1950 53.84        72.4 0.28            105            263 301 
 VIL  SZ EP     C 1950 18.08                             107    0.27 8  268 185 
 VIL  SE ES       1950 47.22                             107   -0.13 8  268 185 
 ELA  HZ EP       1950 20.73                             106    0.98 7  280 229 
 ELA  HE ES       1950 50.54                             106   -0.27 7  280 229 
 ELA  HZ I        1950 58.73        57.2 0.30            105            280 229 
 CBOC HZ EP       1950 20.69                             105    0.44 7  288 255 
 CBOC HN ES   4   1950 50.21                             105   -1.48 0  288 255 
 CBOC HZ I        1950 54.80        41.0 0.68            104            288 255 
 PTGC HZ EP   4 D 1950 20.72                             105   -0.50 0  298 150 
 PTGC HN ES   4   1950 51.91                             105   -1.50 0  298 150 
 PTGC HZ I        1950 58.23        61.4 0.22            104            298 150 
 DBB  SZ EP     C 1950 21.96                             104   -0.19 7  305 280 
 DBB  SZ I        1951  4.55        88.7 0.46            103            305 280 
 ANIL HZ EP     D 1950 23.65                             104    0.82 7  309 223 
 ANIL HN ES       1950 56.07                             104   -0.22 7  309 223 
 ANIL HZ I        1951  3.94        95.4 0.24            103            309 223 
 LL1C HZ EP   4   1950 27.97                             102    2.55 0  334 359 
 LL1C HN ES   4   1951  4.77                             102    3.87 0  334 359 
 ORTC HZ EP       1950 27.45                             102    0.21 6  348 214 
 ORTC HN ES       1951  4.25                             102    0.12 6  348 214 
 ORTC HZ I        1951  8.46        34.5 0.16            102            348 214 
 SOCV BZ EP       1950 26.10                             101   -1.34 6  350  56 
 SOCV BE ES   4   1951  0.83                             101   -3.66 0  350  56 
 ARGC HZ EP       1950 31.45                             100    0.73 6  378 347 
 ARGC HE ES       1951 10.80                             100    0.48 6  378 347 
 ARGC HZ I        1951 25.34        34.3 0.28            100            378 347 
 SDV  BZ EP       1950 34.31                              99   -0.46 6  409  50 
 SDV  BN ES   4   1951 14.68                              99   -2.86 0  409  50 
 SDV  BZ I        1951 19.25        35.0 0.40            100            409  50 
 SJC  HZ EP   4   1950 33.68                              98   -1.78 0  417 334 
 SJC  HN ES   4   1951 14.52                              98   -4.24 0  417 334 
 SJC  HZ I        1951 32.05        24.6 0.46             99            417 334 
 CRJC HZ EP   4   1950 44.50                              96   -1.30 0  502   8 
 CRJC HE ES   4   1951 34.67                              96   -2.50 0  502   8 
 CRJC HZ I        1951 38.53        47.0 0.30             98            502   8 
                                                                                
