 2013  512 1838 20.9 L   6.821 -73.153148.7  RSN 16 0.5 3.2LRSN                1
 GAP= 65        1.01       2.9     3.2  4.7  0.9861E+00  0.2022E+01  0.1768E+01E
 Epicentro: LOS SANTOS - SANTANDER                                             3
 ACTION:UPD 13-06-20 09:49 OP:ep   STATUS:               ID:20130512183820 L   I
 2013-05-12-1830-00M.COL___256                                                 6
 STAT SP IPHASW D HRMM SECON CODA AMPLIT PERI AZIMU VELO AIN AR TRES W  DIS CAZ7
 BAR2 SZ IP     C 1838 40.88                             170   -0.0610 25.5 187 
 BAR2 SZ ES       1838 55.99                             170   -0.5710 25.5 187 
 BAR2 SZ I        1838 57.71       400.8 0.33            166           25.5 187 
 GIR2 SZ EP       1838 40.91                             168    0.0410 28.8 351 
 GIR2 SZ ES       1838 56.49                             168    0.0510 28.8 351 
 GIR2 SZ I        1838 59.52        97.8 0.34            165           28.8 351 
 BRR  HZ EP       1838 42.76                             154    0.4810 69.4 297 
 BRR  HE ES       1838 59.82                             154    0.8810 69.4 297 
 BRR  HZ I        1839  3.05       131.7 0.28            146           69.4 297 
 PAM  SZ IP     C 1838 43.63                             152    0.2710 76.1  41 
 PAM  SN ES       1839  0.75                             152   -0.1310 76.1  41 
 PAM  SZ I        1839  3.26       317.5 0.56            153           76.1  41 
 RUS  HZ IP     D 1838 44.77                             144   -0.3510  103 176 
 RUS  HE ES       1839  3.58                             144   -0.4210  103 176 
 RUS  HZ I        1839  4.83       160.3 0.32            141            103 176 
 PTB  HZ EP       1838 47.44                             133   -0.65 9  147 258 
 PTB  HN ES       1839  8.74                             133   -0.55 9  147 258 
 PTB  HZ I        1839 16.28       204.0 0.40            127            147 258 
 TAM  HZ IP     C 1838 49.17                             131    0.23 9  156 106 
 TAM  HZ I        1838 49.49       217.9 0.36            131            156 106 
 TAM  HN ES       1839 10.89                             131    0.08 9  156 106 
 OCA  HZ EP   2   1838 49.32                             131    0.10 5  158 353 
 OCA  HE ES       1839 11.21                             131   -0.10 9  158 353 
 OCA  HZ I        1839 16.53       195.9 0.36            127            158 353 
 YOP  SZ EP       1838 51.55                             126    0.15 9  181 153 
 YOP  SE ES       1839 15.57                             126    0.38 9  181 153 
 YOP  SZ I        1839 18.82       249.0 0.38            125            181 153 
 ZAR  HZ EP   2   1838 54.00                             123    0.62 4  202 292 
 NOR  HZ EP       1838 56.87                             119   -0.02 8  235 234 
 NOR  HN ES       1839 25.52                             119    0.57 8  235 234 
 NOR  HZ I        1839 30.05       160.1 0.48            115            235 234 
 SML  HZ EP   1   1838 57.45                             118    0.01 6  241 335 
 SML  HN ES   1   1839 25.49                             118   -0.44 6  241 335 
 SML  HZ I        1839 27.47       152.6 0.28            115            241 335 
 CHI  HZ EP       1838 58.80                             117   -0.19 8  251 195 
 HEL  HZ EP   1   1839  2.40                             115    1.15 6  272 255 
 HEL  HZ I        1839 40.74       115.9 0.50            111            272 255 
 COD  HZ EP   1   1839  8.40                             109   -0.72 5  346 355 
 SJC  HZ EP   1   1839 15.32                             106   -0.97 4  407 327 
                                                                                
