 2013  812 1955 55.2 L   6.773 -73.170145.4  RSN 10 0.4 2.0LRSN                1
 GAP=135        0.90       3.4     3.7  5.2 -0.7410E+00  0.4553E+01  0.3491E+01E
 Epicentro: LOS SANTOS - SANTANDER                                             3
 ACTION:UPD 14-01-14 09:01 OP:ep   STATUS:               ID:20130812195555 L   I
 OLDACT:REG 13-08-12 17:49 OP:jn   STATUS:               ID:20130812194959     3
 2013-08-12-1949-59M.COL___270                                                 6
 STAT SP IPHASW D HRMM SECON CODA AMPLIT PERI AZIMU VELO AIN AR TRES W  DIS CAZ7
 BAR2 SZ EP       1956 14.77                             172    0.0610 20.1 184 
 BAR2 SZ ES       1956 29.65                             172   -0.2910 20.1 184 
 BAR2 SZ I        1956 31.43        20.4 0.14            171           20.1 184 
 GIR2 SZ EP       1956 14.75                             166   -0.1410 33.9 356 
 GIR2 SZ ES       1956 30.29                             166    0.0310 33.9 356 
 GIR2 SZ I        1956 31.34        27.8 0.30            166           33.9 356 
 BRR  HZ EP       1956 16.63                             153    0.3810 70.3 302 
 BRR  HN ES       1956 33.57                             153    0.8910 70.3 302 
 BRR  HZ I        1956 37.44        25.1 0.14            151           70.3 302 
 PAM  SZ EP       1956 17.69                             149    0.0810 81.4  40 
 PAM  SN ES       1956 34.72                             149   -0.3710 81.4  40 
 PAM  SZ I        1956 36.90        27.9 0.50            153           81.4  40 
 RUS  HZ EP       1956 18.87                             144    0.1610 97.9 174 
 RUS  HN ES       1956 36.93                             144   -0.1310 97.9 174 
 RUS  HZ I        1956 38.66        12.4 0.32            146           97.9 174 
 PTB  HZ EP       1956 21.58                             132   -0.25 9  145 260 
 PTB  HN ES       1956 41.94                             132   -0.68 9  145 260 
 PTB  HZ I        1956 45.00         8.5 0.36            132            145 260 
 SPBC HZ EP   1   1956 23.37                             130    0.09 7  159 219 
 SPBC HN ES   1   1956 45.51                             130    0.31 7  159 219 
 SPBC HZ I        1956 48.21        11.9 0.28            130            159 219 
 ZAR  HZ EP   1   1956 26.90                             122   -0.57 6  203 293 
 ZAR  HN ES       1956 52.60                             122   -0.05 9  203 293 
 ZAR  HZ I        1956 59.14        10.1 0.20            123            203 293 
 NOR  HN ES   1   1956 58.06                             119    0.06 6  231 235 
 CHI  HZ EP   1   1956 33.08                             117    0.60 6  245 195 
 CHI  HN ES   1   1957  1.53                             117   -0.04 6  245 195 
 CHI  HZ I        1957  6.01         5.0 0.46            119            245 195 
                                                                                
