 2015  212 1543 49.7 L   6.801 -73.189139.9  RSN 13 0.6 2.1LRSN                1
 GAP=131        1.24       3.4     4.7  6.7 -0.2834E+01  0.1246E+02  0.1341E+01E
 Epicentro: ZAPATOCA - SANTANDER                                               3
 ACTION:UPD 15-04-30 21:25 OP:nd   STATUS:               ID:20150212154349 L   I
 OLDACT:REG 15-02-12 20:58 OP:stll STATUS:               ID:20150212153745     3
 2015-02-12-1537-45M.COL___281                                                 6
 STAT SP IPHASW D HRMM SECON CODA AMPLIT PERI AZIMU VELO AIN AR TRES W  DIS CAZ7
 BAR2 EZ EP       1544  8.62                             170    0.0110 23.0 178 
 BAR2 EZ ES       1544 23.44                             170    0.0710 23.0 178 
 BAR2 EZ I        1544 24.70        24.7 0.28            167           23.0 178 
 PAM  SZ EP       1544 11.51                             149    0.0310 80.5  42 
 PAM  SZ I        1544 11.86        30.7 0.18            156           80.5  42 
 PAM  SN ES       1544 28.38                             149   -0.1010 80.5  42 
 RUS  HZ EP       1544 12.66                             142   -0.2510  101 173 
 RUS  HN ES       1544 31.56                             142    0.5410  101 173 
 RUS  HZ I        1544 32.45        10.1 0.26            144            101 173 
 PTB  HZ EP       1544 15.63                             132   -0.13 9  143 258 
 PTB  HN ES       1544 35.45                             132   -0.63 9  143 258 
 PTB  HZ I        1544 43.62         9.3 0.20            131            143 258 
 SPBC HZ EP       1544 17.71                             128    0.24 9  160 218 
 SPBC HN ES       1544 39.52                             128    0.39 9  160 218 
 SPBC HZ I        1544 48.11        18.4 0.26            128            160 218 
 ZAR  HZ EP       1544 22.65                             122    1.35 9  200 293 
 ZAR  HN ES       1544 46.35                             122    0.40 9  200 293 
 ZAR  HZ I        1544 51.76        10.1 0.32            122            200 293 
 NOR  HZ EP       1544 24.79                             118    0.12 8  231 234 
 NOR  HN ES       1544 51.71                             118   -0.24 8  231 234 
 NOR  HZ I        1544 58.45         8.4 0.22            118            231 234 
 SML  HZ EP       1544 24.82                             116   -0.96 8  242 336 
 SML  HN ES       1544 53.37                             116   -0.55 8  242 336 
 SML  HZ I        1544 56.92        14.2 0.26            119            242 336 
 CHI  HZ EP       1544 27.08                             116    0.13 8  247 194 
 CHI  HE ES       1544 54.96                             116   -1.04 8  247 194 
 CHI  HZ I        1544 59.72         8.6 0.56            118            247 194 
 GUY2CHZ EP       1544 33.07                             111    0.47 7  297 234 
 GUY2CHE ES       1545  6.52                             111    0.46 7  297 234 
 GUY2CHZ I        1545 14.82         4.6 0.32                           297 234 
 RREF HZ EP       1544 36.16                             110    0.98 7  318 229 
 RREF HN ES       1545  9.83                             110   -0.82 7  318 229 
 RREF HZ I        1545 20.65         6.6 0.40            111            318 229 
 PRA  HZ EP       1544 43.17                             106    0.42 6  390 209 
 PRA  HN ES       1545 23.37                             106   -0.76 6  390 209 
 PRA  HZ I        1545 30.47         4.7 0.30            107            390 209 
 ORTC HZ EP       1544 42.39                             105   -0.70 6  393 216 
 ORTC HN ES       1545 24.62                             105   -0.12 6  393 216 
 ORTC HZ I        1545 29.85         4.1 0.30            107            393 216 
                                                                                
