 2016 1212 1114 27.7 L   6.755 -73.191144.8  RSN  5 0.5 1.4LRSN                1
 GAP=229        1.20       9.0     8.3  8.7  0.4647E+02  0.1043E+02 -0.5530E+01E
 Epicentro: VILLANUEVA - SANTANDER                                             3
 ACTION:UPD 17-01-11 20:14 OP:rebc STATUS:               ID:20161212111427 L   I
 OLDACT:DUP 16-12-12 23:29 OP:ar   STATUS:               ID:20161212110252d    3
 2016-12-12-1108-00M.COL___361                                                 6
 STAT SP IPHASW D HRMM SECON CODA AMPLIT PERI AZIMU VELO AIN AR TRES W  DIS CAZ7
 BAR2 EZ EP       1114 46.74                             173   -0.3710 18.0 177 
 BAR2 EZ ES       1115  1.73                             173   -0.5310 18.0 177 
 BAR2 EZ I        1115  3.28         5.9 0.18            174           18.0 177 
 BRR  HZ EP       1114 48.58                             153   -0.0610 69.5 304 
 BRR  HE ES       1115  5.58                             153    0.6010 69.5 304 
 BRR  HZ I        1115  8.78        10.7 0.32            152           69.5 304 
 RUS  HZ EP       1114 51.07                             145    0.0410 96.1 173 
 RUS  HN ES       1115  9.74                             145    0.5010 96.1 173 
 RUS  HZ I        1115 10.63         1.5 0.64            148           96.1 173 
 PTB  HZ EP       1114 53.54                             133   -0.52 9  142 260 
 PTB  HN ES       1115 14.55                             133   -0.07 9  142 260 
 PTB  HZ I        1115 16.54         3.0 0.14            133            142 260 
 ZAR  HZ EP       1115  0.71                             122    0.91 9  201 294 
 ZAR  HE ES       1115 24.42                             122   -0.42 9  201 294 
 ZAR  HZ I        1115 30.82         3.1 0.30            123            201 294 
                                                                                
