 2017  412 1558 18.2 L   6.805 -73.140135.9  RSN 15 0.5 2.5LRSN                1
 GAP=112        1.07       3.7     3.9  5.9 -0.2623E+01  0.6011E+01  0.3915E+01E
 Epicentro: LOS SANTOS - SANTANDER                                             3
 ACTION:UPD 17-05-30 21:11 OP:jn   STATUS:               ID:20170412155818 L   I
 OLDACT:UP  17-04-12 22:58 OP:cog  STATUS:               ID:20170412155739     3
 OLDACT:UP  17-04-12 22:56 OP:cog  STATUS:               ID:20170412155739     3
 OLDACT:REG 17-04-12 20:55 OP:cog  STATUS:               ID:20170412155739     3
 2017-04-12-1558-00M.COL___359                                                 6
 STAT SP IPHASW D HRMM SECON CODA AMPLIT PERI AZIMU VELO AIN AR TRES W  DIS CAZ7
 BAR2 EZ EP       1558 36.66                             170    0.0210 24.0 191 
 BAR2 EZ ES       1558 50.15                             170   -0.8910 24.0 191 
 BAR2 EZ I        1558 52.86       175.5 0.30            168           24.0 191 
 BRR  HZ IP       1558 38.41                             151    0.1210 71.5 298 
 BRR  HE ES   3   1558 55.35                             151    1.37 2 71.5 298 
 BRR  HZ I        1558 58.79        65.9 0.26            152           71.5 298 
 PAM  EZ EP       1558 39.48                             149    0.1810 76.6  39 
 PAM  EN ES       1558 56.46                             149    0.6810 76.6  39 
 PAM  EZ I        1558 59.11       107.6 0.70            154           76.6  39 
 RUS  HZ EP       1558 40.62                             142   -0.3910  101 176 
 RUS  HE ES       1558 59.40                             142    0.5810  101 176 
 RUS  HZ I        1559  0.24        32.0 0.28            144            101 176 
 PTB  HZ EP   9   1558 43.39                             130   -1.04 0  149 259 
 PTB  HN ES       1559  4.28                             131    0.41 9  149 259 
 PTB  HZ I        1559  9.97        48.8 0.18            131            149 259 
 SPBC HZ EP       1558 45.74                             127   -0.28 9  164 219 
 SPBC HE ES       1559  7.79                             127    0.06 9  164 219 
 SPBC HZ I        1559 11.80        42.8 0.16            129            164 219 
 YPLC HZ EP       1558 47.02                             124   -0.27 9  177 152 
 YPLC HE ES   4   1559 12.10                             124    2.11 0  177 152 
 YPLC HZ I        1559 13.88        18.3 0.26            128            177 152 
 ZAR  HZ EP   4   1558 50.79                             120    0.75 0  204 292 
 ZAR  HN ES       1559 14.34                             120   -0.56 9  204 292 
 NOR  HZ EP       1558 53.31                             116   -0.13 8  236 234 
 NOR  HE ES       1559 20.60                             116   -0.35 8  236 234 
 NOR  HZ I        1559 25.68        15.8 0.18            119            236 234 
 CHI  HZ EP       1558 54.96                             115   -0.46 8  249 195 
 CHI  HN ES       1559 24.28                             115   -0.19 8  249 195 
 CHI  HZ I        1559 27.65        13.9 0.56            117            249 195 
 ROSC BZ EP   4   1558 56.83                             115    0.97 0  254 211 
 ROSC BE ES       1559 26.05                             115    0.79 8  254 211 
 ROSC BZ I        1559 31.30        40.6 0.40            117            254 211 
 HEL  HE ES       1559 29.28                             113    0.23 8  273 256 
 ELA  HE ES   3   1559 43.61                             108    2.58 2  330 229 
 DBB  EZ EP       1559  5.71                             108    0.37 7  340 274 
 DBB  EN ES   4   1559 38.15                             108   -3.98 0  340 274 
 DBB  EZ I        1559 44.55         9.2 0.24            110            340 274 
 ANIL HE ES   4   1559 47.84                             107    1.48 0  358 225 
 ORTC HZ EP       1559 11.96                             105    0.09 6  396 216 
 ORTC HE ES       1559 54.45                             105    0.70 6  396 216 
                                                                                
