 2017  912 1042 45.0 L   6.781 -73.100140.9  RSN  7 0.5 1.5LRSN                1
 GAP=143        1.07       4.5     5.2  7.9 -0.4407E+01  0.1560E+02 -0.3347E+01E
 Epicentro: LOS SANTOS - SANTANDER                                             3
 ACTION:UPD 17-10-05 19:11 OP:rebc STATUS:               ID:20170912104245 L   I
 OLDACT:UP  17-09-12 21:06 OP:dnl  STATUS:               ID:20170912103748     3
 OLDACT:REG 17-09-12 20:12 OP:dnl  STATUS:               ID:20170912103748     3
 2017-09-12-1038-00M.COL___442                                                 6
 STAT SP IPHASW D HRMM SECON CODA AMPLIT PERI AZIMU VELO AIN AR TRES W  DIS CAZ7
 BAR2 EZ EP       1043  4.10                             170    0.1110 22.7 204 
 BAR2 EZ ES       1043 18.80                             170   -0.0410 22.7 204 
 BAR2 EZ I        1043 19.85        10.3 0.18            170           22.7 204 
 PAM  EZ EP       1043  7.10                             150    0.5210 76.0  36 
 PAM  EN ES       1043 22.53                             150   -0.9010 76.0  36 
 PAM  EZ I        1043 28.36         8.5 0.66            153           76.0  36 
 BRR  HZ EP       1043  6.12                             150    0.2110 76.7 298 
 BRR  HN ES       1043 22.80                             150    0.5410 76.7 298 
 BRR  HZ I        1043 25.51         9.9 0.16            149           76.7 298 
 RUS  HZ EP   2   1043  8.65                             143    0.59 5 98.2 179 
 RUS  HE ES       1043 26.31                             143    0.2310 98.2 179 
 RUS  HZ I        1043 28.19         2.0 0.38            146           98.2 179 
 SPBC HZ EP   2   1043 12.48                             128   -0.77 5  165 221 
 SPBC HE ES       1043 35.21                             128   -0.10 9  165 221 
 SPBC HZ I        1043 39.20         3.9 0.34            129            165 221 
 ZAR  HZ EP       1043 17.36                             120   -0.31 8  210 292 
 ZAR  HE ES       1043 43.24                             120    0.05 8  210 292 
 ZAR  HZ I        1043 48.19         3.6 0.30            121            210 292 
 NOR  HZ EP   4   1043 22.25                             117    1.52 0  238 236 
 NOR  HN ES       1043 48.03                             117   -0.60 8  238 236 
 NOR  HZ I        1043 54.62         2.1 0.36            118            238 236 
                                                                                
