 2012  212 1423 23.9 L   6.749 -73.153140.9  RSN 11 0.4 1.9LRSN                1
 GAP=138        0.83       3.9     4.0  6.1 -0.1290E+01  0.8172E+01  0.4655E+01E
 ACTION:UP  12-03-07 16:29 OP:epov STATUS:               ID:20120212142323 L   I
 2012-02-12-1420-00M.COL___188                                                 6
 STAT SP IPHASW D HRMM SECON CODA AMPLIT PERI AZIMU VELO AIN AR TRES W  DIS CAZ7
 BAR2 SZ EP   1   1423 43.05                             172    0.22 9 17.6 191 
 BAR2 SZ ES   1   1423 57.55                             172   -0.05 9 17.6 191 
 BAR2 SZ I        1423 59.00        26.2 0.17                          17.6 191 
 GIR2 SZ EP   1   1423 43.26                             165    0.11 9 36.8 353 
 BRR  HZ EP   1   1423 45.09                             151    0.44 9 73.4 303 
 BRR  HE ES   1   1424  1.44                             151    0.61 9 73.4 303 
 BRR  HZ I        1424  6.45        30.7 0.13                          73.4 303 
 PAM  SZ EP   1   1423 45.90                             148    0.00 9 82.3  37 
 PAM  SN ES   1   1424  2.40                             148   -0.67 9 82.3  37 
 PAM  SZ I        1424  4.94        11.3 0.35                          82.3  37 
 RUS  HZ EP   1   1423 47.04                             144    0.27 9 95.0 175 
 RUS  HN ES   1   1424  4.93                             144    0.33 9 95.0 175 
 RUS  HZ I        1424  7.48         8.0 0.29                          95.0 175 
 PTB  HZ EP   1   1423 49.94                             131   -0.36 9  146 261 
 PTB  HN ES   1   1424  9.97                             131   -0.93 9  146 261 
 ZAR  HZ EP   1   1423 55.80                             121   -0.38 8  205 294 
 ZAR  HN ES   1   1424 21.41                             121    0.05 8  205 294 
 ZAR  HZ I        1424 26.87        16.5 0.39                           205 294 
 NOR  SZ EP   1   1423 58.88                             118   -0.04 7  231 235 
 NOR  SE ES       1424 26.68                             118    0.4410  231 235 
 CHI  HZ EP   1   1424  0.43                             117   -0.28 7  243 195 
 CHI  HN ES   1   1424 28.64                             117   -0.78 7  243 195 
 CHI  HZ I        1424 37.01         4.1 0.20                           243 195 
 HEL  HZ EP   1   1424  4.31                             114    0.68 7  270 257 
 HEL  HZ I        1424 25.91         5.1 0.48                           270 257 
 HEL  HN ES   1   1424 34.35                             114   -0.27 7  270 257 
 RREF HZ EP   1   1424  9.47                             110    0.13 6  317 230 
                                                                                
