 2011 1012 1856 47.4 L   6.758 -73.150146.0  RSN 11 0.3 2.3LRSN                1
 GAP=138        0.62       3.4     5.1  5.0 -0.1514E+01  0.1919E+01 -0.2882E+01E
 Epicentro: LOS SANTOS - SANTANDER                                             3
 ACTION:UPD 12-07-13 16:03 OP:ep   STATUS:               ID:20111012185647 L   I
 2011-10-12-1840-00M.COL___171                                                 6
 STAT SP IPHASW D HRMM SECON CODA AMPLIT PERI AZIMU VELO AIN AR TRES W  DIS CAZ7
 BAR2 SZ EP       1857  6.99                             172   -0.0310 18.7 191 
 BAR2 SZ ES   1   1857 21.78                             172   -0.51 7 18.7 191 
 BAR2 SZ I        1857 23.06        31.7 0.34                          18.7 191 
 BTL  SZ EP       1857  7.58                             171    0.5010 22.0 324 
 GIR2 SZ EP       1857  7.04                             165   -0.2310 35.8 352 
 BRR  HZ EP       1857  8.81                             151    0.0810 73.1 302 
 BRR  HZ I        1857  9.13        44.3 0.28                          73.1 302 
 BRR  HE ES   1   1857 25.76                             151    0.43 7 73.1 302 
 PAM  SZ IP       1857  9.75                             150   -0.1710 81.3  38 
 PAM  SN ES   1   1857 27.19                             150   -0.26 7 81.3  38 
 RUS  HZ EP       1857 11.04                             145    0.1410 96.0 176 
 RUS  HN ES   1   1857 29.23                             145    0.04 7 96.0 176 
 BRI  SZ EP   2   1857 11.36                             140   -0.34 5  113  20 
 OCA  SZ EP       1857 16.34                             129    0.14 9  165 353 
 OCA  SZ I        1857 44.66        26.0 0.37                           165 353 
 ZAR  HZ EP   3   1857 19.04                             122   -1.00 2  205 293 
 ZAR  HN ES   3   1857 44.66                             122   -0.81 2  205 293 
 ZAR  HZ I        1857 51.95        18.6 0.26                           205 293 
 NOR  SN ES   3   1857 50.28                             118   -0.21 2  232 235 
 RREF HZ EP   2   1857 32.65                             111   -0.57 3  318 230 
 RREF HN ES   3   1858  8.85                             111   -0.07 2  318 230 
 RREF HZ I        1858 15.40        11.1 0.26                           318 230 
                                                                                
