 2014  612 1820  6.4 L   7.472 -73.103142.0  RSN  6 0.4 1.9LRSN                1
 GAP=274        0.76       8.4     6.3  7.1  0.1479E+02 -0.6594E+00 -0.1242E+02E
 Epicentro: EL PLAYON - SANTANDER                                              3
 ACTION:UPD 14-07-01 22:53 OP:nd   STATUS:               ID:20140612182006 L   I
 OLDACT:REG 14-06-12 21:18 OP:fm   STATUS:               ID:20140612181812     3
 2014-06-12-1818-12M.COL___262                                                 6
 STAT SP IPHASW D HRMM SECON CODA AMPLIT PERI AZIMU VELO AIN AR TRES W  DIS CAZ7
 BRR  HZ EP       1820 27.60                             150    0.0410 78.4 239 
 BRR  HN ES       1820 44.49                             150    0.4110 78.4 239 
 BRR  HZ I        1820 49.09        16.3 0.40            156           78.4 239 
 BAR2 SZ EP       1820 29.25                             144    0.0510 97.6 185 
 BAR2 SZ ES   1   1820 46.72                             144   -0.27 7 97.6 185 
 BAR2 SZ I        1820 47.54        12.5 0.16            164           97.6 185 
 SML  HN ES   4   1820 56.88                             125   -2.74 0  182 324 
 SML  HZ I        1820 59.90         9.3 0.10            115            182 324 
 PTB  HZ EP       1820 35.82                             125   -0.49 9  182 236 
 PTB  HE ES   1   1820 59.12                             125   -0.54 7  182 236 
 PTB  HZ I        1821  1.62         7.5 0.22            130            182 236 
 ZAR  HZ EP   1   1820 37.65                             123    0.12 6  194 271 
 ZAR  HE ES   1   1821  1.62                             123   -0.20 6  194 271 
 ZAR  HZ I        1821  4.78         8.1 0.32            121            194 271 
 GUY2CHZ EP   1   1820 56.32                             108    0.58 5  353 225 
 GUY2CHE ES   1   1821 35.01                             108    0.78 5  353 225 
 GUY2CHZ I        1821 45.43         2.1 0.48                           353 225 
                                                                                
