 2013  812 1423 39.1 L   6.746 -73.141135.9  RSN  7 0.4 1.7LRSN                1
 GAP=140        0.92       5.4     4.9  7.7 -0.7467E+01  0.1419E+02 -0.4853E+01E
 Epicentro: JORDAN - SANTANDER                                                 3
 ACTION:UPD 14-01-14 09:01 OP:ep   STATUS:               ID:20130812142339 L   I
 OLDACT:REG 13-08-12 16:26 OP:jn   STATUS:               ID:20130812141959     3
 2013-08-12-1419-59M.COL___271                                                 6
 STAT SP IPHASW D HRMM SECON CODA AMPLIT PERI AZIMU VELO AIN AR TRES W  DIS CAZ7
 BAR2 SZ EP       1423 57.60                             172    0.2010 17.6 195 
 BAR2 SZ ES       1424 11.36                             172   -0.3410 17.6 195 
 BAR2 SZ I        1424 13.62         8.9 0.16            172           17.6 195 
 BRR  HZ EP       1423 59.61                             149    0.2410 74.6 302 
 BRR  HE ES   1   1424 16.24                             149    1.04 7 74.6 302 
 BRR  HZ I        1424 20.62         9.6 0.42            148           74.6 302 
 PAM  SZ EP       1424  0.60                             147    0.0810 81.7  37 
 PAM  SN ES       1424 16.95                             147   -0.3010 81.7  37 
 PAM  SZ I        1424 19.75        15.3 0.64            151           81.7  37 
 RUS  HN ES   1   1424 19.11                             143    0.26 7 94.6 176 
 RUS  HZ I        1424 21.30         6.0 0.24            148           94.6 176 
 PTB  HZ EP       1424  4.85                             130   -0.35 9  147 261 
 PTB  HN ES   1   1424 24.99                             130   -0.59 7  147 261 
 PTB  HZ I        1424 28.66         6.7 0.16            131            147 261 
 ZAR  HN ES   1   1424 36.02                             120   -0.21 6  207 294 
 ZAR  HZ I        1424 41.68         6.3 0.30            122            207 294 
 NOR  HN ES   1   1424 41.34                             117    0.24 6  232 236 
 NOR  HZ I        1424 43.63         3.3 0.14            119            232 236 
                                                                                
