 2010  612 1907  5.2 L   6.828 -73.367140.0  RSN  5 0.2 1.7LRSN                1
 GAP=221        0.40       4.3    21.5  6.8 -0.7551E+02  0.9001E+02 -0.1640E+02E
 Epicentro: SAN VICENTE DE CHUCURI - SANTANDER                                 3
 ACTION:UP  10-08-24 10:10 OP:vdl  STATUS:               ID:20100612190705 L   I
 2010-06-12-1903-24S.COL___117                                                 6
 STAT SP IPHASW D HRMM SECON CODA AMPLIT PERI AZIMU VELO SNR AR TRES W  DIS CAZ7
 BAR2 SZ EP   1   19 7 24.67                             167     0.2 7   33 142 
 BAR2 SZ ES   2   19 7 39.48                             167     0.1 5   33 142 
 RUS  HZ EP   1   19 7 28.90                             141    -0.1 7  108 163 
 RUS  HE ES   2   19 7 47.39                             141    -0.2 5  108 163 
 RUS  HZ I        19 7 48.39         8.2 0.18                           108 163 
 BRI  SZ EP   1   19 7 29.31                             138     0.1 7  117  33 
 BRI  SZ ES   2   19 7 48.15                             138     0.2 5  117  33 
 GUE  SZ EP   1   19 7 29.70                             137    -0.1 7  121  24 
 GUE  SZ ES   2   19 7 48.48                             137    -0.5 5  121  24 
 GRA  SZ EP   1   19 7 30.50                             134    -0.1 7  132  28 
 GRA  SZ ES   2   19 7 50.59                             134     0.3 5  132  28 
                                                                                
