 2011 1112 1232 31.8 L   6.382 -73.646111.3  RSN  4 0.2 1.5LRSN                1
 GAP=119        0.45       3.0     4.0  5.7  0.3924E+01  0.1086E+02  0.5115E+01E
 Epicentro: SANTA HELENA DEL OPON - SANTANDER                                  3
 ACTION:UPD 12-07-13 16:09 OP:ep   STATUS:               ID:20111112123231 L   I
 2011-11-12-1230-22S.COL___180                                                 6
 STAT SP IPHASW D HRMM SECON CODA AMPLIT PERI AZIMU VELO AIN AR TRES W  DIS CAZ7
 BAR2 SZ EP       1232 48.88                             151    0.1610 56.4  66 
 BAR2 SZ ES       1233  2.06                             151    0.1310 56.4  66 
 BAR2 SZ I        1233  2.95        14.6 0.15                          56.4  66 
 BRR  HZ EP       1232 49.85                             141   -0.1710 80.6 355 
 BRR  HN ES   1   1233  4.18                             141   -0.06 7 80.6 355 
 BRR  HZ I        1233  9.30        11.3 0.39                          80.6 355 
 RUS  HZ EP       1232 50.92                             141    0.0610 82.5 131 
 RUS  HN ES   1   1233  5.42                             141   -0.32 7 82.5 131 
 RUS  HZ I        1233  8.61         2.8 0.41                          82.5 131 
 NOR  SE ES   2   1233 18.26                             120    0.15 5  163 236 
                                                                                
