 2011  812 1331  4.6 L   6.766 -73.156144.6  RSN  6 0.4 2.0LRSN                1
 GAP=137        0.77       4.8     6.1  7.1 -0.6139E+01 -0.8828E+00 -0.4084E+01E
 Epicentro: LOS SANTOS - SANTANDER                                             3
 ACTION:UPD 12-07-13 15:51 OP:ep   STATUS:               ID:20110812133104 L   I
 2011-08-12-1327-27S.COL___150                                                 6
 STAT SP IPHASW D HRMM SECON CODA AMPLIT PERI AZIMU VELO AIN AR TRES W  DIS CAZ7
 BAR2 SZ EP       1331 24.06                             172    0.0910 19.4 188 
 BAR2 SZ ES   1   1331 38.64                             172   -0.47 7 19.4 188 
 BAR2 SZ I        1331 40.11        33.4 0.38                          19.4 188 
 BRR  HZ EP       1331 25.85                             152    0.2310 72.0 302 
 BRR  HZ I        1331 26.23        27.0 0.10                          72.0 302 
 BRR  HN ES   1   1331 42.62                             152    0.56 7 72.0 302 
 PAM  SZ EP       1331 26.98                             149    0.1110 81.0  39 
 PAM  SN ES   2   1331 43.81                             149   -0.46 5 81.0  39 
 RUS  HZ EP       1331 28.17                             145    0.2410 96.9 175 
 RUS  HN ES   2   1331 46.13                             145   -0.03 5 96.9 175 
 RUS  HZ I        1331 47.97         7.4 0.28                          96.9 175 
 OCA  SZ EP       1331 32.67                             129   -0.44 9  164 354 
 NOR  SN ES   1   1332  6.81                             119   -0.62 6  232 235 
                                                                                
