 2012  912 1522 15.9 L   6.725 -73.167140.8  RSN  7 0.4 1.8LRSN                1
 GAP=137        0.74       6.0     5.1  7.5  0.1196E+02 -0.3432E+01 -0.1444E+02E
 Epicentro: VILLANUEVA - SANTANDER                                             3
 ACTION:UPD 12-10-22 14:18 OP:ep   STATUS:               ID:20120912152215 L   I
 2012-09-12-1520-00M.COL___227                                                 6
 STAT SP IPHASW D HRMM SECON CODA AMPLIT PERI AZIMU VELO AIN AR TRES W  DIS CAZ7
 BAR2 SZ EP       1522 34.76                             174   -0.0710 14.8 187 
 BAR2 SZ I        1522 34.93        18.2 0.20                          14.8 187 
 BAR2 SZ ES   1   1522 49.45                             174   -0.11 7 14.8 187 
 GIR2 SZ EP   1   1522 34.96                             164   -0.32 7 39.2 356 
 BRR  HZ EP   1   1522 36.76                             151    0.06 7 73.6 305 
 BRR  HN ES   1   1522 53.36                             151    0.47 7 73.6 305 
 PAM  SZ EP   1   1522 37.82                             147   -0.32 7 85.4  37 
 PAM  SZ I        1522 38.51        16.2 0.20                          85.4  37 
 RUS  HZ EP   1   1522 39.18                             145    0.55 7 92.5 174 
 RUS  HN ES   1   1522 56.42                             145    0.10 7 92.5 174 
 RUS  HZ I        1522 58.44         4.5 0.24                          92.5 174 
 PTB  HN ES   1   1523  1.86                             132   -0.77 7  144 262 
 PTB  HN I        1523  4.88        11.4 0.24                           144 262 
 ZAR  HZ EP   1   1522 48.27                             121    0.08 6  205 295 
 ZAR  HE ES   1   1523 13.77                             121    0.43 6  205 295 
                                                                                
