 2016 1012 1849 53.5 L   6.880 -73.090155.1  RSN 17 0.6 2.4LRSN                1
 GAP=120        1.42       5.4     5.6  7.8  0.4156E+01  0.1451E+02  0.1108E+02E
 Epicentro: PIEDECUESTA - SANTANDER                                            3
 ACTION:UPD 16-11-09 19:19 OP:rebc STATUS:               ID:20161012184953 L   I
 OLDACT:UP  16-10-13 00:11 OP:edw  STATUS:               ID:20161012184749     3
 OLDACT:UP  16-10-13 00:09 OP:edw  STATUS:               ID:20161012184749     3
 OLDACT:UP  16-10-13 00:08 OP:edw  STATUS:               ID:20161012184749     3
 OLDACT:UP  16-10-13 00:07 OP:edw  STATUS:               ID:20161012184749     3
 OLDACT:REG 16-10-12 20:18 OP:edw  STATUS:               ID:20161012184749     3
 2016-10-12-1848-00M.COL___363                                                 6
 STAT SP IPHASW D HRMM SECON CODA AMPLIT PERI AZIMU VELO AIN AR TRES W  DIS CAZ7
 BAR2 EZ EP       1850 14.74                             167    0.2310 33.4 198 
 BAR2 EZ ES       1850 30.19                             167   -0.6910 33.4 198 
 BAR2 EZ I        1850 30.95        54.8 0.22            166           33.4 198 
 PAM  EZ EP   4   1850 17.64                             155    1.48 0 66.6  40 
 PAM  EN ES       1850 34.45                             155    0.6210 66.6  40 
 PAM  EZ I        1850 36.89        49.6 0.50            157           66.6  40 
 BRR  HZ EP       1850 16.50                             153    0.7110 73.2 290 
 BRR  HN ES       1850 33.80                             153    0.6310 73.2 290 
 BRR  HZ I        1850 36.45        24.2 0.14            150           73.2 290 
 RUS  HZ EP       1850 18.75                             143   -0.0610  109 180 
 RUS  HN ES       1850 37.88                             143   -0.6610  109 180 
 RUS  HZ I        1850 39.22        26.1 0.40            144            109 180 
 PTB  HZ EP       1850 21.47                             132   -0.50 9  156 256 
 PTB  HE ES       1850 43.35                             132   -0.81 9  156 256 
 PTB  HZ I        1850 45.09        29.9 0.78            131            156 256 
 SPBC HZ EP       1850 23.63                             129   -0.13 9  174 219 
 SPBC HN ES   4   1850 45.90                             129   -1.44 0  174 219 
 SPBC HZ I        1850 52.04        42.1 0.36            128            174 219 
 ZAR  HZ EP       1850 27.56                             124    0.71 8  207 289 
 ZAR  HN ES       1850 52.50                             124   -0.36 8  207 289 
 ZAR  HZ I        1851  3.23        11.8 0.24            123            207 289 
 NOR  HZ EP       1850 30.87                             119   -0.02 8  245 234 
 NOR  HN ES   4   1850 58.96                             119   -1.07 0  245 234 
 NOR  HZ I        1851  3.86        18.4 0.46            118            245 234 
 CHI  HZ EP       1850 33.01                             118    0.16 8  259 196 
 CHI  HN ES   4   1851  2.04                             118   -1.48 0  259 196 
 CHI  HZ I        1851  5.99        14.3 0.54            118            259 196 
 ROSC BZ EP   4   1850 35.26                             117    1.93 0  264 211 
 ROSC BN ES       1851  5.25                             117    0.87 8  264 211 
 ROSC BZ I        1851  8.78        21.6 0.75            117            264 211 
 HEL  HZ EP   4   1850 36.68                             116    1.56 0  280 254 
 HEL  HN ES       1851  7.36                             116   -0.22 7  280 254 
 HEL  HZ I        1851 12.34        11.8 0.36            115            280 254 
 GUY2CHZ EP   4   1850 39.72                             113    1.01 0  311 234 
 GUY2CHN ES       1851 14.97                             113    1.01 7  311 234 
 GUY2CHZ I        1851 20.86        11.2 0.28                           311 234 
 PTGC HZ EP       1850 37.93                             113   -0.57 7  315 160 
 PTGC HN ES   4   1851 11.48                             113   -2.10 0  315 160 
 PTGC HZ I        1851 16.14        18.3 0.32            113            315 160 
 LL6C HZ EP   4   1850 20.73                             113   -17.9 0  316 356 
 LL6C HN ES   4   1850 56.53                             113   -17.4 0  316 356 
 ELA  HZ EP   4   1850 44.58                             111    2.62 0  340 229 
 ELA  HN ES   4   1851 23.44                             111    3.69 0  340 229 
 ELA  HZ I        1851 29.29         7.4 0.38            111            340 229 
 CBOC HZ EP   4   1850 43.23                             111    1.41 0  342 251 
 CBOC HN ES       1851 19.56                             111    0.07 7  342 251 
 CBOC HZ I        1851 22.95         3.6 0.14            110            342 251 
 SJC  HZ EP   4   1850 48.99                             107    0.05 0  405 326 
 SJC  HN ES       1851 30.37                             107   -1.80 6  405 326 
 SJC  HZ I        1851 36.33         3.2 0.32            107            405 326 
 CRJC HZ EP   9   1850 55.26                             105    0.05 0  458   3 
 CRJC HN ES       1851 43.15                             105   -0.23 5  458   3 
 CRJC HZ I        1851 50.04         5.7 0.36            105            458   3 
                                                                                
