 2013  312 1509 13.9 L   6.743 -73.140145.3  RSN 10 0.3 2.5LRSN                1
 GAP= 94        0.72       3.6     3.2  4.5 -0.4170E+00  0.2144E+01  0.3171E+01E
 Epicentro: JORDAN - SANTANDER                                                 3
 ACTION:UPD 13-04-09 14:01 OP:ep   STATUS:               ID:20130312150913 L   I
 2013-03-12-1504-49M.COL___204                                                 6
 STAT SP IPHASW D HRMM SECON CODA AMPLIT PERI AZIMU VELO AIN AR TRES W  DIS CAZ7
 BAR2 SZ EP       15 9 33.31                             173   -0.0410 17.3 196 
 BAR2 SZ ES       15 9 48.30                             173   -0.2310 17.3 196 
 BAR2 SZ I        15 9 51.34       114.4 0.32            164           17.3 196 
 BRR  HZ IP     C 15 9 35.41                             151    0.2110 75.0 303 
 BRR  HE ES       15 9 52.37                             151    0.5510 75.0 303 
 BRR  HZ I        15 9 56.75        52.3 0.22            140           75.0 303 
 PAM  SZ EP     C 15 9 36.25                             149   -0.0710 81.9  36 
 PAM  SZ I        15 9 36.68        78.3 0.21            149           81.9  36 
 PAM  SN ES   1   15 9 53.20                             149   -0.63 7 81.9  36 
 RUS  HZ EP       15 9 37.34                             145    0.2010 94.2 176 
 RUS  HE ES   1   15 9 55.58                             145    0.30 7 94.2 176 
 RUS  HE I        15 9 57.21        67.3 0.43            139           94.2 176 
 PTB  HZ EP   1   15 9 40.12                             132   -0.65 7  147 261 
 PTB  HE ES   1   1510  1.37                             132   -0.37 7  147 261 
 PTB  HZ I        1510  8.80        48.7 0.45            122            147 261 
 TAM  HZ EP   1   15 9 41.60                             131    0.28 7  153 103 
 ZAR  HZ EP   1   15 9 46.43                             122   -0.18 6  207 294 
 ZAR  HN ES   1   1510 12.19                             122    0.05 6  207 294 
 ZAR  HZ I        1510 18.15        22.9 0.35            114            207 294 
 NOR  HZ EP   1   15 9 49.20                             119   -0.06 6  232 236 
 NOR  HE ES   1   1510 16.60                             119   -0.25 6  232 236 
 NOR  HZ I        1510 21.55        21.1 0.21            111            232 236 
 HEL  HZ EP   1   15 9 54.51                             115    0.53 6  271 257 
 HEL  HZ I        1510 32.18        13.0 0.37            108            271 257 
 PRA  HZ EP   1   1510  6.77                             107   -0.02 4  387 210 
 PRA  HN ES   1   1510 47.70                             107   -0.35 4  387 210 
 PRA  HZ I        1510 55.19        13.8 0.30            102            387 210 
                                                                                
