 2010  712 1908 34.4 L   6.726 -73.188156.9  RSN  4 0.1 2.2LRSN                1
 GAP=159        0.47       4.2     8.8  6.8  0.2605E+02 -0.4153E+02 -0.1743E+02E
 Epicentro: VILLANUEVA - SANTANDER                                             3
 ACTION:UPD 10-12-01 15:17 OP:pat  STATUS:               ID:20100712190834 L   I
 2010-07-12-1904-20S.COL___120                                                 6
 STAT SP IPHASW D HRMM SECON CODA AMPLIT PERI AZIMU VELO AIN AR TRES W  DIS CAZ7
 BAR2 SZ EP       19 8 54.95                             174    -0.310   15 178 
 BAR2 SZ I        19 9  8.30        55.4 0.68                            15 178 
 BRR  HZ EP       19 8 56.79                             154     0.010   72 306 
 BRR  HZ I        19 8 57.17        71.7 0.03                            72 306 
 BRR  HE ES       19 9 14.22                             154     0.010   72 306 
 RUS  HZ EP       19 8 58.79                             148     0.110   93 173 
 RUS  HN ES       19 9 17.75                             148     0.010   93 173 
 RUS  HZ I        19 9 18.83        10.6 0.50                            93 173 
 GUE  SZ EP       19 9  0.90                             139     0.110  126  13 
 GUE  SZ I        19 9  3.49         7.5 0.17                           126  13 
                                                                                
