 2017  912 1746 13.8 L   7.493 -73.190128.8  RSN  5 0.4 1.4LRSN                1
 GAP=197        0.79       5.9     3.9  8.2  0.4288E+01  0.8717E+01  0.2253E+01E
 Epicentro: EL PLAYON - SANTANDER                                              3
 ACTION:UPD 17-10-05 19:11 OP:rebc STATUS:               ID:20170912174613 L   I
 OLDACT:UP  17-09-12 22:41 OP:dnl  STATUS:               ID:20170912173743     3
 OLDACT:REG 17-09-12 20:38 OP:dnl  STATUS:               ID:20170912173743     3
 2017-09-12-1738-00M.COL___449                                                 6
 STAT SP IPHASW D HRMM SECON CODA AMPLIT PERI AZIMU VELO AIN AR TRES W  DIS CAZ7
 PAM  EZ EP       1746 33.21                             155    0.1510 56.7 107 
 PAM  EN ES       1746 48.18                             155    0.1210 56.7 107 
 PAM  EZ I        1746 49.13         6.3 0.46            140           56.7 107 
 BRR  HZ EP       1746 32.95                             149   -0.2710 71.8 234 
 BRR  HN ES       1746 48.08                             149   -0.2510 71.8 234 
 BRR  HZ I        1746 49.20        12.3 0.32            136           71.8 234 
 BAR2 EZ EP   2   1746 34.38                             140   -1.15 5 99.6 180 
 BAR2 EZ I        1746 52.42         6.1 0.12            124           99.6 180 
 RUS  HZ EP   4   1746 41.44                             123   -1.62 0  177 176 
 RUS  HE ES       1747  6.16                             123    0.30 9  177 176 
 RUS  HZ I        1747  9.02         1.3 0.34            110            177 176 
 ZAR  HZ EP   2   1746 43.59                             121    0.46 4  184 270 
 ZAR  HN ES       1747  6.25                             121    0.27 9  184 270 
 ZAR  HZ I        1747 10.72         3.2 0.48            110            184 270 
                                                                                
