 2012 1012 1746 24.1 L   6.778 -73.101147.3  RSN  5 0.4 1.4LRSN                1
 GAP=143        0.78       5.4     8.4  7.5 -0.6470E+00 -0.5141E+01  0.4137E+01E
 Epicentro: LOS SANTOS - SANTANDER                                             3
 ACTION:UPD 12-11-22 17:03 OP:ep   STATUS:               ID:20121012174624 L   I
 2012-10-12-1740-00M.COL___232                                                 6
 STAT SP IPHASW D HRMM SECON CODA AMPLIT PERI AZIMU VELO AIN AR TRES W  DIS CAZ7
 BAR2 SZ EP   1   1746 43.99                             171    0.13 7 22.4 204 
 BAR2 SZ I        1746 44.32         9.4 0.09                          22.4 204 
 BAR2 SZ ES   1   1746 59.02                             171   -0.27 7 22.4 204 
 GIR2 SZ EP   1   1746 43.13                             166   -0.88 7 34.8 343 
 GIR2 SZ ES   1   1746 59.25                             166   -0.32 7 34.8 343 
 PAM  SZ EP   1   1746 46.78                             151    0.40 7 76.3  35 
 PAM  SN ES   1   1747  4.01                             151    0.23 7 76.3  35 
 PAM  SN I        1747  4.86         6.2 0.27                          76.3  35 
 BRR  HZ EP   1   1746 45.68                             151   -0.01 7 76.7 298 
 BRR  HE ES   1   1747  3.04                             151    0.48 7 76.7 298 
 RUS  HZ EP   1   1746 47.84                             145    0.07 7 97.9 179 
 RUS  HZ I        1746 48.81         1.6 0.13                          97.9 179 
 RUS  HE ES   1   1747  6.44                             145    0.18 7 97.9 179 
                                                                                
