 2011  212 1601 52.5 L   6.809 -73.227136.8  RSN  5 0.4 1.3LRSN                1
 GAP=189        0.74       8.8    12.8 11.6 -0.2779E+02  0.4753E+02  0.8119E+01E
 Epicentro: ZAPATOCA - SANTANDER                                               3
 ACTION:UP  11-03-28 15:07 OP:jfem STATUS:               ID:20110212160152 L   I
 2011-02-12-1600-56S.COL___136                                                 6
 STAT SP IPHASW D HRMM SECON CODA AMPLIT PERI AZIMU VELO SNR AR TRES W  DIS CAZ7
 BTL  SZ EP       16 2 10.89                             174     0.010   13 340 
 BAR2 SZ EP   2   16 2 10.46                             169    -0.6 5   24 169 
 BAR2 SZ ES   2   16 2 25.84                             169     0.3 5   24 169 
 BAR2 SZ I        16 2 26.54         5.6 0.46                            24 169 
 RUS  HZ EP   2   16 2 16.43                             141     0.9 5  103 171 
 RUS  HN ES   2   16 2 33.15                             141    -0.3 5  103 171 
 RUS  HZ I        16 2 35.34         4.0 0.19                           103 171 
 NOR  SN ES   2   16 2 54.02                             117     0.1 4  228 233 
 CHI  HZ EP   1   16 2 29.41                             115    -0.2 6  247 193 
 CHI  HZ I        16 3  1.92         1.3 0.49                           247 193 
                                                                                
