 2012  312 1926 52.9 L   6.723 -73.205151.0  RSN  4 0.1 1.5LRSN                1
 GAP=223        0.35       3.8     3.7  4.7  0.7140E+01 -0.2052E+01 -0.1317E+01E
 ACTION:UP  12-03-31 23:19 OP:EP   STATUS:               ID:20120312192652 L   I
 2012-03-12-1920-00M.COL___196                                                 6
 STAT SP IPHASW D HRMM SECON CODA AMPLIT PERI AZIMU VELO SNR AR TRES W  DIS CAZ7
 BAR2 SZ EP   1   1927 12.86                             174    -0.2 7   15 170 
 BAR2 SZ I        1927 29.30         6.1 0.17                            15 170 
 BRR  HZ EP   1   1927 14.70                             154     0.1 7   70 307 
 BRR  HZ I        1927 19.30        10.6 0.21                            70 307 
 BRR  HN ES   1   1927 31.52                             154     0.0 7   70 307 
 RUS  HZ EP   1   1927 16.79                             147     0.1 7   93 172 
 RUS  HE ES   1   1927 35.17                             147     0.0 7   93 172 
 RUS  HZ I        1927 37.82         2.6 0.25                            93 172 
 PTB  HZ EP   1   1927 19.56                             135    -0.1 7  140 262 
 PTB  HN ES   1   1927 40.46                             135     0.0 7  140 262 
                                                                                
