 2014  912 1714 15.0 L   6.779 -73.159137.8  RSN 11 0.4 2.1LRSN                1
 GAP=118        1.51       4.5     5.8  8.5 -0.4853E+01  0.1792E+02 -0.1590E+01E
 Epicentro: LOS SANTOS - SANTANDER                                             3
 ACTION:UPD 14-10-03 23:04 OP:nd   STATUS:               ID:20140912171415 L   I
 OLDACT:REG 14-09-12 20:33 OP:stll STATUS:               ID:20140912170818     3
 2014-09-12-1708-18M.COL___293                                                 6
 STAT SP IPHASW D HRMM SECON CODA AMPLIT PERI AZIMU VELO AIN AR TRES W  DIS CAZ7
 BAR2 SZ EP       1714 33.87                             171    0.2110 20.8 187 
 BAR2 SZ ES       1714 48.13                             171   -0.0510 20.8 187 
 BAR2 SZ I        1714 49.90        38.7 0.22            171           20.8 187 
 BRR  HZ IP     C 1714 35.69                             151    0.3710 71.1 301 
 BRR  HN ES       1714 51.63                             151    0.4910 71.1 301 
 BRR  HZ I        1714 53.63        18.2 0.14            147           71.1 301 
 PAM  SZ IP     C 1714 36.72                             149    0.1410 80.2  39 
 PAM  SN ES       1714 53.00                             149   -0.3910 80.2  39 
 PAM  SZ I        1714 55.68        28.7 0.48            150           80.2  39 
 RUS  HZ EP       1714 37.90                             143    0.0510 98.3 175 
 RUS  HN ES       1714 55.58                             143   -0.0510 98.3 175 
 PTB  HZ EP       1714 40.78                             130   -0.41 9  146 260 
 PTB  HN ES       1715  1.10                             130   -0.49 9  146 260 
 PTB  HZ I        1715  6.93        14.3 0.32            130            146 260 
 OCA  HZ EP       1714 42.22                             127   -0.73 9  162 354 
 OCA  HN ES       1715  5.52                             127    0.80 9  162 354 
 OCA  HZ I        1715  8.97        15.3 0.66            127            162 354 
 ZAR  HZ EP       1714 47.33                             120    0.40 9  204 293 
 ZAR  HN ES       1715 12.01                             120    0.21 9  204 293 
 ZAR  HZ I        1715 17.78        17.2 0.32            120            204 293 
 NOR  HZ EP       1714 50.48                             117    0.44 8  232 235 
 NOR  HE ES       1715 16.99                             117   -0.34 8  232 235 
 NOR  HZ I        1715 23.60         7.1 0.16            118            232 235 
 SML  HZ EP   2   1714 50.25                             115   -1.15 4  245 336 
 SML  HN ES       1715 19.05                             115   -0.71 8  245 336 
 SML  HZ I        1715 28.62        13.2 0.30            116            245 336 
 GUY2CHZ EP       1714 58.37                             111    0.37 7  299 235 
 GUY2CHN ES       1715 31.28                             111   -0.22 7  299 235 
 GUY2CHZ I        1715 41.34         4.3 0.58                           299 235 
 SOCV BZ EP   9   1714 57.16                             110   -0.86 0  304  57 
 SOCV BN ES       1715 28.03                                   -2.66 7  304  57 
                                                                                
