 2017  212 1247 30.8 L   6.821 -72.988134.0  RSN  4 0.4 1.1LRSN                1
 GAP=254        0.78       7.4    10.2  7.3  0.5384E+02 -0.1749E+02 -0.1152E+02E
 Epicentro: CEPITA - SANTANDER                                                 3
 ACTION:UPD 17-05-24 15:35 OP:jn   STATUS:               ID:20170212124730 L   I
 OLDACT:DUP 17-02-12 23:47 OP:edw  STATUS:               ID:20170212123746d    3
 OLDACT:REG 17-02-12 21:01 OP:edw  STATUS:               ID:20170212123745     3
 2017-02-12-1238-00M.COL___346                                                 6
 STAT SP IPHASW D HRMM SECON CODA AMPLIT PERI AZIMU VELO AIN AR TRES W  DIS CAZ7
 BAR2 EZ EP     C 1247 49.40                             166    0.1510 33.2 220 
 BAR2 EZ ES       1248  3.70                             166    0.0410 33.2 220 
 BAR2 EZ I        1248  5.36         5.2 0.42            165           33.2 220 
 BRR  HZ EP       1247 51.19                             146   -0.4410 86.0 292 
 BRR  HN ES       1248  8.15                             146    0.2610 86.0 292 
 RUS  HZ EP       1247 53.47                             141   -0.1210  103 186 
 RUS  HN ES       1248 11.42                             141    0.0410  103 186 
 RUS  HZ I        1248 12.98         1.4 0.26            141            103 186 
 PTB  HZ EP   2   1247 59.59                             126    1.08 5  165 259 
 PTB  HN ES   2   1248 19.38                             126   -0.76 5  165 259 
                                                                                
