 2015  912 1618 38.6 L   6.740 -73.129141.9  RSN  7 0.3 2.0LRSN                1
 GAP=141        0.88       4.1     3.9  5.6  0.1442E+01  0.6181E+01  0.1198E+01E
 Epicentro: LOS SANTOS - SANTANDER                                             3
 ACTION:UPD 15-10-28 16:25 OP:cam  STATUS:               ID:20150912161838 L   I
 OLDACT:DUP 15-09-13 01:11 OP:stll STATUS:               ID:20150912160752d    3
 OLDACT:DUP 15-09-13 01:00 OP:stll STATUS:               ID:20150912160751d    3
 2015-09-12-1607-50M.COL___335                                                 6
 STAT SP IPHASW D HRMM SECON CODA AMPLIT PERI AZIMU VELO AIN AR TRES W  DIS CAZ7
 BAR2 EZ EP       1618 57.49                             173   -0.2010 17.4 200 
 BAR2 EZ ES       1619 12.52                             173   -0.0410 17.4 200 
 BAR2 EZ I        1619 13.83        38.1 0.20            162           17.4 200 
 BRR  HZ EP     C 1618 59.40                             150   -0.2510 76.1 302 
 BRR  HN ES       1619 16.50                             150    0.4410 76.1 302 
 BRR  HZ I        1619 17.25        15.3 0.12            144           76.1 302 
 PAM  EZ EP       1619  0.44                             149   -0.2510 81.5  36 
 PAM  EZ I        1619  0.65        26.5 0.24            151           81.5  36 
 PAM  EN ES       1619 17.85                             149   -0.0510 81.5  36 
 RUS  HZ EP       1619  1.61                             145    0.0910 93.9 177 
 RUS  HZ I        1619  2.60         8.1 0.20            135           93.9 177 
 RUS  HE ES       1619 19.64                             145    0.2610 93.9 177 
 PTB  HZ EP       1619  5.09                             131   -0.26 9  148 261 
 PTB  HN ES       1619 25.76                             131   -0.43 9  148 261 
 PTB  HZ I        1619 30.95         8.2 0.32            123            148 261 
 SPBC HZ EP       1619  6.51                             129    0.05 9  159 221 
 SPBC HZ I        1619 31.21        12.9 0.34            120            159 221 
 ZAR  HZ EP       1619 12.22                             121    0.95 8  208 294 
 ZAR  HN ES       1619 36.55                             121   -0.18 8  208 294 
 ZAR  HZ I        1619 41.70         8.4 0.58            115            208 294 
                                                                                
