 2013  312 1046 53.4 L   6.499 -73.534112.3  RSN  9 0.3 2.3LRSN                1
 GAP=118        0.59       2.4     2.2  3.8  0.1278E+01  0.1511E+01 -0.1808E+00E
 Epicentro: SIMACOTA - SANTANDER                                               3
 ACTION:UPD 13-04-09 14:01 OP:ep   STATUS:               ID:20130312104653 L   I
 2013-03-12-1040-00M.COL___231                                                 6
 STAT SP IPHASW D HRMM SECON CODA AMPLIT PERI AZIMU VELO AIN AR TRES W  DIS CAZ7
 BAR2 SZ IP       1047 10.00                             159    0.4110 40.2  75 
 BAR2 SZ ES       1047 22.32                             159    0.0910 40.2  75 
 BRR  HZ IP     C 1047 10.85                             146   -0.1010 70.1 344 
 BRR  HE ES       1047 24.64                             146   -0.0110 70.1 344 
 BRR  HE I        1047 25.62       113.0 0.20            146           70.1 344 
 RUS  HZ IP     D 1047 12.70                             141    0.0810 83.5 143 
 RUS  HE ES   1   1047 27.35                             141   -0.28 7 83.5 143 
 RUS  HE I        1047 31.45        41.4 0.60            143           83.5 143 
 PAM  SZ EP       1047 16.78                             127   -0.0110  131  45 
 PAM  SZ I        1047 18.62        21.5 0.16            129            131  45 
 PAM  SE ES   1   1047 34.80                             127   -0.26 7  131  45 
 ZAR  HZ EP   1   1047 21.59                             117    0.03 7  183 307 
 ZAR  HN ES   1   1047 43.76                             117    0.21 7  183 307 
 ZAR  HZ I        1047 49.46        24.2 0.30            117            183 307 
 TAM  HZ EP       1047 22.78                             115    0.09 9  193  92 
 TAM  HZ I        1047 23.00        19.7 0.18            117            193  92 
 TAM  HE ES   1   1047 45.39                             115   -0.16 7  193  92 
 OCA  HZ EP   2   1047 22.57                             115   -0.38 4  194   7 
 OCA  HE ES   1   1047 45.53                             115   -0.48 6  194   7 
 OCA  HZ I        1047 50.34        19.4 0.18            116            194   7 
 HEL  HZ EP   1   1047 26.75                             112    0.24 6  223 261 
 HEL  HN ES   1   1047 51.82                             112   -0.54 6  223 261 
 HEL  HZ I        1047 56.99        12.4 0.18            112            223 261 
 SML  HZ EP   1   1047 30.02                             108   -0.39 6  261 347 
 SML  HE ES   1   1048  0.04                             108    0.73 6  261 347 
                                                                                
