 2011 1012 1252 47.6 L   6.785 -73.149149.5  RSN  6 0.4 1.8LRSN                1
 GAP=137        0.74       4.7     6.7  7.4  0.7392E+01 -0.6260E+01 -0.3130E+01E
 Epicentro: LOS SANTOS - SANTANDER                                             3
 ACTION:UPD 12-07-13 16:03 OP:ep   STATUS:               ID:20111012125247 L   I
 2011-10-12-1249-53S.COL___167                                                 6
 STAT SP IPHASW D HRMM SECON CODA AMPLIT PERI AZIMU VELO AIN AR TRES W  DIS CAZ7
 BAR2 SZ IP       1253  7.75                             171    0.0610 21.6 190 
 BAR2 SZ I        1253  7.82         7.8 0.12                          21.6 190 
 BAR2 SZ ES   1   1253 23.42                             171    0.09 7 21.6 190 
 BRR  HZ IP     D 1253  9.65                             153    0.4310 71.6 300 
 BRR  HZ I        1253 14.25        17.2 0.30                          71.6 300 
 BRR  HN ES   1   1253 26.18                             153    0.12 7 71.6 300 
 PAM  SZ EP       1253 10.28                             151   -0.0710 78.9  39 
 PAM  SN ES   2   1253 27.35                             151   -0.71 5 78.9  39 
 RUS  HZ EP       1253 11.49                             145   -0.1610 99.0 176 
 RUS  HE ES   1   1253 30.37                             145   -0.01 7 99.0 176 
 OCA  SZ ES   2   1253 39.13                             130    0.31 5  162 353 
 ZAR  HE ES   2   1253 44.49                             123   -1.39 4  204 293 
 ZAR  HZ I        1253 52.19         6.3 0.32                           204 293 
                                                                                
