 2011  912 1544 11.7 L   6.800 -73.160146.1  RSN  9 0.4 2.2LRSN                1
 GAP=154        0.67       3.1     5.1  5.1  0.2769E+01  0.4471E+01  0.1057E+01E
 Epicentro: LOS SANTOS - SANTANDER                                             3
 ACTION:UPD 12-07-13 15:57 OP:ep   STATUS:               ID:20110912154412 L   I
 2011-09-12-1539-27S.COL___169                                                 6
 STAT SP IPHASW D HRMM SECON CODA AMPLIT PERI AZIMU VELO AIN AR TRES W  DIS CAZ7
 BAR2 SZ EP   1   1544 31.39                             171    0.03 7 23.1 186 
 BAR2 SZ ES   1   1544 46.31                             171   -0.39 7 23.1 186 
 BAR2 SZ I        1544 49.24        26.3 0.23                          23.1 186 
 BRR  HZ EP       1544 33.07                             153    0.2710 69.8 299 
 BRR  HN ES   1   1544 49.78                             153    0.51 7 69.8 299 
 BRR  HZ I        1544 50.88        27.2 0.11                          69.8 299 
 RUS  HZ EP   1   1544 35.36                             144   -0.13 7  101 175 
 RUS  HN ES   1   1544 54.32                             144    0.27 7  101 175 
 RUS  HZ I        1544 56.16        20.5 0.32                           101 175 
 BRI  SZ EP   1   1544 35.39                             141   -0.26 7  109  22 
 OCA  SZ EP   1   1544 39.95                             130   -0.06 7  160 354 
 ZAR  HZ EP   1   1544 44.23                             123    0.22 6  203 292 
 ZAR  HN ES   1   1545  8.44                             123   -0.78 6  203 292 
 ZAR  HZ I        1545 15.21        19.7 0.43                           203 292 
 NOR  SZ EP   1   1544 47.56                             119    0.25 6  233 234 
 CHI  HZ EP   1   1544 49.38                             117    0.01 6  248 195 
 CHI  HZ I        1544 50.97         8.6 0.07                           248 195 
 CHI  HN ES   1   1545 18.14                             117   -0.62 6  248 195 
 PRA  HZ EP   1   1545  5.20                             107    0.06 4  391 209 
 PRA  HN ES   1   1545 47.21                             107    0.38 4  391 209 
                                                                                
