 2016 1012 1422 45.4 L   6.792 -73.150147.6  RSN  8 0.3 1.6LRSN                1
 GAP=136        0.80       3.3     3.3  5.1 -0.1541E+01  0.4098E+01  0.2323E+01E
 Epicentro: LOS SANTOS - SANTANDER                                             3
 ACTION:UPD 16-11-09 19:18 OP:rebc STATUS:               ID:20161012142245 L   I
 OLDACT:REG 16-10-12 20:01 OP:edw  STATUS:               ID:20161012141743     3
 2016-10-12-1418-00M.COL___372                                                 6
 STAT SP IPHASW D HRMM SECON CODA AMPLIT PERI AZIMU VELO AIN AR TRES W  DIS CAZ7
 BAR2 EZ EP       1423  5.20                             171   -0.0710 22.3 189 
 BAR2 EZ ES       1423 21.13                             171    0.3810 22.3 189 
 BAR2 EZ I        1423 21.48        15.4 0.20            170           22.3 189 
 BRR  HZ EP       1423  7.04                             153    0.2510 71.3 299 
 BRR  HN ES       1423 23.86                             153    0.4110 71.3 299 
 PAM  EZ EP       1423  8.04                             151    0.1310 78.4  39 
 PAM  EN ES       1423 24.94                             151   -0.5010 78.4  39 
 PAM  EZ I        1423 27.70         4.0 0.46            154           78.4  39 
 RUS  HZ EP       1423  9.26                             144   -0.0510 99.7 176 
 RUS  HN ES       1423 27.80                             144   -0.1310 99.7 176 
 RUS  HZ I        1423 28.91         3.2 0.32            146           99.7 176 
 PTB  HZ EP       1423 12.27                             133   -0.23 9  147 259 
 PTB  HN ES       1423 32.89                             133   -0.73 9  147 259 
 PTB  HZ I        1423 35.53         4.8 0.18            131            147 259 
 SPBC HZ EP       1423 14.18                             130    0.19 9  162 219 
 SPBC HN ES       1423 36.39                             130    0.13 9  162 219 
 SPBC HZ I        1423 41.77         6.3 0.36            129            162 219 
 ZAR  HZ EP   4   1423 19.88                             123    1.88 0  204 292 
 ZAR  HN ES       1423 43.51                             123    0.11 9  204 292 
 ZAR  HZ I        1423 52.17         3.9 0.56            122            204 292 
 NOR  HZ EP       1423 21.34                             119    0.16 8  234 235 
 NOR  HN ES       1423 49.00                             119   -0.06 8  234 235 
 NOR  HZ I        1423 56.03         3.9 0.14            119            234 235 
                                                                                
