 2011 1212 1513 21.9 L   6.759 -73.191143.4  RSN  5 0.3 1.6LRSN                1
 GAP=173        0.52       6.1     6.1  7.0  0.3167E+01  0.3917E+01 -0.5500E+01E
 Epicentro: VILLANUEVA - SANTANDER                                             3
 ACTION:UPD 12-07-13 16:15 OP:ep   STATUS:               ID:20111212151321 L   I
 2011-12-12-1510-00M.COL___185                                                 6
 STAT SP IPHASW D HRMM SECON CODA AMPLIT PERI AZIMU VELO AIN AR TRES W  DIS CAZ7
 BAR2 SZ EP   1   1513 41.13                             172   -0.05 7 18.5 177 
 BAR2 SZ ES   2   1513 55.97                             172   -0.23 5 18.5 177 
 BAR2 SZ I        1513 57.04        10.0 0.20                          18.5 177 
 GIR2 SZ EP       1513 41.30                             166   -0.1310 35.3 359 
 GIR2 SZ ES   2   1513 56.30                             166   -0.35 5 35.3 359 
 BRR  HZ EP   1   1513 43.12                             153    0.41 7 69.3 304 
 BRR  HZ I        1513 43.32        13.7 0.26                          69.3 304 
 BRR  HN ES   2   1513 59.38                             153    0.46 5 69.3 304 
 RUS  HN ES   2   1514  3.61                             144    0.34 5 96.6 173 
 RUS  HZ I        1514  3.65         2.9 0.46                          96.6 173 
 PTB  HZ EP   2   1513 47.81                             132   -0.37 5  142 260 
 PTB  HN ES   2   1514  8.45                             132   -0.21 5  142 260 
                                                                                
