 2013  112 1756 39.0 L   6.675 -73.206143.8  RSN  5 0.3 1.8LRSN                1
 GAP=214        0.83       6.2     6.7  6.7  0.2203E+02  0.8155E+01  0.1289E+02E
 Epicentro: VILLANUEVA - SANTANDER                                             3
 ACTION:UPD 13-02-15 09:13 OP:ep   STATUS:               ID:20130112175639 L   I
 2013-01-12-1748-41M.COL___193                                                 6
 STAT SP IPHASW D HRMM SECON CODA AMPLIT PERI AZIMU VELO AIN AR TRES W  DIS CAZ7
 BAR2 SZ ES       1757 13.19                             176    0.0110 9.51 164 
 BAR2 SZ I        1757 13.94        10.2 0.24            176           9.51 164 
 BRR  HZ EP       1756 59.75                             151   -0.3410 73.6 311 
 BRR  HN ES       1757 16.95                             151    0.4210 73.6 311 
 BRR  HN I        1757 17.80        26.8 0.26            153           73.6 311 
 RUS  HZ EP       1757  1.47                             147   -0.2010 87.6 171 
 RUS  HN ES       1757 19.23                             147   -0.1110 87.6 171 
 RUS  HN I        1757 20.88         7.3 0.28            148           87.6 171 
 PTB  HN ES       1757 25.11                             133   -0.24 9  139 264 
 CHI  HZ EP       1757 15.61                             118    0.64 8  234 194 
                                                                                
