 2010  812 1734  4.2 L   6.765 -73.079149.5  RSN  8 0.2 2.1LRSN                1
 GAP=167        0.66       2.8     6.1  4.4 -0.3738E+01 -0.1704E+01  0.1033E+00E
 Epicentro: LOS SANTOS - SANTANDER                                             3
 ACTION:UP  10-09-07 10:54 OP:vdl  STATUS:               ID:20100812173404 L   I
 2010-08-12-1730-11S.COL___126                                                 6
 STAT SP IPHASW D HRMM SECON CODA AMPLIT PERI AZIMU VELO SNR AR TRES W  DIS CAZ7
 BAR2 SZ EP   1   1734 24.33                             171     0.0 7   22 211 
 BAR2 SZ ES       1734 39.47                             171    -0.510   22 211 
 BAR2 SZ I        1734 42.16        27.1 0.31                            22 211 
 BTL  SZ EP   1   1734 24.46                             169     0.1 7   27 309 
 GIR2 SZ EP   1   1734 24.38                             165    -0.1 7   37 340 
 GIR2 SZ ES   1   1734 40.55                             165     0.2 7   37 340 
 BRR  HZ EP   1   1734 26.18                             150    -0.1 7   80 298 
 BRR  HZ I        1734 26.57        25.0 0.12                            80 298 
 BRR  HE ES       1734 43.67                             150     0.210   80 298 
 RUS  HZ EP   1   1734 28.25                             146     0.2 7   96 180 
 RUS  HN ES       1734 46.76                             146     0.110   96 180 
 RUS  HZ I        1734 48.67        11.8 0.36                            96 180 
 GRA  SZ IP     D 1734 30.09                             137     0.110  128  14 
 GRA  SZ ES   1   1734 50.32                             137     0.3 7  128  14 
 GRA  SZ I        1734 52.22        13.6 0.30                           128  14 
 OCA  SZ EP   1   1734 32.79                             129    -0.5 7  165 351 
 OCA  SZ I        1734 59.99        17.0 0.25                           165 351 
 PRA  HZ EP   1   1734 57.77                             107    -0.2 4  392 211 
 PRA  HN ES       1735 40.03                             107     0.2 6  392 211 
 PRA  HZ I        1735 45.77         7.9 0.67                           392 211 
                                                                                
