 2010 1012 1359 31.1 L   6.785 -73.114143.0  RSN  5 0.3 1.8LRSN                1
 GAP=245        0.58       5.0     7.4  6.3  0.1393E+01 -0.1799E+01  0.1340E+02E
 Epicentro: LOS SANTOS - SANTANDER                                             3
 ACTION:UP  11-02-18 11:09 OP:tino STATUS:               ID:20101012135931 L   I
 2010-10-12-1358-26S.COL___124                                                 6
 STAT SP IPHASW D HRMM SECON CODA AMPLIT PERI AZIMU VELO SNR AR TRES W  DIS CAZ7
 BTL  SZ EP       1359 50.60                             170     0.210   22 311 
 BAR2 SZ EP       1359 50.21                             171    -0.210   23 200 
 BAR2 SZ ES   1   14 0  5.26                             171    -0.2 7   23 200 
 BAR2 SZ I        14 0  9.10        13.5 0.57                            23 200 
 BRR  HZ EP       1359 52.12                             150    -0.110   75 298 
 BRR  HN ES   1   14 0  8.91                             150     0.3 7   75 298 
 BRR  HZ I        14 0 10.77        18.6 0.17                            75 298 
 NOR  SN ES   2   14 0 34.24                             118    -0.6 4  237 235 
 CHI  HZ EP       14 0  8.65                             117     0.1 8  248 196 
 CHI  HN ES   2   14 0 38.31                             117     0.5 4  248 196 
 CHI  HZ I        14 0 41.02         3.6 0.31                           248 196 
                                                                                
