 2013  312 1442 45.1 L   6.725 -73.174147.2  RSN  4 0.2 1.9LRSN                1
 GAP=228        0.55       5.6     5.8  7.3  0.1589E+02 -0.6005E+01 -0.5975E+01E
 Epicentro: VILLANUEVA - SANTANDER                                             3
 ACTION:UPD 13-04-09 14:01 OP:ep   STATUS:               ID:20130312144245 L   I
 2013-03-12-1440-00M.COL___231                                                 6
 STAT SP IPHASW D HRMM SECON CODA AMPLIT PERI AZIMU VELO AIN AR TRES W  DIS CAZ7
 BAR2 SZ EP   1   1443  4.26                             174   -0.48 7 14.7 183 
 BAR2 SZ I        1443 21.23        16.4 0.38            168           14.7 183 
 BRR  HZ EP       1443  6.75                             152    0.2710 72.9 305 
 BRR  HN ES   1   1443 23.12                             152   -0.05 7 72.9 305 
 BRR  HN I        1443 28.26        21.3 0.30            151           72.9 305 
 RUS  HZ EP   1   1443  8.61                             146    0.19 7 92.6 174 
 RUS  HN ES   1   1443 26.67                             146    0.05 7 92.6 174 
 RUS  HN I        1443 28.96        15.6 0.62            149           92.6 174 
 PTB  HZ EP   1   1443 11.54                             133   -0.22 7  143 262 
 PTB  HE ES   1   1443 32.55                             133   -0.02 7  143 262 
 PTB  HZ I        1443 34.75         6.3 0.14            139            143 262 
                                                                                
