 2013  512 1712 24.3 L   6.707 -73.200155.8  RSN  3 0.1 1.4LRSN                1
 GAP=224        0.35       3.7     4.3  4.5  0.8229E+01  0.1333E+01  0.1768E+01E
 Epicentro: VILLANUEVA - SANTANDER                                             3
 ACTION:UPD 13-06-20 09:49 OP:ep   STATUS:               ID:20130512171224 L   I
 2013-05-12-1710-00M.COL___256                                                 6
 STAT SP IPHASW D HRMM SECON CODA AMPLIT PERI AZIMU VELO AIN AR TRES W  DIS CAZ7
 BRR  HZ EP   1   1712 46.51                             154   -0.09 7 71.8 308 
 BRR  HZ I        1712 49.24         5.8 0.52            153           71.8 308 
 BRR  HN ES       1713  4.00                             154    0.0310 71.8 308 
 RUS  HZ EP   2   1712 48.76                             148    0.32 5 91.0 172 
 RUS  HN ES   1   1713  7.18                             148   -0.07 7 91.0 172 
 RUS  HZ I        1713  8.39         2.4 0.30            147           91.0 172 
 PTB  HZ EP   1   1712 51.38                             136   -0.09 7  140 262 
 PTB  HN ES   1   1713 12.70                             136    0.06 7  140 262 
 PTB  HZ I        1713 14.01         3.0 0.32            135            140 262 
                                                                                
