 2010  812 1421  1.4 L   6.766 -72.642133.7  RSN  4 0.3 1.3LRSN                1
 GAP=222        0.65       8.2    36.7 28.0  0.2368E+02 -0.8842E+03 -0.7403E+02E
 Epicentro: CONCEPCION - SANTANDER                                             3
 ACTION:UP  10-09-07 10:54 OP:vdl  STATUS:               ID:20100812142101 L   I
 2010-08-12-1417-39S.COL___126                                                 6
 STAT SP IPHASW D HRMM SECON CODA AMPLIT PERI AZIMU VELO SNR AR TRES W  DIS CAZ7
 BAR2 SZ EP   1   1421 20.52                             153    -0.6 7   63 252 
 BAR2 SZ ES   3   1421 36.58                             153     0.1 2   63 252 
 BAR2 SZ I        1421 38.52         7.5 0.27                            63 252 
 BTL  SZ EP       1421 21.87                             150     0.310   71 284 
 BTL  SZ ES   2   1421 37.18                             150    -0.2 5   71 284 
 RUS  HZ EP   3   1421 24.84                             139     0.3 2  108 207 
 RUS  HN ES   2   1421 42.82                             139     0.2 5  108 207 
 RUS  HZ I        1421 46.00         2.1 0.73                           108 207 
 GUE  SZ EP   1   1421 25.42                             135     0.0 7  122 345 
                                                                                
