 2014  912 1752 15.0 L   6.867 -73.314116.9  RSN 17 0.5 2.3LRSN                1
 GAP= 53        1.75       3.9     4.3  8.3 -0.1097E+01  0.7269E+01  0.2533E+01E
 Epicentro: BETULIA - SANTANDER                                                3
 ACTION:UPD 14-10-03 23:04 OP:nd   STATUS:               ID:20140912175215 L   I
 OLDACT:REG 14-09-12 20:36 OP:stll STATUS:               ID:20140912174820     3
 2014-09-12-1748-20M.COL___290                                                 6
 STAT SP IPHASW D HRMM SECON CODA AMPLIT PERI AZIMU VELO AIN AR TRES W  DIS CAZ7
 BAR2 SZ IP     D 1752 32.11                             163    0.5910 33.7 154 
 BAR2 SZ ES       1752 44.34                             163   -0.0510 33.7 154 
 BRR  HZ EP       1752 32.57                             154    0.6110 51.4 301 
 BRR  HN ES       1752 45.68                             154    0.5310 51.4 301 
 BRR  HZ I        1752 46.98        61.6 0.12            151           51.4 301 
 PAM  SZ EP       1752 35.35                             141    0.4710 85.6  52 
 PAM  SE ES   2   1752 50.59                             141    0.24 5 85.6  52 
 PAM  SZ I        1752 54.33        31.1 0.28            142           85.6  52 
 RUS  HZ EP       1752 36.87                             133   -0.0810  111 167 
 RUS  HZ I        1752 37.89        23.6 0.12            136            111 167 
 RUS  HN ES       1752 54.12                             133    0.0810  111 167 
 PTB  HZ EP       1752 37.42                             128   -0.7910  131 254 
 PTB  HE ES       1752 55.32                             128   -0.9710  131 254 
 PTB  HZ I        1752 59.80        37.5 0.12            127            131 254 
 OCA  HZ EP       1752 40.19                             124   -0.21 9  152 360 
 OCA  HN ES       1753  0.05                             124   -0.13 9  152 360 
 OCA  HZ I        1753  7.80        47.2 0.28            123            152 360 
 SPBC HZ EP       1752 41.06                             122    0.06 9  158 212 
 SPBC HN ES       1753  1.17                             122   -0.09 9  158 212 
 SPBC HZ I        1753  5.75        23.1 0.30            123            158 212 
 TAM  HZ EP       1752 42.95                             119    0.28 9  175 106 
 TAM  HN ES       1753  3.49                             119   -0.74 9  175 106 
 TAM  HZ I        1753  4.07        22.0 0.14            121            175 106 
 ZAR  HZ EP       1752 43.81                             118    0.21 9  184 292 
 ZAR  HE ES       1753  6.49                             118    0.61 9  184 292 
 ZAR  HZ I        1753  9.52        28.5 0.40            117            184 292 
 NOR  HZ EP       1752 48.20                             112    0.08 8  225 230 
 NOR  HE ES       1753 13.52                             112   -0.41 8  225 230 
 NOR  HZ I        1753 22.07        12.1 0.16            113            225 230 
 SML  HZ EP       1752 47.71                             112   -0.91 8  230 339 
 SML  HE ES       1753 14.29                             112   -0.52 8  230 339 
 SML  HZ I        1753 21.97        44.8 0.10            112            230 339 
 CHI  HZ EP       1752 51.82                             110    0.16 8  252 191 
 CHI  HN ES       1753 19.42                             110   -0.82 8  252 191 
 CHI  HZ I        1753 26.17        10.9 0.52            111            252 191 
 HEL  HZ EP       1752 52.72                             109    0.61 8  256 253 
 HEL  HN ES       1753 20.91                             109   -0.13 8  256 253 
 HEL  HZ I        1753 26.15        14.6 0.58            109            256 253 
 GUY2CHZ EP       1752 56.87                             107    0.61 7  291 231 
 GUY2CHN ES       1753 28.38                             107   -0.04 7  291 231 
 GUY2CHZ I        1753 35.83         9.6 0.34                           291 231 
 SOCV BZ EP   9   1752 58.14                             105   -0.19 0  313  60 
 SOCV BE ES       1753 28.50                                   -3.41 7  313  60 
 MON  HZ EP   9   1752 59.25                             104   -1.56 0  335 309 
 MON  HN ES       1753 33.36                                   -1.59 7  335 309 
 MON  HZ I        1753 50.89         3.5 0.62            104            335 309 
 TOL  SZ EP       1753  2.89                             104    1.46 7  336 221 
 TOL  SE ES       1753 37.13                             104   -0.49 7  336 221 
                                                                                
