 2016  812 1719 25.0 L   5.948 -74.131 15.0  RSN  7 0.4 1.6LRSN                1
 GAP= 74        1.32       2.6     2.9  7.0 -0.4618E+00  0.7560E+01 -0.3517E+01E
 Epicentro: LA BELLEZA - SANTANDER                                             3
 ACTION:UPD 16-10-29 15:34 OP:rebc STATUS:               ID:20160812171925 L   I
 OLDACT:REG 16-08-12 20:49 OP:lv   STATUS:               ID:20160812171759     3
 2016-08-12-1717-59S.COL___342                                                 6
 STAT SP IPHASW D HRMM SECON CODA AMPLIT PERI AZIMU VELO AIN AR TRES W  DIS CAZ7
 SPBC HZ EP       1719 30.86                             109   -0.2010 33.4 169 
 SPBC HE ES       1719 35.49                             109   -0.2910 33.4 169 
 SPBC HZ I        1719 36.36        28.3 0.10                          33.4 169 
 PTB  HZ EP       1719 36.88                              98   -0.1710 74.6 331 
 PTB  HN ES       1719 45.90                              98   -0.5510 74.6 331 
 PTB  HZ I        1719 46.12        28.9 0.20                          74.6 331 
 NOR  HZ EP       1719 40.15                              96    0.4310 92.1 243 
 NOR  HN ES       1719 51.33                              96    0.1410 92.1 243 
 NOR  HZ I        1719 52.02        12.4 0.19                          92.1 243 
 RUS  HZ EP       1719 44.13                              95    0.3310  116  93 
 RUS  HE ES       1719 57.84                              95   -0.6210  116  93 
 RUS  HZ I        1720  0.36        19.3 0.22                           116  93 
 BRR  HZ EP       1719 46.85                              94    0.53 9  136  20 
 BRR  HN ES       1720  3.53                              94    0.59 9  136  20 
 BRR  HZ I        1720  5.63        13.7 0.18                           136  20 
 CHI  HZ EP   9   1719 51.77                              56    2.90 0  152 163 
 CHI  HN ES       1720 11.50                                    1.12 9  152 163 
 CHI  HZ I        1720 17.69         3.9 0.39                           152 163 
 HEL  HZ EP       1719 49.79                              56    0.40 9  157 280 
 HEL  HN ES       1720  7.90                              56   -0.51 9  157 280 
 HEL  HZ I        1720  9.26         8.9 0.30                           157 280 
                                                                                
