 2016 1212 1248 35.9 L   6.792 -73.157140.6  RSN  8 0.3 1.9LRSN                1
 GAP=100        0.74       2.9     2.8  4.3  0.8274E+00  0.1300E+01  0.2007E+01E
 Epicentro: LOS SANTOS - SANTANDER                                             3
 ACTION:UPD 17-01-11 20:14 OP:rebc STATUS:               ID:20161212124835 L   I
 OLDACT:UP  16-12-13 00:21 OP:ar   STATUS:               ID:20161212123640     3
 OLDACT:REG 16-12-12 20:33 OP:ar   STATUS:               ID:20161212123640     3
 2016-12-12-1237-00M.COL___364                                                 6
 STAT SP IPHASW D HRMM SECON CODA AMPLIT PERI AZIMU VELO AIN AR TRES W  DIS CAZ7
 BAR2 EZ IP     C 1248 54.87                             171   -0.0610 22.3 187 
 BAR2 EZ ES       1249  9.41                             171   -0.3310 22.3 187 
 BAR2 EZ I        1249 11.85        26.7 0.22            169           22.3 187 
 BRR  HZ EP       1248 56.71                             152    0.2210 70.5 300 
 BRR  HE ES       1249 13.12                             152    0.6010 70.5 300 
 BRR  HZ I        1249 13.99        23.1 0.28            151           70.5 300 
 PAM  EZ EP       1248 57.85                             149    0.1510 78.9  40 
 PAM  EE ES       1249 14.51                             149   -0.1610 78.9  40 
 PAM  EZ I        1249 16.20        14.0 0.40            153           78.9  40 
 RUS  HZ EP       1248 59.20                             143    0.0710 99.8 175 
 RUS  HN ES       1249 17.14                             143   -0.0710 99.8 175 
 RUS  HZ I        1249 19.23        10.4 0.20            144           99.8 175 
 PTB  HZ EP       1249  1.79                             131   -0.57 9  146 259 
 PTB  HN ES       1249 23.05                             131    0.09 9  146 259 
 PTB  HZ I        1249 26.62         9.9 0.20            131            146 259 
 TAM  HZ EP       1249  3.32                             129    0.01 9  156 105 
 ZAR  HZ EP       1249  8.14                             121    0.18 9  203 293 
 ZAR  HE ES       1249 32.49                             121   -0.45 9  203 293 
 ZAR  HZ I        1249 39.54        14.3 0.32            122            203 293 
 CHI  HZ EP       1249 13.31                             116    0.08 8  247 195 
 CHI  HN ES       1249 42.55                             116    0.24 8  247 195 
 CHI  HZ I        1249 46.47         2.4 0.30            117            247 195 
                                                                                
