 2014 1112 1348 11.3 L   6.874 -73.162141.5  RSN  5 0.4 1.3LRSN                1
 GAP=131        1.09       5.9     5.6  8.2 -0.3606E+01  0.7003E+01  0.2684E+01E
 Epicentro: ZAPATOCA - SANTANDER                                               3
 ACTION:UPD 14-12-19 15:42 OP:nd   STATUS:               ID:20141112134811 L   I
 OLDACT:UP  14-11-13 00:57 OP:cam  STATUS:               ID:20141112134745     3
 OLDACT:REG 14-11-13 00:45 OP:cam  STATUS:               ID:20141112134745     3
 2014-11-12-1347-45M.COL___289                                                 6
 STAT SP IPHASW D HRMM SECON CODA AMPLIT PERI AZIMU VELO AIN AR TRES W  DIS CAZ7
 BAR2 SZ ES       1348 44.98                             167   -0.6510 31.3 184 
 BRR  HZ EP       1348 32.09                             154    0.4410 66.0 293 
 BRR  HN ES       1348 48.18                             154    0.6110 66.0 293 
 PAM  SZ EP       1348 32.61                             152   -0.1210 72.5  45 
 PAM  SE ES       1348 49.34                             152   -0.1410 72.5  45 
 PAM  SZ I        1348 50.87         5.7 0.22            154           72.5  45 
 RUS  HZ EP       1348 35.37                             141    0.1510  109 175 
 RUS  HE ES       1348 54.34                             141    0.4310  109 175 
 RUS  HZ I        1348 55.74         1.7 0.16            141            109 175 
 PTB  HZ EP       1348 37.41                             131   -0.47 9  148 256 
 PTB  HN ES       1348 58.32                             131   -0.33 9  148 256 
 PTB  HZ I        1349  2.02         4.4 0.14            131            148 256 
                                                                                
