 2012  912 2344 36.2 L   6.768 -73.135140.1  RSN  8 0.3 2.4LRSN                1
 GAP= 73        0.61       3.6     3.7  4.8  0.1055E+01 -0.3747E+01  0.1965E+01E
 Epicentro: LOS SANTOS - SANTANDER                                             3
 ACTION:UPD 12-10-22 14:18 OP:ep   STATUS:               ID:20120912234436 L   I
 2012-09-12-2340-00M.COL___227                                                 6
 STAT SP IPHASW D HRMM SECON CODA AMPLIT PERI AZIMU VELO AIN AR TRES W  DIS CAZ7
 BAR2 SZ EP       2344 55.07                             171    0.0010 20.2 195 
 BAR2 SZ ES   1   2345  9.70                             171   -0.10 7 20.2 195 
 BAR2 SZ I        2345 11.09        42.4 0.18                          20.2 195 
 GIR2 SZ EP       2344 55.16                             165   -0.1310 34.9 349 
 GIR2 SZ ES   1   2345  9.88                             165   -0.31 7 34.9 349 
 BRR  HZ EP       2344 56.95                             151    0.0710 74.0 300 
 BRR  HN ES   1   2345 13.75                             151    0.72 7 74.0 300 
 BRR  HN I        2345 14.52        78.6 0.20                          74.0 300 
 PAM  SZ EP       2344 57.88                             149   -0.0410 79.4  37 
 PAM  SN ES   1   2345 14.75                             149   -0.12 7 79.4  37 
 PAM  SN I        2345 16.24        46.4 0.46                          79.4  37 
 RUS  HZ EP       2344 59.03                             144   -0.0910 97.0 177 
 RUS  HN ES   1   2345 17.19                             144    0.18 7 97.0 177 
 PTB  HN ES   2   2345 22.59                             131   -0.87 5  148 260 
 PTB  HN I        2345 28.15        25.9 0.50                           148 260 
 TAM  HZ EP       2345  3.40                             130    0.18 9  153 104 
 TAM  HZ I        2345  3.54        27.0 0.36                           153 104 
 ZAR  HN ES   2   2345 33.80                             121    0.05 4  207 293 
                                                                                
