 2017  212 2201 15.4 L   6.799 -73.109147.8  RSN  7 0.3 1.6LRSN                1
 GAP=141        0.61       2.5     3.2  4.8  0.9850E+00  0.4352E+01  0.3974E+01E
 Epicentro: LOS SANTOS - SANTANDER                                             3
 ACTION:UPD 17-05-24 15:35 OP:jn   STATUS:               ID:20170212220115 L   I
 OLDACT:UP  17-02-13 04:01 OP:and  STATUS:               ID:20170212215744     3
 OLDACT:UP  17-02-13 04:00 OP:and  STATUS:               ID:20170212215744     3
 OLDACT:UP  17-02-13 04:00 OP:and  STATUS:               ID:20170212215744     3
 OLDACT:UP  17-02-13 03:59 OP:and  STATUS:               ID:20170212215744     3
 OLDACT:UP  17-02-13 03:59 OP:and  STATUS:               ID:20170212215744     3
 OLDACT:REG 17-02-13 02:50 OP:and  STATUS:               ID:20170212215744     3
 2017-02-12-2158-00M.COL___352                                                 6
 STAT SP IPHASW D HRMM SECON CODA AMPLIT PERI AZIMU VELO AIN AR TRES W  DIS CAZ7
 PAM  EZ EP       22 1 37.97                             152    0.2710 74.9  37 
 BRR  HZ EP       22 1 36.96                             152   -0.0310 74.9 297 
 BRR  HN ES       22 1 54.18                             152    0.3510 74.9 297 
 PAM  EN ES       22 1 54.80                             152   -0.2910 74.9  37 
 PAM  EZ I        22 1 57.14         9.1 0.54            154           74.9  37 
 RUS  HZ EP       22 1 39.51                             144    0.1610  100 178 
 RUS  HN ES       22 1 57.91                             144   -0.1110  100 178 
 RUS  HZ I        22 1 58.68         7.9 0.30            145            100 178 
 PTB  HZ EP       22 1 42.48                             132   -0.43 9  152 259 
 PTB  HN ES   3   22 2  3.06                             132   -1.30 2  152 259 
 PTB  HZ I        22 2  6.36         7.5 0.05            132            152 259 
 ZAR  HZ EP   2   22 1 48.23                             122   -0.16 4  208 292 
 ZAR  HN ES       22 2 14.04                             122   -0.07 8  208 292 
 ZAR  HZ I        22 2 18.34         3.0 0.14            123            208 292 
 NOR  HZ EP   2   22 1 51.78                             119    0.16 4  238 235 
 NOR  HN ES   2   22 2 20.49                             119    0.63 4  238 235 
 NOR  HZ I        22 2 21.88         3.4 0.18            119            238 235 
 CHI  HZ EP       22 1 53.41                             117    0.07 8  250 196 
 CHI  HN ES       22 2 22.91                             117   -0.01 8  250 196 
 CHI  HZ I        22 2 26.83         1.9 0.40            118            250 196 
                                                                                
