 2015  612 2111  3.0 L   6.821 -73.102141.5  RSN 20 0.5 2.7LRSN                1
 GAP=141        1.04       2.3     3.7  4.9 -0.1391E+01  0.7077E+01  0.1464E+01E
 Epicentro: LOS SANTOS - SANTANDER                                             3
 ACTION:UPD 15-09-10 22:11 OP:cam  STATUS:               ID:20150612211103 L   I
 OLDACT:REG 15-06-13 03:03 OP:ar   STATUS:               ID:20150612210749     3
 2015-06-12-2107-49M.COL___315                                                 6
 STAT SP IPHASW D HRMM SECON CODA AMPLIT PERI AZIMU VELO AIN AR TRES W  DIS CAZ7
 BAR2 EZ EP       2111 22.18                             169   -0.0510 26.8 199 
 BAR2 EZ ES       2111 37.31                             169    0.1110 26.8 199 
 BAR2 EZ I        2111 40.74        46.4 0.16            169           26.8 199 
 PAM  SZ EP       2111 25.11                             152    0.6010 72.5  38 
 PAM  SN ES       2111 41.73                             152    0.4710 72.5  38 
 PAM  SZ I        2111 43.89       102.2 0.46            153           72.5  38 
 BRR  HZ EP       2111 23.95                             151    0.0410 74.5 295 
 BRR  HN ES       2111 40.70                             151    0.5010 74.5 295 
 BRR  HZ I        2111 43.67        79.6 0.18            147           74.5 295 
 RUS  HZ EP       2111 26.30                             142   -0.2210  103 179 
 RUS  HN ES       2111 44.66                             142   -0.1910  103 179 
 RUS  HZ I        2111 46.37        62.1 0.28            146            103 179 
 OCA  HZ EP       2111 31.35                             129    0.49 9  159 351 
 OCA  HN ES       2111 51.67                             129   -0.89 9  159 351 
 OCA  HZ I        2112 14.34        59.2 0.10            129            159 351 
 SPBC HZ EP       2111 31.26                             127   -0.42 9  168 220 
 SPBC HN ES       2111 53.38                             127   -0.64 9  168 220 
 SPBC HZ I        2111 56.62        89.5 0.24            129            168 220 
 ZAR  HZ EP       2111 35.81                             121    0.23 8  208 291 
 ZAR  HN ES       2112  1.27                             121    0.30 8  208 291 
 ZAR  HZ I        2112  5.91        84.4 0.44            121            208 291 
 NOR  HZ EP       2111 38.80                             117   -0.29 8  240 235 
 NOR  HN ES       2112  6.96                             117   -0.26 8  240 235 
 NOR  HZ I        2112  9.93        49.4 0.42            118            240 235 
 SML  HZ EP       2111 38.71                             117   -0.71 8  244 334 
 SML  HE ES       2112  6.94                             117   -0.86 8  244 334 
 SML  HZ I        2112 13.65        50.2 0.10            117            244 334 
 CHI  HZ EP       2111 40.78                             116   -0.11 8  252 196 
 CHI  HN ES       2112  9.74                             116   -0.67 8  252 196 
 CHI  HZ I        2112 14.92        15.0 0.40            118            252 196 
 ROSC BN ES   4   2112  9.83                             115   -1.53 0  257 212 
 ROSC BZ I        2112 15.64        38.6 0.35            117            257 212 
 HEL  HZ EP       2111 44.28                             113    0.66 7  277 256 
 HEL  HN ES       2112 15.78                             113    0.50 7  277 256 
 HEL  HZ I        2112 20.22        24.0 0.48            114            277 256 
 URE  HZ EP       2111 44.21                             112   -0.10 7  287 291 
 URE  HN ES       2112 16.15                             112   -0.36 7  287 291 
 URE  HZ I        2112 23.36        26.5 0.20            113            287 291 
 GUY2CHZ EP       2111 46.81                             111   -0.24 7  306 235 
 GUY2CHN ES       2112 21.64                             111    0.26 7  306 235 
 RREF HZ EP       2111 50.22                             110    0.63 7  327 230 
 RREF HN ES       2112 26.07                             110    0.17 7  327 230 
 RREF HZ I        2112 33.73         9.6 0.28            111            327 230 
 TOL  SZ EP       2111 52.49                             108    0.78 6  349 225 
 TOL  SN ES       2112 29.84                             108    0.17 6  349 225 
 TOL  SZ I        2112 38.52        23.2 0.38            110            349 225 
 MON  HZ EP   4   2111 50.72                             108   -1.43 0  356 308 
 MON  HN ES   4   2112 27.96                             108   -2.50 0  356 308 
 MON  HZ I        2112 41.34         7.5 0.36            108            356 308 
 ANIL HN ES       2112 32.61                             107    0.16 6  362 225 
 ANIL HZ I        2112 39.46        48.3 0.32            109            362 225 
 PRA  HZ EP       2111 57.27                             106    0.34 6  396 210 
 PRA  HE ES       2112 38.17                             106   -0.80 6  396 210 
 PRA  HZ I        2112 44.58        27.2 0.28            107            396 210 
 ORTC HZ EP       2111 57.82                             105    0.45 6  400 217 
 ORTC HN ES       2112 40.23                             105    0.48 6  400 217 
 ORTC HZ I        2112 45.36        14.7 0.40            107            400 217 
                                                                                
