 2013  512 2350 28.7 L   6.789 -73.138136.8  RSN 15 0.4 2.6LRSN                1
 GAP= 72        0.83       2.9     2.8  5.8 -0.7966E+00  0.1296E+01  0.2155E+01E
 Epicentro: LOS SANTOS - SANTANDER                                             3
 ACTION:UPD 13-06-20 09:49 OP:ep   STATUS:               ID:20130512235028 L   I
 2013-05-12-2350-00M.COL___256                                                 6
 STAT SP IPHASW D HRMM SECON CODA AMPLIT PERI AZIMU VELO AIN AR TRES W  DIS CAZ7
 BAR2 SZ EP   1   2350 47.45                             170    0.17 7 22.3 193 
 BAR2 SZ ES   1   2351  2.08                             170    0.34 7 22.3 193 
 BAR2 SZ I        2351  3.38        66.5 0.24            172           22.3 193 
 GIR2 SZ EP   1   2350 47.63                             166    0.23 7 32.6 349 
 GIR2 SZ I        2351  5.46        32.4 0.30            164           32.6 349 
 BRR  HZ EP     C 2350 49.46                             151    0.4510 72.5 299 
 BRR  HN ES   1   2351  4.99                             151    0.17 7 72.5 299 
 BRR  HN I        2351 10.30       182.0 0.16            150           72.5 299 
 PAM  SZ EP       2350 50.39                             149    0.3510 77.8  38 
 RUS  HZ EP       2350 51.52                             142   -0.0110 99.3 176 
 RUS  HN ES   2   2351  8.94                             142   -0.37 5 99.3 176 
 RUS  HN I        2351 10.27        51.1 0.40            145           99.3 176 
 PTB  HZ EP   1   2350 54.58                             130   -0.47 7  148 259 
 PTB  HN ES       2351 15.63                             130    0.06 9  148 259 
 PTB  HN I        2351 18.14        84.6 0.22            130            148 259 
 TAM  HZ EP   1   2350 55.91                             129    0.29 7  154 105 
 TAM  HN ES   1   2351 16.26                             129   -0.32 7  154 105 
 TAM  HN I        2351 17.77        80.4 0.36            130            154 105 
 OCA  HZ EP       2350 56.11                             127   -0.39 9  162 353 
 OCA  HN ES   1   2351 17.15                             127   -1.00 7  162 353 
 ZAR  HZ EP   1   2351  0.49                             120   -0.26 6  205 292 
 ZAR  HN ES   1   2351 25.96                             120    0.24 6  205 292 
 ZAR  HN I        2351 30.98        98.8 0.20            121            205 292 
 NOR  HZ EP   1   2351  4.17                             117    0.20 6  235 235 
 NOR  HE ES       2351 31.48                             117    0.04 8  235 235 
 NOR  HE I        2351 36.51        51.0 0.42            118            235 235 
 CHI  HZ EP   1   2351  5.96                             115    0.10 6  248 195 
 CHI  HN ES       2351 34.19                             115   -0.61 8  248 195 
 CHI  HN I        2351 41.22        22.0 0.24            117            248 195 
 ROSC BZ EP   4   2351  7.82                             115    1.50 0  252 211 
 ROSC BN ES   4   2351 36.85                             115    1.21 0  252 211 
 HEL  HZ EP   1   2351  9.64                             113    1.07 6  273 256 
 HEL  HN ES       2351 39.11                             113   -0.53 8  273 256 
 HEL  HN I        2351 42.01        12.5 0.18            114            273 256 
 COD  HN ES   4   2351 52.29                             107   -2.23 0  350 354 
 COD  HN I        2352  2.76         7.9 0.34            108            350 354 
 PRA  HZ EP   1   2351 22.10                             105    0.21 4  391 210 
 PRA  HN ES   2   2352  2.98                             105   -0.37 3  391 210 
 PRA  HN I        2352  8.06        10.4 0.32            106            391 210 
 SJC  HZ EP   4   2351 21.97                             104   -2.23 0  411 327 
 SJC  HN ES   4   2352  2.56                             104   -4.90 0  411 327 
 SJC  HN I        2352  6.90        21.1 0.40            105            411 327 
                                                                                
