 2012  712 2142 16.4 L   6.786 -73.154145.1  RSN  6 0.4 1.6LRSN                1
 GAP=136        0.89       6.0     5.3  8.8  0.2807E+01  0.8893E+01  0.2010E+01E
 Epicentro: LOS SANTOS - SANTANDER                                             3
 ACTION:UPD 12-08-14 11:44 OP:ep   STATUS:               ID:20120712214216 L   I
 2012-07-12-2140-00M.COL___197                                                 6
 STAT SP IPHASW D HRMM SECON CODA AMPLIT PERI AZIMU VELO AIN AR TRES W  DIS CAZ7
 BAR2 SZ EP   1   2142 36.11                             171     0.1 7   22 188 
 BAR2 SZ ES   1   2142 51.25                             171     0.1 7   22 188 
 BAR2 SZ I        2142 52.83        17.8 0.20            169             22 188 
 BRR  HZ EP   2   2142 38.05                             152     0.5 5   71 300 
 BRR  HN ES   1   2142 54.67                             152     0.7 7   71 300 
 PAM  SZ EP   1   2142 38.98                             150     0.3 7   79  39 
 PAM  SN ES   1   2142 55.35                             150    -0.7 7   79  39 
 RUS  HZ EP   1   2142 40.08                             144     0.1 7   99 175 
 RUS  HN ES   1   2142 58.47                             144     0.1 7   99 175 
 RUS  HZ I        2143  0.05         8.8 0.34            144             99 175 
 PTB  HZ EP   1   2142 42.91                             132    -0.3 7  147 259 
 PTB  HN ES   1   2143  3.55                             132    -0.6 7  147 259 
 PTB  HZ I        2143  6.22         2.5 0.14            133            147 259 
 ZAR  HE ES   1   2143 14.05                             122     0.0 6  204 293 
