 2011  112 2321 12.4 L   6.792 -73.137138.2  RSN 11 0.4 2.3LRSN                1
 GAP=137        0.69       3.6     6.5  7.8 -0.6578E+01  0.1895E+02 -0.6073E+01E
 Epicentro: LOS SANTOS - SANTANDER                                             3
 ACTION:UP  11-02-08 08:40 OP:pat  STATUS:               ID:20110112232112 L   I
 2011-01-12-2319-17S.COL___136                                                 6
 STAT SP IPHASW D HRMM SECON CODA AMPLIT PERI AZIMU VELO SNR AR TRES W  DIS CAZ7
 BTL  SZ EP       2321 30.55                             171    -0.610   20 314 
 BAR2 SZ EP   2   2321 31.21                             170     0.1 5   23 193 
 BAR2 SZ ES   2   2321 45.96                             170     0.2 5   23 193 
 BAR2 SZ I        2321 47.46        71.4 0.13                            23 193 
 GIR2 SZ EP   1   2321 31.52                             166     0.3 7   32 349 
 RUS  HZ EP   1   2321 35.35                             142     0.0 7  100 177 
 RUS  HN ES   1   2321 53.49                             142     0.2 7  100 177 
 RUS  HZ I        2321 55.11        27.5 0.27                           100 177 
 GRA  SZ EP   1   2321 37.39                             135     0.3 7  126  17 
 GRA  SZ ES   2   2321 56.68                             135     0.4 5  126  17 
 GRA  SZ I        2321 57.85        39.5 0.22                           126  17 
 OCA  SZ EP   1   2321 40.43                             128     0.2 7  161 353 
 OCA  SZ ES   2   2322  1.36                             128    -0.6 5  161 353 
 OCA  SZ I        2322  5.58        32.3 0.33                           161 353 
 YOP  SZ EP   2   2321 41.70                             125    -0.1 4  178 153 
 YOP  SZ I        2322  6.54        21.2 0.31                           178 153 
 NOR  SZ EP   2   2321 47.81                             117     0.0 4  235 235 
 NOR  SN ES   2   2322 14.80                             117    -0.6 4  235 235 
 CHI  HZ EP   2   2321 49.51                             115    -0.2 4  248 195 
 CHI  HZ I        2321 51.49         8.5 0.21                           248 195 
 HEL  HZ EP   2   2321 52.93                             113     0.6 4  273 256 
 HEL  HE ES   2   2322 24.12                             113     0.6 4  273 256 
 HEL  HZ I        2322 28.45        10.5 0.23                           273 256 
 DBB  SZ EP   2   2322  0.06                             108     0.3 3  341 274 
                                                                                
