 2013  512 2133 36.5 L   6.741 -73.142149.4  RSN  6 0.4 1.7LRSN                1
 GAP=159        0.79       5.4     5.3  9.1 -0.1242E+02  0.1582E+01  0.2297E+02E
 Epicentro: JORDAN - SANTANDER                                                 3
 ACTION:UPD 13-06-20 09:49 OP:ep   STATUS:               ID:20130512213336 L   I
 2013-05-12-2130-00M.COL___256                                                 6
 STAT SP IPHASW D HRMM SECON CODA AMPLIT PERI AZIMU VELO AIN AR TRES W  DIS CAZ7
 BAR2 SZ EP   1   2133 56.47                             173   -0.01 7 17.1 195 
 BAR2 SZ I        2134 13.13         4.8 0.28            168           17.1 195 
 BRR  HZ EP   1   2133 58.56                             152    0.29 7 74.9 303 
 BRR  HN ES   1   2134 15.99                             152    0.76 7 74.9 303 
 BRR  HN I        2134 17.97        10.0 0.22            155           74.9 303 
 PAM  SZ EP       2133 59.59                             150    0.1810 82.3  36 
 PAM  SN ES       2134 16.89                             150   -0.3810 82.3  36 
 PAM  SN I        2134 18.15         9.6 0.44            153           82.3  36 
 PTB  HZ EP       2134  3.65                             133   -0.07 9  147 261 
 PTB  HN ES   1   2134 24.23                             133   -0.71 7  147 261 
 PTB  HN I        2134 29.80         8.2 0.32            133            147 261 
 NOR  HZ EP   1   2134 11.92                             119   -0.19 6  231 236 
 NOR  HN ES   2   2134 39.87                             119    0.01 4  231 236 
 NOR  HN I        2134 47.38         6.7 0.16            119            231 236 
 CHI  HN ES       2134 42.96                             118    0.15 8  242 196 
 CHI  HN I        2134 47.12         3.2 0.44            117            242 196 
 SML  HN ES   4   2134 41.51                             117   -1.74 0  250 336 
                                                                                
