 2014 1012 2339 23.6 L   6.812 -73.157151.0  RSN 15 0.5 2.3LRSN                1
 GAP=135        1.07       3.2     4.6  6.0  0.3177E+00  0.7126E+01  0.9341E+00E
 Epicentro: LOS SANTOS - SANTANDER                                             3
 ACTION:UPD 14-11-29 23:49 OP:nd   STATUS:               ID:20141012233923 L   I
 OLDACT:UP  14-10-13 08:31 OP:cam  STATUS:               ID:20141012233812     3
 OLDACT:UP  14-10-13 08:30 OP:cam  STATUS:               ID:20141012233812     3
 OLDACT:REG 14-10-13 05:19 OP:cam  STATUS:               ID:20141012233812     3
 2014-10-12-2338-12M.COL___284                                                 6
 STAT SP IPHASW D HRMM SECON CODA AMPLIT PERI AZIMU VELO AIN AR TRES W  DIS CAZ7
 BRR  HZ EP       2339 45.80                             154    0.5810 69.5 298 
 BRR  HN ES       2340  2.53                             154    0.4510 69.5 298 
 BRR  HZ I        2340  5.95        18.3 0.28            141           69.5 298 
 PAM  SZ IP     C 2339 46.56                             152    0.2010 77.1  41 
 PAM  SN ES       2340  3.97                             152   -0.1410 77.1  41 
 PAM  SZ I        2340  5.96        29.6 0.20            157           77.1  41 
 RUS  HZ EP     D 2339 47.70                             144   -0.2710  102 175 
 RUS  HE ES       2340  6.80                             144   -0.1710  102 175 
 RUS  HZ I        2340  7.63        10.8 0.42            139            102 175 
 PTB  HZ EP       2339 50.43                             133   -0.48 9  147 258 
 PTB  HN ES       2340 11.46                             133   -0.76 9  147 258 
 PTB  HZ I        2340 19.38        25.3 0.36            123            147 258 
 SPBC HZ EP       2339 52.78                             130    0.25 9  163 218 
 SPBC HE ES       2340 15.69                             130    0.59 9  163 218 
 SPBC HZ I        2340 20.55        33.9 0.16            122            163 218 
 ZAR  HZ EP       2339 56.86                             124    0.64 9  202 292 
 ZAR  HE ES       2340 21.68                             124    0.01 9  202 292 
 ZAR  HZ I        2340 32.55        19.9 0.34            116            202 292 
 SML  HZ EP       2339 59.96                             119   -0.38 8  242 335 
 SML  HN ES       2340 28.72                             119   -0.27 8  242 335 
 SML  HZ I        2340 32.33        30.8 0.10            114            242 335 
 CHI  HZ EP   1   2340  1.81                             118    0.11 6  250 195 
 CHI  HN ES       2340 30.77                             118   -0.65 8  250 195 
 CHI  HZ I        2340 39.89         7.2 0.62            113            250 195 
 URE  HZ EP       2340  3.92                             115   -0.83 7  282 292 
 URE  HN ES   4   2340 34.66                             115   -2.18 0  282 292 
 URE  HZ I        2340 46.14        15.0 0.14            109            282 292 
 GUY2CHZ EP   4   2340  8.36                             113    0.93 0  301 234 
 GUY2CHN ES   4   2340 42.60                             113    0.98 0  301 234 
 GUY2CHZ I        2340 50.57        16.2 0.74                           301 234 
 RREF HZ EP   4   2340  7.88                             112   -2.09 0  322 229 
 RREF HN ES   4   2340 45.04                             112   -1.10 0  322 229 
 RREF HZ I        2340 51.38         9.4 0.50            107            322 229 
 CBOC HZ EP       2340 11.15                             111    0.50 7  333 252 
 CBOC HZ I        2341  1.99         3.9 0.48            106            333 252 
 TOL  SZ EP   4   2340 13.71                             110    1.63 0  344 224 
 TOL  SN ES   4   2340 51.36                             110    1.46 0  344 224 
 TOL  SZ I        2341  0.91        19.6 0.70            106            344 224 
 MON  HZ EP   4   2340 10.96                             110   -1.64 0  352 308 
 PRA  HZ EP   4   2340 16.11                             107   -1.26 0  393 209 
 ORTC HZ EP       2340 18.10                             107    0.35 6  396 216 
 PAL  HZ EP       2340 19.32                             107    0.42 6  405 239 
                                                                                
