 2012 1012 2122 34.5 L   6.763 -73.095147.0  RSN  5 0.1 1.6LRSN                1
 GAP=145        0.37       2.2     3.7  4.1 -0.2077E+01 -0.8654E+00  0.2878E+01E
 Epicentro: LOS SANTOS - SANTANDER                                             3
 ACTION:UPD 12-11-22 17:03 OP:ep   STATUS:               ID:20121012212234 L   I
 2012-10-12-2120-00M.COL___231                                                 6
 STAT SP IPHASW D HRMM SECON CODA AMPLIT PERI AZIMU VELO AIN AR TRES W  DIS CAZ7
 BAR2 SZ EP   1   2122 54.06                             171   -0.22 7 21.2 207 
 BAR2 SZ I        2123 11.77         8.6 0.14                          21.2 207 
 PAM  SZ EP       2122 57.01                             151    0.1310 77.2  34 
 PAM  SN ES   1   2123 14.29                             151   -0.02 7 77.2  34 
 PAM  SN I        2123 14.76         7.6 0.40                          77.2  34 
 BRR  HZ EP   1   2122 56.01                             150   -0.22 7 78.1 299 
 BRR  HN ES   1   2123 13.28                             150    0.14 7 78.1 299 
 BRR  HN I        2123 16.54        13.4 0.18                          78.1 299 
 RUS  HZ EP   1   2122 58.20                             145    0.09 7 96.3 179 
 RUS  HN ES   1   2123 16.39                             145   -0.11 7 96.3 179 
 RUS  HN I        2123 18.53         2.6 0.14                          96.3 179 
 CHI  HZ EP   1   2123 12.07                             118    0.02 6  246 197 
 CHI  HN ES   1   2123 41.48                             118    0.17 6  246 197 
 CHI  HN I        2123 45.32         4.7 0.26                           246 197 
                                                                                
