 2011  712 2318 27.8 L   6.810 -73.188152.5  RSN  6 0.4 1.6LRSN                1
 GAP=150        0.53       4.8     6.5  5.9 -0.3230E+00  0.3481E+00 -0.2359E+01E
 Epicentro: ZAPATOCA - SANTANDER                                               3
 ACTION:UPD 12-07-25 14:00 OP:epov STATUS:               ID:20110712231827 L   I
 2011-07-12-2317-18S.COL___143                                                 6
 STAT SP IPHASW D HRMM SECON CODA AMPLIT PERI AZIMU VELO AIN AR TRES W  DIS CAZ7
 BAR2 SZ EP   2   2318 48.48                             171    0.25 5 24.1 178 
 BAR2 SZ ES   1   2319  3.87                             171   -0.31 7 24.1 178 
 BAR2 SZ I        2319  5.57         7.5 0.07                          24.1 178 
 BRR  HZ EP   2   2318 49.67                             155    0.26 5 66.5 300 
 BRR  HZ I        2318 58.75        19.3 0.12                          66.5 300 
 BRR  HE ES   1   2319  6.53                             155    0.25 7 66.5 300 
 RUS  HZ EP   2   2318 52.46                             145    0.16 5  102 173 
 RUS  HE ES   2   2319 11.79                             145    0.36 5  102 173 
 RUS  HZ I        2319 13.47         2.4 0.24                           102 173 
 BRI  SZ EP   2   2318 51.73                             143   -0.63 5  109  23 
 OCA  SZ EP   2   2318 56.43                             131   -0.04 5  159 355 
 OCA  SZ I        2319 25.73         7.2 0.43                           159 355 
 NOR  SZ EP   2   2319  3.85                             120    0.28 4  232 234 
 NOR  SE ES   2   2319 30.86                             120   -0.63 4  232 234 
                                                                                
