 2016  512 2105 28.6 L   6.763 -73.152133.4  RSN  5 0.4 1.9LRSN                1
 GAP=137        0.95       4.7     4.3  7.4 -0.6889E+00  0.1290E+02 -0.6009E+01E
 Epicentro: LOS SANTOS - SANTANDER                                             3
 ACTION:UPD 16-08-18 17:45 OP:cam  STATUS:               ID:20160512210528 L   I
 OLDACT:DUP 16-05-13 03:51 OP:ar   STATUS:               ID:20160512205746d    3
 OLDACT:REG 16-05-13 02:45 OP:ar   STATUS:               ID:20160512205745     3
 2016-05-12-2057-45M.COL___307                                                 6
 STAT SP IPHASW D HRMM SECON CODA AMPLIT PERI AZIMU VELO AIN AR TRES W  DIS CAZ7
 BAR2 EZ IP     C 21 5 46.64                             171   -0.0510 19.2 190 
 BAR2 EZ ES       21 6  1.41                             171    0.6410 19.2 190 
 BAR2 EZ I        21 6  2.41        14.6 0.16            171           19.2 190 
 PAM  EZ EP     C 21 5 49.53                             147   -0.2510 81.0  38 
 PAM  EN ES       21 6  6.07                             147   -0.2010 81.0  38 
 PAM  EZ I        21 6  6.97        14.6 0.34            150           81.0  38 
 RUS  HZ EP       21 5 51.07                             142    0.1910 96.5 175 
 RUS  HE ES       21 6  7.92                             142   -0.3110 96.5 175 
 RUS  HZ I        21 6 10.01        10.1 0.30            146           96.5 175 
 PTB  HZ EP       21 5 54.31                             129   -0.18 9  146 260 
 PTB  HE ES       21 6 14.31                             129   -0.34 9  146 260 
 PTB  HZ I        21 6 16.57        12.6 0.14            129            146 260 
 ZAR  HZ EP       21 6  1.18                             119    0.77 9  205 293 
 ZAR  HN ES       21 6 25.01                             119   -0.18 9  205 293 
 ZAR  HZ I        21 6 33.33        14.2 0.50            120            205 293 
                                                                                
