 2017  212 2135 59.9 L   6.838 -73.129147.8  RSN 19 0.5 2.6LRSN                1
 GAP= 74        0.97       3.1     3.0  4.5  0.1060E+00  0.3465E+01  0.3187E+01E
 Epicentro: LOS SANTOS - SANTANDER                                             3
 ACTION:UPD 17-05-24 15:35 OP:jn   STATUS:               ID:20170212213559 L   I
 OLDACT:UP  17-02-13 03:49 OP:and  STATUS:               ID:20170212211817     3
 OLDACT:UP  17-02-13 03:49 OP:and  STATUS:               ID:20170212211817     3
 OLDACT:UP  17-02-13 03:47 OP:and  STATUS:               ID:20170212211817     3
 OLDACT:UP  17-02-13 03:47 OP:and  STATUS:               ID:20170212211817     3
 OLDACT:UP  17-02-13 03:45 OP:and  STATUS:               ID:20170212211817     3
 OLDACT:UP  17-02-13 03:45 OP:and  STATUS:               ID:20170212211817     3
 OLDACT:UP  17-02-13 03:45 OP:and  STATUS:               ID:20170212211817     3
 OLDACT:UP  17-02-13 03:43 OP:and  STATUS:               ID:20170212211817     3
 OLDACT:UP  17-02-13 03:43 OP:and  STATUS:               ID:20170212211817     3
 OLDACT:UP  17-02-13 03:43 OP:and  STATUS:               ID:20170212211817     3
 OLDACT:UP  17-02-13 03:42 OP:and  STATUS:               ID:20170212211817     3
 OLDACT:UP  17-02-13 03:40 OP:and  STATUS:               ID:20170212211817     3
 OLDACT:REG 17-02-13 02:48 OP:and  STATUS:               ID:20170212211817     3
 2017-02-12-2128-00M.COL___352                                                 6
 STAT SP IPHASW D HRMM SECON CODA AMPLIT PERI AZIMU VELO AIN AR TRES W  DIS CAZ7
 BAR2 EZ IP     D 2136 19.68                             169   -0.2210 27.9 192 
 BAR2 EZ ES       2136 34.80                             169   -0.6810 27.9 192 
 BAR2 EZ I        2136 36.77        80.7 0.16            163           27.9 192 
 BRR  HZ IP     D 2136 21.38                             153    0.0910 71.0 295 
 BRR  HN ES       2136 38.18                             153    0.2410 71.0 295 
 BRR  HZ I        2136 38.81        90.2 0.10            150           71.0 295 
 PAM  EZ IP     C 2136 22.49                             153    0.3810 72.9  41 
 PAM  EN ES       2136 39.34                             153   -0.0610 72.9  41 
 PAM  EZ I        2136 40.00        68.2 0.26            158           72.9  41 
 RUS  HZ IP     D 2136 23.76                             143   -0.4210  105 177 
 RUS  HE ES       2136 43.06                             143   -0.0410  105 177 
 RUS  HZ I        2136 44.66        67.7 0.32            141            105 177 
 PTB  HZ EP   9 D 2136 26.09                             132   -1.22 0  150 257 
 PTB  HE ES       2136 47.99                             131    0.55 9  150 257 
 PTB  HZ I        2136 53.04        53.1 0.14            129            150 257 
 TAM  HZ EP     C 2136 28.16                             131    0.45 9  154 107 
 TAM  HN ES       2136 49.86                             131    0.48 9  154 107 
 TAM  HZ I        2136 50.39        35.6 0.24            133            154 107 
 ZAR  HZ EP       2136 32.08                             123   -0.45 9  204 291 
 ZAR  HN ES       2136 58.32                             123    0.37 9  204 291 
 ZAR  HZ I        2137  3.82        74.0 0.43            122            204 291 
 NOR  HZ EP       2136 35.67                             118   -0.54 8  239 234 
 NOR  HN ES       2137  4.26                             118   -0.24 8  239 234 
 NOR  HZ I        2137  8.55        38.1 0.32            117            239 234 
 CHI  HZ EP       2136 38.18                             117   -0.06 8  253 195 
 CHI  HN ES       2137  8.71                             117    0.59 8  253 195 
 CHI  HZ I        2137 10.06        14.8 0.28            116            253 195 
 ROSC BZ EP   3   2136 40.16                             117    1.49 2  257 211 
 ROSC BN ES   4   2137 11.25                             117    2.37 0  257 211 
 ROSC BZ I        2137 15.86        24.4 0.21            115            257 211 
 URE  HZ EP   3   2136 40.13                             114   -0.99 2  284 291 
 URE  HN ES   4   2137 11.61                             114   -1.64 0  284 291 
 URE  HZ I        2137 19.39        33.4 0.20            113            284 291 
 VIL  EZ EP       2136 43.57                             112   -0.39 7  308 192 
 VIL  EN ES       2137 18.12                             112   -0.17 7  308 192 
 VIL  EZ I        2137 27.02        20.8 0.36            111            308 192 
 PTGC HZ EP   4   2136 43.25                             112   -1.00 0  312 159 
 PTGC HN ES   4   2137 16.72                             112   -2.10 0  312 159 
 PTGC HZ I        2137 22.78        20.2 0.36            111            312 159 
 ELA  HZ EP   4   2136 49.46                             110    2.11 0  333 229 
 ELA  HN ES   4   2137 28.81                             110    4.48 0  333 229 
 ELA  HZ I        2137 35.48        17.8 0.40            109            333 229 
 CBOC HZ EP       2136 48.06                             110    0.77 7  337 252 
 CBOC HN ES       2137 24.86                             110    0.64 7  337 252 
 CBOC HZ I        2137 40.40         9.8 0.62            109            337 252 
 DBB  EZ EP       2136 48.07                             110    0.40 7  341 274 
 DBB  EN ES   4   2137 22.81                             110   -2.10 0  341 274 
 DBB  EZ I        2137 27.79        11.6 0.18            109            341 274 
 PRA  HZ EP       2136 53.97                             107   -0.09 6  397 210 
 PRA  HN ES       2137 36.09                             107   -0.19 6  397 210 
 PRA  HZ I        2137 43.39        36.3 0.95            106            397 210 
 ORTC HZ EP       2136 54.80                             106    0.35 6  400 216 
 ORTC HN ES   3   2137 38.47                             106    1.49 1  400 216 
 ORTC HZ I        2137 45.48        15.2 0.42            106            400 216 
 SJC  HZ EP       2136 53.94                             106   -1.33 6  407 326 
 SJC  HN ES   4   2137 34.63                             106   -3.80 0  407 326 
 SJC  HZ I        2137 38.01         7.3 0.28            106            407 326 
                                                                                
