 2017  112 2256 41.1 L   7.332 -73.107142.0  RSN  4 0.1 1.5LRSN                1
 GAP=174        0.40       7.5     2.2  4.2 -0.4660E+01  0.3141E+01 -0.3765E+01E
 Epicentro: RIONEGRO - SANTANDER                                               3
 ACTION:UPD 17-05-22 15:58 OP:jn   STATUS:               ID:20170112225641 L   I
 OLDACT:UP  17-01-13 08:30 OP:dnl  STATUS:               ID:20170112223318     3
 OLDACT:REG 17-01-13 07:57 OP:dnl  STATUS:               ID:20170112223318     3
 2017-01-12-2248-00M.COL___332                                                 6
 STAT SP IPHASW D HRMM SECON CODA AMPLIT PERI AZIMU VELO AIN AR TRES W  DIS CAZ7
 PAM  EZ IP     D 2257  1.52                             162    0.2010 45.0  89 
 PAM  EE ES       2257 16.95                             162   -0.1210 45.0  89 
 PAM  EZ I        2257 18.30         6.5 0.28            152           45.0  89 
 BRR  HZ EP       2257  1.74                             152   -0.1310 71.3 250 
 BRR  HZ I        2257 15.35         6.2 0.42            143           71.3 250 
 BRR  HE ES       2257 18.10                             152    0.0510 71.3 250 
 PTB  HZ EP   2   2257  9.96                             126   -0.22 4  173 240 
 PTB  HN ES   2   2257 33.02                             126    0.17 4  173 240 
 PTB  HZ I        2257 35.74         3.4 0.16            116            173 240 
 ZAR  HZ EP   4   2257 13.94                             123    1.65 0  194 275 
 ZAR  HN ES       2257 36.61                             123    0.00 9  194 275 
 ZAR  HZ I        2257 38.87         4.1 0.26            115            194 275 
                                                                                
