 2017  812 2336 13.2 L   6.861 -73.139147.5  RSN 24 0.7 2.5LRSN                1
 GAP= 65        1.40       3.4     3.6  6.0 -0.6715E+00  0.6188E+01  0.2097E+01E
 Epicentro: LOS SANTOS - SANTANDER                                             3
 ACTION:UPD 17-09-04 20:19 OP:rebc STATUS:               ID:20170812233613 L   I
 OLDACT:UP  17-08-13 07:42 OP:osc  STATUS:               ID:20170812232742     3
 OLDACT:REG 17-08-13 04:28 OP:osc  STATUS:               ID:20170812232742     3
 2017-08-12-2328-00M.COL___419                                                 6
 STAT SP IPHASW D HRMM SECON CODA AMPLIT PERI AZIMU VELO AIN AR TRES W  DIS CAZ7
 BAR2 EZ IP     D 2336 33.01                             168   -0.1710 30.2 189 
 BAR2 EZ ES       2336 47.93                             168   -0.8410 30.2 189 
 BAR2 EZ I        2336 49.28        95.6 0.30            167           30.2 189 
 BRR  HZ IP     C 2336 34.84                             153    0.4510 68.9 293 
 BRR  HE ES       2336 51.94                             153    1.0110 68.9 293 
 BRR  HZ I        2336 56.11        54.0 0.14            153           68.9 293 
 PAM  EZ EP       2336 35.91                             153    0.6510 71.8  43 
 PAM  EN ES       2336 52.99                             153    0.5110 71.8  43 
 PAM  EZ I        2336 55.23       118.8 0.52            157           71.8  43 
 RUS  HZ EP       2336 36.99                             142   -0.6110  107 177 
 RUS  HN ES       2336 55.96                             142   -0.6810  107 177 
 RUS  HZ I        2336 56.80        36.3 0.24            143            107 177 
 TAM  HZ IP     D 2336 41.44                             131    0.33 9  156 107 
 TAM  HN ES       2337  2.76                             131   -0.13 9  156 107 
 TAM  HZ I        2337  3.45        12.7 0.34            134            156 107 
 SPBC HZ EP       2336 42.12                             128   -0.24 9  169 218 
 SPBC HE ES       2337  4.83                             128   -0.29 9  169 218 
 SPBC HZ I        2337  8.85        36.6 0.08            129            169 218 
 YPLC HZ EP     D 2336 43.46                             126   -0.20 9  182 153 
 YPLC HE ES       2337  7.82                             126    0.39 9  182 153 
 YPLC HZ I        2337 10.23        40.9 0.28            128            182 153 
 ZAR  HZ EP       2336 45.65                             123    0.09 9  202 290 
 ZAR  HE ES       2337 10.66                             123   -0.15 9  202 290 
 ZAR  HZ I        2337 17.84        24.4 0.16            124            202 290 
 TABC EZ EP       2336 50.65                             119    0.95 8  236 210 
 TABC EZ ES       2337 17.94                             119   -0.24 8  236 210 
 TABC EZ I        2337 23.67        29.1 0.34            120            236 210 
 NOR  HZ EP       2336 49.19                             118   -0.32 8  239 233 
 NOR  HE ES       2337 17.27                             118   -0.57 8  239 233 
 NOR  HZ I        2337 19.54        17.4 0.22            119            239 233 
 CHI  HZ EP       2336 51.23                             117   -0.48 8  255 195 
 CHI  HE ES   4   2337 20.61                             117   -1.15 0  255 195 
 CHI  HZ I        2337 24.04        24.4 0.46            118            255 195 
 ROSC BZ EP       2336 52.91                             116    0.83 8  259 210 
 ROSC BE ES       2337 21.90                             116   -0.51 8  259 210 
 ROSC BZ I        2337 26.85        39.8 0.45            117            259 210 
 HEL  HZ EP   4   2336 55.84                             115    2.08 0  275 254 
 HEL  HE ES       2337 25.68                             115    0.28 8  275 254 
 HEL  HZ I        2337 32.02        12.6 0.36            116            275 254 
 URE  HE ES   2   2337 24.43                             114   -1.65 4  282 291 
 GUY2CHZ EP       2336 58.39                             112    1.00 7  306 234 
 GUY2CHE ES   4   2337 34.25                             112    2.39 0  306 234 
 GUY2CHZ I        2337 39.16        14.8 0.26                           306 234 
 VIL  EZ EP       2336 55.95                             112   -1.50 7  310 191 
 VIL  EE ES       2337 33.43                             112    1.45 7  310 191 
 VIL  EZ I        2337 36.50        32.4 0.38            113            310 191 
 PTGC HZ EP   4   2336 56.15                             111   -1.66 0  315 159 
 PTGC HE ES   4   2337 29.49                             111   -3.12 0  315 159 
 PTGC HZ I        2337 34.47        28.0 0.30            113            315 159 
 LL6C HZ EP       2336 57.64                             111   -0.55 7  318 357 
 LL6C HE ES       2337 32.85                             111   -0.44 7  318 357 
 ELA  HZ EP   2   2337  2.35                             110    1.67 3  334 229 
 ELA  HE ES       2337 37.92                             110    0.19 7  334 229 
 ELA  HZ I        2337 45.76         9.6 0.22            111            334 229 
 CBOC HZ EP       2337  0.98                             110    0.49 7  336 251 
 CBOC HE ES       2337 37.86                             110    0.46 7  336 251 
 CBOC HZ I        2337 43.19         4.7 0.40            111            336 251 
 DBB  EZ EP       2337  1.27                             110    0.51 7  340 273 
 DBB  EN ES   2   2337 36.08                             110   -1.80 3  340 273 
 DBB  EZ I        2337 37.90         8.0 0.14            111            340 273 
 ANIL HZ EP   4   2337  5.14                             108    1.46 0  363 224 
 ANIL HE ES   4   2337 45.42                             108    2.36 0  363 224 
 PRA  HZ EP       2337  6.87                             106   -0.63 6  398 209 
 PRA  HE ES   2   2337 48.19                             106   -1.67 3  398 209 
 PRA  HZ I        2337 51.90        13.4 0.36            108            398 209 
 ORTC HZ EP       2337  7.47                             106   -0.39 6  401 216 
 ORTC HE ES       2337 50.96                             106    0.46 6  401 216 
 ORTC HZ I        2337 54.46        11.2 0.17            107            401 216 
 SJC  HZ EP       2337  7.24                             106   -0.94 6  404 326 
 SJC  HE ES   4   2337 48.50                             106   -2.58 0  404 326 
 SJC  HZ I        2337 53.08         5.9 0.32            107            404 326 
                                                                                
