 2013 1112 2356 28.4 L   6.779 -73.145142.4  RSN 10 0.4 2.1LRSN                1
 GAP=138        1.01       3.3     4.1  6.0 -0.1642E+01  0.6776E+01 -0.1206E+01E
 Epicentro: LOS SANTOS - SANTANDER                                             3
 ACTION:UPD 14-01-09 16:27 OP:ep   STATUS:               ID:20131112235628 L   I
 OLDACT:REG 13-11-12 22:07 OP:jn   STATUS:               ID:20131112235000     3
 2013-11-12-2350-00M.COL___276                                                 6
 STAT SP IPHASW D HRMM SECON CODA AMPLIT PERI AZIMU VELO AIN AR TRES W  DIS CAZ7
 BAR2 SZ EP       2356 47.70                             171    0.1110 21.1 191 
 BAR2 SZ ES       2357  2.19                             171   -0.3610 21.1 191 
 BAR2 SZ I        2357  4.90        44.0 0.20            172           21.1 191 
 BRR  HZ EP       2356 49.58                             152    0.3210 72.4 300 
 BRR  HN ES       2357  6.03                             152    0.5010 72.4 300 
 BRR  HZ I        2357  7.66        20.2 0.14            151           72.4 300 
 PAM  SZ EP       2356 50.78                             150    0.4110 79.1  38 
 PAM  SN ES       2357  7.51                             150    0.0110 79.1  38 
 PAM  SZ I        2357 12.16        16.8 0.66            152           79.1  38 
 RUS  HZ EP       2356 51.64                             144   -0.0210 98.3 176 
 RUS  HN ES       2357  9.67                             144   -0.1210 98.3 176 
 RUS  HZ I        2357 11.04        12.0 0.24            147           98.3 176 
 PTB  HZ EP       2356 54.33                             131   -0.74 9  147 260 
 PTB  HN ES       2357 15.30                             131   -0.57 9  147 260 
 PTB  HZ I        2357 17.67        19.1 0.14            133            147 260 
 SPBC HZ EP       2356 56.58                             129    0.10 9  161 220 
 SPBC HN ES       2357 18.47                             129    0.09 9  161 220 
 SPBC HZ I        2357 22.08        16.6 0.20            131            161 220 
 ZAR  HZ EP   4   2356 59.85                             121   -0.89 0  205 293 
 ZAR  HN ES       2357 26.68                             121    0.73 9  205 293 
 ZAR  HZ I        2357 32.46        16.2 0.34            123            205 293 
 NOR  HZ EP       2357  4.20                             118    0.39 8  233 235 
 NOR  HE ES       2357 31.46                             118    0.04 8  233 235 
 NOR  HZ I        2357 35.61        12.0 0.50            120            233 235 
 SML  HZ EP       2357  4.75                             116   -0.33 8  246 335 
 SML  HE ES       2357 32.95                             116   -0.74 8  246 335 
 GUY2CHZ EP   4   2357 12.65                             112    0.93 0  300 235 
 GUY2CHZ I        2357 54.28         8.6 0.42                           300 235 
                                                                                
