 2012  212 2115 57.1 L   6.725 -73.189154.9  RSN  5 0.3 1.7LRSN                1
 GAP=134        0.55       3.8     4.6  5.9  0.3016E+01 -0.3253E+01  0.1001E+01E
 ACTION:UP  12-03-07 16:29 OP:epov STATUS:               ID:20120212211557 L   I
 2012-02-12-2110-00M.COL___188                                                 6
 STAT SP IPHASW D HRMM SECON CODA AMPLIT PERI AZIMU VELO AIN AR TRES W  DIS CAZ7
 BRR  HZ EP       2116 19.49                             154    0.2110 71.6 306 
 BRR  HZ I        2116 19.75        14.6 0.10                          71.6 306 
 BRR  HN ES   1   2116 36.69                             154    0.12 7 71.6 306 
 PAM  SZ EP   1   2116 20.63                             149   -0.24 7 86.9  38 
 RUS  HZ EP   1   2116 20.82                             148   -0.43 7 92.7 173 
 RUS  HN ES   1   2116 40.23                             148    0.16 7 92.7 173 
 RUS  HZ I        2116 42.11         6.5 0.35                          92.7 173 
 PTB  HZ EP       2116 24.44                             135    0.13 9  142 262 
 PTB  HE ES   1   2116 45.13                             135   -0.39 7  142 262 
 CHI  HZ EP   1   2116 34.62                             120    0.27 6  239 195 
 CHI  HN ES   2   2117  3.40                             120    0.01 4  239 195 
 CHI  HZ I        2117  8.41         3.1 0.41                           239 195 
                                                                                
