 2012  712 2126 38.3 L   6.502 -73.520111.9  RSN  7 0.4 1.9LRSN                1
 GAP= 91        0.94       4.6     4.7  9.1 -0.5371E+00  0.1992E+02  0.1575E+01E
 Epicentro: SIMACOTA - SANTANDER                                               3
 ACTION:UPD 12-08-14 11:44 OP:ep   STATUS:               ID:20120712212638 L   I
 2012-07-12-2120-00M.COL___197                                                 6
 STAT SP IPHASW D HRMM SECON CODA AMPLIT PERI AZIMU VELO AIN AR TRES W  DIS CAZ7
 BAR2 SZ EP   1   2126 54.82                             160     0.4 7   39  75 
 BAR2 SZ ES   1   2127  7.01                             160     0.0 7   39  75 
 BRR  HZ EP   1   2126 55.55                             146    -0.3 7   70 342 
 BRR  HN ES   1   2127  9.56                             146     0.0 7   70 342 
 BRR  HZ I        2127 10.83        31.1 0.17            142             70 342 
 RUS  HZ EP   1   2126 57.77                             141     0.3 7   83 144 
 RUS  HN ES   1   2127 12.66                             141     0.2 7   83 144 
 RUS  HZ I        2127 14.81        16.2 0.44            137             83 144 
 PTB  HZ EP   1   2126 57.65                             134    -0.9 7  104 272 
 PTB  HZ I        2127 17.31        15.4 0.18            125            104 272 
 PAM  SZ EP   1   2127  1.41                             127    -0.2 7  130  44 
 PAM  SN ES   1   2127 19.35                             127    -0.4 7  130  44 
 NOR  SZ EP   1   2127  6.90                             117     0.5 7  182 235 
 NOR  SE ES   1   2127 27.77                             117    -0.6 7  182 235 
 ZAR  HZ EP   1   2127  6.90                             117     0.3 7  184 307 
 ZAR  HE ES   1   2127 29.36                             117     0.7 7  184 307 
