 2011  812 2327 22.4 L   6.751 -73.078151.2  RSN  5 0.2 1.9LRSN                1
 GAP=241        0.37       3.8     4.3  4.5  0.1789E+01  0.2137E+01  0.2850E+01E
 Epicentro: LOS SANTOS - SANTANDER                                             3
 ACTION:UPD 12-07-13 15:51 OP:ep   STATUS:               ID:20110812232723dL   I
 2011-08-12-2325-02S.COL___149                                                 6
 STAT SP IPHASW D HRMM SECON CODA AMPLIT PERI AZIMU VELO AIN AR TRES W  DIS CAZ7
 BAR2 SZ IP       2327 42.63                             172    0.0010 21.0 213 
 BAR2 SZ I        2327 42.90        12.7 0.20                          21.0 213 
 BAR2 SZ ES   1   2327 58.50                             172    0.08 7 21.0 213 
 BRR  HZ EP   1   2327 44.53                             151   -0.12 7 80.3 299 
 BRR  HZ I        2327 46.14        25.9 0.12                          80.3 299 
 BRR  HE ES   1   2328  2.07                             151    0.05 7 80.3 299 
 RUS  HZ EP   2   2327 46.48                             146    0.19 5 94.9 180 
 RUS  HZ I        2327 47.41         6.3 0.42                          94.9 180 
 RUS  HN ES   2   2328  4.73                             146   -0.20 5 94.9 180 
 NOR  SN ES   2   2328 26.79                             119   -0.35 4  238 237 
 RREF HN ES   2   2328 45.92                             112    0.52 3  324 231 
 RREF HZ I        2328 52.28         5.1 0.33                           324 231 
                                                                                
