 2010  912 2016 34.2 L   6.786 -73.098148.1  RSN 10 0.4 2.5LRSN                1
 GAP=164        0.72       3.8     6.8  6.6 -0.7281E+01  0.3684E+01  0.5378E+00E
 Epicentro: LOS SANTOS - SANTANDER                                             3
 ACTION:UP  11-02-18 11:02 OP:tino STATUS:               ID:20100912201634 L   I
 2010-09-12-2013-04S.COL___120                                                 6
 STAT SP IPHASW D HRMM SECON CODA AMPLIT PERI AZIMU VELO SNR AR TRES W  DIS CAZ7
 BAR2 SZ EP   1   2016 54.02                             171    -0.1 7   23 204 
 BAR2 SZ ES   2   2017  9.06                             171    -0.6 5   23 204 
 BAR2 SZ I        2017 10.89        69.3 0.23                            23 204 
 BTL  SZ EP   1   2016 54.37                             170     0.3 7   24 308 
 GIR2 SZ EP   1   2016 54.19                             166     0.0 7   34 342 
 GIR2 SZ ES   2   2017  9.34                             166    -0.5 5   34 342 
 BRR  HZ IP       2016 55.93                             151     0.110   77 298 
 BRR  HZ I        2016 56.20       110.7 0.09                            77 298 
 BRR  HE ES   2   2017 13.37                             151     0.6 5   77 298 
 RUS  HZ EP   1   2016 57.87                             145    -0.1 7   99 179 
 RUS  HN ES   2   2017 17.05                             145     0.4 5   99 179 
 RUS  HZ I        2017 17.69        20.4 0.22                            99 179 
 GUE  SZ EP   1   2016 59.06                             140    -0.1 7  117   9 
 GRA  SZ IP       2016 59.85                             137     0.210  126  15 
 GRA  SZ ES   2   2017 20.23                             137     0.7 5  126  15 
 GRA  SZ I        2017 21.79        51.3 0.24                           126  15 
 OCA  SZ EP   1   2017  2.20                             130    -0.7 7  163 351 
 OCA  SZ ES   2   2017 24.61                             130    -0.7 5  163 351 
 OCA  SZ I        2017 30.94        34.4 0.55                           163 351 
 CHI  HZ EP   1   2017 11.90                             118    -0.1 6  249 196 
 CHI  HE ES   2   2017 41.11                             118    -0.4 4  249 196 
 CHI  HZ I        2017 49.30        15.6 0.52                           249 196 
 HEL  HZ EP   1   2017 15.42                             115     0.4 6  277 256 
 HEL  HN ES   2   2017 46.66                             115    -0.2 4  277 256 
 HEL  HZ I        2017 52.72        22.0 0.37                           277 256 
                                                                                
