 2011  812 2247 26.2 L   6.836 -73.022154.0  RSN  8 0.4 2.0LRSN                1
 GAP=191        0.54       2.8     6.6  5.7 -0.4505E+01  0.1235E+01 -0.1052E+01E
 Epicentro: CEPITA - SANTANDER                                                 3
 ACTION:UPD 12-07-13 15:51 OP:ep   STATUS:               ID:20110812224726 L   I
 2011-08-12-2244-53S.COL___150                                                 6
 STAT SP IPHASW D HRMM SECON CODA AMPLIT PERI AZIMU VELO AIN AR TRES W  DIS CAZ7
 BAR2 SZ EP   1   2247 47.36                             167    0.3012 32.3 213 
 BAR2 SZ ES   2   2248  2.78                             167   -0.52 8 32.3 213 
 BAR2 SZ I        2248  5.01        14.2 0.36                          32.3 213 
 BRR  HZ EP   1   2247 49.34                             150    0.4512 81.9 291 
 BRR  HN ES   1   2248  6.86                             150    0.3012 81.9 291 
 BRR  HZ I        2248 11.59        23.0 0.15                          81.9 291 
 RUS  HZ EP   2   2247 51.15                             144    0.06 8  105 184 
 RUS  HZ I        2247 51.81         4.7 0.17                           105 184 
 RUS  HN ES   2   2248 10.04                             144   -0.43 8  105 184 
 OCA  SZ EP   2   2247 55.19                             132    0.15 7  159 348 
 OCA  SZ ES   2   2248 17.21                             132   -0.30 7  159 348 
 OCA  SZ I        2248 22.82        10.8 0.20                           159 348 
 NOR  SZ EP   2   2248  3.64                             119   -0.25 6  248 236 
 NOR  SN ES   2   2248 33.13                             119   -0.13 6  248 236 
 RREF HZ EP   2   2248 14.55                             111    0.33 5  335 230 
 RREF HN ES   2   2248 51.09                             111   -0.56 5  335 230 
 RREF HZ I        2248 59.58         4.3 0.31                           335 230 
 COD  HN ES       2248 51.92                             110   -0.5310  346 352 
 COD  HZ I        2248 56.13        18.6 0.74                           346 352 
 PRA  HZ EP   2   2248 21.23                             107   -0.03 4  402 211 
 PRA  HN ES   2   2249  3.85                             107   -0.32 4  402 211 
                                                                                
