 2010 1212 2305 37.8 L   6.126 -73.729106.2  RSN  4 0.2 1.6LRSN                1
 GAP=166        0.45       5.0     5.4  9.9 -0.1103E+02  0.4196E+02 -0.2690E+01E
 Epicentro: BOLIVAR - SANTANDER                                                3
 ACTION:UP  11-01-14 15:24 OP:pat  STATUS:               ID:20101212230537 L   I
 2010-12-12-2304-31S.COL___137                                                 6
 STAT SP IPHASW D HRMM SECON CODA AMPLIT PERI AZIMU VELO SNR AR TRES W  DIS CAZ7
 RUS  HZ EP   1   23 5 55.96                             142     0.1 7   76 110 
 RUS  HN ES   1   23 6  9.94                             142    -0.1 7   76 110 
 RUS  HZ I        23 6 11.16         5.2 0.40                            76 110 
 BAR2 SZ EP   1   23 5 55.76                             140     0.0 7   79  50 
 BAR2 SZ ES   1   23 6  9.92                             140     0.1 7   79  50 
 BAR2 SZ I        23 6 11.03        24.1 0.29                            79  50 
 NOR  SZ EP   1   23 6  0.88                             122    -0.3 7  141 244 
 RREF HZ EP   1   23 6 11.41                             110     0.3 6  225 233 
 RREF HE ES   2   23 6 37.37                             110     0.2 4  225 233 
 RREF HZ I        23 6 42.35         3.2 0.39                           225 233 
                                                                                
