 2013  712 2012 21.1 L   6.770 -73.124151.1  RSN 11 0.3 1.9LRSN                1
 GAP=141        0.73       2.7     3.6  4.3 -0.8009E+00  0.4455E+01  0.1826E+01E
 Epicentro: LOS SANTOS - SANTANDER                                             3
 ACTION:UPD 13-08-12 10:37 OP:ep   STATUS:               ID:20130712201221 L   I
 OLDACT:REG 13-07-12 21:18 OP:jn   STATUS:               ID:20130712200959     3
 2013-07-12-2009-59M.COL___267                                                 6
 STAT SP IPHASW D HRMM SECON CODA AMPLIT PERI AZIMU VELO AIN AR TRES W  DIS CAZ7
 BAR2 SZ EP       2012 41.36                             172    0.0110 20.6 198 
 BAR2 SZ ES       2012 57.51                             172    0.3910 20.6 198 
 BAR2 SZ I        2012 59.18        16.5 0.26            169           20.6 198 
 GIR2 SZ EP       2012 41.61                             166    0.0810 35.0 347 
 GIR2 SZ ES       2012 57.52                             166    0.0710 35.0 347 
 BRR  HZ EP       2012 43.23                             152    0.1710 74.9 300 
 BRR  HN ES   1   2013  0.44                             152    0.27 7 74.9 300 
 BRR  HZ I        2013  4.54        18.7 0.24            150           74.9 300 
 PAM  SZ EP   1   2012 44.24                             151    0.26 7 78.5  37 
 PAM  SN ES   1   2013  1.37                             151   -0.43 7 78.5  37 
 PAM  SZ I        2013  3.67        13.2 0.48            156           78.5  37 
 RUS  HZ EP       2012 45.22                             146    0.0610 97.1 177 
 RUS  HN ES       2013  3.45                             146   -0.4610 97.1 177 
 RUS  HZ I        2013  5.33         5.4 0.36            147           97.1 177 
 PTB  HZ EP       2012 48.45                             133   -0.24 9  150 260 
 PTB  HN ES   1   2013  9.66                             133   -0.53 7  150 260 
 PTB  HZ I        2013 12.41         9.2 0.12            132            150 260 
 SPBC HZ EP       2012 50.24                             130    0.30 9  162 220 
 SPBC HN ES       2013 12.26                             130   -0.15 9  162 220 
 ZAR  HE ES   1   2013 19.68                             123   -0.46 6  208 293 
 ZAR  HZ I        2013 26.14        11.5 0.51            123            208 293 
 NOR  HZ EP       2012 57.42                             120    0.25 8  235 235 
 NOR  HE ES   1   2013 25.94                             120    0.65 6  235 235 
 NOR  HZ I        2013 32.62         7.8 0.54            120            235 235 
 CHI  HZ EP   1   2012 58.12                             118   -0.72 6  246 196 
 CHI  HN ES   1   2013 28.44                             118    0.17 6  246 196 
 CHI  HZ I        2013 35.12         4.1 0.38            120            246 196 
 SML  HN ES   1   2013 27.45                             118   -0.18 6  248 335 
                                                                                
