 2013  612 2152 55.2 L   6.709 -73.207144.3  RSN  4 0.4 1.4LRSN                1
 GAP=220        1.08       8.3     7.9  8.7  0.3223E+02  0.9303E+01  0.3863E+01E
 Epicentro: VILLANUEVA - SANTANDER                                             3
 ACTION:UPD 14-01-08 09:54 OP:ep   STATUS:               ID:20130612215255 L   I
 OLDACT:REG 13-06-12 22:06 OP:nd   STATUS:               ID:20130612214959     3
 2013-06-12-2149-59M.COL___261                                                 6
 STAT SP IPHASW D HRMM SECON CODA AMPLIT PERI AZIMU VELO AIN AR TRES W  DIS CAZ7
 BAR2 SZ EP       2153 14.16                             175   -0.2910 13.2 168 
 BAR2 SZ ES       2153 28.81                             175   -0.6810 13.2 168 
 BAR2 SZ I        2153 31.01         5.8 0.20            171           13.2 168 
 BRR  HZ EP       2153 16.52                             152    0.3810 71.1 308 
 BRR  HN ES       2153 32.96                             152    0.4510 71.1 308 
 BRR  HZ I        2153 37.31         8.9 0.38            150           71.1 308 
 RUS  HZ EP       2153 18.03                             146   -0.0810 91.3 171 
 RUS  HN ES       2153 36.61                             146    0.5910 91.3 171 
 RUS  HZ I        2153 37.99         3.7 0.36            148           91.3 171 
 PTB  HZ EP       2153 21.08                             133   -0.18 9  139 262 
 PTB  HN ES       2153 41.39                             133   -0.23 9  139 262 
 PTB  HZ I        2153 48.03         3.0 0.18            132            139 262 
                                                                                
