 2013  212 2109 49.4 L   6.846 -73.016146.0  RSN  6 0.4 1.8LRSN                1
 GAP=151        0.94       5.5     7.6  7.4  0.6361E+01  0.8443E+01  0.7021E+01E
 Epicentro: CEPITA - SANTANDER                                                 3
 ACTION:UPD 13-03-12 09:32 OP:ep   STATUS:               ID:20130212210949 L   I
 2013-02-12-2110-00M.COL___240                                                 6
 STAT SP IPHASW D HRMM SECON CODA AMPLIT PERI AZIMU VELO AIN AR TRES W  DIS CAZ7
 BAR2 SZ ES   1   2110 24.42                             166   -0.37 7 33.5 213 
 BAR2 SZ I        2110 25.73        18.4 0.24            159           33.5 213 
 PAM  SZ EP   1   2110 11.04                             155    0.13 7 64.9  33 
 PAM  SN ES   1   2110 27.27                             155   -0.44 7 64.9  33 
 PAM  SN I        2110 31.03        14.2 0.33            150           64.9  33 
 BRR  HZ EP       2110 11.63                             149    0.4410 82.1 291 
 BRR  HE ES       2110 28.50                             149    0.2910 82.1 291 
 BRR  HE I        2110 29.04        25.8 0.31            136           82.1 291 
 RUS  HZ EP       2110 13.80                             142    0.2910  106 184 
 RUS  HE ES       2110 32.40                             142    0.0610  106 184 
 RUS  HE I        2110 34.44         8.3 0.23            135            106 184 
 PTB  HZ EP       2110 16.94                             129   -0.80 9  163 258 
 PTB  HZ I        2110 40.78         3.4 0.13            119            163 258 
 CHI  HZ EP   1   2110 27.98                             116   -0.07 6  258 198 
                                                                                
