 2013  912 2234  8.6 L   6.757 -73.174142.2  RSN  7 0.3 1.7LRSN                1
 GAP=231        0.64       5.6     7.2  5.7  0.2779E+02  0.1811E+02  0.1089E+02E
 Epicentro: VILLANUEVA - SANTANDER                                             3
 ACTION:UPD 13-10-22 09:22 OP:ep   STATUS:               ID:20130912223408 L   I
 OLDACT:UP  13-09-13 01:28 OP:mh   STATUS:               ID:20130912222959     3
 OLDACT:UP  13-09-13 01:28 OP:mh   STATUS:               ID:20130912222959     3
 OLDACT:UP  13-09-13 01:28 OP:mh   STATUS:               ID:20130912222959     3
 OLDACT:REG 13-09-12 21:19 OP:mh   STATUS:               ID:20130912222959     3
 2013-09-12-2229-59M.COL___269                                                 6
 STAT SP IPHASW D HRMM SECON CODA AMPLIT PERI AZIMU VELO AIN AR TRES W  DIS CAZ7
 BAR2 SZ ES   1   2234 42.51                             172   -0.09 8 18.2 183 
 BAR2 SZ I        2234 45.30        14.1 0.30            173           18.2 183 
 BRR  HZ EP   1   2234 29.47                             152    0.13 8 70.9 303 
 BRR  HN ES   1   2234 46.07                             152    0.55 8 70.9 303 
 BRR  HZ I        2234 59.80        18.0 0.40            152           70.9 303 
 RUS  HZ EP   1   2234 31.40                             144   -0.28 8 96.1 174 
 RUS  HN ES   1   2234 49.48                             144   -0.19 8 96.1 174 
 RUS  HZ I        2234 51.35         8.8 0.32            150           96.1 174 
 PTB  HZ EP       2234 34.54                             132   -0.3710  144 260 
 PTB  HN ES   2   2234 55.09                             132   -0.35 5  144 260 
 PTB  HZ I        2234 56.88         4.4 0.30            135            144 260 
 ZAR  HZ EP   1   2234 40.80                             122    0.10 7  203 294 
 ZAR  HN ES   1   2235  5.50                             122   -0.24 7  203 294 
 ZAR  HZ I        2235 10.57         4.8 0.48            126            203 294 
 CHI  HZ EP   1   2234 45.96                             117    0.45 6  243 195 
 CHI  HN ES   2   2235 14.98                             117    0.68 4  243 195 
 CHI  HZ I        2235 21.02         2.7 0.62            122            243 195 
 GUY2CHZ EP   1   2234 51.89                             112    0.45 6  296 235 
                                                                                
