 2017  212 2020 48.4 L   6.823 -73.188146.0  RSN  4 0.3 1.2LRSN                1
 GAP=130        0.52       3.1     3.1  6.0 -0.2834E+01  0.2668E+01  0.4452E+00E
 Epicentro: ZAPATOCA - SANTANDER                                               3
 ACTION:UPD 17-05-24 15:35 OP:jn   STATUS:               ID:20170212202048 L   I
 OLDACT:UP  17-02-13 03:18 OP:and  STATUS:               ID:20170212201747     3
 OLDACT:REG 17-02-13 02:33 OP:and  STATUS:               ID:20170212201747     3
 2017-02-12-2018-00M.COL___352                                                 6
 STAT SP IPHASW D HRMM SECON CODA AMPLIT PERI AZIMU VELO AIN AR TRES W  DIS CAZ7
 BRR  HZ EP   2   2021  9.79                             154    0.51 5 65.9 299 
 BRR  HE ES   3   2021 26.83                             154    1.26 2 65.9 299 
 PAM  EZ EP     C 2021 10.72                             150    0.0110 78.6  43 
 PAM  EN ES       2021 28.01                             150   -0.1010 78.6  43 
 PAM  EZ I        2021 29.86         5.4 0.50            154           78.6  43 
 RUS  HZ EP       2021 12.38                             143   -0.0110  104 174 
 RUS  HN ES       2021 31.17                             143    0.0710  104 174 
 RUS  HZ I        2021 31.97         1.8 0.20            147            104 174 
 PTB  HZ EP   2   2021 15.18                             133    0.16 5  144 257 
 PTB  HN ES       2021 35.53                             133   -0.26 9  144 257 
 PTB  HZ I        2021 41.14         1.4 0.36            133            144 257 
                                                                                
