 2010  212 2255 12.0 L   6.373 -73.636106.8  RSN  6 0.4 1.8LRSN                1
 GAP=127        0.81       5.5     8.1 13.2 -0.7010E+01  0.6085E+02  0.2519E+02E
 Epicentro: SANTA HELENA DEL OPON - SANTANDER                                  3
 ACTION:UP  10-08-24 09:48 OP:vdl  STATUS:               ID:20100212225512 L   I
 2010-02-12-2252-55S.COL___094                                                 6
 STAT SP IPHASW D HRMM SECON CODA AMPLIT PERI AZIMU VELO SNR AR TRES W  DIS CAZ7
 BAR2 SZ EP   1   2255 28.07                             150    -0.4 9   56  64 
 BAR2 SZ ES   1   2255 41.13                             150    -0.1 9   56  64 
 GIR2 SZ EP   1   2255 31.77                             136     0.8 9   92  32 
 CHI  HZ IP       2255 41.24                             114    -0.310  193 183 
 CHI  HE ES   1   2256  4.99                             114     0.4 7  193 183 
 CHI  HZ I        2256  8.25         4.2 0.32                           193 183 
 HEL  HZ EP   2   2255 42.95                             111    -0.5 5  210 265 
 HEL  HN ES   2   2256  7.98                             111     0.0 5  210 265 
 TOL  SZ EP   2   2255 50.52                             105     0.0 4  272 223 
 PRA  HN ES   2   2256 31.71                             102     0.6 4  325 205 
 PRA  HZ I        2256 40.88         3.9 0.51                           325 205 
                                                                                
