 2016 1012 2346 40.9 L   6.772 -73.121147.4  RSN  5 0.3 1.5LRSN                1
 GAP=141        0.82       4.2     3.8  7.2  0.1040E+01  0.4858E+01  0.2851E+01E
 Epicentro: LOS SANTOS - SANTANDER                                             3
 ACTION:UPD 16-11-09 19:19 OP:rebc STATUS:               ID:20161012234640 L   I
 OLDACT:UP  16-10-13 08:28 OP:dani STATUS:               ID:20161012233745d    3
 OLDACT:DUP 16-10-13 08:24 OP:dani STATUS:               ID:20161012233745d    3
 2016-10-12-2338-00M.COL___369                                                 6
 STAT SP IPHASW D HRMM SECON CODA AMPLIT PERI AZIMU VELO AIN AR TRES W  DIS CAZ7
 BRR  HZ EP       2347  2.53                             151    0.1110 75.1 300 
 BRR  HN ES       2347 19.54                             151    0.3210 75.1 300 
 BRR  HZ I        2347 24.59         8.6 0.15            153           75.1 300 
 PAM  EZ EP     D 2347  3.68                             151    0.3710 78.2  37 
 PAM  EN ES       2347 20.36                             151   -0.4410 78.2  37 
 PAM  EZ I        2347 22.79         6.2 0.26            154           78.2  37 
 RUS  HZ EP       2347  4.75                             145    0.2010 97.3 178 
 RUS  HN ES       2347 23.00                             145   -0.0210 97.3 178 
 RUS  HZ I        2347 23.96         3.3 0.26            149           97.3 178 
 PTB  HZ EP       2347  7.56                             132   -0.60 9  150 260 
 PTB  HN ES       2347 29.38                             132   -0.07 9  150 260 
 PTB  HZ I        2347 31.60         4.8 0.18            135            150 260 
 ZAR  HE ES       2347 39.55                             122    0.06 8  208 293 
                                                                                
