 2016 1212 2139 18.2 L   6.791 -73.133144.0  RSN 10 0.5 2.1LRSN                1
 GAP=139        1.08       3.9     4.4  6.0  0.3690E-01  0.8158E+01  0.6658E+01E
 Epicentro: LOS SANTOS - SANTANDER                                             3
 ACTION:UPD 17-01-11 20:14 OP:rebc STATUS:               ID:20161212213918 L   I
 OLDACT:UP  16-12-13 04:27 OP:dnl  STATUS:               ID:20161212213750     3
 OLDACT:REG 16-12-13 03:52 OP:dnl  STATUS:               ID:20161212213750     3
 2016-12-12-2138-00M.COL___390                                                 6
 STAT SP IPHASW D HRMM SECON CODA AMPLIT PERI AZIMU VELO AIN AR TRES W  DIS CAZ7
 BAR2 EZ EP       2139 37.37                             171   -0.2610 22.6 194 
 BAR2 EZ ES       2139 52.35                             171   -0.4210 22.6 194 
 BAR2 EZ I        2139 53.51        29.4 0.38            168           22.6 194 
 BRR  HZ EP       2139 39.35                             152    0.0710 72.9 299 
 BRR  HN ES       2139 56.27                             152    0.5710 72.9 299 
 BRR  HZ I        2139 58.74        27.7 0.30            150           72.9 299 
 PAM  EZ EP       2139 40.28                             150    0.0310 77.3  38 
 PAM  EE ES       2139 57.60                             150    0.1710 77.3  38 
 PAM  EZ I        2139 59.59        16.2 0.54            154           77.3  38 
 RUS  HZ EP       2139 41.42                             144   -0.3110 99.5 177 
 RUS  HE ES       2140  0.44                             144    0.3910 99.5 177 
 RUS  HZ I        2140  1.09        10.5 0.18            144           99.5 177 
 PTB  HZ EP       2139 44.15                             131   -1.01 9  149 259 
 PTB  HE ES       2140  5.83                             131   -0.33 9  149 259 
 PTB  HZ I        2140  7.13        14.5 0.42            131            149 259 
 ZAR  HZ EP       2139 51.50                             122    0.77 8  206 292 
 ZAR  HN ES       2140 15.83                             122   -0.25 8  206 292 
 ZAR  HZ I        2140 20.61        15.0 0.30            122            206 292 
 NOR  HZ EP       2139 53.47                             118   -0.44 8  235 235 
 NOR  HN ES       2140 22.03                             118    0.29 8  235 235 
 NOR  HZ I        2140 30.77         7.1 0.14            118            235 235 
 CHI  HZ EP       2139 55.84                             117    0.08 8  248 196 
 CHI  HN ES       2140 24.99                             117   -0.05 8  248 196 
 CHI  HZ I        2140 28.41         8.4 0.66            117            248 196 
 GUY2CHZ EP       2140  2.61                             112    0.80 7  302 235 
 GUY2CHE ES   4   2140 38.54                             112    2.73 0  302 235 
 GUY2CHZ I        2140 43.67         7.4 0.32                           302 235 
 PRA  HZ EP       2140 11.59                             106   -0.07 6  392 210 
 PRA  HE ES       2140 54.05                             106    0.71 6  392 210 
 PRA  HZ I        2140 59.87         6.7 0.24            107            392 210 
                                                                                
