 2015 1012 2310  1.5 L   6.785 -73.110143.5  RSN 12 0.3 1.7LRSN                1
 GAP=142        0.67       2.7     3.0  4.6 -0.9694E+00  0.4780E+01  0.3222E+01E
 Epicentro: LOS SANTOS - SANTANDER                                             3
 ACTION:UPD 15-12-22 20:39 OP:cam  STATUS:               ID:20151012231001 L   I
 OLDACT:REG 15-10-13 03:32 OP:spq  STATUS:               ID:20151012230748     3
 2015-10-12-2307-48M.COL___331                                                 6
 STAT SP IPHASW D HRMM SECON CODA AMPLIT PERI AZIMU VELO AIN AR TRES W  DIS CAZ7
 BAR2 EZ EP       2310 20.85                             170    0.0010 22.7 201 
 BAR2 EZ ES   1   2310 35.58                             170   -0.36 7 22.7 201 
 BAR2 EZ I        2310 36.90         9.3 0.20            169           22.7 201 
 BRR  HZ EP       2310 22.47                             151   -0.1910 75.5 298 
 BRR  HE ES       2310 39.51                             151    0.3510 75.5 298 
 BRR  HZ I        2310 43.53         5.8 0.34            149           75.5 298 
 PAM  EZ EP       2310 23.56                             151    0.1510 76.3  36 
 PAM  EE ES       2310 40.52                             151    0.0210 76.3  36 
 PAM  EZ I        2310 42.13         9.1 0.70            155           76.3  36 
 RUS  HZ EP       2310 25.14                             144    0.2410 98.7 178 
 RUS  HE ES   1   2310 43.04                             144   -0.10 7 98.7 178 
 RUS  HZ I        2310 43.68         1.9 0.36            146           98.7 178 
 OCA  HN ES   4   2310 50.55                             129   -1.41 0  162 352 
 OCA  HZ I        2310 53.87        11.7 0.32            131            162 352 
 SPBC HZ EP       2310 29.79                             128   -0.16 9  164 220 
 SPBC HN ES   2   2310 52.08                             128   -0.05 5  164 220 
 SPBC HZ I        2310 56.76         7.3 0.19            129            164 220 
 ZAR  HZ EP       2310 33.83                             121   -0.43 8  208 292 
 ZAR  HN ES       2310 59.44                             121   -0.36 8  208 292 
 ZAR  HZ I        2311  5.17         8.0 0.56            122            208 292 
 NOR  HZ EP       2310 37.40                             118    0.05 8  237 235 
 NOR  HN ES       2311  5.71                             118    0.40 8  237 235 
 NOR  HZ I        2311  8.70         3.8 0.32            119            237 235 
 SML  HZ EP   4   2310 36.78                             117   -1.58 0  247 335 
 SML  HE ES   4   2311  4.95                             117   -2.15 0  247 335 
 SML  HZ I        2311 10.00         6.2 0.10            118            247 335 
 CHI  HN ES   1   2311  7.67                             117   -0.61 6  248 196 
 CHI  HZ I        2311 13.38         1.5 0.46            119            248 196 
 GUY2CHZ EP   1   2310 45.99                             112    0.72 5  303 235 
 GUY2CHN ES       2311 19.60                             112    0.20 7  303 235 
 GUY2CHZ I        2311 27.08         2.1 0.30                           303 235 
 SJC  HZ EP   4   2310 55.30                             105   -2.12 0  413 327 
 SJC  HN ES   4   2311 36.42                             105   -4.61 0  413 327 
 SJC  HZ I        2311 40.20         0.9 0.42            107            413 327 
                                                                                
