 2016  912 2212 19.3 L   6.745 -73.115145.8  RSN  6 0.4 1.5LRSN                1
 GAP=143        0.95       6.0     4.4  7.6 -0.3921E+00  0.6571E+01  0.9108E+01E
 Epicentro: LOS SANTOS - SANTANDER                                             3
 ACTION:UPD 17-08-17 21:09 OP:lp   STATUS:               ID:20160912221219 L   I
 OLDACT:REG 16-09-13 02:45 OP:dani STATUS:               ID:20160912220742     3
 2016-09-12-2208-00M.COL___311                                                 6
 STAT SP IPHASW D HRMM SECON CODA AMPLIT PERI AZIMU VELO AIN AR TRES W  DIS CAZ7
 BAR2 EZ ES   2   2212 53.94                             172   -0.11 5 18.4 204 
 BRR  HZ EP       2212 40.81                             151    0.0510 77.2 301 
 BRR  HE ES       2212 57.95                             151    0.4210 77.2 301 
 BRR  HZ I        2213  1.27        15.3 0.29            149           77.2 301 
 PAM  EZ EP       2212 41.58                             150   -0.0610 80.2  35 
 PAM  EE ES       2212 58.87                             150   -0.2310 80.2  35 
 PAM  EZ I        2213  1.29         5.7 0.32            155           80.2  35 
 RUS  HZ EP       2212 42.72                             146    0.1610 94.3 178 
 RUS  HN ES   2   2213  0.95                             146    0.20 5 94.3 178 
 RUS  HZ I        2213  3.04         1.7 0.54            149           94.3 178 
 PTB  HZ EP       2212 45.73                             132   -0.71 9  150 261 
 PTB  HE ES       2213  7.54                             132   -0.10 9  150 261 
 PTB  HZ I        2213 13.98         5.0 0.24            132            150 261 
 ZAR  HZ EP       2212 53.13                             122    0.86 8  210 293 
 ZAR  HN ES       2213 17.64                             122   -0.39 8  210 293 
 ZAR  HZ I        2213 26.33         2.7 0.19            123            210 293 
                                                                                
