 2011  912 2326 42.2 L   6.779 -73.105143.4  RSN  5 0.3 1.6LRSN                1
 GAP=143        0.65       4.6     6.9  7.0 -0.6449E+00 -0.3180E+01  0.5893E+00E
 Epicentro: LOS SANTOS - SANTANDER                                             3
 ACTION:UPD 12-07-13 15:57 OP:ep   STATUS:               ID:20110912232642 L   I
 2011-09-12-2325-09S.COL___169                                                 6
 STAT SP IPHASW D HRMM SECON CODA AMPLIT PERI AZIMU VELO AIN AR TRES W  DIS CAZ7
 BAR2 SZ EP   1   2327  1.25                             171   -0.29 7 22.4 203 
 BAR2 SZ ES   1   2327 16.16                             171   -0.45 7 22.4 203 
 BAR2 SZ I        2327 17.73        16.0 0.32                          22.4 203 
 GIR2 SZ EP   2   2327  1.89                             166    0.19 5 34.5 343 
 BRR  HZ EP   1   2327  3.36                             150   -0.04 7 76.3 298 
 BRR  HN ES   1   2327 20.14                             150    0.21 7 76.3 298 
 BRR  HZ I        2327 22.41        14.0 0.10                          76.3 298 
 PAM  SZ EP   1   2327  4.46                             151    0.34 7 76.4  36 
 PAM  SN ES   1   2327 21.15                             151   -0.05 7 76.4  36 
 RUS  HZ EP   1   2327  5.21                             144   -0.34 7 98.1 179 
 RUS  HN ES   1   2327 24.29                             144    0.54 7 98.1 179 
 RUS  HZ I        2327 26.17         2.8 0.28                          98.1 179 
                                                                                
