 2013  112 2014 47.6 L   6.786 -73.130150.2  RSN  5 0.1 2.0LRSN                1
 GAP=238        0.39       3.2     3.0  3.5  0.5846E+01 -0.2113E-01 -0.7134E+00E
 Epicentro: LOS SANTOS - SANTANDER                                             3
 ACTION:UPD 13-02-15 09:13 OP:ep   STATUS:               ID:20130112201447 L   I
 2013-01-12-2010-00M.COL___241                                                 6
 STAT SP IPHASW D HRMM SECON CODA AMPLIT PERI AZIMU VELO AIN AR TRES W  DIS CAZ7
 BAR2 SZ EP   1   2015  7.75        29.5 0.29            171    0.02 7 22.2 195 
 BAR2 SZ ES   1   2015 23.39                             171   -0.04 7 22.2 195 
 BAR2 SZ I        2015 24.05        29.5 0.29            162           22.2 195 
 BRR  HZ EP       2015  9.54                             152    0.2010 73.4 299 
 BRR  HZ I        2015  9.97        21.9 0.22            146           73.4 299 
 BRR  HE ES       2015 26.16                             152   -0.1410 73.4 299 
 RUS  HZ EP       2015 11.56                             145   -0.1010 99.0 177 
 RUS  HN ES       2015 30.53                             145    0.0910 99.0 177 
 RUS  HN I        2015 32.16         8.6 0.20            141           99.0 177 
 PTB  HZ EP   1   2015 14.79                             133   -0.25 7  149 260 
 PTB  HE ES       2015 36.49                             133    0.03 9  149 260 
 PTB  HZ I        2015 43.10        16.3 0.59            127            149 260 
 ZAR  HE ES   1   2015 46.37                             123    0.12 6  206 292 
 ZAR  HZ I        2015 52.76         9.5 0.29            120            206 292 
                                                                                
