 2011  612 2246 22.3 L   6.780 -73.060146.3  RSN  7 0.4 1.7LRSN                1
 GAP=166        0.92       4.8     8.4  9.7 -0.1103E+02 -0.4474E+01 -0.1026E+01E
 Epicentro: LOS SANTOS - SANTANDER                                             3
 ACTION:UP  11-07-14 19:04 OP:ep   STATUS:               ID:20110612224622 L   I
 2011-06-12-2242-15S.COL___132                                                 6
 STAT SP IPHASW D HRMM SECON CODA AMPLIT PERI AZIMU VELO SNR AR TRES W  DIS CAZ7
 GIR2 SZ EP   1   2246 42.37                             165     0.2 7   36 336 
 BRR  HZ EP       2246 44.11                             149     0.110   81 297 
 BRR  HZ I        2246 44.66        14.0 0.11                            81 297 
 BRR  HE ES   1   2247  1.07                             149     0.1 7   81 297 
 RUS  HZ EP       2246 45.38                             145    -0.510   98 181 
 RUS  HE ES   1   2247  4.65                             145     0.3 7   98 181 
 RUS  HZ I        2247  5.55         5.1 0.30                            98 181 
 BRI  SZ EP   2   2246 45.75                             142    -0.4 5  108  16 
 GRA  SZ EP       2246 48.12                             137     0.610  125  13 
 GRA  SZ ES   1   2247  6.71                             137    -0.5 7  125  13 
 GRA  SZ I        2247  9.29         6.8 0.28                           125  13 
 OCA  SZ EP   1   2246 50.76                             129    -0.2 7  164 350 
 NOR  SZ EP   1   2246 59.07                             118     0.3 6  241 236 
 NOR  SN ES   2   2247 26.54                             118    -0.6 4  241 236 
                                                                                
