 2012  112 2308 49.0 L   6.762 -73.132148.9  RSN  6 0.2 1.4LRSN                1
 GAP=140        0.55       4.6     4.4  5.2 -0.2711E+01  0.2618E+01  0.6009E+01E
 Epicentro: LOS SANTOS - SANTANDER                                             3
 ACTION:UP  12-02-03 08:16 OP:REBC STATUS:               ID:20120112230849 L   I
 2012-01-12-2300-00M.COL___187                                                 6
 STAT SP IPHASW D HRMM SECON CODA AMPLIT PERI AZIMU VELO SNR AR TRES W  DIS CAZ7
 BAR2 SZ EP       23 9  8.96                             172     0.010   20 197 
 BAR2 SZ ES   1   23 9 24.28                             172    -0.2 7   20 197 
 GIR2 SZ EP   1   23 9  9.07                             166    -0.1 7   36 349 
 BRR  HZ IP     C 23 9 10.96                             152     0.310   75 301 
 BRR  HE ES   1   23 9 27.89                             152     0.3 7   75 301 
 BRR  HZ I        23 9 30.34         9.8 0.56                            75 301 
 PAM  SZ EP       23 9 11.70                             151     0.010   80  37 
 PAM  SN ES   1   23 9 29.18                             151    -0.2 7   80  37 
 RUS  HZ EP       23 9 12.90                             146     0.110   96 177 
 RUS  HN ES   3   23 9 31.66                             146     0.4 2   96 177 
 RUS  HZ I        23 9 33.32         3.1 0.48                            96 177 
 PTB  HZ EP       23 9 15.98                             132    -0.3 9  149 261 
 PTB  HN ES   3   23 9 36.97                             132    -0.6 2  149 261 
 PTB  HZ I        23 9 40.03         2.1 0.12                           149 261 
                                                                                
