 2010  912 2105 34.6 L   6.771 -73.282126.9  RSN  5 0.2 1.8LRSN                1
 GAP=141        0.44       3.8     8.0  5.5  0.1071E+02 -0.9269E+01 -0.3130E+01E
 Epicentro: ZAPATOCA - SANTANDER                                               3
 ACTION:UP  11-02-18 11:02 OP:tino STATUS:               ID:20100912210534 L   I
 2010-09-12-2101-44S.COL___120                                                 6
 STAT SP IPHASW D HRMM SECON CODA AMPLIT PERI AZIMU VELO SNR AR TRES W  DIS CAZ7
 BAR2 SZ EP   1   21 5 52.16                             169     0.2 7   23 151 
 BAR2 SZ I        21 5 52.57        15.7 0.26                            23 151 
 BAR2 SZ ES   2   21 6  5.11                             169    -0.4 5   23 151 
 GIR2 SZ EP   1   21 5 52.46                             163     0.2 7   35  16 
 GIR2 SZ ES   2   21 6  6.16                             163     0.2 5   35  16 
 BRR  HZ EP   1   21 5 53.05                             153    -0.1 7   60 308 
 BRR  HZ I        21 5 53.24        37.0 0.12                            60 308 
 BRR  HN ES   2   21 6  7.56                             153     0.0 5   60 308 
 RUS  HZ EP   1   21 5 56.49                             140     0.0 7  100 167 
 RUS  HN ES   2   21 6 13.55                             140     0.0 5  100 167 
 RUS  HZ I        21 6 15.56         3.9 0.49                           100 167 
 GUE  SZ EP   1   21 5 58.07                             133    -0.2 7  124  19 
                                                                                
