 2016  712 2125 37.4 L   6.799 -73.150153.0  RSN 11 0.4 2.0LRSN                1
 GAP=136        0.95       3.3     3.9  5.3 -0.1422E+01  0.3827E+01  0.3674E+01E
 Epicentro: LOS SANTOS - SANTANDER                                             3
 ACTION:UPD 17-03-29 16:50 OP:lp   STATUS:               ID:20160712212537 L   I
 OLDACT:UP  16-07-13 04:32 OP:drio STATUS:               ID:20160712211759     3
 OLDACT:REG 16-07-13 03:38 OP:drio STATUS:               ID:20160712211759     3
 2016-07-12-2117-59S.COL___331                                                 6
 STAT SP IPHASW D HRMM SECON CODA AMPLIT PERI AZIMU VELO AIN AR TRES W  DIS CAZ7
 BAR2 EZ EP       2125 57.90                             171    0.0010 23.1 189 
 BAR2 EZ ES       2126 13.38                             171   -0.5010 23.1 189 
 BAR2 EZ I        2126 14.58        22.3 0.20            170           23.1 189 
 BRR  HZ EP       2125 59.74                             154    0.4210 70.8 299 
 BRR  HE ES       2126 16.26                             154   -0.1510 70.8 299 
 BRR  HZ I        2126 17.45        44.0 0.46            150           70.8 299 
 PAM  EZ EP       2126  0.80                             151    0.3910 77.8  40 
 PAM  HE ES       2126 18.51                             151    0.1510 77.8  40 
 PAM  EZ I        2126 20.05        26.0 0.50            154           77.8  40 
 RUS  HZ EP       2126  1.90                             145    0.0410  100 176 
 RUS  HN ES       2126 20.85                             145   -0.0910  100 176 
 RUS  HZ I        2126 24.47         4.8 0.50            146            100 176 
 PTB  HZ EP       2126  4.71                             133   -0.21 9  147 259 
 PTB  HE ES       2126 25.64                             133   -0.75 9  147 259 
 PTB  HZ I        2126 32.87        14.4 0.42            131            147 259 
 SPBC HZ EP       2126  6.76                             131    0.34 9  163 219 
 SPBC HN ES       2126 29.70                             131    0.64 9  163 219 
 SPBC HZ I        2126 34.78        10.6 0.20            129            163 219 
 ZAR  HZ EP   4   2126 11.08                             124    0.79 0  204 292 
 ZAR  HN ES       2126 36.39                             124    0.46 9  204 292 
 ZAR  HZ I        2126 42.08        13.5 0.28            122            204 292 
 NOR  HE ES       2126 41.84                             120    0.17 8  234 234 
 NOR  HZ I        2126 45.96         6.2 0.22            119            234 234 
 CHI  HZ EP       2126 15.27                             118   -0.21 8  248 195 
 CHI  HN ES       2126 44.80                             118   -0.39 8  248 195 
 CHI  HZ I        2126 48.48         5.1 0.40            118            248 195 
 PRA  HZ EP       2126 31.16                             107    0.02 6  392 210 
 PRA  HN ES       2127 13.17                             107    0.12 6  392 210 
 PRA  HZ I        2127 18.61         4.7 0.28            108            392 210 
 SJC  HZ EP       2126 32.08                             107   -1.11 6  409 327 
 SJC  HN ES   4   2127 12.10                             107   -4.60 0  409 327 
 SJC  HZ I        2127 29.80         2.0 0.46            107            409 327 
                                                                                
