 2014  612 2027 49.0 L   6.805 -73.128146.3  RSN 15 0.6 2.2LRSN                1
 GAP= 72        1.35       3.7     3.8  6.5 -0.1514E+01  0.6328E+01  0.3615E+01E
 Epicentro: LOS SANTOS - SANTANDER                                             3
 ACTION:UPD 14-07-01 22:53 OP:nd   STATUS:               ID:20140612202749 L   I
 OLDACT:REG 14-06-13 05:33 OP:stll STATUS:               ID:20140612201819     3
 2014-06-12-2018-19M.COL___262                                                 6
 STAT SP IPHASW D HRMM SECON CODA AMPLIT PERI AZIMU VELO AIN AR TRES W  DIS CAZ7
 BAR2 SZ IP     C 2028  9.01                             170    0.2810 24.3 194 
 BAR2 SZ ES       2028 24.11                             170    0.0110 24.3 194 
 BAR2 SZ I        2028 26.63        25.6 0.26            168           24.3 194 
 BRR  HZ EP       2028 10.70                             152    0.4010 72.6 297 
 BRR  HN ES       2028 27.55                             152    0.6510 72.6 297 
 BRR  HZ I        2028 31.14        20.8 0.34            152           72.6 297 
 PAM  SZ EP       2028 11.73                             151    0.5410 75.7  39 
 PAM  SE ES       2028 28.91                             151    0.4310 75.7  39 
 PAM  SZ I        2028 31.15        25.7 0.48            156           75.7  39 
 RUS  HZ IP     D 2028 12.82                             144   -0.0310  101 177 
 RUS  HZ I        2028 13.76        10.9 0.42            145            101 177 
 RUS  HN ES       2028 31.28                             144   -0.1610  101 177 
 PTB  HZ EP       2028 15.90                             132   -0.31 9  150 259 
 PTB  HN ES       2028 36.75                             132   -0.66 9  150 259 
 PTB  HZ I        2028 42.86        20.2 0.20            132            150 259 
 TAM  HZ EP       2028 17.18                             131    0.60 9  153 105 
 TAM  HN ES       2028 37.31                             131   -0.76 9  153 105 
 SPBC HZ EP       2028 18.02                             129    0.31 9  165 219 
 SPBC HN ES       2028 39.84                             129   -0.25 9  165 219 
 ZAR  HZ EP       2028 21.56                             122   -0.10 8  206 292 
 ZAR  HN ES       2028 47.35                             122    0.23 8  206 292 
 ZAR  HZ I        2028 53.47        16.6 0.50            124            206 292 
 NOR  HZ EP       2028 25.12                             118    0.14 8  237 235 
 NOR  HN ES       2028 52.99                             118   -0.04 8  237 235 
 SML  HZ EP       2028 24.62                             118   -1.09 8  244 335 
 SML  HE ES       2028 53.01                             118   -1.31 8  244 335 
 CHI  HZ EP       2028 27.12                             117    0.27 8  250 196 
 CHI  HN ES       2028 54.72                             117   -1.65 8  250 196 
 CHI  HZ I        2029  5.00         6.0 0.60            119            250 196 
 GUY2CHZ EP       2028 33.25                             112    0.39 7  303 235 
 GUY2CHN ES       2029  7.75                             112    0.69 7  303 235 
 GUY2CHZ I        2029 15.83        12.4 0.74                           303 235 
 RREF HZ EP       2028 36.13                             111    0.74 7  324 230 
 RREF HN ES       2029 11.46                             111   -0.10 7  324 230 
 RREF HZ I        2029 21.60         8.3 0.46            112            324 230 
 TOL  SN ES       2029 16.07                             109    0.77 7  345 225 
 PRA  HZ EP       2028 42.57                             107   -0.15 6  393 210 
 PRA  HN ES       2029 24.27                             107   -0.34 6  393 210 
 PRA  HZ I        2029 30.82         8.4 0.34            108            393 210 
                                                                                
