 2016  312 2348  0.2 L   6.808 -73.160148.0  RSN  8 0.3 1.8LRSN                1
 GAP=134        0.71       2.9     3.1  5.3 -0.1242E+01  0.4355E+01  0.2529E+01E
 Epicentro: LOS SANTOS - SANTANDER                                             3
 ACTION:UPD 16-05-13 21:23 OP:cam  STATUS:               ID:20160312234800 L   I
 OLDACT:UP  16-03-13 05:40 OP:ak   STATUS:               ID:20160312233752d    3
 OLDACT:DUP 16-03-13 05:34 OP:ak   STATUS:               ID:20160312233752d    3
 2016-03-12-2337-51M.COL___295                                                 6
 STAT SP IPHASW D HRMM SECON CODA AMPLIT PERI AZIMU VELO AIN AR TRES W  DIS CAZ7
 BAR2 EZ EP   2   2348 19.15                             170   -0.94 5 24.0 186 
 BAR2 EZ ES       2348 35.82                             170    0.2010 24.0 186 
 BAR2 EZ I        2348 37.01        10.2 0.24            171           24.0 186 
 PAM  EZ EP       2348 23.01                             151    0.3610 77.8  41 
 PAM  EN ES       2348 40.10                             151   -0.0810 77.8  41 
 PAM  EZ I        2348 42.35        18.8 0.50            153           77.8  41 
 RUS  HZ EP       2348 24.21                             144   -0.0110  102 175 
 RUS  HN ES       2348 43.00                             144    0.0310  102 175 
 RUS  HZ I        2348 44.05         7.9 0.34            145            102 175 
 PTB  HN ES       2348 47.83                             133   -0.45 9  146 258 
 PTB  HZ I        2348 49.94         5.0 0.14            132            146 258 
 SPBC HN ES       2348 51.16                             130    0.01 9  163 218 
 SPBC HZ I        2348 54.94        12.1 0.18            130            163 218 
 ZAR  HZ EP   2   2348 32.77                             123    0.19 4  202 292 
 ZAR  HN ES       2348 57.88                             123    0.02 9  202 292 
 ZAR  HZ I        2349  4.37         7.9 0.24            123            202 292 
 CHI  HZ EP       2348 37.65                             117   -0.39 8  249 195 
 CHI  HN ES       2349  7.62                             117    0.04 8  249 195 
 CHI  HZ I        2349 11.21         3.4 0.36            118            249 195 
 GUY2CHZ EP   4   2348 46.42                             113    2.63 0  300 234 
 GUY2CHN ES       2349 18.38                             113    0.56 7  300 234 
 GUY2CHZ I        2349 26.08         2.5 0.46                           300 234 
                                                                                
