 2011  212 2227 54.8 L   6.781 -73.140135.5  RSN  7 0.4 1.7LRSN                1
 GAP=159        0.81       4.9     8.3  8.3 -0.1913E+02  0.2741E+02 -0.2046E+01E
 Epicentro: LOS SANTOS - SANTANDER                                             3
 ACTION:UP  11-03-28 15:08 OP:jfem STATUS:               ID:20110212222754 L   I
 2011-02-12-2224-44S.COL___136                                                 6
 STAT SP IPHASW D HRMM SECON CODA AMPLIT PERI AZIMU VELO SNR AR TRES W  DIS CAZ7
 BTL  SZ EP       2228 13.21                             171     0.110   21 317 
 BAR2 SZ EP   1   2228 12.81                             171    -0.4 7   21 193 
 BAR2 SZ ES   1   2228 27.80                             171     0.3 7   21 193 
 BAR2 SZ I        2228 29.23        14.4 0.26                            21 193 
 RUS  HZ EP   1   2228 17.24                             142    -0.2 7   98 176 
 RUS  HZ I        2228 18.41         7.1 0.14                            98 176 
 RUS  HE ES   2   2228 35.15                             142     0.1 5   98 176 
 GRA  SZ EP   1   2228 20.19                             134     0.9 7  128  17 
 GRA  SZ ES   1   2228 37.79                             134    -0.6 7  128  17 
 GRA  SZ I        2228 40.65         5.9 0.23                           128  17 
 NOR  SZ EP   2   2228 29.51                             116    -0.4 4  234 235 
 NOR  SE ES   2   2228 57.03                             116    -0.2 4  234 235 
 CHI  HZ EP   1   2228 31.59                             115    -0.2 6  247 195 
 CHI  HN ES   2   2229  0.65                             115     0.1 4  247 195 
 CHI  HZ I        2229  8.67         3.7 0.46                           247 195 
 HEL  HZ EP   1   2228 34.68                             113     0.2 6  272 256 
 HEL  HZ I        2228 42.17         2.7 0.55                           272 256 
 HEL  HN ES   2   2229  5.69                             113     0.2 4  272 256 
                                                                                
