 2010 1212 2158  1.1 L   6.836 -73.144142.8  RSN  5 0.3 1.5LRSN                1
 GAP=158        0.61       4.5     7.4 11.0 -0.1542E+02  0.3780E+02 -0.2460E+02E
 Epicentro: LOS SANTOS - SANTANDER                                             3
 ACTION:UP  11-01-14 15:24 OP:pat  STATUS:               ID:20101212215801 L   I
 2010-12-12-2156-21S.COL___137                                                 6
 STAT SP IPHASW D HRMM SECON CODA AMPLIT PERI AZIMU VELO SNR AR TRES W  DIS CAZ7
 RUS  HZ EP   1   2158 24.88                             142     0.0 7  105 176 
 RUS  HN ES   1   2158 43.26                             142    -0.1 7  105 176 
 RUS  HZ I        2158 44.30         6.1 0.38                           105 176 
 GRA  SZ EP   2   2158 25.29                             137    -0.5 5  122  18 
 GRA  SZ I        2158 46.24         2.9 0.36                           122  18 
 OCA  SZ EP   1   2158 29.23                             130     0.4 7  156 353 
 OCA  SZ I        2158 57.20         5.5 0.37                           156 353 
 NOR  SZ EP   1   2158 36.82                             117    -0.1 6  237 234 
 NOR  SN ES   1   2159  4.78                             117    -0.1 6  237 234 
 CHI  HZ EP   1   2158 38.78                             116    -0.3 6  253 195 
 CHI  HE ES   1   2159  9.10                             116     0.4 6  253 195 
 CHI  HZ I        2159 17.94         1.9 0.41                           253 195 
                                                                                
