 2011  512 2145 26.0 L   6.790 -73.142147.4  RSN  5 0.2 1.6LRSN                1
 GAP=186        0.53       4.6    16.1  5.7 -0.5543E+02  0.2276E+02 -0.7782E+01E
 Epicentro: LOS SANTOS - SANTANDER                                             3
 ACTION:UP  11-06-29 08:52 OP:tino STATUS:               ID:20110512214526 L   I
 2011-05-12-2141-38S.COL___141                                                 6
 STAT SP IPHASW D HRMM SECON CODA AMPLIT PERI AZIMU VELO SNR AR TRES W  DIS CAZ7
 BAR2 SZ EP   1   2145 45.59                             171    -0.2 7   22 191 
 BAR2 SZ ES   1   2146  1.44                             171     0.2 7   22 191 
 BAR2 SZ I        2146  1.86        10.7 0.25                            22 191 
 PAM  SZ EP   1   2145 48.77                             151     0.3 7   78  39 
 PAM  SN ES   1   2146  5.79                             151    -0.1 7   78  39 
 RUS  HZ EP   1   2145 49.53                             144    -0.3 7  100 176 
 RUS  HN ES   1   2146  8.52                             144     0.1 7  100 176 
 RUS  HZ I        2146  9.73         5.6 0.25                           100 176 
 BRI  SZ EP   1   2145 50.24                             141     0.1 7  109  20 
 GRA  SZ EP   1   2145 51.58                             137     0.1 7  127  17 
 GRA  SZ ES   1   2146 11.09                             137    -0.2 7  127  17 
 GRA  SZ I        2146 14.18         5.3 0.27                           127  17 
                                                                                
