 2017  712 2135 57.9 L   6.798 -73.131145.8  RSN  9 0.4 1.7LRSN                1
 GAP=139        0.99       4.1     4.0  5.8 -0.1934E+01  0.7888E+01  0.3450E+01E
 Epicentro: LOS SANTOS - SANTANDER                                             3
 ACTION:UPD 17-08-30 15:32 OP:rebc STATUS:               ID:20170712213557 L   I
 OLDACT:REG 17-07-13 04:09 OP:osc  STATUS:               ID:20170712212734     3
 2017-07-12-2128-00M.COL___383                                                 6
 STAT SP IPHASW D HRMM SECON CODA AMPLIT PERI AZIMU VELO AIN AR TRES W  DIS CAZ7
 BAR2 EZ EP       2136 17.29                             170   -0.2110 23.4 194 
 BAR2 EZ ES       2136 32.86                             170    0.0510 23.4 194 
 BAR2 EZ I        2136 36.01         6.4 0.17            168           23.4 194 
 BRR  HZ EP       2136 19.11                             152    0.0110 72.8 298 
 BRR  HE ES       2136 36.08                             152    0.4110 72.8 298 
 PAM  EZ IP     C 2136 20.17                             151    0.1410 76.5  38 
 PAM  EE ES       2136 37.20                             151   -0.1210 76.5  38 
 PAM  EZ I        2136 38.69         9.8 0.34            156           76.5  38 
 RUS  HZ EP       2136 21.45                             144   -0.1410  100 177 
 RUS  HN ES       2136 40.23                             144    0.1310  100 177 
 RUS  HZ I        2136 41.90         4.2 0.30            144            100 177 
 PTB  HZ EP       2136 24.04                             132   -0.93 9  149 259 
 PTB  HE ES       2136 45.93                             132   -0.19 9  149 259 
 PTB  HZ I        2136 48.92         5.5 0.18            133            149 259 
 SPBC HZ EP       2136 26.48                             129    0.04 9  164 219 
 SPBC HE ES   2   2136 48.66                             129   -0.07 5  164 219 
 SPBC HZ I        2136 54.79        11.9 0.22            130            164 219 
 ZAR  HZ EP       2136 31.21                             122    0.73 8  206 292 
 ZAR  HE ES       2136 55.55                             122   -0.36 8  206 292 
 NOR  HZ EP       2136 33.26                             118   -0.46 8  236 235 
 NOR  HE ES       2137  1.62                             118   -0.07 8  236 235 
 NOR  HZ I        2137  4.70         3.4 0.24            120            236 235 
 GUY2CHZ EP       2136 42.63                             112    1.02 7  302 235 
 GUY2CHE ES       2137 16.19                             112    0.46 7  302 235 
 GUY2CHZ I        2137 25.64         3.2 0.52                           302 235 
                                                                                
