 2010  512 2300 36.8 L   6.789 -72.959142.4  RSN  7 0.4 1.8LRSN                1
 GAP=178        0.56       4.1     9.8 10.5 -0.1409E+02 -0.3102E+02  0.1245E+02E
 Epicentro: CEPITA - SANTANDER                                                 3
 ACTION:UP  10-08-24 10:04 OP:vdl  STATUS:               ID:20100512230036 L   I
 2010-05-12-2258-02S.COL___104                                                 6
 STAT SP IPHASW D HRMM SECON CODA AMPLIT PERI AZIMU VELO AIN AR TRES W  DIS CAZ7
 BAR2 SZ EP   2   23 0 55.53                             166    -0.7 5   33 229 
 BRR  HZ EP   3   23 0 58.81                             146     0.0 2   90 293 
 BRR  HZ I        23 1  3.34        14.8 0.31                            90 293 
 BRR  HE ES   2   23 1 16.10                             146     0.1 5   90 293 
 RUS  HZ EP   1   23 1  0.22                             143     0.0 7  100 188 
 RUS  HN ES   2   23 1 18.59                             143     0.2 5  100 188 
 RUS  HZ I        23 1 19.61         3.2 0.24                           100 188 
 BRI  SZ EP   2   23 1  0.66                             142     0.6 5  104  10 
 GRA  SZ EP   2   23 1  1.51                             137     0.0 5  122   8 
 GRA  SZ ES   1   23 1 20.56                             137    -0.1 7  122   8 
 HEL  HZ EP   3   23 1 19.23                             112     0.2 2  292 257 
 HEL  HZ I        23 1 56.48         3.9 0.30                           292 257 
 PRA  HZ EP   3   23 1 30.52                             105    -0.8 1  401 212 
 PRA  HZ I        23 2 15.42         2.5 0.54                           401 212 
                                                                                
