 2010 1212 2122 57.1 L   6.787 -73.119142.6  RSN 14 0.4 2.3LRSN                1
 GAP=138        0.79       3.2     6.9  6.4 -0.8942E+01  0.1723E+02  0.3759E+00E
 Epicentro: LOS SANTOS - SANTANDER                                             3
 ACTION:UP  11-01-14 15:24 OP:pat  STATUS:               ID:20101212212257 L   I
 2010-12-12-2120-01S.COL___136                                                 6
 STAT SP IPHASW D HRMM SECON CODA AMPLIT PERI AZIMU VELO SNR AR TRES W  DIS CAZ7
 BAR2 SZ EP   1   2123 16.24                             170    -0.1 8   23 198 
 BAR2 SZ ES   1   2123 31.68                             170     0.3 8   23 198 
 BAR2 SZ I        2123 32.96        68.9 0.20                            23 198 
 RUS  HZ EP   1   2123 20.09                             144    -0.4 8   99 178 
 RUS  HN ES   1   2123 38.50                             144    -0.2 8   99 178 
 RUS  HZ I        2123 40.14        16.2 0.39                            99 178 
 GRA  SZ EP       2123 22.03                             136    -0.110  126  16 
 GRA  SZ ES   1   2123 41.84                             136     0.2 7  126  16 
 GRA  SZ I        2123 43.82        12.6 0.19                           126  16 
 OCA  SZ EP   1   2123 25.09                             129    -0.3 7  162 352 
 OCA  SZ ES   1   2123 47.60                             129     0.2 7  162 352 
 OCA  SZ I        2123 50.41        16.6 0.04                           162 352 
 YOP  SZ EP   2   2123 26.93                             126     0.2 5  176 154 
 YOP  SZ I        2123 27.49         9.3 0.32                           176 154 
 NOR  SZ EP   1   2123 32.27                             118    -0.6 6  236 235 
 NOR  SN ES   2   2124  0.12                             118    -0.6 4  236 235 
 CHI  HZ EP   1   2123 34.27                             117    -0.3 6  248 196 
 CHI  HE ES   1   2124  3.98                             117     0.2 6  248 196 
 CHI  HZ I        2124 12.24         8.0 0.67                           248 196 
 ROSC BZ EP   1   2123 35.93                             116     0.8 6  253 212 
 ROSC BZ I        2124 11.13        22.2 0.34                           253 212 
 HEL  HZ EP   2   2123 37.43                             114     0.0 4  275 256 
 HEL  HE ES   2   2124  8.72                             114    -0.2 4  275 256 
 HEL  HZ I        2124 15.73        10.3 0.31                           275 256 
 GUY  SZ EP   2   2123 41.20                             112     0.4 4  303 235 
 GUY  SZ I        2124 26.00        16.6 0.23                           303 235 
 RREF HZ EP   1   2123 44.39                             110     1.1 5  323 230 
 RREF HZ I        2124 26.73        10.0 0.51                           323 230 
 TOL  SZ EP   2   2123 45.52                             109     0.1 3  345 225 
 PRA  HZ EP   1   2123 49.99                             106    -0.6 5  392 210 
 PRA  HE ES   1   2124 32.61                             106     0.4 5  392 210 
 PRA  HZ I        2124 38.09        23.2 0.22                           392 210 
 SJA  SZ EP   2   2123 51.90                             106     0.4 3  399 193 
 SJA  SZ I        2124 39.34        13.4 0.51                           399 193 
                                                                                
