 2013  812 2010 14.8 L   6.806 -73.155148.0  RSN 14 0.4 2.3LRSN                1
 GAP=135        0.77       2.2     3.6  4.7 -0.1276E+01  0.4028E+01  0.3685E+00E
 Epicentro: LOS SANTOS - SANTANDER                                             3
 ACTION:UPD 14-01-14 09:01 OP:ep   STATUS:               ID:20130812201014 L   I
 OLDACT:REG 13-08-12 21:49 OP:carl STATUS:               ID:20130812200959     3
 2013-08-12-2009-59M.COL___270                                                 6
 STAT SP IPHASW D HRMM SECON CODA AMPLIT PERI AZIMU VELO AIN AR TRES W  DIS CAZ7
 BAR2 SZ EP   1   2010 34.61                             170   -0.13 7 23.8 187 
 BAR2 SZ ES   1   2010 49.85                             170   -0.41 7 23.8 187 
 BAR2 SZ I        2010 52.36        26.8 0.30            169           23.8 187 
 BRR  HZ EP   1   2010 36.46                             153    0.31 7 70.0 298 
 BRR  HN ES   1   2010 53.60                             153    0.82 7 70.0 298 
 BRR  HN I        2010 54.09        92.0 0.22            151           70.0 298 
 PAM  SZ EP       2010 37.46                             151    0.1710 77.5  40 
 PAM  SN ES   1   2010 54.75                             151   -0.06 7 77.5  40 
 PAM  SZ I        2010 55.32        14.6 0.22            155           77.5  40 
 RUS  HZ EP       2010 38.63                             144   -0.2210  101 176 
 RUS  HN ES   1   2010 57.43                             144   -0.16 7  101 176 
 RUS  HZ I        2010 58.70        11.9 0.28            145            101 176 
 PTB  HZ EP       2010 41.31                             133   -0.59 9  147 258 
 PTB  HN ES   1   2011  2.22                             133   -0.80 7  147 258 
 PTB  HZ I        2011  4.44        19.7 0.14            132            147 258 
 OCA  HE ES   1   2011  6.00                             130    0.60 7  159 353 
 OCA  HE I        2011 11.42        63.0 0.28            131            159 353 
 SPBC HZ EP   1   2010 43.71                             130    0.22 7  163 219 
 SPBC HN ES   1   2011  6.03                             130    0.19 7  163 219 
 SPBC HZ I        2011 10.09        21.6 0.22            129            163 219 
 ZAR  HZ EP       2010 47.41                             123    0.11 9  203 292 
 ZAR  HN ES   1   2011 12.48                             123   -0.14 6  203 292 
 ZAR  HZ I        2011 17.93        19.9 0.40            123            203 292 
 NOR  HZ EP   1   2010 50.67                             119    0.03 6  234 234 
 NOR  HN ES       2011 18.94                             119    0.37 8  234 234 
 NOR  HZ I        2011 26.47         8.6 0.20            119            234 234 
 SML  HZ EP   1   2010 51.09                             118   -0.38 6  243 335 
 SML  HN ES       2011 19.82                             118   -0.23 8  243 335 
 SML  HZ I        2011 23.63        27.2 0.10            119            243 335 
 CHI  HZ EP   1   2010 52.87                             117    0.18 6  249 195 
 CHI  HN ES   1   2011 22.45                             117    0.23 6  249 195 
 CHI  HZ I        2011 27.46        10.1 0.32            118            249 195 
 GUY2CHZ EP   1   2010 59.47                             113    0.98 5  301 235 
 GUY2CHE ES   4   2011 36.84                             113    4.29 0  301 235 
 GUY2CHZ I        2011 41.03         9.0 0.60                           301 235 
 COD  HZ EP   1   2011  3.16                             109   -0.04 5  348 355 
 COD  HN ES   1   2011 40.50                             109   -0.44 5  348 355 
 PRA  HZ EP       2011  8.58                             107    0.15 6  392 209 
 PRA  HN ES       2011 49.99                             107   -0.26 6  392 209 
 PRA  HZ I        2011 57.11         9.7 0.26            107            392 209 
                                                                                
