 2014  112 2154 36.3 L   6.771 -73.127148.1  RSN  7 0.5 1.6LRSN                1
 GAP=140        1.04       5.5     5.0  9.9 -0.2879E+01  0.7092E+01 -0.5343E+01E
 Epicentro: LOS SANTOS - SANTANDER                                             3
 ACTION:UPD 14-03-13 09:54 OP:ep   STATUS:               ID:20140112215436 L   I
 OLDACT:REG 14-01-12 22:11 OP:mh   STATUS:               ID:20140112215000     3
 2014-01-12-2150-00M.COL___285                                                 6
 STAT SP IPHASW D HRMM SECON CODA AMPLIT PERI AZIMU VELO AIN AR TRES W  DIS CAZ7
 BRR  HZ EP       2154 58.27                             152    0.4210 74.6 300 
 BRR  HN ES   1   2155 14.61                             152   -0.08 7 74.6 300 
 BRR  HZ I        2155 29.45         6.1 0.35            153           74.6 300 
 PAM  SZ EP       2154 59.47                             150    0.6710 78.7  37 
 PAM  SN ES   1   2155 15.89                             150   -0.49 7 78.7  37 
 PAM  SZ I        2155 18.81         7.5 0.48            155           78.7  37 
 RUS  HZ EP   1   2155  0.36                             145    0.36 7 97.2 177 
 RUS  HN ES   1   2155 18.25                             145   -0.27 7 97.2 177 
 RUS  HZ I        2155 20.53         4.1 0.36            156           97.2 177 
 PTB  HZ EP       2155  2.77                             132   -0.78 9  149 260 
 PTB  HN ES       2155 24.80                             132   -0.03 9  149 260 
 PTB  HZ I        2155 26.85         7.6 0.05            139            149 260 
 OCA  HN ES   4   2155 24.18                             129   -3.38 0  164 353 
 ZAR  HN ES       2155 35.24                             122    0.39 8  207 293 
 ZAR  HZ I        2155 38.57         4.1 0.07            129            207 293 
 NOR  HN ES   1   2155 40.02                             119   -0.04 6  234 235 
 SML  HZ EP   1   2155 12.62                             117   -0.81 6  248 335 
 SML  HN ES   2   2155 41.81                             117   -0.61 4  248 335 
 SML  HZ I        2155 45.98         5.0 0.07            124            248 335 
                                                                                
