 2010  912 2223  4.1 L   6.877 -73.001145.7  RSN  6 0.4 2.0LRSN                1
 GAP=180        0.94       6.8    16.9 12.0  0.2745E+02 -0.7453E+02 -0.2343E+02E
 Epicentro: CEPITA - SANTANDER                                                 3
 ACTION:UP  11-02-18 11:02 OP:tino STATUS:               ID:20100912222304 L   I
 2010-09-12-2219-10S.COL___120                                                 6
 STAT SP IPHASW D HRMM SECON CODA AMPLIT PERI AZIMU VELO SNR AR TRES W  DIS CAZ7
 GIR2 SZ EP   1   2223 24.06                             167     0.3 7   31 316 
 GIR2 SZ ES   2   2223 39.53                             167     0.4 5   31 316 
 BAR2 SZ EP   1   2223 24.22                             165     0.1 7   38 213 
 BAR2 SZ ES   2   2223 39.73                             165     0.0 5   38 213 
 BAR2 SZ I        2223 40.23        16.0 0.19                            38 213 
 BRR  HZ IP     C 2223 25.85                             148    -0.110   83 288 
 BRR  HZ I        2223 26.13        31.6 0.14                            83 288 
 BRR  HE ES   2   2223 42.54                             148    -0.4 5   83 288 
 GUE  SZ EP   1   2223 27.00                             142    -1.0 7  106   5 
 RUS  HZ EP   1   2223 28.69                             141     0.2 7  109 185 
 RUS  HN ES   2   2223 47.23                             141    -0.3 5  109 185 
 RUS  HZ I        2223 49.10         9.4 0.37                           109 185 
 OCA  SZ EP   1   2223 32.59                             131     0.7 7  155 347 
 OCA  SZ ES   2   2223 53.73                             131     0.2 5  155 347 
 OCA  SZ I        2223 59.59        11.0 0.36                           155 347 
                                                                                
