 2010  712 2021 30.2 L   6.729 -73.443113.1  RSN  6 0.2 1.7LRSN                1
 GAP=168        0.40       2.7     4.4  4.5  0.8126E+00 -0.3037E+01 -0.9120E+00E
 Epicentro: EL CARMEN DE CHUCURI - SANTANDER                                   3
 ACTION:UPD 10-12-01 15:17 OP:pat  STATUS:               ID:20100712202130 L   I
 2010-07-12-2019-59S.COL___120                                                 6
 STAT SP IPHASW D HRMM SECON CODA AMPLIT PERI AZIMU VELO AIN AR TRES W  DIS CAZ7
 BAR2 SZ EP   2   2021 46.02                             163    -0.2 5   32 118 
 BAR2 SZ I        2021 46.35        17.3 0.22                            32 118 
 BAR2 SZ ES   2   2021 58.73                             163     0.1 5   32 118 
 GIR2 SZ EP   1   2021 46.50                             156    -0.2 7   48  36 
 GIR2 SZ ES   2   2021 59.45                             156    -0.1 5   48  36 
 BRR  HZ EP       2021 46.55                             154    -0.110   51 325 
 BRR  HZ I        2021 46.67        18.3 0.16                            51 325 
 BRR  HN ES   1   2021 59.73                             154     0.2 7   51 325 
 RUS  HZ EP   2   2021 51.05                             136     0.2 5  101 157 
 RUS  HE ES   2   2022  7.12                             136     0.1 5  101 157 
 RUS  HZ I        2022  8.19         5.4 0.39                           101 157 
 GUE  SZ EP   1   2021 54.03                             126     0.3 7  135  25 
 GUE  SZ ES   2   2022 11.99                             126    -0.2 5  135  25 
 GUE  SZ I        2022 12.98        10.0 0.18                           135  25 
 GRA  SZ ES   2   2022 14.00                             124     0.2 5  146  29 
 GRA  SZ I        2022 14.96         9.3 0.30                           146  29 
                                                                                
