 2013  912 2002  8.5 L   6.800 -73.140138.0  RSN 15 0.5 2.5LRSN                1
 GAP=137        0.95       3.3     4.3  6.3 -0.2214E+01  0.1066E+02 -0.1536E+01E
 Epicentro: LOS SANTOS - SANTANDER                                             3
 ACTION:UPD 13-10-22 09:22 OP:ep   STATUS:               ID:20130912200208 L   I
 OLDACT:UP  13-09-13 02:21 OP:mh   STATUS:               ID:20130912195949d    3
 OLDACT:UP  13-09-13 02:20 OP:mh   STATUS:               ID:20130912195949d    3
 OLDACT:DUP 13-09-13 02:20 OP:mh   STATUS:               ID:20130912195949d    3
 2013-09-12-1959-48M.COL___238                                                 6
 STAT SP IPHASW D HRMM SECON CODA AMPLIT PERI AZIMU VELO AIN AR TRES W  DIS CAZ7
 BAR2 SZ EP   1   20 2 27.20                             170   -0.01 7 23.4 192 
 BAR2 SZ ES   1   20 2 41.73                             170   -0.06 7 23.4 192 
 BAR2 SZ I        20 2 44.31        77.0 0.26            170           23.4 192 
 BRR  HZ EP   1   20 2 29.18                             151    0.32 7 71.8 298 
 BRR  HN ES   1   20 2 45.28                             151    0.55 7 71.8 298 
 BRR  HZ I        20 2 49.60        63.4 0.44            149           71.8 298 
 PAM  SZ EP   1   20 2 30.24                             149    0.36 7 77.0  39 
 PAM  SN ES       20 2 46.38                             149   -0.1710 77.0  39 
 PAM  SZ I        20 2 49.01        40.2 0.50            153           77.0  39 
 RUS  HZ EP   1   20 2 31.39                             142   -0.11 7  101 176 
 RUS  HN ES       20 2 49.66                             142    0.2310  101 176 
 RUS  HZ I        20 2 51.50        49.9 0.32            146            101 176 
 PTB  HZ EP   1   20 2 34.05                             130   -0.86 7  148 259 
 PTB  HN ES   1   20 2 54.71                             130   -0.79 7  148 259 
 PTB  HZ I        20 2 57.78        43.6 0.14            131            148 259 
 OCA  HZ EP   1   20 2 35.70                             128   -0.54 7  160 353 
 OCA  HN ES   2   20 2 57.01                             128   -0.86 5  160 353 
 OCA  HZ I        20 3  5.19        17.0 0.26            130            160 353 
 SPBC HZ EP   1   20 2 36.35                             127   -0.11 7  164 219 
 SPBC HN ES   1   20 2 58.02                             127   -0.23 7  164 219 
 SPBC HZ I        20 3  7.17        36.2 0.24            129            164 219 
 ZAR  HZ EP   1   20 2 41.40                             121    0.88 6  205 292 
 ZAR  HN ES       20 3  5.95                             121    0.46 9  205 292 
 ZAR  HZ I        20 3 11.66        37.3 0.52            122            205 292 
 NOR  HZ EP   1   20 2 43.69                             117   -0.16 6  235 235 
 NOR  HN ES       20 3 11.17                             117   -0.25 8  235 235 
 NOR  HZ I        20 3 17.03        27.4 0.20            119            235 235 
 SML  HZ EP   1   20 2 43.82                             116   -0.92 6  244 335 
 SML  HN ES   1   20 3 13.50                             116    0.49 6  244 335 
 SML  HZ I        20 3 21.14        33.5 0.10            118            244 335 
 ROSC BZ EP   1   20 2 47.22                             115    0.97 6  253 211 
 ROSC BN ES   4   20 3 18.21                             115    2.53 0  253 211 
 HEL  HZ EP   1   20 2 48.87                             113    0.47 6  273 256 
 HEL  HE ES   2   20 3 18.99                             113   -0.53 4  273 256 
 URE  HZ EP   4   20 2 48.80                             112   -0.48 0  284 292 
 URE  HN ES   4   20 3 18.95                             112   -2.13 0  284 292 
 URE  HZ I        20 3 22.75        19.3 0.16            114            284 292 
 GUY2CHZ EP   4   20 2 52.59                             111    0.77 0  302 235 
 GUY2CHN ES   4   20 3 26.24                             111    0.63 0  302 235 
 GUY2CHZ I        20 3 33.76        14.0 0.56                           302 235 
 RREF HZ EP   4   20 2 55.47                             109    1.10 0  322 229 
 RREF HN ES   4   20 3 32.33                             109    2.18 0  322 229 
 RREF HZ I        20 3 36.38        14.3 0.30            111            322 229 
                                                                                
