 2017  912 2039  2.0 L   6.817 -72.934148.8  RSN  4 0.4 1.5LRSN                1
 GAP=259        1.05       7.3     8.9  8.3  0.1559E+02  0.1140E+02  0.7193E+01E
 Epicentro: CEPITA - SANTANDER                                                 3
 ACTION:UPD 17-10-05 19:11 OP:rebc STATUS:               ID:20170912203902 L   I
 OLDACT:REG 17-09-13 02:51 OP:dhb  STATUS:               ID:20170912203746     3
 2017-09-12-2038-00M.COL___455                                                 6
 STAT SP IPHASW D HRMM SECON CODA AMPLIT PERI AZIMU VELO AIN AR TRES W  DIS CAZ7
 BAR2 EZ EP       2039 22.41                             165    0.0310 37.0 228 
 BAR2 EZ ES       2039 37.49                             165   -0.7510 37.0 228 
 BAR2 EZ I        2039 38.54         5.1 0.21            161           37.0 228 
 BRR  HZ EP       2039 24.56                             146   -0.2210 91.7 291 
 BRR  HN ES       2039 43.05                             146    0.5410 91.7 291 
 BRR  HZ I        2039 46.69        12.6 0.53            143           91.7 291 
 RUS  HZ EP       2039 26.70                             143    0.4010  104 189 
 RUS  HN ES       2039 45.49                             143    0.2710  104 189 
 RUS  HZ I        2039 46.06         2.2 0.16            144            104 189 
 NOR  HZ EP       2039 39.69                             117   -0.46 8  255 237 
 NOR  HN ES       2040  9.88                             117    0.01 8  255 237 
 NOR  HZ I        2040 13.48         1.6 0.27            117            255 237 
                                                                                
