 2012  912 2125  0.8 L   6.783 -73.120140.9  RSN  5 0.2 1.8LRSN                1
 GAP=141        0.51       4.1     4.9  5.1 -0.2005E+01 -0.2782E+01  0.4842E+01E
 Epicentro: LOS SANTOS - SANTANDER                                             3
 ACTION:UPD 12-10-22 14:18 OP:ep   STATUS:               ID:20120912212500 L   I
 2012-09-12-2120-00M.COL___227                                                 6
 STAT SP IPHASW D HRMM SECON CODA AMPLIT PERI AZIMU VELO AIN AR TRES W  DIS CAZ7
 BAR2 SZ EP       2125 19.59                             171   -0.2110 22.2 198 
 BAR2 SZ ES   1   2125 34.57                             171   -0.07 7 22.2 198 
 BAR2 SZ I        2125 36.07        13.2 0.22                          22.2 198 
 GIR2 SZ EP       2125 19.65                             166   -0.2910 33.6 346 
 GIR2 SZ ES   3   2125 34.44                             166   -0.45 2 33.6 346 
 BRR  HZ EP       2125 21.58                             150   -0.0210 74.6 299 
 BRR  HN ES   1   2125 38.14                             150    0.29 7 74.6 299 
 BRR  HN I        2125 39.22        30.1 0.28                          74.6 299 
 PAM  SZ IP       2125 22.73                             150    0.2710 77.1  37 
 PAM  SZ I        2125 22.91         4.8 0.20                          77.1  37 
 PAM  SN ES   1   2125 39.35                             150   -0.02 7 77.1  37 
 RUS  HZ EP       2125 24.06                             143    0.1510 98.6 178 
 RUS  HN ES   3   2125 42.44                             143    0.49 2 98.6 178 
                                                                                
