 2010 1112 2201 27.8 L   6.908 -72.969140.6  RSN  4 0.4 1.5LRSN                1
 GAP=177        0.98       6.5    11.7 14.7 -0.2292E+02 -0.7224E+02  0.3153E+02E
 Epicentro: PIEDECUESTA - SANTANDER                                            3
 ACTION:UP  10-12-17 16:52 OP:REBC STATUS:               ID:20101112220127 L   I
 2010-11-12-2156-58S.COL___128                                                 6
 STAT SP IPHASW D HRMM SECON CODA AMPLIT PERI AZIMU VELO SNR AR TRES W  DIS CAZ7
 BTL  SZ EP       22 1 47.17                             167     0.110   33 272 
 BRR  HZ EP       22 1 48.82                             148    -0.510   85 285 
 BRR  HZ I        22 1 49.32        15.2 0.07                            85 285 
 BRR  HE ES   1   22 2  6.32                             148     0.3 7   85 285 
 GRA  SZ EP       22 1 51.26                             140     0.010  110  10 
 GRA  SZ ES   1   22 2  9.64                             140     0.0 7  110  10 
 GRA  SZ I        22 2 10.99         4.7 0.15                           110  10 
 RUS  HZ EP       22 1 52.51                             139     0.510  113 186 
 RUS  HN ES   2   22 2 10.07                             139    -0.8 5  113 186 
 RUS  HZ I        22 2 13.72         2.1 0.32                           113 186 
                                                                                
