 2014  612 2307  1.4 L   6.781 -73.145142.9  RSN  6 0.3 1.7LRSN                1
 GAP= 99        0.76       4.0     3.4  5.2 -0.8906E+00 -0.1160E+01  0.1608E+01E
 Epicentro: LOS SANTOS - SANTANDER                                             3
 ACTION:UPD 14-07-01 22:53 OP:nd   STATUS:               ID:20140612230701 L   I
 OLDACT:REG 14-06-13 05:40 OP:stll STATUS:               ID:20140612225820     3
 2014-06-12-2258-20M.COL___259                                                 6
 STAT SP IPHASW D HRMM SECON CODA AMPLIT PERI AZIMU VELO AIN AR TRES W  DIS CAZ7
 BAR2 SZ ES       23 7 35.32                             171   -0.3210 21.2 191 
 BAR2 SZ I        23 7 36.58         8.2 0.18            172           21.2 191 
 BRR  HZ EP       23 7 22.64                             152    0.3410 72.4 300 
 BRR  HN ES       23 7 39.07                             152    0.4710 72.4 300 
 BRR  HZ I        23 7 43.40         8.9 0.24            152           72.4 300 
 PAM  SZ EP       23 7 23.42                             150    0.0210 79.0  38 
 PAM  SN ES       23 7 40.30                             150   -0.2610 79.0  38 
 PAM  SZ I        23 7 42.28        15.2 0.46            151           79.0  38 
 RUS  HZ EP       23 7 24.75                             144    0.0410 98.4 176 
 RUS  HN ES       23 7 43.13                             144    0.2410 98.4 176 
 RUS  HZ I        23 7 44.75         6.8 0.40            146           98.4 176 
 PTB  HZ EP       23 7 27.69                             131   -0.42 9  147 260 
 PTB  HE ES       23 7 48.69                             131   -0.24 9  147 260 
 PTB  HZ I        23 7 51.29         7.5 0.22            132            147 260 
 TAM  HZ EP       23 7 28.85                             130    0.06 9  154 104 
 TAM  HZ I        23 7 29.38        11.2 0.42            133            154 104 
                                                                                
