 2016  912 2356 23.0 L   6.755 -73.127147.3  RSN  6 0.5 1.6LRSN                1
 GAP=141        1.18       5.9     5.3  7.9  0.3089E+01  0.1056E+02 -0.2285E+01E
 Epicentro: LOS SANTOS - SANTANDER                                             3
 ACTION:UPD 17-08-17 21:09 OP:lp   STATUS:               ID:20160912235623 L   I
 OLDACT:UP  16-09-13 04:23 OP:dani STATUS:               ID:20160912234730     3
 OLDACT:REG 16-09-13 02:54 OP:dani STATUS:               ID:20160912234730     3
 2016-09-12-2348-00M.COL___315                                                 6
 STAT SP IPHASW D HRMM SECON CODA AMPLIT PERI AZIMU VELO AIN AR TRES W  DIS CAZ7
 BAR2 EZ EP       2356 42.51                             172   -0.2510 19.0 199 
 BAR2 EZ ES       2356 58.24                             172    0.0810 19.0 199 
 BAR2 EZ I        2357  1.75         6.4 0.12            172           19.0 199 
 BRR  HZ EP       2356 44.52                             151   -0.0610 75.4 301 
 BRR  HN ES       2357  1.70                             151    0.3010 75.4 301 
 BRR  HZ I        2357  5.49         8.9 0.12            151           75.4 301 
 PAM  EZ EP       2356 45.40                             150   -0.1610 80.1  36 
 PAM  EE ES       2357  2.88                             150   -0.2710 80.1  36 
 RUS  HZ EP       2356 47.05                             146    0.4810 95.5 177 
 RUS  HE ES       2357  5.21                             146    0.2710 95.5 177 
 RUS  HZ I        2357  5.93         2.5 0.48            149           95.5 177 
 PTB  HZ EP       2356 49.43                             132   -0.79 9  149 261 
 PTB  HN ES       2357 10.65                             132   -0.78 9  149 261 
 PTB  HZ I        2357 12.91         5.8 0.13            133            149 261 
 ZAR  HZ EP       2356 56.66                             122    0.70 8  208 293 
 ZAR  HE ES       2357 22.30                             122    0.65 8  208 293 
 ZAR  HZ I        2357 27.30         5.5 0.37            124            208 293 
 SJC  HZ EP   4   2357 17.21                             106   -2.05 0  414 327 
                                                                                
