 2016  512 2038  0.2 L   6.782 -73.166135.5  RSN  5 0.3 1.9LRSN                1
 GAP=135        0.84       4.2     3.8  6.6 -0.3505E+00  0.1004E+02 -0.4654E+01E
 Epicentro: LOS SANTOS - SANTANDER                                             3
 ACTION:UPD 16-08-18 17:45 OP:cam  STATUS:               ID:20160512203800 L   I
 OLDACT:REG 16-05-13 02:44 OP:ar   STATUS:               ID:20160512203744     3
 2016-05-12-2037-44M.COL___313                                                 6
 STAT SP IPHASW D HRMM SECON CODA AMPLIT PERI AZIMU VELO AIN AR TRES W  DIS CAZ7
 BAR2 EZ EP       2038 18.53                             171   -0.0410 21.0 185 
 BAR2 EZ ES       2038 33.11                             171    0.2310 21.0 185 
 BAR2 EZ I        2038 34.32        25.3 0.14            173           21.0 185 
 PAM  EZ EP       2038 21.38                             148   -0.1710 80.4  40 
 PAM  EN ES       2038 38.01                             148   -0.1710 80.4  40 
 PAM  EZ I        2038 40.54        14.7 0.64            150           80.4  40 
 RUS  HZ EP       2038 23.14                             142    0.3010 98.8 175 
 RUS  HE ES       2038 40.55                             142    0.0710 98.8 175 
 RUS  HZ I        2038 41.71         5.6 0.22            146           98.8 175 
 PTB  HZ EP       2038 25.51                             130   -0.62 9  145 259 
 PTB  HN ES       2038 45.97                             130   -0.37 9  145 259 
 PTB  HZ I        2038 48.43        12.0 0.46            131            145 259 
 ZAR  HZ EP       2038 32.43                             120    0.55 9  203 293 
 ZAR  HN ES       2038 56.91                             120    0.34 9  203 293 
 ZAR  HZ I        2039  2.99        12.4 0.30            121            203 293 
                                                                                
