 2015 1012 2357  8.4 L   6.781 -73.121150.7  RSN  9 0.2 1.5LRSN                1
 GAP=141        0.50       2.0     2.8  3.6 -0.5282E+00  0.2051E+01  0.1744E+01E
 Epicentro: LOS SANTOS - SANTANDER                                             3
 ACTION:UPD 15-12-22 20:39 OP:cam  STATUS:               ID:20151012235708 L   I
 OLDACT:DUP 15-10-13 05:44 OP:spq  STATUS:               ID:20151012234750d    3
 2015-10-12-2347-49M.COL___331                                                 6
 STAT SP IPHASW D HRMM SECON CODA AMPLIT PERI AZIMU VELO AIN AR TRES W  DIS CAZ7
 BAR2 EZ EP   1   2357 28.32                             171   -0.23 7 21.9 198 
 BAR2 EZ ES   1   2357 44.43                             171    0.12 7 21.9 198 
 BAR2 EZ I        2357 44.61        10.7 0.12            170           21.9 198 
 BRR  HZ EP       2357 30.12                             152   -0.1110 74.6 299 
 BRR  HN ES       2357 47.67                             152    0.3810 74.6 299 
 BRR  HZ I        2357 50.09         3.1 0.46            150           74.6 299 
 PAM  EZ EP     C 2357 31.14                             152    0.0410 77.4  37 
 PAM  EN ES       2357 48.57                             152   -0.2710 77.4  37 
 PAM  EZ I        2357 50.72         4.1 0.60            153           77.4  37 
 RUS  HZ EP   1   2357 32.55                             145    0.11 7 98.3 178 
 RUS  HN ES       2357 51.31                             145    0.0910 98.3 178 
 RUS  HZ I        2357 52.09         3.5 0.26            146           98.3 178 
 SPBC HZ EP       2357 37.31                             130    0.06 9  163 220 
 SPBC HE ES   1   2357 59.45                             130   -0.33 7  163 220 
 SPBC HZ I        2358  1.94         6.6 0.28            129            163 220 
 ZAR  HN ES   1   2358  6.88                             123   -0.41 6  207 292 
 ZAR  HZ I        2358 11.57         3.5 0.42            122            207 292 
 SML  HE ES   2   2358 14.98                             118    0.34 4  247 335 
 SML  HZ I        2358 18.65         4.8 0.03            118            247 335 
 CHI  HZ EP       2357 46.36                             118    0.17 8  247 196 
 CHI  HN ES   1   2358 15.65                             118   -0.05 6  247 196 
 CHI  HZ I        2358 21.20         1.3 0.54            118            247 196 
 GUY2CHZ EP   4   2357 55.24                             113    2.93 0  302 235 
 GUY2CHE ES   1   2358 26.58                             113   -0.01 5  302 235 
 GUY2CHZ I        2358 33.21         1.3 0.34                           302 235 
                                                                                
