 2013  512 2312 37.7 L   6.763 -73.182146.0  RSN  5 0.2 1.8LRSN                1
 GAP=134        0.54       3.6     4.2  6.4  0.1184E+01 -0.8409E+01  0.7025E+00E
 Epicentro: VILLANUEVA - SANTANDER                                             3
 ACTION:UPD 13-06-20 09:49 OP:ep   STATUS:               ID:20130512231237 L   I
 2013-05-12-2310-00M.COL___256                                                 6
 STAT SP IPHASW D HRMM SECON CODA AMPLIT PERI AZIMU VELO AIN AR TRES W  DIS CAZ7
 BRR  HZ EP   1   2312 58.91                             153    0.16 7 69.9 303 
 BRR  HE ES       2313 15.41                             153    0.2010 69.9 303 
 BRR  HE I        2313 16.67        14.7 0.22            151           69.9 303 
 PAM  SZ EP       2313  0.02                             149   -0.2210 83.1  40 
 RUS  HZ EP   1   2313  1.49                             145    0.33 7 96.9 174 
 RUS  HN ES   1   2313 19.33                             145   -0.17 7 96.9 174 
 RUS  HN I        2313 21.53         3.7 0.48            143           96.9 174 
 PTB  HZ EP   1   2313  4.23                             133    0.01 7  143 260 
 PTB  HN ES   1   2313 24.53                             133   -0.41 7  143 260 
 PTB  HN I        2313 29.99         8.6 0.60            130            143 260 
 CHI  HN ES   2   2313 44.07                             118    0.25 4  244 195 
 CHI  HN I        2313 47.38         6.7 0.32            117            244 195 
                                                                                
