 2011  812 2148 55.9 L   6.748 -73.125151.5  RSN  4 0.2 1.8LRSN                1
 GAP=236        0.42       4.6     5.4  4.8  0.7683E+01  0.2243E+01  0.4888E+01E
 Epicentro: LOS SANTOS - SANTANDER                                             3
 ACTION:UPD 12-07-13 15:51 OP:ep   STATUS:               ID:20110812214855 L   I
 2011-08-12-2143-16S.COL___150                                                 6
 STAT SP IPHASW D HRMM SECON CODA AMPLIT PERI AZIMU VELO AIN AR TRES W  DIS CAZ7
 BAR2 SZ EP       2149 15.96                             173   -0.1710 18.4 200 
 BAR2 SZ ES   1   2149 31.77                             173   -0.13 7 18.4 200 
 BAR2 SZ I        2149 32.73        12.6 0.17                          18.4 200 
 BRR  HZ EP   1   2149 17.92                             152   -0.02 7 76.1 301 
 BRR  HZ I        2149 18.25        17.0 0.09                          76.1 301 
 BRR  HE ES   1   2149 35.31                             152    0.18 7 76.1 301 
 RUS  HZ EP   1   2149 19.95                             147    0.14 7 94.7 177 
 RUS  HN ES   2   2149 38.79                             147    0.33 5 94.7 177 
 RUS  HZ I        2149 39.88         5.9 0.50                          94.7 177 
 NOR  SZ EP   2   2149 32.12                             120    0.30 4  233 236 
 NOR  SN ES   2   2149 59.45                             120   -0.38 4  233 236 
                                                                                
