 2013  812 2332  4.8 L   6.657 -73.483108.7  RSN  7 0.5 1.6LRSN                1
 GAP=118        1.11       4.7     5.3 11.2  0.3374E+01  0.3258E+02  0.2038E+02E
 Epicentro: EL CARMEN DE CHUCURI - SANTANDER                                   3
 ACTION:UPD 14-01-14 09:01 OP:ep   STATUS:               ID:20130812233204 L   I
 OLDACT:REG 13-08-12 21:54 OP:carl STATUS:               ID:20130812232959     3
 2013-08-12-2329-59M.COL___270                                                 6
 STAT SP IPHASW D HRMM SECON CODA AMPLIT PERI AZIMU VELO AIN AR TRES W  DIS CAZ7
 GIR2 SZ EP   1   2332 21.55                             151    0.20 7 56.5  34 
 GIR2 SZ ES       2332 34.65                             151    0.4110 56.5  34 
 RUS  HZ EP   1   2332 24.12                             136   -0.58 7 95.4 152 
 RUS  HN ES   1   2332 39.86                             136   -0.34 7 95.4 152 
 RUS  HZ I        2332 42.59         2.4 0.28            137           95.4 152 
 PTB  HZ EP   1   2332 24.37                             131   -0.83 7  108 263 
 PTB  HN ES   1   2332 40.14                             131   -0.96 7  108 263 
 PTB  HZ I        2332 42.30         9.5 0.18            132            108 263 
 ZAR  HZ EP   1   2332 32.15                             117   -0.10 7  178 301 
 ZAR  HE ES       2332 53.87                             117    0.22 9  178 301 
 ZAR  HZ I        2332 58.14        10.3 0.34            118            178 301 
 NOR  HZ EP   1   2332 33.69                             114   -0.56 6  195 232 
 NOR  HE ES       2332 57.98                             114    0.78 9  195 232 
 NOR  HZ I        2333  3.67         4.8 0.18            115            195 232 
 CHI  HN ES   1   2333  4.71                             110    0.57 6  226 187 
 CHI  HN I        2333 10.14         9.6 0.26            112            226 187 
 GUY2CHZ EP       2332 42.79                             107    0.41 8  262 233 
 GUY2CHE ES       2333 11.72                             107    0.06 8  262 233 
 GUY2CHZ I        2333 19.94         2.8 0.30                           262 233 
                                                                                
