 2014 1012 2235 21.5 L   6.806 -73.141152.0  RSN 10 0.3 2.1LRSN                1
 GAP=137        0.83       2.3     3.6  5.0 -0.5225E+00  0.2520E+01  0.4405E+00E
 Epicentro: LOS SANTOS - SANTANDER                                             3
 ACTION:UPD 14-11-29 23:49 OP:nd   STATUS:               ID:20141012223521 L   I
 OLDACT:DUP 14-10-13 07:05 OP:cam  STATUS:               ID:20141012222817d    3
 2014-10-12-2228-16M.COL___287                                                 6
 STAT SP IPHASW D HRMM SECON CODA AMPLIT PERI AZIMU VELO AIN AR TRES W  DIS CAZ7
 BRR  HZ EP       2235 43.76                             154    0.3810 71.4 298 
 BRR  HN ES       2236  1.19                             154    0.7710 71.4 298 
 BRR  HZ I        2236  3.47        16.0 0.20            152           71.4 298 
 PAM  SZ EP       2235 44.68                             152    0.3010 76.5  40 
 PAM  SN ES       2236  2.11                             152   -0.0810 76.5  40 
 PAM  SZ I        2236  3.99        13.4 0.48            157           76.5  40 
 RUS  HZ EP       2235 45.70                             145   -0.2610  101 176 
 RUS  HE ES       2236  4.78                             145   -0.2210  101 176 
 PTB  HZ EP       2235 48.79                             133   -0.30 9  148 259 
 PTB  HN ES       2236 10.17                             133   -0.40 9  148 259 
 PTB  HZ I        2236 15.81        18.9 0.38            133            148 259 
 OCA  HZ EP       2235 50.15                             131   -0.15 9  160 353 
 OCA  HE ES       2236 12.40                             131   -0.32 9  160 353 
 OCA  HZ I        2236 16.92        13.0 0.42            134            160 353 
 SPBC HZ EP       2235 50.81                             130    0.20 9  164 219 
 SPBC HE ES       2236 13.37                             130    0.09 9  164 219 
 SPBC HZ I        2236 20.00        28.4 0.30            131            164 219 
 ZAR  HZ EP       2235 54.41                             124   -0.02 9  204 292 
 ZAR  HE ES       2236 20.10                             124    0.01 9  204 292 
 ZAR  HZ I        2236 26.34        17.7 0.52            125            204 292 
 SML  HZ EP       2235 58.59                             119    0.10 8  243 335 
 SML  HE ES       2236 26.82                             119   -0.49 8  243 335 
 SML  HZ I        2236 31.49        20.1 0.22            121            243 335 
 CHI  HZ EP       2236  0.05                             118    0.37 8  249 195 
 CHI  HN ES       2236 29.03                             118   -0.39 8  249 195 
 CHI  HZ I        2236 37.06         4.5 0.26            120            249 195 
 ROSC BZ EP   4   2236  1.11                             118    1.01 0  254 211 
 GUY2CHZ EP   1   2236  6.03                             113    0.49 5  302 235 
 GUY2CHN ES   4   2236 42.57                             113    2.71 0  302 235 
 GUY2CHZ I        2236 48.91         7.1 0.62                           302 235 
 RREF HZ EP   4   2236  6.10                             112   -1.96 0  323 229 
                                                                                
