 2010  712 2219  5.9 L   6.848 -73.467115.6  RSN  6 0.2 1.7LRSN                1
 GAP=153        0.42       3.0     4.4  5.3  0.3806E+01  0.2470E+01 -0.2481E+01E
 Epicentro: SAN VICENTE DE CHUCURI - SANTANDER                                 3
 ACTION:UPD 10-12-01 15:17 OP:pat  STATUS:               ID:20100712221905 L   I
 2010-07-12-2216-04S.COL___120                                                 6
 STAT SP IPHASW D HRMM SECON CODA AMPLIT PERI AZIMU VELO AIN AR TRES W  DIS CAZ7
 BRR  HZ EP   1   2219 22.30                             160     0.2 7   39 317 
 BRR  HZ I        2219 22.52        35.5 0.12                            39 317 
 BRR  HN ES   2   2219 34.83                             160     0.1 5   39 317 
 BAR2 SZ EP   2   2219 22.72                             159     0.1 5   42 132 
 BAR2 SZ ES   2   2219 35.35                             159    -0.3 5   42 132 
 BAR2 SZ I        2219 36.39        12.8 0.46                            42 132 
 RUS  HZ EP   1   2219 27.96                             133     0.0 7  114 158 
 RUS  HE ES   2   2219 45.26                             133     0.0 5  114 158 
 RUS  HZ I        2219 47.74         5.1 0.22                           114 158 
 BRI  SZ EP   2   2219 28.66                             130     0.4 5  121  38 
 GRA  SZ EP   2   2219 29.16                             127    -0.5 5  136  33 
 GRA  SZ ES   2   2219 48.13                             127     0.0 5  136  33 
 GRA  SZ I        2219 50.85        12.7 0.29                           136  33 
 MON  HZ EP   2   2219 49.96                             104    -0.3 3  322 312 
 MON  HE ES   2   2220 24.77                             104    -0.1 3  322 312 
 MON  HZ I        2220 27.04         1.2 0.20                           322 312 
                                                                                
