 2013  512 2226 53.9 L   6.788 -73.139148.4  RSN 22 0.4 3.3LRSN 3.5WRSN        1
 SPEC AVERAGE  MO 14.4 ST  2.1 OM  2.0 f0 3.35 R0.9160 AL 2.36 WI 26.5 MW  3.5 3
 SPEC SD       MO  0.3 ST  1.9 OM  0.4 f00.953 R0.2830 AL      WI      MW  0.2 3
 GAP= 55        0.85       2.5     2.6  4.7  0.7367E+00  0.7308E+00  0.8997E+00E
 Epicentro: LOS SANTOS - SANTANDER                                             3
 SPEC VIL SH Z MO 14.7 ST0.516 OM  2.0 f0 1.74 R1.6161 AL 1.58 WI 29.4 MW  3.7 3
 SPEC VIL SH Z T222735 K 0.000 GD  336 VP 7.60 DE 3.20 Q0300.0 QA 0.60 VS 4.20 3
 SPEC ZAR HH Z MO 14.2 ST  2.1 OM  1.6 f0 4.13 R0.6809 AL 2.11 WI 28.6 MW  3.4 3
 SPEC ZAR HH Z T222724 K 0.000 GD  253 VP 7.60 DE 3.20 Q0300.0 QA 0.60 VS 4.20 3
 SPEC ROSCBH Z MO 14.7 ST  1.6 OM  2.1 f0 2.46 R1.1431 AL 2.37 WI 29.3 MW  3.8 3
 SPEC ROSCBH Z T222732 K 0.000 GD  292 VP 7.60 DE 3.20 Q0300.0 QA 0.60 VS 4.20 3
 SPEC TAM HH Z MO 14.5 ST  1.9 OM  2.0 f0 3.13 R0.8984 AL 2.47 WI 18.8 MW  3.6 3
 SPEC TAM HH Z T222720 K 0.000 GD  213 VP 7.60 DE 3.20 Q0300.0 QA 0.60 VS 4.20 3
 SPEC RUS HH N MO 14.0 ST0.610 OM  1.6 f0 3.09 R0.9100 AL 2.19 WI 19.2 MW  3.3 3
 SPEC RUS HH N T222715 K 0.000 GD  178 VP 7.60 DE 3.20 Q0300.0 QA 0.60 VS 4.20 3
 SPEC PRA HH N MO 14.2 ST  3.2 OM  1.4 f0 4.72 R0.5958 AL 3.30 WI 40.7 MW  3.4 3
 SPEC PRA HH N T222745 K 0.000 GD  418 VP 7.60 DE 3.20 Q0300.0 QA 0.60 VS 4.20 3
 SPEC HEL HH N MO 14.2 ST0.660 OM  1.5 f0 2.85 R0.9867 AL 2.09 WI 29.9 MW  3.4 3
 SPEC HEL HH N T222733 K 0.000 GD  309 VP 7.60 DE 3.20 Q0300.0 QA 0.60 VS 4.20 3
 SPEC NOR HH N MO 14.5 ST  7.8 OM  1.9 f0 4.95 R0.5681 AL 2.76 WI 26.4 MW  3.6 3
 SPEC NOR HH N T222728 K 0.000 GD  277 VP 7.60 DE 3.20 Q0300.0 QA 0.60 VS 4.20 3
 SPEC COD HH N MO 14.0 ST0.658 OM  1.3 f0 3.10 R0.9071 AL 1.74 WI 35.8 MW  3.3 3
 SPEC COD HH N T222740 K 0.000 GD  380 VP 7.60 DE 3.20 Q0300.0 QA 0.60 VS 4.20 3
 SPEC PAM SH N MO 14.6 ST  2.4 OM  2.2 f0 3.13 R0.8984 AL 3.27 WI 14.3 MW  3.7 3
 SPEC PAM SH N T222716 K 0.000 GD  167 VP 7.60 DE 3.20 Q0300.0 QA 0.60 VS 4.20 3
 SPEC CHI HH Z MO 14.7 ST  1.5 OM  2.1 f0 2.44 R1.1525 AL 2.18 WI 28.0 MW  3.8 3
 SPEC CHI HH Z T222729 K 0.000 GD  289 VP 7.60 DE 3.20 Q0300.0 QA 0.60 VS 4.20 3
 SPEC BRR HH Z MO 14.1 ST  2.1 OM  1.7 f0 4.43 R0.6348 AL 2.30 WI 17.8 MW  3.3 3
 SPEC BRR HH Z T222713 K 0.000 GD  165 VP 7.60 DE 3.20 Q0300.0 QA 0.60 VS 4.20 3
 ACTION:UPD 13-06-20 09:49 OP:ep   STATUS:               ID:20130512222653 L   I
 OLDACT:UP  13-05-20 05:58 OP:CAM  STATUS:               ID:20130512222653 L   3
 2013-05-12-2220-00M.COL___256                                                 6
 STAT SP IPHASW D HRMM SECON CODA AMPLIT PERI AZIMU VELO AIN AR TRES W  DIS CAZ7
 BAR2 SZ EP       2227 13.88                             171    0.0810 22.1 193 
 BAR2 SZ ES   1   2227 29.40                             171    0.07 7 22.1 193 
 BAR2 SZ I        2227 31.70       226.3 0.46            166           22.1 193 
 GIR2 SZ EP       2227 13.99                             167    0.0910 32.8 349 
 BRR  HZ IP     C 2227 15.80                             152    0.4210 72.5 299 
 BRR  HN ES       2227 32.69                             152    0.5310 72.5 299 
 BRR  HN I        2227 33.49       441.8 0.30            146           72.5 299 
 PAM  SZ EP     C 2227 16.71                             151    0.3110 77.9  38 
 PAM  SN ES   2   2227 33.93                             151   -0.04 5 77.9  38 
 PAM  SN I        2227 35.14       360.9 0.50            152           77.9  38 
 RUS  HZ IP     D 2227 17.82                             145    0.0310 99.2 176 
 RUS  HN ES       2227 36.02                             145   -0.4110 99.2 176 
 RUS  HN I        2227 38.16       421.1 0.38            140           99.2 176 
 PTB  HZ EP   1   2227 20.77                             132   -0.33 7  148 259 
 PTB  HN ES   1   2227 41.94                             132   -0.40 7  148 259 
 PTB  HN I        2227 47.44       384.3 0.34            126            148 259 
 TAM  HZ IP     C 2227 22.07                             131    0.41 9  154 105 
 TAM  HE ES       2227 42.95                             131   -0.38 9  154 105 
 TAM  HE I        2227 45.03       158.6 0.58            130            154 105 
 OCA  HZ EP   1   2227 22.52                             130   -0.01 7  162 353 
 OCA  HN ES   1   2227 44.23                             130   -0.64 7  162 353 
 YOP  SZ EP   1   2227 24.46                             127    0.50 7  177 153 
 YOP  SN ES       2227 47.12                             127   -0.30 9  177 153 
 YOP  SN I        2227 51.62       262.9 0.34            124            177 153 
 ZAR  HZ EP   1   2227 26.50                             123   -0.12 6  205 292 
 ZAR  HN ES   1   2227 52.06                             123   -0.10 6  205 292 
 ZAR  HN I        2227 58.32       217.3 0.36            117            205 292 
 NOR  HZ EP   1   2227 29.73                             119   -0.01 6  235 235 
 NOR  HE I        2228  3.18       281.2 0.22            114            235 235 
 SML  HZ EP   1   2227 30.34                             118   -0.48 6  245 335 
 SML  HN ES   4   2227 58.91                             118   -0.72 0  245 335 
 SML  HN I        2228  3.27       244.7 0.28            114            245 335 
 CHI  HZ EP   1   2227 31.89                             118    0.29 6  248 195 
 CHI  HN ES   1   2228  1.03                             118    0.00 6  248 195 
 CHI  HN I        2228  3.79       122.3 0.32            113            248 195 
 ROSC BZ EP   1   2227 33.39                             117    1.33 6  252 211 
 ROSC BN ES   4   2228  4.67                             117    2.83 0  252 211 
 HEL  HZ EP   4   2227 35.34                             115    1.07 0  272 256 
 HEL  HN ES       2228  5.19                             115   -0.59 8  272 256 
 HEL  HN I        2228 13.50        71.2 0.30            111            272 256 
 URE  HZ EP   4   2227 33.85                             114   -1.36 0  285 292 
 URE  HN ES   4   2228  4.53                             114   -2.92 0  285 292 
 URE  HN I        2228 16.27       144.0 0.28            110            285 292 
 VIL  SZ EP   1   2227 36.95                             113   -0.33 5  302 192 
 VIL  SN ES       2228 11.41                             113    0.27 7  302 192 
 COD  HZ EP   4   2227 41.69                             109   -0.83 0  350 354 
 COD  HN ES   4   2228 19.11                             109   -1.35 0  350 354 
 COD  HN I        2228 24.85        49.1 0.36            106            350 354 
 SDV  BZ EP       2227 43.37                             109   -0.68 6  361  50 
 PRA  HZ EP   1   2227 46.98                             107   -0.42 4  391 210 
 PRA  HE ES   2   2228 28.10                             107   -1.04 3  391 210 
 PRA  HN I        2228 34.16        44.9 0.34            104            391 210 
 SJC  HZ EP   4   2227 48.10                             106   -1.61 0  411 327 
 SJC  HN ES   4   2228 28.87                             106   -4.39 0  411 327 
 SJC  HN I        2228 35.14        53.2 0.50            103            411 327 
 YOT  HZ EP   4   2227 56.52                             104   -0.44 0  472 229 
 SMAR HZ EP   4   2227 59.09                             103   -0.91 0  499 346 
 SMAR HE ES   4   2228 46.25                             103   -5.32 0  499 346 
 SMAR HE I        2228 51.51        34.8 0.30            100            499 346 
                                                                                
