 2012  112 2116  1.6 L   6.793 -73.213130.7  RSN  4 0.3 1.1LRSN                1
 GAP=129        0.59       5.0     6.9 13.2 -0.9262E+01  0.5434E+02 -0.5905E+01E
 Epicentro: ZAPATOCA - SANTANDER                                               3
 ACTION:UP  12-02-03 08:16 OP:REBC STATUS:               ID:20120112211601 L   I
 2012-01-12-2110-00M.COL___187                                                 6
 STAT SP IPHASW D HRMM SECON CODA AMPLIT PERI AZIMU VELO SNR AR TRES W  DIS CAZ7
 BRR  HZ EP   2   2116 21.38                             152     0.6 5   65 302 
 PAM  SZ EP       2116 22.47                             146    -0.110   83  43 
 PAM  SN ES   2   2116 38.96                             146     0.0 5   83  43 
 RUS  HZ EP       2116 24.10                             140     0.210  101 172 
 RUS  HN ES   2   2116 41.10                             140    -0.2 5  101 172 
 RUS  HZ I        2116 43.62         2.1 0.30                           101 172 
 PTB  HZ EP       2116 26.49                             130    -0.2 9  140 259 
 PTB  HZ I        2116 46.26         2.3 0.48                           140 259 
                                                                                
