 2014 1212 2232 55.3 L   6.710 -73.527110.5  RSN 11 0.4 2.3LRSN                1
 GAP= 56        0.93       2.0     3.3  5.3 -0.3720E+00  0.6137E+01 -0.2208E+00E
 Epicentro: EL CARMEN - SANTANDER                                              3
 ACTION:UPD 15-02-10 17:03 OP:nd   STATUS:               ID:20141212223255 L   I
 OLDACT:REG 14-12-13 10:12 OP:carl STATUS:               ID:20141212222747     3
 2014-12-12-2227-47M.COL___294                                                 6
 STAT SP IPHASW D HRMM SECON CODA AMPLIT PERI AZIMU VELO AIN AR TRES W  DIS CAZ7
 BAR2 EZ EP       2233 11.58                             159    0.3110 40.2 109 
 BAR2 EZ ES       2233 23.94                             159    0.1810 40.2 109 
 BAR2 EZ I        2233 24.88       110.3 0.46            158           40.2 109 
 BRR  HZ EP       2233 11.42                             155    0.1010 48.4 335 
 BRR  HN ES       2233 24.22                             155    0.3810 48.4 335 
 BRR  HZ I        2233 25.14        38.7 0.18            153           48.4 335 
 RUS  HZ IP     D 2233 16.12                             134    0.1810  103 151 
 RUS  HN ES       2233 31.91                             134   -0.1610  103 151 
 RUS  HZ I        2233 34.21        19.3 0.36            133            103 151 
 PTB  HZ IP     C 2233 14.59                             133   -0.8510  105 260 
 PTB  HN ES   4   2233 29.02                             133   -2.15 0  105 260 
 PTB  HZ I        2233 30.75        35.9 0.32            132            105 260 
 PAM  SZ EP       2233 16.97                             131   -0.0410  115  53 
 PAM  SN ES       2233 33.72                             131   -0.2610  115  53 
 PAM  SZ I        2233 37.05        22.2 0.20            129            115  53 
 SPBC HZ EP       2233 18.13                             126    0.0410  132 207 
 SPBC HN ES       2233 35.20                             126   -0.7010  132 207 
 OCA  HZ EP       2233 21.94                             118   -0.25 9  171   8 
 OCA  HN ES       2233 42.94                             118   -0.26 9  171   8 
 OCA  HZ I        2233 49.46        25.4 0.20            117            171   8 
 ZAR  HZ EP       2233 22.59                             118    0.58 9  171 301 
 ZAR  HN ES       2233 43.07                             118    0.20 9  171 301 
 ZAR  HZ I        2233 47.22        21.4 0.28            117            171 301 
 CHI  HZ EP       2233 29.41                             110    0.14 8  231 186 
 CHI  HN ES       2233 56.45                             110    0.65 8  231 186 
 CHI  HZ I        2234  2.94         8.8 0.34            109            231 186 
 SML  HZ EP       2233 29.76                             109    0.14 8  239 345 
 SML  HN ES       2233 56.35                             109   -0.08 8  239 345 
 SML  HZ I        2234  0.38        30.3 0.30            108            239 345 
 TOL  SN ES       2234 11.47                             104   -0.04 7  308 220 
 TOL  SZ I        2234 17.65        18.2 0.72            103            308 220 
                                                                                
