 2016  712 2307 47.0 L   6.822 -73.366123.4  RSN  4 0.3 1.3LRSN                1
 GAP=192        0.88       6.3     5.5  7.2  0.1705E+02  0.7787E+01  0.8739E+01E
 Epicentro: SAN VICENTE DE CHUCURI - SANTANDER                                 3
 ACTION:UPD 17-03-29 16:50 OP:lp   STATUS:               ID:20160712230747 L   I
 OLDACT:REG 16-07-13 03:46 OP:drio STATUS:               ID:20160712225759     3
 2016-07-12-2257-59S.COL___331                                                 6
 STAT SP IPHASW D HRMM SECON CODA AMPLIT PERI AZIMU VELO AIN AR TRES W  DIS CAZ7
 BAR2 EZ EP       23 8  4.11                             164   -0.1010 32.6 141 
 BAR2 EZ ES       23 8 17.05                             164   -0.5810 32.6 141 
 BAR2 EZ I        23 8 18.44        13.8 0.34            161           32.6 141 
 BRR  HZ EP       23 8  4.49                             157   -0.0610 49.5 310 
 BRR  HE ES       23 8 18.74                             157    0.5110 49.5 310 
 RUS  HZ EP       23 8  9.48                             137    0.2910  107 163 
 RUS  HE ES       23 8 26.79                             137    0.2910  107 163 
 RUS  HZ I        23 8 30.31         0.9 0.28            135            107 163 
 PTB  HZ EP       23 8  9.74                             132   -0.2910  125 256 
 PTB  HE ES       23 8 27.93                             132   -0.0710  125 256 
 PTB  HZ I        23 8 31.17         4.6 0.12            130            125 256 
                                                                                
