 2010  412 2350 11.3 L   6.814 -72.974147.2  RSN  5 0.2 2.1LRSN                1
 GAP=225        0.33       2.6     4.8  3.8 -0.3330E+01 -0.3455E+01  0.2763E+01E
 Epicentro: CEPITA - SANTANDER                                                 3
 ACTION:UP  10-08-24 09:58 OP:vdl  STATUS:               ID:20100412235011 L   I
 2010-04-12-2348-40S.COL___097                                                 6
 STAT SP IPHASW D HRMM SECON CODA AMPLIT PERI AZIMU VELO AIN AR TRES W  DIS CAZ7
 BAR2 SZ EP       2350 31.40                             166     0.010   34 223 
 BAR2 SZ ES   2   2350 47.02                             166     0.0 5   34 223 
 BRR  HZ EP       2350 33.73                             147     0.110   88 292 
 BRR  HZ I        2350 34.02        34.3 0.20                            88 292 
 BRR  HE ES   1   2350 51.06                             147     0.0 7   88 292 
 OCA  SZ EP   1   2350 39.87                             130    -0.1 7  162 346 
 OCA  SZ ES   2   2351  2.03                             130    -0.2 5  162 346 
 OCA  SZ I        2351  7.70        21.9 0.13                           162 346 
 RREF BZ EP   2   2350 59.77                             110     0.4 3  337 231 
 RREF BN ES   2   2351 36.54                             110    -0.2 3  337 231 
 RREF BZ I        2351 42.98         3.2 0.40                           337 231 
 PRA  HZ EP   1   2351  6.05                             106    -0.1 4  403 212 
 PRA  HE ES   2   2351 48.67                             106    -0.3 3  403 212 
 PRA  HZ I        2351 49.73         2.9 0.34                           403 212 
                                                                                
