 2010  712 2243 38.8 L   6.773 -73.120144.0  RSN  8 0.3 1.8LRSN                1
 GAP=159        0.63       4.2     6.6  6.4 -0.9736E+01 -0.4023E+01  0.6053E+01E
 Epicentro: LOS SANTOS - SANTANDER                                             3
 ACTION:UPD 10-12-01 15:17 OP:pat  STATUS:               ID:20100712224338 L   I
 2010-07-12-2242-04S.COL___120                                                 6
 STAT SP IPHASW D HRMM SECON CODA AMPLIT PERI AZIMU VELO AIN AR TRES W  DIS CAZ7
 BAR2 SZ ES   2   2244 13.03                             171    -0.2 5   21 199 
 BAR2 SZ I        2244 15.47        19.5 0.29                            21 199 
 GIR2 SZ EP   1   2243 58.01                             166    -0.3 7   35 347 
 GIR2 SZ ES   2   2244 13.75                             166     0.1 5   35 347 
 BRR  HZ IP     D 2243 59.69                             151    -0.310   75 300 
 BRR  HZ I        2243 59.96        21.4 0.16                            75 300 
 BRR  HE ES   1   2244 16.66                             151     0.2 7   75 300 
 RUS  HZ EP   1   2244  2.13                             144     0.0 7   97 178 
 RUS  HE ES   2   2244 20.51                             144     0.2 5   97 178 
 RUS  HZ I        2244 21.83         7.1 0.38                            97 178 
 BRI  SZ EP   1   2244  2.45                             141    -0.2 7  110  19 
 BRI  SZ ES   2   2244 21.72                             141     0.4 5  110  19 
 BRI  SZ I        2244 25.70         5.0 0.49                           110  19 
 GRA  SZ EP   2   2244  4.65                             136     0.6 5  128  16 
 GRA  SZ I        2244  6.11         7.7 0.28                           128  16 
 GRA  SZ ES   2   2244 24.20                             136     0.4 5  128  16 
 RREF HN ES   2   2245  1.41                             111     0.6 3  322 230 
 RREF HZ I        2245  7.55         3.5 0.33                           322 230 
 PRA  HZ EP   2   2244 32.36                             106     0.3 3  391 210 
 PRA  HE ES   2   2245 14.35                             106     0.7 3  391 210 
 PRA  HZ I        2245 22.17         3.4 0.28                           391 210 
                                                                                
