 2016 1212 2239 12.0 L   6.780 -73.114148.9  RSN  7 0.4 2.1LRSN                1
 GAP=142        0.90       3.6     4.1  5.6  0.1687E+01  0.5500E+01  0.3375E+01E
 Epicentro: LOS SANTOS - SANTANDER                                             3
 ACTION:UPD 17-01-11 20:14 OP:rebc STATUS:               ID:20161212223912 L   I
 OLDACT:REG 16-12-13 03:54 OP:dnl  STATUS:               ID:20161212223744     3
 2016-12-12-2238-00M.COL___390                                                 6
 STAT SP IPHASW D HRMM SECON CODA AMPLIT PERI AZIMU VELO AIN AR TRES W  DIS CAZ7
 BAR2 EZ EP       2239 31.64                             171   -0.3110 22.1 200 
 BAR2 EZ ES       2239 47.75                             171    0.2110 22.1 200 
 BAR2 EZ I        2239 49.11        55.6 0.84            168           22.1 200 
 BRR  HZ EP       2239 33.54                             152   -0.1510 75.3 299 
 BRR  HN ES       2239 50.01                             152   -0.6210 75.3 299 
 BRR  HZ I        2239 51.48        12.6 0.22            150           75.3 299 
 PAM  EZ EP       2239 34.58                             151    0.0810 77.0  36 
 PAM  EN ES       2239 52.17                             151    0.1010 77.0  36 
 PAM  EZ I        2239 53.35        13.1 0.22            156           77.0  36 
 RUS  HZ EP       2239 35.90                             145    0.0410 98.1 178 
 RUS  HN ES       2239 54.80                             145    0.3110 98.1 178 
 RUS  HZ I        2239 55.74        43.9 0.98            144           98.1 178 
 PTB  HZ EP       2239 38.84                             132   -0.63 9  151 260 
 PTB  HE ES       2240  1.08                             132    0.17 9  151 260 
 PTB  HZ I        2240  6.11        12.9 0.34            131            151 260 
 ZAR  HZ EP       2239 45.67                             122    0.63 8  208 292 
 ZAR  HN ES       2240 11.31                             122    0.48 8  208 292 
 ZAR  HZ I        2240 16.79        15.6 0.52            122            208 292 
 CHI  HZ EP       2239 49.85                             118    0.14 8  247 196 
 CHI  HN ES       2240 18.92                             118   -0.23 8  247 196 
 CHI  HZ I        2240 26.66         7.5 0.58            118            247 196 
                                                                                
