 2011  312 2350  9.6 L   6.811 -73.174136.0  RSN 11 0.3 2.5LRSN                1
 GAP=134        0.70       2.2     4.0  7.1 -0.1288E+01  0.1198E+02  0.1464E+01E
 Epicentro: LOS SANTOS - SANTANDER                                             3
 ACTION:UP  11-06-16 14:33 OP:jfem STATUS:               ID:20110312235009 L   I
 2011-03-12-2347-11S.COL___134                                                 6
 STAT SP IPHASW D HRMM SECON CODA AMPLIT PERI AZIMU VELO SNR AR TRES W  DIS CAZ7
 BAR2 SZ EP       2350 28.44                             169     0.310   24 183 
 BAR2 SZ I        2350 45.66        79.0 0.21                            24 183 
 RUS  HZ EP       2350 32.58                             141     0.010  102 174 
 RUS  HN ES   1   2350 50.39                             141     0.0 7  102 174 
 RUS  HZ I        2350 52.43        28.3 0.18                           102 174 
 GRA  SZ IP       2350 34.28                             135     0.310  126  19 
 GRA  SZ ES   1   2350 52.83                             135    -0.2 7  126  19 
 GRA  SZ I        2350 55.87        62.0 0.37                           126  19 
 OCA  SZ EP       2350 36.48                             128    -0.6 9  159 354 
 OCA  SZ ES   1   2350 58.83                             128     0.4 7  159 354 
 OCA  SZ I        2351  1.67        55.3 0.22                           159 354 
 YOP  SZ EP   1   2350 39.06                             124    -0.2 7  181 153 
 YOP  SN ES   1   2351  2.15                             124    -0.2 7  181 153 
 YOP  SZ I        2351  7.24        16.4 0.22                           181 153 
 NOR  SZ EP   1   2350 44.52                             117    -0.1 6  233 234 
 NOR  SE ES   1   2351 11.76                             117    -0.2 6  233 234 
 CHI  HZ EP   1   2350 47.00                             115     0.1 6  249 194 
 CHI  HN ES   1   2351 16.39                             115     0.5 6  249 194 
 CHI  HZ I        2351 22.92        14.8 0.57                           249 194 
 HEL  HZ EP   1   2350 49.49                             113     0.4 6  269 255 
 HEL  HN ES   1   2351 19.41                             113    -0.4 6  269 255 
 HEL  HZ I        2351 26.83        26.9 0.48                           269 255 
 VIL  SZ EP   1   2350 52.51                             110    -0.2 5  304 191 
 VIL  SN ES   2   2351 25.61                             110    -0.7 4  304 191 
 VIL  SZ I        2351 32.33        13.8 0.47                           304 191 
 DBB  SZ EP   1   2350 56.71                             108     0.3 5  336 274 
 PRA  HZ EP   1   2351  2.79                             105     0.0 4  391 209 
 PRA  HE ES   1   2351 44.25                             105     0.0 4  391 209 
                                                                                
