 2010  912 2340 56.5 L   6.770 -73.064150.6  RSN 10 0.3 2.2LRSN                1
 GAP=168        0.54       2.8     5.9  5.3 -0.6187E+01  0.6430E+01  0.1324E+01E
 Epicentro: LOS SANTOS - SANTANDER                                             3
 ACTION:UP  11-02-18 11:02 OP:tino STATUS:               ID:20100912234056 L   I
 2010-09-12-2338-21S.COL___120                                                 6
 STAT SP IPHASW D HRMM SECON CODA AMPLIT PERI AZIMU VELO SNR AR TRES W  DIS CAZ7
 BAR2 SZ IP     C 2341 16.70                             171    -0.110   24 214 
 BAR2 SZ ES   2   2341 32.63                             171     0.1 5   24 214 
 BAR2 SZ I        2341 33.48        26.1 0.70                            24 214 
 BRR  HZ EP   1   2341 18.63                             150    -0.1 7   81 298 
 BRR  HZ I        2341 18.91        51.2 0.14                            81 298 
 BRR  HE ES   2   2341 36.24                             150     0.1 5   81 298 
 RUS  HZ EP   1   2341 20.53                             146     0.0 7   97 181 
 RUS  HZ I        2341 22.20        12.3 0.46                            97 181 
 RUS  HN ES   2   2341 39.32                             146     0.1 5   97 181 
 GUE  SZ EP   1   2341 21.87                             140     0.0 7  118   7 
 GRA  SZ EP   1   2341 22.60                             138     0.3 7  127  13 
 GRA  SZ ES   2   2341 42.72                             138     0.4 5  127  13 
 GRA  SZ I        2341 44.44        19.9 0.35                           127  13 
 OCA  SZ EP   1   2341 25.33                             130    -0.3 7  165 350 
 OCA  SZ ES   2   2341 47.77                             130    -0.6 5  165 350 
 OCA  SZ I        2341 52.99        27.7 0.16                           165 350 
 CHI  HZ EP   1   2341 34.43                             118     0.0 6  248 197 
 CHI  HE ES   2   2342  3.14                             118    -0.9 4  248 197 
 CHI  HZ I        2342 11.88         6.2 0.30                           248 197 
 HEL  HZ EP   1   2341 38.02                             115     0.1 6  280 257 
 HEL  HZ I        2342 16.42         9.2 0.19                           280 257 
 RREF HZ EP   1   2341 43.98                             111     0.5 5  327 231 
 RREF HE ES   2   2342 20.12                             111     0.1 3  327 231 
 RREF HZ I        2342 25.17         9.4 0.14                           327 231 
 PRA  HZ EP   1   2341 50.30                             107    -0.1 4  394 211 
 PRA  HE ES   2   2342 32.73                             107     0.3 3  394 211 
 PRA  HZ I        2342 38.49         7.3 0.64                           394 211 
                                                                                
