 2012  112 2217 56.0 L   6.789 -73.144146.0  RSN  6 0.4 1.6LRSN                1
 GAP=137        0.85       6.9     7.0  9.7 -0.3602E+01  0.1113E+02  0.2151E+02E
 Epicentro: LOS SANTOS - SANTANDER                                             3
 ACTION:UP  12-02-03 08:16 OP:REBC STATUS:               ID:20120112221756 L   I
 2012-01-12-2210-00M.COL___187                                                 6
 STAT SP IPHASW D HRMM SECON CODA AMPLIT PERI AZIMU VELO SNR AR TRES W  DIS CAZ7
 BAR2 SZ EP   3   2218 15.22                             171    -0.5 2   22 191 
 BAR2 SZ I        2218 16.05         8.3 0.34                            22 191 
 BAR2 SZ ES   3   2218 30.50                             171    -0.5 2   22 191 
 GIR2 SZ EP   3   2218 15.99                             167     0.2 2   33 350 
 BRR  HZ EP       2218 17.56                             152     0.310   72 299 
 BRR  HN ES   1   2218 34.22                             152     0.4 7   72 299 
 BRR  HZ I        2218 37.30        23.7 0.36                            72 299 
 PAM  SZ EP       2218 18.48                             151     0.110   78  39 
 PAM  SN ES   1   2218 35.23                             151    -0.5 7   78  39 
 RUS  HZ EP       2218 19.85                             144     0.110   99 176 
 RUS  HE ES   2   2218 38.38                             144     0.2 5   99 176 
 RUS  HZ I        2218 40.18         2.5 0.28                            99 176 
 PTB  HZ EP       2218 22.43                             132    -0.6 9  148 259 
 PTB  HZ I        2218 50.90         3.9 0.32                           148 259 
                                                                                
