 2012  513 0812 31.4 L   6.796 -73.167141.7  RSN  7 0.4 1.9LRSN                1
 GAP=134        1.08       6.0     6.5  8.5 -0.1264E+01  0.1316E+02 -0.4262E+01E
 Epicentro: LOS SANTOS - SANTANDER                                             3
 ACTION:UP  12-07-05 12:04 OP:pat  STATUS:               ID:20120513081231 L   I
 2012-05-13-0810-00M.COL___195                                                 6
 STAT SP IPHASW D HRMM SECON CODA AMPLIT PERI AZIMU VELO SNR AR TRES W  DIS CAZ7
 BAR2 SZ IP        812 50.59                             171     0.010   23 184 
 BAR2 SZ ES   1    813  4.51                             171    -1.0 7   23 184 
 BAR2 SZ I         813  6.34        20.6 0.32                            23 184 
 BRR  HZ IP        812 52.41                             152     0.410   69 300 
 BRR  HN ES   1    813  9.01                             152     0.9 7   69 300 
 BRR  HZ I         813 10.12        23.8 0.44                            69 300 
 PAM  SZ EP        812 53.37                             149     0.010   79  41 
 PAM  SN ES   1    813 10.52                             149     0.1 7   79  41 
 RUS  HZ EP        812 54.92                             143     0.110  100 175 
 RUS  HN ES   2    813 13.45                             143     0.5 5  100 175 
 RUS  HZ I         813 14.33         6.7 0.22                           100 175 
 PTB  HZ EP        812 57.46                             132    -0.4 9  145 259 
 PTB  HN ES   2    813 18.35                             132    -0.1 5  145 259 
 PTB  HZ I         813 21.16         7.0 0.48                           145 259 
 OCA  HZ EP        812 59.16                             129    -0.3 9  160 354 
 OCA  HN ES   2    813 21.08                             129    -0.2 5  160 354 
 OCA  HZ I         813 24.17        19.0 0.14                           160 354 
 ZAR  HZ EP        813  3.62                             122     0.2 9  202 293 
 ZAR  HN ES   2    813 27.59                             122    -0.8 4  202 293 
 ZAR  HZ I         813 34.85        11.6 0.28                           202 293 
                                                                                
