 2011 1213 0328 12.7 L   6.488 -73.606107.6  RSN  5 0.1 1.3LRSN                1
 GAP=135        0.39       3.3     2.5  5.8  0.7996E+00 -0.1519E+01  0.3939E+01E
 Epicentro: SANTA HELENA DEL OPON - SANTANDER                                  3
 ACTION:UPD 12-07-13 16:15 OP:ep   STATUS:               ID:20111213032812 L   I
 2011-12-13-0320-00M.COL___186                                                 6
 STAT SP IPHASW D HRMM SECON CODA AMPLIT PERI AZIMU VELO AIN AR TRES W  DIS CAZ7
 BAR2 SZ EP        328 28.98                             154    0.1710 48.2  76 
 BAR2 SZ I         328 42.69        10.3 0.30                          48.2  76 
 BRR  HZ EP   1    328 29.76                             145   -0.02 7 69.4 350 
 BRR  HZ I         328 37.33         5.8 0.11                          69.4 350 
 BRR  HN ES   1    328 43.17                             145    0.08 7 69.4 350 
 GIR2 SZ EP   1    328 30.43                             141   -0.31 7 79.6  35 
 RUS  HZ EP   2    328 31.92                             138    0.05 5 87.7 139 
 RUS  HE ES   2    328 46.64                             138   -0.16 5 87.7 139 
 PTB  HZ EP        328 31.82                             135    0.0610 94.2 273 
 PTB  HN ES   1    328 46.49                             135   -0.11 7 94.2 273 
 PTB  HZ I         328 48.18         3.1 0.13                          94.2 273 
                                                                                
