 2014 1113 0959 24.1 L   6.811 -73.162138.0  RSN 17 0.5 2.5LRSN                1
 GAP= 70        1.11       3.1     3.3  5.3 -0.2138E+01  0.2862E+01  0.4347E+01E
 Epicentro: LOS SANTOS - SANTANDER                                             3
 ACTION:UPD 14-12-19 15:42 OP:nd   STATUS:               ID:20141113095924 L   I
 OLDACT:UP  14-11-13 18:38 OP:mh   STATUS:               ID:20141113095742     3
 OLDACT:UP  14-11-13 18:37 OP:mh   STATUS:               ID:20141113095742     3
 OLDACT:UP  14-11-13 18:35 OP:mh   STATUS:               ID:20141113095742     3
 OLDACT:REG 14-11-13 17:37 OP:mh   STATUS:               ID:20141113095742     3
 2014-11-13-0957-42M.COL___292                                                 6
 STAT SP IPHASW D HRMM SECON CODA AMPLIT PERI AZIMU VELO AIN AR TRES W  DIS CAZ7
 BAR2 SZ IP        959 43.05                             169    0.2710 24.3 185 
 BAR2 SZ ES        959 56.79                             169   -0.5910 24.3 185 
 BAR2 SZ I        10 0  0.13        61.9 0.20            169           24.3 185 
 BRR  HZ EP     C  959 44.82                             152    0.5710 69.0 298 
 BRR  HN ES       10 0  0.66                             152    0.6610 69.0 298 
 BRR  HZ I        10 0  5.52        48.2 0.24            150           69.0 298 
 PAM  SZ EP        959 46.02                             149    0.5410 77.6  41 
 PAM  SN ES       10 0  2.54                             149    0.3710 77.6  41 
 PAM  SZ I        10 0  3.23        63.6 0.20            148           77.6  41 
 RUS  HZ EP        959 47.09                             142   -0.0710  102 175 
 RUS  HN ES       10 0  5.47                             142    0.2910  102 175 
 RUS  HZ I        10 0  6.89        24.3 0.34            140            102 175 
 PTB  HZ EP        959 49.52                             130   -0.75 9  146 258 
 PTB  HN ES       10 0 10.63                             130   -0.07 9  146 258 
 PTB  HZ I        10 0 16.40        45.8 0.28            128            146 258 
 TAM  HZ EP        959 51.36                             128    0.02 9  157 105 
 TAM  HZ I        10 0 11.86        25.3 0.32            126            157 105 
 TAM  HN ES       10 0 12.33                             128   -0.28 9  157 105 
 OCA  HZ EP        959 50.78                             128   -0.87 9  159 354 
 OCA  HN ES       10 0 12.58                             128   -0.58 9  159 354 
 OCA  HZ I        10 0 16.02        40.7 0.28            126            159 354 
 SPBC HZ EP   1    959 52.04                             127    0.08 7  163 218 
 SPBC HN ES       10 0 13.26                             127   -0.46 9  163 218 
 SPBC HZ I        10 0 19.80        65.3 0.18            125            163 218 
 NOR  HZ EP        959 59.21                             117   -0.06 8  234 234 
 NOR  HN ES   1   10 0 26.55                             117   -0.18 6  234 234 
 NOR  HZ I        10 0 30.81        44.1 0.40            115            234 234 
 CHI  HZ EP       10 0  1.14                             115   -0.28 8  249 195 
 CHI  HN ES       10 0 30.36                             115   -0.20 8  249 195 
 CHI  HZ I        10 0 36.33        10.5 0.26            113            249 195 
 ROSC BZ EP   1   10 0  1.71                             115   -0.08 6  253 211 
 ROSC BN ES   4   10 0 33.63                             115    2.42 0  253 211 
 HEL  HZ EP       10 0  4.65                             113    0.92 8  271 255 
 HEL  HN ES   1   10 0 34.26                             113   -0.41 6  271 255 
 HEL  HZ I        10 0 41.33        19.2 0.30            111            271 255 
 URE  HZ EP   9   10 0  3.80                             112   -0.72 0  282 292 
 URE  HN ES       10 0 34.33                                   -1.03 7  282 292 
 TOL  SZ EP       10 0 12.46                             108    0.49 7  343 224 
 TOL  SN ES   1   10 0 50.28                             108    0.94 5  343 224 
 TOL  SZ I        10 0 54.92        32.0 0.36            106            343 224 
 MON  HZ EP   4   10 0 10.71                             107   -1.81 0  351 308 
 MON  HN ES   4   10 0 48.92                             107   -1.39 0  351 308 
 MON  HZ I        10 1  1.98         5.0 0.54            106            351 308 
 PRA  HZ EP   1   10 0 17.42                             105    0.07 4  392 209 
 PRA  HN ES       10 0 59.10                             105    0.19 6  392 209 
 PRA  HZ I        10 1  5.56        15.0 0.32            104            392 209 
 ORTC HZ EP       10 0 17.80                             105    0.08 6  395 216 
 ORTC HN ES       10 0 59.43                             105   -0.14 6  395 216 
 ORTC HZ I        10 1  6.76         6.8 0.64            103            395 216 
                                                                                
