 2012 1113 0136 55.5 L   6.763 -73.144150.1  RSN  6 0.3 1.4LRSN                1
 GAP=138        0.64       5.7     7.1  7.9  0.1322E+02 -0.1870E+02 -0.1389E+02E
 Epicentro: LOS SANTOS - SANTANDER                                             3
 ACTION:UPD 12-12-05 15:33 OP:}ep  STATUS:               ID:20121113013655 L   I
 2012-11-13-0130-00M.COL___230                                                 6
 STAT SP IPHASW D HRMM SECON CODA AMPLIT PERI AZIMU VELO AIN AR TRES W  DIS CAZ7
 BAR2 SZ ES   1    137 30.79                             172   -0.47 7 19.3 193 
 BAR2 SZ I         137 32.20        13.1 0.26                          19.3 193 
 GIR2 SZ EP   1    137 15.50                             166   -0.32 7 35.4 351 
 BRR  HZ EP   1    137 17.39                             152    0.13 7 73.4 301 
 BRR  HZ I         137 34.10         3.0 0.40                          73.4 301 
 BRR  HN ES   1    137 34.62                             152    0.41 7 73.4 301 
 PAM  SZ EP   1    137 18.51                             151    0.13 7 80.5  38 
 RUS  HZ EP   1    137 19.37                             146   -0.04 7 96.5 176 
 RUS  HN ES   1    137 38.40                             146    0.35 7 96.5 176 
 RUS  HZ I         137 38.83         2.3 0.34                          96.5 176 
 PTB  HE ES   2    137 43.58                             133   -0.48 5  147 260 
                                                                                
