 2010 1213 0757 54.1 L   7.505 -73.201142.0  RSN  7 0.3 1.7LRSN                1
 GAP=160        0.73       4.7    10.9  8.2  0.4123E+01  0.2645E+02  0.2382E+02E
 Epicentro: EL PLAYON - SANTANDER                                              3
 ACTION:UP  11-01-14 15:24 OP:pat  STATUS:               ID:20101213075754 L   I
 2010-12-13-0740-00M.COL___136                                                 6
 STAT SP IPHASW D HRMM SECON CODA AMPLIT PERI AZIMU VELO SNR AR TRES W  DIS CAZ7
 GIR2 SZ EP   1    758 14.32                             161     0.5 7   47 179 
 GRA  SZ IP        758 14.70                             156     0.210   61  46 
 GRA  SZ ES        758 30.37                             156     0.010   61  46 
 OCA  SZ EP        758 15.35                             148    -0.410   82 351 
 OCA  SZ ES   1    758 32.71                             148     0.1 7   82 351 
 BAR2 SZ EP   1    758 17.27                             143     0.1 7  101 179 
 BAR2 SZ ES   2    758 34.59                             143    -0.5 5  101 179 
 BAR2 SZ I         758 35.62        17.0 0.30                           101 179 
 RUS  HZ EP   1    758 24.01                             126    -0.3 7  179 176 
 RUS  HZ I         758 47.87         2.3 0.21                           179 176 
 YOP  SZ EP        758 31.45                             116    -0.2 8  253 160 
 YOP  SZ I         758 38.32         3.8 0.60                           253 160 
 CHI  HZ EP   2    758 40.80                             110     0.9 3  323 191 
 CHI  HE ES   2    759 16.05                             110     0.3 3  323 191 
 CHI  HZ I         759 23.55         2.9 0.61                           323 191 
                                                                                
