 2016  413 0403 25.4 L   6.128 -73.739111.7  RSN  5 0.4 1.2LRSN                1
 GAP=110        1.02       5.5     3.7  9.5 -0.4489E+01  0.4137E+01 -0.5610E+01E
 Epicentro: EL PENON - SANTANDER                                               3
 ACTION:UPD 16-05-05 14:20 OP:rebc STATUS:               ID:20160413040325 L   I
 OLDACT:UP  16-04-13 16:28 OP:mh   STATUS:               ID:20160413035748d    3
 OLDACT:DUP 16-04-13 16:22 OP:mh   STATUS:               ID:20160413035748d    3
 OLDACT:REG 16-04-13 13:15 OP:mh   STATUS:               ID:20160413035747     3
 2016-04-13-0357-47M.COL___309                                                 6
 STAT SP IPHASW D HRMM SECON CODA AMPLIT PERI AZIMU VELO AIN AR TRES W  DIS CAZ7
 SPBC HZ EP        4 3 42.47                             148   -0.1410 64.3 215 
 SPBC HE ES        4 3 55.89                             148   -0.1710 64.3 215 
 SPBC HZ I         4 3 57.30         4.9 0.18            150           64.3 215 
 RUS  HZ EP        4 3 43.64                             143   -0.4210 77.1 110 
 RUS  HN ES        4 3 58.58                             143   -0.0810 77.1 110 
 RUS  HZ I         4 3 59.44         1.3 0.20            147           77.1 110 
 BAR2 EZ EP        4 3 44.46                             142    0.5310 80.2  50 
 BAR2 EZ ES        4 3 58.73                             142    0.3010 80.2  50 
 BAR2 EZ I         4 4  0.08        10.1 0.08            145           80.2  50 
 PTB  HZ EP        4 3 44.15                             138   -0.3710 91.5 300 
 PTB  HN ES        4 3 59.16                             138   -0.3010 91.5 300 
 PTB  HZ I         4 4  2.04         1.7 0.23            139           91.5 300 
 NOR  HZ EP   4    4 3 53.55                             125    4.51 0  140 244 
 NOR  HN ES        4 4  8.24                             125    0.73 9  140 244 
 NOR  HZ I         4 4 10.00         4.5 0.19            127            140 244 
                                                                                
