 2017  313 0243 21.1 L   6.786 -73.168138.2  RSN  5 0.3 1.4LRSN                1
 GAP=134        0.88       5.0     5.0  7.3 -0.6686E+01  0.1203E+02 -0.5643E+01E
 Epicentro: LOS SANTOS - SANTANDER                                             3
 ACTION:UPD 17-05-25 18:39 OP:jn   STATUS:               ID:20170313024321 L   I
 OLDACT:REG 17-03-13 13:38 OP:cog  STATUS:               ID:20170313023728     3
 2017-03-13-0238-00M.COL___394                                                 6
 STAT SP IPHASW D HRMM SECON CODA AMPLIT PERI AZIMU VELO AIN AR TRES W  DIS CAZ7
 BAR2 HZ EP        243 39.83                             171    0.0510 21.5 184 
 BAR2 HZ ES        243 54.36                             171    0.0010 21.5 184 
 BRR  HZ EP        243 41.94                             152    0.5910 69.8 301 
 BRR  HN ES   4    243 58.97                             152    1.82 0 69.8 301 
 PAM  EZ EP        243 42.98                             148    0.2910 80.1  40 
 PAM  EN ES        243 59.15                             148   -0.3810 80.1  40 
 PAM  EZ I         244  2.22         4.2 0.46            152           80.1  40 
 RUS  HZ EP        243 43.59                             143   -0.4310 99.3 175 
 RUS  HN ES        244  2.18                             143    0.2910 99.3 175 
 RUS  HZ I         244  3.67         4.2 0.28            147           99.3 175 
 PTB  HZ EP        243 46.85                             131   -0.36 9  145 259 
 PTB  HN ES        244  7.46                             131   -0.11 9  145 259 
 PTB  HZ I         244 13.86         2.9 0.24            132            145 259 
                                                                                
