 2012  913 0550 41.9 L   6.685 -73.168146.2  RSN  4 0.2 1.8LRSN                1
 GAP=192        0.41       8.2     5.9  6.0  0.9862E+01 -0.8466E+01  0.5193E+01E
 Epicentro: VILLANUEVA - SANTANDER                                             3
 ACTION:UPD 12-10-22 14:18 OP:ep   STATUS:               ID:20120913055041 L   I
 2012-09-13-0550-00M.COL___227                                                 6
 STAT SP IPHASW D HRMM SECON CODA AMPLIT PERI AZIMU VELO AIN AR TRES W  DIS CAZ7
 BAR2 SZ EP   2    551  1.68                             176    0.28 5 10.4 189 
 BAR2 SZ ES   2    551 16.53                             176   -0.07 5 10.4 189 
 BAR2 SZ I         551 18.93        10.2 0.10                          10.4 189 
 GIR2 SZ EP   2    551  1.58                             162   -0.44 5 43.6 356 
 BRR  HZ EP        551  3.44                             151    0.0610 76.1 308 
 BRR  HN ES        551 20.16                             151    0.0310 76.1 308 
 BRR  HZ I         551 22.36        12.9 0.16                          76.1 308 
 PTB  HN ES   2    551 29.13                             133   -0.13 5  143 264 
                                                                                
