 2016  513 0859 32.5 L   7.594 -73.119146.8  RSN  6 0.3 1.6LRSN                1
 GAP=138        0.72       3.4     3.5  5.2 -0.8167E+00  0.5528E+01  0.3045E+00E
 Epicentro: EL PLAYON - SANTANDER                                              3
 ACTION:UPD 16-08-18 17:45 OP:cam  STATUS:               ID:20160513085932 L   I
 OLDACT:REG 16-05-13 12:38 OP:drio STATUS:               ID:20160513085743     3
 2016-05-13-0857-43M.COL___298                                                 6
 STAT SP IPHASW D HRMM SECON CODA AMPLIT PERI AZIMU VELO AIN AR TRES W  DIS CAZ7
 PAM  EZ EP        859 53.72                             159    0.0510 54.2 121 
 PAM  EE ES        9 0  9.99                             159   -0.1510 54.2 121 
 PAM  EZ I         9 0 10.31         5.9 0.22            163           54.2 121 
 OCA  HZ EP        859 54.06                             152   -0.1710 74.7 343 
 OCA  HN ES        9 0 11.09                             152   -0.0510 74.7 343 
 OCA  HZ I         9 0 12.67         9.5 0.14            152           74.7 343 
 BRR  HZ EP        859 54.98                             148    0.3610 84.7 231 
 BRR  HN ES        9 0 12.11                             148    0.2810 84.7 231 
 BRR  HZ I         9 0 13.33         9.1 0.70            147           84.7 231 
 BAR2 EZ EP        859 56.90                             141    0.0910  111 184 
 BAR2 EZ ES        9 0 15.70                             141   -0.0310  111 184 
 BAR2 EZ I         9 0 16.96         8.6 0.18            142            111 184 
 PTB  HZ EP        9 0  3.66                             125    0.20 9  188 232 
 PTB  HN ES        9 0 26.89                             125   -0.68 9  188 232 
 PTB  HZ I         9 0 29.95         2.6 0.26            125            188 232 
 ZAR  HZ EP        9 0  3.51                             124   -0.34 9  192 267 
 ZAR  HN ES        9 0 28.58                             124    0.31 9  192 267 
 ZAR  HZ I         9 0 33.56         4.6 0.26            124            192 267 
                                                                                
