 2014  613 0757  2.2 L   6.775 -73.149148.4  RSN 11 0.4 1.9LRSN                1
 GAP=200        0.92       3.8     4.6  6.1  0.4811E+01  0.6575E+01 -0.1153E+01E
 Epicentro: LOS SANTOS - SANTANDER                                             3
 ACTION:UPD 14-07-01 22:53 OP:nd   STATUS:               ID:20140613075702 L   I
 OLDACT:DUP 14-06-13 18:04 OP:mh   STATUS:               ID:20140613074809d    3
 2014-06-13-0748-08M.COL___256                                                 6
 STAT SP IPHASW D HRMM SECON CODA AMPLIT PERI AZIMU VELO AIN AR TRES W  DIS CAZ7
 BAR2 SZ EP   1    757 22.27                             172    0.14 7 20.5 190 
 BAR2 SZ ES        757 37.56                             172   -0.0910 20.5 190 
 RUS  HZ EP        757 26.05                             145   -0.0010 97.8 176 
 RUS  HN ES        757 45.04                             145    0.4110 97.8 176 
 RUS  HZ I         757 46.63         6.6 0.24            147           97.8 176 
 PTB  HZ EP        757 28.61                             133   -0.74 9  147 260 
 PTB  HN ES        757 49.79                             133   -0.70 9  147 260 
 PTB  HZ I         757 52.34         8.1 0.09            132            147 260 
 SPBC HZ EP        757 30.46                             130   -0.26 9  161 220 
 SPBC HN ES   1    757 52.74                             130   -0.19 7  161 220 
 SPBC HZ I         757 56.11        12.4 0.13            130            161 220 
 ZAR  HZ EP   1    757 34.85                             123   -0.08 6  205 293 
 ZAR  HN ES        758  0.76                             123    0.33 9  205 293 
 ZAR  HZ I         758  7.24         4.9 0.31            122            205 293 
 NOR  HN ES   1    758  6.28                             119    0.53 6  233 235 
 SML  HZ EP   1    757 38.79                             118   -0.48 6  246 336 
 SML  HE ES   1    758  8.92                             118    0.76 6  246 336 
 SML  HZ I         758 13.94         6.3 0.06            118            246 336 
 CHI  HZ EP        757 40.20                             118    0.42 8  246 195 
 CHI  HN ES        758  8.99                             118   -0.08 8  246 195 
 HEL  HN ES        758 14.36                             115    0.50 8  271 256 
 GUY2CHZ EP        757 46.07                             113    0.31 7  299 235 
 GUY2CHN ES   4    758 23.68                             113    3.98 0  299 235 
 GUY2CHZ I         758 27.59         2.6 0.29                           299 235 
 TOL  SZ EP   4    757 51.86                             110    1.51 0  341 225 
 TOL  SN ES   4    758 30.36                             110    2.49 0  341 225 
 TOL  SZ I         758 37.02         5.0 0.48            110            341 225 
                                                                                
