 2016  213 0929 14.3 L   6.831 -73.143147.1  RSN 19 0.5 2.2LRSN                1
 GAP=135        1.09       3.0     3.9  5.3 -0.3692E+01  0.8024E+01 -0.1728E+01E
 Epicentro: LOS SANTOS - SANTANDER                                             3
 ACTION:UPD 16-03-04 21:25 OP:rebc STATUS:               ID:20160213092914 L   I
 OLDACT:REG 16-02-13 14:22 OP:ak   STATUS:               ID:20160213092750     3
 2016-02-13-0927-50M.COL___304                                                 6
 STAT SP IPHASW D HRMM SECON CODA AMPLIT PERI AZIMU VELO AIN AR TRES W  DIS CAZ7
 BAR2 EZ EP        929 34.23                             169    0.0910 26.7 189 
 BAR2 EZ ES        929 49.61                             169   -0.0210 26.7 189 
 BAR2 EZ I         929 50.89        26.6 0.24            168           26.7 189 
 PAM  EZ EP     C  929 36.97                             152    0.4910 74.6  41 
 PAM  EN ES        929 54.33                             152    0.5510 74.6  41 
 PAM  EZ I         929 56.39        17.8 0.26            157           74.6  41 
 RUS  HZ EP        929 38.03                             143   -0.3810  104 176 
 RUS  HN ES        929 56.83                             143   -0.3910  104 176 
 RUS  HZ I         929 57.80        12.6 0.38            146            104 176 
 PTB  HZ EP        929 41.17                             132   -0.28 9  149 258 
 PTB  HN ES        930  1.91                             132   -0.73 9  149 258 
 PTB  HZ I         930  9.68        17.1 0.50            132            149 258 
 OCA  HZ EP        929 42.31                             130   -0.08 9  157 353 
 OCA  HN ES        930  4.35                             130    0.04 9  157 353 
 OCA  HZ I         930 11.14        32.9 0.16            133            157 353 
 SPBC HZ EP        929 43.08                             129   -0.07 9  166 218 
 SPBC HN ES        930  5.68                             129    0.01 9  166 218 
 SPBC HZ I         930 10.58        23.7 0.16            130            166 218 
 ZAR  HZ EP        929 46.66                             123   -0.06 9  203 291 
 ZAR  HN ES        930 11.97                             123   -0.05 9  203 291 
 ZAR  HZ I         930 17.98        22.4 0.30            124            203 291 
 NOR  HZ EP        929 50.43                             118    0.10 8  237 234 
 NOR  HN ES        930 18.08                             118   -0.37 8  237 234 
 NOR  HZ I         930 23.94        12.5 0.16            120            237 234 
 CHI  HZ EP        929 51.68                             117   -0.74 8  252 195 
 CHI  HN ES        930 22.09                             117   -0.07 8  252 195 
 CHI  HZ I         930 27.59         6.3 0.26            119            252 195 
 ROSC BZ EP   9    929 54.10                             117    1.29 0  256 211 
 ROSC BE ES        930 24.83                                    0.68 8  256 211 
 ROSC BZ I         930 29.27        14.5 0.35            118            256 211 
 HEL  HZ EP        929 55.92                             115    1.23 8  273 255 
 HEL  HN ES        930 26.11                             115   -0.10 8  273 255 
 HEL  HZ I         930 32.89         5.7 0.24            116            273 255 
 URE  HZ EP        929 54.77                             114   -0.54 7  283 291 
 URE  HN ES   4    930 25.34                             114   -1.98 0  283 291 
 URE  HZ I         930 27.96         8.7 0.06            115            283 291 
 SOCV BZ EP   4    929 55.69                             112   -1.46 0  299  57 
 SOCV BN ES   4    930 27.43                             112   -3.16 0  299  57 
 GUY2CHZ EP        929 57.86                             112   -0.35 7  303 234 
 GUY2CHN ES        930 33.26                             112    0.80 7  303 234 
 GUY2CHZ I         930 41.08        10.6 0.76                           303 234 
 LL6C HZ EP        929 59.72                             111    0.06 7  322 357 
 LL6C HN ES   4    930 36.28                             111    1.23 0  322 357 
 ELA  HZ EP   4    930  3.49                             110    2.02 0  332 229 
 ELA  HE ES        930 39.39                             110    1.11 7  332 229 
 ELA  HZ I         930 46.01         7.1 0.34            112            332 229 
 CBOC HZ EP        930  1.66                             110    0.25 7  335 252 
 CBOC HN ES        930 38.35                             110    0.18 7  335 252 
 ANIL HZ EP        930  5.37                             108    0.92 6  360 224 
 ANIL HE ES   4    930 45.60                             108    2.03 0  360 224 
 ANIL HZ I         930 48.28        17.1 0.42            110            360 224 
 ANIL HZ E         930 49.70                                            360 224 
 SJC  HZ EP        930  8.51                             106   -1.07 6  407 327 
 SJC  HE ES   4    930 48.84                             106   -3.87 0  407 327 
 SJC  HZ I         930 54.63         2.2 0.24            108            407 327 
 PAL  HZ EP        930  9.89                             106    0.16 6  408 239 
 PAL  HN ES   4    930 50.47                             106   -2.50 0  408 239 
 PAL  HZ I         931  2.22         2.9 0.38            107            408 239 
                                                                                
