 2011  313 0127  5.9 L   6.923 -73.302134.5  RSN  7 0.4 1.5LRSN                1
 GAP=161        0.92       4.8     6.2 10.0  0.8969E-01  0.2961E+02 -0.1611E+02E
 Epicentro: BETULIA - SANTANDER                                                3
 ACTION:UP  11-06-16 14:33 OP:jfem STATUS:               ID:20110313012705 L   I
 2011-03-13-0125-26S.COL___134                                                 6
 STAT SP IPHASW D HRMM SECON CODA AMPLIT PERI AZIMU VELO SNR AR TRES W  DIS CAZ7
 BAR2 SZ EP   2    127 24.53                             163    -0.1 5   39 160 
 BAR2 SZ ES   1    127 39.19                             163    -0.1 8   39 160 
 BAR2 SZ I         127 40.82        12.9 0.27                            39 160 
 RUS  HZ EP   1    127 29.48                             137    -0.4 8  117 168 
 RUS  HE ES   1    127 48.24                             137    -0.3 8  117 168 
 RUS  HZ I         127 49.16         3.3 0.34                           117 168 
 OCA  SZ EP        127 32.62                             130     0.610  146 359 
 OCA  SZ I         127 49.48         6.2 0.27                           146 359 
 NOR  SZ EP   1    127 40.36                             116    -0.1 7  230 229 
 NOR  SE ES   1    128  8.04                             116     0.6 7  230 229 
 NOR  SZ I         128 15.76         0.7 0.31                           230 229 
 CHI  HZ EP   1    127 43.95                             114    -0.1 6  258 191 
 CHI  HZ I         127 56.09         1.8 0.35                           258 191 
 HEL  HZ EP   1    127 44.26                             113     0.1 6  259 252 
 HEL  HE ES   1    128 14.07                             113     0.1 6  259 252 
 HEL  HZ I         128 21.81         2.3 0.25                           259 252 
 MON  HZ EP   1    127 51.70                             108    -0.2 5  331 308 
 MON  HN ES        128 27.11                             108    -0.7 7  331 308 
 MON  HZ I         128 34.38         1.6 0.44                           331 308 
                                                                                
