 2017  913 0529 56.7 L   6.233 -73.831  0.0  RSN  6 0.3 1.3LRSN                1
 GAP=165        0.88       1.8     2.8  5.3 -0.1766E+01 -0.3008E+01  0.6432E+00E
 Epicentro: LANDAZURI - SANTANDER                                              3
 ACTION:UPD 17-10-05 19:11 OP:rebc STATUS:               ID:20170913052956 L   I
 OLDACT:UP  17-09-13 19:15 OP:mg   STATUS:               ID:20170913052739     3
 OLDACT:REG 17-09-13 13:17 OP:mg   STATUS:               ID:20170913052739     3
 2017-09-13-0528-00M.COL___424                                                 6
 STAT SP IPHASW D HRMM SECON CODA AMPLIT PERI AZIMU VELO AIN AR TRES W  DIS CAZ7
 SPBC HZ EP        530  8.68                              47    0.2010 69.6 203 
 SPBC HN ES        530 17.93                              47    0.2510 69.6 203 
 SPBC HZ I         530 18.86        27.3 0.42             47           69.6 203 
 BAR2 EZ EP        530 10.70                              47    0.1910 82.0  61 
 BAR2 EZ ES        530 21.94                              47    0.6410 82.0  61 
 BAR2 EZ I         530 23.35         5.7 0.16             47           82.0  61 
 RUS  HZ EP     D  530 11.89                              47   -0.2410 91.0 114 
 RUS  HN ES        530 23.82                              47   -0.3710 91.0 114 
 RUS  HZ I         530 24.69        10.4 0.22             47           91.0 114 
 BRR  HZ EP     C  530 12.08                              47   -0.5310 97.5   8 
 BRR  HN ES        530 24.99                              47   -0.0610 97.5   8 
 BRR  HZ I         530 25.92        18.1 0.10             47           97.5   8 
 CHI  HZ EP        530 25.21                              47    0.02 9  178 176 
 CHI  HN ES   1    530 47.21                              47   -0.22 7  178 176 
 CHI  HZ I         530 51.95         1.1 0.32             47            178 176 
 ZAR  HZ EP   4    530 28.83                              37    3.77 0  180 321 
 ZAR  HE ES   4    530 44.73                              37   -2.47 0  180 321 
 ZAR  HZ I         530 49.13         2.1 0.26             37            180 321 
                                                                                
