 2017  213 0209 49.5 L   6.993 -73.211134.7  RSN  8 0.3 1.9LRSN                1
 GAP=128        1.23       5.4     4.9  7.5  0.1581E+01  0.9869E+01 -0.2266E+01E
 Epicentro: GIRON - SANTANDER                                                  3
 ACTION:UPD 17-05-24 15:35 OP:jn   STATUS:               ID:20170213020949 L   I
 OLDACT:UP  17-02-13 14:56 OP:edw  STATUS:               ID:20170213020749     3
 OLDACT:REG 17-02-13 11:33 OP:edw  STATUS:               ID:20170213020749     3
 2017-02-13-0208-00M.COL___352                                                 6
 STAT SP IPHASW D HRMM SECON CODA AMPLIT PERI AZIMU VELO AIN AR TRES W  DIS CAZ7
 BAR2 EZ IP     D  210  8.54                             160    0.1110 44.5 176 
 BAR2 EZ ES        210 23.03                             160   -0.1810 44.5 176 
 BAR2 EZ I         210 24.21        36.2 0.44            162           44.5 176 
 BRR  HZ IP     D  210  8.67                             156    0.0410 56.7 283 
 BRR  HN ES        210 23.70                             156    0.1310 56.7 283 
 BRR  HZ I         210 25.32        16.3 0.14            152           56.7 283 
 PAM  EZ EP        210 10.25                             151    0.2810 68.3  56 
 PAM  EN ES        210 25.71                             151   -0.2410 68.3  56 
 PAM  EZ I         210 27.43        13.7 0.20            153           68.3  56 
 RUS  HZ EP        210 14.40                             134    0.4710  123 173 
 RUS  HN ES        210 32.49                             134   -0.5110  123 173 
 RUS  HZ I         210 34.31         7.2 0.32            136            123 173 
 PTB  HZ EP   9    210 14.68                             129   -0.75 0  146 250 
 PTB  HN ES        210 33.62                             129   -1.31 9  146 250 
 PTB  HZ I         210 37.05         8.2 0.18            128            146 250 
 ZAR  HZ EP        210 19.68                             121   -0.07 9  190 287 
 ZAR  HN ES        210 43.31                             121   -0.05 9  190 287 
 ZAR  HZ I         210 48.53         7.0 0.26            120            190 287 
 NOR  HZ EP   4    210 24.30                             114   -1.10 0  242 229 
 NOR  HN ES        210 54.04                             114    0.61 8  242 229 
 NOR  HZ I         210 57.27         5.5 0.30            114            242 229 
 URE  HZ EP        210 27.72                             112   -0.70 8  270 288 
 URE  HN ES   4    210 57.15                             112   -1.65 0  270 288 
 URE  HZ I         211  6.47         3.9 0.14            111            270 288 
 PTGC HN ES   4    211  8.47                             107   -2.86 0  331 159 
 CBOC HZ EP   4    210 37.47                             107    1.48 0  334 248 
 CBOC HN ES   4    211 10.65                             107   -1.64 0  334 248 
 SJC  HZ EP   4    210 40.53                             104   -1.58 0  387 326 
 SJC  HN ES   4    211 19.89                             104   -3.27 0  387 326 
 PRA  HZ EP   4    210 52.65                             103    8.21 0  407 207 
 PRA  HN ES   4    211 29.07                             103    1.75 0  407 207 
                                                                                
