 2014  513 0939 20.7 L   6.834 -73.181143.3  RSN  6 0.4 1.7LRSN                1
 GAP=130        0.98       3.7     4.4  8.8 -0.1922E+01  0.1349E+02 -0.1015E+02E
 Epicentro: ZAPATOCA - SANTANDER                                               3
 ACTION:UPD 15-03-16 16:57 OP:nd   STATUS:               ID:20140513093920 L   I
 OLDACT:REG 14-05-13 14:46 OP:spq  STATUS:               ID:20140513093809     3
 2014-05-13-0938-09M.COL___245                                                 6
 STAT SP IPHASW D HRMM SECON CODA AMPLIT PERI AZIMU VELO AIN AR TRES W  DIS CAZ7
 PAM  SZ EP        939 42.88                             150    0.2310 77.2  44 
 PAM  SN ES        939 59.80                             150    0.0410 77.2  44 
 PAM  SZ I         940  1.86        13.4 0.50            156           77.2  44 
 RUS  HZ EP        939 44.59                             142    0.0710  105 174 
 RUS  HE ES        940  3.02                             142   -0.0710  105 174 
 PTB  HZ EP        939 46.84                             132   -0.36 9  145 257 
 PTB  HN ES        940  7.23                             132   -0.63 9  145 257 
 PTB  HZ I         940 12.91         4.0 0.18            133            145 257 
 SPBC HE ES        940 11.37                             128    0.18 9  164 217 
 SPBC HZ I         940 18.74         5.7 0.32            131            164 217 
 ZAR  HZ EP        939 52.85                             122    0.38 9  199 292 
 ZAR  HN ES        940 18.14                             122    0.89 9  199 292 
 ZAR  HZ I         940 24.39         5.3 0.16            124            199 292 
 SML  HZ EP        939 56.35                             117   -0.30 8  239 336 
 SML  HE ES        940 24.22                             117   -0.46 8  239 336 
 SML  HZ I         940 29.35         6.3 0.24            120            239 336 
                                                                                
