 2011  813 0958 56.0 L   6.812 -73.029138.6  RSN  4 0.2 1.5LRSN                1
 GAP=250        0.42       5.7     9.8  4.5  0.4277E+02 -0.5361E+01 -0.9060E+00E
 Epicentro: CEPITA - SANTANDER                                                 3
 ACTION:UPD 12-07-13 15:51 OP:ep   STATUS:               ID:20110813095856 L   I
 2011-08-13-0955-24S.COL___149                                                 6
 STAT SP IPHASW D HRMM SECON CODA AMPLIT PERI AZIMU VELO AIN AR TRES W  DIS CAZ7
 BAR2 SZ EP   1    959 14.84                             167   -0.11 7 29.6 215 
 BAR2 SZ ES   1    959 29.55                             167   -0.15 7 29.6 215 
 BAR2 SZ I         959 31.29         6.8 0.19                          29.6 215 
 BRR  HZ EP   1    959 16.96                             147   -0.13 7 82.2 293 
 BRR  HE ES   1    959 33.66                             147    0.15 7 82.2 293 
 BRR  HZ I         959 39.25         8.4 0.18                          82.2 293 
 RUS  HZ EP   1    959 19.51                             142    0.33 7  102 183 
 RUS  HN ES   1    959 37.19                             142   -0.04 7  102 183 
 RUS  HZ I         959 38.73         3.1 0.26                           102 183 
 PRA  HZ EP   1    959 50.05                             105   -0.16 4  400 211 
                                                                                
