 2014 1113 0822 10.1 L   6.809 -73.159147.0  RSN  9 0.6 1.5LRSN                1
 GAP=134        1.61       5.4     7.3  9.7 -0.1046E+02  0.1153E+02  0.1212E+02E
 Epicentro: LOS SANTOS - SANTANDER                                             3
 ACTION:UPD 14-12-19 15:42 OP:nd   STATUS:               ID:20141113082210 L   I
 OLDACT:ARG 14-11-13 12:06 OP:stll STATUS:               ID:20141113081741     3
 2014-11-13-0817-41M.COL___286                                                 6
 STAT SP IPHASW D HRMM SECON CODA AMPLIT PERI AZIMU VELO AIN AR TRES W  DIS CAZ7
 BAR2 SZ EP        822 30.28                             170    0.3810 24.1 186 
 BAR2 SZ ES        822 45.16                             170   -0.1910 24.1 186 
 BAR2 SZ I         822 46.93         6.9 0.28            171           24.1 186 
 BRR  HZ EP        822 32.32                             153    1.0310 69.4 298 
 BRR  HN ES        822 49.11                             153    1.2910 69.4 298 
 BRR  HZ I         822 54.42         5.6 0.20            151           69.4 298 
 PAM  SZ EP        822 33.01                             151    0.5410 77.6  41 
 PAM  SN ES        822 49.53                             151   -0.3810 77.6  41 
 PAM  SZ I         822 52.32         8.7 0.58            154           77.6  41 
 RUS  HZ EP        822 34.18                             144    0.1210  102 175 
 RUS  HN ES        822 52.54                             144   -0.2010  102 175 
 RUS  HZ I         822 55.62         3.5 0.42            148            102 175 
 PTB  HZ EP        822 37.17                             133    0.11 9  146 258 
 PTB  HN ES        822 57.79                             133   -0.29 9  146 258 
 PTB  HZ I         823  4.12         3.8 0.40            133            146 258 
 OCA  HN ES        822 58.89                             130   -1.59 9  159 354 
 OCA  HZ I         823  5.89         3.7 0.22            132            159 354 
 SPBC HZ EP        822 38.42                             129   -0.26 9  163 218 
 SPBC HE ES        823  0.54                             129   -0.43 9  163 218 
 SPBC HZ I         823  4.93         5.8 0.20            131            163 218 
 NOR  HZ EP        822 45.54                             119   -0.30 8  234 234 
 NOR  HN ES        823 13.30                             119   -0.41 8  234 234 
 NOR  HZ I         823 17.60         2.3 0.16            121            234 234 
 CHI  HZ EP        822 47.98                             117    0.05 8  249 195 
 CHI  HZ I         822 48.66         1.8 0.20            120            249 195 
 CHI  HN ES        823 17.30                             117   -0.14 8  249 195 
                                                                                
