 2013  313 0344 57.1 L   6.800 -73.142144.0  RSN 15 0.5 2.7LRSN                1
 GAP= 71        0.97       3.2     3.2  5.8  0.2770E+00  0.5111E+01  0.3611E+01E
 Epicentro: LOS SANTOS - SANTANDER                                             3
 ACTION:UPD 13-04-09 14:02 OP:ep   STATUS:               ID:20130313034457 L   I
 2013-03-13-0340-00M.COL___229                                                 6
 STAT SP IPHASW D HRMM SECON CODA AMPLIT PERI AZIMU VELO AIN AR TRES W  DIS CAZ7
 BAR2 SZ IP        345 16.40                             170   -0.0910 23.4 191 
 BAR2 SZ ES   1    345 31.27                             170   -0.37 7 23.4 191 
 BAR2 SZ I         345 32.29       239.8 0.26            168           23.4 191 
 BRR  HZ IP     C  345 18.25                             152    0.2010 71.6 298 
 BRR  HN ES   1    345 35.31                             152    0.90 7 71.6 298 
 BRR  HZ I         345 40.18        46.1 0.44            149           71.6 298 
 PAM  SZ EP     C  345 19.20                             151    0.1110 77.1  39 
 PAM  SN ES        345 36.35                             151    0.1010 77.1  39 
 PAM  SZ I         345 38.71        86.1 0.62            155           77.1  39 
 RUS  HZ EP        345 20.42                             144   -0.2310  101 176 
 RUS  HN ES   1    345 38.74                             144   -0.30 7  101 176 
 RUS  HZ I         345 39.88        47.4 0.24            145            101 176 
 PTB  HZ EP        345 23.11                             132   -0.82 9  148 259 
 PTB  HN ES   1    345 44.22                             132   -0.67 7  148 259 
 PTB  HE I         345 51.22        99.9 0.26            130            148 259 
 TAM  HZ IP     D  345 24.72                             130    0.14 9  155 105 
 TAM  HN ES   1    345 46.34                             130    0.31 7  155 105 
 TAM  HZ I         345 46.89        28.6 0.20            136            155 105 
 OCA  HZ EP        345 24.59                             129   -0.66 9  160 353 
 OCA  HN ES   1    345 47.54                             129    0.31 7  160 353 
 OCA  HZ I         345 49.78        58.2 0.20            131            160 353 
 ZAR  HZ EP        345 29.24                             122   -0.20 9  204 292 
 ZAR  HE ES        345 55.27                             122    0.58 9  204 292 
 ZAR  HZ I         346  0.47        69.9 0.46            122            204 292 
 SML  HZ EP   4    345 31.99                             117   -1.63 0  244 335 
 SML  HN ES   2    346  1.44                             117   -0.68 4  244 335 
 SML  HN I         346  9.17       139.4 0.10            118            244 335 
 CHI  HZ EP   1    345 35.59                             117    0.90 6  249 195 
 CHI  HN ES   1    346  4.60                             117    0.57 6  249 195 
 CHI  HN I         346  9.35        35.3 0.62            118            249 195 
 ROSC BZ EP   1    345 35.30                             116    0.18 6  253 211 
 ROSC BN ES   1    346  4.27                             116   -0.53 6  253 211 
 ROSC BZ I         346 13.04        21.3 0.30            117            253 211 
 HEL  HZ EP   1    345 38.01                             114    0.77 6  272 256 
 HEL  HN ES   1    346  9.35                             114    0.78 6  272 256 
 HEL  HZ I         346 16.73        17.7 0.48            115            272 256 
 URE  HZ I         346 20.30        23.3 0.14            114            284 292 
 DBB  SZ EP   1    345 44.17                             109   -0.36 5  340 274 
 DBB  SZ ES   1    346 21.22                             109   -0.32 5  340 274 
 PRA  HZ EP        345 50.50                             106   -0.06 6  392 210 
 PRA  HN ES   1    346 32.75                             106    0.47 4  392 210 
 PRA  HZ I         346 39.67        16.4 0.38            107            392 210 
                                                                                
