 2010  313 0521 52.5 L   6.798 -73.042145.8  RSN  9 0.3 1.8LRSN                1
 GAP=193        0.59       3.1     5.7  5.1  0.1081E+01  0.4814E+01  0.6890E+00E
 Epicentro: LOS SANTOS - SANTANDER                                             3
 ACTION:UP  10-08-24 09:53 OP:vdl  STATUS:               ID:20100313052152 L   I
 2010-03-13-0518-25S.COL___095                                                 6
 STAT SP IPHASW D HRMM SECON CODA AMPLIT PERI AZIMU VELO SNR AR TRES W  DIS CAZ7
 BAR2 SZ EP        522 12.31                             169     0.110   28 214 
 BAR2 SZ ES   1    522 27.00                             169    -0.6 7   28 214 
 BRR  HZ IP        522 14.09                             149    -0.210   82 295 
 BRR  HZ I         522 16.88        11.8 0.29                            82 295 
 BRR  HN ES   1    522 31.42                             149     0.2 7   82 295 
 RUS  HZ EP   1    522 16.22                             144     0.0 7  100 183 
 RUS  HE ES   1    522 35.16                             144     0.4 7  100 183 
 OCA  SZ EP   1    522 20.90                             129    -0.1 7  162 349 
 OCA  SZ ES   2    522 43.97                             129     0.7 5  162 349 
 OCA  SZ I         522 48.07         8.8 0.32                           162 349 
 CHI  HZ EP   2    522 30.57                             117     0.0 4  252 198 
 CHI  HE ES   2    523  0.36                             117     0.2 4  252 198 
 CHI  HZ I         523  8.36         1.8 0.31                           252 198 
 HEL  HZ EP   2    522 34.24                             114     0.3 4  283 256 
 HEL  HE ES   2    523  6.26                             114     0.0 4  283 256 
 HEL  HZ I         523 12.70         2.6 0.28                           283 256 
 RREF BZ EP   2    522 39.51                             110    -0.1 3  330 231 
 RREF BN ES   2    523 16.52                             110     0.1 3  330 231 
 RREF BZ I         523 21.19         3.0 0.28                           330 231 
 TOL  SZ EP   3    522 41.75                             109     0.1 2  351 226 
 PRA  HZ EP   2    522 46.03                             106    -0.6 3  398 211 
 PRA  HE ES   2    523 28.89                             106     0.0 3  398 211 
 PRA  HZ I         523 33.93         2.4 0.46                           398 211 
                                                                                
