 2011  913 0714  5.0 L   6.847 -73.030148.0  RSN  4 0.4 1.3LRSN                1
 GAP=252        0.64      14.8    15.4 13.6  0.1816E+03 -0.5686E+02 -0.8405E+02E
 Epicentro: CEPITA - SANTANDER                                                 3
 ACTION:UPD 12-07-13 15:57 OP:ep   STATUS:               ID:20110913071405 L   I
 2011-09-13-0700-00M.COL___171                                                 6
 STAT SP IPHASW D HRMM SECON CODA AMPLIT PERI AZIMU VELO AIN AR TRES W  DIS CAZ7
 BAR2 SZ EP   1    714 24.84                             167   -0.29 7 32.8 211 
 BAR2 SZ ES   2    714 40.39                             167   -0.44 5 32.8 211 
 BAR2 SZ I         714 42.54         4.0 0.37                          32.8 211 
 BRR  HZ EP   2    714 27.60                             150    0.65 5 80.6 291 
 BRR  HE ES   2    714 44.47                             150    0.41 5 80.6 291 
 BRR  HZ I         714 47.54         4.6 0.49                          80.6 291 
 RUS  HN ES   2    714 48.70                             143    0.36 5  106 183 
 RUS  HZ I         714 50.04         1.7 0.48                           106 183 
 ZAR  HE ES   2    715  4.41                             121   -0.46 4  214 290 
 ZAR  HZ I         715 11.10         1.7 0.12                           214 290 
                                                                                
