 2015  213 0648 46.0 L   6.815 -73.145140.0  RSN 21 0.4 2.3LRSN                1
 GAP= 71        0.98       2.3     2.7  4.2 -0.1285E+01  0.2934E+01  0.1639E+01E
 Epicentro: LOS SANTOS - SANTANDER                                             3
 ACTION:UPD 15-04-30 21:25 OP:nd   STATUS:               ID:20150213064846 L   I
 OLDACT:REG 15-02-13 12:47 OP:fm   STATUS:               ID:20150213064746     3
 2015-02-13-0647-46M.COL___290                                                 6
 STAT SP IPHASW D HRMM SECON CODA AMPLIT PERI AZIMU VELO AIN AR TRES W  DIS CAZ7
 BAR2 EZ IP     C  649  5.27                             169    0.3110 24.9 189 
 BAR2 EZ ES        649 19.46                             169   -0.3010 24.9 189 
 BAR2 EZ I         649 23.33        32.9 0.26            168           24.9 189 
 BRR  HZ IP     C  649  7.13                             152    0.6510 70.5 297 
 BRR  HE ES        649 23.02                             152    0.5610 70.5 297 
 BRR  HZ I         649 28.93        32.3 0.26            151           70.5 297 
 PAM  SZ EP        649  7.97                             150    0.4510 76.1  40 
 PAM  SE ES        649 24.50                             150    0.1910 76.1  40 
 PAM  SZ I         649 27.45        33.9 0.20            155           76.1  40 
 RUS  HZ EP        649  9.27                             142   -0.0310  102 176 
 RUS  HE ES        649 27.24                             142   -0.2410  102 176 
 RUS  HZ I         649 29.90        13.9 0.28            144            102 176 
 PTB  HZ EP        649 11.81                             130   -0.72 9  148 258 
 PTB  HN ES        649 32.35                             130   -0.87 9  148 258 
 PTB  HZ I         649 39.18        37.0 0.44            131            148 258 
 TAM  HZ EP        649 13.40                             129    0.14 9  156 106 
 TAM  HE ES        649 34.05                             129   -0.47 9  156 106 
 TAM  HZ I         649 34.20        17.8 0.40            134            156 106 
 OCA  HE ES        649 35.09                             128   -0.24 9  159 353 
 OCA  HZ I         649 41.24        18.6 0.18            131            159 353 
 SPBC HZ EP        649 14.11                             127   -0.07 9  164 219 
 SPBC HE ES        649 36.48                             127    0.32 9  164 219 
 SPBC HZ I         649 42.08        53.9 0.14            129            164 219 
 NOR  HZ EP        649 21.46                             117   -0.04 8  236 234 
 NOR  HN ES        649 48.91                             117   -0.28 8  236 234 
 NOR  HZ I         649 53.10        15.2 0.20            119            236 234 
 SML  HZ EP        649 22.18                             116    0.04 8  242 335 
 SML  HE ES        649 50.09                             116   -0.25 8  242 335 
 SML  HZ I         649 53.80        30.6 0.10            119            242 335 
 CHI  HZ EP        649 23.34                             116   -0.21 8  250 195 
 CHI  HN ES        649 52.53                             116   -0.31 8  250 195 
 CHI  HZ I         650  0.46         5.8 0.32            118            250 195 
 ROSC BZ EP        649 25.13                             115    1.17 8  254 211 
 ROSC BE ES        649 53.94                             115    0.37 8  254 211 
 ROSC BZ I         650  2.84        21.6 0.50            117            254 211 
 GUY2CHZ EP        649 29.85                             111    0.40 7  302 235 
 GUY2CHE ES   4    650  5.63                             111    2.29 0  302 235 
 GUY2CHZ I         650 12.09        18.5 0.74                           302 235 
 RREF HZ EP        649 32.54                             110    0.53 7  323 229 
 RREF HE ES   4    650 10.07                             110    2.16 0  323 229 
 RREF HZ I         650 17.88        12.5 0.44            111            323 229 
 CBOC HZ EP        649 33.11                             109    0.38 7  334 252 
 CBOC HE ES        650  9.15                             109   -0.04 7  334 252 
 CBOC HZ I         650 13.45         4.5 0.22            110            334 252 
 DBB  SZ EP        649 33.24                             108    0.01 7  339 274 
 DBB  SZ ES   1    650  9.86                             108   -0.21 5  339 274 
 TOL  SZ EP        649 34.13                             108   -0.03 7  345 224 
 TOL  SN ES        650 11.83                             108    0.10 7  345 224 
 TOL  SZ I         650 19.21        10.2 0.36            110            345 224 
 SDV  BZ EP        649 34.66                             107   -1.04 6  359  50 
 SDV  BE ES   4    650 10.79                             107   -3.68 0  359  50 
 SDV  BZ I         650 18.22         3.0 0.25            110            359  50 
 PRA  HZ EP        649 39.55                             105    0.06 6  393 209 
 PRA  HE ES        650 21.41                             105    0.20 6  393 209 
 PRA  HZ I         650 27.04         8.6 0.40            107            393 209 
 ORTC HZ EP        649 39.42                             105   -0.46 6  397 216 
 ORTC HE ES        650 21.98                             105    0.08 6  397 216 
 ORTC HZ I         650 29.95         7.2 0.60            107            397 216 
 PAL  HZ EP        649 40.52                             105   -0.55 6  407 239 
 PAL  HE ES        650 23.52                             105   -0.50 6  407 239 
 PAL  HZ I         650 34.07         3.7 0.32            106            407 239 
 URI  HZ EP   4    649 54.90                             100   -3.78 0  555  13 
                                                                                
