 2013  713 0820 18.2 L   6.805 -73.070144.6  RSN  4 0.6 1.3LRSN                1
 GAP=207        1.38       8.6    16.7 13.7  0.9194E+02 -0.6741E+02 -0.5139E+02E
 Epicentro: LOS SANTOS - SANTANDER                                             3
 ACTION:UPD 13-08-12 10:37 OP:ep   STATUS:               ID:20130713082018 L   I
 OLDACT:REG 13-07-13 09:46 OP:nd   STATUS:               ID:20130713081959     3
 2013-07-13-0819-59M.COL___266                                                 6
 STAT SP IPHASW D HRMM SECON CODA AMPLIT PERI AZIMU VELO AIN AR TRES W  DIS CAZ7
 BRR  HZ EP        820 40.26                             150    0.6610 78.4 295 
 BRR  HN ES        820 56.85                             150    0.5210 78.4 295 
 BRR  HZ I         821  1.22         3.7 0.12            150           78.4 295 
 RUS  HZ EP        820 42.38                             143    0.5610  101 181 
 RUS  HN ES        820 59.44                             143   -0.8310  101 181 
 RUS  HZ I         821  2.35         1.4 0.44            149            101 181 
 PTB  HZ EP        820 45.73                             130   -0.07 9  156 259 
 PTB  HN ES   2    821  6.64                             130   -0.72 5  156 259 
 PTB  HZ I         821 10.50         1.4 0.28            133            156 259 
 SML  HZ EP        820 54.65                             117   -0.40 8  247 333 
 SML  HN ES        821 23.12                             117   -0.71 8  247 333 
 SML  HZ I         821 30.22         4.2 0.26            119            247 333 
                                                                                
