 2015  113 0021 51.1 L   6.795 -73.173144.8  RSN  6 0.3 1.1LRSN                1
 GAP=133        0.75       3.3     3.8  5.5 -0.1406E+01  0.3050E+01  0.3113E+01E
 Epicentro: LOS SANTOS - SANTANDER                                             3
 ACTION:UPD 15-03-02 15:39 OP:nd   STATUS:               ID:20150113002151 L   I
 OLDACT:REG 15-01-13 12:36 OP:carl STATUS:               ID:20150113001745     3
 2015-01-13-0017-45M.COL___256                                                 6
 STAT SP IPHASW D HRMM SECON CODA AMPLIT PERI AZIMU VELO AIN AR TRES W  DIS CAZ7
 BAR2 EZ ES        022 25.19                             171   -0.6010 22.5 183 
 BRR  HZ EP        022 12.19                             153    0.2010 68.8 300 
 BRR  HN ES        022 28.60                             153    0.2910 68.8 300 
 BRR  HZ I         022 34.07         1.9 0.12            151           68.8 300 
 PAM  SZ EP        022 13.29                             150   -0.0510 79.7  41 
 PAM  SN ES        022 30.77                             150    0.0710 79.7  41 
 PAM  SZ I         022 32.62         2.6 0.50            154           79.7  41 
 RUS  HZ EP        022 14.59                             144   -0.1310  100 174 
 RUS  HN ES        022 33.59                             144    0.4410  100 174 
 RUS  HZ I         022 34.22         1.8 0.36            148            100 174 
 PTB  HZ EP        022 17.49                             132   -0.20 9  145 259 
 PTB  HN ES        022 38.38                             132   -0.07 9  145 259 
 PTB  HZ I         022 44.26         3.1 0.26            133            145 259 
 CHI  HN ES        022 57.86                             117    0.02 8  247 195 
                                                                                
