 2012  113 0234 30.9 L   6.763 -73.173144.1  RSN  6 0.3 1.6LRSN                1
 GAP=187        0.50       5.8     6.3  8.6  0.8620E+01  0.6163E+01  0.3008E+02E
 Epicentro: LOS SANTOS - SANTANDER                                             3
 ACTION:UP  12-02-03 08:17 OP:REBC STATUS:               ID:20120113023430 L   I
 2012-01-13-0230-00M.COL___187                                                 6
 STAT SP IPHASW D HRMM SECON CODA AMPLIT PERI AZIMU VELO SNR AR TRES W  DIS CAZ7
 BAR2 SZ EP   2    234 49.68                             172    -0.6 5   19 183 
 GIR2 SZ ES   2    235  6.16                             166     0.4 5   35 356 
 BRR  HZ EP   1    234 52.06                             152     0.2 7   71 303 
 BRR  HN ES   2    235  7.91                             152    -0.3 5   71 303 
 PTB  HZ EP   2    234 57.08                             132    -0.4 5  144 260 
 PTB  HN ES   2    235 18.00                             132    -0.1 5  144 260 
 ZAR  HN ES   2    235 28.55                             122     0.3 4  203 294 
 ZAR  HZ I         235 33.94         3.3 0.52                           203 294 
 CHI  HZ EP   1    235  8.23                             117     0.2 6  244 195 
 CHI  HE ES   2    235 37.13                             117     0.2 4  244 195 
                                                                                
