 2017  513 0852 58.9 L   6.781 -73.125135.6  RSN  4 0.3 0.7LRSN                1
 GAP=140        0.56       3.3     4.2  7.2  0.2695E-01  0.1720E+02  0.2385E+01E
 Epicentro: LOS SANTOS - SANTANDER                                             3
 ACTION:UPD 17-06-16 13:35 OP:jn   STATUS:               ID:20170513085258 L   I
 OLDACT:REG 17-05-13 13:22 OP:osc  STATUS:               ID:20170513084751     3
 2017-05-13-0848-00M.COL___315                                                 6
 STAT SP IPHASW D HRMM SECON CODA AMPLIT PERI AZIMU VELO AIN AR TRES W  DIS CAZ7
 PAM  EZ EP        853 19.83                             149   -0.2110 77.6  37 
 PAM  EN ES        853 36.69                             149    0.1510 77.6  37 
 PAM  EZ I         853 37.34         0.6 0.15            154           77.6  37 
 RUS  HZ EP        853 21.42                             142   -0.0710 98.4 177 
 RUS  HN ES   1    853 39.03                             142   -0.08 7 98.4 177 
 RUS  HZ I         853 40.89         0.7 0.05            146           98.4 177 
 PTB  HZ EP   1    853 25.82                             129    0.60 7  150 260 
 PTB  HN ES   3    853 45.64                             129   -0.11 2  150 260 
 ZAR  HZ EP   1    853 31.03                             120    0.04 6  207 292 
 ZAR  HE ES   1    853 55.71                             120   -0.32 6  207 292 
 ZAR  HZ I         854  0.73         0.7 0.10            121            207 292 
                                                                                
