 2016 1113 0631  2.6 L   6.322 -73.587113.1  RSN 16 0.5 1.8LRSN                1
 GAP= 59        1.06       3.1     2.8  6.3 -0.2003E+01  0.2013E+01  0.7287E+01E
 Epicentro: SANTA HELENA DEL OPON - SANTANDER                                  3
 ACTION:UPD 17-10-26 21:07 OP:lp   STATUS:               ID:20161113063102 L   I
 OLDACT:UP  16-11-13 19:28 OP:and  STATUS:               ID:20161113062744     3
 OLDACT:UP  16-11-13 19:25 OP:and  STATUS:               ID:20161113062744     3
 OLDACT:UP  16-11-13 19:19 OP:and  STATUS:               ID:20161113062744     3
 OLDACT:REG 16-11-13 13:10 OP:and  STATUS:               ID:20161113062744     3
 2016-11-13-0628-00M.COL___340                                                 6
 STAT SP IPHASW D HRMM SECON CODA AMPLIT PERI AZIMU VELO AIN AR TRES W  DIS CAZ7
 BAR2 EZ IP     D  631 19.61                             153    0.0410 53.8  56 
 BAR2 EZ ES        631 32.89                             153    0.0810 53.8  56 
 BAR2 EZ I         631 33.83        32.5 0.44            153           53.8  56 
 BRR  HZ EP        631 21.28                             139   -0.2910 87.9 351 
 BRR  HN ES        631 36.24                             139   -0.1310 87.9 351 
 BRR  HZ I         631 43.13        10.5 0.12            133           87.9 351 
 PTB  HZ EP   9    631 21.35                             135   -1.17 0 99.2 284 
 PTB  HN ES        631 36.42                             136   -0.4710 99.2 284 
 PTB  HZ I         631 39.52        18.4 0.08            128           99.2 284 
 PAM  EZ EP        631 27.86                             123   -0.03 9  149  41 
 PAM  EN ES        631 48.38                             123    0.76 9  149  41 
 PAM  EZ I         631 52.13         6.4 0.46            120            149  41 
 NOR  HZ EP        631 29.06                             120    0.11 9  165 239 
 NOR  HN ES        631 49.52                             120    0.01 9  165 239 
 NOR  HZ I         631 53.81        14.7 0.16            115            165 239 
 ROSC BE ES   4    631 56.85                             117    3.13 0  183 206 
 ROSC BZ I         632  2.05         6.3 0.40            113            183 206 
 CHI  HZ EP        631 30.56                             116   -1.32 9  188 185 
 CHI  HN ES        631 54.90                             116    0.18 9  188 185 
 CHI  HZ I         631 59.45         3.3 0.28            113            188 185 
 ZAR  HZ EP        631 31.39                             116   -0.31 9  191 313 
 ZAR  HN ES        631 54.53                             116    0.12 9  191 313 
 ZAR  HZ I         632  1.54        14.1 0.23            111            191 313 
 TAM  HZ EP        631 32.66                             115    0.03 9  199  86 
 TAM  HE ES        631 55.89                             115   -0.17 9  199  86 
 ELA  HZ EP   4    631 42.65                             108    2.73 0  258 231 
 ELA  HN ES   4    632 11.15                             108    2.11 0  258 231 
 ELA  HZ I         632 16.53         2.9 0.29            105            258 231 
 URE  HZ EP   4    631 43.23                             107    2.91 0  267 306 
 URE  HZ I         632 10.41        12.6 0.10            103            267 306 
 CBOC HZ EP        631 41.69                             107    0.43 8  273 259 
 CBOC HN ES        632 11.18                             107   -0.24 8  273 259 
 CBOC HZ I         632 13.67         2.1 0.32            103            273 259 
 PTGC HZ EP   2    631 41.85                             106   -0.54 4  285 145 
 PTGC HN ES   4    632 11.77                             106   -1.66 0  285 145 
 PRA  HZ EP        631 46.60                             104   -0.28 7  322 207 
 PRA  HN ES   4    632 23.30                             104    1.88 0  322 207 
 PRA  HZ I         632 27.97         3.8 0.20            100            322 207 
 ORTC HZ EP        631 48.28                             103    1.20 7  324 215 
 ORTC HN ES        632 22.29                             103    0.51 7  324 215 
 ORTC HZ I         632 29.88         2.0 0.22            100            324 215 
 SJC  HZ EP        632  0.13                              98    0.04 5  433 336 
 SJC  HN ES   4    632 41.81                              98   -3.12 0  433 336 
                                                                                
