 2015  413 0110  6.5 L   6.815 -73.160148.4  RSN  8 0.4 2.0LRSN                1
 GAP=134        1.07       3.9     4.6  7.7 -0.1250E+00  0.6315E+01 -0.5466E+01E
 Epicentro: LOS SANTOS - SANTANDER                                             3
 ACTION:UPD 15-06-03 16:54 OP:cam  STATUS:               ID:20150413011006 L   I
 OLDACT:REG 15-04-13 13:06 OP:carl STATUS:               ID:20150413010750     3
 2015-04-13-0107-50M.COL___266                                                 6
 STAT SP IPHASW D HRMM SECON CODA AMPLIT PERI AZIMU VELO AIN AR TRES W  DIS CAZ7
 BAR2 EZ EP        110 26.42                             170   -0.0910 24.8 186 
 BRR  HZ IP     C  110 28.20                             154    0.3610 69.0 298 
 BRR  HN ES        110 45.27                             154    0.8010 69.0 298 
 BRR  HZ I         110 49.00        16.5 0.28            152           69.0 298 
 PAM  SZ EP        110 29.29                             151    0.2810 77.1  41 
 PAM  SN ES        110 46.08                             151   -0.4710 77.1  41 
 PAM  SZ I         110 47.69        10.8 0.16            155           77.1  41 
 RUS  HZ EP        110 30.84                             144    0.1710  102 175 
 RUS  HN ES        110 49.40                             144   -0.1010  102 175 
 RUS  HZ I         110 50.59         5.7 0.26            147            102 175 
 PTB  HZ EP        110 33.31                             133   -0.29 9  147 258 
 PTB  HN ES        110 53.91                             133   -0.81 9  147 258 
 PTB  HZ I         110 56.65        10.6 0.18            133            147 258 
 SPBC HN ES        110 57.69                             130    0.02 9  164 218 
 SPBC HZ I         111  5.81        12.1 0.34            131            164 218 
 ZAR  HZ EP        110 39.44                             123    0.51 9  202 292 
 ZAR  HN ES        111  4.39                             123    0.18 9  202 292 
 ZAR  HZ I         111 10.42        18.2 0.36            124            202 292 
 SML  HZ EP        110 42.63                             118   -0.44 8  242 335 
 SML  HN ES        111 11.22                             118   -0.35 8  242 335 
 SML  HZ I         111 18.30        12.5 0.10            120            242 335 
                                                                                
