 2012 1113 0342  0.4 L   6.791 -73.117143.3  RSN  7 0.3 1.3LRSN                1
 GAP=141        0.62       3.4     4.6  6.4  0.2592E+01  0.2899E+01 -0.1389E+01E
 Epicentro: LOS SANTOS - SANTANDER                                             3
 ACTION:UPD 12-12-05 15:33 OP:}ep  STATUS:               ID:20121113034200 L   I
 2012-11-13-0340-00M.COL___230                                                 6
 STAT SP IPHASW D HRMM SECON CODA AMPLIT PERI AZIMU VELO AIN AR TRES W  DIS CAZ7
 BAR2 SZ EP   1    342 19.66                             170   -0.05 7 23.1 198 
 BAR2 SZ ES   1    342 34.63                             170   -0.16 7 23.1 198 
 BAR2 SZ I         342 35.92         9.8 0.24                          23.1 198 
 GIR2 SZ EP   1    342 19.68                             166   -0.12 7 32.9 345 
 BRR  HZ EP   1    342 21.40                             151   -0.05 7 74.5 298 
 BRR  HN ES   1    342 38.54                             151    0.65 7 74.5 298 
 BRR  HZ I         342 42.72         4.4 0.14                          74.5 298 
 PAM  SZ EP   1    342 22.53                             151    0.27 7 76.2  37 
 PAM  SE ES   1    342 39.35                             151    0.02 7 76.2  37 
 RUS  HZ EP   1    342 24.11                             144    0.31 7 99.4 178 
 RUS  HN ES   1    342 41.73                             144   -0.34 7 99.4 178 
 RUS  HZ I         342 43.00         1.6 0.28                          99.4 178 
 OCA  HE ES   1    342 50.27                             129   -0.40 7  162 352 
 ZAR  HN ES   1    342 58.16                             121   -0.30 6  207 292 
                                                                                
