 2011 1013 0238 22.4 L   6.059 -73.700114.5  RSN 25 0.5 3.9LRSN                1
 GAP= 61        0.95       2.3     3.1  6.1 -0.3001E+01  0.5780E+01 -0.3199E-01E
 Epicentro: BOLIVAR - SANTANDER                                                3
 Evento sentido                                                                2
 Reportado como sentido en:                                                    3
 FLORIDABLANCA, SANTANDER, SOCORRO (BUCARAMANGA)                               3
 ACTION:UPD 12-07-13 16:03 OP:ep   STATUS:               ID:20111013023822 L   I
 2011-10-13-0237-36S.COL___171                                                 6
 STAT SP IPHASW D HRMM SECON CODA AMPLIT PERI AZIMU VELO AIN AR TRES W  DIS CAZ7
 RUS  HZ IP     C  238 41.02                             146    0.0410 70.8 105 
 RUS  HZ I         238 41.48      2069.3 0.27                          70.8 105 
 RUS  HN ES   1    238 54.66                             146   -0.78 7 70.8 105 
 BAR2 SZ IP        238 41.80                             142    0.3610 82.2  44 
 BAR2 SZ ES   1    238 56.52                             142    0.26 7 82.2  44 
 BAR2 SZ I         238 58.54      5153.5 0.33                          82.2  44 
 BTL  SZ EP        238 43.83                             134    0.4110  106  27 
 BRR  HZ IP     C  238 44.03                             131    0.0810  116 359 
 BRR  HN ES   1    239  0.70                             131   -0.02 7  116 359 
 BRR  HZ I         239  8.94      1236.1 0.10                           116 359 
 GIR2 SZ EP        238 45.46                             128    0.3910  126  26 
 GIR2 SZ ES   1    239  2.22                             128   -0.51 7  126  26 
 NOR  SZ EP   1    238 45.55                             125   -0.83 7  141 247 
 NOR  SN ES   1    239  4.71                             125   -0.35 7  141 247 
 ROSC BZ IP     D  238 48.53                             123    0.62 9  151 207 
 ROSC BN ES   1    239  8.64                             123    0.87 7  151 207 
 ROSC BZ I         239 17.08       966.5 0.42                           151 207 
 CHI  HZ IP     D  238 48.42                             122   -0.21 9  158 181 
 CHI  HN ES   1    239  8.46                             122   -0.61 7  158 181 
 CHI  HZ I         239 14.55       685.0 0.34                           158 181 
 YOP  SZ EP        238 49.13                             121    0.51 9  162 119 
 YOP  SZ I         239 12.03       796.4 0.22                           162 119 
 PAM  SZ EP        238 51.03                             118    0.01 9  180  38 
 PAM  SE ES   1    239 12.35                             118   -0.96 7  180  38 
 PAM  SZ I         239 18.68       483.1 0.33                           180  38 
 HEL  HZ EP   1    238 52.94                             115   -0.45 6  203 274 
 HEL  HZ I         239 23.39       727.1 0.40                           203 274 
 ZAR  HZ EP   1    238 52.39                             114   -0.63 6  204 321 
 ZAR  HE ES   1    239 16.69                             114   -0.19 6  204 321 
 ZAR  HZ I         239 21.81      1561.0 0.35                           204 321 
 BRI  SZ EP   1    238 54.22                             114    0.42 6  209  29 
 BRI  SZ ES   1    239 18.43                             114    0.17 6  209  29 
 GUY  SZ EP   1    238 54.20                             114    0.02 6  209 244 
 GUY  SN ES   1    239 19.35                             114    0.42 6  209 244 
 GUY  SZ I         239 22.48      1710.7 0.34                           209 244 
 GUE  SZ EP   1    238 54.56                             113    0.02 6  214  24 
 VIL  SZ EP   1    238 54.21                             113   -0.26 6  215 180 
 VIL  SN ES   1    239 19.12                             113   -0.33 6  215 180 
 VIL  SZ I         239 27.27       478.6 0.44                           215 180 
 RREF HZ EP        238 55.46                             112   -0.50 8  223 235 
 RREF HN ES   1    239 22.67                             112    0.55 6  223 235 
 RREF HZ I         239 28.62       733.5 0.31                           223 235 
 TOL  SZ EP        238 57.74                             110   -0.06 8  242 228 
 OCA  SZ EP        238 58.27                             110    0.43 8  245  10 
 OCA  SZ I         239 32.89      1113.3 0.15                           245  10 
 PRA  HZ EP   1    239  1.99                             106   -1.04 5  291 207 
 PRA  HN ES   1    239 35.50                             106    0.81 5  291 207 
 DBB  SZ EP        239  4.02                             105    0.19 7  297 291 
 PAL  HZ EP   1    239  5.11                             104   -0.61 5  313 246 
 PAL  HZ I         239  9.31       193.0 0.06                           313 246 
 MARA HZ EP   1    239 19.80                              99   -0.70 4  435 215 
 MARA HZ I         239 20.57       116.5 0.19                           435 215 
 SDV  BZ EP   1    239 22.72                              98   -0.80 4  461  47 
 SOTA HZ EP        239 33.45                              96   -0.13 4  541 217 
                                                                                
