 2016  813 0008 19.7 L   6.766 -73.137148.7  RSN 10 0.5 2.2LRSN                1
 GAP=121        1.24       5.2     5.3  7.9  0.1645E+01  0.8855E+01  0.1094E+02E
 Epicentro: LOS SANTOS - SANTANDER                                             3
 ACTION:UPD 16-10-29 15:34 OP:rebc STATUS:               ID:20160813000819 L   I
 OLDACT:UP  16-08-13 13:32 OP:dani STATUS:               ID:20160813000014     3
 OLDACT:REG 16-08-13 12:07 OP:dani STATUS:               ID:20160813000014     3
 2016-08-13-0000-14S.COL___349                                                 6
 STAT SP IPHASW D HRMM SECON CODA AMPLIT PERI AZIMU VELO AIN AR TRES W  DIS CAZ7
 BRR  HZ EP     C  0 8 41.54                             152    0.2110 73.9 301 
 BRR  HE ES        0 8 58.93                             152    0.7410 73.9 301 
 BRR  HZ I         0 9  0.74        17.3 0.14                          73.9 301 
 PAM  EE ES        0 8 59.96                             150   -0.1010 79.7  37 
 RUS  HZ EP        0 8 43.90                             145    0.4110 96.8 176 
 RUS  HN ES        0 9  1.63                             145   -0.4010 96.8 176 
 RUS  HZ I         0 9  3.87        12.2 0.20                          96.8 176 
 PTB  HZ EP        0 8 46.27                             133   -0.68 9  148 260 
 PTB  HE ES        0 9  7.63                             133   -0.56 9  148 260 
 PTB  HZ I         0 9 13.41        18.8 0.40                           148 260 
 SPBC HZ EP        0 8 48.77                             130    0.54 9  161 220 
 SPBC HN ES        0 9 10.48                             130    0.02 9  161 220 
 SPBC HZ I         0 9 13.52        42.6 0.26                           161 220 
 ZAR  HZ EP        0 8 51.95                             123   -0.65 8  206 293 
 ZAR  HE ES        0 9 18.04                             123   -0.20 8  206 293 
 ZAR  HZ I         0 9 24.81        17.2 0.30                           206 293 
 NOR  HZ EP        0 8 55.88                             119    0.41 8  233 235 
 NOR  HE ES        0 9 23.26                             119   -0.10 8  233 235 
 NOR  HZ I         0 9 27.01        10.6 0.52                           233 235 
 HEL  HZ EP   4    0 9  2.19                             115    2.10 0  272 257 
 HEL  HE ES   4    0 9 30.46                             115   -1.11 0  272 257 
 HEL  HZ I         0 9 38.14         9.9 0.32                           272 257 
 GUY2CHZ EP        0 9  4.35                             113    1.04 7  300 235 
 GUY2CHE ES   4    0 9 38.88                             113    1.57 0  300 235 
 GUY2CHZ I         0 9 45.94         7.8 0.66                           300 235 
 PTGC HZ EP        0 9  2.51                             112   -0.76 7  305 159 
 PTGC HN ES   4    0 9 35.87                             112   -1.37 0  305 159 
 PTGC HZ I         0 9 45.43         6.4 0.25                           305 159 
                                                                                
