 2010  913 0540 22.3 L   6.193 -74.209 32.1  RSN  5 0.4 1.4LRSN                1
 GAP=119        1.02       5.9     3.6 18.4 -0.4811E+01  0.6281E+00 -0.7489E+01E
 Epicentro: CIMITARRA - SANTANDER                                              3
 ACTION:UP  11-02-18 11:02 OP:tino STATUS:               ID:20100913054022 L   I
 2010-09-13-0538-07S.COL___120                                                 6
 STAT SP IPHASW D HRMM SECON CODA AMPLIT PERI AZIMU VELO SNR AR TRES W  DIS CAZ7
 BRR  HZ EP        540 39.68                              61     0.110  115  28 
 BRR  HZ I         540 40.18        10.5 0.11                           115  28 
 BRR  HE ES   2    540 52.64                              61    -0.4 5  115  28 
 BAR2 SZ EP        540 41.14                              61     0.510  122  69 
 BAR2 SZ ES   2    540 54.79                              61    -0.2 5  122  69 
 BAR2 SZ I         540 57.34        10.3 0.29                           122  69 
 RUS  HZ EP        540 41.68                              61    -0.210  129 105 
 RUS  HZ I         540 41.90         8.9 0.10                           129 105 
 RUS  HN ES   1    540 56.63                              61    -0.5 7  129 105 
 HEL  HZ EP   2    540 43.71                              61    -0.1 5  146 270 
 HEL  HE ES   1    541  0.07                              61    -0.6 7  146 270 
 HEL  HZ I         541  1.92         3.8 0.29                           146 270 
 RREF HZ EP        540 50.22                              61     0.5 9  191 221 
 RREF HZ I         541 13.96         2.2 0.40                           191 221 
                                                                                
