 2015  213 0854 44.3 L   6.787 -73.191140.0  RSN 11 0.5 1.7LRSN                1
 GAP=131        1.19       3.2     5.0  6.6 -0.2633E+01  0.9028E+01  0.1790E+01E
 Epicentro: ZAPATOCA - SANTANDER                                               3
 ACTION:UPD 15-04-30 21:25 OP:nd   STATUS:               ID:20150213085444 L   I
 OLDACT:REG 15-02-13 12:52 OP:fm   STATUS:               ID:20150213084747     3
 2015-02-13-0847-47M.COL___287                                                 6
 STAT SP IPHASW D HRMM SECON CODA AMPLIT PERI AZIMU VELO AIN AR TRES W  DIS CAZ7
 BAR2 EZ EP        855  3.52                             171    0.2810 21.5 177 
 BAR2 EZ ES        855 17.38                             171   -0.6010 21.5 177 
 BAR2 EZ I         855 19.37        13.7 0.34            169           21.5 177 
 BRR  HZ EP        855  5.26                             153    0.6010 67.6 302 
 BRR  HE ES        855 20.79                             153    0.2810 67.6 302 
 BRR  HZ I         855 25.81         9.3 0.42            151           67.6 302 
 PAM  SZ EP        855  6.40                             148    0.1810 81.8  42 
 PAM  SE ES        855 22.79                             148   -0.5010 81.8  42 
 PAM  SZ I         855 25.36        14.0 0.52            154           81.8  42 
 RUS  HZ EP        855  7.85                             142    0.3910 99.6 173 
 RUS  HE ES        855 25.23                             142   -0.2610 99.6 173 
 RUS  HZ I         855 28.07         2.9 0.18            145           99.6 173 
 PTB  HZ EP        855 10.41                             131    0.05 9  143 259 
 PTB  HN ES        855 29.98                             131   -0.68 9  143 259 
 PTB  HZ I         855 38.36         5.8 0.56            131            143 259 
 SPBC HZ EP        855 12.74                             128    0.75 9  159 218 
 SPBC HE ES        855 34.32                             128    0.76 9  159 218 
 SPBC HZ I         855 40.56         4.5 0.20            129            159 218 
 OCA  HE ES        855 34.65                             128    0.55 9  161 355 
 OCA  HZ I         855 36.43         9.5 0.18            131            161 355 
 SML  HZ EP        855 19.80                             116   -0.77 8  243 337 
 SML  HE ES        855 48.44                             116   -0.39 8  243 337 
 SML  HZ I         855 51.16         7.2 0.22            118            243 337 
 CHI  HZ EP   1    855 21.16                             116   -0.27 6  246 194 
 CHI  HN ES        855 49.83                             116   -0.53 8  246 194 
 CHI  HZ I         855 55.76         1.7 0.50            118            246 194 
 CBOC HE ES        856  6.05                             109   -0.31 7  328 252 
 PRA  HZ EP        855 36.67                             105   -0.56 6  388 209 
 PRA  HN ES        856 18.33                             105   -0.15 6  388 209 
 PRA  HZ I         856 27.32         2.3 0.38            107            388 209 
                                                                                
