 2017  213 0333  1.3 L   6.754 -73.129143.4  RSN 10 0.4 1.8LRSN                1
 GAP=122        0.94       3.7     3.9  5.2 -0.1024E+00  0.3328E+01  0.4063E+01E
 Epicentro: LOS SANTOS - SANTANDER                                             3
 ACTION:UPD 17-05-24 15:35 OP:jn   STATUS:               ID:20170213033301 L   I
 OLDACT:UP  17-02-13 16:07 OP:edw  STATUS:               ID:20170213032740     3
 OLDACT:UP  17-02-13 16:06 OP:edw  STATUS:               ID:20170213032740     3
 OLDACT:REG 17-02-13 11:40 OP:edw  STATUS:               ID:20170213032740     3
 2017-02-13-0328-00M.COL___352                                                 6
 STAT SP IPHASW D HRMM SECON CODA AMPLIT PERI AZIMU VELO AIN AR TRES W  DIS CAZ7
 BAR2 EZ IP     C  333 20.60                             172    0.0110 18.8 198 
 BAR2 EZ ES        333 35.14                             172   -0.4710 18.8 198 
 BAR2 EZ I         333 36.42        17.6 0.22            169           18.8 198 
 BRR  HZ EP        333 22.54                             151    0.0810 75.4 301 
 BRR  HN ES        333 39.38                             151    0.4310 75.4 301 
 BRR  HZ I         333 40.76        11.5 0.40            148           75.4 301 
 PAM  EZ IP     D  333 23.63                             149    0.1710 80.3  36 
 PAM  EN ES        333 40.41                             149   -0.3210 80.3  36 
 PAM  EZ I         333 42.53         7.1 0.48            152           80.3  36 
 RUS  HZ EP        333 24.49                             145    0.0210 95.3 177 
 RUS  HN ES        333 43.09                             145    0.5710 95.3 177 
 RUS  HZ I         333 44.50         9.5 0.48            144           95.3 177 
 PTB  HZ EP   9    333 27.47                             131   -0.72 0  149 261 
 PTB  HN ES        333 48.26                             132   -0.16 9  149 261 
 PTB  HZ I         333 50.68         8.2 0.22            129            149 261 
 ZAR  HZ EP        333 33.95                             121   -0.05 8  208 293 
 ZAR  HN ES        333 59.54                             121    0.05 8  208 293 
 ZAR  HZ I         334  5.41         7.7 0.28            120            208 293 
 NOR  HZ EP        333 37.16                             118    0.39 8  233 236 
 NOR  HN ES        334  3.50                             118   -0.91 8  233 236 
 NOR  HZ I         334 10.41         4.9 0.32            117            233 236 
 PTGC HZ EP        333 43.89                             111   -0.57 7  303 159 
 PTGC HN ES   4    334 17.01                             111   -1.09 0  303 159 
 CBOC HZ EP   4    333 48.80                             109    0.63 0  334 253 
 CBOC HN ES   4    334 21.39                             109   -3.32 0  334 253 
 CBOC HZ I         334 31.63         1.0 0.36            109            334 253 
 PRA  HZ EP   4    333 54.98                             106    0.63 0  388 210 
 PRA  HN ES        334 36.11                             106    0.40 6  388 210 
 PRA  HZ I         334 42.39         2.0 0.36            106            388 210 
 SJC  HZ EP   4    333 55.57                             105   -1.87 0  415 327 
 SJC  HN ES   4    334 37.50                             105   -3.70 0  415 327 
                                                                                
