 2014  613 0143 20.5 L   6.803 -73.159149.2  RSN  7 0.4 1.6LRSN                1
 GAP=135        0.94       5.9     5.5  7.2 -0.7741E+01  0.2587E+01  0.4589E+01E
 Epicentro: LOS SANTOS - SANTANDER                                             3
 ACTION:UPD 14-07-01 22:53 OP:nd   STATUS:               ID:20140613014320 L   I
 OLDACT:UP  14-06-13 14:48 OP:mh   STATUS:               ID:20140613013818     3
 OLDACT:REG 14-06-13 13:11 OP:mh   STATUS:               ID:20140613013818     3
 2014-06-13-0138-18M.COL___259                                                 6
 STAT SP IPHASW D HRMM SECON CODA AMPLIT PERI AZIMU VELO AIN AR TRES W  DIS CAZ7
 BAR2 SZ EP        143 40.00                             171   -0.5610 23.4 186 
 BAR2 SZ ES   1    143 55.62                             171   -0.57 7 23.4 186 
 BAR2 SZ I         143 57.05        10.5 0.21            170           23.4 186 
 BRR  HZ EP   1    143 42.37                             153    0.41 7 69.8 299 
 BRR  HN ES   1    143 58.98                             153    0.30 7 69.8 299 
 BRR  HZ I         144  3.72        12.3 0.48            151           69.8 299 
 PAM  SZ EP        143 43.53                             151    0.3910 78.1  40 
 PAM  SN ES   2    144  0.91                             151    0.12 5 78.1  40 
 PAM  SZ I         144  4.15         4.7 0.54            156           78.1  40 
 RUS  HZ EP   1    143 44.56                             144   -0.07 7  101 175 
 RUS  HN ES   1    144  3.51                             144    0.07 7  101 175 
 RUS  HZ I         144  4.40         5.0 0.20            149            101 175 
 PTB  HZ EP        143 47.25                             133   -0.39 9  146 259 
 PTB  HN ES        144  8.62                             133   -0.18 9  146 259 
 PTB  HZ I         144 15.61         4.4 0.42            134            146 259 
 SPBC HZ EP        143 49.62                             130    0.40 9  162 219 
 SPBC HN ES   1    144 12.48                             130    0.88 7  162 219 
 SPBC HZ I         144 17.91         5.6 0.12            132            162 219 
 TOL  SZ EP        144  8.42                             110   -0.40 7  343 224 
                                                                                
