 2012 1113 0527 42.5 L   6.800 -73.163146.2  RSN  7 0.4 1.3LRSN                1
 GAP=134        0.87       5.3     5.5  8.3  0.6464E-01  0.6969E+01  0.2603E+00E
 Epicentro: LOS SANTOS - SANTANDER                                             3
 ACTION:UPD 12-12-05 15:33 OP:}ep  STATUS:               ID:20121113052742 L   I
 2012-11-13-0520-00M.COL___230                                                 6
 STAT SP IPHASW D HRMM SECON CODA AMPLIT PERI AZIMU VELO AIN AR TRES W  DIS CAZ7
 BAR2 SZ EP        528  2.11                             171   -0.0210 23.1 185 
 BAR2 SZ ES   1    528 16.80                             171   -0.67 7 23.1 185 
 BAR2 SZ I         528 18.56         7.7 0.20                          23.1 185 
 BRR  HZ EP        528  3.90                             153    0.3510 69.6 299 
 BRR  HN ES   1    528 20.78                             153    0.77 7 69.6 299 
 BRR  HZ I         528 21.68         3.6 0.12                          69.6 299 
 PAM  SZ EP   1    528  5.07                             150    0.29 7 78.6  41 
 PAM  SN ES   1    528 21.97                             150   -0.23 7 78.6  41 
 PAM  SZ I         528 22.68         2.9 0.18                          78.6  41 
 RUS  HZ EP   1    528  5.91                             144   -0.34 7  101 175 
 RUS  HN ES   1    528 25.34                             144    0.52 7  101 175 
 PTB  HZ EP   1    528  8.99                             132   -0.30 7  146 259 
 PTB  HN ES   1    528 29.80                             132   -0.42 7  146 259 
 OCA  HN ES   2    528 32.18                             130   -0.69 5  160 354 
 ZAR  HE ES   2    528 39.80                             123   -0.13 4  202 292 
                                                                                
