 2010  713 0604 36.2 L   6.759 -73.105145.7  RSN  8 0.5 1.5LRSN                1
 GAP=161        1.50       9.4    17.9 18.0  0.1521E+02 -0.1384E+03 -0.7662E+02E
 Epicentro: LOS SANTOS - SANTANDER                                             3
 ACTION:UPD 10-12-01 15:17 OP:pat  STATUS:               ID:20100713060436 L   I
 2010-07-13-0602-34S.COL___120                                                 6
 STAT SP IPHASW D HRMM SECON CODA AMPLIT PERI AZIMU VELO AIN AR TRES W  DIS CAZ7
 BAR2 SZ EP   1    6 4 55.56                             172    -0.2 7   20 205 
 BAR2 SZ I         6 4 56.21        12.7 0.35                            20 205 
 BAR2 SZ ES   2    6 5 10.76                             172    -0.3 5   20 205 
 GIR2 SZ EP   1    6 4 55.81                             165    -0.2 7   37 345 
 BRR  HZ IP     C  6 4 57.61                             151    -0.110   77 300 
 BRR  HZ I         6 4 57.94        19.0 0.09                            77 300 
 BRR  HE ES   1    6 5 14.69                             151     0.2 7   77 300 
 RUS  HZ EP   1    6 4 59.63                             145     0.0 7   96 179 
 RUS  HE ES   1    6 5 18.02                             145     0.2 7   96 179 
 RUS  HZ I         6 5 19.31         3.1 0.42                            96 179 
 BRI  SZ IP        6 4 59.36                             141    -0.910  111  18 
 BRI  SZ I         6 5 20.14         5.0 0.50                           111  18 
 GUE  SZ IP        6 5  1.89                             138     0.710  120  10 
 GUE  SZ I         6 5  4.90         1.4 0.13                           120  10 
 GRA  SZ IP        6 5  2.61                             136     0.910  129  15 
 GRA  SZ ES   2    6 5 21.36                             136    -0.2 5  129  15 
 GRA  SZ I         6 5 23.08         4.2 0.27                           129  15 
 OCA  SZ EP   1    6 5  4.35                             129    -0.6 7  165 352 
 OCA  SZ I         6 5 27.85         3.6 0.45                           165 352 
                                                                                
