 2017  813 0722 41.9 L   6.785 -73.152137.2  RSN 13 0.6 1.6LRSN                1
 GAP=211        1.08       4.5     4.2  6.0  0.7437E+01  0.8129E+01  0.6955E+01E
 Epicentro: LOS SANTOS - SANTANDER                                             3
 ACTION:UPD 17-09-04 20:19 OP:rebc STATUS:               ID:20170813072241 L   I
 OLDACT:REG 17-08-13 12:22 OP:dhb  STATUS:               ID:20170813071740     3
 2017-08-13-0718-00M.COL___404                                                 6
 STAT SP IPHASW D HRMM SECON CODA AMPLIT PERI AZIMU VELO AIN AR TRES W  DIS CAZ7
 BAR2 EZ IP     C  723  0.07                             171   -0.3510 21.6 189 
 BAR2 EZ ES        723 14.93                             171    0.0310 21.6 189 
 BAR2 EZ I         723 15.79        17.4 0.34            165           21.6 189 
 BRR  HZ IP     C  723  1.89                             151   -0.2110 71.4 300 
 BRR  HN ES        723 18.57                             151    0.6810 71.4 300 
 BRR  HZ I         723 19.84         8.7 0.21            149           71.4 300 
 RUS  HZ EP        723  4.42                             143   -0.2410 99.0 176 
 RUS  HN ES        723 22.36                             143   -0.0810 99.0 176 
 RUS  HZ I         723 24.42         4.7 0.18            141           99.0 176 
 SPBC HZ IP     C  723  9.13                             128   -0.41 9  161 219 
 SPBC HN ES        723 30.82                             128   -0.32 9  161 219 
 SPBC HZ I         723 36.94         6.3 0.09            126            161 219 
 YPLC HZ EP        723 10.57                             125   -0.36 9  176 151 
 YPLC HE ES        723 34.64                             125    1.03 9  176 151 
 YPLC HZ I         723 35.36         6.0 0.26            126            176 151 
 ZAR  HZ EP        723 13.80                             121    0.05 9  204 293 
 ZAR  HN ES        723 38.53                             121   -0.11 9  204 293 
 ZAR  HZ I         723 44.79         8.0 0.34            121            204 293 
 NOR  HZ EP        723 17.63                             117    0.70 8  233 235 
 NOR  HE ES        723 44.08                             117   -0.22 8  233 235 
 NOR  HZ I         723 48.25         3.7 0.28            116            233 235 
 CHI  HZ EP        723 18.23                             116   -0.67 8  247 195 
 CHI  HN ES   3    723 49.06                             116    1.27 2  247 195 
 CHI  HZ I         723 53.24         0.8 0.26            116            247 195 
 HEL  HN ES        723 52.13                             113   -0.33 8  271 256 
 HEL  HZ I         723 58.54         2.6 0.31            113            271 256 
 GUY2CHZ EP   2    723 26.70                             111    1.80 4  300 235 
 GUY2CHE ES   3    724  1.38                             111    2.90 2  300 235 
 GUY2CHZ I         724  6.39         2.4 0.36                           300 235 
 CBOC HZ EP        723 28.90                             109    0.61 7  332 252 
 CBOC HN ES        724  4.25                             109   -0.26 7  332 252 
 CBOC HZ I         724 10.53         0.6 0.13            109            332 252 
 SDV  BZ E         724 16.28                                            362  50 
 PRA  HZ EP        723 34.65                             105   -0.23 6  390 210 
 PRA  HE ES        724 16.61                             105    0.37 6  390 210 
 PRA  HZ I         724 22.75         1.2 0.17            106            390 210 
                                                                                
