 2016  913 0609  1.3 L   6.794 -73.140143.3  RSN 28 0.7 2.8LRSN                1
 GAP= 54        1.56       3.3     3.5  6.4 -0.1590E+01  0.3147E+01  0.1331E+01E
 Epicentro: LOS SANTOS - SANTANDER                                             3
 ACTION:UPD 17-08-17 21:09 OP:lp   STATUS:               ID:20160913060901 L   I
 OLDACT:UP  16-09-13 20:14 OP:ar   STATUS:               ID:20160913060735     3
 OLDACT:UP  16-09-13 20:13 OP:ar   STATUS:               ID:20160913060735     3
 OLDACT:REG 16-09-13 14:05 OP:and  STATUS:               ID:20160913060735     3
 2016-09-13-0608-00M.COL___318                                                 6
 STAT SP IPHASW D HRMM SECON CODA AMPLIT PERI AZIMU VELO AIN AR TRES W  DIS CAZ7
 BAR2 EZ IP        6 9 21.02                             170    0.3910 22.8 192 
 BAR2 EZ ES        6 9 34.82                             170   -0.8710 22.8 192 
 BAR2 EZ I         6 9 36.80       176.2 0.16            169           22.8 192 
 BRR  HZ IP     C  6 9 22.92                             152    0.6810 72.1 299 
 BRR  HE ES        6 9 39.67                             152    1.1110 72.1 299 
 BRR  HZ I         6 9 44.11       184.3 0.12            150           72.1 299 
 PAM  EZ IP     C  6 9 23.88                             150    0.6210 77.5  39 
 PAM  EN ES        6 9 40.51                             150    0.1210 77.5  39 
 PAM  EZ I         6 9 42.91       291.6 0.46            152           77.5  39 
 RUS  HZ IP     C  6 9 24.98                             143    0.2210 99.9 176 
 RUS  HN ES        6 9 43.06                             143    0.0010 99.9 176 
 RUS  HZ I         6 9 44.56       126.5 0.28            143           99.9 176 
 PTB  HZ EP        6 9 27.66                             131   -0.46 9  148 259 
 PTB  HN ES        6 9 48.07                             131   -0.96 9  148 259 
 PTB  HZ I         6 9 55.77        86.7 0.30            130            148 259 
 TAM  HZ IP     C  6 9 29.38                             130    0.67 9  154 105 
 TAM  HN ES        6 9 50.70                             130    0.61 9  154 105 
 TAM  HZ I         610  0.18        23.4 0.26            131            154 105 
 OCA  HZ IP     D  6 9 29.29                             129   -0.20 9  161 353 
 OCA  HN ES        6 9 50.34                             129   -1.14 9  161 353 
 SPBC HZ EP        6 9 29.99                             128    0.38 9  163 219 
 SPBC HN ES        6 9 51.50                             128   -0.18 9  163 219 
 SPBC HZ I         6 9 55.18       123.6 0.28            128            163 219 
 ZAR  HZ EP        6 9 34.00                             122    0.32 9  205 292 
 ZAR  HN ES        6 9 59.59                             122    0.67 9  205 292 
 ZAR  HZ I         610  5.14       129.5 0.60            121            205 292 
 NOR  HZ EP        6 9 37.64                             118    0.73 8  235 235 
 NOR  HN ES        610  4.60                             118   -0.08 8  235 235 
 NOR  HZ I         610 10.82        47.9 0.12            117            235 235 
 CHI  HZ EP        6 9 39.32                             117    0.50 8  248 195 
 CHI  HN EP        6 9 39.42                                            248 195 
 CHI  HE ES        610  7.89                             117   -0.19 8  248 195 
 CHI  HZ I         610 12.71        24.2 0.46            116            248 195 
 HEL  HZ EP        6 9 42.58                             114    1.14 8  273 256 
 HEL  HN ES        610 12.65                             114   -0.10 8  273 256 
 HEL  HZ I         610 19.43        21.7 0.50            114            273 256 
 URE  HZ EP        6 9 41.51                             113   -0.84 7  285 292 
 URE  HN ES   4    610 11.62                             113   -2.74 0  285 292 
 URE  HZ I         610 22.99        52.3 0.22            113            285 292 
 GUY2CHN ES   4    610 21.31                             112    2.56 0  301 235 
 GUY2CHZ I         610 25.90        30.3 0.28                           301 235 
 SOCV BZ EP        6 9 43.92                             112   -0.30 7  301  57 
 SOCV BN ES        610 15.43                             112   -2.26 7  301  57 
 GUY2CHZ EP   4    6 9 46.71                             112    1.89 0  301 235 
 VIL  EZ EP        6 9 44.56                             111    0.00 7  303 192 
 VIL  EN ES        610 18.01                             111   -0.28 7  303 192 
 VIL  EZ I         610 28.19        26.3 0.44            111            303 192 
 LL1C HZ EP   4    6 9 45.96                             111    1.09 0  307 351 
 LL1C HN ES        610 18.35                             111   -0.50 7  307 351 
 PTGC HZ EP        6 9 44.30                             111   -0.66 7  308 159 
 PTGC HN ES   4    610 16.91                             111   -2.10 0  308 159 
 PTGC HZ I         610 19.75        63.1 0.42            111            308 159 
 LL6C HZ EP   4    6 9 45.75                             110   -1.23 0  326 357 
 LL6C HN ES   4    610 19.84                             110   -2.76 0  326 357 
 LL6C HZ I         610 31.87         8.7 0.56            110            326 357 
 ELA  HZ EP   4    6 9 51.73                             110    3.67 0  329 230 
 ELA  HN ES        610 23.97                             110   -0.56 7  329 230 
 ELA  HZ I         610 32.20        21.5 0.60            109            329 230 
 CBOC HZ EP   4    6 9 49.80                             109    1.63 0  334 252 
 CBOC HN ES        610 24.05                             109   -0.67 7  334 252 
 CBOC HZ I         610 36.88        12.0 0.42            109            334 252 
 DBB  EZ EP   4    6 9 50.06                             109    1.30 0  340 274 
 DBB  EZ ES        610 24.79                             109   -0.99 7  340 274 
 DBB  EZ I         610 29.56        22.1 0.30            109            340 274 
 ARGC HZ EP        6 9 51.82                             108    0.86 6  360 340 
 ARGC HN ES        610 30.24                             108    0.54 6  360 340 
 ARGC HZ I         610 35.48        12.2 0.18            108            360 340 
 PAL  HZ EP        6 9 57.26                             105    0.85 6  406 239 
 PAL  HN ES        610 38.92                             105   -0.47 6  406 239 
 PAL  HZ I         610 45.66         9.5 0.48            105            406 239 
 SJC  HZ EP   4    6 9 55.11                             105   -1.78 0  410 327 
 SJC  HN ES   4    610 37.50                             105   -2.75 0  410 327 
 SJC  HZ I         610 40.85        15.0 0.40            105            410 327 
 CRJC HZ EP   4    610  1.64                             103   -2.17 0  468   3 
 CRJC HN ES   4    610 47.26                             103   -5.30 0  468   3 
 CRJC HZ I         610 58.01        17.1 0.14            103            468   3 
 GUA  EZ EP        610  3.50                             103   -0.81 5  473 173 
 GUA  EN ES        610 52.67                             103   -0.78 5  473 173 
 GUA  EZ I         610 58.82        14.7 0.20            103            473 173 
 MACC HZ EP   4    610  8.04                             101   -1.85 0  520 189 
 MACC HN ES   4    610 59.07                             101   -4.32 0  520 189 
 MACC HZ I         611 30.87         5.8 0.42            101            520 189 
                                                                                
