 2015  713 0709 17.3 L   7.030 -73.706100.8  RSN  7 0.3 1.6LRSN                1
 GAP= 73        0.77       2.4     2.9  8.9  0.3683E-01  0.9675E+01 -0.3148E+01E
 Epicentro: BARRANCABERMEJA - SANTANDER                                        3
 ACTION:UPD 15-09-08 21:48 OP:cam  STATUS:               ID:20150713070917 L   I
 OLDACT:REG 15-07-13 13:09 OP:spq  STATUS:               ID:20150713070747     3
 2015-07-13-0707-47M.COL___337                                                 6
 STAT SP IPHASW D HRMM SECON CODA AMPLIT PERI AZIMU VELO AIN AR TRES W  DIS CAZ7
 BAR2 EZ EP        7 9 34.74                             140    0.2010 75.5 130 
 BAR2 EZ ES   1    7 9 47.92                             140   -0.02 7 75.5 130 
 BAR2 EZ I         7 9 49.63         6.0 0.32            145           75.5 130 
 PAM  EN ES   1    7 9 55.21                             127    0.21 7  116  73 
 PAM  EZ I         7 9 57.78         6.9 0.16            130            116  73 
 ZAR  HZ EP        7 9 40.05                             121    0.09 9  137 292 
 ZAR  HN ES        7 9 57.32                             121   -0.27 9  137 292 
 ZAR  HZ I         7 9 59.34         6.8 0.30            124            137 292 
 OCA  HZ EP        7 9 40.67                             121    0.18 9  140  18 
 OCA  HE ES        7 9 58.77                             121    0.23 9  140  18 
 OCA  HZ I         710  1.52        15.1 0.16            124            140  18 
 RUS  HZ EP   1    7 9 41.25                             120   -0.01 7  143 151 
 RUS  HE ES   1    7 9 59.02                             120   -0.89 7  143 151 
 RUS  HZ I         710  0.79         3.0 0.12            125            143 151 
 SML  HZ EP        7 9 46.41                             111   -0.44 9  200 348 
 SML  HE ES   1    710  9.66                             111   -0.19 6  200 348 
 SML  HZ I         710 15.22         6.7 0.10            114            200 348 
 NOR  HE ES        710 11.91                             110    0.48 8  207 218 
 NOR  HZ I         710 14.25         3.7 0.14            113            207 218 
                                                                                
