 2015 1013 0818 26.6 L   6.792 -73.089145.7  RSN 12 0.5 2.0LRSN                1
 GAP=144        1.13       2.9     4.5  5.8 -0.2246E+01  0.9076E+01  0.3526E+00E
 Epicentro: LOS SANTOS - SANTANDER                                             3
 ACTION:UPD 15-12-22 20:39 OP:cam  STATUS:               ID:20151013081826 L   I
 OLDACT:REG 15-10-13 14:38 OP:cara STATUS:               ID:20151013080745     3
 2015-10-13-0807-45M.COL___334                                                 6
 STAT SP IPHASW D HRMM SECON CODA AMPLIT PERI AZIMU VELO AIN AR TRES W  DIS CAZ7
 BAR2 EZ EP        818 46.33                             170    0.0410 24.3 205 
 BAR2 EZ ES        819  1.38                             170   -0.2310 24.3 205 
 BAR2 EZ I         819  3.79        19.2 0.42            169           24.3 205 
 PAM  EZ EP        818 48.91                             152    0.2410 74.3  35 
 PAM  EN ES        819  5.45                             152   -0.4110 74.3  35 
 PAM  EZ I         819  8.45        13.6 0.58            155           74.3  35 
 BRR  HZ EP        818 48.28                             151    0.1510 77.2 297 
 BRR  HE ES        819  5.66                             151    0.7610 77.2 297 
 BRR  HZ I         819  8.24        12.4 0.34            149           77.2 297 
 RUS  HZ EP        818 50.26                             144   -0.0410 99.4 180 
 RUS  HN ES        819  9.19                             144    0.4310 99.4 180 
 RUS  HZ I         819  9.77         8.0 0.30            147           99.4 180 
 OCA  HZ EP        818 55.60                             129    0.48 9  162 351 
 OCA  HE ES        819 17.54                             129    0.21 9  162 351 
 OCA  HZ I         819 23.00        23.8 0.22            131            162 351 
 SPBC HZ EP        818 55.30                             128   -0.15 9  166 221 
 SPBC HN ES        819 17.03                             128   -0.89 9  166 221 
 SPBC HZ I         819 21.30        16.1 0.46            130            166 221 
 ZAR  HZ EP        818 58.94                             121   -0.78 8  210 292 
 ZAR  HE ES        819 24.62                             121   -0.90 8  210 292 
 ZAR  HZ I         819 29.98        12.0 0.32            122            210 292 
 NOR  HZ EP        819  2.88                             118    0.02 8  239 236 
 NOR  HE ES        819 31.05                             118   -0.06 8  239 236 
 NOR  HZ I         819 37.44         8.0 0.32            119            239 236 
 SML  HZ EP        819  3.12                             117   -0.53 8  247 334 
 SML  HN ES        819 32.39                             117   -0.12 8  247 334 
 SML  HZ I         819 36.04        17.3 0.26            118            247 334 
 CHI  HZ EP        819  4.15                             117   -0.27 8  249 197 
 CHI  HE ES        819 33.67                             117   -0.23 8  249 197 
 CHI  HZ I         819 37.78         2.6 0.40            119            249 197 
 HEL  HZ EP        819  8.09                             114    0.59 7  278 256 
 HEL  HE ES        819 39.94                             114    0.57 7  278 256 
 HEL  HZ I         819 45.66         5.3 0.28            115            278 256 
 GUY2CHZ EP        819 11.51                             112    0.74 7  306 236 
 GUY2CHN ES        819 45.72                             112    0.53 7  306 236 
                                                                                
