 2017  513 0041 55.0 L   6.788 -73.135145.7  RSN  5 0.2 1.6LRSN                1
 GAP=138        0.67       3.5     3.4  5.0  0.2342E+01  0.1295E+01 -0.4373E+00E
 Epicentro: LOS SANTOS - SANTANDER                                             3
 ACTION:UPD 17-06-16 13:35 OP:jn   STATUS:               ID:20170513004155 L   I
 OLDACT:REG 17-05-13 12:24 OP:osc  STATUS:               ID:20170513003751     3
 2017-05-13-0038-00M.COL___336                                                 6
 STAT SP IPHASW D HRMM SECON CODA AMPLIT PERI AZIMU VELO AIN AR TRES W  DIS CAZ7
 BRR  HZ EP        042 16.15                             152   -0.1110 72.9 299 
 BRR  HN ES        042 33.22                             152    0.3910 72.9 299 
 BRR  HZ I         042 36.78         9.4 0.34            150           72.9 299 
 PAM  EZ EP        042 17.18                             150   -0.0710 77.7  38 
 PAM  EN ES        042 34.53                             150   -0.0610 77.7  38 
 PAM  EZ I         042 36.16         5.7 0.18            155           77.7  38 
 RUS  HZ EP        042 18.61                             144   -0.0610 99.2 177 
 RUS  HN ES        042 37.10                             144   -0.0210 99.2 177 
 RUS  HZ I         042 38.21         5.3 0.34            146           99.2 177 
 PTB  HZ EP   9    042 21.24                             132   -0.83 0  149 259 
 PTB  HN ES        042 41.99                                   -0.35 9  149 259 
 PTB  HZ I         042 49.09         5.5 0.68            131            149 259 
 ZAR  HZ EP        042 27.99                             122    0.36 8  206 292 
 ZAR  HE ES        042 52.61                             122   -0.45 8  206 292 
 ZAR  HZ I         042 58.41         5.6 0.40            122            206 292 
                                                                                
