 2016  113 0910 33.8 L   6.794 -73.150137.6  RSN 14 0.5 1.6LRSN                1
 GAP=136        1.19       3.3     4.2  6.1 -0.2629E+01  0.7865E+01  0.2247E+01E
 Epicentro: LOS SANTOS - SANTANDER                                             3
 ACTION:UPD 16-03-09 23:25 OP:cam  STATUS:               ID:20160113091033 L   I
 OLDACT:UP  16-01-13 17:25 OP:drio STATUS:               ID:20160113090749     3
 OLDACT:UP  16-01-13 17:25 OP:drio STATUS:               ID:20160113090749     3
 OLDACT:REG 16-01-13 12:13 OP:drio STATUS:               ID:20160113090749     3
 2016-01-13-0907-49M.COL___328                                                 6
 STAT SP IPHASW D HRMM SECON CODA AMPLIT PERI AZIMU VELO AIN AR TRES W  DIS CAZ7
 BAR2 EZ EP        910 52.43                             170   -0.0310 22.6 189 
 BAR2 EZ ES        911  6.88                             170   -0.1210 22.6 189 
 BAR2 EZ I         911  8.12        10.0 0.10            169           22.6 189 
 BRR  HZ EP        910 54.36                             151    0.2710 71.1 299 
 BRR  HN ES        911 10.64                             151    0.7410 71.1 299 
 BRR  HZ I         911 16.63        12.2 0.12            147           71.1 299 
 PAM  EZ EP        910 55.29                             149    0.0610 78.2  40 
 PAM  EN ES        911 12.54                             149    0.6110 78.2  40 
 PAM  EZ I         911 13.20         3.6 0.22            153           78.2  40 
 RUS  HZ EP        910 56.48                             142   -0.2610 99.9 176 
 RUS  HE ES        911 14.39                             142   -0.2210 99.9 176 
 RUS  HZ I         911 16.13         4.6 0.22            145           99.9 176 
 PTB  HZ EP        910 59.51                             130   -0.58 9  147 259 
 PTB  HN ES        911 20.03                             130   -0.53 9  147 259 
 PTB  HZ I         911 22.36         7.3 0.26            129            147 259 
 OCA  HZ EP        911  0.85                             128   -0.73 9  161 353 
 OCA  HN ES        911 22.66                             128   -0.56 9  161 353 
 OCA  HZ I         911 30.13        17.0 0.48            129            161 353 
 SPBC HZ EP        911  1.60                             127   -0.03 9  162 219 
 SPBC HE ES        911 22.63                             127   -0.69 9  162 219 
 SPBC HZ I         911 26.76         7.0 0.28            128            162 219 
 ZAR  HZ EP        911  5.89                             121    0.16 9  204 292 
 ZAR  HN ES        911 31.03                             121    0.41 9  204 292 
 ZAR  HZ I         911 39.43         6.2 0.60            120            204 292 
 NOR  HZ EP        911  8.56                             117   -0.45 8  234 235 
 NOR  HE ES        911 36.48                             117    0.03 8  234 235 
 NOR  HZ I         911 42.28         3.7 0.16            117            234 235 
 SML  HZ EP   4    911  8.78                             116   -1.28 0  244 335 
 SML  HE ES   4    911 36.16                             116   -2.15 0  244 335 
 SML  HZ I         911 40.89         6.5 0.32            116            244 335 
 CHI  HZ EP        911 11.97                             115    0.97 8  248 195 
 CHI  HE ES        911 40.03                             115    0.03 8  248 195 
 CHI  HZ I         911 49.47         1.1 0.52            117            248 195 
 HEL  HZ EP   4    911 14.85                             113    1.28 0  271 256 
 HEL  HE ES        911 44.27                             113   -0.29 8  271 256 
 HEL  HZ I         911 51.97         2.7 0.28            114            271 256 
 GUY2CHZ EP        911 17.30                             111    0.32 7  300 235 
 GUY2CHE ES        911 51.73                             111    1.09 7  300 235 
 GUY2CHZ I         911 59.82         2.1 0.54                           300 235 
 CBOC HZ EP        911 20.97                             108    0.63 7  333 252 
 CBOC HN ES   4    911 57.81                             108    1.19 0  333 252 
 CBOC HZ I         912  8.72         0.8 0.38            109            333 252 
                                                                                
