 2010 1213 0341 29.3 L   6.802 -72.925147.1  RSN  5 0.1 1.2LRSN                1
 GAP=183        0.33       2.8    12.1  4.6 -0.1947E+02  0.6920E+00 -0.5868E+00E
 Epicentro: CEPITA - SANTANDER                                                 3
 ACTION:UP  11-01-14 15:24 OP:pat  STATUS:               ID:20101213034129 L   I
 2010-12-13-0337-39S.COL___137                                                 6
 STAT SP IPHASW D HRMM SECON CODA AMPLIT PERI AZIMU VELO SNR AR TRES W  DIS CAZ7
 BAR2 SZ EP        341 49.45                             165     0.010   37 231 
 BAR2 SZ ES   2    342  4.90                             165    -0.2 5   37 231 
 BAR2 SZ I         342  7.11         5.7 0.29                            37 231 
 BTL  SZ EP        341 49.55                             164     0.010   40 289 
 RUS  HZ EP   1    341 53.24                             144     0.0 7  102 190 
 RUS  HE ES   1    342 12.01                             144     0.0 7  102 190 
 RUS  HZ I         342 13.14         2.0 0.27                           102 190 
 GRA  SZ EP   2    341 53.91                             139    -0.3 5  120   6 
 GRA  SZ ES   2    342 13.86                             139     0.2 5  120   6 
 GRA  SZ I         342 16.61         2.4 0.34                           120   6 
 CHI  HZ EP   2    342  7.85                             117     0.0 4  256 200 
 CHI  HE ES   2    342 38.07                             117     0.1 4  256 200 
 CHI  HZ I         342 39.92         0.9 0.35                           256 200 
                                                                                
