 2011  913 0039 29.1 L   6.808 -73.072144.1  RSN 16 0.3 2.5LRSN                1
 GAP=121        0.43       1.8     2.9  2.9 -0.7447E+00  0.1558E+01  0.1091E+01E
 Epicentro: LOS SANTOS - SANTANDER                                             3
 ACTION:UPD 12-07-13 15:57 OP:ep   STATUS:               ID:20110913003929 L   I
 2011-09-13-0035-42S.COL___169                                                 6
 STAT SP IPHASW D HRMM SECON CODA AMPLIT PERI AZIMU VELO AIN AR TRES W  DIS CAZ7
 BAR2 SZ IP        039 48.52                             169   -0.0510 26.8 207 
 BAR2 SZ ES   1    040  3.50                             169   -0.28 7 26.8 207 
 BAR2 SZ I         040  4.46        81.5 0.26                          26.8 207 
 GIR2 SZ EP   1    039 48.62                             166    0.03 7 32.8 336 
 GIR2 SZ ES   1    040  3.52                             166   -0.29 7 32.8 336 
 PAM  SZ EP   1    039 51.34                             152    0.56 7 71.8  35 
 PAM  SN ES   2    040  7.87                             152    0.16 5 71.8  35 
 BRR  HZ IP     C  039 50.41                             150   -0.0310 78.1 295 
 BRR  HN ES   1    040  7.48                             150    0.37 7 78.1 295 
 BRR  HZ I         040 10.53        51.0 0.25                          78.1 295 
 RUS  HZ EP   1    039 52.55                             143   -0.15 7  101 181 
 RUS  HN ES   2    040 11.35                             143    0.22 5  101 181 
 RUS  HZ I         040 12.16        36.0 0.28                           101 181 
 OCA  SZ EP   1    039 57.15                             129   -0.13 7  161 350 
 OCA  SZ ES   2    040 19.19                             129   -0.09 5  161 350 
 YOP  SE ES   3    040 22.17                             126    0.31 2  176 156 
 ZAR  HZ EP   2    040  2.37                             121    0.21 4  211 291 
 ZAR  HN ES   2    040 27.69                             121   -0.28 4  211 291 
 ZAR  HZ I         040 33.11        42.9 0.42                           211 291 
 NOR  SZ EP   2    040  5.05                             117   -0.43 4  242 235 
 NOR  SN ES   2    040 33.76                             117   -0.11 4  242 235 
 CHI  HZ EP   1    040  6.90                             116   -0.11 6  252 197 
 CHI  HN ES   2    040 36.74                             116    0.13 4  252 197 
 CHI  HZ I         040 43.40        17.6 0.52                           252 197 
 ROSC BZ EP   2    040  8.05                             116    0.40 4  258 212 
 ROSC BN ES   2    040 37.70                             116   -0.04 4  258 212 
 ROSC BZ I         040 42.56        25.9 0.59                           258 212 
 HEL  HZ EP   2    040 10.68                             114    0.58 4  280 256 
 HEL  HN ES   2    040 42.54                             114    0.44 4  280 256 
 HEL  HZ I         040 47.49        15.5 0.58                           280 256 
 VIL  SZ EP   2    040 12.21                             111   -0.50 4  306 193 
 VIL  SE ES   2    040 46.86                             111    0.12 4  306 193 
 VIL  SZ I         040 53.86        12.8 0.48                           306 193 
 RREF HZ EP   2    040 16.42                             110    0.50 3  329 230 
 RREF HE ES   2    040 52.02                             110   -0.43 3  329 230 
 RREF HZ I         041  0.48        14.4 0.30                           329 230 
 COD  HZ EP   2    040 16.95                             108   -0.43 3  348 353 
 COD  HN ES   2    040 54.55                             108   -0.51 3  348 353 
 COD  HZ I         040 59.64        15.3 0.70                           348 353 
 PRA  HZ EP   2    040 23.20                             106    0.10 3  397 211 
 PRA  HN ES   2    041  4.93                             106   -0.31 3  397 211 
                                                                                
