 2010  413 0135 19.2 L   7.410 -73.340108.7  RSN 12 0.7 3.1LRSN                1
 GAP=108        1.24       5.7     7.0  8.2 -0.1683E+02  0.4944E+01  0.1620E+01E
 Epicentro: EL PLAYON - SANTANDER                                              3
 ACTION:UPD 10-08-24 09:58 OP:vdl  STATUS:               ID:20100413013519 L   I
 2010-04-13-0133-37S.COL___097                                                 6
 STAT SP IPHASW D HRMM SECON CODA AMPLIT PERI AZIMU VELO AIN AR TRES W  DIS CAZ7
 BRR  HZ IP     D  135 35.20                             152    -0.110   53 231 
 BRR  HZ I         135 35.46       386.1 0.07                            53 231 
 BRR  HN ES   1    135 48.18                             152     0.3 7   53 231 
 OCA  SZ EP        135 38.58                             137     0.310   92   1 
 OCA  SZ ES   2    135 54.42                             137     1.2 5   92   1 
 OCA  SZ I         135 55.40       501.3 0.52                            92   1 
 BAR2 SZ IP        135 38.17                             137    -0.310   92 169 
 BAR2 SZ ES   1    135 53.00                             137    -0.5 7   92 169 
 HEL  HZ EP        135 57.94                             106    -0.5 7  277 241 
 HEL  HN ES   2    136 27.87                             106    -1.1 4  277 241 
 HEL  HZ I         136 32.68       101.7 0.06                           277 241 
 ROSC BZ EP   1    136  2.92                             104     1.3 5  304 201 
 ROSC BZ I         136 43.21        31.3 0.21                           304 201 
 CHI  HZ EP   2    136  2.09                             103    -0.4 3  311 188 
 CHI  HE ES   2    136 36.61                             103     0.5 3  311 188 
 CHI  HZ I         136 42.89        33.6 0.63                           311 188 
 DBB  SZ EP        136  2.07                             103    -1.1 7  320 262 
 SDV  BZ IP     C  136  5.88                             102     0.2 7  340  61 
 SDV  BZ I         136  6.65        72.7 0.03                           340  61 
 SDV  BN ES   1    136 41.20                             102    -0.7 5  340  61 
 RREF BZ EP        136  8.54                             101     0.5 6  355 219 
 RREF BN ES   2    136 47.41                             101     1.2 3  355 219 
 RREF BZ I         136 52.18        80.0 0.41                           355 219 
 TOL  SZ EP   1    136 11.23                             100     0.4 4  382 215 
 ANIL BZ EP        136 13.60                              99     1.1 6  395 215 
 PRA  HZ EP        136 17.59                              97    -0.3 5  443 203 
 PRA  HE ES   1    137  3.93                              97     0.2 4  443 203 
 PRA  HZ I         137  9.63        49.1 0.52                           443 203 
                                                                                
