 2017  513 0854 59.4 L   6.827 -73.422110.8  RSN  5 0.3 1.0LRSN                1
 GAP=105        0.90       4.0     3.2  7.5  0.1595E+01  0.2203E+01  0.1395E+01E
 Epicentro: SAN VICENTE DE CHUCURI - SANTANDER                                 3
 ACTION:UPD 17-06-16 13:35 OP:jn   STATUS:               ID:20170513085459 L   I
 OLDACT:DUP 17-05-13 14:14 OP:lv   STATUS:               ID:20170513084752d    3
 2017-05-13-0848-00M.COL___315                                                 6
 STAT SP IPHASW D HRMM SECON CODA AMPLIT PERI AZIMU VELO AIN AR TRES W  DIS CAZ7
 BRR  HZ EP        855 15.26                             156   -0.0610 44.6 314 
 BRR  HN ES        855 28.16                             156    0.4410 44.6 314 
 PAM  EZ EP        855 19.35                             136   -0.3410 97.9  55 
 PAM  EN ES        855 35.32                             136   -0.1810 97.9  55 
 PAM  EZ I         855 38.14         3.8 0.09            140           97.9  55 
 RUS  HZ EP        855 21.24                             132    0.5010  110 160 
 RUS  HN ES        855 37.36                             132   -0.0210  110 160 
 RUS  HZ I         855 40.24         0.8 0.25            135            110 160 
 PTB  HZ EP   4    855 20.11                             129   -0.81 0  119 255 
 PTB  HN ES        855 37.06                             129   -0.6310  119 255 
 PTB  HZ I         855 41.74         2.4 0.38            131            119 255 
 ZAR  HZ EP        855 26.77                             118    0.13 9  175 295 
 ZAR  HE ES        855 48.09                             118    0.21 9  175 295 
 ZAR  HZ I         855 52.18         1.0 0.08            120            175 295 
                                                                                
