 2014 1113 0419 48.3 L   6.798 -73.148141.6  RSN  8 0.4 1.6LRSN                1
 GAP=136        1.08       4.3     4.9  6.5 -0.5517E+01  0.5051E+01  0.7442E+01E
 Epicentro: LOS SANTOS - SANTANDER                                             3
 ACTION:UPD 14-12-19 15:42 OP:nd   STATUS:               ID:20141113041948 L   I
 OLDACT:ARG 14-11-13 12:06 OP:stll STATUS:               ID:20141113041741     3
 2014-11-13-0417-41M.COL___289                                                 6
 STAT SP IPHASW D HRMM SECON CODA AMPLIT PERI AZIMU VELO AIN AR TRES W  DIS CAZ7
 BAR2 SZ EP        420  7.57                             170    0.1610 23.1 189 
 BAR2 SZ ES        420 22.78                             170    0.4510 23.1 189 
 BAR2 SZ I         420 25.21        11.0 0.28            168           23.1 189 
 BRR  HZ EP        420  9.65                             152    0.6710 71.1 299 
 BRR  HE ES        420 24.94                             152   -0.1810 71.1 299 
 PAM  SZ EP        420 10.27                             150    0.1910 77.7  40 
 PAM  SZ I         420 10.61         8.3 0.22            154           77.7  40 
 PAM  SN ES        420 26.59                             150   -0.5010 77.7  40 
 RUS  HZ EP        420 11.46                             143   -0.1510  100 176 
 RUS  HZ I         420 12.35         3.5 0.42            144            100 176 
 RUS  HN ES        420 29.37                             143   -0.4410  100 176 
 PTB  HZ EP        420 14.58                             131   -0.31 9  147 259 
 PTB  HN ES        420 35.54                             131   -0.10 9  147 259 
 PTB  HZ I         420 41.33         7.0 0.20            131            147 259 
 SPBC HZ EP        420 16.43                             128   -0.00 9  163 219 
 SPBC HE ES        420 39.28                             128    0.89 9  163 219 
 SPBC HZ I         420 44.32        10.0 0.14            128            163 219 
 NOR  HZ EP        420 23.78                             118    0.05 8  234 234 
 NOR  HN ES        420 50.48                             118   -0.91 8  234 234 
 NOR  HZ I         420 55.33         4.1 0.20            118            234 234 
 CHI  HZ EP        420 25.63                             116   -0.09 8  248 195 
 CHI  HZ I         420 26.38         2.1 0.18            117            248 195 
 CHI  HN ES        420 54.98                             116    0.06 8  248 195 
                                                                                
