 2013  813 0023  9.4 L   6.802 -73.154143.9  RSN  6 0.3 1.9LRSN                1
 GAP=135        0.84       3.4     4.3  6.1 -0.1339E+01  0.3351E+01  0.2176E+00E
 Epicentro: LOS SANTOS - SANTANDER                                             3
 ACTION:UPD 14-01-14 09:01 OP:ep   STATUS:               ID:20130813002309 L   I
 OLDACT:REG 13-08-13 08:05 OP:stll STATUS:               ID:20130813001849     3
 2013-08-13-0018-49M.COL___218                                                 6
 STAT SP IPHASW D HRMM SECON CODA AMPLIT PERI AZIMU VELO AIN AR TRES W  DIS CAZ7
 BAR2 SZ EP        023 29.04                             170    0.2910 23.4 188 
 BAR2 SZ ES        023 43.97                             170    0.0810 23.4 188 
 BAR2 SZ I         023 45.30        11.4 0.20            170           23.4 188 
 BRR  HZ EP        023 30.77                             152    0.5310 70.3 299 
 BRR  HN ES        023 46.92                             152    0.3810 70.3 299 
 PAM  SZ EP        023 31.39                             150    0.0010 77.8  40 
 PAM  SN ES        023 48.47                             150   -0.1110 77.8  40 
 PAM  SN I         023 49.73        15.9 0.48            152           77.8  40 
 RUS  HZ EP        023 33.07                             143    0.1410  101 176 
 RUS  HN ES        023 50.95                             143   -0.3810  101 176 
 RUS  HN I         023 54.89         4.2 0.36            145            101 176 
 PTB  HZ EP        023 35.72                             132   -0.37 9  147 259 
 PTB  HN ES        023 56.68                             132   -0.26 9  147 259 
 PTB  HN I         024  0.35        12.1 0.28            133            147 259 
 OCA  HN ES        023 58.97                             129   -0.46 9  160 353 
 OCA  HN I         024  2.89        22.1 0.26            131            160 353 
                                                                                
