 2013  113 0610  2.9 L   6.107 -73.737105.8  RSN  6 0.3 1.7LRSN                1
 GAP=121        0.70       3.0     3.7  7.5  0.3985E+01  0.1072E+02  0.4999E+01E
 Epicentro: BOLIVAR - SANTANDER                                                3
 ACTION:UPD 13-02-15 09:13 OP:ep   STATUS:               ID:20130113060746 L   I
 2013-01-13-0607-46M.COL___166                                                 6
 STAT SP IPHASW D HRMM SECON CODA AMPLIT PERI AZIMU VELO AIN AR TRES W  DIS CAZ7
 RUS  HZ EP        610 20.89                             142   -0.0810 76.1 108 
 RUS  HN ES   1    610 34.80                             142   -0.26 7 76.1 108 
 RUS  HZ I         610 36.40         8.9 0.23            149           76.1 108 
 BAR2 SZ EP        610 21.14                             140    0.1110 81.5  49 
 BAR2 SZ ES   1    610 35.24                             140    0.07 7 81.5  49 
 PTB  HZ EP        610 21.12                             135   -0.5510 92.9 301 
 PTB  HN ES   1    610 36.22                             135   -0.08 7 92.9 301 
 PTB  HZ I         610 39.22         6.0 0.09            139           92.9 301 
 BRR  HZ EP        610 23.11                             130   -0.1310  111   1 
 BRR  HN ES   1    610 39.49                             130    0.39 7  111   1 
 BRR  HN I         610 42.42        22.3 0.22            136            111   1 
 CHI  HZ EP   1    610 29.09                             118   -0.04 7  163 180 
 CHI  HN ES   1    610 50.21                             118    0.63 7  163 180 
 CHI  HN I         610 54.36         5.5 0.20            123            163 180 
 ZAR  HZ EP   1    610 32.61                             113    0.28 6  197 321 
 ZAR  HN ES   1    610 55.74                             113    0.47 6  197 321 
 ZAR  HN I         610 57.72         9.4 0.17            117            197 321 
                                                                                
