 2012  213 0605 42.8 L   6.753 -73.124144.8  RSN  7 0.3 1.3LRSN                1
 GAP=141        0.46       4.4     4.1  6.0  0.1620E+01  0.4973E+01  0.3456E+01E
 ACTION:UP  12-03-07 16:30 OP:epov STATUS:               ID:20120213060542 L   I
 2012-02-13-0600-00M.COL___188                                                 6
 STAT SP IPHASW D HRMM SECON CODA AMPLIT PERI AZIMU VELO AIN AR TRES W  DIS CAZ7
 BAR2 SZ EP   1    6 6  2.21                             172   -0.03 7 18.9 200 
 BAR2 SZ ES   2    6 6 16.98                             172   -0.42 5 18.9 200 
 GIR2 SZ ES   2    6 6 17.95                             165    0.04 5 36.8 348 
 BRR  HZ EP   2    6 6  4.07                             151   -0.05 5 75.8 301 
 BRR  HN ES   2    6 6 21.45                             151    0.71 5 75.8 301 
 BRR  HZ I         6 6 21.67         5.8 0.09                          75.8 301 
 PAM  SZ EP   2    6 6  5.15                             150    0.07 5 80.0  36 
 PAM  SN ES   2    6 6 22.24                             150   -0.21 5 80.0  36 
 RUS  HZ EP   2    6 6  6.56                             145    0.48 5 95.3 177 
 RUS  HN ES   2    6 6 24.21                             145   -0.04 5 95.3 177 
 RUS  HZ I         6 6 26.38         2.0 0.33                          95.3 177 
 PTB  HZ EP   2    6 6  9.48                             131   -0.34 5  149 261 
 PTB  HN ES   2    6 6 30.84                             131   -0.05 5  149 261 
 ZAR  HN ES   2    6 6 40.94                             122   -0.27 4  208 293 
                                                                                
