 2017  213 0438  4.5 L   6.767 -73.189150.3  RSN  5 0.2 0.8LRSN                1
 GAP=133        0.63       4.2     3.8  4.9  0.3510E+01 -0.1632E+01 -0.3285E+01E
 Epicentro: LOS SANTOS - SANTANDER                                             3
 ACTION:UPD 17-05-24 15:35 OP:jn   STATUS:               ID:20170213043804 L   I
 OLDACT:REG 17-02-13 11:48 OP:edw  STATUS:               ID:20170213043749     3
 2017-02-13-0438-00M.COL___352                                                 6
 STAT SP IPHASW D HRMM SECON CODA AMPLIT PERI AZIMU VELO AIN AR TRES W  DIS CAZ7
 BAR2 EZ EP        438 24.58                             172   -0.0410 19.3 178 
 BAR2 EZ ES        438 39.88                             172   -0.4210 19.3 178 
 BAR2 EZ I         438 41.98         1.2 0.26            172           19.3 178 
 BRR  HZ EP        438 26.10                             154    0.0710 68.9 303 
 BRR  HN ES        438 43.15                             154    0.3410 68.9 303 
 PAM  EZ EP        438 27.53                             150   -0.0410 83.3  40 
 RUS  HZ EP        438 28.41                             146   -0.0810 97.4 173 
 RUS  HN ES        438 47.53                             146    0.3410 97.4 173 
 PTB  HZ EP        438 31.41                             134    0.03 9  142 260 
 PTB  HN ES        438 52.11                             134   -0.22 9  142 260 
 PTB  HZ I         438 54.27         1.0 0.10            134            142 260 
                                                                                
