 2013  113 0113 57.9 L   6.812 -73.137142.6  RSN  9 0.4 2.4LRSN                1
 GAP=184        1.00       3.3     4.7  5.9  0.2655E+01  0.4250E+01  0.1544E+01E
 Epicentro: LOS SANTOS - SANTANDER                                             3
 ACTION:UPD 13-02-15 09:13 OP:ep   STATUS:               ID:20130113011357 L   I
 2013-01-13-0110-00M.COL___241                                                 6
 STAT SP IPHASW D HRMM SECON CODA AMPLIT PERI AZIMU VELO AIN AR TRES W  DIS CAZ7
 BAR2 SZ EP        114 17.11                             170   -0.0510 24.8 192 
 BAR2 SZ ES        114 32.45                             170    0.2510 24.8 192 
 BAR2 SZ I         114 33.36        42.0 0.20            167           24.8 192 
 BRR  HZ IP     C  114 19.09                             152    0.3910 71.4 297 
 BRR  HN ES        114 35.44                             152    0.5010 71.4 297 
 BRR  HN I         114 36.74        71.2 0.46            148           71.4 297 
 RUS  HZ EP        114 21.39                             143   -0.0210  102 177 
 RUS  HN ES        114 39.37                             143   -0.4010  102 177 
 RUS  HN I         114 40.59        31.6 0.22            143            102 177 
 PTB  HZ EP        114 24.10                             131   -0.60 9  149 258 
 PTB  HN ES        114 45.07                             131   -0.55 9  149 258 
 PTB  HN I         114 50.11        31.1 0.28            129            149 258 
 OCA  HZ EP        114 25.60                             129   -0.24 9  159 353 
 OCA  HN ES        114 47.17                             129   -0.47 9  159 353 
 OCA  HN I         114 52.04        63.7 0.26            129            159 353 
 ZAR  HZ EP        114 30.77                             122    0.60 9  204 292 
 ZAR  HN ES        114 55.70                             122    0.35 9  204 292 
 ZAR  HN I         115  2.80        28.7 0.30            120            204 292 
 CHI  HZ EP        114 35.55                             116   -0.02 8  250 195 
 CHI  HN ES        115  5.29                             116    0.32 8  250 195 
 CHI  HN I         115 10.76        11.0 0.42            116            250 195 
 ROSC BZ EP        114 36.54                             116    0.53 8  254 211 
 HEL  HE ES        115  8.96                             114   -0.47 8  273 256 
 HEL  HE I         115 15.84         5.9 0.44            113            273 256 
                                                                                
