 2016  313 0544  9.5 L   6.779 -73.179137.8  RSN  7 0.3 1.0LRSN                1
 GAP=133        0.82       3.0     4.6  6.2 -0.3234E+01  0.1045E+02  0.7376E+00E
 Epicentro: LOS SANTOS - SANTANDER                                             3
 ACTION:UPD 16-05-13 21:23 OP:cam  STATUS:               ID:20160313054409 L   I
 OLDACT:DUP 16-03-13 18:24 OP:cara STATUS:               ID:20160313053751d    3
 OLDACT:REG 16-03-13 14:11 OP:cara STATUS:               ID:20160313053750     3
 2016-03-13-0537-50M.COL___289                                                 6
 STAT SP IPHASW D HRMM SECON CODA AMPLIT PERI AZIMU VELO AIN AR TRES W  DIS CAZ7
 BAR2 EZ ES        544 42.13                             171   -0.4810 20.6 181 
 BAR2 EZ I         544 44.72         2.6 0.45            171           20.6 181 
 PAM  EZ EP        544 31.18                             148    0.0810 81.5  40 
 PAM  EN ES        544 48.23                             148    0.2510 81.5  40 
 PAM  EZ I         544 49.08         1.4 0.18            153           81.5  40 
 RUS  HZ EP        544 31.97                             143   -0.3310 98.6 174 
 RUS  HN ES        544 50.50                             143    0.4010 98.6 174 
 RUS  HZ I         544 51.97         1.4 0.20            146           98.6 174 
 PTB  HZ EP        544 34.98                             131   -0.45 9  144 259 
 PTB  HN ES        544 55.96                             131    0.29 9  144 259 
 PTB  HZ I         545  1.77         1.9 0.20            132            144 259 
 OCA  HN ES        544 59.12                             127    0.01 9  162 355 
 CHI  HN ES        545 15.18                             116   -0.00 8  245 194 
 GUY2CHZ EP        544 52.66                             111    0.43 7  297 235 
 GUY2CHN ES   4    545 23.89                             111   -1.69 0  297 235 
 GUY2CHZ I         545 33.82         0.7 0.58                           297 235 
                                                                                
