 2013  213 0622 52.2 L   6.803 -73.146146.4  RSN  7 0.5 1.8LRSN                1
 GAP=136        1.07       3.6     6.0  7.5  0.8623E+00  0.8706E+01  0.2364E+01E
 Epicentro: LOS SANTOS - SANTANDER                                             3
 ACTION:UPD 13-03-12 09:32 OP:ep   STATUS:               ID:20130213062252 L   I
 2013-02-13-0620-00M.COL___239                                                 6
 STAT SP IPHASW D HRMM SECON CODA AMPLIT PERI AZIMU VELO AIN AR TRES W  DIS CAZ7
 BAR2 SZ EP   2    623 11.68                             170   -0.22 5 23.6 190 
 BRR  HZ EP        623 13.46                             153    0.0610 71.0 298 
 BRR  HN ES        623 30.30                             153    0.3610 71.0 298 
 PAM  SZ EP        623 14.48                             151    0.0210 77.2  40 
 PAM  SN ES        623 31.50                             151   -0.3310 77.2  40 
 PAM  SN I         623 32.15         9.4 0.46            152           77.2  40 
 RUS  HZ EP        623 15.66                             144   -0.3610  101 176 
 RUS  HN ES        623 34.80                             144    0.1910  101 176 
 RUS  HN I         623 36.06         5.1 0.40            144            101 176 
 PTB  HZ EP        623 18.49                             132   -0.72 9  148 259 
 PTB  HN ES   1    623 39.53                             132   -0.76 7  148 259 
 SML  HZ EP        623 28.95                             118    0.13 8  243 335 
 SML  HN ES        623 58.11                             118    0.72 8  243 335 
 SML  HN I         624  0.62        12.7 0.10            118            243 335 
 CHI  HZ EP        623 29.94                             117   -0.01 8  249 195 
 CHI  HN ES        624  0.34                             117    0.93 8  249 195 
 CHI  HN I         624  2.07         3.1 0.32            117            249 195 
                                                                                
