 2010  213 0822 44.4 L   6.802 -72.863148.8  RSN  4 0.5 1.5LRSN                1
 GAP=252        0.74      13.4    38.1 12.9 -0.3785E+03 -0.2420E+03  0.1234E+03E
 Epicentro: SAN ANDRES - SANTANDER                                             3
 ACTION:UP  10-08-24 09:48 OP:vdl  STATUS:               ID:20100213082244 L   I
 2010-02-13-0819-22S.COL___094                                                 6
 STAT SP IPHASW D HRMM SECON CODA AMPLIT PERI AZIMU VELO SNR AR TRES W  DIS CAZ7
 BAR2 SZ EP   1    823  5.05                             163     0.2 7   42 237 
 BAR2 SZ ES   2    823 20.10                             163    -0.8 5   42 237 
 GIR2 SZ EP   1    823  5.16                             161     0.2 7   48 310 
 GIR2 SZ ES   2    823 21.13                             161     0.2 5   48 310 
 CHI  HZ EP   1    823 23.08                             117    -0.2 6  259 202 
 CHI  HZ I         823 25.70         1.2 0.43                           259 202 
 CHI  HN ES   2    823 54.50                             117     0.8 4  259 202 
 PRA  HZ EP   1    823 39.04                             106    -0.9 4  409 213 
 PRA  HE ES   2    824 23.74                             106     0.5 3  409 213 
 PRA  HZ I         824 26.81         1.3 0.55                           409 213 
                                                                                
