 2011  613 0122 44.6 L   6.780 -73.115137.9  RSN  5 0.3 1.5LRSN                1
 GAP=226        0.54       5.9     8.0  6.6  0.1433E+02  0.1015E+02  0.7145E+01E
 Epicentro: LOS SANTOS - SANTANDER                                             3
 ACTION:UP  11-07-14 19:04 OP:ep   STATUS:               ID:20110613012244 L   I
 2011-06-13-0118-02S.COL___132                                                 6
 STAT SP IPHASW D HRMM SECON CODA AMPLIT PERI AZIMU VELO SNR AR TRES W  DIS CAZ7
 BAR2 SZ ES   1    123 17.50                             170    -0.3 7   22 200 
 BAR2 SZ I         123 19.58         6.3 0.22                            22 200 
 BTL  SZ EP   2    123  3.62                             170     0.3 5   23 312 
 BTL  SZ ES   2    123 17.86                             170     0.0 5   23 312 
 BRR  HZ EP   1    123  5.14                             150     0.0 7   75 299 
 BRR  HZ I         123  5.45        15.0 0.10                            75 299 
 BRR  HN ES   2    123 21.55                             150     0.3 5   75 299 
 RUS  HZ EP   1    123  7.37                             143    -0.1 7   98 178 
 RUS  HE ES   2    123 25.78                             143     0.5 5   98 178 
 RUS  HZ I         123 28.07         2.4 0.29                            98 178 
 NOR  SE ES   2    123 47.59                             116    -0.1 4  236 235 
                                                                                
