 2010  813 0510 33.3 L   6.422 -73.641109.1  RSN 12 0.5 2.0LRSN                1
 GAP= 64        0.99       3.7     6.0  9.1 -0.4653E+01  0.3492E+02 -0.5053E+01E
 Epicentro: SANTA HELENA DEL OPON - SANTANDER                                  3
 ACTION:UP  10-09-07 10:54 OP:vdl  STATUS:               ID:20100813051033 L   I
 2010-08-13-0507-14S.COL___126                                                 6
 STAT SP IPHASW D HRMM SECON CODA AMPLIT PERI AZIMU VELO SNR AR TRES W  DIS CAZ7
 BAR2 SZ EP   1    510 50.08                             151     0.2 7   54  70 
 BAR2 SZ ES        511  2.84                             151     0.010   54  70 
 BRR  HZ IP     D  510 51.06                             142     0.010   76 354 
 BRR  HZ I         510 51.37        43.0 0.11                            76 354 
 RUS  HZ IP     C  510 51.96                             139    -0.510   85 133 
 RUS  HZ I         510 52.27        20.0 0.24                            85 133 
 RUS  HE ES   2    511  6.70                             139    -0.6 5   85 133 
 GIR2 SZ EP   1    510 52.43                             138     0.3 7   88  34 
 GUE  SZ EP        511  1.03                             117     0.2 9  175  27 
 GRA  SZ EP   1    511  2.38                             115     0.5 7  186  30 
 GRA  SZ I         511 35.73         9.9 0.32                           186  30 
 CHI  HZ EP   1    511  2.91                             114    -0.7 6  198 183 
 CHI  HE ES   1    511 27.67                             114     0.5 6  198 183 
 CHI  HZ I         511 29.23         5.0 0.17                           198 183 
 OCA  SZ EP   1    511  4.51                             113     0.6 6  204  10 
 OCA  SZ I         511 33.87        21.3 0.42                           204  10 
 HEL  HZ EP   1    511  5.26                             112     0.4 6  210 263 
 HEL  HN ES   2    511 29.83                                     0.4 4  210 263 
 HEL  HZ I         511 32.66         8.5 0.30                           210 263 
 RREF HZ EP   1    511 10.47                             108     0.4 6  253 228 
 RREF HN ES   2    511 38.72                             108     0.0 4  253 228 
 RREF HZ I         511 44.56         5.2 0.21                           253 228 
 PRA  HZ EP   1    511 18.30                             102    -0.1 5  330 205 
 PRA  HN ES   2    511 54.16                             102     0.6 3  330 205 
 PRA  HZ I         511 57.01         4.4 0.45                           330 205 
 MON  HZ EP        511 18.89                             101    -1.0 7  342 320 
 MON  HZ I         511 19.40         3.9 0.14                           342 320 
 MON  HE ES   1    511 55.41                             101    -0.8 5  342 320 
                                                                                
