 2012  913 0445 31.4 L   6.097 -73.831 97.7  RSN 12 0.2 2.4LRSN                1
 GAP= 71        0.55       1.6     1.7  4.0 -0.2158E+00  0.4812E-01  0.1182E+01E
 Epicentro: EL PEON - SANTANDER                                                3
 ACTION:UPD 12-10-22 14:18 OP:ep   STATUS:               ID:20120913044531 L   I
 2012-09-13-0440-00M.COL___227                                                 6
 STAT SP IPHASW D HRMM SECON CODA AMPLIT PERI AZIMU VELO AIN AR TRES W  DIS CAZ7
 PTB  HZ EP        445 48.60                             136   -0.1010 84.7 305 
 PTB  HN ES        446  1.89                             136   -0.3510 84.7 305 
 RUS  HZ EP        445 49.52                             136    0.0710 85.8 105 
 RUS  HZ I         445 50.11        70.8 0.13                          85.8 105 
 RUS  HE ES   1    446  3.34                             136   -0.23 7 85.8 105 
 BAR2 SZ IP        445 49.72                             134    0.2310 90.2  53 
 BAR2 SZ ES        446  3.63                             134    0.0010 90.2  53 
 BRR  HZ IP     C  445 51.21                             127   -0.0310  112   7 
 BRR  HE ES        446  7.16                             127    0.4110  112   7 
 BRR  HZ I         446 11.11        42.7 0.17                           112   7 
 GIR2 SZ EP        445 53.23                             123    0.0910  129  33 
 NOR  SZ EP   1    445 53.24                             123    0.23 7  129 243 
 NOR  SN ES   1    446  9.78                             123   -0.12 7  129 243 
 NOR  SZ I         446 13.73        60.5 0.29                           129 243 
 CHI  HZ EP   1    445 57.18                             117    0.13 7  163 176 
 CHI  HE ES        446 17.19                             117    0.10 9  163 176 
 CHI  HZ I         446 23.58        25.0 0.37                           163 176 
 PAM  SZ EP        445 59.39                             114   -0.33 9  186  42 
 PAM  SZ I         446  1.64        40.2 0.15                           186  42 
 HEL  HZ EP   2    446  0.20                             113    0.36 4  188 273 
 HEL  HN ES   2    446 22.12                             113    0.06 4  188 273 
 HEL  HZ I         446 28.41        16.6 0.26                           188 273 
 ZAR  HZ EP   1    445 59.66                             113   -0.10 7  192 324 
 ZAR  HN ES   2    446 22.18                             113    0.25 4  192 324 
 ZAR  HZ I         446 24.46        21.6 0.09                           192 324 
 TAM  HZ EP   1    446  3.45                             109   -0.66 6  229  80 
 TAM  HZ I         446  4.14        36.2 0.25                           229  80 
 PRA  HZ EP   1    446 11.31                             105    0.15 5  288 204 
                                                                                
