 2016  813 0317  6.4 L   5.934 -73.628132.2  RSN  6 0.4 1.4LRSN                1
 GAP= 90        1.10       5.1     6.8  9.3 -0.8406E+01 -0.1261E+02  0.1019E+02E
 Epicentro: BARBOSA - SANTANDER                                                3
 ACTION:UPD 16-10-29 15:35 OP:rebc STATUS:               ID:20160813031706 L   I
 OLDACT:UP  16-08-13 15:34 OP:dani STATUS:               ID:20160813030659     3
 OLDACT:UP  16-08-13 15:33 OP:dani STATUS:               ID:20160813030659     3
 OLDACT:REG 16-08-13 12:22 OP:dani STATUS:               ID:20160813030659     3
 2016-08-13-0306-59S.COL___346                                                 6
 STAT SP IPHASW D HRMM SECON CODA AMPLIT PERI AZIMU VELO AIN AR TRES W  DIS CAZ7
 SPBC HZ EP        317 25.85                             155    0.3510 58.3 238 
 SPBC HE ES        317 40.91                             155    0.5110 58.3 238 
 SPBC HZ I         317 46.71         6.7 0.22                          58.3 238 
 RUS  HZ EP   2    317 25.96                             154   -0.24 5 60.5  94 
 RUS  HN ES   4    317 39.38                             154   -2.27 0 60.5  94 
 RUS  HZ I         317 41.34         7.0 0.30                          60.5  94 
 BAR2 EZ EP        317 27.59                             145    0.0510 87.9  34 
 BAR2 EZ ES        317 43.57                             145   -0.4710 87.9  34 
 BAR2 EZ I         317 46.64         6.2 0.50                          87.9  34 
 PTB  HZ EP        317 29.12                             137   -0.1010  114 306 
 PTB  HE ES        317 46.27                             137   -0.7510  114 306 
 PTB  HZ I         317 52.92         4.4 0.16                           114 306 
 BRR  HZ EP        317 31.01                             133    0.3810  130 356 
 BRR  HN ES        317 50.04                             133    0.5110  130 356 
 BRR  HZ I         317 56.49         3.2 0.19                           130 356 
 CHI  HZ EP        317 32.13                             130   -0.42 9  145 185 
 CHI  HZ I         317 57.71         1.5 0.24                           145 185 
                                                                                
