 2012  913 0016 58.3 L   6.732 -73.119145.0  RSN  9 0.3 2.2LRSN                1
 GAP=143        0.58       3.1     3.5  4.8  0.3553E-01  0.3872E+01  0.2927E+01E
 Epicentro: JORDAN - SANTANDER                                                 3
 ACTION:UPD 12-10-22 14:18 OP:ep   STATUS:               ID:20120913001658 L   I
 2012-09-13-0010-00M.COL___227                                                 6
 STAT SP IPHASW D HRMM SECON CODA AMPLIT PERI AZIMU VELO AIN AR TRES W  DIS CAZ7
 BAR2 SZ EP        017 17.95                             173    0.2210 17.0 204 
 BAR2 SZ I         017 18.25        47.5 0.25                          17.0 204 
 BAR2 SZ ES   1    017 32.28                             173   -0.61 7 17.0 204 
 GIR2 SZ EP        017 18.07                             164   -0.0610 39.2 348 
 GIR2 SZ ES   2    017 33.58                             164   -0.01 5 39.2 348 
 BRR  HZ EP        017 19.84                             150    0.0910 77.5 302 
 BRR  HZ I         017 20.31        44.5 0.12                          77.5 302 
 BRR  HN ES   1    017 36.95                             150    0.48 7 77.5 302 
 PAM  SZ EP   1    017 20.74                             149    0.04 7 81.6  35 
 PAM  SZ I         017 21.17        19.9 0.21                          81.6  35 
 PAM  SN ES   1    017 37.74                             149   -0.42 7 81.6  35 
 RUS  HZ EP        017 21.45                             146    0.0010 92.9 178 
 RUS  HN ES   1    017 39.91                             146    0.42 7 92.9 178 
 RUS  HZ I         017 41.35        15.0 0.27                          92.9 178 
 PTB  HE ES   2    017 46.24                             131   -0.23 5  149 262 
 ZAR  HZ EP   2    017 30.71                             121   -0.58 4  210 294 
 ZAR  HN ES   1    017 57.12                             121    0.11 6  210 294 
 ZAR  HZ I         018  2.30        22.5 0.05                           210 294 
 NOR  SZ EP   2    017 33.46                             118   -0.34 4  233 236 
 NOR  SN ES   2    018  1.26                             118   -0.22 4  233 236 
 NOR  SZ I         018  8.31        12.6 0.22                           233 236 
 PRA  HZ EP   2    017 51.64                             107    0.42 3  387 210 
 PRA  HN ES   1    018 32.27                             107   -0.22 4  387 210 
                                                                                
