 2010  713 0013 57.6 L   6.826 -73.025144.0  RSN  8 0.3 1.6LRSN                1
 GAP=169        0.64       3.8     6.2  6.9 -0.6966E+00 -0.1793E+01 -0.2646E+01E
 Epicentro: CEPITA - SANTANDER                                                 3
 ACTION:UPD 10-12-01 15:17 OP:pat  STATUS:               ID:20100713001357 L   I
 2010-07-13-0012-41S.COL___120                                                 6
 STAT SP IPHASW D HRMM SECON CODA AMPLIT PERI AZIMU VELO AIN AR TRES W  DIS CAZ7
 GIR2 SZ ES   2    014 32.36                             166     0.0 5   34 326 
 BRR  HZ EP   1    014 18.78                             149    -0.4 7   82 292 
 BRR  HZ I         014 19.10        12.7 0.14                            82 292 
 BRR  HE ES   1    014 36.01                             149     0.0 7   82 292 
 BRI  SZ EP   2    014 21.68                             143     0.9 5  102  14 
 BRI  SZ I         014 45.46         4.4 0.62                           102  14 
 RUS  HZ EP   1    014 21.21                             143    -0.1 7  103 184 
 RUS  HE ES   1    014 40.02                             143     0.1 7  103 184 
 RUS  HZ I         014 41.53         2.6 0.39                           103 184 
 GUE  SZ EP   2    014 21.31                             140    -0.4 5  112   6 
 OCA  SZ EP   1    014 25.56                             129    -0.1 7  160 348 
 OCA  SZ ES   2    014 47.78                             129     0.2 5  160 348 
 OCA  SZ I         014 53.48         5.9 0.38                           160 348 
 HEL  HZ EP   2    014 39.43                             113     0.2 4  286 256 
 HEL  HE ES   2    015 12.21                             113     0.5 4  286 256 
 HEL  HZ I         015 15.82         3.1 0.40                           286 256 
 RREF HE ES   2    015 21.92                             110    -0.1 3  334 230 
 RREF HZ I         015 27.53         1.6 0.23                           334 230 
                                                                                
