 2011  313 0012 34.8 L   6.799 -73.178142.0  RSN 14 0.4 2.5LRSN                1
 GAP=102        0.85       2.8     4.3  5.8 -0.6191E+00  0.1196E+02  0.1605E+01E
 Epicentro: LOS SANTOS - SANTANDER                                             3
 ACTION:UP  11-06-16 14:33 OP:jfem STATUS:               ID:20110313001234 L   I
 2011-03-13-0010-51S.COL___134                                                 6
 STAT SP IPHASW D HRMM SECON CODA AMPLIT PERI AZIMU VELO SNR AR TRES W  DIS CAZ7
 BAR2 SZ EP   1    012 54.03                             170     0.1 7   23 182 
 BAR2 SZ ES        013  8.78                             170    -0.110   23 182 
 BAR2 SZ I         013 11.03        82.7 0.30                            23 182 
 RUS  HZ EP   1    012 57.95                             143    -0.2 7  101 174 
 RUS  HE ES   1    013 16.59                             143     0.2 7  101 174 
 RUS  HZ I         013 18.23        54.8 0.45                           101 174 
 GRA  SZ EP   1    012 59.91                             136     0.1 7  127  19 
 GRA  SZ ES   1    013 19.28                             136     0.0 7  127  19 
 GRA  SZ I         013 24.65        50.4 0.29                           127  19 
 OCA  SZ EP   1    013  2.49                             129    -0.3 7  160 354 
 OCA  SZ ES   1    013 24.82                             129     0.2 7  160 354 
 OCA  SZ I         013 29.27        72.4 0.31                           160 354 
 YOP  SZ EP   1    013  4.43                             125    -0.3 7  180 152 
 YOP  SN ES   1    013 28.36                             125     0.3 7  180 152 
 YOP  SZ I         013 32.42        29.3 0.58                           180 152 
 NOR  SZ EP   1    013  9.84                             118    -0.2 6  232 234 
 NOR  SE ES   1    013 37.16                             118    -0.3 6  232 234 
 NOR  SZ I         013 42.39         6.2 0.21                           232 234 
 CHI  HZ EP   1    013 12.05                             116    -0.1 6  248 194 
 CHI  HN ES   1    013 41.08                             116    -0.2 6  248 194 
 CHI  HZ I         013 49.82        26.3 0.48                           248 194 
 HEL  HZ EP        013 15.30                             114     0.9 8  269 256 
 HEL  HE ES   2    013 44.87                             114    -0.5 4  269 256 
 HEL  HZ I         013 52.48        26.8 0.25                           269 256 
 GUY  SZ EP   2    013 18.79                             112     0.9 4  298 234 
 GUY  SZ I         014  0.27        51.2 0.44                           298 234 
 VIL  SN ES   1    013 51.65                             111     0.0 5  303 191 
 DBB  SZ EP        013 21.25                             109    -0.5 7  336 274 
 DBB  SZ ES        013 58.10                             109    -0.2 7  336 274 
 DBB  SZ I         014  0.36         6.4 0.38                           336 274 
 TOL  SZ EP        013 23.59                             109     1.0 7  341 224 
 MON  HZ EP   4    013 21.23                             108    -2.1 0  350 309 
 SDV  BZ EP   3    013 23.17                             107    -1.8 2  363  51 
 PRA  HZ EP        013 27.50                             106    -0.5 6  390 209 
 PRA  HE ES        014  9.24                             106    -0.2 6  390 209 
                                                                                
