 2017  213 0015 13.1 L   6.900 -73.268146.0  RSN 22 0.7 2.5LRSN                1
 GAP= 55        1.57       4.0     4.3  6.6 -0.2950E+00  0.7360E+01  0.4385E+01E
 Epicentro: BETULIA - SANTANDER                                                3
 ACTION:UPD 17-05-24 15:35 OP:jn   STATUS:               ID:20170213001513 L   I
 OLDACT:UP  17-02-13 13:40 OP:edw  STATUS:               ID:20170213000744     3
 OLDACT:UP  17-02-13 13:36 OP:edw  STATUS:               ID:20170213000744     3
 OLDACT:UP  17-02-13 13:24 OP:edw  STATUS:               ID:20170213000744     3
 OLDACT:REG 17-02-13 11:23 OP:edw  STATUS:               ID:20170213000744     3
 2017-02-13-0008-00M.COL___352                                                 6
 STAT SP IPHASW D HRMM SECON CODA AMPLIT PERI AZIMU VELO AIN AR TRES W  DIS CAZ7
 BAR2 EZ IP     C  015 33.41                             166    0.3810 35.4 164 
 BAR2 EZ ES        015 48.52                             166   -0.0810 35.4 164 
 BAR2 EZ I         015 49.97       135.6 0.48            162           35.4 164 
 BRR  HZ IP     C  015 34.33                             158    0.9510 54.1 295 
 BRR  HE ES        015 49.60                             158    0.3810 54.1 295 
 BRR  HZ I         015 53.25        58.9 0.18            158           54.1 295 
 PAM  EZ EP        015 36.57                             150    1.1410 79.4  52 
 PAM  EE ES        015 53.07                             150    0.2010 79.4  52 
 PAM  EZ I         015 57.14        61.5 0.66            151           79.4  52 
 RUS  HZ EP        015 37.67                             140   -0.1310  113 170 
 RUS  HN ES        015 56.00                             140   -1.0810  113 170 
 RUS  HZ I         015 57.82        35.3 0.18            137            113 170 
 PTB  HZ IP   9 C  015 38.81                             134   -0.32 0  137 253 
 PTB  HN ES        015 57.97                             135   -1.16 9  137 253 
 PTB  HZ I         016  0.07        66.2 0.14            132            137 253 
 TAM  HZ EP        015 42.11                             127   -0.18 9  171 107 
 TAM  HN ES        016  4.60                             127   -0.49 9  171 107 
 ZAR  HZ EP        015 44.20                             125    0.36 9  187 291 
 ZAR  HN ES        016  7.85                             125    0.01 9  187 291 
 ZAR  HZ I         016 10.52        51.1 0.10            123            187 291 
 NOR  HZ EP     C  015 48.29                             119   -0.10 8  231 230 
 NOR  HN ES   4    016 13.85                             119   -2.09 0  231 230 
 NOR  HZ I         016 16.86        21.7 0.52            117            231 230 
 CHI  HN ES        016 21.31                             116   -0.37 8  256 192 
 ROSC BZ EP   4    015 52.97                             116    1.43 0  256 207 
 ROSC BN ES   4    016 23.45                             116    1.90 0  256 207 
 ROSC BZ I         016 28.92        11.5 0.55            114            256 207 
 CHI  HZ EP        015 51.42                             116   -0.20 8  256 192 
 CHI  HZ I         016 27.06         6.5 0.16            114            256 192 
 URE  HZ EP   9    015 51.53                             115   -0.77 0  267 291 
 URE  HN ES        016 20.96                             115   -1.17 8  267 291 
 URE  HZ I         016 24.59        37.2 0.16            114            267 291 
 VIL  EZ EP        015 57.75                             111    0.28 7  312 189 
 VIL  EN ES        016 31.68                             111   -0.42 7  312 189 
 VIL  EZ I         016 37.38        17.8 0.28            109            312 189 
 LL6C HN EP   4    015 39.77                             111   -17.7 0  314 360 
 LL6C HN ES   4    016 14.28                             111   -17.8 0  314 360 
 PTGC HZ EP        015 57.65                             110   -1.04 7  324 157 
 PTGC HN ES   4    016 31.55                             110   -2.72 0  324 157 
 PTGC HZ I         016 36.07        12.8 0.22            109            324 157 
 CBOC HZ EP        015 59.46                             110    0.51 7  324 249 
 CBOC HE ES        016 34.12                             110   -0.61 7  324 249 
 CBOC HZ I         016 39.18         7.4 0.32            109            324 249 
 DBB  EZ EP        015 59.04                             110    0.11 7  325 272 
 DBB  EN ES   4    016 33.46                             110   -1.24 0  325 272 
 DBB  EZ I         016 35.71        13.2 0.15            109            325 272 
 ELA  HZ EP        016  0.27                             110    0.64 7  326 226 
 ELA  HN ES        016 35.73                             110   -0.22 7  326 226 
 ELA  HZ I         016 44.55        11.6 0.44            109            326 226 
 ANIL HZ EP        016  4.65                             108    1.90 6  356 222 
 ANIL HN ES        016 41.91                             108    0.41 6  356 222 
 ANIL HZ I         016 48.30        27.0 0.28            107            356 222 
 APAC HZ EP   4    016  5.41                             107    0.04 0  382 287 
 APAC HE ES   4    016 46.10                             107   -0.06 0  382 287 
 APAC HZ I         016 48.51         7.7 0.40            106            382 287 
 SJC  HZ EP        016  5.78                             106   -0.91 6  393 328 
 SJC  HN ES        016 46.23                             106   -2.28 6  393 328 
 SJC  HZ I         016 49.68         4.0 0.13            105            393 328 
 PRA  HZ EP        016  7.06                             106    0.07 6  395 207 
 PRA  HN ES        016 48.71                             106   -0.34 6  395 207 
 PRA  HZ I         016 56.62        14.6 0.34            105            395 207 
 ORTC HZ EP        016  6.96                             106   -0.20 6  397 214 
 ORTC HE ES        016 48.93                             106   -0.41 6  397 214 
 ORTC HZ I         016 57.15         5.2 0.48            105            397 214 
 CRJC HZ EP        016 14.35                             103   -0.04 5  458   5 
 CRJC HN ES        017  0.85                             103   -1.37 5  458   5 
 CRJC HZ I         017  6.24         8.5 0.38            103            458   5 
                                                                                
