 2016  613 0528 28.5 L   6.790 -73.137146.3  RSN  7 0.5 1.6LRSN                1
 GAP=138        1.17       5.6     6.9  8.3 -0.1582E+02  0.1337E+02 -0.3383E+01E
 Epicentro: LOS SANTOS - SANTANDER                                             3
 ACTION:UPD 16-07-21 22:18 OP:rebc STATUS:               ID:20160613052828 L   I
 OLDACT:REG 16-06-13 12:43 OP:dnl  STATUS:               ID:20160613051743     3
 2016-06-13-0517-43M.COL___319                                                 6
 STAT SP IPHASW D HRMM SECON CODA AMPLIT PERI AZIMU VELO AIN AR TRES W  DIS CAZ7
 BAR2 EZ EP        528 48.34                             171    0.1910 22.5 193 
 BAR2 EZ ES        529  3.11                             171   -0.3810 22.5 193 
 BAR2 EZ I         529  4.15         6.0 0.18                          22.5 193 
 BRR  HZ EP        528 50.30                             152    0.5410 72.6 299 
 BRR  HE ES        529  7.18                             152    0.8210 72.6 299 
 BRR  HZ I         529 11.22         7.5 0.12                          72.6 299 
 PAM  EZ EP        528 51.27                             151    0.5110 77.6  38 
 PAM  EN ES        529  8.06                             151   -0.0710 77.6  38 
 PAM  EZ I         529 10.18         5.4 0.66                          77.6  38 
 RUS  HZ EP   2    528 51.81                             144   -0.39 5 99.5 177 
 RUS  HE ES   2    529 10.38                             144   -0.32 5 99.5 177 
 RUS  HZ I         529 11.90         5.1 0.30                          99.5 177 
 PTB  HZ EP        528 55.31                             132   -0.25 9  149 259 
 PTB  HN ES   2    529 16.00                             132   -0.68 5  149 259 
 PTB  HZ I         529 20.69         3.1 0.16                           149 259 
 OCA  HZ EP        528 56.74                             130   -0.20 9  161 353 
 OCA  HN ES        529 18.19                             130   -0.94 9  161 353 
 OCA  HZ I         529 20.40         8.5 0.58                           161 353 
 NOR  HE ES        529 31.97                             119   -0.19 8  235 235 
 NOR  HZ I         529 39.69         2.8 0.50                           235 235 
                                                                                
