 2016 1013 0052 33.6 L   6.864 -73.161142.0  RSN  4 0.5 1.2LRSN                1
 GAP=148        1.19       7.1     7.1 12.8 -0.1743E+02  0.2864E+02  0.1160E+01E
 Epicentro: ZAPATOCA - SANTANDER                                               3
 ACTION:UPD 16-11-09 19:19 OP:rebc STATUS:               ID:20161013005233 L   I
 OLDACT:REG 16-10-13 12:32 OP:y    STATUS:               ID:20161013004742     3
 2016-10-13-0048-00M.COL___372                                                 6
 STAT SP IPHASW D HRMM SECON CODA AMPLIT PERI AZIMU VELO AIN AR TRES W  DIS CAZ7
 PAM  EZ EP        052 55.81                             152    0.6710 73.2  44 
 PAM  EN ES        053 11.48                             152   -0.4810 73.2  44 
 PAM  EZ I         053 14.54         2.3 0.38            157           73.2  44 
 RUS  HZ EP        052 57.52                             141    0.0210  108 175 
 RUS  HN ES        053 16.24                             141    0.0810  108 175 
 RUS  HZ I         053 17.76         1.9 0.42            143            108 175 
 PTB  HZ EP        052 59.46                             131   -0.77 9  148 256 
 PTB  HN ES        053 21.61                             131    0.58 9  148 256 
 PTB  HZ I         053 22.59         2.3 0.28            133            148 256 
 SPBC HZ EP   2    053  2.42                             127    0.19 5  168 217 
 SPBC HN ES   2    053 23.77                             127   -0.81 5  168 217 
 SPBC HZ I         053 31.39         3.2 0.36            129            168 217 
                                                                                
