 2016 1213 0729 26.3 L   6.791 -73.182147.7  RSN  4 0.3 0.8LRSN                1
 GAP=233        0.78       6.2     5.8  6.2  0.1791E+02  0.2891E+01  0.6920E+00E
 Epicentro: LOS SANTOS - SANTANDER                                             3
 ACTION:UPD 17-01-11 20:14 OP:rebc STATUS:               ID:20161213072926 L   I
 OLDACT:UP  16-12-13 17:57 OP:e    STATUS:               ID:20161213071748d    3
 OLDACT:DUP 16-12-13 17:55 OP:e    STATUS:               ID:20161213071748d    3
 OLDACT:UP  16-12-13 17:50 OP:e    STATUS:               ID:20161213071747     3
 OLDACT:UP  16-12-13 17:49 OP:e    STATUS:               ID:20161213071747     3
 OLDACT:REG 16-12-13 13:03 OP:y    STATUS:               ID:20161213071747     3
 2016-12-13-0718-00M.COL___357                                                 6
 STAT SP IPHASW D HRMM SECON CODA AMPLIT PERI AZIMU VELO AIN AR TRES W  DIS CAZ7
 BAR2 EZ EP        729 45.86                             171   -0.2710 22.0 180 
 BAR2 EZ ES        730  1.17                             171   -0.4410 22.0 180 
 BRR  HZ EP        729 47.82                             154    0.3410 68.1 301 
 BRR  HE ES        730  4.28                             154    0.2710 68.1 301 
 RUS  HZ EP        729 50.29                             144    0.1010100.0 174 
 RUS  HN ES        730  9.16                             144    0.3310100.0 174 
 RUS  HZ I         730  9.54         1.5 0.24            143          100.0 174 
 PTB  HZ EP        729 52.74                             133   -0.30 9  144 259 
 PTB  HN ES        730 13.85                             133   -0.06 9  144 259 
 PTB  HZ I         730 17.11         0.6 0.11            131            144 259 
                                                                                
