 2012  813 0321  0.6 L   6.852 -73.155141.8  RSN 11 0.5 2.3LRSN                1
 GAP= 69        0.95       3.8     3.8  6.5 -0.2103E+01  0.7896E+01  0.4085E+01E
 Epicentro: LOS SANTOS - SANTANDER                                             3
 ACTION:UPD 12-09-10 11:56 OP:ep   STATUS:               ID:20120813032100 L   I
 2012-08-13-0320-00M.COL___218                                                 6
 STAT SP IPHASW D HRMM SECON CODA AMPLIT PERI AZIMU VELO AIN AR TRES W  DIS CAZ7
 BAR2 SZ EP   1    321 19.72                             168   -0.12 7 28.9 186 
 BAR2 SZ ES   1    321 34.32                             168   -0.56 7 28.9 186 
 BAR2 SZ I         321 38.06        49.5 0.46                          28.9 186 
 BRR  HZ EP        321 21.35                             153    0.2710 67.7 295 
 BRR  HE ES   1    321 37.89                             153    0.81 7 67.7 295 
 BRR  HZ I         321 42.70        45.4 0.16                          67.7 295 
 PAM  SZ EP   1    321 22.33                             151    0.19 7 73.7  43 
 PAM  SZ I         321 22.62        76.4 0.22                          73.7  43 
 PAM  SN ES        321 39.03                             151    0.0710 73.7  43 
 RUS  HZ EP   1    321 23.88                             141   -0.48 7  106 176 
 RUS  HN ES        321 43.27                             141    0.3510  106 176 
 RUS  HZ I         321 44.48        10.1 0.39                           106 176 
 PTB  HZ EP   1    321 26.48                             131   -0.75 7  148 257 
 PTB  HN ES   1    321 47.55                             131   -0.47 7  148 257 
 PTB  HZ I         321 49.85        18.1 0.14                           148 257 
 OCA  HE ES   1    321 48.73                             130   -0.69 7  154 353 
 OCA  HZ I         321 54.40        45.2 0.21                           154 353 
 TAM  HZ EP   1    321 28.07                             129   -0.10 7  158 107 
 TAM  HZ I         321 40.24        10.7 0.19                           158 107 
 TAM  HN ES   2    321 49.48                             129   -0.22 5  158 107 
 ZAR  HZ EP   1    321 33.15                             122    0.72 6  201 291 
 ZAR  HZ I         322  2.72        27.5 0.21                           201 291 
 NOR  SZ EP   1    321 36.23                             117   -0.11 6  237 233 
 NOR  SN ES        322  3.60                             117   -0.64 8  237 233 
 NOR  SZ I         322 10.94        12.0 0.34                           237 233 
 CHI  HZ EP   1    321 38.56                             116   -0.06 6  254 195 
 CHI  HN ES   1    322  8.89                             116    0.58 6  254 195 
 HEL  HZ EP   1    321 41.52                             114    0.89 6  273 255 
 HEL  HN ES        322 12.08                             114    0.20 8  273 255 
 HEL  HZ I         322 18.54        11.2 0.36                           273 255 
                                                                                
