 2012 1113 0834 59.9 L   6.741 -73.165146.6  RSN  5 0.4 1.1LRSN                1
 GAP=137        0.75       7.0     6.1  8.5  0.5643E+01  0.5264E-01 -0.1746E+02E
 Epicentro: VILLANUEVA - SANTANDER                                             3
 ACTION:UPD 12-12-05 15:33 OP:}ep  STATUS:               ID:20121113083459 L   I
 2012-11-13-0830-00M.COL___230                                                 6
 STAT SP IPHASW D HRMM SECON CODA AMPLIT PERI AZIMU VELO AIN AR TRES W  DIS CAZ7
 BAR2 SZ EP   1    835 19.48                             173   -0.07 7 16.6 187 
 BAR2 SZ ES   1    835 34.22                             173   -0.62 7 16.6 187 
 BAR2 SZ I         835 36.89         3.5 0.28                          16.6 187 
 BRR  HZ EP   1    835 21.43                             152    0.17 7 72.7 304 
 BRR  HN ES   1    835 38.45                             152    0.56 7 72.7 304 
 BRR  HZ I         835 39.42         2.6 0.24                          72.7 304 
 PAM  SZ EP   1    835 22.49                             149   -0.14 7 83.8  38 
 RUS  HN ES   1    835 42.01                             146    0.45 7 94.2 174 
 RUS  HZ I         835 42.27         2.2 0.72                          94.2 174 
 PTB  HZ EP   1    835 26.65                             133   -0.03 7  145 261 
 PTB  HN ES   1    835 47.17                             133   -0.37 7  145 261 
 PTB  HZ I         835 49.59         1.7 0.14                           145 261 
                                                                                
