 2012 1013 0852 37.2 L   6.821 -73.334122.5  RSN  5 0.3 1.6LRSN                1
 GAP=129        0.65       5.9     6.6  7.2  0.2584E+02  0.1646E+02  0.1475E+02E
 Epicentro: ZAPATOCA - SANTANDER                                               3
 ACTION:UPD 12-11-22 17:03 OP:ep   STATUS:               ID:20121013085237 L   I
 2012-10-13-0850-00M.COL___231                                                 6
 STAT SP IPHASW D HRMM SECON CODA AMPLIT PERI AZIMU VELO AIN AR TRES W  DIS CAZ7
 BAR2 SZ EP   1    852 54.54                             165    0.33 7 30.3 147 
 BAR2 SZ ES   1    853  7.57                             165    0.08 7 30.3 147 
 BAR2 SZ I         853  9.07        11.8 0.24                          30.3 147 
 GIR2 SZ EP   1    852 54.07                             164   -0.06 7 32.4  29 
 GIR2 SZ ES   1    853  6.90                             164   -0.45 7 32.4  29 
 BRR  HN ES   1    853  9.00                             155    0.51 7 52.4 307 
 BRR  HN I         853  9.67        13.0 0.19                          52.4 307 
 RUS  HZ EP   1    852 59.30                             137    0.11 7  106 165 
 RUS  HN ES   1    853 16.11                             137   -0.25 7  106 165 
 ZAR  HN ES   1    853 28.25                             120   -0.35 7  184 294 
 ZAR  HN I         853 32.18         3.9 0.24                           184 294 
                                                                                
