 2010 1113 0229 47.5 L   6.829 -72.933142.0  RSN  4 0.4 2.1LRSN                1
 GAP=259        0.98       6.8     9.5  9.4  0.2261E+02  0.1063E+02  0.1123E+02E
 Epicentro: CEPITA - SANTANDER                                                 3
 ACTION:UP  10-12-17 16:52 OP:REBC STATUS:               ID:20101113022947 L   I
 2010-11-13-0228-37S.COL___129                                                 6
 STAT SP IPHASW D HRMM SECON CODA AMPLIT PERI AZIMU VELO SNR AR TRES W  DIS CAZ7
 BAR2 SZ EP   1    230  7.53                             164     0.5 7   38 226 
 BAR2 SZ ES   2    230 22.31                             164     0.0 5   38 226 
 BAR2 SZ I         230 23.53        25.8 0.46                            38 226 
 BRR  HZ EP        230  9.40                             145    -0.110   91 290 
 BRR  HZ I         230 11.56        17.1 0.52                            91 290 
 BRR  HN ES        230 26.63                             145    -0.110   91 290 
 RUS  HZ EP        230 11.49                             141     0.310  105 189 
 RUS  HN ES        230 29.35                             141    -0.310  105 189 
 RUS  HZ I         230 30.90        15.9 0.27                           105 189 
 RREF HZ EP   1    230 34.74                             108    -1.1 5  342 232 
 RREF HN ES        231 13.99                             108     0.5 7  342 232 
 RREF HZ I         231 16.59         5.9 0.24                           342 232 
                                                                                
