 2015  413 0537 25.4 L   6.797 -73.147141.0  RSN  9 0.5 2.2LRSN                1
 GAP=136        1.28       4.8     5.0  8.0 -0.1258E+01  0.1512E+02  0.1617E+01E
 Epicentro: LOS SANTOS - SANTANDER                                             3
 ACTION:UPD 15-06-03 16:54 OP:cam  STATUS:               ID:20150413053725 L   I
 OLDACT:REG 15-04-13 13:12 OP:carl STATUS:               ID:20150413052749     3
 2015-04-13-0527-49M.COL___266                                                 6
 STAT SP IPHASW D HRMM SECON CODA AMPLIT PERI AZIMU VELO AIN AR TRES W  DIS CAZ7
 BAR2 EZ EP        537 44.42                             170   -0.0210 23.0 190 
 BAR2 EZ ES        537 59.02                             170   -0.2910 23.0 190 
 BAR2 EZ I         538  0.58        60.1 0.18            170           23.0 190 
 BRR  HZ EP        537 46.24                             152    0.2110 71.2 299 
 BRR  HN ES        538  3.03                             152    0.9010 71.2 299 
 BRR  HZ I         538  7.80        22.6 0.30            150           71.2 299 
 PAM  SZ EP        537 47.25                             150    0.1310 77.7  39 
 PAM  SN ES        538  4.25                             150    0.1710 77.7  39 
 PAM  SZ I         538  6.41        22.2 0.52            153           77.7  39 
 RUS  HZ EP        537 48.58                             143   -0.0810  100 176 
 RUS  HN ES        538  6.76                             143   -0.0410  100 176 
 RUS  HZ I         538  8.68        17.0 0.32            146            100 176 
 PTB  HZ EP        537 51.16                             131   -0.80 9  148 259 
 PTB  HN ES        538 11.84                             131   -0.84 9  148 259 
 ZAR  HN ES        538 22.88                             121    0.28 9  204 292 
 NOR  HZ EP        538  0.75                             118   -0.07 8  234 235 
 NOR  HN ES        538 28.35                             118   -0.10 8  234 235 
 NOR  HZ I         538 32.89         8.6 0.16            119            234 235 
 SML  HZ EP   4    537 54.98                             116   -6.80 0  244 335 
 SML  HE ES        538 29.25                             116   -0.91 8  244 335 
 SML  HZ I         538 34.73        22.8 0.24            118            244 335 
 HEL  HZ EP        538  6.42                             114    1.08 8  272 256 
 HEL  HN ES        538 37.06                             114    0.56 8  272 256 
 HEL  HZ I         538 45.18         8.1 0.24            115            272 256 
                                                                                
