 2016 1113 0029 40.4 L   6.841 -73.129148.0  RSN 10 0.4 1.9LRSN                1
 GAP=151        0.91       4.3     4.2  6.1 -0.1589E+01  0.4475E+01  0.1194E+02E
 Epicentro: LOS SANTOS - SANTANDER                                             3
 ACTION:UPD 17-10-26 21:07 OP:lp   STATUS:               ID:20161113002940 L   I
 OLDACT:UP  16-11-13 13:46 OP:and  STATUS:               ID:20161113002743     3
 OLDACT:UP  16-11-13 13:42 OP:and  STATUS:               ID:20161113002743     3
 OLDACT:REG 16-11-13 12:33 OP:and  STATUS:               ID:20161113002743     3
 2016-11-13-0028-00M.COL___340                                                 6
 STAT SP IPHASW D HRMM SECON CODA AMPLIT PERI AZIMU VELO AIN AR TRES W  DIS CAZ7
 BAR2 EZ EP        030  0.18                             169   -0.2510 28.2 192 
 BAR2 EZ ES        030 15.46                             169   -0.5810 28.2 192 
 BAR2 EZ I         030 16.94        15.0 0.18            164           28.2 192 
 BRR  HZ EP        030  2.17                             153    0.3710 70.8 295 
 BRR  HE ES        030 19.12                             153    0.6510 70.8 295 
 BRR  HZ I         030 22.97         9.5 0.22            154           70.8 295 
 PAM  EZ EP        030  2.89                             153    0.2810 72.7  41 
 PAM  EN ES        030 19.87                             153   -0.0410 72.7  41 
 PAM  EZ I         030 20.62        11.2 0.24            156           72.7  41 
 PTB  HZ EP        030  7.16                             132   -0.67 9  151 257 
 PTB  HE ES        030 29.29                             132    0.09 9  151 257 
 PTB  HZ I         030 32.05         7.4 0.12            131            151 257 
 ZAR  HE ES        030 38.02                             123   -0.43 9  204 291 
 ZAR  HZ I         030 45.55         7.5 0.31            123            204 291 
 NOR  HZ EP        030 16.92                             118    0.18 8  239 234 
 NOR  HN ES   3    030 45.81                             118    0.75 2  239 234 
 NOR  HZ I         030 47.94         6.9 0.18            117            239 234 
 CHI  HZ EP        030 18.69                             117   -0.09 8  254 195 
 CHI  HE ES        030 49.08                             117    0.38 8  254 195 
 CHI  HZ I         030 56.45         4.0 0.38            116            254 195 
 PTGC HZ EP   4    030 23.44                             112   -1.35 0  312 159 
 PTGC HN ES   4    031  9.54                             112   10.14 0  312 159 
 PTGC HZ I         031 15.27        10.7 0.26            111            312 159 
 PRA  HZ EP        030 34.76                             107    0.16 6  397 209 
 PRA  HN ES        031 16.96                             107    0.11 6  397 209 
 PRA  HZ I         031 23.15         3.4 0.28            106            397 209 
 SJC  HZ EP   3    030 34.35                             106   -1.39 1  406 326 
 SJC  HN ES   4    031 15.98                             106   -2.90 0  406 326 
 SJC  HZ I         031 20.64         1.6 0.22            106            406 326 
                                                                                
