 2012  213 0632 37.9 L   6.793 -73.143148.7  RSN 11 0.4 1.8LRSN                1
 GAP=137        0.58       4.1     4.2  5.8 -0.1358E+01  0.8647E+01  0.6025E+01E
 ACTION:UP  12-03-07 16:30 OP:epov STATUS:               ID:20120213063237 L   I
 2012-02-13-0630-00M.COL___188                                                 6
 STAT SP IPHASW D HRMM SECON CODA AMPLIT PERI AZIMU VELO AIN AR TRES W  DIS CAZ7
 BAR2 SZ EP   1    632 57.66                             171   -0.20 7 22.6 191 
 BAR2 SZ ES   2    633 13.09                             171   -0.34 5 22.6 191 
 BAR2 SZ I         633 16.22        13.4 0.43                          22.6 191 
 GIR2 SZ EP   2    632 57.76                             167   -0.17 5 32.1 350 
 GIR2 SZ ES   2    633 14.55                             167    0.98 5 32.1 350 
 BRR  HZ EP   1    632 59.69                             153    0.30 7 71.8 299 
 BRR  HZ I         632 59.84        12.3 0.15                          71.8 299 
 BRR  HE ES   2    633 16.57                             153    0.41 5 71.8 299 
 PAM  SZ EP   2    633  0.61                             151    0.17 5 77.8  39 
 PAM  SN ES   2    633 17.65                             151   -0.39 5 77.8  39 
 RUS  HZ EP   2    633  1.69                             145   -0.18 5 99.8 176 
 RUS  HE ES   2    633 20.53                             145   -0.05 5 99.8 176 
 RUS  HZ I         633 21.13         6.0 0.33                          99.8 176 
 PTB  HZ EP   1    633  4.62                             133   -0.49 7  148 259 
 PTB  HN ES   2    633 25.73                             133   -0.60 5  148 259 
 ZAR  HZ EP   2    633 10.33                             123   -0.25 4  205 292 
 ZAR  HN ES   2    633 35.65                             123   -0.43 4  205 292 
 ZAR  HZ I         633 42.49         9.2 0.31                           205 292 
 NOR  SE ES   2    633 41.75                             119    0.01 4  234 235 
 CHI  HZ EP   2    633 15.78                             118    0.11 4  248 195 
 CHI  HN ES   2    633 45.08                             118   -0.07 4  248 195 
 CHI  HZ I         633 50.95         3.0 0.40                           248 195 
 HEL  HZ EP   2    633 18.88                             115    0.62 4  272 256 
 HEL  HE ES   2    633 49.78                             115    0.04 4  272 256 
 HEL  HZ I         633 56.62         3.0 0.34                           272 256 
 RREF HZ EP   1    633 24.69                             111    0.57 5  321 230 
 RREF HN ES   2    634  0.83                             111    0.65 3  321 230 
 RREF HZ I         634  8.89         3.3 0.47                           321 230 
                                                                                
