 2014  713 0618 24.1 L   6.803 -73.166142.1  RSN  6 0.3 1.5LRSN                1
 GAP=236        0.75       4.1     4.4  5.5  0.7546E+01  0.4274E+01  0.1903E+01E
 Epicentro: LOS SANTOS - SANTANDER                                             3
 ACTION:UPD 15-03-16 20:43 OP:nd   STATUS:               ID:20140713061824 L   I
 OLDACT:REG 14-07-13 13:57 OP:stll STATUS:               ID:20140713061818     3
 2014-07-13-0618-18M.COL___247                                                 6
 STAT SP IPHASW D HRMM SECON CODA AMPLIT PERI AZIMU VELO AIN AR TRES W  DIS CAZ7
 BAR2 SZ EP        618 43.38                             170    0.0510 23.4 184 
 BAR2 SZ ES        618 58.16                             170   -0.1310 23.4 184 
 BAR2 SZ I         618 59.88         7.9 0.14            165           23.4 184 
 BRR  HZ EP        618 45.15                             153    0.3810 69.1 299 
 BRR  HN ES        619  1.18                             153    0.3210 69.1 299 
 BRR  HZ I         619  5.32         4.3 0.70            150           69.1 299 
 RUS  HZ EP        618 47.43                             143   -0.1410  101 175 
 RUS  HN ES        619  5.54                             143   -0.3010  101 175 
 RUS  HZ I         619  8.59         2.6 0.40            143            101 175 
 PTB  HZ EP        618 50.45                             132   -0.16 9  146 259 
 PTB  HN ES        619 11.11                             132   -0.15 9  146 259 
 PTB  HZ I         619 18.54         6.0 0.40            131            146 259 
 SPBC HZ EP        618 52.35                             128    0.10 9  162 218 
 SPBC HN ES        619 14.65                             128    0.48 9  162 218 
 SPBC HZ I         619 20.22         4.5 0.22            128            162 218 
 ZAR  HN ES        619 20.55                             122   -0.51 9  202 292 
 ZAR  HZ I         619 23.83         2.9 0.10            123            202 292 
                                                                                
