 2011 1113 0953 18.4 L   6.780 -73.095143.9  RSN  7 0.1 1.8LRSN                1
 GAP=144        0.29       1.4     2.4  2.3  0.1941E+00 -0.4124E+00  0.6742E-01E
 Epicentro: LOS SANTOS - SANTANDER                                             3
 ACTION:UPD 12-07-13 16:09 OP:ep   STATUS:               ID:20111113095318 L   I
 2011-11-13-0950-37S.COL___179                                                 6
 STAT SP IPHASW D HRMM SECON CODA AMPLIT PERI AZIMU VELO AIN AR TRES W  DIS CAZ7
 BAR2 SZ EP   1    953 37.86                             171    0.04 7 22.9 205 
 BAR2 SZ ES   1    953 53.08                             171    0.13 7 22.9 205 
 BAR2 SZ I         953 55.56        10.7 0.46                          22.9 205 
 PAM  SZ EP        953 40.33                             151   -0.0110 75.7  35 
 PAM  SN ES   1    953 57.42                             151   -0.02 7 75.7  35 
 BRR  HZ EP        953 39.63                             150   -0.0910 77.2 298 
 BRR  HE ES        953 56.28                             150   -0.0510 77.2 298 
 BRR  HE I         953 58.21        31.7 0.06                          77.2 298 
 RUS  HZ EP        953 41.72                             144   -0.0910 98.1 179 
 RUS  HN ES   1    954  0.15                             144    0.09 7 98.1 179 
 OCA  SZ EP   1    953 47.08                             129    0.22 7  163 351 
 OCA  SZ ES   1    954  9.03                             129   -0.02 7  163 351 
 OCA  SZ I         954 11.59         7.0 0.45                           163 351 
 CHI  HZ EP   2    953 55.80                             117   -0.15 4  248 197 
 CHI  HZ I         954 34.74         2.2 0.28                           248 197 
 HEL  HZ EP   2    953 59.30                             114    0.22 4  277 257 
 HEL  HZ I         954 36.47         2.7 0.31                           277 257 
                                                                                
