 2010  113 0033 41.4 L   6.815 -73.109138.1  RSN  5 0.2 1.8LRSN                1
 GAP=187        0.38       2.1    17.7  4.5  0.1732E+00  0.1787E+02 -0.2262E+01E
 Epicentro: LOS SANTOS - SANTANDER                                             3
 ACTION:UP  10-08-24 09:43 OP:vdl  STATUS:               ID:20100113003341 L   I
 2010-01-13-0031-11S.COL___097                                                 6
 STAT SP IPHASW D HRMM SECON CODA AMPLIT PERI AZIMU VELO SNR AR TRES W  DIS CAZ7
 BAR2 SZ ES   1    034 14.82                             169     0.0 8   26 198 
 GIR2 SZ EP   1    034  0.36                             167     0.2 8   31 342 
 RUS  BZ EP   2    034  4.65                             142     0.2 5  102 178 
 RUS  BE ES   2    034 22.26                             142    -0.3 5  102 178 
 RUS  BZ I         034 24.53         5.5 0.26                           102 178 
 OCA  SZ IP        034  8.91                             128    -0.110  159 352 
 OCA  SZ ES   1    034 30.48                             128    -0.1 7  159 352 
 OCA  SZ I         034 33.59        32.5 0.47                           159 352 
 CHI  HZ EP   2    034 18.75                             115    -0.2 4  251 196 
 CHI  HN ES   2    034 48.37                             115     0.1 4  251 196 
 CHI  HZ I         034 51.12         2.2 0.59                           251 196 
                                                                                
