 2011  613 0713 59.1 L   6.783 -73.056146.1  RSN  7 0.3 1.4LRSN                1
 GAP=166        0.59       4.1     8.7  6.6 -0.1195E+02  0.3562E+01 -0.7692E+01E
 Epicentro: LOS SANTOS - SANTANDER                                             3
 ACTION:UP  11-07-14 19:04 OP:ep   STATUS:               ID:20110613071359 L   I
 2011-06-13-0712-49S.COL___132                                                 6
 STAT SP IPHASW D HRMM SECON CODA AMPLIT PERI AZIMU VELO SNR AR TRES W  DIS CAZ7
 BAR2 SZ EP   1    714 18.85                             170     0.0 7   25 213 
 BAR2 SZ ES   1    714 34.09                             170    -0.1 7   25 213 
 BAR2 SZ I         714 34.83         6.7 0.30                            25 213 
 BTL  SZ EP   1    714 19.11                             169     0.2 7   28 303 
 BRR  HZ EP   1    714 20.76                             149    -0.1 7   81 296 
 BRR  HZ I         714 21.19                                             81 296 
 BRR  HN ES   2    714 38.35                             149     0.5 5   81 296 
 RUS  HE ES   2    714 41.12                             144    -0.1 5   98 182 
 RUS  HZ I         714 44.01         1.8 0.38                            98 182 
 BRI  SZ ES   2    714 41.18                             142    -0.4 5  107  16 
 BRI  SZ I         714 46.79         4.6 0.43                           107  16 
 GRA  SZ EP   1    714 24.72                             137     0.4 7  125  13 
 GRA  SZ ES   1    714 44.21                             137     0.2 7  125  13 
 GRA  SZ I         714 44.88         4.2 0.33                           125  13 
 OCA  SZ EP   1    714 27.47                             129    -0.3 7  164 350 
 OCA  SZ ES   2    714 49.79                             129    -0.4 5  164 350 
 OCA  SZ I         714 53.46         4.6 0.54                           164 350 
                                                                                
