 2016 1013 0702 52.2 L   6.726 -73.091120.5  RSN  5 0.5 0.9LRSN                1
 GAP=147        1.29       5.5     6.1 12.2 -0.8333E+01  0.4832E+01  0.1602E+02E
 Epicentro: JORDAN - SANTANDER                                                 3
 ACTION:UPD 16-11-09 19:19 OP:rebc STATUS:               ID:20161013070252 L   I
 OLDACT:DUP 16-10-13 16:45 OP:lv   STATUS:               ID:20161013065740d    3
 2016-10-13-0658-00M.COL___357                                                 6
 STAT SP IPHASW D HRMM SECON CODA AMPLIT PERI AZIMU VELO AIN AR TRES W  DIS CAZ7
 PAM  EZ EP        7 3 12.29                             144    0.2310 80.5  33 
 PAM  EN ES        7 3 26.87                             144   -0.6410 80.5  33 
 PAM  EZ I         7 3 31.87         1.4 0.21            150           80.5  33 
 BRR  HZ EP        7 3 11.04                             144   -0.3310 80.5 302 
 BRR  HN ES        7 3 27.16                             144    0.8810 80.5 302 
 RUS  HZ EP        7 3 13.65                             140    0.7210 92.2 179 
 RUS  HN ES        7 3 28.95                             140   -0.1210 92.2 179 
 RUS  HZ I         7 3 33.24         0.9 0.27            143           92.2 179 
 PTB  HZ EP   4    7 3 16.10                             124   -1.64 0  152 262 
 PTB  HN ES        7 3 37.13                             124   -0.49 9  152 262 
 PTB  HZ I         7 3 39.55         1.1 0.21            130            152 262 
 SPBC HZ EP        7 3 18.52                             123   -0.18 9  161 222 
 SPBC HN ES        7 3 39.12                             123   -0.22 9  161 222 
 SPBC HZ I         7 3 45.25         2.2 0.12            127            161 222 
                                                                                
