 2015 1013 0700 52.7 L   6.752 -73.202134.9  RSN  5 0.2 1.1LRSN                1
 GAP=132        0.57       2.7     3.8  4.7 -0.1684E+01  0.4219E+01  0.3265E+01E
 Epicentro: VILLANUEVA - SANTANDER                                             3
 ACTION:UPD 15-12-22 20:39 OP:cam  STATUS:               ID:20151013070052 L   I
 OLDACT:DUP 15-10-13 20:40 OP:stll STATUS:               ID:20151013065743d    3
 2015-10-13-0657-42M.COL___331                                                 6
 STAT SP IPHASW D HRMM SECON CODA AMPLIT PERI AZIMU VELO AIN AR TRES W  DIS CAZ7
 BAR2 EZ EP   4    7 1 12.97                             172    2.07 0 17.8 173 
 BAR2 EZ ES        7 1 25.10                             172   -0.0110 17.8 173 
 BRR  HZ EP        7 1 12.86                             151    0.3510 68.6 305 
 BRR  HN ES        7 1 27.74                             151   -0.2410 68.6 305 
 BRR  HZ I         7 1 32.71         5.5 0.50            152           68.6 305 
 PAM  EN ES        7 1 31.19                             146    0.0610 85.4  41 
 PAM  EZ I         7 1 34.10         3.5 0.58            148           85.4  41 
 RUS  HZ EP        7 1 14.76                             143   -0.2710 96.0 172 
 RUS  HN ES        7 1 32.57                             143    0.1010 96.0 172 
 RUS  HZ I         7 1 34.47         1.1 0.26            147           96.0 172 
 SPBC HZ EP        7 1 19.45                             128   -0.14 9  155 218 
 SPBC HN ES        7 1 40.74                             128    0.16 9  155 218 
                                                                                
