 2012 1013 0739 18.2 L   6.808 -73.158146.8  RSN  7 0.4 2.1LRSN                1
 GAP=135        0.70       4.5     4.2  5.7  0.1634E+01  0.9301E+01  0.2580E+01E
 Epicentro: LOS SANTOS - SANTANDER                                             3
 ACTION:UPD 12-11-22 17:03 OP:ep   STATUS:               ID:20121013073918 L   I
 2012-10-13-0737-59S.COL___229                                                 6
 STAT SP IPHASW D HRMM SECON CODA AMPLIT PERI AZIMU VELO AIN AR TRES W  DIS CAZ7
 BAR2 SZ EP   1    739 37.80                             170   -0.16 7 24.1 187 
 BAR2 SZ ES   1    739 53.24                             170   -0.15 7 24.1 187 
 BAR2 SZ I         739 54.20        31.8 0.20                          24.1 187 
 GIR2 SZ EP   1    739 37.87                             168   -0.09 7 30.2 352 
 GIR2 SZ ES   1    739 53.40                             168    0.02 7 30.2 352 
 BRR  HZ EP   1    739 39.67                             153    0.31 7 69.6 298 
 BRR  HZ I         739 41.28        17.0 0.11                          69.6 298 
 BRR  HE ES   1    739 56.58                             153    0.70 7 69.6 298 
 PAM  SZ EP   1    739 40.75                             151    0.22 7 77.5  41 
 PAM  SN ES   1    739 57.57                             151   -0.38 7 77.5  41 
 PAM  SN I         739 59.22        23.9 0.32                          77.5  41 
 RUS  HZ EP   1    739 41.94                             144   -0.18 7  102 175 
 RUS  HN ES   1    740  0.87                             144    0.09 7  102 175 
 RUS  HZ I         740  1.64        15.2 0.28                           102 175 
 RUS  HN I         740  2.20        30.1 0.36                           102 175 
 ZAR  HZ EP   1    739 50.43                             123   -0.11 6  202 292 
 ZAR  HN ES   1    740 15.20                             123   -0.58 6  202 292 
 ZAR  HN I         740 21.24        16.4 0.14                           202 292 
 HEL  HZ EP   1    739 59.06                             115    0.72 6  271 256 
 HEL  HN ES   1    740 29.15                             115   -0.51 6  271 256 
 HEL  HN I         740 35.78         5.4 0.42                           271 256 
                                                                                
