 2012  813 0912 33.2 L   6.545 -73.521114.8  RSN 15 0.5 2.3LRSN                1
 GAP= 53        0.91       3.0     2.8  6.6 -0.2922E+00  0.5068E+01  0.8100E+01E
 Epicentro: EL CARMEN DE CHUCURI - SANTANDER                                   3
 ACTION:UPD 12-09-10 11:56 OP:ep   STATUS:               ID:20120813091233 L   I
 2012-08-13-0910-00M.COL___217                                                 6
 STAT SP IPHASW D HRMM SECON CODA AMPLIT PERI AZIMU VELO AIN AR TRES W  DIS CAZ7
 BAR2 SZ IP        912 49.71                             161    0.1210 37.8  82 
 BAR2 SZ I         913  3.54       182.1 0.28                          37.8  82 
 BRR  HZ EP   1    912 50.59                             148   -0.13 7 65.7 341 
 BRR  HZ I         912 50.89        51.0 0.12                          65.7 341 
 BRR  HE ES        913  4.71                             148    0.3210 65.7 341 
 GIR2 SZ EP   1    912 51.27                             147    0.11 7 69.2  31 
 GIR2 SZ ES   1    913  5.41                             147    0.24 7 69.2  31 
 RUS  HZ EP   1    912 52.63                             141   -0.30 7 86.9 146 
 RUS  HN ES   1    913  7.71                             141   -0.62 7 86.9 146 
 RUS  HZ I         913  8.85        11.2 0.25                          86.9 146 
 PTB  HZ EP   1    912 52.50                             135   -1.14 7  104 270 
 PTB  HZ I         913  7.72        46.0 0.13                           104 270 
 PAM  SZ EP   1    912 56.29                             129   -0.06 7  126  46 
 PAM  SE ES        913 14.35                             129   -0.0610  126  46 
 PAM  SZ I         913 15.87        45.8 0.26                           126  46 
 ZAR  HZ EP   1    913  2.03                             118    0.71 7  181 305 
 ZAR  HE ES   1    913 24.06                             118    0.80 7  181 305 
 ZAR  HZ I         913 26.56        39.5 0.24                           181 305 
 NOR  SZ EP        913  1.22                             117   -0.53 9  185 234 
 NOR  SN ES   2    913 23.53                             117   -0.50 4  185 234 
 NOR  SZ I         913 25.96        20.2 0.17                           185 234 
 OCA  HZ EP   1    913  2.01                             117   -0.31 7  189   7 
 OCA  HE ES   2    913 24.35                             117   -0.69 4  189   7 
 OCA  HZ I         913 30.59        51.3 0.17                           189   7 
 TAM  HZ EP   1    913  2.59                             116    0.08 7  192  94 
 TAM  HZ I         913 24.66        12.6 0.12                           192  94 
 TAM  HN ES        913 25.57                             116    0.20 9  192  94 
 ROSC BZ EP   1    913  5.81                             114    1.02 6  208 205 
 CHI  HZ EP   1    913  5.21                             114   -0.14 6  213 186 
 CHI  HN ES   1    913 30.97                             114    0.53 6  213 186 
 CHI  HZ I         913 34.92         8.8 0.21                           213 186 
 HEL  HZ EP   1    913  6.79                             112    0.09 6  226 260 
 HEL  HN ES   1    913 32.41                             112   -0.43 6  226 260 
 HEL  HZ I         913 34.98        13.7 0.27                           226 260 
 URE  HN ES   2    913 38.55                             109   -0.33 4  259 301 
 PRA  HZ EP   1    913 20.81                             103    0.27 5  348 206 
 PRA  HN ES        913 57.85                             103    0.39 6  348 206 
 PRA  HZ I         914  2.26         7.0 0.16                           348 206 
                                                                                
