 2016  413 0919 37.4 L   6.832 -73.132150.0  RSN 14 0.4 2.1LRSN                1
 GAP=137        0.85       2.2     3.4  4.4 -0.2118E+01  0.5760E+01 -0.1191E+01E
 Epicentro: LOS SANTOS - SANTANDER                                             3
 ACTION:UPD 16-05-05 14:21 OP:rebc STATUS:               ID:20160413091937 L   I
 OLDACT:REG 16-04-13 13:28 OP:mh   STATUS:               ID:20160413091745     3
 2016-04-13-0917-45M.COL___310                                                 6
 STAT SP IPHASW D HRMM SECON CODA AMPLIT PERI AZIMU VELO AIN AR TRES W  DIS CAZ7
 BAR2 EZ IP        919 57.74                             169    0.1610 27.1 192 
 BAR2 EZ ES        920 13.00                             169   -0.3510 27.1 192 
 BAR2 EZ I         920 14.34        46.7 0.36            168           27.1 192 
 PAM  EZ EP     C  920  0.45                             153    0.6310 73.7  40 
 PAM  EZ I         920  0.70        57.2 0.22            155           73.7  40 
 PAM  EN ES        920 17.53                             153    0.2010 73.7  40 
 RUS  HZ EP        920  1.70                             144   -0.0810  104 177 
 RUS  HE ES        920 20.46                             144   -0.3710  104 177 
 RUS  HZ I         920 21.35         9.7 0.20            147            104 177 
 PTB  HZ EP        920  4.79                             132   -0.09 9  150 258 
 PTB  HN ES        920 25.91                             132   -0.42 9  150 258 
 PTB  HZ I         920 31.41        10.3 0.42            131            150 258 
 OCA  HZ EP        920  5.69                             131   -0.00 9  157 352 
 OCA  HE ES        920 28.13                             131    0.34 9  157 352 
 OCA  HZ I         920 30.91        26.6 0.28            131            157 352 
 SPBC HZ EP        920  6.91                             129    0.37 9  167 219 
 SPBC HN ES        920 29.44                             129    0.14 9  167 219 
 SPBC HZ I         920 33.37        29.4 0.22            130            167 219 
 ZAR  HZ EP        920 10.30                             123    0.21 9  204 291 
 ZAR  HE ES        920 36.03                             123    0.41 9  204 291 
 ZAR  HZ I         920 42.45        14.8 0.42            122            204 291 
 CHI  HZ EP        920 16.11                             117    0.40 8  252 195 
 CHI  HN ES        920 45.29                             117   -0.34 8  252 195 
 CHI  HZ I         920 48.68         8.6 0.60            119            252 195 
 URE  HZ EP        920 18.34                             114   -0.31 7  284 291 
 URE  HE ES   4    920 49.15                             114   -1.70 0  284 291 
 URE  HZ I         921  1.52         7.7 0.20            114            284 291 
 GUY2CHZ EP        920 21.85                             113    0.31 7  304 234 
 GUY2CHN ES        920 56.05                             113    0.05 7  304 234 
 GUY2CHZ I         921  4.11         6.4 0.25                           304 234 
 LL6C HZ EP        920 22.32                             111   -0.53 7  321 357 
 LL6C HN ES        920 57.61                             111   -0.71 7  321 357 
 LL6C HZ I         921  4.81         6.0 0.44            112            321 357 
 CBOC HZ EP        920 25.20                             110    0.45 7  336 252 
 CBOC HN ES        921  1.54                             110   -0.16 7  336 252 
 CBOC HZ I         921  5.83         1.6 0.18            111            336 252 
 ORTC HZ EP        920 31.09                             107   -0.78 6  399 216 
 ORTC HN ES        921 14.52                             107    0.14 6  399 216 
 ORTC HZ I         921 19.01         3.9 0.32            108            399 216 
 SJC  HZ IP        920 31.89                             106   -0.92 6  407 327 
 SJC  HN ES   4    921 12.72                             106   -3.34 0  407 327 
 SJC  HZ I         921 19.74         2.7 0.62            107            407 327 
                                                                                
