 2010  813 0326 40.3 L   6.761 -73.158147.0  RSN  7 0.4 1.8LRSN                1
 GAP=158        0.94       4.2     9.0  7.9 -0.5445E+01 -0.1686E+02  0.8716E+00E
 Epicentro: LOS SANTOS - SANTANDER                                             3
 ACTION:UP  10-09-07 10:54 OP:vdl  STATUS:               ID:20100813032639 L   I
 2010-08-13-0323-46S.COL___126                                                 6
 STAT SP IPHASW D HRMM SECON CODA AMPLIT PERI AZIMU VELO SNR AR TRES W  DIS CAZ7
 BAR2 SZ EP   1    326 59.74                             173    -0.2 7   19 189 
 BAR2 SZ I         327  0.24        14.3 0.10                            19 189 
 BAR2 SZ ES   1    327 14.81                             173    -0.5 7   19 189 
 BTL  SZ EP        326 59.92                             171    -0.110   21 325 
 BRR  HZ EP        327  1.60                             152     0.010   72 302 
 BRR  HN ES        327 18.54                             152     0.310   72 302 
 BRR  HZ I         327 22.02        23.0 0.18                            72 302 
 RUS  HZ EP        327  4.02                             146     0.210   96 175 
 RUS  HE ES   1    327 22.39                             146     0.2 7   96 175 
 RUS  HZ I         327 24.08         6.4 0.22                            96 175 
 GRA  SZ EP        327  6.54                             136     0.510  130  17 
 GRA  SZ ES        327 25.96                             136    -0.110  130  17 
 GRA  SZ I         327 27.32        12.0 0.33                           130  17 
 OCA  SZ EP   1    327  8.20                             129    -0.9 7  164 354 
 OCA  SZ I         327 37.60         8.9 0.27                           164 354 
 CHI  HZ EP   2    327 17.42                             118    -0.1 4  244 195 
 CHI  HN ES   2    327 46.24                             118    -0.4 4  244 195 
 CHI  HZ I         327 54.57         3.1 0.32                           244 195 
                                                                                
