 2016 1213 0848 21.2 L   6.771 -73.076147.0  RSN 12 0.3 1.6LRSN                1
 GAP=126        0.56       2.4     2.6  3.3 -0.9137E+00  0.6843E+00  0.3456E+01E
 Epicentro: LOS SANTOS - SANTANDER                                             3
 ACTION:UPD 17-01-11 20:14 OP:rebc STATUS:               ID:20161213084821 L   I
 OLDACT:UP  16-12-13 22:09 OP:and  STATUS:               ID:20161213084745     3
 OLDACT:UP  16-12-13 22:09 OP:and  STATUS:               ID:20161213084745     3
 OLDACT:REG 16-12-13 13:09 OP:y    STATUS:               ID:20161213084745     3
 2016-12-13-0848-00M.COL___357                                                 6
 STAT SP IPHASW D HRMM SECON CODA AMPLIT PERI AZIMU VELO AIN AR TRES W  DIS CAZ7
 BAR2 EZ IP     D  848 40.98                             171   -0.0310 23.0 211 
 BAR2 EZ ES        848 56.33                             171   -0.1010 23.0 211 
 BAR2 EZ I         848 57.11         6.4 0.32            164           23.0 211 
 PAM  EN ES        849  0.92                             152    0.1210 75.4  33 
 BRR  HZ EP        848 42.95                             150   -0.0510 79.5 298 
 BRR  HE ES        849  0.04                             150    0.0610 79.5 298 
 BRR  HZ I         849  3.40         6.0 0.48            141           79.5 298 
 RUS  HZ EP        848 44.94                             145    0.0810 97.1 180 
 RUS  HN ES        849  3.14                             145   -0.1510 97.1 180 
 RUS  HZ I         849  5.23         5.3 0.42            140           97.1 180 
 PTB  HZ EP   9    848 47.80                             131   -1.14 0  155 261 
 PTB  HN ES        849  9.27                             132   -0.14 9  155 261 
 PTB  HZ I         849 14.89         3.1 0.07            123            155 261 
 ZAR  HZ EP   2    848 54.87                             121    0.25 4  212 292 
 ZAR  HE ES   2    849 20.67                             121    0.01 4  212 292 
 ZAR  HZ I         849 25.63         3.3 0.14            115            212 292 
 NOR  HZ EP   4    848 54.49                             118   -3.03 0  239 236 
 NOR  HZ I         849 23.32         2.2 0.14            112            239 236 
 NOR  HN ES        849 25.38                             118   -0.44 8  239 236 
 CHI  HZ EP        848 59.21                             117    0.31 8  248 197 
 CHI  HN ES        849 28.70                             117    0.42 8  248 197 
 CHI  HZ I         849 34.80         2.0 0.26            112            248 197 
 PTGC HZ EP        849  3.90                             112   -0.60 7  303 160 
 PTGC HN ES   4    849 37.32                             112   -0.92 0  303 160 
 GUY2CHZ EP   4    849  6.19                             112    0.78 0  306 236 
 GUY2CHN ES        849 40.04                             112    0.18 7  306 236 
 GUY2CHZ I         849 47.92         3.0 0.66                           306 236 
 PRA  HZ EP        849 15.29                             107    0.37 6  393 211 
 PRA  HN ES        849 56.84                             107    0.04 6  393 211 
 PRA  HZ I         850  5.76         1.8 0.32            102            393 211 
 ORTC HZ EP   2    849 14.53                             106   -0.90 3  397 217 
 ORTC HN ES   4    850  0.05                             106    2.34 0  397 217 
 SJC  HZ EP   4    849 15.21                             106   -2.44 0  416 326 
 SJC  HN ES   4    849 56.62                             106   -5.03 0  416 326 
                                                                                
