 2012  713 0440 30.6 L   6.543 -73.604106.0  RSN  4 0.2 1.0LRSN                1
 GAP=128        0.46       3.4     3.1  5.9  0.5632E+01  0.6947E+01  0.5913E+01E
 Epicentro: EL CARMEN DE CHUCURI - SANTANDER                                   3
 ACTION:UPD 12-08-14 11:44 OP:ep   STATUS:               ID:20120713044030 L   I
 2012-07-13-0440-00M.COL___197                                                 6
 STAT SP IPHASW D HRMM SECON CODA AMPLIT PERI AZIMU VELO AIN AR TRES W  DIS CAZ7
 BAR2 SZ ES   1    440 58.58                             154    -0.2 7   47  83 
 BRR  HZ EP   1    440 46.96                             147    -0.2 7   63 349 
 BRR  HZ I         440 47.95         4.2 0.14            146             63 349 
 BRR  HN ES   1    441  0.24                             147     0.3 7   63 349 
 RUS  HZ EP   1    440 50.15                             136     0.1 7   92 141 
 RUS  HZ I         440 50.61         1.2 0.16            136             92 141 
 RUS  HN ES        441  5.15                             136     0.010   92 141 
 PTB  HZ EP   1    440 49.47                             135    -0.1 7   94 270 
 PTB  HN ES   1    441  4.23                             135     0.0 7   94 270 
 PTB  HZ I         441  5.88         2.4 0.09            133             94 270 
