 2010  313 0108 50.8 L   6.780 -73.015147.1  RSN  5 0.2 1.9LRSN                1
 GAP=196        0.43       3.3     7.6  6.0  0.3383E+01 -0.6841E+01  0.2371E+01E
 Epicentro: CEPITA - SANTANDER                                                 3
 ACTION:UP  10-08-24 09:53 OP:vdl  STATUS:               ID:20100313010850 L   I
 2010-03-13-0100-00S.COL___093                                                 6
 STAT SP IPHASW D HRMM SECON CODA AMPLIT PERI AZIMU VELO SNR AR TRES W  DIS CAZ7
 BRR  HZ IP        1 9 12.82                             148    -0.110   85 295 
 BRR  HN ES   1    1 9 30.34                             148     0.2 7   85 295 
 BRR  HZ I         1 9 32.47        11.8 0.11                            85 295 
 RUS  HZ EP   2    1 9 14.85                             145     0.3 5   98 184 
 RUS  HE ES   2    1 9 32.74                             145    -0.3 5   98 184 
 OCA  SZ EP   2    1 9 19.95                             129     0.3 5  165 348 
 OCA  SZ ES   2    1 9 41.84                             129    -0.3 5  165 348 
 OCA  SZ I         1 9 49.68        11.9 0.19                           165 348 
 HEL  HZ EP   2    1 9 32.34                             114    -0.2 4  286 257 
 HEL  HZ I         110  8.64         3.5 0.51                           286 257 
 PRA  HZ EP   2    1 9 44.91                             106    -0.1 3  397 212 
 PRA  HE ES   2    110 27.36                             106     0.1 3  397 212 
 PRA  HZ I         110 31.47         2.9 0.37                           397 212 
                                                                                
