 2014  113 0811 10.6 L   6.807 -73.178147.1  RSN  8 0.4 1.5LRSN                1
 GAP=132        0.74       3.2     3.7  5.4 -0.7125E+00  0.4694E+01 -0.2430E+01E
 Epicentro: LOS SANTOS - SANTANDER                                             3
 ACTION:UPD 14-03-13 09:54 OP:ep   STATUS:               ID:20140113081110 L   I
 OLDACT:REG 14-01-13 07:58 OP:cam  STATUS:               ID:20140113081000     3
 2014-01-13-0810-00M.COL___285                                                 6
 STAT SP IPHASW D HRMM SECON CODA AMPLIT PERI AZIMU VELO AIN AR TRES W  DIS CAZ7
 BAR2 SZ EP   1    811 30.36                             170   -0.00 7 23.7 181 
 BAR2 SZ I         811 46.17         9.6 0.34            167           23.7 181 
 BAR2 SZ ES        811 46.19                             170    0.3910 23.7 181 
 PAM  SZ EP        811 33.31                             150    0.2910 79.1  42 
 PAM  SE ES        811 50.43                             150   -0.1110 79.1  42 
 PAM  SZ I         811 52.14         4.7 0.50            150           79.1  42 
 RUS  HZ EP        811 34.43                             144   -0.0910  102 174 
 RUS  HN ES   1    811 52.51                             144   -0.70 7  102 174 
 PTB  HZ EP   1    811 37.35                             133    0.01 7  144 258 
 PTB  HN ES        811 58.03                             133   -0.19 9  144 258 
 PTB  HZ I         812  1.79         2.1 0.10            131            144 258 
 OCA  HZ EP   1    811 38.75                             130   -0.12 7  159 354 
 OCA  HE ES   2    812  1.28                             130    0.33 5  159 354 
 ZAR  HZ EP   4    811 45.14                             123    2.41 0  200 292 
 ZAR  HN ES   1    812  8.27                             123    0.46 6  200 292 
 SML  HZ EP   1    811 46.55                             118   -0.48 6  242 336 
 SML  HN ES   1    812 14.98                             118   -0.49 6  242 336 
 SML  HZ I         812 17.96         2.9 0.22            117            242 336 
 CHI  HZ EP   1    811 48.98                             117    0.67 6  248 194 
                                                                                
