 2013 1013 0429 57.5 L   6.785 -73.149145.0  RSN  8 0.4 1.8LRSN                1
 GAP=137        1.03       4.1     4.8  8.7 -0.2257E+01  0.3319E+01 -0.3182E+01E
 Epicentro: LOS SANTOS - SANTANDER                                             3
 ACTION:UPD 13-11-25 09:21 OP:ep   STATUS:               ID:20131013042957 L   I
 OLDACT:UP  13-10-13 10:43 OP:mh   STATUS:               ID:20131013042838     3
 OLDACT:UP  13-10-13 10:42 OP:mh   STATUS:               ID:20131013042838     3
 OLDACT:UP  13-10-13 10:41 OP:mh   STATUS:               ID:20131013042838     3
 OLDACT:REG 13-10-13 09:58 OP:mh   STATUS:               ID:20131013042838     3
 2013-10-13-0428-38M.COL___233                                                 6
 STAT SP IPHASW D HRMM SECON CODA AMPLIT PERI AZIMU VELO AIN AR TRES W  DIS CAZ7
 BAR2 SZ EP   1    430 17.10                             171    0.11 7 21.6 190 
 BRR  HZ EP        430 19.02                             152    0.4410 71.7 300 
 BRR  HN ES   1    430 35.44                             152    0.41 7 71.7 300 
 BRR  HZ I         430 39.55        14.3 0.45            150           71.7 300 
 PAM  SZ EP   1    430 19.92                             150    0.21 7 78.9  39 
 PAM  SN ES   1    430 37.29                             150    0.24 7 78.9  39 
 PAM  SZ I         430 39.41        10.9 0.21            154           78.9  39 
 RUS  HZ EP        430 20.57                             144   -0.4710 98.9 176 
 RUS  HN ES   1    430 39.03                             144   -0.39 7 98.9 176 
 PTB  HZ EP   1    430 23.91                             132   -0.42 7  147 259 
 PTB  HN ES        430 44.54                             132   -0.72 9  147 259 
 PTB  HZ I         430 51.05        13.9 0.17            133            147 259 
 OCA  HZ EP        430 25.45                             129   -0.44 9  162 353 
 OCA  HN ES   1    430 47.78                             129   -0.26 7  162 353 
 OCA  HZ I         430 50.82         6.4 0.21            131            162 353 
 SPBC HZ EP   1    430 26.01                             129    0.23 7  162 219 
 SPBC HN ES        430 48.51                             129    0.66 9  162 219 
 SPBC HZ I         430 49.47         8.3 0.22            132            162 219 
 ZAR  HZ EP        430 30.59                             122    0.68 9  204 293 
 ZAR  HN ES        430 55.03                             122   -0.17 9  204 293 
 ZAR  HZ I         431  3.25         5.2 0.18            124            204 293 
 SML  HZ EP   4    430 19.78                             117   -14.4 0  245 336 
                                                                                
