 2014 1013 0334 30.4 L   6.790 -73.180141.8  RSN  8 0.4 1.6LRSN                1
 GAP=133        0.83       2.8     3.8  5.8 -0.1635E+01  0.1312E+01 -0.2011E+01E
 Epicentro: LOS SANTOS - SANTANDER                                             3
 ACTION:UPD 14-11-29 23:49 OP:nd   STATUS:               ID:20141013033430 L   I
 OLDACT:DUP 14-10-13 16:17 OP:mh   STATUS:               ID:20141013032750d    3
 2014-10-13-0327-49M.COL___281                                                 6
 STAT SP IPHASW D HRMM SECON CODA AMPLIT PERI AZIMU VELO AIN AR TRES W  DIS CAZ7
 BRR  HZ EP        334 51.21                             153    0.2610 68.4 301 
 BRR  HZ I         334 51.52        12.1 0.28            151           68.4 301 
 BRR  HN ES        335  6.87                             153   -0.1210 68.4 301 
 PAM  SZ EP        334 52.87                             149    0.4810 80.7  41 
 PAM  SN ES   1    335  9.77                             149    0.22 7 80.7  41 
 PAM  SZ I         335 11.35         5.5 0.38            152           80.7  41 
 RUS  HZ EP        334 53.28                             143   -0.4110 99.8 174 
 RUS  HN ES        335 11.98                             143    0.1110 99.8 174 
 RUS  HZ I         335 13.11         4.1 0.26            146           99.8 174 
 PTB  HZ EP        334 56.72                             132    0.05 9  144 259 
 PTB  HN ES        335 17.22                             132    0.05 9  144 259 
 PTB  HZ I         335 18.78         4.2 0.14            132            144 259 
 SPBC HZ EP        334 58.41                             129    0.15 9  160 218 
 SPBC HN ES        335 19.59                             129   -0.42 9  160 218 
 SPBC HZ I         335 24.28         5.8 0.26            130            160 218 
 OCA  HZ EP        334 58.41                             129   -0.05 9  161 355 
 OCA  HN ES        335 19.97                             129   -0.39 9  161 355 
 OCA  HZ I         335 22.75         4.4 0.24            130            161 355 
 ZAR  HZ EP   1    335  2.97                             122    0.72 6  201 293 
 ZAR  HN ES   1    335 27.52                             122    0.41 6  201 293 
 ZAR  HZ I         335 34.51         5.2 0.39            123            201 293 
 SML  HZ EP        335  6.08                             117   -0.65 8  243 336 
 SML  HN ES   4    335 36.57                             117    1.48 0  243 336 
 SML  HZ I         335 37.69         6.6 0.08            118            243 336 
                                                                                
