 2017  313 0412  4.4 L   6.805 -73.148142.0  RSN 10 0.4 1.8LRSN                1
 GAP=136        0.94       3.9     3.7  5.9 -0.3259E+01  0.1105E+02 -0.1655E+01E
 Epicentro: LOS SANTOS - SANTANDER                                             3
 ACTION:UPD 17-05-25 18:39 OP:jn   STATUS:               ID:20170313041204 L   I
 OLDACT:DUP 17-03-13 16:34 OP:cog  STATUS:               ID:20170313040639d    3
 2017-03-13-0408-00M.COL___391                                                 6
 STAT SP IPHASW D HRMM SECON CODA AMPLIT PERI AZIMU VELO AIN AR TRES W  DIS CAZ7
 BAR2 EZ EP        412 23.46                             170   -0.1710 23.9 189 
 BAR2 EZ ES        412 38.75                             170    0.1510 23.9 189 
 BAR2 EZ I         412 40.12        19.9 0.26            174           23.9 189 
 BRR  HZ EP        412 25.29                             152    0.1310 70.7 298 
 BRR  HZ I         412 46.27        10.6 0.44            149           70.7 298 
 PAM  EZ EP        412 26.17                             150   -0.0710 77.1  40 
 PAM  EN ES        412 43.50                             150    0.2510 77.1  40 
 PAM  EZ I         412 45.20         6.8 0.34            148           77.1  40 
 RUS  HZ EP        412 27.37                             143   -0.5010  101 176 
 RUS  HE ES        412 46.24                             143    0.1010  101 176 
 RUS  HZ I         412 46.82         8.1 0.46            146            101 176 
 PTB  HZ EP        412 30.48                             131   -0.62 9  148 259 
 PTB  HE ES        412 52.19                             131    0.30 9  148 259 
 PTB  HZ I         412 53.22         9.5 0.38            130            148 259 
 SPBC HZ EP        412 32.40                             128   -0.29 9  163 219 
 SPBC HN ES        412 54.72                             128    0.01 9  163 219 
 SPBC HZ I         412 58.48        14.1 0.38            129            163 219 
 ZAR  HZ EP        412 36.44                             122   -0.16 9  204 292 
 ZAR  HN ES        413  1.38                             122   -0.31 9  204 292 
 HEL  HZ EP        412 45.51                             114    1.05 8  272 256 
 HEL  HE ES        413 15.19                             114   -0.48 8  272 256 
 HEL  HZ I         413 22.82         4.5 0.28            114            272 256 
 GUY2CHZ EP        412 48.83                             112    0.93 7  301 235 
 GUY2CHN ES        413 21.83                             112    0.04 7  301 235 
 GUY2CHZ  IAML     413 30.75         4.4 0.28                           301 235 
 CBOC HZ EP        412 51.53                             109    0.33 7  334 252 
 CBOC HN ES        413 27.68                             109    0.01 7  334 252 
                                                                                
