 2014  913 0245 45.8 L   6.810 -73.134145.4  RSN 16 0.5 2.4LRSN                1
 GAP=138        1.17       2.8     4.2  5.5 -0.2292E+01  0.6821E+01  0.1614E+01E
 Epicentro: LOS SANTOS - SANTANDER                                             3
 ACTION:UPD 14-10-03 23:04 OP:nd   STATUS:               ID:20140913024545 L   I
 OLDACT:REG 14-09-13 12:48 OP:carl STATUS:               ID:20140913023807     3
 2014-09-13-0238-07M.COL___296                                                 6
 STAT SP IPHASW D HRMM SECON CODA AMPLIT PERI AZIMU VELO AIN AR TRES W  DIS CAZ7
 BAR2 SZ IP     D  246  5.42                             170    0.0410 24.6 193 
 BAR2 SZ ES        246 20.23                             170   -0.4510 24.6 193 
 BAR2 SZ I         246 23.27        63.4 0.28            169           24.6 193 
 BRR  HZ IP     D  246  7.26                             152    0.3410 71.8 297 
 BRR  HN ES        246 24.42                             152    1.0110 71.8 297 
 BRR  HZ I         246 27.32        33.1 0.14            151           71.8 297 
 PAM  SZ EP        246  8.31                             151    0.4610 75.7  39 
 PAM  SE ES        246 25.31                             151    0.2410 75.7  39 
 PAM  SZ I         246 27.86        28.5 0.56            155           75.7  39 
 RUS  HZ EP        246  9.23                             143   -0.3310  102 177 
 RUS  HN ES        246 28.14                             143    0.0310  102 177 
 RUS  HZ I         246 29.58        17.3 0.38            146            102 177 
 PTB  HZ EP        246 12.08                             132   -0.76 9  149 259 
 PTB  HN ES        246 33.45                             132   -0.51 9  149 259 
 PTB  HZ I         246 37.43        25.8 0.14            132            149 259 
 OCA  HZ EP        246 14.05                             130    0.08 9  159 353 
 OCA  HN ES        246 35.75                             130   -0.21 9  159 353 
 OCA  HZ I         246 40.50        30.9 0.16            132            159 353 
 SPBC HZ EP        246 14.31                             129   -0.09 9  165 219 
 SPBC HN ES        246 36.77                             129    0.04 9  165 219 
 SPBC HZ I         246 42.07        40.2 0.20            130            165 219 
 ZAR  HZ EP        246 18.04                             122   -0.23 9  205 292 
 ZAR  HN ES        246 42.86                             122   -0.77 9  205 292 
 ZAR  HZ I         246 50.41        25.2 0.30            123            205 292 
 NOR  HZ EP        246 21.58                             118   -0.08 8  236 234 
 NOR  HN ES        246 49.30                             118   -0.35 8  236 234 
 NOR  HZ I         246 52.99        17.6 0.28            120            236 234 
 SML  HZ EP        246 22.42                             117    0.09 8  243 335 
 SML  HN ES        246 50.41                             117   -0.43 8  243 335 
 SML  HZ I         246 55.38        36.7 0.10            119            243 335 
 CHI  HZ EP        246 23.26                             117   -0.34 8  250 195 
 CHI  HN ES        246 52.32                             117   -0.78 8  250 195 
 CHI  HZ I         246 57.70         6.4 0.34            119            250 195 
 HEL  HZ EP        246 26.79                             115    0.66 8  274 256 
 HEL  HN ES        246 57.57                             115   -0.05 8  274 256 
 HEL  HZ I         247  4.27        11.8 0.36            116            274 256 
 GUY2CHZ EP        246 29.94                             112    0.39 7  303 235 
 GUY2CHN ES        247  4.70                             112    1.00 7  303 235 
 GUY2CHZ I         247 11.82        13.0 0.56                           303 235 
 TOL  SZ EP        246 34.84                             109    0.63 7  345 225 
 TOL  SN ES        247 13.28                             109    1.30 7  345 225 
 TOL  SZ I         247 16.73        19.2 0.44            111            345 225 
 MON  HZ EP   4    246 32.71                             108   -2.09 0  354 308 
 MON  HN ES   4    247 11.17                             108   -1.87 0  354 308 
 MON  HZ I         247 13.56         4.7 0.18            110            354 308 
 PRA  HZ EP        246 39.08                             106   -0.38 6  394 210 
 PRA  HE ES        247 21.57                             106    0.23 6  394 210 
 PRA  HZ I         247 29.89         7.8 0.34            108            394 210 
                                                                                
