 2015  713 0415 31.6 L   6.813 -73.133147.0  RSN  7 0.4 1.6LRSN                1
 GAP=137        0.93       3.4     4.5  6.6 -0.2957E+01  0.1583E+02 -0.2139E+01E
 Epicentro: LOS SANTOS - SANTANDER                                             3
 ACTION:UPD 15-09-08 21:48 OP:cam  STATUS:               ID:20150713041531 L   I
 OLDACT:DUP 15-07-13 20:00 OP:drio STATUS:               ID:20150713040746d    3
 OLDACT:REG 15-07-13 12:55 OP:spq  STATUS:               ID:20150713040745     3
 2015-07-13-0407-45M.COL___337                                                 6
 STAT SP IPHASW D HRMM SECON CODA AMPLIT PERI AZIMU VELO AIN AR TRES W  DIS CAZ7
 BAR2 EZ EP        415 51.13                             170   -0.2710 25.0 193 
 BAR2 EZ ES        416  6.67                             170   -0.1810 25.0 193 
 BAR2 EZ I         416  9.21         6.9 0.26            171           25.0 193 
 PAM  EZ EP        415 54.21                             152    0.4010 75.4  39 
 PAM  EN ES        416 11.70                             152    0.5410 75.4  39 
 PAM  EZ I         416 13.37         7.6 0.54            154           75.4  39 
 RUS  HZ EP        415 55.05                             144   -0.5010  102 177 
 RUS  HE ES        416 14.16                             144   -0.0810  102 177 
 RUS  HZ I         416 15.45         2.8 0.18            149            102 177 
 OCA  HZ EP        415 59.42                             130   -0.45 9  159 353 
 OCA  HE ES        416 21.87                             130   -0.07 9  159 353 
 OCA  HZ I         416 30.21         8.9 0.42            131            159 353 
 ZAR  HZ EP        416  4.05                             123   -0.14 9  205 292 
 ZAR  HN ES        416 29.54                             123   -0.08 9  205 292 
 ZAR  HZ I         416 34.71         5.8 0.24            124            205 292 
 HEL  HZ EP        416 12.17                             115    0.13 8  274 256 
 HEL  HE ES        416 43.34                             115   -0.26 8  274 256 
 HEL  HZ I         416 49.50         2.2 0.38            117            274 256 
 GUY2CHZ EP        416 16.25                             112    0.79 7  303 235 
 GUY2CHE ES        416 50.42                             112    0.73 7  303 235 
 GUY2CHZ I         416 56.22         1.9 0.36                           303 235 
                                                                                
