 2015  113 0236 42.4 L   6.795 -73.141151.4  RSN 10 0.5 1.9LRSN                1
 GAP=137        1.13       3.1     4.8  6.3 -0.5563E-01  0.6561E+01  0.4476E+00E
 Epicentro: LOS SANTOS - SANTANDER                                             3
 ACTION:UPD 15-03-02 15:39 OP:nd   STATUS:               ID:20150113023642 L   I
 OLDACT:DUP 15-01-13 14:28 OP:carl STATUS:               ID:20150113022750d    3
 2015-01-13-0227-48M.COL___256                                                 6
 STAT SP IPHASW D HRMM SECON CODA AMPLIT PERI AZIMU VELO AIN AR TRES W  DIS CAZ7
 BAR2 EZ EP        237  2.40                             171   -0.3310 22.8 191 
 BAR2 EZ ES        237 18.31                             171   -0.2510 22.8 191 
 BAR2 EZ I         237 20.33        18.7 0.24            171           22.8 191 
 BRR  HZ EP        237  4.50                             153    0.2710 71.9 299 
 BRR  HN ES        237 21.99                             153    0.7610 71.9 299 
 BRR  HZ I         237 24.92        10.7 0.38            150           71.9 299 
 PAM  SZ EP        237  5.39                             152    0.1310 77.5  39 
 PAM  SN ES        237 22.96                             152   -0.1010 77.5  39 
 PAM  SZ I         237 24.79        10.9 0.56            154           77.5  39 
 RUS  HZ EP        237  6.57                             145   -0.1310100.0 176 
 RUS  HE ES        237 25.33                             145   -0.2910100.0 176 
 RUS  HZ I         237 26.05         6.9 0.36            148          100.0 176 
 PTB  HZ EP        237  9.56                             133   -0.33 9  148 259 
 PTB  HN ES        237 30.54                             133   -0.77 9  148 259 
 PTB  HZ I         237 36.34         8.2 0.38            132            148 259 
 OCA  HE ES        237 34.33                             131    0.61 9  161 353 
 OCA  HZ I         237 38.58        11.2 0.16            131            161 353 
 SPBC HZ EP        237 11.78                             130    0.43 9  163 219 
 SPBC HN ES        237 34.20                             130    0.29 9  163 219 
 SPBC HZ I         237 37.61        11.1 0.40            131            163 219 
 ZAR  HZ EP        237 15.93                             123    0.61 9  205 292 
 ZAR  HN ES        237 40.95                             123   -0.02 9  205 292 
 ZAR  HZ I         237 47.77         9.6 0.20            123            205 292 
 SML  HZ EP        237 18.61                             118   -0.85 8  244 335 
 SML  HN ES        237 47.65                             118   -0.69 8  244 335 
 SML  HZ I         237 58.74        11.1 0.10            119            244 335 
 CHI  HZ EP        237 20.81                             118    0.41 8  248 195 
 CHI  HN ES        237 50.11                             118    0.10 8  248 195 
 CHI  HZ I         237 55.11         1.7 0.38            120            248 195 
                                                                                
