 2010  313 0430  7.0 L   6.788 -73.065148.0  RSN  9 0.4 2.0LRSN                1
 GAP=191        0.68       3.2     7.4  5.7  0.1010E+01  0.7224E+01  0.2386E+01E
 Epicentro: LOS SANTOS - SANTANDER                                             3
 ACTION:UP  10-08-24 09:53 OP:vdl  STATUS:               ID:20100313043007 L   I
 2010-03-13-0425-22S.COL___095                                                 6
 STAT SP IPHASW D HRMM SECON CODA AMPLIT PERI AZIMU VELO SNR AR TRES W  DIS CAZ7
 BAR2 SZ EP   1    430 26.58                             170    -0.4 7   25 211 
 BAR2 SZ ES   1    430 42.40                             170    -0.1 7   25 211 
 BRR  HZ IP        430 28.82                             150    -0.110   80 296 
 BRR  HN ES   1    430 45.83                             150    -0.2 7   80 296 
 BRR  HZ I         430 49.98        16.3 0.22                            80 296 
 RUS  HZ IP        430 30.97                             145     0.110   99 181 
 RUS  HN ES   1    430 49.76                             145     0.3 7   99 181 
 OCA  SZ EP   1    430 35.42                             130    -0.3 7  163 350 
 OCA  SZ ES   1    430 58.87                             130     0.7 7  163 350 
 OCA  SZ I         431  1.34        23.6 0.23                           163 350 
 CHI  HZ EP   2    430 44.39                             117    -0.6 4  250 197 
 CHI  HN ES   2    431 15.09                             117     0.5 4  250 197 
 CHI  HZ I         431 24.24         3.3 0.30                           250 197 
 HEL  HZ EP   2    430 48.42                             114     0.1 4  280 257 
 HEL  HZ I         431 25.93         3.2 0.40                           280 257 
 RREF BZ EP   2    430 54.45                             111     0.5 3  328 231 
 RREF BE ES   2    431 30.16                             111    -0.4 3  328 231 
 RREF BZ I         431 36.98         3.4 0.66                           328 231 
 TOL  SZ EP   2    430 56.79                             109     0.8 3  349 226 
 PRA  HZ EP   2    431  0.47                             107    -0.6 3  395 211 
 PRA  HE ES   1    431 43.45                             107     0.3 4  395 211 
 PRA  HZ I         431 46.80         3.2 0.74                           395 211 
                                                                                
