 2013  113 0119 41.4 L   6.753 -73.160138.0  RSN  6 0.4 1.9LRSN                1
 GAP=137        1.13       4.7     5.6  7.6 -0.2510E+01  0.4898E+01  0.9404E+01E
 Epicentro: LOS SANTOS - SANTANDER                                             3
 ACTION:UPD 13-02-15 09:13 OP:ep   STATUS:               ID:20130113011941 L   I
 2013-01-13-0117-40M.COL___178                                                 6
 STAT SP IPHASW D HRMM SECON CODA AMPLIT PERI AZIMU VELO AIN AR TRES W  DIS CAZ7
 BAR2 SZ EP        119 59.91                             172   -0.1310 17.9 188 
 BAR2 SZ ES        120 14.23                             172   -0.3110 17.9 188 
 BAR2 SZ I         120 16.12        20.2 0.18            171           17.9 188 
 BRR  HZ EP        120  2.07                             151    0.2410 72.5 303 
 BRR  HN ES        120 18.68                             151    0.9410 72.5 303 
 BRR  HN I         120 22.74        24.3 0.14            151           72.5 303 
 PAM  SZ EP        120  3.18                             148    0.0210 82.4  38 
 PAM  SN ES        120 19.70                             148   -0.3910 82.4  38 
 PAM  SN I         120 20.74        16.7 0.22            152           82.4  38 
 RUS  HZ EP        120  4.30                             144    0.2410 95.5 175 
 RUS  HN ES        120 21.86                             144    0.1510 95.5 175 
 RUS  HN I         120 24.06         8.8 0.40            145           95.5 175 
 PTB  HZ EP        120  6.87                             131   -0.69 9  145 261 
 PTB  HN ES        120 27.43                             131   -0.49 9  145 261 
 PTB  HN I         120 30.27        17.8 0.28            132            145 261 
 CHI  HZ EP        120 18.66                             116    0.54 8  243 195 
 CHI  HN ES        120 46.62                             116   -0.11 8  243 195 
 CHI  HN I         120 49.90         2.5 0.28            118            243 195 
                                                                                
