 2016  413 0749 51.7 L   6.812 -73.185142.0  RSN  5 0.3 1.4LRSN                1
 GAP=145        0.69       3.9     3.9  5.4 -0.6706E+01  0.6201E+01 -0.1187E+01E
 Epicentro: ZAPATOCA - SANTANDER                                               3
 ACTION:UPD 16-05-05 14:21 OP:rebc STATUS:               ID:20160413074951 L   I
 OLDACT:REG 16-04-13 13:24 OP:mh   STATUS:               ID:20160413074740     3
 2016-04-13-0747-40M.COL___309                                                 6
 STAT SP IPHASW D HRMM SECON CODA AMPLIT PERI AZIMU VELO AIN AR TRES W  DIS CAZ7
 BAR2 EZ EP        750 10.92                             170    0.0510 24.3 179 
 BAR2 EZ ES        750 25.57                             170   -0.2810 24.3 179 
 BAR2 EZ I         750 27.25         7.4 0.26            168           24.3 179 
 PAM  EZ IP     D  750 13.76                             149    0.1510 79.3  43 
 PAM  EZ I         750 13.94         7.0 0.20            155           79.3  43 
 PAM  EN ES        750 30.87                             149    0.1610 79.3  43 
 RUS  HZ EP        750 14.62                             143   -0.5610  102 174 
 RUS  HN ES        750 33.70                             143    0.1810  102 174 
 RUS  HZ I         750 34.97         1.9 0.42            144            102 174 
 PTB  HZ EP        750 17.98                             132    0.01 9  144 258 
 PTB  HN ES        750 38.32                             132   -0.16 9  144 258 
 PTB  HZ I         750 45.40         2.6 0.48            130            144 258 
 SPBC HZ EP        750 19.87                             128    0.15 9  161 217 
 SPBC HE ES        750 41.97                             128    0.37 9  161 217 
 SPBC HZ I         750 49.71         4.3 0.50            128            161 217 
                                                                                
