 2013  513 0724  2.9 L   6.850 -73.164146.9  RSN 14 0.5 2.4LRSN                1
 GAP= 68        0.94       3.1     3.5  5.3 -0.1153E+01  0.2453E+01  0.1602E+01E
 Epicentro: LOS SANTOS - SANTANDER                                             3
 ACTION:UPD 13-06-20 09:49 OP:ep   STATUS:               ID:20130513072402 L   I
 2013-05-13-0720-00M.COL___256                                                 6
 STAT SP IPHASW D HRMM SECON CODA AMPLIT PERI AZIMU VELO AIN AR TRES W  DIS CAZ7
 GIR2 SZ EP        724 22.69                             170    0.0810 25.5 353 
 GIR2 SZ ES   1    724 38.15                             170    0.21 7 25.5 353 
 GIR2 SZ I         724 39.46        49.0 0.50            167           25.5 353 
 BAR2 SZ IP     C  724 22.88                             169    0.0610 28.6 184 
 BAR2 SZ ES   1    724 38.10                             169   -0.23 7 28.6 184 
 BAR2 SZ I         724 41.03        47.9 0.42            170           28.6 184 
 BRR  HZ IP     D  724 24.46                             154    0.4910 66.8 295 
 BRR  HN ES   1    724 41.57                             154    1.20 7 66.8 295 
 BRR  HZ I         724 44.87        71.9 0.14            151           66.8 295 
 PAM  SZ IP     D  724 25.37                             152    0.2610 74.6  43 
 PAM  SN ES   1    724 42.23                             152   -0.17 7 74.6  43 
 PAM  SZ I         724 44.45        62.2 0.48            153           74.6  43 
 RUS  HZ EP        724 27.03                             143   -0.1910  106 175 
 RUS  HN ES   1    724 46.11                             143   -0.04 7  106 175 
 RUS  HZ I         724 48.12        14.9 0.40            145            106 175 
 PTB  HZ IP     C  724 29.41                             133   -0.51 9  147 257 
 PTB  HN ES   1    724 50.40                             133   -0.57 7  147 257 
 PTB  HZ I         724 52.11        43.0 0.18            132            147 257 
 OCA  HZ EP   1    724 30.65                             131   -0.15 7  154 354 
 OCA  HN ES   1    724 52.16                             131   -0.37 7  154 354 
 OCA  HZ I         724 58.58        55.5 0.44            131            154 354 
 TAM  HZ IP     D  724 31.37                             130    0.34 9  159 107 
 TAM  HN ES   1    724 52.61                             130   -0.34 7  159 107 
 TAM  HZ I         724 54.33        17.9 0.24            134            159 107 
 NOR  HZ EP   1    724 39.23                             119    0.32 6  236 233 
 NOR  HN ES   1    725  6.08                             119   -0.88 6  236 233 
 NOR  HZ I         725 10.22        21.4 0.32            119            236 233 
 SML  HZ EP        724 38.65                             118   -0.34 8  238 335 
 SML  HN ES   1    725  6.68                             118   -0.43 6  238 335 
 SML  HZ I         725 19.79        62.1 0.10            118            238 335 
 CHI  HZ EP   1    724 41.98                             117    0.75 6  253 194 
 CHI  HN ES   1    725 10.18                             117   -0.91 6  253 194 
 CHI  HZ I         725 13.85         8.5 0.26            118            253 194 
 HEL  HZ EP   1    724 43.31                             115    0.16 6  271 255 
 HEL  HN ES   1    725 14.90                             115    0.40 6  271 255 
 HEL  HZ I         725 22.48        15.8 0.22            115            271 255 
 SDV  BZ EP   1    724 52.10                             109   -0.70 5  358  51 
 SDV  BE ES   4    725 29.21                             109   -2.48 0  358  51 
 PRA  HZ EP   1    724 57.85                             107    0.90 4  396 209 
 PRA  HE ES   1    725 39.40                             107    0.32 4  396 209 
 PRA  HZ I         725 46.37        12.5 0.30            107            396 209 
 SJC  HZ EP   4    724 56.33                             106   -1.53 0  403 327 
 SJC  HN ES   4    725 37.12                             106   -3.58 0  403 327 
                                                                                
