 2012  713 0853 42.8 L   6.897 -73.249117.4  RSN  6 0.3 1.7LRSN                1
 GAP=117        0.72       3.2     4.7  7.0  0.2021E+01 -0.2008E+01 -0.5563E+01E
 Epicentro: BETULIA - SANTANDER                                                3
 ACTION:UPD 12-08-14 11:44 OP:ep   STATUS:               ID:20120713085343dL   I
 2012-07-13-0850-00M.COL___197                                                 6
 STAT SP IPHASW D HRMM SECON CODA AMPLIT PERI AZIMU VELO AIN AR TRES W  DIS CAZ7
 BAR2 SZ EP   1    853 59.61                             163     0.2 8   35 168 
 BAR2 SZ ES   1    854 12.19                             163    -0.1 8   35 168 
 BAR2 SZ I         854 14.13        28.1 0.21            165             35 168 
 BRR  HZ EP   1    854  0.11                             153     0.1 8   56 294 
 BRR  HE ES   1    854 13.78                             153     0.3 8   56 294 
 BRR  HZ I         854 14.93        12.1 0.14            155             56 294 
 PAM  SZ EP   1    854  2.72                             144     0.6 8   78  51 
 RUS  HZ EP   1    854  4.73                             133    -0.2 7  113 171 
 RUS  HE ES        854 21.94                             133    -0.210  113 171 
 RUS  HZ I         854 23.40         2.3 0.24            137            113 171 
 PTB  HZ EP   1    854  6.90                             126     0.1 7  139 254 
 PTB  HN ES   1    854 25.31                             126    -0.1 7  139 254 
 OCA  HZ EP   1    854  7.71                             124    -0.2 7  149 357 
 OCA  HN ES   1    854 26.89                             124    -0.5 7  149 357 
 OCA  HZ I         854 29.11        13.2 0.21            127            149 357 
