 2010  213 0451  7.2 L   6.774 -72.910147.1  RSN  5 0.3 1.9LRSN                1
 GAP=217        0.56       6.2    25.3  6.5 -0.1133E+03 -0.3194E+01  0.8792E+01E
 Epicentro: CEPITA - SANTANDER                                                 3
 ACTION:UP  10-08-24 09:48 OP:vdl  STATUS:               ID:20100213045107 L   I
 2010-02-13-0448-55S.COL___094                                                 6
 STAT SP IPHASW D HRMM SECON CODA AMPLIT PERI AZIMU VELO SNR AR TRES W  DIS CAZ7
 BAR2 SZ EP   1    451 27.54                             167     0.3 7   36 236 
 BAR2 SZ ES   2    451 42.68                             167    -0.3 5   36 236 
 GIR2 SZ EP   1    451 27.61                             163     0.1 7   46 317 
 GIR2 SZ ES   2    451 43.49                             163     0.2 5   46 317 
 OCA  SZ EP   1    451 36.14                             129    -0.2 7  168 344 
 OCA  SZ I         452  7.57        17.0 0.32                           168 344 
 CHI  HZ EP   1    451 45.66                             117     0.1 6  254 201 
 CHI  HE ES   2    452 14.83                             117    -0.6 4  254 201 
 CHI  HZ I         452 18.39         2.4 0.49                           254 201 
 PRA  HZ EP   1    452  1.39                             106    -0.6 4  403 213 
 PRA  HN ES   2    452 45.32                             106     0.5 3  403 213 
 PRA  HZ I         452 49.19         1.9 0.19                           403 213 
                                                                                
