 2016  513 0901 39.2 L   6.764 -73.180146.0  RSN  6 0.4 1.4LRSN                1
 GAP=134        1.13       5.7     5.0  7.6  0.3075E+01  0.9356E+01 -0.2015E+01E
 Epicentro: LOS SANTOS - SANTANDER                                             3
 ACTION:UPD 16-08-18 17:45 OP:cam  STATUS:               ID:20160513090139 L   I
 OLDACT:DUP 16-05-13 15:05 OP:drio STATUS:               ID:20160513085744d    3
 2016-05-13-0857-43M.COL___298                                                 6
 STAT SP IPHASW D HRMM SECON CODA AMPLIT PERI AZIMU VELO AIN AR TRES W  DIS CAZ7
 BAR2 EZ EP        9 1 58.49                             172   -0.3210 19.0 181 
 BAR2 EZ ES        9 2 13.60                             172   -0.4810 19.0 181 
 BAR2 EZ I         9 2 14.61         7.3 0.28            176           19.0 181 
 BRR  HZ EP        9 2  0.36                             153    0.0310 69.9 303 
 BRR  HN ES        9 2 17.55                             153    0.7610 69.9 303 
 BRR  HZ I         9 2 34.04         5.7 0.30            152           69.9 303 
 PAM  EZ EP        9 2  1.56                             149   -0.2410 82.9  40 
 PAM  EE ES        9 2 19.42                             149    0.0110 82.9  40 
 RUS  HZ EP        9 2  2.86                             145    0.1210 97.0 174 
 RUS  HN ES        9 2 21.51                             145    0.4210 97.0 174 
 RUS  HZ I         9 2 22.60         2.4 0.50            155           97.0 174 
 PTB  HZ EP        9 2  5.40                             133   -0.41 9  143 260 
 PTB  HN ES        9 2 26.29                             133   -0.25 9  143 260 
 PTB  HZ I         9 2 27.17         2.9 0.30            137            143 260 
 ZAR  HZ EP        9 2 12.36                             123    0.88 9  202 294 
 ZAR  HN ES        9 2 36.14                             123   -0.50 9  202 294 
 ZAR  HZ I         9 2 39.96         2.5 0.10            126            202 294 
                                                                                
