 2013  713 0700 33.5 L   6.823 -73.138144.4  RSN 19 0.5 2.6LRSN                1
 GAP=114        1.25       2.8     3.8  5.3 -0.2591E+00  0.5697E+01  0.2748E+01E
 Epicentro: LOS SANTOS - SANTANDER                                             3
 ACTION:UPD 13-08-12 10:37 OP:ep   STATUS:               ID:20130713070033 L   I
 OLDACT:REG 13-07-13 09:38 OP:nd   STATUS:               ID:20130713065959     3
 2013-07-13-0659-59M.COL___266                                                 6
 STAT SP IPHASW D HRMM SECON CODA AMPLIT PERI AZIMU VELO AIN AR TRES W  DIS CAZ7
 BAR2 SZ IP     D  7 0 53.07                             169    0.0810 26.0 191 
 BAR2 SZ ES        7 1  7.81                             169   -0.4110 26.0 191 
 BAR2 SZ I         7 1 10.47       101.8 0.22            169           26.0 191 
 GIR2 SZ EP        7 0 53.15                             168    0.2310 28.9 348 
 GIR2 SZ ES        7 1  7.83                             168   -0.2510 28.9 348 
 GIR2 SZ I         7 1  9.62        44.4 0.22            166           28.9 348 
 BRR  HZ IP     C  7 0 54.84                             153    0.4010 70.7 296 
 BRR  HN ES        7 1 11.79                             153    0.9910 70.7 296 
 BRR  HZ I         7 1 15.99        79.4 0.12            150           70.7 296 
 PAM  SZ IP     D  7 0 56.11                             151    0.7210 74.9  40 
 PAM  SN ES        7 1 13.01                             151    0.5210 74.9  40 
 RUS  HZ IP     C  7 0 57.02                             143   -0.2510  103 177 
 RUS  HN ES        7 1 15.57                             143   -0.2610  103 177 
 RUS  HZ I         7 1 17.56        33.7 0.32            144            103 177 
 PTB  HZ EP        7 0 59.47                             131   -0.98 9  149 258 
 PTB  HN ES        7 1 20.80                             131   -0.68 9  149 258 
 PTB  HZ I         7 1 22.63        52.6 0.12            131            149 258 
 OCA  HZ EP        7 1  1.34                             130   -0.10 9  158 353 
 OCA  HN ES        7 1 22.97                             130   -0.29 9  158 353 
 OCA  HZ I         7 1 29.63        38.3 0.24            130            158 353 
 SPBC HZ EP        7 1  1.81                             128   -0.29 9  166 219 
 SPBC HN ES        7 1 24.22                             128   -0.22 9  166 219 
 YOP  SZ EP        7 1  3.80                             126    0.19 9  181 154 
 YOP  SN ES        7 1 26.96                             126   -0.15 9  181 154 
 YOP  SZ I         7 1 29.88        40.4 0.26            128            181 154 
 ZAR  HZ EP        7 1  5.30                             122   -0.51 9  204 291 
 ZAR  HE ES        7 1 30.72                             122   -0.30 9  204 291 
 ZAR  HZ I         7 1 36.63        53.3 0.32            122            204 291 
 NOR  HZ EP        7 1  8.91                             118   -0.44 8  237 234 
 NOR  HN ES        7 1 36.86                             118   -0.48 8  237 234 
 NOR  HZ I         7 1 43.40        28.1 0.24            118            237 234 
 SML  HZ EP        7 1  9.36                             117   -0.44 8  242 335 
 SML  HN ES        7 1 37.86                             117   -0.28 8  242 335 
 SML  HZ I         7 1 45.11        56.1 0.10            118            242 335 
 CHI  HZ EP        7 1 11.31                             116   -0.08 8  251 195 
 CHI  HN ES        7 1 41.11                             116    0.15 8  251 195 
 CHI  HZ I         7 1 43.03        31.4 0.32            117            251 195 
 HEL  HZ EP        7 1 15.05                             114    1.28 8  273 255 
 HEL  HN ES        7 1 45.68                             114    0.48 8  273 255 
 HEL  HZ I         7 1 52.64        22.3 0.28            114            273 255 
 GUY2CHZ EP        7 1 17.49                             112    0.23 7  303 234 
 GUY2CHN ES        7 1 52.82                             112    1.41 7  303 234 
 GUY2CHZ I         7 2  0.93        21.3 0.24                           303 234 
 RREF HZ EP   4    7 1 21.70                             110    1.88 0  324 229 
 RREF HN ES   4    7 1 58.41                             110    2.45 0  324 229 
 RREF HZ I         7 2  2.79        17.4 0.24            111            324 229 
 PRA  HZ EP        7 1 27.08                             106   -0.17 6  395 209 
 PRA  HN ES   4    7 2  7.85                             106   -1.35 0  395 209 
 PRA  HZ I         7 2 13.99        16.7 0.50            107            395 209 
 ORTC HZ EP        7 1 27.71                             106    0.07 6  398 216 
 ORTC HN ES        7 2 10.52                             106    0.62 6  398 216 
 ORTC HZ I         7 2 16.22        10.4 0.56            106            398 216 
 SJC  HZ IP   4 C  7 1 27.30                             105   -1.49 0  408 327 
 SJC  HN ES   4    7 2  8.39                             105   -3.54 0  408 327 
 SJC  HZ I         7 2 18.03         5.4 0.48            106            408 327 
                                                                                
