 2017  413 0953 22.5 L   6.840 -73.166142.0  RSN 19 0.5 2.4LRSN                1
 GAP=108        1.15       3.4     3.5  5.7  0.6799E+00  0.4923E+01  0.6298E+01E
 Epicentro: ZAPATOCA - SANTANDER                                               3
 ACTION:UPD 17-05-30 21:11 OP:jn   STATUS:               ID:20170413095322 L   I
 OLDACT:UP  17-04-13 15:21 OP:cog  STATUS:               ID:20170413094744d    3
 OLDACT:DUP 17-04-13 15:13 OP:cog  STATUS:               ID:20170413094744d    3
 2017-04-13-0948-00M.COL___368                                                 6
 STAT SP IPHASW D HRMM SECON CODA AMPLIT PERI AZIMU VELO AIN AR TRES W  DIS CAZ7
 BAR2 EZ EP        953 41.78                             168    0.0310 27.5 184 
 BAR2 EZ ES        953 56.79                             168    0.0110 27.5 184 
 BAR2 EZ I         953 57.90        57.2 0.32            168           27.5 184 
 BRR  HZ EP        953 43.52                             153    0.5310 67.1 296 
 BRR  HE ES        953 59.72                             153    0.7310 67.1 296 
 BRR  HZ I         954  4.45        44.0 0.32            154           67.1 296 
 PAM  EZ EP        953 44.76                             151    0.5710 75.5  43 
 PAM  EN ES        954  0.64                             151   -0.4710 75.5  43 
 PAM  EZ I         954  4.05        32.4 0.50            156           75.5  43 
 RUS  HZ EP        953 46.02                             142   -0.1910  105 175 
 RUS  HN ES        954  4.80                             142    0.0910  105 175 
 RUS  HZ I         954  5.58        29.3 0.26            144            105 175 
 PTB  HZ EP        953 48.32                             132   -0.70 9  146 257 
 PTB  HN ES        954  9.28                             132   -0.44 9  146 257 
 PTB  HZ I         954 16.57        31.2 0.42            133            146 257 
 SPBC HZ EP        953 50.75                             128   -0.14 9  165 217 
 SPBC HE ES        954 12.40                             128   -0.65 9  165 217 
 SPBC HZ I         954 18.73        35.2 0.01            130            165 217 
 YPLC HZ EP        953 52.26                             125   -0.24 9  182 151 
 YPLC HN ES        954 16.53                             125    0.61 9  182 151 
 YPLC HZ I         954 17.19        29.9 0.28            128            182 151 
 ZAR  HZ EP        953 54.39                             122    0.10 9  200 291 
 ZAR  HN ES        954 18.34                             122   -0.76 9  200 291 
 NOR  HZ EP        953 57.83                             118   -0.25 8  235 233 
 NOR  HN ES        954 26.19                             118    0.35 8  235 233 
 NOR  HZ I         954 30.50        18.7 0.24            120            235 233 
 CHI  HZ EP        954  0.11                             116   -0.27 8  252 194 
 CHI  HE ES        954 29.80                             116   -0.14 8  252 194 
 CHI  HZ I         954 31.67        17.4 0.38            118            252 194 
 ROSC BZ EP   3    954  2.03                             116    1.34 2  255 210 
 ROSC BN ES   4    954 32.76                             116    2.27 0  255 210 
 ROSC BZ I         954 36.48        33.0 0.35            118            255 210 
 HEL  HZ EP   4    954  4.06                             114    1.68 0  271 255 
 HEL  HN ES        954 33.51                             114    0.01 8  271 255 
 VIL  EZ EP        954  5.74                             111   -0.44 7  307 191 
 VIL  EE ES        954 40.01                             111   -0.24 7  307 191 
 VIL  EZ I         954 42.78        17.8 0.42            113            307 191 
 PTGC HZ EP   4    954  5.07                             111   -1.67 0  314 159 
 PTGC HN ES   4    954 38.58                             111   -2.68 0  314 159 
 PTGC HZ I         954 40.19        14.0 0.20            113            314 159 
 ELA  HZ EP   4    954 11.16                             110    1.85 0  330 229 
 ELA  HN ES        954 46.97                             110    1.13 7  330 229 
 CBOC HZ EP        954 10.18                             109    1.03 7  333 251 
 CBOC HN ES   4    954 45.00                             109   -0.55 0  333 251 
 ANIL HZ EP   9    954 13.56                             108    1.23 0  359 224 
 ANIL HN ES        954 53.19                             108    0.75 6  359 224 
 PRA  HZ EP        954 15.82                             106   -0.38 6  395 209 
 PRA  HN ES        954 57.65                             106   -0.45 6  395 209 
 ORTC HZ EP   4    954 13.48                             106   -3.06 0  398 216 
 ORTC HN ES        954 59.67                             106    0.96 6  398 216 
                                                                                
