 2013 1113 0027 43.1 L   6.772 -73.050147.6  RSN  4 0.4 1.4LRSN                1
 GAP=245        0.94       5.8     8.8  7.6  0.1081E+02  0.1353E+01  0.4252E+01E
 Epicentro: LOS SANTOS - SANTANDER                                             3
 ACTION:UPD 14-01-09 16:27 OP:ep   STATUS:               ID:20131113002743 L   I
 OLDACT:REG 13-11-13 07:27 OP:nd   STATUS:               ID:20131113002000     3
 2013-11-13-0020-00M.COL___276                                                 6
 STAT SP IPHASW D HRMM SECON CODA AMPLIT PERI AZIMU VELO AIN AR TRES W  DIS CAZ7
 BAR2 SZ EP        028  3.06                             170    0.0710 24.7 216 
 BAR2 SZ ES        028 17.81                             170   -0.6910 24.7 216 
 BAR2 SZ I         028 19.34         5.9 0.40            163           24.7 216 
 BRR  HZ EP        028  5.01                             149   -0.0910 82.0 297 
 BRR  HN ES        028 22.68                             149    0.4310 82.0 297 
 BRR  HZ I         028 29.31         7.2 0.30            144           82.0 297 
 RUS  HZ EP        028  6.86                             145    0.0410 97.4 182 
 RUS  HN ES        028 25.82                             145    0.5210 97.4 182 
 RUS  HZ I         028 27.53         1.3 0.32            146           97.4 182 
 SPBC HZ EP        028 12.01                             129   -0.18 9  168 222 
 SPBC HN ES        028 34.69                             129   -0.18 9  168 222 
 SPBC HZ I         028 39.91         4.2 0.24            128            168 222 
                                                                                
