 2011 1213 0133 56.7 L   6.915 -73.131158.0  RSN  7 0.6 1.7LRSN                1
 GAP=185        1.21       7.3    11.1 11.1 -0.3029E+02 -0.1446E+02  0.9213E+01E
 Epicentro: PIEDECUESTA - SANTANDER                                            3
 ACTION:UPD 12-07-13 16:15 OP:ep   STATUS:               ID:20111213013356 L   I
 2011-12-13-0130-00M.COL___186                                                 6
 STAT SP IPHASW D HRMM SECON CODA AMPLIT PERI AZIMU VELO AIN AR TRES W  DIS CAZ7
 GIR2 SZ EP   1    134 18.29                             173    0.65 7 19.4 339 
 BAR2 SZ EP   1    134 18.54                             167    0.39 7 36.1 189 
 BAR2 SZ ES   1    134 33.90                             167   -0.95 7 36.1 189 
 BAR2 SZ I         134 34.55         5.7 0.15                          36.1 189 
 BRR  HN ES        134 37.03                             156    0.5910 67.6 288 
 BRR  HZ I         134 38.87        13.3 0.18                          67.6 288 
 RUS  HZ EP   1    134 23.00                             143    0.39 7  113 177 
 RUS  HZ I         134 42.66         3.4 0.44                           113 177 
 OCA  SZ EP        134 24.31                             135   -0.63 9  148 352 
 OCA  SZ ES   1    134 46.69                             135   -0.23 7  148 352 
 OCA  SZ I         134 51.58         8.3 0.31                           148 352 
 PTB  HZ EP   1    134 25.46                             134    0.33 7  152 254 
 NOR  SN ES        135  2.76                             120   -0.56 8  244 232 
                                                                                
