 2017  613 0636 30.6 L   6.731 -73.163145.4  RSN  4 0.2 1.5LRSN                1
 GAP=276        0.52       4.2     7.4  6.8 -0.1236E+02 -0.2497E+02  0.1310E+02E
 Epicentro: VILLANUEVA - SANTANDER                                             3
 ACTION:UPD 17-09-14 16:51 OP:jn   STATUS:               ID:20170613063630 L   I
 OLDACT:UP  17-06-13 15:49 OP:dani STATUS:               ID:20170613062735     3
 OLDACT:UP  17-06-13 15:49 OP:dani STATUS:               ID:20170613062735     3
 OLDACT:UP  17-06-13 15:49 OP:dani STATUS:               ID:20170613062735     3
 OLDACT:UP  17-06-13 15:49 OP:dani STATUS:               ID:20170613062735     3
 OLDACT:REG 17-06-13 12:51 OP:dani STATUS:               ID:20170613062735     3
 2017-06-13-0628-00M.COL___365                                                 6
 STAT SP IPHASW D HRMM SECON CODA AMPLIT PERI AZIMU VELO AIN AR TRES W  DIS CAZ7
 BRR  HZ EP     D  636 51.70                             152   -0.1910 73.6 304 
 BRR  HE ES        637  8.58                             152    0.1110 73.6 304 
 BRR  HZ I         637 12.74         7.7 0.36            141           73.6 304 
 PTB  HZ EP        636 57.46                             133    0.16 9  145 262 
 PTB  HE ES        637 17.77                             133   -0.32 9  145 262 
 PTB  HZ I         637 23.25         2.4 0.15            127            145 262 
 SPBC HZ EP        636 58.58                             131    0.13 9  156 220 
 SPBC HN ES        637 20.22                             131    0.08 9  156 220 
 SPBC HZ I         637 21.48         3.8 0.09            128            156 220 
 ZAR  HZ EP   4    637  5.39                             122    2.19 0  205 294 
 ZAR  HE ES   3    637 29.47                             122    0.88 2  205 294 
 ZAR  HZ I         637 34.69         3.1 0.30            118            205 294 
                                                                                
