 2014 1113 0227 55.0 L   6.754 -73.136143.8  RSN  8 0.6 1.7LRSN                1
 GAP=140        1.55       6.2     7.0  9.4 -0.1171E+02  0.1010E+02  0.1472E+02E
 Epicentro: LOS SANTOS - SANTANDER                                             3
 ACTION:UPD 14-12-19 15:42 OP:nd   STATUS:               ID:20141113022755 L   I
 OLDACT:DUP 14-11-13 13:19 OP:stll STATUS:               ID:20141113021742d    3
 2014-11-13-0217-41M.COL___286                                                 6
 STAT SP IPHASW D HRMM SECON CODA AMPLIT PERI AZIMU VELO AIN AR TRES W  DIS CAZ7
 BAR2 SZ EP        228 14.12                             172   -0.1710 18.6 196 
 BAR2 SZ ES        228 29.37                             172    0.0210 18.6 196 
 BAR2 SZ I         228 31.19        15.8 0.16            171           18.6 196 
 BRR  HZ EP     C  228 16.15                             151    0.0210 74.7 302 
 BRR  HN ES        228 33.46                             151    0.8410 74.7 302 
 PAM  SZ EP        228 17.45                             149    0.2510 80.7  37 
 PAM  SN ES        228 33.84                             149   -0.6810 80.7  37 
 PAM  SZ I         228 36.59         6.8 0.52            152           80.7  37 
 RUS  HZ EP        228 18.43                             145    0.2510 95.4 177 
 RUS  HE ES        228 36.93                             145    0.6610 95.4 177 
 RUS  HZ I         228 38.81         8.6 0.40            145           95.4 177 
 PTB  HZ EP        228 21.30                             131   -0.51 9  148 261 
 PTB  HN ES        228 42.16                             131   -0.57 9  148 261 
 PTB  HZ I         228 44.08         6.8 0.14            133            148 261 
 SPBC HZ EP        228 22.13                             129   -0.90 9  160 220 
 SPBC HN ES        228 44.05                             129   -0.86 9  160 220 
 SPBC HZ I         228 50.00        10.7 0.32            130            160 220 
 NOR  HZ EP        228 31.82                             118    1.43 8  233 236 
 NOR  HN ES        228 58.56                             118    0.56 8  233 236 
 CHI  HZ EP        228 32.29                             117    0.21 8  244 196 
 CHI  HZ I         228 34.08         2.9 0.24            118            244 196 
 CHI  HN ES        229  0.62                             117   -0.39 8  244 196 
                                                                                
