 2016  913 0620 30.4 L   6.773 -73.148138.3  RSN  7 0.5 1.3LRSN                1
 GAP=137        1.32       5.4     5.5  8.4 -0.9784E+00  0.1276E+02  0.5480E+00E
 Epicentro: LOS SANTOS - SANTANDER                                             3
 ACTION:UPD 17-08-17 21:09 OP:lp   STATUS:               ID:20160913062030 L   I
 OLDACT:REG 16-09-13 14:07 OP:and  STATUS:               ID:20160913061734     3
 2016-09-13-0618-00M.COL___318                                                 6
 STAT SP IPHASW D HRMM SECON CODA AMPLIT PERI AZIMU VELO AIN AR TRES W  DIS CAZ7
 BAR2 EZ EP        620 48.90                             171   -0.1410 20.4 191 
 BAR2 EZ ES        621  2.92                             171   -0.6810 20.4 191 
 BAR2 EZ I         621  6.95         3.4 0.64            170           20.4 191 
 BRR  HZ EP        620 50.74                             151   -0.0510 72.5 301 
 BRR  HN ES        621  7.56                             151    0.8510 72.5 301 
 BRR  HZ I         621 10.74         3.9 0.34            151           72.5 301 
 PAM  EZ EP        620 51.85                             149   -0.1010 79.8  38 
 PAM  EE ES        621  8.65                             149   -0.1310 79.8  38 
 PAM  EZ I         621 10.65         3.6 0.44            154           79.8  38 
 RUS  HZ EP        620 53.00                             143   -0.1710 97.6 176 
 RUS  HN ES        621 11.72                             143    0.7610 97.6 176 
 RUS  HZ I         621 13.26         2.0 0.26            146           97.6 176 
 PTB  HZ EP        620 55.92                             130   -0.74 9  147 260 
 PTB  HN ES        621 16.54                             130   -0.63 9  147 260 
 PTB  HZ I         621 19.77         2.5 0.44            132            147 260 
 SPBC HZ EP        620 58.20                             128    0.13 9  161 220 
 SPBC HN ES        621 19.81                             128    0.14 9  161 220 
 SPBC HZ I         621 26.26         4.0 0.26            130            161 220 
 ZAR  HZ EP        621  3.39                             121    0.96 9  205 293 
 ZAR  HN ES        621 27.36                             121   -0.08 9  205 293 
 ZAR  HZ I         621 32.70         3.6 0.46            123            205 293 
                                                                                
