 2014 1213 0240  3.2 L   6.843 -73.137139.7  RSN 13 0.6 2.1LRSN                1
 GAP= 70        1.52       4.0     4.4  7.5 -0.6973E+00  0.7077E+01  0.1080E+01E
 Epicentro: LOS SANTOS - SANTANDER                                             3
 ACTION:UPD 15-02-10 17:03 OP:nd   STATUS:               ID:20141213024003 L   I
 OLDACT:REG 14-12-13 14:12 OP:stll STATUS:               ID:20141213023743     3
 2014-12-13-0237-43M.COL___294                                                 6
 STAT SP IPHASW D HRMM SECON CODA AMPLIT PERI AZIMU VELO AIN AR TRES W  DIS CAZ7
 BAR2 EZ EP        240 22.41                             168    0.1510 28.2 190 
 BAR2 EZ ES        240 36.93                             168   -0.1610 28.2 190 
 BAR2 EZ I         240 38.38        16.5 0.22            168           28.2 190 
 BRR  HZ EP        240 24.42                             152    0.7510 70.0 295 
 BRR  HN ES        240 41.05                             152    1.4510 70.0 295 
 PAM  SZ EP        240 25.16                             151    0.6010 73.1  41 
 PAM  SN ES        240 41.37                             151    0.1810 73.1  41 
 PAM  SZ I         240 44.07        28.4 0.50            153           73.1  41 
 RUS  HZ EP        240 26.49                             141   -0.2710  105 177 
 RUS  HN ES        240 44.85                             141   -0.2510  105 177 
 RUS  HZ I         240 46.54        15.4 0.28            142            105 177 
 PTB  HZ EP        240 29.50                             130   -0.41 9  150 257 
 PTB  HN ES        240 49.84                             130   -0.87 9  150 257 
 PTB  HZ I         240 52.85        17.2 0.30            130            150 257 
 TAM  HZ IP     D  240 30.86                             129    0.38 9  155 107 
 TAM  HZ I         240 31.22        21.7 0.36            131            155 107 
 TAM  HN ES        240 51.09                             129   -0.64 9  155 107 
 OCA  HZ EP        240 30.61                             129   -0.04 9  156 353 
 OCA  HN ES        240 51.66                             129   -0.37 9  156 353 
 OCA  HZ I         240 57.31        13.9 0.30            130            156 353 
 SPBC HZ EP        240 31.39                             127   -0.32 9  168 218 
 SPBC HN ES        240 53.15                             127   -0.76 9  168 218 
 SPBC HZ I         241  0.61        21.4 0.22            127            168 218 
 ZAR  HZ EP        240 35.21                             121   -0.01 9  203 291 
 ZAR  HN ES        241  0.42                             121    0.26 9  203 291 
 SML  HZ EP        240 38.95                             117   -0.16 8  240 335 
 SML  HN ES        241  5.59                             117   -1.50 8  240 335 
 SML  HZ I         241 10.02        16.7 0.24            118            240 335 
 RREF HZ EP        240 50.91                             109    1.33 7  326 229 
 RREF HN ES        241 26.20                             109    0.49 7  326 229 
 RREF HZ I         241 36.67         5.2 0.30            110            326 229 
 TOL  SZ EP        240 51.98                             108    0.24 6  348 224 
 TOL  SN ES        241 29.66                             108    0.10 6  348 224 
 MON  HZ EP   9    240 49.87                             108   -1.90 0  352 308 
 MON  HN ES        241 27.26                                   -0.46 6  352 308 
 MON  HZ I         241 29.11         2.8 0.16            108            352 308 
                                                                                
