 2011  713 0240 53.9 L   6.825 -73.019149.7  RSN  6 0.3 1.6LRSN                1
 GAP=172        0.60       3.9     6.8  5.1  0.3238E+00 -0.1310E+01 -0.5881E+00E
 Epicentro: CEPITA - SANTANDER                                                 3
 ACTION:UPD 12-07-25 14:00 OP:epov STATUS:               ID:20110713024053 L   I
 2011-07-13-0240-00M.COL___133                                                 6
 STAT SP IPHASW D HRMM SECON CODA AMPLIT PERI AZIMU VELO AIN AR TRES W  DIS CAZ7
 BAR2 SZ EP   1    241 14.32                             168    0.14 7 31.4 215 
 BAR2 SZ ES   1    241 29.63                             168   -0.38 7 31.4 215 
 BAR2 SZ I         241 30.83         8.8 0.23                          31.4 215 
 GIR2 SZ EP   1    241 14.54                             167    0.43 7 34.0 326 
 GIR2 SZ ES   1    241 30.28                             167    0.40 7 34.0 326 
 BRR  HZ EP   1    241 16.24                             149    0.10 7 82.6 292 
 BRR  HZ I         241 16.34        12.4 0.13                          82.6 292 
 BRR  HE ES   1    241 33.32                             149   -0.17 7 82.6 292 
 RUS  HZ EP   1    241 18.38                             144    0.15 7  103 184 
 RUS  HN ES   1    241 37.11                             144   -0.11 7  103 184 
 RUS  HZ I         241 37.97         3.0 0.19                           103 184 
 GRA  SZ EP   1    241 18.45                             139   -0.54 7  120  11 
 GRA  SZ ES   2    241 38.58                             139    0.02 5  120  11 
 HEL  HZ EP   1    241 35.77                             114   -0.11 6  286 256 
 HEL  HZ I         242 13.11         3.3 0.48                           286 256 
                                                                                
