 2011  913 0713 12.4 L   6.792 -73.021145.9  RSN  4 0.1 1.5LRSN                1
 GAP=249        0.34       6.9     7.7  4.6  0.4243E+02 -0.4030E+01 -0.9333E+01E
 Epicentro: CEPITA - SANTANDER                                                 3
 ACTION:UPD 12-07-13 15:57 OP:ep   STATUS:               ID:20110913071312 L   I
 2011-09-13-0700-00M.COL___171                                                 6
 STAT SP IPHASW D HRMM SECON CODA AMPLIT PERI AZIMU VELO AIN AR TRES W  DIS CAZ7
 BAR2 SZ EP   1    713 32.36                             169    0.17 7 28.4 219 
 BAR2 SZ ES   1    713 47.53                             169   -0.07 7 28.4 219 
 BAR2 SZ I         713 50.30         6.7 0.41                          28.4 219 
 BRR  HZ EP   1    713 34.15                             148   -0.21 7 83.9 295 
 BRR  HZ I         713 34.60         7.6 0.03                          83.9 295 
 BRR  HE ES   2    713 51.67                             148    0.21 5 83.9 295 
 RUS  HZ EP   2    713 36.26                             144    0.13 5 99.7 184 
 RUS  HN ES   2    713 54.52                             144   -0.10 5 99.7 184 
 RUS  HZ I         713 55.79         2.8 0.30                          99.7 184 
 ZAR  HZ EP   2    713 46.26                             121    0.00 4  217 291 
 ZAR  HN ES   2    714 12.65                             121    0.02 4  217 291 
 ZAR  HZ I         714 16.92         2.5 0.25                           217 291 
                                                                                
