 2011 1113 0020 36.9 L   6.755 -73.143144.7  RSN  4 0.2 1.6LRSN                1
 GAP=234        0.41       6.3     7.4  6.6  0.3986E+02 -0.1140E+02 -0.1046E+02E
 Epicentro: LOS SANTOS - SANTANDER                                             3
 ACTION:UPD 12-07-13 16:09 OP:ep   STATUS:               ID:20111113002036 L   I
 2011-11-13-0017-08S.COL___179                                                 6
 STAT SP IPHASW D HRMM SECON CODA AMPLIT PERI AZIMU VELO AIN AR TRES W  DIS CAZ7
 BAR2 SZ EP   1    020 56.02                             172   -0.29 7 18.5 194 
 BAR2 SZ I         020 56.59         5.6 0.05                          18.5 194 
 BRR  HZ EP   1    020 58.24                             151    0.15 7 74.0 302 
 BRR  HN ES   1    021 14.70                             151    0.08 7 74.0 302 
 BRR  HZ I         021 34.57        15.1 0.33                          74.0 302 
 RUS  HZ EP   1    021  0.34                             145    0.15 7 95.5 176 
 RUS  HN ES   1    021 18.33                             145   -0.02 7 95.5 176 
 ZAR  HN ES   1    021 34.83                             122   -0.10 6  206 293 
 ZAR  HZ I         021 43.14         3.7 0.07                           206 293 
                                                                                
