 2016  913 0911 55.9 L   6.764 -73.131137.4  RSN  8 0.7 1.6LRSN                1
 GAP=140        1.35       5.4     5.6  8.5 -0.3994E+00  0.1419E+02 -0.5571E+00E
 Epicentro: LOS SANTOS - SANTANDER                                             3
 ACTION:UPD 17-08-17 21:09 OP:lp   STATUS:               ID:20160913091156dL   I
 OLDACT:REG 16-09-13 14:56 OP:and  STATUS:               ID:20160913090740     3
 2016-09-13-0908-00M.COL___318                                                 6
 STAT SP IPHASW D HRMM SECON CODA AMPLIT PERI AZIMU VELO AIN AR TRES W  DIS CAZ7
 BAR2 EZ EP        912 14.34                             171   -0.1010 19.9 197 
 BAR2 EZ ES        912 28.54                             171   -0.3810 19.9 197 
 BAR2 EZ I         912 30.13         7.1 0.10            170           19.9 197 
 BRR  HZ EP        912 16.22                             150   -0.1210 74.6 301 
 BRR  HE ES        912 33.11                             150    0.8110 74.6 301 
 BRR  HZ I         912 37.41         6.3 0.10            150           74.6 301 
 PAM  EZ EP        912 17.27                             149   -0.0810 79.5  37 
 PAM  EN ES        912 33.97                             149   -0.1210 79.5  37 
 PAM  EZ I         912 36.04        11.9 0.46            153           79.5  37 
 RUS  HZ EP        912 18.88                             144    0.3610 96.5 177 
 RUS  HE ES        912 36.25                             144    0.0710 96.5 177 
 RUS  HZ I         912 38.41         4.6 0.26            146           96.5 177 
 PTB  HZ EP        912 21.43                             130   -0.84 9  149 260 
 PTB  HN ES        912 43.08                             130    0.23 9  149 260 
 PTB  HZ I         912 44.26         3.0 0.24            131            149 260 
 SPBC HZ EP        912 23.63                             128    0.07 9  161 220 
 SPBC HN ES        912 45.05                             128   -0.10 9  161 220 
 SPBC HZ I         912 52.21         4.9 0.28            129            161 220 
 ZAR  HZ EP        912 28.03                             120   -0.09 8  207 293 
 ZAR  HE ES        912 53.58                             120    0.31 8  207 293 
 ZAR  HZ I         912 58.11         4.4 0.34            122            207 293 
 URE  HZ EP   2    912 39.65                             112    2.75 4  287 293 
 URE  HN ES   2    913  5.88                             112   -3.02 4  287 293 
 URE  HZ I         913  8.20         3.2 0.06            114            287 293 
                                                                                
