 2016 1113 0601 35.1 L   6.793 -73.121151.3  RSN 16 0.5 1.9LRSN                1
 GAP= 67        1.00       4.2     3.8  5.7 -0.1158E+00  0.8372E-01  0.5413E+01E
 Epicentro: LOS SANTOS - SANTANDER                                             3
 ACTION:UPD 17-10-26 21:07 OP:lp   STATUS:               ID:20161113060135 L   I
 OLDACT:UP  16-11-13 18:33 OP:and  STATUS:               ID:20161113055743     3
 OLDACT:UP  16-11-13 18:30 OP:and  STATUS:               ID:20161113055743     3
 OLDACT:REG 16-11-13 13:07 OP:and  STATUS:               ID:20161113055743     3
 2016-11-13-0558-00M.COL___340                                                 6
 STAT SP IPHASW D HRMM SECON CODA AMPLIT PERI AZIMU VELO AIN AR TRES W  DIS CAZ7
 BAR2 EZ IP     D  6 1 55.08                             171   -0.2610 23.2 197 
 BAR2 EZ ES        6 2 11.10                             171   -0.0710 23.2 197 
 BAR2 EZ I         6 2 12.08        21.8 0.30            173           23.2 197 
 BRR  HZ EP        6 1 56.96                             153    0.0110 74.0 298 
 BRR  HN ES        6 2 14.56                             153    0.5210 74.0 298 
 PAM  EZ EP        6 1 57.91                             152    0.1210 76.2  38 
 PAM  EZ I         6 2 17.38        18.4 0.54            142           76.2  38 
 PTB  HZ EP        6 2  1.99                             133   -0.71 9  150 259 
 PTB  HN ES        6 2 23.40                             133   -0.87 9  150 259 
 PTB  HZ I         6 2 30.60        13.9 0.38            124            150 259 
 TAM  HZ IP     D  6 2  3.26                             132    0.35 9  152 105 
 ZAR  HZ EP        6 2  7.71                             123   -0.44 8  207 292 
 ZAR  HN ES        6 2 33.84                             123   -0.13 8  207 292 
 ZAR  HZ I         6 2 38.86        11.5 0.38            114            207 292 
 NOR  HZ EP        6 2 11.88                             119    0.58 8  237 235 
 NOR  HN ES        6 2 39.54                             119   -0.03 8  237 235 
 CHI  HZ EP        6 2 13.45                             118    0.39 8  249 196 
 CHI  HN ES        6 2 43.02                             118    0.31 8  249 196 
 CHI  HZ I         6 2 46.57         2.7 0.34            111            249 196 
 ROSC BZ EP   4    6 2 16.00                             117    2.44 0  254 212 
 ROSC BE ES   4    6 2 45.30                             117    1.70 0  254 212 
 ROSC BZ I         6 2 48.81         6.3 0.40            111            254 212 
 URE  HZ EP   4    6 2 19.80                             114    3.09 0  287 292 
 URE  HZ I         6 2 56.81         5.4 0.16            107            287 292 
 PTGC HZ EP   2    6 2 17.90                             112   -1.07 4  307 159 
 PTGC HN ES   3    6 2 51.55                             112   -1.67 2  307 159 
 LL6C HZ EP   9    6 2  1.26                             111   -19.8 0  326 357 
 LL6C HN ES        6 2 36.73                                   -0.44 7  326 357 
 ELA  HN ES   4    6 3  3.03                             111    3.83 0  331 230 
 ELA  HZ I         6 3 17.68         2.5 0.58            105            331 230 
 CBOC HZ EP        6 2 23.16                             111    0.69 7  336 252 
 CBOC HN ES        6 3  0.07                             111    0.61 7  336 252 
 CBOC HZ I         6 3  6.53         1.5 0.59            104            336 252 
 PRA  HZ EP        6 2 28.81                             107   -0.04 6  393 210 
 PRA  HN ES   4    6 3 12.37                             107    1.56 0  393 210 
 PRA  HZ I         6 3 16.81         2.0 0.38            101            393 210 
 ORTC HN ES   4    6 3 13.45                             107    1.86 0  396 217 
 SJC  HZ EP        6 2 31.08                             106    0.03 6  411 327 
 SJC  HN ES   4    6 3 10.57                             106   -4.16 0  411 327 
 SJC  HZ I         6 3 15.12         2.8 0.50            100            411 327 
                                                                                
