 2012  113 0405  4.2 L   6.729 -73.191149.6  RSN  6 0.3 1.7LRSN                1
 GAP=173        0.63       7.5     7.1  7.6  0.2955E+02  0.1372E+02  0.1834E+02E
 Epicentro: VILLANUEVA - SANTANDER                                             3
 ACTION:UP  12-02-03 08:17 OP:REBC STATUS:               ID:20120113040504 L   I
 2012-01-13-0400-00M.COL___187                                                 6
 STAT SP IPHASW D HRMM SECON CODA AMPLIT PERI AZIMU VELO SNR AR TRES W  DIS CAZ7
 BAR2 SZ EP   1    4 5 23.88                             174    -0.3 7   15 176 
 BAR2 SZ ES   2    4 5 39.13                             174    -0.6 5   15 176 
 BAR2 SZ I         4 5 40.59         9.2 0.31                            15 176 
 GIR2 SZ ES   2    4 5 40.52                             165     0.1 5   39 360 
 BRR  HZ EP   1    4 5 25.77                             153     0.0 7   71 306 
 BRR  HZ I         4 5 25.94        19.7 0.16                            71 306 
 BRR  HN ES   1    4 5 43.00                             153     0.4 7   71 306 
 RUS  HZ EP   1    4 5 28.19                             147     0.3 7   93 173 
 RUS  HN ES   2    4 5 46.35                             147     0.1 5   93 173 
 RUS  HZ I         4 5 47.27         4.5 0.45                            93 173 
 PTB  HZ EP   1    4 5 30.96                             134     0.0 7  141 262 
 PTB  HN ES   2    4 5 51.73                             134    -0.1 5  141 262 
 PTB  HZ I         4 5 55.03         0.0 0.08                           141 262 
 ZAR  HE ES   2    4 6  1.74                             123    -0.4 4  203 295 
 ZAR  HZ I         4 6  8.82         4.5 0.23                           203 295 
                                                                                
