 2017  513 0742  8.0 L   6.792 -73.125148.0  RSN  5 0.2 1.1LRSN                1
 GAP=140        0.60       3.2     3.3  5.1  0.2157E+01  0.5325E+01  0.1998E+01E
 Epicentro: LOS SANTOS - SANTANDER                                             3
 ACTION:UPD 17-06-16 13:35 OP:jn   STATUS:               ID:20170513074208 L   I
 OLDACT:REG 17-05-13 13:16 OP:osc  STATUS:               ID:20170513073750     3
 2017-05-13-0738-00M.COL___318                                                 6
 STAT SP IPHASW D HRMM SECON CODA AMPLIT PERI AZIMU VELO AIN AR TRES W  DIS CAZ7
 BRR  HZ EP        742 29.54                             152   -0.0110 73.7 298 
 BRR  HN ES        742 46.65                             152    0.3110 73.7 298 
 BRR  HZ I         742 47.80         3.9 0.05            151           73.7 298 
 PAM  EZ EP        742 30.49                             151    0.0610 76.6  38 
 PAM  EN ES        742 47.80                             151   -0.1110 76.6  38 
 PAM  EZ I         742 50.15         2.6 0.71            153           76.6  38 
 RUS  HZ EP        742 31.93                             144    0.0110 99.6 177 
 RUS  HN ES        742 50.39                             144   -0.1710 99.6 177 
 RUS  HZ I         742 51.40         1.2 0.20            147           99.6 177 
 PTB  HZ EP        742 35.74                             132    0.37 9  150 259 
 PTB  HN ES   4    742 55.25                             132   -1.44 0  150 259 
 ZAR  HZ EP   1    742 40.59                             122   -0.28 6  207 292 
 ZAR  HN ES        743  6.09                             122   -0.40 8  207 292 
 ZAR  HZ I         743 11.32         1.4 0.11            123            207 292 
                                                                                
