 2017  513 0618  0.6 L   6.429 -73.572107.7  RSN  5 0.4 0.6LRSN                1
 GAP=142        0.92       6.5     5.8  8.6  0.3077E+02  0.1180E+02  0.1705E+02E
 Epicentro: SANTA HELENA DEL OPON - SANTANDER                                  3
 ACTION:UPD 17-06-16 13:35 OP:jn   STATUS:               ID:20170513061800 L   I
 OLDACT:REG 17-05-13 12:49 OP:osc  STATUS:               ID:20170513060748     3
 2017-05-13-0608-00M.COL___324                                                 6
 STAT SP IPHASW D HRMM SECON CODA AMPLIT PERI AZIMU VELO AIN AR TRES W  DIS CAZ7
 BRR  HN ES        618 31.73                             142   -0.1610 76.5 348 
 RUS  HZ EP        618 18.64                             141   -0.5210 80.3 138 
 RUS  HN ES   1    618 33.86                             141    0.23 7 80.3 138 
 RUS  HZ I         618 35.03         0.7 0.14            144           80.3 138 
 PTB  HZ EP        618 20.17                             134    0.1710 98.6 277 
 PTB  HN ES   1    618 34.81                             134   -0.33 7 98.6 277 
 PTB  HZ I         618 40.64         1.1 0.13            132           98.6 277 
 YPLC HZ EP        618 27.37                             117   -0.33 9  175 131 
 YPLC HN ES        618 49.45                             117    0.62 9  175 131 
 ZAR  HZ EP        618 28.58                             115   -0.11 9  184 310 
 ZAR  HE ES        618 51.16                             115    0.55 9  184 310 
 ZAR  HZ I         618 56.38         0.7 0.06            117            184 310 
                                                                                
