 2017  113 0542 45.0 L   6.781 -73.164151.5  RSN  4 0.2 0.8LRSN                1
 GAP=135        0.65       3.7     3.5  5.7 -0.1494E+01  0.1501E+01  0.2653E+01E
 Epicentro: LOS SANTOS - SANTANDER                                             3
 ACTION:UPD 17-05-22 15:58 OP:jn   STATUS:               ID:20170113054245 L   I
 OLDACT:REG 17-01-13 12:45 OP:and  STATUS:               ID:20170113053744     3
 2017-01-13-0538-00M.COL___338                                                 6
 STAT SP IPHASW D HRMM SECON CODA AMPLIT PERI AZIMU VELO AIN AR TRES W  DIS CAZ7
 BRR  HZ EP        543  6.93                             154    0.1710 70.4 301 
 BRR  HN ES        543 24.03                             154    0.3310 70.4 301 
 PAM  EZ EP        543  7.77                             151   -0.2610 80.3  40 
 PAM  EN ES        543 25.86                             151   -0.1010 80.3  40 
 PAM  EZ I         543 42.67         2.1 0.34            146           80.3  40 
 RUS  HZ EP        543  9.34                             145    0.1210 98.7 175 
 RUS  HN ES        543 28.09                             145    0.0110 98.7 175 
 RUS  HZ I         543 29.13         0.6 0.11            154           98.7 175 
 PTB  HZ EP        543 12.41                             134    0.15 9  145 259 
 PTB  HN ES        543 33.03                             134   -0.46 9  145 259 
                                                                                
