 2013  213 0241 25.4 L   6.793 -73.161149.4  RSN  9 0.4 2.2LRSN                1
 GAP=135        0.98       3.4     4.6  6.2  0.1444E+00  0.4206E+01  0.3050E+01E
 Epicentro: LOS SANTOS - SANTANDER                                             3
 ACTION:UPD 13-03-12 09:32 OP:ep   STATUS:               ID:20130213024125 L   I
 2013-02-13-0240-00M.COL___239                                                 6
 STAT SP IPHASW D HRMM SECON CODA AMPLIT PERI AZIMU VELO AIN AR TRES W  DIS CAZ7
 BAR2 SZ EP        241 45.47                             171    0.0510 22.4 186 
 BAR2 SZ ES        242  0.60                             171   -0.4610 22.4 186 
 BAR2 SZ I         242  2.03        37.5 0.18            169           22.4 186 
 BRR  HZ IP     D  241 47.22                             153    0.3710 70.0 300 
 BRR  HN ES        242  4.43                             153    0.8210 70.0 300 
 BRR  HN I         242  4.73        46.0 0.18            149           70.0 300 
 BRR  HZ I         242  4.90        17.0 0.05                          70.0 300 
 PAM  SZ IP     C  241 48.17                             151    0.1010 79.0  40 
 PAM  SZ I         241 48.55        34.6 0.22            153           79.0  40 
 PAM  SN ES        242  5.87                             151    0.0910 79.0  40 
 RUS  HZ EP        241 49.36                             145   -0.0810100.0 175 
 RUS  HN ES   1    242  7.69                             145   -0.52 7100.0 175 
 RUS  HN I         242  9.83        17.2 0.32            144          100.0 175 
 PTB  HZ EP        241 52.46                             133   -0.01 9  146 259 
 PTB  HN ES        242 13.20                             133   -0.41 9  146 259 
 PTB  HN I         242 18.72        12.7 0.28            130            146 259 
 OCA  HN ES   1    242 16.32                             130   -0.04 7  161 354 
 ZAR  HN ES   1    242 23.37                             123    0.06 6  203 293 
 ZAR  HN I         242 29.41         9.5 0.14            121            203 293 
 SML  HZ EP   1    242  1.66                             118   -0.53 6  244 336 
 SML  HN ES   1    242 29.85                             118   -1.07 6  244 336 
 SML  HN I         242 37.96        24.0 0.26            117            244 336 
 CHI  HZ EP        242  3.66                             118    0.51 8  247 195 
 CHI  HN ES        242 32.65                             118    0.04 8  247 195 
 CHI  HN I         242 38.70         7.8 0.38            117            247 195 
                                                                                
