 2013 1013 0135 12.5 L   6.834 -73.149154.5  RSN  5 0.4 1.4LRSN                1
 GAP=134        0.93       8.4    10.3 13.6  0.4898E+01  0.4816E+02  0.3123E+02E
 Epicentro: LOS SANTOS - SANTANDER                                             3
 ACTION:UPD 13-11-25 09:21 OP:ep   STATUS:               ID:20131013013512 L   I
 OLDACT:UP  13-10-13 11:03 OP:mh   STATUS:               ID:20131013013136d    3
 OLDACT:UP  13-10-13 11:02 OP:mh   STATUS:               ID:20131013013136d    3
 OLDACT:DUP 13-10-13 10:56 OP:mh   STATUS:               ID:20131013013136d    3
 OLDACT:UP  13-10-13 10:54 OP:mh   STATUS:               ID:20131013013135     3
 OLDACT:UP  13-10-13 09:39 OP:mh   STATUS:               ID:20131013013135     3
 OLDACT:UP  13-10-13 08:43 OP:mh   STATUS:               ID:20131013013135     3
 OLDACT:UP  13-10-13 08:43 OP:mh   STATUS:               ID:20131013013135     3
 OLDACT:REG 13-10-13 08:40 OP:mh   STATUS:               ID:20131013013135     3
 2013-10-13-0131-35M.COL___236                                                 6
 STAT SP IPHASW D HRMM SECON CODA AMPLIT PERI AZIMU VELO AIN AR TRES W  DIS CAZ7
 BAR2 SZ EP        135 33.84                             170    0.5510 27.0 188 
 BAR2 SZ I         135 50.96         6.4 0.16            167           27.0 188 
 BRR  HN ES   1    135 51.89                             154    0.21 7 69.1 296 
 BRR  HZ I         135 56.32         4.3 0.14            150           69.1 296 
 PAM  SN ES   1    135 53.07                             153   -0.42 7 74.8  42 
 PAM  SZ I         135 55.34         3.9 0.20            145           74.8  42 
 RUS  HN ES   1    135 56.59                             144   -0.24 7  104 176 
 PTB  HZ EP   1    135 39.65                             134   -0.61 7  148 257 
 PTB  HN ES   4    136  1.75                             134   -0.14 0  148 257 
 PTB  HZ I         136  4.17         3.5 0.14            127            148 257 
                                                                                
