 2017  213 0552  8.1 L   6.796 -73.082137.1  RSN  4 0.1 1.0LRSN                1
 GAP=244        0.46       4.5     6.7  4.9  0.2199E+02 -0.1977E+02 -0.1035E+02E
 Epicentro: LOS SANTOS - SANTANDER                                             3
 ACTION:UPD 17-05-24 15:35 OP:jn   STATUS:               ID:20170213055208 L   I
 OLDACT:UP  17-02-13 18:24 OP:edw  STATUS:               ID:20170213054747     3
 OLDACT:UP  17-02-13 18:24 OP:edw  STATUS:               ID:20170213054747     3
 OLDACT:REG 17-02-13 11:56 OP:edw  STATUS:               ID:20170213054747     3
 2017-02-13-0548-00M.COL___343                                                 6
 STAT SP IPHASW D HRMM SECON CODA AMPLIT PERI AZIMU VELO AIN AR TRES W  DIS CAZ7
 BAR2 EZ IP     D  552 26.75                             169    0.0610 25.1 206 
 BAR2 EZ ES        552 41.31                             169    0.0910 25.1 206 
 BAR2 EZ I         552 43.32         1.6 0.54             47           25.1 206 
 BRR  HZ EP        552 28.56                             148   -0.1110 77.6 296 
 BRR  HN ES        552 44.66                             148   -0.0910 77.6 296 
 BRR  HZ I         552 45.99         2.1 0.36             47           77.6 296 
 RUS  HZ EP        552 31.14                             142    0.2210 99.9 180 
 RUS  HN ES        552 48.58                             142   -0.1710 99.9 180 
 PTB  HZ EP   9    552 33.81                             128   -1.17 0  155 259 
 PTB  HN ES        552 55.03                             129    0.23 9  155 259 
 PTB  HZ I         552 56.90         1.6 0.46             47            155 259 
 ZAR  HN ES   4    553  8.52                             119    2.43 0  211 292 
                                                                                
