 2013  913 0253 15.3 L   6.803 -73.178146.0  RSN 14 0.5 2.3LRSN                1
 GAP=132        1.10       2.9     4.3  5.5 -0.2497E+01  0.4763E+01  0.2674E+01E
 Epicentro: LOS SANTOS - SANTANDER                                             3
 ACTION:UPD 13-10-22 09:22 OP:ep   STATUS:               ID:20130913025315 L   I
 OLDACT:REG 13-09-13 07:27 OP:carl STATUS:               ID:20130913024959     3
 2013-09-13-0249-59M.COL___269                                                 6
 STAT SP IPHASW D HRMM SECON CODA AMPLIT PERI AZIMU VELO AIN AR TRES W  DIS CAZ7
 BAR2 SZ EP        253 34.84                             170   -0.1610 23.3 181 
 BAR2 SZ ES        253 49.62                             170   -0.7110 23.3 181 
 BAR2 SZ I         253 51.15        56.2 0.22            170           23.3 181 
 BRR  HZ IP     C  253 36.70                             154    0.3610 67.9 300 
 BRR  HN ES        253 54.04                             154    1.3310 67.9 300 
 BRR  HZ I         253 56.39        30.5 0.18            151           67.9 300 
 PAM  SZ EP        253 37.83                             150    0.1310 79.4  42 
 PAM  SN ES        253 55.39                             150    0.2510 79.4  42 
 PAM  SZ I         253 56.59        10.8 0.34            154           79.4  42 
 RUS  HZ EP        253 38.87                             144   -0.2910  101 174 
 RUS  HN ES   1    253 57.84                             144    0.10 7  101 174 
 RUS  HZ I         253 59.64        13.7 0.65            146            101 174 
 PTB  HZ EP        253 41.26                             133   -0.76 9  144 258 
 PTB  HN ES        254  2.42                             133   -0.41 9  144 258 
 PTB  HZ I         254  4.61        31.2 0.40            132            144 258 
 OCA  HZ EP        253 43.52                             130   -0.08 9  160 354 
 OCA  HN ES   1    254  5.27                             130   -0.37 7  160 354 
 OCA  HZ I         254 12.12        14.4 0.16            131            160 354 
 SPBC HZ EP        253 43.71                             130    0.03 9  161 218 
 SPBC HN ES   1    254  5.59                             130   -0.19 7  161 218 
 SPBC HZ I         254 12.04        27.6 0.28            130            161 218 
 ZAR  HZ EP   2    253 48.76                             123    1.31 4  201 292 
 ZAR  HN ES        254 12.19                             123   -0.31 9  201 292 
 ZAR  HN I         254 18.80        52.1 0.62            123            201 292 
 NOR  HZ EP        253 50.85                             119    0.05 8  232 234 
 NOR  HE ES        254 18.74                             119    0.28 8  232 234 
 NOR  HZ I         254 24.29        13.9 0.16            119            232 234 
 SML  HZ EP        253 51.82                             118    0.03 8  242 336 
 SML  HN ES        254 19.61                             118   -0.60 8  242 336 
 SML  HZ I         254 24.30        19.5 0.10            119            242 336 
 CHI  HZ EP        253 53.15                             117    0.16 8  248 194 
 CHI  HN ES   1    254 22.04                             117   -0.32 6  248 194 
 CHI  HZ I         254 24.62        10.6 0.42            119            248 194 
 ROSC BZ EP        253 53.71                             117    0.40 8  251 210 
 ROSC BN ES        254 23.36                             117    0.43 8  251 210 
 RREF HZ EP        254  1.26                             111    0.05 7  319 229 
 RREF HN ES        254 37.04                             111    0.04 7  319 229 
 RREF HZ I         254 46.80        14.5 0.30            112            319 229 
 PRA  HZ EP        254  9.08                             107    0.38 6  391 209 
 PRA  HN ES   1    254 49.45                             107   -0.87 4  391 209 
 PRA  HZ I         254 54.91        10.1 0.68            108            391 209 
                                                                                
