 2010 1213 0410 43.2 L   6.845 -73.096144.0  RSN 13 0.4 1.8LRSN                1
 GAP=140        0.79       3.5     8.9  6.9 -0.1242E+02  0.2016E+02 -0.2463E+01E
 Epicentro: LOS SANTOS - SANTANDER                                             3
 ACTION:UP  11-01-14 15:24 OP:pat  STATUS:               ID:20101213041043 L   I
 2010-12-13-0400-00M.COL___136                                                 6
 STAT SP IPHASW D HRMM SECON CODA AMPLIT PERI AZIMU VELO SNR AR TRES W  DIS CAZ7
 BTL  SZ EP        411  3.01                             171     0.410   21 293 
 GIR2 SZ EP   2    411  3.07                             168     0.5 5   28 337 
 BAR2 SZ EP        411  3.06                             168     0.310   30 199 
 BAR2 SZ ES   1    411 18.12                             168     0.1 7   30 199 
 BAR2 SZ I         411 20.72        15.2 0.28                            30 199 
 RUS  HZ EP        411  7.06                             142    -0.110  105 179 
 RUS  HN ES   1    411 25.34                             142    -0.5 7  105 179 
 RUS  HZ I         411 27.68         6.9 0.27                           105 179 
 GRA  SZ EP        411  7.56                             138    -0.210  119  16 
 GRA  SZ ES   1    411 26.89                             138     0.0 7  119  16 
 GRA  SZ I         411 29.40         6.8 0.16                           119  16 
 OCA  SZ EP        411 10.43                             130    -0.6 9  156 351 
 OCA  SZ ES   2    411 33.05                             130     0.4 5  156 351 
 OCA  SZ I         411 37.76         9.4 0.26                           156 351 
 YOP  SZ EP   2    411 13.86                             126     0.5 4  181 156 
 YOP  SZ I         411 15.26         5.9 0.26                           181 156 
 NOR  SZ EP   2    411 19.50                             117    -0.1 4  242 234 
 NOR  SN ES   2    411 47.36                             117    -0.7 4  242 234 
 CHI  HZ EP   1    411 21.40                             116    -0.1 6  255 196 
 CHI  HE ES   2    411 50.99                             116    -0.4 4  255 196 
 CHI  HZ I         411 57.01         4.8 0.33                           255 196 
 HEL  HZ EP   2    411 24.56                             114     0.5 4  279 255 
 HEL  HZ I         412  3.86         4.9 0.40                           279 255 
 RREF HZ EP   2    411 30.23                             110     0.1 3  329 229 
 RREF HZ I         412 15.51         5.0 0.29                           329 229 
 TOL  SZ EP   2    411 33.22                             109     1.0 3  351 225 
 PRA  HZ EP   2    411 37.12                             106    -0.4 3  399 210 
                                                                                
