 2010  513 0523 35.7 L   6.872 -73.179119.0  RSN  6 0.3 1.4LRSN                1
 GAP=154        0.71       3.5     7.5  7.1  0.2573E+01 -0.2119E+02 -0.7923E+01E
 Epicentro: ZAPATOCA - SANTANDER                                               3
 ACTION:UP  10-08-24 10:04 OP:vdl  STATUS:               ID:20100513052335 L   I
 2010-05-13-0520-18S.COL___104                                                 6
 STAT SP IPHASW D HRMM SECON CODA AMPLIT PERI AZIMU VELO AIN AR TRES W  DIS CAZ7
 BAR2 SZ EP        523 52.49                             165     0.110   31 181 
 BAR2 SZ ES   1    524  5.14                             165    -0.2 7   31 181 
 BRR  HZ EP        523 53.61                             150     0.010   64 294 
 BRR  HE ES   1    524  7.71                             150     0.2 7   64 294 
 BRR  HZ I         524  8.61        12.1 0.16                            64 294 
 RUS  HZ EP        523 57.33                             135    -0.310  109 174 
 RUS  HN ES   2    524 14.99                             135     0.2 5  109 174 
 RUS  HZ I         524 16.03         1.6 0.25                           109 174 
 GUE  SZ EP        523 57.60                             135     0.110  110  15 
 GRA  SZ EP        523 58.40                             132     0.310  119  20 
 GRA  SZ ES   2    524 15.86                             132     0.3 5  119  20 
 OCA  SZ EP        524  1.12                             124    -0.1 9  152 354 
 OCA  SZ ES   2    524 20.01                             124    -1.1 5  152 354 
 OCA  SZ I         524 26.92         4.6 0.21                           152 354 
                                                                                
