 2015  313 0640 35.9 L   6.807 -73.177145.6  RSN  7 0.4 1.6LRSN                1
 GAP=132        1.07       4.0     5.2  7.3 -0.4887E+01  0.5436E+01  0.2408E+01E
 Epicentro: LOS SANTOS - SANTANDER                                             3
 ACTION:UPD 15-04-30 16:25 OP:nd   STATUS:               ID:20150313064035 L   I
 OLDACT:REG 15-03-13 13:20 OP:cam  STATUS:               ID:20150313063750     3
 2015-03-13-0637-50M.COL___281                                                 6
 STAT SP IPHASW D HRMM SECON CODA AMPLIT PERI AZIMU VELO AIN AR TRES W  DIS CAZ7
 BAR2 EZ EP        640 55.57                             170    0.0510 23.8 181 
 BAR2 EZ ES        641 10.58                             170   -0.2410 23.8 181 
 BAR2 EZ I         641 13.11         6.4 0.18            172           23.8 181 
 BRR  HZ IP     C  640 57.41                             154    0.5710 67.7 299 
 BRR  HN ES        641 14.06                             154    0.8910 67.7 299 
 BRR  HZ I         641 17.34         5.7 0.42            153           67.7 299 
 PAM  SZ EP        640 58.34                             150    0.1510 79.0  42 
 PAM  SN ES        641 15.31                             150   -0.2810 79.0  42 
 PAM  SZ I         641 17.46         7.1 0.52            153           79.0  42 
 RUS  HZ EP        640 59.57                             143   -0.1410  102 174 
 RUS  HN ES        641 18.41                             143    0.1210  102 174 
 RUS  HN I         641 19.96         6.4 0.26            147            102 174 
 PTB  HZ EP        641  2.21                             133   -0.35 9  145 258 
 PTB  HN ES        641 22.78                             133   -0.57 9  145 258 
 PTB  HZ I         641 26.28         4.2 0.16            134            145 258 
 OCA  HN ES        641 25.58                             130   -0.49 9  159 354 
 OCA  HN I         641 29.51        14.7 0.44            132            159 354 
 SPBC HZ EP        641  4.56                             129    0.32 9  162 218 
 SPBC HE ES        641 26.14                             129   -0.20 9  162 218 
 SPBC HZ I         641 29.18         7.2 0.18            132            162 218 
                                                                                
