 2011 1113 0326 27.6 L   6.811 -73.154143.0  RSN 10 0.3 2.1LRSN                1
 GAP=135        0.61       2.2     3.2  3.8 -0.9942E+00  0.2871E+01  0.1544E+01E
 Epicentro: LOS SANTOS - SANTANDER                                             3
 ACTION:UPD 12-07-13 16:09 OP:ep   STATUS:               ID:20111113032627 L   I
 2011-11-13-0324-53S.COL___179                                                 6
 STAT SP IPHASW D HRMM SECON CODA AMPLIT PERI AZIMU VELO AIN AR TRES W  DIS CAZ7
 BAR2 SZ EP        326 46.90                             170   -0.0210 24.3 188 
 BAR2 SZ ES        327  2.25                             170    0.2610 24.3 188 
 BAR2 SZ I         327  4.16        18.6 0.22                          24.3 188 
 BRR  HZ EP        326 48.69                             152    0.3110 69.9 298 
 BRR  HE ES        327  4.88                             152    0.2910 69.9 298 
 BRR  HZ I         327  9.52        40.5 0.17                          69.9 298 
 PAM  SZ EP        326 49.71                             151    0.2110 77.0  41 
 PAM  SN ES        327  6.28                             151   -0.3110 77.0  41 
 RUS  HZ EP        326 51.23                             143    0.0610  102 176 
 RUS  HN ES   1    327  9.18                             143   -0.38 7  102 176 
 RUS  HZ I         327 11.13         9.2 0.17                           102 176 
 OCA  SZ EP        326 55.37                             129   -0.21 9  159 353 
 OCA  SZ ES   1    327 17.07                             129   -0.33 7  159 353 
 OCA  SZ I         327 20.86        16.3 0.29                           159 353 
 ZAR  HN ES   1    327 24.27                             122   -0.54 6  203 292 
 ZAR  HZ I         327 31.81        14.3 0.11                           203 292 
 NOR  SZ EP   1    327  3.30                             118    0.13 6  235 234 
 NOR  SE ES   1    327 30.72                             118   -0.19 6  235 234 
 CHI  HZ EP   1    327  4.93                             116   -0.31 6  250 195 
 CHI  HN ES   1    327 34.50                             116   -0.11 6  250 195 
 CHI  HZ I         327 42.56         9.4 0.58                           250 195 
 HEL  HZ EP   1    327  7.90                             114    0.29 6  272 256 
 HEL  HZ I         327 45.63         5.6 0.22                           272 256 
 PRA  HZ EP   1    327 21.65                             106    0.56 4  393 209 
 PRA  HN ES   1    328  2.46                             106   -0.36 4  393 209 
                                                                                
