 2017  513 0603 48.6 L   6.793 -73.183137.8  RSN 23 0.6 2.2LRSN                1
 GAP=109        1.38       3.8     4.4  7.1  0.2000E+01  0.7709E+01  0.5827E+01E
 Epicentro: ZAPATOCA - SANTANDER                                               3
 ACTION:UPD 17-06-16 13:35 OP:jn   STATUS:               ID:20170513060348 L   I
 OLDACT:REG 17-05-13 12:49 OP:osc  STATUS:               ID:20170513055750     3
 2017-05-13-0558-00M.COL___324                                                 6
 STAT SP IPHASW D HRMM SECON CODA AMPLIT PERI AZIMU VELO AIN AR TRES W  DIS CAZ7
 BRR  HZ EP        6 4  8.97                             152    0.2910 68.0 301 
 BRR  HN ES        6 4 25.35                             152    0.9910 68.0 301 
 BRR  HZ I         6 4 29.32        36.5 0.29            146           68.0 301 
 PAM  EZ EP        6 4  9.96                             148   -0.1910 80.6  41 
 PAM  EN ES        6 4 26.88                             148   -0.0910 80.6  41 
 PAM  EZ I         6 4 29.41        89.5 0.22            147           80.6  41 
 RUS  HZ EP        6 4 11.03                             142   -0.4910  100 174 
 RUS  HN ES        6 4 29.70                             142    0.2910  100 174 
 RUS  HZ I         6 4 31.00        23.4 0.33            137            100 174 
 PTB  HZ EP        6 4 13.88                             131   -0.63 9  144 259 
 PTB  HN ES        6 4 33.99                             131   -0.76 9  144 259 
 PTB  HZ I         6 4 37.34        13.1 0.35            125            144 259 
 SPBC HZ EP        6 4 16.28                             128    0.11 9  160 218 
 SPBC HN ES        6 4 37.80                             128    0.11 9  160 218 
 SPBC HZ I         6 4 40.61        36.8 0.10            122            160 218 
 YPLC HZ EP        6 4 17.51                             125   -0.42 9  178 150 
 YPLC HN ES        6 4 40.71                             125   -0.13 9  178 150 
 YPLC HZ I         6 4 42.50        39.4 0.10            120            178 150 
 ZAR  HZ EP        6 4 19.59                             121   -0.55 9  201 293 
 ZAR  HN ES        6 4 44.05                             121   -0.72 9  201 293 
 ZAR  HZ I         6 4 51.89        33.7 0.06            116            201 293 
 TABC EZ EP        6 4 24.39                             118    0.82 8  227 210 
 TABC EZ I         6 4 57.81        19.3 0.21            113            227 210 
 NOR  HZ EP        6 4 24.38                             117    0.94 8  231 234 
 NOR  HN ES        6 4 49.78                             117   -0.86 8  231 234 
 NOR  HZ I         6 4 56.75        14.4 0.08            112            231 234 
 CHI  HZ EP        6 4 25.39                             116   -0.26 8  247 194 
 CHI  HN ES        6 4 54.60                             116    0.04 8  247 194 
 CHI  HZ I         6 4 58.67         7.2 0.15            111            247 194 
 ROSC BZ EP   4    6 4 27.12                             115    1.15 0  250 210 
 ROSC BN ES   4    6 4 53.60                             115   -1.53 0  250 210 
 ROSC BZ I         6 5  0.98        18.0 0.56            111            250 210 
 HEL  HZ EP        6 4 29.92                             113    1.99 8  268 256 
 HEL  HN ES   1    6 4 58.78                             113    0.16 6  268 256 
 HEL  HZ I         6 5  6.29         8.8 0.45            109            268 256 
 VIL  EZ EP        6 4 31.17                             111   -0.29 7  302 191 
 VIL  EN ES   1    6 5  4.70                             111   -0.22 5  302 191 
 VIL  EZ I         6 5  7.73        15.2 0.11            107            302 191 
 PTGC HZ EP   4    6 4 30.29                             110   -1.89 0  310 158 
 PTGC HN ES   4    6 5  3.49                             110   -2.70 0  310 158 
 PTGC HZ I         6 5  6.37                             106            310 158 
 ELA  HN ES   4    6 5 12.66                             109    2.01 0  326 229 
 CBOC HZ EP        6 4 35.40                             109    0.71 7  329 252 
 CBOC HZ I         6 5 15.30         5.7 0.05            105            329 252 
 DBB  EZ EP        6 4 34.77                             108   -0.50 7  335 274 
 DBB  EN ES   4    6 5  8.89                             108   -2.80 0  335 274 
 DBB  EZ I         6 5 11.99         6.1 0.05            104            335 274 
 ANIL HN ES   4    6 5 18.22                             107    2.23 0  354 224 
 ARGC HZ EP   1    6 4 38.33                             107    0.47 5  359 341 
 ARGC HN ES   1    6 5 15.92                             107   -0.38 5  359 341 
 ORTC HZ EP        6 4 41.53                             105   -0.35 6  392 216 
 ORTC HN ES        6 5 23.97                             105    0.52 6  392 216 
 ORTC HZ I         6 5 28.66         5.1 0.42            102            392 216 
 APAC HZ EP   4    6 4 40.74                             105   -1.33 0  395 288 
 APAC HN ES   4    6 5 21.73                             105   -2.07 0  395 288 
 APAC HZ I         6 5 28.07         5.3 0.40            101            395 288 
 PAL  HZ EP        6 4 42.88                             105   -0.14 6  402 239 
 PAL  HN ES   4    6 5 26.62                             105    1.13 0  402 239 
 PAL  HZ I         6 5 30.90         3.3 0.33            101            402 239 
 SJC  HZ EP   4    6 4 41.28                             104   -2.41 0  408 327 
 SJC  HN ES   4    6 5 21.36                             104   -5.33 0  408 327 
 SJC  HZ I         6 5 27.21         3.2 0.34            101            408 327 
 GUA  EN ES   4    6 5 38.36                             102   -2.20 0  474 173 
 SMAR HZ EP   4    6 4 52.66                             101   -1.56 0  497 347 
 SMAR HN ES   4    6 5 37.78                             101   -7.64 0  497 347 
 CAP2 HZ EP   4    6 4 53.69                             101   -1.44 0  504 294 
 CAP2 HN ES   4    6 5 40.48                             101   -6.57 0  504 294 
 CAP2 HZ I         6 5 44.98         1.5 0.23             98            504 294 
 URI  HZ EP   4    6 4 57.71                              99   -3.90 0  558  13 
 URI  HN ES   4    6 5 54.83                              99   -3.74 0  558  13 
 URI  HZ I         6 5 58.23         0.7 0.08             97            558  13 
                                                                                
