 2015  113 0347 23.4 L   6.815 -73.159144.9  RSN  8 0.5 1.6LRSN                1
 GAP=134        1.28       4.7     5.4  7.6  0.4469E+00  0.9241E+01  0.5945E+01E
 Epicentro: LOS SANTOS - SANTANDER                                             3
 ACTION:UPD 15-03-02 15:39 OP:nd   STATUS:               ID:20150113034723 L   I
 OLDACT:DUP 15-01-13 14:43 OP:carl STATUS:               ID:20150113033749d    3
 2015-01-13-0337-48M.COL___256                                                 6
 STAT SP IPHASW D HRMM SECON CODA AMPLIT PERI AZIMU VELO AIN AR TRES W  DIS CAZ7
 BAR2 EZ EP        347 42.49                             170   -0.4710 24.7 186 
 BAR2 EZ ES        347 58.26                             170    0.0410 24.7 186 
 BAR2 EZ I         347 59.56         9.1 0.58            168           24.7 186 
 BRR  HZ EP        347 44.40                             153    0.0510 69.2 298 
 BRR  HE ES        348  1.54                             153    0.8510 69.2 298 
 BRR  HZ I         348  5.49         8.7 0.32            152           69.2 298 
 PAM  SZ EP        347 45.54                             151    0.0310 77.1  41 
 PAM  SN ES        348  2.58                             151   -0.1810 77.1  41 
 PAM  SZ I         348  4.42         6.0 0.28            156           77.1  41 
 RUS  HZ EP        347 47.09                             143   -0.1110  102 175 
 RUS  HN ES        348  5.69                             143   -0.0710  102 175 
 RUS  HZ I         348  7.67         3.7 0.38            144            102 175 
 PTB  HZ EP        347 49.34                             132   -0.87 9  147 258 
 PTB  HN ES        348 10.01                             132   -1.10 9  147 258 
 PTB  HZ I         348 13.15         8.4 0.30            132            147 258 
 SPBC HZ EP        347 52.03                             129    0.16 9  164 218 
 SPBC HN ES        348 14.62                             129    0.54 9  164 218 
 SPBC HZ I         348 19.35         5.8 0.10            129            164 218 
 ZAR  HZ EP        347 56.39                             122    0.80 9  202 292 
 ZAR  HN ES        348 20.71                             122    0.01 9  202 292 
 ZAR  HZ I         348 29.12         5.7 0.24            123            202 292 
 CHI  HZ EP        348  1.61                             117    0.42 8  250 195 
 CHI  HN ES        348 30.90                             117    0.24 8  250 195 
 CHI  HZ I         348 38.51         1.5 0.28            118            250 195 
                                                                                
