 2014 1113 0246 30.6 L   6.791 -73.178136.8  RSN  6 0.4 1.4LRSN                1
 GAP=133        0.93       4.2     4.4  6.4 -0.4467E+01  0.4231E+01  0.3194E+01E
 Epicentro: LOS SANTOS - SANTANDER                                             3
 ACTION:UPD 14-12-19 15:42 OP:nd   STATUS:               ID:20141113024630 L   I
 OLDACT:ARG 14-11-13 12:06 OP:stll STATUS:               ID:20141113023745     3
 2014-11-13-0237-45M.COL___286                                                 6
 STAT SP IPHASW D HRMM SECON CODA AMPLIT PERI AZIMU VELO AIN AR TRES W  DIS CAZ7
 BAR2 SZ EP        246 48.96                             170   -0.1310 22.0 181 
 BAR2 SZ ES        247  3.12                             170   -0.4310 22.0 181 
 BAR2 SZ I         247  6.68         5.6 0.28            170           22.0 181 
 BRR  HZ EP        246 51.24                             152    0.6410 68.5 301 
 BRR  HN ES        247  6.66                             152    0.4410 68.5 301 
 PAM  SZ EP        246 51.91                             148   -0.1210 80.4  41 
 PAM  SZ I         246 52.06         5.5 0.22            152           80.4  41 
 PAM  SN ES        247  8.70                             148   -0.0710 80.4  41 
 RUS  HZ EP        246 53.41                             142    0.0110 99.9 174 
 RUS  HZ I         246 53.72         1.9 0.42            144           99.9 174 
 RUS  HN ES        247 11.40                             142    0.1910 99.9 174 
 PTB  HZ EP        246 56.15                             131   -0.32 9  144 259 
 PTB  HN ES        247 16.10                             131   -0.58 9  144 259 
 PTB  HZ I         247 24.58         3.6 0.42            130            144 259 
 SPBC HZ EP        246 57.99                             127   -0.11 9  160 218 
 SPBC HZ I         246 58.49         5.4 0.10            128            160 218 
 SPBC HN ES        247 20.02                             127    0.44 9  160 218 
                                                                                
