 2014 1013 0147  9.9 L   6.799 -73.158144.4  RSN 11 0.4 2.4LRSN                1
 GAP=135        1.03       3.1     4.4  6.9 -0.1261E+01  0.5435E+01 -0.4477E+00E
 Epicentro: LOS SANTOS - SANTANDER                                             3
 ACTION:UPD 14-11-29 23:49 OP:nd   STATUS:               ID:20141013014709 L   I
 OLDACT:UP  14-10-13 14:34 OP:mh   STATUS:               ID:20141013013745     3
 OLDACT:UP  14-10-13 14:29 OP:mh   STATUS:               ID:20141013013745     3
 OLDACT:REG 14-10-13 12:42 OP:mh   STATUS:               ID:20141013013745     3
 2014-10-13-0137-45M.COL___283                                                 6
 STAT SP IPHASW D HRMM SECON CODA AMPLIT PERI AZIMU VELO AIN AR TRES W  DIS CAZ7
 BRR  HZ IP     C  147 31.29                             153    0.5010 70.1 299 
 BRR  HN ES        147 47.82                             153    0.7010 70.1 299 
 PAM  SZ IP     D  147 32.28                             150    0.3010 78.3  40 
 PAM  SN ES        147 49.17                             150   -0.0610 78.3  40 
 PAM  SZ I         147 51.44        81.6 0.58            152           78.3  40 
 RUS  HZ EP        147 33.40                             144   -0.0710  101 175 
 RUS  HN ES        147 51.73                             144   -0.1610  101 175 
 RUS  HZ I         147 53.10        22.0 0.44            146            101 175 
 PTB  HZ EP   1    147 36.30                             132   -0.29 7  146 259 
 PTB  HN ES        147 56.48                             132   -0.96 9  146 259 
 PTB  HZ I         147 59.51        40.0 0.24            133            146 259 
 OCA  HZ EP   1    147 37.74                             129   -0.31 7  160 354 
 OCA  HN ES        147 59.59                             129   -0.45 9  160 354 
 OCA  HZ I         148  2.44        48.8 0.38            130            160 354 
 SPBC HZ EP        147 38.41                             129    0.25 9  162 219 
 SPBC HN ES        147 59.96                             129   -0.28 9  162 219 
 SPBC HZ I         148  4.01        18.5 0.18            130            162 219 
 ZAR  HZ EP   1    147 42.39                             122    0.31 6  203 292 
 ZAR  HN ES        148  7.84                             122    0.61 9  203 292 
 ZAR  HZ I         148 13.30        31.7 0.34            123            203 292 
 SML  HZ EP   1    147 45.74                             117   -0.61 6  243 336 
 SML  HN ES        148 14.59                             117   -0.23 8  243 336 
 SML  HZ I         148 20.76        34.8 0.10            118            243 336 
 GUY2CHZ EP   1    147 53.46                             112    0.19 5  300 235 
 GUY2CHN ES   4    148 29.09                             112    1.96 0  300 235 
 GUY2CHZ I         148 34.55        11.8 0.24                           300 235 
 MON  HZ EP   4 D  147 57.30                             108   -1.39 0  353 309 
 MON  HN ES   4    148 35.59                             108   -1.19 0  353 309 
 MON  HZ I         148 36.23         6.6 0.18            109            353 309 
 ORTC HZ EP   2    148  4.04                             106    0.42 3  395 216 
 ORTC HN ES   4    148 46.64                             106    1.07 0  395 216 
                                                                                
