 2016 1013 0713 56.8 L   6.874 -73.177137.3  RSN  4 0.2 0.8LRSN                1
 GAP=244        0.57       5.5     4.8  8.2  0.1833E+02 -0.1236E+02 -0.2155E+02E
 Epicentro: ZAPATOCA - SANTANDER                                               3
 ACTION:UPD 16-11-09 19:19 OP:rebc STATUS:               ID:20161013071356 L   I
 OLDACT:DUP 16-10-13 16:40 OP:lv   STATUS:               ID:20161013070642d    3
 2016-10-13-0707-00M.COL___354                                                 6
 STAT SP IPHASW D HRMM SECON CODA AMPLIT PERI AZIMU VELO AIN AR TRES W  DIS CAZ7
 RUS  HZ EP        714 20.17                             140   -0.2110  109 175 
 RUS  HN ES        714 38.89                             140    0.1210  109 175 
 RUS  HZ I         714 39.67         0.5 0.24            135            109 175 
 PTB  HZ EP        714 23.16                             130    0.22 9  146 255 
 PTB  HE ES        714 42.96                             130   -0.37 9  146 255 
 PTB  HZ I         714 48.63         0.8 0.17            126            146 255 
 SPBC HZ EP        714 25.01                             126   -0.08 9  168 216 
 SPBC HN ES        714 47.34                             126    0.19 9  168 216 
 SPBC HZ I         714 52.64         1.5 0.09            122            168 216 
 ZAR  HE ES        714 52.61                             121    0.17 9  198 290 
                                                                                
