 2015  513 0043 54.7 L   6.769 -73.137146.3  RSN  6 0.4 1.7LRSN                1
 GAP=201        0.91       4.2     6.4  6.9  0.9566E+01  0.1778E+02  0.1611E+00E
 Epicentro: LOS SANTOS - SANTANDER                                             3
 ACTION:UPD 15-09-10 22:03 OP:cam  STATUS:               ID:20150513004354 L   I
 OLDACT:UP  15-05-13 13:24 OP:mh   STATUS:               ID:20150513003750     3
 OLDACT:REG 15-05-13 12:59 OP:mh   STATUS:               ID:20150513003750     3
 2015-05-13-0037-50M.COL___279                                                 6
 STAT SP IPHASW D HRMM SECON CODA AMPLIT PERI AZIMU VELO AIN AR TRES W  DIS CAZ7
 BAR2 EZ EP   1    044 14.06                             172   -0.29 7 20.2 194 
 BAR2 EZ ES        044 29.23                             172   -0.4310 20.2 194 
 BAR2 EZ I         044 31.41        15.0 0.13            166           20.2 194 
 BRR  HZ EP   1    044 16.44                             152    0.38 7 73.7 300 
 BRR  HN ES        044 33.48                             152    0.7710 73.7 300 
 BRR  HZ I         044 38.10         8.6 0.18            148           73.7 300 
 RUS  HZ EP   1    044 18.39                             145    0.12 7 97.1 176 
 RUS  HN ES        044 36.62                             145   -0.0310 97.1 176 
 RUS  HZ I         044 37.73         5.8 0.32            146           97.1 176 
 ZAR  HZ EP        044 27.71                             122    0.29 8  206 293 
 ZAR  HE ES        044 52.48                             122   -0.45 8  206 293 
 ZAR  HZ I         044 59.20         5.1 0.36            122            206 293 
 NOR  HZ EP        044 30.45                             119    0.10 8  234 235 
 NOR  HN ES        044 57.92                             119   -0.22 8  234 235 
 NOR  HZ I         045  4.75         3.4 0.16            119            234 235 
 SML  HN ES        045  0.26                             117   -0.37 8  247 335 
 SML  HZ I         045  1.63         5.9 0.26            119            247 335 
                                                                                
