 2011  613 0853 49.0 L   6.803 -73.077144.0  RSN  4 0.2 1.3LRSN                1
 GAP=192        0.45       6.8     7.5  9.9 -0.3241E+02 -0.4108E+02  0.4189E+02E
 Epicentro: LOS SANTOS - SANTANDER                                             3
 ACTION:UP  11-07-14 19:04 OP:ep   STATUS:               ID:20110613085349 L   I
 2011-06-13-0852-38S.COL___132                                                 6
 STAT SP IPHASW D HRMM SECON CODA AMPLIT PERI AZIMU VELO SNR AR TRES W  DIS CAZ7
 BTL  SZ EP   1    854  8.59                             170     0.2 7   25 301 
 BAR2 SZ EP   1    854  8.37                             169    -0.1 7   26 207 
 BAR2 SZ I         854 24.49         4.5 0.23                            26 207 
 BRR  HZ EP        854 10.15                             151    -0.210   78 296 
 BRR  HN ES   1    854 27.08                             151     0.1 7   78 296 
 BRR  HZ I         854 30.16         4.5 0.20                            78 296 
 GRA  SZ EP   2    854 14.10                             138     0.3 5  123  14 
 GRA  SZ ES   1    854 33.17                             138    -0.1 7  123  14 
 GRA  SZ I         854 34.27         2.4 0.23                           123  14 
                                                                                
