 2016  613 0534 41.9 L   6.791 -73.135149.8  RSN  8 0.3 1.8LRSN                1
 GAP=138        0.80       3.9     5.6  6.3 -0.6669E+01  0.5952E+00 -0.2893E+01E
 Epicentro: LOS SANTOS - SANTANDER                                             3
 ACTION:UPD 16-07-21 22:18 OP:rebc STATUS:               ID:20160613053441 L   I
 OLDACT:DUP 16-06-13 17:11 OP:dnl  STATUS:               ID:20160613052743d    3
 2016-06-13-0527-42M.COL___319                                                 6
 STAT SP IPHASW D HRMM SECON CODA AMPLIT PERI AZIMU VELO AIN AR TRES W  DIS CAZ7
 BAR2 EZ EP        535  2.02                             171    0.0110 22.6 193 
 BAR2 EZ ES        535 17.24                             171   -0.4510 22.6 193 
 BAR2 EZ I         535 18.61        14.7 0.24                          22.6 193 
 BRR  HZ EP        535  3.79                             153    0.2110 72.7 299 
 BRR  HE ES        535 20.99                             153    0.5110 72.7 299 
 BRR  HZ I         535 24.86         8.5 0.30                          72.7 299 
 PAM  EZ EP        535  4.90                             151    0.3410 77.5  38 
 PAM  EN ES   2    535 22.06                             151   -0.17 5 77.5  38 
 PAM  EZ I         535 25.10         6.1 0.40                          77.5  38 
 RUS  HZ EP   2    535  6.39                             145    0.41 5 99.5 177 
 RUS  HE ES   2    535 24.88                             145    0.12 5 99.5 177 
 RUS  HZ I         535 25.92         6.3 0.32                          99.5 177 
 OCA  HZ EP        535 10.22                             130   -0.42 9  161 353 
 OCA  HE ES        535 32.90                             130   -0.15 9  161 353 
 OCA  HZ I         535 35.63        10.8 0.16                           161 353 
 NOR  HN ES        535 45.63                             119   -0.36 8  235 235 
 NOR  HZ I         535 51.69         4.0 0.18                           235 235 
 ROSC BZ EP   4    535 22.57                             118    2.35 0  252 211 
 ROSC BN ES   4    535 53.44                             118    3.34 0  252 211 
 ROSC BZ I         535 56.71         7.3 0.45                           252 211 
 GUY2CHZ EP   4    535 27.24                             113    1.50 0  302 235 
 GUY2CHE ES   4    536  2.89                             113    2.95 0  302 235 
 GUY2CHZ I         536  8.25         3.1 0.34                           302 235 
                                                                                
