 2017  313 0703 58.5 L   6.801 -73.167148.4  RSN  6 0.5 1.3LRSN                1
 GAP=134        1.22       5.8     6.1  8.3 -0.9043E+01  0.6559E+01  0.5200E+01E
 Epicentro: LOS SANTOS - SANTANDER                                             3
 ACTION:UPD 17-05-25 18:39 OP:jn   STATUS:               ID:20170313070358 L   I
 OLDACT:REG 17-03-13 14:31 OP:cog  STATUS:               ID:20170313065742     3
 2017-03-13-0658-00M.COL___384                                                 6
 STAT SP IPHASW D HRMM SECON CODA AMPLIT PERI AZIMU VELO AIN AR TRES W  DIS CAZ7
 BAR2 EZ EP        7 4 17.40                             171   -1.0710 23.1 184 
 BAR2 EZ ES        7 4 33.85                             171   -0.1810 23.1 184 
 BRR  HZ EP        7 4 20.36                             154    0.5110 69.1 299 
 BRR  HN ES        7 4 36.82                             154    0.3510 69.1 299 
 BRR  HZ I         7 4 41.56         4.7 0.16            152           69.1 299 
 PAM  EZ EP        7 4 21.48                             151    0.3710 78.8  41 
 PAM  EE ES        7 4 38.56                             151   -0.1610 78.8  41 
 PAM  EZ I         7 4 41.62         3.6 0.42            153           78.8  41 
 RUS  HZ EP        7 4 22.26                             144   -0.3010  101 175 
 RUS  HN ES        7 4 41.89                             144    0.5810  101 175 
 RUS  HZ I         7 4 42.46         4.2 0.32            149            101 175 
 PTB  HZ EP        7 4 25.38                             133   -0.13 9  145 259 
 PTB  HN ES        7 4 46.21                             133   -0.34 9  145 259 
 PTB  HZ I         7 4 51.92         2.0 0.20            134            145 259 
 SPBC HZ EP        7 4 27.58                             130    0.48 9  162 218 
 SPBC HN ES        7 4 49.28                             130   -0.11 9  162 218 
 ROSC BZ EP   4    7 4 39.45                             117    2.78 0  252 211 
 ROSC BN ES   4    7 5  4.46                             117   -1.96 0  252 211 
                                                                                
