 2017  513 0700  1.0 L   6.805 -73.162142.0  RSN 10 0.5 1.6LRSN                1
 GAP=110        1.14       4.2     4.0  8.0  0.2050E+01  0.1005E+02  0.5541E+01E
 Epicentro: LOS SANTOS - SANTANDER                                             3
 ACTION:UPD 17-06-16 13:35 OP:jn   STATUS:               ID:20170513070001 L   I
 OLDACT:UP  17-05-13 15:39 OP:lv   STATUS:               ID:20170513065743     3
 OLDACT:REG 17-05-13 13:13 OP:osc  STATUS:               ID:20170513065743     3
 2017-05-13-0658-00M.COL___318                                                 6
 STAT SP IPHASW D HRMM SECON CODA AMPLIT PERI AZIMU VELO AIN AR TRES W  DIS CAZ7
 BRR  HZ EP        7 0 21.57                             153   -0.0310 69.3 299 
 BRR  HN ES        7 0 38.38                             153    0.6810 69.3 299 
 PAM  EZ IP        7 0 22.67                             150   -0.1610 78.1  41 
 PAM  EN ES        7 0 39.54                             150   -0.3410 78.1  41 
 PAM  EZ I         7 0 41.58         5.7 0.17            154           78.1  41 
 RUS  HZ EP        7 0 24.40                             143    0.0010  101 175 
 RUS  HE ES        7 0 42.76                             143    0.0810  101 175 
 RUS  HZ I         7 0 44.22                             144            101 175 
 PTB  HZ EP        7 0 26.86                             132   -0.61 9  146 258 
 PTB  HN ES        7 0 47.24                             132   -0.91 9  146 258 
 PTB  HZ I         7 0 54.86         5.2 0.17            132            146 258 
 SPBC HZ EP   1    7 0 29.46                             128    0.35 7  162 218 
 SPBC HN ES        7 0 50.73                             128   -0.33 9  162 218 
 YPLC HN ES        7 0 54.21                             126    0.45 9  178 151 
 YPLC HZ I         7 0 56.81         4.9 0.30            127            178 151 
 ZAR  HZ EP        7 0 33.09                             122    0.12 9  202 292 
 ZAR  HN ES        7 0 58.43                             122    0.50 9  202 292 
 ZAR  HZ I         7 1  4.18         4.1 0.24            123            202 292 
 ROSC BZ EP   4    7 0 40.84                             116    2.01 0  252 211 
 ROSC BN ES   4    7 1 12.32                             116    3.95 0  252 211 
 HEL  HZ EP   4    7 0 39.73                             114   -1.08 0  270 256 
 HEL  HN ES        7 1 12.82                             114    0.94 8  270 256 
 CBOC HZ EP   4    7 0 48.97                             109    1.42 0  332 252 
 CBOC HN ES        7 1 23.40                             109   -0.48 7  332 252 
 CBOC HZ I         7 1 27.77         1.1 0.13            110            332 252 
 ORTC HZ EP        7 0 54.91                             106    0.22 6  395 216 
 ORTC HN ES   4    7 1 38.40                             106    1.81 0  395 216 
 ORTC HZ I         7 1 43.29         1.2 0.10            107            395 216 
 SJC  HZ EP   4    7 0 54.45                             105   -1.78 0  408 327 
 SJC  HN ES   4    7 1 35.89                             105   -3.45 0  408 327 
                                                                                
