 2016 1013 0519  9.6 L   6.782 -73.081150.0  RSN  8 0.4 1.6LRSN                1
 GAP=146        1.13       4.6     5.4  7.0 -0.3087E+01  0.1317E+02  0.1761E+01E
 Epicentro: LOS SANTOS - SANTANDER                                             3
 ACTION:UPD 16-11-09 19:19 OP:rebc STATUS:               ID:20161013051909 L   I
 OLDACT:REG 16-10-13 12:46 OP:y    STATUS:               ID:20161013051745     3
 2016-10-13-0518-00M.COL___357                                                 6
 STAT SP IPHASW D HRMM SECON CODA AMPLIT PERI AZIMU VELO AIN AR TRES W  DIS CAZ7
 BAR2 EZ EP        519 29.83                             171    0.0610 23.8 208 
 BAR2 EZ ES        519 44.93                             171   -0.5510 23.8 208 
 BAR2 EZ I         519 47.59        12.8 0.34            166           23.8 208 
 PAM  EZ EP        519 32.53                             152    0.4010 74.7  34 
 PAM  EN ES        519 49.41                             152   -0.2810 74.7  34 
 PAM  EZ I         519 51.90         6.9 0.52            158           74.7  34 
 BRR  HZ EP        519 31.73                             151    0.0910 78.5 297 
 BRR  HN ES        519 49.03                             151    0.2110 78.5 297 
 BRR  HZ I         520  6.38         4.7 0.22            147           78.5 297 
 RUS  HZ EP        519 33.68                             145    0.0510 98.3 180 
 RUS  HE ES        519 52.75                             145    0.3910 98.3 180 
 RUS  HZ I         519 55.24         3.6 0.42            152           98.3 180 
 PTB  HZ EP        519 36.45                             132   -1.09 9  154 260 
 PTB  HN ES   4    519 57.64                             132   -1.68 0  154 260 
 PTB  HZ I         520  4.98         8.7 0.36            133            154 260 
 SPBC HZ EP        519 38.71                             129   -0.03 9  166 221 
 SPBC HN ES        520  1.94                             129    0.49 9  166 221 
 SPBC HZ I         520  7.28         6.0 0.18            133            166 221 
 ZAR  HZ EP        519 43.86                             122    0.75 8  211 292 
 ZAR  HN ES        520  9.39                             122    0.17 8  211 292 
 ZAR  HZ I         520 15.81         3.6 0.26            124            211 292 
 NOR  HZ EP        519 45.57                             119   -0.54 8  239 236 
 NOR  HN ES        520 14.38                             119   -0.18 8  239 236 
 NOR  HZ I         520 19.64         3.1 0.16            123            239 236 
                                                                                
