 2010  513 0548  2.9 L   6.106 -73.671109.4  RSN  9 0.4 1.4LRSN                1
 GAP= 97        0.79       4.3     5.7  7.9 -0.1210E+02  0.2769E+02 -0.1135E+02E
 Epicentro: CHIPATA - SANTANDER                                                3
 ACTION:UP  10-08-24 10:04 OP:vdl  STATUS:               ID:20100513054802 L   I
 2010-05-13-0545-25S.COL___104                                                 6
 STAT SP IPHASW D HRMM SECON CODA AMPLIT PERI AZIMU VELO AIN AR TRES W  DIS CAZ7
 RUS  HZ EP        548 21.02                             146     0.210   69 110 
 RUS  HN ES   1    548 34.62                             146    -0.2 7   69 110 
 RUS  HZ I         548 38.46         3.9 0.37                            69 110 
 BAR2 SZ IP        548 21.12                             143     0.210   76  45 
 BAR2 SZ ES   1    548 34.94                             143    -0.1 7   76  45 
 BRR  HZ IP     D  548 23.62                             131     0.110  111 358 
 BRR  HE ES   2    548 39.61                             131     0.0 5  111 358 
 BRI  SZ EP        548 33.89                             113     0.6 9  203  28 
 HEL  HZ EP   1    548 34.45                             113     0.5 6  206 273 
 HEL  HZ I         548 59.85         1.7 0.38                           206 273 
 GUE  SZ EP        548 33.62                             113    -0.4 8  208  23 
 GUE  SZ ES   2    548 57.41                             113    -1.0 4  208  23 
 GRA  SZ EP        548 34.76                             111    -0.3 8  219  26 
 RREF BZ EP        548 36.53                             111    -0.3 8  229 234 
 RREF BN ES   2    549  2.92                             111    -0.4 4  229 234 
 RREF BZ I         549  8.73         3.1 0.29                           229 234 
 PRA  HZ EP   2    548 43.93                             104    -0.1 4  297 207 
 PRA  HE ES   3    549 15.24                             104    -0.9 2  297 207 
 PRA  HZ I         549 21.13         1.6 0.21                           297 207 
                                                                                
