 2015  513 0518 36.4 L   6.814 -73.106146.6  RSN  6 0.4 1.7LRSN                1
 GAP=161        0.96       5.4     5.8  7.8  0.1215E+01  0.1502E+02 -0.8177E+01E
 Epicentro: LOS SANTOS - SANTANDER                                             3
 ACTION:UPD 15-09-10 22:03 OP:cam  STATUS:               ID:20150513051836 L   I
 OLDACT:UP  15-05-13 18:35 OP:mh   STATUS:               ID:20150513051743     3
 OLDACT:REG 15-05-13 13:16 OP:mh   STATUS:               ID:20150513051743     3
 2015-05-13-0517-43M.COL___273                                                 6
 STAT SP IPHASW D HRMM SECON CODA AMPLIT PERI AZIMU VELO AIN AR TRES W  DIS CAZ7
 BAR2 EZ EP        518 55.98                             169   -0.2110 25.9 199 
 BAR2 EZ ES   1    519 11.31                             169   -0.30 7 25.9 199 
 BAR2 EZ I         519 12.33         6.5 0.32            169           25.9 199 
 PAM  SZ EP   1    518 58.90                             152    0.42 7 73.5  38 
 PAM  SN ES        519 16.12                             152    0.4210 73.5  38 
 PAM  SZ I         519 18.19        10.7 0.58            155           73.5  38 
 BRR  HZ EP        518 57.94                             152    0.1210 74.4 296 
 BRR  HN ES   1    519 14.53                             152    0.00 7 74.4 296 
 BRR  HZ I         519 20.27         5.2 0.16            148           74.4 296 
 OCA  HZ EP   1    519  4.64                             130   -0.05 7  159 352 
 OCA  HN ES        519 25.87                             130   -0.88 9  159 352 
 OCA  HZ I         519 32.85         8.9 0.30            132            159 352 
 ZAR  HZ EP   1    519  9.41                             122    0.15 6  208 291 
 ZAR  HN ES        519 35.06                             122    0.17 8  208 291 
 ZAR  HZ I         519 44.35         3.6 0.46            123            208 291 
 SML  HZ EP        519 12.71                             118   -0.42 8  244 334 
 SML  HN ES        519 42.47                             118    0.70 8  244 334 
 SML  HZ I         519 43.64         6.4 0.32            119            244 334 
                                                                                
