 2012 1213 0316 37.4 L   7.413 -73.201130.7  RSN  4 0.1 1.5LRSN                1
 GAP=185        0.35       3.1     2.1  4.2  0.5281E+00  0.5318E+01  0.5820E+00E
 Epicentro: EL PLAYON - SANTANDER                                              3
 ACTION:UPD 13-01-04 14:27 OP:ep   STATUS:               ID:20121213031637 L   I
 2012-12-13-0310-00M.COL___242                                                 6
 STAT SP IPHASW D HRMM SECON CODA AMPLIT PERI AZIMU VELO AIN AR TRES W  DIS CAZ7
 PAM  SN ES        317 11.96                             156    0.0510 55.9  98 
 PAM  SN I         317 13.73         8.6 0.32                          55.9  98 
 BAR2 SZ EP        316 58.63                             143    0.0410 90.7 179 
 BAR2 SZ ES        317 15.03                             143   -0.1010 90.7 179 
 BAR2 SZ I         317 16.09         5.8 0.14                          90.7 179 
 PTB  HZ EP        317  5.22                             124   -0.05 9  169 235 
 PTB  HN ES        317 27.15                             124    0.14 9  169 235 
 PTB  HN I         317 28.15         2.8 0.30                           169 235 
 ZAR  HN ES        317 29.49                             122   -0.07 9  183 273 
 ZAR  HN I         317 32.64         4.3 0.22                           183 273 
                                                                                
