 2014  613 0905 27.3 L   6.820 -73.139141.5  RSN 10 0.4 1.9LRSN                1
 GAP=184        0.82       2.5     4.0  6.0 -0.8553E+00  0.4670E+01 -0.2779E+01E
 Epicentro: LOS SANTOS - SANTANDER                                             3
 ACTION:UPD 14-07-01 22:53 OP:nd   STATUS:               ID:20140613090527 L   I
 OLDACT:UP  14-06-13 19:32 OP:mh   STATUS:               ID:20140613085811     3
 OLDACT:REG 14-06-13 14:38 OP:mh   STATUS:               ID:20140613085811     3
 2014-06-13-0858-11M.COL___256                                                 6
 STAT SP IPHASW D HRMM SECON CODA AMPLIT PERI AZIMU VELO AIN AR TRES W  DIS CAZ7
 BAR2 SZ EP        9 5 46.78                             169    0.3310 25.6 191 
 BAR2 SZ ES   1    9 6  1.80                             169    0.40 7 25.6 191 
 BAR2 SZ I         9 6  4.37         8.2 0.32            168           25.6 191 
 RUS  HZ EP        9 5 50.55                             142   -0.2310  103 177 
 RUS  HN ES   1    9 6  8.78                             142   -0.32 7  103 177 
 RUS  HZ I         9 6 10.68         7.3 0.28            147            103 177 
 PTB  HZ EP   1    9 5 53.39                             131   -0.63 7  149 258 
 PTB  HN ES        9 6 14.63                             131   -0.24 9  149 258 
 PTB  HZ I         9 6 20.76         6.2 0.16            131            149 258 
 OCA  HZ EP        9 5 55.60                             129    0.53 9  158 353 
 OCA  HN ES        9 6 16.87                             129    0.12 9  158 353 
 OCA  HZ I         9 6 22.75        12.5 0.27            132            158 353 
 SPBC HZ EP        9 5 55.74                             128    0.07 9  165 219 
 SPBC HN ES        9 6 17.44                             128   -0.37 9  165 219 
 SPBC HZ I         9 6 21.92        15.7 0.07            130            165 219 
 ZAR  HZ EP        9 5 59.24                             121   -0.21 9  204 291 
 ZAR  HN ES        9 6 24.68                             121    0.15 9  204 291 
 ZAR  HZ I         9 6 31.86        11.5 0.40            123            204 291 
 SML  HZ EP        9 6  3.08                             117   -0.42 8  242 335 
 SML  HN ES        9 6 31.37                             117   -0.37 8  242 335 
 SML  HZ I         9 6 36.59        13.6 0.08            119            242 335 
 ROSC BZ EP   4    9 6  7.48                             115    2.06 0  255 211 
 ROSC BN ES   4    9 6 35.61                             115    0.44 0  255 211 
 HEL  HZ EP        9 6  7.63                             114    0.20 8  273 255 
 HEL  HN ES   1    9 6 38.98                             114    0.25 6  273 255 
 HEL  HZ I         9 6 47.15         4.3 0.22            116            273 255 
 GUY2CHZ EP   4    9 6 10.82                             111   -0.09 0  303 235 
 GUY2CHN ES   4    9 6 43.78                             111   -1.16 0  303 235 
 RREF HZ EP   4    9 6 15.23                             110    1.76 0  324 229 
 RREF HN ES   4    9 6 51.40                             110    1.90 0  324 229 
 TOL  SZ EP   1    9 6 16.12                             108    0.51 5  346 224 
 TOL  SN ES   1    9 6 54.46                             108    1.15 5  346 224 
 TOL  SZ I         9 7  0.29         6.6 0.13            111            346 224 
 SJC  HZ EP   4    9 6 20.81                             105   -1.74 0  408 327 
 SJC  HN ES   4    9 7  2.17                             105   -3.48 0  408 327 
 SJC  HZ I         9 7  7.65         1.4 0.25            107            408 327 
                                                                                
