 2016  213 0559 33.1 L   6.817 -73.149140.0  RSN 22 0.5 2.5LRSN                1
 GAP= 70        1.06       2.7     3.0  5.4 -0.1405E+01  0.5316E+01  0.2118E+01E
 Epicentro: LOS SANTOS - SANTANDER                                             3
 ACTION:UPD 16-03-04 21:25 OP:rebc STATUS:               ID:20160213055933 L   I
 OLDACT:REG 16-02-13 12:56 OP:ak   STATUS:               ID:20160213055751     3
 2016-02-13-0557-51M.COL___307                                                 6
 STAT SP IPHASW D HRMM SECON CODA AMPLIT PERI AZIMU VELO AIN AR TRES W  DIS CAZ7
 BAR2 EZ IP     D  559 52.11                             169    0.0110 25.1 188 
 BAR2 EZ ES        6 0  6.93                             169    0.0310 25.1 188 
 BAR2 EZ I         6 0  8.33        91.9 0.30            170           25.1 188 
 PAM  EZ EP        559 54.92                             150    0.2610 76.2  41 
 PAM  EN ES        6 0 11.90                             150    0.4510 76.2  41 
 PAM  EZ I         6 0 14.30       111.4 0.52            153           76.2  41 
 RUS  HZ EP     D  559 56.08                             142   -0.3710  102 176 
 RUS  HN ES        6 0 14.64                             142   -0.0110  102 176 
 RUS  HZ I         6 0 15.87        21.3 0.30            146            102 176 
 PTB  HZ EP        559 58.83                             131   -0.79 9  148 258 
 PTB  HN ES        6 0 19.71                             131   -0.58 9  148 258 
 PTB  HZ I         6 0 27.12        32.3 0.44            131            148 258 
 TAM  HZ EP        6 0  0.17                             129   -0.26 9  156 106 
 TAM  HE ES        6 0 22.36                             129    0.63 9  156 106 
 OCA  HZ EP        6 0  0.19                             129   -0.62 9  158 353 
 OCA  HN ES        6 0 22.17                             129   -0.23 9  158 353 
 OCA  HZ I         6 0 31.82        53.9 0.52            130            158 353 
 SPBC HZ EP        6 0  1.06                             127   -0.24 9  164 218 
 SPBC HN ES        6 0 23.19                             127   -0.09 9  164 218 
 SPBC HZ I         6 0 27.92        30.7 0.42            129            164 218 
 ZAR  HZ EP        6 0  5.16                             121    0.07 9  203 292 
 ZAR  HN ES        6 0 30.36                             121    0.34 9  203 292 
 ZAR  HZ I         6 0 36.19        40.1 0.30            122            203 292 
 NOR  HZ EP        6 0  8.50                             117   -0.11 8  235 234 
 NOR  HN ES        6 0 36.78                             117    0.50 8  235 234 
 NOR  HZ I         6 0 42.00        14.3 0.24            118            235 234 
 CHI  HZ EP        6 0  9.82                             116   -0.87 8  250 195 
 CHI  HN ES        6 0 39.45                             116   -0.55 8  250 195 
 CHI  HZ I         6 0 43.19        22.2 0.44            118            250 195 
 ROSC BZ EP        6 0 11.64                             115    0.55 8  254 211 
 ROSC BN ES        6 0 40.53                             115   -0.17 8  254 211 
 ROSC BZ I         6 0 45.92        36.3 0.40            117            254 211 
 HEL  HZ EP        6 0 13.89                             114    0.83 8  272 255 
 HEL  HE ES        6 0 44.07                             114   -0.13 8  272 255 
 HEL  HZ I         6 0 50.46         7.5 0.24            115            272 255 
 URE  HZ EP   4    6 0 16.59                             112    2.79 0  283 292 
 URE  HE ES   4    6 0 44.15                             112   -1.37 0  283 292 
 URE  HZ I         6 0 55.10        18.6 0.38            113            283 292 
 SOCV BZ EP   4    6 0 13.88                             111   -1.95 0  301  57 
 SOCV BN ES   4    6 0 45.88                             111   -3.27 0  301  57 
 GUY2CHZ EP        6 0 17.29                             111    0.73 7  302 234 
 GUY2CHN ES   4    6 0 54.07                             111    3.64 0  302 234 
 GUY2CHZ I         6 0 56.15         8.3 0.38                           302 234 
 VIL  SZ EP   4    6 0 17.83                             111    1.35 0  305 191 
 VIL  SN ES        6 0 49.71                             111   -0.59 7  305 191 
 PTGC HZ EP   4    6 0 15.38                             110   -1.56 0  311 159 
 PTGC HN ES   4    6 0 48.49                             110   -2.63 0  311 159 
 PTGC HZ I         6 0 53.76        21.0 0.46            113            311 159 
 ELA  HZ EP   4    6 0 22.98                             109    3.14 0  330 229 
 ELA  HN ES        6 0 57.04                             109    0.76 7  330 229 
 ELA  HZ I         6 1  4.54         9.8 0.54            111            330 229 
 CBOC HZ EP        6 0 20.03                             109    0.20 7  334 252 
 CBOC HN ES   4    6 0 55.31                             109   -0.94 0  334 252 
 ANIL HZ EP   2    6 0 23.20                             107    0.37 3  358 224 
 ANIL HN ES        6 1  2.57                             107    0.96 6  358 224 
 ORTC HZ EP        6 0 27.13                             105    0.13 6  397 216 
 ORTC HN ES        6 1  9.67                             105    0.65 6  397 216 
 ORTC HZ I         6 1 13.30         8.2 0.58            107            397 216 
 SJC  HZ EP   4    6 0 26.32                             105   -1.97 0  407 327 
 SJC  HN ES   4    6 1  7.59                             105   -3.73 0  407 327 
 SJC  HZ I         6 1 11.98         5.3 0.28            106            407 327 
 CRJC HZ EP   9    6 0 32.35                             102   -2.90 0  466   4 
 CRJC HN ES        6 1 20.81                                    0.00 5  466   4 
 CRJC HZ I         6 1 27.20         8.9 0.20            104            466   4 
                                                                                
