 2016  213 0447 45.0 L   6.833 -73.196147.3  RSN  6 0.3 1.4LRSN                1
 GAP=129        0.67       2.7     3.7  5.1 -0.3422E+01  0.5281E+01 -0.8128E+00E
 Epicentro: ZAPATOCA - SANTANDER                                               3
 ACTION:UPD 16-03-04 21:25 OP:rebc STATUS:               ID:20160213044745 L   I
 OLDACT:REG 16-02-13 12:50 OP:ak   STATUS:               ID:20160213043748     3
 2016-02-13-0437-48M.COL___310                                                 6
 STAT SP IPHASW D HRMM SECON CODA AMPLIT PERI AZIMU VELO AIN AR TRES W  DIS CAZ7
 BAR2 EZ EP        448  4.85                             169   -0.0310 26.7 177 
 BAR2 EZ ES        448 20.86                             169    0.4710 26.7 177 
 BAR2 EZ I         448 22.65         2.8 0.36            171           26.7 177 
 PAM  EZ EP        448  7.65                             151    0.2310 78.3  44 
 PAM  EN ES        448 24.49                             151   -0.4410 78.3  44 
 PAM  EZ I         448 27.21         4.1 0.66            154           78.3  44 
 RUS  HZ EP        448  9.13                             143   -0.0610  105 173 
 RUS  HN ES        448 28.03                             143   -0.0510  105 173 
 RUS  HZ I         448 28.12         1.9 0.28            149            105 173 
 PTB  HZ EP        448 11.45                             133   -0.22 9  143 257 
 PTB  HN ES        448 32.53                             133    0.05 9  143 257 
 PTB  HZ I         448 39.53         2.4 0.36            133            143 257 
 OCA  HZ EP   2    448 13.52                             131    0.50 5  156 355 
 OCA  HE ES        448 34.87                             131   -0.02 9  156 355 
 OCA  HZ I         448 40.50         5.8 0.28            132            156 355 
 SPBC HZ EP        448 13.79                             129    0.23 9  163 217 
 SPBC HN ES        448 35.53                             129   -0.32 9  163 217 
 SPBC HZ I         448 38.56         4.4 0.36            132            163 217 
                                                                                
