 2016  913 0415 18.5 L   6.806 -73.155146.1  RSN  9 0.3 1.5LRSN                1
 GAP=135        0.82       2.9     3.5  5.5 -0.8666E+00  0.3823E+01  0.1144E+01E
 Epicentro: LOS SANTOS - SANTANDER                                             3
 ACTION:UPD 17-08-17 21:09 OP:lp   STATUS:               ID:20160913041518 L   I
 OLDACT:DUP 16-09-13 20:11 OP:lv   STATUS:               ID:20160913040739d    3
 2016-09-13-0408-00M.COL___318                                                 6
 STAT SP IPHASW D HRMM SECON CODA AMPLIT PERI AZIMU VELO AIN AR TRES W  DIS CAZ7
 BAR2 EZ IP     C  415 38.04                             170   -0.1610 23.8 187 
 BAR2 EZ ES        415 53.58                             170    0.0210 23.8 187 
 BAR2 EZ I         415 55.92         6.8 0.27            172           23.8 187 
 BRR  HZ EP        415 39.91                             153    0.2710 70.0 298 
 BRR  HE ES        415 56.09                             153   -0.0310 70.0 298 
 BRR  HZ I         416  1.42         4.4 0.12            151           70.0 298 
 PAM  EZ EP        415 40.78                             151   -0.0110 77.6  40 
 PAM  EN ES        415 58.22                             151    0.0710 77.6  40 
 PAM  EZ I         416  0.19         5.4 0.47            154           77.6  40 
 RUS  HZ EP        415 42.56                             144    0.2010  101 176 
 RUS  HE ES        416  1.04                             144    0.0910  101 176 
 RUS  HZ I         416  2.07         3.7 0.35            148            101 176 
 PTB  HZ EP        415 44.84                             132   -0.60 9  147 259 
 PTB  HN ES        416  5.93                             132   -0.50 9  147 259 
 PTB  HZ I         416 12.07         2.1 0.17            133            147 259 
 OCA  HE ES        416  8.56                             130   -0.28 9  160 353 
 OCA  HZ I         416 12.71         9.9 0.25            132            160 353 
 SPBC HZ EP        415 47.15                             129    0.12 9  163 219 
 SPBC HE ES        416  9.34                             129    0.07 9  163 219 
 SPBC HZ I         416 10.51         6.9 0.26            132            163 219 
 ZAR  HE ES        416 16.90                             123    0.80 9  203 292 
 ZAR  HZ I         416 20.86         3.6 0.10            124            203 292 
 GUY2CHZ EP   4    416  4.50                             112    2.41 0  301 235 
 GUY2CHN ES   4    416 38.90                             112    2.82 0  301 235 
 GUY2CHZ I         416 49.07         1.6 0.42                           301 235 
                                                                                
