 2016  413 0117 40.2 L   6.797 -73.125141.0  RSN 13 0.5 2.3LRSN                1
 GAP=121        1.01       3.9     3.8  5.8 -0.3355E+01  0.5174E+01 -0.4162E+01E
 Epicentro: LOS SANTOS - SANTANDER                                             3
 ACTION:UPD 16-05-05 14:20 OP:rebc STATUS:               ID:20160413011740 L   I
 OLDACT:REG 16-04-13 19:31 OP:mh   STATUS:               ID:20160413011447     3
 2016-04-13-0114-47M.COL___312                                                 6
 STAT SP IPHASW D HRMM SECON CODA AMPLIT PERI AZIMU VELO AIN AR TRES W  DIS CAZ7
 BAR2 EZ EP        117 59.49                             170    0.2710 23.5 196 
 BAR2 EZ ES        118 13.68                             170   -0.4110 23.5 196 
 PAM  EZ EP     C  118  2.36                             150    0.5710 76.2  38 
 PAM  EN ES        118 19.14                             150    0.4710 76.2  38 
 PAM  EZ I         118 21.23        38.1 0.50            153           76.2  38 
 RUS  HZ EP        118  3.51                             143    0.1010  100 177 
 RUS  HN ES        118 21.70                             143    0.1610  100 177 
 RUS  HZ I         118 23.53        15.5 0.25            146            100 177 
 PTB  HZ EP        118  6.67                             130   -0.28 9  150 259 
 PTB  HN ES        118 27.10                             130   -0.74 9  150 259 
 PTB  HZ I         118 30.22        15.7 0.20            132            150 259 
 OCA  HZ EP        118  7.89                             128   -0.27 9  161 352 
 OCA  HN ES   1    118 29.29                             128   -0.71 7  161 352 
 OCA  HZ I         118 32.96        33.3 0.21            130            161 352 
 SPBC HZ EP        118  8.39                             128   -0.02 9  164 220 
 SPBC HN ES   2    118 29.81                             128   -0.64 5  164 220 
 SPBC HZ I         118 33.91        22.2 0.22            130            164 220 
 ZAR  HZ EP        118 12.54                             121    0.01 8  206 292 
 ZAR  HN ES        118 38.59                             121    0.80 8  206 292 
 ZAR  HZ I         118 44.52        15.4 0.06            122            206 292 
 HEL  HZ EP   1    118 20.98                             114    0.61 6  274 256 
 HEL  HN ES   1    118 51.64                             114   -0.10 6  274 256 
 URE  HZ EP   4    118 19.89                             112   -1.37 0  286 292 
 URE  HN ES   4    118 50.98                             112   -2.33 0  286 292 
 URE  HZ I         118 53.72        11.2 0.17            114            286 292 
 SOCV BZ EP        118 22.33                             111   -0.46 7  300  57 
 SOCV BN ES   4    118 53.64                             111   -2.40 0  300  57 
 GUY2CHZ EP   1    118 24.08                             111    0.34 5  303 235 
 GUY2CHE ES   4    118 58.36                             111    0.62 0  303 235 
 SDV  BZ EP   1    118 29.04                             107   -0.80 5  359  50 
 SDV  BN ES   4    119  6.18                             107   -2.41 0  359  50 
 SJC  HZ EP   4    118 33.14                             105   -2.61 0  411 327 
 SJC  HN ES   4    119 16.83                             105   -2.28 0  411 327 
 SJC  HZ I         119 19.08         7.4 0.56            106            411 327 
                                                                                
