 2016  313 0805 26.4 L   6.784 -73.157140.9  RSN  5 0.2 1.5LRSN                1
 GAP=140        0.59       2.8     3.4  4.3 -0.2600E+01  0.3385E+01  0.2081E+01E
 Epicentro: LOS SANTOS - SANTANDER                                             3
 ACTION:UPD 16-05-13 21:23 OP:cam  STATUS:               ID:20160313080526 L   I
 OLDACT:UP  16-03-13 19:25 OP:cara STATUS:               ID:20160313075747     3
 OLDACT:REG 16-03-13 14:22 OP:cara STATUS:               ID:20160313075747     3
 2016-03-13-0757-47M.COL___291                                                 6
 STAT SP IPHASW D HRMM SECON CODA AMPLIT PERI AZIMU VELO AIN AR TRES W  DIS CAZ7
 BAR2 EZ ES        8 6  0.61                             171    0.3410 21.4 188 
 BAR2 EZ I         8 6  1.99         4.5 0.26            168           21.4 188 
 PAM  EZ IP        8 5 48.38                             149    0.1110 79.6  39 
 PAM  EZ  AMP      8 5 48.41       391.5 0.14                          79.6  39 
 PAM  EN ES        8 6  5.04                             149   -0.2710 79.6  39 
 RUS  HZ EP        8 5 49.84                             143    0.2510 98.9 175 
 RUS  HE ES        8 6  7.44                             143   -0.2110 98.9 175 
 RUS  HZ I         8 6  9.49         1.5 0.24            142           98.9 175 
 PTB  HZ EP        8 5 52.66                             131   -0.21 9  146 259 
 PTB  HN ES        8 6 13.52                             131    0.03 9  146 259 
 PTB  HZ I         8 6 15.61         1.4 0.40            131            146 259 
 CHI  HZ EP        8 6  3.77                             116    0.12 8  247 195 
 CHI  HE ES        8 6 32.46                             116   -0.21 8  247 195 
 CHI  HZ I         8 6 39.08         0.8 0.40            116            247 195 
                                                                                
