 2016  813 0403  3.0 L   6.787 -73.143146.4  RSN  6 0.2 1.5LRSN                1
 GAP=237        0.48       3.7     3.7  3.5  0.7270E+01  0.1285E+01 -0.1450E+01E
 Epicentro: LOS SANTOS - SANTANDER                                             3
 ACTION:UPD 16-10-29 15:35 OP:rebc STATUS:               ID:20160813035701dL   I
 OLDACT:UP  16-08-13 16:21 OP:dani STATUS:               ID:20160813035760 L   3
 OLDACT:UP  16-08-13 16:20 OP:dani STATUS:               ID:20160813035760 L   3
 OLDACT:UPD 16-08-13 16:15 OP:dani STATUS:               ID:20160813035760 L   3
 2016-08-13-0357-59S.COL___346                                                 6
 STAT SP IPHASW D HRMM SECON CODA AMPLIT PERI AZIMU VELO AIN AR TRES W  DIS CAZ7
 BAR2 EZ EP        4 3 22.58                             171   -0.1510 22.0 191 
 BAR2 EZ ES        4 3 38.07                             171   -0.0010 22.0 191 
 BAR2 EZ I         4 3 40.39         8.0 0.46                          22.0 191 
 BRR  HZ EP        4 3 24.62                             152    0.3110 72.1 299 
 BRR  HE ES        4 3 40.77                             152   -0.1310 72.1 299 
 BRR  HZ I         4 3 45.11         4.1 0.19                          72.1 299 
 RUS  HZ EP        4 3 26.66                             144   -0.1010 99.2 176 
 RUS  HE ES        4 3 45.39                             144    0.1410 99.2 176 
 RUS  HZ I         4 3 46.70         2.6 0.35                          99.2 176 
 PTB  HZ EP        4 3 29.82                             132   -0.24 9  148 259 
 PTB  HE ES        4 3 51.19                             132    0.05 9  148 259 
 PTB  HZ I         4 3 56.76         3.9 0.32                           148 259 
 ZAR  HZ EP        4 3 35.75                             122    0.14 9  205 292 
 ZAR  HZ I         4 4  8.60         3.1 0.14                           205 292 
 NOR  HZ EP   4    4 3 35.50                             119   -3.25 0  234 235 
 NOR  HE ES   4    4 4  7.56                             119    0.97 0  234 235 
 NOR  HZ I         4 4 12.28         3.0 0.29                           234 235 
                                                                                
