 2015 1013 0235 57.6 L   6.746 -73.090144.5  RSN  4 0.2 1.1LRSN                1
 GAP=146        0.53       3.9     6.4  5.4  0.1259E+02 -0.1557E+02 -0.7785E+01E
 Epicentro: JORDAN - SANTANDER                                                 3
 ACTION:UPD 15-12-22 20:39 OP:cam  STATUS:               ID:20151013023557 L   I
 OLDACT:DUP 15-10-13 18:53 OP:stll STATUS:               ID:20151013022747d    3
 2015-10-13-0227-46M.COL___334                                                 6
 STAT SP IPHASW D HRMM SECON CODA AMPLIT PERI AZIMU VELO AIN AR TRES W  DIS CAZ7
 BAR2 EZ ES        236 32.26                             172    0.1010 19.8 211 
 BAR2 EZ I         236 33.63         4.3 0.20            172           19.8 211 
 PAM  EZ EP        236 19.71                             150   -0.0510 78.5  33 
 PAM  EZ I         236 20.12         3.2 0.22            151           78.5  33 
 BRR  HZ EP        236 18.91                             150   -0.2010 79.5 300 
 BRR  HN ES        236 35.97                             150    0.0810 79.5 300 
 BRR  HZ I         236 37.59         2.3 0.44            150           79.5 300 
 RUS  HZ EP        236 21.08                             145    0.2910 94.4 180 
 RUS  HE ES        236 38.66                             145   -0.2210 94.4 180 
 RUS  HZ I         236 40.08         1.3 0.34            147           94.4 180 
                                                                                
