 2014  813 0559 22.2 L   6.739 -73.168141.2  RSN  7 0.5 1.6LRSN                1
 GAP=230        1.15       6.4     6.7  7.7  0.1252E+02  0.7442E+01  0.9560E+01E
 Epicentro: VILLANUEVA - SANTANDER                                             3
 ACTION:UPD 14-09-15 21:49 OP:nd   STATUS:               ID:20140813055922 L   I
 OLDACT:UP  14-08-13 16:42 OP:cma  STATUS:               ID:20140813055747     3
 OLDACT:REG 14-08-13 16:13 OP:cam  STATUS:               ID:20140813055747     3
 2014-08-13-0557-47M.COL___269                                                 6
 STAT SP IPHASW D HRMM SECON CODA AMPLIT PERI AZIMU VELO AIN AR TRES W  DIS CAZ7
 BAR2 SZ EP        559 41.05                             173   -0.1010 16.3 185 
 BAR2 SZ ES        559 55.59                             173   -0.3410 16.3 185 
 BAR2 SZ I         559 57.21         9.1 0.16            167           16.3 185 
 BRR  HZ IP     C  559 42.91                             151   -0.0210 72.6 304 
 BRR  HN ES        559 59.66                             151    0.5610 72.6 304 
 BRR  HZ I         6 0  2.57         5.6 0.30            148           72.6 304 
 RUS  HZ EP        559 45.13                             145    0.1110 94.0 174 
 PTB  HZ EP        559 47.75                             132   -0.71 9  144 261 
 PTB  HN ES        6 0  8.15                             132   -0.79 9  144 261 
 PTB  HZ I         6 0 11.38         6.2 0.12            130            144 261 
 SPBC HZ EP        559 50.30                             129    0.61 9  156 220 
 SPBC HN ES        6 0 11.52                             129    0.38 9  156 220 
 SPBC HZ I         6 0 20.07         5.2 0.20            128            156 220 
 ZAR  HZ EP        559 54.10                             121   -0.28 9  204 294 
 ZAR  HN ES        6 0 20.07                             121    0.58 9  204 294 
 ZAR  HZ I         6 0 27.17         2.7 0.24            121            204 294 
 PRA  HZ EP        6 0 14.87                             106    0.15 6  385 210 
                                                                                
