 2016  413 0358  0.0 L   6.819 -73.195140.0  RSN  5 0.3 1.2LRSN                1
 GAP=241        0.70       4.7     4.2  6.5  0.8832E+01  0.2446E+01 -0.7455E+01E
 Epicentro: ZAPATOCA - SANTANDER                                               3
 ACTION:UPD 16-05-05 14:20 OP:rebc STATUS:               ID:20160413035800 L   I
 OLDACT:UP  16-04-13 16:12 OP:mh   STATUS:               ID:20160413034743d    3
 OLDACT:UP  16-04-13 16:12 OP:mh   STATUS:               ID:20160413034743d    3
 OLDACT:DUP 16-04-13 16:12 OP:mh   STATUS:               ID:20160413034743d    3
 2016-04-13-0347-42M.COL___309                                                 6
 STAT SP IPHASW D HRMM SECON CODA AMPLIT PERI AZIMU VELO AIN AR TRES W  DIS CAZ7
 BAR2 EZ EP        358 18.97                             169   -0.0410 25.2 177 
 BAR2 EZ ES   1    358 33.54                             169   -0.27 7 25.2 177 
 BAR2 EZ I         358 36.24         2.0 0.08            169           25.2 177 
 RUS  HZ EP        358 23.87                             142    0.4510  103 173 
 RUS  HN ES        358 41.70                             142    0.0410  103 173 
 RUS  HZ I         358 43.56         1.3 0.23            146            103 173 
 PTB  HZ EP        358 25.58                             132   -0.51 9  143 258 
 PTB  HN ES        358 46.59                             132    0.18 9  143 258 
 PTB  HZ I         358 51.36         2.1 0.24            132            143 258 
 SPBC HZ EP        358 27.93                             128   -0.01 9  162 217 
 SPBC HN ES        358 49.55                             128   -0.15 9  162 217 
 SPBC HZ I         358 54.44         2.6 0.20            130            162 217 
 ZAR  HZ EP   1    358 31.24                             122   -0.26 6  198 292 
 ZAR  HN ES        358 56.37                             122    0.32 9  198 292 
 ZAR  HZ I         359  3.76         2.9 0.16            123            198 292 
                                                                                
