 2011  513 0319  4.0 L   6.755 -73.126142.0  RSN  4 0.2 1.3LRSN                1
 GAP=218        0.46       7.7    14.4  9.0  0.8967E+02 -0.5221E+02 -0.2224E+02E
 Epicentro: LOS SANTOS - SANTANDER                                             3
 ACTION:UP  11-06-29 08:52 OP:tino STATUS:               ID:20110513031904 L   I
 2011-05-13-0316-38S.COL___141                                                 6
 STAT SP IPHASW D HRMM SECON CODA AMPLIT PERI AZIMU VELO SNR AR TRES W  DIS CAZ7
 BAR2 SZ EP        319 22.89                             172    -0.210   19 199 
 BAR2 SZ ES   3    319 37.61                             172    -0.4 2   19 199 
 BTL  SZ EP        319 23.44                             170     0.210   24 319 
 BRR  HZ EP        319 24.94                             151    -0.110   76 301 
 BRR  HZ I         319 26.42         3.5 0.02                            76 301 
 BRR  HN ES   2    319 41.54                             151     0.1 5   76 301 
 RUS  HZ EP        319 27.10                             145     0.110   96 177 
 RUS  HN ES   2    319 45.10                             145     0.1 5   96 177 
                                                                                
