 2014  213 0341 41.9 L   6.827 -73.148151.8  RSN 10 0.5 1.8LRSN                1
 GAP=135        1.17       3.3     5.1  6.9 -0.4083E+00  0.8596E+01 -0.9680E+00E
 Epicentro: LOS SANTOS - SANTANDER                                             3
 ACTION:UPD 14-03-10 08:09 OP:ep   STATUS:               ID:20140213034141 L   I
 OLDACT:REG 14-02-13 08:32 OP:carl STATUS:               ID:20140213034000     3
 2014-02-13-0340-00M.COL___199                                                 6
 STAT SP IPHASW D HRMM SECON CODA AMPLIT PERI AZIMU VELO AIN AR TRES W  DIS CAZ7
 BAR2 SZ EP        342  1.70                             170   -0.6410 26.3 188 
 BAR2 SZ ES        342 18.37                             170    0.1110 26.3 188 
 BAR2 SZ I         342 20.68         7.2 0.20            170           26.3 188 
 BRR  HZ EP        342  4.27                             154    0.6310 69.6 296 
 BRR  HN ES        342 21.15                             154    0.5710 69.6 296 
 BRR  HZ I         342 26.35         9.7 0.28            152           69.6 296 
 PAM  SZ EP        342  5.21                             152    0.5510 75.2  41 
 PAM  SE ES        342 22.50                             152    0.1010 75.2  41 
 PAM  SZ I         342 24.26         9.0 0.60            156           75.2  41 
 RUS  HZ EP        342  6.60                             144    0.1110  104 176 
 RUS  HN ES        342 25.38                             144   -0.2610  104 176 
 RUS  HZ I         342 27.07         3.4 0.36            148            104 176 
 PTB  HZ EP        342  9.44                             133    0.02 9  148 258 
 PTB  HN ES        342 30.28                             133   -0.59 9  148 258 
 PTB  HZ I         342 33.38         7.5 0.20            134            148 258 
 OCA  HE ES        342 31.83                             131   -0.84 9  157 353 
 OCA  HE I         342 35.99        22.5 0.18            133            157 353 
 SPBC HZ EP        342 11.61                             130    0.51 9  165 218 
 SPBC HN ES        342 33.95                             130    0.10 9  165 218 
 SPBC HZ I         342 40.72         3.6 0.20            132            165 218 
 ZAR  HZ EP        342 14.54                             124   -0.10 9  203 291 
 ZAR  HN ES        342 40.66                             124    0.51 9  203 291 
 ZAR  HZ I         342 46.42         7.3 0.34            125            203 291 
 SML  HZ EP        342 18.61                             119    0.02 8  241 335 
 SML  HN ES        342 46.63                             119   -0.56 8  241 335 
 SML  HZ I         342 54.92         8.7 0.10            121            241 335 
 CHI  HN ES        342 49.50                             118   -0.68 8  251 195 
                                                                                
