 2016  613 0642 56.2 L   6.798 -73.161146.0  RSN 12 0.5 1.8LRSN                1
 GAP=135        0.89       3.4     5.8  7.4 -0.8434E+01 -0.5046E+01  0.5241E+01E
 Epicentro: LOS SANTOS - SANTANDER                                             3
 2016-06-13-0637-45M.COL___319                                                 6
 OLDACT:REG 16-06-13 12:48 OP:dnl  STATUS:               ID:20160613063745     3
 ACTION:UPD 16-07-21 22:18 OP:rebc STATUS:               ID:20160613064256 L   I
 OLDACT:DUP 16-06-13 17:58 OP:dnl  STATUS:               ID:20160613063746d    3
 OLDACT:UP  16-06-13 17:48 OP:dnl  STATUS:               ID:20160613063745     3
 STAT SP IPHASW D HRMM SECON CODA AMPLIT PERI AZIMU VELO AIN AR TRES W  DIS CAZ7
 BAR2 EZ EP   2    643 15.09                             171   -0.75 5 22.9 186 
 BAR2 EZ ES   2    643 30.74                             171   -0.43 5 22.9 186 
 BAR2 EZ I         643 32.35        13.4 0.24                          22.9 186 
 BRR  HZ EP   2    643 17.66                             153    0.37 5 69.8 299 
 BRR  HE ES        643 34.50                             153    0.7610 69.8 299 
 BRR  HZ I         643 39.11         7.9 0.12                          69.8 299 
 PAM  EZ EP        643 19.04                             151    0.5410 78.6  40 
 PAM  EN ES   2    643 35.74                             151   -0.17 5 78.6  40 
 PAM  EZ I         643 38.29        13.9 0.50                          78.6  40 
 RUS  HZ EP   2    643 19.86                             144   -0.10 5  101 175 
 RUS  HN ES   2    643 38.93                             144    0.43 5  101 175 
 RUS  HZ I         643 40.01         7.4 0.26                           101 175 
 PTB  HZ EP   2    643 22.51                             133   -0.52 5  146 259 
 PTB  HN ES   2    643 43.45                             133   -0.51 5  146 259 
 PTB  HZ I         643 46.46         5.6 0.46                           146 259 
 OCA  HZ EP        643 24.29                             130   -0.23 9  160 354 
 OCA  HN ES        643 46.03                             130   -0.58 9  160 354 
 OCA  HZ I         643 50.97        11.0 0.52                           160 354 
 SPBC HZ EP   3    643 24.94                             130    0.35 2  162 219 
 SPBC HN ES        643 45.99                             130   -0.76 9  162 219 
 SPBC HZ I         643 50.24        10.9 0.54                           162 219 
 NOR  HZ EP   4    643 29.28                             119   -2.50 0  233 234 
 NOR  HE ES   2    644  0.06                             119    0.53 4  233 234 
 NOR  HZ I         644  5.76         6.0 0.18                           233 234 
 CHI  HZ EP   2    643 33.57                             117   -0.27 4  248 195 
 CHI  HN ES        644  3.37                             117    0.17 8  248 195 
 CHI  HZ I         644  8.02         2.6 0.38                           248 195 
 HEL  HZ EP   4    643 37.79                             115    1.56 0  270 256 
 HEL  HN ES   2    644  8.15                             115    0.69 4  270 256 
 HEL  HZ I         644 14.95         2.9 0.34                           270 256 
 GUY2CHZ EP   2    643 40.15                             113    0.51 4  300 235 
 GUY2CHE ES   2    644 14.03                             113    0.49 4  300 235 
 GUY2CHZ I         644 22.27         3.4 0.32                           300 235 
 PRA  HZ EP   2    643 49.47                             107   -0.13 3  391 209 
 PRA  HN ES   2    644 31.47                             107    0.20 3  391 209 
 PRA  HZ I         644 38.48         1.7 0.33                           391 209 
                                                                                
