 2010  813 0646 30.8 L   6.778 -73.083148.2  RSN 19 0.4 3.2LRSN                1
 GAP=131        0.95       3.3     5.5  4.9 -0.6626E+01  0.4096E+01  0.2966E+01E
 Epicentro: LOS SANTOS - SANTANDER                                             3
 ACTION:UP  10-09-07 10:54 OP:vdl  STATUS:               ID:20100813064630 L   I
 2010-08-13-0644-05S.COL___126                                                 6
 STAT SP IPHASW D HRMM SECON CODA AMPLIT PERI AZIMU VELO SNR AR TRES W  DIS CAZ7
 BAR2 SZ IP        646 50.76                             171     0.010   23 209 
 BAR2 SZ ES   1    647  5.70                             171    -0.6 7   23 209 
 BAR2 SZ I         647  7.42       236.7 0.22                            23 209 
 BTL  SZ EP        646 51.00                             169     0.210   26 307 
 BTL  SZ ES        647  6.66                             169     0.310   26 307 
 GIR2 SZ EP   1    646 50.88                             165     0.0 7   35 340 
 BRR  HZ IP     D  646 52.66                             150     0.010   79 298 
 BRR  HE ES   1    647 10.00                             150     0.3 7   79 298 
 BRR  HZ I         647 13.85       196.7 0.51                            79 298 
 RUS  HZ IP     C  646 54.65                             146     0.010   98 180 
 RUS  HE ES   1    647 13.17                             146     0.0 7   98 180 
 RUS  HZ I         647 14.43       112.6 0.31                            98 180 
 GUE  SZ EP   1    646 55.69                             139    -0.2 7  118   9 
 GRA  SZ IP        646 56.57                             137     0.210  126  14 
 GRA  SZ I         647 17.55       135.5 0.30                           126  14 
 OCA  SZ IP        646 59.12                             129    -0.5 9  164 351 
 OCA  SZ ES        647 22.18                             129     0.0 9  164 351 
 OCA  SZ I         647 27.57       169.3 0.38                           164 351 
 CHI  HZ EP   1    647  8.73                             118     0.1 6  248 197 
 CHI  HE ES   2    647 37.57                             118    -0.5 4  248 197 
 CHI  HZ I         647 42.08        62.5 0.46                           248 197 
 ROSC BZ EP        647 10.34                                     1.1 8  254 213 
 ROSC BZ I         647 47.17        92.0 0.55                           254 213 
 CVER SZ EP   1    647 12.04                             116     0.7 6  273 204 
 CVER SZ I         647 51.75       105.1 0.40                           273 204 
 HEL  HZ EP   1    647 12.48                             115     0.6 6  278 257 
 HEL  HE ES   1    647 43.58                             115    -0.3 6  278 257 
 HEL  HZ I         647 49.64        55.0 0.10                           278 257 
 GUY  SZ EP        647 14.80                             113    -0.3 7  306 236 
 GUY  SZ I         647 58.46       227.2 0.50                           306 236 
 RREF HZ EP        647 16.96                             111    -0.6 7  326 231 
 RREF HN ES   1    647 54.12                             111     0.2 5  326 231 
 RREF HZ I         648  0.29        94.7 0.27                           326 231 
 TOL  SZ EP   1    647 19.73                             110     0.2 5  347 226 
 DBB  SZ EP   1    647 19.31                             110     0.1 5  347 275 
 SDV  BZ EP   1    647 19.99                             109    -0.6 5  357  49 
 SDV  BZ I         647 20.95        35.8 0.08                           357  49 
 ANIL HZ EP   1    647 21.46                             109     0.3 5  361 226 
 ANIL HN ES   1    647 59.33                             109    -1.0 5  361 226 
 ANIL HZ I         648  7.60       134.1 0.36                           361 226 
 PRA  HZ EP   1    647 24.12                             107    -0.5 4  393 211 
 PRA  HN ES   1    648  5.99                             107    -0.6 4  393 211 
 PRA  HZ I         648 12.37        91.4 0.36                           393 211 
                                                                                
