 2014  913 0846 49.9 L   6.842 -73.376117.6  RSN 15 0.5 2.3LRSN                1
 GAP= 89        1.26       2.9     4.0  6.7 -0.2176E+01  0.1280E+02 -0.3233E+00E
 Epicentro: SAN VICENTE DE CHUCURI - SANTANDER                                 3
 ACTION:UPD 14-10-03 23:04 OP:nd   STATUS:               ID:20140913084649 L   I
 OLDACT:DUP 14-09-13 14:03 OP:carl STATUS:               ID:20140913083807d    3
 2014-09-13-0838-06M.COL___293                                                 6
 STAT SP IPHASW D HRMM SECON CODA AMPLIT PERI AZIMU VELO AIN AR TRES W  DIS CAZ7
 BAR2 SZ IP     C  847  6.54                             163    0.0710 34.9 142 
 BAR2 SZ ES        847 19.17                             163   -0.2510 34.9 142 
 BRR  HZ IP     D  847  6.74                             156    0.0910 47.3 308 
 BRR  HN ES        847 20.08                             156    0.3410 47.3 308 
 BRR  HZ I         847 23.21        39.4 0.10            154           47.3 308 
 PAM  SZ EP        847 10.75                             139    0.4310 92.8  54 
 PAM  SN ES        847 26.39                             139    0.1110 92.8  54 
 PAM  SZ I         847 28.90        34.9 0.32            145           92.8  54 
 RUS  HZ EP        847 11.47                             134   -0.2810  110 163 
 RUS  HN ES        847 28.58                             134   -0.2410  110 163 
 RUS  HZ I         847 31.04        14.8 0.22            139            110 163 
 PTB  HZ IP   4 D  847 11.14                             130   -1.25 0  124 254 
 PTB  HN ES   4    847 27.72                             130   -2.24 0  124 254 
 PTB  HZ I         847 32.18        38.4 0.16            130            124 254 
 SPBC HZ EP        847 16.55                             124    1.29 9  152 210 
 SPBC HN ES        847 35.36                             124    0.29 9  152 210 
 SPBC HZ I         847 41.66        26.7 0.30            126            152 210 
 OCA  HZ EP        847 15.29                             123   -0.28 9  155   2 
 OCA  HN ES        847 34.97                             123   -0.65 9  155   2 
 OCA  HZ I         847 36.77        36.5 0.48            126            155   2 
 ZAR  HZ EP        847 17.88                             119   -0.02 9  179 294 
 ZAR  HN ES        847 40.56                             119    0.79 9  179 294 
 ZAR  HZ I         847 44.46        32.6 0.32            120            179 294 
 NOR  HZ EP        847 21.49                             114   -0.69 8  217 230 
 NOR  HN ES        847 46.48                             114   -0.91 8  217 230 
 NOR  HZ I         847 51.65        20.6 0.38            116            217 230 
 SML  HZ EP        847 23.14                             112   -0.36 8  230 341 
 SML  HN ES        847 49.44                             112   -0.31 8  230 341 
 SML  HZ I         847 59.11        37.0 0.10            114            230 341 
 CHI  HN ES        847 54.19                             111   -0.11 8  248 189 
 HEL  HZ EP        847 26.73                             111    0.61 8  249 253 
 HEL  HN ES        847 54.76                             111    0.36 8  249 253 
 HEL  HZ I         847 59.26        28.4 0.32            112            249 253 
 URE  HZ EP   4    847 25.61                             110   -1.19 0  259 293 
 URE  HN ES   4    847 53.75                             110   -1.86 0  259 293 
 GUY2CHZ EP        847 30.78                             108    0.50 7  284 231 
 GUY2CHN ES        848  1.02                             108   -0.79 7  284 231 
 GUY2CHZ I         848  9.98        10.1 0.54                           284 231 
 CBOC HZ EP        847 33.45                             106    0.35 7  311 250 
 CBOC HN ES        848  5.91                             106   -0.92 7  311 250 
 CBOC HZ I         848 20.90         5.2 0.46            107            311 250 
 MON  HZ EP   4    847 33.88                             104   -1.36 0  331 310 
 MON  HN ES   4    848  9.52                             104   -1.12 0  331 310 
 MON  HZ I         848 11.20         7.4 0.16            106            331 310 
                                                                                
