 2015 1013 0129 44.3 L   6.825 -73.146147.1  RSN 17 0.5 2.3LRSN                1
 GAP= 70        1.17       2.7     4.0  5.4 -0.1272E+01  0.5168E+01  0.1935E+01E
 Epicentro: LOS SANTOS - SANTANDER                                             3
 ACTION:UPD 15-12-22 20:39 OP:cam  STATUS:               ID:20151013012944 L   I
 OLDACT:UP  15-11-03 20:19 OP:cam  STATUS:               ID:20151013012944 L   3
 OLDACT:UP  15-11-03 20:19 OP:cam  STATUS:               ID:20151013012944 L   3
 OLDACT:UP  15-11-01 03:28 OP:DRIO STATUS:               ID:20151013012944 L   3
 OLDACT:REG 15-10-13 13:56 OP:cara STATUS:               ID:20151013012750     3
 2015-10-13-0127-50M.COL___334                                                 6
 STAT SP IPHASW D HRMM SECON CODA AMPLIT PERI AZIMU VELO AIN AR TRES W  DIS CAZ7
 BAR2 EZ EP        130  3.96                             170   -0.2010 26.0 189 
 BAR2 EZ ES        130 19.57                             170   -0.0710 26.0 189 
 BAR2 EZ I         130 20.62        32.2 0.14            168           26.0 189 
 BRR  HZ IP     D  130  5.83                             153    0.2910 69.9 297 
 BRR  HN ES        130 22.71                             153    0.6210 69.9 297 
 BRR  HZ I         130 23.68        19.4 0.48            151           69.9 297 
 PAM  EZ IP     D  130  6.98                             152    0.4310 75.3  41 
 PAM  EN ES        130 24.20                             152    0.3110 75.3  41 
 PAM  EZ I         130 26.15        32.3 0.42            155           75.3  41 
 RUS  HZ EP        130  8.20                             143   -0.1910  103 176 
 RUS  HE ES        130 26.77                             143   -0.4110  103 176 
 RUS  HZ I         130 27.66        21.6 0.22            144            103 176 
 TAM  HZ IP     D  130 12.46                             131    0.30 9  156 106 
 TAM  HZ I         130 12.70        28.8 0.36            134            156 106 
 OCA  HZ EP        130 13.13                             130    0.65 9  158 353 
 OCA  HN ES        130 33.90                             130   -0.54 9  158 353 
 OCA  HZ I         130 37.14        28.7 0.46            131            158 353 
 SPBC HZ EP        130 12.91                             129   -0.21 9  165 218 
 SPBC HN ES        130 34.63                             129   -0.96 9  165 218 
 SPBC HZ I         130 37.45        32.9 0.38            129            165 218 
 ZAR  HZ EP        130 16.52                             123   -0.22 9  203 291 
 ZAR  HE ES        130 42.16                             123    0.12 9  203 291 
 ZAR  HZ I         130 47.28        17.4 0.40            122            203 291 
 NOR  HZ EP        130 20.13                             119   -0.16 8  236 234 
 NOR  HN ES        130 48.45                             119    0.09 8  236 234 
 NOR  HZ I         130 55.88        18.0 0.14            119            236 234 
 SML  HZ EP        130 20.16                             118   -0.59 8  241 335 
 SML  HN ES        130 48.66                             118   -0.50 8  241 335 
 SML  HZ I         130 52.33        28.3 0.28            118            241 335 
 CHI  HZ EP        130 22.19                             117   -0.18 8  251 195 
 CHI  HZ I         130 22.79         9.6 0.18            118            251 195 
 CHI  HN ES        130 51.38                             117   -0.68 8  251 195 
 ROSC BZ EP        130 23.75                             117    0.99 8  255 211 
 ROSC BE ES        130 53.67                             117    0.92 8  255 211 
 ROSC BZ I         131  1.96        13.4 0.30            117            255 211 
 HEL  HZ EP   4    130 25.99                             115    1.32 0  273 255 
 HEL  HN ES        130 56.48                             115    0.33 8  273 255 
 HEL  HZ I         131  1.98        10.5 0.28            115            273 255 
 URE  HZ EP        130 24.57                             114   -0.77 7  283 291 
 GUY2CHZ EP        130 28.33                             112    0.16 7  303 234 
 GUY2CHN ES   4    131  3.80                             112    1.43 0  303 234 
 GUY2CHZ I         131  8.08         7.5 0.34                           303 234 
 VIL  SZ EP        130 27.80                             112   -0.30 7  306 191 
 VIL  SN ES   4    131  0.48                             112   -1.77 0  306 191 
 ORTC HZ EP        130 38.37                             106   -0.17 6  398 216 
 ORTC HZ I         130 41.47         4.5 0.28            107            398 216 
 ORTC HN ES        131 22.02                             106    1.18 6  398 216 
                                                                                
