 2010 1213 0027 59.3 L   6.822 -73.012145.8  RSN  9 0.4 1.8LRSN                1
 GAP=173        0.64       3.7    11.6  7.8 -0.1941E+02  0.4429E+02 -0.5883E+01E
 Epicentro: CEPITA - SANTANDER                                                 3
 ACTION:UP  11-01-14 15:24 OP:pat  STATUS:               ID:20101213002759 L   I
 2010-12-13-0024-32S.COL___137                                                 6
 STAT SP IPHASW D HRMM SECON CODA AMPLIT PERI AZIMU VELO SNR AR TRES W  DIS CAZ7
 BAR2 SZ EP   1    028 19.33                             167     0.2 7   32 217 
 BAR2 SZ ES   2    028 34.31                             167    -0.3 5   32 217 
 BAR2 SZ I         028 35.97        14.3 0.15                            32 217 
 RUS  HZ EP   1    028 23.56                             143     0.3 7  103 184 
 RUS  HN ES   1    028 42.16                             143     0.2 7  103 184 
 RUS  HZ I         028 43.90         6.7 0.35                           103 184 
 GRA  SZ EP   1    028 24.03                             138    -0.1 7  120  11 
 GRA  SZ ES   2    028 42.50                             138    -0.9 5  120  11 
 GRA  SZ I         028 44.74         9.3 0.27                           120  11 
 OCA  SZ EP   2    028 27.90                             130     0.2 5  160 348 
 OCA  SZ ES   2    028 50.23                             130     0.5 5  160 348 
 OCA  SZ I         028 55.33         9.2 0.34                           160 348 
 NOR  SZ EP   2    028 36.00                             117    -0.5 4  248 236 
 CHI  HZ EP   2    028 37.74                             116     0.0 4  255 198 
 CHI  HZ I         028 39.86         3.3 0.09                           255 198 
 CHI  HE ES   2    029  7.40                             116    -0.3 4  255 198 
 HEL  HZ EP   2    028 41.70                             113     0.5 4  287 256 
 HEL  HZ I         029 19.02         5.0 0.41                           287 256 
 RREF HZ EP   2    028 46.69                             110    -0.3 3  335 231 
 RREF HZ I         029 29.36         3.6 0.63                           335 231 
 PRA  HZ EP   2    028 53.13                             106    -0.9 3  402 211 
 PRA  HE ES   2    029 36.28                             106    -0.3 3  402 211 
                                                                                
