 2011  613 0002 23.3 L   7.363 -73.187129.7  RSN 10 0.3 2.7LRSN                1
 GAP=107        0.55       3.6     5.6  6.0 -0.8929E+01  0.8337E+01  0.2618E+01E
 Epicentro: RIONEGRO - SANTANDER                                               3
 ACTION:UP  11-07-14 19:04 OP:ep   STATUS:               ID:20110613000223 L   I
 2011-06-13-0000-30S.COL___132                                                 6
 STAT SP IPHASW D HRMM SECON CODA AMPLIT PERI AZIMU VELO SNR AR TRES W  DIS CAZ7
 GIR2 SZ EP   2    0 2 40.91                             165    -0.2 5   31 181 
 GIR2 SZ ES   2    0 2 54.84                             165    -0.1 5   31 181 
 BTL  SZ IP        0 2 42.20                             158     0.210   50 190 
 BTL  SZ ES   2    0 2 55.94                             158    -0.6 5   50 190 
 PAM  SZ EP   2    0 2 42.45                             156    -0.1 5   54  93 
 PAM  SN ES   2    0 2 57.38                             156    -0.1 5   54  93 
 BRI  SZ EP   2    0 2 42.30                             154     0.0 5   58  48 
 BRI  SZ I         0 2 42.91        81.3 0.28                            58  48 
 BRI  SZ ES   2    0 2 57.42                             154     0.4 5   58  48 
 BRR  HZ EP   1    0 2 42.30                             152    -0.1 7   65 244 
 BRR  HN ES   2    0 2 57.49                             152     0.3 5   65 244 
 BRR  HZ I         0 2 59.12       167.9 0.12                            65 244 
 GRA  SZ EP   2    0 2 42.87                             149    -0.1 5   72  36 
 GRA  SZ ES   1    0 2 57.88                             149    -0.5 7   72  36 
 GRA  SZ I         0 2 58.80       139.8 0.22                            72  36 
 BAR2 SZ EP   2    0 2 44.01                             145     0.0 5   85 180 
 BAR2 SZ ES   2    0 3  0.49                             145     0.3 5   85 180 
 BAR2 SZ I         0 3  1.73       105.3 0.12                            85 180 
 OCA  SZ ES   2    0 3  2.13                             140     0.5 5   98 351 
 OCA  SZ I         0 3  3.61        57.6 0.15                            98 351 
 RUS  HN ES   2    0 3 13.18                             125     0.3 5  163 176 
 NOR  SN ES   2    0 3 32.38                             111    -0.5 4  272 223 
                                                                                
