 2017  713 0422 49.2 L   6.822 -73.148144.6  RSN 21 0.4 2.7LRSN                1
 GAP=104        0.93       3.2     2.4  4.6  0.2812E+00  0.2408E+01  0.2240E+01E
 Epicentro: LOS SANTOS - SANTANDER                                             3
 ACTION:UPD 17-08-30 15:32 OP:rebc STATUS:               ID:20170713042249 L   I
 OLDACT:UP  17-07-13 13:46 OP:dnl  STATUS:               ID:20170713041634     3
 OLDACT:REG 17-07-13 12:48 OP:dnl  STATUS:               ID:20170713041634     3
 2017-07-13-0418-00M.COL___371                                                 6
 STAT SP IPHASW D HRMM SECON CODA AMPLIT PERI AZIMU VELO AIN AR TRES W  DIS CAZ7
 BAR2 EZ IP     D  423  8.59                             169   -0.1910 25.7 188 
 BAR2 EZ ES        423 23.63                             169   -0.3910 25.7 188 
 BAR2 EZ I         423 27.03       116.2 0.78            166           25.7 188 
 BRR  HZ IP     D  423 10.28                             153    0.1010 69.8 297 
 BRR  HE ES        423 27.34                             153    0.8210 69.8 297 
 BRR  HZ I         423 30.31        77.5 0.14            151           69.8 297 
 PAM  EZ IP     D  423 11.21                             151   -0.0210 75.7  41 
 PAM  EN ES        423 28.36                             151   -0.0310 75.7  41 
 PAM  EZ I         423 30.35       153.4 0.50            158           75.7  41 
 RUS  HZ EP        423 12.74                             143   -0.3110  103 176 
 RUS  HE ES        423 31.44                             143   -0.1910  103 176 
 RUS  HZ I         423 32.83        77.0 0.24            143            103 176 
 PTB  HZ EP        423 15.29                             132   -0.84 9  148 258 
 PTB  HE ES        423 37.14                             132    0.04 9  148 258 
 PTB  HZ I         423 42.81        45.5 0.30            131            148 258 
 TAM  HZ IP     D  423 16.99                             130    0.08 9  156 106 
 TAM  HN ES        423 38.69                             130    0.19 9  156 106 
 TAM  HZ I         423 40.77        18.6 0.38            134            156 106 
 SPBC HZ EP        423 17.71                             129   -0.10 9  165 218 
 SPBC HE ES        423 39.92                             129   -0.18 9  165 218 
 SPBC HZ I         423 46.21        89.3 0.40            128            165 218 
 YPLC HZ EP        423 19.24                             126    0.07 9  179 152 
 YPLC HN ES        423 43.07                             126    0.55 9  179 152 
 YPLC HZ I         423 46.90        56.2 0.40            128            179 152 
 ZAR  HZ EP        423 21.93                             122    0.45 9  203 292 
 ZAR  HN ES        423 46.53                             122   -0.11 9  203 292 
 ZAR  HZ I         423 52.31        69.9 0.30            123            203 292 
 NOR  HZ EP        423 24.81                             118   -0.21 8  236 234 
 NOR  HE ES        423 52.75                             118   -0.19 8  236 234 
 NOR  HZ I         423 59.09        33.1 0.30            118            236 234 
 ROSC BZ EP   9    423 28.91                             116    1.41 0  255 211 
 ROSC BN ES        423 59.66                             116    0.90 8  255 211 
 ROSC BZ I         424  6.03        55.5 0.35            117            255 211 
 HEL  HZ EP   4    423 30.97                             115    1.55 0  272 255 
 HEL  HE ES   4    424  2.03                             115    1.26 0  272 255 
 HEL  HZ I         424  8.32        28.4 0.32            115            272 255 
 URE  HZ EP   4    423 28.33                             114   -1.79 0  283 291 
 URE  HE ES   4    423 59.02                             114   -2.98 0  283 291 
 URE  HZ I         424  8.70        45.6 0.36            114            283 291 
 GUY2CHZ EP   2    423 33.34                             112    0.42 4  302 234 
 GUY2CHE ES   4    424  9.10                             112    2.10 0  302 234 
 GUY2CHZ I         424 15.41        23.7 0.40                           302 234 
 PTGC HZ EP   4    423 32.07                             111   -1.24 0  311 159 
 PTGC HN ES   4    424  5.68                             111   -2.01 0  311 159 
 PTGC HZ I         424  8.15        30.5 0.52            113            311 159 
 CBOC HZ EP   4    423 37.72                             110    1.56 0  334 252 
 CBOC HE ES        424 12.81                             110    0.06 7  334 252 
 CBOC HZ I         424 23.81         7.4 0.42            110            334 252 
 DBB  EZ EP   2    423 35.92                             109   -0.69 3  339 274 
 DBB  EN ES   4    424 12.14                             109   -1.42 0  339 274 
 DBB  EZ I         424 16.80         9.8 0.14            110            339 274 
 ORTC HZ EP        423 43.49                             106    0.17 6  397 216 
 ORTC HN ES   4    424 28.09                             106    2.58 0  397 216 
 ORTC HZ I         424 35.41        18.0 0.80            107            397 216 
 SJC  HN EP   4    423 42.58                             106   -1.92 0  407 327 
 SJC  HE ES   4    424 23.61                             106   -4.00 0  407 327 
 SJC  HN I         424 26.03        12.8 0.26            107            407 327 
 PAL  HZ EP        423 44.66                             106    0.19 6  407 239 
 PAL  HE ES        424 28.54                             106    0.98 6  407 239 
 PAL  HZ I         424 33.17         7.4 0.38            106            407 239 
 MACC HZ EP   4    423 56.03                             101   -2.17 0  523 189 
 MACC HE ES   4    424 47.00                             101   -4.99 0  523 189 
 MACC HZ I         424 49.86         5.4 0.38            102            523 189 
                                                                                
