 2014  513 0711 17.5 L   6.829 -73.202138.1  RSN  4 0.4 1.3LRSN                1
 GAP=128        0.91       3.9     5.0  9.5 -0.2395E+01  0.1766E+02 -0.8765E+01E
 Epicentro: ZAPATOCA - SANTANDER                                               3
 ACTION:UPD 15-03-16 16:57 OP:nd   STATUS:               ID:20140513071118 L   I
 OLDACT:UP  14-05-13 21:36 OP:nlst STATUS:               ID:20140513071118 L   3
 OLDACT:REG 14-05-13 14:14 OP:spq  STATUS:               ID:20140513070809     3
 2014-05-13-0708-09M.COL___248                                                 6
 STAT SP IPHASW D HRMM SECON CODA AMPLIT PERI AZIMU VELO AIN AR TRES W  DIS CAZ7
 PAM  SZ EP        711 39.38                             149    0.3510 79.1  44 
 PAM  SN ES        711 56.02                             149    0.2110 79.1  44 
 PAM  SZ I         711 58.40         5.0 0.56            153           79.1  44 
 RUS  HZ EP        711 40.65                             141   -0.1610  104 173 
 RUS  HE ES        711 58.51                             141   -0.4610  104 173 
 RUS  HZ I         712  0.53         1.7 0.28            146            104 173 
 PTB  HZ EP        711 43.59                             131    0.23 9  142 257 
 PTB  HN ES        712  3.88                             131    0.35 9  142 257 
 PTB  HZ I         712  7.63         3.1 0.20            134            142 257 
 SML  HZ EP   1    711 53.18                             116    0.06 6  238 336 
 SML  HN ES        712 20.13                             116   -0.76 8  238 336 
 SML  HZ I         712 24.35         2.6 0.24            119            238 336 
                                                                                
