 2013 1013 0040  7.6 L   6.791 -73.147140.8  RSN  8 0.5 2.4LRSN                1
 GAP=137        1.02       4.2     5.1  7.3  0.6914E+00  0.9065E+01  0.6399E+01E
 Epicentro: LOS SANTOS - SANTANDER                                             3
 ACTION:UPD 13-11-25 09:21 OP:ep   STATUS:               ID:20131013004007 L   I
 OLDACT:REG 13-10-13 09:57 OP:mh   STATUS:               ID:20131013003838     3
 2013-10-13-0038-38M.COL___236                                                 6
 STAT SP IPHASW D HRMM SECON CODA AMPLIT PERI AZIMU VELO AIN AR TRES W  DIS CAZ7
 BAR2 SZ EP        040 26.49                             170   -0.1410 22.4 190 
 BAR2 SZ ES   1    040 41.11                             170   -0.35 7 22.4 190 
 BAR2 SZ I         040 42.09        29.9 0.36            165           22.4 190 
 BRR  HZ EP        040 28.45                             152    0.2010 71.6 299 
 BRR  HN ES        040 45.08                             152    0.7410 71.6 299 
 BRR  HZ I         040 49.92        17.4 0.12            144           71.6 299 
 PAM  SZ EP        040 29.39                             150    0.0410 78.2  39 
 PAM  SN ES        040 46.15                             150   -0.1610 78.2  39 
 PAM  SZ I         040 48.62        11.9 0.23            148           78.2  39 
 RUS  HZ EP   1    040 30.43                             143   -0.38 7 99.6 176 
 RUS  HN ES        040 48.87                             143   -0.0310 99.6 176 
 RUS  HZ I         040 49.79        13.9 0.30            136           99.6 176 
 PTB  HZ EP   1    040 33.34                             131   -0.82 7  147 259 
 PTB  HN ES   1    040 53.92                             131   -0.93 7  147 259 
 PTB  HZ I         040 58.55        15.9 0.11            123            147 259 
 SPBC HZ EP   1    040 35.38                             128   -0.28 7  162 219 
 SPBC HZ I         041  0.64        14.9 0.11            120            162 219 
 ZAR  HZ EP   1    040 40.13                             121    0.36 6  204 292 
 ZAR  HN ES   1    041  4.82                             121   -0.03 6  204 292 
 ZAR  HZ I         041 10.30        15.7 0.22            114            204 292 
 CHI  HZ EP   1    040 45.15                             116    0.21 6  248 195 
 CHI  HN ES        041 14.92                             116    0.87 8  248 195 
 CHI  HZ I         041 20.45     10292.8 0.02            110            248 195 
 GUY2CHZ EP   4    040 52.31                             111    1.38 0  301 235 
 GUY2CHN ES   4    041 26.09                             111    1.38 0  301 235 
                                                                                
