 2016  413 0232 21.7 L   6.764 -73.142141.4  RSN  4 0.2 1.2LRSN                1
 GAP=276        0.47       4.0     3.2  4.1  0.1029E+01  0.3949E+01 -0.1825E+01E
 Epicentro: LOS SANTOS - SANTANDER                                             3
 ACTION:UPD 16-05-05 14:20 OP:rebc STATUS:               ID:20160413023221 L   I
 OLDACT:REG 16-04-13 13:12 OP:mh   STATUS:               ID:20160413022742     3
 2016-04-13-0227-42M.COL___309                                                 6
 STAT SP IPHASW D HRMM SECON CODA AMPLIT PERI AZIMU VELO AIN AR TRES W  DIS CAZ7
 BAR2 EZ EP        232 40.84                             172    0.1610 19.5 193 
 BAR2 EZ ES        232 55.42                             172   -0.1010 19.5 193 
 BAR2 EZ I         232 56.68         4.4 0.30            161           19.5 193 
 RUS  HZ EP   1    232 44.28                             144   -0.40 7 96.5 176 
 RUS  HN ES        233  2.78                             144    0.1410 96.5 176 
 RUS  HZ I         233  4.97         1.8 0.54            138           96.5 176 
 PTB  HZ EP        232 48.16                             131   -0.07 9  147 260 
 PTB  HE ES        233  9.02                             131    0.05 9  147 260 
 PTB  HZ I         233 11.37         1.9 0.10            128            147 260 
 SPBC HZ EP        232 49.72                             128    0.18 9  160 220 
 SPBC HN ES        233 11.18                             128   -0.12 9  160 220 
 SPBC HZ I         233 20.72         2.0 0.14            125            160 220 
                                                                                
