 2012  313 0905 23.3 L   6.770 -73.136146.0  RSN  6 0.5 1.5LRSN                1
 GAP=139        1.10       6.1     6.3 11.3 -0.6300E-01  0.2248E+02 -0.4608E+01E
 ACTION:UP  12-03-31 23:19 OP:EP   STATUS:               ID:20120313090523 L   I
 2012-03-13-0900-00M.COL___196                                                 6
 STAT SP IPHASW D HRMM SECON CODA AMPLIT PERI AZIMU VELO SNR AR TRES W  DIS CAZ7
 BRR  HZ EP   1    9 5 45.24                             152     0.6 7   74 300 
 BRR  HE ES   1    9 6  1.65                             152     0.4 7   74 300 
 BRR  HZ I         9 6  3.36         9.0 0.13                            74 300 
 PAM  SZ EP   1    9 5 46.08                             150     0.4 7   79  37 
 PAM  SZ I         9 5 46.40         6.3 0.16                            79  37 
 PAM  SN ES   1    9 6  2.85                             150    -0.3 7   79  37 
 RUS  HZ EP   1    9 5 46.32                             145    -0.5 7   97 177 
 RUS  HN ES        9 6  5.26                             145     0.010   97 177 
 RUS  HZ I         9 6  7.27         5.1 0.35                            97 177 
 PTB  HZ EP   1    9 5 49.83                             132    -0.5 7  148 260 
 PTB  HZ I         9 5 52.47         3.2 0.28                           148 260 
 PTB  HN ES   1    9 6 10.76                             132    -0.7 7  148 260 
 ZAR  HZ EP   1    9 5 56.15                             122     0.1 6  206 293 
 ZAR  HN ES   1    9 6 21.24                             122    -0.3 6  206 293 
 ZAR  HZ I         9 6 28.26         2.2 0.15                           206 293 
 NOR  SN ES   1    9 6 27.67                             119     0.9 6  234 235 
                                                                                
