 2010  913 0607 25.4 L   6.779 -73.094138.6  RSN  8 0.5 1.8LRSN                1
 GAP=165        1.20       5.9    12.8 10.8 -0.1347E+02 -0.3321E+02 -0.2759E+01E
 Epicentro: LOS SANTOS - SANTANDER                                             3
 ACTION:UP  11-02-18 11:02 OP:tino STATUS:               ID:20100913060725 L   I
 2010-09-13-0604-15S.COL___120                                                 6
 STAT SP IPHASW D HRMM SECON CODA AMPLIT PERI AZIMU VELO SNR AR TRES W  DIS CAZ7
 BAR2 SZ EP        6 7 44.23                             170     0.010   23 205 
 BAR2 SZ ES   1    6 7 58.19                             170    -0.6 7   23 205 
 BAR2 SZ I         6 8  0.50        28.2 0.10                            23 205 
 BTL  SZ EP        6 7 44.49                             169     0.310   25 309 
 BRR  HZ EP        6 7 46.04                             149    -0.110   77 298 
 BRR  HN ES   1    6 8  2.92                             149     0.6 7   77 298 
 BRR  HZ I         6 8  5.50        12.8 0.26                            77 298 
 RUS  HZ EP   1    6 7 48.06                             143    -0.2 7   98 179 
 RUS  HE ES   2    6 8  6.40                             143     0.3 5   98 179 
 RUS  HZ I         6 8  7.82         8.5 0.29                            98 179 
 GUE  SZ EP        6 7 49.14                             137    -0.410  118   9 
 GRA  SZ EP        6 7 50.97                             135     0.910  126  15 
 GRA  SZ I         6 7 52.33         6.4 0.29                           126  15 
 GRA  SZ ES   1    6 8  9.43                             135     0.1 7  126  15 
 OCA  SZ EP   2    6 7 52.91                             127    -0.6 5  163 351 
 OCA  SZ ES   1    6 8 14.65                             127    -0.7 7  163 351 
 OCA  SZ I         6 8 20.31         6.7 0.30                           163 351 
 PRA  HZ EP   1    6 8 18.52                             105    -0.3 4  393 210 
 PRA  HZ I         6 9  7.75         2.6 0.26                           393 210 
                                                                                
