 2015 1113 0902 27.7 L   6.841 -73.160142.1  RSN  8 0.4 1.7LRSN                1
 GAP=133        0.90       2.7     4.3  5.5 -0.1907E+00  0.5823E+01 -0.2588E+01E
 Epicentro: LOS SANTOS - SANTANDER                                             3
 ACTION:UPD 15-12-28 16:10 OP:cam  STATUS:               ID:20151113090227 L   I
 OLDACT:REG 15-11-13 14:23 OP:dnl  STATUS:               ID:20151113085740     3
 2015-11-13-0857-40M.COL___317                                                 6
 STAT SP IPHASW D HRMM SECON CODA AMPLIT PERI AZIMU VELO AIN AR TRES W  DIS CAZ7
 BAR2 EZ ES        9 3  1.92                             169   -0.1010 27.6 185 
 BAR2 EZ I         9 3  2.25        10.9 0.32            178           27.6 185 
 BRR  HZ EP   1    9 2 48.29                             153    0.04 7 67.7 296 
 BRR  HN ES        9 3  4.54                             153    0.2610 67.7 296 
 BRR  HZ I         9 3  8.85         6.8 0.48            149           67.7 296 
 PAM  EZ EP        9 2 49.54                             151    0.1610 75.1  43 
 PAM  EN ES        9 3  6.68                             151    0.3910 75.1  43 
 PAM  EZ I         9 3  8.49        12.2 0.42            147           75.1  43 
 RUS  HZ EP        9 2 51.91                             142    0.4810  105 175 
 RUS  HN ES        9 3  9.65                             142   -0.2910  105 175 
 RUS  HZ I         9 3 11.03         3.0 0.22            153            105 175 
 OCA  HZ EP        9 2 54.82                             130   -0.46 9  156 354 
 OCA  HN ES        9 3 16.29                             130   -0.50 9  156 354 
 OCA  HZ I         9 3 50.43        12.1 0.40            128            156 354 
 SPBC HZ EP        9 2 56.37                             128    0.22 9  166 218 
 SPBC HN ES        9 3 17.71                             128   -0.64 9  166 218 
 ZAR  HZ EP   1    9 2 59.90                             122    0.33 6  201 291 
 ZAR  HN ES        9 3 24.92                             122    0.49 9  201 291 
 ZAR  HZ I         9 3 29.93         6.2 0.44            123            201 291 
 SML  HZ EP        9 3  3.32                             117   -0.27 8  239 335 
 SML  HN ES        9 3 31.48                             117   -0.12 8  239 335 
 SML  HZ I         9 3 37.86         6.3 0.10            117            239 335 
                                                                                
