 2017  413 0830 49.0 L   6.699 -73.236148.5  RSN  5 0.4 1.3LRSN                1
 GAP=219        0.75       5.9     5.9  7.5  0.2282E+02  0.6898E+00 -0.1786E+01E
 Epicentro: BARICHARA - SANTANDER                                              3
 ACTION:UPD 17-05-30 21:11 OP:jn   STATUS:               ID:20170413083049 L   I
 OLDACT:UP  17-04-13 14:23 OP:cog  STATUS:               ID:20170413082741     3
 OLDACT:REG 17-04-13 13:01 OP:cog  STATUS:               ID:20170413082741     3
 2017-04-13-0828-00M.COL___368                                                 6
 STAT SP IPHASW D HRMM SECON CODA AMPLIT PERI AZIMU VELO AIN AR TRES W  DIS CAZ7
 BRR  HZ EP        831  9.99                             153   -0.3610 69.3 311 
 BRR  HN ES        831 26.72                             153   -0.2810 69.3 311 
 BRR  HZ I         831 30.91         3.3 0.30            153           69.3 311 
 RUS  HZ EP        831 12.38                             147    0.0210 90.8 169 
 RUS  HN ES        831 30.76                             147    0.1910 90.8 169 
 RUS  HZ I         831 32.42         2.2 0.26            146           90.8 169 
 PTB  HZ EP        831 15.18                             134    0.00 9  136 263 
 PTB  HN ES        831 35.76                             134    0.18 9  136 263 
 PTB  HZ I         831 37.63         2.4 0.46            133            136 263 
 ZAR  HN ES        831 46.72                             123    0.46 9  200 296 
 NOR  HE ES   3    831 48.14                             120   -2.00 2  220 235 
 NOR  HZ I         831 57.67         2.5 0.14            120            220 235 
                                                                                
