 2014 1013 0219  0.1 L   6.826 -73.158149.6  RSN  9 0.4 2.0LRSN                1
 GAP=134        1.01       3.1     4.6  6.8 -0.2657E+00  0.2630E+01 -0.2843E+01E
 Epicentro: LOS SANTOS - SANTANDER                                             3
 ACTION:UPD 14-11-29 23:49 OP:nd   STATUS:               ID:20141013021900 L   I
 OLDACT:REG 14-10-13 12:43 OP:mh   STATUS:               ID:20141013021744     3
 2014-10-13-0217-44M.COL___283                                                 6
 STAT SP IPHASW D HRMM SECON CODA AMPLIT PERI AZIMU VELO AIN AR TRES W  DIS CAZ7
 BAR2 SZ EP        219 20.23                             170    0.0010 26.0 186 
 BAR2 SZ I         219 36.70        30.5 0.62            170           26.0 186 
 BRR  HZ EP        219 22.06                             154    0.5510 68.7 297 
 BRR  HN ES        219 38.88                             154    0.6610 68.7 297 
 BRR  HZ I         219 39.81        24.3 0.28            153           68.7 297 
 PAM  SZ EP   1    219 23.12                             152    0.49 7 76.1  42 
 PAM  SN ES   1    219 40.08                             152   -0.14 7 76.1  42 
 PAM  SZ I         219 42.78         9.2 0.55            153           76.1  42 
 RUS  HZ EP        219 24.38                             144   -0.0410  104 175 
 RUS  HN ES        219 43.19                             144   -0.2210  104 175 
 RUS  HZ I         219 45.07         9.8 0.40            145            104 175 
 PTB  HZ EP        219 26.80                             133   -0.50 9  147 258 
 PTB  HN ES        219 47.82                             133   -0.71 9  147 258 
 PTB  HZ I         219 54.90        12.2 0.44            133            147 258 
 OCA  HZ EP        219 28.32                             131   -0.09 9  157 353 
 OCA  HN ES        219 50.08                             131   -0.43 9  157 353 
 OCA  HZ I         219 53.53         9.3 0.18            132            157 353 
 SPBC HZ EP        219 29.17                             130    0.16 9  165 218 
 SPBC HN ES        219 51.52                             130   -0.05 9  165 218 
 SPBC HZ I         219 57.58        17.2 0.27            130            165 218 
 ZAR  HZ EP        219 33.08                             124    0.54 9  202 292 
 ZAR  HN ES        219 58.29                             124    0.42 9  202 292 
 ZAR  HZ I         220  5.24         9.1 0.52            124            202 292 
 SML  HZ EP        219 36.37                             119   -0.21 8  241 335 
 SML  HN ES        220  4.57                             119   -0.49 8  241 335 
 SML  HZ I         220 14.33        12.1 0.10            119            241 335 
                                                                                
