 2013  713 0353  2.0 L   6.143 -73.824106.4  RSN  6 0.5 1.2LRSN                1
 GAP= 98        1.42       5.8     5.6 12.2  0.4119E+00 -0.2423E+01 -0.1112E+02E
 Epicentro: LANDAZURI - SANTANDER                                              3
 ACTION:UPD 13-08-12 10:37 OP:ep   STATUS:               ID:20130713035302 L   I
 OLDACT:REG 13-07-13 08:19 OP:nd   STATUS:               ID:20130713034959     3
 2013-07-13-0349-59M.COL___266                                                 6
 STAT SP IPHASW D HRMM SECON CODA AMPLIT PERI AZIMU VELO AIN AR TRES W  DIS CAZ7
 SPBC HZ EP        353 18.52                             148    0.0210 60.9 207 
 SPBC HN ES        353 30.93                             148   -0.4310 60.9 207 
 PTB  HZ EP        353 19.14                             139   -0.8310 82.6 302 
 PTB  HN ES        353 35.02                             139    1.0410 82.6 302 
 PTB  HZ I         353 35.72         7.0 0.24            137           82.6 302 
 RUS  HZ EP        353 21.26                             138    0.3110 86.5 109 
 RUS  HN ES        353 35.69                             138   -0.0310 86.5 109 
 RUS  HZ I         353 36.58         1.4 0.24            142           86.5 109 
 BAR2 SZ EP        353 21.00                             138    0.3910 86.6  55 
 BAR2 SZ ES        353 35.23                             138    0.1210 86.6  55 
 BAR2 SZ I         353 37.18         6.8 0.24            139           86.6  55 
 BRR  HZ EP        353 22.27                             131    0.1810  107   7 
 BRR  HN ES        353 36.96                             131   -0.7810  107   7 
 BRR  HZ I         353 43.94         4.9 0.42            130            107   7 
 HEL  HZ EP   4    353 32.03                             114    1.03 0  189 272 
 HEL  HN ES   4    353 55.00                             114    1.40 0  189 272 
 HEL  HZ I         353 58.86         1.7 0.32            115            189 272 
                                                                                
