 2013  913 0136 36.3 L   6.824 -73.089152.7  RSN  9 0.5 1.9LRSN                1
 GAP=206        1.08       3.7     6.4  8.3  0.3745E+01  0.3961E+01 -0.2835E+01E
 Epicentro: LOS SANTOS - SANTANDER                                             3
 ACTION:UPD 13-10-22 09:22 OP:ep   STATUS:               ID:20130913013636 L   I
 OLDACT:REG 13-09-13 07:26 OP:carl STATUS:               ID:20130913013000     3
 2013-09-13-0130-00M.COL___268                                                 6
 STAT SP IPHASW D HRMM SECON CODA AMPLIT PERI AZIMU VELO AIN AR TRES W  DIS CAZ7
 BRR  HZ EP        136 59.06                             152    0.6310 75.7 295 
 BRR  HN ES   1    137 16.51                             152    0.81 7 75.7 295 
 BRR  HZ I         137 21.10        10.1 0.24            151           75.7 295 
 RUS  HZ EP        137  0.85                             144   -0.0310  103 180 
 RUS  HN ES        137 19.88                             144   -0.2010  103 180 
 RUS  HZ I         137 21.03         3.0 0.42            147            103 180 
 PTB  HZ EP        137  3.88                             132   -0.54 9  154 258 
 PTB  HN ES   4    137 24.97                             132   -1.39 0  154 258 
 PTB  HZ I         137 31.00        12.8 0.40            133            154 258 
 SPBC HZ EP        137  6.10                             129    0.22 9  169 220 
 SPBC HN ES        137 28.72                             129   -0.25 9  169 220 
 SPBC HZ I         137 35.15        18.2 0.30            131            169 220 
 ZAR  HZ EP   1    137  9.54                             123   -0.14 6  209 291 
 ZAR  HE ES        137 35.20                             123   -0.53 8  209 291 
 ZAR  HZ I         137 41.54        10.7 0.52            125            209 291 
 NOR  HZ EP   1    137 12.62                             119   -0.50 6  241 235 
 NOR  HE ES        137 42.05                             119    0.19 8  241 235 
 NOR  HZ I         137 44.69         8.7 0.18            121            241 235 
 SML  HZ EP        137 13.61                             119    0.27 8  244 334 
 SML  HE ES        137 41.57                             119   -0.67 8  244 334 
 CHI  HZ EP        137 14.81                             118   -0.01 8  253 196 
 CHI  HN ES   1    137 43.92                             118   -0.97 6  253 196 
 CHI  HZ I         137 52.18         2.6 0.28            121            253 196 
 GUY2CHZ EP        137 21.89                             113    0.93 7  308 235 
 GUY2CHE ES        137 56.32                             113    0.51 7  308 235 
 GUY2CHZ I         138  3.84         5.9 0.76                           308 235 
                                                                                
