 2017  413 0144 59.8 L   6.792 -73.167139.5  RSN  8 0.4 1.7LRSN                1
 GAP=134        1.12       4.0     4.6  6.9  0.3115E+00  0.7285E+01  0.3648E+01E
 Epicentro: LOS SANTOS - SANTANDER                                             3
 ACTION:UPD 17-05-30 21:11 OP:jn   STATUS:               ID:20170413014459 L   I
 OLDACT:REG 17-04-13 12:33 OP:cog  STATUS:               ID:20170413013746     3
 2017-04-13-0138-00M.COL___368                                                 6
 STAT SP IPHASW D HRMM SECON CODA AMPLIT PERI AZIMU VELO AIN AR TRES W  DIS CAZ7
 BAR2 EZ EP        145 18.45                             171   -0.2410 22.1 184 
 BAR2 EZ ES        145 33.42                             171    0.0310 22.1 184 
 BAR2 EZ I         145 34.50        17.3 0.30            170           22.1 184 
 BRR  HZ EP        145 20.26                             152    0.0410 69.6 300 
 BRR  HN ES        145 36.54                             152    0.4310 69.6 300 
 BRR  HZ I         145 41.10        11.8 0.30            151           69.6 300 
 PAM  EZ EP        145 21.38                             149   -0.1510 79.6  40 
 PAM  EN ES        145 38.28                             149   -0.1710 79.6  40 
 PAM  EZ I         145 40.63        16.0 0.54            153           79.6  40 
 RUS  HZ EP        145 22.64                             143   -0.2810 99.8 175 
 RUS  HN ES        145 41.28                             143    0.3510 99.8 175 
 RUS  HZ I         145 42.16         3.3 0.30            145           99.8 175 
 PTB  HZ EP        145 25.90                             131   -0.17 9  145 259 
 PTB  HE ES        145 45.66                             131   -0.87 9  145 259 
 PTB  HZ I         145 53.39         6.2 0.44            132            145 259 
 SPBC HE ES        145 49.81                             128    0.47 9  161 219 
 ZAR  HZ EP        145 32.92                             121    1.23 9  202 293 
 ZAR  HN ES        145 56.21                             121   -0.32 9  202 293 
 CHI  HZ EP        145 36.90                             116   -0.13 8  247 195 
 CHI  HN ES        146  5.89                             116   -0.15 8  247 195 
 CHI  HZ I         146  9.45         3.0 0.48            118            247 195 
                                                                                
