 2016 1013 0415 24.1 L   6.792 -73.093146.0  RSN  7 0.4 1.4LRSN                1
 GAP=144        0.97       4.2     4.5  7.1 -0.2006E+01  0.9072E+01 -0.2080E+00E
 Epicentro: LOS SANTOS - SANTANDER                                             3
 ACTION:UPD 16-11-09 19:19 OP:rebc STATUS:               ID:20161013041524 L   I
 OLDACT:REG 16-10-13 12:42 OP:y    STATUS:               ID:20161013040744     3
 2016-10-13-0408-00M.COL___363                                                 6
 STAT SP IPHASW D HRMM SECON CODA AMPLIT PERI AZIMU VELO AIN AR TRES W  DIS CAZ7
 BAR2 EZ EP   2    415 43.90                             170    0.10 5 24.2 204 
 BAR2 EZ ES   2    415 59.02                             170   -0.13 5 24.2 204 
 PAM  EZ EP        415 46.87                             152    0.6710 74.5  36 
 PAM  HN ES        416  2.89                             152   -0.5210 74.5  36 
 PAM  EZ I         416  5.99         2.6 0.48            156           74.5  36 
 BRR  HZ EP        415 45.92                             151    0.3010 76.8 297 
 BRR  HN ES        416  2.71                             151    0.3210 76.8 297 
 BRR  HZ I         416  6.84         5.6 0.10            150           76.8 297 
 RUS  HZ EP   2    415 47.91                             144    0.09 5 99.5 179 
 RUS  HN ES        416  6.08                             144   -0.2210 99.5 179 
 RUS  HZ I         416  7.13         2.8 0.52            147           99.5 179 
 PTB  HZ EP        415 50.78                             131   -0.84 9  153 260 
 PTB  HN ES        416 13.30                             131    0.23 9  153 260 
 PTB  HZ I         416 16.74         2.7 0.14            132            153 260 
 SPBC HZ EP        415 53.13                             128    0.19 9  166 221 
 SPBC HN ES        416 15.56                             128    0.15 9  166 221 
 SPBC HZ I         416 22.01         4.0 0.42            131            166 221 
 ZAR  HZ EP        415 56.90                             122   -0.28 8  210 292 
 ZAR  HN ES        416 22.77                             122   -0.19 8  210 292 
 ZAR  HZ I         416 27.99         3.5 0.36            123            210 292 
                                                                                
