 2011  313 0443 43.0 L   6.805 -73.143142.0  RSN  5 0.3 1.5LRSN                1
 GAP=159        0.69       3.2    15.4  9.0 -0.2141E+02  0.3974E+02 -0.5774E+01E
 Epicentro: LOS SANTOS - SANTANDER                                             3
 ACTION:UP  11-06-16 14:33 OP:jfem STATUS:               ID:20110313044343 L   I
 2011-03-13-0440-48S.COL___134                                                 6
 STAT SP IPHASW D HRMM SECON CODA AMPLIT PERI AZIMU VELO SNR AR TRES W  DIS CAZ7
 BAR2 SZ EP   1    444  1.80                             170    -0.3 7   24 191 
 BAR2 SZ ES   2    444 17.01                             170    -0.1 5   24 191 
 RUS  HZ EP   1    444  5.99                             143    -0.4 7  101 176 
 RUS  HN ES   1    444 24.83                             143     0.2 7  101 176 
 RUS  HZ I         444 25.86         4.9 0.23                           101 176 
 GRA  SZ EP   1    444  7.72                             136    -0.1 7  125  17 
 GRA  SZ ES   1    444 27.54                             136     0.3 7  125  17 
 GRA  SZ I         444 30.41         4.8 0.40                           125  17 
 OCA  SZ EP   1    444 11.29                             129     0.4 7  160 353 
 OCA  SZ ES   1    444 32.54                             129    -0.2 7  160 353 
 OCA  SZ I         444 38.82         4.8 0.24                           160 353 
 CHI  HN ES   1    444 50.23                             116     0.4 6  249 195 
 CHI  HZ I         444 52.60         2.3 0.39                           249 195 
                                                                                
