 2015  813 0316 23.1 L   6.794 -73.101145.1  RSN  6 0.5 1.9LRSN                1
 GAP=187        1.13       3.8     7.5  8.9  0.5021E+01 -0.3428E+01 -0.8034E+01E
 Epicentro: LOS SANTOS - SANTANDER                                             3
 ACTION:UPD 15-09-15 23:01 OP:cam  STATUS:               ID:20150813031623 L   I
 OLDACT:DUP 15-08-13 14:23 OP:mh   STATUS:               ID:20150813030748d    3
 2015-08-13-0307-47M.COL___337                                                 6
 STAT SP IPHASW D HRMM SECON CODA AMPLIT PERI AZIMU VELO AIN AR TRES W  DIS CAZ7
 BRR  HZ EP        316 44.48                             151   -0.0110 75.9 297 
 BRR  HN ES        317  1.95                             151    0.8110 75.9 297 
 BRR  HZ I         317  4.96         7.4 0.44            152           75.9 297 
 RUS  HZ EP        316 47.02                             144    0.2610 99.7 179 
 RUS  HN ES        317  5.19                             144    0.0010 99.7 179 
 RUS  HZ I         317  6.12         5.2 0.20            148           99.7 179 
 OCA  HZ EP        316 51.47                             129   -0.05 9  162 351 
 OCA  HN ES        317 12.91                             129   -0.76 9  162 351 
 OCA  HZ I         317 17.94        14.9 0.18            132            162 351 
 SPBC HZ EP        316 51.64                             128   -0.20 9  166 220 
 SPBC HN ES        317 13.55                             128   -0.67 9  166 220 
 SPBC HZ I         317 17.30        12.8 0.38            132            166 220 
 ZAR  HZ EP        316 56.79                             122    0.75 8  209 292 
 ZAR  HN ES        317 21.43                             122   -0.28 8  209 292 
 ZAR  HZ I    1    317 24.35         6.0 0.28            124            209 292 
 SML  HZ EP        317  0.24                             117    0.22 8  246 334 
 SML  HN ES        317 28.57                             117   -0.22 8  246 334 
 SML  HZ I         317 30.42        10.3 0.10            119            246 334 
 SJC  HZ EP   4    317 17.49                             105   -1.57 0  412 326 
 SJC  HN ES   4    317 57.34                             105   -5.35 0  412 326 
                                                                                
