 2012  813 0632 23.5 L   6.819 -73.128145.7  RSN  9 0.4 2.0LRSN                1
 GAP= 71        0.78       3.2     3.5  5.2  0.9535E+00  0.2264E+01 -0.3989E+00E
 Epicentro: LOS SANTOS - SANTANDER                                             3
 ACTION:UPD 12-09-10 11:56 OP:ep   STATUS:               ID:20120813063223 L   I
 2012-08-13-0630-00M.COL___217                                                 6
 STAT SP IPHASW D HRMM SECON CODA AMPLIT PERI AZIMU VELO AIN AR TRES W  DIS CAZ7
 BAR2 SZ EP   1    632 42.98                             169   -0.24 7 25.8 193 
 BAR2 SZ ES   1    632 57.69                             169   -0.88 7 25.8 193 
 BAR2 SZ I         632 59.18        24.1 0.13                          25.8 193 
 GIR2 SZ EP   1    632 43.00                             168   -0.16 7 29.6 346 
 GIR2 SZ ES   1    632 58.66                             168    0.19 7 29.6 346 
 BRR  HZ EP   1    632 44.92                             152    0.19 7 71.9 296 
 BRR  HN ES        633  1.63                             152    0.3810 71.9 296 
 BRR  HZ I         633  2.54        23.9 0.10                          71.9 296 
 PAM  SZ EP   1    632 45.98                             152    0.40 7 74.5  39 
 PAM  SZ I         632 46.17        20.3 0.21                          74.5  39 
 PAM  SN ES        633  2.95                             152    0.1710 74.5  39 
 RUS  HZ EP   1    632 47.44                             143    0.01 7  103 177 
 RUS  HE ES        633  6.15                             143    0.0810  103 177 
 RUS  HZ I         633  7.12         6.3 0.23                           103 177 
 PTB  HZ EP   1    632 50.01                             132   -0.70 7  150 258 
 PTB  HN ES   1    633 12.32                             132    0.41 7  150 258 
 TAM  HZ EP   1    632 51.39                             131    0.30 7  154 106 
 TAM  HZ I         632 51.90        10.9 0.11                           154 106 
 OCA  HZ EP   1    632 51.44                             130   -0.23 7  158 352 
 OCA  HN ES        633 13.26                             130   -0.36 9  158 352 
 OCA  HZ I         633 18.03        18.2 0.31                           158 352 
 ZAR  HZ EP   1    632 56.46                             122    0.37 6  205 291 
 ZAR  HN ES        633 21.34                             122   -0.13 9  205 291 
 ZAR  HZ I         633 27.70         8.7 0.37                           205 291 
                                                                                
