 2011  513 0347 46.1 L   6.866 -73.159137.5  RSN  8 0.2 1.6LRSN                1
 GAP=131        0.54       2.9     5.2  4.5 -0.4995E+01  0.2582E+01 -0.2388E+01E
 Epicentro: LOS SANTOS - SANTANDER                                             3
 ACTION:UP  11-06-29 08:52 OP:tino STATUS:               ID:20110513034746 L   I
 2011-05-13-0346-39S.COL___141                                                 6
 STAT SP IPHASW D HRMM SECON CODA AMPLIT PERI AZIMU VELO SNR AR TRES W  DIS CAZ7
 BTL  SZ EP        348  4.66                             174     0.110   13 296 
 BTL  SZ ES   3    348 19.18                             174     0.2 2   13 296 
 BAR2 SZ EP        348  5.05                             167     0.210   30 185 
 BAR2 SZ ES   1    348 19.58                             167     0.0 7   30 185 
 BAR2 SZ I         348 20.47        10.8 0.34                            30 185 
 BRR  HZ EP        348  6.24                             153     0.210   67 294 
 BRR  HZ I         348  6.42        14.5 0.14                            67 294 
 BRR  HN ES   2    348 21.59                             153    -0.1 5   67 294 
 PAM  SZ EP        348  7.28                             151     0.110   73  44 
 PAM  SN ES   1    348 23.69                             151     0.1 7   73  44 
 BRI  SZ EP        348  8.84                             141     0.110  102  23 
 RUS  HZ EP        348  9.44                             140    -0.210  108 176 
 RUS  HN ES   2    348 27.40                             140    -0.5 5  108 176 
 RUS  HZ I         348 29.73         2.5 0.54                           108 176 
 GRA  SZ EP        348 10.08                             137     0.010  119  19 
 GRA  SZ I         348 11.35         5.9 0.21                           119  19 
 GRA  SZ ES   1    348 28.42                             137    -0.3 7  119  19 
 OCA  SZ EP        348 12.70                             129    -0.4 9  153 353 
 OCA  SZ I         348 38.54         8.6 0.19                           153 353 
                                                                                
