 2013 1013 0218  5.9 L   6.650 -73.258146.6  RSN  4 0.3 1.3LRSN                1
 GAP=212        0.61       5.2     5.4  7.1  0.1669E+02  0.3370E+01  0.8202E+00E
 Epicentro: GALAN - SANTANDER                                                  3
 ACTION:UPD 13-11-25 09:21 OP:ep   STATUS:               ID:20131013021805 L   I
 OLDACT:UP  13-10-13 10:10 OP:mh   STATUS:               ID:20131013021636     3
 OLDACT:REG 13-10-13 09:57 OP:mh   STATUS:               ID:20131013021636     3
 2013-10-13-0216-36M.COL___233                                                 6
 STAT SP IPHASW D HRMM SECON CODA AMPLIT PERI AZIMU VELO AIN AR TRES W  DIS CAZ7
 BRR  HZ EP   1    218 26.69                             153   -0.45 7 71.2 315 
 BRR  HN ES        218 43.82                             153    0.1110 71.2 315 
 BRR  HZ I         218 53.15         2.6 0.24            150           71.2 315 
 RUS  HZ EP   1    218 29.24                             148    0.50 7 86.0 167 
 RUS  HN ES        218 46.44                             148   -0.1110 86.0 167 
 RUS  HZ I         218 48.00         3.8 0.36            160           86.0 167 
 PTB  HZ EP   1    218 31.51                             135   -0.13 7  133 265 
 PTB  HN ES        218 51.68                             135   -0.0410  133 265 
 PTB  HZ I         218 52.83         2.3 0.17            142            133 265 
 ZAR  HN ES   2    219  3.40                             123    0.43 4  200 298 
 ZAR  HZ I         219  8.94         3.3 0.09            127            200 298 
                                                                                
