 2012  213 0243 16.6 L   6.759 -73.140147.5  RSN  5 0.3 1.4LRSN                1
 GAP=139        0.46       5.2     5.2  7.3  0.1189E+01  0.9614E+01  0.6067E+01E
 ACTION:UP  12-03-07 16:30 OP:epov STATUS:               ID:20120213024316 L   I
 2012-02-13-0240-00M.COL___188                                                 6
 STAT SP IPHASW D HRMM SECON CODA AMPLIT PERI AZIMU VELO AIN AR TRES W  DIS CAZ7
 BAR2 SZ EP   2    243 36.36                             172   -0.01 5 19.1 194 
 BAR2 SZ ES   2    243 51.22                             172   -0.56 5 19.1 194 
 BAR2 SZ I         243 54.70         4.3 0.46                          19.1 194 
 BRR  HZ EP   2    243 38.33                             152    0.22 5 74.0 301 
 BRR  HZ I         243 38.45         5.0 0.15                          74.0 301 
 BRR  HN ES   2    243 55.28                             152    0.41 5 74.0 301 
 PAM  SN ES   2    243 56.76                             150   -0.05 5 80.5  37 
 RUS  HZ EP   2    243 40.32                             145    0.10 5 96.1 176 
 RUS  HE ES   2    243 58.95                             145    0.32 5 96.1 176 
 RUS  HZ I         243 59.25         6.2 0.53                          96.1 176 
 PTB  HZ EP   2    243 43.29                             132   -0.42 5  148 261 
 PTB  HE ES   2    244  4.77                             132   -0.07 5  148 261 
                                                                                
