 2016  113 0255 34.5 L   6.826 -73.170145.2  RSN 30 0.6 2.7LRSN                1
 GAP= 69        1.29       2.7     3.3  5.4 -0.9763E+00  0.3958E+01 -0.8804E+00E
 Epicentro: LOS SANTOS - SANTANDER                                             3
 ACTION:UPD 16-03-09 23:24 OP:cam  STATUS:               ID:20160113025534 L   I
 OLDACT:UP  16-02-23 20:51 OP:AR   STATUS:               ID:20160113025534 L   3
 OLDACT:UP  16-01-13 12:43 OP:drio STATUS:               ID:20160113024747     3
 OLDACT:UP  16-01-13 12:42 OP:drio STATUS:               ID:20160113024747     3
 OLDACT:UP  16-01-13 12:42 OP:drio STATUS:               ID:20160113024747     3
 OLDACT:UP  16-01-13 12:41 OP:drio STATUS:               ID:20160113024747     3
 OLDACT:UP  16-01-13 12:34 OP:drio STATUS:               ID:20160113024747     3
 OLDACT:REG 16-01-13 11:59 OP:drio STATUS:               ID:20160113024747     3
 2016-01-13-0247-47M.COL___328                                                 6
 STAT SP IPHASW D HRMM SECON CODA AMPLIT PERI AZIMU VELO AIN AR TRES W  DIS CAZ7
 BAR2 EZ IP     C  255 54.23                             169    0.1110 25.9 183 
 BAR2 EZ ES        256  8.59                             169   -0.8310 25.9 183 
 BAR2 EZ I         256 10.05        92.8 0.18            169           25.9 183 
 BRR  HZ EP        255 56.14                             154    0.7610 67.5 297 
 BRR  HE ES        256 13.16                             154    1.4910 67.5 297 
 BRR  HZ I         256 17.27       109.1 0.34            151           67.5 297 
 PAM  EZ IP     D  255 57.27                             151    0.6410 76.9  42 
 PAM  EN ES        256 13.84                             151   -0.0510 76.9  42 
 PAM  EZ I         256 16.08       133.1 0.54            153           76.9  42 
 RUS  HZ EP        255 58.26                             143   -0.1710  104 175 
 RUS  HN ES        256 16.83                             143   -0.2510  104 175 
 RUS  HZ I         256 18.37        74.9 0.40            144            104 175 
 PTB  HZ EP        256  0.93                             132   -0.31 9  146 258 
 PTB  HN ES        256 21.49                             132   -0.61 9  146 258 
 PTB  HZ I         256 25.18        72.9 0.38            131            146 258 
 OCA  HZ EP        256  2.54                             130    0.07 9  157 354 
 OCA  HN ES        256 24.14                             130   -0.14 9  157 354 
 OCA  HZ I         256 29.72       164.9 0.24            130            157 354 
 TAM  HZ IP     C  256  2.62                             130    0.17 9  158 106 
 TAM  HN ES        256 24.02                             130   -0.22 9  158 106 
 TAM  HZ I         256 24.57        23.8 0.24            132            158 106 
 SPBC HZ EP        256  3.17                             129    0.15 9  164 218 
 SPBC HE ES        256 25.45                             129    0.19 9  164 218 
 SPBC HZ I         256 28.36        78.6 0.20            128            164 218 
 ZAR  HZ EP        256  7.36                             123    0.81 9  200 292 
 ZAR  HN ES   4    256 33.13                             123    1.59 0  200 292 
 ZAR  HZ I         256 40.28        54.2 0.52            122            200 292 
 NOR  HZ EP        256 10.70                             118    0.55 8  234 233 
 NOR  HN ES        256 37.31                             118   -0.65 8  234 233 
 NOR  HZ I         256 45.55        41.7 0.24            118            234 233 
 SML  HZ EP        256 10.52                             118   -0.17 8  240 336 
 SML  HN ES        256 38.89                             118   -0.02 8  240 336 
 SML  HZ I         256 44.95        94.2 0.10            118            240 336 
 CHI  HZ EP        256 12.55                             117    0.15 8  251 194 
 CHI  HN ES        256 41.16                             117   -0.80 8  251 194 
 CHI  HZ I         256 44.85        23.7 0.52            117            251 194 
 ROSC BZ EP   9    256 14.49                             116    1.77 0  254 210 
 ROSC BN ES        256 43.98                             116   -0.32 8  254 210 
 ROSC BZ I         256 53.37        30.2 0.50            116            254 210 
 HEL  HZ EP   4    256 15.76                             115    1.28 0  270 255 
 HEL  HN ES        256 45.11                             115   -0.56 8  270 255 
 HEL  HZ I         256 51.32        28.0 0.32            114            270 255 
 URE  HZ EP        256 14.66                             114   -0.49 7  280 292 
 URE  HE ES        256 46.18                             114   -0.67 7  280 292 
 URE  HZ I         256 49.03        33.4 0.12            113            280 292 
 GUY2CHZ EP   4    256 19.03                             112    1.00 0  301 234 
 GUY2CHE ES   4    256 50.45                             112   -1.54 0  301 234 
 GUY2CHZ I         256 59.26        21.2 0.28                           301 234 
 SOCV BZ EP   4    256 16.30                             112   -1.30 0  302  58 
 SOCV BN ES   4    256 47.35                             112   -3.86 0  302  58 
 VIL  SZ EP        256 18.79                             112    0.63 7  306 191 
 VIL  SN ES        256 51.80                             112   -0.41 7  306 191 
 PTGC HZ EP   4    256 17.57                             111   -1.18 0  312 158 
 PTGC HN ES   4    256 50.34                             111   -2.93 0  312 158 
 PTGC HZ I         256 53.04        36.6 0.34            112            312 158 
 LL6C HZ EP        256 19.17                             110   -0.66 7  322 358 
 LL6C HE ES        256 54.36                             110   -0.83 7  322 358 
 LL6C HZ I         257  7.70         9.9 0.66            111            322 358 
 ELA  HZ EP   4    256 23.21                             110    1.89 0  329 229 
 ELA  HE ES   4    256 59.44                             110    1.61 0  329 229 
 ELA  HZ I         257 14.54        19.0 0.54            110            329 229 
 CBOC HZ EP   4    256 22.40                             110    1.19 0  332 251 
 CBOC HN ES        256 57.42                             110   -0.22 7  332 251 
 CBOC HZ I         257  0.96         8.4 0.40            110            332 251 
 DBB  SZ EP        256 22.46                             109    0.83 7  337 274 
 DBB  SZ ES   4    256 56.55                             109   -1.83 0  337 274 
 DBB  SZ I         257  0.56        66.6 0.42            109            337 274 
 MON  HZ EP   4    256 21.96                             109   -1.07 0  350 308 
 MON  HE ES        257  0.90                             109    0.02 6  350 308 
 MON  HZ I         257  1.54        12.3 0.20            108            350 308 
 ANIL HZ EP   4    256 26.55                             108    2.24 0  358 224 
 ANIL HE ES        257  3.67                             108    0.51 6  358 224 
 ANIL HZ I         257 13.45        43.4 0.42            108            358 224 
 SDV  BZ EP        256 24.05                             108   -0.49 6  361  51 
 SDV  BE ES   4    257  1.22                             108   -2.35 0  361  51 
 SDV  BZ I         257  6.02        16.7 0.75            109            361  51 
 ORTC HZ EP        256 29.29                             106    0.79 6  396 216 
 ORTC HE ES   4    257 13.24                             106    2.63 0  396 216 
 ORTC HZ I         257 17.22        12.9 0.46            106            396 216 
 SJC  HZ EP        256 28.63                             106   -0.96 6  405 327 
 SJC  HN ES   4    257 10.40                             106   -2.15 0  405 327 
 SJC  HZ I         257 14.03        21.4 0.50            106            405 327 
 PAL  HZ EP        256 30.24                             106    0.68 6  405 239 
 PAL  HN ES   4    257  9.55                             106   -2.94 0  405 239 
 PAL  HZ I         257 19.08        13.9 0.28            106            405 239 
 CRJC HZ EP   4    256 35.02                             103   -1.64 0  465   4 
 CRJC HE ES   4    257 21.97                             103   -3.17 0  465   4 
 CRJC HZ I         257 31.44        17.5 0.20            104            465   4 
 MACC HZ EP   4    256 41.35                             101   -2.15 0  523 188 
 MACC HE ES   4    257 33.36                             101   -3.95 0  523 188 
 MACC HZ I         257 39.88         5.3 0.32            102            523 188 
 URI  HZ EP   4    256 44.95                             100   -2.28 0  554  13 
                                                                                
