 2010 1013 0255 22.7 L   6.828 -73.154142.8  RSN 18 0.5 3.9LRSN                1
 GAP=103        1.13       3.4     5.3  6.9 -0.5588E+01  0.3237E+01  0.6985E+01E
 Epicentro: LOS SANTOS - SANTANDER                                             3
 ACTION:UP  11-02-18 11:09 OP:tino STATUS:               ID:20101013025522 L   I
 2010-10-13-0253-48S.COL___124                                                 6
 STAT SP IPHASW D HRMM SECON CODA AMPLIT PERI AZIMU VELO SNR AR TRES W  DIS CAZ7
 BTL  SZ IP        255 42.17                             173     0.410   16 308 
 BAR2 SZ IP        255 42.01                             169     0.010   26 187 
 BAR2 SZ I         255 42.56      1378.1 0.23                            26 187 
 BAR2 SZ ES   1    255 56.03                             169    -1.1 7   26 187 
 URB  SZ EP        255 43.30                             160     0.810   49 336 
 BRR  HZ IP     C  255 43.75                             153     0.410   69 297 
 BRR  HZ I         255 44.07      1444.4 0.24                            69 297 
 BRR  HN ES   1    256  0.11                             153     0.6 7   69 297 
 GUE  SZ EP        255 46.88                             139     0.010  114  13 
 GRA  SZ IP        255 47.67                             137     0.310  123  18 
 GRA  SZ I         255 48.87       963.9 0.28                           123  18 
 GRA  SZ ES   1    256  6.70                             137     0.0 7  123  18 
 OCA  SZ EP        255 50.21                             130    -0.2 9  157 353 
 OCA  SZ ES        256 11.51                             130    -0.6 9  157 353 
 OCA  SZ I         256 17.71      2128.2 0.24                           157 353 
 YOP  SZ IP     C  255 52.90                             125     0.1 9  182 154 
 YOP  SN ES   1    256 16.40                             125     0.1 7  182 154 
 NOR  SZ IP     C  255 57.96                             118    -0.4 8  236 234 
 NOR  SN ES   1    256 25.71                             118    -0.5 6  236 234 
 CHI  HZ EP        256  0.12                             116    -0.4 8  251 195 
 CHI  HN ES   1    256 29.85                             116    -0.2 6  251 195 
 CHI  HZ I         256 37.77       278.0 0.32                           251 195 
 ROSC BZ IP     C  256  1.80                             116     0.9 8  255 210 
 ROSC BN ES   1    256 30.44                             116    -0.2 6  255 210 
 ROSC BZ I         256 38.12       631.0 0.62                           255 210 
 HEL  HZ EP   1    256  2.79                             114     0.1 6  272 255 
 HEL  HE ES   2    256 33.15                             114    -0.8 4  272 255 
 HEL  HZ I         256 40.45       707.5 0.23                           272 255 
 CVER SZ EP   1    256  3.65                             114     0.5 6  275 202 
 CVER SZ I         256  5.44       650.8 0.48                           275 202 
 RREF HZ EP        256  8.68                             110    -0.2 7  323 229 
 RREF HE ES   2    256 44.73                             110    -0.1 3  323 229 
 RREF HZ I         256 54.67       603.6 0.15                           323 229 
 DBB  SZ EP        256  9.62                             109    -0.3 7  338 274 
 TOL  SZ EP        256 10.98                             109     0.0 7  345 224 
 SDV  BZ EP        256 11.48                             108    -1.0 6  359  51 
 SDV  BZ I         256 51.12       205.9 0.31                           359  51 
 PRA  HZ EP   1    256 15.56                             106    -0.8 4  394 209 
 PRA  HN ES   1    256 58.40                             106     0.2 4  394 209 
                                                                                
