 2016  713 0315  5.4 L   6.827 -73.104147.6  RSN 13 0.5 1.9LRSN                1
 GAP=122        1.27       4.5     4.4  6.7 -0.3787E+01  0.7279E+00 -0.6211E+00E
 Epicentro: LOS SANTOS - SANTANDER                                             3
 ACTION:UPD 17-03-29 16:50 OP:lp   STATUS:               ID:20160713031505 L   I
 OLDACT:UP  16-07-13 15:33 OP:dani STATUS:               ID:20160713030759     3
 OLDACT:UP  16-07-13 15:33 OP:dani STATUS:               ID:20160713030759     3
 OLDACT:REG 16-07-13 12:37 OP:dani STATUS:               ID:20160713030759     3
 2016-07-13-0307-59S.COL___331                                                 6
 STAT SP IPHASW D HRMM SECON CODA AMPLIT PERI AZIMU VELO AIN AR TRES W  DIS CAZ7
 BAR2 EZ EP        315 25.49                             169    0.2010 27.4 198 
 BAR2 EZ ES        315 40.69                             169   -0.1610 27.4 198 
 BAR2 EZ I         315 41.81        20.7 0.14            166           27.4 198 
 BRR  HZ EP     D  315 27.38                             152    0.5210 74.0 295 
 BRR  HN ES        315 44.62                             152    0.9910 74.0 295 
 BRR  HZ I         315 46.38        11.5 0.32            148           74.0 295 
 RUS  HZ EP        315 29.46                             144   -0.0310  103 179 
 RUS  HN ES        315 48.25                             144   -0.0610  103 179 
 RUS  HZ I         315 51.47         6.2 0.26            143            103 179 
 PTB  HZ EP        315 32.14                             132   -0.80 9  153 258 
 PTB  HN ES        315 53.49                             132   -0.97 9  153 258 
 PTB  HZ I         315 59.46        10.6 0.21            129            153 258 
 SPBC HZ EP        315 34.58                             129    0.08 9  168 220 
 SPBC HN ES        315 56.79                             129   -0.44 9  168 220 
 SPBC HZ I         315 57.86        14.2 0.16            127            168 220 
 ZAR  HZ EP        315 37.39                             122   -0.86 8  207 291 
 ZAR  HE ES        316  4.26                             122    0.35 8  207 291 
 ZAR  HZ I         316  9.64        15.5 0.52            121            207 291 
 NOR  HZ EP        315 41.51                             118   -0.28 8  240 235 
 NOR  HE ES        316  9.73                             118   -0.47 8  240 235 
 NOR  HZ I         316 17.93         6.4 0.18            117            240 235 
 CHI  HN ES        316 13.84                             117    0.40 8  253 196 
 CHI  HZ I         316 16.42         1.6 0.34            117            253 196 
 HEL  HZ EP   4    315 47.68                             115    1.44 0  277 255 
 HEL  HN ES   4    316 20.80                             115    2.67 0  277 255 
 HEL  HZ I         316 25.40         5.3 0.48            114            277 255 
 SOCV BZ EP        315 48.28                             113    0.42 7  296  57 
 SOCV BN ES        316 20.56                             113   -0.46 7  296  57 
 GUY2CHZ EP   4    315 50.78                             112    1.11 0  307 235 
 GUY2CHN ES   4    316 28.73                             112    4.49 0  307 235 
 GUY2CHZ I         316 32.09         5.5 0.44                           307 235 
 CBOC HZ EP        315 53.63                             110    0.67 7  339 252 
 CBOC HN ES        316 30.61                             110    0.52 7  339 252 
 CBOC HZ I         316 42.29         1.5 0.48            109            339 252 
 PRA  HZ EP        316  0.15                             107    0.63 6  397 210 
 PRA  HE ES        316 42.48                             107    0.72 6  397 210 
 PRA  HZ I         316 46.36         2.9 0.44            106            397 210 
 SJC  HE ES   4    316 40.06                             106   -4.31 0  409 326 
                                                                                
