 2016  113 0628 13.5 L   6.802 -73.150142.2  RSN 19 0.5 2.0LRSN                1
 GAP=136        1.25       3.0     4.3  6.1 -0.2033E+01  0.7869E+01  0.2463E+01E
 Epicentro: LOS SANTOS - SANTANDER                                             3
 ACTION:UPD 16-03-09 23:24 OP:cam  STATUS:               ID:20160113062813 L   I
 OLDACT:UP  16-01-13 14:55 OP:drio STATUS:               ID:20160113061750     3
 OLDACT:UP  16-01-13 14:55 OP:drio STATUS:               ID:20160113061750     3
 OLDACT:REG 16-01-13 12:08 OP:drio STATUS:               ID:20160113061750     3
 2016-01-13-0617-50M.COL___328                                                 6
 STAT SP IPHASW D HRMM SECON CODA AMPLIT PERI AZIMU VELO AIN AR TRES W  DIS CAZ7
 BAR2 EZ EP        628 32.86                             170    0.1810 23.5 189 
 BAR2 EZ ES        628 47.04                             170   -0.6210 23.5 189 
 BAR2 EZ I         628 48.59        15.0 0.20            170           23.5 189 
 BRR  HZ EP     D  628 34.72                             152    0.5110 70.7 299 
 BRR  HE ES        628 51.70                             152    1.3210 70.7 299 
 BRR  HZ I         628 55.99        24.6 0.10            147           70.7 299 
 PAM  EZ EP        628 35.76                             150    0.4410 77.5  40 
 PAM  EN ES        628 52.62                             150    0.2710 77.5  40 
 PAM  EZ I         628 55.00        28.6 0.52            151           77.5  40 
 RUS  HZ EP        628 37.08                             143    0.1810  101 176 
 RUS  HE ES        628 54.82                             143   -0.3510  101 176 
 RUS  HZ I         628 56.49         6.6 0.30            145            101 176 
 PTB  HZ EP        628 39.78                             131   -0.34 9  147 259 
 PTB  HN ES        629  0.56                             131   -0.34 9  147 259 
 PTB  HZ I         629  2.57        16.1 0.30            129            147 259 
 OCA  HZ EP        628 41.14                             129   -0.35 9  160 353 
 OCA  HE ES        629  2.69                             129   -0.64 9  160 353 
 OCA  HZ I         629  7.63        34.0 0.48            127            160 353 
 SPBC HZ EP        628 41.86                             128    0.16 9  163 219 
 SPBC HN ES        629  3.09                             128   -0.62 9  163 219 
 SPBC HZ I         629  7.55         9.5 0.10            128            163 219 
 ZAR  HZ EP   4    628 46.73                             122    1.09 0  204 292 
 ZAR  HE ES        629 11.36                             122    0.64 9  204 292 
 ZAR  HZ I         629 17.35        14.3 0.32            120            204 292 
 NOR  HZ EP        628 49.46                             118    0.48 8  234 234 
 NOR  HN ES        629 16.02                             118   -0.65 8  234 234 
 NOR  HZ I         629 22.16         8.0 0.20            117            234 234 
 SML  HZ EP        628 49.25                             117   -0.61 8  243 335 
 SML  HE ES        629 17.31                             117   -0.93 8  243 335 
 SML  HZ I         629 27.90        15.1 0.26            116            243 335 
 CHI  HZ EP        628 51.29                             116    0.29 8  249 195 
 CHI  HN ES        629 20.39                             116    0.13 8  249 195 
 CHI  HZ I         629 24.44         2.5 0.28            117            249 195 
 HEL  HZ EP   4    628 54.55                             114    1.08 0  272 256 
 HEL  HN ES   4    629 23.58                             114   -1.08 0  272 256 
 HEL  HZ I         629 31.93         4.7 0.36            113            272 256 
 GUY2CHZ EP   4    628 57.87                             112    0.97 0  301 235 
 GUY2CHE ES        629 30.47                             112   -0.30 7  301 235 
 GUY2CHZ I         629 38.12         4.7 0.30                           301 235 
 LL6C HZ EP   9    628 57.74                             110   -1.26 0  325 358 
 LL6C HE ES        629 33.26                             110    0.02 7  325 358 
 CBOC HZ EP        629  0.67                             109    0.46 7  333 252 
 CBOC HE ES        629 37.20                             109    0.54 7  333 252 
 CBOC HZ I         629 40.45         1.7 0.22            109            333 252 
 DBB  SZ EP   4    629  1.75                             109    0.99 0  339 274 
 DBB  SZ ES        629 37.46                             109   -0.18 7  339 274 
 PRA  HZ EP        629  6.39                             106   -0.49 6  392 209 
 PRA  HE ES        629 47.83                             106   -0.70 6  392 209 
 PRA  HZ I         629 55.68         3.7 0.30            106            392 209 
 ORTC HZ EP        629  7.74                             106    0.46 6  395 216 
 ORTC HN ES        629 50.09                             106    0.86 6  395 216 
 ORTC HZ I         629 57.66         2.7 0.46            106            395 216 
 SJC  HZ EP   4    629  7.28                             105   -1.59 0  409 327 
 SJC  HN ES   4    629 49.18                             105   -2.90 0  409 327 
 SJC  HZ I         630 11.48         2.0 0.44            105            409 327 
                                                                                
