 2010 1113 0017 11.3 L   6.765 -72.943120.2  RSN  4 0.1 1.7LRSN                1
 GAP=255        0.45       4.0     4.2  7.0  0.6287E+01  0.4342E+01  0.1468E+02E
 Epicentro: CEPITA - SANTANDER                                                 3
 ACTION:UP  10-12-17 16:52 OP:REBC STATUS:               ID:20101113001711 L   I
 2010-11-13-0013-58S.COL___128                                                 6
 STAT SP IPHASW D HRMM SECON CODA AMPLIT PERI AZIMU VELO SNR AR TRES W  DIS CAZ7
 BAR2 SZ EP        017 28.33                             164     0.210   33 234 
 BAR2 SZ I         017 28.53        17.8 0.31                            33 234 
 BRR  HN ES        017 46.93                             140    -0.110   93 294 
 RUS  HZ EP        017 32.27                             139    -0.110   98 189 
 RUS  HZ I         017 33.51         5.9 0.27                            98 189 
 RUS  HN ES   1    017 48.90                             139     0.0 7   98 189 
 RREF HN ES        018 34.90                             105     0.1 7  337 232 
 RREF HZ I         018 37.42         3.4 1.78                           337 232 
                                                                                
