 2017  113 0959 36.0 L   6.786 -73.185152.9  RSN  4 0.2 1.3LRSN                1
 GAP=232        0.65       5.4     5.3  6.5  0.1417E+02 -0.5145E+01 -0.2871E+01E
 Epicentro: LOS SANTOS - SANTANDER                                             3
 ACTION:UPD 17-05-22 15:59 OP:jn   STATUS:               ID:20170113095936 L   I
 OLDACT:REG 17-01-13 19:53 OP:dani STATUS:               ID:20170113095741     3
 2017-01-13-0958-00M.COL___331                                                 6
 STAT SP IPHASW D HRMM SECON CODA AMPLIT PERI AZIMU VELO AIN AR TRES W  DIS CAZ7
 BAR2 EZ EP        959 56.18                             172   -0.3110 21.4 179 
 BRR  HZ EP        959 57.67                             155   -0.1310 68.3 301 
 BRR  HN ES       10 0 14.99                             155    0.2110 68.3 301 
 BRR  HZ I        10 0 17.83         7.3 0.35            151           68.3 301 
 RUS  HZ EP       10 0  0.47                             146    0.0610 99.4 174 
 RUS  HN ES       10 0 19.50                             146    0.0810 99.4 174 
 PTB  HZ EP       10 0  3.59                             134    0.40 9  143 259 
 PTB  HN ES       10 0 24.09                             134   -0.29 9  143 259 
 PTB  HZ I        10 0 31.09         1.3 0.30            132            143 259 
                                                                                
