 2012  213 0530 32.9 L   6.793 -73.156148.4  RSN  8 0.5 1.5LRSN                1
 GAP=183        0.64       5.7     6.4  8.4  0.8723E+01  0.1376E+02  0.1578E+02E
 ACTION:UP  12-03-07 16:30 OP:epov STATUS:               ID:20120213053032 L   I
 2012-02-13-0530-00M.COL___188                                                 6
 STAT SP IPHASW D HRMM SECON CODA AMPLIT PERI AZIMU VELO AIN AR TRES W  DIS CAZ7
 BAR2 SZ EP   2    530 52.87                             171   -0.01 5 22.4 188 
 BAR2 SZ I         530 53.18         6.0 0.08                          22.4 188 
 BAR2 SZ ES   2    531  7.47                             171   -0.96 5 22.4 188 
 GIR2 SZ EP   2    530 52.57                             167   -0.38 5 31.8 352 
 GIR2 SZ ES   2    531  8.68                             167    0.12 5 31.8 352 
 BRR  HZ EP   2    530 54.52                             153    0.17 5 70.6 299 
 BRR  HE ES   2    531 11.93                             153    0.88 5 70.6 299 
 BRR  HZ I         531 15.42         8.1 0.18                          70.6 299 
 RUS  HZ EP   2    530 57.25                             145    0.33 5 99.9 175 
 RUS  HE ES   2    531 16.08                             145    0.47 5 99.9 175 
 RUS  HZ I         531 16.72         3.1 0.31                          99.9 175 
 PTB  HZ EP   2    530 59.37                             133   -0.66 5  147 259 
 PTB  HN ES   2    531 20.85                             133   -0.29 5  147 259 
 ZAR  HE ES   2    531 30.83                             123   -0.05 4  203 292 
 ZAR  HZ I         531 38.68         3.7 0.10                           203 292 
 NOR  SN ES   2    531 36.83                             119    0.26 4  233 234 
 CHI  HZ EP   2    531 11.15                             118    0.46 4  248 195 
 CHI  HN ES   2    531 39.78                             118   -0.35 4  248 195 
 CHI  HZ I         531 41.87         3.4 0.56                           248 195 
                                                                                
