 2010  713 0401 58.3 L   6.750 -73.132141.0  RSN  9 0.3 1.6LRSN                1
 GAP=158        0.72       4.0     7.4  6.6 -0.3164E+01 -0.1976E+01 -0.3765E+01E
 Epicentro: LOS SANTOS - SANTANDER                                             3
 ACTION:UPD 10-12-01 15:17 OP:pat  STATUS:               ID:20100713040158 L   I
 2010-07-13-0359-58S.COL___120                                                 6
 STAT SP IPHASW D HRMM SECON CODA AMPLIT PERI AZIMU VELO AIN AR TRES W  DIS CAZ7
 BAR2 SZ EP   1    4 2 16.92                             172    -0.3 7   18 198 
 BAR2 SZ ES   1    4 2 31.82                             172    -0.2 7   18 198 
 BAR2 SZ I         4 2 33.20        11.3 0.30                            18 198 
 GIR2 SZ EP   2    4 2 17.24                             165    -0.3 5   37 349 
 BRR  HZ IP     C  4 2 18.98                             150    -0.210   75 302 
 BRR  HZ I         4 2 20.03        11.0 0.06                            75 302 
 BRR  HE ES   1    4 2 35.59                             150     0.1 7   75 302 
 RUS  HZ EP   1    4 2 21.21                             144     0.0 7   95 177 
 RUS  HN ES   1    4 2 39.31                             144     0.3 7   95 177 
 RUS  HZ I         4 2 41.36         4.3 0.23                            95 177 
 BRI  SZ EP   2    4 2 21.59                             139    -0.5 5  113  19 
 BRI  SZ I         4 2 45.48         6.8 0.63                           113  19 
 GUE  SZ EP   2    4 2 22.54                             137    -0.4 5  122  11 
 GRA  SZ EP   1    4 2 23.81                             135     0.3 7  131  16 
 GRA  SZ ES   1    4 2 43.68                             135     0.5 7  131  16 
 GRA  SZ I         4 2 44.37         5.0 0.36                           131  16 
 HEL  HZ EP   2    4 2 38.97                             114     0.7 4  272 257 
 HEL  HZ I         4 3 17.23         3.2 0.46                           272 257 
 PRA  HZ EP   2    4 2 51.74                             106     0.6 3  388 210 
 PRA  HZ I         4 3 39.65         1.5 0.52                           388 210 
                                                                                
