 2012  913 0755 16.5 L   6.696 -73.166142.0  RSN  4 0.3 1.2LRSN                1
 GAP=227        0.58       7.7     8.3  8.6  0.3575E+02 -0.1679E+02 -0.3586E+01E
 Epicentro: VILLANUEVA - SANTANDER                                             3
 ACTION:UPD 12-10-22 14:18 OP:ep   STATUS:               ID:20120913075516 L   I
 2012-09-13-0750-00M.COL___227                                                 6
 STAT SP IPHASW D HRMM SECON CODA AMPLIT PERI AZIMU VELO AIN AR TRES W  DIS CAZ7
 BAR2 SZ EP        755 35.49                             175    0.0410 11.6 189 
 BAR2 SZ ES   2    755 49.63                             175   -0.63 5 11.6 189 
 BAR2 SZ I         755 51.32         7.1 0.21                          11.6 189 
 BRR  HZ EP   1    755 37.21                             151   -0.24 7 75.5 307 
 BRR  HE ES        755 54.04                             151    0.2110 75.5 307 
 BRR  HZ I         755 55.49         2.9 0.18                          75.5 307 
 RUS  HN ES   2    755 57.07                             147    0.41 5 89.3 174 
 RUS  HZ I         755 59.36         1.9 0.38                          89.3 174 
 PTB  HN ES   2    756  2.98                             132   -0.28 5  144 263 
                                                                                
