 2016 1013 0658 51.6 L   6.771 -73.139141.1  RSN 18 0.4 2.3LRSN                1
 GAP= 66        0.91       2.6     2.4  4.5 -0.5262E+00  0.2621E+01  0.2234E+01E
 Epicentro: LOS SANTOS - SANTANDER                                             3
 ACTION:UPD 16-11-09 19:19 OP:rebc STATUS:               ID:20161013065851 L   I
 OLDACT:REG 16-10-13 12:52 OP:y    STATUS:               ID:20161013065739     3
 2016-10-13-0658-00M.COL___357                                                 6
 STAT SP IPHASW D HRMM SECON CODA AMPLIT PERI AZIMU VELO AIN AR TRES W  DIS CAZ7
 BAR2 EZ IP     C  659 10.36                             171   -0.2910 20.4 194 
 BAR2 EZ ES        659 25.28                             171   -0.2010 20.4 194 
 BAR2 EZ I         659 26.80        83.3 0.27            169           20.4 194 
 BRR  HZ IP     C  659 12.23                             151   -0.1910 73.4 300 
 BRR  HN ES        659 29.36                             151    0.7410 73.4 300 
 BRR  HZ I         659 33.57        32.9 0.13            151           73.4 300 
 PAM  EZ EP        659 13.18                             149   -0.3110 79.4  38 
 PAM  EN ES        659 30.46                             149   -0.0710 79.4  38 
 PAM  EZ I         659 32.66        22.9 0.63            152           79.4  38 
 RUS  HZ EP        659 14.48                             144   -0.2210 97.4 176 
 RUS  HE ES        659 32.87                             144    0.1810 97.4 176 
 RUS  HZ I         659 33.82        31.4 0.26            143           97.4 176 
 PTB  HZ EP   4    659 17.08                             131   -1.16 0  148 260 
 PTB  HN ES        659 38.10                             131   -0.89 9  148 260 
 PTB  HZ I         659 41.16        20.0 0.14            131            148 260 
 TAM  HZ EP        659 18.73                             130   -0.08 9  154 104 
 TAM  HN ES        659 40.25                             130    0.24 9  154 104 
 TAM  HZ I         659 40.87        16.9 0.25            131            154 104 
 SPBC HZ EP        659 19.37                             128   -0.22 9  161 220 
 SPBC HN ES        659 41.27                             128   -0.13 9  161 220 
 SPBC HZ I         659 43.62        38.0 0.09            128            161 220 
 OCA  HZ EP   4    659 18.58                             128   -1.32 0  164 353 
 OCA  HN ES        659 42.50                             128    0.55 9  164 353 
 OCA  HZ I         659 44.93        69.6 0.28            129            164 353 
 ZAR  HZ EP        659 23.19                             121   -0.79 8  206 293 
 ZAR  HE ES        659 49.18                             121   -0.03 8  206 293 
 ZAR  HZ I         659 54.79        35.1 0.39            121            206 293 
 NOR  HZ EP        659 27.22                             118    0.25 8  233 235 
 NOR  HN ES        659 54.91                             118    0.39 8  233 235 
 NOR  HZ I         659 55.89        19.7 0.17            118            233 235 
 CHI  HZ EP        659 28.72                             116   -0.05 8  246 196 
 CHI  HN ES        659 58.13                             116    0.40 8  246 196 
 CHI  HZ I         7 0  5.34         7.3 0.24            116            246 196 
 ROSC BZ EP   4    659 30.29                             116    1.04 0  250 212 
 ROSC BN ES   4    7 0  1.51                             116    2.92 0  250 212 
 ROSC BZ I         7 0  6.70        13.9 0.55            116            250 212 
 HEL  HZ EP        659 32.06                             114    0.45 8  272 256 
 HEL  HN ES        7 0  2.90                             114    0.11 8  272 256 
 HEL  HZ I         7 0  9.52        10.4 0.45            114            272 256 
 GUY2CHZ EP   9    659 36.19                             111    1.29 0  300 235 
 GUY2CHE ES        7 0  9.84                                   -0.09 7  300 235 
 GUY2CHZ I         7 0 19.05         8.7 0.45                           300 235 
 PTGC HZ EP   9    659 33.61                             111   -1.32 0  305 159 
 PTGC HN ES        7 0  6.98                                   -0.39 7  305 159 
 PTGC HZ I         7 0 16.88         5.7 0.34            111            305 159 
 CBOC HZ EP        659 38.85                             109    0.52 7  333 253 
 CBOC HN ES        7 0 14.75                             109   -0.00 7  333 253 
 CBOC HZ I         7 0 19.11         2.7 0.20            109            333 253 
 PRA  HZ EP        659 45.06                             106    0.34 6  390 210 
 PRA  HN ES        7 0 26.47                             106    0.35 6  390 210 
 PRA  HZ I         7 0 32.97        11.4 0.34            106            390 210 
 SJC  HZ EP   4    659 44.62                             105   -2.79 0  412 327 
 SJC  HN ES   4    7 0 26.44                             105   -4.47 0  412 327 
 SJC  HZ I         7 0 30.34         7.9 0.44            105            412 327 
                                                                                
