 2012 1213 0638  0.9 L   6.734 -73.145146.6  RSN  6 0.2 1.5LRSN                1
 GAP=182        0.64       3.1     4.0  5.7  0.2307E+01  0.6090E+01 -0.3381E+01E
 Epicentro: JORDAN - SANTANDER                                                 3
 ACTION:UPD 13-01-04 14:27 OP:ep   STATUS:               ID:20121213063800 L   I
 2012-12-13-0630-00M.COL___242                                                 6
 STAT SP IPHASW D HRMM SECON CODA AMPLIT PERI AZIMU VELO AIN AR TRES W  DIS CAZ7
 BAR2 SZ EP        638 20.85                             173    0.3010 16.2 195 
 BAR2 SZ ES        638 35.93                             173    0.0910 16.2 195 
 BAR2 SZ I         638 37.46         4.6 0.48                          16.2 195 
 BRR  HZ EP        638 22.71                             151    0.3210 75.0 303 
 BRR  HN ES        638 39.28                             151    0.1510 75.0 303 
 BRR  HN I         638 40.77         7.4 0.26                          75.0 303 
 RUS  HN ES        638 42.13                             146   -0.3310 93.3 176 
 RUS  HN I         638 45.06         2.5 0.24                          93.3 176 
 PTB  HZ EP        638 27.67                             132   -0.20 9  147 262 
 PTB  HN ES        638 48.87                             132    0.00 9  147 262 
 PTB  HN I         638 54.06         3.4 0.40                           147 262 
 OCA  HN ES        638 52.32                             128   -0.34 9  167 353 
 OCA  HN I         638 55.81         9.2 0.18                           167 353 
 ZAR  HN ES        638 59.21                             122   -0.11 8  207 294 
 ZAR  HN I         639  6.87         4.0 0.30                           207 294 
                                                                                
