 2013  613 0216 21.4 L   6.790 -73.082143.7  RSN  8 0.3 2.0LRSN                1
 GAP=201        0.67       3.8     4.9  4.8 -0.2466E+00  0.4895E+01  0.3773E+01E
 Epicentro: LOS SANTOS - SANTANDER                                             3
 ACTION:UPD 14-01-08 09:54 OP:ep   STATUS:               ID:20130613021621 L   I
 OLDACT:UP  13-06-13 08:26 OP:cam  STATUS:               ID:20130613020959     3
 OLDACT:REG 13-06-13 07:27 OP:cam  STATUS:               ID:20130613020959     3
 2013-06-13-0209-59M.COL___261                                                 6
 STAT SP IPHASW D HRMM SECON CODA AMPLIT PERI AZIMU VELO AIN AR TRES W  DIS CAZ7
 BAR2 SZ EP        216 40.95                             170    0.1710 24.5 207 
 BAR2 SZ ES        216 55.55                             170   -0.3710 24.5 207 
 GIR2 SZ EP        216 40.95                             166    0.0710 34.2 339 
 GIR2 SZ I         216 41.55        10.6 0.06            144           34.2 339 
 GIR2 SZ ES   2    216 56.27                             166    0.16 5 34.2 339 
 BRR  HZ EP     C  216 42.87                             150    0.1710 78.0 297 
 BRR  HZ I         216 43.10        18.8 0.26            128           78.0 297 
 BRR  HN ES        216 59.57                             150    0.2310 78.0 297 
 RUS  HZ EP        216 44.92                             144    0.0910 99.2 180 
 RUS  HZ I         216 45.88         9.2 0.48            138           99.2 180 
 RUS  HN ES   2    217  3.21                             144    0.09 5 99.2 180 
 PTB  HZ EP   1    216 47.72                             130   -1.07 7  154 260 
 PTB  HZ I         217 11.15        17.3 0.50            115            154 260 
 NOR  HZ EP        216 57.60                             117    0.06 8  240 236 
 NOR  HN ES        217 25.82                             117    0.07 8  240 236 
 SML  HZ EP   2    216 57.98                             116   -0.34 4  248 334 
 SML  HN ES   2    217 27.15                             116    0.01 4  248 334 
 SML  HZ I         217 46.20        13.3 0.10            106            248 334 
 PRA  HZ EP   2    217 15.59                             106    0.47 3  395 211 
 PRA  HE ES   2    217 57.22                             106    0.17 3  395 211 
 PRA  HZ I         218  4.16         3.4 0.32            101            395 211 
                                                                                
