 2011  113 0636 19.6 L   6.815 -73.230133.3  RSN  8 0.5 1.8LRSN                1
 GAP=147        1.18       5.0    11.3 11.2 -0.2818E+02  0.5095E+02 -0.7900E+01E
 Epicentro: ZAPATOCA - SANTANDER                                               3
 ACTION:UP  11-02-08 08:40 OP:pat  STATUS:               ID:20110113063619 L   I
 2011-01-13-0632-43S.COL___136                                                 6
 STAT SP IPHASW D HRMM SECON CODA AMPLIT PERI AZIMU VELO SNR AR TRES W  DIS CAZ7
 BTL  SZ EP        636 36.91                             175    -0.610   12 340 
 BAR2 SZ EP        636 37.87                             169     0.110   25 168 
 BAR2 SZ ES   1    636 52.25                             169     0.3 7   25 168 
 BAR2 SZ I         636 53.69        14.2 0.39                            25 168 
 RUS  HZ EP        636 42.08                             140    -0.310  103 171 
 RUS  HN ES   2    637  0.07                             140     0.0 5  103 171 
 RUS  HZ I         637  2.47         9.4 0.12                           103 171 
 GRA  SZ EP        636 44.45                             134     0.610  127  22 
 GRA  SZ ES   1    637  3.30                             134     0.5 7  127  22 
 GRA  SZ I         637  5.11         7.8 0.51                           127  22 
 OCA  SZ EP        636 46.48                             127    -0.2 9  158 356 
 OCA  SZ ES   1    637  7.35                             127    -0.5 7  158 356 
 OCA  SZ I         637 12.50         9.2 0.20                           158 356 
 NOR  SZ EP   1    636 53.51                             116    -0.4 6  228 233 
 NOR  SN ES   1    637 20.96                             116     0.2 6  228 233 
 CHI  HZ EP   2    636 56.10                             114    -0.5 4  248 193 
 CHI  HN ES   1    637 25.32                             114    -0.1 6  248 193 
 CHI  HZ I         637 33.84         2.7 0.62                           248 193 
 RREF HZ EP   1    637  6.08                             109     1.5 5  316 228 
 RREF HZ I         637 50.26         4.0 0.32                           316 228 
                                                                                
