 2014 1213 0349 25.6 L   6.786 -73.159142.8  RSN  6 0.3 1.4LRSN                1
 GAP=136        0.89       3.6     4.5  6.5 -0.1481E+01  0.3747E+01  0.5037E-01E
 Epicentro: LOS SANTOS - SANTANDER                                             3
 ACTION:UPD 15-02-10 17:03 OP:nd   STATUS:               ID:20141213034925 L   I
 OLDACT:REG 14-12-13 14:19 OP:stll STATUS:               ID:20141213034745     3
 2014-12-13-0347-45M.COL___294                                                 6
 STAT SP IPHASW D HRMM SECON CODA AMPLIT PERI AZIMU VELO AIN AR TRES W  DIS CAZ7
 BAR2 EZ EP        349 45.02                             171    0.1410 21.6 187 
 BAR2 EZ ES        349 59.63                             171   -0.2610 21.6 187 
 BAR2 EZ I         350  2.66         6.3 0.24            171           21.6 187 
 BRR  HZ EP        349 47.11                             152    0.6710 70.7 300 
 BRR  HN ES        350  3.16                             152    0.4910 70.7 300 
 BRR  HZ I         350  5.85         6.4 0.40            152           70.7 300 
 PAM  SZ EP        349 47.67                             150   -0.0010 79.5  40 
 PAM  SN ES        350  4.86                             150    0.0010 79.5  40 
 PAM  SZ I         350  7.02         6.5 0.48            153           79.5  40 
 RUS  HZ EP        349 48.99                             144   -0.0110 99.1 175 
 RUS  HZ I         349 49.69         2.6 0.42            146           99.1 175 
 RUS  HN ES        350  7.16                             144   -0.0510 99.1 175 
 PTB  HZ EP        349 51.85                             132   -0.36 9  146 259 
 PTB  HN ES        350 12.66                             132   -0.28 9  146 259 
 PTB  HZ I         350 18.71         4.1 0.20            132            146 259 
 OCA  HN ES        350 15.36                             129   -0.50 9  162 354 
                                                                                
