 2017  213 0402 54.3 L   6.775 -73.116145.4  RSN  6 0.2 1.2LRSN                1
 GAP=141        0.76       3.9     3.8  5.0  0.3054E+01  0.1563E+01 -0.1963E+01E
 Epicentro: LOS SANTOS - SANTANDER                                             3
 ACTION:UPD 17-05-24 15:35 OP:jn   STATUS:               ID:20170213040254 L   I
 OLDACT:UP  17-02-13 16:32 OP:edw  STATUS:               ID:20170213035749     3
 OLDACT:REG 17-02-13 11:45 OP:edw  STATUS:               ID:20170213035749     3
 2017-02-13-0358-00M.COL___352                                                 6
 STAT SP IPHASW D HRMM SECON CODA AMPLIT PERI AZIMU VELO AIN AR TRES W  DIS CAZ7
 BAR2 EZ EP        4 3 13.64                             171   -0.2310 21.4 200 
 BAR2 EZ ES        4 3 29.15                             171    0.0410 21.4 200 
 BAR2 EZ I         4 3 31.05         2.9 0.42            171           21.4 200 
 BRR  HZ EP        4 3 15.67                             151    0.0010 75.4 299 
 BRR  HE ES        4 3 32.55                             151    0.2310 75.4 299 
 PAM  EZ EP        4 3 16.89                             150    0.3810 77.6  36 
 PAM  EN ES        4 3 33.40                             150   -0.4110 77.6  36 
 PAM  EZ I         4 3 35.70         2.9 0.78            151           77.6  36 
 RUS  HZ EP        4 3 17.94                             144    0.1210 97.6 178 
 RUS  HN ES        4 3 36.13                             144   -0.0210 97.6 178 
 RUS  HZ I         4 3 37.37         2.4 0.24            145           97.6 178 
 PTB  HZ EP   9    4 3 20.87                             131   -0.63 0  150 260 
 PTB  HN ES        4 3 41.45                             132   -0.62 9  150 260 
 PTB  HZ I         4 3 43.78         1.9 0.32            133            150 260 
 ZAR  HZ EP        4 3 26.86                             121   -0.30 8  208 293 
 ZAR  HN ES        4 3 52.91                             121    0.14 8  208 293 
                                                                                
