 2014  613 0856 11.9 L   6.872 -73.146139.7  RSN 20 0.5 2.7LRSN                1
 GAP= 69        0.97       2.3     3.0  5.4 -0.8568E+00  0.4557E+01  0.2710E+00E
 Epicentro: LOS SANTOS - SANTANDER                                             3
 ACTION:UPD 14-07-01 22:53 OP:nd   STATUS:               ID:20140613085611 L   I
 OLDACT:REG 14-06-13 14:37 OP:mh   STATUS:               ID:20140613084812     3
 2014-06-13-0848-12M.COL___256                                                 6
 STAT SP IPHASW D HRMM SECON CODA AMPLIT PERI AZIMU VELO AIN AR TRES W  DIS CAZ7
 BAR2 SZ IP     D  856 31.15                             167    0.1310 31.2 187 
 BAR2 SZ ES   1    856 45.71                             167   -0.20 7 31.2 187 
 BAR2 SZ I         856 47.17        52.7 0.23            166           31.2 187 
 PAM  SZ EP        856 33.80                             152    0.6610 71.4  44 
 PAM  SN ES   1    856 49.54                             152   -0.15 7 71.4  44 
 PAM  SZ I         856 52.43        56.5 0.24            157           71.4  44 
 RUS  HZ EP        856 35.32                             140   -0.3710  109 176 
 RUS  HN ES   1    856 54.23                             140    0.01 7  109 176 
 PTB  HZ EP     C  856 37.68                             130   -0.88 9  149 256 
 PTB  HN ES        856 59.08                             130   -0.26 9  149 256 
 PTB  HZ I         857  1.59        64.0 0.25            130            149 256 
 OCA  HZ EP        856 38.99                             130   -0.03 9  152 353 
 OCA  HN ES        857  0.32                             130    0.16 9  152 353 
 OCA  HZ I         857  5.69        31.3 0.39            132            152 353 
 TAM  HZ IP     D  856 39.48                             129    0.14 9  157 108 
 TAM  HN ES   1    857  0.74                             129    0.01 7  157 108 
 SPBC HZ EP   1    856 39.72                             126   -0.85 7  169 217 
 SPBC HE ES        857  3.17                             126    0.25 9  169 217 
 SPBC HZ I         857  8.33        47.5 0.30            128            169 217 
 SPBC HN I         857  9.48       103.9 0.25                           169 217 
 ZAR  HZ EP        856 43.89                             121    0.21 9  201 290 
 ZAR  HN ES   1    857  9.33                             121    0.88 6  201 290 
 ZAR  HZ I         857 12.91       200.0 0.04            122            201 290 
 SML  HZ EP        856 46.86                             117   -0.57 8  237 334 
 SML  HN ES   1    857 14.91                             117   -0.22 6  237 334 
 NOR  HZ EP   1    856 47.36                             117   -0.46 6  239 233 
 NOR  HN ES   1    857 15.75                             117   -0.07 6  239 233 
 NOR  HZ I         857 20.79        23.1 0.17            118            239 233 
 CHI  HZ EP   1    856 49.65                             115   -0.49 6  256 195 
 CHI  HN ES   1    857 19.85                             115   -0.09 6  256 195 
 CHI  HZ I         857 27.06                             117            256 195 
 ROSC BZ EP        856 51.07                             115    0.60 8  260 210 
 ROSC BN ES        857 20.88                             115    0.34 8  260 210 
 ROSC BZ I         857 28.19        19.3 0.23            116            260 210 
 HEL  HZ EP        856 52.90                             113    0.84 8  274 254 
 HEL  HN ES   1    857 23.28                             113   -0.09 6  274 254 
 HEL  HZ I         857 30.99        16.2 0.42            115            274 254 
 URE  HZ EP   4    856 51.65                             113   -0.73 0  281 290 
 URE  HN ES        857 23.36                             113   -0.58 7  281 290 
 URE  HZ I         857 36.33        29.0 0.13            114            281 290 
 GUY2CHZ EP   1    856 56.39                             111    0.60 5  306 234 
 GUY2CHE ES   4    857 31.90                             111    1.90 0  306 234 
 RREF HZ EP   4    856 59.55                             109    1.14 0  327 228 
 RREF HN ES   4    857 36.03                             109    1.36 0  327 228 
 CBOC HZ EP        856 58.90                             109    0.02 7  336 251 
 CBOC HN ES   4    857 34.18                             109   -1.33 0  336 251 
 TOL  SZ EP   1    857  1.45                             108    0.85 5  349 224 
 TOL  SN ES        857 39.31                             108    0.74 6  349 224 
 TOL  SZ I         857 44.71        78.7 0.03            109            349 224 
 ARGC HZ EP        857  0.67                             108    0.19 6  352 340 
 ARGC HE ES   1    857 38.56                             108    0.20 5  352 340 
 PRA  HZ EP   1    857  4.66                             105   -1.39 4  399 209 
 PRA  HE ES        857 47.64                             105   -0.64 6  399 209 
 PRA  HZ I         857 52.20        12.0 0.15            107            399 209 
 ORTC HZ EP        857  6.42                             105    0.02 6  402 216 
 ORTC HE ES   4    857 40.60                             105   -8.29 0  402 216 
 SJC  HZ EP   4    857  4.40                             105   -2.11 0  403 326 
 SJC  HN ES   4    857 46.01                             105   -3.08 0  403 326 
                                                                                
