 2010 1213 0917  8.5 L   6.834 -73.084138.6  RSN 13 0.4 2.1LRSN                1
 GAP=141        0.77       3.4     7.8  8.6 -0.4947E+01  0.2451E+02  0.6069E+00E
 Epicentro: LOS SANTOS - SANTANDER                                             3
 ACTION:UP  11-01-14 15:24 OP:pat  STATUS:               ID:20101213091708 L   I
 2010-12-13-0911-38S.COL___136                                                 6
 STAT SP IPHASW D HRMM SECON CODA AMPLIT PERI AZIMU VELO SNR AR TRES W  DIS CAZ7
 BTL  SZ EP        917 27.85                             170     0.610   22 295 
 BAR2 SZ EP        917 27.52                             168     0.110   29 202 
 BAR2 SZ ES   2    917 41.94                             168    -0.2 5   29 202 
 BAR2 SZ I         917 42.74        63.3 0.67                            29 202 
 GIR2 SZ EP   1    917 27.54                             167     0.2 7   30 336 
 RUS  HZ EP        917 31.50                             141    -0.410  104 180 
 RUS  HE ES   2    917 49.68                             141    -0.4 5  104 180 
 RUS  HZ I         917 52.36        15.7 0.16                           104 180 
 GRA  SZ EP   2    917 31.81                             137    -0.9 5  120  15 
 GRA  SZ ES   2    917 51.02                             137    -0.5 5  120  15 
 GRA  SZ I         917 52.77        11.2 0.20                           120  15 
 OCA  SZ EP        917 36.15                             128     0.1 9  158 351 
 OCA  SZ ES   2    917 57.62                             128     0.1 5  158 351 
 OCA  SZ I         918  2.60        18.7 0.48                           158 351 
 YOP  SZ EP   2    917 38.20                             125     0.1 4  179 156 
 YOP  SN ES   2    918  1.42                             125     0.2 4  179 156 
 YOP  SZ I         918  4.26        13.4 0.49                           179 156 
 NOR  SZ EP   2    917 44.18                             116    -0.5 4  243 235 
 NOR  SE ES   2    918 12.20                             116    -0.7 4  243 235 
 CHI  HZ EP   2    917 45.94                             115    -0.5 4  254 196 
 CHI  HE ES   2    918 16.86                             115     0.8 4  254 196 
 CHI  HZ I         918 24.13         5.6 0.69                           254 196 
 ROSC BZ EP   2    917 46.83                             115    -0.2 4  260 212 
 ROSC BE ES   2    918 17.27                             115     0.2 4  260 212 
 HEL  HZ EP   2    917 48.85                             113    -0.4 4  280 255 
 HEL  HZ I         918 26.06         9.6 0.43                           280 255 
 GUY  SZ EP   2    917 52.84                             110     0.1 4  309 235 
 RREF HZ EP   2    917 56.04                             109     0.8 3  329 230 
 RREF HZ I         918 34.95         5.4 0.29                           329 230 
                                                                                
