 2014  313 0112 28.0 L   6.826 -73.144148.7  RSN  8 0.2 1.8LRSN                1
 GAP=135        0.41       1.7     2.8  3.1 -0.6405E+00  0.4264E+01 -0.3727E+00E
 Epicentro: LOS SANTOS - SANTANDER                                             3
 OLDACT:REG 14-03-13 07:18 OP:fm   STATUS:               ID:20140313010806     3
 ACTION:UPD 14-04-09 23:16 OP:nd   STATUS:               ID:20140313011228 L   I
 OLDACT:UP  14-03-13 10:54 OP:fm   STATUS:               ID:20140313010806     3
 2014-03-13-0108-06M.COL___242                                                 6
 STAT SP IPHASW D HRMM SECON CODA AMPLIT PERI AZIMU VELO AIN AR TRES W  DIS CAZ7
 BAR2 SZ EP        112 47.88                             170   -0.1410 26.2 189 
 BAR2 SZ ES   1    113  3.63                             170   -0.03 7 26.2 189 
 BAR2 SZ I         113  4.27        20.7 0.28            169           26.2 189 
 PAM  SZ EP        112 50.54                             152    0.1610 75.1  41 
 PAM  SE ES        113  7.81                             152   -0.0310 75.1  41 
 PAM  SZ I         113  9.44         8.8 0.60            155           75.1  41 
 RUS  HZ EP        112 52.27                             144    0.0410  103 176 
 RUS  HE ES        113 11.16                             144    0.0210  103 176 
 RUS  SZ I         113 12.25         3.6 1.08            147            103 176 
 PTB  HE ES   2    113 16.99                             132    0.46 5  149 258 
 ZAR  HZ EP   1    113  0.64                             123    0.11 6  203 291 
 ZAR  HE ES   2    113 25.75                             123   -0.16 4  203 291 
 ZAR  SZ I         113 32.82         4.3 0.30            123            203 291 
 SML  HZ EP        113  4.46                             118   -0.04 8  241 335 
 SML  HN ES   2    113 32.63                             118   -0.36 4  241 335 
 SML  SZ I         113 37.09         6.5 0.06            119            241 335 
 CHI  HZ EP        113  5.91                             117   -0.24 8  251 195 
 CHI  HN ES   1    113 35.88                             117   -0.04 6  251 195 
 GUY2CHZ EP   1    113 12.43                             113    0.50 5  303 234 
 GUY2CHN ES   2    113 45.73                             113   -0.48 4  303 234 
 GUY2CSZ I         113 54.02         3.2 1.98                           303 234 
                                                                                
