 2016  613 0847 10.8 L   6.806 -73.157144.9  RSN 17 0.5 1.9LRSN                1
 GAP=135        0.95       3.5     4.0  5.6 -0.5430E+01  0.5286E+01  0.2152E+01E
 Epicentro: LOS SANTOS - SANTANDER                                             3
 ACTION:UPD 16-07-21 22:18 OP:rebc STATUS:               ID:20160613084710 L   I
 OLDACT:DUP 16-06-13 18:31 OP:dnl  STATUS:               ID:20160613083743d    3
 OLDACT:REG 16-06-13 13:11 OP:dnl  STATUS:               ID:20160613083742     3
 2016-06-13-0837-42M.COL___319                                                 6
 STAT SP IPHASW D HRMM SECON CODA AMPLIT PERI AZIMU VELO AIN AR TRES W  DIS CAZ7
 BAR2 EZ EP        847 30.46                             170    0.1010 23.8 187 
 BAR2 EZ ES        847 45.12                             170   -0.4710 23.8 187 
 BAR2 EZ I         847 46.36        28.9 0.30                          23.8 187 
 BRR  HZ EP        847 32.29                             153    0.4910 69.8 299 
 BRR  HN ES        847 49.22                             153    1.0610 69.8 299 
 BRR  HZ I         847 50.38        18.1 0.14                          69.8 299 
 PAM  EZ EP        847 33.34                             151    0.3810 77.7  41 
 PAM  EN ES        847 50.12                             151   -0.1110 77.7  41 
 PAM  EZ I         847 52.68        20.2 0.52                          77.7  41 
 RUS  HZ EP        847 34.80                             143    0.2610  101 175 
 RUS  HN ES   2    847 52.94                             143   -0.10 5  101 175 
 RUS  HZ I         847 53.92         7.8 0.22                           101 175 
 PTB  HZ EP        847 37.10                             132   -0.52 9  147 258 
 PTB  HN ES        847 58.05                             132   -0.47 9  147 258 
 PTB  HZ I         848  0.28        13.5 0.26                           147 258 
 OCA  HZ EP        847 38.69                             130   -0.30 9  159 354 
 OCA  HN ES        848  0.21                             130   -0.75 9  159 354 
 OCA  HZ I         848  3.89        26.1 0.24                           159 354 
 SPBC HZ EP   2    847 39.40                             129    0.17 5  163 219 
 SPBC HN ES   2    848  1.54                             129    0.16 5  163 219 
 SPBC HZ I         848  8.38        15.4 0.26                           163 219 
 NOR  HZ EP   2    847 45.56                             118   -0.87 4  234 234 
 NOR  HE ES        848 14.16                             118   -0.05 8  234 234 
 NOR  HZ I         848 19.70         7.7 0.22                           234 234 
 CHI  HZ EP   3    847 48.43                             117   -0.07 2  249 195 
 CHI  HN ES   2    848 17.42                             117   -0.48 4  249 195 
 CHI  HZ I         848 25.06         2.6 0.44                           249 195 
 HEL  HZ EP   4    847 52.91                             115    2.04 0  271 256 
 HEL  HN ES        848 21.83                             115   -0.29 8  271 256 
 HEL  HZ I         848 31.27         4.3 0.24                           271 256 
 GUY2CHZ EP        847 54.90                             112    0.58 7  301 235 
 GUY2CHE ES   2    848 28.85                             112    0.60 4  301 235 
 GUY2CHZ I         848 37.02         4.7 0.52                           301 235 
 PTGC HZ EP   4    847 53.40                             111   -1.36 0  310 158 
 PTGC HN ES   4    848 26.23                             111   -2.80 0  310 158 
 PTGC HZ I         848 29.43         5.5 0.40                           310 158 
 CBOC HZ EP   2    847 57.60                             110    0.01 3  333 252 
 CBOC HN ES   2    848 34.41                             110    0.34 3  333 252 
 CBOC HZ I         848 37.51         1.7 0.22                           333 252 
 DBB  SZ EP   2    847 58.38                             109    0.27 3  338 274 
 DBB  SZ ES   4    848 31.90                             109   -3.11 0  338 274 
 ARGC HZ EP   3    848  0.87                             108    0.55 2  358 341 
 ARGC HZ I         848 36.32         1.3 0.36                           358 341 
 ARGC HE ES   2    848 39.00                             108    0.06 3  358 341 
 PRA  HZ EP   2    848  4.20                             106   -0.10 3  392 209 
 PRA  HE ES   2    848 45.59                             106   -0.43 3  392 209 
 PRA  HZ I         848 51.41         3.0 0.56                           392 209 
 ORTC HZ EP   4    848  2.84                             106   -1.85 0  395 216 
 ORTC HN ES   4    848 49.31                             106    2.61 0  395 216 
 ORTC HZ I         848 53.53         2.0 0.54                           395 216 
 SJC  HZ EP   4    848  4.64                             106   -1.57 0  408 327 
 SJC  HN ES   4    848 46.00                             106   -3.42 0  408 327 
                                                                                
