 2013  513 0502 20.1 L   6.828 -73.139153.2  RSN  5 0.5 1.5LRSN                1
 GAP=202        1.19       7.7    10.7 10.0  0.3903E+02 -0.1222E+02 -0.1585E+02E
 Epicentro: LOS SANTOS - SANTANDER                                             3
 ACTION:UPD 13-06-20 09:49 OP:ep   STATUS:               ID:20130513050220 L   I
 2013-05-13-0500-00M.COL___256                                                 6
 STAT SP IPHASW D HRMM SECON CODA AMPLIT PERI AZIMU VELO AIN AR TRES W  DIS CAZ7
 BAR2 SZ EP        5 2 40.81                             170    0.1610 26.5 190 
 BAR2 SZ ES   1    5 2 56.19                             170   -0.51 7 26.5 190 
 BAR2 SZ I         5 2 57.64         4.6 0.26            170           26.5 190 
 BRR  HZ EP        5 2 42.84                             154    0.8710 70.4 296 
 BRR  HN ES        5 2 59.46                             154    0.4010 70.4 296 
 RUS  HZ EP        5 2 44.64                             144   -0.1210  104 177 
 RUS  HE ES   1    5 3  3.63                             144   -0.40 7  104 177 
 PTB  HZ EP        5 2 47.93                             133    0.17 9  149 258 
 PTB  HN ES   1    5 3  8.58                             133   -0.78 7  149 258 
 PTB  HZ I         5 3 14.81         2.3 0.54            131            149 258 
 SML  HZ EP   1    5 2 56.07                             119   -0.77 6  241 335 
 SML  HN ES   1    5 3 24.69                             119   -0.83 6  241 335 
 SML  HZ I         5 3 33.27         3.8 0.28            118            241 335 
                                                                                
