 2013  913 0647 51.3 L   6.778 -73.181146.4  RSN  6 0.4 2.1LRSN                1
 GAP=232        1.10       5.9     6.4  7.5  0.1540E+02  0.8362E+01 -0.9252E+00E
 Epicentro: LOS SANTOS - SANTANDER                                             3
 ACTION:UPD 13-10-22 09:22 OP:ep   STATUS:               ID:20130913064751 L   I
 OLDACT:DUP 13-09-13 11:12 OP:carl STATUS:               ID:20130913063902d    3
 2013-09-13-0639-59M.COL___269                                                 6
 STAT SP IPHASW D HRMM SECON CODA AMPLIT PERI AZIMU VELO AIN AR TRES W  DIS CAZ7
 BAR2 SZ EP        648 10.83                             172   -0.1410 20.5 180 
 BAR2 SZ ES        648 25.89                             172   -0.4110 20.5 180 
 BAR2 SZ I         648 28.23        15.4 0.26            167           20.5 180 
 BRR  HZ EP        648 12.66                             153    0.2510 69.0 302 
 BRR  HN ES        648 29.58                             153    0.7110 69.0 302 
 BRR  HN I         648 30.14        50.1 0.30            153           69.0 302 
 RUS  HZ EP        648 14.62                             145   -0.3610 98.5 174 
 RUS  HN ES        648 33.49                             145    0.0510 98.5 174 
 PTB  HZ EP        648 17.49                             133   -0.46 9  143 259 
 PTB  HN ES        648 38.24                             133   -0.48 9  143 259 
 PTB  HZ I         648 42.15        13.1 0.10            132            143 259 
 SPBC HZ EP        648 19.86                             130    0.41 9  159 218 
 SPBC HN ES        648 41.86                             130    0.46 9  159 218 
 SPBC HZ I         648 47.61        15.3 0.10            129            159 218 
 ZAR  HZ EP        648 24.03                             123    0.50 9  201 293 
 ZAR  HN ES        648 48.12                             123   -0.53 9  201 293 
                                                                                
