 2016  213 0007 24.5 L   6.774 -73.168138.4  RSN  5 0.2 1.6LRSN                1
 GAP=135        0.61       2.6     2.7  5.5 -0.1011E+01  0.5592E+01 -0.1518E+01E
 Epicentro: LOS SANTOS - SANTANDER                                             3
 ACTION:UPD 16-03-04 21:25 OP:rebc STATUS:               ID:20160213000724 L   I
 OLDACT:UP  16-02-13 15:09 OP:ak   STATUS:               ID:20160213000003     3
 OLDACT:UP  16-02-13 15:09 OP:a    STATUS:               ID:20160213000003     3
 OLDACT:REG 16-02-13 12:02 OP:ak   STATUS:               ID:20160213000003     3
 2016-02-13-0000-03M.COL___314                                                 6
 STAT SP IPHASW D HRMM SECON CODA AMPLIT PERI AZIMU VELO AIN AR TRES W  DIS CAZ7
 PAM  EZ EP        0 7 46.08                             148   -0.1110 81.2  40 
 PAM  EN ES        0 8  3.00                             148   -0.1010 81.2  40 
 PAM  EZ I         0 8  5.46         7.0 0.60            153           81.2  40 
 RUS  HZ EP        0 7 47.58                             143    0.2310 97.9 174 
 RUS  HE ES        0 8  5.37                             143    0.2110 97.9 174 
 RUS  HZ I         0 8  6.48         2.3 0.34            146           97.9 174 
 PTB  HZ EP        0 7 50.26                             131   -0.35 9  145 260 
 PTB  HN ES        0 8 10.74                             131   -0.23 9  145 260 
 PTB  HZ I         0 8 13.79         7.7 0.12            133            145 260 
 SPBC HZ EP        0 7 51.96                             128   -0.13 9  159 219 
 SPBC HN ES        0 8 13.49                             128   -0.10 9  159 219 
 SPBC HZ I         0 8 19.40         5.8 0.12            131            159 219 
 ZAR  HZ EP        0 7 56.64                             121    0.28 9  203 293 
 ZAR  HN ES        0 8 21.58                             121    0.37 9  203 293 
 ZAR  HZ I         0 8 24.45         5.5 0.12            123            203 293 
                                                                                
