 2010  513 0432 17.2 L   6.766 -72.986140.4  RSN  5 0.4 1.3LRSN                1
 GAP=177        0.78       5.1    11.2 12.8 -0.6308E+01 -0.5123E+02 -0.9904E+01E
 Epicentro: CEPITA - SANTANDER                                                 3
 ACTION:UP  10-08-24 10:04 OP:vdl  STATUS:               ID:20100513043217 L   I
 2010-05-13-0429-12S.COL___104                                                 6
 STAT SP IPHASW D HRMM SECON CODA AMPLIT PERI AZIMU VELO AIN AR TRES W  DIS CAZ7
 BAR2 SZ ES   3    432 50.56                             169    -0.7 2   29 229 
 BRR  HZ EP        432 38.59                             147    -0.310   89 295 
 BRR  HN ES   2    432 56.24                             147     0.4 5   89 295 
 BRR  HZ I         432 57.88         8.2 0.11                            89 295 
 RUS  HZ EP        432 40.12                             144    -0.110   97 186 
 RUS  HN ES   2    432 58.53                             144     0.4 5   97 186 
 RUS  HZ I         433  1.23         1.7 0.28                            97 186 
 GUE  SZ EP        432 41.42                             138    -0.110  118   3 
 GRA  SZ EP        432 42.48                             136     0.510  125   9 
 GRA  SZ ES   2    433  0.87                             136    -0.4 5  125   9 
                                                                                
