 2016  413 0741 36.5 L   6.794 -73.148139.3  RSN  8 0.4 1.6LRSN                1
 GAP=137        1.03       3.5     4.6  6.8 -0.3367E+01  0.1113E+02 -0.2824E+01E
 Epicentro: LOS SANTOS - SANTANDER                                             3
 ACTION:UPD 16-05-05 14:21 OP:rebc STATUS:               ID:20160413074136 L   I
 OLDACT:UP  16-04-13 19:27 OP:mh   STATUS:               ID:20160413073744     3
 OLDACT:REG 16-04-13 13:23 OP:mh   STATUS:               ID:20160413073744     3
 2016-04-13-0737-44M.COL___309                                                 6
 STAT SP IPHASW D HRMM SECON CODA AMPLIT PERI AZIMU VELO AIN AR TRES W  DIS CAZ7
 BAR2 EZ EP        741 55.31                             170   -0.0510 22.6 190 
 BAR2 EZ ES        742  9.12                             170   -0.9410 22.6 190 
 BAR2 EZ I         742 13.53         7.3 0.25            170           22.6 190 
 PAM  EZ EP        741 58.34                             149    0.2410 78.1  39 
 PAM  EE ES        742 15.51                             149    0.5810 78.1  39 
 PAM  EZ I         742 17.52         3.8 0.52            155           78.1  39 
 RUS  HZ EP        741 59.52                             143   -0.0710 99.9 176 
 RUS  HN ES        742 17.91                             143    0.3210 99.9 176 
 RUS  HZ I         742 19.44         3.4 0.34            148           99.9 176 
 PTB  HZ EP        742  2.61                             131   -0.32 9  147 259 
 PTB  HN ES        742 23.45                             131   -0.08 9  147 259 
 PTB  HZ I         742 31.13         4.4 0.37            132            147 259 
 OCA  HZ EP        742  3.69                             128   -0.71 9  161 353 
 OCA  HN ES        742 26.28                             128    0.13 9  161 353 
 OCA  HZ I         742 30.98        11.7 0.40            131            161 353 
 SPBC HZ EP        742  4.58                             128    0.12 9  162 219 
 SPBC HN ES        742 26.63                             128    0.37 9  162 219 
 SPBC HZ I         742 33.05         8.1 0.28            131            162 219 
 ZAR  HZ EP   1    742  8.73                             121    0.18 6  204 292 
 ZAR  HN ES        742 33.91                             121    0.37 9  204 292 
 ZAR  HZ I         742 39.22         4.8 0.20            123            204 292 
 GUY2CHZ EP        742 19.80                             111    0.03 7  301 235 
 GUY2CHN ES   4    742 57.38                             111    3.88 0  301 235 
                                                                                
