 2012 1013 0101 50.2 L   6.778 -73.138145.3  RSN  5 0.2 1.4LRSN                1
 GAP=187        0.50       6.4     7.9  6.0  0.4036E+02  0.1473E+02  0.8524E+01E
 Epicentro: LOS SANTOS - SANTANDER                                             3
 ACTION:UPD 12-11-22 17:03 OP:ep   STATUS:               ID:20121013010150 L   I
 2012-10-13-0100-00M.COL___232                                                 6
 STAT SP IPHASW D HRMM SECON CODA AMPLIT PERI AZIMU VELO AIN AR TRES W  DIS CAZ7
 BAR2 SZ ES   1    1 2 24.58                             171   -0.42 7 21.1 193 
 BAR2 SZ I         1 2 25.96         6.0 0.26                          21.1 193 
 GIR2 SZ ES   2    1 2 25.35                             166    0.07 5 33.8 350 
 BRR  HZ EP   1    1 2 11.49                             152    0.05 7 73.1 300 
 BRR  HN ES   1    1 2 28.27                             152    0.29 7 73.1 300 
 RUS  HZ EP   1    1 2 13.73                             144   -0.04 7 98.1 176 
 RUS  HN ES   1    1 2 32.33                             144    0.21 7 98.1 176 
 RUS  HZ I         1 2 33.42         2.8 0.32                          98.1 176 
 RUS  HN I         1 2 34.03         6.5 0.26                          98.1 176 
 ZAR  HE ES   1    1 2 48.07                             122   -0.17 6  206 293 
                                                                                
