 2012 1213 0717  7.2 L   6.692 -73.173147.7  RSN  4 0.2 1.5LRSN                1
 GAP=226        0.66       5.5     5.5  7.2  0.1256E+02  0.2297E+00 -0.6642E+01E
 Epicentro: VILLANUEVA - SANTANDER                                             3
 ACTION:UPD 13-01-04 14:27 OP:ep   STATUS:               ID:20121213071707 L   I
 2012-12-13-0710-00M.COL___242                                                 6
 STAT SP IPHASW D HRMM SECON CODA AMPLIT PERI AZIMU VELO AIN AR TRES W  DIS CAZ7
 BAR2 SZ EP        717 26.64                             176   -0.2410 11.0 185 
 BRR  HZ EP        717 28.64                             151   -0.1510 75.2 308 
 BRR  HN ES        717 45.82                             151    0.1910 75.2 308 
 BRR  HN I         717 46.46        11.6 0.38                          75.2 308 
 RUS  HN ES        717 48.48                             148    0.0910 88.9 174 
 RUS  HN I         717 52.49         3.0 0.46                          88.9 174 
 PTB  HZ EP        717 34.30                             133    0.41 9  143 263 
 PTB  HN ES        717 54.43                             133   -0.29 9  143 263 
 PTB  HN I         717 59.18         3.0 0.32                           143 263 
                                                                                
