 2014  513 0104 30.5 L   6.822 -73.180135.9  RSN  5 0.5 1.3LRSN                1
 GAP=131        0.98       6.2     5.0 13.5 -0.7232E+01  0.1799E+02 -0.1659E+01E
 Epicentro: ZAPATOCA - SANTANDER                                               3
 OLDACT:REG 14-05-13 13:26 OP:spq  STATUS:               ID:20140513005809     3
 OLDACT:UP  14-05-13 17:14 OP:spq  STATUS:               ID:20140513005809     3
 OLDACT:UP  14-05-13 17:13 OP:spq  STATUS:               ID:20140513005809     3
 ACTION:UPD 15-03-16 16:57 OP:nd   STATUS:               ID:20140513010430 L   I
 OLDACT:UP  14-05-13 17:16 OP:spq  STATUS:               ID:20140513005809     3
 2014-05-13-0058-09M.COL___251                                                 6
 STAT SP IPHASW D HRMM SECON CODA AMPLIT PERI AZIMU VELO AIN AR TRES W  DIS CAZ7
 PAM  SZ EPg       1 4 52.15                             148    0.4310 78.1  43 
 PAM  SE ESg  1    1 5  7.64                             148   -0.63 7 78.1  43 
 PAM  SZ I         1 5 18.83         3.5 2.38            158           78.1  43 
 RUS  HZ EP   1    1 4 53.30                             141   -0.20 7  103 174 
 RUS  HN ES   1    1 5 12.02                             141    0.57 7  103 174 
 RUS  SZ I         1 5 18.66         2.2 0.94            154            103 174 
 PTB  HZ EP   1    1 4 55.75                             130   -0.63 7  145 258 
 PTB  HE ES        1 5 16.34                             130   -0.22 9  145 258 
 PTB  SZ I         1 5 26.02         5.2 3.14            143            145 258 
 ZAR  HN ES   1    1 5 27.02                             121    0.72 6  200 292 
 NOR  HN ES   1    1 5 32.57                             116   -0.22 6  233 233 
                                                                                
