 2017  813 0904 41.7 L   6.695 -73.301152.0  RSN  4 0.3 1.0LRSN                1
 GAP=176        0.71       8.3     9.2  6.8  0.6482E+02  0.2414E+01 -0.2782E+01E
 Epicentro: GALAN - SANTANDER                                                  3
 ACTION:UPD 17-09-04 20:19 OP:rebc STATUS:               ID:20170813090441 L   I
 OLDACT:REG 17-08-13 12:29 OP:dhb  STATUS:               ID:20170813085740     3
 2017-08-13-0858-00M.COL___404                                                 6
 STAT SP IPHASW D HRMM SECON CODA AMPLIT PERI AZIMU VELO AIN AR TRES W  DIS CAZ7
 BAR2 EZ EP        9 5  2.15                             173    0.1910 17.4 131 
 BAR2 EZ I         9 5 17.46         3.3 0.22             47           17.4 131 
 BRR  HZ EP        9 5  2.69                             156   -0.4610 64.3 315 
 BRR  HN ES        9 5 20.06                             156    0.1710 64.3 315 
 BRR  HZ I         9 5 23.11         1.8 0.36             47           64.3 315 
 RUS  HZ EP        9 5  5.34                             148   -0.1310 92.0 165 
 RUS  HN ES        9 5 24.06                             148    0.0410 92.0 165 
 RUS  HZ I         9 5 24.73         1.3 0.28             47           92.0 165 
 ZAR  HZ EP        9 5 13.89                             125    0.44 9  193 297 
 ZAR  HN ES        9 5 38.04                             125   -0.19 9  193 297 
 ZAR  HZ I         9 5 41.28         1.1 0.23             47            193 297 
                                                                                
