 2014  613 0220  9.6 L   6.817 -73.135135.8  RSN  7 0.4 1.5LRSN                1
 GAP=184        0.91       3.6     5.7  7.7  0.1829E+01  0.1075E+02 -0.1573E+01E
 Epicentro: LOS SANTOS - SANTANDER                                             3
 ACTION:UPD 14-07-01 22:53 OP:nd   STATUS:               ID:20140613022009 L   I
 OLDACT:UP  14-06-13 15:14 OP:mh   STATUS:               ID:20140613021815     3
 OLDACT:REG 14-06-13 13:12 OP:mh   STATUS:               ID:20140613021815     3
 2014-06-13-0218-15M.COL___250                                                 6
 STAT SP IPHASW D HRMM SECON CODA AMPLIT PERI AZIMU VELO AIN AR TRES W  DIS CAZ7
 BAR2 SZ EP   1    220 27.71                             169   -0.40 7 25.4 192 
 BAR2 SZ ES   1    220 42.48                             169   -0.04 7 25.4 192 
 BRR  HZ EP        220 30.31                             151    0.5910 71.4 297 
 BRR  HN ES   1    220 45.29                             151   -0.10 7 71.4 297 
 BRR  HZ I         220 51.83         8.1 0.26            150           71.4 297 
 RUS  HZ EP   1    220 32.97                             141    0.42 7  102 177 
 RUS  HN ES   1    220 50.21                             141   -0.22 7  102 177 
 RUS  HZ I         220 52.72         2.7 0.21            148            102 177 
 PTB  HZ EP        220 35.21                             129   -0.73 9  149 258 
 PTB  HN ES   1    220 55.97                             129   -0.50 7  149 258 
 PTB  HZ I         220 59.00         5.3 0.15            132            149 258 
 OCA  HN ES        220 58.32                             128   -0.06 9  159 353 
 OCA  HZ I         221  1.78         6.8 0.32            131            159 353 
 SPBC HZ EP   1    220 37.35                             126   -0.25 7  165 219 
 SPBC HN ES        220 59.90                             126    0.49 9  165 219 
 ZAR  HZ EP        220 41.54                             120    0.06 9  204 292 
 ZAR  HN ES        221  6.61                             120    0.28 9  204 292 
 ZAR  HZ I         221 14.33         3.1 0.09            123            204 292 
                                                                                
