 2017  913 0249 32.6 L   6.028 -73.668115.7  RSN 10 0.4 1.5LRSN                1
 GAP=109        0.62       2.5     2.8  5.2 -0.1911E+01  0.5630E+01  0.2381E+01E
 Epicentro: VELEZ - SANTANDER                                                  3
 ACTION:UPD 17-10-05 19:11 OP:rebc STATUS:               ID:20170913024932 L   I
 OLDACT:UP  17-09-13 16:02 OP:mg   STATUS:               ID:20170913024738     3
 OLDACT:UP  17-09-13 16:02 OP:mg   STATUS:               ID:20170913024738     3
 OLDACT:UP  17-09-13 16:01 OP:mg   STATUS:               ID:20170913024738     3
 OLDACT:UP  17-09-13 16:00 OP:mg   STATUS:               ID:20170913024738     3
 OLDACT:REG 17-09-13 12:43 OP:mg   STATUS:               ID:20170913024738     3
 2017-09-13-0248-00M.COL___458                                                 6
 STAT SP IPHASW D HRMM SECON CODA AMPLIT PERI AZIMU VELO AIN AR TRES W  DIS CAZ7
 SPBC HZ EP   1    249 49.69                             150   -0.38 7 61.1 227 
 SPBC HN ES   2    250  4.30                             150    0.60 5 61.1 227 
 SPBC HZ I         250  6.30         9.2 0.19            151           61.1 227 
 RUS  HZ EP        249 51.01                             148    0.0310 66.5 103 
 RUS  HN ES        250  5.25                             148   -0.0710 66.5 103 
 RUS  HZ I         250  8.98         6.0 0.58            149           66.5 103 
 BAR2 EZ EP        249 51.64                             142   -0.0810 82.3  41 
 BAR2 EZ ES        250  6.57                             142   -0.0710 82.3  41 
 BAR2 EZ I         250  7.77        29.4 0.30            146           82.3  41 
 BRR  HZ EP   1    249 54.73                             130    0.21 7  119 358 
 BRR  HN ES   1    250 11.89                             130    0.27 7  119 358 
 BRR  HZ I         250 14.16         4.3 0.15            136            119 358 
 NOR  HZ EP        249 56.57                             125   -0.26 9  143 249 
 NOR  HN ES   1    250 15.56                             125   -0.17 7  143 249 
 NOR  HZ I         250 16.82         5.4 0.19            128            143 249 
 CHI  HZ EP   1    249 58.06                             123   -0.48 7  155 183 
 CHI  HN ES   1    250 18.80                             123    0.02 7  155 183 
 CHI  HZ I         250 25.04         1.2 0.31            124            155 183 
 YPLC HZ EP   1    249 58.95                             122    0.44 7  159 116 
 YPLC HN ES   3    250 20.22                             122    1.49 2  159 116 
 YPLC HZ I         250 23.95         6.4 0.38            124            159 116 
 GUY2CHZ EP   1    250  4.50                             115    0.19 6  208 245 
 GUY2CHN ES   3    250 30.60                             115    1.56 2  208 245 
 GUY2CHZ I         250 36.08         2.8 0.42                           208 245 
 ZAR  HZ EP   4    249 59.20                             114   -4.58 0  209 321 
 ZAR  HN ES   4    250 25.68                             114   -2.43 0  209 321 
 ZAR  HZ I         250 28.83         5.3 0.23            118            209 321 
 PRA  HZ EP   2    250 13.92                             106    0.85 4  289 208 
 PRA  HN ES   1    250 44.60                             106   -0.05 5  289 208 
 PRA  HZ I         250 49.23         1.5 0.30            108            289 208 
                                                                                
