 2016  713 0914 31.5 L   7.295 -74.008 12.0  RSN  5 0.6 1.2LRSN                1
 GAP=199        1.50       6.8     4.0 10.7  0.1421E+02 -0.2559E+01  0.1536E+02E
 Epicentro: PUERTO WILCHES - SANTANDER                                         3
 *PTB-ZAR-BRR                                                                  3
 ACTION:UPD 17-03-29 16:50 OP:lp   STATUS:               ID:20160713091431 L   I
 OLDACT:UP  16-07-13 17:07 OP:dani STATUS:               ID:20160713090759     3
 OLDACT:UP  16-07-13 17:06 OP:dani STATUS:               ID:20160713090759     3
 OLDACT:REG 16-07-13 13:29 OP:dani STATUS:               ID:20160713090759     3
 2016-07-13-0907-59S.COL___322                                                 6
 STAT SP IPHASW D HRMM SECON CODA AMPLIT PERI AZIMU VELO AIN AR TRES W  DIS CAZ7
 BRR  HZ EP        914 38.40                             102    0.2710 38.8 122 
 BRR  HE ES   2    914 44.43                             102    1.15 5 38.8 122 
 BRR  HZ I         914 45.20        20.0 0.24            112           38.8 122 
 ZAR  HZ EP        914 45.63                              95   -1.1410 96.3 283 
 ZAR  HE ES        914 59.51                              95    0.8510 96.3 283 
 ZAR  HZ I         915  1.47         5.4 0.50             98           96.3 283 
 PTB  HZ EP   4    914 42.24                              95   -4.65 0 97.1 211 
 PTB  HN ES        914 58.80                              95   -0.0810 97.1 211 
 PTB  HZ I         915  0.01         6.2 0.40             98           97.1 211 
 BAR2 EZ EP        914 50.53                              94   -0.0410  120 130 
 BAR2 EZ ES        915  5.04                              94   -0.3810  120 130 
 RUS  HE ES        915 22.31                              56    0.26 9  186 147 
                                                                                
