 2016  513 0355 10.1 L   6.859 -73.325127.1  RSN  7 0.3 1.6LRSN                1
 GAP=152        0.89       3.0     5.9  6.0  0.6681E+00  0.9928E+01 -0.1414E+01E
 Epicentro: BETULIA - SANTANDER                                                3
 ACTION:UPD 16-08-18 17:45 OP:cam  STATUS:               ID:20160513035510 L   I
 OLDACT:UP  16-05-13 13:21 OP:drio STATUS:               ID:20160513034741     3
 OLDACT:REG 16-05-13 12:29 OP:drio STATUS:               ID:20160513034741     3
 2016-05-13-0347-41M.COL___307                                                 6
 STAT SP IPHASW D HRMM SECON CODA AMPLIT PERI AZIMU VELO AIN AR TRES W  DIS CAZ7
 BAR2 EZ EP        355 27.78                             164    0.0510 33.5 152 
 BAR2 EZ ES        355 41.63                             164    0.1210 33.5 152 
 BAR2 EZ I         355 41.71        10.5 0.18            164           33.5 152 
 BRR  HZ EP        355 28.17                             157    0.0910 50.8 303 
 BRR  HE ES        355 42.30                             157    0.1710 50.8 303 
 BRR  HZ I         355 43.18        12.0 0.12            151           50.8 303 
 RUS  HZ EP        355 32.61                             137   -0.1910  110 166 
 RUS  HN ES        355 50.54                             137   -0.0010  110 166 
 RUS  HZ I         355 51.14         4.1 0.18            136            110 166 
 PTB  HZ EP        355 33.26                             131   -0.6310  130 254 
 PTB  HN ES   4    355 50.79                             131   -1.69 0  130 254 
 PTB  HZ I         355 53.30         6.1 0.20            127            130 254 
 OCA  HZ EP        355 36.10                             126   -0.12 9  153   0 
 OCA  HE ES        355 56.38                             126   -0.25 9  153   0 
 OCA  HZ I         356  0.39         9.6 0.16            128            153   0 
 SPBC HZ EP        355 37.30                             126    0.72 9  157 212 
 SPBC HN ES        355 56.85                             126   -0.41 9  157 212 
 SPBC HZ I         356 12.02         3.3 0.20            123            157 212 
 ZAR  HZ EP        355 39.63                             121    0.49 9  183 293 
 ZAR  HN ES   4    356  2.87                             121    1.03 0  183 293 
 ZAR  HZ I         356  6.30         5.1 0.66            119            183 293 
                                                                                
