 2014  513 0537 50.1 L   6.795 -73.162151.0  RSN  5 0.5 1.4LRSN                1
 GAP=135        1.19       5.2     5.7 11.2  0.5044E+00  0.1814E+02 -0.1441E+02E
 Epicentro: LOS SANTOS - SANTANDER                                             3
 ACTION:UPD 15-03-16 16:57 OP:nd   STATUS:               ID:20140513053750 L   I
 OLDACT:REG 14-05-13 14:04 OP:spq  STATUS:               ID:20140513052809     3
 2014-05-13-0528-09M.COL___248                                                 6
 STAT SP IPHASW D HRMM SECON CODA AMPLIT PERI AZIMU VELO AIN AR TRES W  DIS CAZ7
 PAM  SZ EP        538 13.31                             151    0.2910 78.9  40 
 PAM  SN ES        538 30.91                             151    0.0510 78.9  40 
 PAM  SZ I         538 32.64         3.5 0.60            153           78.9  40 
 RUS  HZ EP        538 15.02                             145    0.6310  100 175 
 RUS  HN ES        538 32.91                             145   -0.3910  100 175 
 PTB  HZ EP        538 16.87                             134   -0.51 9  146 259 
 PTB  HN ES        538 38.37                             134   -0.26 9  146 259 
 PTB  HZ I         538 40.79         2.4 0.12            134            146 259 
 ZAR  HN ES        538 49.18                             124    0.92 9  203 292 
 ZAR  HZ I         538 59.33         2.0 0.10            124            203 292 
 SML  HZ EP        538 26.61                             118   -0.44 8  243 336 
 SML  HN ES        538 55.35                             118   -0.48 8  243 336 
 SML  HZ I         538 59.52         3.1 0.26            119            243 336 
                                                                                
