 2010  613 0119 11.4 L   6.780 -73.102150.0  RSN 13 0.5 3.0LRSN                1
 GAP=129        1.28       4.5     8.6  7.6 -0.2000E+02  0.1328E+02  0.1917E+01E
 Epicentro: LOS SANTOS - SANTANDER                                             3
 ACTION:UP  10-08-24 10:10 OP:vdl  STATUS:               ID:20100613011911 L   I
 2010-06-13-0117-38S.COL___114                                                 6
 STAT SP IPHASW D HRMM SECON CODA AMPLIT PERI AZIMU VELO SNR AR TRES W  DIS CAZ7
 BAR2 SZ IP        119 31.27                             171    -0.210   23 203 
 BAR2 SZ ES   1    119 46.87                             171    -0.3 7   23 203 
 GIR2 SZ EP        119 32.52                             166     0.910   35 343 
 GIR2 SZ ES   1    119 48.06                             166     0.6 7   35 343 
 RUS  HZ IP     D  119 35.09                             145    -0.310   98 179 
 RUS  HE ES   1    119 53.90                             145    -0.2 7   98 179 
 RUS  HZ I         119 55.19        83.4 0.27                            98 179 
 BRI  SZ EP        119 35.84                             142     0.110  109  18 
 BRI  SZ ES   1    119 54.19                             142    -0.5 7  109  18 
 GUE  SZ EP        119 37.34                             140     0.810  118  10 
 GUE  SZ ES   1    119 56.93                             140     0.7 7  118  10 
 GRA  SZ IP        119 37.10                             138     0.010  127  15 
 GRA  SZ ES   1    119 56.51                             138    -0.6 7  127  15 
 OCA  SZ EP        119 39.62                             130    -0.7 9  163 352 
 OCA  SZ ES   1    120  2.21                             130    -0.6 7  163 352 
 OCA  SZ I         120  6.63       272.5 0.29                           163 352 
 CHI  HZ EP   1    119 48.91                             118    -0.3 6  248 196 
 CHI  HN ES   1    120 18.42                             118    -0.3 6  248 196 
 CHI  HZ I         120 26.41        60.9 0.22                           248 196 
 ROSC BZ EP        119 50.74                             117     0.9 8  253 212 
 ROSC BN ES   1    120 19.25                             117    -0.5 6  253 212 
 ROSC BZ I         120 29.06       110.2 0.34                           253 212 
 HEL  HZ EP   1    119 51.84                             115    -0.4 6  276 256 
 HEL  HE ES   1    120 24.21                             115     0.0 6  276 256 
 HEL  HZ I         120 30.93       108.1 0.28                           276 256 
 DBB  SZ EP   1    119 58.84                             110    -0.8 5  344 275 
 TOL  SZ EP        120  0.46                             110     0.4 7  345 225 
 SDV  BZ EP        120  0.77                             109    -0.6 6  358  49 
 SDV  BZ I         120 40.61        16.0 0.39                           358  49 
                                                                                
