 2016  813 0351 50.0 L   6.756 -73.165146.9  RSN  8 0.4 1.6LRSN                1
 GAP=136        1.03       6.0     4.7  7.3  0.7224E+01  0.4709E+01 -0.7689E+01E
 Epicentro: LOS SANTOS - SANTANDER                                             3
 ACTION:UPD 16-10-29 15:35 OP:rebc STATUS:               ID:20160813035150 L   I
 OLDACT:UP  16-08-13 16:08 OP:dani STATUS:               ID:20160813034759     3
 OLDACT:REG 16-08-13 12:28 OP:dani STATUS:               ID:20160813034759     3
 2016-08-13-0347-59S.COL___346                                                 6
 STAT SP IPHASW D HRMM SECON CODA AMPLIT PERI AZIMU VELO AIN AR TRES W  DIS CAZ7
 BAR2 EZ EP        352  9.59                             173   -0.0510 18.2 186 
 BAR2 EZ ES        352 24.31                             173   -0.6710 18.2 186 
 BAR2 EZ I         352 25.23         9.5 0.26                          18.2 186 
 BRR  HZ EP        352 11.41                             152    0.1410 71.9 303 
 BRR  HN ES        352 28.31                             152    0.4210 71.9 303 
 BRR  HZ I         352 32.87         9.6 0.14                          71.9 303 
 PAM  EZ EP        352 12.61                             149   -0.0010 82.6  39 
 PAM  EZ I         352 31.93         6.3 0.44                          82.6  39 
 RUS  HZ EP        352 14.03                             145    0.5410 95.9 175 
 RUS  HN ES        352 32.05                             145    0.2010 95.9 175 
 RUS  HZ I         352 32.91         3.1 0.21                          95.9 175 
 PTB  HZ EP        352 16.49                             133   -0.26 9  145 261 
 PTB  HE ES        352 37.35                             133   -0.30 9  145 261 
 PTB  HZ I         352 39.69         6.0 0.18                           145 261 
 ZAR  HZ EP        352 21.73                             123   -0.74 9  204 294 
 ZAR  HN ES        352 48.39                             123    0.56 9  204 294 
 ZAR  HZ I         352 56.36         6.0 0.50                           204 294 
 HEL  HE ES        353  1.07                             115    0.07 8  269 257 
 SJC  HZ EP   4    352 44.54                             106   -1.37 0  412 328 
 SJC  HZ I         353 29.62         1.7 0.47                           412 328 
                                                                                
