 2011  113 0327 46.4 L   6.606 -73.720 89.3  RSN  9 0.5 1.9LRSN                1
 GAP= 94        1.10       5.4     6.7 14.0 -0.2096E+02  0.5741E+02 -0.2822E+02E
 Epicentro: EL CARMEN DE CHUCURI - SANTANDER                                   3
 ACTION:UP  11-02-08 08:40 OP:pat  STATUS:               ID:20110113032746 L   I
 2011-01-13-0325-46S.COL___136                                                 6
 STAT SP IPHASW D HRMM SECON CODA AMPLIT PERI AZIMU VELO SNR AR TRES W  DIS CAZ7
 BAR2 SZ EP        328  1.56                             144     0.310   59  92 
 BAR2 SZ ES   1    328 13.18                             144     0.3 7   59  92 
 BAR2 SZ I         328 15.24        70.9 0.33                            59  92 
 BTL  SZ EP   1    328  0.60                             143    -0.8 7   61  55 
 RUS  HZ EP   1    328  5.37                             126    -0.3 7  106 138 
 RUS  HZ I         328  6.26         7.3 0.06                           106 138 
 NOR  SZ EP   1    328 12.16                             113    -0.1 7  172 228 
 NOR  SN ES   1    328 31.70                             113    -0.7 7  172 228 
 GRA  SZ EP   1    328 12.79                             112     0.2 7  174  36 
 GRA  SZ ES   1    328 32.53                             112    -0.5 7  174  36 
 GRA  SZ I         328 34.87        20.8 0.25                           174  36 
 OCA  SZ EP        328 13.65                             111    -0.3 9  186  14 
 OCA  SZ ES   1    328 36.10                             111     0.6 7  186  14 
 OCA  SZ I         328 37.89        21.4 0.49                           186  14 
 HEL  HZ EP   1    328 16.31                             109    -0.2 6  205 257 
 HEL  HN ES   2    328 40.65                             109     0.7 4  205 257 
 HEL  HZ I         328 44.46        10.6 0.37                           205 257 
 CHI  HZ EP   1    328 19.03                             107     0.9 6  219 180 
 CHI  HZ I         328 48.14         2.9 0.53                           219 180 
 DBB  SZ EP   1    328 25.32                             103     0.4 6  279 280 
                                                                                
