 2012  113 0343 12.6 L   6.744 -73.167143.9  RSN  6 0.4 1.5LRSN                1
 GAP=179        0.77       7.7     7.6  7.6  0.2623E+02  0.1022E+02  0.7523E+01E
 Epicentro: VILLANUEVA - SANTANDER                                             3
 ACTION:UP  12-02-03 08:17 OP:REBC STATUS:               ID:20120113034312 L   I
 2012-01-13-0340-00M.COL___187                                                 6
 STAT SP IPHASW D HRMM SECON CODA AMPLIT PERI AZIMU VELO SNR AR TRES W  DIS CAZ7
 BAR2 SZ EP   1    343 31.64                             173    -0.3 7   17 186 
 BAR2 SZ ES   1    343 46.58                             173    -0.4 7   17 186 
 BAR2 SZ I         343 47.70         9.4 0.30                            17 186 
 GIR2 SZ EP   1    343 32.13                             165    -0.1 7   37 355 
 GIR2 SZ ES   2    343 47.27                             165    -0.3 5   37 355 
 BRR  HZ EP        343 33.68                             152     0.010   72 304 
 BRR  HE ES   1    343 50.61                             152     0.6 7   72 304 
 BRR  HZ I         343 52.00         7.1 0.18                            72 304 
 RUS  HZ EP   1    343 36.22                             145     0.5 7   95 174 
 RUS  HN ES   2    343 54.21                             145     0.4 5   95 174 
 RUS  HZ I         343 55.12         2.6 0.25                            95 174 
 PTB  HZ EP   1    343 38.80                             132    -0.3 7  144 261 
 PTB  HN ES   2    343 59.28                             132    -0.5 5  144 261 
 ZAR  HN ES   2    344 10.46                             122     0.3 4  204 294 
 ZAR  HZ I         344 13.55         3.3 0.12                           204 294 
                                                                                
