 2011  513 0527  4.4 L   6.766 -73.100142.0  RSN  4 0.2 1.2LRSN                1
 GAP=227        0.40      11.2    13.1  7.0  0.1027E+03 -0.1701E+02 -0.5305E+01E
 Epicentro: LOS SANTOS - SANTANDER                                             3
 ACTION:UP  11-06-29 08:52 OP:tino STATUS:               ID:20110513052704 L   I
 2011-05-13-0525-56S.COL___140                                                 6
 STAT SP IPHASW D HRMM SECON CODA AMPLIT PERI AZIMU VELO SNR AR TRES W  DIS CAZ7
 BAR2 SZ EP   2    527 23.40                             171    -0.1 5   21 205 
 BAR2 SZ I         527 28.15         4.4 0.52                            21 205 
 BTL  SZ EP        527 23.70                             170     0.110   25 312 
 BTL  SZ ES   2    527 38.41                             170    -0.2 5   25 312 
 BRR  HZ EP        527 25.35                             150    -0.110   77 299 
 BRR  HN ES   2    527 42.24                             150     0.3 5   77 299 
 BRR  HZ I         527 44.03         2.3 0.32                            77 299 
 RUS  HZ EP   3    527 27.93                             144     0.5 2   97 179 
 RUS  HN ES   3    527 45.33                             144    -0.2 2   97 179 
                                                                                
