 2015 1013 0904 29.9 L   6.834 -73.112146.3  RSN  7 0.4 1.3LRSN                1
 GAP=139        1.04       3.7     5.2  6.5  0.1166E+01  0.9280E+01 -0.3219E+01E
 Epicentro: LOS SANTOS - SANTANDER                                             3
 ACTION:UPD 15-12-22 20:39 OP:cam  STATUS:               ID:20151013090429 L   I
 OLDACT:REG 15-10-13 14:43 OP:cara STATUS:               ID:20151013085745     3
 2015-10-13-0857-45M.COL___334                                                 6
 STAT SP IPHASW D HRMM SECON CODA AMPLIT PERI AZIMU VELO AIN AR TRES W  DIS CAZ7
 BAR2 EZ EP        9 4 49.37                             169   -0.2710 27.8 196 
 BAR2 EZ ES        9 5  4.91                             169   -0.1710 27.8 196 
 BAR2 EZ I         9 5  6.34         3.7 0.28            173           27.8 196 
 PAM  EZ EP        9 4 52.64                             153    0.8210 72.1  39 
 PAM  EE ES        9 5  8.34                             153   -0.6110 72.1  39 
 PAM  EZ I         9 5 17.21         2.1 0.52            152           72.1  39 
 BRR  HZ EP        9 4 51.20                             152    0.0510 72.8 295 
 BRR  HN ES        9 5  8.55                             152    0.7910 72.8 295 
 RUS  HZ EP        9 4 53.97                             143    0.0610  104 178 
 RUS  HN ES        9 5 12.71                             143    0.0310  104 178 
 RUS  HZ I         9 5 13.71         1.7 0.40            148            104 178 
 SPBC HZ EP        9 4 58.86                             128   -0.03 9  168 219 
 SPBC HE ES        9 5 21.25                             128   -0.29 9  168 219 
 SPBC HZ I         9 5 25.46         3.3 0.40            132            168 219 
 ZAR  HZ EP        9 5  2.74                             122    0.19 8  206 291 
 ZAR  HN ES        9 5 27.73                             122   -0.32 8  206 291 
 ZAR  HZ I         9 5 32.79         2.3 0.28            124            206 291 
 SML  HZ EP        9 5  6.00                             118   -0.31 8  242 334 
 SML  HE ES        9 5 34.50                             118   -0.25 8  242 334 
 SML  HZ I         9 5 44.29         4.2 0.10            119            242 334 
                                                                                
