 2012  613 0204 34.8 L   6.706 -73.210156.9  RSN  4 0.2 1.2LRSN                1
 GAP=231        0.47      12.1     7.4 11.2  0.7443E+02 -0.4424E+02 -0.9307E+02E
 Epicentro: VILLANUEVA - SANTANDER                                             3
 ACTION:UPD 12-08-06 17:49 OP:ep   STATUS:               ID:20120613020434 L   I
 2012-06-13-0200-00M.COL___201                                                 6
 STAT SP IPHASW D HRMM SECON CODA AMPLIT PERI AZIMU VELO AIN AR TRES W  DIS CAZ7
 BAR2 SZ EP   2    2 4 55.28                             175   -0.35 5 13.0 166 
 RUS  HZ EP   1    2 4 59.37                             148    0.33 7 91.1 171 
 RUS  HN ES   1    2 5 17.89                             148   -0.06 7 91.1 171 
 RUS  HZ I         2 5 18.97         2.1 0.44                          91.1 171 
 PTB  HZ EP   1    2 5  1.75                             136   -0.21 7  139 262 
 PTB  HN ES   1    2 5 23.10                             136   -0.03 7  139 262 
 PTB  HZ I         2 5 25.40         2.3 0.42                           139 262 
 ZAR  HE ES   2    2 5 33.79                             125    0.31 4  202 296 
                                                                                
