 2014  613 0341 38.1 L   6.671 -73.150155.1  RSN  5 0.4 1.4LRSN                1
 GAP=227        0.89       8.3     6.7  7.8  0.2650E+02  0.7656E+01 -0.4022E+01E
 Epicentro: VILLANUEVA - SANTANDER                                             3
 ACTION:UPD 14-07-01 22:53 OP:nd   STATUS:               ID:20140613034138 L   I
 OLDACT:REG 14-06-13 13:25 OP:mh   STATUS:               ID:20140613033805     3
 2014-06-13-0338-05M.COL___256                                                 6
 STAT SP IPHASW D HRMM SECON CODA AMPLIT PERI AZIMU VELO AIN AR TRES W  DIS CAZ7
 BAR2 SZ EP        341 59.00                             176    0.2910 9.43 203 
 BAR2 SZ ES        342 14.39                             176   -0.3610 9.43 203 
 BRR  HZ EP        342  0.46                             152   -0.2610 78.7 308 
 BRR  HN ES   1    342 18.64                             152    0.30 7 78.7 308 
 BRR  HZ I         342 21.03         4.3 0.10            148           78.7 308 
 RUS  HZ EP   1    342  1.58                             150   -0.31 7 86.4 175 
 RUS  HZ I    1    342 12.02         1.5 0.08            145           86.4 175 
 RUS  HN ES   1    342 21.12                             150    0.70 7 86.4 175 
 PTB  HZ EP        342  5.70                             135    0.03 9  145 264 
 PTB  HN ES        342 26.74                             135   -0.39 9  145 264 
 PTB  HZ I         342 33.27         4.8 0.13            130            145 264 
 ZAR  HN ES   1    342 38.63                             124    0.65 6  209 296 
 ZAR  HZ I         342 43.39         3.6 0.19            121            209 296 
                                                                                
