 2011 1013 0223 43.6 L   6.777 -73.154137.9  RSN  4 0.2 1.4LRSN                1
 GAP=136        0.42       2.9     4.3  4.5 -0.1231E+00 -0.1263E+01  0.6322E+00E
 Epicentro: LOS SANTOS - SANTANDER                                             3
 ACTION:UPD 12-07-13 16:03 OP:ep   STATUS:               ID:20111013022343 L   I
 2011-10-13-0220-00M.COL___171                                                 6
 STAT SP IPHASW D HRMM SECON CODA AMPLIT PERI AZIMU VELO AIN AR TRES W  DIS CAZ7
 BAR2 SZ EP        224  2.26                             171    0.0510 20.6 189 
 BAR2 SZ ES   1    224 17.01                             171    0.27 7 20.6 189 
 BAR2 SZ I         224 20.80         7.9 0.45                          20.6 189 
 BRR  HZ EP   1    224  4.16                             151    0.25 7 71.6 301 
 BRR  HN ES   1    224 19.52                             151   -0.25 7 71.6 301 
 BRR  HZ I         224 24.64         6.3 0.31                          71.6 301 
 PAM  SZ EP   1    224  5.13                             148    0.00 7 80.0  39 
 PAM  SN ES   1    224 21.85                             148   -0.08 7 80.0  39 
 RUS  HZ EP   1    224  6.20                             143   -0.19 7 98.1 175 
 RUS  HE ES   1    224 24.09                             143   -0.08 7 98.1 175 
 RUS  HZ I         224 26.04         3.5 0.31                          98.1 175 
                                                                                
