 2012  113 0814 26.2 L   6.581 -73.091146.2  RSN  4 0.2 1.6LRSN                1
 GAP=318        0.45       8.8     6.4  6.7  0.1773E+02  0.9976E+01  0.1902E+02E
 Epicentro: CURITI - SANTANDER                                                 3
 ACTION:UP  12-02-03 08:17 OP:REBC STATUS:               ID:20120113081426 L   I
 2012-01-13-0810-00M.COL___186                                                 6
 STAT SP IPHASW D HRMM SECON CODA AMPLIT PERI AZIMU VELO SNR AR TRES W  DIS CAZ7
 BAR2 SZ EP   2    814 45.57                             176    -0.2 5   10 277 
 BAR2 SZ ES   2    815  0.70                             176    -0.2 5   10 277 
 BAR2 SZ I         815  3.53         5.3 0.28                            10 277 
 BRR  HZ EP   1    814 48.66                             147     0.1 7   90 310 
 BRR  HZ I         814 48.94         9.9 0.17                            90 310 
 BRR  HE ES   1    815  6.19                             147     0.2 7   90 310 
 PTB  HZ EP   1    814 53.62                             131     0.1 7  151 268 
 PTB  HN ES   2    815 14.92                             131     0.1 5  151 268 
 ZAR  HN ES   2    815 26.38                             120    -0.6 4  220 297 
 ZAR  HZ I         815 31.89         4.6 0.28                           220 297 
                                                                                
