 2014  713 0023 22.8 L   6.769 -73.176141.6  RSN  8 0.4 1.8LRSN                1
 GAP= 97        1.06       4.4     3.9  6.3 -0.2006E+00  0.2457E+01  0.6754E+00E
 Epicentro: LOS SANTOS - SANTANDER                                             3
 ACTION:UPD 15-03-16 20:43 OP:nd   STATUS:               ID:20140713002322 L   I
 OLDACT:REG 14-07-13 13:10 OP:stll STATUS:               ID:20140713001806     3
 2014-07-13-0018-06M.COL___262                                                 6
 STAT SP IPHASW D HRMM SECON CODA AMPLIT PERI AZIMU VELO AIN AR TRES W  DIS CAZ7
 BAR2 SZ EP        023 42.00                             172    0.1110 19.5 182 
 BAR2 SZ ES        023 57.43                             172    0.6710 19.5 182 
 BAR2 SZ I         023 59.76        14.5 0.26            172           19.5 182 
 BRR  HZ IP     C  023 43.78                             152    0.3110 70.1 302 
 BRR  HN ES        023 59.85                             152    0.2810 70.1 302 
 BRR  HZ I         024  3.46         9.8 0.34            152           70.1 302 
 PAM  SZ EP        023 44.78                             148   -0.1210 82.2  40 
 PAM  SZ I         023 45.10        26.8 0.20            152           82.2  40 
 PAM  SN ES        024  1.56                             148   -0.5610 82.2  40 
 RUS  HZ EP        023 45.93                             144   -0.0210 97.4 174 
 RUS  HN ES        024  3.77                             144   -0.2010 97.4 174 
 RUS  HZ I         024  5.87         8.5 0.30            146           97.4 174 
 PTB  HZ EP        023 48.75                             132   -0.36 9  144 260 
 PTB  HN ES        024  9.44                             132   -0.16 9  144 260 
 PTB  HZ I         024 12.28         5.0 0.16            133            144 260 
 TAM  HZ IP     C  023 50.37                             129   -0.03 9  157 103 
 TAM  HZ I         023 50.52        11.3 0.34            133            157 103 
 SPBC HZ EP        023 50.59                             129    0.03 9  158 219 
 SPBC HN ES        024 11.94                             129   -0.25 9  158 219 
 SPBC HZ I         024 15.40        10.8 0.28            130            158 219 
 ZAR  HZ EP        023 55.82                             122    0.99 9  202 293 
 ZAR  HN ES        024 19.07                             122   -0.72 9  202 293 
 ZAR  HZ I         024 25.71         5.4 0.32            123            202 293 
                                                                                
