 2016 1213 0629 25.4 L   6.753 -73.190154.1  RSN  4 0.3 1.1LRSN                1
 GAP=229        0.74       6.0     5.6  5.9  0.1636E+02  0.2631E+01  0.4818E+00E
 Epicentro: VILLANUEVA - SANTANDER                                             3
 ACTION:UPD 17-01-11 20:14 OP:rebc STATUS:               ID:20161213062925 L   I
 OLDACT:DUP 16-12-13 17:12 OP:e    STATUS:               ID:20161213061749d    3
 2016-12-13-0618-00M.COL___357                                                 6
 STAT SP IPHASW D HRMM SECON CODA AMPLIT PERI AZIMU VELO AIN AR TRES W  DIS CAZ7
 BAR2 EZ EP        629 45.60                             173   -0.3610 17.8 177 
 BAR2 EZ ES        630  1.66                             173   -0.3310 17.8 177 
 BAR2 EZ I         630  3.07         3.4 0.26            166           17.8 177 
 BRR  HZ EP        629 47.54                             154    0.1410 69.7 304 
 BRR  HN ES        630  4.88                             154    0.3410 69.7 304 
 RUS  HZ EP        629 49.69                             147    0.0110 95.8 173 
 RUS  HN ES        630  8.94                             147    0.3410 95.8 173 
 PTB  HZ EP        629 52.72                             135    0.14 9  142 261 
 PTB  HN ES        630 13.47                             135   -0.29 9  142 261 
 PTB  HZ I         630 21.14         1.2 0.37            131            142 261 
                                                                                
