 2016  413 0018 37.1 L   6.803 -73.155146.5  RSN  6 0.3 1.6LRSN                1
 GAP=135        0.79       3.6     3.6  5.9 -0.1750E+01  0.7407E+01 -0.1543E+01E
 Epicentro: LOS SANTOS - SANTANDER                                             3
 ACTION:UPD 16-05-05 14:20 OP:rebc STATUS:               ID:20160413001837 L   I
 OLDACT:UP  16-04-13 15:14 OP:mh   STATUS:               ID:20160413001747     3
 OLDACT:UP  16-04-13 15:00 OP:mh   STATUS:               ID:20160413001747     3
 OLDACT:REG 16-04-13 12:49 OP:mh   STATUS:               ID:20160413001747     3
 2016-04-13-0017-47M.COL___315                                                 6
 STAT SP IPHASW D HRMM SECON CODA AMPLIT PERI AZIMU VELO AIN AR TRES W  DIS CAZ7
 BAR2 EZ EP   1    018 56.90                             170    0.04 7 23.5 187 
 BAR2 EZ ES        019 11.80                             170   -0.4410 23.5 187 
 BAR2 EZ I         019 14.44         9.3 0.12            172           23.5 187 
 PAM  EZ EP        018 59.73                             151    0.2710 77.8  40 
 PAM  EN ES        019 16.90                             151    0.0310 77.8  40 
 PAM  EZ I         019 19.52         5.3 0.54            152           77.8  40 
 RUS  HZ EP        019  0.78                             144   -0.2110  101 175 
 RUS  HN ES        019 19.95                             144    0.3610  101 175 
 RUS  HZ I         019 20.29         4.5 0.26            149            101 175 
 PTB  HZ EP        019  3.66                             132   -0.42 9  147 259 
 PTB  HN ES        019 24.83                             132   -0.26 9  147 259 
 PTB  HZ I         019 27.08         4.8 0.77            133            147 259 
 SPBC HZ EP        019  5.74                             129    0.08 9  163 219 
 SPBC HN ES        019 28.17                             129    0.27 9  163 219 
 SPBC HZ I         019 30.26         8.3 0.20            132            163 219 
 ZAR  HZ EP   1    019  9.21                             123   -0.31 6  203 292 
 ZAR  HE ES        019 35.33                             123    0.55 9  203 292 
 ZAR  HZ I         019 44.68         3.0 0.38            123            203 292 
                                                                                
