 2015  713 0851 32.4 L   7.222 -74.183 10.8  RSN  7 0.4 1.7LRSN                1
 GAP= 92        0.82       2.4     1.8  4.1  0.3301E+00 -0.6057E+00  0.3785E+01E
 Epicentro: PUERTO WILCHES - SANTANDER                                         3
 ACTION:UPD 15-09-08 21:48 OP:cam  STATUS:               ID:20150713085132 L   I
 OLDACT:REG 15-07-13 13:15 OP:spq  STATUS:               ID:20150713084747     3
 2015-07-13-0847-47M.COL___334                                                 6
 STAT SP IPHASW D HRMM SECON CODA AMPLIT PERI AZIMU VELO AIN AR TRES W  DIS CAZ7
 ZAR  HZ IP     D  851 45.41                              95    0.1610 80.2 292 
 ZAR  HN ES        851 55.30                              95    0.0610 80.2 292 
 ZAR  HZ I         851 55.99        30.9 0.13             95           80.2 292 
 BAR2 EZ EP        851 53.15                              93    0.0310  131 122 
 BAR2 EZ ES   1    852  8.89                              93   -0.36 7  131 122 
 BAR2 EZ I         852 11.50         7.2 0.20             93            131 122 
 OCA  HZ EP        851 55.75                              93    0.19 9  147  40 
 OCA  HE ES        852 13.07                              93   -0.51 9  147  40 
 OCA  HZ I         852 17.66        15.6 0.38             92            147  40 
 PAM  EZ EP        851 58.72                              56    0.46 9  164  85 
 PAM  EN ES   1    852 18.12                              56   -0.27 7  164  85 
 PAM  EZ I         852 19.74         8.5 0.46             56            164  85 
 SML  HN ES   1    852 19.83                              56    0.13 7  175   4 
 HEL  HN ES        852 22.64                              56   -0.63 9  187 233 
 HEL  HZ I         852 26.77         6.3 0.22             56            187 233 
 RUS  HZ EP   1    852  2.20                              56    0.63 7  191 140 
 RUS  HN ES        852 24.45                              56    0.16 9  191 140 
 RUS  HZ I         852 26.07        10.5 0.66             56            191 140 
                                                                                
