 2017  413 0304 34.4 L   6.820 -73.086151.0  RSN  4 0.5 1.3LRSN                1
 GAP=143        0.58       3.6     4.5  6.5 -0.1345E+01  0.8631E+00 -0.1295E+01E
 Epicentro: LOS SANTOS - SANTANDER                                             3
 ACTION:UPD 17-05-30 21:11 OP:jn   STATUS:               ID:20170413030434 L   I
 OLDACT:UP  17-04-13 13:53 OP:cog  STATUS:               ID:20170413025744     3
 OLDACT:UP  17-04-13 13:52 OP:cog  STATUS:               ID:20170413025744     3
 OLDACT:REG 17-04-13 12:38 OP:cog  STATUS:               ID:20170413025744     3
 2017-04-13-0258-00M.COL___365                                                 6
 STAT SP IPHASW D HRMM SECON CODA AMPLIT PERI AZIMU VELO AIN AR TRES W  DIS CAZ7
 PAM  EZ EP        3 4 56.77                             154   -0.1110 71.6  37 
 PAM  EE ES        3 5 14.31                             154   -0.0810 71.6  37 
 PAM  EZ I         3 5 16.87         6.8 0.48            157           71.6  37 
 BRR  HZ EP        3 4 56.63                             152    0.2110 76.1 295 
 BRR  HN ES        3 5 13.63                             152    0.0610 76.1 295 
 BRR  HZ I         3 5 17.09         2.9 0.60            149           76.1 295 
 RUS  HZ EP   3    3 4 59.52                             144    0.68 2  103 180 
 RUS  HN ES        3 5 17.91                             144    0.0310  103 180 
 PTB  HZ EP   3    3 5  1.95                             132   -0.50 2  155 259 
 PTB  HN ES   3    3 5 22.26                             132   -2.04 2  155 259 
 PTB  HZ I         3 5 29.36         1.3 0.26            132            155 259 
                                                                                
