 2013  113 0804 54.9 L   6.608 -73.228134.1  RSN  4 0.4 1.2LRSN                1
 GAP=153        1.08       8.4     9.9  9.3  0.5066E+02  0.3339E+02  0.1703E+02E
 Epicentro: CABRERA - SANTANDER                                                3
 ACTION:UPD 13-02-15 09:13 OP:ep   STATUS:               ID:20130113080454 L   I
 2013-01-13-0800-00M.COL___241                                                 6
 STAT SP IPHASW D HRMM SECON CODA AMPLIT PERI AZIMU VELO AIN AR TRES W  DIS CAZ7
 BAR2 SZ ES        8 5 27.40                             177    0.4810 5.30 109 
 BRR  HZ EP        8 5 14.83                             148   -0.3410 76.9 316 
 BRR  HN ES        8 5 30.79                             148   -0.1810 76.9 316 
 BRR  HN I         8 5 31.75         4.5 0.24            150           76.9 316 
 RUS  HZ EP        8 5 16.71                             147    0.5810 80.7 169 
 RUS  HN ES        8 5 32.05                             147   -0.6110 80.7 169 
 RUS  HN I         8 5 36.62         2.2 0.44            145           80.7 169 
 PTB  HZ EP        8 5 19.75                             132   -0.13 9  136 267 
 PTB  HN ES   1    8 5 39.71                             132    0.37 7  136 267 
 PTB  HN I         8 5 42.62         2.4 0.24            131            136 267 
                                                                                
