 2015 1013 0059 55.0 L   6.793 -73.110143.7  RSN  4 0.1 1.3LRSN                1
 GAP=142        0.45       2.4     3.5  3.6 -0.1930E+00 -0.8453E+00  0.3681E+00E
 Epicentro: LOS SANTOS - SANTANDER                                             3
 ACTION:UPD 15-12-22 20:39 OP:cam  STATUS:               ID:20151013005955 L   I
 OLDACT:REG 15-10-13 13:52 OP:cara STATUS:               ID:20151013005745     3
 2015-10-13-0057-45M.COL___334                                                 6
 STAT SP IPHASW D HRMM SECON CODA AMPLIT PERI AZIMU VELO AIN AR TRES W  DIS CAZ7
 BAR2 EZ EP        1 0 14.23                             170   -0.1510 23.6 200 
 BAR2 EZ ES        1 0 29.49                             170   -0.0110 23.6 200 
 BAR2 EZ I         1 0 32.34         2.5 0.28            170           23.6 200 
 BRR  HZ EP        1 0 15.93                             151   -0.2210 75.1 298 
 BRR  HN ES        1 0 32.80                             151    0.1610 75.1 298 
 BRR  HZ I         1 0 33.40         3.5 0.12            153           75.1 298 
 PAM  EZ EP        1 0 17.02                             151    0.1410 75.6  37 
 PAM  EZ I         1 0 17.20         8.0 0.22            153           75.6  37 
 PAM  EN ES        1 0 33.90                             151   -0.0510 75.6  37 
 RUS  HZ EP        1 0 18.67                             144    0.2010 99.6 178 
 RUS  HN ES        1 0 36.72                             144   -0.0610 99.6 178 
 RUS  HZ I         1 0 38.31         2.9 0.22            144           99.6 178 
                                                                                
