 2014  913 0333 49.7 L   6.856 -73.289120.6  RSN 12 0.5 1.9LRSN                1
 GAP=107        1.25       3.0     4.0  6.6 -0.1123E+01  0.8739E+01  0.1466E+01E
 Epicentro: BETULIA - SANTANDER                                                3
 ACTION:UPD 14-10-03 23:04 OP:nd   STATUS:               ID:20140913033349 L   I
 OLDACT:REG 14-09-13 12:49 OP:carl STATUS:               ID:20140913032820     3
 2014-09-13-0328-20M.COL___287                                                 6
 STAT SP IPHASW D HRMM SECON CODA AMPLIT PERI AZIMU VELO AIN AR TRES W  DIS CAZ7
 BAR2 SZ IP     C  334  6.71                             164    0.1310 31.4 158 
 BAR2 SZ ES        334 20.12                             164    0.4010 31.4 158 
 BRR  HZ IP     D  334  7.09                             154   -0.1310 54.4 301 
 BRR  HE ES        334 21.11                             154    0.2510 54.4 301 
 BRR  HZ I         334 21.55        15.5 0.12            154           54.4 301 
 PAM  SZ EP        334 10.26                             143    0.4310 84.2  51 
 PAM  SN ES        334 26.18                             143    0.6810 84.2  51 
 PAM  SZ I         334 28.98        11.8 0.20            145           84.2  51 
 RUS  HZ EP        334 11.63                             135   -0.1810  109 168 
 RUS  HN ES        334 28.35                             135   -0.6710  109 168 
 PTB  HZ EP   4    334 11.94                             129   -1.48 0  134 255 
 PTB  HN ES        334 31.10                             129   -0.7910  134 255 
 PTB  HZ I         334 33.84        21.8 0.44            129            134 255 
 OCA  HZ EP        334 14.96                             125   -0.52 9  153 359 
 OCA  HN ES        334 34.91                             125   -0.66 9  153 359 
 OCA  HZ I         334 35.80        17.6 0.30            126            153 359 
 SPBC HZ EP        334 15.68                             123   -0.32 9  159 213 
 SPBC HE ES        334 36.15                             123   -0.33 9  159 213 
 ZAR  HZ EP        334 19.34                             119    0.50 9  187 292 
 ZAR  HN ES        334 41.99                             119    0.45 9  187 292 
 ZAR  HZ I         334 44.17         6.4 0.24            119            187 292 
 SML  HE ES        334 49.67                             113   -0.59 8  232 338 
 CHI  HZ EP        334 26.07                             111   -0.38 8  251 191 
 CHI  HN ES        334 55.29                             111    0.21 8  251 191 
 CHI  HZ I         335  0.63         3.0 0.28            112            251 191 
 HEL  HZ EP        334 28.30                             110    1.06 8  258 254 
 HEL  HN ES        334 56.24                             110   -0.25 8  258 254 
 HEL  HZ I         335  1.07         4.8 0.32            111            258 254 
 GUY2CHZ EP        334 31.51                             108    0.25 7  292 232 
 GUY2CHN ES        335  4.56                             108    0.91 7  292 232 
 GUY2CHZ I         335 10.45         4.3 0.36                           292 232 
 SJC  HZ EP   4    334 40.78                             102   -2.17 0  396 328 
 SJC  HN ES   4    335 20.87                             102   -3.58 0  396 328 
                                                                                
