 2017  213 0852 51.0 L   6.695 -73.185145.7  RSN  4 0.3 1.0LRSN                1
 GAP=225        0.69       5.4     5.2  5.6  0.1363E+02  0.3724E+01  0.1222E+01E
 Epicentro: VILLANUEVA - SANTANDER                                             3
 ACTION:UPD 17-05-24 15:36 OP:jn   STATUS:               ID:20170213085251 L   I
 OLDACT:DUP 17-02-13 19:01 OP:edw  STATUS:               ID:20170213084748d    3
 2017-02-13-0848-00M.COL___331                                                 6
 STAT SP IPHASW D HRMM SECON CODA AMPLIT PERI AZIMU VELO AIN AR TRES W  DIS CAZ7
 BAR2 EZ EP        853 10.19                             175   -0.2810 11.4 179 
 BAR2 EZ ES        853 25.28                             175   -0.3510 11.4 179 
 BRR  HZ EP        853 12.30                             152   -0.0310 74.0 308 
 BRR  HN ES        853 29.35                             152    0.4110 74.0 308 
 RUS  HZ EP        853 14.28                             147    0.2810 89.5 173 
 RUS  HN ES        853 32.08                             147    0.1610 89.5 173 
 RUS  HZ I         853 33.68         2.5 0.32            145           89.5 173 
 PTB  HZ EP        853 17.36                             133   -0.08 9  142 263 
 PTB  HN ES        853 37.89                             133   -0.15 9  142 263 
 PTB  HZ I         853 40.97         1.1 0.24            132            142 263 
                                                                                
