 2014  413 0910 33.1 L   6.803 -73.147151.0  RSN  9 0.4 1.6LRSN                1
 GAP=119        0.92       2.8     4.4  6.8 -0.3139E+01  0.1620E+01  0.1471E+01E
 Epicentro: LOS SANTOS - SANTANDER                                             3
 ACTION:UPD 14-05-13 23:08 OP:nd   STATUS:               ID:20140413091033 L   I
 OLDACT:UP  14-04-15 04:25 OP:CAM  STATUS:               ID:20140413091033 L   3
 OLDACT:REG 14-04-13 14:36 OP:stll STATUS:               ID:20140413090817     3
 2014-04-13-0908-17M.COL___263                                                 6
 STAT SP IPHASW D HRMM SECON CODA AMPLIT PERI AZIMU VELO AIN AR TRES W  DIS CAZ7
 PAM  SZ EP        910 56.28                             152    0.4110 77.2  40 
 PAM  SZ I         910 56.60        13.9 0.24            147           77.2  40 
 PAM  SN ES        911 13.66                             152    0.0310 77.2  40 
 RUS  HZ EP        910 57.29                             145   -0.1110  101 176 
 RUS  HN ES        911 15.94                             145   -0.4210  101 176 
 RUS  HZ I         911 16.81         2.9 0.38            136            101 176 
 PTB  HZ EP        911  0.55                             133    0.05 9  148 259 
 PTB  HN ES        911 21.60                             133   -0.26 9  148 259 
 PTB  HZ I         911 27.22         6.5 0.32            118            148 259 
 OCA  HN ES        911 24.78                             131    0.61 9  160 353 
 SPBC HZ EP        911  2.39                             130    0.36 9  163 219 
 SPBC HN ES        911 24.64                             130    0.05 9  163 219 
 SPBC HZ I         911 32.19         4.7 0.28            117            163 219 
 ZAR  HZ EP   4    911  7.40                             123    1.53 0  204 292 
 ZAR  HZ I         911 39.83         3.4 0.12            111            204 292 
 SML  HZ EP   4    911  9.05                             118   -0.94 0  243 335 
 SML  HN ES        911 38.03                             118   -0.72 8  243 335 
 CHI  HZ EP        911 11.10                             118   -0.03 8  249 195 
 CHI  HN ES        911 41.15                             118    0.35 8  249 195 
 CHI  HZ I         911 48.99         1.6 0.50            109            249 195 
 SOCV BZ EP        911 15.74                             113   -0.65 7  301  57 
                                                                                
