 2012 1013 0158  2.8 L   6.799 -73.128145.3  RSN  5 0.4 1.6LRSN                1
 GAP=139        0.76       5.2     8.0  7.3 -0.5835E+00 -0.4280E+01  0.4147E+01E
 Epicentro: LOS SANTOS - SANTANDER                                             3
 ACTION:UPD 12-11-22 17:03 OP:ep   STATUS:               ID:20121013015802 L   I
 2012-10-13-0150-00M.COL___232                                                 6
 STAT SP IPHASW D HRMM SECON CODA AMPLIT PERI AZIMU VELO AIN AR TRES W  DIS CAZ7
 BAR2 SZ EP   1    158 22.39                             170    0.03 7 23.7 195 
 BAR2 SZ ES   1    158 37.19                             170   -0.44 7 23.7 195 
 BAR2 SZ I         158 39.71        11.5 0.26                          23.7 195 
 GIR2 SZ EP   1    158 21.51                             167   -0.90 7 31.8 347 
 GIR2 SZ ES   1    158 37.83                             167    0.11 7 31.8 347 
 BRR  HZ EP   1    158 24.00                             152    0.02 7 73.0 298 
 BRR  HZ I         158 25.24         3.3 0.18                          73.0 298 
 BRR  HN ES   1    158 40.83                             152    0.32 7 73.0 298 
 PAM  SZ EP   1    158 25.30                             151    0.43 7 76.2  38 
 PAM  SZ I         158 25.53         9.2 0.22                          76.2  38 
 PAM  SN ES   1    158 42.17                             151    0.07 7 76.2  38 
 RUS  HZ EP   1    158 26.62                             144    0.15 7  100 177 
 RUS  HN ES   1    158 45.15                             144    0.21 7  100 177 
 RUS  HN I         158 46.27         8.6 0.19                           100 177 
                                                                                
