 2014  713 0339 48.5 L   6.823 -73.167143.8  RSN 23 0.5 2.6LRSN                1
 GAP= 69        1.16       2.5     3.1  4.9 -0.1272E+01  0.4816E+01  0.1796E+01E
 Epicentro: LOS SANTOS - SANTANDER                                             3
 ACTION:UPD 15-03-16 20:43 OP:nd   STATUS:               ID:20140713033948 L   I
 OLDACT:REG 14-07-13 13:47 OP:stll STATUS:               ID:20140713033816     3
 2014-07-13-0338-16M.COL___253                                                 6
 STAT SP IPHASW D HRMM SECON CODA AMPLIT PERI AZIMU VELO AIN AR TRES W  DIS CAZ7
 BAR2 SZ IP     D  340  8.16                             169    0.1910 25.5 184 
 BAR2 SZ ES        340 23.38                             169    0.2410 25.5 184 
 BAR2 SZ I         340 24.70       114.3 0.16            165           25.5 184 
 BRR  HZ IP     C  340  9.98                             153    0.6910 67.9 298 
 BRR  HZ I         340 10.18        68.3 0.26            136           67.9 298 
 BRR  HN ES        340 25.92                             153    0.4510 67.9 298 
 PAM  SZ EP     C  340 10.82                             151    0.3010 77.0  42 
 PAM  SZ I         340 11.29       109.2 0.22            144           77.0  42 
 PAM  SN ES        340 27.89                             151    0.2310 77.0  42 
 RUS  HZ EP        340 12.13                             143   -0.1610  103 175 
 RUS  HN ES        340 30.42                             143   -0.4010  103 175 
 RUS  HZ I         340 31.95        79.7 0.28            142            103 175 
 PTB  HZ EP        340 14.59                             132   -0.58 9  146 258 
 PTB  HN ES        340 35.64                             132   -0.32 9  146 258 
 PTB  HZ I         340 42.99        37.9 0.72            121            146 258 
 TAM  HZ IP     C  340 16.40                             130    0.07 9  158 106 
 TAM  HZ I         340 16.49        68.4 0.20            129            158 106 
 TAM  HN ES        340 37.33                             130   -0.68 9  158 106 
 OCA  HZ EP        340 16.36                             130   -0.07 9  158 354 
 OCA  HN ES        340 37.95                             130   -0.24 9  158 354 
 OCA  HZ I         340 47.73        29.2 0.22            119            158 354 
 SPBC HZ EP        340 17.04                             129    0.11 9  164 218 
 SPBC HN ES        340 39.02                             129   -0.06 9  164 218 
 SPBC HZ I         340 41.81        91.7 0.26            121            164 218 
 ZAR  HZ EP        340 20.68                             122    0.15 9  201 292 
 ZAR  HE ES        340 45.58                             122    0.10 9  201 292 
 ZAR  HZ I         340 51.86        26.9 0.38            112            201 292 
 NOR  HZ EP        340 23.85                             118   -0.25 8  234 234 
 NOR  HE ES        340 51.66                             118   -0.18 8  234 234 
 NOR  HZ I         340 57.02        25.3 0.14            111            234 234 
 SML  HZ EP        340 24.77                             117    0.08 8  240 336 
 SML  HN ES        340 52.68                             117   -0.22 8  240 336 
 SML  HZ I         341  2.91        34.5 0.22            109            240 336 
 CHI  HZ EP        340 25.92                             117   -0.40 8  250 194 
 CHI  HZ I         340 26.67        24.3 0.12            111            250 194 
 CHI  HE ES        340 55.29                             117   -0.50 8  250 194 
 ROSC BZ EP        340 27.43                             116    0.78 8  254 210 
 ROSC BN ES        340 56.64                             116    0.26 8  254 210 
 ROSC BZ I         341  3.27        34.5 0.60            110            254 210 
 HEL  HZ EP        340 29.26                             115    0.80 8  270 255 
 HEL  HZ I         341  7.17        19.1 0.24            107            270 255 
 URE  HZ EP        340 27.84                             113   -1.32 7  281 292 
 URE  HZ I         341  9.53        29.1 0.26            105            281 292 
 GUY2CHZ EP        340 32.61                             112    0.61 7  301 234 
 GUY2CHN ES        341  5.67                             112   -0.23 7  301 234 
 GUY2CHZ I         341 15.53        16.9 0.64                           301 234 
 RREF HZ EP        340 35.20                             110    0.63 7  322 229 
 RREF HN ES        341 10.47                             110   -0.01 7  322 229 
 RREF HZ I         341 15.18        22.1 0.28            105            322 229 
 CBOC HZ EP        340 36.14                             110    0.94 7  332 252 
 CBOC HE ES        341 10.24                             110   -1.36 7  332 252 
 CBOC HZ I         341 18.09         5.1 0.36            103            332 252 
 DBB  SZ EP        340 34.52                             109   -1.12 7  337 274 
 TOL  SZ EP        340 37.94                             109    1.22 7  344 224 
 TOL  SN ES        341 14.54                             109    0.22 7  344 224 
 ANIL HE ES        341 16.89                             108   -0.19 6  357 224 
 ANIL HZ I         341 22.42        44.6 0.46            103            357 224 
 PRA  HZ EP        340 41.22                             106   -0.88 6  393 209 
 PRA  HN ES        341 24.12                             106    0.23 6  393 209 
 PRA  HZ I         341 30.10        19.1 0.42            101            393 209 
 ORTC HZ EP        340 42.24                             106   -0.22 6  396 216 
 ORTC HN ES        341 25.37                             106    0.85 6  396 216 
 ORTC HZ I         341 31.62        14.4 0.62            101            396 216 
                                                                                
