 2015 1013 0704  8.0 L   6.791 -73.131142.5  RSN  5 0.2 1.3LRSN                1
 GAP=139        0.60       3.6     5.7  5.1 -0.1268E+02  0.1158E+02 -0.3703E+01E
 Epicentro: LOS SANTOS - SANTANDER                                             3
 ACTION:UPD 15-12-22 20:39 OP:cam  STATUS:               ID:20151013070408 L   I
 OLDACT:DUP 15-10-13 20:48 OP:stll STATUS:               ID:20151013065745d    3
 OLDACT:DUP 15-10-13 20:40 OP:stll STATUS:               ID:20151013065743d    3
 2015-10-13-0657-42M.COL___331                                                 6
 STAT SP IPHASW D HRMM SECON CODA AMPLIT PERI AZIMU VELO AIN AR TRES W  DIS CAZ7
 BAR2 EZ EP        7 4 27.02                             171   -0.2410 22.7 194 
 BAR2 EZ ES        7 4 41.95                             171   -0.3110 22.7 194 
 BAR2 EZ I         7 4 43.26         6.0 0.20            171           22.7 194 
 BRR  HZ EP        7 4 29.05                             151    0.1110 73.1 299 
 PAM  EZ EP        7 4 29.80                             150   -0.0910 77.2  38 
 PAM  EZ I         7 4 30.04         2.7 0.20            151           77.2  38 
 PAM  EN ES        7 4 47.20                             150    0.2610 77.2  38 
 RUS  HZ EP        7 4 31.60                             143    0.2110 99.5 177 
 RUS  HZ I         7 4 31.87         1.8 0.46            144           99.5 177 
 RUS  HN ES        7 4 49.63                             143    0.0310 99.5 177 
 SPBC HZ EP        7 4 36.06                             128   -0.25 9  163 220 
 SPBC HZ I         7 4 36.14         3.4 0.20            129            163 220 
 SPBC HN ES        7 4 58.64                             128    0.28 9  163 220 
                                                                                
