 2012  113 0731 17.8 L   6.798 -73.150145.7  RSN 14 0.4 2.4LRSN                1
 GAP=136        0.77       3.5     4.0  5.5 -0.1673E+01  0.5222E+01  0.5700E+01E
 Epicentro: LOS SANTOS - SANTANDER                                             3
 ACTION:UP  12-02-03 08:17 OP:REBC STATUS:               ID:20120113073117 L   I
 2012-01-13-0730-00M.COL___186                                                 6
 STAT SP IPHASW D HRMM SECON CODA AMPLIT PERI AZIMU VELO SNR AR TRES W  DIS CAZ7
 BAR2 SZ EP        731 37.39                             171    -0.110   23 189 
 BAR2 SZ ES   1    731 52.58                             171    -0.2 7   23 189 
 BAR2 SZ I         731 53.44        34.9 0.31                            23 189 
 GIR2 SZ EP   1    731 37.35                             167    -0.1 7   31 351 
 GIR2 SZ ES   2    731 52.68                             167    -0.2 5   31 351 
 BRR  HZ IP     D  731 39.10                             153     0.110   71 299 
 BRR  HN ES   1    731 56.23                             153     0.8 7   71 299 
 BRR  HZ I         731 59.34        64.0 0.13                            71 299 
 PAM  SZ EP   1    731 40.26                             151     0.2 7   78  40 
 PAM  SN ES   1    731 57.33                             151    -0.1 7   78  40 
 RUS  HZ EP   1    731 41.33                             144    -0.2 7  100 176 
 RUS  HN ES   2    732  0.10                             144     0.0 5  100 176 
 RUS  HZ I         732  1.52        19.2 0.26                           100 176 
 PTB  HZ EP        731 43.89                             132    -0.9 9  147 259 
 PTB  HN ES   1    732  5.14                             132    -0.6 7  147 259 
 OCA  SZ EP   1    731 46.08                             130    -0.1 7  160 353 
 OCA  SZ ES   2    732  8.57                             130     0.3 5  160 353 
 OCA  SZ I         732 17.47        27.0 0.49                           160 353 
 ZAR  HZ EP   2    731 50.36                             122     0.1 4  204 292 
 ZAR  HN ES   1    732 15.53                             122     0.0 6  204 292 
 ZAR  HZ I         732 20.84        31.3 0.30                           204 292 
 NOR  SZ EP   1    731 53.76                             119     0.3 6  234 234 
 CHI  HZ EP   1    731 55.82                             117     0.3 6  248 195 
 CHI  HN ES   2    732 25.10                             117     0.2 4  248 195 
 CHI  HZ I         732 32.97        15.9 0.48                           248 195 
 HEL  HZ EP   2    731 58.24                             115     0.3 4  272 256 
 HEL  HN ES   2    732 29.68                             115     0.4 4  272 256 
 HEL  HZ I         732 35.97        10.2 0.32                           272 256 
 VIL  SZ EP   2    732  1.64                             112     0.4 4  303 191 
 VIL  SE ES   2    732 35.07                             112     0.0 4  303 191 
 VIL  SZ I         732 42.27        10.6 0.34                           303 191 
 RREF HZ EP   2    732  4.20                             111     0.3 3  321 229 
 RREF HN ES   1    732 40.44                             111     0.6 5  321 229 
 RREF HZ I         732 47.41        14.9 0.38                           321 229 
 PRA  HZ EP   2    732 11.60                             106     0.3 3  392 210 
 PRA  HE ES   1    732 53.34                             106     0.3 4  392 210 
                                                                                
