 2013 1213 0422 16.7 L   6.798 -73.165147.0  RSN 14 0.4 2.0LRSN                1
 GAP=134        1.04       2.8     4.1  5.9 -0.9846E+00  0.6093E+01  0.3329E+01E
 Epicentro: LOS SANTOS - SANTANDER                                             3
 ACTION:UPD 14-01-13 10:17 OP:ep   STATUS:               ID:20131213042216 L   I
 OLDACT:REG 13-12-13 07:57 OP:jn   STATUS:               ID:20131213042000     3
 2013-12-13-0420-00M.COL___285                                                 6
 STAT SP IPHASW D HRMM SECON CODA AMPLIT PERI AZIMU VELO AIN AR TRES W  DIS CAZ7
 BAR2 SZ EP        422 36.49                             171    0.0110 22.8 185 
 BAR2 SZ ES        422 51.91                             171    0.0110 22.8 185 
 BAR2 SZ I         422 53.29        24.5 0.44            168           22.8 185 
 BRR  HZ EP        422 38.31                             153    0.4110 69.5 300 
 BRR  HN ES        422 55.58                             153    1.1510 69.5 300 
 BRR  HZ I         422 58.89        12.3 0.12            146           69.5 300 
 PAM  SZ EP        422 39.24                             151    0.0910 78.9  41 
 PAM  SN ES        422 56.32                             151   -0.3310 78.9  41 
 PAM  SZ I         422 58.55        20.7 0.54            148           78.9  41 
 RUS  HZ EP        422 40.66                             144    0.0810  100 175 
 RUS  HN ES        422 59.29                             144    0.1010  100 175 
 RUS  HZ I         423  2.06        10.1 0.42            140            100 175 
 PTB  HZ EP        422 43.49                             133   -0.10 9  146 259 
 PTB  HN ES        423  3.85                             133   -0.71 9  146 259 
 PTB  HZ I         423  6.66        15.6 0.40            126            146 259 
 OCA  HE ES        423  6.65                             130   -0.63 9  160 354 
 OCA  HZ I         423 10.65         9.3 0.18            124            160 354 
 SPBC HN ES        423  6.77                             130   -0.58 9  162 218 
 ZAR  HN ES        423 14.59                             123    0.32 9  202 292 
 ZAR  HZ I         423 20.20        14.3 0.58            117            202 292 
 NOR  HZ EP        422 52.59                             119    0.28 8  233 234 
 NOR  HN ES        423 19.96                             119   -0.12 8  233 234 
 NOR  HZ I         423 25.92         8.3 0.18            113            233 234 
 SML  HN ES        423 21.51                             118   -0.40 8  243 336 
 CHI  HZ EP        422 54.75                             117    0.36 8  248 195 
 CHI  HN ES        423 23.54                             117   -0.24 8  248 195 
 CHI  HZ I         423 29.55         3.8 0.32            113            248 195 
 HEL  HZ EP   2    422 56.34                             115   -0.41 4  270 256 
 HEL  HZ I         423 35.02         4.9 0.22            110            270 256 
 URE  HN ES   4    423 27.37                             114   -2.18 0  282 292 
 CBOC HZ EP   2    423  4.35                             110    0.91 3  332 252 
 PRA  HZ EP        423 10.11                             107   -0.01 6  391 209 
 PRA  HN ES        423 51.77                             107   -0.02 6  391 209 
 PRA  HZ I         423 59.11         4.6 0.24            103            391 209 
 SJC  HZ EP   4    423 10.52                             106   -1.68 0  408 327 
                                                                                
