 2010 1013 0412 30.7 L   6.812 -72.995140.0  RSN  4 0.3 1.6LRSN                1
 GAP=233        0.81       9.8    16.8 13.5  0.4444E+02 -0.1217E+03 -0.4905E+02E
 Epicentro: CEPITA - SANTANDER                                                 3
 ACTION:UP  11-02-18 11:09 OP:tino STATUS:               ID:20101013041230 L   I
 2010-10-13-0410-27S.COL___124                                                 6
 STAT SP IPHASW D HRMM SECON CODA AMPLIT PERI AZIMU VELO SNR AR TRES W  DIS CAZ7
 BAR2 SZ EP   2    412 49.41                             167    -0.4 5   32 221 
 BTL  SZ EP        412 50.32                             167     0.510   32 291 
 BAR2 SZ ES   2    413  4.42                             167    -0.3 5   32 221 
 BAR2 SZ I         413  6.73         6.5 0.13                            32 221 
 BRR  HZ EP        412 51.83                             148    -0.310   86 292 
 BRR  HN ES   1    413  9.02                             148     0.2 7   86 292 
 BRR  HZ I         413 11.47        10.9 0.05                            86 292 
 OCA  SZ EP   1    412 58.41                             129    -0.3 7  162 347 
 OCA  SZ ES   2    413 20.66                             129     0.1 5  162 347 
 OCA  SZ I         413 23.68         3.2 0.18                           162 347 
                                                                                
