 2013  213 0414 57.2 L   6.755 -73.141145.5  RSN  5 0.5 1.8LRSN                1
 GAP=139        1.26       6.5     5.7 11.1  0.2429E+01  0.1126E+02  0.6193E+01E
 Epicentro: LOS SANTOS - SANTANDER                                             3
 ACTION:UPD 13-03-12 09:32 OP:ep   STATUS:               ID:20130213041457 L   I
 2013-02-13-0410-00M.COL___239                                                 6
 STAT SP IPHASW D HRMM SECON CODA AMPLIT PERI AZIMU VELO AIN AR TRES W  DIS CAZ7
 BRR  HZ EP        415 18.59                             151    0.0910 74.2 302 
 BRR  HN ES        415 35.61                             151    0.5010 74.2 302 
 BRR  HN I         415 35.88        16.0 0.34            153           74.2 302 
 PAM  SZ EP        415 19.71                             150    0.0910 81.0  37 
 PAM  SN ES        415 36.56                             150   -0.5310 81.0  37 
 PAM  SN I         415 37.42        10.6 0.48            152           81.0  37 
 RUS  HZ EP        415 20.90                             145    0.3210 95.6 176 
 RUS  HN ES        415 39.07                             145    0.2610 95.6 176 
 RUS  HN I         415 41.00         5.5 0.36            145           95.6 176 
 PTB  HZ EP        415 23.64                             132   -0.48 9  147 261 
 PTB  HN ES        415 44.18                             132   -0.93 9  147 261 
 PTB  HN I         415 46.05         8.0 0.24            133            147 261 
 ZAR  HN ES        415 56.08                             122    0.70 8  206 293 
                                                                                
