 2010  613 0749 49.2 L   6.772 -72.977132.4  RSN  5 0.3 0.7LRSN                1
 GAP=178        0.65       4.5    26.7 10.8 -0.4422E+02 -0.1892E+03  0.3354E+01E
 Epicentro: CEPITA - SANTANDER                                                 3
 ACTION:UP  10-08-24 10:10 OP:vdl  STATUS:               ID:20100613074949 L   I
 2010-06-13-0747-02S.COL___114                                                 6
 STAT SP IPHASW D HRMM SECON CODA AMPLIT PERI AZIMU VELO SNR AR TRES W  DIS CAZ7
 BAR2 SZ EP   1    750  7.24                             166    -0.2 7   30 229 
 GIR2 SZ EP   2    750  7.05                             162    -0.6 5   42 325 
 GIR2 SZ ES   1    750 22.13                             162     0.1 7   42 325 
 RUS  HZ EP   2    750 11.56                             142     0.1 5   98 187 
 RUS  HN ES   1    750 28.88                             142     0.1 7   98 187 
 RUS  HZ I         750 31.77         1.0 0.27                            98 187 
 GUE  SZ EP   1    750 13.39                             136     0.6 7  117   3 
 GRA  SZ EP   1    750 12.90                             134    -0.3 7  125   9 
 GRA  SZ ES   2    750 31.63                             134    -0.3 5  125   9 
                                                                                
