 2011  613 0104 43.0 L   7.438 -73.325119.8  RSN  4 0.3 1.7LRSN                1
 GAP=131        0.59       4.4     7.6  8.9 -0.1223E+02 -0.1251E+01  0.9625E+00E
 Epicentro: EL PLAYON - SANTANDER                                              3
 ACTION:UP  11-07-14 19:04 OP:ep   STATUS:               ID:20110613010443 L   I
 2011-06-13-0102-27S.COL___132                                                 6
 STAT SP IPHASW D HRMM SECON CODA AMPLIT PERI AZIMU VELO SNR AR TRES W  DIS CAZ7
 BRR  HZ IP     C  1 5  0.51                             153     0.110   56 229 
 BRR  HN ES   2    1 5 14.48                             153     0.4 5   56 229 
 BRR  HZ I         1 5 15.27        18.9 0.11                            56 229 
 GRA  SZ EP   1    1 5  2.14                             145     0.2 7   76  49 
 GRA  SZ ES   2    1 5 16.97                             145     0.3 5   76  49 
 GRA  SZ I         1 5 20.50        10.3 0.48                            76  49 
 OCA  SZ EP   1    1 5  2.75                             141    -0.1 7   89   0 
 OCA  SZ ES   2    1 5 17.76                             141    -0.6 5   89   0 
 OCA  SZ I         1 5 20.84         8.9 0.35                            89   0 
 BAR2 SZ EP   1    1 5  3.31                             139    -0.1 7   95 170 
 BAR2 SZ ES   2    1 5 18.99                             139    -0.4 5   95 170 
 BAR2 SZ I         1 5 20.46        11.4 0.19                            95 170 
                                                                                
