 2010  913 0209 23.8 L   6.779 -73.105145.5  RSN  8 0.4 1.9LRSN                1
 GAP=163        1.03       4.4    11.4  8.5 -0.8614E+01 -0.1915E+02 -0.2208E+00E
 Epicentro: LOS SANTOS - SANTANDER                                             3
 ACTION:UP  11-02-18 11:02 OP:tino STATUS:               ID:20100913020923 L   I
 2010-09-13-0207-50S.COL___120                                                 6
 STAT SP IPHASW D HRMM SECON CODA AMPLIT PERI AZIMU VELO SNR AR TRES W  DIS CAZ7
 BAR2 SZ EP   2    2 9 43.48                             171     0.1 5   22 203 
 BAR2 SZ ES   1    2 9 58.32                             171    -0.4 7   22 203 
 BAR2 SZ I         2 9 59.76        13.9 0.25                            22 203 
 BRR  HZ IP        2 9 45.14                             151    -0.110   76 298 
 BRR  HE ES   1    210  2.41                             151     0.5 7   76 298 
 BRR  HZ I         210  6.09        15.0 0.29                            76 298 
 RUS  HZ EP        2 9 47.46                             144     0.110   98 179 
 RUS  HN ES   1    210  5.87                             144     0.1 7   98 179 
 GUE  SZ EP        2 9 47.98                             139    -0.710  118  10 
 GRA  SZ IP        2 9 49.97                             137     0.810  127  15 
 GRA  SZ I         2 9 51.26        12.6 0.41                           127  15 
 OCA  SZ EP   2    2 9 51.95                             129    -0.4 5  163 352 
 OCA  SZ ES   2    210 14.14                             129    -0.5 5  163 352 
 OCA  SZ I         210 17.48        15.2 0.24                           163 352 
 CHI  HZ EP   1    210  1.48                             117     0.1 6  248 196 
 CHI  HE ES   1    210 30.39                             117    -0.3 6  248 196 
 CHI  HZ I         210 34.00         2.3 0.72                           248 196 
 PRA  HZ EP   1    210 17.29                             106    -0.1 4  392 210 
 PRA  HN ES   2    210 59.29                             106     0.2 3  392 210 
 PRA  HZ I         211  5.08         2.4 0.21                           392 210 
                                                                                
