 2013  613 0503 45.9 L   6.821 -73.024146.5  RSN  5 0.1 1.8LRSN                1
 GAP=211        0.37       3.5     7.2  4.0  0.2084E+02 -0.1665E+02 -0.8692E+01E
 Epicentro: CEPITA - SANTANDER                                                 3
 ACTION:UPD 14-01-08 09:54 OP:ep   STATUS:               ID:20130613050345 L   I
 OLDACT:REG 13-06-13 07:43 OP:cam  STATUS:               ID:20130613045959     3
 2013-06-13-0459-59M.COL___261                                                 6
 STAT SP IPHASW D HRMM SECON CODA AMPLIT PERI AZIMU VELO AIN AR TRES W  DIS CAZ7
 BAR2 SZ EP        5 4  5.86                             168    0.1110 30.8 215 
 BAR2 SZ ES        5 4 21.12                             168   -0.1510 30.8 215 
 BAR2 SZ I         5 4 22.23        24.8 0.32            169           30.8 215 
 GIR2 SZ EP        5 4  5.90                             166    0.2010 34.1 327 
 BRR  HZ EP        5 4  7.72                             149   -0.0410 82.3 293 
 BRR  HN ES        5 4 24.91                             149    0.0810 82.3 293 
 BRR  HZ I         5 4 27.92        11.5 0.32            146           82.3 293 
 RUS  HZ EP        5 4  9.81                             143   -0.0410  103 184 
 RUS  HZ I         5 4 10.53         7.3 0.48            146            103 184 
 RUS  HN ES        5 4 28.51                             143   -0.0510  103 184 
 SML  HZ EP   2    5 4 22.72                             117   -0.23 4  248 332 
 SML  HN ES   1    5 4 51.67                             117   -0.20 6  248 332 
 SML  HZ I         5 4 58.89         4.8 0.22            116            248 332 
                                                                                
