 2016 1013 0339 56.5 L   6.744 -73.148144.0  RSN  7 0.5 1.3LRSN                1
 GAP=139        1.27       5.5     5.4  9.1 -0.1863E+01  0.9715E+01  0.5300E+00E
 Epicentro: LOS SANTOS - SANTANDER                                             3
 ACTION:UPD 16-11-09 19:19 OP:rebc STATUS:               ID:20161013033956 L   I
 OLDACT:REG 16-10-13 12:40 OP:y    STATUS:               ID:20161013033741     3
 2016-10-13-0338-00M.COL___363                                                 6
 STAT SP IPHASW D HRMM SECON CODA AMPLIT PERI AZIMU VELO AIN AR TRES W  DIS CAZ7
 BAR2 EZ EP        340 15.66                             173   -0.1710 17.1 193 
 BAR2 EZ ES        340 30.96                             173    0.0710 17.1 193 
 BAR2 EZ I         340 31.15         3.9 0.60            172           17.1 193 
 BRR  HZ EP        340 17.73                             151    0.0810 74.1 303 
 BRR  HE ES        340 34.80                             151    0.6710 74.1 303 
 PAM  EZ EP        340 18.72                             149   -0.1410 82.5  37 
 PAM  EN ES        340 35.62                             149   -0.6710 82.5  37 
 PAM  EZ I         340 38.50         2.8 0.52            151           82.5  37 
 RUS  HZ EP        340 20.15                             145    0.4910 94.4 176 
 RUS  HE ES        340 38.31                             145    0.6110 94.4 176 
 RUS  HZ I         340 39.60         1.9 0.32            146           94.4 176 
 PTB  HZ EP        340 22.98                             132   -0.24 9  146 261 
 PTB  HE ES        340 43.44                             132   -0.60 9  146 261 
 PTB  HZ I         340 45.71         3.1 0.18            131            146 261 
 SPBC HZ EP   2    340 24.86                             130    0.45 5  158 220 
 SPBC HE ES        340 45.29                             130   -0.88 9  158 220 
 SPBC HZ I         340 50.68         2.9 0.12            129            158 220 
 ZAR  HE ES        340 55.06                             122    0.59 8  206 294 
 ZAR  HZ I         341  2.62         2.0 0.26            121            206 294 
                                                                                
