 2016  413 0753 21.6 L   6.796 -73.132144.8  RSN  5 0.3 1.0LRSN                1
 GAP=139        0.68       3.8     4.0  5.3 -0.6795E+01  0.6426E+01 -0.8629E+00E
 Epicentro: LOS SANTOS - SANTANDER                                             3
 *PAM-RUS-SPBC                                                                 3
 ACTION:UPD 16-05-05 14:21 OP:rebc STATUS:               ID:20160413075321 L   I
 OLDACT:UP  16-04-13 19:04 OP:cara STATUS:               ID:20160413074741d    3
 OLDACT:DUP 16-04-13 19:02 OP:cara STATUS:               ID:20160413074741d    3
 OLDACT:REG 16-04-13 13:24 OP:mh   STATUS:               ID:20160413074740     3
 2016-04-13-0747-40M.COL___309                                                 6
 STAT SP IPHASW D HRMM SECON CODA AMPLIT PERI AZIMU VELO AIN AR TRES W  DIS CAZ7
 BAR2 EZ ES        753 56.62                             170    0.3410 23.2 194 
 BAR2 EZ I         753 58.82         3.4 0.36            170           23.2 194 
 PAM  EZ IP        753 43.95                             151    0.3210 76.8  38 
 PAM  EN ES        754  0.40                             151   -0.4510 76.8  38 
 PAM  EZ I         754  3.14         1.6 0.50            154           76.8  38 
 RUS  HZ EP        753 45.10                             144   -0.0710  100 177 
 RUS  HN ES        754  3.67                             144    0.0810  100 177 
 RUS  HZ I         754  4.87         1.2 0.30            149            100 177 
 PTB  HZ EP        753 48.70                             131    0.13 9  149 259 
 PTB  HN ES        754  9.68                             131    0.04 9  149 259 
 PTB  HZ I         754 17.74         0.7 0.44            132            149 259 
 SPBC HZ EP        753 49.90                             129   -0.13 9  164 220 
 SPBC HN ES        754 11.93                             129   -0.32 9  164 220 
 SPBC HZ I         754 13.72         1.7 0.20            131            164 220 
                                                                                
