 2014  413 0036 33.6 L   6.773 -73.145140.7  RSN  6 0.3 1.5LRSN                1
 GAP=138        0.86       3.9     4.3  8.9 -0.4581E+01  0.5568E+01  0.8816E+01E
 Epicentro: LOS SANTOS - SANTANDER                                             3
 ACTION:UPD 14-05-13 23:07 OP:nd   STATUS:               ID:20140413003633 L   I
 OLDACT:DUP 14-04-13 15:53 OP:stll STATUS:               ID:20140413002818d    3
 2014-04-13-0028-17M.COL___269                                                 6
 STAT SP IPHASW D HRMM SECON CODA AMPLIT PERI AZIMU VELO AIN AR TRES W  DIS CAZ7
 BRR  HZ EP        036 54.30                             151   -0.0110 72.7 301 
 BRR  HN ES        037 10.92                             151    0.4710 72.7 301 
 BRR  HZ I         037 11.66         5.5 0.44            150           72.7 301 
 PAM  SZ EP        036 55.60                             149    0.1610 79.7  38 
 PAM  SN ES        037 12.16                             149   -0.3010 79.7  38 
 PAM  SZ I         037 14.25        10.2 0.44            151           79.7  38 
 RUS  HN ES        037 14.70                             144    0.0810 97.6 176 
 RUS  HZ I         037 16.88         4.9 0.32            142           97.6 176 
 PTB  HN ES        037 20.16                             131   -0.64 9  147 260 
 PTB  HZ I         037 23.04         3.7 0.28            130            147 260 
 NOR  HE ES        037 36.74                             118    0.37 8  233 235 
 NOR  HZ I         037 45.23         2.1 0.20            117            233 235 
 CHI  HN ES        037 39.52                             116   -0.14 8  246 195 
                                                                                
