 2017  113 0354 40.3 L   6.539 -73.514112.9  RSN 13 0.6 1.5LRSN                1
 GAP= 65        1.24       3.5     3.2  6.7  0.9053E+00  0.5904E+01  0.4027E+01E
 Epicentro: EL CARMEN - SANTANDER                                              3
 ACTION:UPD 17-05-22 15:58 OP:jn   STATUS:               ID:20170113035440 L   I
 OLDACT:UP  17-01-13 15:16 OP:and  STATUS:               ID:20170113034746     3
 OLDACT:UP  17-01-13 15:16 OP:and  STATUS:               ID:20170113034746     3
 OLDACT:UP  17-01-13 15:14 OP:and  STATUS:               ID:20170113034746     3
 OLDACT:UP  17-01-13 15:13 OP:and  STATUS:               ID:20170113034746     3
 OLDACT:UP  17-01-13 15:10 OP:and  STATUS:               ID:20170113034746     3
 OLDACT:REG 17-01-13 12:38 OP:and  STATUS:               ID:20170113034746     3
 2017-01-13-0348-00M.COL___336                                                 6
 STAT SP IPHASW D HRMM SECON CODA AMPLIT PERI AZIMU VELO AIN AR TRES W  DIS CAZ7
 BAR2 EZ EP        354 56.71                             161    0.2210 37.1  81 
 BAR2 EZ ES        355  9.03                             161   -0.0610 37.1  81 
 BRR  HZ EP        354 57.75                             147    0.0210 66.5 341 
 BRR  HE ES        355 11.57                             147    0.2710 66.5 341 
 RUS  HZ EP        354 59.71                             140   -0.1110 85.9 146 
 RUS  HN ES        355 15.01                             140   -0.0110 85.9 146 
 RUS  HZ I         355 17.00         3.1 0.25            142           85.9 146 
 PTB  HZ IP   2 C  354 59.66                             134   -1.03 5  104 270 
 PTB  HN ES   4    355 14.74                             134   -1.82 0  104 270 
 PTB  HZ I         355 15.79         8.2 0.10            131            104 270 
 PAM  EZ EP        355  3.60                             128    0.2610  126  45 
 PAM  EN ES        355 21.29                             128   -0.0010  126  45 
 PAM  EZ I         355 22.94         4.4 0.14            129            126  45 
 ZAR  HZ EP        355  8.77                             117    0.30 9  182 305 
 ZAR  HN ES   4    355 32.01                             117    1.60 0  182 305 
 ZAR  HZ I         355 33.84         7.3 0.24            116            182 305 
 NOR  HZ EP   3    355  7.50                             117   -1.31 2  185 234 
 NOR  HE ES        355 30.07                             117   -0.95 9  185 234 
 NOR  HZ I         355 39.03         4.1 0.16            116            185 234 
 TAM  HZ EP        355  9.88                             116    0.42 9  191  93 
 TAM  HN ES        355 31.42                             116   -0.76 9  191  93 
 CHI  HN ES        355 38.57                             113    1.27 8  213 187 
 GUY2CHZ EP   9    355 18.46                             109    1.63 0  251 235 
 GUY2CHN ES        355 46.82                             108   -0.11 8  251 235 
 GUY2CHZ I         355 50.10         2.5 0.27                           251 235 
 URE  HZ EP        355 17.09                             108   -0.19 8  260 301 
 URE  HN ES        355 45.43                             108   -0.67 8  260 301 
 URE  HZ I         355 57.85         2.1 0.16            107            260 301 
 CBOC HZ EP        355 21.74                             106    1.21 7  286 255 
 CBOC HN ES        355 52.01                             106    0.13 7  286 255 
 CBOC HZ I         355 55.77         0.9 0.30            105            286 255 
 PTGC HZ EP        355 21.30                             105   -0.68 7  301 149 
 PTGC HN ES        355 53.98                             105   -0.49 7  301 149 
 SJC  HZ EP   4    355 40.19                              99    4.58 0  414 334 
 SJC  HN ES   4    356 16.03                              99   -2.71 0  414 334 
                                                                                
