 2014 1213 0540 55.1 L   6.778 -73.154140.2  RSN 12 0.6 1.7LRSN                1
 GAP= 71        1.50       4.0     5.2  7.7 -0.3722E+01  0.7286E+01  0.2618E+01E
 Epicentro: LOS SANTOS - SANTANDER                                             3
 ACTION:UPD 15-02-10 17:03 OP:nd   STATUS:               ID:20141213054055 L   I
 OLDACT:REG 14-12-13 14:25 OP:stll STATUS:               ID:20141213053739     3
 2014-12-13-0537-39M.COL___294                                                 6
 STAT SP IPHASW D HRMM SECON CODA AMPLIT PERI AZIMU VELO AIN AR TRES W  DIS CAZ7
 BAR2 EZ EP        541 14.31                             171    0.2710 20.8 189 
 BAR2 EZ ES        541 29.22                             171    0.4310 20.8 189 
 BAR2 EZ I         541 31.78        12.5 0.34            167           20.8 189 
 BRR  HZ EP        541 16.14                             151    0.4410 71.6 301 
 BRR  HZ I         541 16.19         8.0 0.14            147           71.6 301 
 BRR  HN ES        541 32.75                             151    1.0010 71.6 301 
 PAM  SZ EP        541 17.21                             149    0.3010 79.9  39 
 PAM  SN ES        541 33.56                             149   -0.3410 79.9  39 
 RUS  HZ EP        541 18.21                             143    0.0410 98.2 175 
 RUS  HN ES        541 35.77                             143   -0.3610 98.2 175 
 RUS  HZ I         541 38.51         6.0 0.24            135           98.2 175 
 PTB  HZ EP        541 20.96                             131   -0.57 9  146 260 
 PTB  HN ES        541 41.30                             131   -0.81 9  146 260 
 PTB  HZ I         541 43.93         8.0 0.40            124            146 260 
 TAM  HZ EP        541 22.46                             129    0.06 9  155 104 
 SPBC HZ EP        541 23.27                             128    0.30 9  161 219 
 SPBC HN ES        541 43.80                             128   -0.88 9  161 219 
 SPBC HZ I         541 49.31         7.9 0.10            121            161 219 
 OCA  HN ES        541 45.15                             128   -0.01 9  163 354 
 OCA  HZ I         541 52.88         3.7 0.64            121            163 354 
 NOR  HZ EP        541 30.64                             118    0.33 8  233 235 
 NOR  HE ES        541 58.36                             118    0.61 8  233 235 
 NOR  HZ I         542  4.15         3.4 0.14            111            233 235 
 SML  HZ EP        541 30.90                             116   -0.75 8  246 336 
 SML  HN ES        541 58.92                             116   -1.22 8  246 336 
 SML  HZ I         542  9.04         4.6 0.10            110            246 336 
 CHI  HZ EP        541 32.26                             116    0.02 8  246 195 
 CHI  HN ES        542  0.39                             116   -0.80 8  246 195 
 CHI  HZ I         542  9.48         2.6 0.34            109            246 195 
 HEL  HZ EP        541 36.39                             114    1.49 8  271 256 
 HEL  HE ES        542  6.14                             114    0.22 8  271 256 
 HEL  HZ I         542 12.01         2.3 0.40            108            271 256 
                                                                                
