 2010  213 0541 39.6 L   6.741 -73.125115.5  RSN  4 0.4 1.8LRSN                1
 GAP=203        0.59       4.6    24.4  9.0 -0.6600E+02  0.1258E+03 -0.8899E+01E
 Epicentro: JORDAN - SANTANDER                                                 3
 ACTION:UP  10-08-24 09:48 OP:vdl  STATUS:               ID:20100213054139 L   I
 2010-02-13-0540-00S.COL___093                                                 6
 STAT SP IPHASW D HRMM SECON CODA AMPLIT PERI AZIMU VELO SNR AR TRES W  DIS CAZ7
 BAR2 SZ EP   1    541 55.70                             171     0.3 7   18 201 
 BAR2 SZ ES   2    542  7.85                             171     0.0 5   18 201 
 OCA  SZ EP   1    542  6.25                             121    -0.2 7  167 353 
 OCA  SZ ES   2    542 27.27                             121    -0.1 5  167 353 
 OCA  SZ I         542 33.21        18.2 0.30                           167 353 
 CHI  HZ EP   1    542 15.39                             111     0.2 6  243 196 
 CHI  HN ES   2    542 42.01                             111    -0.9 4  243 196 
 CHI  HZ I         542 47.06         2.1 0.35                           243 196 
 PRA  HZ EP   1    542 31.38                             101    -0.3 4  388 210 
 PRA  HE ES   2    543 12.99                             101     0.7 3  388 210 
 PRA  HZ I         543 16.81         1.5 0.39                           388 210 
                                                                                
