 2014  813 0647 12.9 L   6.841 -73.171143.7  RSN  8 0.5 1.6LRSN                1
 GAP=199        1.21       4.7     7.3  7.4  0.6165E+01  0.6978E+01 -0.8061E+01E
 Epicentro: ZAPATOCA - SANTANDER                                               3
 ACTION:UPD 14-09-15 21:49 OP:nd   STATUS:               ID:20140813064001dL   I
 OLDACT:UP  14-08-13 15:17 OP:cam  STATUS:               ID:20140813064001dL   3
 OLDACT:UP  14-08-13 15:17 OP:cam  STATUS:               ID:20140813064001dL   3
 OLDACT:DUP 14-08-13 15:06 OP:cam  STATUS:               ID:20140813064001dL   3
 OLDACT:UP  14-08-13 15:06 OP:cam  STATUS:               ID:20140813064000 L   3
 OLDACT:UP  14-08-13 15:06 OP:cam  STATUS:               ID:20140813064000 L   3
 OLDACT:UPD 14-08-13 14:37 OP:CF   STATUS:               ID:20140813064000 L   3
 2014-08-13-0640-00M.COL___285                                                 6
 STAT SP IPHASW D HRMM SECON CODA AMPLIT PERI AZIMU VELO AIN AR TRES W  DIS CAZ7
 BAR2 SZ EP        647 32.42                             169    0.0810 27.5 183 
 BAR2 SZ ES        647 47.53                             169    0.0010 27.5 183 
 BAR2 SZ I         647 48.47         8.2 0.22            168           27.5 183 
 BRR  HZ EP        647 34.10                             154    0.5710 66.6 296 
 BRR  HN ES        647 49.90                             154    0.2410 66.6 296 
 BRR  HZ I         647 52.07         4.8 0.20            151           66.6 296 
 RUS  HZ EP        647 36.60                             142   -0.1610  105 175 
 RUS  HN ES        647 55.41                             142    0.0110  105 175 
 RUS  HZ I         647 56.02         5.2 0.24            143            105 175 
 PTB  HZ EP        647 39.23                             132   -0.26 9  146 257 
 PTB  HN ES        647 59.85                             132   -0.42 9  146 257 
 PTB  HZ I         648  2.09         4.0 0.16            131            146 257 
 SPBC HZ EP        647 41.09                             128   -0.28 9  165 217 
 SPBC HN ES        648  3.21                             128   -0.40 9  165 217 
 SPBC HZ I         648 10.28         5.9 0.28            128            165 217 
 SML  HZ EP        647 48.66                             118   -0.14 8  238 335 
 SML  HN ES        648 16.77                             118   -0.06 8  238 335 
 SML  HZ I         648 21.71         5.3 0.22            118            238 335 
 HEL  HZ EP  4     647 54.40                             115    1.61 8  270 255 
 SJC  HZ EP  4     648  6.52                             106   -1.21 6  404 327 
                                                                                
