 2012  113 0721 13.0 L   6.782 -73.096147.4  RSN 13 0.3 2.0LRSN                1
 GAP=144        0.52       2.5     3.5  4.3 -0.8892E+00  0.3449E+01  0.2573E+01E
 Epicentro: LOS SANTOS - SANTANDER                                             3
 ACTION:UP  12-02-03 08:17 OP:REBC STATUS:               ID:20120113072113 L   I
 2012-01-13-0720-00M.COL___186                                                 6
 STAT SP IPHASW D HRMM SECON CODA AMPLIT PERI AZIMU VELO SNR AR TRES W  DIS CAZ7
 BAR2 SZ EP   1    721 32.82                             171     0.0 7   23 204 
 BAR2 SZ ES   2    721 48.17                             171    -0.1 5   23 204 
 BAR2 SZ I         721 49.51        47.9 0.19                            23 204 
 GIR2 SZ EP   1    721 32.91                             166     0.0 7   35 342 
 GIR2 SZ ES   2    721 47.93                             166    -0.6 5   35 342 
 PAM  SN ES   2    721 53.00                             152     0.3 5   76  35 
 BRR  HZ IP     C  721 34.66                             151     0.010   77 298 
 BRR  HE ES   1    721 51.87                             151     0.3 7   77 298 
 BRR  HZ I         721 52.56        21.4 0.16                            77 298 
 RUS  HZ EP   1    721 36.82                             145     0.1 7   98 179 
 RUS  HN ES   2    721 55.20                             145    -0.1 5   98 179 
 RUS  HZ I         721 56.75        13.2 0.32                            98 179 
 PTB  HZ EP   1    721 39.81                             131    -0.7 7  153 260 
 PTB  HE ES   2    722  2.31                             131     0.3 5  153 260 
 OCA  SZ EP   1    721 41.53                             130    -0.2 7  163 351 
 OCA  SZ ES   2    722  4.45                             130     0.4 5  163 351 
 OCA  SZ I         722  8.58         8.0 0.39                           163 351 
 ZAR  HZ EP   1    721 46.31                             122     0.2 6  210 292 
 ZAR  HE ES   2    722 11.82                             122    -0.2 4  210 292 
 ZAR  HZ I         722 17.18        11.1 0.31                           210 292 
 NOR  SN ES   2    722 17.26                             119    -0.1 4  238 236 
 CHI  HZ EP   1    721 50.97                             118     0.2 6  248 197 
 CHI  HN ES   1    722 20.44                             118     0.3 6  248 197 
 CHI  HZ I         722 23.84         6.1 0.54                           248 197 
 HEL  HZ EP   2    721 53.91                             115     0.1 4  277 256 
 HEL  HE ES   2    722 25.87                             115     0.2 4  277 256 
 HEL  HZ I         722 31.50         3.7 0.37                           277 256 
 RREF HZ EP   2    721 59.93                             111     0.4 3  325 230 
 RREF HN ES   1    722 35.72                             111    -0.1 5  325 230 
 RREF HZ I         722 44.31         5.6 0.41                           325 230 
 PRA  HZ EP   2    722  6.65                             107     0.0 3  393 210 
 PRA  HN ES   2    722 48.48                             107    -0.1 3  393 210 
                                                                                
