 2013  113 0526 28.6 L   6.741 -73.236147.9  RSN  4 0.2 1.4LRSN                1
 GAP=222        0.65       5.2     5.2  6.4  0.1815E+02  0.6163E-01 -0.1255E+01E
 Epicentro: VILLANUEVA - SANTANDER                                             3
 ACTION:UPD 13-02-15 09:13 OP:ep   STATUS:               ID:20130113052628 L   I
 2013-01-13-0520-00M.COL___241                                                 6
 STAT SP IPHASW D HRMM SECON CODA AMPLIT PERI AZIMU VELO AIN AR TRES W  DIS CAZ7
 BRR  HZ EP        526 50.02                             154    0.2710 66.4 308 
 BRR  HN ES        527  6.25                             154    0.0310 66.4 308 
 BRR  HN I         527  7.41        11.9 0.28            151           66.4 308 
 RUS  HZ EP        526 51.97                             146   -0.2510 95.3 170 
 RUS  HN ES        527 10.57                             146   -0.0510 95.3 170 
 RUS  HN I         527 12.61         1.5 0.44            146           95.3 170 
 PTB  HZ EP        526 55.01                             135    0.21 9  137 261 
 PTB  HN ES        527 15.39                             135    0.18 9  137 261 
 PTB  HN I         527 18.49         2.7 0.30            132            137 261 
 ZAR  HN ES        527 24.97                             124   -0.47 9  198 295 
 ZAR  HN I         527 34.73         3.5 0.24            122            198 295 
                                                                                
