 2013  113 0932 43.8 L   6.825 -73.166140.6  RSN  8 0.3 1.8LRSN                1
 GAP=181        0.85       3.3     4.9  6.6  0.4111E+01  0.1130E+02 -0.1715E+01E
 Epicentro: LOS SANTOS - SANTANDER                                             3
 ACTION:UPD 13-02-15 09:13 OP:ep   STATUS:               ID:20130113093243 L   I
 2013-01-13-0930-00M.COL___241                                                 6
 STAT SP IPHASW D HRMM SECON CODA AMPLIT PERI AZIMU VELO AIN AR TRES W  DIS CAZ7
 BAR2 SZ EP        933  3.04                             169    0.2210 25.8 184 
 BAR2 SZ ES        933 17.58                             169   -0.1110 25.8 184 
 BAR2 SZ I         933 19.03        11.3 0.28            169           25.8 184 
 BRR  HZ EP        933  4.88                             153    0.7210 67.9 297 
 BRR  HN I         933 26.10         8.8 0.20            139           67.9 297 
 RUS  HZ EP        933  6.99                             142   -0.2310  104 175 
 RUS  HN ES        933 25.67                             142    0.1410  104 175 
 RUS  HN I         933 26.46         4.8 0.28            132            104 175 
 PTB  HZ EP        933  9.91                             131   -0.25 9  146 258 
 PTB  HN ES        933 30.96                             131    0.20 9  146 258 
 PTB  HN I         933 36.81         6.6 0.28            118            146 258 
 OCA  HN ES        933 32.51                             129   -0.42 9  157 354 
 OCA  HN I         933 36.97        16.9 0.28            115            157 354 
 ZAR  HZ EP        933 15.86                             122    0.31 9  201 292 
 ZAR  HN ES        933 40.02                             122   -0.33 9  201 292 
 ZAR  HN I         933 43.78         7.4 0.28            110            201 292 
 CHI  HN ES        933 50.31                             116   -0.47 8  251 195 
 CHI  HN I         933 57.15         4.0 0.82            107            251 195 
 URE  HZ EP        933 24.17                             113   -0.06 7  281 292 
 URE  HN I         934  9.04         3.7 0.24            104            281 292 
                                                                                
