 2014  713 0035 31.9 L   6.803 -73.207151.1  RSN  6 0.5 1.5LRSN                1
 GAP=129        1.38       7.1     6.1  9.3  0.5198E+01  0.1323E+02 -0.2682E+01E
 Epicentro: ZAPATOCA - SANTANDER                                               3
 ACTION:UPD 15-03-16 20:43 OP:nd   STATUS:               ID:20140713003531 L   I
 OLDACT:DUP 14-07-13 15:04 OP:stll STATUS:               ID:20140713002820d    3
 2014-07-13-0028-18M.COL___262                                                 6
 STAT SP IPHASW D HRMM SECON CODA AMPLIT PERI AZIMU VELO AIN AR TRES W  DIS CAZ7
 BAR2 SZ EP        035 52.43                             171    0.3010 23.4 173 
 BAR2 SZ ES        036  7.54                             171   -0.4010 23.4 173 
 BAR2 SZ I         036  8.74         7.6 0.26            172           23.4 173 
 BRR  HZ EP        035 54.21                             155    0.9410 65.2 301 
 BRR  HN ES        036 10.34                             155    0.3710 65.2 301 
 BRR  HZ I         036 11.60         4.4 0.28            152           65.2 301 
 PAM  SZ EP        035 55.26                             150    0.3710 81.6  43 
 PAM  SZ I         035 55.39        17.5 0.20            151           81.6  43 
 PAM  SN ES        036 12.36                             150   -0.5010 81.6  43 
 RUS  HZ EP        035 56.14                             145   -0.0610  102 172 
 RUS  HZ I         035 57.92         2.3 0.42            146            102 172 
 RUS  HN ES        036 15.10                             145   -0.1010  102 172 
 PTB  HZ EP        035 58.79                             134    0.10 9  141 258 
 PTB  HN ES        036 19.64                             134    0.03 9  141 258 
 PTB  HZ I         036 21.83         3.5 0.10            133            141 258 
 ZAR  HZ EP        036  2.59                             124   -1.42 9  198 293 
 ZAR  HE ES        036 29.11                             124    0.02 9  198 293 
 ZAR  HZ I         036 37.33         3.1 0.18            123            198 293 
                                                                                
