 2017  313 0208  4.3 L   6.563 -73.598109.4  RSN  4 0.2 0.8LRSN                1
 GAP=177        0.57       3.7     2.4  5.8  0.7015E+00  0.2785E+01 -0.1760E+00E
 Epicentro: EL CARMEN - SANTANDER                                              3
 ACTION:UPD 17-05-25 18:39 OP:jn   STATUS:               ID:20170313020804 L   I
 OLDACT:DUP 17-03-13 16:01 OP:cog  STATUS:               ID:20170313015745d    3
 2017-03-13-0158-00M.COL___403                                                 6
 STAT SP IPHASW D HRMM SECON CODA AMPLIT PERI AZIMU VELO AIN AR TRES W  DIS CAZ7
 BAR2 EZ EP        2 8 20.67                             156    0.2410 46.1  86 
 BAR2 EZ ES        2 8 33.14                             156    0.1010 46.1  86 
 RUS  HZ EP        2 8 23.92                             137   -0.1210 93.5 142 
 RUS  HN ES        2 8 39.20                             137   -0.2710 93.5 142 
 RUS  HZ I         2 8 42.42         1.1 0.58            138           93.5 142 
 PTB  HZ EP        2 8 23.46                             136   -0.0510 95.0 269 
 PTB  HN ES        2 8 38.35                             136   -0.1810 95.0 269 
 PTB  HZ I         2 8 40.42         2.3 0.20            138           95.0 269 
 SPBC HN ES        2 8 41.95                             130    0.2910  114 208 
                                                                                
