 2016  713 0659 42.7 L   6.776 -73.290151.9  RSN  4 0.5 1.3LRSN                1
 GAP=267        1.17       7.4    11.4 12.5  0.4519E+01 -0.2941E+02  0.2159E+02E
 Epicentro: ZAPATOCA - SANTANDER                                               3
 ACTION:UPD 17-03-29 16:50 OP:lp   STATUS:               ID:20160713065942 L   I
 OLDACT:UP  16-07-13 16:26 OP:dani STATUS:               ID:20160713065759     3
 OLDACT:REG 16-07-13 13:17 OP:dani STATUS:               ID:20160713065759     3
 2016-07-13-0657-59S.COL___328                                                 6
 STAT SP IPHASW D HRMM SECON CODA AMPLIT PERI AZIMU VELO AIN AR TRES W  DIS CAZ7
 BRR  HZ EP        7 0  3.50                             158   -0.4010 59.3 308 
 BRR  HE ES        7 0 20.69                             158    0.2510 59.3 308 
 BRR  HZ I         7 0 24.22         3.0 0.32            163           59.3 308 
 PTB  HZ EP        7 0  8.50                             137   -0.2710  132 259 
 PTB  HN ES        7 0 28.31                             137   -0.8010  132 259 
 PTB  HZ I         7 0 31.41         2.4 0.14            142            132 259 
 SPBC HZ EP        7 0 10.98                             133    0.39 9  151 215 
 SPBC HN ES        7 0 32.71                             133    0.35 9  151 215 
 SPBC HZ I         7 0 36.91         3.9 0.14            136            151 215 
 ZAR  HN ES        7 0 39.37                             126    0.64 9  190 295 
                                                                                
