 2015  213 0131 13.9 L   6.772 -73.179150.0  RSN  7 0.3 1.6LRSN                1
 GAP=197        0.83       3.2     4.6  5.5  0.1187E+00  0.4590E+01 -0.3207E+01E
 Epicentro: LOS SANTOS - SANTANDER                                             3
 ACTION:UPD 15-04-30 21:25 OP:nd   STATUS:               ID:20150213013113 L   I
 OLDACT:DUP 15-02-13 15:27 OP:fm   STATUS:               ID:20150213012739d    3
 2015-02-13-0127-38M.COL___299                                                 6
 STAT SP IPHASW D HRMM SECON CODA AMPLIT PERI AZIMU VELO AIN AR TRES W  DIS CAZ7
 BAR2 EZ EP        131 34.29                             172    0.3410 19.9 181 
 BAR2 EZ ES        131 49.59                             172   -0.0110 19.9 181 
 BAR2 EZ I         131 51.78         5.0 0.34            173           19.9 181 
 BRR  HZ EP        131 35.74                             154    0.3510 69.6 302 
 BRR  HE ES        131 52.44                             154    0.2710 69.6 302 
 BRR  HZ I         131 57.53         8.0 0.42            151           69.6 302 
 RUS  HZ EP        131 37.85                             145    0.0010 97.8 174 
 RUS  HE ES        131 56.03                             145   -0.5210 97.8 174 
 RUS  HZ I         131 58.42         3.3 0.24            150           97.8 174 
 PTB  HZ EP        131 41.03                             134    0.22 9  144 260 
 PTB  HN ES        132  1.33                             134   -0.50 9  144 260 
 PTB  HZ I         132  4.89         4.9 0.16            134            144 260 
 SPBC HN ES        132  4.64                             131    0.24 9  158 219 
 NOR  HZ EP        131 48.91                             120   -0.43 8  230 235 
 NOR  HE ES        132 17.33                             120    0.33 8  230 235 
 NOR  HZ I         132 23.10         3.4 0.20            122            230 235 
 SML  HZ EP        131 50.76                             118   -0.12 8  245 336 
 SML  HE ES        132 19.35                             118   -0.39 8  245 336 
 SML  HZ I         132 26.78         5.0 0.26            119            245 336 
                                                                                
