 2017  813 0157 37.6 L   6.827 -73.100144.7  RSN 26 0.6 2.5LRSN                1
 GAP= 69        1.15       2.8     2.9  4.8 -0.4932E+00  0.4189E+01  0.2589E+01E
 Epicentro: LOS SANTOS - SANTANDER                                             3
 ACTION:UPD 17-09-04 20:19 OP:rebc STATUS:               ID:20170813015737 L   I
 OLDACT:DUP 17-08-13 13:45 OP:dhb  STATUS:               ID:20170813014744d    3
 OLDACT:REG 17-08-13 11:22 OP:dhb  STATUS:               ID:20170813014742     3
 2017-08-13-0148-00M.COL___413                                                 6
 STAT SP IPHASW D HRMM SECON CODA AMPLIT PERI AZIMU VELO AIN AR TRES W  DIS CAZ7
 BAR2 EZ IP     D  157 57.12                             169   -0.0710 27.5 199 
 BAR2 EZ ES        158 12.00                             169   -0.4710 27.5 199 
 BAR2 EZ I         158 13.04        83.6 0.12            169           27.5 199 
 PAM  EZ IP     D  158  0.07                             152    0.7010 71.8  38 
 PAM  EN ES        158 16.85                             152    0.4910 71.8  38 
 PAM  EZ I         158 18.92        47.7 0.38            147           71.8  38 
 BRR  HZ IP     D  157 58.96                             151    0.1510 74.4 295 
 BRR  HN ES        158 15.87                             151    0.5110 74.4 295 
 BRR  HZ I         158 19.05        64.3 0.28            145           74.4 295 
 RUS  HZ IP        158  1.10                             143   -0.3410  103 179 
 RUS  HN ES        158 19.78                             143   -0.2710  103 179 
 RUS  HZ I         158 20.86        29.4 0.32            139            103 179 
 TAM  HZ IP     D  158  5.47                             131    0.67 9  151 107 
 TAM  HE ES        158 25.76                             131   -0.27 9  151 107 
 TAM  HZ I         158 26.17        24.5 0.34            126            151 107 
 TAM  HZ I         158 26.37        26.7 0.35                           151 107 
 SPBC HZ EP        158  6.07                             128   -0.47 9  169 220 
 SPBC HN ES        158 28.04                             128   -1.08 9  169 220 
 SPBC HZ I         158 29.72        59.1 0.14            122            169 220 
 YPLC HZ IP     D  158  7.53                             126    0.19 9  177 153 
 YPLC HN ES        158 30.62                             126    0.08 9  177 153 
 YPLC HZ I         158 33.91        27.0 0.28            122            177 153 
 ZAR  HZ EP        158  9.96                             121   -0.38 8  208 291 
 ZAR  HN ES        158 35.64                             121   -0.25 8  208 291 
 TABC EZ EP        158 14.64                             118    0.81 8  235 211 
 TABC EZ ES        158 42.56                             118    0.46 8  235 211 
 TABC EZ I         158 46.72        41.2 0.38            113            235 211 
 NOR  HZ EP        158 13.47                             118   -0.42 8  241 235 
 NOR  HE ES        158 41.75                             118   -0.46 8  241 235 
 NOR  HZ I         158 42.79        33.1 0.18            112            241 235 
 CHI  HZ EP        158 15.41                             116   -0.28 8  253 196 
 CHI  HN ES        158 44.82                             116   -0.60 8  253 196 
 CHI  HZ I         158 51.72        14.7 0.46            112            253 196 
 ROSC BZ EP        158 16.74                             116    0.52 8  258 212 
 ROSC BN ES        158 47.50                             116    1.14 8  258 212 
 ROSC BZ I         158 51.02        34.7 0.45            111            258 212 
 HEL  HZ EP        158 18.89                             114    0.51 7  278 255 
 HEL  HE ES   2    158 52.21                             114    2.01 4  278 255 
 HEL  HZ I         158 56.19        21.9 0.30            109            278 255 
 URE  HZ EP   2    158 18.15                             113   -0.86 4  287 291 
 URE  HE ES   3    158 48.67                             113   -2.66 2  287 291 
 URE  HZ I         158 58.98        22.1 0.16            108            287 291 
 VIL  EZ EP   1    158 20.68                             111   -0.73 5  307 192 
 VIL  EN ES        158 55.03                             111   -0.56 7  307 192 
 VIL  EZ I         158 59.24        18.5 0.30            107            307 192 
 GUY2CHZ EP        158 21.51                             112   -0.31 7  307 235 
 GUY2CHN ES        158 56.58                             112    0.27 7  307 235 
 GUY2CHZ I         159  3.73        25.3 0.40                           307 235 
 PTGC HZ IP     D  158 20.21                             111   -1.30 7  310 160 
 PTGC HE ES   4    158 53.57                             111   -2.20 0  310 160 
 PTGC HZ I         158 55.23         6.8 0.20            107            310 160 
 LL6C HZ EP        158 22.94                             110    0.01 7  322 357 
 LL6C HZ I         158 57.10        10.4 0.60            105            322 357 
 LL6C HE ES   2    158 57.19                             110   -1.10 3  322 357 
 ELA  HZ EP        158 25.84                             110    0.78 7  335 230 
 ELA  HN ES        159  2.73                             110    0.64 7  335 230 
 ELA  HZ I         159 15.30        15.6 0.42            105            335 230 
 CBOC HZ EP        158 25.26                             109    0.14 7  339 252 
 CBOC HN ES        159  2.01                             109   -0.19 7  339 252 
 CBOC HZ I         159 13.82         7.7 0.54            105            339 252 
 DBB  EZ EP        158 25.57                             109   -0.01 7  344 274 
 DBB  EE ES   2    159  1.75                             109   -1.27 3  344 274 
 DBB  EZ I         159  6.34         9.3 0.16            104            344 274 
 ANIL HZ EP        158 28.07                             108    0.06 6  363 225 
 ANIL HE ES        159  7.62                             108    0.27 6  363 225 
 ANIL HZ I         159 17.17        31.2 0.52            104            363 225 
 PRA  HZ EP        158 31.62                             106   -0.05 6  397 210 
 PRA  HE ES        159 13.39                             106   -0.47 6  397 210 
 PRA  HZ I         159 18.21        22.1 0.28            102            397 210 
 ORTC HZ EP        158 32.38                             106    0.27 6  401 217 
 ORTC HE ES        159 15.17                             106    0.53 6  401 217 
 ORTC HZ I         159 21.56        10.9 0.26            102            401 217 
 SJC  HZ EP   9    158 31.22                             105   -1.93 0  410 326 
 SJC  HN ES        159 14.33                                   -0.23 6  410 326 
 SJC  HZ I         159 17.07         7.2 0.52            101            410 326 
 PAL  HZ IP     C  158 33.11                             105   -0.30 6  412 239 
 PAL  HN ES   3    159 19.04                             105    2.09 1  412 239 
 PAL  HZ I         159 29.52         5.1 0.34            101            412 239 
                                                                                
