 2017  813 0905 32.5 L   6.806 -73.111143.8  RSN 11 0.5 1.6LRSN                1
 GAP=216        1.10       4.3     4.7  6.2  0.7191E+01  0.6976E+01  0.6857E+01E
 Epicentro: LOS SANTOS - SANTANDER                                             3
 ACTION:UPD 17-09-04 20:19 OP:rebc STATUS:               ID:20170813090532 L   I
 OLDACT:DUP 17-08-13 18:06 OP:dhb  STATUS:               ID:20170813085741d    3
 OLDACT:REG 17-08-13 12:29 OP:dhb  STATUS:               ID:20170813085740     3
 2017-08-13-0858-00M.COL___404                                                 6
 STAT SP IPHASW D HRMM SECON CODA AMPLIT PERI AZIMU VELO AIN AR TRES W  DIS CAZ7
 BAR2 EZ EP        9 5 51.92                             170   -0.0310 25.0 199 
 BAR2 EZ ES        9 6  6.77                             170   -0.3310 25.0 199 
 BAR2 EZ I         9 6  8.43        12.3 0.17            167           25.0 199 
 BRR  HZ IP     C  9 5 53.81                             151    0.1810 74.3 297 
 BRR  HN ES        9 6 10.52                             151    0.4110 74.3 297 
 BRR  HZ I         9 6 14.63         7.9 0.15            153           74.3 297 
 RUS  HZ EP        9 5 56.13                             143    0.0210  101 178 
 RUS  HN ES        9 6 14.27                             143   -0.2510  101 178 
 RUS  HZ I         9 6 16.24         3.0 0.30            143            101 178 
 SPBC HZ EP        9 6  1.83                             128    0.68 9  166 220 
 SPBC HE ES        9 6 23.06                             128   -0.43 9  166 220 
 SPBC HZ I         9 6 29.02         6.4 0.28            129            166 220 
 YPLC HZ EP        9 6  1.25                             126   -0.80 9  176 153 
 YPLC HN ES        9 6 26.15                             126    1.06 9  176 153 
 YPLC HZ I         9 6 31.65         3.1 0.48            128            176 153 
 ZAR  HZ EP        9 6  4.72                             121   -0.46 8  207 292 
 ZAR  HN ES        9 6 30.32                             121   -0.34 8  207 292 
 NOR  HZ EP        9 6  8.99                             118    0.47 8  238 235 
 NOR  HN ES        9 6 36.57                             118   -0.03 8  238 235 
 NOR  HZ I         9 6 37.90         2.5 0.25            119            238 235 
 CHI  HZ EP        9 6 10.44                             116    0.15 8  250 196 
 CHI  HN ES        9 6 39.37                             116   -0.39 8  250 196 
 CHI  HZ I         9 6 43.71         1.5 0.13            118            250 196 
 GUY2CHZ EP   1    9 6 17.09                             112    0.65 5  305 235 
 GUY2CHN ES        9 6 51.08                             112    0.38 7  305 235 
 GUY2CHZ I         9 6 56.48         2.9 0.14                           305 235 
 PTGC HN ES   2    9 6 48.63                             111   -1.65 4  308 159 
 PRA  HZ EP        9 6 25.95                             106   -0.32 6  395 210 
 PRA  HE ES        9 7  8.09                             106   -0.10 6  395 210 
 PRA  HZ I         9 7 14.39         3.9 0.63            107            395 210 
                                                                                
