 2013 1113 0102 56.2 L   6.817 -73.194142.4  RSN  7 0.4 1.8LRSN                1
 GAP=197        0.83       3.4     5.1  6.2  0.2439E+01  0.4874E+01 -0.7384E+01E
 Epicentro: ZAPATOCA - SANTANDER                                               3
 ACTION:UPD 14-01-09 16:27 OP:ep   STATUS:               ID:20131113010256 L   I
 OLDACT:REG 13-11-13 07:28 OP:nd   STATUS:               ID:20131113010000     3
 2013-11-13-0100-00M.COL___276                                                 6
 STAT SP IPHASW D HRMM SECON CODA AMPLIT PERI AZIMU VELO AIN AR TRES W  DIS CAZ7
 BAR2 SZ EP        1 3 15.67                             170    0.1710 24.9 177 
 BAR2 SZ ES        1 3 30.45                             170   -0.0810 24.9 177 
 BAR2 SZ I         1 3 32.20        29.0 0.30            170           24.9 177 
 BRR  HZ EP        1 3 17.48                             154    0.7610 65.6 299 
 BRR  HN ES   2    1 3 33.29                             154    0.60 5 65.6 299 
 BRR  HZ I         1 3 47.12        12.9 0.40            150           65.6 299 
 RUS  HZ EP        1 3 19.63                             142   -0.2110  103 173 
 RUS  HN ES        1 3 37.83                             142   -0.4210  103 173 
 RUS  HZ I         1 3 39.74         6.6 0.24            151            103 173 
 PTB  HZ EP        1 3 22.65                             132    0.15 9  143 258 
 PTB  HN ES        1 3 42.69                             132   -0.29 9  143 258 
 PTB  HZ I         1 3 50.01         3.9 0.42            134            143 258 
 SPBC HZ EP        1 3 24.65                             128    0.34 9  161 217 
 SPBC HN ES        1 3 46.10                             128   -0.11 9  161 217 
 SPBC HZ I         1 3 50.95         7.8 0.40            134            161 217 
 SML  HZ EP        1 3 32.01                             117   -0.24 8  240 336 
 SML  HN ES        1 3 59.98                             117   -0.36 8  240 336 
 SML  HZ I         1 4  4.05         9.9 0.10            122            240 336 
 SJC  HZ EP   2    1 3 50.91                             105   -0.25 3  405 327 
 SJC  HN ES   2    1 4 33.50                             105   -0.51 3  405 327 
 SJC  HZ I         1 4 35.35         1.7 0.66            110            405 327 
                                                                                
