 2012  213 0847 36.7 L   6.802 -73.094144.0  RSN 14 0.3 2.5LRSN                1
 GAP=143        0.51       2.4     3.2  4.0 -0.3641E+00  0.3459E+01  0.2725E+01E
 ACTION:UP  12-03-07 16:30 OP:epov STATUS:               ID:20120213084736 L   I
 2012-02-13-0840-00M.COL___188                                                 6
 STAT SP IPHASW D HRMM SECON CODA AMPLIT PERI AZIMU VELO AIN AR TRES W  DIS CAZ7
 BAR2 SZ IP        847 56.20                             170   -0.0110 25.2 203 
 BAR2 SZ I         847 56.52        70.0 0.11                          25.2 203 
 BAR2 SZ ES   2    848 11.13                             170   -0.25 5 25.2 203 
 GIR2 SZ IP        847 56.28                             167    0.0410 32.5 340 
 GIR2 SZ ES   2    848 10.89                             167   -0.56 5 32.5 340 
 PAM  SZ EP   2    847 59.04                             152    0.48 5 73.7  36 
 PAM  SE ES   2    848 16.16                             152    0.59 5 73.7  36 
 BRR  HZ IP     C  847 58.07                             151    0.0710 76.2 296 
 BRR  HZ I         847 58.43        73.9 0.14                          76.2 296 
 BRR  HN ES   1    848 15.07                             151    0.50 7 76.2 296 
 RUS  HZ EP   1    848  0.12                             144   -0.21 7  101 179 
 RUS  HE ES   2    848 18.72                             144    0.00 5  101 179 
 RUS  HZ I         848 20.22        27.1 0.24                           101 179 
 PTB  HZ EP   9    848  2.85                             131   -1.24 0  153 259 
 PTB  HE ES   9    848 23.95                                   -0.23 0  153 259 
 OCA  SZ EP   1    848  4.75                             129   -0.22 7  161 351 
 OCA  SZ ES   2    848 26.57                             129   -0.42 5  161 351 
 ZAR  HZ EP   1    848  9.02                             121   -0.60 6  209 291 
 ZAR  HN ES   1    848 35.18                             121   -0.08 6  209 291 
 ZAR  HZ I         848 40.15        52.3 0.29                           209 291 
 NOR  SZ EP   1    848 12.64                             118   -0.26 6  240 235 
 NOR  SE ES   2    848 40.76                             118   -0.33 4  240 235 
 CHI  HZ EP   2    848 14.70                             117    0.15 4  250 196 
 CHI  HE ES   2    848 43.95                             117   -0.08 4  250 196 
 CHI  HZ I         848 51.31         9.6 0.29                           250 196 
 ROSC BZ EP   2    848 15.42                             116    0.30 4  256 212 
 ROSC BN ES   2    848 45.52                             116    0.46 4  256 212 
 ROSC BZ I         848 53.99        26.5 0.41                           256 212 
 HEL  HZ EP   2    848 17.87                             114    0.37 4  278 256 
 HEL  HN ES   2    848 49.82                             114    0.54 4  278 256 
 HEL  HZ I         848 55.30        21.0 0.37                           278 256 
 RREF HE ES   2    848 59.76                             110    0.09 3  326 230 
 RREF HZ I         849  6.34        13.2 0.37                           326 230 
 DBB  SZ EP   2    848 25.41                             109    0.60 3  345 274 
 PRA  HZ EP        848 30.48                             106   -0.09 6  395 210 
 PRA  HN ES   2    849 12.24                             106   -0.31 3  395 210 
                                                                                
