 2013  613 0525 56.6 L   6.841 -73.107148.7  RSN  9 0.4 1.8LRSN                1
 GAP=187        0.77       3.3     4.8  5.5 -0.3116E+00  0.3369E+01 -0.1267E+00E
 Epicentro: LOS SANTOS - SANTANDER                                             3
 ACTION:UPD 14-01-08 09:54 OP:ep   STATUS:               ID:20130613052556 L   I
 OLDACT:DUP 13-06-13 09:31 OP:cam  STATUS:               ID:20130613051960d    3
 OLDACT:REG 13-06-13 07:44 OP:cam  STATUS:               ID:20130613051959     3
 2013-06-13-0519-59M.COL___261                                                 6
 STAT SP IPHASW D HRMM SECON CODA AMPLIT PERI AZIMU VELO AIN AR TRES W  DIS CAZ7
 GIR2 SZ EP        526 16.63                             169    0.1010 27.9 340 
 BAR2 SZ EP        526 16.76                             169    0.0710 28.8 197 
 BAR2 SZ ES        526 32.10                             169   -0.2710 28.8 197 
 BAR2 SZ I         526 33.91         8.6 0.18            167           28.8 197 
 BRR  HZ IP     C  526 18.45                             152    0.2910 73.0 294 
 BRR  HZ I         526 18.62        16.1 0.34            151           73.0 294 
 BRR  HN ES        526 35.47                             152    0.4910 73.0 294 
 RUS  HZ EP        526 20.89                             143   -0.0610  105 179 
 RUS  HN ES        526 39.99                             143    0.0510  105 179 
 RUS  HZ I         526 41.82         5.1 0.46            142            105 179 
 PTB  HZ EP   1    526 23.41                             132   -0.85 7  153 257 
 PTB  HN ES   1    526 45.29                             132   -0.56 7  153 257 
 PTB  HZ I         526 46.29         8.9 0.38            130            153 257 
 OCA  HN ES   1    526 46.31                             131   -0.43 7  156 351 
 SML  HZ EP   1    526 33.18                             118    0.04 6  241 334 
 SML  HZ I         527  5.58         8.7 0.10            117            241 334 
 NOR  HN ES        527  1.91                             118    0.25 8  241 234 
 PRA  HZ EP   2    526 51.54                             107    0.61 3  398 210 
 PRA  HN ES   1    527 33.29                             107   -0.02 4  398 210 
 PRA  HZ I         527 41.94         2.8 0.70            106            398 210 
                                                                                
