 2014  713 0141 53.3 L   6.827 -73.166138.3  RSN  8 0.4 1.5LRSN                1
 GAP=105        1.03       4.2     3.7  6.1 -0.8872E-01  0.2524E+01  0.1013E+01E
 Epicentro: LOS SANTOS - SANTANDER                                             3
 ACTION:UPD 15-03-16 20:43 OP:nd   STATUS:               ID:20140713014153 L   I
 OLDACT:REG 14-07-13 13:28 OP:stll STATUS:               ID:20140713013811     3
 2014-07-13-0138-11M.COL___259                                                 6
 STAT SP IPHASW D HRMM SECON CODA AMPLIT PERI AZIMU VELO AIN AR TRES W  DIS CAZ7
 BAR2 SZ EP        142 12.35                             169    0.2510 26.0 184 
 BAR2 SZ I         142 12.62         4.0 0.34            168           26.0 184 
 BAR2 SZ ES        142 27.08                             169    0.3210 26.0 184 
 BRR  HZ EP        142 13.77                             152    0.3110 67.8 297 
 BRR  HE ES        142 29.75                             152    0.5710 67.8 297 
 BRR  HZ I         142 33.41         6.9 0.36            150           67.8 297 
 PAM  SZ EP        142 14.94                             150    0.2510 76.6  42 
 PAM  SZ I         142 15.09         9.7 0.16            153           76.6  42 
 PAM  SN ES        142 30.73                             150   -0.6310 76.6  42 
 RUS  HZ EP        142 16.76                             141    0.1910  104 175 
 RUS  HZ I         142 17.56         1.9 0.26            142            104 175 
 RUS  HN ES        142 34.10                             141   -0.6110  104 175 
 PTB  HZ EP        142 18.84                             131   -0.68 9  146 258 
 PTB  HN ES        142 39.69                             131   -0.29 9  146 258 
 PTB  HZ I         142 41.65         4.2 0.28            130            146 258 
 TAM  HZ EP        142 20.73                             128    0.04 9  158 106 
 SPBC HZ EP        142 21.57                             127    0.24 9  164 218 
 SPBC HN ES        142 43.45                             127    0.26 9  164 218 
 SPBC HZ I         142 49.70         5.3 0.32            127            164 218 
 ZAR  HZ EP        142 24.94                             121    0.00 9  201 292 
 ZAR  HE ES        142 49.26                             121   -0.36 9  201 292 
 ZAR  HZ I         142 55.65         5.3 0.46            121            201 292 
                                                                                
