 2011  513 0145 52.8 L   6.565 -73.418118.8  RSN  8 0.2 1.5LRSN                1
 GAP=178        0.60       4.2     7.3  4.9  0.4594E+01 -0.5959E+01 -0.3312E+01E
 Epicentro: HATO - SANTANDER                                                   3
 ACTION:UP  11-06-29 08:52 OP:tino STATUS:               ID:20110513014552 L   I
 2011-05-13-0143-12S.COL___141                                                 6
 STAT SP IPHASW D HRMM SECON CODA AMPLIT PERI AZIMU VELO SNR AR TRES W  DIS CAZ7
 BAR2 SZ EP        146  9.30                             167     0.010   26  84 
 BAR2 SZ ES   1    146 21.75                             167    -0.4 7   26  84 
 BAR2 SZ I         146 23.71        16.7 0.24                            26  84 
 BTL  SZ IP        146 10.08                             160     0.210   42  23 
 BTL  SZ ES   1    146 23.46                             160     0.3 7   42  23 
 GIR2 SZ EP        146 10.64                             151    -0.110   62  24 
 BRR  HZ EP        146 10.75                             148    -0.210   68 332 
 BRR  HN ES   2    146 25.08                             148     0.0 5   68 332 
 BRR  HZ I         146 26.61         8.8 0.23                            68 332 
 RUS  HZ EP        146 12.86                             143     0.210   83 153 
 RUS  HN ES   3    146 27.92                             143    -0.2 2   83 153 
 RUS  HZ I         146 29.47         6.7 0.29                            83 153 
 PAM  SZ EP        146 15.42                             133     0.010  117  43 
 BRI  SZ EP   1    146 17.88                             126     0.3 7  145  28 
 GRA  SZ EP        146 18.89                             123    -0.4 9  161  25 
 GRA  SZ I         146 22.27         3.3 0.47                           161  25 
                                                                                
