 2016 1013 0740 29.9 L   6.818 -73.154145.3  RSN  8 0.4 1.4LRSN                1
 GAP=238        0.90       4.1     4.6  6.0  0.5724E+01  0.5009E+01  0.5869E+01E
 Epicentro: LOS SANTOS - SANTANDER                                             3
 ACTION:UPD 16-11-09 19:19 OP:rebc STATUS:               ID:20161013074029 L   I
 OLDACT:REG 16-10-13 12:54 OP:y    STATUS:               ID:20161013073743     3
 2016-10-13-0738-00M.COL___354                                                 6
 STAT SP IPHASW D HRMM SECON CODA AMPLIT PERI AZIMU VELO AIN AR TRES W  DIS CAZ7
 BAR2 EZ EP        740 49.46                             170   -0.0210 25.1 187 
 BAR2 EZ ES        741  4.26                             170   -0.5110 25.1 187 
 BAR2 EZ I         741  6.90         9.2 0.28            168           25.1 187 
 BRR  HZ EP        740 51.29                             153    0.4210 69.4 297 
 BRR  HN ES        741  7.60                             153    0.3510 69.4 297 
 BRR  HZ I         741 11.51         3.7 0.21            150           69.4 297 
 RUS  HZ EP        740 53.70                             143   -0.0210  103 176 
 RUS  HN ES        741 12.74                             143    0.4210  103 176 
 RUS  HZ I         741 13.32         3.2 0.27            145            103 176 
 PTB  HZ EP        740 56.19                             132   -0.56 9  147 258 
 PTB  HN ES        741 17.33                             132   -0.39 9  147 258 
 PTB  HZ I         741 19.03         2.4 0.12            131            147 258 
 SPBC HZ EP        740 58.44                             129    0.02 9  164 218 
 SPBC HE ES        741 20.61                             129   -0.08 9  164 218 
 SPBC HZ I         741 26.24         4.0 0.11            129            164 218 
 ZAR  HE ES        741 27.22                             122   -0.05 9  202 292 
 ZAR  HZ I         741 35.48         2.2 0.17            123            202 292 
 NOR  HE ES        741 34.17                             118    0.68 8  235 234 
 NOR  HZ I         741 38.25         2.4 0.21            119            235 234 
 CHI  HZ EP        741  7.77                             117    0.05 8  250 195 
 CHI  HN ES        741 36.94                             117   -0.30 8  250 195 
 CHI  HZ I         741 39.16         1.2 0.10            118            250 195 
                                                                                
