 2011  613 0512 24.8 L   6.775 -73.136143.2  RSN  9 0.4 1.6LRSN                1
 GAP=157        0.93       4.5     9.3  7.7 -0.1932E+02  0.3726E+01 -0.1735E+01E
 Epicentro: LOS SANTOS - SANTANDER                                             3
 ACTION:UP  11-07-14 19:04 OP:ep   STATUS:               ID:20110613051224 L   I
 2011-06-13-0510-32S.COL___132                                                 6
 STAT SP IPHASW D HRMM SECON CODA AMPLIT PERI AZIMU VELO SNR AR TRES W  DIS CAZ7
 BAR2 SZ EP   1    512 44.04                             171    -0.1 8   21 194 
 BAR2 SZ ES   2    512 59.00                             171    -0.1 5   21 194 
 BAR2 SZ I         513  1.13        11.1 0.45                            21 194 
 BTL  SZ EP   1    512 44.32                             171     0.2 8   22 318 
 BTL  SZ ES   2    512 58.88                             171    -0.3 5   22 318 
 GIR2 SZ EP   2    512 44.10                             166    -0.2 5   34 349 
 GIR2 SZ ES   2    512 59.23                             166    -0.2 5   34 349 
 BRR  HZ EP   1    512 45.51                             151    -0.3 8   73 300 
 BRR  HE ES   2    513  2.86                             151     0.6 5   73 300 
 BRR  HZ I         513  6.24        13.2 0.16                            73 300 
 RUS  HZ EP   1    512 47.97                             144    -0.2 8   98 177 
 RUS  HN ES   1    513  6.55                             144     0.3 8   98 177 
 RUS  HZ I         513  8.37         5.1 0.52                            98 177 
 BRI  SZ EP        512 49.37                             140     0.710  111  20 
 BRI  SZ ES        513  7.50                             140     0.310  111  20 
 BRI  SZ I         513 10.35         3.5 0.35                           111  20 
 GRA  SZ EP        512 49.59                             136    -0.510  128  17 
 GRA  SZ ES        513  9.11                             136    -0.610  128  17 
 GRA  SZ I         513 10.45         4.1 0.34                           128  17 
 OCA  SZ EP   1    512 53.36                             128     0.1 7  163 353 
 OCA  SZ ES   2    513 15.83                             128     0.5 5  163 353 
 OCA  SZ I         513 18.66         3.9 0.13                           163 353 
 NOR  SN ES   2    513 27.80                             118    -0.2 4  234 235 
                                                                                
