 2012 1013 0556  3.1 L   6.788 -73.144141.7  RSN  7 0.4 1.7LRSN                1
 GAP=137        0.74       3.7     5.3  7.0  0.1642E+01  0.7664E+01  0.8040E+01E
 Epicentro: LOS SANTOS - SANTANDER                                             3
 ACTION:UPD 12-11-22 17:03 OP:ep   STATUS:               ID:20121013055603 L   I
 2012-10-13-0550-00M.COL___231                                                 6
 STAT SP IPHASW D HRMM SECON CODA AMPLIT PERI AZIMU VELO AIN AR TRES W  DIS CAZ7
 BAR2 SZ EP   1    556 22.19                             171   -0.07 9 22.1 191 
 BAR2 SZ ES   1    556 36.42                             171   -0.74 9 22.1 191 
 BAR2 SZ I         556 38.64        17.6 0.15                          22.1 191 
 GIR2 SZ ES   1    556 37.86                             166    0.50 9 32.6 350 
 BRR  HZ EP   1    556 23.96                             151    0.07 9 72.0 299 
 BRR  HZ I         556 25.04         6.3 0.12                          72.0 299 
 BRR  HE ES   1    556 40.62                             151    0.54 9 72.0 299 
 PAM  SZ EP   1    556 25.06                             150    0.08 9 78.3  39 
 PAM  SZ I         556 25.31         3.9 0.18                          78.3  39 
 PAM  SN ES   1    556 41.78                             150   -0.23 9 78.3  39 
 PAM  SN I         556 43.83        12.4 0.46                          78.3  39 
 RUS  HZ EP   1    556 26.42                             143    0.02 9 99.3 176 
 RUS  HZ I         556 27.40         6.6 0.12                          99.3 176 
 RUS  HN ES   1    556 44.55                             143    0.01 9 99.3 176 
 RUS  HN I         556 46.37         8.0 0.21                          99.3 176 
 ZAR  HN ES   1    557  0.00                             121   -0.54 8  205 292 
 ZAR  HN I         557  1.43         8.8 0.14                           205 292 
 CHI  HN ES        557  9.80                             116    0.1910  247 195 
                                                                                
