 2017  713 0211  2.0 L   6.786 -73.141144.0  RSN  4 0.4 1.3LRSN                1
 GAP=237        0.92       8.0     7.2  7.7  0.3070E+02  0.7262E+01  0.7173E+01E
 Epicentro: LOS SANTOS - SANTANDER                                             3
 ACTION:UPD 17-08-30 15:32 OP:rebc STATUS:               ID:20170713021102 L   I
 OLDACT:REG 17-07-13 12:44 OP:dnl  STATUS:               ID:20170713020743     3
 2017-07-13-0208-00M.COL___374                                                 6
 STAT SP IPHASW D HRMM SECON CODA AMPLIT PERI AZIMU VELO AIN AR TRES W  DIS CAZ7
 BAR2 EZ EP        211 21.37                             171   -0.0110 22.0 192 
 BAR2 EZ ES        211 36.06                             171   -0.4510 22.0 192 
 BAR2 EZ I         211 37.46         3.8 0.10            170           22.0 192 
 BRR  HZ EP   2    211 23.26                             152    0.24 5 72.4 299 
 BRR  HE ES        211 39.73                             152    0.3110 72.4 299 
 BRR  HZ I         211 42.07         5.8 0.46            152           72.4 299 
 RUS  HZ EP        211 25.91                             144    0.4510 99.0 176 
 RUS  HN ES        211 43.80                             144    0.0410 99.0 176 
 RUS  HZ I         211 45.90         2.1 0.14            145           99.0 176 
 PTB  HZ EP        211 28.17                             131   -0.67 9  148 259 
 PTB  HN ES        211 49.99                             131    0.21 9  148 259 
 PTB  HZ I         211 51.95         2.3 0.12            132            148 259 
                                                                                
