 2016  213 0007 23.8 L   6.817 -73.182144.6  RSN  4 0.1 1.5LRSN                1
 GAP=145        0.38       2.4     2.4  4.7 -0.2697E+01  0.4489E+01 -0.2331E+01E
 Epicentro: ZAPATOCA - SANTANDER                                               3
 ACTION:UP  16-03-04 21:25 OP:rebc STATUS:               ID:20160213000003 L   I
 OLDACT:UP  16-03-03 16:05 OP:cam  STATUS:               ID:20160213000003 L   3
 OLDACT:UPD 16-03-03 14:57 OP:rebc STATUS:               ID:20160213000003 L   3
 2016-02-13-0000-03M.COL___314                                                 6
 STAT SP IPHASW D HRMM SECON CODA AMPLIT PERI AZIMU VELO AIN AR TRES W  DIS CAZ7
 PAM  EZ EP        0 7 46.05                             150    0.0910 78.6  43 
 PAM  EN ES        0 8  3.26                             150    0.0110 78.6  43 
 PAM  EZ  IAML     0 8  5.48         7.0 0.60                          78.6  43 
 RUS  HZ EP   2    0 7 47.69                             143    0.09 5  103 174 
 RUS  HN ES        0 8  6.04                             143   -0.1310  103 174 
 RUS  HZ  IAML     0 8  6.49         2.3 0.34                           103 174 
 PTB  HZ EP        0 7 50.22                             132   -0.13 9  144 258 
 PTB  HN ES        0 8 11.06                             132   -0.00 9  144 258 
 PTB  HZ  IAML     0 8 13.78         7.7 0.12                           144 258 
 SPBC HN ES   1    0 8 14.49                             129    0.29 7  162 217 
 ZAR  HE ES   4    0 8 22.61                             123    2.00 0  200 292 
                                                                                
