 2012 1013 0156 35.8 L   6.749 -73.117143.0  RSN  5 0.3 1.5LRSN                1
 GAP=143        0.56       4.1     5.9  5.8 -0.8173E+00 -0.1548E+01 -0.1932E+01E
 Epicentro: LOS SANTOS - SANTANDER                                             3
 ACTION:UPD 12-11-22 17:03 OP:ep   STATUS:               ID:20121013015635 L   I
 2012-10-13-0150-00M.COL___232                                                 6
 STAT SP IPHASW D HRMM SECON CODA AMPLIT PERI AZIMU VELO AIN AR TRES W  DIS CAZ7
 BAR2 SZ EP   1    156 55.05                             172    0.03 7 18.8 203 
 BAR2 SZ ES   1    157  9.87                             172   -0.14 7 18.8 203 
 BAR2 SZ I         157 10.80         9.9 0.22                          18.8 203 
 GIR2 SZ EP   1    156 54.72                             165   -0.62 7 37.4 347 
 GIR2 SZ ES   1    157 10.39                             165   -0.18 7 37.4 347 
 BRR  HZ EP   1    156 57.20                             150    0.21 7 76.8 301 
 BRR  HZ I         156 57.61         4.3 0.14                          76.8 301 
 BRR  HN ES   1    157 13.69                             150    0.18 7 76.8 301 
 PAM  SZ EP   1    156 58.08                             149    0.19 7 79.9  35 
 PAM  SN ES   1    157 15.30                             149    0.19 7 79.9  35 
 RUS  HN ES   1    157 17.00                             145    0.14 7 94.8 178 
 RUS  HN I         157 18.99         6.3 0.24                          94.8 178 
                                                                                
