 2016  313 0540  8.4 L   6.792 -73.155149.6  RSN  9 0.3 1.8LRSN                1
 GAP=136        0.74       2.4     3.2  5.1 -0.1218E+01  0.4613E+01  0.2022E+01E
 Epicentro: LOS SANTOS - SANTANDER                                             3
 ACTION:UPD 16-05-13 21:23 OP:cam  STATUS:               ID:20160313054008 L   I
 OLDACT:REG 16-03-13 14:11 OP:cara STATUS:               ID:20160313053750     3
 2016-03-13-0537-50M.COL___289                                                 6
 STAT SP IPHASW D HRMM SECON CODA AMPLIT PERI AZIMU VELO AIN AR TRES W  DIS CAZ7
 BAR2 EZ IP        540 28.63                             171    0.1710 22.4 188 
 BAR2 EZ ES        540 44.39                             171    0.2710 22.4 188 
 BAR2 EZ I         540 45.15        13.3 0.20            171           22.4 188 
 PAM  EZ EP     C  540 31.36                             151    0.2710 78.6  40 
 PAM  EZ I         540 31.71        15.2 0.22            153           78.6  40 
 PAM  EN ES        540 48.76                             151   -0.0410 78.6  40 
 RUS  HZ EP        540 32.24                             145   -0.2310 99.8 175 
 RUS  HN ES        540 51.26                             145    0.0110 99.8 175 
 RUS  HZ I         540 52.47        10.1 0.30            146           99.8 175 
 PTB  HZ EP        540 36.03                             133    0.46 9  147 259 
 PTB  HN ES        540 56.50                             133   -0.28 9  147 259 
 PTB  HZ I         541  2.09         4.6 0.32            132            147 259 
 OCA  HN ES        540 58.92                             130   -0.52 9  161 354 
 OCA  HZ I         541  2.47         9.8 0.54            130            161 354 
 SPBC HZ EP        540 36.54                             130   -0.53 9  162 219 
 SPBC HN ES        540 59.31                             130   -0.13 9  162 219 
 SPBC HZ I         541  2.27        15.8 0.24            130            162 219 
 ZAR  HN ES        541  6.83                             123    0.35 9  203 292 
 ZAR  HZ I         541 12.44         6.1 0.24            122            203 292 
 CHI  HZ EP        540 46.41                             118    0.22 8  248 195 
 CHI  HZ I         540 49.25         2.8 0.28            119            248 195 
 CHI  HN ES        541 15.56                             118   -0.11 8  248 195 
 GUY2CHN ES        541 26.15                             113    0.07 7  300 235 
 GUY2CHZ I         541 36.19         2.4 0.62                           300 235 
                                                                                
