 2011 1213 0545 25.9 L   6.713 -73.244143.1  RSN  4 0.5 1.3LRSN                1
 GAP=161        0.96       8.1     9.5 11.1  0.4452E+02  0.4781E+00  0.6912E+00E
 Epicentro: VILLANUEVA - SANTANDER                                             3
 ACTION:UPD 12-07-13 16:15 OP:ep   STATUS:               ID:20111213054525 L   I
 2011-12-13-0540-00M.COL___185                                                 6
 STAT SP IPHASW D HRMM SECON CODA AMPLIT PERI AZIMU VELO AIN AR TRES W  DIS CAZ7
 GIR2 SZ EP   2    545 44.66                             163   -0.85 5 40.9   8 
 BRR  HZ EP   1    545 46.40                             153   -0.12 7 67.6 310 
 BRR  HE ES        546  2.85                             153    0.2210 67.6 310 
 BRR  HZ I         546  7.90         7.2 0.44                          67.6 310 
 RUS  HZ EP   1    545 48.58                             146   -0.19 7 92.4 169 
 RUS  HN ES        546  6.72                             146    0.0810 92.4 169 
 RUS  HZ I         546 10.58         2.0 0.29                          92.4 169 
 PTB  HZ EP   1    545 52.37                             134    0.87 7  135 262 
 PTB  HE ES   1    546 10.78                             134   -0.72 7  135 262 
                                                                                
