 2016  513 0257 22.5 L   6.764 -73.160138.9  RSN  8 0.4 1.4LRSN                1
 GAP=136        0.94       4.0     4.0  7.1 -0.3891E+01  0.1054E+02 -0.1770E+01E
 Epicentro: LOS SANTOS - SANTANDER                                             3
 ACTION:UPD 16-08-18 17:45 OP:cam  STATUS:               ID:20160513025722 L   I
 OLDACT:REG 16-05-13 12:26 OP:drio STATUS:               ID:20160513024747     3
 2016-05-13-0247-47M.COL___304                                                 6
 STAT SP IPHASW D HRMM SECON CODA AMPLIT PERI AZIMU VELO AIN AR TRES W  DIS CAZ7
 BAR2 EZ EP        257 41.16                             172   -0.0410 19.1 187 
 BAR2 EZ ES        257 56.08                             172    0.2710 19.1 187 
 BAR2 EZ I         257 56.88         9.0 0.18            175           19.1 187 
 BRR  HZ EP        257 43.29                             151    0.3610 71.8 302 
 BRR  HE ES   4    258  0.19                             151    1.31 0 71.8 302 
 BRR  HZ I         258  5.65         5.5 0.24            152           71.8 302 
 PAM  EZ EP        257 44.25                             148    0.0210 81.5  39 
 PAM  EN ES        258  1.20                             148    0.0010 81.5  39 
 PAM  EZ I         258  6.71         3.1 0.24            151           81.5  39 
 RUS  HZ EP        257 44.93                             143   -0.3410 96.7 175 
 RUS  HE ES        258  2.90                             143   -0.1510 96.7 175 
 RUS  HZ I         258  4.62         3.4 0.26            149           96.7 175 
 PTB  HZ EP        257 48.53                             131   -0.15 9  145 260 
 PTB  HN ES        258  8.17                             131   -0.95 9  145 260 
 PTB  HZ I         258  9.78         3.0 0.14            135            145 260 
 SPBC HZ EP        257 50.09                             128    0.03 9  159 219 
 SPBC HN ES        258 11.83                             128    0.26 9  159 219 
 SPBC HZ I         258 16.30         5.8 0.14            133            159 219 
 ZAR  HN ES        258 19.68                             121    0.22 9  204 293 
 NOR  HN ES        258 25.35                             117    0.67 8  231 235 
                                                                                
