 2012 1213 0630 21.1 L   6.811 -73.165144.2  RSN  9 0.5 2.1LRSN                1
 GAP=181        1.04       3.5     5.6  6.6  0.7091E+01  0.1041E+02  0.3889E+01E
 Epicentro: LOS SANTOS - SANTANDER                                             3
 ACTION:UPD 13-01-04 14:27 OP:ep   STATUS:               ID:20121213063020 L   I
 2012-12-13-0630-00M.COL___242                                                 6
 STAT SP IPHASW D HRMM SECON CODA AMPLIT PERI AZIMU VELO AIN AR TRES W  DIS CAZ7
 BAR2 SZ EP        630 40.75                             170    0.1910 24.2 184 
 BAR2 SZ ES        630 55.41                             170   -0.3310 24.2 184 
 BAR2 SZ I         630 56.93        10.2 0.14                          24.2 184 
 BRR  HZ EP        630 42.45                             153    0.5110 68.7 299 
 BRR  HN ES        630 58.65                             153    0.4510 68.7 299 
 BRR  HN I         631  3.65        35.8 0.18                          68.7 299 
 RUS  HZ EP        630 44.77                             143   -0.0310  102 175 
 RUS  HN ES        631  3.21                             143   -0.0710  102 175 
 RUS  HN I         631  4.99        13.0 0.26                           102 175 
 PTB  HZ EP        630 47.29                             132   -0.48 9  146 258 
 PTB  HN ES        631  8.29                             132   -0.28 9  146 258 
 PTB  HN I         631 13.45        22.1 0.60                           146 258 
 OCA  HZ EP   4    630 46.88                             129   -2.28 0  159 354 
 OCA  HN ES        631 10.83                             129   -0.21 9  159 354 
 OCA  HN I         631 14.70        28.4 0.18                           159 354 
 ZAR  HZ EP        630 53.32                             122    0.13 9  202 292 
 ZAR  HN ES        631 18.72                             122    0.50 9  202 292 
 ZAR  HN I         631 23.77        20.0 0.80                           202 292 
 CHI  HZ EP        630 59.17                             117    0.39 8  249 195 
 CHI  HE ES        631 27.55                             117   -0.61 8  249 195 
 CHI  HN I         631 35.03         4.2 0.36                           249 195 
 MON  HN ES        631 46.57                             108   -1.14 6  351 308 
 PRA  HN ES        631 57.05                             106    0.79 6  392 209 
                                                                                
