 2013  713 0108 31.6 L   6.759 -73.200141.4  RSN  4 0.3 1.4LRSN                1
 GAP=171        0.71       4.4     4.7  6.0  0.5240E+01  0.4074E+01  0.6156E+01E
 Epicentro: VILLANUEVA - SANTANDER                                             3
 ACTION:UPD 13-08-12 10:37 OP:ep   STATUS:               ID:20130713010831 L   I
 OLDACT:REG 13-07-13 08:13 OP:nd   STATUS:               ID:20130713005959     3
 2013-07-13-0059-59M.COL___266                                                 6
 STAT SP IPHASW D HRMM SECON CODA AMPLIT PERI AZIMU VELO AIN AR TRES W  DIS CAZ7
 GIR2 SZ EP        1 8 50.38                             165   -0.4910 35.3   1 
 GIR2 SZ ES        1 9  5.89                             165   -0.0110 35.3   1 
 GIR2 SZ I         1 9  6.91         7.4 0.10            168           35.3   1 
 BRR  HZ EP        1 8 52.22                             153    0.1010 68.4 304 
 BRR  HN ES        1 9  8.44                             153    0.3210 68.4 304 
 BRR  HZ I         1 9  9.93         8.1 0.20            151           68.4 304 
 RUS  HZ EP        1 8 54.91                             144    0.2710 96.7 172 
 RUS  HN ES        1 9 12.55                             144   -0.0710 96.7 172 
 RUS  HZ I         1 9 14.67         2.0 0.64            144           96.7 172 
 PTB  HZ EP        1 8 57.77                             132    0.17 9  141 260 
 PTB  HN ES        1 9 17.58                             132   -0.30 9  141 260 
 PTB  HZ I         1 9 23.75         2.3 0.18            131            141 260 
                                                                                
