 2016 1113 0618 29.0 L   6.774 -73.144149.3  RSN  9 0.5 1.6LRSN                1
 GAP=120        1.15       4.6     4.8  6.7  0.4314E+01  0.4304E+01  0.1111E+02E
 Epicentro: LOS SANTOS - SANTANDER                                             3
 ACTION:UPD 17-10-26 21:07 OP:lp   STATUS:               ID:20161113061829 L   I
 OLDACT:UP  16-11-13 18:42 OP:and  STATUS:               ID:20161113061734     3
 OLDACT:REG 16-11-13 13:10 OP:and  STATUS:               ID:20161113061734     3
 2016-11-13-0618-00M.COL___340                                                 6
 STAT SP IPHASW D HRMM SECON CODA AMPLIT PERI AZIMU VELO AIN AR TRES W  DIS CAZ7
 BAR2 EZ EP        618 48.80                             172   -0.1710 20.5 192 
 BAR2 EZ ES        619  4.58                             172    0.0110 20.5 192 
 BAR2 EZ I         619  5.41        10.3 0.16            170           20.5 192 
 BRR  HZ EP        618 50.61                             153    0.0310 72.7 300 
 BRR  HN ES        619  7.72                             153    0.2710 72.7 300 
 BRR  HZ I         619 11.48         8.7 0.17            151           72.7 300 
 PAM  EZ EP        618 52.10                             150    0.4210 79.5  38 
 PAM  EN ES        619  9.39                             150   -0.0210 79.5  38 
 PAM  EZ I         619 11.09         2.9 0.20            154           79.5  38 
 PTB  HZ EP        618 55.60                             133   -0.59 9  147 260 
 PTB  HN ES        619 16.70                             133   -0.72 9  147 260 
 PTB  HZ I         619 18.75         5.5 0.11            132            147 260 
 ZAR  HZ EP        619  2.38                             123    0.61 8  205 293 
 ZAR  HN ES        619 27.21                             123   -0.14 8  205 293 
 ZAR  HZ I         619 35.19         4.6 0.20            123            205 293 
 CHI  HZ EP        619  7.28                             118    0.72 8  246 195 
 CHI  HE ES        619 36.65                             118    0.76 8  246 195 
 CHI  HZ I         619 42.59         2.0 0.28            119            246 195 
 PTGC HZ EP        619 11.99                             112   -0.68 7  306 158 
 PTGC HN ES        619 45.90                             112   -0.86 7  306 158 
 PRA  HZ EP        619 23.07                             107    0.75 6  390 210 
 PRA  HN ES   4    620  6.57                             107    2.63 0  390 210 
 PRA  HZ I         620  8.98         1.2 0.20            108            390 210 
 SJC  HZ EP        619 24.40                             106   -0.53 6  412 327 
 SJC  HN ES   4    620  5.00                             106   -3.59 0  412 327 
                                                                                
