 2017  213 0123 40.6 L   6.671 -73.045154.5  RSN  5 0.5 1.1LRSN                1
 GAP=155        1.18       6.6     6.7  8.8 -0.4804E+01  0.8057E+01  0.1262E+00E
 Epicentro: ARATOCA - SANTANDER                                                3
 ACTION:UPD 17-05-24 15:35 OP:jn   STATUS:               ID:20170213012340 L   I
 OLDACT:UP  17-02-13 14:23 OP:edw  STATUS:               ID:20170213011743d    3
 OLDACT:DUP 17-02-13 14:19 OP:edw  STATUS:               ID:20170213011743d    3
 OLDACT:UP  17-02-13 14:18 OP:edw  STATUS:               ID:20170213011742     3
 OLDACT:REG 17-02-13 11:28 OP:edw  STATUS:               ID:20170213011742     3
 2017-02-13-0118-00M.COL___352                                                 6
 STAT SP IPHASW D HRMM SECON CODA AMPLIT PERI AZIMU VELO AIN AR TRES W  DIS CAZ7
 BAR2 EZ ES        124 17.15                             173   -0.0810 17.5 240 
 PAM  EZ EP     C  124  4.44                             151    0.3610 83.2  27 
 PAM  EN ES        124 21.77                             151   -0.6410 83.2  27 
 PAM  EZ I         124 23.80         1.9 0.64            152           83.2  27 
 RUS  HZ EP        124  4.22                             150   -0.0510 86.2 183 
 RUS  HN ES        124 22.96                             150    0.2210 86.2 183 
 RUS  HZ I         124 25.12         1.8 0.28            150           86.2 183 
 BRR  HZ EP        124  3.60                             149   -0.0810 88.1 303 
 BRR  HN ES        124 22.56                             149    0.8710 88.1 303 
 PTB  HZ EP        124  9.07                             132   -0.01 9  157 265 
 PTB  HN ES        124 30.60                             132   -0.71 9  157 265 
 PTB  HZ I         124 31.96         1.4 0.44            134            157 265 
                                                                                
