 2011 1213 0430 16.9 L   6.973 -73.195146.0  RSN  5 0.4 1.4LRSN                1
 GAP=173        0.63      13.5     8.9 13.4 -0.2021E+02 -0.5844E+02  0.9494E+02E
 Epicentro: GIRON - SANTANDER                                                  3
 ACTION:UPD 12-07-13 16:15 OP:ep   STATUS:               ID:20111213043016 L   I
 2011-12-13-0430-00M.COL___185                                                 6
 STAT SP IPHASW D HRMM SECON CODA AMPLIT PERI AZIMU VELO AIN AR TRES W  DIS CAZ7
 GIR2 SZ EP   1    430 35.79                             175   -0.48 7 11.7   1 
 BAR2 SZ EP   1    430 37.21                             163    0.09 7 42.1 178 
 BAR2 SZ I         430 53.77        10.3 0.23                          42.1 178 
 BRR  HZ EP   1    430 37.61                             157    0.14 7 59.0 285 
 BRR  HN ES   1    430 53.74                             157    0.25 7 59.0 285 
 BRR  HZ I         430 54.27         2.7 0.04                          59.0 285 
 RUS  HZ EP   2    430 42.44                             139    0.24 5  120 174 
 PTB  HZ EP   2    430 44.35                             132    0.46 5  147 251 
 PTB  HN ES   2    431  4.22                             132   -0.70 5  147 251 
                                                                                
