 2013  713 0406 22.7 L   6.759 -73.127148.6  RSN  8 0.4 1.7LRSN                1
 GAP=189        1.07       5.5     6.4  7.1  0.1090E+01  0.6948E+01  0.7288E+01E
 Epicentro: LOS SANTOS - SANTANDER                                             3
 ACTION:UPD 13-08-12 10:37 OP:ep   STATUS:               ID:20130713040622 L   I
 OLDACT:REG 13-07-13 08:21 OP:nd   STATUS:               ID:20130713035959     3
 2013-07-13-0359-59M.COL___267                                                 6
 STAT SP IPHASW D HRMM SECON CODA AMPLIT PERI AZIMU VELO AIN AR TRES W  DIS CAZ7
 BAR2 SZ EP        4 6 42.28                             172   -0.3510 19.4 198 
 BAR2 SZ ES        4 6 57.98                             172   -0.1610 19.4 198 
 BAR2 SZ I         4 6 59.81        11.8 0.16            173           19.4 198 
 GIR2 SZ EP        4 6 42.67                             166   -0.2010 36.1 348 
 GIR2 SZ ES        4 6 58.49                             166   -0.0910 36.1 348 
 GIR2 SZ I         4 7  2.10         8.2 0.10            165           36.1 348 
 BRR  HZ IP     C  4 6 44.61                             152    0.2010 75.2 301 
 BRR  HN ES        4 7  2.08                             152    0.7610 75.2 301 
 BRR  HZ I         4 7  6.03         6.9 0.10            152           75.2 301 
 RUS  HZ EP        4 6 46.86                             146    0.4310 95.9 177 
 RUS  HN ES        4 7  4.68                             146   -0.2410 95.9 177 
 RUS  HZ I         4 7  6.40         5.5 0.26            149           95.9 177 
 PTB  HZ EP        4 6 49.47                             132   -0.57 9  149 261 
 PTB  HN ES        4 7 10.75                             132   -0.58 9  149 261 
 PTB  HZ I         4 7 13.42         7.5 0.14            135            149 261 
 SPBC HZ EP        4 6 51.71                             130    0.47 9  161 221 
 SPBC HN ES        4 7 13.79                             130    0.31 9  161 221 
 GUY2CHZ EP   4    4 7  7.84                             113    1.47 0  300 236 
 GUY2CHN ES   4    4 7 44.08                             113    3.68 0  300 236 
 GUY2CHZ I         4 7 48.41         2.3 0.36                           300 236 
 SJC  HZ EP   4    4 7 16.95                             106   -2.02 0  414 327 
 SJC  HN ES   4    4 7 59.40                             106   -3.43 0  414 327 
 SJC  HZ I         4 8  1.76         1.2 0.50            108            414 327 
                                                                                
