 2016  913 0411 26.0 L   6.768 -73.131144.8  RSN  8 0.3 1.3LRSN                1
 GAP=140        0.68       2.4     2.9  4.6 -0.6595E+00  0.2744E+01  0.5910E+00E
 Epicentro: LOS SANTOS - SANTANDER                                             3
 ACTION:UPD 17-08-17 21:09 OP:lp   STATUS:               ID:20160913041126 L   I
 OLDACT:UP  16-09-13 20:19 OP:lv   STATUS:               ID:20160913040738d    3
 OLDACT:DUP 16-09-13 20:09 OP:y    STATUS:               ID:20160913040738d    3
 2016-09-13-0408-00M.COL___318                                                 6
 STAT SP IPHASW D HRMM SECON CODA AMPLIT PERI AZIMU VELO AIN AR TRES W  DIS CAZ7
 BAR2 EZ EP        411 45.53                             172    0.0810 20.3 196 
 BAR2 EZ ES        412  0.70                             172    0.0810 20.3 196 
 BAR2 EZ I         412  1.90         4.5 0.26            171           20.3 196 
 BRR  HZ EP        411 47.44                             151    0.2210 74.4 300 
 BRR  HN ES        412  3.67                             151   -0.1010 74.4 300 
 BRR  HZ I         412  6.46         4.2 0.21            151           74.4 300 
 PAM  EZ EP        411 47.89                             150   -0.3210 79.1  37 
 PAM  EE ES        412  5.79                             150    0.2510 79.1  37 
 PAM  EZ I         412  7.41         3.1 0.32            153           79.1  37 
 RUS  HZ EP        411 49.73                             145    0.3410 97.0 177 
 RUS  HN ES        412  7.33                             145   -0.3110 97.0 177 
 RUS  HZ I         412  9.24         1.4 0.23            146           97.0 177 
 PTB  HZ EP        411 52.59                             132   -0.38 9  149 260 
 PTB  HN ES        412 13.73                             132   -0.28 9  149 260 
 PTB  HZ I         412 15.98         1.9 0.14            132            149 260 
 SPBC HZ EP        411 54.29                             129    0.03 9  162 220 
 SPBC HN ES        412 16.54                             129    0.23 9  162 220 
 SPBC HZ I         412 21.95         3.1 0.14            130            162 220 
 OCA  HZ EP   4    411 55.82                             129    1.24 0  164 353 
 OCA  HN ES        412 16.69                             129   -0.18 9  164 353 
 OCA  HZ I         412 19.75         4.8 0.18            131            164 353 
 ZAR  HZ EP   4    412  1.67                             122    3.00 0  207 293 
 ZAR  HN ES        412 24.55                             122    0.39 8  207 293 
 ZAR  HZ I         412 26.12         3.7 0.10            123            207 293 
                                                                                
