 2016  413 0906 23.8 L   6.825 -73.160150.3  RSN  4 0.2 1.1LRSN                1
 GAP=144        0.59       3.4     3.5  5.7 -0.5291E+01  0.5400E+01 -0.3644E+00E
 Epicentro: LOS SANTOS - SANTANDER                                             3
 ACTION:UPD 16-05-05 14:21 OP:rebc STATUS:               ID:20160413090623 L   I
 OLDACT:DUP 16-04-13 17:32 OP:cara STATUS:               ID:20160413085742d    3
 OLDACT:REG 16-04-13 13:28 OP:mh   STATUS:               ID:20160413085740     3
 2016-04-13-0857-40M.COL___309                                                 6
 STAT SP IPHASW D HRMM SECON CODA AMPLIT PERI AZIMU VELO AIN AR TRES W  DIS CAZ7
 PAM  EZ IP        9 6 46.76                             152    0.3710 76.3  42 
 PAM  EZ I         9 6 46.85         3.7 0.22            154           76.3  42 
 PAM  EE ES        9 7  3.82                             152   -0.2310 76.3  42 
 RUS  HZ EP        9 6 48.24                             144    0.0810  103 175 
 RUS  HE ES        9 7  7.19                             144   -0.0010  103 175 
 RUS  HZ I         9 7  7.52         1.1 0.30            145            103 175 
 PTB  HZ EP        9 6 50.69                             133   -0.32 9  147 258 
 PTB  HE ES        9 7 12.48                             133    0.22 9  147 258 
 PTB  HZ I         9 7 14.39         1.1 0.62            133            147 258 
 SPBC HZ EP        9 6 52.55                             130   -0.16 9  164 218 
 SPBC HE ES        9 7 15.31                             130    0.01 9  164 218 
 SPBC HZ I         9 7 19.19         2.2 0.60            130            164 218 
                                                                                
