 2016 1113 0521 39.9 L   6.795 -73.148144.5  RSN 37 0.5 3.5LRSN                1
 GAP= 65        0.86       2.4     2.4  3.8  0.2451E+00  0.2559E+01  0.2334E+01E
 Epicentro: LOS SANTOS - SANTANDER                                             3
 ACTION:UPD 17-10-26 21:07 OP:lp   STATUS:               ID:20161113052139 L   I
 OLDACT:UP  16-11-13 18:00 OP:and  STATUS:               ID:20161113051702     3
 OLDACT:UP  16-11-13 17:58 OP:and  STATUS:               ID:20161113051702     3
 OLDACT:UP  16-11-13 17:57 OP:and  STATUS:               ID:20161113051702     3
 OLDACT:UP  16-11-13 17:54 OP:and  STATUS:               ID:20161113051702     3
 OLDACT:UP  16-11-13 17:38 OP:and  STATUS:               ID:20161113051702     3
 OLDACT:UP  16-11-13 17:36 OP:and  STATUS:               ID:20161113051702     3
 OLDACT:UP  16-11-13 17:29 OP:and  STATUS:               ID:20161113051702     3
 OLDACT:UP  16-11-13 17:25 OP:and  STATUS:               ID:20161113051702     3
 OLDACT:REG 16-11-13 13:05 OP:and  STATUS:               ID:20161113051702     3
 2016-11-13-0518-00M.COL___340                                                 6
 STAT SP IPHASW D HRMM SECON CODA AMPLIT PERI AZIMU VELO AIN AR TRES W  DIS CAZ7
 BAR2 HZ IP     C  521 59.45                             171    0.0710 22.7 190 
 BAR2 HZ ES        522 14.28                             171   -0.2810 22.7 190 
 BAR2 HZ I         522 15.38       920.4 0.28            166           22.7 190 
 BRR  HZ IP     C  522  1.20                             152    0.2710 71.3 299 
 BRR  HE ES        522 18.01                             152    0.6910 71.3 299 
 BRR  HZ I         522 21.31       612.3 0.28            153           71.3 299 
 PAM  EZ IP     C  522  2.19                             150    0.1610 78.0  39 
 PAM  EN ES        522 18.98                             150   -0.3010 78.0  39 
 PAM  EZ I         522 21.36      1229.7 0.46            153           78.0  39 
 PTB  HZ EP        522  5.96                             132   -0.79 9  147 259 
 PTB  HN ES        522 26.92                             132   -0.76 9  147 259 
 PTB  HZ I         522 33.20       354.7 0.24            131            147 259 
 TAM  HZ IP     C  522  7.82                             130    0.33 9  155 105 
 TAM  HZ I         522 28.62       205.7 0.32            129            155 105 
 TAM  HN ES        522 29.19                             130    0.18 9  155 105 
 ZAR  HZ EP        522 11.84                             122   -0.44 9  204 292 
 ZAR  HN ES        522 37.60                             122    0.08 9  204 292 
 ZAR  HZ I         522 43.12       491.3 0.40            122            204 292 
 NOR  HZ EP        522 15.72                             118    0.21 8  234 235 
 NOR  HN ES        522 43.97                             118    0.69 8  234 235 
 NOR  HZ I         522 45.19       231.6 0.38            117            234 235 
 CHI  HZ EP        522 17.70                             117    0.23 8  248 195 
 CHI  HN ES        522 46.58                             117   -0.19 8  248 195 
 CHI  HZ I         522 52.42       182.8 0.30            115            248 195 
 ROSC BZ EP   4    522 19.16                             116    1.26 0  252 211 
 ROSC BN ES   4    522 49.70                             116    2.18 0  252 211 
 ROSC BZ I         522 54.17       524.5 0.45            115            252 211 
 URE  HZ EP        522 20.27                             113   -0.65 7  284 292 
 URE  HN ES   4    522 50.36                             113   -2.55 0  284 292 
 URE  HZ I         522 55.38       163.6 0.14            113            284 292 
 LL1C HZ EP   9    522 25.77                             111    2.26 0  307 352 
 LL1C HN ES        522 59.97                                    0.19 7  307 352 
 LL1C HZ I         523  4.36       471.1 0.38            112            307 352 
 PTGC HZ IP   9 C  522 22.69                             111   -0.97 0  308 159 
 PTGC HN ES        522 56.15                                   -0.66 7  308 159 
 PTGC HZ I         522 58.83       187.5 0.46            110            308 159 
 LL6C HZ EP   9    522  4.58                             110   -21.0 0  325 358 
 LL6C HE ES        522 39.83                                   -0.40 7  325 358 
 LL6C HZ I         522 45.23        48.3 0.44            111            325 358 
 ELA  HZ EP   4    522 28.12                             110    1.47 0  329 230 
 ELA  HN ES   4    523  6.11                             110    3.01 0  329 230 
 ELA  HZ I         523 12.10       149.4 0.48            109            329 230 
 CBOC HZ EP        522 27.13                             110    0.40 7  333 252 
 CBOC HN ES        523  3.82                             110    0.57 7  333 252 
 CBOC HZ I         523 14.59        71.8 0.42            109            333 252 
 DBB  HZ EP        522 27.94                             109    0.62 7  339 274 
 DBB  HN ES   4    523  2.99                             109   -1.30 0  339 274 
 ANIL HZ EP   9    522 30.97                             108    1.37 0  357 225 
 ANIL HE ES        523  9.97                             108    0.24 6  357 225 
 ARGC HZ EP        522 29.55                             108   -0.03 6  360 340 
 ARGC HN ES        523  8.09                             108   -0.22 6  360 340 
 ARGC HZ I         523 10.93        57.9 0.24            108            360 340 
 PRA  HZ EP        522 33.15                             106   -0.17 6  391 210 
 PRA  HN ES   4    523 16.31                             106    1.34 0  391 210 
 PRA  HZ I         523 21.94       241.6 0.28            105            391 210 
 ORTC HZ EP        522 34.13                             106    0.41 6  395 216 
 ORTC HN ES   4    523 18.10                             106    2.41 0  395 216 
 ORTC HZ I         523 26.97       134.1 0.66            105            395 216 
 PAL  HZ EP        522 35.13                             106    0.16 6  405 239 
 PAL  HN ES        523 17.93                             106    0.01 6  405 239 
 PAL  HZ I         523 22.16        59.8 0.24            105            405 239 
 SJC  HZ EP   4    522 33.30                             105   -2.18 0  410 327 
 SJC  HN ES   4    523 14.90                             105   -3.92 0  410 327 
 SJC  HZ I         523 19.13       103.1 0.46            106            410 327 
 VALLCHZ EP   4    522 33.42                             105   -2.16 0  411 358 
 VALLCHE ES   4    523 14.55                             105   -4.46 0  411 358 
 LCBC HZ EP   4    522 35.47                             105   -1.39 0  422 303 
 LCBC HE ES        523 21.26                             105   -0.01 5  422 303 
 LCBC HZ I         523 24.61        91.6 0.34            105            422 303 
 CRJC HZ EP   9    522 39.67                             103   -2.78 0  468   4 
 CRJC HN ES        523 28.37                                   -0.08 5  468   4 
 CRJC HZ I         523 30.42        58.1 0.20            103            468   4 
 YOT  HZ EP        522 42.03                             103   -0.83 5  471 229 
 YOT  HE ES   4    523 33.18                             103    1.23 0  471 229 
 GUA  EZ EP        522 42.90                             103   -0.06 5  473 173 
 GUA  EE ES        523 31.25                             103   -0.89 5  473 173 
 GUA  EZ I         523 35.70        51.6 0.27            102            473 173 
 BET  HZ EP        522 48.10                             101    0.02 4  516 209 
 BET  HN ES   4    523 37.52                             101   -3.73 0  516 209 
 BET  HZ I         523 50.03        29.5 0.37            101            516 209 
 PTA  HZ EP        522 47.13                             101   -0.94 4  517 275 
 PTA  HN ES   4    523 38.11                             101   -3.13 0  517 275 
 MACC HZ EP   9    525 46.61                             101   178.1 0  520 189 
 MACC HE ES        526 38.51                                   -1.61 4  520 189 
 MARO HZ EP        522 51.19                             101    0.36 4  537 216 
 MARO HE ES   4    523 40.93                             101   -5.22 0  537 216 
 MARO HZ I         523 51.98        18.6 0.44            100            537 216 
 URI  HZ EP   4 D  522 49.73                             100   -3.23 0  557  13 
 URI  HE ES   4    523 43.77                             100   -6.17 0  557  13 
 URI  HZ I         523 50.32        12.3 0.74            100            557  13 
 GARC HZ EP   4    522 53.86                             100   -1.20 0  572 207 
 GARC HN ES   4    523 50.94                             100   -2.74 0  572 207 
 CONO HZ EP        523  0.97                              99    0.78 3  611 216 
 CONO HN ES   4    524  2.00                              99   -0.80 0  611 216 
 CONO HZ I         524 33.29        17.8 0.40             99            611 216 
 FLO2 HZ EP        523  2.46                              99   -0.48 2  640 206 
 FLO2 HE ES        524  7.22                              99   -0.48 2  640 206 
 FLO2 HZ I         524 13.82        17.1 0.82             98            640 206 
 SOTO HZ EP        523  4.60                              99    0.76 2  643 217 
 BBAC HZ EP        523 10.58                              98    0.55 1  697 221 
 BBAC HN ES        524 20.74                              98    0.41 1  697 221 
 BBAC HZ I         524 27.49         9.7 0.44             97            697 221 
 GCUF HZ EP        523 19.49                              96   -0.03 0  772 217 
 GCUF HN ES        524 37.55                              96    0.34 0  772 217 
 GCUF HZ I         524 41.45         6.3 0.54             96            772 217 
 TULM HZ EP        523 28.48                              96   -0.07 0  847 218 
 TULM HN ES        524 53.85                              96    0.57 0  847 218 
                                                                                
