 2010 1213 0858  7.9 L   6.829 -73.028139.5  RSN  5 0.3 1.3LRSN                1
 GAP=171        0.59       6.1    25.3  9.5 -0.7723E+02 -0.4256E+01 -0.4241E+01E
 Epicentro: CEPITA - SANTANDER                                                 3
 ACTION:UP  11-01-14 15:24 OP:pat  STATUS:               ID:20101213085807 L   I
 2010-12-13-0855-28S.COL___136                                                 6
 STAT SP IPHASW D HRMM SECON CODA AMPLIT PERI AZIMU VELO SNR AR TRES W  DIS CAZ7
 BTL  SZ EP        858 27.11                             167     0.210   28 290 
 BAR2 SZ EP   2    858 27.03                             166     0.1 5   31 213 
 BAR2 SZ I         858 40.31         5.5 0.46                            31 213 
 BAR2 SZ ES   2    858 41.26                             166    -0.6 5   31 213 
 RUS  HZ EP   2    858 31.11                             141    -0.2 5  104 183 
 RUS  HE ES   2    858 49.88                             141     0.4 5  104 183 
 RUS  HZ I         858 50.87         1.9 0.32                           104 183 
 GRA  SZ EP   2    858 31.81                             137    -0.2 5  119  12 
 GRA  SZ I         858 53.83         2.9 0.58                           119  12 
 CHI  HZ EP   2    858 45.53                             115    -0.5 4  255 198 
 CHI  HN ES   2    859 15.74                             115     0.0 4  255 198 
 CHI  HZ I         859 18.33         2.6 0.71                           255 198 
                                                                                
