 2016  113 0825 51.6 L   6.785 -73.142145.3  RSN  8 0.4 1.7LRSN                1
 GAP=138        1.09       3.9     4.7  7.3  0.1476E-01  0.7712E+01 -0.5698E+00E
 Epicentro: LOS SANTOS - SANTANDER                                             3
 ACTION:UPD 16-03-09 23:25 OP:cam  STATUS:               ID:20160113082551 L   I
 OLDACT:UP  16-01-13 16:42 OP:drio STATUS:               ID:20160113081743     3
 OLDACT:REG 16-01-13 12:12 OP:drio STATUS:               ID:20160113081743     3
 2016-01-13-0817-43M.COL___328                                                 6
 STAT SP IPHASW D HRMM SECON CODA AMPLIT PERI AZIMU VELO AIN AR TRES W  DIS CAZ7
 BAR2 EZ EP        826 11.10                             171   -0.0710 21.7 192 
 BAR2 EZ ES        826 25.94                             171   -0.4810 21.7 192 
 BAR2 EZ I         826 27.04         8.7 0.32            170           21.7 192 
 BRR  HZ EP        826 12.93                             152    0.1310 72.4 300 
 BRR  HE ES        826 29.89                             152    0.5910 72.4 300 
 BRR  HZ I         826 30.44         9.1 0.36            150           72.4 300 
 PAM  EZ EP        826 14.04                             150    0.1810 78.4  39 
 PAM  EZ ES        826 31.25                             150    0.0510 78.4  39 
 PAM  EZ I         826 32.93        10.2 0.48            152           78.4  39 
 RUS  HZ EP        826 15.00                             144   -0.2110 98.9 176 
 RUS  HE ES        826 33.56                             144   -0.0510 98.9 176 
 PTB  HZ EP        826 18.02                             132   -0.55 9  148 260 
 PTB  HN ES        826 38.74                             132   -0.84 9  148 260 
 PTB  HZ I         826 40.37         4.4 0.46            131            148 260 
 SPBC HZ EP        826 20.33                             129    0.34 9  162 219 
 SPBC HE ES        826 42.97                             129    0.85 9  162 219 
 SPBC HZ I         826 49.32         5.1 0.42            129            162 219 
 ZAR  HZ EP   4    826 25.50                             122    1.35 0  205 293 
 ZAR  HE ES        826 49.67                             122    0.16 9  205 293 
 ZAR  HZ I         826 55.50         5.9 0.46            122            205 293 
 SML  HZ EP   4    826 27.26                             117   -1.16 0  245 335 
 SML  HE ES        826 57.04                             117   -0.06 8  245 335 
 SML  HZ I         826 59.54         6.6 0.10            117            245 335 
                                                                                
