 2012  813 0330 13.6 L   6.822 -73.125143.1  RSN 17 0.4 3.0LRSN 3.4WRSN        1
 SPEC AVERAGE  MO 14.1 ST 45.6 OM  3.5 f0 5.09 R0.3055 AL 2.41 WI 31.3 MW  3.4 3
 SPEC SD       MO  0.2 ST 55.1 OM  1.1 f0 1.16 R0.0758 AL      WI      MW  0.2 3
 GAP= 67        0.86       2.6     2.6  5.2  0.9229E+00  0.3225E+01  0.2940E+01E
 Epicentro: LOS SANTOS - SANTANDER                                             3
 SPEC ZAR HH Z MO 14.0 ST 20.5 OM  2.2 f0 5.43 R0.2707 AL 1.69 WI 44.9 MW  3.3 3
 SPEC ZAR HH Z T 331 5 K 0.000 GD  250 VS 4.20 DE 3.00 Q0230.0 QA 0.60 VS 4.20 3
 SPEC ROSCBH N MO 14.5 ST140.6 OM  2.7 f0 6.67 R0.2204 AL 3.49 WI 30.3 MW  3.6 3
 SPEC ROSCBH N T 33119 K 0.000 GD  293 VS 4.20 DE 3.00 Q0230.0 QA 0.60 VS 4.20 3
 SPEC HEL HH N MO 14.1 ST  6.5 OM  2.2 f0 3.45 R0.4261 AL 2.04 WI 31.4 MW  3.3 3
 SPEC HEL HH N T 33120 K 0.000 GD  310 VS 4.20 DE 3.00 Q0230.0 QA 0.60 VS 4.20 3
 SPEC PTB HH N MO 14.0 ST 14.9 OM  2.3 f0 4.82 R0.3050 AL 2.40 WI 18.7 MW  3.3 3
 SPEC PTB HH N T 33059 K 0.000 GD  207 VS 4.20 DE 3.00 Q0230.0 QA 0.60 VS 4.20 3
 ACTION:UPD 12-09-10 11:56 OP:ep   STATUS:               ID:20120813033013 L   I
 2012-08-13-0330-00M.COL___218                                                 6
 STAT SP IPHASW D HRMM SECON CODA AMPLIT PERI AZIMU VELO AIN AR TRES W  DIS CAZ7
 BAR2 SZ EP        330 32.74                             169   -0.2510 26.2 194 
 BAR2 SZ ES   1    330 47.46                             169   -0.64 7 26.2 194 
 BAR2 SZ I         330 48.78       480.2 0.29                          26.2 194 
 GIR2 SZ EP        330 32.83                             168   -0.0910 29.4 345 
 BRR  HZ IP     D  330 34.67                             152    0.1410 72.1 296 
 BRR  HE ES   1    330 51.46                             152    0.62 7 72.1 296 
 BRR  HZ I         330 56.04       342.9 0.09                          72.1 296 
 PAM  SZ IP        330 35.60                             151    0.2510 74.1  39 
 PAM  SZ I         330 36.02       467.8 0.21                          74.1  39 
 PAM  SN ES   1    330 52.46                             151    0.15 7 74.1  39 
 RUS  HZ EP   1    330 36.74                             143   -0.53 7  103 177 
 RUS  HN ES   1    330 54.95                             143   -0.78 7  103 177 
 RUS  HZ I         330 57.56        77.1 0.34                           103 177 
 PTB  HZ EP   1    330 39.74                             131   -0.87 7  150 258 
 PTB  HN ES   1    331  1.57                             131   -0.10 7  150 258 
 PTB  HZ I         331  3.65        59.1 0.15                           150 258 
 TAM  HZ IP     C  330 41.17                             130    0.23 9  154 106 
 TAM  HZ I         330 41.43       154.0 0.21                           154 106 
 TAM  HN ES        331  2.56                             130    0.31 9  154 106 
 OCA  HZ EP        330 41.08                             129   -0.44 9  158 352 
 OCA  HE ES        331  3.16                             129   -0.13 9  158 352 
 OCA  HZ I         331  8.32       371.3 0.16                           158 352 
 YOP  SZ EP   1    330 43.52                             125   -0.06 7  180 154 
 YOP  SN ES        331  7.36                             125    0.40 9  180 154 
 ZAR  HZ EP   1    330 45.73                             122   -0.28 6  205 291 
 ZAR  HE ES        331 12.04                             122    0.76 8  205 291 
 ZAR  HZ I         331 19.62       108.7 0.32                           205 291 
 NOR  SZ EP   1    330 49.24                             118   -0.30 6  238 234 
 NOR  SN ES   2    331 16.80                             118   -0.76 4  238 234 
 NOR  SZ I         331 18.53        49.9 0.15                           238 234 
 CHI  HZ EP   1    330 51.53                             116    0.04 6  252 196 
 CHI  HN ES   1    331 21.56                             116    0.54 6  252 196 
 CHI  HZ I         331 23.49        35.7 0.35                           252 196 
 ROSC BZ EP   1    330 52.61                             116    0.67 6  256 211 
 ROSC BE ES   2    331 22.05                             116    0.21 4  256 211 
 ROSC BZ I         331 29.65        86.9 0.51                           256 211 
 HEL  HZ EP   1    330 53.81                             114   -0.19 6  275 255 
 HEL  HN ES        331 25.93                             114    0.43 8  275 255 
 HEL  HZ I         331 33.49        44.7 0.34                           275 255 
 VIL  SZ EP   1    330 57.62                             111    0.39 5  306 192 
 DBB  SZ EP   1    331  0.95                             109   -0.27 5  342 274 
 PRA  HZ EP   1    331  6.87                             106   -0.55 4  395 210 
 PRA  HE ES   1    331 49.50                             106    0.11 4  395 210 
                                                                                
