 2014  413 0339 14.1 L   6.876 -73.396108.0  RSN  7 0.3 1.2LRSN                1
 GAP=159        0.70       2.0     3.5  7.9  0.8857E+00 -0.2455E+01 -0.4242E+01E
 Epicentro: SAN VICENTE DE CHUCURI - SANTANDER                                 3
 ACTION:UPD 14-05-13 23:08 OP:nd   STATUS:               ID:20140413033914 L   I
 OLDACT:UP  14-04-15 04:25 OP:CAM  STATUS:               ID:20140413033914 L   3
 OLDACT:REG 14-04-13 14:25 OP:stll STATUS:               ID:20140413033806     3
 2014-04-13-0338-06M.COL___263                                                 6
 STAT SP IPHASW D HRMM SECON CODA AMPLIT PERI AZIMU VELO AIN AR TRES W  DIS CAZ7
 RUS  HZ EP        339 35.16                             130   -0.4810  114 162 
 RUS  HN ES        339 52.83                             130    0.4310  114 162 
 RUS  HZ I         339 54.00         2.9 0.22                           114 162 
 PTB  HZ EP        339 35.79                             127   -0.0510  123 252 
 PTB  HN ES        339 52.76                             127   -0.0110  123 252 
 PTB  HZ I         339 58.33         1.9 0.12            127            123 252 
 OCA  HN ES        339 57.88                             121   -0.24 9  151   3 
 SPBC HN ES        339 58.49                             120   -0.17 9  155 209 
 SPBC HZ I         340  6.16         2.6 0.14            122            155 209 
 ZAR  HN ES   1    340  2.53                             117    0.12 7  175 293 
 ZAR  HZ I         340 11.08         2.7 0.40            118            175 293 
 SML  HZ EP        339 47.35                             110    0.48 8  226 341 
 SML  HN ES        340 12.44                             110    0.04 8  226 341 
 CHI  HZ EP        339 50.44                             108    0.08 8  251 189 
 CHI  HZ I         339 50.98         1.9 0.30            111            251 189 
                                                                                
