 2013  413 0911 57.9 L   6.816 -73.122150.0  RSN 14 0.5 2.1LRSN                1
 GAP= 72        1.29       3.6     3.9  6.1 -0.8365E+00  0.1157E+01  0.3853E+00E
 Epicentro: LOS SANTOS - SANTANDER                                             3
 ACTION:UPD 13-05-22 14:38 OP:EP   STATUS:               ID:20130413091158 L   I
 2013-04-13-0908-45M.COL___212                                                 6
 STAT SP IPHASW D HRMM SECON CODA AMPLIT PERI AZIMU VELO AIN AR TRES W  DIS CAZ7
 BAR2 SZ EP        912 18.12                             170    0.0010 25.7 195 
 BAR2 SZ ES        912 33.72                             170   -0.1410 25.7 195 
 BAR2 SZ I         912 35.77        23.7 0.18            163           25.7 195 
 GIR2 SZ EP        912 18.32                             168    0.2410 30.1 345 
 GIR2 SZ ES        912 33.12                             168   -0.6710 30.1 345 
 BRR  HZ EP        912 20.15                             153    0.5310 72.7 296 
 BRR  HN ES        912 37.49                             153    0.9510 72.7 296 
 BRR  HN I         912 40.08        45.9 0.20            147           72.7 296 
 RUS  HZ EP        912 22.20                             144   -0.0210  102 178 
 RUS  HN ES        912 41.45                             144    0.2910  102 178 
 RUS  HN I         912 42.58        11.8 0.24            137            102 178 
 CAPV BZ IP     C  912 25.96                             133    0.56 9  146  38 
 CAPV BZ ES        912 46.35                             133   -0.47 9  146  38 
 PTB  HZ EP        912 25.52                             132    0.01 9  151 258 
 PTB  HN ES        912 46.32                             132   -0.70 9  151 258 
 PTB  HN I         912 51.64        39.5 0.48            125            151 258 
 TAM  HZ EP        912 26.35                             132    0.60 9  153 106 
 TAM  HN ES        912 47.14                             132   -0.32 9  153 106 
 TAM  HZ I         912 47.18         9.2 0.34            129            153 106 
 OCA  HN ES        912 48.76                             131    0.09 9  159 352 
 SML  HZ EP        912 34.96                             118    0.22 8  243 335 
 SML  HN ES        913  2.96                             118   -0.50 8  243 335 
 SML  HN I         913  8.14        25.4 0.10            114            243 335 
 CHI  HZ EP     D  912 36.27                             118    0.14 8  251 196 
 CHI  HN ES        913  5.06                             118   -0.87 8  251 196 
 CHI  HN I         913 13.41         8.7 0.54            112            251 196 
 HEL  HZ EP   4    912 39.96                             115    1.27 0  275 256 
 HEL  HN ES        913 11.30                             115    0.81 8  275 256 
 HEL  HZ I         913 17.12         3.2 0.28            110            275 256 
 URE  HZ EP        912 38.08                             114   -1.33 7  286 291 
 SDV  BZ EP        912 47.47                             109   -0.29 6  357  50 
 PRA  HZ EP        912 52.04                             107    0.10 6  395 210 
 PRA  HN I         913 40.00         3.8 0.26            103            395 210 
                                                                                
