 2016 1013 0626  8.4 L   6.044 -74.195 87.5  RSN  5 0.2 1.1LRSN                1
 GAP=138        0.41       1.6     2.5  4.6 -0.9806E+00 -0.1528E+01 -0.2042E+01E
 Epicentro: LA BELLEZA - SANTANDER                                             3
 ACTION:UPD 16-11-09 19:19 OP:rebc STATUS:               ID:20161013062608 L   I
 OLDACT:UP  16-10-13 18:33 OP:ar   STATUS:               ID:20161013061746     3
 OLDACT:REG 16-10-13 12:49 OP:y    STATUS:               ID:20161013061746     3
 2016-10-13-0618-00M.COL___357                                                 6
 STAT SP IPHASW D HRMM SECON CODA AMPLIT PERI AZIMU VELO AIN AR TRES W  DIS CAZ7
 SPBC HZ EP        626 22.14                             150    0.1910 45.4 163 
 SPBC HE ES        626 32.35                             150   -0.1410 45.4 163 
 SPBC HZ I         626 33.45         9.2 0.10            152           45.4 163 
 PTB  HZ IP     D  626 22.91                             141   -0.0710 61.9 332 
 PTB  HN ES        626 34.28                             141   -0.0510 61.9 332 
 PTB  HZ I         626 34.87         3.1 0.10            143           61.9 332 
 NOR  HN ES        626 39.05                             129    0.0510 91.7 235 
 NOR  HZ I         626 41.31         2.9 0.24            131           91.7 235 
 BRR  HZ EP   2    626 28.94                             119   -0.40 5  129  24 
 BRR  HE ES        626 45.78                             119    0.1310  129  24 
 BRR  HZ I         626 46.69         2.5 0.09            122            129  24 
 ZAR  HZ EP   9    626 37.03                             111    2.42 0  176 335 
 ZAR  HE ES   2    626 57.51                                    0.06 4  176 335 
                                                                                
