 2011  613 0709 40.4 L   6.803 -73.040142.5  RSN  5 0.3 1.3LRSN                1
 GAP=170        0.54       4.6     9.1  7.8 -0.5007E+01 -0.1747E+02 -0.1007E+02E
 Epicentro: CEPITA - SANTANDER                                                 3
 ACTION:UP  11-07-14 19:04 OP:ep   STATUS:               ID:20110613070940 L   I
 2011-06-13-0707-02S.COL___132                                                 6
 STAT SP IPHASW D HRMM SECON CODA AMPLIT PERI AZIMU VELO SNR AR TRES W  DIS CAZ7
 BTL  SZ EP   1    710  0.06                             168     0.4 7   28 297 
 BTL  SZ ES   2    710 15.26                             168     0.5 5   28 297 
 BRR  HZ EP   1    710  1.73                             149     0.0 7   82 294 
 BRR  HE ES   2    710 18.24                             149    -0.2 5   82 294 
 BRR  HZ I         710 20.03         4.0 0.30                            82 294 
 RUS  HN ES   2    710 21.62                             143    -0.5 5  101 183 
 RUS  HZ I         710 35.64         2.1 0.77                           101 183 
 GRA  SZ EP   1    710  5.00                             137     0.0 7  122  12 
 GRA  SZ ES   2    710 24.16                             137    -0.1 5  122  12 
 GRA  SZ I         710 27.48         2.4 0.37                           122  12 
 OCA  SZ EP   1    710  8.54                             129     0.0 7  162 349 
 OCA  SZ ES   2    710 30.24                             129    -0.3 5  162 349 
 OCA  SZ I         710 33.74         3.6 0.40                           162 349 
                                                                                
