 2014  813 0636 23.5 L   6.787 -73.113147.9  RSN  5 0.5 1.7LRSN                1
 GAP=225        1.28       8.4     8.7 10.4  0.1144E+02  0.5255E+01 -0.3211E+02E
 Epicentro: LOS SANTOS - SANTANDER                                             3
 ACTION:UPD 14-09-15 21:49 OP:nd   STATUS:               ID:20140813063000 L   I
 OLDACT:UP  14-08-14 09:30 OP:CF   STATUS:               ID:20140813063000 L   3
 OLDACT:UP  14-08-13 15:02 OP:cam  STATUS:               ID:20140813063000 L   3
 OLDACT:UPD 14-08-13 14:37 OP:CF   STATUS:               ID:20140813063000 L   3
 2014-08-13-0630-00M.COL___285                                                 6
 STAT SP IPHASW D HRMM SECON CODA AMPLIT PERI AZIMU VELO AIN AR TRES W  DIS CAZ7
 BAR2 SZ EP     D  636 43.70                             171    0.3710 22.9 200 
 BAR2 SZ ES        636 58.34                             171   -0.4910 22.9 200 
 BAR2 SZ I         637  1.65         4.2 0.18            173           22.9 200 
 BRR  HZ IP     C  636 45.61                             152    0.5510 75.1 298 
 BRR  HN ES        637  2.39                             152    0.4910 75.1 298 
 BRR  HN I         637  2.59        17.7 0.24            152           75.1 298 
 PTB  HZ EP        636 50.70                             132   -0.20 9  151 260 
 PTB  HE ES        637 11.56                             132   -0.74 9  151 260 
 PTB  HZ I         637 13.54         4.4 0.28            133            151 260 
 ZAR  HN ES        637 22.88                             122    0.71 8  208 292 
 ZAR  HN I         637 24.62         4.5 0.20            123            208 292 
 SML  HZ EP        637  0.19                             117   -0.32 8  247 335 
 SML  HN ES        637 28.75                             117   -0.66 8  247 335 
 SML  HZ I         637 32.68         4.3 0.10            118            247 335 
                                                                                
