 2010  913 0110  6.9 L   6.781 -72.983147.4  RSN 11 0.3 2.1LRSN                1
 GAP=177        0.79       3.1     7.6  9.0 -0.1076E+02  0.2917E+02 -0.4274E+01E
 Epicentro: CEPITA - SANTANDER                                                 3
 ACTION:UP  11-02-18 11:02 OP:tino STATUS:               ID:20100913011006 L   I
 2010-09-13-0106-46S.COL___120                                                 6
 STAT SP IPHASW D HRMM SECON CODA AMPLIT PERI AZIMU VELO SNR AR TRES W  DIS CAZ7
 BAR2 SZ EP        110 26.96                             168     0.010   31 227 
 BRR  HZ EP        110 28.61                             147    -0.710   88 294 
 RUS  HZ EP        110 30.79                             144     0.110   99 186 
 RUS  HN ES   1    110 49.11                             144    -0.2 7   99 186 
 RUS  HZ I         110 50.70        12.1 0.41                            99 186 
 GUE  SZ EP   1    110 31.87                             139     0.1 7  116   3 
 GRA  SZ EP        110 32.48                             137     0.310  124   9 
 OCA  SZ EP        110 35.78                             129    -0.1 9  165 347 
 OCA  SZ ES   1    110 58.76                             129     0.3 7  165 347 
 OCA  SZ I         111  3.62        15.2 0.28                           165 347 
 CHI  HZ EP        110 44.98                             117    -0.1 8  252 199 
 CHI  HE ES   1    111 15.31                             117     0.5 6  252 199 
 CHI  HZ I         111 20.31         5.3 0.30                           252 199 
 ROSC BZ EP   3    110 46.41                             116     0.4 2  261 215 
 ROSC BE ES   1    111 16.36                             116    -0.2 6  261 215 
 ROSC BZ I         111 20.36         8.3 0.33                           261 215 
 HEL  HZ EP        110 49.14                             113     0.0 7  289 257 
 HEL  HZ I         111 26.40         8.8 0.52                           289 257 
 RREF HZ EP        110 55.02                             110     0.4 7  334 232 
 RREF HN ES   1    111 32.30                             110     0.5 5  334 232 
 RREF HZ I         111 38.90         7.8 0.28                           334 232 
 PRA  HZ EP   2    111  0.85                             106    -0.5 3  399 212 
 PRA  HN ES   2    111 43.28                             106    -0.6 3  399 212 
 PRA  HZ I         111 51.11         7.2 0.27                           399 212 
                                                                                
