 2016  813 0322 33.5 L   6.768 -73.177151.1  RSN  5 0.3 1.3LRSN                1
 GAP=231        0.86       5.8     6.4  9.0  0.2128E+02  0.4307E+01  0.2275E+01E
 Epicentro: LOS SANTOS - SANTANDER                                             3
 ACTION:UPD 16-10-29 15:35 OP:rebc STATUS:               ID:20160813032233 L   I
 OLDACT:DUP 16-08-13 15:37 OP:dani STATUS:               ID:20160813031660d    3
 OLDACT:REG 16-08-13 12:24 OP:dani STATUS:               ID:20160813031659     3
 2016-08-13-0316-59S.COL___346                                                 6
 STAT SP IPHASW D HRMM SECON CODA AMPLIT PERI AZIMU VELO AIN AR TRES W  DIS CAZ7
 BRR  HN ES        323 12.30                             154    0.2910 70.0 302 
 BRR  HZ I         323 16.23         7.9 0.51                          70.0 302 
 RUS  HZ EP        322 57.62                             146    0.1110 97.4 174 
 RUS  HN ES        323 15.95                             146   -0.3310 97.4 174 
 RUS  HZ I         323 16.98         1.8 0.20                          97.4 174 
 PTB  HZ EP        323  0.40                             134   -0.10 9  144 260 
 PTB  HN ES        323 21.08                             134   -0.52 9  144 260 
 PTB  HZ I         323 27.75         2.6 0.34                           144 260 
 SPBC HN ES        323 24.68                             131    0.57 9  158 219 
 ZAR  HE ES        323 31.51                             124    0.01 9  202 293 
                                                                                
