 2012 1013 0620 24.9 L   6.783 -73.110149.7  RSN  6 0.2 1.6LRSN                1
 GAP=142        0.53       3.7     4.1  5.1  0.3153E+01  0.2859E+01  0.1723E+01E
 Epicentro: LOS SANTOS - SANTANDER                                             3
 ACTION:UPD 12-11-22 17:03 OP:ep   STATUS:               ID:20121013062024 L   I
 2012-10-13-0620-00M.COL___231                                                 6
 STAT SP IPHASW D HRMM SECON CODA AMPLIT PERI AZIMU VELO AIN AR TRES W  DIS CAZ7
 BAR2 SZ EP   1    620 44.80                             171   -0.22 7 22.5 201 
 BAR2 SZ I         620 44.95         9.3 0.22                          22.5 201 
 BAR2 SZ ES   1    621  0.25                             171   -0.43 7 22.5 201 
 GIR2 SZ ES   1    621  1.01                             167    0.10 7 34.0 344 
 BRR  HZ EP   1    620 46.81                             152    0.06 7 75.6 298 
 BRR  HZ I         620 46.98        10.3 0.13                          75.6 298 
 BRR  HE ES   1    621  4.19                             152    0.42 7 75.6 298 
 PAM  SZ EP   1    620 47.71                             152    0.20 7 76.5  36 
 PAM  SE ES   1    621  4.99                             152   -0.13 7 76.5  36 
 PAM  SE I         621  7.11        14.7 0.54                          76.5  36 
 RUS  HZ EP   1    620 48.91                             145   -0.01 7 98.5 178 
 RUS  HN ES   1    621  7.86                             145    0.23 7 98.5 178 
 RUS  HZ I         621  9.09         3.0 0.40                          98.5 178 
 RUS  HN I         621  9.15         5.7 0.34                          98.5 178 
 ZAR  HE ES   1    621 23.64                             123   -0.30 6  208 292 
                                                                                
