 2012  413 0612 45.1 L   6.710 -73.144149.0  RSN  4 0.3 1.5LRSN                1
 GAP=163        0.73      11.8     6.4  9.2 -0.4371E+02 -0.7788E+01  0.3895E+02E
 Epicentro: VILLANUEVA - SANTANDER                                             3
 ACTION:UPD 12-07-05 11:53 OP:tino STATUS:               ID:20120413061245 L   I
 2012-04-13-0610-00M.COL___181                                                 6
 STAT SP IPHASW D HRMM SECON CODA AMPLIT PERI AZIMU VELO AIN AR TRES W  DIS CAZ7
 BAR2 SZ EP   1    613  5.09                             175     0.2 7   14 198 
 BAR2 SZ ES   2    613 20.63                             175     0.2 5   14 198 
 BRR  HZ EP   1    613  7.05                             151     0.2 7   77 305 
 BRR  HN ES   1    613 24.40                             151     0.5 7   77 305 
 BRR  HZ I         613 26.38         8.6 0.23                            77 305 
 PAM  SZ EP   1    613  8.10                             149     0.0 7   85  35 
 PAM  SN ES   1    613 25.63                             149    -0.4 7   85  35 
 PTB  HZ EP   1    613 12.20                             133     0.0 7  146 263 
 PTB  HN ES   1    613 32.77                             133    -0.6 7  146 263 
 PTB  HZ I         613 34.20         2.4 0.24                           146 263 
                                                                                
