 2014 1113 0140 34.7 L   6.779 -73.180138.5  RSN  6 0.5 1.3LRSN                1
 GAP=133        1.36       6.2     6.5  9.3 -0.9702E+01  0.8762E+01  0.6441E+01E
 Epicentro: LOS SANTOS - SANTANDER                                             3
 ACTION:UPD 14-12-19 15:42 OP:nd   STATUS:               ID:20141113014034 L   I
 OLDACT:ARG 14-11-13 12:06 OP:stll STATUS:               ID:20141113013743     3
 2014-11-13-0137-43M.COL___286                                                 6
 STAT SP IPHASW D HRMM SECON CODA AMPLIT PERI AZIMU VELO AIN AR TRES W  DIS CAZ7
 BAR2 SZ EP        140 53.48                             171    0.1010 20.7 181 
 BAR2 SZ ES        141  8.22                             171    0.2510 20.7 181 
 BAR2 SZ I         141  9.69         7.4 0.12            172           20.7 181 
 BRR  HZ EP        140 55.23                             152    0.3110 69.1 302 
 BRR  HN ES        141 11.63                             152    0.9210 69.1 302 
 PAM  SZ EP        140 56.19                             148   -0.2010 81.6  41 
 PAM  SN ES        141 12.64                             148   -0.6910 81.6  41 
 PAM  SZ I         141 15.57         3.5 0.50            150           81.6  41 
 RUS  HZ EP        140 57.51                             143   -0.0710 98.6 174 
 RUS  HE ES        141 15.55                             143    0.1210 98.6 174 
 RUS  HZ I         141 17.13         2.7 0.24            144           98.6 174 
 PTB  HZ EP        141  0.54                             131   -0.14 9  144 259 
 PTB  HN ES        141 19.98                             131   -0.97 9  144 259 
 PTB  HZ I         141 23.24         2.8 0.18            133            144 259 
 SPBC HZ EP        141  2.99                             128    0.76 9  159 218 
 SPBC HN ES        141 23.23                             128   -0.48 9  159 218 
                                                                                
