 2017  313 0028 22.2 L   6.781 -73.141146.6  RSN  9 0.4 1.9LRSN                1
 GAP=138        0.98       4.3     4.5  5.9 -0.5360E+01  0.7519E+01  0.9753E+00E
 Epicentro: LOS SANTOS - SANTANDER                                             3
 ACTION:UPD 17-05-25 18:39 OP:jn   STATUS:               ID:20170313002822 L   I
 OLDACT:REG 17-03-13 12:02 OP:cog  STATUS:               ID:20170313002743     3
 2017-03-13-0028-00M.COL___403                                                 6
 STAT SP IPHASW D HRMM SECON CODA AMPLIT PERI AZIMU VELO AIN AR TRES W  DIS CAZ7
 BAR2 EZ EP        028 41.81                             171   -0.0510 21.4 192 
 BAR2 EZ ES        028 56.96                             171   -0.2610 21.4 192 
 BAR2 EZ I         028 58.35        18.1 0.24            170           21.4 192 
 BRR  HZ EP        028 43.59                             152    0.1110 72.7 300 
 BRR  HN ES        029  1.13                             152    1.0110 72.7 300 
 BRR  HZ I         029  1.89        10.1 0.14            153           72.7 300 
 PAM  EZ EP        028 44.48                             151   -0.0610 78.7  38 
 PAM  EE ES        029  1.69                             151   -0.3110 78.7  38 
 PAM  EZ I         029  3.89        15.8 0.50            154           78.7  38 
 RUS  HZ EP        028 46.15                             145    0.3110 98.5 176 
 RUS  HE ES        029  4.33                             145    0.0110 98.5 176 
 RUS  HZ I         029  5.77         6.1 0.26            145           98.5 176 
 PTB  HZ EP        028 48.56                             132   -0.65 9  148 260 
 PTB  HN ES        029  9.70                             132   -0.61 9  148 260 
 PTB  HZ I         029 12.18         8.4 0.22            133            148 260 
 SPBC HZ EP        028 50.81                             130    0.21 9  162 220 
 SPBC HE ES        029 12.66                             130   -0.13 9  162 220 
 SPBC HZ I         029 18.76        17.2 0.44            130            162 220 
 ZAR  HZ EP        028 54.98                             122    0.19 8  205 293 
 ZAR  HN ES   3    029 19.34                             122   -0.90 2  205 293 
 NOR  HZ EP        028 57.86                             119    0.00 8  234 235 
 NOR  HN ES        029 25.88                             119    0.18 8  234 235 
 NOR  HZ I         029 27.26         5.1 0.15            120            234 235 
 GUY2CHZ EP   3    029  7.08                             113    1.36 2  300 235 
 GUY2CHN ES   4    029 35.56                             113   -4.14 0  300 235 
                                                                                
