 2017  213 0008 13.0 L   6.819 -73.116148.3  RSN 18 0.5 2.1LRSN                1
 GAP= 72        1.18       4.2     3.8  5.5 -0.4191E+00  0.5308E+01  0.4509E+01E
 Epicentro: LOS SANTOS - SANTANDER                                             3
 ACTION:UPD 17-05-24 15:35 OP:jn   STATUS:               ID:20170213000813 L   I
 OLDACT:UP  17-02-13 12:56 OP:edw  STATUS:               ID:20170213000004d    3
 OLDACT:UP  17-02-13 12:54 OP:edw  STATUS:               ID:20170213000004d    3
 OLDACT:DUP 17-02-13 12:44 OP:edw  STATUS:               ID:20170213000004d    3
 OLDACT:UP  17-02-13 12:26 OP:edw  STATUS:               ID:20170213000003     3
 OLDACT:REG 17-02-13 11:23 OP:edw  STATUS:               ID:20170213000003     3
 2017-02-13-0000-15M.COL___352                                                 6
 STAT SP IPHASW D HRMM SECON CODA AMPLIT PERI AZIMU VELO AIN AR TRES W  DIS CAZ7
 BAR2 EZ IP     D  0 8 32.83                             170   -0.1410 26.2 196 
 BAR2 EZ ES        0 8 48.04                             170   -0.5310 26.2 196 
 BAR2 EZ I         0 8 49.47        31.3 0.42            165           26.2 196 
 BRR  HZ EP     D  0 8 34.79                             152    0.2810 73.1 296 
 BRR  HN ES        0 8 52.19                             152    0.8810 73.1 296 
 BRR  HZ I         0 8 55.26        15.7 0.14            149           73.1 296 
 PAM  EZ EP     C  0 8 35.68                             152    0.4310 73.6  39 
 PAM  EN ES        0 8 51.99                             152   -0.6310 73.6  39 
 PAM  EZ I         0 8 54.96        12.2 0.52            158           73.6  39 
 RUS  HZ EP        0 8 36.67                             143   -0.4510  103 178 
 RUS  HN ES        0 8 55.52                             143   -0.4310  103 178 
 RUS  HZ I         0 8 56.67        12.6 0.32            143            103 178 
 PTB  HZ EP   9    0 8 39.51                             131   -0.97 0  151 258 
 PTB  HN ES        0 9  0.69                             132   -0.27 9  151 258 
 PTB  HZ I         0 9  8.24        21.6 0.46            129            151 258 
 TAM  HZ IP     D  0 8 40.97                             131    0.35 9  153 106 
 TAM  HN ES        0 9  2.47                             131    0.29 9  153 106 
 ZAR  HZ EP        0 8 45.24                             122   -0.58 8  206 291 
 ZAR  HN ES   2    0 9 12.14                             122    0.70 4  206 291 
 ZAR  HZ I         0 9 17.42        16.2 0.48            122            206 291 
 NOR  HZ EP   9 C  0 8 49.18                             118   -0.10 0  239 235 
 NOR  HN ES        0 9 16.64                             119   -0.85 8  239 235 
 NOR  HZ I         0 9 22.24        14.5 0.28            118            239 235 
 CHI  HZ EP        0 8 50.93                             117   -0.21 8  252 196 
 CHI  HN ES        0 9 21.69                             117    0.79 8  252 196 
 CHI  HZ I         0 9 25.53         5.5 0.36            117            252 196 
 ROSC BZ EP   4    0 8 52.64                             116    1.02 0  256 211 
 ROSC BN ES   4    0 9 24.12                             116    2.35 0  256 211 
 ROSC BZ I         0 9 30.65        15.1 0.40            116            256 211 
 PTGC HZ EP   4    0 8 55.70                             112   -1.34 0  310 159 
 PTGC HN ES   4    0 9 28.83                             112   -2.58 0  310 159 
 ELA  HZ EP        0 9  1.02                             110    0.64 7  333 230 
 ELA  HN ES   2    0 9 36.49                             110   -0.87 3  333 230 
 ELA  HZ I         0 9 45.59         6.8 0.36            110            333 230 
 CBOC HZ EP        0 9  0.83                             110    0.40 7  337 252 
 CBOC HN ES   4    0 9 35.94                             110   -1.51 0  337 252 
 CBOC HZ I         0 9 44.10         2.4 0.12            110            337 252 
 DBB  EZ EP        0 9  0.41                             109   -0.51 7  343 274 
 DBB  EN ES        0 9 37.74                             109   -0.57 7  343 274 
 DBB  EZ I         0 9 44.24         2.9 0.36            109            343 274 
 ANIL HZ EP        0 9  4.20                             108    0.87 6  361 225 
 ANIL HN ES   4    0 9 45.22                             108    2.62 0  361 225 
 PRA  HZ EP        0 9  6.39                             106   -0.61 6  396 210 
 PRA  HN ES        0 9 48.63                             106   -0.50 6  396 210 
 PRA  HZ I         0 9 57.18         5.5 0.62            107            396 210 
 ORTC HZ EP        0 9  7.87                             106    0.45 6  399 216 
 ORTC HN ES   4    0 9 52.27                             106    2.39 0  399 216 
 ORTC HZ I         0 9 55.22         3.5 0.20            107            399 216 
 SJC  HZ EP   4    0 9  7.31                             106   -1.32 0  409 326 
 SJC  HN ES   4    0 9 48.35                             106   -3.68 0  409 326 
 SJC  HZ I         0 9 52.52         3.1 0.60            107            409 326 
 CRJC HZ EP   4    0 9 13.50                             103   -1.77 0  465   3 
 CRJC HN ES   2    010  3.09                             103   -0.77 2  465   3 
                                                                                
