 2011  513 0755 49.8 L   6.818 -73.119136.4  RSN  9 0.4 1.8LRSN                1
 GAP=139        0.96       4.3    10.2  7.1 -0.1413E+02  0.2080E+01 -0.1427E+01E
 Epicentro: LOS SANTOS - SANTANDER                                             3
 ACTION:UP  11-06-29 08:52 OP:tino STATUS:               ID:20110513075549 L   I
 2011-05-13-0740-00M.COL___142                                                 6
 STAT SP IPHASW D HRMM SECON CODA AMPLIT PERI AZIMU VELO SNR AR TRES W  DIS CAZ7
 BTL  SZ EP        756  8.61                             171     0.310   20 304 
 BTL  SZ ES   1    756 23.40                             171     0.8 7   20 304 
 BAR2 SZ EP        756  8.28                             169    -0.110   26 196 
 BAR2 SZ I         756 23.94        13.7 0.26                            26 196 
 GIR2 SZ EP        756  8.29                             167    -0.110   30 344 
 GIR2 SZ ES   1    756 22.44                             167    -0.4 7   30 344 
 BRR  HZ IP        756 10.06                             150     0.010   73 296 
 BRR  HZ I         756 11.12        26.9 0.11                            73 296 
 PAM  SZ IP        756 11.23                             150     0.410   74  39 
 PAM  SN ES   2    756 27.96                             150     0.7 5   74  39 
 RUS  HZ EP        756 12.66                             141    -0.210  102 178 
 RUS  HN ES   1    756 30.25                             141    -0.5 7  102 178 
 BRI  SZ EP        756 12.74                             140     0.110  106  20 
 BRI  SZ ES   1    756 30.42                             140     0.0 7  106  20 
 GRA  SZ EP        756 14.04                             135     0.010  123  16 
 GRA  SZ ES   1    756 31.97                             135    -0.9 7  123  16 
 GRA  SZ I         756 34.47         8.0 0.54                           123  16 
 OCA  SZ EP        756 17.33                             128     0.1 9  159 352 
 OCA  SZ ES   2    756 37.82                             128    -0.9 5  159 352 
 OCA  SZ I         756 39.91         4.9 0.22                           159 352 
                                                                                
