 2014 1213 0637  0.0 L   6.821 -73.143142.6  RSN 10 0.5 2.0LRSN                1
 GAP=136        1.18       3.6     4.7  6.8 -0.1498E+01  0.8215E+01  0.4443E+01E
 Epicentro: LOS SANTOS - SANTANDER                                             3
 ACTION:UPD 15-02-10 17:03 OP:nd   STATUS:               ID:20141213063700 L   I
 OLDACT:DUP 14-12-13 18:14 OP:stll STATUS:               ID:20141213062739d    3
 2014-12-13-0627-38M.COL___294                                                 6
 STAT SP IPHASW D HRMM SECON CODA AMPLIT PERI AZIMU VELO AIN AR TRES W  DIS CAZ7
 BAR2 EZ EP        637 19.89                             169    0.5610 25.7 190 
 BAR2 EZ ES        637 34.56                             169    0.1810 25.7 190 
 BAR2 EZ I         637 36.27        22.3 0.40            166           25.7 190 
 BRR  HZ EP        637 20.98                             152    0.1910 70.4 297 
 BRR  HN ES        637 37.58                             152    0.5910 70.4 297 
 BRR  HZ I         637 38.57        16.5 0.14            150           70.4 297 
 PAM  SZ EP        637 21.98                             151    0.1910 75.4  40 
 PAM  SZ I         637 22.12        43.0 0.18            156           75.4  40 
 PAM  SN ES        637 38.59                             151   -0.1710 75.4  40 
 RUS  HZ EP        637 23.59                             143   -0.0510  103 176 
 RUS  HN ES        637 42.12                             143    0.0710  103 176 
 RUS  HZ I         637 44.06         9.1 0.36            143            103 176 
 PTB  HZ EP        637 26.34                             131   -0.48 9  149 258 
 PTB  HN ES        637 47.16                             131   -0.55 9  149 258 
 PTB  HZ I         637 52.33        12.7 0.54            130            149 258 
 OCA  HN ES        637 48.46                             129   -1.15 9  158 353 
 SPBC HZ EP        637 28.50                             128    0.02 9  165 219 
 SPBC HN ES        637 50.68                             128    0.01 9  165 219 
 SPBC HZ I         637 57.64        12.7 0.46            127            165 219 
 ZAR  HZ EP        637 33.29                             122    1.07 9  204 292 
 ZAR  HE ES        637 57.43                             122    0.11 9  204 292 
 ZAR  HZ I         638  4.19        17.0 0.44            122            204 292 
 NOR  HZ EP        637 35.97                             118    0.22 8  236 234 
 NOR  HN ES        638  3.38                             118   -0.24 8  236 234 
 NOR  HZ I         638 10.45         8.5 0.22            118            236 234 
 CHI  HZ EP        637 37.37                             116   -0.44 8  251 195 
 CHI  HZ I         637 39.72         4.8 0.34            117            251 195 
 CHI  HN ES        638  6.77                             116   -0.51 8  251 195 
                                                                                
