 2012 1013 0712 50.6 L   6.785 -73.064147.8  RSN  9 0.5 2.1LRSN                1
 GAP=148        0.83       4.3     5.9  6.2 -0.2272E+01  0.1229E+02  0.7777E+01E
 Epicentro: LOS SANTOS - SANTANDER                                             3
 ACTION:UPD 12-11-22 17:03 OP:ep   STATUS:               ID:20121013071250 L   I
 2012-10-13-0710-00M.COL___231                                                 6
 STAT SP IPHASW D HRMM SECON CODA AMPLIT PERI AZIMU VELO AIN AR TRES W  DIS CAZ7
 BAR2 SZ EP   1    713 10.54                             170    0.00 7 25.0 212 
 BAR2 SZ I         713 11.07        16.4 0.20                          25.0 212 
 BAR2 SZ ES   1    713 25.55                             170   -0.52 7 25.0 212 
 GIR2 SZ EP   1    713 10.61                             166   -0.06 7 35.5 336 
 GIR2 SZ ES   1    713 26.18                             166   -0.11 7 35.5 336 
 PAM  SZ EP   1    713 13.44                             152    0.61 7 73.3  33 
 PAM  SZ I         713 13.73        24.6 0.22                          73.3  33 
 PAM  SN ES   1    713 30.25                             152    0.10 7 73.3  33 
 PAM  SN I         713 31.94        28.9 0.28                          73.3  33 
 BRR  HZ EP   1    713 12.35                             150   -0.17 7 80.0 296 
 BRR  HN ES   1    713 29.54                             150   -0.05 7 80.0 296 
 BRR  HZ I         713 31.70        15.7 0.15                          80.0 296 
 RUS  HZ EP   1    713 14.66                             145    0.21 7 98.7 181 
 RUS  HN ES   1    713 33.33                             145    0.30 7 98.7 181 
 RUS  HZ I         713 34.35        18.4 0.24                          98.7 181 
 ZAR  HZ EP   1    713 23.13                             121   -1.01 6  213 292 
 ZAR  HN I         713 56.90        19.4 0.11                           213 292 
 CHI  HZ EP   1    713 28.69                             117    0.14 6  250 197 
 CHI  HZ I         713 29.35         6.7 0.16                           250 197 
 CHI  HN ES   1    713 57.94                             117   -0.18 6  250 197 
 HEL  HZ EP   1    713 32.22                             114    0.34 6  280 257 
 HEL  HE ES   1    714  5.26                             114    1.20 6  280 257 
 PRA  HZ EP   1    713 44.23                             107   -0.36 4  395 211 
 PRA  HZ I         713 46.01         3.8 0.13                           395 211 
 PRA  HE ES   1    714 25.78                             107   -0.90 4  395 211 
                                                                                
