 2013  813 0748  0.5 L   6.852 -73.225130.9  RSN  5 0.2 1.2LRSN                1
 GAP=194        0.58       3.0     3.9  5.3  0.3350E+01  0.2356E+01 -0.7119E+01E
 Epicentro: ZAPATOCA - SANTANDER                                               3
 ACTION:UPD 14-01-14 09:01 OP:ep   STATUS:               ID:20130813074800 L   I
 OLDACT:REG 13-08-13 08:27 OP:stll STATUS:               ID:20130813073836     3
 2013-08-13-0738-36M.COL___221                                                 6
 STAT SP IPHASW D HRMM SECON CODA AMPLIT PERI AZIMU VELO AIN AR TRES W  DIS CAZ7
 BAR2 SZ EP        748 18.75                             167    0.2310 29.1 171 
 BAR2 SZ ES        748 32.27                             167   -0.2810 29.1 171 
 BAR2 SZ I         748 34.91         3.9 0.54            172           29.1 171 
 RUS  HZ EP        748 23.13                             138   -0.2510  107 172 
 RUS  HN ES        748 41.51                             138    0.3210  107 172 
 RUS  HZ I         748 42.63         1.2 0.20            147            107 172 
 PTB  HZ EP        748 25.49                             130   -0.15 9  140 256 
 PTB  HN ES        748 45.28                             130    0.05 9  140 256 
 PTB  HZ I         748 48.69         2.9 0.12            131            140 256 
 ZAR  HZ EP   4    748 33.13                             120    2.16 0  194 292 
 ZAR  HN ES   4    748 57.40                             120    2.69 0  194 292 
 ZAR  HZ I         749  5.26         2.3 0.26            121            194 292 
 SML  HZ EP        748 35.38                             115   -0.01 8  235 337 
 SML  HN ES        749  2.71                             115    0.12 8  235 337 
 SML  HZ I         749 11.84         1.9 0.26            117            235 337 
                                                                                
