 2013  313 0533 58.5 L   6.805 -73.156149.7  RSN 11 0.4 2.1LRSN                1
 GAP=135        0.83       3.8     4.6  6.4  0.7210E+00  0.7879E+01 -0.2444E+01E
 Epicentro: LOS SANTOS - SANTANDER                                             3
 ACTION:UPD 13-04-09 14:02 OP:ep   STATUS:               ID:20130313053358 L   I
 2013-03-13-0530-00M.COL___231                                                 6
 STAT SP IPHASW D HRMM SECON CODA AMPLIT PERI AZIMU VELO AIN AR TRES W  DIS CAZ7
 BAR2 SZ EP     C  534 18.62                             171    0.0310 23.7 187 
 BAR2 SZ ES        534 34.47                             171    0.2010 23.7 187 
 BAR2 SZ I         534 35.41        46.8 0.30            151           23.7 187 
 BRR  HZ IP     C  534 20.51                             154    0.5310 69.9 299 
 BRR  HN ES   4    534 37.97                             154    1.22 0 69.9 299 
 BRR  HZ I         534 41.60         8.6 0.16            142           69.9 299 
 PAM  SZ EP        534 21.40                             151    0.2710 77.7  40 
 PAM  SN ES   1    534 38.84                             151    0.04 7 77.7  40 
 PAM  SZ I         534 40.87        29.0 0.50            143           77.7  40 
 RUS  HZ EP        534 22.50                             144   -0.1710  101 175 
 RUS  HN ES   1    534 40.89                             144   -0.64 7  101 175 
 RUS  HZ I         534 41.90        10.6 0.36            122            101 175 
 PTB  HZ EP   1    534 25.15                             133   -0.53 7  147 259 
 PTB  HN ES   1    534 46.60                             133   -0.29 7  147 259 
 PTB  HZ I         534 52.55        22.9 0.44            116            147 259 
 OCA  HN ES   2    534 48.71                             131   -0.59 5  160 354 
 ZAR  HN ES   1    534 56.99                             123    0.53 6  203 292 
 SML  HZ EP   1    534 34.97                             118   -0.25 6  243 335 
 SML  HN ES   1    535  2.99                             118   -0.89 6  243 335 
 SML  HZ I         535  5.86        14.1 0.36            107            243 335 
 CHI  HZ EP   2    534 37.06                             118    0.63 4  249 195 
 CHI  HZ I         535 10.13         5.6 0.44            104            249 195 
 HEL  HZ EP   4    534 40.71                             116    1.92 0  271 256 
 HEL  HN ES   2    535 10.95                             116    0.72 4  271 256 
 PRA  HZ EP   1    534 52.12                             107   -0.01 4  392 209 
 PRA  HZ I         535 40.14         8.2 0.68             98            392 209 
                                                                                
