 2016  713 0356 11.8 L   6.781 -73.113150.6  RSN  5 0.2 1.1LRSN                1
 GAP=239        0.51       3.2     3.6  3.8  0.3333E+01  0.2218E+01  0.1318E+01E
 Epicentro: LOS SANTOS - SANTANDER                                             3
 ACTION:UPD 17-03-29 16:50 OP:lp   STATUS:               ID:20160713035611 L   I
 OLDACT:UP  16-07-13 15:36 OP:dani STATUS:               ID:20160713034759     3
 OLDACT:REG 16-07-13 13:03 OP:dani STATUS:               ID:20160713034759     3
 2016-07-13-0347-59S.COL___331                                                 6
 STAT SP IPHASW D HRMM SECON CODA AMPLIT PERI AZIMU VELO AIN AR TRES W  DIS CAZ7
 BAR2 EZ ES        356 47.64                             171   -0.1310 22.3 200 
 BRR  HZ EP        356 33.87                             152    0.1310 75.4 299 
 BRR  HN ES        356 50.87                             152    0.0410 75.4 299 
 BRR  HZ I         356 54.66         2.2 0.32            150           75.4 299 
 RUS  HZ EP        356 35.81                             145   -0.0910 98.3 178 
 RUS  HE ES        356 54.80                             145    0.1210 98.3 178 
 RUS  HZ I         356 55.75         1.7 0.34            147           98.3 178 
 PTB  HZ EP        356 39.12                             132   -0.36 9  151 260 
 PTB  HN ES        357  1.16                             132    0.11 9  151 260 
 PTB  HZ I         357  4.77         1.1 0.10            132            151 260 
 SPBC HZ EP        356 41.06                             130    0.29 9  164 220 
 SPBC HE ES        357  3.21                             130   -0.13 9  164 220 
 SPBC HZ I         357  6.66         2.1 0.24            130            164 220 
                                                                                
