 2011  513 0329 43.4 L   7.086 -73.016147.5  RSN  7 0.3 1.4LRSN                1
 GAP=164        0.61       4.3     9.7  8.1 -0.1999E+02 -0.3649E+01  0.7802E+01E
 Epicentro: FLORIDABLANCA - SANTANDER                                          3
 ACTION:UP  11-06-29 08:52 OP:tino STATUS:               ID:20110513032943 L   I
 2011-05-13-0326-36S.COL___141                                                 6
 STAT SP IPHASW D HRMM SECON CODA AMPLIT PERI AZIMU VELO SNR AR TRES W  DIS CAZ7
 GIR2 SZ EP        330  3.01                             172     0.010   20 268 
 BTL  SZ EP        330  3.55                             167     0.110   33 236 
 BTL  SZ ES   2    330 18.41                             167    -0.7 5   33 236 
 BAR2 SZ EP        330  4.36                             158     0.010   58 199 
 BAR2 SZ I         330  4.55         6.2 0.11                            58 199 
 BRI  SZ EP        330  5.12                             152     0.010   74  19 
 BRR  HZ EP        330  5.11                             151     0.110   77 272 
 BRR  HZ I         330  5.20         6.5 0.20                            77 272 
 GRA  SZ EP        330  5.83                             147    -0.310   91  15 
 GRA  SZ ES   1    330 24.33                             147     0.4 7   91  15 
 RUS  HZ EP        330  9.74                             136     0.010  132 183 
 RUS  HZ I         330  9.89         2.2 0.22                           132 183 
 RUS  HN ES   2    330 30.71                             136     0.4 5  132 183 
                                                                                
