 2017  313 0219 12.8 L   6.745 -73.145143.8  RSN  7 0.4 1.7LRSN                1
 GAP=139        0.90       4.1     3.8  6.0 -0.4288E+00  0.7473E+01  0.2295E+00E
 Epicentro: LOS SANTOS - SANTANDER                                             3
 ACTION:UPD 17-05-25 18:39 OP:jn   STATUS:               ID:20170313021912 L   I
 OLDACT:REG 17-03-13 13:35 OP:cog  STATUS:               ID:20170313021742     3
 2017-03-13-0218-00M.COL___402                                                 6
 STAT SP IPHASW D HRMM SECON CODA AMPLIT PERI AZIMU VELO AIN AR TRES W  DIS CAZ7
 BAR2 EZ EP        219 32.21                             173    0.1410 17.4 194 
 BAR2 EZ ES        219 46.78                             173   -0.3410 17.4 194 
 BAR2 EZ I         219 48.12        11.5 0.24            173           17.4 194 
 BRR  HZ EP        219 34.04                             151    0.1310 74.4 303 
 BRR  HN ES        219 50.69                             151    0.3110 74.4 303 
 PAM  EZ EP        219 34.96                             149   -0.1210 82.1  37 
 PAM  EN ES        219 51.97                             149   -0.5010 82.1  37 
 PAM  EZ I         219 53.98         9.3 0.50            150           82.1  37 
 RUS  HZ EP        219 36.17                             145    0.2610 94.5 176 
 RUS  HN ES        219 54.35                             145    0.4010 94.5 176 
 PTB  HZ EP        219 39.46                             132   -0.05 9  147 261 
 PTB  HN ES        220  0.07                             132   -0.28 9  147 261 
 PTB  HZ I         220  2.98         5.6 0.18            132            147 261 
 ZAR  HZ EP        219 45.30                             121   -0.06 8  207 294 
 ZAR  HN ES        220 11.39                             121    0.62 8  207 294 
 GUY2CHZ EP   4    219 59.42                             112    3.50 0  298 236 
 GUY2CHN ES        220 28.77                             112   -0.80 7  298 236 
                                                                                
