 2011 1113 0706 31.6 L   6.775 -73.130144.0  RSN 22 0.4 3.4LRSN                1
 GAP=116        0.88       3.1     4.4  5.0 -0.2771E+01  0.7297E+01  0.4080E+01E
 Epicentro: LOS SANTOS - SANTANDER                                             3
 ACTION:UPD 12-07-13 16:09 OP:ep   STATUS:               ID:20111113070631 L   I
 2011-11-13-0703-34S.COL___179                                                 6
 STAT SP IPHASW D HRMM SECON CODA AMPLIT PERI AZIMU VELO AIN AR TRES W  DIS CAZ7
 BAR2 SZ IP        7 6 51.02                             171    0.0910 21.0 196 
 BAR2 SZ ES   1    7 7  5.49                             171   -0.55 7 21.0 196 
 BAR2 SZ I         7 7  6.80       677.8 0.22                          21.0 196 
 BTL  SZ EP        7 6 51.27                             171    0.3210 21.9 316 
 BRR  HZ IP     C  7 6 53.01                             151    0.3310 74.0 300 
 BRR  HE ES   1    7 7  9.86                             151    0.71 7 74.0 300 
 BRR  HZ I         7 7 15.55       567.7 0.52                          74.0 300 
 PAM  SZ IP        7 6 54.00                             150    0.3510 78.5  37 
 PAM  SN ES   1    7 7 10.62                             150   -0.26 7 78.5  37 
 RUS  HZ IP     C  7 6 54.77                             144   -0.1610 97.7 177 
 RUS  HE ES   1    7 7 13.03                             144   -0.13 7 97.7 177 
 RUS  HZ I         7 7 14.16       212.5 0.42                          97.7 177 
 BRI  SZ EP        7 6 55.84                             141    0.4110  110  19 
 BRI  SZ ES   1    7 7 13.71                             141   -0.35 7  110  19 
 GUE  SZ EP        7 6 55.57                             138   -0.7310  119  11 
 OCA  SZ EP        7 6 59.91                             129   -0.10 9  163 353 
 OCA  SZ I         7 7 26.47       384.8 0.37                           163 353 
 YOP  SZ IP        7 7  1.55                             126    0.40 9  176 153 
 YOP  SZ I         7 7  4.28       154.5 0.24                           176 153 
 ZAR  HZ EP        7 7  4.14                             122   -0.02 8  207 293 
 ZAR  HZ I         7 7 37.84       292.3 0.32                           207 293 
 NOR  SZ EP        7 7  6.87                             118   -0.29 8  234 235 
 NOR  SE ES   1    7 7 35.00                             118    0.07 6  234 235 
 CHI  HZ EP        7 7  8.92                             117    0.00 8  246 196 
 CHI  HZ I         7 7 11.31        99.4 0.52                           246 196 
 CVER SZ EP   2    7 7 12.85                             115    1.24 4  270 203 
 CVER SZ I         7 7 14.52        69.8 0.30                           270 203 
 HEL  HZ EP        7 7 11.08                             114   -0.71 8  273 256 
 HEL  HZ I         7 7 49.79       226.5 0.34                           273 256 
 VIL  SZ EP        7 7 14.11                             112   -0.52 7  301 192 
 GUY  SZ EP   2    7 7 15.96                             112    0.63 4  303 236 
 GUY  SZ I         7 7 58.39       259.1 0.48                           303 236 
 RREF HZ EP        7 7 17.61                             111    0.04 7  321 230 
 RREF HZ I         7 8  2.06       144.6 0.42                           321 230 
 DBB  SZ EP        7 7 18.97                             109   -0.21 7  341 275 
 TOL  SZ EP        7 7 20.41                             109    0.76 7  343 225 
 ANIL HZ EP        7 7 21.01                             108   -0.19 6  357 225 
 PRA  HZ EP        7 7 24.34                             106   -0.49 6  390 210 
 GUA  SZ EP        7 7 34.37                             103    0.06 5  471 173 
                                                                                
