 2016  613 0152 36.5 L   6.798 -73.150149.2  RSN  7 0.4 1.4LRSN                1
 GAP=136        0.98       4.8     5.0  6.9 -0.8996E+01  0.8838E+01  0.1857E+01E
 Epicentro: LOS SANTOS - SANTANDER                                             3
 ACTION:UPD 16-07-21 22:18 OP:rebc STATUS:               ID:20160613015236 L   I
 OLDACT:REG 16-06-13 12:27 OP:dnl  STATUS:               ID:20160613014746     3
 2016-06-13-0147-46M.COL___325                                                 6
 STAT SP IPHASW D HRMM SECON CODA AMPLIT PERI AZIMU VELO AIN AR TRES W  DIS CAZ7
 BAR2 EZ EP   2    152 55.96                             171   -0.55 5 23.1 189 
 BAR2 EZ ES        153 11.57                             171   -0.5610 23.1 189 
 BAR2 EZ I         153 12.61         8.7 0.26                          23.1 189 
 BRR  HZ EP        152 58.20                             153    0.2310 70.9 299 
 BRR  HN ES        153 15.31                             153    0.5710 70.9 299 
 BRR  HZ I         153 18.51         4.9 0.13                          70.9 299 
 PAM  EZ EP        152 59.36                             151    0.2910 77.8  40 
 PAM  EN ES        153 16.69                             151   -0.0110 77.8  40 
 PAM  EZ I         153 19.66         3.0 0.28                          77.8  40 
 RUS  HZ EP   2    153  0.48                             144   -0.07 5  100 176 
 RUS  HE ES        153 19.39                             144    0.0610  100 176 
 RUS  HZ I         153 21.75         2.0 0.36                           100 176 
 PTB  HZ EP        153  3.01                             133   -0.67 9  147 259 
 PTB  HN ES        153 24.32                             133   -0.58 9  147 259 
 PTB  HZ I         153 26.09         4.0 0.12                           147 259 
 SPBC HZ EP        153  5.43                             130    0.23 9  163 219 
 SPBC HE ES        153 27.93                             130    0.33 9  163 219 
 SPBC HZ I         153 32.91         5.4 0.20                           163 219 
 NOR  HZ EP   2    153 11.89                             119   -0.46 4  234 234 
 NOR  HN ES        153 40.78                             119    0.44 8  234 234 
 NOR  HZ I         153 45.39         2.2 0.16                           234 234 
                                                                                
