 2010 1113 0735 28.0 L   6.331 -73.563116.0  RSN 20 0.5 3.2LRSN                1
 GAP= 77        1.15       3.5     5.3  7.8 -0.7718E+01  0.1919E+02 -0.1481E+01E
 Epicentro: SANTA HELENA DEL OPON - SANTANDER                                  3
 ACTION:UP  10-12-17 16:52 OP:REBC STATUS:               ID:20101113073528 L   I
 2010-11-13-0734-46S.COL___130                                                 6
 STAT SP IPHASW D HRMM SECON CODA AMPLIT PERI AZIMU VELO SNR AR TRES W  DIS CAZ7
 BAR2 SZ IP        735 45.58                             155     0.410   51  55 
 BAR2 SZ ES   1    735 58.47                             155    -0.1 7   51  55 
 BAR2 SZ I         736  0.06       926.3 0.34                            51  55 
 RUS  HZ IP     C  735 46.84                             146     0.110   72 132 
 RUS  HE ES   1    736  0.82                             146    -0.6 7   72 132 
 RUS  HZ I         736  2.79       317.1 0.24                            72 132 
 BRR  HZ IP     D  735 47.12                             140    -0.110   87 349 
 BRR  HZ I         735 47.44       417.6 0.14                            87 349 
 GIR2 SZ IP        735 48.18                             139     0.410   92  26 
 NOR  SZ EP        735 54.11                             120    -0.7 9  168 240 
 NOR  SN ES   1    736 15.26                             120    -0.5 7  168 240 
 ROSC BN ES   1    736 21.41                             118     1.6 7  185 207 
 ROSC BZ I         736 27.90        80.6 0.35                           185 207 
 CHI  HZ EP        735 57.63                             117     0.0 9  189 186 
 CHI  HZ I         735 59.65        86.2 0.23                           189 186 
 CHI  HE ES   1    736 20.09                             117    -0.6 7  189 186 
 GRA  SZ EP        735 57.76                             117     0.3 9  191  26 
 GRA  SZ ES   1    736 20.25                             117    -0.2 7  191  26 
 GRA  SZ I         736 28.74       124.8 0.30                           191  26 
 OCA  SZ EP        735 59.83                             114     0.0 8  213   7 
 OCA  SZ I         736 30.83       270.2 0.20                           213   7 
 HEL  HZ EP        736  0.80                             113     0.1 8  218 266 
 HEL  HZ I         736 28.79        97.2 0.31                           218 266 
 GUY  SZ EP        736  2.68                             112     0.0 8  234 239 
 GUY  SZ I         736 34.35       134.5 0.72                           234 239 
 VIL  SZ EP        736  3.51                             110     0.0 8  245 181 
 VIL  SZ I         736  6.16        93.2 0.17                           245 181 
 RREF HZ EP        736  5.31                             110     0.3 8  253 231 
 RREF HZ I         736 39.67        93.3 0.20                           253 231 
 TOL  SZ EP        736  7.15                             108     0.1 8  274 225 
 ANIL HZ EP        736  8.80                             107     0.1 7  288 225 
 ANIL HZ I         736 50.41       192.1 0.51                           288 225 
 DBB  SZ EP        736  9.87                             106    -0.2 7  302 285 
 PRA  HZ EP        736 12.14                             104    -0.5 7  324 207 
 PRA  HE ES   2    736 47.06                             104    -0.4 3  324 207 
 SJA  SZ EP        736 14.16                             103    -0.5 7  341 187 
 SJA  SZ ES   1    736 52.08                             103     1.1 5  341 187 
 SJA  SZ I         736 56.31       164.6 0.27                           341 187 
 SDV  BZ EP        736 25.26                              99    -0.1 5  429  49 
 SDV  BZ I         736 26.46        22.1 0.41                           429  49 
 GUA  SZ EP        736 24.83                              99    -0.5 5  431 166 
                                                                                
