 2011  813 0323 24.5 L   6.795 -73.086141.0  RSN  9 0.4 1.8LRSN                1
 GAP=145        0.67       3.2     5.2  5.5 -0.3183E+01  0.9117E+01  0.1369E+01E
 Epicentro: LOS SANTOS - SANTANDER                                             3
 ACTION:UPD 12-07-13 15:51 OP:ep   STATUS:               ID:20110813032324 L   I
 2011-08-13-0322-34S.COL___149                                                 6
 STAT SP IPHASW D HRMM SECON CODA AMPLIT PERI AZIMU VELO AIN AR TRES W  DIS CAZ7
 BAR2 SZ IP        323 43.85                             170    0.2410 24.8 205 
 BAR2 SZ ES   1    323 58.47                             170   -0.03 7 24.8 205 
 BAR2 SZ I         323 59.98        16.2 0.20                          24.8 205 
 PAM  SN ES   2    324  2.58                             151   -0.20 5 73.8  35 
 BRR  HZ EP        323 45.69                             150    0.1610 77.3 297 
 BRR  HE ES   1    324  1.90                             150   -0.01 7 77.3 297 
 BRR  HZ I         324  5.78        15.6 0.14                          77.3 297 
 RUS  HZ EP   1    323 47.85                             143    0.10 7 99.8 180 
 RUS  HN ES   1    324  5.73                             143   -0.13 7 99.8 180 
 RUS  HZ I         324  8.61         3.7 0.17                          99.8 180 
 OCA  SZ EP   1    323 52.90                             128    0.29 7  162 351 
 OCA  SZ ES   1    324 14.04                             128   -0.47 7  162 351 
 OCA  SZ I         324 19.33         7.6 0.15                           162 351 
 NOR  SZ EP   1    324  0.34                             117   -0.19 6  240 235 
 NOR  SN ES   1    324 27.80                             117   -0.82 6  240 235 
 CHI  HZ EP   2    324  2.00                             116   -0.10 4  250 197 
 CHI  HZ I         324 37.41         5.1 0.41                           250 197 
 GUY  SZ EP   1    324  8.59                             111   -0.18 5  309 236 
 GUY  SN ES   1    324 44.26                             111    0.99 5  309 236 
 GUY  SZ I         324 48.33         5.3 0.30                           309 236 
 PRA  HZ EP   2    324 17.35                             105   -0.87 3  395 210 
                                                                                
