 2017  113 0110 29.3 L   6.823 -73.142147.8  RSN 23 0.6 2.5LRSN                1
 GAP= 65        1.02       3.3     3.0  5.2 -0.4572E+00  0.5444E+01  0.7919E+00E
 Epicentro: LOS SANTOS - SANTANDER                                             3
 ACTION:UPD 17-05-22 15:58 OP:jn   STATUS:               ID:20170113011029 L   I
 OLDACT:UP  17-01-13 13:56 OP:and  STATUS:               ID:20170113010743d    3
 OLDACT:UP  17-01-13 13:55 OP:and  STATUS:               ID:20170113010743d    3
 OLDACT:UP  17-01-13 13:54 OP:and  STATUS:               ID:20170113010743d    3
 OLDACT:UP  17-01-13 13:53 OP:and  STATUS:               ID:20170113010743d    3
 OLDACT:UP  17-01-13 13:52 OP:and  STATUS:               ID:20170113010743d    3
 OLDACT:UP  17-01-13 13:50 OP:and  STATUS:               ID:20170113010743d    3
 OLDACT:UP  17-01-13 13:50 OP:and  STATUS:               ID:20170113010743d    3
 OLDACT:UP  17-01-13 13:48 OP:and  STATUS:               ID:20170113010743d    3
 OLDACT:UP  17-01-13 13:47 OP:and  STATUS:               ID:20170113010743d    3
 OLDACT:DUP 17-01-13 13:44 OP:and  STATUS:               ID:20170113010743d    3
 2017-01-13-0108-00M.COL___332                                                 6
 STAT SP IPHASW D HRMM SECON CODA AMPLIT PERI AZIMU VELO AIN AR TRES W  DIS CAZ7
 BAR2 EZ EP     C  110 49.33                             170    0.0610 25.9 190 
 BAR2 EZ ES        111  4.21                             170   -0.6010 25.9 190 
 BAR2 EZ I         111  7.02       101.1 0.28            166           25.9 190 
 BRR  HZ EP        110 51.27                             153    0.6010 70.4 297 
 BRR  HE ES   3    111  8.68                             153    1.38 2 70.4 297 
 BRR  HZ I         111 13.11        37.9 0.11            150           70.4 297 
 PAM  EZ EP     D  110 52.07                             151    0.4210 75.2  41 
 PAM  EN ES        111  9.13                             151    0.0910 75.2  41 
 PAM  EZ I         111 12.05        37.1 0.55            158           75.2  41 
 RUS  HZ EP        110 53.22                             143   -0.2510  103 176 
 RUS  HN ES        111 11.62                             143   -0.6710  103 176 
 RUS  HZ I         111 13.17        38.9 0.30            145            103 176 
 PTB  HZ EP        110 56.28                             132   -0.28 9  149 258 
 PTB  HN ES        111 17.32                             132   -0.47 9  149 258 
 PTB  HZ I         111 24.67        51.1 0.38            131            149 258 
 TAM  HZ IP     D  110 57.57                             131    0.36 9  155 106 
 TAM  HN ES        111 19.27                             131    0.33 9  155 106 
 TAM  HZ I         111 20.61        17.7 0.48            137            155 106 
 ZAR  HZ EP        111  1.86                             122   -0.01 9  204 291 
 ZAR  HN ES        111 28.07                             122    0.84 9  204 291 
 ZAR  HZ I         111 36.60        32.2 0.26            123            204 291 
 NOR  HZ EP        111  5.27                             118   -0.12 8  237 234 
 NOR  HN ES        111 33.83                             118    0.33 8  237 234 
 NOR  HZ I         111 38.79        39.7 0.40            119            237 234 
 CHI  HZ EP        111  7.35                             117   -0.08 8  251 195 
 CHI  HN ES        111 36.89                             117   -0.25 8  251 195 
 CHI  HZ I         111 40.70        11.0 0.34            119            251 195 
 ROSC BZ EP   9    111  9.54                             117    1.71 0  255 211 
 ROSC BN ES        111 39.74                             116    0.18 8  255 211 
 ROSC BZ I         111 45.28        43.3 0.35            118            255 211 
 URE  HZ EP        111  9.62                             114   -0.83 7  283 291 
 URE  HN ES   2    111 41.25                             114   -1.27 4  283 291 
 URE  HZ I         111 50.94        31.1 0.18            115            283 291 
 GUY2CHZ EP   3    111 14.32                             112    1.07 2  303 234 
 GUY2CHN ES   4    111 50.55                             112    3.05 0  303 234 
 GUY2CHZ I         111 55.79        33.8 0.30                           303 234 
 PTGC HZ EP   3    111 12.26                             111   -1.28 2  311 159 
 PTGC HN ES   4    111 45.61                             111   -2.40 0  311 159 
 LL6C HZ EP   9    110 55.27                             111   -19.6 0  322 357 
 LL6C HN ES        111 30.66                                   -0.10 7  322 357 
 ELA  HZ EP   4    111 18.77                             110    2.27 0  331 229 
 ELA  HN ES   4    111 56.99                             110    3.70 0  331 229 
 ELA  HZ I         112  9.09        18.4 0.46            112            331 229 
 CBOC HZ EP        111 17.30                             110    0.82 7  335 252 
 CBOC HN ES        111 53.58                             110    0.34 7  335 252 
 CBOC HZ I         112  7.21         6.7 0.36            111            335 252 
 DBB  EZ EP   3    111 17.27                             109    0.34 2  340 274 
 DBB  EZ ES   4    111 51.45                             109   -2.60 0  340 274 
 DBB  EZ I         111 57.75         6.7 0.26            111            340 274 
 ORTC HZ EP        111 23.48                             106   -0.12 6  398 216 
 ORTC HN ES        112  6.90                             106    0.98 6  398 216 
 ORTC HZ I         112 12.45        12.7 0.40            108            398 216 
 SJC  HZ EP        111 23.46                             106   -1.29 6  407 327 
 SJC  HN ES   4    112  4.68                             106   -3.29 0  407 327 
 SJC  HZ I         112  8.73         5.8 0.44            108            407 327 
 PAL  HZ EP        111 24.88                             106    0.11 6  407 239 
 PAL  HN ES   4    112  9.88                             106    1.89 0  407 239 
 PAL  HZ I         112 13.81        10.4 0.40            107            407 239 
 CRJC HZ EP   9    111 29.71                             103   -1.89 0  465   4 
 CRJC HN ES        112 18.46                             104    0.19 5  465   4 
 SMAR HZ EP   3    111 34.73                             102   -0.26 1  495 346 
 SMAR HN ES   4    112 23.18                             102   -3.01 0  495 346 
 MACC HZ EP   4    111 36.18                             102   -2.23 0  523 189 
 URI  HZ EP   3    111 39.82                             101   -2.27 1  554  13 
                                                                                
