 2014  613 0939 36.8 L   6.782 -73.161143.0  RSN  7 0.5 1.4LRSN                1
 GAP=181        1.11       4.1     6.4  9.5  0.2827E+01  0.1392E+02 -0.1381E+02E
 Epicentro: LOS SANTOS - SANTANDER                                             3
 ACTION:UPD 14-07-01 22:53 OP:nd   STATUS:               ID:20140613093936 L   I
 OLDACT:REG 14-06-13 14:39 OP:mh   STATUS:               ID:20140613093814     3
 2014-06-13-0938-14M.COL___256                                                 6
 STAT SP IPHASW D HRMM SECON CODA AMPLIT PERI AZIMU VELO AIN AR TRES W  DIS CAZ7
 BAR2 SZ ES        940 11.48                             171    0.4010 21.1 186 
 BAR2 SZ I         940 12.98         9.0 0.18            170           21.1 186 
 RUS  HZ EP        940  0.58                             144    0.4310 98.7 175 
 RUS  HE ES        940 17.64                             144   -0.7110 98.7 175 
 RUS  HZ I         940 21.85         1.5 0.38            146           98.7 175 
 PTB  HZ EP        940  3.64                             132    0.28 9  146 259 
 PTB  HN ES        940 24.32                             132    0.25 9  146 259 
 PTB  HZ I         940 29.82         2.5 0.14            131            146 259 
 SPBC HN ES   1    940 26.73                             129    0.02 7  161 219 
 SPBC HZ I         940 31.37         3.1 0.17            130            161 219 
 OCA  HN ES        940 26.85                             129   -0.28 9  162 354 
 OCA  HZ I         940 29.72         4.3 0.30            131            162 354 
 ZAR  HE ES        940 33.49                             122   -0.60 9  203 293 
 ZAR  HZ I         940 39.65         1.7 0.11            122            203 293 
 SML  HZ EP        940 12.90                             117   -0.50 8  245 336 
 SML  HN ES        940 42.57                             117    0.62 8  245 336 
 SML  HZ I         940 45.80         4.3 0.10            118            245 336 
                                                                                
