 2011  513 0825 49.4 L   6.754 -73.104142.7  RSN  4 0.1 1.2LRSN                1
 GAP=164        0.42       3.9     7.4  5.5  0.1575E+02 -0.2131E+02 -0.1042E+02E
 Epicentro: LOS SANTOS - SANTANDER                                             3
 ACTION:UP  11-06-29 08:52 OP:tino STATUS:               ID:20110513082549 L   I
 2011-05-13-0820-00M.COL___142                                                 6
 STAT SP IPHASW D HRMM SECON CODA AMPLIT PERI AZIMU VELO SNR AR TRES W  DIS CAZ7
 BAR2 SZ EP   1    826  8.54                             172     0.0 7   20 206 
 BAR2 SZ I         826 17.97         4.5 0.52                            20 206 
 BAR2 SZ ES   1    826 23.66                             172     0.1 7   20 206 
 BRR  HZ EP   1    826 10.47                             150    -0.1 7   78 300 
 BRR  HE ES   1    826 27.11                             150     0.0 7   78 300 
 BRR  HZ I         826 31.53         7.2 0.14                            78 300 
 RUS  HZ EP   1    826 12.67                             145     0.2 7   95 179 
 RUS  HN ES   1    826 30.21                             145    -0.2 7   95 179 
 RUS  HZ I         826 32.05         1.0 0.34                            95 179 
 GRA  SZ EP   1    826 14.57                             135    -0.1 7  129  15 
                                                                                
