 2011  613 0001 43.5 L   6.764 -73.101146.6  RSN 14 0.3 2.7LRSN                1
 GAP=144        0.56       2.6     4.5  4.3 -0.5077E+01 -0.3724E+00  0.3278E+01E
 Epicentro: LOS SANTOS - SANTANDER                                             3
 ACTION:UP  11-07-14 19:04 OP:ep   STATUS:               ID:20110613000143 L   I
 2011-06-13-0000-30S.COL___132                                                 6
 STAT SP IPHASW D HRMM SECON CODA AMPLIT PERI AZIMU VELO SNR AR TRES W  DIS CAZ7
 BAR2 SZ EP   1    0 2  3.08                             171    -0.1 7   21 205 
 BAR2 SZ ES   2    0 2 18.51                             171     0.0 5   21 205 
 BAR2 SZ I         0 2 20.15       112.0 0.28                            21 205 
 BTL  SZ ES   2    0 2 18.58                             170    -0.1 5   25 313 
 GIR2 SZ EP   1    0 2  3.41                             165     0.0 7   36 344 
 GIR2 SZ ES   2    0 2 18.42                             165    -0.5 5   36 344 
 BRR  HZ IP     C  0 2  5.19                             150     0.110   77 299 
 BRR  HN ES   1    0 2 22.46                             150     0.6 7   77 299 
 BRR  HZ I         0 2 25.00       100.1 0.16                            77 299 
 PAM  SZ EP   2    0 2  6.20                             151     0.4 5   78  35 
 PAM  SN ES   2    0 2 23.32                             151     0.1 5   78  35 
 RUS  HZ IP     D  0 2  7.12                             145     0.110   96 179 
 RUS  HN ES   2    0 2 24.84                             145    -0.5 5   96 179 
 RUS  HZ I         0 2 27.21        33.1 0.32                            96 179 
 BRI  SZ EP   1    0 2  7.85                             141     0.3 7  111  18 
 BRI  SZ ES   2    0 2 25.93                             141    -0.5 5  111  18 
 BRI  SZ I         0 2 29.89        45.6 0.45                           111  18 
 GRA  SZ IP        0 2  9.10                             136     0.110  128  15 
 GRA  SZ ES   2    0 2 28.37                             136    -0.5 5  128  15 
 GRA  SZ I         0 2 30.00        61.0 0.56                           128  15 
 OCA  SZ EP   2    0 2 11.90                             129    -0.4 5  165 352 
 OCA  SZ ES   2    0 2 34.10                             129    -0.6 5  165 352 
 OCA  SZ I         0 2 38.67        88.4 0.39                           165 352 
 NOR  SZ EP   1    0 2 18.97                             118    -0.5 6  236 236 
 NOR  SN ES   2    0 2 47.36                             118    -0.1 4  236 236 
 CHI  HZ EP   2    0 2 21.14                             117     0.2 4  246 197 
 CHI  HE ES   2    0 2 50.36                             117     0.2 4  246 197 
 CHI  HZ I         0 2 54.27        23.8 0.55                           246 197 
 VIL  SZ EP   2    0 2 26.30                             112    -0.3 4  301 193 
 VIL  SN ES   2    0 3  0.32                             112     0.1 4  301 193 
 VIL  SZ I         0 3  6.41        22.1 0.46                           301 193 
 RREF HZ EP   2    0 2 29.88                             111     0.1 3  323 230 
 RREF HN ES   2    0 3  5.38                             111    -0.5 3  323 230 
 RREF HZ I         0 3 15.87        33.5 0.30                           323 230 
 PRA  HZ EP   2    0 2 36.62                             107    -0.3 3  391 210 
 PRA  HN ES   2    0 3 18.59                             107     0.0 3  391 210 
                                                                                
