 2017  813 0332 23.6 L   6.729 -73.159141.3  RSN  6 0.3 1.3LRSN                1
 GAP=205        0.58       3.2     3.7  4.1  0.6033E+01  0.7315E-01  0.6769E+00E
 Epicentro: VILLANUEVA - SANTANDER                                             3
 ACTION:UPD 17-09-04 20:19 OP:rebc STATUS:               ID:20170813033223 L   I
 OLDACT:UP  17-08-13 14:48 OP:dhb  STATUS:               ID:20170813032737d    3
 OLDACT:DUP 17-08-13 14:40 OP:dhb  STATUS:               ID:20170813032737d    3
 OLDACT:UP  17-08-13 14:39 OP:dhb  STATUS:               ID:20170813032736     3
 OLDACT:REG 17-08-13 11:33 OP:dhb  STATUS:               ID:20170813032736     3
 2017-08-13-0328-00M.COL___410                                                 6
 STAT SP IPHASW D HRMM SECON CODA AMPLIT PERI AZIMU VELO AIN AR TRES W  DIS CAZ7
 BAR2 EZ IP     C  332 42.20                             174   -0.3210 15.3 190 
 BAR2 EZ ES        332 57.21                             174   -0.0910 15.3 190 
 BAR2 EZ I         332 58.51         3.2 0.22            162           15.3 190 
 BRR  HZ EP        332 44.38                             151   -0.0210 74.0 304 
 BRR  HN ES        333  0.85                             151    0.2110 74.0 304 
 BRR  HZ I         333  4.19         2.2 0.14            145           74.0 304 
 RUS  HZ EP        332 46.18                             145   -0.1410 92.9 175 
 RUS  HN ES        333  4.37                             145    0.3010 92.9 175 
 RUS  HZ I         333  5.68         3.7 0.28            133           92.9 175 
 SPBC HZ EP   1    332 50.80                             129   -0.26 7  156 220 
 SPBC HN ES        333 12.43                             129   -0.07 9  156 220 
 SPBC HZ I         333 13.95         2.6 0.07            122            156 220 
 YPLC HZ EP        332 52.63                             127    0.19 9  171 150 
 YPLC HZ I         333 21.56         3.1 0.36            113            171 150 
 ZAR  HZ EP   2 D  332 56.71                             121    0.81 4  206 294 
 ZAR  HN ES        333 21.03                             121   -0.09 8  206 294 
 ZAR  HZ I         333 23.13         1.6 0.10            113            206 294 
                                                                                
