 2017  513 0844 25.9 L   6.775 -73.160144.6  RSN  5 0.2 0.8LRSN                1
 GAP=136        0.55       3.4     2.9  5.8 -0.3434E+00  0.2752E+01  0.4092E+01E
 Epicentro: LOS SANTOS - SANTANDER                                             3
 ACTION:UPD 17-06-16 13:35 OP:jn   STATUS:               ID:20170513084425 L   I
 OLDACT:UP  17-05-13 15:02 OP:lv   STATUS:               ID:20170513083742d    3
 OLDACT:DUP 17-05-13 14:27 OP:lv   STATUS:               ID:20170513083742d    3
 2017-05-13-0838-00M.COL___315                                                 6
 STAT SP IPHASW D HRMM SECON CODA AMPLIT PERI AZIMU VELO AIN AR TRES W  DIS CAZ7
 BRR  HZ EP   1    844 46.56                             152   -0.40 7 71.2 301 
 BRR  HN ES   1    845  3.68                             152    0.32 7 71.2 301 
 PAM  EZ EP        844 48.24                             150    0.0210 80.6  39 
 PAM  EE ES        845  5.52                             150   -0.0910 80.6  39 
 RUS  HZ EP        844 49.49                             144    0.1110 97.9 175 
 RUS  HN ES   1    845  7.72                             144    0.05 7 97.9 175 
 RUS  HZ I         845  9.23         1.1 0.07            144           97.9 175 
 PTB  HZ EP   1    844 52.84                             132    0.22 7  146 260 
 PTB  HN ES   1    845 12.97                             132   -0.47 7  146 260 
 ZAR  HZ EP   4    845  0.99                             122    2.72 0  204 293 
 ZAR  HE ES   1    845 23.73                             122    0.24 6  204 293 
                                                                                
