 2015  913 0222 38.0 L   6.853 -73.154146.2  RSN  7 0.3 2.0LRSN                1
 GAP=143        0.79       3.9     3.6  5.2 -0.3467E+01  0.6680E+01 -0.3843E+01E
 Epicentro: LOS SANTOS - SANTANDER                                             3
 ACTION:UPD 15-10-28 16:25 OP:cam  STATUS:               ID:20150913022238 L   I
 OLDACT:REG 15-09-13 12:24 OP:drio STATUS:               ID:20150913021749     3
 2015-09-13-0217-49M.COL___323                                                 6
 STAT SP IPHASW D HRMM SECON CODA AMPLIT PERI AZIMU VELO AIN AR TRES W  DIS CAZ7
 BAR2 EZ EP        222 57.72                             168   -0.1210 29.0 186 
 BAR2 EZ ES        223 12.97                             168   -0.3310 29.0 186 
 BAR2 EZ I         223 13.74        23.9 0.22            171           29.0 186 
 BRR  HZ EP        222 59.35                             154    0.3110 67.8 295 
 BRR  HN ES        223 15.56                             154    0.1310 67.8 295 
 BRR  HZ I         223 19.66        14.8 0.14            151           67.8 295 
 PAM  EZ EP        223  0.39                             152    0.3210 73.6  43 
 PAM  EE ES        223 17.38                             152    0.1110 73.6  43 
 PAM  EZ I         223 19.21        45.5 0.46            154           73.6  43 
 PTB  HZ EP        223  4.47                             132   -0.59 9  148 257 
 PTB  HE ES        223 26.01                             132   -0.14 9  148 257 
 PTB  HZ I         223 27.49         9.6 0.14            133            148 257 
 ZAR  HZ EP        223 10.55                             123    0.35 9  201 291 
 ZAR  HN ES        223 35.50                             123    0.21 9  201 291 
 ZAR  HZ I         223 42.03         8.8 0.12            124            201 291 
 SML  HZ EP        223 13.62                             118   -0.45 8  238 335 
 SML  HE ES        223 41.96                             118   -0.22 8  238 335 
 SML  HZ I         223 44.22        10.0 0.10            119            238 335 
 GUY2CHZ EP   4    223 24.41                             112    2.45 0  304 234 
 GUY2CHN ES        223 56.68                             112    0.46 7  304 234 
 GUY2CHZ I         224  6.46         3.1 0.36                           304 234 
 SJC  HZ EP   4    223 31.64                             106   -1.33 0  404 327 
 SJC  HN ES   4    224 12.57                             106   -3.26 0  404 327 
                                                                                
