 2010 1113 0335 26.1 L   6.824 -73.116140.0  RSN  7 0.5 2.0LRSN                1
 GAP=162        1.06       4.5     7.9  8.7 -0.1297E+02 -0.6212E+01  0.9815E+01E
 Epicentro: LOS SANTOS - SANTANDER                                             3
 ACTION:UP  10-12-17 16:52 OP:REBC STATUS:               ID:20101113033526 L   I
 2010-11-13-0333-04S.COL___129                                                 6
 STAT SP IPHASW D HRMM SECON CODA AMPLIT PERI AZIMU VELO SNR AR TRES W  DIS CAZ7
 BAR2 SZ EP        335 45.11                             169     0.010   27 196 
 BAR2 SZ ES   2    335 59.42                             169    -0.5 5   27 196 
 BAR2 SZ I         336  0.64        34.4 0.26                            27 196 
 BRR  HZ EP        335 46.83                             151     0.110   73 296 
 BRR  HZ I         335 47.16        53.5 0.06                            73 296 
 BRR  HN ES        336  3.19                             151     0.410   73 296 
 RUS  HZ EP        335 49.36                             142    -0.110  103 178 
 RUS  HN ES   2    336  7.49                             142    -0.2 5  103 178 
 RUS  HZ I         336 10.05         8.0 0.72                           103 178 
 GRA  SZ EP        335 50.81                             137     0.310  122  16 
 GRA  SZ ES        336  9.84                             137     0.310  122  16 
 GRA  SZ I         336 12.30        25.9 0.60                           122  16 
 OCA  SZ EP        335 53.57                             129    -0.2 9  158 352 
 OCA  SZ ES        336 14.66                             129    -0.6 9  158 352 
 OCA  SZ I         336 18.35        19.0 0.10                           158 352 
 NOR  SZ EP   1    336  1.33                             117    -0.6 6  239 235 
 NOR  SN ES   2    336 28.96                             117    -1.0 4  239 235 
 NOR  SZ I         336 33.23         1.4 1.23                           239 235 
 RREF HZ EP   1    336 12.37                             110    -0.1 5  326 229 
 RREF HN ES   2    336 50.41                             110     1.8 3  326 229 
 RREF HZ I         336 53.22         3.5 0.47                           326 229 
                                                                                
