 2013  113 0856 36.3 L   6.782 -73.012177.7  RSN  4 0.2 1.3LRSN                1
 GAP=250        0.43       5.2     4.8  5.5  0.1539E+02 -0.4959E+01 -0.6096E+01E
 Epicentro: CEPITA - SANTANDER                                                 3
 ACTION:UP  13-02-15 09:13 OP:ep   STATUS:               ID:20130113085636 L   I
 2013-01-13-0850-00M.COL___241                                                 6
 STAT SP IPHASW D HRMM SECON CODA AMPLIT PERI AZIMU VELO AIN AR TRES W  DIS CAZ7
 BRR  HZ EP   1    857  1.42                             153   -0.32 8 85.3 295 
 BRR  HN ES   1    857 21.73                             153    0.18 8 85.3 295 
 BRR  HN I         857 21.98         3.7 0.18            162           85.3 295 
 RUS  HZ EP   1    857  3.47                             150    0.24 8 98.6 185 
 RUS  HN ES   1    857 24.06                             150   -0.13 8 98.6 185 
 RUS  HN I         857 25.35         0.8 0.28            137           98.6 185 
 PTB  HZ EP        857  7.32                             136    0.0610  162 261 
 PTB  HN ES        857 31.33                             136   -0.0410  162 261 
 ZAR  HE ES   1    857 40.63                             127    0.01 7  219 291 
 ZAR  HE I         857 42.97         4.5 0.14            127            219 291 
                                                                                
