 2013  113 0240 51.4 L   6.771 -73.201146.0  RSN  8 0.5 2.3LRSN                1
 GAP=177        1.05       4.0     5.2  8.6  0.4741E+01  0.5608E+01  0.8522E+01E
 Epicentro: VILLANUEVA - SANTANDER                                             3
 ACTION:UPD 13-02-15 09:13 OP:ep   STATUS:               ID:20130113024051 L   I
 2013-01-13-0240-00M.COL___241                                                 6
 STAT SP IPHASW D HRMM SECON CODA AMPLIT PERI AZIMU VELO AIN AR TRES W  DIS CAZ7
 BAR2 SZ EP        241 10.75                             172   -0.2410 19.9 174 
 BRR  HZ EP     C  241 12.42                             154    0.0510 67.6 303 
 BRR  HN ES        241 29.34                             154    0.6110 67.6 303 
 BRR  HN I         241 29.66        46.5 0.28            150           67.6 303 
 RUS  HZ EP        241 14.67                             145   -0.3210 98.0 172 
 RUS  HN ES        241 33.11                             145   -0.2810 98.0 172 
 RUS  HN I         241 34.76        20.8 0.34            145           98.0 172 
 PTB  HZ EP        241 17.24                             134   -0.55 9  141 260 
 PTB  HN ES        241 38.49                             134    0.11 9  141 260 
 PTB  HN I         241 43.64        30.7 0.62            131            141 260 
 OCA  HN ES        241 42.26                             130    0.01 9  163 355 
 OCA  HN I         241 45.89        33.1 0.16            130            163 355 
 ZAR  HN ES        241 48.44                             123    0.06 9  200 294 
 ZAR  HN I         241 53.48        17.7 0.32            122            200 294 
 CHI  HZ EP        241 29.09                             118    0.48 8  244 194 
 CHI  HN ES        241 58.38                             118    0.75 8  244 194 
 CHI  HN I         242  0.92         8.3 0.32            118            244 194 
 HEL  HZ EP   1    241 31.58                             116    0.70 6  265 256 
 HEL  HE ES        242  0.84                             116   -0.84 8  265 256 
 HEL  HE I         242 10.47         7.1 0.40            115            265 256 
                                                                                
