 2015  813 0558 35.9 L   6.775 -73.177147.5  RSN  4 0.3 1.4LRSN                1
 GAP=240        0.67       4.2     5.5  5.8  0.5829E+01  0.5765E+01  0.2124E+01E
 Epicentro: LOS SANTOS - SANTANDER                                             3
 ACTION:UPD 15-09-15 23:01 OP:cam  STATUS:               ID:20150813055835 L   I
 OLDACT:DUP 15-08-13 17:20 OP:mh   STATUS:               ID:20150813054750d    3
 OLDACT:DUP 15-08-13 17:16 OP:mh   STATUS:               ID:20150813054749d    3
 2015-08-13-0547-48M.COL___337                                                 6
 STAT SP IPHASW D HRMM SECON CODA AMPLIT PERI AZIMU VELO AIN AR TRES W  DIS CAZ7
 BAR2 EZ EP        558 55.54                             172   -0.1310 20.2 182 
 BAR2 EZ ES   1    559 10.69                             172   -0.41 7 20.2 182 
 BAR2 EZ I         559 11.92         3.8 0.15            169           20.2 182 
 BRR  HZ EP        558 57.59                             153    0.4510 69.6 302 
 BRR  HN ES        559 13.91                             153    0.2010 69.6 302 
 BRR  HZ I         559 28.65         4.6 0.48            147           69.6 302 
 SPBC HZ EP        559  4.01                             130   -0.10 9  159 219 
 SPBC HN ES        559 26.28                             130    0.15 9  159 219 
 SPBC HZ I         559 28.88         4.7 0.26            135            159 219 
 ZAR  HZ EP        559  8.07                             123   -0.16 9  202 293 
 ZAR  HN ES        559 33.16                             123   -0.30 9  202 293 
 ZAR  HZ I         559 42.49         2.3 0.28            124            202 293 
                                                                                
