 2016 1013 0854 30.0 L   6.757 -73.143130.9  RSN  8 0.4 1.4LRSN                1
 GAP=139        0.89       3.4     4.0  5.6 -0.1299E+01  0.8694E+01  0.1605E+01E
 Epicentro: LOS SANTOS - SANTANDER                                             3
 ACTION:UPD 16-11-09 19:19 OP:rebc STATUS:               ID:20161013085430 L   I
 OLDACT:REG 16-10-13 12:57 OP:y    STATUS:               ID:20161013084740     3
 2016-10-13-0848-00M.COL___354                                                 6
 STAT SP IPHASW D HRMM SECON CODA AMPLIT PERI AZIMU VELO AIN AR TRES W  DIS CAZ7
 BAR2 EZ EP        854 47.57                             171   -0.1810 18.7 193 
 BAR2 EZ ES        855  1.23                             171   -0.3610 18.7 193 
 BAR2 EZ I         855  2.82         8.3 0.27            170           18.7 193 
 BRR  HZ EP        854 49.35                             149   -0.3810 73.8 302 
 BRR  HN ES        855  5.71                             149    0.6010 73.8 302 
 PAM  EZ EP        854 50.56                             147   -0.3310 81.0  37 
 PAM  EE ES        855  7.37                             147    0.1810 81.0  37 
 PAM  EZ I         855  9.44         7.1 0.50            151           81.0  37 
 RUS  HZ EP        854 52.30                             142    0.3410 95.8 176 
 RUS  HN ES        855  9.27                             142    0.1910 95.8 176 
 RUS  HZ I         855 11.56         3.4 0.34            144           95.8 176 
 PTB  HZ EP   4    854 54.69                             129   -1.06 0  147 261 
 PTB  HN ES   4    855 14.77                             129   -1.05 0  147 261 
 PTB  HZ I         855 18.36         2.9 0.19            129            147 261 
 SPBC HZ EP        854 56.91                             126   -0.15 9  160 220 
 SPBC HN ES        855 18.03                             126   -0.13 9  160 220 
 SPBC HZ I         855 23.57         4.1 0.09            127            160 220 
 ZAR  HZ EP        855  1.76                             119    0.01 8  206 293 
 ZAR  HN ES        855 26.41                             119   -0.10 8  206 293 
 ZAR  HZ I         855 32.12         2.3 0.12            120            206 293 
 GUY2CHZ EP        855 13.56                             110    0.88 7  299 236 
 GUY2CHE ES        855 45.57                             110   -0.40 7  299 236 
 GUY2CHZ I         855 54.74         1.0 0.58                           299 236 
                                                                                
