 2014  513 0758 58.1 L   6.814 -73.157148.8  RSN  7 0.4 1.4LRSN                1
 GAP=134        0.97       3.1     4.4  7.5 -0.5149E+00  0.7642E+01 -0.4915E+00E
 Epicentro: LOS SANTOS - SANTANDER                                             3
 ACTION:UPD 15-03-16 16:57 OP:nd   STATUS:               ID:20140513075858 L   I
 OLDACT:REG 14-05-13 14:19 OP:spq  STATUS:               ID:20140513075809     3
 2014-05-13-0758-09M.COL___248                                                 6
 STAT SP IPHASW D HRMM SECON CODA AMPLIT PERI AZIMU VELO AIN AR TRES W  DIS CAZ7
 PAM  SZ EP        759 21.18                             151    0.5410 77.0  41 
 PAM  SZ I         759 21.39         4.7 0.20            155           77.0  41 
 PAM  SN ES        759 38.03                             151   -0.1710 77.0  41 
 RUS  HZ EP        759 22.13                             144   -0.1610  102 175 
 RUS  HN ES        759 41.15                             144    0.0110  102 175 
 RUS  HZ I         759 43.51         2.7 0.52            143            102 175 
 PTB  HZ EP        759 25.60                             133    0.34 9  147 258 
 PTB  HN ES        759 46.28                             133   -0.14 9  147 258 
 PTB  HZ I         759 48.35         4.1 0.36            133            147 258 
 SPBC HZ EP        759 27.18                             130    0.28 9  164 218 
 SPBC HN ES        759 49.79                             130    0.45 9  164 218 
 SPBC HZ I         759 56.03         3.9 0.10            129            164 218 
 ZAR  HN ES        759 55.91                             123   -0.00 9  202 292 
 SML  HZ EP        759 34.13                             118   -0.59 8  242 335 
 SML  HN ES        8 0  3.07                             118   -0.18 8  242 335 
 CHI  HZ EP        759 36.34                             118    0.22 8  250 195 
 CHI  HN ES        8 0  4.70                             118   -1.05 8  250 195 
 CHI  HZ I         8 0 12.28         1.1 0.36            118            250 195 
                                                                                
