 2011  713 0901 30.0 L   6.838 -73.303124.2  RSN  4 0.2 1.2LRSN                1
 GAP=149        0.41       4.6     4.7  4.7 -0.4807E+01 -0.9520E+01  0.5614E+01E
 Epicentro: ZAPATOCA - SANTANDER                                               3
 ACTION:UPD 12-07-25 14:00 OP:epov STATUS:               ID:20110713090130 L   I
 2011-07-13-0900-00M.COL___133                                                 6
 STAT SP IPHASW D HRMM SECON CODA AMPLIT PERI AZIMU VELO AIN AR TRES W  DIS CAZ7
 GIR2 SZ EP   1    9 1 47.39                             166    0.36 7 29.2  24 
 GIR2 SZ ES   1    9 2  0.27                             166   -0.06 7 29.2  24 
 BAR2 SZ EP        9 1 47.13                             165   -0.0710 30.3 154 
 BAR2 SZ I         9 1 47.36         3.7 0.14                          30.3 154 
 BRR  HZ EP        9 1 47.83                             155   -0.0110 54.1 303 
 BRR  HZ I         9 1 51.41         6.8 0.34                          54.1 303 
 BRR  HN ES        9 2  1.76                             155   -0.0110 54.1 303 
 GRA  SZ EP   1    9 1 53.41                             131   -0.18 7  128  25 
 GRA  SZ ES   2    9 2 12.10                             131    0.08 5  128  25 
 GRA  SZ I         9 2 14.26         1.6 0.24                           128  25 
                                                                                
