 2015  213 0623 14.0 L   6.658 -73.332137.0  RSN  4 0.4 1.1LRSN                1
 GAP=154        0.94       6.1     7.5  8.2 -0.6413E+01  0.1713E+02  0.1088E+02E
 Epicentro: GALAN - SANTANDER                                                  3
 ACTION:UPD 15-04-30 21:25 OP:nd   STATUS:               ID:20150213062314 L   I
 OLDACT:REG 15-02-13 12:46 OP:fm   STATUS:               ID:20150213061748     3
 2015-02-13-0617-48M.COL___290                                                 6
 STAT SP IPHASW D HRMM SECON CODA AMPLIT PERI AZIMU VELO AIN AR TRES W  DIS CAZ7
 BAR2 EZ ES        623 46.72                             172   -0.2210 18.0 114 
 BAR2 EZ I         623 47.69         4.0 0.36            171           18.0 114 
 BRR  HZ EP        623 33.62                             153   -0.2810 65.0 320 
 BRR  HN ES        623 49.87                             153    0.4810 65.0 320 
 BRR  HZ I         623 53.45         2.4 0.28            153           65.0 320 
 PTB  HZ EP        623 38.64                             135    0.3710  125 264 
 PTB  HN ES        623 56.61                             135   -0.5510  125 264 
 PTB  HZ I         624  2.93         1.4 0.18            134            125 264 
 SPBC HZ EP        623 39.42                             132   -0.11 9  138 216 
 SPBC HN ES        623 59.74                             132    0.33 9  138 216 
 SPBC HZ I         624  8.99         2.1 0.26            131            138 216 
                                                                                
