 2011  513 0539  6.8 L   6.788 -73.122140.3  RSN 10 0.3 1.8LRSN                1
 GAP=140        0.69       3.2     5.9  4.6 -0.4208E+01 -0.1159E+01 -0.1390E+01E
 Epicentro: LOS SANTOS - SANTANDER                                             3
 ACTION:UP  11-06-29 08:52 OP:tino STATUS:               ID:20110513053906 L   I
 2011-05-13-0536-14S.COL___140                                                 6
 STAT SP IPHASW D HRMM SECON CODA AMPLIT PERI AZIMU VELO SNR AR TRES W  DIS CAZ7
 BTL  SZ IP        539 25.84                             171     0.110   22 312 
 BTL  SZ ES   1    539 40.64                             171     0.1 7   22 312 
 BAR2 SZ EP        539 25.62                             170    -0.210   23 197 
 BAR2 SZ ES   1    539 40.15                             170    -0.4 7   23 197 
 BAR2 SZ I         539 42.02         7.4 0.02                            23 197 
 GIR2 SZ EP   2    539 25.68                             166    -0.2 5   33 346 
 GIR2 SZ ES   2    539 40.49                             166    -0.3 5   33 346 
 BRR  HZ EP        539 27.56                             150     0.010   74 298 
 BRR  HN ES   1    539 44.25                             150     0.5 7   74 298 
 BRR  HZ I         539 45.69        10.0 0.16                            74 298 
 PAM  SZ IP        539 28.63                             150     0.210   77  37 
 PAM  SN ES   1    539 45.31                             150     0.0 7   77  37 
 RUS  HZ EP   1    539 29.93                             143     0.0 7   99 178 
 RUS  HN ES   1    539 48.00                             143     0.1 7   99 178 
 RUS  HZ I         539 49.47         8.9 0.22                            99 178 
 BRI  SZ EP   2    539 30.39                             140     0.2 5  109  19 
 GRA  SZ EP        539 31.78                             136     0.210  126  16 
 GRA  SZ ES   1    539 50.87                             136    -0.1 7  126  16 
 GRA  SZ I         539 52.45         8.8 0.20                           126  16 
 OCA  SZ EP        539 34.89                             128     0.0 9  162 352 
 OCA  SZ ES   2    539 55.37                             128    -1.4 5  162 352 
 OCA  SZ I         540  0.53         6.9 0.51                           162 352 
 PRA  HZ EP   1    539 59.76                             105    -0.4 4  392 210 
 PRA  HZ I         540  1.66         6.9 0.17                           392 210 
                                                                                
