 2016  713 0140 47.5 L   6.792 -73.084153.6  RSN 23 0.5 2.2LRSN                1
 GAP=104        0.98       2.9     3.3  4.2 -0.3973E+01  0.2792E+01 -0.1012E+01E
 Epicentro: LOS SANTOS - SANTANDER                                             3
 ACTION:UPD 17-03-29 16:50 OP:lp   STATUS:               ID:20160713014047 L   I
 OLDACT:UP  16-07-13 13:59 OP:dani STATUS:               ID:20160713013759     3
 OLDACT:UP  16-07-13 13:59 OP:dani STATUS:               ID:20160713013759     3
 OLDACT:UP  16-07-13 13:57 OP:dani STATUS:               ID:20160713013759     3
 OLDACT:REG 16-07-13 12:17 OP:dani STATUS:               ID:20160713013759     3
 2016-07-13-0137-59S.COL___331                                                 6
 STAT SP IPHASW D HRMM SECON CODA AMPLIT PERI AZIMU VELO AIN AR TRES W  DIS CAZ7
 BAR2 EZ EP     C  141  8.18                             171    0.0610 24.6 206 
 BAR2 EZ ES        141 24.10                             171   -0.0810 24.6 206 
 BAR2 EZ I         141 24.83        25.7 0.34            165           24.6 206 
 PAM  EZ EP        141 11.12                             153    0.7410 74.0  35 
 PAM  EN ES        141 28.39                             153    0.1810 74.0  35 
 PAM  EZ I         141 30.39        16.2 0.22            156           74.0  35 
 BRR  HZ EP        141 10.06                             152    0.1810 77.7 297 
 BRR  HE ES        141 27.57                             152    0.2510 77.7 297 
 BRR  HZ I         141 31.84        23.3 0.14            147           77.7 297 
 RUS  HZ EP        141 12.03                             146    0.0610 99.4 180 
 RUS  HE ES        141 30.90                             146   -0.1410 99.4 180 
 RUS  HZ I         141 31.99        11.9 0.38            143           99.4 180 
 PTB  HZ EP        141 14.92                             132   -0.80 9  154 260 
 PTB  HN ES   4    141 36.11                             132   -1.61 0  154 260 
 PTB  HZ I         141 42.17        21.7 0.54            128            154 260 
 SPBC HZ EP        141 17.11                             130    0.14 9  167 221 
 SPBC HE ES        141 39.74                             130   -0.20 9  167 221 
 SPBC HZ I         141 46.30        46.5 0.36            126            167 221 
 ZAR  HZ EP        141 20.83                             123   -0.34 8  211 292 
 ZAR  HN ES   4    141 45.78                             123   -1.63 0  211 292 
 ZAR  HZ I         141 52.75        24.1 0.46            120            211 292 
 NOR  HZ EP        141 24.20                             120   -0.05 8  240 236 
 NOR  HE ES        141 52.45                             120   -0.45 8  240 236 
 NOR  HZ I         141 55.88        15.8 0.18            117            240 236 
 CHI  HZ EP        141 25.92                             119    0.15 8  250 197 
 CHI  HE ES        141 55.16                             119   -0.44 8  250 197 
 CHI  HZ I         142  1.42         8.4 0.36            116            250 197 
 ROSC BZ EP   9    141 28.12                             118    1.74 0  256 212 
 ROSC BE ES        141 58.61                             117    0.18 8  256 212 
 ROSC BZ I         142  6.03        22.0 0.45            115            256 212 
 HEL  HZ EP        141 29.84                             116    0.99 7  278 256 
 HEL  HN ES        142  1.11                             116    0.03 7  278 256 
 HEL  HZ I         142  5.55         7.0 0.42            113            278 256 
 URE  HZ EP        141 28.95                             114   -0.77 7  291 292 
 SOCV BZ EP        141 30.64                             114    0.28 7  296  56 
 SOCV BE ES        142  2.96                             114   -0.81 7  296  56 
 PTGC HZ EP        141 30.97                             113   -0.40 7  305 160 
 PTGC HN ES   4    142  4.67                             113   -0.90 0  305 160 
 PTGC HZ I         142  7.04         8.1 0.49            112            305 160 
 GUY2CHZ EP        141 33.01                             113    0.94 7  306 236 
 GUY2CHN ES   4    142 10.78                             113    3.96 0  306 236 
 GUY2CHZ I         142 14.97        14.1 0.80                           306 236 
 LL6C HZ EP        141 33.32                             112   -0.39 7  326 356 
 LL6C HE ES        142  9.96                             112    0.23 7  326 356 
 ELA  HZ EP   4    141 37.41                             111    2.17 0  334 230 
 ELA  HN ES   4    142 16.14                             111    3.68 0  334 230 
 ELA  HZ I         142 20.18         6.2 0.40            109            334 230 
 CBOC HZ EP        141 35.66                             111    0.18 7  340 253 
 CBOC HE ES        142 12.15                             111   -0.74 7  340 253 
 CBOC HZ I         142 26.26         2.3 0.50            109            340 253 
 ANIL HE ES        142 18.37                             110    0.79 6  362 225 
 PRA  HZ EP        141 41.78                             108    0.16 6  395 211 
 PRA  HE ES   4    142 23.23                             108   -0.60 0  395 211 
 PRA  HZ I         142 29.52        10.1 0.62            106            395 211 
 PAL  HZ EP        141 43.81                             107    0.23 6  411 240 
 PAL  HZ I         142 38.62         2.8 0.62            105            411 240 
 SJC  HZ EP   4    141 42.26                             107   -1.62 0  414 326 
 SJC  HE ES   4    142 23.83                             107   -4.01 0  414 326 
 SJC  HZ I         142 28.98         3.0 0.48            105            414 326 
 CRJC HZ EP   4    141 48.97                             104   -1.34 0  468   3 
 SMAR HZ EP        141 53.61                             103   -0.30 4  500 346 
                                                                                
