 2017  113 0734 54.3 L   7.195 -74.118  4.0  RSN  5 0.4 1.1LRSN                1
 GAP=152        1.02       3.6     2.0  6.6  0.1027E+01  0.3626E+00  0.8486E+01E
 Epicentro: PUERTO WILCHES - SANTANDER                                         3
 ACTION:UPD 17-05-22 15:58 OP:jn   STATUS:               ID:20170113073454 L   I
 OLDACT:DUP 17-01-13 17:55 OP:e    STATUS:               ID:20170113072745d    3
 2017-01-13-0728-00M.COL___326                                                 6
 STAT SP IPHASW D HRMM SECON CODA AMPLIT PERI AZIMU VELO AIN AR TRES W  DIS CAZ7
 BRR  HZ EP        735  1.26                              47   -0.5910 45.9 102 
 BRR  HN ES        735  7.19                              47   -0.5510 45.9 102 
 BRR  HZ I         735  8.23         9.0 0.16             47           45.9 102 
 PTB  HN ES        735 17.42                              47    0.0610 81.5 207 
 PTB  HZ I         735 17.83         3.7 0.16             47           81.5 207 
 ZAR  HZ EP        735  8.24                              47    0.0110 88.0 292 
 ZAR  HN ES        735 18.95                              47   -0.1610 88.0 292 
 ZAR  HZ I         735 19.68         6.4 0.11             47           88.0 292 
 PAM  EZ EP        735 19.71                              47    0.45 9  158  84 
 PAM  EN ES        735 39.20                              47    0.47 9  158  84 
 PAM  EZ I         735 41.43         2.3 0.22             47            158  84 
 RUS  HZ EP        735 23.74                              37    0.60 9  184 141 
 RUS  HN ES        735 45.61                              37   -0.03 9  184 141 
 RUS  HZ I         735 47.65         3.4 0.34             37            184 141 
                                                                                
