 2014  513 0413 41.3 L   6.814 -73.119150.0  RSN 17 0.5 2.3LRSN                1
 GAP= 72        1.08       2.6     3.8  6.7 -0.1542E+01  0.9052E+01  0.1770E+01E
 Epicentro: LOS SANTOS - SANTANDER                                             3
 ACTION:UPD 15-03-16 16:57 OP:nd   STATUS:               ID:20140513041341 L   I
 OLDACT:UP  14-05-13 21:18 OP:cam  STATUS:               ID:20140513040809     3
 OLDACT:REG 14-05-13 13:54 OP:spq  STATUS:               ID:20140513040809     3
 2014-05-13-0408-09M.COL___248                                                 6
 STAT SP IPHASW D HRMM SECON CODA AMPLIT PERI AZIMU VELO AIN AR TRES W  DIS CAZ7
 PAM  SZ EP        414  4.08                             152    0.2410 74.3  39 
 PAM  SN ES        414 21.56                             152    0.1810 74.3  39 
 PAM  SZ I         414 23.49        19.8 0.50            158           74.3  39 
 RUS  HZ EP        414  5.20                             144   -0.4210  102 178 
 RUS  HE ES        414 24.27                             144   -0.2810  102 178 
 PTB  HZ EP        414  8.26                             132   -0.69 9  151 258 
 PTB  HN ES        414 29.68                             132   -0.80 9  151 258 
 PTB  HZ I         414 35.26        27.0 0.36            133            151 258 
 TAM  HN ES   1    414 31.35                             132    0.53 7  153 106 
 OCA  HZ EP        414 10.16                             131    0.28 9  159 352 
 OCA  HN ES        414 32.55                             131    0.41 9  159 352 
 OCA  HZ I         414 37.19        18.7 0.40            134            159 352 
 SPBC HZ EP        414 10.31                             129   -0.15 9  166 219 
 SPBC HE ES        414 33.28                             129    0.11 9  166 219 
 SPBC HZ I         414 39.40        41.2 0.30            131            166 219 
 ZAR  HZ EP        414 13.92                             123   -0.37 8  206 291 
 ZAR  HN ES        414 40.37                             123    0.38 8  206 291 
 ZAR  HZ I         414 45.80        23.7 0.44            124            206 291 
 NOR  HZ EP   1    414 17.42                             119   -0.26 6  238 235 
 NOR  HE ES        414 45.93                             119   -0.08 8  238 235 
 NOR  HZ I         414 49.01        15.6 0.18            121            238 235 
 SML  HZ EP   1    414 17.83                             118   -0.37 6  244 335 
 SML  HN ES        414 46.41                             118   -0.53 8  244 335 
 SML  HZ I         414 51.09        22.4 0.10            121            244 335 
 CHI  HZ EP        414 19.44                             118   -0.09 8  251 196 
 CHI  HE ES        414 48.83                             118   -0.48 8  251 196 
 ROSC BZ EP   4    414 21.29                             117    1.28 0  256 211 
 ROSC BE ES        414 51.36                             117    1.19 8  256 211 
 ROSC BZ I         414 59.19        15.3 0.45            120            256 211 
 HEL  HZ EP   1    414 22.78                             115    0.65 6  275 256 
 HEL  HN ES   4    414 56.25                             115    2.30 0  275 256 
 HEL  HZ I         415  0.07         8.5 0.30            117            275 256 
 URE  HZ EP   4    414 21.31                             114   -1.56 0  286 291 
 URE  HE ES   4    414 53.42                             114   -1.83 0  286 291 
 URE  HZ I         415  2.11        11.4 0.30            116            286 291 
 RREF HZ EP   4    414 29.52                             111    1.47 0  325 230 
 RREF HN ES   4    415  6.79                             111    2.32 0  325 230 
 RREF HZ I         415  9.88         9.4 0.28            113            325 230 
 CBOC HZ EP        414 29.12                             110    0.31 7  337 252 
 CBOC HN ES        415  7.12                             110    1.28 7  337 252 
 PRA  HZ EP        414 35.66                             107    0.32 6  395 210 
 PRA  HE ES        415 17.47                             107    0.01 6  395 210 
 PRA  HZ I         415 21.97         7.4 0.54            109            395 210 
 ORTC HZ EP        414 35.39                             107   -0.37 6  398 216 
 ORTC HN ES        415 18.50                             107    0.29 6  398 216 
 ORTC HZ I         415 22.90         5.3 0.36            109            398 216 
                                                                                
