 2017  113 0516  5.0 L   6.804 -73.151141.4  RSN 21 0.5 2.2LRSN                1
 GAP= 65        0.79       2.6     2.5  4.2 -0.2913E+00  0.4228E+01  0.1170E+01E
 Epicentro: LOS SANTOS - SANTANDER                                             3
 ACTION:UPD 17-05-22 15:58 OP:jn   STATUS:               ID:20170113051605 L   I
 OLDACT:UP  17-01-13 15:49 OP:and  STATUS:               ID:20170113050744d    3
 OLDACT:UP  17-01-13 15:47 OP:and  STATUS:               ID:20170113050744d    3
 OLDACT:UP  17-01-13 15:46 OP:and  STATUS:               ID:20170113050744d    3
 OLDACT:UP  17-01-13 15:46 OP:and  STATUS:               ID:20170113050744d    3
 OLDACT:UP  17-01-13 15:45 OP:and  STATUS:               ID:20170113050744d    3
 OLDACT:UP  17-01-13 15:44 OP:and  STATUS:               ID:20170113050744d    3
 OLDACT:UP  17-01-13 15:42 OP:and  STATUS:               ID:20170113050744d    3
 OLDACT:DUP 17-01-13 15:40 OP:and  STATUS:               ID:20170113050744d    3
 2017-01-13-0508-00M.COL___338                                                 6
 STAT SP IPHASW D HRMM SECON CODA AMPLIT PERI AZIMU VELO AIN AR TRES W  DIS CAZ7
 BAR2 EZ EP        516 23.92                             170   -0.1610 23.7 188 
 BAR2 EZ ES        516 38.71                             170   -0.2710 23.7 188 
 BAR2 EZ I         516 41.85        70.1 0.32            170           23.7 188 
 BRR  HZ EP        516 25.76                             152    0.1610 70.5 298 
 BRR  HN ES   3    516 42.88                             152    1.19 2 70.5 298 
 BRR  HZ I         516 46.86        38.7 0.26            149           70.5 298 
 PAM  EZ EP        516 26.81                             150    0.0910 77.4  40 
 PAM  EN ES        516 43.84                             150    0.1610 77.4  40 
 PAM  EZ I         516 47.30        20.1 0.44            148           77.4  40 
 RUS  HZ EP        516 28.23                             142   -0.1010  101 176 
 RUS  HN ES        516 46.39                             142   -0.1610  101 176 
 RUS  HZ I         516 48.16        21.1 0.24            142            101 176 
 PTB  HZ EP        516 30.82                             131   -0.72 9  147 259 
 PTB  HE ES   3    516 51.38                             131   -0.88 2  147 259 
 PTB  HZ I         516 54.43        20.3 0.14            129            147 259 
 TAM  HZ IP     D  516 32.46                             129    0.09 9  156 105 
 TAM  HZ I         516 53.56         9.7 0.32            128            156 105 
 TAM  HN ES        516 53.98                             129    0.25 9  156 105 
 ZAR  HZ EP        516 37.15                             121    0.09 9  203 292 
 ZAR  HN ES        517  2.34                             121    0.25 9  203 292 
 ZAR  HZ I         517  7.28        24.2 0.26            119            203 292 
 NOR  HZ EP        516 39.97                             117   -0.46 8  234 234 
 NOR  HN ES        517  7.68                             117   -0.40 8  234 234 
 NOR  HZ I         517 15.95        11.2 0.18            116            234 234 
 CHI  HZ EP        516 42.33                             116   -0.13 8  249 195 
 CHI  HN ES        517 11.62                             116   -0.08 8  249 195 
 CHI  HZ I         517 15.23         9.2 0.38            115            249 195 
 ROSC BZ EP        516 43.55                             115    0.69 8  253 211 
 ROSC BN ES   3    517 14.18                             115    1.76 2  253 211 
 ROSC BZ I         517 18.79        27.8 0.45            114            253 211 
 URE  HZ EP   3    516 44.19                             112   -1.56 2  283 292 
 URE  HN ES   4    517 14.67                             112   -2.89 0  283 292 
 URE  HZ I         517 25.44         9.1 0.18            111            283 292 
 GUY2CHZ EP        516 49.09                             111    0.74 7  301 235 
 GUY2CHN ES   4    517 25.07                             111    2.88 0  301 235 
 GUY2CHZ I         517 30.44        10.6 0.64                           301 235 
 PTGC HZ EP   3    516 47.22                             110   -1.49 2  309 159 
 PTGC HN ES   4    517 20.50                             110   -2.32 0  309 159 
 PTGC HZ I         517 22.52         5.6 0.58            109            309 159 
 LL6C HZ EP   9    516 30.77                             109   -19.7 0  324 358 
 LL6C HN ES        517  5.87                                   -0.36 7  324 358 
 ELA  HZ EP   9    516 53.80                             109    2.18 0  329 229 
 ELA  HN ES        517 29.96                             109   -0.23 7  329 229 
 ELA  HZ I         517 43.34         8.5 0.46            108            329 229 
 CBOC HZ EP        516 51.80                             109    0.14 7  333 252 
 CBOC HN ES        517 28.95                             109    0.88 7  333 252 
 CBOC HZ I         517 36.95         2.7 0.46            107            333 252 
 ARGC HZ EP        516 53.69                             107   -0.70 6  359 340 
 ARGC HN ES   3    517 34.19                             107    1.26 2  359 340 
 ORTC HZ EP        516 58.96                             105    0.21 6  395 216 
 ORTC HN ES   4    517 43.15                             105    2.46 0  395 216 
 ORTC HZ I         517 45.50         5.2 0.24            104            395 216 
 PAL  HZ EP        516 59.91                             105   -0.05 6  405 239 
 PAL  HN ES   4    517 44.75                             105    1.91 0  405 239 
 PAL  HZ I         517 46.03         3.2 0.24            104            405 239 
 SJC  HZ EP   9    516 58.20                             105   -2.11 0  409 327 
 SJC  HN ES        517 41.08                             105   -0.28 6  409 327 
 SJC  HZ I         517 54.09         3.3 0.15            103            409 327 
 URI  HZ EP   9    517 14.43                             100   -3.41 0  556  13 
 URI  HN ES        518 11.69                             100    0.42 3  556  13 
                                                                                
