 2016  413 0406 12.5 L   5.901 -73.764113.8  RSN  5 0.4 1.4LRSN                1
 GAP=141        1.02       5.8     3.7  8.2 -0.6684E+01  0.4325E+01 -0.5430E+01E
 Epicentro: JESUS MARIA - SANTANDER                                            3
 ACTION:UPD 16-05-05 14:20 OP:rebc STATUS:               ID:20160413040612 L   I
 OLDACT:UP  16-04-13 16:26 OP:mh   STATUS:               ID:20160413035749d    3
 OLDACT:UP  16-04-13 16:26 OP:mh   STATUS:               ID:20160413035749d    3
 OLDACT:DUP 16-04-13 16:24 OP:mh   STATUS:               ID:20160413035749d    3
 OLDACT:REG 16-04-13 13:15 OP:mh   STATUS:               ID:20160413035747     3
 2016-04-13-0357-47M.COL___309                                                 6
 STAT SP IPHASW D HRMM SECON CODA AMPLIT PERI AZIMU VELO AIN AR TRES W  DIS CAZ7
 SPBC HZ EP        4 6 28.63                             157   -0.1910 43.8 231 
 SPBC HN ES        4 6 41.42                             157   -0.1410 43.8 231 
 SPBC HZ I         4 6 42.80        11.0 0.58            156           43.8 231 
 RUS  HZ EP        4 6 30.99                             144   -0.2810 75.4  91 
 RUS  HE ES        4 6 45.72                             144   -0.2210 75.4  91 
 BAR2 EZ EP        4 6 33.21                             136    0.3710 99.9  40 
 BAR2 EZ ES        4 6 49.28                             136    0.5510 99.9  40 
 PTB  HZ EP        4 6 32.58                             134   -0.3310  104 313 
 PTB  HN ES        4 6 48.39                             134   -0.4510  104 313 
 PTB  HZ I         4 6 50.70         3.4 0.27            135            104 313 
 NOR  HZ EP        4 6 35.12                             128   -0.0210  128 253 
 NOR  HN ES        4 6 53.58                             128    0.7610  128 253 
 NOR  HZ I         4 6 56.79         4.2 0.14            128            128 253 
                                                                                
