 2014 1213 0649  1.6 L   6.755 -73.182136.0  RSN  9 0.4 1.9LRSN                1
 GAP= 71        1.14       4.2     4.0  6.5 -0.8672E+00  0.2330E+01 -0.2110E+01E
 Epicentro: LOS SANTOS - SANTANDER                                             3
 ACTION:UPD 15-02-10 17:03 OP:nd   STATUS:               ID:20141213064901 L   I
 OLDACT:REG 14-12-13 14:28 OP:stll STATUS:               ID:20141213064744     3
 2014-12-13-0647-44M.COL___294                                                 6
 STAT SP IPHASW D HRMM SECON CODA AMPLIT PERI AZIMU VELO AIN AR TRES W  DIS CAZ7
 BAR2 EZ EP        649 20.16                             172    0.2310 18.0 180 
 BAR2 EZ ES        649 34.41                             172    0.1610 18.0 180 
 BAR2 EZ I         649 35.92        20.3 0.34            177           18.0 180 
 BRR  HZ EP        649 21.90                             151    0.2710 70.3 304 
 BRR  HN ES        649 38.02                             151    0.7510 70.3 304 
 BRR  HZ I         649 41.27        16.3 0.12            145           70.3 304 
 PAM  SZ EP        649 23.00                             147   -0.1810 83.8  39 
 PAM  SN ES        649 39.44                             147   -0.5910 83.8  39 
 PAM  SZ I         649 41.90         9.9 0.50            141           83.8  39 
 RUS  HZ EP        649 24.26                             143    0.2210 96.0 173 
 RUS  HZ I         649 25.25         8.3 0.12            144           96.0 173 
 RUS  HN ES        649 41.76                             143    0.2010 96.0 173 
 PTB  HZ EP        649 26.89                             131   -0.43 9  143 260 
 PTB  HZ I         649 27.83         9.6 0.14            127            143 260 
 PTB  HN ES        649 46.47                             131   -0.92 9  143 260 
 SPBC HZ EP        649 28.95                             128    0.22 9  157 219 
 SPBC HE ES        649 49.58                             128   -0.32 9  157 219 
 SPBC HZ I         649 57.91        10.8 0.10            126            157 219 
 TAM  HZ EP        649 28.54                             128   -0.22 9  158 103 
 OCA  HZ EP        649 29.46                             126   -0.13 9  165 355 
 OCA  HZ I         649 53.06        11.6 0.22            121            165 355 
 ZAR  HZ EP        649 34.05                             120    0.83 9  202 294 
 ZAR  HN ES        649 57.76                             120   -0.14 9  202 294 
 ZAR  HZ I         650  3.59         9.5 0.34            116            202 294 
                                                                                
