 2017  113 0906 10.7 L   6.770 -73.163141.1  RSN  6 0.3 1.2LRSN                1
 GAP=136        0.71       3.5     3.1  4.8  0.1092E+01  0.3862E+01 -0.7602E+00E
 Epicentro: LOS SANTOS - SANTANDER                                             3
 ACTION:UPD 17-05-22 15:59 OP:jn   STATUS:               ID:20170113090610 L   I
 OLDACT:REG 17-01-13 13:03 OP:and  STATUS:               ID:20170113085740     3
 2017-01-13-0858-00M.COL___326                                                 6
 STAT SP IPHASW D HRMM SECON CODA AMPLIT PERI AZIMU VELO AIN AR TRES W  DIS CAZ7
 BAR2 EZ EP        9 6 29.95                             172    0.2310 19.8 186 
 BAR2 EZ ES        9 6 44.89                             172    0.3510 19.8 186 
 BAR2 EZ I         9 6 47.48         5.4 0.20            171           19.8 186 
 BRR  HZ EP        9 6 31.64                             152    0.2810 71.2 302 
 BRR  HN ES        9 6 47.60                             152    0.1410 71.2 302 
 PAM  EZ EP        9 6 32.78                             149    0.1110 81.1  39 
 PAM  EN ES        9 6 49.29                             149   -0.5010 81.1  39 
 PAM  EZ I         9 6 51.28         2.0 0.66            152           81.1  39 
 RUS  HZ EP        9 6 33.85                             144    0.0710 97.5 175 
 RUS  HN ES        9 6 51.59                             144   -0.1810 97.5 175 
 RUS  HZ I         9 6 53.64         2.6 0.34            146           97.5 175 
 PTB  HZ EP        9 6 36.73                             131   -0.34 9  145 260 
 PTB  HN ES        9 6 57.32                             131   -0.32 9  145 260 
 PTB  HZ I         9 7  2.17         1.8 0.10            132            145 260 
 ZAR  HZ EP        9 6 42.80                             121   -0.00 9  204 293 
 ZAR  HN ES        9 7  7.94                             121    0.11 9  204 293 
 ZAR  HZ I         9 7 11.32         1.2 0.22            123            204 293 
                                                                                
