 2014  813 0606 10.9 L   6.825 -73.111142.0  RSN 14 0.4 2.1LRSN                1
 GAP=204        0.92       2.7     4.1  5.1  0.7350E+00  0.6420E+01 -0.1633E+00E
 Epicentro: LOS SANTOS - SANTANDER                                             3
 ACTION:UPD 14-09-15 21:49 OP:nd   STATUS:               ID:20140813060000 L   I
 OLDACT:UP  14-08-13 14:56 OP:cam  STATUS:               ID:20140813060000 L   3
 OLDACT:UP  14-08-13 14:55 OP:cam  STATUS:               ID:20140813060000 L   3
 OLDACT:UPD 14-08-13 14:37 OP:CF   STATUS:               ID:20140813060000 L   3
 2014-08-13-0600-00M.COL___285                                                 6
 STAT SP IPHASW D HRMM SECON CODA AMPLIT PERI AZIMU VELO AIN AR TRES W  DIS CAZ7
 BAR2 SZ IP     C  6 6 30.39                             169    0.2810 26.9 197 
 BAR2 SZ ES        6 6 45.25                             169    0.1210 26.9 197 
 BAR2 SZ I         6 6 47.41        13.0 0.22            165           26.9 197 
 BRR  HZ IP     D  6 6 32.24                             151    0.5110 73.4 295 
 BRR  HN ES   4    6 6 49.65                             151    1.65 0 73.4 295 
 BRR  HZ I         6 6 54.13        16.6 0.22            149           73.4 295 
 RUS  HZ EP        6 6 34.05                             142   -0.3710  103 178 
 RUS  HN ES        6 6 52.92                             142    0.1110  103 178 
 RUS  HZ I         6 6 53.96        10.0 0.32            144            103 178 
 PTB  HZ EP        6 6 37.01                             130   -0.91 9  152 258 
 PTB  HN ES        6 6 58.82                             130   -0.21 9  152 258 
 PTB  HZ I         6 7  0.77        25.7 0.12            130            152 258 
 SPBC HZ EP        6 6 39.44                             127   -0.07 9  168 219 
 SPBC HN ES        6 7  2.19                             127    0.34 9  168 219 
 SPBC HZ I         6 7  8.97        16.9 0.18            128            168 219 
 ZAR  HZ EP        6 6 43.17                             121   -0.16 8  207 291 
 ZAR  HN ES        6 7  8.78                             121    0.13 8  207 291 
 ZAR  HZ I         6 7 14.37        17.0 0.28            122            207 291 
 SML  HZ EP        6 6 46.92                             117   -0.26 8  243 334 
 SML  HN ES        6 7 15.16                             117   -0.36 8  243 334 
 SML  HZ I         6 7 17.61        15.6 0.30            119            243 334 
 CHI  HZ EP        6 6 48.59                             116   -0.16 8  252 196 
 CHI  HN ES        6 7 17.85                             116   -0.45 8  252 196 
 CHI  HZ I         6 7 25.28         3.8 0.24            118            252 196 
 HEL  HZ EP        6 6 52.07                             114    0.70 7  276 255 
 HEL  HN ES        6 7 23.22                             114    0.25 7  276 255 
 HEL  HZ I         6 7 30.28         8.4 0.38            115            276 255 
 URE  HZ EP   4    6 6 51.25                             113   -0.78 0  286 291 
 GUY2CHZ EP        6 6 55.47                             111    0.64 7  306 235 
 GUY2CHE ES        6 7 29.11                             111   -0.02 7  306 235 
 GUY2CHZ I         6 7 37.07         8.5 0.58                           306 235 
 RREF HZ EP        6 6 57.65                             110    0.28 7  326 229 
 RREF HN ES        6 7 32.72                             110   -0.94 7  326 229 
 RREF HZ I         6 7 40.49         8.5 0.36            111            326 229 
 CBOC HZ EP        6 6 58.33                             109    0.19 7  338 252 
 TOL  SZ EP        6 6 59.95                             108    0.45 6  348 225 
 TOL  SZ ES        6 7 37.95                             108    0.51 6  348 225 
 TOL  SZ I         6 7 42.21        15.4 0.54            110            348 225 
 PRA  HZ EP        6 7  4.71                             106   -0.04 6  396 210 
 PRA  HE ES        6 7 46.34                             106   -0.45 6  396 210 
 PRA  HZ I         6 7 54.88         4.5 0.46            107            396 210 
 ORTC HZ EP   4    6 7  5.21                             106    0.04 0  400 216 
                                                                                
