 2014  713 0033 43.6 L   6.758 -73.160145.9  RSN  6 0.4 1.6LRSN                1
 GAP=233        1.12       6.0     6.6  7.6  0.1589E+02  0.8989E+01 -0.1163E+01E
 Epicentro: LOS SANTOS - SANTANDER                                             3
 ACTION:UPD 15-03-16 20:43 OP:nd   STATUS:               ID:20140713003343 L   I
 OLDACT:DUP 14-07-13 15:01 OP:stll STATUS:               ID:20140713002819d    3
 2014-07-13-0028-18M.COL___262                                                 6
 STAT SP IPHASW D HRMM SECON CODA AMPLIT PERI AZIMU VELO AIN AR TRES W  DIS CAZ7
 BAR2 SZ IP     D  034  3.35                             173    0.2010 18.5 188 
 BAR2 SZ I         034  3.67        11.0 0.10            172           18.5 188 
 BAR2 SZ ES        034 18.05                             173   -0.3510 18.5 188 
 BRR  HZ EP        034  5.15                             152    0.3410 72.2 302 
 BRR  HN ES        034 21.90                             152    0.5410 72.2 302 
 BRR  HZ I         034 26.76         6.1 0.32            150           72.2 302 
 RUS  HZ EP        034  7.00                             145   -0.0410 96.1 175 
 RUS  HN ES        034 24.95                             145   -0.3710 96.1 175 
 RUS  HZ I         034 26.93         3.2 0.26            149           96.1 175 
 PTB  HZ EP        034  9.96                             132   -0.39 9  145 261 
 PTB  HN ES        034 30.78                             132   -0.44 9  145 261 
 PTB  HZ I         034 37.09         4.7 0.30            132            145 261 
 SPBC HZ EP        034 12.39                             130    0.72 9  159 220 
 SPBC HZ I         034 12.54         6.3 0.56            131            159 220 
 SPBC HN ES        034 33.90                             130    0.34 9  159 220 
 ZAR  HZ EP        034 15.25                             122   -0.83 9  204 294 
 ZAR  HE ES        034 41.58                             122    0.16 9  204 294 
 ZAR  HZ I         034 48.26         4.4 0.30            123            204 294 
                                                                                
