 2015  813 1238 28.0 L   6.809 -73.167143.4  RSN 20 0.5 2.6LRSN                1
 GAP=133        0.91       2.2     3.4  4.4 -0.1408E+01  0.5791E+01  0.7420E+00E
 Epicentro: LOS SANTOS - SANTANDER                                             3
 ACTION:UPD 15-09-15 23:02 OP:cam  STATUS:               ID:20150813123828 L   I
 OLDACT:REG 15-08-13 22:20 OP:ar   STATUS:               ID:20150813123749     3
 2015-08-13-1237-49M.COL___343                                                 6
 STAT SP IPHASW D HRMM SECON CODA AMPLIT PERI AZIMU VELO AIN AR TRES W  DIS CAZ7
 BAR2 EZ IP     C 1238 47.12                             170   -0.2110 24.0 184 
 BAR2 EZ ES       1239  2.23                             170   -0.2010 24.0 184 
 BAR2 EZ I        1239  3.47        78.0 0.16            167           24.0 184 
 BRR  HZ EP     C 1238 48.82                             153    0.1010 68.7 299 
 BRR  HN ES       1239  5.27                             153    0.3610 68.7 299 
 BRR  HZ I        1239  9.77        62.1 0.28            145           68.7 299 
 PAM  EZ EP       1238 50.14                             150    0.1610 78.1  41 
 PAM  EN ES       1239  7.11                             150   -0.0410 78.1  41 
 PAM  EZ I        1239  9.07        56.6 0.50            153           78.1  41 
 RUS  HZ EP       1238 51.32                             143   -0.2510  102 175 
 RUS  HN ES       1239 10.23                             143    0.2410  102 175 
 RUS  HZ I        1239 10.90        44.4 0.36            150            102 175 
 OCA  HZ EP       1238 55.70                             129   -0.28 9  159 354 
 OCA  HN ES       1239 18.00                             129    0.17 9  159 354 
 OCA  HZ I        1239 23.61        59.0 0.32            129            159 354 
 SPBC HZ EP       1238 56.09                             129   -0.13 9  163 218 
 SPBC HE ES       1239 18.21                             129   -0.05 9  163 218 
 SPBC HZ I        1239 25.00        76.1 0.22            130            163 218 
 ZAR  HZ EP       1238 59.63                             122   -0.37 9  202 292 
 ZAR  HN ES       1239 24.05                             122   -0.94 9  202 292 
 ZAR  HZ I        1239 35.24        36.5 0.50            121            202 292 
 NOR  HZ EP       1239  3.17                             118   -0.25 8  233 234 
 NOR  HN ES       1239 31.34                             118    0.26 8  233 234 
 NOR  HZ I        1239 38.82        37.0 0.18            119            233 234 
 SML  HZ EP       1239  4.21                             117   -0.05 8  242 336 
 SML  HN ES       1239 33.06                             117    0.49 8  242 336 
 SML  HZ I        1239 35.30        61.1 0.10            117            242 336 
 CHI  HZ I        1239  5.83        19.4 0.20            120            249 195 
 CHI  HN ES   2   1239 35.23                             117    0.32 4  249 195 
 ROSC BZ EP       1239  6.30                             116    0.38 8  252 210 
 ROSC BN ES   4   1239 36.74                             116    1.21 0  252 210 
 HEL  HZ EP       1239  8.72                             114    0.88 8  270 255 
 HEL  HN ES       1239 38.96                             114    0.02 8  270 255 
 HEL  HZ I        1239 46.49        21.2 0.42            115            270 255 
 URE  HN ES   4   1239 38.19                             113   -2.18 0  281 292 
 URE  HZ I        1239 50.22        27.2 0.12            113            281 292 
 GUY2CHZ EP       1239 11.69                             112    0.37 7  300 234 
 GUY2CHN ES       1239 44.44                             112   -0.69 7  300 234 
 GUY2CHZ I        1239 57.19        19.1 0.46                           300 234 
 VIL  SZ EP   1   1239 10.65                             111   -0.69 5  304 191 
 VIL  SN ES   1   1239 44.30                             111   -0.87 5  304 191 
 VIL  SZ I        1239 48.03        15.7 0.26            115            304 191 
 DBB  SZ EP       1239 14.80                             109   -0.28 7  337 274 
 DBB  SZ ES   4   1239 50.10                             109   -1.72 0  337 274 
 DBB  SZ I        1239 54.66        47.8 0.74            110            337 274 
 TOL  SZ EP       1239 17.02                             109    0.99 7  343 224 
 TOL  SN ES       1239 54.25                             109    0.74 7  343 224 
 TOL  SZ I        1240  0.15        19.3 0.80            111            343 224 
 MON  HZ EP   9   1239 13.45                             108   -3.15 0  351 308 
 MON  HN ES   2   1239 52.57                                    1.19 3  351 308 
 MON  HZ I        1240  8.16         9.5 0.40            109            351 308 
 ORTC HZ EP   2   1239 21.05                             106   -0.69 3  395 216 
 ORTC HN ES   2   1240  4.57                             106    0.88 3  395 216 
 ORTC HZ I        1240 10.99         9.7 0.22            108            395 216 
 PAL  HZ EP   2   1239 22.24                             105   -0.64 3  404 239 
 PAL  HN ES   2   1240  5.49                             105   -0.22 3  404 239 
 PAL  HZ I        1240 10.80         7.7 0.38            107            404 239 
                                                                                
