 2012  713 1516 53.7 L   6.705 -73.200142.4  RSN  4 0.4 1.5LRSN                1
 GAP=223        0.87       8.3     8.0  8.9  0.3042E+02  0.5055E+01 -0.3341E+01E
 Epicentro: VILLANUEVA - SANTANDER                                             3
 ACTION:UPD 12-08-14 11:44 OP:ep   STATUS:               ID:20120713151653 L   I
 2012-07-13-1510-00M.COL___197                                                 6
 STAT SP IPHASW D HRMM SECON CODA AMPLIT PERI AZIMU VELO AIN AR TRES W  DIS CAZ7
 BAR2 SZ EP       1517 12.61                             175    -0.110   13 171 
 BAR2 SZ ES   1   1517 26.96                             175    -0.7 7   13 171 
 BAR2 SZ I        1517 30.94         6.2 0.29            175             13 171 
 BRR  HZ EP       1517 14.66                             152     0.110   72 308 
 BRR  HE ES   1   1517 31.29                             152     0.5 7   72 308 
 BRR  HZ I        1517 35.98        14.6 0.46            150             72 308 
 RUS  HZ EP   1   1517 16.52                             146     0.1 7   91 172 
 RUS  HE ES   1   1517 34.62                             146     0.5 7   91 172 
 PTB  HZ EP   1   1517 19.46                             133    -0.2 7  140 263 
 PTB  HE ES   1   1517 39.80                             133    -0.2 7  140 263 
 PTB  HZ I        1517 44.87         2.0 0.12            134            140 263 
