 2016  813 1044 19.4 L   6.545 -73.186144.5  RSN  4 0.2 1.0LRSN                1
 GAP=167        0.44       6.7     5.3  4.8  0.5833E+01  0.1508E+02  0.1055E+02E
 Epicentro: PINCHOTE - SANTANDER                                               3
 ACTION:UPD 16-10-29 15:35 OP:rebc STATUS:               ID:20160813104419 L   I
 OLDACT:REG 16-08-13 20:06 OP:lv   STATUS:               ID:20160813103759     3
 2016-08-13-1037-59S.COL___346                                                 6
 STAT SP IPHASW D HRMM SECON CODA AMPLIT PERI AZIMU VELO AIN AR TRES W  DIS CAZ7
 BAR2 EZ EP       1044 38.51                             178   -0.1110 5.28   4 
 BAR2 EZ ES       1044 53.78                             178    0.1510 5.28   4 
 BAR2 EZ I        1044 55.20         3.3 0.14                          5.28   4 
 RUS  HZ EP   2   1044 40.80                             152   -0.39 5 73.0 171 
 RUS  HN ES   2   1044 58.15                             152   -0.07 5 73.0 171 
 RUS  HZ I        1045  2.65         1.6 0.24                          73.0 171 
 PTB  HZ EP       1044 45.58                             133    0.01 9  140 270 
 PTB  HN ES   2   1045  5.73                             133   -0.29 5  140 270 
 PTB  HZ I        1045 11.88         1.1 0.15                           140 270 
 ELA  HZ EP       1045  4.01                             112    0.27 7  308 233 
                                                                                
