 2016  713 1002 24.7 L   6.775 -73.070140.5  RSN  4 0.3 1.2LRSN                1
 GAP=280        0.59       5.0     5.8  7.3  0.4824E+01  0.2213E+02 -0.3015E+01E
 Epicentro: LOS SANTOS - SANTANDER                                             3
 ACTION:UPD 17-03-29 16:50 OP:lp   STATUS:               ID:20160713100224 L   I
 OLDACT:DUP 16-07-13 21:18 OP:lv   STATUS:               ID:20160713095760d    3
 2016-07-13-0957-59S.COL___322                                                 6
 STAT SP IPHASW D HRMM SECON CODA AMPLIT PERI AZIMU VELO AIN AR TRES W  DIS CAZ7
 BAR2 EZ EP   2   10 2 44.26                             170    0.58 5 23.7 212 
 BAR2 EZ ES       10 2 58.33                             170   -0.1710 23.7 212 
 BAR2 EZ I        10 3  0.24         5.8 0.15            170           23.7 212 
 PTB  HZ EP       10 2 51.60                             129   -0.34 9  155 260 
 PTB  HE ES       10 3 13.31                             129    0.11 9  155 260 
 PTB  HZ I        10 3 14.03         1.0 0.13            129            155 260 
 SPBC HZ EP   4   10 2 53.36                             127    0.27 0  166 222 
 SPBC HN ES       10 3 15.39                             127    0.13 9  166 222 
 SPBC HZ I        10 3 17.12         1.7 0.12            129            166 222 
 ZAR  HZ EP   4   10 2 57.55                             120   -0.15 0  213 292 
 ZAR  HE ES       10 3 23.62                             120    0.16 8  213 292 
 ZAR  HZ I        10 3 28.69         1.3 0.27            120            213 292 
                                                                                
