 2014  513 1229 10.5 L   6.841 -73.157144.0  RSN  5 0.4 1.9LRSN                1
 GAP=133        0.95       4.0     4.5  8.6  0.1418E+00  0.1393E+02 -0.8056E+01E
 Epicentro: LOS SANTOS - SANTANDER                                             3
 ACTION:UPD 15-03-16 16:57 OP:nd   STATUS:               ID:20140513122910 L   I
 OLDACT:REG 14-05-13 21:12 OP:carl STATUS:               ID:20140513122818     3
 2014-05-13-1228-18M.COL___251                                                 6
 STAT SP IPHASW D HRMM SECON CODA AMPLIT PERI AZIMU VELO AIN AR TRES W  DIS CAZ7
 PAM  SZ EP       1229 32.43                             151    0.0910 74.8  42 
 PAM  SN ES       1229 49.50                             151    0.1010 74.8  42 
 PAM  SZ I        1229 51.57        14.5 0.54            154           74.8  42 
 RUS  HZ EP       1229 34.24                             142   -0.1410  105 176 
 RUS  HN ES       1229 53.07                             142    0.0410  105 176 
 RUS  HZ I        1229 54.37         7.6 0.40            147            105 176 
 PTB  HZ EP       1229 36.70                             132   -0.56 9  147 257 
 PTB  HN ES       1229 58.10                             132   -0.06 9  147 257 
 PTB  HZ I        1230  0.37         9.8 0.40            133            147 257 
 ZAR  HZ EP       1229 42.89                             122    0.39 9  201 291 
 ZAR  HN ES       1230  7.99                             122    0.50 9  201 291 
 ZAR  HZ I        1230 13.71         8.0 0.38            124            201 291 
 SML  HZ EP       1229 46.99                             118    0.50 8  239 335 
 SML  HE ES       1230 13.74                             118   -0.85 8  239 335 
 SML  HZ I        1230 20.35         6.8 0.10            119            239 335 
                                                                                
