 2016  413 1233 44.6 L   6.810 -73.171144.0  RSN  6 0.3 1.8LRSN                1
 GAP=141        0.75       4.0     3.7  5.8 -0.5890E+01  0.8877E+01 -0.1440E+01E
 Epicentro: LOS SANTOS - SANTANDER                                             3
 ACTION:UPD 16-05-05 14:21 OP:rebc STATUS:               ID:20160413123344 L   I
 OLDACT:UP  16-04-13 23:24 OP:ar   STATUS:               ID:20160413122745     3
 OLDACT:REG 16-04-13 21:53 OP:ar   STATUS:               ID:20160413122745     3
 2016-04-13-1227-45M.COL___322                                                 6
 STAT SP IPHASW D HRMM SECON CODA AMPLIT PERI AZIMU VELO AIN AR TRES W  DIS CAZ7
 BAR2 EZ EP       1234  3.77                             170   -0.2210 24.1 183 
 BAR2 EZ ES       1234 19.42                             170    0.2710 24.1 183 
 BAR2 EZ I        1234 22.24        13.5 0.18            173           24.1 183 
 PAM  EZ EP       1234  6.58                             150   -0.0610 78.4  42 
 PAM  EE ES       1234 23.85                             150   -0.0210 78.4  42 
 PAM  EZ I        1234 25.86        13.4 0.52            152           78.4  42 
 PTB  HZ EP       1234 10.62                             132   -0.53 9  145 258 
 PTB  HN ES       1234 31.52                             132   -0.38 9  145 258 
 PTB  HZ I        1234 33.67         6.7 0.18            133            145 258 
 SPBC HZ EP       1234 12.96                             129    0.12 9  162 218 
 SPBC HN ES       1234 35.06                             129    0.17 9  162 218 
 ZAR  HZ EP       1234 17.16                             122    0.58 9  201 292 
 ZAR  HN ES       1234 41.70                             122    0.14 9  201 292 
 ZAR  HZ I        1234 48.87         6.7 0.20            123            201 292 
 GUY2CHZ EP   4   1234 35.16                             112    7.26 0  300 234 
 GUY2CHN ES       1235  1.82                             112    0.12 7  300 234 
                                                                                
