 2016  913 1836 56.0 L   6.241 -73.433142.6  RSN  8 0.5 1.7LRSN                1
 GAP= 99        1.05       4.9     6.3  8.1  0.2840E+01  0.1600E+02 -0.4626E+00E
 Epicentro: GUADALUPE - SANTANDER                                              3
 ACTION:UPD 17-08-17 21:09 OP:lp   STATUS:               ID:20160913183656 L   I
 OLDACT:REG 16-09-13 21:41 OP:dnl  STATUS:               ID:20160913182736     3
 2016-09-13-1828-00M.COL___318                                                 6
 STAT SP IPHASW D HRMM SECON CODA AMPLIT PERI AZIMU VELO AIN AR TRES W  DIS CAZ7
 BAR2 EZ EP   2   1837 14.89                             160   -1.09 5 47.7  36 
 BAR2 EZ ES   2   1837 31.21                             160   -0.36 5 47.7  36 
 BAR2 EZ I        1837 33.37        16.4 0.40            160           47.7  36 
 RUS  HZ EP   2   1837 16.88                             158    0.23 5 54.6 135 
 RUS  HE ES       1837 32.62                             158   -0.1510 54.6 135 
 RUS  HZ I        1837 35.37         3.7 0.28            159           54.6 135 
 SPBC HZ EP       1837 18.71                             144    0.1810 96.1 227 
 SPBC HE ES       1837 36.58                             144    0.4610 96.1 227 
 SPBC HZ I        1837 37.32        14.0 0.44            146           96.1 227 
 BRR  HZ EP   2   1837 19.55                             143    0.82 5  101 342 
 BRR  HN ES       1837 37.13                             143    0.6610  101 342 
 BRR  HZ I        1837 41.28        11.2 0.32            143            101 342 
 PTB  HZ EP       1837 19.76                             138   -0.3410  118 286 
 PTB  HN ES       1837 37.96                             138   -0.9410  118 286 
 PTB  HZ I        1837 38.88        14.9 0.28            139            118 286 
 CHI  HZ EP   2   1837 26.30                             125   -0.13 4  181 191 
 CHI  HN ES   2   1837 50.08                             125   -0.10 4  181 191 
 CHI  HZ I        1837 53.69         3.6 0.28            127            181 191 
 ZAR  HZ EP       1837 28.92                             121    0.12 8  210 311 
 ZAR  HN ES   4   1837 52.90                             121   -1.50 0  210 311 
 ZAR  HZ I        1837 59.39         5.8 0.10            122            210 311 
 GUY2CHZ EP   2   1837 33.20                             117    0.37 4  242 242 
 GUY2CHN ES   2   1838  1.98                             117    0.41 4  242 242 
 GUY2CHZ I        1838  8.87         1.7 0.48                           242 242 
                                                                                
