 2011 1113 1545 33.1 L   6.800 -73.099140.0  RSN  4 0.1 1.4LRSN                1
 GAP=143        0.39       2.8     3.9  5.1 -0.2895E+00 -0.1081E+01  0.2456E+01E
 Epicentro: LOS SANTOS - SANTANDER                                             3
 ACTION:UPD 12-07-13 16:10 OP:ep   STATUS:               ID:20111113154533 L   I
 2011-11-13-1544-19S.COL___179                                                 6
 STAT SP IPHASW D HRMM SECON CODA AMPLIT PERI AZIMU VELO AIN AR TRES W  DIS CAZ7
 BAR2 SZ EP   1   1545 51.90                             169   -0.20 7 24.8 202 
 BAR2 SZ I        1546  9.75         7.5 0.26                          24.8 202 
 PAM  SZ EP   1   1545 54.79                             151    0.25 7 74.1  36 
 PAM  SZ I        1545 55.20         4.5 0.15                          74.1  36 
 PAM  SN ES   1   1546 11.12                             151   -0.11 7 74.1  36 
 BRR  HZ EP   1   1545 53.81                             150   -0.12 7 75.8 297 
 BRR  HN ES   1   1546 10.26                             150    0.10 7 75.8 297 
 BRR  HZ I        1546 13.16         6.1 0.23                          75.8 297 
 RUS  HZ EP   1   1545 56.32                             143    0.02 7  100 179 
 RUS  HN ES   1   1546 14.43                             143    0.05 7  100 179 
 RUS  HZ I        1546 16.63         4.6 0.23                           100 179 
                                                                                
