 2012  413 1744  7.5 L   6.774 -73.174141.0  RSN  6 0.4 1.5LRSN                1
 GAP=134        0.84       6.1     5.9 11.3  0.4469E+01  0.2909E+02  0.2388E+01E
 Epicentro: LOS SANTOS - SANTANDER                                             3
 ACTION:UPD 12-07-05 11:53 OP:tino STATUS:               ID:20120413174407 L   I
 2012-04-13-1740-00M.COL___181                                                 6
 STAT SP IPHASW D HRMM SECON CODA AMPLIT PERI AZIMU VELO AIN AR TRES W  DIS CAZ7
 BAR2 SZ EP   1   1744 26.36                             171    -0.1 7   20 183 
 BAR2 SZ I        1744 26.76         9.7 0.38                            20 183 
 BAR2 SZ ES   2   1744 40.84                             171    -0.5 5   20 183 
 BRR  HZ EP   1   1744 28.35                             152     0.3 7   70 302 
 BRR  HZ I        1744 48.02        12.0 0.18                            70 302 
 PAM  SN ES   1   1744 46.51                             149    -0.1 7   82  40 
 RUS  HZ EP   1   1744 30.54                             144    -0.1 7   98 174 
 RUS  HZ I        1744 30.91         2.4 0.23                            98 174 
 RUS  HN ES   1   1744 49.11                             144     0.5 7   98 174 
 PTB  HZ EP   1   1744 33.31                             132    -0.4 7  144 260 
 PTB  HN ES   1   1744 53.81                             132    -0.4 7  144 260 
 PTB  HZ I        1745  0.35         4.5 0.33                           144 260 
 ZAR  HE ES   1   1745  5.00                             122     0.6 6  202 293 
                                                                                
