 2015  713 1403 48.8 L   7.187 -73.364 99.3  RSN  5 0.3 1.3LRSN                1
 GAP=101        0.83       3.5     6.4 12.2 -0.6038E+01  0.6397E+02 -0.1751E+02E
 Epicentro: LEBRIJA - SANTANDER                                                3
 ACTION:UPD 15-09-08 21:48 OP:cam  STATUS:               ID:20150713140349 L   I
 OLDACT:UP  15-07-28 21:39 OP:cam  STATUS:               ID:20150713140349 L   3
 OLDACT:UP  15-07-28 07:01 OP:AK   STATUS:               ID:20150713140349 L   3
 OLDACT:UP  15-07-14 01:06 OP:ak   STATUS:               ID:20150713135746     3
 OLDACT:REG 15-07-13 22:18 OP:ak   STATUS:               ID:20150713135746     3
 2015-07-13-1357-46M.COL___337                                                 6
 STAT SP IPHASW D HRMM SECON CODA AMPLIT PERI AZIMU VELO AIN AR TRES W  DIS CAZ7
 BAR2 EZ EP       14 4  5.11                             143   -0.2210 68.8 163 
 BAR2 EZ ES       14 4 18.03                             143   -0.1910 68.8 163 
 BAR2 EZ I        14 4 20.29         6.0 0.25            153           68.8 163 
 PAM  EZ EP   1   14 4  5.99                             141   -0.19 7 75.3  77 
 PAM  EE ES       14 4 20.12                             141    0.3810 75.3  77 
 PAM  EZ I        14 4 24.89         3.3 0.38            147           75.3  77 
 ZAR  HZ EP       14 4 15.37                             116    0.68 9  168 282 
 SML  HZ EP       14 4 17.48                             113   -0.16 9  195 336 
 SML  HN ES       14 4 39.77                             113   -0.37 9  195 336 
 SML  HZ I        14 4 44.60         5.1 0.09            117            195 336 
 GUY2CHZ EP   4   14 4 30.55                             104   -1.24 0  310 226 
 GUY2CHN ES       14 5  5.29                             104   -0.03 7  310 226 
 GUY2CHZ I        14 5 17.12         1.1 0.40                           310 226 
                                                                                
