 2017  813 1308 35.0 L   6.769 -73.167140.8  RSN  5 0.2 1.4LRSN                1
 GAP=241        0.57       3.9     4.0  5.6  0.5415E+01  0.1039E+02  0.3172E+01E
 Epicentro: LOS SANTOS - SANTANDER                                             3
 ACTION:UPD 17-09-04 20:19 OP:rebc STATUS:               ID:20170813130835 L   I
 OLDACT:REG 17-08-14 02:40 OP:osc  STATUS:               ID:20170813130744     3
 2017-08-13-1308-00M.COL___410                                                 6
 STAT SP IPHASW D HRMM SECON CODA AMPLIT PERI AZIMU VELO AIN AR TRES W  DIS CAZ7
 BAR2 EZ ES       13 9  8.75                             172   -0.0510 19.6 185 
 RUS  HZ EP       13 8 58.39                             144    0.3210 97.3 175 
 RUS  HN ES       13 9 16.00                             144   -0.0410 97.3 175 
 RUS  HZ I        13 9 17.38         2.5 0.32            143           97.3 175 
 SPBC HZ EP       13 9  2.34                             129   -0.42 9  159 219 
 SPBC HN ES       13 9 24.37                             129   -0.02 9  159 219 
 SPBC HZ I        13 9 25.79         4.5 0.10            129            159 219 
 ZAR  HN ES       13 9 32.10                             121    0.03 9  203 293 
 NOR  HN ES       13 9 37.55                             118    0.17 8  231 235 
                                                                                
