 2017  313 1822  4.0 L   6.815 -73.161142.6  RSN  6 0.4 1.4LRSN                1
 GAP=134        0.91       4.5     4.0  7.6 -0.2767E+01  0.1141E+02 -0.1275E+01E
 Epicentro: LOS SANTOS - SANTANDER                                             3
 ACTION:UPD 17-05-25 18:40 OP:jn   STATUS:               ID:20170313182204 L   I
 OLDACT:UP  17-03-14 00:35 OP:edw  STATUS:               ID:20170313180808     3
 OLDACT:REG 17-03-13 21:22 OP:dnl  STATUS:               ID:20170313180808     3
 2017-03-13-1818-00M.COL___409                                                 6
 STAT SP IPHASW D HRMM SECON CODA AMPLIT PERI AZIMU VELO AIN AR TRES W  DIS CAZ7
 BAR2 EZ EP       1822 23.40                             170    0.1110 24.7 186 
 BAR2 EZ ES       1822 38.03                             170   -0.3010 24.7 186 
 PAM  EZ EP       1822 26.23                             150    0.3510 77.2  41 
 PAM  EN ES       1822 42.73                             150   -0.2110 77.2  41 
 PAM  EZ I        1822 45.46         3.6 0.20            152           77.2  41 
 RUS  HZ EP       1822 27.67                             143    0.0910  102 175 
 RUS  HN ES       1822 46.27                             143    0.3010  102 175 
 RUS  HZ I        1822 48.90         3.8 0.28            146            102 175 
 PTB  HZ EP       1822 29.75                             131   -0.85 9  146 258 
 PTB  HN ES       1822 51.51                             131    0.17 9  146 258 
 ZAR  HZ EP   4   1822 33.88                             122   -2.15 0  202 292 
 ZAR  HN ES       1823  1.38                             122    0.38 9  202 292 
 ZAR  HZ I        1823  8.43         3.6 0.34            123            202 292 
 NOR  HN ES       1823  7.17                             118   -0.04 8  234 234 
                                                                                
