 2012 1213 1657 59.3 L   6.782 -73.137148.4  RSN  7 0.4 2.0LRSN                1
 GAP=138        0.84       5.6     4.8  7.1  0.1460E+01  0.1116E+02  0.1310E+00E
 Epicentro: LOS SANTOS - SANTANDER                                             3
 ACTION:UPD 13-01-04 14:27 OP:ep   STATUS:               ID:20121213165759 L   I
 2012-12-13-1650-00M.COL___242                                                 6
 STAT SP IPHASW D HRMM SECON CODA AMPLIT PERI AZIMU VELO AIN AR TRES W  DIS CAZ7
 BAR2 SZ EP   1   1658 19.24                             171   -0.01 7 21.5 193 
 BAR2 SZ ES   1   1658 34.78                             171    0.00 7 21.5 193 
 BAR2 SZ I        1658 36.12        33.6 0.42                          21.5 193 
 BRR  HZ EP   1   1658 21.12                             152    0.25 7 73.0 300 
 BRR  HN ES   1   1658 38.52                             152    0.85 7 73.0 300 
 BRR  HZ I        1658 43.45        20.8 0.17                          73.0 300 
 PAM  SZ EP   1   1658 22.15                             151    0.26 7 78.4  38 
 PAM  SN ES   1   1658 39.03                             151   -0.45 7 78.4  38 
 PAM  SZ I        1658 41.46        12.4 0.72                          78.4  38 
 RUS  HZ EP   1   1658 23.06                             145   -0.14 7 98.5 177 
 RUS  HN ES   1   1658 41.89                             145    0.08 7 98.5 177 
 RUS  HZ I        1658 43.00        10.4 0.28                          98.5 177 
 PTB  HZ EP   1   1658 26.02                             132   -0.55 7  148 260 
 PTB  HN ES   1   1658 47.15                             132   -0.66 7  148 260 
 PTB  HZ I        1658 50.92        15.1 0.17                           148 260 
 ZAR  HZ EP   1   1658 32.12                             123    0.00 6  206 293 
 ZAR  HE ES   1   1658 57.19                             123   -0.51 6  206 293 
 ZAR  HZ I        1659  3.39        16.0 0.27                           206 293 
 HEL  HZ EP   1   1658 40.47                             115    0.74 6  273 256 
 HEL  HN ES   2   1659 11.85                             115    0.61 4  273 256 
 HEL  HZ I        1659 18.00         7.0 0.30                           273 256 
                                                                                
