 2016  913 1148 45.7 L   6.494 -73.609108.0  RSN  5 0.3 1.3LRSN                1
 GAP=134        0.57       3.3     2.8  5.1  0.4094E+01  0.4294E+01  0.3833E+01E
 Epicentro: SANTA HELENA DEL OPON - SANTANDER                                  3
 ACTION:UPD 17-08-17 21:09 OP:lp   STATUS:               ID:20160913114845 L   I
 OLDACT:REG 16-09-13 21:03 OP:dnl  STATUS:               ID:20160913114737     3
 2016-09-13-1148-00M.COL___315                                                 6
 STAT SP IPHASW D HRMM SECON CODA AMPLIT PERI AZIMU VELO AIN AR TRES W  DIS CAZ7
 BAR2 EZ IP     D 1149  1.74                             154   -0.1310 48.4  77 
 BAR2 EZ ES       1149 14.25                             154   -0.2010 48.4  77 
 BAR2 EZ I        1149 15.61         9.9 0.50            156           48.4  77 
 BRR  HZ EP       1149  2.57                             145   -0.2110 68.7 350 
 BRR  HE ES       1149 16.36                             145    0.2810 68.7 350 
 BRR  HZ I        1149 17.24         4.2 0.40            146           68.7 350 
 RUS  HZ EP       1149  5.03                             138    0.0610 88.4 139 
 RUS  HE ES       1149 20.19                             138    0.2210 88.4 139 
 RUS  HZ I        1149 21.85         1.5 0.24            140           88.4 139 
 PTB  HZ EP       1149  4.60                             136   -0.1710 93.9 273 
 PTB  HE ES       1149 19.57                             136   -0.0510 93.9 273 
 PTB  HZ I        1149 20.90         7.4 0.18            136           93.9 273 
 ZAR  HZ EP   2   1149 13.74                             117    0.73 4  177 309 
 ZAR  HN ES   3   1149 35.06                             117    0.78 2  177 309 
 ZAR  HZ I        1149 37.95         4.3 0.46            117            177 309 
                                                                                
