 2011 1113 1505 33.4 L   6.719 -73.318122.0  RSN  5 0.2 1.7LRSN                1
 GAP=133        0.53       3.3     3.5  5.6  0.3038E+01  0.2527E+01 -0.4986E+00E
 Epicentro: GALAN - SANTANDER                                                  3
 ACTION:UPD 12-07-13 16:10 OP:ep   STATUS:               ID:20111113150533 L   I
 2011-11-13-1504-04S.COL___179                                                 6
 STAT SP IPHASW D HRMM SECON CODA AMPLIT PERI AZIMU VELO AIN AR TRES W  DIS CAZ7
 BAR2 SZ EP   1   15 5 50.15                             170    0.05 7 20.5 133 
 BAR2 SZ I        15 5 50.81        11.5 0.12                          20.5 133 
 BAR2 SZ ES   1   15 6  3.33                             170    0.19 7 20.5 133 
 BRR  HZ EP   1   15 5 51.18                             152   -0.22 7 61.1 315 
 BRR  HZ I        15 5 51.41        52.0 0.12                          61.1 315 
 BRR  HN ES   1   15 6  5.23                             152   -0.22 7 61.1 315 
 RUS  HZ EP   1   15 5 54.80                             140    0.36 7 95.0 164 
 RUS  HN ES   1   15 6 10.59                             140   -0.26 7 95.0 164 
 RUS  HZ I        15 6 13.63         3.4 0.29                          95.0 164 
 PAM  SZ EP   1   15 5 54.28                             139   -0.30 7 96.9  45 
 PAM  SN ES   1   15 6 11.33                             139    0.22 7 96.9  45 
 PAM  SZ I        15 6 13.05         3.5 0.23                          96.9  45 
 ZAR  HN ES   1   15 6 26.21                             118    0.24 7  190 297 
 ZAR  HZ I        15 6 29.36         8.3 0.30                           190 297 
                                                                                
