 2013  113 1031 40.2 L   6.796 -73.168143.6  RSN 16 0.5 3.1LRSN 3.4WRSN        1
 SPEC AVERAGE  MO 14.2 ST  5.2 OM  2.4 f0 2.47 R0.6534 AL 1.85 WI 26.8 MW  3.4 3
 SPEC SD       MO  0.2 ST  5.8 OM  0.6 f00.796 R0.1868 AL      WI      MW  0.1 3
 GAP= 70        1.22       3.2     3.2  5.7 -0.6203E+00  0.4410E+01  0.1077E+01E
 Epicentro: LOS SANTOS - SANTANDER                                             3
 SPEC TAM HH Z MO 14.1 ST  1.7 OM  1.6 f0 2.17 R0.6774 AL 1.10 WI 18.0 MW  3.3 3
 SPEC TAM HH Z T1032 8 K 0.000 GD  212 VP 7.60 DE 3.00 Q0230.0 QA 0.60 VS 4.20 3
 SPEC RUS HH N MO 13.9 ST0.553 OM  2.3 f0 1.70 R0.8647 AL 1.98 WI 16.8 MW  3.2 3
 SPEC RUS HH N T103221 K 0.000 GD  174 VS 4.20 DE 3.00 Q0230.0 QA 0.60 VS 4.20 3
 SPEC OCA HH Z MO 14.3 ST 17.6 OM  1.8 f0 4.08 R0.3603 AL 1.72 WI 22.2 MW  3.5 3
 SPEC OCA HH Z T1032 7 K 0.000 GD  214 VP 7.60 DE 3.00 Q0230.0 QA 0.60 VS 4.20 3
 SPEC PTB HH N MO 14.5 ST  9.4 OM  2.8 f0 2.83 R0.5194 AL 2.12 WI 25.9 MW  3.6 3
 SPEC PTB HH N T103227 K 0.000 GD  204 VS 4.20 DE 3.00 Q0230.0 QA 0.60 VS 4.20 3
 SPEC ANILHH E MO 14.5 ST  1.5 OM  2.5 f0 1.58 R0.9304 AL 1.75 WI 45.5 MW  3.6 3
 SPEC ANILHH E T1033 6 K 0.000 GD  382 VS 4.20 DE 3.00 Q0230.0 QA 0.60 VS 4.20 3
 SPEC HEL HH Z MO 14.1 ST  4.1 OM  1.5 f0 2.80 R0.5250 AL 1.96 WI 28.6 MW  3.4 3
 SPEC HEL HH Z T103220 K 0.000 GD  305 VP 7.60 DE 3.00 Q0230.0 QA 0.60 VS 4.20 3
 SPEC CHI HH N MO 14.0 ST  1.4 OM  2.2 f0 2.11 R0.6967 AL 2.32 WI 30.7 MW  3.3 3
 SPEC CHI HH N T103245 K 0.000 GD  286 VS 4.20 DE 3.00 Q0230.0 QA 0.60 VS 4.20 3
 ACTION:UPD 13-02-15 09:13 OP:ep   STATUS:               ID:20130113103140 L   I
 2013-01-13-1028-36M.COL___174                                                 6
 STAT SP IPHASW D HRMM SECON CODA AMPLIT PERI AZIMU VELO AIN AR TRES W  DIS CAZ7
 BAR2 SZ IP       1031 59.76                             171    0.2210 22.6 184 
 BAR2 SZ ES       1032 14.32                             171   -0.3210 22.6 184 
 BAR2 SZ I        1032 15.76       161.1 0.18            168           22.6 184 
 BRR  HZ IP     D 1032  1.69                             153    0.7010 69.2 300 
 BRR  HN ES       1032 17.98                             153    0.7610 69.2 300 
 BRR  HN I        1032 18.87       496.9 0.22            146           69.2 300 
 PAM  SZ IP       1032  2.64                             150    0.3510 79.3  41 
 PAM  SZ I        1032  3.06       335.8 0.22            148           79.3  41 
 PAM  SE ES       1032 19.63                             150    0.1010 79.3  41 
 RUS  HZ IP     D 1032  3.68                             143   -0.0310  100 175 
 RUS  HE ES       1032 21.80                             143   -0.2610  100 175 
 RUS  HN I        1032 23.88       115.3 0.38            139            100 175 
 PTB  HZ EP       1032  6.52                             132   -0.23 9  145 259 
 PTB  HE ES       1032 27.17                             132   -0.30 9  145 259 
 PTB  HN I        1032 30.00       241.4 0.36            125            145 259 
 TAM  HZ EP       1032  8.17                             130    0.26 9  157 105 
 TAM  HE ES       1032 29.12                             130   -0.41 9  157 105 
 TAM  HN I        1032 30.20       190.5 0.66            127            157 105 
 OCA  HZ EP       1032  8.25                             129   -0.09 9  160 354 
 OCA  HE ES       1032 29.79                             129   -0.51 9  160 354 
 ZAR  HZ EP       1032 12.74                             122    0.47 9  202 293 
 ZAR  HN ES       1032 37.95                             122    0.65 9  202 293 
 CHI  HZ EP       1032 18.23                             117    0.57 8  248 195 
 CHI  HN ES       1032 45.89                             117   -0.99 8  248 195 
 CHI  HE I        1032 54.24        33.5 0.34            112            248 195 
 ROSC BE ES       1032 47.97                             116    0.45 8  251 211 
 ROSC BZ I        1032 57.87        34.0 0.40            112            251 211 
 HEL  HZ EP       1032 20.44                             115    0.43 8  270 256 
 HEL  HE ES       1032 50.79                             115   -0.29 8  270 256 
 HEL  HE I        1033  0.78        50.8 0.38            110            270 256 
 URE  HZ EP       1032 20.21                             113   -0.70 7  282 292 
 URE  HE ES       1032 51.37                             113   -1.31 7  282 292 
 URE  HN I        1033  3.87       110.4 0.24            109            282 292 
 RREF HZ EP       1032 26.73                             111    0.74 7  320 229 
 RREF HE ES       1033  1.02                             111   -0.70 7  320 229 
 ANIL HE ES       1033  8.64                             108    0.36 6  355 224 
 ANIL HN I        1033 22.19        34.3 0.62            104            355 224 
 SDV  BZ EP       1032 29.79                             108   -0.61 6  363  50 
 SJC  HE EPg      1032 35.05                             105   -0.51 6  408 327 
 SJC  HN I        1033 19.41        55.0 0.36            102            408 327 
                                                                                
