 2016 1113 1841 50.6 L   6.095 -73.320162.0  RSN 11 0.4 2.6LRSN                1
 GAP=169        0.90       3.1     3.7  5.6 -0.3981E+01  0.1536E+01  0.3780E+01E
 Epicentro: SUAITA - SANTANDER                                                 3
 ACTION:UPD 17-10-26 21:07 OP:lp   STATUS:               ID:20161113184150 L   I
 OLDACT:UP  16-11-14 01:25 OP:dnl  STATUS:               ID:20161113183747     3
 OLDACT:UP  16-11-14 01:24 OP:dnl  STATUS:               ID:20161113183747     3
 OLDACT:REG 16-11-13 20:58 OP:dnl  STATUS:               ID:20161113183747     3
 2016-11-13-1838-00M.COL___343                                                 6
 STAT SP IPHASW D HRMM SECON CODA AMPLIT PERI AZIMU VELO AIN AR TRES W  DIS CAZ7
 BAR2 EZ EP       1842 13.15                             160   -0.0510 57.0  15 
 BAR2 EZ ES       1842 30.47                             160   -0.3710 57.0  15 
 BAR2 EZ I        1842 32.72        79.5 0.48            162           57.0  15 
 BRR  HZ EP       1842 17.08                             142    0.4210  120 339 
 BRR  HN ES       1842 37.44                             142    0.4510  120 339 
 BRR  HZ I        1842 47.40        33.4 0.38            144            120 339 
 PTB  HZ EP       1842 17.52                             138   -0.3410  135 291 
 PTB  HN ES       1842 39.30                             138    0.1710  135 291 
 PTB  HZ I        1842 41.51        36.9 0.14            140            135 291 
 PAM  EZ EP       1842 20.30                             135    0.21 9  154  26 
 PAM  EN ES       1842 43.38                             135    0.28 9  154  26 
 PAM  EZ I        1842 46.90        33.8 0.60            139            154  26 
 CHI  HZ EP       1842 21.10                             132   -0.19 9  168 196 
 CHI  HN ES       1842 44.91                             132   -0.33 9  168 196 
 CHI  HZ I        1842 46.64        39.5 0.48            136            168 196 
 ROSC BZ EP   9   1842 23.54                             130    1.43 0  178 219 
 ROSC BN ES       1842 48.61                             131    0.48 9  178 219 
 ROSC BZ I        1842 53.08        46.0 0.35            133            178 219 
 NOR  HZ EP       1842 22.29                             129    0.28 9  181 251 
 NOR  HN ES       1842 46.57                             129    0.06 9  181 251 
 NOR  HZ I        1842 52.14        36.3 0.44            132            181 251 
 ZAR  HZ EP       1842 25.86                             122   -0.88 8  230 312 
 ZAR  HN ES       1842 54.30                             122   -0.63 8  230 312 
 ZAR  HZ I        1843  2.71        64.2 0.62            125            230 312 
 CBOC HZ EP       1842 34.78                             115    0.40 7  299 265 
 CBOC HE ES       1843  8.67                             115    0.13 7  299 265 
 CBOC HZ I        1843 10.49        11.5 0.32            118            299 265 
 ORTC HZ EP       1842 37.09                             114    0.27 7  323 222 
 ORTC HN ES       1843 13.11                             114    0.24 7  323 222 
 ORTC HZ I        1843 16.88        14.3 0.38            116            323 222 
 SJC  HZ EP   4   1842 50.82                             106   -2.73 0  468 334 
 SJC  HN ES   4   1843 38.62                             106   -4.05 0  468 334 
 SJC  HZ I        1843 40.92         7.7 0.40            108            468 334 
                                                                                
