 2017  313 1029  1.9 L   6.672 -73.231154.0  RSN  4 0.2 1.2LRSN                1
 GAP=217        0.56       4.8     4.9  7.1  0.1436E+02  0.1547E+01 -0.6439E+01E
 Epicentro: BARICHARA - SANTANDER                                              3
 ACTION:UPD 17-05-25 18:39 OP:jn   STATUS:               ID:20170313102901 L   I
 OLDACT:UP  17-03-13 21:47 OP:y    STATUS:               ID:20170313100917     3
 OLDACT:UP  17-03-13 21:46 OP:y    STATUS:               ID:20170313100917     3
 OLDACT:REG 17-03-13 20:52 OP:dnl  STATUS:               ID:20170313100917     3
 2017-03-13-1018-00M.COL___387                                                 6
 STAT SP IPHASW D HRMM SECON CODA AMPLIT PERI AZIMU VELO AIN AR TRES W  DIS CAZ7
 BRR  HZ EP       1029 23.95                             154   -0.0210 71.7 312 
 BRR  HE ES       1029 41.40                             154    0.2110 71.7 312 
 BRR  HZ I        1029 43.62         4.0 0.14            151           71.7 312 
 RUS  HZ EP   2   1029 25.75                             149    0.13 5 87.7 169 
 RUS  HN ES       1029 43.96                             149   -0.1610 87.7 169 
 RUS  HZ I        1029 45.38         1.2 0.52            149           87.7 169 
 PTB  HZ EP   2   1029 28.89                             136    0.33 5  136 264 
 PTB  HE ES       1029 49.55                             136    0.19 9  136 264 
 PTB  HZ I        1029 54.68         1.9 0.18            134            136 264 
 ZAR  HZ EP   4   1029 37.27                             125    2.65 0  201 297 
 ZAR  HN ES       1029 59.72                             125   -0.42 9  201 297 
 ZAR  HZ I        1030  5.61         2.1 0.32            124            201 297 
                                                                                
