 2015  113 1401 39.1 L   6.801 -73.162143.9  RSN 12 0.4 2.2LRSN                1
 GAP=134        0.87       2.4     3.6  5.4 -0.1076E+01  0.4455E+01  0.1882E+01E
 Epicentro: LOS SANTOS - SANTANDER                                             3
 ACTION:UPD 15-03-02 15:39 OP:nd   STATUS:               ID:20150113140139 L   I
 OLDACT:REG 15-01-13 20:13 OP:mh   STATUS:               ID:20150113135744     3
 2015-01-13-1357-44M.COL___249                                                 6
 STAT SP IPHASW D HRMM SECON CODA AMPLIT PERI AZIMU VELO AIN AR TRES W  DIS CAZ7
 BRR  HZ EP   1   14 2  0.42                             153    0.42 7 69.6 299 
 BRR  HN ES       14 2 16.31                             153    0.0410 69.6 299 
 BRR  HZ I        14 2 23.73        18.9 0.18            150           69.6 299 
 PAM  SZ EP       14 2  1.40                             150    0.1710 78.4  41 
 PAM  SN ES       14 2 18.85                             150    0.4010 78.4  41 
 PAM  SZ I        14 2 20.88        27.1 0.56            155           78.4  41 
 RUS  HZ EP   1   14 2  2.56                             143   -0.17 7  101 175 
 RUS  HN ES       14 2 21.14                             143    0.0110  101 175 
 RUS  HZ I        14 2 22.28        17.0 0.22            145            101 175 
 PTB  HZ EP   1   14 2  5.12                             132   -0.69 7  146 259 
 PTB  HN ES       14 2 26.52                             132   -0.08 9  146 259 
 PTB  HZ I        14 2 28.58        17.5 0.16            131            146 259 
 OCA  HN ES       14 2 28.62                             129   -0.61 9  160 354 
 SPBC HZ EP   1   14 2  7.51                             129    0.10 7  162 218 
 SPBC HN ES       14 2 29.07                             129   -0.38 9  162 218 
 SPBC HZ I        14 2 34.60        36.1 0.22            129            162 218 
 ZAR  HZ EP   1   14 2 12.02                             122    0.72 6  202 292 
 ZAR  HN ES       14 2 36.89                             122    0.52 9  202 292 
 ZAR  HZ I        14 2 43.88        12.8 0.12            122            202 292 
 NOR  HZ EP       14 2 14.29                             118   -0.33 8  233 234 
 NOR  HN ES       14 2 42.29                             118    0.00 8  233 234 
 NOR  HZ I        14 2 46.43        14.1 0.18            119            233 234 
 SML  HZ EP   1   14 2 15.31                             117   -0.27 6  243 336 
 SML  HN ES       14 2 43.63                             117   -0.36 8  243 336 
 SML  HZ I        14 2 50.78        17.7 0.24            119            243 336 
 CHI  HZ EP   1   14 2 16.40                             117   -0.31 6  248 195 
 CHI  HN ES       14 2 45.88                             117   -0.12 8  248 195 
 CHI  HZ I        14 2 54.03         7.3 0.38            118            248 195 
 RREF HZ EP   1   14 2 26.38                             111    1.32 5  321 229 
 RREF HN ES   4   14 3  3.60                             111    2.72 0  321 229 
 RREF HZ I        14 3  7.39         8.4 0.26            111            321 229 
 TOL  SZ EP       14 2 27.45                             109    0.26 7  342 224 
 TOL  SN ES   4   14 3  3.51                             109   -1.16 0  342 224 
 TOL  SZ I        14 3 16.72        11.1 0.36            110            342 224 
                                                                                
