 2011 1213 1527 41.7 L   6.784 -73.060151.0  RSN  9 0.3 2.5LRSN                1
 GAP=149        0.39       2.5     3.5  4.1 -0.2286E+01  0.4565E+01  0.5100E+00E
 Epicentro: LOS SANTOS - SANTANDER                                             3
 ACTION:UPD 12-07-13 16:16 OP:ep   STATUS:               ID:20111213152741 L   I
 2011-12-13-1520-00M.COL___184                                                 6
 STAT SP IPHASW D HRMM SECON CODA AMPLIT PERI AZIMU VELO AIN AR TRES W  DIS CAZ7
 BAR2 SZ IP     C 1528  2.01                             170   -0.0210 25.1 212 
 BAR2 SZ I        1528  2.38        45.7 0.37                          25.1 212 
 BAR2 SZ ES   2   1528 17.49                             170   -0.37 5 25.1 212 
 PAM  SZ EP   2   1528  4.78                             153    0.51 5 73.2  33 
 PAM  SN ES   2   1528 21.98                             153    0.13 5 73.2  33 
 BRR  HZ EP       1528  3.95                             150   -0.0310 80.4 296 
 BRR  HE ES   2   1528 21.39                             150    0.06 5 80.4 296 
 BRR  HZ I        1528 23.63        52.2 0.19                          80.4 296 
 RUS  HZ EP   2   1528  5.89                             145    0.03 5 98.6 181 
 RUS  HN ES   2   1528 24.93                             145    0.25 5 98.6 181 
 NOR  SZ EP   2   1528 18.06                             119   -0.43 4  241 236 
 NOR  SN ES   2   1528 46.92                             119   -0.24 4  241 236 
 CHI  HZ EP   1   1528 19.85                             118    0.03 6  250 197 
 CHI  HN ES   2   1528 49.01                             118   -0.53 4  250 197 
 CHI  HZ I        1528 58.18         9.4 0.64                           250 197 
 HEL  HZ EP   2   1528 23.31                             115    0.13 4  281 257 
 HEL  HN ES   2   1528 56.05                             115    0.54 4  281 257 
 HEL  HZ I        1529  2.59        13.5 0.29                           281 257 
 GUY  SZ EP   2   1528 26.74                             113    0.13 4  310 236 
 GUY  SN ES   2   1529  1.78                             113    0.16 4  310 236 
 GUY  SZ I        1529  9.50        23.0 0.59                           310 236 
 COD  HZ EP   2   1528 30.73                             110    0.09 3  351 353 
 COD  HN ES   2   1529  8.09                             110   -0.70 3  351 353 
 COD  HZ I        1529 15.58        21.3 0.66                           351 353 
                                                                                
