 2012  613 1757  8.4 L   6.828 -73.191136.9  RSN  4 0.4 1.4LRSN                1
 GAP=147        0.76       5.9     5.7  8.3 -0.1250E+02  0.1210E+02 -0.8024E+01E
 Epicentro: ZAPATOCA - SANTANDER                                               3
 ACTION:UPD 12-08-06 17:49 OP:ep   STATUS:               ID:20120613175708 L   I
 2012-06-13-1750-00M.COL___201                                                 6
 STAT SP IPHASW D HRMM SECON CODA AMPLIT PERI AZIMU VELO AIN AR TRES W  DIS CAZ7
 BAR2 SZ EP   1   1757 26.80                             169   -0.27 7 26.1 178 
 BAR2 SZ ES   1   1757 41.42                             169   -0.17 7 26.1 178 
 BAR2 SZ I        1757 42.42         7.4 0.26                          26.1 178 
 PAM  SZ EP       1757 29.79                             149    0.0110 78.4  44 
 PAM  SN ES   1   1757 46.56                             149    0.14 7 78.4  44 
 RUS  HZ EP   1   1757 32.25                             141    0.65 7  104 173 
 RUS  HN ES   1   1757 49.46                             141   -0.20 7  104 173 
 RUS  HZ I        1757 50.39         1.9 0.24                           104 173 
 PTB  HZ EP   1   1757 33.67                             131   -0.63 7  144 257 
 PTB  HN ES   1   1757 54.92                             131    0.45 7  144 257 
 PTB  HZ I        1757 57.32         4.7 0.08                           144 257 
                                                                                
