 2011  713 1523  3.1 L   6.802 -73.136142.7  RSN 16 0.4 2.8LRSN                1
 GAP=138        0.67       2.8     4.0  4.5 -0.4619E+01  0.5043E+01  0.2357E+01E
 Epicentro: LOS SANTOS - SANTANDER                                             3
 ACTION:UPD 12-07-25 14:00 OP:epov STATUS:               ID:20110713152303 L   I
 2011-07-13-1522-10S.COL___142                                                 6
 STAT SP IPHASW D HRMM SECON CODA AMPLIT PERI AZIMU VELO AIN AR TRES W  DIS CAZ7
 BTL  SZ EP       1523 22.52                             172    0.2010 19.4 311 
 BAR2 SZ IP     D 1523 22.32                             170   -0.0810 23.8 193 
 BAR2 SZ ES   1   1523 37.32                             170   -0.11 7 23.8 193 
 BAR2 SZ I        1523 39.08       103.9 0.37                          23.8 193 
 GIR2 SZ EP   1   1523 22.59                             167    0.15 7 31.2 348 
 BRR  HZ IP     C 1523 24.03                             152    0.0310 72.0 298 
 BRR  HN ES   1   1523 40.38                             152    0.11 7 72.0 298 
 BRR  HZ I        1523 43.00        79.5 0.17                          72.0 298 
 PAM  SZ EP   1   1523 24.98                             150    0.02 7 76.5  39 
 PAM  SN ES   1   1523 41.87                             150   -0.12 7 76.5  39 
 RUS  HZ EP   1   1523 26.61                             143    0.02 7  101 177 
 RUS  HN ES   1   1523 44.77                             143   -0.13 7  101 177 
 RUS  HZ I        1523 46.87        65.5 0.27                           101 177 
 BRI  SZ EP       1523 26.72                             141    0.0410  108  20 
 BRI  SZ ES   1   1523 45.27                             141    0.22 7  108  20 
 OCA  SZ EP   1   1523 30.34                             129   -0.85 7  160 353 
 OCA  SZ I        1523 59.40        46.0 0.22                           160 353 
 NOR  SZ EP   1   1523 38.33                             118   -0.47 6  236 235 
 NOR  SN ES   1   1524  6.21                             118   -0.40 6  236 235 
 CHI  HZ EP   1   1523 41.11                             116    0.39 6  249 195 
 CHI  HN ES   1   1524 10.03                             116   -0.01 6  249 195 
 CHI  HZ I        1524 17.84        24.1 0.54                           249 195 
 ROSC BZ EP   1   1523 41.79                             116    0.62 6  254 211 
 ROSC BZ I        1524 17.42        49.0 0.39                           254 211 
 HEL  HZ EP   1   1523 44.12                             114    0.81 6  273 256 
 HEL  HN ES   1   1524 14.41                             114   -0.25 6  273 256 
 HEL  HZ I        1524 20.75        56.6 0.39                           273 256 
 GUY  SZ EP   1   1523 47.02                             111    0.04 5  305 235 
 GUY  SZ I        1524 31.05        29.7 0.23                           305 235 
 TOL  SZ EP   1   1523 52.25                             109    0.87 5  344 225 
 PRA  HZ EP   1   1523 55.80                             106   -0.84 4  393 210 
 PRA  HN ES   1   1524 38.38                             106    0.01 4  393 210 
 PRA  HZ I        1524 41.97        69.7 0.23                           393 210 
 SJA  SZ EP   1   1523 56.83                             106   -0.81 4  401 193 
                                                                                
