 2015 1113 1728 40.7 L   6.781 -73.098140.2  RSN 13 0.3 2.2LRSN                1
 GAP=144        0.71       2.1     3.1  3.7 -0.2260E+01  0.4282E+01  0.4812E+00E
 Epicentro: LOS SANTOS - SANTANDER                                             3
 ACTION:UPD 15-12-28 16:10 OP:cam  STATUS:               ID:20151113172840 L   I
 OLDACT:REG 15-11-13 22:03 OP:cara STATUS:               ID:20151113172750     3
 2015-11-13-1727-50M.COL___316                                                 6
 STAT SP IPHASW D HRMM SECON CODA AMPLIT PERI AZIMU VELO AIN AR TRES W  DIS CAZ7
 BAR2 EZ IP     D 1728 59.69                             170    0.0510 22.9 204 
 BAR2 EZ ES       1729 14.76                             170    0.3410 22.9 204 
 BAR2 EZ I        1729 18.74        23.6 0.22            167           22.9 204 
 PAM  EZ EP       1729  2.43                             150    0.2110 75.8  35 
 PAM  EN ES       1729 18.84                             150   -0.1710 75.8  35 
 PAM  EZ I        1729 21.71        24.7 0.54            149           75.8  35 
 BRR  HZ EP       1729  1.61                             150    0.0310 76.9 298 
 BRR  HN ES       1729 17.80                             150   -0.0710 76.9 298 
 BRR  HZ I        1729 22.01        18.7 0.16            150           76.9 298 
 RUS  HZ EP       1729  3.71                             143   -0.0110 98.2 179 
 RUS  HN ES       1729 21.62                             143   -0.0710 98.2 179 
 RUS  HZ I        1729 23.95         8.4 0.38            138           98.2 179 
 OCA  HZ EP       1729  9.15                             128    0.31 9  163 351 
 OCA  HN ES       1729 30.67                             128   -0.13 9  163 351 
 OCA  HZ I        1729 34.70        44.5 0.46            127            163 351 
 SPBC HZ EP       1729  8.73                             127   -0.21 9  165 221 
 SPBC HN ES       1729 30.57                             127   -0.40 9  165 221 
 SPBC HZ I        1729 37.77        28.3 0.18            124            165 221 
 NOR  HZ EP       1729 16.07                             117   -0.37 8  238 236 
 NOR  HE ES       1729 43.81                             117   -0.52 8  238 236 
 NOR  HZ I        1729 49.07        15.4 0.32            114            238 236 
 SML  HZ EP   4   1729 16.09                             116   -1.37 0  248 334 
 SML  HN ES   4   1729 44.60                             116   -1.55 0  248 334 
 SML  HZ I        1729 49.04        18.8 0.20            114            248 334 
 CHI  HZ EP       1729 17.85                             116   -0.17 8  248 196 
 CHI  HN ES       1729 47.28                             116    0.14 8  248 196 
 CHI  HZ I        1729 52.75         3.8 0.32            113            248 196 
 HEL  HZ EP       1729 21.48                             113    0.34 7  277 257 
 HEL  HN ES       1729 53.23                             113    0.53 7  277 257 
 HEL  HZ I        1729 58.90         9.9 0.30            111            277 257 
 GUY2CHZ EP       1729 24.82                             111    0.42 7  304 236 
 GUY2CHN ES       1729 58.57                             111    0.07 7  304 236 
 GUY2CHZ I        1730  6.49        13.5 0.72                           304 236 
 ELA  HZ EP       1729 27.86                             109    0.24 7  332 230 
 ELA  HN ES       1730  4.59                             109    0.36 7  332 230 
 ELA  HZ I        1730 12.36         6.7 0.36            107            332 230 
 MON  HZ EP       1729 29.20                             107   -0.92 6  359 308 
 MON  HN ES   4   1730  4.30                             107   -4.37 0  359 308 
 MON  HZ I        1730  7.19         3.7 0.20            106            359 308 
                                                                                
