 2011  113 1240 11.0 L   6.822 -73.167141.1  RSN  8 0.4 2.3LRSN                1
 GAP=156        0.95       4.4     9.9  6.9 -0.2010E+02  0.2268E+02 -0.2533E+01E
 Epicentro: LOS SANTOS - SANTANDER                                             3
 ACTION:UP  11-02-08 08:40 OP:pat  STATUS:               ID:20110113124011 L   I
 2011-01-13-1237-08S.COL___136                                                 6
 STAT SP IPHASW D HRMM SECON CODA AMPLIT PERI AZIMU VELO SNR AR TRES W  DIS CAZ7
 BTL  SZ EP       1240 29.31                             173    -0.610   15 314 
 BTL  SZ ES   1   1240 44.35                             173    -0.4 7   15 314 
 BAR2 SZ ES   1   1240 45.34                             169     0.3 7   26 184 
 BAR2 SZ I        1240 48.82        59.8 0.50                            26 184 
 RUS  HZ EP       1240 34.56                             142     0.110  103 175 
 RUS  HN ES   1   1240 53.05                             142     0.2 7  103 175 
 RUS  HZ I        1240 54.55        25.9 0.39                           103 175 
 GRA  SZ EP       1240 35.97                             136     0.310  124  19 
 GRA  SZ I        1240 37.32        23.9 0.46                           124  19 
 GRA  SZ ES   1   1240 55.41                             136     0.4 7  124  19 
 OCA  SZ EP       1240 38.60                             129    -0.1 9  158 354 
 OCA  SZ ES   2   1241  0.19                             129    -0.1 5  158 354 
 OCA  SZ I        1241  6.55        18.5 0.46                           158 354 
 NOR  SZ EP   2   1240 46.36                             117    -0.1 4  234 234 
 NOR  SN ES   2   1241 14.07                             117     0.0 4  234 234 
 CHI  HZ EP       1240 48.14                             116    -0.5 8  250 195 
 CHI  HZ I        1241 22.80        10.8 0.33                           250 195 
 RREF HZ EP       1240 57.69                             110     0.8 7  322 229 
 RREF HN ES   2   1241 33.25                             110     0.5 3  322 229 
 RREF HZ I        1241 41.39        13.1 0.47                           322 229 
                                                                                
