 2017  513 1120 49.8 L   6.794 -73.154143.1  RSN  7 0.4 1.6LRSN                1
 GAP=136        0.97       3.9     4.0  6.8 -0.1939E+01  0.6706E+01  0.3178E+01E
 Epicentro: LOS SANTOS - SANTANDER                                             3
 ACTION:UPD 17-06-16 13:35 OP:jn   STATUS:               ID:20170513112049 L   I
 OLDACT:REG 17-05-13 19:02 OP:lv   STATUS:               ID:20170513111743     3
 2017-05-13-1118-00M.COL___324                                                 6
 STAT SP IPHASW D HRMM SECON CODA AMPLIT PERI AZIMU VELO AIN AR TRES W  DIS CAZ7
 BRR  HZ EP       1121 10.95                             152    0.3510 70.7 299 
 BRR  HN ES       1121 26.51                             152   -0.3410 70.7 299 
 BRR  HZ I        1121 29.73         6.6 0.37            153           70.7 299 
 PAM  EZ EP       1121 11.83                             150    0.0610 78.5  40 
 PAM  EN ES       1121 29.46                             150    0.5310 78.5  40 
 RUS  HZ EP       1121 12.95                             143   -0.2610100.0 176 
 RUS  HN ES       1121 30.84                             143   -0.6610100.0 176 
 RUS  HZ I        1121 33.17         8.7 0.70            145          100.0 176 
 PTB  HZ EP       1121 16.35                             132   -0.08 9  147 259 
 PTB  HN ES       1121 37.56                             132    0.34 9  147 259 
 PTB  HZ I        1121 39.00         4.1 0.34            133            147 259 
 SPBC HZ EP       1121 18.05                             129    0.09 9  162 219 
 SPBC HN ES       1121 40.44                             129    0.49 9  162 219 
 ZAR  HZ EP       1121 21.62                             122   -0.36 9  203 292 
 ZAR  HN ES       1121 46.54                             122   -0.56 9  203 292 
 NOR  HZ EP       1121 25.29                             118    0.07 8  234 234 
 NOR  HN ES       1121 53.24                             118    0.37 8  234 234 
 NOR  HZ I        1121 57.07         3.2 0.23            119            234 234 
                                                                                
