 2012  113 1033 40.4 L   6.874 -73.161142.0  RSN  5 0.2 1.3LRSN                1
 GAP=131        0.44       4.7     3.6  6.9 -0.1256E+01  0.8350E+01 -0.2430E+01E
 Epicentro: ZAPATOCA - SANTANDER                                               3
 ACTION:UP  12-02-03 08:17 OP:REBC STATUS:               ID:20120113103340 L   I
 2012-01-13-1030-00M.COL___186                                                 6
 STAT SP IPHASW D HRMM SECON CODA AMPLIT PERI AZIMU VELO SNR AR TRES W  DIS CAZ7
 BAR2 SZ ES   2   1034 14.97                             167     0.1 5   31 184 
 BAR2 SZ I        1034 16.54         5.3 0.18                            31 184 
 PAM  SZ EP   2   1034  2.36                             152     0.4 5   72  45 
 PAM  SN ES   2   1034 18.46                             152    -0.3 5   72  45 
 RUS  HZ EP   2   1034  4.50                             141     0.1 5  109 175 
 RUS  HE ES   2   1034 23.12                             141     0.0 5  109 175 
 RUS  HZ I        1034 24.48         2.2 0.30                           109 175 
 PTB  HZ EP   1   1034  6.84                             131    -0.3 7  148 256 
 PTB  HN ES   1   1034 28.02                             131     0.1 7  148 256 
 PTB  HZ I        1034 34.99                                            148 256 
 ZAR  HE ES   2   1034 36.97                             122     0.1 4  200 290 
 ZAR  HZ I        1034 40.62         3.1 0.22                           200 290 
                                                                                
