 2015  913 1838 29.8 L   6.814 -73.142143.6  RSN  7 0.4 1.7LRSN                1
 GAP=150        0.94       3.7     5.2  6.3 -0.7621E+01  0.8734E+01 -0.3168E+01E
 Epicentro: LOS SANTOS - SANTANDER                                             3
 ACTION:UPD 15-10-28 16:26 OP:cam  STATUS:               ID:20150913183829 L   I
 OLDACT:DUP 15-09-14 01:36 OP:stll STATUS:               ID:20150913182750d    3
 2015-09-13-1827-49M.COL___328                                                 6
 STAT SP IPHASW D HRMM SECON CODA AMPLIT PERI AZIMU VELO AIN AR TRES W  DIS CAZ7
 BAR2 EZ ES       1839  3.69                             170   -0.6810 24.9 190 
 BAR2 EZ I        1839  7.05         6.2 0.38            171           24.9 190 
 BRR  HZ EP   1   1838 50.87                             152    0.14 7 70.8 297 
 BRR  HN ES       1839  7.59                             152    0.5710 70.8 297 
 PAM  EZ EP       1838 51.91                             151    0.1810 75.9  40 
 PAM  EN ES       1839  8.90                             151    0.0910 75.9  40 
 PAM  EZ I        1839 11.49         3.1 0.22            152           75.9  40 
 PTB  HZ EP       1838 56.50                             131   -0.19 9  148 258 
 PTB  HN ES       1839 17.34                             131   -0.30 9  148 258 
 PTB  HZ I        1839 19.14         4.5 0.36            133            148 258 
 OCA  HN ES       1839 19.79                             129    0.12 9  159 353 
 OCA  HZ I        1839 24.07         9.7 0.26            130            159 353 
 SPBC HZ EP       1838 58.10                             128   -0.21 9  165 219 
 SPBC HE ES       1839 21.09                             128    0.57 9  165 219 
 SPBC HZ I        1839 24.08         7.2 0.18            130            165 219 
 SML  HZ EP       1839  6.38                             117    0.17 8  242 335 
 SML  HE ES       1839 34.07                             117   -0.50 8  242 335 
 SML  HZ I        1839 39.33         7.6 0.10            118            242 335 
                                                                                
