 2016  213 1608  2.0 L   6.947 -73.301130.5  RSN  4 0.3 1.4LRSN                1
 GAP=127        0.43       6.8     3.4  7.5 -0.9412E+01  0.9546E+01 -0.2088E+02E
 Epicentro: BETULIA - SANTANDER                                                3
 ACTION:UPD 16-03-04 21:25 OP:rebc STATUS:               ID:20160213160802 L   I
 OLDACT:DUP 16-02-13 23:51 OP:dnl  STATUS:               ID:20160213155750d    3
 OLDACT:REG 16-02-13 22:49 OP:dnl  STATUS:               ID:20160213155749     3
 2016-02-13-1557-49M.COL___311                                                 6
 STAT SP IPHASW D HRMM SECON CODA AMPLIT PERI AZIMU VELO AIN AR TRES W  DIS CAZ7
 BAR2 EZ EP   2   16 8 19.88                             162   -0.47 5 41.4 161 
 BAR2 EZ ES   2   16 8 34.83                             162    0.17 5 41.4 161 
 BAR2 EZ I        16 8 39.04         4.5 0.20            172           41.4 161 
 PAM  EZ EP       16 8 22.70                             147   -0.0410 79.4  57 
 PAM  EN ES   2   16 8 39.09                             147    0.17 5 79.4  57 
 PAM  EZ I        16 8 41.99         4.4 0.52            156           79.4  57 
 PTB  HZ EP   2   16 8 26.85                             131    0.24 5  135 251 
 PTB  HN ES   2   16 8 45.77                             131   -0.03 5  135 251 
 PTB  HZ I        16 8 52.50         4.8 0.16            135            135 251 
 ZAR  HZ EP   2   16 8 31.66                             122    0.46 4  182 289 
 ZAR  HN ES   2   16 8 53.66                             122   -0.31 4  182 289 
 ZAR  HZ I        16 9  4.54         3.9 0.26            126            182 289 
                                                                                
