 2016  813 1224 54.6 L   6.749 -73.159146.0  RSN  7 0.4 1.6LRSN                1
 GAP=232        0.98       4.7     5.1  6.3  0.5864E+01  0.8160E+01  0.1333E+01E
 Epicentro: LOS SANTOS - SANTANDER                                             3
 ACTION:UPD 16-10-29 15:35 OP:rebc STATUS:               ID:20160813122454 L   I
 OLDACT:REG 16-08-13 20:09 OP:lv   STATUS:               ID:20160813121759     3
 2016-08-13-1217-59S.COL___349                                                 6
 STAT SP IPHASW D HRMM SECON CODA AMPLIT PERI AZIMU VELO AIN AR TRES W  DIS CAZ7
 BAR2 EZ EP       1225 13.88                             173   -0.2710 17.5 188 
 BAR2 EZ ES       1225 29.14                             173   -0.2610 17.5 188 
 BAR2 EZ I        1225 30.39         7.8 0.26                          17.5 188 
 BRR  HZ EP       1225 15.97                             152    0.1110 72.8 303 
 BRR  HN ES       1225 33.04                             152    0.5910 72.8 303 
 BRR  HZ I        1225 39.02         6.8 0.31                          72.8 303 
 RUS  HZ EP       1225 17.66                             145   -0.3110 95.0 175 
 RUS  HE ES       1225 36.47                             145    0.2610 95.0 175 
 RUS  HZ I        1225 37.50         2.6 0.12                          95.0 175 
 PTB  HZ EP       1225 20.84                             133   -0.51 9  145 261 
 PTB  HN ES       1225 41.80                             133   -0.43 9  145 261 
 PTB  HZ I        1225 46.84         5.3 0.16                           145 261 
 SPBC HZ EP       1225 22.69                             130    0.08 9  158 220 
 SPBC HE ES       1225 44.72                             130    0.26 9  158 220 
 ZAR  HZ EP       1225 27.94                             122    0.80 9  205 294 
 ZAR  HN ES       1225 52.02                             122   -0.50 9  205 294 
 ZAR  HZ I        1225 58.50         5.8 0.26                           205 294 
 NOR  HZ EP       1225 29.98                             119    0.13 8  230 235 
 NOR  HE ES       1225 57.52                             119    0.16 8  230 235 
 NOR  HZ I        1226  3.34         4.3 0.19                           230 235 
                                                                                
