 2010  913 1619 35.0 L   6.779 -73.083149.1  RSN  8 0.2 2.3LRSN                1
 GAP=166        0.42       2.2     6.5  4.2 -0.3301E+01 -0.4933E+01  0.6762E+00E
 Epicentro: LOS SANTOS - SANTANDER                                             3
 ACTION:UP  11-02-18 11:02 OP:tino STATUS:               ID:20100913161935 L   I
 2010-09-13-1614-58S.COL___120                                                 6
 STAT SP IPHASW D HRMM SECON CODA AMPLIT PERI AZIMU VELO SNR AR TRES W  DIS CAZ7
 BAR2 SZ EP   1   1619 55.00                             171     0.0 7   24 208 
 BAR2 SZ ES   2   1620 10.24                             171    -0.4 5   24 208 
 BAR2 SZ I        1620 11.74        53.4 0.21                            24 208 
 GIR2 SZ EP   1   1619 55.14                             166     0.0 7   35 340 
 GIR2 SZ ES   2   1620 11.18                             166     0.3 5   35 340 
 BRR  HZ EP   1   1619 56.86                             151    -0.1 7   79 298 
 BRR  HE ES   2   1620 14.32                             151     0.3 5   79 298 
 BRR  HZ I        1620 15.62        48.7 0.11                            79 298 
 RUS  HZ EP   1   1619 58.83                             145    -0.1 7   98 180 
 RUS  HN ES   2   1620 17.50                             145     0.0 5   98 180 
 RUS  HZ I        1620 20.49        11.4 0.34                            98 180 
 GUE  SZ EP   1   1619 60.00                             140    -0.1 7  118   9 
 GRA  SZ EP   1   1620  0.80                             138     0.2 7  126  14 
 GRA  SZ ES   2   1620 20.80                             138     0.3 5  126  14 
 GRA  SZ I        1620 22.06        29.1 0.26                           126  14 
 OCA  SZ EP   1   1620  3.71                             130    -0.2 7  164 351 
 OCA  SZ ES   2   1620 26.00                             130    -0.4 5  164 351 
 OCA  SZ I        1620 30.15        27.1 0.44                           164 351 
 CHI  HZ EP   1   1620 13.07                             118     0.2 6  248 197 
 CHI  HE ES   2   1620 42.36                             118     0.0 4  248 197 
 CHI  HZ I        1620 51.88        10.1 0.36                           248 197 
                                                                                
