 2010  113 1333  0.8 L   6.785 -73.078138.4  RSN  7 0.5 2.4LRSN                1
 GAP=202        0.79       7.3    10.2  9.2  0.5294E+01  0.4639E+02  0.2426E+02E
 Epicentro: LOS SANTOS - SANTANDER                                             3
 ACTION:UP  10-08-24 09:43 OP:vdl  STATUS:               ID:20100113133300 L   I
 2010-01-13-1331-07S.COL___094                                                 6
 STAT SP IPHASW D HRMM SECON CODA AMPLIT PERI AZIMU VELO SNR AR TRES W  DIS CAZ7
 BAR2 SZ IP       1333 19.79                             170     0.210   24 209 
 BAR2 SZ ES   2   1333 34.28                             170     0.0 5   24 209 
 GIR2 SZ EP   1   1333 19.82                             165     0.1 7   35 339 
 GIR2 SZ ES   2   1333 33.87                             165    -0.6 5   35 339 
 RUS  BZ EP   1   1333 23.83                             143     0.1 7   99 180 
 RUS  BZ I        1333 24.98        24.4 0.17                            99 180 
 RUS  BE ES   2   1333 41.92                             143     0.3 5   99 180 
 CHI  HZ EP   1   1333 38.07                             115    -0.1 6  249 197 
 CHI  HE ES   2   1334  6.54                             115    -0.8 4  249 197 
 CHI  HZ I        1334 14.65        12.6 0.51                           249 197 
 HEL  HZ EP   1   1333 40.96                             113    -0.5 6  279 257 
 HEL  HN ES   2   1334 13.57                             113     0.4 4  279 257 
 HEL  HZ I        1334 18.90        16.1 0.55                           279 257 
 RREF BZ EP   1   1333 48.11                             109     0.9 5  326 230 
 RREF BZ I        1334 29.67        13.1 0.35                           326 230 
 PRA  HZ EP   1   1333 53.58                             105    -0.8 4  394 211 
 PRA  HZ I        1334 40.46        20.6 0.30                           394 211 
                                                                                
