 2014  913 1503 48.0 L   6.910 -73.128140.6  RSN  4 0.2 1.4LRSN                1
 GAP=283        0.45       5.3     4.5  5.6  0.1756E+01  0.9544E+01 -0.7518E+01E
 Epicentro: PIEDECUESTA - SANTANDER                                            3
 ACTION:UPD 14-10-03 23:04 OP:nd   STATUS:               ID:20140913150348 L   I
 OLDACT:REG 14-09-13 20:29 OP:spq  STATUS:               ID:20140913145820     3
 2014-09-13-1458-20M.COL___296                                                 6
 STAT SP IPHASW D HRMM SECON CODA AMPLIT PERI AZIMU VELO AIN AR TRES W  DIS CAZ7
 BAR2 SZ EP   1   15 4  7.57                             165    0.19 8 35.6 190 
 BAR2 SZ ES   1   15 4 22.54                             165    0.08 8 35.6 190 
 BAR2 SZ I        15 4 24.42         9.4 0.16            156           35.6 190 
 RUS  HN ES   1   15 4 30.78                             139   -0.29 8  113 177 
 RUS  HZ I        15 4 31.79         3.0 0.22            136            113 177 
 PTB  HZ EP       15 4 14.96                             130   -0.0810  152 255 
 PTB  HN ES   1   15 4 35.94                             130   -0.15 7  152 255 
 PTB  HZ I        15 4 37.91         2.8 0.16            127            152 255 
 SPBC HZ EP   1   15 4 17.18                             126   -0.02 7  174 217 
 SPBC HE ES   1   15 4 40.29                             126    0.34 7  174 217 
 SPBC HZ I        15 4 47.45         3.8 0.30            123            174 217 
                                                                                
