 2014 1213 1012 40.6 L   6.611 -73.278 28.1  RSN  7 0.5 1.3LRSN                1
 GAP= 79        1.18       2.6     3.2  3.4  0.4139E+00  0.4562E+01 -0.6418E+00E
 Epicentro: GALAN - SANTANDER                                                  3
 ACTION:UPD 15-02-10 17:03 OP:nd   STATUS:               ID:20141213101240 L   I
 OLDACT:REG 14-12-13 20:20 OP:fm   STATUS:               ID:20141213100745     3
 2014-12-13-1007-45M.COL___294                                                 6
 STAT SP IPHASW D HRMM SECON CODA AMPLIT PERI AZIMU VELO AIN AR TRES W  DIS CAZ7
 BAR2 EZ EP       1012 46.10                             158    0.3110 10.7 101 
 BAR2 EZ ES       1012 50.23                             158    0.4210 10.7 101 
 BAR2 EZ I        1012 50.92        12.5 0.14            159           10.7 101 
 BRR  HZ EP       1012 52.48                             100   -0.3210 72.9 319 
 BRR  HN ES       1013  1.78                             100   -0.5010 72.9 319 
 BRR  HZ I        1013  2.27        19.3 0.28             98           72.9 319 
 RUS  HZ EP       1012 54.60                              99   -0.0610 82.3 165 
 RUS  HE ES       1013  4.89                              99   -0.7110 82.3 165 
 RUS  HZ I        1013  6.73         6.8 0.72             95           82.3 165 
 PAM  SZ EP       1012 57.68                              61    0.3510  103  38 
 PAM  SN ES       1013 10.03                              61   -0.3110  103  38 
 PAM  SZ I        1013 10.95        11.5 0.20             61            103  38 
 PTB  HZ EP       1013  0.31                              61    0.0910  131 267 
 PTB  HE ES       1013 14.93                              61   -0.5610  131 267 
 PTB  HZ I        1013 16.64         7.0 0.14             61            131 267 
 SPBC HZ EP       1013  1.35                              61    0.14 9  138 220 
 SPBC HN ES       1013 17.80                              61    0.56 9  138 220 
 SPBC HZ I        1013 21.61        11.7 0.30             61            138 220 
 ZAR  HN ES       1013 31.78                              61    0.86 9  200 299 
 ZAR  HZ I        1013 34.42         1.7 0.26             61            200 299 
                                                                                
