 2016  913 1029 46.0 L   6.807 -73.176141.5  RSN  8 0.5 1.8LRSN                1
 GAP=132        1.12       3.7     4.7  7.2 -0.2083E+01  0.4952E+01 -0.1601E+01E
 Epicentro: LOS SANTOS - SANTANDER                                             3
 ACTION:UPD 17-08-17 21:09 OP:lp   STATUS:               ID:20160913102946 L   I
 OLDACT:REG 16-09-13 20:50 OP:dnl  STATUS:               ID:20160913102734     3
 2016-09-13-1028-00M.COL___315                                                 6
 STAT SP IPHASW D HRMM SECON CODA AMPLIT PERI AZIMU VELO AIN AR TRES W  DIS CAZ7
 BAR2 EZ EP       1030  5.17                             170    0.0510 23.7 182 
 BAR2 EZ ES       1030 20.26                             170    0.2210 23.7 182 
 BAR2 EZ I        1030 20.99        16.0 0.26            171           23.7 182 
 BRR  HZ EP       1030  6.98                             153    0.4810 67.9 299 
 BRR  HN ES       1030 23.14                             153    0.6510 67.9 299 
 BRR  HZ I        1030 27.47        11.9 0.14            151           67.9 299 
 PAM  EZ EP       1030  8.23                             150    0.3810 79.0  42 
 PAM  EN ES       1030 24.87                             150   -0.0410 79.0  42 
 PAM  EZ I        1030 27.16         7.7 0.36            152           79.0  42 
 RUS  HZ EP       1030  9.30                             143   -0.1010  102 174 
 RUS  HN ES       1030 27.41                             143   -0.2510  102 174 
 RUS  HZ I        1030 29.31         5.4 0.28            146            102 174 
 PTB  HZ EP   2   1030 12.37                             132    0.04 5  145 258 
 PTB  HN ES       1030 31.93                             132   -0.94 9  145 258 
 PTB  HZ I        1030 35.81        11.1 0.12            132            145 258 
 OCA  HZ EP       1030 13.49                             129   -0.38 9  159 354 
 OCA  HN ES       1030 34.76                             129   -0.85 9  159 354 
 OCA  HZ I        1030 36.60        11.9 0.14            130            159 354 
 SPBC HZ EP       1030 14.20                             128    0.17 9  162 218 
 SPBC HE ES       1030 35.73                             128   -0.16 9  162 218 
 SPBC HZ I        1030 36.31         5.2 0.20            130            162 218 
 ZAR  HZ EP   2   1030 18.38                             122    0.57 4  201 292 
 ZAR  HN ES       1030 43.10                             122    0.47 9  201 292 
 ZAR  HZ I        1030 49.55         5.7 0.28            123            201 292 
                                                                                
