 2010 1213 1736 55.5 L   6.776 -73.101145.9  RSN 16 0.5 3.3LRSN                1
 GAP=164        0.86       3.8     6.8  8.2 -0.1085E+02  0.2316E+02  0.9755E+00E
 Epicentro: LOS SANTOS - SANTANDER                                             3
 ACTION:UP  11-01-14 15:24 OP:pat  STATUS:               ID:20101213173655 L   I
 2010-12-13-1735-10S.COL___136                                                 6
 STAT SP IPHASW D HRMM SECON CODA AMPLIT PERI AZIMU VELO SNR AR TRES W  DIS CAZ7
 BAR2 SZ IP       1737 15.00                             171    -0.110   22 204 
 BAR2 SZ ES   2   1737 30.31                             171    -0.1 5   22 204 
 BAR2 SZ I        1737 32.74       341.1 0.29                            22 204 
 BTL  SZ EP   1   1737 15.18                             170     0.0 7   24 310 
 RUS  HZ IP     D 1737 18.82                             145    -0.210   98 179 
 RUS  HN ES   2   1737 37.77                             145     0.3 5   98 179 
 RUS  HZ I        1737 40.62        94.6 0.44                            98 179 
 GUE  SZ EP   1   1737 21.15                             139     0.8 7  118   9 
 GRA  SZ IP       1737 20.83                             137     0.010  127  15 
 GRA  SZ ES   2   1737 40.81                             137     0.2 5  127  15 
 OCA  SZ EP   1   1737 23.44                             129    -0.7 7  164 352 
 OCA  SZ ES   2   1737 46.42                             129     0.0 5  164 352 
 OCA  SZ I        1737 50.20       258.1 0.37                           164 352 
 NOR  SZ EP   1   1737 30.77                             118    -0.8 6  237 236 
 NOR  SN ES   2   1737 59.16                             118    -0.5 4  237 236 
 CHI  HZ EP   1   1737 33.09                             117     0.0 6  247 196 
 CHI  HE ES   2   1738  2.03                             117    -0.4 4  247 196 
 CHI  HZ I        1738 11.94        90.6 0.43                           247 196 
 ROSC BZ EP   1   1737 34.40                             117     0.7 6  253 212 
 ROSC BN ES   2   1738  3.28                             117    -0.2 4  253 212 
 ROSC BZ I        1738 10.94       177.1 0.59                           253 212 
 CVER SZ EP   1   1737 36.59                             115     0.8 6  272 203 
 HEL  HZ EP   1   1737 36.82                             114     0.6 6  276 257 
 HEL  HZ I        1738 13.70        60.1 0.37                           276 257 
 GUY  SZ EP   1   1737 39.67                             112     0.2 5  304 236 
 GUY  SE ES   2   1738 14.30                             112     0.6 4  304 236 
 RREF HZ EP   1   1737 42.03                             111     0.1 5  324 230 
 RREF HE ES   2   1738 18.09                             111     0.0 3  324 230 
 RREF HZ I        1738 27.57       146.8 0.32                           324 230 
 DBB  SZ EP   1   1737 43.75                             109     0.2 5  345 275 
 DBB  SZ ES   2   1738 20.68                             109    -0.4 3  345 275 
 PRA  HZ EP   1   1737 48.14                             106    -0.9 4  392 210 
 PRA  HE ES   2   1738 31.46                             106     0.6 3  392 210 
 SJA  SZ EP   1   1737 48.66                             106    -1.2 4  399 194 
 SJA  SZ ES   2   1738 33.30                             106     1.0 3  399 194 
 SJA  SZ I        1738 39.04       102.4 0.49                           399 194 
                                                                                
