 2016  713 1555 56.5 L   6.316 -73.681115.3  RSN  4 0.1 1.1LRSN                1
 GAP=135        0.37       2.4     1.8  3.8 -0.1220E+00  0.6838E+00  0.1596E+01E
 Epicentro: SANTA HELENA DEL OPON - SANTANDER                                  3
 ACTION:UPD 17-03-29 16:50 OP:lp   STATUS:               ID:20160713155556 L   I
 OLDACT:REG 16-07-13 20:51 OP:lv   STATUS:               ID:20160713154759     3
 2016-07-13-1547-59S.COL___325                                                 6
 STAT SP IPHASW D HRMM SECON CODA AMPLIT PERI AZIMU VELO AIN AR TRES W  DIS CAZ7
 BAR2 HE ES       1556 28.22                             149    0.0610 63.1  61 
 RUS  HZ EP       1556 15.90                             143    0.0110 81.1 125 
 RUS  HN ES   2   1556 30.58                             143   -0.40 5 81.1 125 
 RUS  HZ I        1556 31.56         2.7 0.18            144           81.1 125 
 SPBC HZ EP       1556 15.58                             141   -0.0510 85.2 211 
 SPBC HE ES       1556 30.64                             141    0.1110 85.2 211 
 SPBC HZ I        1556 37.28         4.5 0.10            139           85.2 211 
 PTB  HZ IP       1556 15.88                             139    0.0410 89.2 286 
 PTB  HN ES       1556 30.83                             139   -0.0810 89.2 286 
 PTB  HZ I        1556 31.12         2.8 0.28            142           89.2 286 
                                                                                
