 2013 1213 1935 43.6 L   6.764 -73.133154.9  RSN  7 0.3 1.7LRSN                1
 GAP=236        0.83       4.3     4.7  5.8  0.4847E+01  0.6474E+01  0.3487E+01E
 Epicentro: LOS SANTOS - SANTANDER                                             3
 ACTION:UPD 14-01-13 10:17 OP:ep   STATUS:               ID:20131213193543 L   I
 OLDACT:UP  13-12-13 17:10 OP:cam  STATUS:               ID:20131213193000     3
 OLDACT:REG 13-12-13 15:14 OP:cam  STATUS:               ID:20131213193000     3
 2013-12-13-1930-00M.COL___285                                                 6
 STAT SP IPHASW D HRMM SECON CODA AMPLIT PERI AZIMU VELO AIN AR TRES W  DIS CAZ7
 BAR2 SZ EP       1936  4.00                             172   -0.2310 19.8 196 
 BAR2 SZ ES       1936 20.55                             172    0.1910 19.8 196 
 BAR2 SZ I        1936 20.79        13.1 0.42            166           19.8 196 
 BRR  HZ EP       1936  5.69                             153   -0.1910 74.4 301 
 BRR  HN ES       1936 23.75                             153    0.4610 74.4 301 
 RUS  HZ EP       1936  7.92                             147   -0.0310 96.5 177 
 RUS  HN ES       1936 26.81                             147   -0.1610 96.5 177 
 RUS  HZ I        1936 29.47         2.8 0.30            144           96.5 177 
 PTB  HZ EP   1   1936 11.10                             134   -0.25 7  148 260 
 PTB  HN ES   1   1936 32.38                             134   -0.65 7  148 260 
 PTB  HZ I        1936 37.95         9.0 0.38            132            148 260 
 SPBC HZ EP       1936 12.99                             131    0.40 9  161 220 
 SPBC HN ES       1936 34.83                             131   -0.39 9  161 220 
 SPBC HZ I        1936 41.98        11.7 0.24            129            161 220 
 ZAR  HE ES       1936 42.66                             124   -0.26 8  207 293 
 NOR  HZ EP       1936 20.11                             120    0.38 8  234 235 
 NOR  HN ES       1936 48.44                             120    0.51 8  234 235 
 NOR  HZ I        1936 51.68         4.0 0.18            120            234 235 
                                                                                
