 2014  813 1549 44.3 L   6.814 -73.093153.5  RSN  5 0.4 1.4LRSN                1
 GAP=244        0.90       6.0     7.0  7.7  0.2723E+01  0.3277E+01  0.3059E+01E
 Epicentro: LOS SANTOS - SANTANDER                                             3
 ACTION:UPD 14-09-15 21:49 OP:nd   STATUS:               ID:20140813154944 L   I
 OLDACT:UP  14-08-14 01:03 OP:spq  STATUS:               ID:20140813154819     3
 OLDACT:REG 14-08-13 21:20 OP:spq  STATUS:               ID:20140813154819     3
 2014-08-13-1548-19M.COL___266                                                 6
 STAT SP IPHASW D HRMM SECON CODA AMPLIT PERI AZIMU VELO AIN AR TRES W  DIS CAZ7
 BAR2 SZ EP       1550  5.03                             170    0.0610 26.5 202 
 BAR2 SZ ES   1   1550 20.79                             170   -0.27 7 26.5 202 
 BAR2 SZ I        1550 22.03         3.4 0.16            169           26.5 202 
 BRR  HZ EP       1550  6.88                             153    0.3010 75.7 295 
 BRR  HE ES       1550 24.21                             153    0.2810 75.7 295 
 BRR  HZ I        1550 25.16         8.8 0.19            153           75.7 295 
 RUS  HE ES   1   1550 27.83                             145   -0.33 7  102 179 
 RUS  HZ I        1550 29.24         2.5 0.44            146            102 179 
 PTB  HZ EP       1550 11.93                             133   -0.56 9  154 259 
 PTB  HE ES       1550 34.02                             133   -0.43 9  154 259 
 PTB  HZ I        1550 34.94         3.2 0.36            134            154 259 
 SPBC HZ EP       1550 13.96                             130    0.05 9  168 220 
 SPBC HE ES       1550 37.58                             130    0.61 9  168 220 
 SPBC HZ I        1550 38.28         2.7 0.11            131            168 220 
                                                                                
