 2014  413 1752 59.9 L   6.833 -73.158150.5  RSN 18 0.5 2.4LRSN                1
 GAP= 69        1.02       2.3     3.3  5.8 -0.6954E+00  0.4968E+01 -0.4208E+00E
 Epicentro: LOS SANTOS - SANTANDER                                             3
 ACTION:UPD 14-05-13 23:08 OP:nd   STATUS:               ID:20140413175259 L   I
 OLDACT:REG 14-04-13 22:36 OP:cam  STATUS:               ID:20140413174812     3
 2014-04-13-1748-12M.COL___272                                                 6
 STAT SP IPHASW D HRMM SECON CODA AMPLIT PERI AZIMU VELO AIN AR TRES W  DIS CAZ7
 BRR  HZ IP     C 1753 21.88                             154    0.5010 68.4 296 
 BRR  HN ES   4   1753 39.26                             154    1.10 0 68.4 296 
 BRR  HZ I        1753 43.02        43.6 0.24            152           68.4 296 
 PAM  SZ IP     C 1753 22.80                             152    0.3210 75.5  42 
 PAM  SN ES       1753 40.29                             152    0.1710 75.5  42 
 PAM  SZ I        1753 42.34        30.3 0.30            155           75.5  42 
 RUS  HZ EP     C 1753 24.04                             144   -0.3110  104 175 
 RUS  HE ES       1753 42.78                             144   -0.6710  104 175 
 RUS  HZ I        1753 43.67        41.2 0.22            147            104 175 
 PTB  HZ EP       1753 26.81                             133   -0.36 9  147 257 
 PTB  HN ES       1753 48.00                             133   -0.48 9  147 257 
 PTB  HZ I        1753 49.80        24.8 0.10            134            147 257 
 TAM  HZ IP     D 1753 28.37                             131    0.25 9  157 106 
 TAM  HN ES       1753 50.19                             131    0.02 9  157 106 
 TAM  HZ I        1753 50.74        13.9 0.20            136            157 106 
 OCA  HZ EP       1753 28.22                             131    0.02 9  157 353 
 OCA  HN ES       1753 50.19                             131   -0.12 9  157 353 
 OCA  HZ I        1753 56.58        28.9 0.40            133            157 353 
 SPBC HZ EP     C 1753 29.13                             130    0.21 9  165 218 
 SPBC HN ES       1753 51.59                             130    0.01 9  165 218 
 SPBC HZ I        1753 55.05        38.5 0.16            132            165 218 
 ZAR  HZ EP       1753 31.76                             124   -0.60 9  201 291 
 ZAR  HE ES       1753 58.20                             124    0.49 9  201 291 
 ZAR  HZ I        1754  3.75        28.8 0.26            125            201 291 
 NOR  HZ EP       1753 36.27                             119    0.29 8  236 234 
 NOR  HN ES   4   1754  3.00                             119   -1.16 0  236 234 
 NOR  HZ I        1754  8.43        16.4 0.28            121            236 234 
 SML  HZ EP       1753 36.19                             119   -0.16 8  240 335 
 SML  HN ES       1754  5.28                             119    0.47 8  240 335 
 SML  HZ I        1754 11.97        38.9 0.30            120            240 335 
 CHI  HZ EP     C 1753 38.24                             118    0.07 8  252 195 
 CHI  HN ES       1754  7.65                             118   -0.39 8  252 195 
 CHI  HZ I        1754 10.89        14.6 0.54            120            252 195 
 ROSC BZ EP   4   1753 40.24                             117    1.73 0  255 210 
 ROSC BN ES       1754  9.94                             117    1.29 8  255 210 
 HEL  HZ EP   4   1753 42.15                             116    1.87 0  272 255 
 URE  HZ EP   2   1753 40.71                             115   -0.17 4  281 291 
 GUY2CHZ EP   4   1753 44.91                             113    1.10 0  302 234 
 RREF HZ EP   1   1753 47.33                             111    0.96 5  323 229 
 RREF HN ES   4   1754 24.98                             111    2.34 0  323 229 
 RREF HZ I        1754 31.77        14.7 0.52            113            323 229 
 COD  HZ EP       1753 47.84                             110   -0.16 7  345 355 
 COD  HN ES       1754 25.08                             110   -0.48 7  345 355 
 COD  HZ I        1754 30.82         6.8 0.38            112            345 355 
 PRA  HZ EP       1753 53.64                             107   -0.20 6  394 209 
 PRA  HN ES       1754 35.24                             107   -0.70 6  394 209 
 PRA  HZ I        1754 38.88        14.9 0.56            109            394 209 
 ORTC HZ EP   1   1753 54.89                             107    0.69 4  398 216 
 SJC  HZ EP     C 1753 54.23                             107   -0.92 6  405 327 
 SJC  HN ES   4   1754 35.45                             107   -2.82 0  405 327 
 SJC  HZ I        1754 42.21         5.7 0.62            108            405 327 
                                                                                
