 2011 1213 1138 26.1 L   6.749 -73.034148.3  RSN 13 0.3 2.6LRSN                1
 GAP=154        0.46       2.8     4.8  3.9 -0.3589E+01  0.3785E+01  0.2200E+01E
 Epicentro: ARATOCA - SANTANDER                                                3
 ACTION:UPD 12-07-13 16:15 OP:ep   STATUS:               ID:20111213113826 L   I
 2011-12-13-1130-00M.COL___184                                                 6
 STAT SP IPHASW D HRMM SECON CODA AMPLIT PERI AZIMU VELO AIN AR TRES W  DIS CAZ7
 BAR2 SZ IP     C 1138 45.96                             170   -0.1310 23.8 223 
 BAR2 SZ ES   1   1139  1.41                             170   -0.24 7 23.8 223 
 BAR2 SZ I        1139  2.78        57.5 0.34                          23.8 223 
 GIR2 SZ EP   2   1138 46.04                             164   -0.36 5 40.5 334 
 GIR2 SZ ES   2   1139  2.19                             164   -0.01 5 40.5 334 
 PAM  SZ EP   1   1138 48.79                             152    0.29 7 75.1  30 
 PAM  SN ES   2   1139  5.94                             152    0.00 5 75.1  30 
 BRR  HZ EP   1   1138 47.89                             149   -0.49 7 84.7 298 
 BRR  HN ES   2   1139  6.08                             149    0.36 5 84.7 298 
 BRR  HZ I        1139  7.18        57.0 0.15                          84.7 298 
 RUS  HZ EP   2   1138 49.90                             146    0.15 5 94.8 183 
 RUS  HN ES   2   1139  8.55                             146    0.39 5 94.8 183 
 RUS  HZ I        1139 10.41        31.5 0.71                          94.8 183 
 OCA  SZ EP   2   1138 55.28                             129   -0.08 5  168 349 
 OCA  SZ ES   2   1139 18.72                             129    0.57 5  168 349 
 OCA  SZ I        1139 23.82        34.0 0.37                           168 349 
 NOR  SN ES   2   1139 31.53                             118    0.19 4  242 237 
 CHI  HZ EP   1   1139  3.84                             118    0.06 6  247 198 
 CHI  HN ES   2   1139 33.29                             118    0.15 4  247 198 
 CHI  HZ I        1139 39.37        20.5 0.50                           247 198 
 ROSC BZ EP   2   1139  5.15                             117    0.54 4  255 214 
 ROSC BZ I        1139 40.55        40.2 0.56                           255 214 
 HEL  HZ EP   2   1139  7.97                             114    0.30 4  283 258 
 HEL  HZ I        1139 44.65        19.2 0.28                           283 258 
 GUY  SZ EP   2   1139 10.89                             112   -0.04 3  311 237 
 GUY  SZ I        1139 53.49        35.4 0.37                           311 237 
 RREF HZ EP   2   1139 12.93                             111   -0.14 3  328 232 
 PRA  HZ EP   2   1139 19.55                             107   -0.37 3  393 212 
                                                                                
