 2011 1113 1345 56.2 L   6.852 -73.138142.9  RSN  4 0.3 1.1LRSN                1
 GAP=135        0.64       4.6     4.7  8.3  0.4552E+01  0.5902E+01  0.5073E+01E
 Epicentro: LOS SANTOS - SANTANDER                                             3
 ACTION:UPD 12-07-13 16:10 OP:ep   STATUS:               ID:20111113134556 L   I
 2011-11-13-1343-29S.COL___179                                                 6
 STAT SP IPHASW D HRMM SECON CODA AMPLIT PERI AZIMU VELO AIN AR TRES W  DIS CAZ7
 BRR  HZ EP   1   1346 16.92                             153   -0.05 7 69.4 294 
 BRR  HZ I        1346 24.67         3.6 0.25                          69.4 294 
 BRR  HN ES   1   1346 33.56                             153    0.42 7 69.4 294 
 PAM  SZ EP   1   1346 17.72                             152   -0.13 7 72.5  42 
 PAM  SZ I        1346 18.38         2.9 0.16                          72.5  42 
 PAM  SN ES   1   1346 34.63                             152   -0.08 7 72.5  42 
 RUS  HZ EP   1   1346 20.59                             142    0.47 7  106 177 
 RUS  HZ I        1346 38.35         1.3 0.08                           106 177 
 RUS  HN ES   1   1346 38.40                             142   -0.36 7  106 177 
 ZAR  HN ES   1   1346 53.04                             122   -0.36 6  203 291 
                                                                                
