 2011 1113 1945 51.6 L   6.799 -73.143149.8  RSN  9 0.4 2.3LRSN                1
 GAP=137        0.83       3.5     4.6  7.4 -0.1117E+01  0.1065E+02  0.4936E+01E
 Epicentro: LOS SANTOS - SANTANDER                                             3
 ACTION:UPD 12-07-13 16:10 OP:ep   STATUS:               ID:20111113194551 L   I
 2011-11-13-1943-41S.COL___179                                                 6
 STAT SP IPHASW D HRMM SECON CODA AMPLIT PERI AZIMU VELO AIN AR TRES W  DIS CAZ7
 BAR2 SZ EP       1946 12.01                             171    0.2510 23.2 191 
 BAR2 SZ I        1946 28.79        39.0 0.19                          23.2 191 
 BRR  HZ EP   1   1946 13.93                             153    0.68 7 71.5 299 
 BRR  HN ES   1   1946 30.70                             153    0.60 7 71.5 299 
 BRR  HZ I        1946 32.51        41.8 0.20                          71.5 299 
 PAM  SZ EP   1   1946 14.79                             152    0.50 7 77.3  39 
 PAM  SN ES   1   1946 31.71                             152   -0.24 7 77.3  39 
 PAM  SZ I        1946 34.23        24.5 0.61                          77.3  39 
 RUS  HZ EP   1   1946 15.89                             145    0.11 7  100 176 
 RUS  HN ES   1   1946 34.19                             145   -0.42 7  100 176 
 RUS  HZ I        1946 37.61        28.8 0.51                           100 176 
 OCA  SZ EP   1   1946 19.49                             131   -0.80 7  160 353 
 OCA  SZ ES   1   1946 42.09                             131   -0.54 7  160 353 
 OCA  SZ I        1946 46.36        35.4 0.33                           160 353 
 ZAR  HZ EP   1   1946 24.12                             123   -0.26 6  204 292 
 ZAR  HN ES   1   1946 49.71                             123   -0.21 6  204 292 
 ZAR  HZ I        1946 56.77        17.7 0.29                           204 292 
 NOR  SZ EP   1   1946 27.58                             119   -0.04 6  235 235 
 NOR  SN ES   1   1946 55.62                             119   -0.06 6  235 235 
 CHI  HZ EP   1   1946 29.72                             118    0.16 6  249 195 
 CHI  HZ I        1946 32.03         9.1 0.13                           249 195 
 CHI  HN ES   1   1946 58.52                             118   -0.61 6  249 195 
 HEL  HZ EP   1   1946 32.60                             116    0.51 6  272 256 
 HEL  HN ES   1   1947  3.34                             116   -0.29 6  272 256 
 HEL  HZ I        1947 10.11        13.8 0.26                           272 256 
                                                                                
