 2017  113 1931  7.2 L   6.771 -73.146141.7  RSN  5 0.2 1.6LRSN                1
 GAP=138        0.53       2.8     2.5  6.4 -0.1100E+00  0.3831E+01 -0.7217E+00E
 Epicentro: LOS SANTOS - SANTANDER                                             3
 ACTION:UPD 17-05-22 15:59 OP:jn   STATUS:               ID:20170113193107 L   I
 OLDACT:UP  17-01-14 00:16 OP:dani STATUS:               ID:20170113192747     3
 OLDACT:UP  17-01-14 00:16 OP:dani STATUS:               ID:20170113192747     3
 OLDACT:REG 17-01-13 20:44 OP:dani STATUS:               ID:20170113192747     3
 2017-01-13-1928-00M.COL___295                                                 6
 STAT SP IPHASW D HRMM SECON CODA AMPLIT PERI AZIMU VELO AIN AR TRES W  DIS CAZ7
 BAR2 EZ EP       1931 26.28                             171    0.0010 20.2 192 
 BAR2 EZ I        1931 50.25         9.3 0.56            168           20.2 192 
 PAM  EZ EP       1931 29.17                             149    0.0310 79.9  38 
 PAM  EE ES       1931 46.16                             149   -0.0910 79.9  38 
 PAM  EZ I        1931 48.93         7.5 0.47            146           79.9  38 
 RUS  HZ EP       1931 30.20                             144   -0.1210 97.4 176 
 RUS  HN ES       1931 48.56                             144    0.2110 97.4 176 
 RUS  HZ I        1931 51.89         2.7 0.26            138           97.4 176 
 PTB  HN ES       1931 54.21                             131   -0.31 9  147 260 
 PTB  HZ I        1932  1.96         8.9 0.43            126            147 260 
 ZAR  HE ES       1932  5.03                             121    0.32 8  205 293 
 ZAR  HZ I        1932 10.55         7.4 0.12            116            205 293 
                                                                                
