 2014 1013 1036  8.2 L   6.802 -73.149164.2  RSN  5 0.4 1.3LRSN                1
 GAP=251        0.83       7.5     8.3 11.3  0.1510E+02 -0.2141E+02  0.1423E+02E
 Epicentro: LOS SANTOS - SANTANDER                                             3
 ACTION:UPD 14-11-29 23:49 OP:nd   STATUS:               ID:20141013103608 L   I
 OLDACT:REG 14-10-13 20:44 OP:fm   STATUS:               ID:20141013102736     3
 2014-10-13-1027-36M.COL___288                                                 6
 STAT SP IPHASW D HRMM SECON CODA AMPLIT PERI AZIMU VELO AIN AR TRES W  DIS CAZ7
 BAR2 SZ EP   1   1036 29.41                             172   -0.67 8 23.5 189 
 BRR  HN ES   1   1036 49.96                             156    0.54 8 70.7 298 
 PTB  HZ EP       1036 36.99                             136    0.2710  147 259 
 PTB  HN ES       1036 58.75                             136   -0.2010  147 259 
 PTB  HZ I        1037  5.37         1.8 0.52            131            147 259 
 SPBC HZ EP   1   1036 38.67                             133    0.48 7  163 219 
 SPBC HN ES   1   1037  1.47                             133   -0.10 7  163 219 
 SPBC HZ I        1037  6.86         2.4 0.10            129            163 219 
 ZAR  HE ES       1037  7.92                             126   -0.23 9  204 292 
 ZAR  HZ I        1037 14.26         1.5 0.64            124            204 292 
                                                                                
