 2017  213 1516 55.7 L   6.803 -73.153149.2  RSN  8 0.5 1.9LRSN                1
 GAP=135        1.29       5.2     5.4  8.2 -0.3320E+00  0.1002E+02  0.1142E+02E
 Epicentro: LOS SANTOS - SANTANDER                                             3
 ACTION:UPD 17-05-24 15:36 OP:jn   STATUS:               ID:20170213151655 L   I
 OLDACT:DUP 17-02-13 23:51 OP:cog  STATUS:               ID:20170213150750d    3
 2017-02-13-1508-00M.COL___346                                                 6
 STAT SP IPHASW D HRMM SECON CODA AMPLIT PERI AZIMU VELO AIN AR TRES W  DIS CAZ7
 BAR2 EZ EP       1517 15.61                             171   -0.1510 23.6 188 
 BAR2 EZ ES       1517 30.94                             171   -0.4510 23.6 188 
 BAR2 EZ I        1517 33.49        30.6 0.36            169           23.6 188 
 BRR  HZ EP       1517 17.71                             153    0.5210 70.3 299 
 BRR  HN ES       1517 34.88                             153    0.9510 70.3 299 
 BRR  HZ I        1517 38.59        10.6 0.25            155           70.3 299 
 PAM  EZ EP       1517 18.34                             151    0.0310 77.6  40 
 PAM  EE ES       1517 35.84                             151   -0.0910 77.6  40 
 PAM  EZ I        1517 40.26         8.5 0.34            157           77.6  40 
 RUS  HZ EP       1517 19.52                             144   -0.3110  101 176 
 RUS  HN ES       1517 38.83                             144    0.1910  101 176 
 RUS  HZ I        1517 41.05        10.8 0.42            146            101 176 
 PTB  HZ EP       1517 22.12                             133   -0.78 9  147 259 
 PTB  HN ES       1517 43.17                             133   -0.93 9  147 259 
 PTB  HZ I        1517 50.79        16.7 0.34            135            147 259 
 ZAR  HZ EP   4   1517 26.58                             123   -1.71 0  203 292 
 ZAR  HN ES       1517 53.48                             123   -0.22 9  203 292 
 NOR  HZ EP       1517 31.95                             119    0.35 8  234 234 
 NOR  HN ES       1518  0.36                             119    0.78 8  234 234 
 NOR  HZ I        1518  3.36         7.0 0.24            121            234 234 
 CHI  HZ EP       1517 33.96                             118    0.34 8  249 195 
 CHI  HE ES       1518  3.21                             118    0.03 8  249 195 
 CHI  HZ I        1518 11.66         4.3 0.72            120            249 195 
                                                                                
