 2014  713 1753 27.2 L   6.407 -73.716 98.9  RSN 10 0.5 2.2LRSN                1
 GAP= 76        1.24       3.3     3.8  7.7 -0.1241E+01  0.1149E+02 -0.1251E+01E
 Epicentro: SANTA HELENA DEL OPON - SANTANDER                                  3
 ACTION:UPD 15-03-16 20:43 OP:nd   STATUS:               ID:20140713175327 L   I
 OLDACT:UP  14-07-14 00:36 OP:cam  STATUS:               ID:20140713175000     3
 OLDACT:UP  14-07-14 00:36 OP:cam  STATUS:               ID:20140713175000     3
 OLDACT:REG 14-07-13 22:11 OP:cam  STATUS:               ID:20140713175000     3
 2014-07-13-1750-00M.COL___282                                                 6
 STAT SP IPHASW D HRMM SECON CODA AMPLIT PERI AZIMU VELO AIN AR TRES W  DIS CAZ7
 BAR2 SZ EP     C 1753 43.16                             146   -0.1310 62.5  71 
 BAR2 SZ ES       1753 56.01                             146    0.2110 62.5  71 
 BRR  HZ IP     D 1753 43.79                             139   -0.2810 77.4   0 
 BRR  HE ES       1753 57.92                             139    0.7210 77.4   0 
 BRR  HZ I        1753 58.10        21.5 0.44            138           77.4   0 
 PTB  HZ EP       1753 43.75                             137   -0.8210 83.1 280 
 PTB  HN ES       1753 57.48                             137   -0.6010 83.1 280 
 PTB  HZ I        1753 59.86        55.3 0.10            136           83.1 280 
 RUS  HZ EP       1753 45.75                             135   -0.0810 90.3 129 
 RUS  HE ES       1754  0.08                             135   -0.2610 90.3 129 
 RUS  HZ I        1754  2.78        27.2 0.36            137           90.3 129 
 SPBC HZ EP       1753 45.29                             134   -0.1810 92.3 205 
 SPBC HN ES       1754  0.30                             134    0.6210 92.3 205 
 SPBC HZ I        1754  2.46        46.9 0.20            135           92.3 205 
 NOR  HZ EP       1753 52.09                             118    0.05 9  158 234 
 NOR  HN ES       1754 10.66                             118   -0.72 9  158 234 
 NOR  HZ I        1754 13.47        36.0 0.36            117            158 234 
 ZAR  HZ EP       1753 53.82                             115    0.07 9  174 314 
 ZAR  HN ES       1754 14.84                             115    0.41 9  174 314 
 ZAR  HZ I        1754 19.10        30.0 0.26            114            174 314 
 HEL  HZ EP       1753 57.88                             112    0.52 9  202 263 
 HEL  HE ES   4   1754 22.18                             112    1.33 0  202 263 
 HEL  HZ I        1754 24.40        12.3 0.26            111            202 263 
 GUY2CHZ EP     C 1754  1.21                             110    1.11 8  225 234 
 GUY2CHN ES       1754 25.97                             110    0.24 8  225 234 
 GUY2CHZ I        1754 32.07        13.5 0.30                           225 234 
 CBOC HZ EP   4   1754  5.25                             107    1.24 0  261 257 
 SML  HZ EP   1   1754  4.12                             106   -0.44 6  268 352 
 SML  HE ES       1754 33.37                             106   -0.30 8  268 352 
 SML  HZ I        1754 41.32        14.8 0.24            104            268 352 
 PRA  HZ EP   4   1754 11.93                             103    0.47 0  325 204 
                                                                                
