 2015  213 1052 51.1 L   6.795 -73.158142.2  RSN  7 0.6 1.4LRSN                1
 GAP=135        1.60       6.1     8.6 10.7  0.3765E+01  0.8329E+00 -0.1639E+02E
 Epicentro: LOS SANTOS - SANTANDER                                             3
 ACTION:UPD 15-04-30 21:25 OP:nd   STATUS:               ID:20150213105251 L   I
 OLDACT:DUP 15-02-13 22:06 OP:stll STATUS:               ID:20150213104750d    3
 2015-02-13-1047-49M.COL___299                                                 6
 STAT SP IPHASW D HRMM SECON CODA AMPLIT PERI AZIMU VELO AIN AR TRES W  DIS CAZ7
 BAR2 EZ EP       1053  9.74                             171   -0.5210 22.5 187 
 BAR2 EZ ES       1053 25.47                             171    0.2510 22.5 187 
 BAR2 EZ I        1053 26.33         4.9 0.18            170           22.5 187 
 BRR  HZ EP       1053 12.25                             152    0.4710 70.3 299 
 BRR  HE ES       1053 28.84                             152    0.9010 70.3 299 
 PAM  SZ EP       1053 13.07                             150    0.0810 78.7  40 
 PAM  SZ I        1053 13.27         8.2 0.24            152           78.7  40 
 RUS  HZ EP       1053 14.65                             143    0.2110  100 175 
 RUS  HN ES       1053 31.85                             143   -0.8110  100 175 
 RUS  HZ I        1053 33.22         2.4 0.46            144            100 175 
 PTB  HZ EP       1053 17.45                             132   -0.17 9  146 259 
 PTB  HN ES       1053 37.68                             132   -0.65 9  146 259 
 PTB  HZ I        1053 40.50         2.9 0.18            130            146 259 
 SPBC HZ EP       1053 20.56                             129    1.38 9  162 219 
 SPBC HE ES       1053 40.81                             129   -0.28 9  162 219 
 SPBC HZ I        1053 47.92         2.7 0.18            128            162 219 
 SML  HZ EP       1053 26.88                             117   -0.62 8  244 336 
 SML  HE ES       1053 55.28                             117   -0.63 8  244 336 
 SML  HZ I        1054  3.53         3.0 0.10            116            244 336 
                                                                                
