 2013 1013 1150 40.1 L   6.739 -73.166137.1  RSN  4 0.3 1.5LRSN                1
 GAP=230        0.75       7.9     9.2  5.9  0.6108E+02  0.8438E+01  0.9660E-01E
 Epicentro: VILLANUEVA - SANTANDER                                             3
 ACTION:UPD 13-11-25 09:21 OP:ep   STATUS:               ID:20131013115040 L   I
 OLDACT:REG 13-10-13 14:55 OP:nd   STATUS:               ID:20131013114959     3
 2013-10-13-1149-59M.COL___273                                                 6
 STAT SP IPHASW D HRMM SECON CODA AMPLIT PERI AZIMU VELO AIN AR TRES W  DIS CAZ7
 BAR2 SZ EP       1150 58.50                             173   -0.0510 16.3 186 
 BAR2 SZ ES       1151 12.55                             173   -0.4010 16.3 186 
 BAR2 SZ I        1151 15.89         8.1 0.28            167           16.3 186 
 BRR  HZ EP       1151  0.43                             150    0.0310 72.8 304 
 BRR  HN ES       1151 16.68                             150    0.4310 72.8 304 
 BRR  HZ I        1151 17.96         8.2 0.48            149           72.8 304 
 RUS  HZ EP       1151  2.40                             144   -0.1210 94.0 174 
 RUS  HN ES       1151 20.25                             144    0.2410 94.0 174 
 RUS  HZ I        1151 22.15         2.9 0.34            143           94.0 174 
 ZAR  HZ EP       1151 12.29                             120    0.24 9  205 294 
 ZAR  HN ES       1151 36.54                             120   -0.43 9  205 294 
 ZAR  HZ I        1151 41.03         4.0 0.28            121            205 294 
                                                                                
