 2014  113 1437 51.9 L   6.806 -73.133152.3  RSN  9 0.3 1.7LRSN                1
 GAP=138        0.88       2.9     3.7  5.2  0.5489E+00  0.5386E+01  0.1952E+01E
 Epicentro: LOS SANTOS - SANTANDER                                             3
 ACTION:UPD 14-03-13 09:54 OP:ep   STATUS:               ID:20140113143751 L   I
 OLDACT:DUP 14-01-13 16:29 OP:ep   STATUS:               ID:20140113143001d    3
 2014-01-13-1430-00M.COL___285                                                 6
 STAT SP IPHASW D HRMM SECON CODA AMPLIT PERI AZIMU VELO AIN AR TRES W  DIS CAZ7
 BAR2 SZ EP       1438 11.90                             171   -0.4310 24.3 193 
 BAR2 SZ ES       1438 28.50                             171    0.2310 24.3 193 
 BAR2 SZ I        1438 28.58        16.6 0.26            169           24.3 193 
 BRR  HZ EP       1438 14.24                             153    0.4410 72.1 298 
 BRR  HN ES       1438 31.16                             153    0.2710 72.1 298 
 PAM  SZ EP       1438 15.01                             152    0.2810 76.0  39 
 PAM  SN ES       1438 32.43                             152   -0.1110 76.0  39 
 PAM  SZ I        1438 34.62         9.5 0.66            155           76.0  39 
 RUS  HZ EP       1438 16.65                             145    0.3110  101 177 
 RUS  HN ES       1438 35.06                             145   -0.3410  101 177 
 RUS  HZ I        1438 35.84         5.3 0.34            145            101 177 
 PTB  HZ EP       1438 18.99                             133   -0.54 9  149 259 
 PTB  HE ES       1438 40.79                             133   -0.30 9  149 259 
 PTB  HZ I        1438 43.07         7.1 0.18            132            149 259 
 ZAR  HZ EP       1438 24.86                             124   -0.01 9  205 292 
 ZAR  HN ES       1438 51.10                             124    0.50 9  205 292 
 ZAR  HZ I        1438 55.00         5.4 0.30            123            205 292 
 NOR  HZ EP       1438 28.38                             120    0.21 8  236 235 
 NOR  HE ES       1438 56.51                             120    0.04 8  236 235 
 NOR  HZ I        1439  3.85         5.0 0.54            120            236 235 
 SML  HN ES       1438 57.02                             119   -0.72 8  244 335 
 CHI  HZ EP       1438 30.28                             118    0.21 8  250 195 
 CHI  HN ES       1438 59.71                             118   -0.14 8  250 195 
 CHI  HZ I        1439  1.97         1.6 0.52            119            250 195 
                                                                                
