 2011  113 1505  5.6 L   6.842 -72.788132.0  RSN  4 0.1 1.7LRSN                1
 GAP=257        0.36       8.3    60.2 23.9  0.4565E+03 -0.1419E+04 -0.1796E+03E
 Epicentro: SAN ANDRES - SANTANDER                                             3
 ACTION:UP  11-02-08 08:40 OP:pat  STATUS:               ID:20110113150505 L   I
 2011-01-13-1501-28S.COL___136                                                 6
 STAT SP IPHASW D HRMM SECON CODA AMPLIT PERI AZIMU VELO SNR AR TRES W  DIS CAZ7
 BAR2 SZ EP       15 5 24.48                             159    -0.110   52 238 
 BAR2 SZ ES   1   15 5 39.25                             159    -0.1 7   52 238 
 BAR2 SZ I        15 5 40.62        13.1 0.30                            52 238 
 GIR2 SZ EP       15 5 24.53                             159     0.110   52 300 
 BTL  SZ ES   1   15 5 39.62                             159     0.1 7   54 279 
 RUS  HZ EP   1   15 5 28.77                             139     0.0 7  110 197 
 RUS  HN ES   1   15 5 46.96                             139     0.1 7  110 197 
                                                                                
