 2015 1113 1019 38.4 L   7.260 -73.969 16.7  RSN  9 0.5 2.0LRSN                1
 GAP= 89        1.26       3.0     2.4  4.0  0.2542E+01  0.1225E+01 -0.1120E+01E
 Epicentro: PUERTO WILCHES - SANTANDER                                         3
 ACTION:UPD 15-12-28 16:10 OP:cam  STATUS:               ID:20151113101938 L   I
 OLDACT:UP  15-11-13 22:50 OP:cara STATUS:               ID:20151113101749     3
 OLDACT:REG 15-11-13 20:41 OP:cara STATUS:               ID:20151113101749     3
 2015-11-13-1017-49M.COL___319                                                 6
 STAT SP IPHASW D HRMM SECON CODA AMPLIT PERI AZIMU VELO AIN AR TRES W  DIS CAZ7
 BRR  HZ IP     D 1019 44.59                             113    0.2010 33.1 121 
 BRR  HE ES       1019 49.85                             113    0.7810 33.1 121 
 BRR  HZ I        1019 50.14       137.1 0.10            110           33.1 121 
 ZAR  HZ IP     C 1019 54.37                              97   -0.1010  101 285 
 ZAR  HN ES       1020  6.94                              97   -0.0810  101 285 
 ZAR  HZ I        1020 10.26        18.5 0.10             96            101 285 
 BAR2 EZ EP       1019 56.26                              97   -0.3710  114 130 
 BAR2 EZ ES       1020  9.57                              97   -1.2910  114 130 
 BAR2 EZ I        1020 11.85        17.6 0.36             95            114 130 
 OCA  HZ EP       1019 58.78                              96   -0.1310  130  33 
 OCA  HE ES       1020 14.96                              96    0.0510  130  33 
 OCA  HZ I        1020 16.62        48.6 0.14             95            130  33 
 PAM  EZ IP     C 1020  1.01                              56    0.30 9  141  86 
 PAM  EN ES       1020 18.30                              56    0.18 9  141  86 
 PAM  EZ I        1020 19.63        43.4 0.34             94            141  86 
 SML  HZ EP   4   1020  2.23                              56   -1.67 0  171 356 
 SML  HE ES       1020 23.26                              56   -0.54 9  171 356 
 SML  HZ I        1020 26.75        18.9 0.26             56            171 356 
 RUS  HZ EP     C 1020  6.33                              56    0.65 9  180 147 
 RUS  HE ES       1020 26.93                              56   -0.04 9  180 147 
 RUS  HZ I        1020 28.80        14.3 0.66             56            180 147 
 URE  HZ EP       1020  5.87                              56    0.68 9  181 288 
 URE  HN ES       1020 25.96                              56   -0.13 9  181 288 
 URE  HZ I        1020 31.78        10.7 0.18             56            181 288 
 HEL  HN ES   2   1020 32.90                              56   -0.22 4  209 236 
                                                                                
