 2013  813 1459 48.2 L   6.292 -73.599109.3  RSN 20 0.5 3.1LRSN                1
 GAP= 55        1.00       2.2     2.6  5.7 -0.1323E+01  0.3575E+01  0.1326E+01E
 Epicentro: SANTA HELENA DEL OPON - SANTANDER                                  3
 ACTION:UPD 14-01-14 09:01 OP:ep   STATUS:               ID:20130813145948 L   I
 OLDACT:UP  13-08-13 18:38 OP:mh   STATUS:               ID:20130813145750     3
 OLDACT:REG 13-08-13 18:20 OP:mh   STATUS:               ID:20130813145750     3
 2013-08-13-1457-50M.COL___221                                                 6
 STAT SP IPHASW D HRMM SECON CODA AMPLIT PERI AZIMU VELO AIN AR TRES W  DIS CAZ7
 BAR2 SZ IP     D 15 0  5.33                             151    0.4310 56.8  54 
 BAR2 SZ ES   1   15 0 18.06                             151    0.10 7 56.8  54 
 BAR2 SZ I        15 0 19.89       677.0 0.40            151           56.8  54 
 RUS  HZ IP     D 15 0  6.22                             144   -0.0510 72.2 128 
 RUS  HN ES   1   15 0 19.63                             144   -0.77 7 72.2 128 
 RUS  HN I        15 0 21.85       170.6 0.18            146           72.2 128 
 SPBC HZ EP       15 0  6.78                             138   -0.1410 88.1 217 
 SPBC HN ES   1   15 0 22.06                             138    0.50 7 88.1 217 
 SPBC HN I        15 0 27.57       442.0 0.28            141           88.1 217 
 BRR  HZ EP     C 15 0  7.11                             137    0.0710 91.0 352 
 BRR  HN ES       15 0 21.79                             137    0.0310 91.0 352 
 BRR  HN I        15 0 31.02       307.2 0.22            138           91.0 352 
 GIR2 SZ EP       15 0  8.25                             135    0.4310 97.9  27 
 GIR2 SZ I        15 0 27.17       100.8 0.28            135           97.9  27 
 PTB  HZ EP     C 15 0  6.85                             134   -0.8710 98.7 286 
 PTB  HE ES   1   15 0 21.98                             134   -0.99 7 98.7 286 
 PTB  HZ I        15 0 22.37       152.9 0.20            136           98.7 286 
 PAM  SZ EP   1   15 0 13.60                             121    0.04 7  153  41 
 PAM  SN ES       15 0 33.82                             121    0.46 9  153  41 
 NOR  HZ EP   1   15 0 13.09                             119   -0.90 7  162 240 
 NOR  HN ES       15 0 34.89                             119    0.76 9  162 240 
 NOR  HN I        15 0 35.82       598.5 0.16            121            162 240 
 ROSC BN ES   4   15 0 40.05                             117    1.83 0  179 206 
 CHI  HZ EP   1   15 0 16.62                             116   -0.25 7  184 185 
 CHI  HN ES   1   15 0 38.75                             116   -0.50 7  184 185 
 CHI  HN I        15 0 42.84       161.4 0.26            118            184 185 
 ZAR  HZ IP     D 15 0 17.00                             115   -0.21 9  192 314 
 ZAR  HN ES       15 0 40.22                             115    0.35 9  192 314 
 ZAR  HN I        15 0 42.06       310.0 0.18            116            192 314 
 TAM  HN ES   1   15 0 41.39                             113   -0.21 6  201  85 
 TAM  HN I        15 0 43.13       144.1 0.36            115            201  85 
 HEL  HZ EP   1   15 0 19.90                             112   -0.19 6  214 267 
 HEL  HN ES       15 0 45.16                             112    0.17 8  214 267 
 HEL  HZ I        15 0 51.81        23.2 0.30            114            214 267 
 OCA  HZ EP   1   15 0 19.82                             111   -0.41 6  217   8 
 OCA  HN ES       15 0 45.22                             111   -0.02 8  217   8 
 OCA  HN I        15 0 52.43       483.4 0.24            112            217   8 
 GUY2CHZ EP   1   15 0 21.80                             110   -0.09 6  228 239 
 GUY2CHN ES   4   15 0 49.36                             110    1.17 0  228 239 
 GUY2CHZ I        15 0 57.51        56.7 0.52                           228 239 
 VIL  SZ EP   1   15 0 22.75                             109   -0.18 6  241 182 
 VIL  SN ES   1   15 0 50.46                             109    0.42 6  241 182 
 URE  HZ EP   4   15 0 24.73                             106   -1.12 0  268 307 
 URE  HN ES   4   15 0 53.18                             106   -2.07 0  268 307 
 URE  HN I        15 0 54.63       142.3 0.30            108            268 307 
 CBOC HZ EP       15 0 26.85                             106    0.38 8  271 260 
 CBOC HN ES   1   15 0 55.73                             106   -0.61 6  271 260 
 SML  HZ EP   1   15 0 26.98                             105   -0.55 6  282 349 
 SML  HN ES   1   15 0 58.85                             105    0.61 6  282 349 
 PRA  HZ EP   1   15 0 31.37                             103   -0.54 5  319 207 
 PRA  HN ES       15 1  6.48                             103    0.44 7  319 207 
 PRA  HN I        15 1 11.17        43.8 0.32            104            319 207 
 ORTC HZ EP   1   15 0 32.15                             103    0.03 5  321 215 
 ORTC HE ES       15 1  7.28                             103    0.87 7  321 215 
 ORTC HE I        15 1 12.55        56.0 0.22            104            321 215 
                                                                                
