 2013  313 1041 25.4 L   6.734 -73.233145.2  RSN  5 0.2 1.5LRSN                1
 GAP=212        0.54       5.4     5.1  6.7  0.1027E+02  0.1754E+01 -0.6597E+01E
 Epicentro: VILLANUEVA - SANTANDER                                             3
 ACTION:UPD 13-04-09 14:02 OP:ep   STATUS:               ID:20130313104125 L   I
 2013-03-13-1040-00M.COL___231                                                 6
 STAT SP IPHASW D HRMM SECON CODA AMPLIT PERI AZIMU VELO AIN AR TRES W  DIS CAZ7
 BAR2 SZ EP       1041 44.55                             173   -0.2610 16.6 160 
 BAR2 SZ I        1042  1.26         8.1 0.42             47           16.6 160 
 BRR  HZ EP       1041 46.60                             154    0.3710 67.1 308 
 BRR  HN ES   1   1042  2.36                             154   -0.14 7 67.1 308 
 BRR  HN I        1042  5.56         9.1 0.35             47           67.1 308 
 RUS  HN ES   1   1042  6.91                             145    0.14 7 94.5 170 
 RUS  HN I        1042  7.71         3.6 0.20             47           94.5 170 
 PTB  HZ EP       1041 51.23                             134   -0.09 9  137 261 
 PTB  HN ES   1   1042 11.56                             134   -0.01 7  137 261 
 PTB  HZ I        1042 18.47         2.3 0.17             47            137 261 
 ZAR  HZ EP   2   1041 57.04                             123   -0.13 4  198 295 
 ZAR  HZ I        1042 29.60         3.1 0.38             37            198 295 
                                                                                
