 2014  713 1255 20.3 L   6.734 -73.142149.9  RSN  6 0.4 1.8LRSN                1
 GAP=220        0.98       5.8     6.4  7.0  0.1952E+01  0.6597E+01 -0.5789E+01E
 Epicentro: LOS SANTOS - SANTANDER                                             3
 ACTION:UPD 15-03-16 20:43 OP:nd   STATUS:               ID:20140713125520 L   I
 OLDACT:REG 14-07-13 21:56 OP:cam  STATUS:               ID:20140713125000     3
 2014-07-13-1250-00M.COL___282                                                 6
 STAT SP IPHASW D HRMM SECON CODA AMPLIT PERI AZIMU VELO AIN AR TRES W  DIS CAZ7
 BAR2 SZ EP       1255 40.52                             174    0.2410 16.3 196 
 BAR2 SZ ES       1255 55.28                             174   -0.6110 16.3 196 
 BAR2 SZ I        1255 56.94        12.2 0.56            168           16.3 196 
 BRR  HZ EP       1255 42.32                             152    0.2210 75.3 303 
 BRR  HN ES       1255 59.77                             152    0.6410 75.3 303 
 BRR  HZ I        1256  2.17         6.5 0.16            147           75.3 303 
 PTB  HZ EP       1255 47.27                             133   -0.23 9  147 262 
 PTB  HN ES       1256  8.50                             133   -0.24 9  147 262 
 PTB  HZ I        1256 15.85         6.3 0.40            131            147 262 
 SPBC HZ EP   1   1255 49.37                             131    0.78 7  158 221 
 SPBC HE ES       1256 10.66                             131   -0.02 9  158 221 
 SPBC HZ I        1256 16.33         6.5 0.24            130            158 221 
 ZAR  HZ EP       1255 52.99                             123   -0.33 8  207 294 
 ZAR  HN ES       1256 19.06                             123   -0.03 8  207 294 
 ZAR  HZ I        1256 24.42         5.1 0.30            122            207 294 
 SML  HZ EP   1   1255 57.40                             117   -0.47 6  251 336 
 SML  HN ES   4   1256 25.28                             117   -1.92 0  251 336 
 SML  HZ I        1256 30.14         8.3 0.24            118            251 336 
                                                                                
