 2015  713 1816  1.7 L   6.501 -73.396 58.0  RSN  5 0.4 1.4LRSN                1
 GAP=189        0.89       8.7     9.2 19.3  0.4703E+02  0.1641E+03  0.1236E+03E
 Epicentro: SIMACOTA - SANTANDER                                               3
 ACTION:UPD 15-09-08 21:48 OP:cam  STATUS:               ID:20150713181601 L   I
 OLDACT:DUP 15-07-13 23:59 OP:ak   STATUS:               ID:20150713180751d    3
 OLDACT:UP  15-07-13 23:58 OP:ak   STATUS:               ID:20150713180750     3
 OLDACT:REG 15-07-13 22:37 OP:ak   STATUS:               ID:20150713180750     3
 2015-07-13-1807-50M.COL___340                                                 6
 STAT SP IPHASW D HRMM SECON CODA AMPLIT PERI AZIMU VELO AIN AR TRES W  DIS CAZ7
 BAR2 EZ ES       1816 18.35                             153   -0.0110 25.7  67 
 BAR2 EZ I        1816 22.85        14.2 0.20            171           25.7  67 
 RUS  HN ES       1816 26.66                             121    0.0410 75.6 153 
 RUS  HZ I        1816 29.06         7.0 0.26            136           75.6 153 
 NOR  HZ EP       1816 28.93                              99   -0.06 9  193 238 
 NOR  HE ES       1816 49.83                              99   -0.46 9  193 238 
 NOR  HZ I        1816 54.54         5.3 0.18            107            193 238 
 GUY2CHN ES       1817  6.59                              96    0.89 8  260 237 
 TOL  SN ES       1817 14.00                              95   -0.32 7  301 225 
                                                                                
