 2014  213 1934 37.5 L   6.759 -73.185142.2  RSN  6 0.4 1.8LRSN                1
 GAP=133        0.77       3.8     5.0  7.7  0.3179E+01  0.1286E+02 -0.5982E+01E
 Epicentro: VILLANUEVA - SANTANDER                                             3
 ACTION:UPD 14-03-10 08:10 OP:ep   STATUS:               ID:20140213193437 L   I
 OLDACT:REG 14-02-13 15:07 OP:fm   STATUS:               ID:20140213193000     3
 2014-02-13-1930-00M.COL___200                                                 6
 STAT SP IPHASW D HRMM SECON CODA AMPLIT PERI AZIMU VELO AIN AR TRES W  DIS CAZ7
 BAR2 SZ EP   1   1934 56.72                             172    0.13 7 18.5 179 
 BAR2 SZ ES   1   1935 11.61                             172    0.11 7 18.5 179 
 BAR2 SZ I        1935 12.83        28.3 0.25            170           18.5 179 
 PAM  SN ES   1   1935 16.72                             148   -0.33 7 83.6  40 
 RUS  HZ EP       1935  0.93                             144    0.3410 96.5 173 
 RUS  HN ES   1   1935 18.58                             144   -0.03 7 96.5 173 
 RUS  HZ I        1935 20.16         5.0 0.26            145           96.5 173 
 PTB  HZ EP   1   1935  3.16                             132   -0.54 7  143 260 
 PTB  HN ES   1   1935 23.58                             132   -0.57 7  143 260 
 PTB  HZ I        1935 27.68         6.3 0.14            132            143 260 
 ZAR  HN ES   1   1935 35.18                             122    0.76 6  202 294 
 ZAR  HZ I        1935 37.99         6.8 0.09            122            202 294 
 SML  HZ EP   1   1935 13.85                             116   -0.32 6  246 337 
 SML  HN ES       1935 42.91                             116    0.13 8  246 337 
                                                                                
