 2012  513 1757 43.2 L   6.764 -73.133145.2  RSN  6 0.4 1.6LRSN                1
 GAP=140        0.94       7.5     5.7  8.8 -0.7124E+00  0.1380E+02 -0.2720E+01E
 Epicentro: LOS SANTOS - SANTANDER                                             3
 ACTION:UP  12-07-05 12:04 OP:pat  STATUS:               ID:20120513175743 L   I
 2012-05-13-1750-00M.COL___195                                                 6
 STAT SP IPHASW D HRMM SECON CODA AMPLIT PERI AZIMU VELO SNR AR TRES W  DIS CAZ7
 BAR2 SZ EP   1   1758  2.64                             172     0.0 7   20 196 
 BAR2 SZ ES   1   1758 17.86                             172     0.0 7   20 196 
 BAR2 SZ I        1758 18.41        12.2 0.26                            20 196 
 BRR  HZ EP   1   1758  4.50                             151     0.1 7   74 301 
 BRR  HZ I        1758  4.87        13.6 0.09                            74 301 
 BRR  HE ES   1   1758 21.45                             151     0.4 7   74 301 
 PAM  SZ EP   1   1758  5.38                             150    -0.1 7   80  37 
 PAM  SN ES   1   1758 22.45                             150    -0.4 7   80  37 
 RUS  HZ EP   2   1758  6.98                             145     0.4 5   96 177 
 RUS  HN ES   2   1758 25.44                             145     0.6 5   96 177 
 RUS  HZ I        1758 26.62         4.1 0.45                            96 177 
 PTB  HZ EP   1   1758  9.55                             132    -0.6 7  148 260 
 PTB  HN ES   1   1758 30.36                             132    -0.8 7  148 260 
 PTB  HZ I        1758 32.00         3.0 0.27                           148 260 
 ZAR  HZ EP   1   1758 16.38                             122     0.5 6  207 293 
 ZAR  HN ES   1   1758 41.78                             122     0.4 6  207 293 
 ZAR  HZ I        1758 47.25         4.7 0.29                           207 293 
                                                                                
