 2012  313 1354 43.7 L   6.747 -73.446118.9  RSN  4 0.4 1.5LRSN                1
 GAP=157        1.00      12.8    17.7 12.1  0.1767E+03  0.7551E+02  0.5776E+02E
 ACTION:UP  12-03-31 23:19 OP:EP   STATUS:               ID:20120313135443 L   I
 2012-03-13-1350-00M.COL___196                                                 6
 STAT SP IPHASW D HRMM SECON CODA AMPLIT PERI AZIMU VELO SNR AR TRES W  DIS CAZ7
 BAR2 SZ EP       1355  0.40                             164     0.010   34 120 
 BAR2 SZ ES   1   1355 12.70                             164    -0.8 7   34 120 
 BAR2 SZ I        1355 14.76        27.9 0.31                            34 120 
 BRR  HZ EP   1   1355  0.83                             156     0.1 7   50 324 
 BRR  HN ES   1   1355 14.47                             156     0.4 7   50 324 
 RUS  HZ EP   1   1355  5.34                             136     0.2 7  103 157 
 RUS  HE ES   1   1355 22.17                             136     0.4 7  103 157 
 RUS  HZ I        1355 23.54         3.2 0.74                           103 157 
 PTB  HZ EP   2   1355  4.69                             132    -0.7 5  114 258 
 PTB  HZ I        1355 27.47         3.9 0.18                           114 258 
                                                                                
