 2017  813 1319 44.0 L   6.476 -73.269172.7  RSN  4 0.2 1.4LRSN                1
 GAP=140        0.63       7.9     8.8  6.6  0.5787E+02  0.1763E+02  0.1316E+02E
 Epicentro: SOCORRO - SANTANDER                                                3
 ACTION:UPD 17-09-04 20:19 OP:rebc STATUS:               ID:20170813131944 L   I
 OLDACT:UP  17-08-14 04:45 OP:edw  STATUS:               ID:20170813131743     3
 OLDACT:REG 17-08-14 02:41 OP:osc  STATUS:               ID:20170813131743     3
 2017-08-13-1318-00M.COL___410                                                 6
 STAT SP IPHASW D HRMM SECON CODA AMPLIT PERI AZIMU VELO AIN AR TRES W  DIS CAZ7
 BAR2 EZ EP       1320  7.16                             174    0.3410 16.0  37 
 BAR2 EZ ES       1320 24.56                             174   -0.0110 16.0  37 
 BAR2 EZ I        1320 26.55         4.9 0.22            178           16.0  37 
 RUS  HZ EP       1320  8.37                             158   -0.3510 67.7 162 
 RUS  HN ES       1320 28.09                             158    0.1310 67.7 162 
 RUS  HZ I        1320 32.74         3.5 0.22            155           67.7 162 
 BRR  HZ EP   4   1320 10.51                             152    1.61 0 85.3 325 
 BRR  HN ES       1320 28.10                             152   -0.1810 85.3 325 
 ZAR  HE ES       1320 46.03                             127    0.10 8  209 303 
                                                                                
