 2015  413 1151 30.6 L   6.792 -73.143151.1  RSN 13 0.4 1.9LRSN                1
 GAP=137        0.90       3.1     4.4  5.8 -0.2105E+01  0.6632E+01 -0.6394E+00E
 Epicentro: LOS SANTOS - SANTANDER                                             3
 ACTION:UPD 15-06-03 16:54 OP:cam  STATUS:               ID:20150413115130 L   I
 OLDACT:REG 15-04-13 19:26 OP:spq  STATUS:               ID:20150413114748     3
 2015-04-13-1147-48M.COL___266                                                 6
 STAT SP IPHASW D HRMM SECON CODA AMPLIT PERI AZIMU VELO AIN AR TRES W  DIS CAZ7
 BAR2 EZ EP       1151 50.93                             171    0.0510 22.6 191 
 BAR2 EZ ES   1   1152  6.09                             171   -0.59 7 22.6 191 
 BAR2 EZ I        1152  7.57        15.0 0.24            172           22.6 191 
 BRR  HZ EP       1151 52.79                             153    0.4010 71.9 299 
 BRR  HN ES       1152 10.29                             153    0.9210 71.9 299 
 BRR  HZ I        1152 13.91        10.5 0.34            152           71.9 299 
 PAM  SN ES   1   1152 10.87                             152   -0.36 7 77.8  39 
 PAM  SZ I        1152 13.06        15.5 0.52            154           77.8  39 
 RUS  HZ EP   1   1151 55.18                             145    0.34 7 99.7 176 
 RUS  HE ES   1   1152 13.85                             145    0.12 7 99.7 176 
 RUS  HZ I        1152 14.52         5.9 0.22            149           99.7 176 
 PTB  HZ EP       1151 57.84                             133   -0.20 9  148 259 
 PTB  HE ES       1152 19.05                             133   -0.39 9  148 259 
 PTB  HZ I        1152 20.14        11.1 0.20            134            148 259 
 OCA  HN ES       1152 21.69                             131   -0.22 9  161 353 
 OCA  HZ I        1152 26.70        26.9 0.46            132            161 353 
 SPBC HZ EP   1   1151 59.77                             130    0.28 7  163 219 
 SPBC HN ES       1152 21.64                             130   -0.37 9  163 219 
 SPBC HZ I        1152 24.44        12.4 0.30            132            163 219 
 ZAR  HZ EP       1152  3.62                             123    0.14 9  205 292 
 ZAR  HE ES       1152 29.12                             123    0.00 9  205 292 
 ZAR  HZ I        1152 36.04         9.0 0.36            125            205 292 
 NOR  HZ EP       1152  6.90                             120    0.26 8  234 235 
 NOR  HE ES       1152 34.56                             120   -0.18 8  234 235 
 NOR  HZ I        1152 40.22         7.0 0.22            121            234 235 
 SML  HZ EP       1152  7.22                             118   -0.43 8  245 335 
 SML  HN ES   1   1152 36.20                             118   -0.33 6  245 335 
 SML  HZ I        1152 39.06         9.3 0.22            120            245 335 
 GUY2CHZ EP   4   1152 15.93                             113    1.48 0  301 235 
 GUY2CHN ES   4   1152 52.50                             113    3.85 0  301 235 
 GUY2CHZ I        1152 58.21         4.8 0.30                           301 235 
 MON  HE ES   4   1152 57.24                             109   -1.14 0  354 308 
 MON  HZ I        1152 58.37         2.3 0.38            111            354 308 
 SJC  HZ EP   4   1152 24.93                             106   -1.53 0  410 327 
 SJC  HN ES   4   1153  6.63                             106   -3.39 0  410 327 
 SJC  HZ I        1153  9.61         1.6 0.28            108            410 327 
                                                                                
