 2016 1013 1106 16.4 L   6.824 -73.125145.5  RSN 13 0.3 2.1LRSN                1
 GAP=104        0.63       2.3     2.3  3.3 -0.8380E+00  0.6991E+00  0.1414E+01E
 Epicentro: LOS SANTOS - SANTANDER                                             3
 ACTION:UPD 16-11-09 19:19 OP:rebc STATUS:               ID:20161013110616 L   I
 OLDACT:UP  16-10-13 22:59 OP:and  STATUS:               ID:20161013105749d    3
 OLDACT:UP  16-10-13 22:54 OP:and  STATUS:               ID:20161013105749d    3
 OLDACT:DUP 16-10-13 22:51 OP:and  STATUS:               ID:20161013105749d    3
 OLDACT:UP  16-10-13 22:50 OP:and  STATUS:               ID:20161013105748     3
 OLDACT:UP  16-10-13 22:49 OP:and  STATUS:               ID:20161013105748     3
 OLDACT:REG 16-10-13 19:55 OP:and  STATUS:               ID:20161013105748     3
 2016-10-13-1058-00M.COL___366                                                 6
 STAT SP IPHASW D HRMM SECON CODA AMPLIT PERI AZIMU VELO AIN AR TRES W  DIS CAZ7
 BAR2 EZ IP     D 11 6 35.75                             169   -0.3510 26.4 194 
 BAR2 EZ ES       11 6 51.30                             169   -0.1310 26.4 194 
 BAR2 EZ I        11 6 51.79        18.4 0.28            167           26.4 194 
 BRR  HZ EP       11 6 37.50                             152   -0.1010 72.0 296 
 BRR  HE ES       11 6 54.56                             152    0.4510 72.0 296 
 BRR  HZ I        11 6 57.54        19.6 0.18            150           72.0 296 
 PAM  EZ EP     C 11 6 38.59                             152    0.1710 73.9  39 
 PAM  EE ES       11 6 55.52                             152   -0.0510 73.9  39 
 PAM  EZ I        11 6 57.92        29.5 0.32            156           73.9  39 
 RUS  HZ EP       11 6 40.34                             143   -0.0010  103 177 
 RUS  HN ES       11 6 59.05                             143    0.0710  103 177 
 RUS  HZ I        11 7  0.37        13.5 0.34            143            103 177 
 PTB  HZ EP   9   11 6 42.52                             131   -1.11 0  151 258 
 PTB  HN ES       11 7  3.42                             131   -0.31 9  151 258 
 PTB  HZ I        11 7  7.16        12.6 0.15            130            151 258 
 TAM  HZ EP     D 11 6 44.13                             131    0.17 9  154 106 
 SPBC HZ EP       11 6 44.89                             128   -0.35 9  167 219 
 SPBC HE ES       11 7  7.76                             128    0.05 9  167 219 
 SPBC HZ I        11 7 13.12        21.0 0.15            127            167 219 
 ZAR  HZ EP       11 6 49.33                             122    0.35 9  205 291 
 ZAR  HN ES       11 7 13.83                             122   -0.54 9  205 291 
 ZAR  HZ I        11 7 19.48         9.9 0.24            122            205 291 
 NOR  HZ EP       11 6 52.32                             118   -0.19 8  238 234 
 NOR  HN ES       11 7 21.02                             118    0.37 8  238 234 
 NOR  HZ I        11 7 26.05        10.7 0.18            118            238 234 
 CHI  HZ EP   2   11 6 54.10                             117   -0.36 4  252 196 
 CHI  HN ES   2   11 7 24.16                             117    0.04 4  252 196 
 CHI  HZ I        11 7 28.97         6.2 0.26            117            252 196 
 HEL  HN ES   2   11 7 29.06                             114    0.51 4  275 255 
 HEL  HZ I        11 7 35.34         8.7 0.34            114            275 255 
 GUY2CHZ EP   9   11 7  2.20                             112    1.79 0  305 235 
 GUY2CHN ES   2   11 7 36.23                                   -0.27 4  305 235 
 GUY2CHZ I        11 7 43.70         6.8 0.29                           305 235 
 PRA  HZ EP       11 7 10.56                             106    0.21 6  395 210 
 PRA  HE ES       11 7 52.33                             106   -0.06 6  395 210 
 PRA  HZ I        11 7 58.35         8.0 0.24            106            395 210 
                                                                                
