 2016  613 1950 26.6 L   6.781 -73.161145.6  RSN  9 0.5 1.8LRSN                1
 GAP=136        1.09       4.6     4.6  6.7 -0.1591E+01  0.1037E+02  0.3453E+01E
 Epicentro: LOS SANTOS - SANTANDER                                             3
 ACTION:UPD 16-07-21 22:18 OP:rebc STATUS:               ID:20160613195026 L   I
 OLDACT:UP  16-06-14 00:58 OP:mh   STATUS:               ID:20160613194743     3
 OLDACT:UP  16-06-14 00:57 OP:mh   STATUS:               ID:20160613194743     3
 OLDACT:UP  16-06-14 00:57 OP:mh   STATUS:               ID:20160613194743     3
 OLDACT:REG 16-06-13 21:46 OP:dani STATUS:               ID:20160613194743     3
 2016-06-13-1947-43M.COL___325                                                 6
 STAT SP IPHASW D HRMM SECON CODA AMPLIT PERI AZIMU VELO AIN AR TRES W  DIS CAZ7
 BAR2 EZ EP       1950 46.17                             171   -0.0310 21.0 187 
 BAR2 EZ ES       1951  1.20                             171   -0.2510 21.0 187 
 BAR2 EZ I        1951  2.03        18.1 0.22                          21.0 187 
 BRR  HZ EP       1950 48.50                             153    0.7610 70.8 301 
 BRR  HZ I        1951  4.81        15.9 0.47                          70.8 301 
 BRR  HN ES       1951  5.08                             153    0.8810 70.8 301 
 PAM  EZ EP       1950 49.12                             150    0.1310 80.0  40 
 PAM  EN ES       1951  6.02                             150   -0.4010 80.0  40 
 PAM  EZ I        1951  6.54         6.4 0.20                          80.0  40 
 RUS  HZ EP   1   1950 50.33                             144    0.10 7 98.6 175 
 RUS  HN ES       1951  8.57                             144   -0.0610 98.6 175 
 RUS  HZ I        1951  9.97         6.9 0.44                          98.6 175 
 PTB  HZ EP       1950 52.77                             132   -0.63 9  146 260 
 PTB  HN ES       1951 13.74                             132   -0.54 9  146 260 
 PTB  HZ I        1951 20.37         7.7 0.20                           146 260 
 ZAR  HZ EP       1950 58.70                             122   -0.29 9  203 293 
 ZAR  HN ES       1951 23.91                             122   -0.32 9  203 293 
 ZAR  HZ I        1951 30.11         9.1 0.30                           203 293 
 NOR  HZ EP   1   1951  1.77                             119   -0.31 6  232 235 
 NOR  HN ES       1951 29.99                             119    0.26 8  232 235 
 NOR  HZ I        1951 37.15         4.3 0.32                           232 235 
 GUY2CHZ EP   1   1951 10.71                             112    0.76 5  299 235 
 GUY2CHE ES   4   1951 47.41                             112    3.68 0  299 235 
 GUY2CHZ I        1951 52.35         3.4 0.62                           299 235 
 PRA  HZ EP   1   1951 19.72                             107   -0.12 4  389 210 
 PRA  HN ES   1   1952  2.00                             107    0.66 4  389 210 
 PRA  HZ I        1952  8.34         3.6 0.24                           389 210 
                                                                                
