 2015  313 1719 35.4 L   6.821 -73.148149.5  RSN  9 0.4 1.8LRSN                1
 GAP=135        0.75       3.2     4.4  6.5 -0.4255E+01  0.9650E+01  0.2498E+01E
 Epicentro: LOS SANTOS - SANTANDER                                             3
 ACTION:UPD 15-04-30 16:25 OP:nd   STATUS:               ID:20150313171935 L   I
 OLDACT:REG 15-03-13 21:41 OP:y    STATUS:               ID:20150313171743     3
 2015-03-13-1717-43M.COL___269                                                 6
 STAT SP IPHASW D HRMM SECON CODA AMPLIT PERI AZIMU VELO AIN AR TRES W  DIS CAZ7
 BAR2 EZ EP       1719 55.27                             170   -0.2710 25.5 189 
 BAR2 EZ ES   1   1720 11.01                             170   -0.23 7 25.5 189 
 BAR2 EZ I        1720 11.98         8.1 0.28            169           25.5 189 
 PAM  SZ EP       1719 58.19                             152    0.2510 75.8  41 
 PAM  SE ES       1720 15.50                             152   -0.0110 75.8  41 
 PAM  SZ I        1720 17.46         5.3 0.46            154           75.8  41 
 RUS  HZ EP       1719 59.21                             144   -0.4910  103 176 
 RUS  HE ES   1   1720 19.34                             144    0.69 7  103 176 
 RUS  HZ I        1720 21.08         3.6 0.42            146            103 176 
 PTB  HN ES   1   1720 23.63                             133   -0.37 7  148 258 
 PTB  HZ I        1720 29.25         7.7 0.18            131            148 258 
 OCA  HE ES   1   1720 26.24                             131    0.29 7  158 353 
 OCA  HZ I        1720 30.09         7.9 0.50            131            158 353 
 NOR  HZ EP   1   1720 11.27                             119   -0.22 6  236 234 
 NOR  HE ES       1720 39.89                             119    0.27 8  236 234 
 NOR  HZ I        1720 42.98         5.4 0.20            119            236 234 
 SML  HN ES   1   1720 40.64                             118    0.07 6  242 335 
 SML  HZ I        1720 44.94        11.6 0.22            118            242 335 
 GUY2CHZ EP   4   1720 21.21                             113    1.88 0  302 234 
 GUY2CHE ES   4   1720 58.18                             113    4.61 0  302 234 
 GUY2CHZ I        1721  2.09         4.5 0.78                           302 234 
 PRA  HZ EP   1   1720 29.77                             107    0.48 4  394 209 
 PRA  HN ES   1   1721 11.81                             107    0.51 4  394 209 
 PRA  HZ I        1721 19.51         2.6 0.38            107            394 209 
                                                                                
