 2017  613 1645  1.5 L   6.606 -74.007 73.4  RSN  8 0.5 2.2LRSN                1
 GAP=153        1.33       4.6     5.8  9.5 -0.9104E+01  0.1003E+02  0.8748E+01E
 Epicentro: PUERTO PARRA - SANTANDER                                           3
 ACTION:UPD 17-09-14 16:51 OP:jn   STATUS:               ID:20170613164501 L   I
 OLDACT:UP  17-06-14 00:32 OP:ar   STATUS:               ID:20170613163729     3
 OLDACT:REG 17-06-13 21:34 OP:ar   STATUS:               ID:20170613163729     3
 2017-06-13-1638-00M.COL___368                                                 6
 STAT SP IPHASW D HRMM SECON CODA AMPLIT PERI AZIMU VELO AIN AR TRES W  DIS CAZ7
 PTB  HZ IP     D 1645 12.96                             142   -0.7910 50.2 262 
 PTB  HE ES       1645 23.09                             142   -0.2510 50.2 262 
 PTB  HZ I        1645 23.37        94.4 0.10            137           50.2 262 
 BRR  HZ EP       1645 14.47                             135   -0.4110 64.3  30 
 BRR  HN ES       1645 26.18                             135    0.8210 64.3  30 
 BRR  HZ I        1645 26.75       140.2 0.14            134           64.3  30 
 SPBC HZ EP       1645 18.51                             119   -0.6110  106 184 
 SPBC HN ES       1645 32.87                             119   -0.0310  106 184 
 SPBC HZ I        1645 35.12        50.8 0.14            117            106 184 
 ZAR  HZ EP       1645 22.43                             112    0.06 9  136 316 
 ZAR  HE ES   4   1645 40.82                             112    2.13 0  136 316 
 ZAR  HZ I        1645 41.98        26.1 0.48            110            136 316 
 NOR  HZ EP       1645 23.91                             110   -0.11 9  150 220 
 NOR  HE ES       1645 42.56                             110    0.94 9  150 220 
 NOR  HZ I        1645 44.20        20.1 0.24            108            150 220 
 HEL  HZ EP       1645 27.13                             107   -0.20 9  175 255 
 HEL  HN ES       1645 47.61                             107    0.11 9  175 255 
 HEL  HZ I        1645 51.77        13.0 0.20            105            175 255 
 CBOC HZ EP   2   1645 34.96                             102    0.44 4  237 250 
 ELA  HZ EP       1645 37.03                             101    0.80 8  247 219 
 ELA  HE ES   4   1646  6.84                             101    3.49 0  247 219 
 ELA  HZ I        1646 12.25         9.6 0.52            100            247 219 
                                                                                
