 2016  513 1037 30.9 L   6.761 -73.116150.0  RSN  7 0.4 1.5LRSN                1
 GAP=238        0.82       4.2     5.0  6.3  0.5226E+01  0.9033E+01  0.7056E+00E
 Epicentro: LOS SANTOS - SANTANDER                                             3
 OLDACT:UP  16-05-13 22:00 OP:ak   STATUS:               ID:20160513102742     3
 OLDACT:REG 16-05-13 20:18 OP:ak   STATUS:               ID:20160513102742     3
 ACTION:UPD 16-08-18 17:45 OP:cam  STATUS:               ID:20160513103730 L   I
 OLDACT:DUP 16-05-13 22:01 OP:akak STATUS:               ID:20160513102743d    3
 OLDACT:UP  16-05-13 22:01 OP:akak STATUS:               ID:20160513102742     3
 2016-05-13-1027-42M.COL___302                                                 6
 STAT SP IPHASW D HRMM SECON CODA AMPLIT PERI AZIMU VELO AIN AR TRES W  DIS CAZ7
 BAR2 EZ EP       1037 51.15                             172    0.2010 20.0 201 
 BAR2 EZ ES       1038  6.53                             172   -0.0810 20.0 201 
 BAR2 EZ I        1038  7.32         5.8 0.18            172           20.0 201 
 BRR  HZ EP       1037 53.36                             152    0.6010 76.2 300 
 BRR  HN ES       1038  9.98                             152    0.1510 76.2 300 
 RUS  HZ EP       1037 54.32                             146   -0.4010 96.1 178 
 RUS  HN ES       1038 13.26                             146   -0.0710 96.1 178 
 RUS  HZ I        1038 14.95         2.2 0.26            141           96.1 178 
 PTB  HZ EP       1037 58.16                             133   -0.24 9  150 261 
 PTB  HZ I        1038 16.93         2.9 0.06            126            150 261 
 PTB  HN ES   4   1038 18.33                             133   -1.55 0  150 261 
 SPBC HE ES       1038 21.94                             130   -0.03 9  162 221 
 ZAR  HZ EP   2   1038  3.44                             123   -0.63 4  209 293 
 ZAR  HE ES       1038 29.47                             123   -0.50 8  209 293 
 ZAR  HZ I        1038 35.15         4.5 0.30            116            209 293 
 NOR  HZ EP   2   1038  7.72                             119    0.85 4  235 236 
 NOR  HE ES       1038 35.20                             119    0.26 8  235 236 
 NOR  HZ I        1038 36.60         2.8 0.36            113            235 236 
                                                                                
