 2010  313 1011 21.1 L   7.432 -73.107123.7  RSN  7 0.6 1.9LRSN                1
 GAP=194        0.93       7.5    10.5  9.2  0.1865E+02 -0.2882E+02 -0.1708E+02E
 Epicentro: EL PLAYON - SANTANDER                                              3
 ACTION:UP  10-08-24 09:53 OP:vdl  STATUS:               ID:20100313101121 L   I
 2010-03-13-1010-41S.COL___095                                                 6
 STAT SP IPHASW D HRMM SECON CODA AMPLIT PERI AZIMU VELO SNR AR TRES W  DIS CAZ7
 BRR  HZ EP       1011 40.09                             148    -0.210   76 242 
 BRR  HZ I        1011 40.57        21.3 0.16                            76 242 
 BRR  HN ES       1011 55.25                             148     0.110   76 242 
 OCA  SZ EP   1   1011 42.10                             141     0.4 7   92 345 
 OCA  SZ I        1012  0.59        18.3 0.12                            92 345 
 BAR2 SZ EP       1011 41.91                             142     0.010   93 185 
 BAR2 SZ ES   1   1011 58.10                             142     0.1 7   93 185 
 RUS  HZ EP   1   1011 48.96                             123    -0.3 7  170 179 
 RUS  HE ES   3   1012 10.61                             123    -0.6 2  170 179 
 DBB  SZ EP   1   1012  7.25                             105    -1.3 5  346 263 
 RREF BZ EP   1   1012 13.74                             104     1.2 5  374 222 
 RREF BE ES   3   1012 53.99                             104     1.3 2  374 222 
 RREF BZ I        1013  2.21         2.4 0.41                           374 222 
 PRA  HN ES   3   1013  9.02                             100     0.2 1  456 206 
 PRA  HZ I        1013 15.55         1.3 0.34                           456 206 
                                                                                
