 2010  813 1321 13.3 L   6.746 -73.051141.1  RSN  5 0.1 1.7LRSN                1
 GAP=170        0.42       4.8     7.1  8.3  0.1255E+02 -0.3997E+02 -0.2608E+02E
 Epicentro: ARATOCA - SANTANDER                                                3
 ACTION:UP  10-09-07 10:54 OP:vdl  STATUS:               ID:20100813132113 L   I
 2010-08-13-1318-10S.COL___126                                                 6
 STAT SP IPHASW D HRMM SECON CODA AMPLIT PERI AZIMU VELO SNR AR TRES W  DIS CAZ7
 BAR2 SZ EP   1   1321 32.39                             171     0.0 8   22 221 
 BAR2 SZ ES   2   1321 47.04                             171    -0.2 5   22 221 
 BAR2 SZ I        1321 49.86         9.4 0.19                            22 221 
 BRR  HZ EP   1   1321 34.59                             148    -0.1 8   83 299 
 BRR  HE ES   1   1321 51.47                             148     0.1 8   83 299 
 BRR  HZ I        1321 52.81        16.3 0.09                            83 299 
 RUS  HN ES   2   1321 54.06                             145     0.1 5   94 182 
 RUS  HZ I        1321 56.20         4.2 0.52                            94 182 
 GUE  SZ EP       1321 37.80                             137    -0.110  121   7 
 GRA  SZ EP       1321 38.59                             135     0.210  129  12 
 GRA  SZ I        1321 40.04        11.3 0.22                           129  12 
                                                                                
