 2010  613 1324 20.7 L   6.757 -73.199147.1  RSN  6 0.4 1.8LRSN                1
 GAP=161        0.77       4.7    21.3  9.8 -0.5447E+02  0.8259E+02 -0.8287E+01E
 Epicentro: VILLANUEVA - SANTANDER                                             3
 ACTION:UP  10-08-24 10:10 OP:vdl  STATUS:               ID:20100613132420 L   I
 2010-06-13-1319-56S.COL___114                                                 6
 STAT SP IPHASW D HRMM SECON CODA AMPLIT PERI AZIMU VELO SNR AR TRES W  DIS CAZ7
 BAR2 SZ EP   1   1324 40.22                             172    -0.2 7   18 175 
 BAR2 SZ ES   2   1324 55.41                             172    -0.4 5   18 175 
 RUS  HZ EP   1   1324 44.02                             145    -0.3 7   96 172 
 RUS  HE ES   2   1325  2.66                             145     0.0 5   96 172 
 RUS  HZ I        1325  4.21        15.5 0.55                            96 172 
 BRI  SZ EP   1   1324 45.81                             140     0.6 7  115  23 
 BRI  SZ ES   2   1325  4.96                             140     0.6 5  115  23 
 GUE  SZ EP   1   1324 45.51                             138    -0.5 7  122  14 
 GUE  SZ ES   2   1325  5.75                             138     0.0 5  122  14 
 OCA  SZ EP   1   1324 49.14                             129    -0.4 7  164 355 
 OCA  SZ ES   2   1325 12.47                             129     0.5 5  164 355 
 OCA  SZ I        1325 21.10         6.3 0.19                           164 355 
 CHI  HZ EP   1   1324 58.18                             118     0.4 6  243 194 
 CHI  HE ES   2   1325 27.55                             118     0.8 4  243 194 
 CHI  HZ I        1325 30.54         3.7 0.29                           243 194 
                                                                                
