 2011  213 1055 13.3 L   7.016 -72.950  4.0  RSN  6 0.5 1.3LRSN                1
 GAP=177        1.13       2.8     5.8  8.4 -0.5761E+01  0.3689E+01 -0.1546E+01E
 Epicentro: SANTA BARBARA - SANTANDER                                          3
 ACTION:UP  11-03-28 15:08 OP:jfem STATUS:               ID:20110213105513 L   I
 2011-02-13-1052-12S.COL___136                                                 6
 STAT SP IPHASW D HRMM SECON CODA AMPLIT PERI AZIMU VELO SNR AR TRES W  DIS CAZ7
 GIR2 SZ EP   1   1055 18.16                              47    -0.1 7   28 285 
 BTL  SZ IP       1055 19.80                              47     0.110   37 253 
 BTL  SZ ES   1   1055 24.21                              47    -0.5 7   37 253 
 BAR2 SZ EP   1   1055 22.50                              47     0.3 7   54 209 
 BAR2 SZ ES   1   1055 29.12                              47    -0.1 7   54 209 
 BAR2 SZ I        1055 29.97         9.7 0.01                            54 209 
 GRA  SZ EP   1   1055 28.50                              47    -0.3 7   97  10 
 GRA  SZ ES   1   1055 40.28                              47    -0.6 7   97  10 
 GRA  SZ I        1055 42.38         5.5 0.30                            97  10 
 RUS  HZ EP   1   1055 34.17                              47     0.9 7  125 187 
 RUS  HZ I        1055 35.11        19.4 0.71                           125 187 
 RUS  HN ES   1   1055 48.42                              47    -0.5 7  125 187 
 OCA  SZ ES   1   1055 53.48                              47     0.8 7  141 343 
 OCA  SZ I        1055 55.58         4.2 0.37                           141 343 
                                                                                
