 2016 1113 1436 35.7 L   6.806 -73.156142.0  RSN 15 0.4 2.6LRSN                1
 GAP=102        1.01       4.0     3.1  5.8 -0.7271E+00  0.5027E+01  0.8459E+01E
 Epicentro: LOS SANTOS - SANTANDER                                             3
 ACTION:UPD 17-10-26 21:07 OP:lp   STATUS:               ID:20161113143635 L   I
 OLDACT:UP  16-11-14 00:32 OP:dnl  STATUS:               ID:20161113142744     3
 OLDACT:REG 16-11-13 20:47 OP:dnl  STATUS:               ID:20161113142744     3
 2016-11-13-1428-00M.COL___343                                                 6
 STAT SP IPHASW D HRMM SECON CODA AMPLIT PERI AZIMU VELO AIN AR TRES W  DIS CAZ7
 BAR2 EZ IP     C 1436 54.74                             170   -0.1710 23.9 187 
 BAR2 EZ ES       1437  9.39                             170   -0.4810 23.9 187 
 BAR2 EZ I        1437 14.11        61.3 0.30            165           23.9 187 
 BRR  HZ IP     C 1436 56.53                             152    0.1410 69.9 298 
 BRR  HE ES       1437 13.53                             152    1.0210 69.9 298 
 BRR  HZ I        1437 14.44        59.5 0.14            151           69.9 298 
 PAM  EZ IP     C 1436 57.46                             150   -0.0810 77.5  40 
 PAM  EN ES       1437 14.43                             150   -0.1410 77.5  40 
 PAM  EZ I        1437 15.28        74.8 0.20            159           77.5  40 
 PTB  HZ EP       1437  1.62                             131   -0.68 9  147 258 
 PTB  HN ES       1437 22.36                             131   -0.66 9  147 258 
 PTB  HZ I        1437 29.96        57.9 0.30            131            147 258 
 TAM  HZ EP   2   1437  3.07                             129   -0.15 5  156 105 
 TAM  HE ES       1437 24.89                             129    0.22 9  156 105 
 TAM  HZ I        1437 25.42        49.7 0.28            135            156 105 
 ZAR  HZ EP       1437  7.96                             122    0.17 9  203 292 
 ZAR  HE ES       1437 32.76                             122   -0.04 9  203 292 
 ZAR  HZ I        1437 38.55        80.4 0.58            123            203 292 
 NOR  HZ EP       1437 10.93                             118   -0.25 8  234 234 
 NOR  HE ES       1437 39.00                             118    0.16 8  234 234 
 NOR  HZ I        1437 44.85        38.6 0.18            119            234 234 
 CHI  HZ EP       1437 13.34                             116    0.08 8  249 195 
 CHI  HN ES       1437 42.40                             116   -0.13 8  249 195 
 CHI  HZ I        1437 47.63        19.0 0.26            118            249 195 
 ROSC BZ EP   4   1437 15.10                             116    1.46 0  253 211 
 ROSC BN ES       1437 44.01                             116    0.79 8  253 211 
 ROSC BZ I        1437 49.43        49.7 0.45            117            253 211 
 URE  HZ EP   4   1437 15.52                             113   -0.94 0  283 292 
 URE  HE ES   4   1437 45.42                             113   -2.82 0  283 292 
 URE  HZ I        1437 57.62        38.8 0.22            115            283 292 
 LL6C HZ EP   9   1437  0.81                             110   -20.4 0  324 358 
 LL6C HE ES   4   1437 33.01                             110   -3.25 0  324 358 
 LL6C HZ I        1437 49.49         5.4 0.30            113            324 358 
 CBOC HZ EP       1437 22.79                             109    0.41 7  333 252 
 CBOC HN ES       1437 58.54                             109   -0.24 7  333 252 
 CBOC HZ I        1438  9.83         8.9 0.40            111            333 252 
 ANIL HZ EP       1437 25.73                             108    0.38 6  357 224 
 ANIL HE ES   4   1438  6.70                             108    2.64 0  357 224 
 ORTC HZ EP       1437 29.48                             106   -0.02 6  395 216 
 ORTC HE ES   4   1438 13.98                             106    2.52 0  395 216 
 ORTC HZ I        1438 19.10        16.3 0.28            107            395 216 
 SJC  HZ EP   4   1437 28.94                             105   -2.08 0  408 327 
 SJC  HN ES   4   1438  9.49                             105   -4.66 0  408 327 
 SJC  HZ I        1438 16.07         4.9 0.38            107            408 327 
                                                                                
