 2016  913 1649 42.1 L   6.843 -73.153147.4  RSN 10 0.5 2.2LRSN                1
 GAP=133        1.13       4.2     5.1  7.1 -0.1946E+01  0.1395E+02 -0.2042E+01E
 Epicentro: LOS SANTOS - SANTANDER                                             3
 ACTION:UPD 17-08-17 21:09 OP:lp   STATUS:               ID:20160913164942 L   I
 OLDACT:REG 16-09-13 21:25 OP:dnl  STATUS:               ID:20160913164734     3
 2016-09-13-1648-00M.COL___318                                                 6
 STAT SP IPHASW D HRMM SECON CODA AMPLIT PERI AZIMU VELO AIN AR TRES W  DIS CAZ7
 BAR2 EZ EP       1650  1.95                             169   -0.0710 27.9 187 
 BAR2 EZ ES       1650 17.35                             169   -0.2210 27.9 187 
 BAR2 EZ I        1650 19.92        39.3 0.34            168           27.9 187 
 PAM  EZ EP       1650  4.79                             152    0.4810 74.3  42 
 PAM  EN ES       1650 22.04                             152    0.4110 74.3  42 
 PAM  EZ I        1650 24.15        21.5 0.46            158           74.3  42 
 RUS  HZ EP       1650  5.80                             143   -0.5610  105 176 
 RUS  HE ES       1650 24.88                             143   -0.4110  105 176 
 RUS  HZ I        1650 26.01        12.8 0.40            145            105 176 
 PTB  HZ EP       1650  8.96                             132   -0.25 9  148 257 
 PTB  HN ES       1650 29.84                             132   -0.53 9  148 257 
 PTB  HZ I        1650 35.93        24.5 0.54            132            148 257 
 SPBC HZ EP       1650 10.92                             129   -0.11 9  166 218 
 SPBC HN ES       1650 33.59                             129   -0.00 9  166 218 
 SPBC HZ I        1650 40.92        31.6 0.24            130            166 218 
 ZAR  HZ EP       1650 14.48                             123    0.09 9  202 291 
 ZAR  HE ES       1650 40.17                             123    0.59 9  202 291 
 ZAR  HZ I        1650 46.37        21.6 0.30            124            202 291 
 CHI  HZ EP   2   1650 19.76                             117   -0.60 4  253 195 
 CHI  HE ES       1650 51.25                             117    1.04 8  253 195 
 CHI  HZ I        1650 55.41         5.4 0.40            119            253 195 
 URE  HZ EP   2   1650 22.55                             114   -0.41 4  281 291 
 URE  HE ES   4   1650 53.39                             114   -1.45 0  281 291 
 URE  HZ I        1650 57.83         7.6 0.38            115            281 291 
 GUY2CHZ EP       1650 26.90                             112    0.88 7  303 234 
 GUY2CHN ES   4   1651  1.69                             112    1.41 0  303 234 
 GUY2CHZ I        1651  8.67        12.3 0.28                           303 234 
 SJC  HZ EP       1650 36.22                             106   -0.97 6  405 327 
 SJC  HN ES   4   1651 17.32                             106   -2.84 0  405 327 
 SJC  HZ I        1651 22.53         2.6 0.42            108            405 327 
                                                                                
