 2012  713 1436 34.3 L   6.699 -73.144143.7  RSN  6 0.4 1.5LRSN                1
 GAP=141        1.06       8.0     6.9  9.8  0.1043E+02 -0.1892E+01  0.1250E+02E
 Epicentro: VILLANUEVA - SANTANDER                                             3
 ACTION:UPD 12-08-14 11:44 OP:ep   STATUS:               ID:20120713143634 L   I
 2012-07-13-1430-00M.COL___197                                                 6
 STAT SP IPHASW D HRMM SECON CODA AMPLIT PERI AZIMU VELO AIN AR TRES W  DIS CAZ7
 BAR2 SZ EP       1436 53.73                             175     0.210   13 200 
 BAR2 SZ ES   1   1437  7.79                             175    -0.7 7   13 200 
 BAR2 SZ I        1437  9.84         6.6 0.16            172             13 200 
 BRR  HZ EP       1436 55.44                             150    -0.210   77 306 
 BRR  HZ I        1437 12.26        16.0 0.32            143             77 306 
 BRR  HN ES       1437 12.87                             150     0.610   77 306 
 PAM  SZ EP   1   1436 56.75                             148    -0.1 7   86  35 
 PAM  SE ES   2   1437 14.04                             148    -0.4 5   86  35 
 RUS  HZ EP       1436 57.47                             147     0.410   89 176 
 RUS  HN ES   2   1437 15.04                             147     0.2 5   89 176 
 RUS  HZ I        1437 17.53         4.7 0.43            144             89 176 
 PTB  HZ EP   1   1437  0.57                             132    -0.4 7  146 263 
 PTB  HN ES   1   1437 21.38                             132    -0.4 7  146 263 
 PTB  HZ I        1437 27.49         2.4 0.14            125            146 263 
 ZAR  HN ES   2   1437 32.62                             121    -0.1 4  209 295 
 ZAR  HZ I        1437 37.90         3.7 0.34            116            209 295 
