 2011 1213 1031 38.7 L   5.928 -73.768111.5  RSN  7 0.2 1.6LRSN                1
 GAP= 85        0.42       2.2     2.4  6.1 -0.4298E+00  0.1935E+01  0.3073E+01E
 Epicentro: GUAVATA - SANTANDER                                                3
 ACTION:UPD 12-07-13 16:15 OP:ep   STATUS:               ID:20111213103138 L   I
 2011-12-13-1030-00M.COL___184                                                 6
 STAT SP IPHASW D HRMM SECON CODA AMPLIT PERI AZIMU VELO AIN AR TRES W  DIS CAZ7
 RUS  HZ EP   1   1031 57.42                             143    0.15 7 76.0  93 
 RUS  HN ES   2   1032 11.53                             143   -0.26 5 76.0  93 
 RUS  HZ I        1032 13.40         5.1 0.21                          76.0  93 
 BAR2 SZ EP       1031 58.92                             135    0.2610 98.0  41 
 BAR2 SZ ES   1   1032 14.26                             135    0.00 7 98.0  41 
 BAR2 SZ I        1032 15.89        19.6 0.48                          98.0  41 
 PTB  HZ EP   2   1031 58.37                             134   -0.32 5  102 312 
 PTB  HN ES   2   1032 14.44                             134    0.13 5  102 312 
 NOR  SN ES   2   1032 18.67                             127   -0.11 5  128 252 
 BRR  HZ EP   1   1032  1.27                             126   -0.07 7  131   3 
 BRR  HN ES   1   1032 18.80                             126   -0.23 7  131   3 
 BRR  HZ I        1032 22.49        14.0 0.30                           131   3 
 CHI  HZ EP   1   1032  2.88                             124   -0.30 7  144 178 
 CHI  HZ I        1032  4.44         2.4 0.16                           144 178 
 CHI  HN ES   2   1032 22.51                             124    0.20 5  144 178 
 HEL  HN ES   2   1032 32.63                             115    0.29 4  197 279 
 HEL  HZ I        1032 46.72         2.9 0.43                           197 279 
                                                                                
