 2012  813 1327 48.7 L   7.324 -74.145 70.7  RSN  8 0.3 1.9LRSN                1
 GAP=162        0.73       4.0     2.3  6.2  0.4006E+01  0.1364E+00 -0.9883E+00E
 Epicentro: PUERTO WILCHES - SANTANDER                                         3
 ACTION:UPD 12-09-10 11:56 OP:ep   STATUS:               ID:20120813132748 L   I
 2012-08-13-1320-00M.COL___217                                                 6
 STAT SP IPHASW D HRMM SECON CODA AMPLIT PERI AZIMU VELO AIN AR TRES W  DIS CAZ7
 BRR  HZ EP       1328  0.87                             139   -0.0510 53.5 117 
 BRR  HE ES       1328 10.63                             139    0.1410 53.5 117 
 BRR  HZ I        1328 14.67        32.9 0.14                          53.5 117 
 ZAR  HZ EP       1328  3.26                             126   -0.1910 80.9 283 
 ZAR  HN ES   1   1328 15.01                             126    0.03 7 80.9 283 
 ZAR  HZ I        1328 17.96        32.1 0.29                          80.9 283 
 PTB  HZ EP       1328  5.27                             121    0.5410 93.3 202 
 PTB  HN ES   1   1328 17.09                             121   -0.18 7 93.3 202 
 PTB  HZ I        1328 22.62         8.9 0.24                          93.3 202 
 GIR2 SZ EP       1328  6.82                             117    0.2810  109 104 
 BAR2 SZ EP       1328  9.78                             112    0.2910  134 127 
 BAR2 SZ ES   1   1328 24.91                             112   -0.82 7  134 127 
 BAR2 SZ I        1328 27.86        54.0 0.48                           134 127 
 URE  HZ EP   1   1328 12.00                             107   -0.31 7  160 287 
 URE  HN ES   1   1328 30.53                             107   -0.23 7  160 287 
 URE  HZ I        1328 35.50        22.8 0.21                           160 287 
 PAM  SN ES   1   1328 31.47                             108   -0.20 7  160  89 
 RUS  HZ EP   1   1328 17.16                             104   -0.12 6  197 143 
 RUS  HN ES   1   1328 39.41                             104   -0.19 6  197 143 
 RUS  HZ I        1328 43.39         6.0 0.15                           197 143 
                                                                                
