 2013  713 1003 21.2 L   6.248 -73.762 93.7  RSN  5 0.4 1.3LRSN                1
 GAP=175        0.91       4.8     3.9  8.5  0.9524E+01  0.1305E+02  0.4444E+01E
 Epicentro: LANDAZURI - SANTANDER                                              3
 ACTION:UPD 13-08-12 10:37 OP:ep   STATUS:               ID:20130713100321 L   I
 OLDACT:DUP 13-07-13 17:09 OP:stll STATUS:               ID:20130713095851d    3
 2013-07-13-0958-48M.COL___225                                                 6
 STAT SP IPHASW D HRMM SECON CODA AMPLIT PERI AZIMU VELO AIN AR TRES W  DIS CAZ7
 BAR2 SZ ES       10 3 50.34                             139   -0.1510 74.5  59 
 BAR2 SZ I        10 3 51.66         6.6 0.18            140           74.5  59 
 PTB  HZ EP       10 3 37.79                             135   -0.3110 83.3 293 
 PTB  HN ES       10 3 51.03                             135   -0.2310 83.3 293 
 PTB  HN I        10 3 51.72         4.2 0.26            136           83.3 293 
 RUS  HZ EP       10 3 38.75                             135   -0.1310 84.8 118 
 RUS  HN ES       10 3 53.15                             135    0.4910 84.8 118 
 BRR  HZ EP       10 3 38.87                             131   -0.2810 95.1   3 
 BRR  HN ES       10 3 53.05                             131   -0.0710 95.1   3 
 ZAR  HZ EP       10 3 48.58                             112    0.07 9  183 319 
 ZAR  HE ES       10 4 10.60                             112    0.81 9  183 319 
                                                                                
