 2014  213 1910 13.4 L   6.428 -73.584 40.0  RSN  5 0.5 1.4LRSN                1
 GAP=168        1.13       7.6     6.6 12.0 -0.5729E+01 -0.9864E+01  0.2605E+02E
 Epicentro: SANTA HELENA DEL OPON - SANTANDER                                  3
 ACTION:UPD 14-03-10 08:10 OP:ep   STATUS:               ID:20140213191013 L   I
 OLDACT:REG 14-02-13 15:23 OP:fm   STATUS:               ID:20140213190751     3
 2014-02-13-1907-51M.COL___202                                                 6
 STAT SP IPHASW D HRMM SECON CODA AMPLIT PERI AZIMU VELO AIN AR TRES W  DIS CAZ7
 BAR2 SZ EP   1   1910 27.99                             151    0.12 7 48.0  68 
 BRR  HZ EP   1   1910 28.78                             137   -0.84 7 76.4 349 
 BRR  HN ES   1   1910 42.61                             137    0.33 7 76.4 349 
 PTB  HZ EP   1   1910 30.89                             130   -0.64 7 97.2 277 
 PTB  HN ES       1910 45.31                             130   -0.3610 97.2 277 
 PTB  HN ISg  1   1910 45.31                             130   -0.36 7 97.2 277 
 PTB  HZ I        1910 47.33         8.6 0.27            125           97.2 277 
 NOR  HZ EP       1910 40.26                             114    0.75 9  171 236 
 NOR  HE ES   4   1911  2.10                             114    2.23 0  171 236 
 NOR  HZ I        1911  6.28         3.0 0.11            110            171 236 
 ZAR  HZ EP       1910 40.96                             112    0.12 9  183 310 
 ZAR  HE ES       1911  2.81                             112    0.57 9  183 310 
 ZAR  HZ I        1911  4.59         6.1 0.19            110            183 310 
 SML  HZ EP   4   1910 47.65                             105   -3.20 0  268 348 
 SML  HN ES   4   1911 16.22                             105   -3.83 0  268 348 
                                                                                
