 2011  813 1859 59.3 L   6.813 -73.036138.1  RSN  4 0.2 1.7LRSN                1
 GAP=194        0.44       4.2     8.7  5.7  0.2477E+02 -0.3035E+02 -0.1394E+02E
 Epicentro: CEPITA - SANTANDER                                                 3
 ACTION:UPD 12-07-13 15:51 OP:ep   STATUS:               ID:20110813185959 L   I
 2011-08-13-1857-10S.COL___150                                                 6
 STAT SP IPHASW D HRMM SECON CODA AMPLIT PERI AZIMU VELO AIN AR TRES W  DIS CAZ7
 BAR2 SZ EP       19 0 18.05                             168   -0.1010 29.3 214 
 BAR2 SZ ES   1   19 0 32.69                             168   -0.16 7 29.3 214 
 BAR2 SZ I        19 0 35.64        10.3 0.32                          29.3 214 
 BRR  HZ EP       19 0 20.08                             148   -0.1810 81.5 294 
 BRR  HZ I        19 0 36.18        20.0 0.50                          81.5 294 
 BRR  HN ES   1   19 0 36.77                             148    0.16 7 81.5 294 
 RUS  HZ EP       19 0 22.46                             142    0.0610  102 183 
 RUS  HE ES   2   19 0 40.77                             142    0.35 5  102 183 
 RUS  HZ I        19 0 42.57         5.1 0.26                           102 183 
 OCA  SZ EP       19 0 27.23                             128    0.16 9  161 349 
 OCA  SZ I        19 1  0.54         7.7 0.50                           161 349 
                                                                                
