 2012  713 1244 12.6 L   6.801 -73.176150.2  RSN  6 0.3 1.4LRSN                1
 GAP=133        0.66       4.6     3.8  7.4  0.2340E+00  0.1445E+01  0.2676E+01E
 Epicentro: LOS SANTOS - SANTANDER                                             3
 ACTION:UPD 12-08-14 11:44 OP:ep   STATUS:               ID:20120713124412 L   I
 2012-07-13-1240-00M.COL___197                                                 6
 STAT SP IPHASW D HRMM SECON CODA AMPLIT PERI AZIMU VELO AIN AR TRES W  DIS CAZ7
 BAR2 SZ EP   1   1244 32.65                             171    -0.1 7   23 182 
 BAR2 SZ I        1244 49.01         3.4 0.33            166             23 182 
 BRR  HZ EP   2   1244 33.62                             154    -0.5 5   68 300 
 BRR  HZ I        1244 34.35        12.4 0.36            152             68 300 
 BRR  HN ES   1   1244 51.38                             154     0.5 7   68 300 
 PAM  SZ EP       1244 35.60                             151     0.210   79  41 
 PAM  SE ES   1   1244 52.92                             151    -0.3 7   79  41 
 RUS  HZ EP   1   1244 37.05                             145     0.2 7  101 174 
 RUS  HE ES   1   1244 55.53                             145    -0.2 7  101 174 
 PTB  HZ EP   1   1244 39.73                             134     0.1 7  145 259 
 PTB  HE ES   1   1245  0.76                             134     0.0 7  145 259 
 PTB  HZ I        1245  6.95         1.7 0.14            130            145 259 
 ZAR  HN ES   1   1245 10.01                             124    -0.3 6  201 292 
 ZAR  HZ I        1245 15.75         1.5 0.21            121            201 292 
