 2011  213 1556 43.4 L   6.792 -73.118145.3  RSN 17 0.4 3.0LRSN                1
 GAP=104        0.83       2.6     4.0  4.6 -0.2687E+01  0.4236E+01  0.1466E+01E
 Epicentro: LOS SANTOS - SANTANDER                                             3
 ACTION:UP  11-03-28 15:08 OP:jfem STATUS:               ID:20110213155643 L   I
 2011-02-13-1555-08S.COL___136                                                 6
 STAT SP IPHASW D HRMM SECON CODA AMPLIT PERI AZIMU VELO SNR AR TRES W  DIS CAZ7
 BTL  SZ IP       1557  3.18                             171     0.310   22 310 
 BTL  SZ ES   1   1557 18.75                             171     0.6 7   22 310 
 BAR2 SZ IP       1557  3.03                             171     0.110   23 198 
 BAR2 SZ ES   1   1557 17.73                             171    -0.5 7   23 198 
 BAR2 SZ I        1557 19.89       236.6 0.29                            23 198 
 GIR2 SZ EP       1557  3.19                             167     0.210   33 345 
 GIR2 SZ ES   1   1557 18.22                             167    -0.1 7   33 345 
 RUS  HZ IP     D 1557  6.85                             144    -0.110  100 178 
 RUS  HN ES   1   1557 25.43                             144     0.0 7  100 178 
 RUS  HZ I        1557 27.33        55.1 0.19                           100 178 
 GUE  SZ EP   1   1557  8.14                             139     0.1 7  117  11 
 GRA  SZ IP       1557  8.85                             137     0.310  126  16 
 GRA  SZ ES   1   1557 28.26                             137     0.0 7  126  16 
 GRA  SZ I        1557 30.14       212.4 0.26                           126  16 
 OCA  SZ EP       1557 11.48                             129    -0.3 9  162 352 
 OCA  SZ ES   1   1557 33.76                             129    -0.1 7  162 352 
 OCA  SZ I        1557 37.01       157.6 0.24                           162 352 
 YOP  SZ EP       1557 13.42                             126     0.2 9  177 154 
 YOP  SN ES   1   1557 36.10                             126    -0.3 7  177 154 
 YOP  SZ I        1557 40.91        55.4 0.34                           177 154 
 NOR  SZ EP       1557 18.71                             118    -0.6 8  237 235 
 NOR  SE ES   1   1557 46.99                             118    -0.3 6  237 235 
 CHI  HZ EP   1   1557 20.93                             117    -0.1 6  249 196 
 CHI  HE ES   1   1557 50.04                             117    -0.4 6  249 196 
 CHI  HZ I        1557 53.94        59.4 0.57                           249 196 
 ROSC BZ EP   1   1557 22.49                             116     0.9 6  254 212 
 ROSC BZ I        1557 59.01       118.8 0.47                           254 212 
 HEL  HZ EP   1   1557 24.10                             114     0.2 6  275 256 
 HEL  HN ES   1   1557 54.79                             114    -0.7 6  275 256 
 HEL  HZ I        1558  1.72        68.7 0.33                           275 256 
 VIL  SE ES   2   1557 59.90                             112    -0.3 4  301 190 
 VIL  SZ I        1558  4.73        50.4 0.28                           301 190 
 RREF HZ EP   1   1557 29.99                             111     0.3 5  324 230 
 RREF HN ES   1   1558  6.19                             111     0.4 5  324 230 
 DBB  SZ EP   1   1557 30.94                             109    -0.2 5  343 274 
 TOL  SZ EP   1   1557 32.44                             109     0.7 5  345 225 
 TOL  SZ ES   1   1558  9.76                             109     0.2 5  345 225 
 SDV  BZ EP   1   1557 32.14                             108    -1.0 5  359  50 
 SDV  BZ I        1558 14.89        13.4 0.35                           359  50 
                                                                                
