 2011  113 1334 22.0 L   6.773 -73.353137.2  RSN  4 0.2 1.9LRSN                1
 GAP=223        0.69       5.1    18.5  7.3 -0.4078E+02  0.2093E+02 -0.1478E+02E
 Epicentro: ZAPATOCA - SANTANDER                                               3
 ACTION:UP  11-02-08 08:40 OP:pat  STATUS:               ID:20110113133422 L   I
 2011-01-13-1330-28S.COL___136                                                 6
 STAT SP IPHASW D HRMM SECON CODA AMPLIT PERI AZIMU VELO SNR AR TRES W  DIS CAZ7
 BTL  SZ EP       1334 40.12                             172    -0.410   19  31 
 BTL  SZ ES   1   1334 55.09                             172     0.1 7   19  31 
 BAR2 SZ EP       1334 40.93                             168     0.210   27 137 
 BAR2 SZ ES   1   1334 55.37                             168     0.1 7   27 137 
 BAR2 SZ I        1334 58.22        21.1 0.33                            27 137 
 RUS  HN ES   1   1335  2.82                             141    -0.1 7  102 163 
 RUS  HZ I        1335  4.98         9.1 0.13                           102 163 
 GRA  SZ EP       1334 47.69                             132     0.2 9  137  26 
 GRA  SZ ES   1   1335  7.13                             132    -0.2 7  137  26 
 GRA  SZ I        1335  8.55        12.1 0.45                           137  26 
                                                                                
