 2015  513 1014 28.2 L   6.802 -73.047149.1  RSN  8 0.4 1.7LRSN                1
 GAP=209        0.98       3.3     5.4  5.8  0.2702E+01  0.1000E+02 -0.2843E+01E
 Epicentro: LOS SANTOS - SANTANDER                                             3
 ACTION:UPD 15-09-10 22:03 OP:cam  STATUS:               ID:20150513101428 L   I
 OLDACT:REG 15-05-13 20:08 OP:drio STATUS:               ID:20150513100750     3
 2015-05-13-1007-50M.COL___276                                                 6
 STAT SP IPHASW D HRMM SECON CODA AMPLIT PERI AZIMU VELO AIN AR TRES W  DIS CAZ7
 BAR2 EZ EP       1014 48.86                             169    0.5610 27.6 213 
 BAR2 EZ ES       1015  3.39                             169   -0.6110 27.6 213 
 BAR2 EZ I        1015  6.26         9.1 0.26            167           27.6 213 
 BRR  HZ EP       1014 50.88                             150    0.6310 80.8 295 
 BRR  HN ES       1015  8.01                             150    0.5410 80.8 295 
 RUS  HZ EP       1014 52.03                             144   -0.2410  101 182 
 RUS  HN ISg      1015 11.05                             144   -0.0110  101 182 
 RUS  HN ES       1015 11.11                             144    0.0510  101 182 
 RUS  HZ I        1015 14.19         4.4 0.44            146            101 182 
 SPBC HZ EP       1014 57.78                             128    0.16 9  170 222 
 SPBC HN ES       1015 20.08                             128   -0.51 9  170 222 
 SPBC HZ I        1015 25.45         7.4 0.34            129            170 222 
 ZAR  HZ EP       1015  1.20                             122   -0.68 8  214 291 
 ZAR  HN ES       1015 27.99                             122   -0.17 8  214 291 
 ZAR  HZ I        1015 32.85         4.2 0.28            123            214 291 
 NOR  HZ EP       1015  5.10                             118    0.02 8  244 236 
 NOR  HN ES       1015 33.96                             118    0.10 8  244 236 
 NOR  HZ I        1015 35.20         4.5 0.24            119            244 236 
 SML  HZ EP     D 1015  5.36                             118   -0.12 8  248 333 
 SML  HN ES       1015 34.30                             118   -0.27 8  248 333 
 SML  HZ I        1015 35.60         4.0 0.32            119            248 333 
 GUY2CHZ EP       1015 12.81                             112   -0.16 7  310 236 
 GUY2CHN ES       1015 48.30                             112    0.39 7  310 236 
                                                                                
