 2017  313 1139 39.7 L   6.726 -73.186145.2  RSN  6 0.4 1.6LRSN                1
 GAP=227        1.08       6.1     7.6  8.3  0.1730E+02  0.1128E+02  0.1152E+02E
 Epicentro: VILLANUEVA - SANTANDER                                             3
 ACTION:UPD 17-05-25 18:40 OP:jn   STATUS:               ID:20170313113939 L   I
 OLDACT:DUP 17-03-13 23:17 OP:y    STATUS:               ID:20170313113745d    3
 OLDACT:UP  17-03-13 23:16 OP:y    STATUS:               ID:20170313113744     3
 OLDACT:REG 17-03-13 20:56 OP:dnl  STATUS:               ID:20170313113744     3
 2017-03-13-1138-00M.COL___393                                                 6
 STAT SP IPHASW D HRMM SECON CODA AMPLIT PERI AZIMU VELO AIN AR TRES W  DIS CAZ7
 BAR2 EZ EP       1139 58.90                             174   -0.2610 14.8 178 
 BAR2 EZ ES       1140 13.61                             174   -0.7110 14.8 178 
 BAR2 EZ I        1140 16.69         6.7 0.30            169           14.8 178 
 BRR  HZ IP     D 1140  0.78                             152   -0.0810 71.8 306 
 BRR  HN ES       1140 17.81                             152    0.4710 71.8 306 
 BRR  HZ I        1140 22.70         7.9 0.16            150           71.8 306 
 RUS  HZ EP       1140  3.18                             146    0.2810 92.9 173 
 RUS  HE ES       1140 21.61                             146    0.6510 92.9 173 
 RUS  HZ I        1140 23.66         2.9 0.34            146           92.9 173 
 PTB  HZ EP       1140  5.86                             133   -0.28 9  142 262 
 PTB  HN ES       1140 26.85                             133    0.11 9  142 262 
 PTB  HZ I        1140 28.87         6.9 0.58            131            142 262 
 ZAR  HZ EP   4   1140  9.36                             122   -2.70 0  203 295 
 ZAR  HE ES   4   1140 40.73                             122    3.45 0  203 295 
 ZAR  HZ I        1140 44.33         7.2 0.22            122            203 295 
 CHI  HZ EP   2   1140 17.19                             118    0.76 4  240 195 
 CHI  HE ES       1140 44.56                             118   -0.49 8  240 195 
 CHI  HZ I        1140 52.74         2.3 0.18            119            240 195 
                                                                                
