 2015  213 1324  2.5 L   6.826 -73.210132.0  RSN  5 0.4 1.5LRSN                1
 GAP=128        1.05       4.4     5.5  8.4 -0.3392E+01  0.1786E+02 -0.1267E+02E
 Epicentro: ZAPATOCA - SANTANDER                                               3
 ACTION:UPD 15-04-30 21:25 OP:nd   STATUS:               ID:20150213132402 L   I
 OLDACT:REG 15-02-13 20:45 OP:stll STATUS:               ID:20150213131750     3
 2015-02-13-1317-50M.COL___305                                                 6
 STAT SP IPHASW D HRMM SECON CODA AMPLIT PERI AZIMU VELO AIN AR TRES W  DIS CAZ7
 BAR2 EZ ES       1324 34.58                             168   -0.0010 26.0 173 
 BAR2 EZ I        1324 36.77         8.6 0.18            170           26.0 173 
 PAM  SZ EP       1324 23.40                             147   -0.0110 80.0  45 
 PAM  SZ I        1324 23.92         9.7 0.22            150           80.0  45 
 PAM  SN ES       1324 40.21                             147    0.4610 80.0  45 
 RUS  HZ EP       1324 25.03                             140   -0.1310  104 172 
 RUS  HN ES       1324 42.33                             140   -0.5410  104 172 
 RUS  HZ I        1324 43.76         3.9 0.46            143            104 172 
 PTB  HZ EP       1324 28.54                             130    0.79 9  141 257 
 PTB  HN ES       1324 47.49                             130    0.02 9  141 257 
 PTB  HZ I        1324 50.78         3.5 0.16            131            141 257 
 SML  HZ EP       1324 37.68                             115   -0.07 8  238 337 
 SML  HN ES       1325  4.57                             115   -0.71 8  238 337 
 SML  HZ I        1325  8.65         3.6 0.10            116            238 337 
                                                                                
