 2015  813 1255 41.8 L   7.476 -73.420109.8  RSN  9 0.3 2.3LRSN                1
 GAP= 93        0.81       2.9     3.2  6.2  0.2488E+00  0.5538E+01 -0.1488E+01E
 Epicentro: SABANA DE TORRES - SANTANDER                                       3
 ACTION:UPD 15-09-15 23:02 OP:cam  STATUS:               ID:20150813125541 L   I
 OLDACT:REG 15-08-13 22:20 OP:ar   STATUS:               ID:20150813124750     3
 2015-08-13-1247-50M.COL___343                                                 6
 STAT SP IPHASW D HRMM SECON CODA AMPLIT PERI AZIMU VELO AIN AR TRES W  DIS CAZ7
 BRR  HZ IP     D 1255 57.71                             153   -0.2510 52.0 218 
 BRR  HN ES       1256 10.41                             153   -0.1710 52.0 218 
 BRR  HZ I        1256 12.28        44.4 0.24            150           52.0 218 
 PAM  EZ EP       1256  0.99                             142    0.4010 81.0 101 
 PAM  EN ES       1256 15.60                             142    0.3310 81.0 101 
 PAM  EZ I        1256 17.75        29.6 0.24            143           81.0 101 
 OCA  HZ EP     D 1256  0.31                             140   -0.1410 85.1   7 
 OCA  HN ES       1256 15.06                             140    0.0510 85.1   7 
 OCA  HZ I        1256 17.97       122.7 0.38            140           85.1   7 
 BAR2 EZ IP     D 1256  1.74                             134   -0.1710  101 165 
 BAR2 EZ ES       1256 17.25                             134   -0.3610  101 165 
 BAR2 EZ I        1256 19.62        36.4 0.40            134            101 165 
 ZAR  HZ EP       1256  7.05                             120   -0.18 9  159 271 
 ZAR  HN ES       1256 27.61                             120    0.54 9  159 271 
 ZAR  HZ I        1256 31.60        31.3 0.14            119            159 271 
 SML  HZ EP   2   1256  6.99                             119   -0.69 5  163 334 
 SML  HE ES   2   1256 27.86                             119   -0.02 5  163 334 
 SML  HZ I        1256 31.93        38.1 0.24            119            163 334 
 SPBC HE ES   2   1256 38.68                             112    0.59 4  214 200 
 SPBC HZ I        1256 41.92        19.9 0.15            111            214 200 
 GUY2CHZ EP   2   1256 27.71                             103    0.41 3  329 221 
 GUY2CHN ES   4   1257  7.75                             103    4.94 0  329 221 
 GUY2CHZ I        1257 13.85         6.1 0.40                           329 221 
 TOL  SZ EP   9   1256 36.18                             100    2.64 0  383 213 
 TOL  SN ES       1257 17.51                                    0.96 6  383 213 
 TOL  SZ I        1257 23.79         9.8 0.82             99            383 213 
                                                                                
