 2017  213 1708 58.6 L   6.785 -73.137146.0  RSN 10 0.4 2.1LRSN                1
 GAP=120        1.01       3.5     3.8  5.8  0.1253E+01  0.6148E+01  0.6319E+01E
 Epicentro: LOS SANTOS - SANTANDER                                             3
 ACTION:UPD 17-05-24 15:36 OP:jn   STATUS:               ID:20170213170858 L   I
 OLDACT:DUP 17-02-14 00:13 OP:cog  STATUS:               ID:20170213170750d    3
 2017-02-13-1708-00M.COL___352                                                 6
 STAT SP IPHASW D HRMM SECON CODA AMPLIT PERI AZIMU VELO AIN AR TRES W  DIS CAZ7
 BAR2 EZ EP       17 9 18.01                             171   -0.1710 21.9 193 
 BAR2 EZ ES       17 9 33.51                             171    0.0210 21.9 193 
 BAR2 EZ I        17 9 33.74        55.9 0.30            172           21.9 193 
 BRR  HZ EP       17 9 20.04                             152    0.2210 72.8 299 
 BRR  HN ES       17 9 37.08                             152    0.6810 72.8 299 
 BRR  HZ I        17 9 41.65        28.3 0.12            152           72.8 299 
 PAM  EZ EP       17 9 21.02                             151    0.1910 78.1  38 
 PAM  EN ES       17 9 38.08                             151   -0.1310 78.1  38 
 PAM  EZ I        17 9 40.96        11.3 0.28            152           78.1  38 
 RUS  HZ EP       17 9 21.92                             144   -0.2810 98.9 177 
 RUS  HN ES       17 9 40.43                             144   -0.2210 98.9 177 
 RUS  HZ I        17 9 41.57        18.6 0.32            146           98.9 177 
 PTB  HZ EP       17 9 24.84                             132   -0.75 9  148 260 
 PTB  HN ES       17 9 45.83                             132   -0.86 9  148 260 
 PTB  HZ I        17 9 46.74        14.6 0.14            133            148 260 
 ZAR  HZ EP       17 9 31.42                             122    0.25 8  206 292 
 ZAR  HE ES       17 9 56.80                             122    0.20 8  206 292 
 NOR  HZ EP       17 9 34.11                             118   -0.16 8  235 235 
 NOR  HE ES       1710  2.01                             118   -0.13 8  235 235 
 NOR  HZ I        1710  7.80        12.6 0.16            120            235 235 
 CHI  HZ EP       17 9 35.98                             117   -0.14 8  247 195 
 CHI  HN ES       1710  5.96                             117    0.54 8  247 195 
 PTGC HZ EP   4   17 9 40.39                             112   -1.81 0  307 159 
 PTGC HN ES       1710 16.59                             112    0.34 7  307 159 
 ELA  HZ EP       17 9 45.66                             110    0.29 7  329 230 
 ELA  HN ES       1710 22.79                             110    0.90 7  329 230 
                                                                                
