 2015 1013 1942 22.6 L   6.810 -73.151140.0  RSN 20 0.5 2.6LRSN                1
 GAP=135        1.01       2.3     3.4  4.7 -0.1501E+01  0.6701E+01  0.1090E+01E
 Epicentro: LOS SANTOS - SANTANDER                                             3
 ACTION:UPD 15-12-22 20:39 OP:cam  STATUS:               ID:20151013194222 L   I
 OLDACT:UP  15-11-01 03:28 OP:DRIO STATUS:               ID:20151013194222 L   3
 OLDACT:REG 15-10-13 23:23 OP:ak   STATUS:               ID:20151013193748     3
 2015-10-13-1937-48M.COL___316                                                 6
 STAT SP IPHASW D HRMM SECON CODA AMPLIT PERI AZIMU VELO AIN AR TRES W  DIS CAZ7
 BAR2 EZ EP       1942 41.56                             170    0.0410 24.3 188 
 BAR2 EZ ES       1942 55.97                             170   -0.3410 24.3 188 
 BAR2 EZ I        1942 57.41        64.5 0.18            169           24.3 188 
 BRR  HZ IP     C 1942 43.52                             152    0.4910 70.2 298 
 BRR  HN ES       1942 59.30                             152    0.3110 70.2 298 
 BRR  HZ I        1943  4.59        71.2 0.10            151           70.2 298 
 PAM  EZ IP     C 1942 44.67                             150    0.5310 76.9  40 
 PAM  EN ES       1943  1.24                             150    0.2810 76.9  40 
 PAM  EZ I        1943  3.50       150.4 0.50            154           76.9  40 
 RUS  HZ EP       1942 45.52                             142   -0.3110  102 176 
 RUS  HN ES       1943  4.10                             142    0.1110  102 176 
 RUS  HZ I        1943  5.14        44.7 0.38            144            102 176 
 OCA  HZ EP       1942 49.84                             129   -0.48 9  159 353 
 OCA  HN ES       1943 11.53                             129   -0.44 9  159 353 
 OCA  HZ I        1943 15.32       100.0 0.36            131            159 353 
 SPBC HZ EP       1942 50.69                             128    0.02 9  164 219 
 SPBC HN ES       1943 12.66                             128    0.06 9  164 219 
 SPBC HZ I        1943 18.22        72.4 0.26            129            164 219 
 ZAR  HZ EP       1942 54.84                             121    0.30 9  203 292 
 ZAR  HN ES       1943 20.44                             121    0.96 9  203 292 
 ZAR  HZ I        1943 25.84        47.8 0.29            122            203 292 
 NOR  HZ EP       1942 58.31                             117    0.33 8  235 234 
 NOR  HN ES       1943 25.35                             117   -0.26 8  235 234 
 NOR  HZ I        1943 27.66        23.3 0.12            119            235 234 
 SML  HZ EP       1942 57.99                             116   -0.74 8  242 335 
 SML  HN ES       1943 26.19                             116   -0.76 8  242 335 
 SML  HZ I        1943 29.74        51.7 0.13            118            242 335 
 CHI  HZ EP       1942 59.87                             116   -0.18 8  250 195 
 CHI  HN ES       1943 28.90                             116   -0.38 8  250 195 
 CHI  HZ I        1943 33.48        13.1 0.50            118            250 195 
 ROSC BZ EP       1942 59.56                             115   -0.88 8  253 211 
 ROSC BN ES       1943 29.92                             115   -0.07 8  253 211 
 ROSC BZ I        1943 38.03        25.3 0.50            117            253 211 
 HEL  HZ EP       1943  3.28                             114    0.83 8  272 256 
 HEL  HN ES       1943 32.88                             114   -0.69 8  272 256 
 HEL  HZ I        1943 38.74        12.6 0.28            115            272 256 
 GUY2CHZ EP       1943  6.55                             111    0.62 7  301 235 
 GUY2CHN ES       1943 39.94                             111    0.19 7  301 235 
 GUY2CHZ I        1943 49.27        18.2 0.58                           301 235 
 ELA  HZ EP       1943  9.70                             109    0.49 7  329 229 
 ELA  HN ES       1943 45.21                             109   -0.38 7  329 229 
 ELA  HZ I        1943 54.86        10.6 0.44            111            329 229 
 CBOC HZ EP   1   1943  9.31                             109    0.09 5  333 252 
 CBOC HN ES   4   1943 42.55                             109   -3.06 0  333 252 
 CBOC HE ES       1943 45.25                             109   -0.36 7  333 252 
 DBB  SZ EP       1943  9.89                             108    0.16 7  339 274 
 DBB  SZ ES       1943 46.04                             108   -0.49 7  339 274 
 ANIL HZ EP   1   1943 12.69                             107    0.50 5  358 224 
 ANIL HN ES       1943 51.10                             107    0.19 6  358 224 
 ANIL HZ I        1943 57.69        35.5 0.30            109            358 224 
 ORTC HZ EP       1943 16.59                             105    0.24 6  396 216 
 ORTC HE ES       1943 58.16                             105   -0.15 6  396 216 
 ORTC HZ I        1944  3.53        10.6 0.46            107            396 216 
 SJC  HZ EP   4   1943 16.29                             105   -1.50 0  408 327 
 SJC  HN ES   4   1943 56.84                             105   -4.03 0  408 327 
 SJC  HZ I        1944  1.39        13.9 0.52            106            408 327 
 CRJC HZ EP   4   1943 22.18                             103   -2.60 0  467   4 
 CRJC HN ES   4   1944  7.51                             103   -5.79 0  467   4 
 CRJC HZ I        1944 18.78                             104            467   4 
                                                                                
