 2014 1113 1150 58.5 L   6.704 -73.135145.0  RSN  5 0.4 1.6LRSN                1
 GAP=142        1.16       6.1     6.0  8.5 -0.3324E+01  0.6422E+01  0.1133E+01E
 Epicentro: JORDAN - SANTANDER                                                 3
 ACTION:UPD 14-12-19 15:42 OP:nd   STATUS:               ID:20141113115058 L   I
 OLDACT:UP  14-11-13 22:59 OP:cam  STATUS:               ID:20141113114817     3
 OLDACT:UP  14-11-13 22:59 OP:cam  STATUS:               ID:20141113114817     3
 OLDACT:UP  14-11-13 22:58 OP:cam  STATUS:               ID:20141113114817     3
 OLDACT:REG 14-11-13 19:20 OP:cam  STATUS:               ID:20141113114817     3
 2014-11-13-1148-17M.COL___289                                                 6
 STAT SP IPHASW D HRMM SECON CODA AMPLIT PERI AZIMU VELO AIN AR TRES W  DIS CAZ7
 BAR2 SZ EP       1151 18.27                             174    0.4210 13.4 203 
 BAR2 SZ ES       1151 32.64                             174   -0.3210 13.4 203 
 BAR2 SZ I        1151 33.78         9.6 0.26            175           13.4 203 
 BRR  HZ EP     D 1151 20.18                             150    0.2610 77.9 305 
 BRR  HN ES       1151 37.39                             150    0.7310 77.9 305 
 BRR  HZ I        1151 41.34         7.0 0.12            150           77.9 305 
 PAM  SZ EP     C 1151 21.33                             148    0.2510 85.2  34 
 PAM  SN ES       1151 38.10                             148   -0.6210 85.2  34 
 PAM  SZ I        1151 40.41        11.3 0.40            150           85.2  34 
 RUS  HZ EP       1151 21.10                             147   -0.3010 89.9 176 
 RUS  HN ES       1151 39.62                             147    0.3410 89.9 176 
 RUS  HZ I        1151 41.31         2.7 0.26            150           89.9 176 
 PTB  HZ EP       1151 25.02                             132   -0.31 9  147 263 
 PTB  HN ES       1151 45.72                             132   -0.56 9  147 263 
 PTB  HZ I        1151 47.98         8.2 0.12            133            147 263 
 MON  HZ EP   4   1151 49.39                             108    1.06 0  361 310 
 MON  HN ES   4   1152 25.28                             108   -1.94 0  361 310 
                                                                                
