 2017  513 1658 58.9 L   6.807 -73.169146.4  RSN  8 0.4 2.1LRSN                1
 GAP=109        1.07       4.3     3.9  7.9  0.2833E+01  0.4471E+01  0.9470E+01E
 Epicentro: LOS SANTOS - SANTANDER                                             3
 ACTION:UPD 17-06-16 13:35 OP:jn   STATUS:               ID:20170513165858 L   I
 OLDACT:REG 17-05-14 00:40 OP:lv   STATUS:               ID:20170513164204d    3
 2017-05-13-1654-00M.COL___324                                                 6
 STAT SP IPHASW D HRMM SECON CODA AMPLIT PERI AZIMU VELO AIN AR TRES W  DIS CAZ7
 BRR  HZ EP       1659 20.15                             153    0.1910 68.5 299 
 BRR  HN ES       1659 37.14                             153    0.7510 68.5 299 
 PAM  EZ EP       1659 21.24                             151    0.0010 78.5  41 
 PAM  EN ES       1659 38.22                             151   -0.4510 78.5  41 
 RUS  HZ EP       1659 22.57                             144   -0.2010  102 175 
 RUS  HN ES       1659 40.94                             144   -0.4610  102 175 
 RUS  HZ I        1659 43.05        19.8 0.11            144            102 175 
 PTB  HZ EP       1659 25.18                             133   -0.51 9  145 258 
 PTB  HN ES       1659 46.05                             133   -0.54 9  145 258 
 SPBC HN ES   2   1659 49.46                             129   -0.07 5  162 218 
 YPLC HZ EP       1659 28.93                             126    0.01 9  179 151 
 YPLC HN ES       1659 53.15                             126    0.81 9  179 151 
 YPLC HZ I        1659 55.77        13.6 0.24            127            179 151 
 ZAR  HZ EP   4   1659 32.69                             123    1.60 0  201 292 
 ZAR  HN ES       1659 56.52                             123    0.30 9  201 292 
 ZAR  HZ I        1659 59.11        14.9 0.14            124            201 292 
 NOR  HZ EP       1659 34.71                             119    0.24 8  233 234 
 NOR  HN ES       17 0  2.32                             119    0.09 8  233 234 
                                                                                
