 2010  413 1127 25.3 L   6.991 -73.229151.5  RSN  4 0.5 2.2LRSN                1
 GAP=230        0.63      17.4    29.8 16.3 -0.4730E+03 -0.3026E+03  0.1994E+03E
 Epicentro: CEPITA - SANTANDER                                                 3
 ACTION:UPD 10-08-24 09:58 OP:vdl  STATUS:               ID:20100413112725 L   I
 2010-04-13-1126-54S.COL___097                                                 6
 STAT SP IPHASW D HRMM SECON CODA AMPLIT PERI AZIMU VELO AIN AR TRES W  DIS CAZ7
 BRR  HZ EP   2   1127 45.70                             156    -0.6 5   55 284 
 BRR  HN ES   2   1128  2.56                             156    -0.1 5   55 284 
 BRR  HZ I        1128  5.63        19.3 0.21                            55 284 
 OCA  SZ EP   2   1127 52.41                             133     0.3 5  138 356 
 OCA  SZ ES   2   1128 13.28                             133     0.2 5  138 356 
 OCA  SZ I        1128 17.40        30.9 0.20                           138 356 
 HEL  HE ES   3   1128 36.22                                    -0.7 2  269 251 
 RREF BZ EP   2   1128 12.22                             110    -0.3 3  329 226 
 RREF BE ES   2   1128 50.34                             110     0.9 3  329 226 
 RREF BZ I        1128 55.78         7.2 0.24                           329 226 
                                                                                
