 2017  513 1555 26.6 L   6.814 -73.149147.1  RSN 22 0.5 2.7LRSN                1
 GAP=111        0.97       2.8     3.0  5.2  0.4024E+00  0.3351E+01  0.2181E+01E
 Epicentro: LOS SANTOS - SANTANDER                                             3
 ACTION:UPD 17-06-16 13:35 OP:jn   STATUS:               ID:20170513155526 L   I
 OLDACT:REG 17-05-13 19:27 OP:lv   STATUS:               ID:20170513154742     3
 2017-05-13-1548-00M.COL___324                                                 6
 STAT SP IPHASW D HRMM SECON CODA AMPLIT PERI AZIMU VELO AIN AR TRES W  DIS CAZ7
 BRR  HZ EP       1555 48.14                             153    0.2610 70.2 298 
 BRR  HN ES       1556  5.11                             153    0.6710 70.2 298 
 BRR  HZ I        1556  6.48        53.7 0.12            152           70.2 298 
 PAM  EZ EP       1555 49.22                             151    0.2810 76.4  40 
 PAM  EN ES       1556  6.16                             151   -0.1810 76.4  40 
 PAM  EZ I        1556  8.72       140.8 0.46            156           76.4  40 
 RUS  HZ EP       1555 50.20                             144   -0.4410  102 176 
 RUS  HN ES       1556  9.24                             144   -0.1110  102 176 
 RUS  HZ I        1556 10.17        50.7 0.19            144            102 176 
 PTB  HZ EP       1555 52.98                             132   -0.74 9  148 258 
 PTB  HN ES       1556 13.93                             132   -0.91 9  148 258 
 PTB  HZ I        1556 20.35        43.3 0.14            132            148 258 
 SPBC HZ EP       1555 55.44                             129    0.10 9  164 219 
 SPBC HN ES       1556 17.47                             129   -0.25 9  164 219 
 SPBC HZ I        1556 21.98        57.5 0.20            129            164 219 
 YPLC HZ EP       1555 56.69                             127    0.01 9  178 151 
 YPLC HN ES       1556 20.78                             127    0.67 9  178 151 
 YPLC HZ I        1556 21.60        52.7 0.26            128            178 151 
 ZAR  HZ EP       1555 58.88                             123   -0.20 9  203 292 
 ZAR  HN ES       1556 24.36                             123   -0.03 9  203 292 
 ZAR  HZ I        1556 29.41        30.5 0.10            123            203 292 
 NOR  HZ EP   2   1556  2.23                             119   -0.29 4  235 234 
 NOR  HN ES       1556 30.65                             119    0.15 8  235 234 
 NOR  HZ I        1556 32.93        26.9 0.23            119            235 234 
 CHI  HZ EP       1556  4.52                             117   -0.05 8  250 195 
 CHI  HN ES       1556 33.70                             117   -0.45 8  250 195 
 CHI  HZ I        1556 37.38        34.7 0.13            118            250 195 
 ROSC BZ EP   9   1556  6.92                             117    1.96 0  254 211 
 ROSC BN ES       1556 36.94                                    0.13 8  254 211 
 ROSC BZ I        1556 40.82        61.1 0.28            117            254 211 
 HEL  HZ EP   4   1556  8.40                             115    1.47 0  272 255 
 HEL  HN ES       1556 38.65                             115    0.29 8  272 255 
 HEL  HZ I        1556 44.51        32.1 0.27            115            272 255 
 VIL  EN ES   2   1556 44.07                             112   -0.25 4  305 191 
 VIL  EZ I        1556 47.20        44.7 0.51            113            305 191 
 PTGC HZ EP   9   1556  9.47                             112   -1.26 0  310 159 
 PTGC HN ES       1556 43.35                                   -0.51 7  310 159 
 PTGC HZ I        1556 44.68        27.6 0.15            113            310 159 
 ELA  HZ EP   4   1556 16.16                             110    2.52 0  330 229 
 ELA  HN ES   4   1556 51.82                             110    1.53 0  330 229 
 ELA  HZ I        1557  3.02        12.6 0.35            111            330 229 
 CBOC HZ EP       1556 14.60                             110    0.97 7  334 252 
 CBOC HN ES       1556 50.88                             110    0.60 7  334 252 
 DBB  EZ EP   2   1556 13.96                             110   -0.16 3  339 274 
 DBB  EN ES   4   1556 49.53                             110   -1.63 0  339 274 
 DBB  EZ I        1556 51.12        12.8 0.26            110            339 274 
 ANIL HZ EP       1556 17.19                             109    0.59 6  358 224 
 ANIL HE ES       1556 55.63                             109    0.07 6  358 224 
 ANIL HZ I        1557  0.92        66.9 0.19            109            358 224 
 ARGC HZ EP   2   1556 16.62                             108    0.45 3  358 340 
 ARGC HN ES   2   1556 54.87                             108    0.07 3  358 340 
 ORTC HZ EP       1556 20.63                             106   -0.10 6  396 216 
 ORTC HN ES   4   1557  4.25                             106    1.33 0  396 216 
 ORTC HZ I        1557  7.71         8.6 0.17            107            396 216 
 SJC  HZ EP   4   1556 20.45                             106   -1.63 0  408 327 
 SJC  HN ES   4   1557  1.91                             106   -3.40 0  408 327 
 SJC  HZ I        1557  8.61         7.5 0.37            107            408 327 
 VALLCHZ EP   2   1556 20.35                             106   -1.80 3  409 358 
 VALLCHN ES   4   1557  4.42                             106   -1.02 0  409 358 
 CAP2 HZ EP   4   1556 31.49                             102   -2.24 0  507 294 
 CAP2 HN ES   4   1557 23.27                             102   -2.79 0  507 294 
 CAP2 HZ I        1557 26.77         3.1 0.20            103            507 294 
                                                                                
