 2016  713 1018 14.3 L   6.800 -73.152147.5  RSN  9 0.4 1.9LRSN                1
 GAP=237        0.83       4.1     4.6  5.5  0.6125E+01  0.6247E+01  0.5621E+01E
 Epicentro: LOS SANTOS - SANTANDER                                             3
 ACTION:UPD 17-03-29 16:50 OP:lp   STATUS:               ID:20160713101814 L   I
 OLDACT:UP  16-07-13 22:37 OP:lv   STATUS:               ID:20160713101759     3
 OLDACT:REG 16-07-13 20:02 OP:lv   STATUS:               ID:20160713101759     3
 2016-07-13-1017-59S.COL___322                                                 6
 STAT SP IPHASW D HRMM SECON CODA AMPLIT PERI AZIMU VELO AIN AR TRES W  DIS CAZ7
 BAR2 EZ EP       1018 33.98                             171   -0.1710 23.2 188 
 BAR2 EZ ES       1018 49.16                             171   -0.4610 23.2 188 
 BAR2 EZ I        1018 50.78        19.8 0.17            166           23.2 188 
 BRR  HZ IP     C 1018 35.80                             153    0.1910 70.5 299 
 BRR  HN ES       1018 52.97                             153    0.7410 70.5 299 
 BRR  HZ I        1018 53.44        13.9 0.12            148           70.5 299 
 RUS  HZ EP       1018 38.11                             144   -0.1310  101 176 
 RUS  HE ES       1018 57.10                             144    0.2010  101 176 
 RUS  HZ I        1018 57.61         5.6 0.28            144            101 176 
 PTB  HZ EP       1018 41.16                             133   -0.20 9  147 259 
 PTB  HE ES       1019  1.91                             133   -0.54 9  147 259 
 PTB  HZ I        1019  8.42         5.5 0.14            129            147 259 
 SPBC HZ EP       1018 42.96                             130    0.06 9  163 219 
 SPBC HN ES       1019  5.30                             130    0.10 9  163 219 
 SPBC HZ I        1019  9.94        11.6 0.20            127            163 219 
 ZAR  HZ EP   4   1018 44.24                             123   -2.56 0  203 292 
 ZAR  HN ES       1019 12.01                             123   -0.13 9  203 292 
 ZAR  HZ I        1019 18.75         6.5 0.16            121            203 292 
 GUY2CHZ EP   2   1018 57.54                             113   -0.39 4  301 235 
 GUY2CHN ES   2   1019 32.35                             113    0.39 4  301 235 
 GUY2CHZ I        1019 40.43         3.0 0.32                           301 235 
 PRA  HZ EP       1019  8.43                             107    0.58 6  392 209 
 PRA  HN ES       1019 49.71                             107    0.10 6  392 209 
 PRA  HZ I        1019 56.23         4.2 0.34            107            392 209 
 SJC  HZ EP   4   1019  8.12                             106   -1.76 0  409 327 
 SJC  HN ES   4   1019 48.08                             106   -5.14 0  409 327 
 SJC  HZ I        1019 57.32         1.7 0.40            106            409 327 
                                                                                
