 2012  913 1906 13.9 L   6.785 -73.123139.0  RSN 10 0.4 2.3LRSN                1
 GAP=140        0.74       4.2     4.0  5.5 -0.1065E+01  0.6726E+01  0.5860E+01E
 Epicentro: LOS SANTOS - SANTANDER                                             3
 ACTION:UPD 12-10-22 14:18 OP:ep   STATUS:               ID:20120913190613 L   I
 2012-09-13-1900-00M.COL___227                                                 6
 STAT SP IPHASW D HRMM SECON CODA AMPLIT PERI AZIMU VELO AIN AR TRES W  DIS CAZ7
 BAR2 SZ EP       19 6 32.66                             170   -0.0710 22.3 197 
 BAR2 SZ ES   1   19 6 47.21                             170   -0.19 7 22.3 197 
 BAR2 SZ I        19 6 49.69        66.2 0.22                          22.3 197 
 GIR2 SZ EP   1   19 6 32.70                             166   -0.16 7 33.4 347 
 GIR2 SZ ES   1   19 6 47.53                             166   -0.10 7 33.4 347 
 BRR  HZ EP   1   19 6 34.51                             150   -0.02 7 74.1 299 
 BRR  HZ I        19 6 34.92        57.7 0.10                          74.1 299 
 BRR  HE ES   1   19 6 51.15                             150    0.55 7 74.1 299 
 PAM  SZ EP   1   19 6 35.60                             150    0.18 7 77.1  37 
 PAM  SZ I        19 6 35.83        39.8 0.20                          77.1  37 
 PAM  SN ES   1   19 6 52.29                             150    0.11 7 77.1  37 
 RUS  HZ EP   1   19 6 36.96                             143    0.06 7 98.8 177 
 RUS  HN ES   1   19 6 54.81                             143    0.00 7 98.8 177 
 RUS  HZ I        19 6 57.27        13.3 0.24                          98.8 177 
 PTB  HZ EP   1   19 6 39.56                             130   -1.00 7  150 260 
 PTB  HN ES   1   19 7  1.30                             130   -0.02 7  150 260 
 PTB  HN I        19 7  3.21        24.3 0.26                           150 260 
 ZAR  HN ES   1   19 7 11.24                             120   -0.22 6  207 292 
 ZAR  HZ I        19 7 16.76        17.4 0.48                           207 292 
 NOR  SZ EP   1   19 6 49.03                             117   -0.37 6  236 235 
 NOR  SN ES   1   19 7 17.32                             117    0.26 6  236 235 
 HEL  HZ EP   1   19 6 54.94                             113    0.91 6  274 256 
 HEL  HZ I        19 7 32.96         6.9 0.40                           274 256 
 PRA  HZ EP   1   19 7  8.03                             105    0.83 4  392 210 
 PRA  HZ I        19 7 53.18         5.6 0.18                           392 210 
                                                                                
