 2015  413 1005 24.6 L   6.772 -73.162146.8  RSN  8 0.2 1.4LRSN                1
 GAP=136        0.59       2.7     2.7  4.7 -0.8100E+00  0.2143E+01 -0.1716E+00E
 Epicentro: LOS SANTOS - SANTANDER                                             3
 ACTION:UPD 15-06-03 16:54 OP:cam  STATUS:               ID:20150413100524 L   I
 OLDACT:REG 15-04-13 19:20 OP:spq  STATUS:               ID:20150413095748     3
 2015-04-13-0957-48M.COL___269                                                 6
 STAT SP IPHASW D HRMM SECON CODA AMPLIT PERI AZIMU VELO AIN AR TRES W  DIS CAZ7
 BAR2 EZ EP       10 5 44.26                             172    0.0010 20.0 186 
 BAR2 EZ ES   1   10 5 59.74                             172    0.13 7 20.0 186 
 BAR2 EZ I        10 6  1.59         5.6 0.36            169           20.0 186 
 BRR  HZ EP   1   10 5 46.10                             153    0.28 7 71.1 301 
 BRR  HN ES       10 6  2.76                             153    0.3610 71.1 301 
 BRR  HZ I        10 6  6.24         4.8 0.32            150           71.1 301 
 PAM  SZ EP       10 5 47.19                             150    0.0910 80.9  39 
 PAM  SN ES       10 6  4.31                             150   -0.3710 80.9  39 
 PAM  SZ I        10 6  6.30         6.4 0.52            155           80.9  39 
 RUS  HZ EP   1   10 5 47.96                             145   -0.25 7 97.7 175 
 RUS  HN ES   1   10 6  6.77                             145    0.12 7 97.7 175 
 RUS  HZ I        10 6  7.93         2.4 0.26            146           97.7 175 
 PTB  HZ EP       10 5 51.61                             133    0.21 9  145 260 
 PTB  HN ES       10 6 12.05                             133   -0.29 9  145 260 
 PTB  HZ I        10 6 18.21         2.3 0.34            132            145 260 
 SPBC HE ES   1   10 6 14.79                             130   -0.05 7  160 219 
 SPBC HZ I        10 6 22.24         5.2 0.10            130            160 219 
 ZAR  HN ES   1   10 6 21.92                             123   -0.42 6  204 293 
 ZAR  HZ I        10 6 29.30         2.5 0.24            123            204 293 
 SML  HE ES   1   10 6 30.31                             117    0.06 6  246 336 
 SML  HZ I        10 6 32.62         3.1 0.10            119            246 336 
                                                                                
