 2010  213 1551 21.9 L   6.860 -73.111140.4  RSN 11 0.4 3.0LRSN                1
 GAP=145        0.82       4.0     6.0  6.4 -0.8966E+01  0.7505E+01  0.2700E+01E
 Epicentro: LOS SANTOS - SANTANDER                                             3
 ACTION:UP  10-08-24 09:48 OP:vdl  STATUS:               ID:20100213155121 L   I
 2010-02-13-1549-47S.COL___093                                                 6
 STAT SP IPHASW D HRMM SECON CODA AMPLIT PERI AZIMU VELO SNR AR TRES W  DIS CAZ7
 BAR2 SZ IP       1551 41.22                             167     0.210   31 195 
 BAR2 SZ ES   1   1551 55.70                             167    -0.3 7   31 195 
 OCA  SZ EP       1551 49.54                             129     0.3 9  154 351 
 OCA  SZ ES   1   1552 10.58                             129     0.0 7  154 351 
 CHI  HZ EP       1551 59.81                             115    -0.3 8  256 196 
 CHI  HE ES   2   1552 30.43                             115     0.5 4  256 196 
 CHI  HZ I        1552 35.83        37.6 0.46                           256 196 
 ROSC BZ EP   1   1552  1.32                             115     0.8 6  260 211 
 ROSC BZ I        1552 38.96        46.7 0.57                           260 211 
 HEL  HZ EP   1   1552  2.49                             113     0.1 6  277 255 
 HEL  HN ES   1   1552 33.70                             113    -0.4 6  277 255 
 RREF BZ EP   1   1552  8.84                             109     0.2 5  329 229 
 RREF BN ES   2   1552 45.33                             109     0.2 3  329 229 
 RREF BZ I        1552 53.77        50.0 0.53                           329 229 
 DBB  SZ IP       1552  8.97                             108    -0.6 7  343 273 
 TOL  SZ EP   1   1552 10.67                             108    -0.1 5  351 224 
 SDV  BZ EP       1552 10.42                             108    -0.5 6  353  51 
 ANIL BZ EP       1552 13.06                             107     0.7 6  365 224 
 ANIL BZ I        1553  0.02        65.6 0.34                           365 224 
 PRA  HZ EP   1   1552 15.19                             105    -0.9 4  400 210 
 PRA  HN ES   2   1552 57.69                             105    -0.7 3  400 210 
 PRA  HZ I        1553  4.40        32.2 0.60                           400 210 
                                                                                
