 2015  313 1611 35.7 L   6.830 -73.146150.5  RSN  8 0.3 1.6LRSN                1
 GAP=135        0.76       5.0     5.1  6.4 -0.1490E+02  0.1307E+02 -0.1921E+01E
 Epicentro: LOS SANTOS - SANTANDER                                             3
 ACTION:UPD 15-04-30 16:25 OP:nd   STATUS:               ID:20150313161135 L   I
 OLDACT:REG 15-03-13 21:26 OP:y    STATUS:               ID:20150313160748     3
 2015-03-13-1607-48M.COL___275                                                 6
 STAT SP IPHASW D HRMM SECON CODA AMPLIT PERI AZIMU VELO AIN AR TRES W  DIS CAZ7
 BAR2 EZ EP       1611 55.71                             169   -0.2810 26.6 189 
 BAR2 EZ ES   1   1612 11.82                             169    0.02 7 26.6 189 
 BAR2 EZ I        1612 13.62         5.3 0.48            170           26.6 189 
 BRR  HZ EP   1   1611 57.93                             154    0.63 7 69.6 296 
 PAM  SZ EP     C 1611 58.60                             152    0.2910 74.9  41 
 PAM  SN ES       1612 15.72                             152   -0.2010 74.9  41 
 PAM  SZ I        1612 17.79         7.0 0.20            157           74.9  41 
 RUS  HZ EP   1   1612  0.32                             144    0.14 7  104 176 
 RUS  HN ES   1   1612 19.55                             144    0.29 7  104 176 
 RUS  HZ I        1612 21.66         2.2 0.76            147            104 176 
 PTB  HZ EP       1612  2.61                             133   -0.53 9  148 258 
 PTB  HE ES   1   1612 24.64                             133    0.12 7  148 258 
 PTB  HZ I        1612 29.67         6.2 0.50            134            148 258 
 SPBC HZ EP       1612  4.70                             130   -0.13 9  166 218 
 SPBC HN ES   1   1612 27.02                             130   -0.51 7  166 218 
 SPBC HZ I        1612 29.22         7.4 0.24            132            166 218 
 NOR  HZ EP       1612 12.06                             119    0.12 8  237 234 
 NOR  HN ES       1612 40.56                             119    0.38 8  237 234 
 NOR  HZ I        1612 43.03         3.7 0.38            122            237 234 
 GUY2CHZ EP   4   1612 22.03                             113    2.26 0  303 234 
 GUY2CHN ES   4   1612 58.48                             113    4.36 0  303 234 
 GUY2CHZ I        1613  2.62         3.1 0.70                           303 234 
                                                                                
