 2011  913 1343  5.0 L   6.788 -73.129145.4  RSN  5 0.2 2.0LRSN                1
 GAP=139        0.49       3.8     3.7  5.7 -0.4607E+01  0.1621E+01  0.8953E+01E
 Epicentro: LOS SANTOS - SANTANDER                                             3
 ACTION:UPD 12-07-13 15:57 OP:ep   STATUS:               ID:20110913134305 L   I
 2011-09-13-1341-34S.COL___169                                                 6
 STAT SP IPHASW D HRMM SECON CODA AMPLIT PERI AZIMU VELO AIN AR TRES W  DIS CAZ7
 BAR2 SZ IP       1343 24.37                             171   -0.1710 22.5 195 
 BAR2 SZ I        1343 40.68        26.1 0.16                          22.5 195 
 BRR  HZ IP       1343 26.15                             152   -0.0610 73.4 299 
 BRR  HZ I        1343 26.42        33.2 0.30                          73.4 299 
 BRR  HN ES   1   1343 43.07                             152    0.30 7 73.4 299 
 PAM  SZ EP       1343 27.15                             151    0.0110 77.2  38 
 PAM  SN ES   1   1343 44.20                             151   -0.23 7 77.2  38 
 RUS  HZ EP       1343 28.83                             144    0.2410 99.2 177 
 RUS  HE ES   2   1343 47.03                             144    0.03 5 99.2 177 
 RUS  HZ I        1343 48.79         9.0 0.24                          99.2 177 
 NOR  SZ EP       1343 40.88                             118    0.12 8  235 235 
 NOR  SE ES   1   1344  8.25                             118   -0.42 6  235 235 
                                                                                
