 2017  813 1051  1.3 L   6.817 -73.107154.1  RSN 14 0.4 2.0LRSN                1
 GAP=115        0.89       3.0     3.2  4.8  0.5817E+00  0.3069E+01  0.4330E+01E
 Epicentro: LOS SANTOS - SANTANDER                                             3
 ACTION:UPD 17-09-04 20:19 OP:rebc STATUS:               ID:20170813105101 L   I
 OLDACT:UP  17-08-14 03:31 OP:edw  STATUS:               ID:20170813104743     3
 OLDACT:UP  17-08-14 03:30 OP:edw  STATUS:               ID:20170813104743     3
 OLDACT:REG 17-08-14 02:40 OP:osc  STATUS:               ID:20170813104743     3
 2017-08-13-1048-00M.COL___407                                                 6
 STAT SP IPHASW D HRMM SECON CODA AMPLIT PERI AZIMU VELO AIN AR TRES W  DIS CAZ7
 BAR2 EZ IP     D 1051 21.94                             170   -0.0610 26.2 198 
 BAR2 EZ ES       1051 37.84                             170   -0.3010 26.2 198 
 BAR2 EZ I        1051 39.61        24.5 0.24            168           26.2 198 
 PAM  EZ EP       1051 24.00                             153   -0.1910 73.2  38 
 PAM  EE ES       1051 42.34                             153    0.3110 73.2  38 
 PAM  EZ I        1051 44.01        20.8 0.50            156           73.2  38 
 BRR  HZ EP       1051 23.95                             153    0.4210 74.1 296 
 BRR  HE ES       1051 41.12                             153    0.2710 74.1 296 
 BRR  HZ I        1051 44.54        12.6 0.50            152           74.1 296 
 RUS  HZ EP       1051 26.18                             145    0.1710  102 179 
 RUS  HN ES       1051 45.23                             145   -0.0410  102 179 
 RUS  HZ I        1051 45.64        18.6 0.26            145            102 179 
 SPBC HZ EP       1051 30.93                             130    0.08 9  167 220 
 SPBC HE ES       1051 53.60                             130   -0.29 9  167 220 
 SPBC HZ I        1051 55.60        24.4 0.24            130            167 220 
 YPLC HZ EP       1051 32.30                             128    0.60 9  177 153 
 YPLC HE ES       1051 55.10                             128   -0.30 9  177 153 
 YPLC HZ I        1051 57.07         8.6 0.26            130            177 153 
 ZAR  HZ EP       1051 33.68                             124   -0.96 8  207 291 
 ZAR  HN ES       1052  0.27                             124   -0.37 8  207 291 
 ZAR  HZ I        1052  6.25         8.2 0.20            124            207 291 
 NOR  HZ EP       1051 38.20                             120    0.18 8  239 235 
 NOR  HN ES       1052  7.05                             120    0.40 8  239 235 
 NOR  HZ I        1052  7.31         7.7 0.16            120            239 235 
 CHI  HZ EP       1051 40.08                             118    0.27 8  252 196 
 CHI  HN ES       1052  9.49                             118   -0.34 8  252 196 
 CHI  HZ I        1052 12.79         3.8 0.72            119            252 196 
 ROSC BZ EP   4   1051 41.64                             118    1.32 0  257 212 
 ROSC BN ES   4   1052  8.81                             118   -1.93 0  257 212 
 ROSC BZ I        1052 17.83         8.9 0.40            118            257 212 
 HEL  HN ES   4   1052 16.36                             116    1.80 0  277 256 
 GUY2CHZ EP   4   1051 47.56                             113    1.73 0  306 235 
 GUY2CHE ES       1052 21.10                             113    0.55 7  306 235 
 GUY2CHZ I        1052 30.34         4.5 0.46                           306 235 
 PTGC HZ EP       1051 44.97                             113   -0.62 7  309 160 
 PTGC HN ES   4   1052 17.51                             113   -2.61 0  309 160 
 PRA  HZ EP       1051 55.91                             108    0.34 6  396 210 
 PRA  HN ES       1052 37.61                             108   -0.28 6  396 210 
 PRA  HZ I        1052 46.19         3.2 0.30            108            396 210 
 SJC  HZ EP   9   1051 56.44                             107   -0.81 0  410 326 
 SJC  HN ES   2   1052 39.15                             107   -0.92 3  410 326 
                                                                                
