 2013  913 1033 11.4 L   6.781 -73.137145.9  RSN 10 0.4 2.0LRSN                1
 GAP=139        0.93       3.6     3.9  5.4 -0.1678E+01  0.5821E+01  0.6072E+00E
 Epicentro: LOS SANTOS - SANTANDER                                             3
 ACTION:UPD 13-10-22 09:22 OP:ep   STATUS:               ID:20130913103311 L   I
 OLDACT:REG 13-09-13 17:19 OP:cam  STATUS:               ID:20130913102959     3
 2013-09-13-1029-59M.COL___269                                                 6
 STAT SP IPHASW D HRMM SECON CODA AMPLIT PERI AZIMU VELO AIN AR TRES W  DIS CAZ7
 BAR2 SZ IP     D 1033 30.96                             171   -0.0210 21.5 194 
 BAR2 SZ ES       1033 45.98                             171   -0.3010 21.5 194 
 BAR2 SZ I        1033 47.19        25.4 0.16            176           21.5 194 
 BRR  HZ IP     C 1033 32.80                             152    0.1610 73.1 300 
 BRR  HN ES       1033 49.74                             152    0.5110 73.1 300 
 BRR  HZ I        1033 52.11        16.1 0.36            143           73.1 300 
 PAM  SZ EP     D 1033 33.97                             150    0.3110 78.4  38 
 PAM  SN ES       1033 50.91                             150   -0.1410 78.4  38 
 PAM  SZ I        1033 53.53        11.6 0.34            140           78.4  38 
 RUS  HZ EP     C 1033 34.92                             144   -0.0610 98.4 177 
 RUS  HN ES       1033 53.54                             144    0.1510 98.4 177 
 RUS  HZ I        1033 54.36         8.3 0.20            142           98.4 177 
 PTB  HZ EP       1033 37.53                             132   -0.87 9  148 260 
 PTB  HN ES       1033 58.87                             132   -0.61 9  148 260 
 PTB  HZ I        1034  0.96        15.7 0.14            125            148 260 
 SPBC HZ EP     C 1033 39.94                             129    0.16 9  162 220 
 SPBC HN ES       1034  1.96                             129    0.02 9  162 220 
 SPBC HZ I        1034  9.37        12.0 0.22            124            162 220 
 ZAR  HZ EP   1   1033 43.96                             122   -0.04 6  206 293 
 ZAR  HN ES       1034  9.85                             122    0.40 8  206 293 
 ZAR  HZ I        1034 14.81        16.4 0.50            114            206 293 
 NOR  HZ EP       1033 47.48                             119    0.42 8  234 235 
 NOR  HE ES   1   1034 14.95                             119    0.05 6  234 235 
 NOR  HZ I        1034 17.90         8.9 0.18            113            234 235 
 SML  HZ EP   1   1033 47.55                             117   -0.70 6  246 335 
 SML  HZ I        1034 23.29        12.2 0.10            109            246 335 
 GUY2CHZ EP   1   1033 55.62                             112    0.68 5  301 235 
                                                                                
