 2012  613 1104 48.7 L   6.835 -73.183134.6  RSN 14 0.6 2.6LRSN                1
 GAP=130        1.01       3.9     5.6  8.8 -0.5588E+01  0.2241E+02  0.4635E+01E
 Epicentro: ZAPATOCA - SANTANDER                                               3
 ACTION:UPD 12-08-06 17:49 OP:ep   STATUS:               ID:20120613110448 L   I
 2012-06-13-1100-00M.COL___201                                                 6
 STAT SP IPHASW D HRMM SECON CODA AMPLIT PERI AZIMU VELO AIN AR TRES W  DIS CAZ7
 BAR2 SZ IP     D 11 5  7.18                             168    0.0710 26.8 180 
 BAR2 SZ I        11 5 23.49       143.9 0.16                          26.8 180 
 PAM  SZ EP       11 5 10.00                             149    0.2310 77.2  44 
 PAM  SN ES   1   11 5 27.06                             149    0.89 7 77.2  44 
 RUS  HZ EP       11 5 11.18                             140   -0.5610  105 174 
 RUS  HN ES   1   11 5 29.19                             140   -0.48 7  105 174 
 RUS  HZ I        11 5 30.85        68.1 0.32                           105 174 
 PTB  HZ EP       11 5 13.94                             130   -0.58 9  145 257 
 PTB  HN ES   1   11 5 34.17                             130   -0.45 7  145 257 
 PTB  HZ I        11 5 38.56        39.0 0.13                           145 257 
 OCA  HZ EP   1   11 5 15.25                             128   -0.54 7  156 354 
 OCA  HN ES   1   11 5 36.94                             128    0.05 7  156 354 
 OCA  HZ I        11 5 40.13       102.0 0.27                           156 354 
 ZAR  HZ EP   1   11 5 20.04                             120    0.11 6  199 292 
 ZAR  HZ I        11 5 51.14        71.8 0.20                           199 292 
 NOR  SZ EP       11 5 23.78                             116    0.05 8  234 233 
 NOR  SE ES   1   11 5 50.81                             116   -0.21 6  234 233 
 CHI  HZ EP   1   11 5 25.33                             114   -0.82 6  251 194 
 CHI  HN ES   1   11 5 55.73                             114    0.41 6  251 194 
 CHI  HZ I        11 6  0.27        11.8 0.23                           251 194 
 ROSC BZ EP   1   11 5 27.42                             114    1.01 6  254 210 
 ROSC BZ I        11 6  3.29        28.6 0.32                           254 210 
 HEL  HZ EP   1   11 5 28.32                             113    0.25 6  269 255 
 HEL  HZ I        11 6  6.30        31.3 0.24                           269 255 
 GUY  SZ EP   1   11 5 32.35                             110    0.35 5  302 234 
 GUY  SN ES   1   11 6  6.93                             110    1.20 5  302 234 
 GUY  SZ I        11 6 12.72        22.6 0.21                           302 234 
 DBB  SZ EP   1   11 5 35.13                             108   -0.15 5  335 274 
 TOL  SZ EP   1   11 5 37.30                             107    0.74 5  343 224 
 PRA  HZ EP       11 5 41.79                             104   -0.27 6  393 209 
 PRA  HN ES   1   11 6 24.67                             104    1.02 4  393 209 
                                                                                
