 2014 1213 1430 12.3 L   6.805 -73.147143.8  RSN 19 0.4 2.3LRSN                1
 GAP= 71        1.02       2.4     2.8  4.6 -0.9629E+00  0.3714E+01  0.1463E+01E
 Epicentro: LOS SANTOS - SANTANDER                                             3
 ACTION:UPD 15-02-10 17:03 OP:nd   STATUS:               ID:20141213143012 L   I
 OLDACT:REG 14-12-13 20:36 OP:fm   STATUS:               ID:20141213142744     3
 2014-12-13-1427-44M.COL___294                                                 6
 STAT SP IPHASW D HRMM SECON CODA AMPLIT PERI AZIMU VELO AIN AR TRES W  DIS CAZ7
 BAR2 EZ EP       1430 31.94                             170    0.2210 23.8 189 
 BAR2 EZ ES       1430 46.98                             170    0.1310 23.8 189 
 BAR2 EZ I        1430 48.33        83.6 0.18            170           23.8 189 
 BRR  HZ EP       1430 33.80                             152    0.5710 70.8 298 
 BRR  HE ES       1430 50.43                             152    0.8910 70.8 298 
 BRR  HZ I        1430 51.60        30.8 0.34            149           70.8 298 
 PAM  SZ EP     D 1430 34.68                             151    0.3810 77.1  40 
 PAM  SN ES       1430 51.62                             151    0.1710 77.1  40 
 PAM  SZ I        1430 54.27        29.4 0.54            152           77.1  40 
 RUS  HZ EP       1430 35.77                             143   -0.1410  101 176 
 RUS  HE ES       1430 53.91                             143   -0.4110  101 176 
 RUS  HZ I        1430 55.74        28.4 0.22            145            101 176 
 PTB  HZ EP       1430 38.98                             132   -0.14 9  148 259 
 PTB  HE ES       1430 59.78                             132   -0.24 9  148 259 
 PTB  HZ I        1431  1.46        25.0 0.18            130            148 259 
 TAM  HZ EP     D 1430 40.21                             130    0.35 9  155 105 
 TAM  HN ES       1431  0.79                             130   -0.56 9  155 105 
 TAM  HZ I        1431  0.83        13.5 0.34            133            155 105 
 OCA  HZ EP       1430 40.67                             129    0.25 9  160 353 
 OCA  HE ES       1431  1.52                             129   -0.82 9  160 353 
 OCA  HZ I        1431  5.23        24.4 0.20            129            160 353 
 SPBC HZ EP       1430 40.69                             129   -0.00 9  164 219 
 SPBC HN ES       1431  2.61                             129   -0.22 9  164 219 
 SPBC HZ I        1431  5.60        37.9 0.20            128            164 219 
 ZAR  HZ EP       1430 44.20                             122   -0.39 9  204 292 
 ZAR  HN ES       1431  9.69                             122   -0.08 9  204 292 
 ZAR  HZ I        1431 16.11        24.7 0.30            121            204 292 
 NOR  HZ EP       1430 47.71                             118   -0.24 8  235 234 
 NOR  HE ES       1431 15.28                             118   -0.46 8  235 234 
 NOR  HZ I        1431 17.18        18.4 0.14            117            235 234 
 SML  HZ EP       1430 48.94                             117    0.17 8  243 335 
 SML  HN ES       1431 16.38                             117   -0.82 8  243 335 
 SML  HZ I        1431 26.36        23.4 0.22            116            243 335 
 CHI  HZ EP       1430 50.04                             117    0.09 8  249 195 
 CHI  HN ES       1431 19.10                             117   -0.21 8  249 195 
 CHI  HZ I        1431 22.65         7.7 0.22            117            249 195 
 HEL  HZ EP       1430 52.95                             114    0.53 8  272 256 
 RREF HZ EP       1430 58.36                             110   -0.03 7  322 229 
 RREF HN ES       1431 35.01                             110    0.67 7  322 229 
 RREF HZ I        1431 41.70         9.6 0.42            110            322 229 
 CBOC HZ EP       1430 59.03                             110   -0.12 7  334 252 
 CBOC HN ES       1431 35.44                             110   -0.24 7  334 252 
 CBOC HZ I        1431 42.37         4.3 0.60            109            334 252 
 TOL  SZ EP       1431  1.15                             109    0.63 7  344 225 
 TOL  SE ES       1431 39.10                             109    0.98 7  344 225 
 TOL  SZ I        1431 48.43        24.4 0.48            109            344 225 
 MON  HE ES   4   1431 36.53                             108   -2.78 0  353 308 
 MON  HZ I        1431 52.67         3.8 0.72            108            353 308 
 ANIL HE ES       1431 40.51                             108   -0.38 6  358 224 
 ANIL HZ I        1431 45.88         2.0 0.50            108            358 224 
 ORTC HZ EP       1431  5.80                             106   -0.40 6  396 216 
 ORTC HN ES       1431 47.67                             106   -0.57 6  396 216 
 ORTC HZ I        1431 55.83         7.7 0.66            106            396 216 
                                                                                
