 2012 1113 1113 57.7 L   6.807 -73.158140.9  RSN  9 0.4 1.8LRSN                1
 GAP=135        1.08       4.6     4.6  6.3  0.1997E+01  0.6216E+01 -0.9728E+00E
 Epicentro: LOS SANTOS - SANTANDER                                             3
 ACTION:UPD 12-12-05 15:33 OP:}ep  STATUS:               ID:20121113111357 L   I
 2012-11-13-1110-00M.COL___230                                                 6
 STAT SP IPHASW D HRMM SECON CODA AMPLIT PERI AZIMU VELO AIN AR TRES W  DIS CAZ7
 BAR2 SZ EP       1114 16.84                             170    0.0810 23.9 186 
 BAR2 SZ ES       1114 30.84                             170   -0.7810 23.9 186 
 BAR2 SZ I        1114 32.69        17.8 0.32                          23.9 186 
 GIR2 SZ EP       1114 16.93                             167    0.1610 30.3 353 
 BRR  HZ EP       1114 18.56                             152    0.3310 69.6 299 
 BRR  HE ES       1114 34.88                             152    0.6310 69.6 299 
 PAM  SZ IP     C 1114 19.70                             150    0.2810 77.7  41 
 PAM  SZ I        1114 19.89         6.4 0.16                          77.7  41 
 PAM  SN ES       1114 36.38                             150    0.0210 77.7  41 
 RUS  HZ EP       1114 21.23                             143    0.1910  101 175 
 RUS  HN ES       1114 39.02                             143   -0.2310  101 175 
 RUS  HN I        1114 41.07        10.8 0.28                           101 175 
 PTB  HZ EP       1114 23.51                             131   -0.65 9  147 258 
 PTB  HE ES       1114 45.24                             131    0.44 9  147 258 
 PTB  HE I        1114 47.02        13.2 0.36                           147 258 
 ZAR  HZ EP       1114 29.60                             121   -0.07 9  202 292 
 ZAR  HN ES       1114 54.19                             121   -0.41 9  202 292 
 ZAR  HZ I        1114 56.48         4.1 0.12                           202 292 
 SML  HZ EP       1114 33.25                             116   -0.66 8  242 336 
 CHI  HZ EP       1114 35.58                             116    0.41 8  249 195 
                                                                                
