 2016 1113 1916 11.9 L   6.729 -73.108139.8  RSN  6 0.4 1.9LRSN                1
 GAP=175        1.04       6.5     5.5  7.3 -0.9688E+01  0.1428E+02  0.7170E+01E
 Epicentro: JORDAN - SANTANDER                                                 3
 ACTION:UPD 17-10-26 21:07 OP:lp   STATUS:               ID:20161113191611 L   I
 OLDACT:UP  16-11-15 01:01 OP:ar   STATUS:               ID:20161113190744     3
 OLDACT:UP  16-11-15 01:01 OP:ar   STATUS:               ID:20161113190744     3
 OLDACT:REG 16-11-15 00:56 OP:ar   STATUS:               ID:20161113190744     3
 2016-11-13-1908-00M.COL___343                                                 6
 STAT SP IPHASW D HRMM SECON CODA AMPLIT PERI AZIMU VELO AIN AR TRES W  DIS CAZ7
 BAR2 EZ EP       1916 30.92                             173    0.2710 17.3 209 
 BAR2 EZ ES       1916 44.57                             173   -0.7410 17.3 209 
 BAR2 EZ I        1916 46.93        22.4 0.24            170           17.3 209 
 BRR  HZ EP       1916 32.84                             149    0.0310 78.8 302 
 BRR  HN ES       1916 49.66                             149    0.5010 78.8 302 
 BRR  HZ I        1916 53.29        20.2 0.48            146           78.8 302 
 PAM  EZ IP     C 1916 33.77                             148    0.1110 81.1  34 
 PAM  EN ES       1916 50.90                             148    0.2210 81.1  34 
 PAM  EZ I        1916 52.56         5.4 0.42            151           81.1  34 
 PTB  HZ EP       1916 38.09                             130   -0.51 9  151 262 
 PTB  HN ES   4   1916 57.66                             130   -1.80 0  151 262 
 PTB  HZ I        1917  0.79        11.1 0.20            130            151 262 
 ZAR  HZ EP       1916 44.10                             120   -0.54 8  211 294 
 ZAR  HN ES       1917 10.01                             120   -0.20 8  211 294 
 ZAR  HZ I        1917 17.55        10.9 0.50            120            211 294 
 NOR  HZ EP       1916 47.46                             117    0.33 8  234 237 
 NOR  HN ES       1917 15.19                             117    0.54 8  234 237 
 NOR  HZ I        1917 21.48         3.2 0.12            118            234 237 
                                                                                
