 2014  913 1715 54.0 L   6.142 -73.623115.7  RSN  8 0.3 1.6LRSN                1
 GAP=108        0.74       2.8     3.2  5.7 -0.2189E+01  0.7097E+01 -0.2531E+01E
 Epicentro: LA PAZ - SANTANDER                                                 3
 ACTION:UPD 14-10-03 23:04 OP:nd   STATUS:               ID:20140913171554 L   I
 OLDACT:DUP 14-09-14 01:34 OP:spq  STATUS:               ID:20140913170820d    3
 2014-09-13-1708-19M.COL___290                                                 6
 STAT SP IPHASW D HRMM SECON CODA AMPLIT PERI AZIMU VELO AIN AR TRES W  DIS CAZ7
 RUS  HZ EP       1716 12.43                             149    0.0610 65.8 115 
 RUS  HE ES   1   1716 26.04                             149   -0.63 7 65.8 115 
 RUS  HZ I        1716 30.73         4.2 0.28            153           65.8 115 
 BAR2 SZ EP       1716 12.48                             147    0.2210 69.7  44 
 BAR2 SZ ES   1   1716 26.76                             147    0.28 7 69.7  44 
 BAR2 SZ I        1716 28.45        19.7 0.46            150           69.7  44 
 SPBC HZ EP       1716 12.06                             145   -0.2510 73.6 223 
 SPBC HE ES       1716 26.70                             145    0.1210 73.6 223 
 SPBC HZ I        1716 27.99         6.0 0.20            150           73.6 223 
 PTB  HZ EP   4   1716 13.04                             135   -1.40 0  102 296 
 PTB  HE ES   4   1716 28.37                             135   -2.00 0  102 296 
 PTB  HZ I        1716 32.97         5.4 0.16            139            102 296 
 BRR  HZ EP       1716 14.72                             134   -0.1410  107 355 
 BRR  HN ES       1716 31.32                             134    0.2210  107 355 
 BRR  HZ I        1716 34.40         7.0 0.16            137            107 355 
 NOR  HZ EP       1716 19.77                             123    0.54 9  152 245 
 NOR  HE ES       1716 38.71                             123   -0.17 9  152 245 
 NOR  HZ I        1716 39.51         8.4 0.14            128            152 245 
 ZAR  HZ EP       1716 24.07                             115   -0.46 9  202 318 
 ZAR  HE ES       1716 48.13                             115   -0.19 9  202 318 
 ZAR  HZ I        1716 49.55         5.8 0.29            119            202 318 
 GUY2CHZ EP       1716 27.02                             113    0.15 8  218 242 
 GUY2CHN ES   4   1716 55.24                             113    2.76 0  218 242 
 GUY2CHZ I        1716 57.83         2.9 0.56                           218 242 
                                                                                
