 2011 1213 1033 48.7 L   6.806 -73.135149.4  RSN  5 0.3 1.6LRSN                1
 GAP=138        0.43       4.6     4.5  6.1 -0.1604E+01  0.4240E+01 -0.2570E+00E
 Epicentro: LOS SANTOS - SANTANDER                                             3
 ACTION:UPD 12-07-13 16:15 OP:ep   STATUS:               ID:20111213103348 L   I
 2011-12-13-1030-00M.COL___184                                                 6
 STAT SP IPHASW D HRMM SECON CODA AMPLIT PERI AZIMU VELO AIN AR TRES W  DIS CAZ7
 BAR2 SZ EP   2   1034  8.64                             170   -0.16 5 24.2 193 
 BAR2 SZ ES   2   1034 24.38                             170   -0.08 5 24.2 193 
 BAR2 SZ I        1034 24.61         9.3 0.31                          24.2 193 
 BRR  HZ EP   1   1034 10.46                             153    0.16 7 71.9 298 
 BRR  HZ I        1034 12.38        15.8 0.36                          71.9 298 
 BRR  HN ES   2   1034 27.33                             153    0.20 5 71.9 298 
 PAM  SZ EP   2   1034 11.60                             152    0.36 5 76.1  39 
 PAM  SN ES   2   1034 28.44                             152   -0.37 5 76.1  39 
 RUS  HZ EP   2   1034 13.01                             144    0.14 5  101 177 
 RUS  HN ES   2   1034 31.76                             144    0.06 5  101 177 
 RUS  HZ I        1034 32.40         3.0 0.17                           101 177 
 PTB  HZ EP   2   1034 15.46                             132   -0.64 5  149 259 
 PTB  HN ES   2   1034 37.52                             132    0.06 5  149 259 
                                                                                
