 2010 1113 1202 28.3 L   6.741 -73.091147.7  RSN  5 0.2 1.8LRSN                1
 GAP=165        0.50       3.4     5.3  5.8  0.2366E-01 -0.5820E+00  0.2953E+00E
 Epicentro: JORDAN - SANTANDER                                                 3
 ACTION:UP  10-12-17 16:52 OP:REBC STATUS:               ID:20101113120228 L   I
 2010-11-13-1200-33S.COL___128                                                 6
 STAT SP IPHASW D HRMM SECON CODA AMPLIT PERI AZIMU VELO SNR AR TRES W  DIS CAZ7
 BAR2 SZ EP       12 2 48.02                             172    -0.110   19 212 
 BAR2 SZ ES   2   12 3  3.01                             172    -0.5 5   19 212 
 BAR2 SZ I        12 3  4.03        11.7 0.31                            19 212 
 BRR  HZ EP   1   12 2 50.10                             150    -0.1 7   80 301 
 BRR  HZ I        12 2 50.43        19.3 0.12                            80 301 
 BRR  HN ES   1   12 3  7.48                             150     0.3 7   80 301 
 RUS  HZ EP   1   12 2 51.85                             146     0.1 7   94 179 
 RUS  HE ES   1   12 3 10.26                             146     0.2 7   94 179 
 RUS  HZ I        12 3 11.44         8.5 0.19                            94 179 
 GRA  SZ EP   2   12 2 54.18                             136     0.1 5  130  14 
 GRA  SZ ES   2   12 3 14.07                             136    -0.2 5  130  14 
 GRA  SZ I        12 3 16.49         6.3 0.30                           130  14 
 NOR  SZ EP   2   12 3  4.49                             119     0.2 4  236 237 
 NOR  SN ES   2   12 3 31.80                             119    -0.6 4  236 237 
                                                                                
