 2014  313 1721 23.9 L   6.794 -73.143146.7  RSN 13 0.5 2.2LRSN                1
 GAP=137        1.30       3.7     5.0  7.0 -0.1804E+01  0.9749E+01  0.9635E+00E
 Epicentro: LOS SANTOS - SANTANDER                                             3
 ACTION:UPD 14-04-09 23:16 OP:nd   STATUS:               ID:20140313172123 L   I
 OLDACT:REG 14-03-13 15:49 OP:cam  STATUS:               ID:20140313172045     3
 2014-03-13-1720-45M.COL___244                                                 6
 STAT SP IPHASW D HRMM SECON CODA AMPLIT PERI AZIMU VELO AIN AR TRES W  DIS CAZ7
 BAR2 SZ EP       1721 43.12                             171   -0.5310 22.7 191 
 BAR2 SZ ES       1721 58.93                             171   -0.1110 22.7 191 
 BAR2 SZ I        1722  0.70        41.1 0.48            169           22.7 191 
 BRR  HZ EP       1721 45.87                             152    0.6710 71.8 299 
 BRR  HN ES       1722  3.00                             152    1.2010 71.8 299 
 BRR  HZ I        1722  7.16        18.6 0.14            151           71.8 299 
 PAM  SZ EP       1721 46.66                             151    0.4110 77.7  39 
 PAM  SN ES       1722  3.08                             151   -0.5910 77.7  39 
 PAM  SZ I        1722  6.05        23.9 0.56            156           77.7  39 
 RUS  HZ EP       1721 47.79                             144    0.0810 99.9 176 
 RUS  HN ES       1722  6.45                             144    0.1810 99.9 176 
 RUS  HZ I        1722  9.12        14.9 0.48            147           99.9 176 
 PTB  HZ EP       1721 50.44                             132   -0.53 9  148 259 
 PTB  HN ES       1722 11.93                             132   -0.15 9  148 259 
 PTB  HZ I        1722 19.38        21.3 0.42            133            148 259 
 SPBC HZ EP       1721 52.78                             129    0.32 9  163 219 
 SPBC HN ES       1722 14.24                             129   -0.48 9  163 219 
 SPBC HZ I        1722 19.90        25.0 0.20            131            163 219 
 ZAR  HZ EP       1721 56.92                             123    0.45 9  205 292 
 ZAR  HN ES       1722 21.81                             123   -0.06 9  205 292 
 ZAR  HZ I        1722 27.81        18.0 0.56            124            205 292 
 NOR  HZ EP       1721 59.92                             119    0.24 8  235 235 
 NOR  HN ES       1722 27.33                             119   -0.25 8  235 235 
 NOR  HZ I        1722 30.23        10.4 0.24            120            235 235 
 SML  HZ EP       1722  0.84                             118    0.17 8  244 335 
 SML  HN ES       1722 28.07                             118   -1.27 8  244 335 
 SML  HZ I        1722 31.96        23.6 0.24            120            244 335 
 CHI  HZ EP       1722  1.92                             117    0.31 8  248 195 
 CHI  HN ES       1722 30.56                             117   -0.45 8  248 195 
 CHI  HZ I        1722 37.18         5.7 0.24            120            248 195 
 GUY2CHZ EP   4   1722  7.97                             113    0.42 0  301 235 
 GUY2CHN ES       1722 41.42                             113   -0.17 7  301 235 
 GUY2CHZ I        1722 50.53         8.9 0.76                           301 235 
 CBOC HZ EP   4   1722 12.17                             110    1.29 0  334 252 
 CBOC HN ES   4   1722 47.35                             110   -0.16 0  334 252 
 CBOC HZ I        1722 54.36         3.0 0.40            112            334 252 
 SJC  HZ EP   4   1722 18.01                             106   -1.58 0  410 327 
 SJC  HN ES   4   1722 57.79                             106   -5.23 0  410 327 
 SJC  HZ I        1723  3.51         2.5 0.56            108            410 327 
                                                                                
