 2014  713 1001 26.8 L   6.803 -73.139146.9  RSN  8 0.3 1.7LRSN                1
 GAP=216        0.55       2.6     3.7  4.4 -0.1376E+01  0.4209E+01 -0.3090E+01E
 Epicentro: LOS SANTOS - SANTANDER                                             3
 ACTION:UPD 15-03-16 20:43 OP:nd   STATUS:               ID:20140713100126 L   I
 OLDACT:UP  14-07-13 22:28 OP:cam  STATUS:               ID:20140713100000     3
 OLDACT:REG 14-07-13 20:54 OP:cam  STATUS:               ID:20140713100000     3
 2014-07-13-1000-00M.COL___282                                                 6
 STAT SP IPHASW D HRMM SECON CODA AMPLIT PERI AZIMU VELO AIN AR TRES W  DIS CAZ7
 BAR2 SZ EP   1   10 1 46.54                             171   -0.01 7 23.8 192 
 BAR2 SZ ES       10 2  1.94                             171   -0.0310 23.8 192 
 BAR2 SZ I        10 2  3.36         9.4 0.18            168           23.8 192 
 PTB  HZ EP       10 1 53.67                             132   -0.23 9  149 259 
 PTB  HN ES       10 2 14.99                             132   -0.07 9  149 259 
 PTB  HZ I        10 2 21.32         2.9 0.24            132            149 259 
 SPBC HN ES   1   10 2 18.17                             129    0.40 7  164 219 
 SPBC HZ I        10 2 24.86         5.2 0.28            130            164 219 
 ZAR  HZ EP   1   10 1 59.20                             123   -0.15 6  205 292 
 ZAR  HN ES       10 2 25.11                             123    0.35 9  205 292 
 ZAR  HZ I        10 2 27.20         4.4 0.16            123            205 292 
 NOR  HN ES       10 2 30.40                             119   -0.24 8  235 235 
 SML  HZ EP       10 2  3.46                             118   -0.01 8  244 335 
 SML  HN ES       10 2 32.14                             118    0.06 8  244 335 
 SML  HZ I        10 2 35.43         5.1 0.26            120            244 335 
 GUY2CHZ EP   1   10 2 10.12                             113   -0.40 5  302 235 
 PRA  HZ EP   1   10 2 21.23                             107    0.82 4  393 210 
                                                                                
