 2010 1113 1555  3.7 L   6.769 -73.094136.0  RSN  6 0.3 1.9LRSN                1
 GAP=165        0.61       4.1     6.1  7.2 -0.8376E+01 -0.4341E+01  0.3072E+01E
 Epicentro: LOS SANTOS - SANTANDER                                             3
 ACTION:UP  10-12-17 16:52 OP:REBC STATUS:               ID:20101113155503 L   I
 2010-11-13-1552-49S.COL___129                                                 6
 STAT SP IPHASW D HRMM SECON CODA AMPLIT PERI AZIMU VELO SNR AR TRES W  DIS CAZ7
 BAR2 SZ EP       1555 22.12                             170     0.010   22 207 
 BAR2 SZ ES   2   1555 35.82                             170    -0.7 5   22 207 
 BAR2 SZ I        1555 37.73        19.0 0.26                            22 207 
 BTL  SZ EP       1555 22.30                             169     0.110   25 311 
 BRR  HZ EP   1   1555 23.94                             148    -0.2 7   78 299 
 BRR  HZ I        1555 26.57        22.8 0.14                            78 299 
 BRR  HE ES   1   1555 40.40                             148     0.2 7   78 299 
 RUS  HZ EP   2   1555 26.16                             143     0.0 5   97 179 
 RUS  HE ES   2   1555 44.15                             143     0.4 5   97 179 
 RUS  HZ I        1555 46.33         6.8 0.24                            97 179 
 GRA  SZ EP   1   1555 27.90                             134    -0.3 7  128  15 
 GRA  SZ ES   1   1555 47.54                             134     0.2 7  128  15 
 GRA  SZ I        1555 48.27        17.5 0.43                           128  15 
 NOR  SZ EP   2   1555 39.73                             116     0.6 4  238 236 
 NOR  SE ES   2   1556  6.42                             116    -0.4 4  238 236 
                                                                                
