 2014  113 1515 22.5 L   6.815 -73.140148.6  RSN 17 0.5 2.6LRSN                1
 GAP=136        1.13       2.6     4.1  5.1 -0.3442E+01  0.6483E+01  0.1196E+00E
 Epicentro: LOS SANTOS - SANTANDER                                             3
 ACTION:UPD 14-03-13 09:55 OP:ep   STATUS:               ID:20140113151522 L   I
 OLDACT:REG 14-01-13 14:50 OP:carl STATUS:               ID:20140113151000     3
 2014-01-13-1510-00M.COL___285                                                 6
 STAT SP IPHASW D HRMM SECON CODA AMPLIT PERI AZIMU VELO AIN AR TRES W  DIS CAZ7
 BAR2 SZ EP       1515 42.51                             170   -0.0210 25.1 191 
 BAR2 SZ ES       1515 57.50                             170   -0.6310 25.1 191 
 BAR2 SZ I        1515 59.20       125.6 0.28            169           25.1 191 
 BRR  HZ EP       1515 44.52                             153    0.5610 70.9 297 
 BRR  HN ES       1516  1.87                             153    1.1910 70.9 297 
 BRR  HZ I        1516  5.41        46.9 0.44            150           70.9 297 
 PAM  SZ IP     C 1515 45.30                             152    0.3610 75.7  40 
 PAM  SN ES       1516  2.69                             152    0.2610 75.7  40 
 PAM  SZ I        1516  4.70        69.2 0.50            155           75.7  40 
 RUS  HZ IP     D 1515 46.39                             144   -0.2810  102 176 
 RUS  HN ES       1516  5.20                             144   -0.3010  102 176 
 RUS  HZ I        1516  6.54        34.5 0.34            147            102 176 
 PTB  HZ EP       1515 49.40                             132   -0.41 9  149 258 
 PTB  HN ES       1516 10.98                             132   -0.10 9  149 258 
 PTB  HZ I        1516 16.49        52.0 0.44            132            149 258 
 OCA  HZ EP       1515 51.36                             131    0.45 9  159 353 
 OCA  HE ES       1516 12.79                             131   -0.25 9  159 353 
 OCA  HZ I        1516 20.96        46.8 0.30            132            159 353 
 SPBC HZ EP       1515 51.51                             129    0.11 9  165 219 
 SPBC HE ES       1516 14.09                             129    0.17 9  165 219 
 SPBC HZ I        1516 18.57        65.7 0.22            130            165 219 
 NOR  HZ EP       1515 58.40                             119   -0.18 8  236 234 
 NOR  HN ES       1516 26.62                             119   -0.07 8  236 234 
 NOR  HZ I        1516 33.80        34.1 0.36            120            236 234 
 SML  HZ EP       1515 58.69                             118   -0.48 8  242 335 
 SML  HE ES       1516 27.26                             118   -0.50 8  242 335 
 SML  HZ I        1516 32.20        41.2 0.24            119            242 335 
 CHI  HZ EP       1516  0.56                             118   -0.01 8  250 195 
 CHI  HN ES       1516 29.73                             118   -0.52 8  250 195 
 CHI  HZ I        1516 35.84        20.5 0.30            120            250 195 
 ROSC BZ EP   4   1516  2.40                             117    1.41 0  255 211 
 ROSC BN ES   4   1516 33.18                             117    2.19 0  255 211 
 HEL  HZ EP       1516  3.28                             115    0.29 8  273 255 
 HEL  HE ES       1516 33.82                             115   -0.73 8  273 255 
 HEL  HZ I        1516 41.20        21.4 0.36            116            273 255 
 URE  HZ EP   4   1516  3.37                             114   -0.35 0  284 292 
 URE  HN ES   4   1516 33.35                             114   -2.51 0  284 292 
 GUY2CHZ EP       1516  6.97                             113    0.54 7  303 235 
 GUY2CHE ES       1516 41.03                             113    0.36 7  303 235 
 GUY2CHZ I        1516 49.16        33.4 0.42                           303 235 
 VIL  SE ES       1516 40.29                             112   -0.10 7  305 192 
 RREF HZ EP       1516  9.92                             111    0.95 7  323 229 
 RREF HE ES       1516 44.37                             111   -0.82 7  323 229 
 CBOC HZ EP       1516 10.25                             110    0.57 7  335 252 
 CBOC HN ES       1516 45.98                             110   -0.48 7  335 252 
 CBOC HZ I        1516 52.97         8.6 0.44            111            335 252 
 COD  HZ EP       1516 10.45                             109   -0.38 6  347 354 
 COD  HN ES       1516 47.60                             109   -0.90 6  347 354 
 COD  HZ I        1516 53.45        10.2 0.58            111            347 354 
 ORTC HZ EP       1516 16.86                             107    0.12 6  397 216 
 ORTC HE ES       1516 59.81                             107    0.78 6  397 216 
 ORTC HZ I        1517  7.19        16.1 0.26            108            397 216 
 SJC  HZ EP   4   1516 16.51                             106   -1.54 0  408 327 
 SJC  HN ES   4   1516 57.79                             106   -3.57 0  408 327 
                                                                                
