 2011  113 1027 33.1 L   6.748 -73.167137.6  RSN  5 0.2 1.5LRSN                1
 GAP=168        0.61       4.5    19.9  7.7 -0.3878E+02  0.6326E+02 -0.1890E+02E
 Epicentro: VILLANUEVA - SANTANDER                                             3
 ACTION:UP  11-02-08 08:40 OP:pat  STATUS:               ID:20110113102733 L   I
 2011-01-13-1025-23S.COL___136                                                 6
 STAT SP IPHASW D HRMM SECON CODA AMPLIT PERI AZIMU VELO SNR AR TRES W  DIS CAZ7
 BAR2 SZ EP       1027 51.49                             173    -0.110   17 186 
 BAR2 SZ I        1027 51.92         5.9 0.12                            17 186 
 BAR2 SZ ES   1   1028  6.44                             173     0.4 7   17 186 
 GIR2 SZ EP   1   1027 51.77                             164    -0.2 7   37 355 
 GIR2 SZ ES   2   1028  6.20                             164    -0.5 5   37 355 
 RUS  HN ES   1   1028 13.22                             144     0.0 7   95 174 
 RUS  HZ I        1028 15.23         4.8 0.27                            95 174 
 GRA  SZ ES   1   1028 17.73                             134     0.0 7  132  18 
 GRA  SZ I        1028 19.43         5.2 0.44                           132  18 
 OCA  SZ EP       1028  1.54                             127     0.2 9  166 354 
 OCA  SZ I        1028 26.16         4.1 0.44                           166 354 
                                                                                
