 2015 1113 1116  9.8 L   6.399 -73.568114.0  RSN 10 0.5 1.8LRSN                1
 GAP=101        1.07       4.1     4.5  8.5  0.2457E+01  0.2069E+02 -0.4473E+01E
 Epicentro: SANTA HELENA DEL OPON - SANTANDER                                  3
 ACTION:UPD 15-12-28 16:10 OP:cam  STATUS:               ID:20151113111609 L   I
 OLDACT:UP  15-11-13 23:37 OP:cara STATUS:               ID:20151113110749     3
 OLDACT:REG 15-11-13 20:46 OP:cara STATUS:               ID:20151113110749     3
 2015-11-13-1107-49M.COL___316                                                 6
 STAT SP IPHASW D HRMM SECON CODA AMPLIT PERI AZIMU VELO AIN AR TRES W  DIS CAZ7
 BAR2 EZ EP       1116 26.93                             156    0.3810 47.6  63 
 BAR2 EZ ES       1116 40.00                             156    0.3910 47.6  63 
 RUS  HZ EP       1116 28.33                             144   -0.4310 77.6 136 
 RUS  HE ES       1116 43.10                             144   -0.4510 77.6 136 
 RUS  HZ I        1116 43.88         5.6 0.16            147           77.6 136 
 BRR  HN ES       1116 42.78                             142    0.1610 79.9 348 
 PAM  EE ES   2   1116 53.43                             125   -0.11 5  141  43 
 NOR  HN ES   2   1116 57.71                             119   -0.28 4  171 237 
 ZAR  HZ EP       1116 38.92                             117    0.41 9  187 310 
 ZAR  HE ES       1117  0.04                             117   -0.86 9  187 310 
 ZAR  HZ I        1117  6.42         9.2 0.30            116            187 310 
 HEL  HN ES       1117  8.62                             113    0.72 8  218 264 
 HEL  HN I        1117 12.00         5.5 0.32            112            218 264 
 GUY2CHN ES   2   1117 12.04                             111   -0.02 4  238 237 
 URE  HN ES   2   1117 15.39                             108   -0.94 4  264 305 
 SML  HZ EP       1116 48.53                             107    0.48 8  271 348 
 SML  HE ES       1117 17.43                             107   -0.46 8  271 348 
 SML  HZ I        1117 24.49         6.8 0.10            107            271 348 
                                                                                
