 2015  213 1642 24.4 L   6.803 -73.147139.9  RSN 10 0.7 2.2LRSN                1
 GAP= 71        2.00       5.8     6.6 11.2 -0.9024E+00  0.6349E+01 -0.7073E+01E
 Epicentro: LOS SANTOS - SANTANDER                                             3
 ACTION:UPD 15-04-30 21:25 OP:nd   STATUS:               ID:20150213164224 L   I
 OLDACT:REG 15-02-13 20:50 OP:stll STATUS:               ID:20150213163749     3
 2015-02-13-1637-49M.COL___305                                                 6
 STAT SP IPHASW D HRMM SECON CODA AMPLIT PERI AZIMU VELO AIN AR TRES W  DIS CAZ7
 BAR2 EZ EP       1642 43.87                             170    0.5110 23.7 190 
 BAR2 EZ ES       1642 58.61                             170    0.4810 23.7 190 
 BAR2 EZ I        1643  0.11        30.4 0.20            172           23.7 190 
 BRR  HZ EP       1642 45.78                             151    0.8510 70.9 298 
 BRR  HN ES       1643  0.63                             151   -0.3010 70.9 298 
 PAM  SZ EP       1642 46.62                             150    0.6110 77.2  40 
 PAM  SZ I        1642 46.96        58.4 0.22            150           77.2  40 
 PAM  SN ES       1643  3.53                             150    0.6910 77.2  40 
 RUS  HZ EP       1642 47.98                             142    0.3510  101 176 
 RUS  HE ES       1643  5.09                             142   -0.6510  101 176 
 RUS  HZ I        1643  7.70        11.0 0.40            145            101 176 
 PTB  HZ EP       1642 50.80                             130   -0.12 9  148 259 
 PTB  HN ES       1643 10.84                             130   -0.75 9  148 259 
 PTB  HZ I        1643 13.78        13.0 0.18            132            148 259 
 TAM  HZ EP       1642 52.23                             129    0.57 9  155 105 
 TAM  HN ES       1643 11.29                             129   -1.62 9  155 105 
 OCA  HZ EP       1642 52.27                             128    0.01 9  160 353 
 OCA  HN ES       1643 14.15                             128    0.19 9  160 353 
 OCA  HZ I        1643 20.75        17.4 0.26            129            160 353 
 SPBC HZ EP       1642 52.85                             127    0.35 9  163 219 
 SPBC HN ES       1643 14.06                             127   -0.34 9  163 219 
 SML  HZ EP       1642 59.81                             116   -0.88 8  243 335 
 SML  HN ES       1643 28.19                             116   -0.79 8  243 335 
 SML  HZ I        1643 30.86        21.8 0.24            117            243 335 
 SOCV BZ EP   9   1643  6.88                             111   -0.32 0  301  57 
 SOCV BN ES       1643 37.59                                   -2.65 7  301  57 
                                                                                
