 2011  513 1644 38.0 L   6.792 -73.103153.9  RSN  5 0.2 1.9LRSN                1
 GAP=165        0.42       5.4     5.1  4.9 -0.1462E+02 -0.6855E+01  0.9665E+01E
 Epicentro: LOS SANTOS - SANTANDER                                             3
 ACTION:UP  11-06-29 08:53 OP:tino STATUS:               ID:20110513164438 L   I
 2011-05-13-1640-42S.COL___140                                                 6
 STAT SP IPHASW D HRMM SECON CODA AMPLIT PERI AZIMU VELO SNR AR TRES W  DIS CAZ7
 BTL  SZ EP   1   1644 58.63                             171     0.0 7   23 308 
 BTL  SZ ES   1   1645 14.77                             171     0.1 7   23 308 
 BAR2 SZ EP   1   1644 58.37                             171    -0.3 7   24 202 
 BAR2 SZ I        1644 58.71        21.1 0.10                            24 202 
 PAM  SZ EP   1   1645  1.30                             153     0.3 7   75  36 
 PAM  SN ES   1   1645 18.84                             153     0.0 7   75  36 
 BRR  HZ EP   1   1645  0.27                             152     0.0 7   76 297 
 BRR  HN ES   1   1645 17.71                             152     0.0 7   76 297 
 BRR  HZ I        1645 19.11        20.0 0.12                            76 297 
 GRA  SZ EP   2   1645  3.88                             139    -0.1 5  125  15 
 GRA  SZ ES   1   1645 24.06                             139    -0.1 7  125  15 
 GRA  SZ I        1645 25.00         7.6 0.49                           125  15 
                                                                                
