 2014  413 1722 15.4 L   6.802 -73.145148.5  RSN  7 0.4 1.7LRSN                1
 GAP=136        0.99       4.3     4.9  7.6 -0.6421E+01  0.3005E+01  0.9650E+01E
 Epicentro: LOS SANTOS - SANTANDER                                             3
 ACTION:UPD 14-05-13 23:08 OP:nd   STATUS:               ID:20140413172215 L   I
 OLDACT:DUP 14-04-13 23:56 OP:cam  STATUS:               ID:20140413171819d    3
 2014-04-13-1718-18M.COL___272                                                 6
 STAT SP IPHASW D HRMM SECON CODA AMPLIT PERI AZIMU VELO AIN AR TRES W  DIS CAZ7
 BRR  HZ EP       1722 37.10                             153    0.2910 71.2 298 
 BRR  HN ES       1722 54.28                             153    0.7510 71.2 298 
 BRR  HZ I        1722 58.96         7.5 0.48            153           71.2 298 
 PAM  SZ EP       1722 37.78                             151   -0.0810 77.2  40 
 PAM  SE ES       1722 54.93                             151   -0.4810 77.2  40 
 PAM  SZ I        1722 56.96        10.4 0.58            156           77.2  40 
 RUS  HZ EP   1   1722 39.46                             144    0.06 7  101 176 
 RUS  HE ES       1722 58.40                             144    0.2510  101 176 
 RUS  HZ I        1722 59.52         6.3 0.42            146            101 176 
 PTB  HZ EP   1   1722 41.89                             133   -0.68 7  148 259 
 PTB  HN ES       1723  3.19                             133   -0.59 9  148 259 
 PTB  HZ I        1723  5.75         9.9 0.38            133            148 259 
 SPBC HZ EP       1722 44.32                             130    0.22 9  163 219 
 SPBC HE ES       1723  5.99                             130   -0.51 9  163 219 
 SPBC HZ I        1723  9.24         7.6 0.22            131            163 219 
 NOR  HZ EP   1   1722 51.86                             119    0.58 6  235 234 
 NOR  HE ES       1723 19.40                             119    0.12 8  235 234 
 NOR  HZ I        1723 27.79         4.0 0.22            120            235 234 
 CHI  HZ EP   1   1722 53.24                             118   -0.00 6  249 195 
 CHI  HN ES       1723 22.85                             118    0.07 8  249 195 
 CHI  HZ I        1723 28.45         1.5 0.36            119            249 195 
                                                                                
