 2014  913 1546 48.4 L   6.388 -73.628107.2  RSN 19 0.4 2.2LRSN                1
 GAP= 67        0.78       1.7     2.3  3.8 -0.7490E+00  0.1108E+01  0.5274E+00E
 Epicentro: SANTA HELENA DEL OPON - SANTANDER                                  3
 ACTION:UPD 14-10-03 23:04 OP:nd   STATUS:               ID:20140913154648 L   I
 OLDACT:REG 14-09-13 20:36 OP:spq  STATUS:               ID:20140913153819     3
 2014-09-13-1538-19M.COL___293                                                 6
 STAT SP IPHASW D HRMM SECON CODA AMPLIT PERI AZIMU VELO AIN AR TRES W  DIS CAZ7
 BAR2 SZ IP     D 1547  4.89                             151    0.1010 54.2  65 
 BAR2 SZ ES   1   1547 17.88                             151    0.32 7 54.2  65 
 BRR  HZ IP     C 1547  5.88                             140   -0.3510 80.1 353 
 BRR  HE ES       1547 20.09                             140   -0.0310 80.1 353 
 BRR  HZ I        1547 20.96        34.6 0.12            138           80.1 353 
 RUS  HZ EP       1547  6.80                             140   -0.2210 81.4 132 
 RUS  HE ES   1   1547 21.25                             140   -0.28 7 81.4 132 
 RUS  HZ I        1547 22.62        38.2 0.26            138           81.4 132 
 PTB  HZ IP   4 C 1547  5.92                             136   -1.40 0 93.1 280 
 PTB  HE ES       1547 22.26                             136    0.2010 93.1 280 
 PTB  HZ I        1547 23.75        33.8 0.16            133           93.1 280 
 SPBC HZ EP       1547  7.02                             135   -0.5610 95.0 211 
 SPBC HN ES       1547 22.34                             135   -0.1910 95.0 211 
 SPBC HZ I        1547 23.52        29.7 0.24            133           95.0 211 
 PAM  SZ EP       1547 13.18                             122    0.08 9  147  44 
 PAM  SE ES   1   1547 32.41                             122    0.06 7  147  44 
 PAM  SZ I        1547 37.73        20.8 0.60            120            147  44 
 NOR  HZ EP       1547 13.96                             118   -0.46 9  165 237 
 NOR  HN ES       1547 34.55                             118   -0.15 9  165 237 
 NOR  HZ I        1547 38.33        17.8 0.22            116            165 237 
 ZAR  HZ EP       1547 16.04                             115   -0.27 9  183 312 
 ZAR  HN ES       1547 38.54                             115    0.48 9  183 312 
 ZAR  HZ I        1547 41.90        29.8 0.36            113            183 312 
 CHI  HZ EP   1   1547 17.74                             114   -0.41 6  195 183 
 CHI  HN ES   1   1547 42.15                             114    0.80 6  195 183 
 CHI  HZ I        1547 44.03         7.4 0.23            112            195 183 
 OCA  HZ EP       1547 19.46                             112    0.20 8  208   9 
 OCA  HN ES       1547 43.51                             112    0.19 8  208   9 
 OCA  HZ I        1547 51.18        26.8 0.42            110            208   9 
 HEL  HZ EP   1   1547 20.08                             112    0.10 6  211 264 
 HEL  HN ES   1   1547 44.48                             112   -0.11 6  211 264 
 HEL  HZ I        1547 47.42        14.9 0.22            109            211 264 
 GUY2CHZ EP       1547 22.75                             109    0.36 8  231 236 
 GUY2CHE ES   4   1547 51.47                             109    2.58 0  231 236 
 GUY2CHZ I        1547 54.23         9.0 0.28                           231 236 
 VIL  SZ EP       1547 24.97                             107    0.66 8  252 182 
 VIL  SE ES   1   1547 52.81                             107    0.50 6  252 182 
 VIL  SZ I        1547 58.93        14.0 0.38            105            252 182 
 SML  HZ EP       1547 26.17                             106   -0.26 8  271 350 
 SML  HN ES   1   1547 56.55                             106    0.46 6  271 350 
 SML  HZ I        1547 59.19        22.9 0.08            104            271 350 
 TOL  SZ EP       1547 27.20                             106    0.07 8  274 223 
 TOL  SN ES   4   1547 58.60                             106    1.28 0  274 223 
 TOL  SZ I        1548  1.44        17.6 0.26            103            274 223 
 PRA  HZ EP       1547 32.85                             102   -0.23 7  327 205 
 PRA  HN ES   1   1548  8.81                             102    0.90 5  327 205 
 PRA  HZ I        1548 15.90         8.1 0.30            100            327 205 
 ORTC HZ EP       1547 33.13                             102   -0.02 7  328 213 
 ORTC HN ES   4   1548  9.80                             102    1.76 0  328 213 
 ORTC HZ I        1548 14.51         5.1 0.46            100            328 213 
 MON  HZ EP   4   1547 33.71                             101   -1.71 0  347 320 
 MON  HN ES   4   1548 10.94                             101   -1.15 0  347 320 
 MON  HZ I        1548 14.60         2.8 0.18             98            347 320 
 SJC  HZ EP   1   1547 43.85                              97   -0.93 4  424 336 
 SJC  HE ES   4   1548 26.31                              97   -2.44 0  424 336 
 SJC  HZ I        1548 32.54         2.4 0.58             94            424 336 
                                                                                
