 2011 1213 1925 12.2 L   6.794 -73.177138.9  RSN  4 0.3 1.5LRSN                1
 GAP=142        0.45       4.8     4.9  6.8 -0.7878E+01  0.5014E+01 -0.2043E+01E
 Epicentro: LOS SANTOS - SANTANDER                                             3
 ACTION:UPD 12-07-13 16:16 OP:ep   STATUS:               ID:20111213192512 L   I
 2011-12-13-1920-00M.COL___185                                                 6
 STAT SP IPHASW D HRMM SECON CODA AMPLIT PERI AZIMU VELO AIN AR TRES W  DIS CAZ7
 BAR2 SZ EP   1   1925 30.88                             171   -0.09 7 22.3 182 
 BAR2 SZ ES   2   1925 45.31                             171   -0.31 5 22.3 182 
 BAR2 SZ I        1925 47.72        12.9 0.20                          22.3 182 
 PAM  SZ EP   1   1925 33.99                             149    0.14 7 80.1  41 
 PAM  SN ES   2   1925 50.83                             149    0.09 5 80.1  41 
 RUS  HZ EP   1   1925 34.96                             143   -0.28 7  100 174 
 RUS  HE ES   2   1925 53.78                             143    0.56 5  100 174 
 RUS  HZ I        1925 55.41         2.6 0.28                           100 174 
 PTB  HZ EP   2   1925 38.42                             131    0.15 5  144 259 
 PTB  HN ES   2   1925 58.68                             131    0.05 5  144 259 
                                                                                
