 2011  613 1558 22.9 L   6.781 -73.114143.5  RSN 11 0.3 2.5LRSN                1
 GAP=159        0.66       2.4     5.4  4.7 -0.4508E+01  0.4793E+01  0.4108E+00E
 Epicentro: LOS SANTOS - SANTANDER                                             3
 ACTION:UP  11-07-14 19:05 OP:ep   STATUS:               ID:20110613155822 L   I
 2011-06-13-1556-49S.COL___131                                                 6
 STAT SP IPHASW D HRMM SECON CODA AMPLIT PERI AZIMU VELO SNR AR TRES W  DIS CAZ7
 BAR2 SZ EP       1558 42.14                             171     0.010   22 200 
 BAR2 SZ ES   1   1558 57.08                             171    -0.2 7   22 200 
 BAR2 SZ I        1558 58.66       116.0 0.15                            22 200 
 BRR  HZ EP       1558 44.02                             150     0.010   75 299 
 BRR  HN ES   1   1559  0.61                             150     0.1 7   75 299 
 BRR  HZ I        1559  4.99        81.4 0.15                            75 299 
 RUS  HZ EP   1   1558 46.11                                    -0.1 7   98 178 
 RUS  HN ES   1   1559  4.55                                     0.1 7   98 178 
 RUS  HZ I        1559  5.90        33.7 0.36                            98 178 
 BRI  SZ EP   1   1558 46.68                             141     0.1 7  109  19 
 BRI  SZ I        1559 10.32        32.0 0.35                           109  19 
 GRA  SZ EP       1558 47.94                             136     0.010  127  16 
 GRA  SZ ES   1   1559  7.19                             136    -0.4 7  127  16 
 GRA  SZ I        1559  8.70        25.4 0.37                           127  16 
 OCA  SZ EP   1   1558 51.80                             128     0.6 7  163 352 
 OCA  SZ ES   1   1559 13.49                             128     0.1 7  163 352 
 OCA  SZ I        1559 17.24        36.2 0.28                           163 352 
 CHI  HZ EP   1   1559  0.28                             117     0.0 6  248 196 
 CHI  HE ES   1   1559 29.80                             117     0.3 6  248 196 
 CHI  HZ I        1559 35.57        16.5 0.39                           248 196 
 ROSC BN ES   1   1559 30.48                             116     0.0 6  253 212 
 ROSC BZ I        1559 36.99        44.1 0.46                           253 212 
 DBB  SZ EP       1559 10.18                             109    -0.5 7  343 275 
 TOL  SZ EP   1   1559 11.95                             109     0.8 5  344 225 
 PRA  HZ EP   1   1559 15.60                             106    -0.7 4  392 210 
 PRA  HN ES   2   1559 57.37                             106    -0.6 3  392 210 
                                                                                
