 2011  213 1201 17.1 L   6.811 -73.064142.0  RSN 10 0.4 1.8LRSN                1
 GAP=132        1.02       4.2     8.0  8.3 -0.1561E+02  0.1566E+02 -0.4299E+01E
 Epicentro: LOS SANTOS - SANTANDER                                             3
 ACTION:UP  11-03-28 15:08 OP:jfem STATUS:               ID:20110213120117 L   I
 2011-02-13-1159-14S.COL___136                                                 6
 STAT SP IPHASW D HRMM SECON CODA AMPLIT PERI AZIMU VELO SNR AR TRES W  DIS CAZ7
 BTL  SZ EP       12 1 36.97                             169     0.610   25 298 
 BAR2 SZ EP   1   12 1 36.44                             168     0.0 7   28 209 
 BAR2 SZ ES   1   12 1 50.96                             168    -0.5 7   28 209 
 BAR2 SZ I        12 1 53.04        18.8 0.31                            28 209 
 GIR2 SZ EP   1   12 1 36.66                             166     0.2 7   33 334 
 RUS  HZ EP   1   12 1 40.77                             143     0.2 7  102 181 
 RUS  HN ES   1   12 1 59.14                             143     0.2 7  102 181 
 RUS  HZ I        12 1 59.23         6.6 0.66                           102 181 
 GRA  SZ IP       12 1 41.24                             137    -0.510  122  14 
 GRA  SZ ES   1   12 2  0.75                             137    -0.2 7  122  14 
 GRA  SZ I        12 2  1.99        13.2 0.28                           122  14 
 OCA  SZ EP       12 1 44.96                             129    -0.2 9  160 350 
 OCA  SZ ES   1   12 2  7.56                             129     0.5 7  160 350 
 OCA  SZ I        12 2 11.18        18.9 0.17                           160 350 
 NOR  SZ EP   1   12 1 52.68                             117    -0.9 6  243 236 
 NOR  SN ES   1   12 2 21.34                             117    -0.6 6  243 236 
 CHI  HZ EP   1   12 1 55.26                             116     0.2 6  252 197 
 CHI  HN ES   1   12 2 24.48                             116    -0.1 6  252 197 
 CHI  HZ I        12 2 30.70         4.9 0.32                           252 197 
 HEL  HZ EP   1   12 1 59.02                             113     0.8 6  281 256 
 HEL  HE ES   2   12 2 30.49                             113     0.3 4  281 256 
 HEL  HZ I        12 2 36.05         4.2 0.28                           281 256 
 SDV  BZ EP   1   12 2  6.10                             108     0.0 5  353  49 
 SDV  BZ I        12 2  6.92         1.2 0.18                           353  49 
                                                                                
