 2011  113 1401 41.3 L   6.800 -73.218138.0  RSN  8 0.5 2.0LRSN                1
 GAP=150        0.98       4.4    10.2  7.5 -0.1398E+02  0.1941E+02  0.3494E+01E
 Epicentro: ZAPATOCA - SANTANDER                                               3
 ACTION:UP  11-02-08 08:40 OP:pat  STATUS:               ID:20110113140141 L   I
 2011-01-13-1401-28S.COL___136                                                 6
 STAT SP IPHASW D HRMM SECON CODA AMPLIT PERI AZIMU VELO SNR AR TRES W  DIS CAZ7
 BTL  SZ IP       14 1 59.45                             174    -0.410   14 337 
 BTL  SZ ES   2   14 2 12.68                             174    -1.7 5   14 337 
 BAR2 SZ EP       14 2  0.25                             170     0.210   23 171 
 BAR2 SZ ES   1   14 2 14.93                             170     0.3 7   23 171 
 BAR2 SZ I        14 2 16.46        33.3 0.28                            23 171 
 GIR2 SZ EP       14 2  0.32                             167     0.210   31   5 
 GIR2 SZ ES   1   14 2 15.03                             167     0.3 7   31   5 
 RUS  HZ EP       14 2  4.20                             142    -0.210  101 172 
 RUS  HN ES   2   14 2 22.99                             142     0.6 5  101 172 
 RUS  HZ I        14 2 24.46        16.7 0.16                           101 172 
 GRA  SZ ES   2   14 2 25.62                             135     0.2 5  128  21 
 GRA  SZ I        14 2 28.33        15.8 0.43                           128  21 
 OCA  SZ EP       14 2  8.77                             128    -0.2 9  159 356 
 OCA  SZ ES   1   14 2 30.92                             128     0.4 7  159 356 
 OCA  SZ I        14 2 34.60        15.8 0.35                           159 356 
 NOR  SZ EP   2   14 2 16.43                             118     0.5 4  228 233 
 NOR  SN ES   1   14 2 43.03                             118     0.1 6  228 233 
 CHI  HZ EP       14 2 18.38                             116     0.0 8  247 193 
 CHI  HN ES   2   14 2 47.25                             116    -0.1 4  247 193 
 CHI  HZ I        14 2 52.78         4.5 0.78                           247 193 
 CHI  HZ IPn      14 8 21.04                                            247 193 
                                                                                
