 2010  513 1552 59.8 L   6.797 -73.000147.6  RSN  5 0.5 1.9LRSN                1
 GAP=252        0.83       7.9    15.8 10.2  0.3389E+02  0.1562E+02  0.2847E+02E
 Epicentro: CEPITA - SANTANDER                                                 3
 ACTION:UP  10-08-24 10:04 OP:vdl  STATUS:               ID:20100513155259 L   I
 2010-05-13-1552-51S.COL___105                                                 6
 STAT SP IPHASW D HRMM SECON CODA AMPLIT PERI AZIMU VELO AIN AR TRES W  DIS CAZ7
 BAR2 SZ EP   1   1553 19.62                             168    -0.2 7   30 222 
 BAR2 SZ ES   2   1553 34.61                             168    -0.9 5   30 222 
 BRR  HZ EP   1   1553 22.42                             149     0.3 7   86 294 
 BRR  HN ES   2   1553 39.53                             149     0.1 5   86 294 
 BRR  HZ I        1553 42.83        17.8 0.14                            86 294 
 RUS  HZ EP   1   1553 24.24                             145     0.5 7  100 185 
 RUS  HE ES   2   1553 42.71                             145     0.3 5  100 185 
 RUS  HZ I        1553 43.44         9.7 0.17                           100 185 
 CHI  HZ EP   1   1553 37.72                             117    -0.4 6  253 199 
 CHI  HE ES   2   1554  8.51                             117     0.5 4  253 199 
 CHI  HZ I        1554 10.81         5.6 0.51                           253 199 
 PRA  HZ EP   1   1553 53.54                             107    -0.8 4  400 212 
 PRA  HN ES   2   1554 36.89                             107     0.0 3  400 212 
 PRA  HZ I        1554 41.66         3.0 0.21                           400 212 
                                                                                
