 2016  613 1201  1.5 L   6.757 -73.170146.0  RSN  6 0.4 1.6LRSN                1
 GAP=231        0.93       7.9     6.9 11.2 -0.5521E+01 -0.2363E+02  0.5498E+02E
 Epicentro: LOS SANTOS - SANTANDER                                             3
 ACTION:UPD 16-07-21 22:18 OP:rebc STATUS:               ID:20160613120101 L   I
 OLDACT:UP  16-06-13 22:56 OP:dani STATUS:               ID:20160613115741     3
 OLDACT:UP  16-06-13 22:54 OP:dani STATUS:               ID:20160613115741     3
 OLDACT:REG 16-06-13 20:56 OP:dani STATUS:               ID:20160613115741     3
 2016-06-13-1157-41M.COL___325                                                 6
 STAT SP IPHASW D HRMM SECON CODA AMPLIT PERI AZIMU VELO AIN AR TRES W  DIS CAZ7
 BRR  HZ EP       12 1 22.36                             153   -0.3610 71.3 303 
 BRR  HN ES       12 1 39.79                             153    0.5510 71.3 303 
 BRR  HZ I        12 1 40.26        10.7 0.36                          71.3 303 
 RUS  HZ EP       12 1 25.05                             145    0.0610 96.1 174 
 RUS  HE ES   2   12 1 43.04                             145   -0.25 5 96.1 174 
 RUS  HZ I        12 1 45.79         3.8 0.36                          96.1 174 
 PTB  HN ES       12 1 48.41                             133   -0.60 9  144 260 
 SPBC HN ES   4   12 1 50.32                             131   -1.08 0  158 219 
 NOR  HE ES       12 2  4.70                             120    0.48 8  230 235 
 CHI  HZ EP       12 1 38.53                             118   -0.15 8  243 195 
 PRA  HZ EP       12 1 54.76                             107    0.33 6  387 210 
 PRA  HN ES   4   12 2 38.01                             107    2.33 0  387 210 
 PRA  HZ I        12 2 41.25         2.0 0.26                           387 210 
                                                                                
