 2014  313 1802 21.7 L   6.824 -73.161144.5  RSN 10 0.5 2.0LRSN                1
 GAP=133        1.21       4.0     4.9  6.9 -0.1866E+01  0.1019E+02 -0.2394E+01E
 Epicentro: LOS SANTOS - SANTANDER                                             3
 ACTION:UPD 14-04-09 23:16 OP:nd   STATUS:               ID:20140313180221 L   I
 OLDACT:REG 14-03-13 15:51 OP:cam  STATUS:               ID:20140313180043     3
 2014-03-13-1800-43M.COL___244                                                 6
 STAT SP IPHASW D HRMM SECON CODA AMPLIT PERI AZIMU VELO AIN AR TRES W  DIS CAZ7
 BAR2 SZ EP       18 2 41.29                             169    0.0710 25.7 185 
 BAR2 SZ ES       18 2 55.71                             169   -0.7310 25.7 185 
 BAR2 SZ I        18 2 57.98        25.4 0.14            168           25.7 185 
 BRR  HZ EP       18 2 42.98                             153    0.4310 68.4 297 
 BRR  HN ES       18 2 59.64                             153    0.8310 68.4 297 
 BRR  HZ I        18 3  1.89        22.7 0.24            150           68.4 297 
 PAM  SZ EP       18 2 44.15                             151    0.4310 76.5  42 
 PAM  SN ES       18 3  0.86                             151   -0.0410 76.5  42 
 PAM  SZ I        18 3  2.84        11.0 0.20            155           76.5  42 
 RUS  HZ EP       18 2 45.44                             143   -0.0710  103 175 
 RUS  HN ES       18 3  4.24                             143    0.1410  103 175 
 RUS  HZ I        18 3  5.90        10.3 0.30            145            103 175 
 PTB  HZ EP       18 2 47.81                             132   -0.64 9  147 258 
 PTB  HN ES       18 3  8.74                             132   -0.58 9  147 258 
 PTB  HZ I        18 3 14.05        13.8 0.34            131            147 258 
 SPBC HZ EP       18 2 50.08                             129   -0.10 9  164 218 
 SPBC HN ES       18 3 12.59                             129    0.19 9  164 218 
 SPBC HZ I        18 3 18.51        14.0 0.22            129            164 218 
 ZAR  HZ EP       18 2 54.51                             122    0.72 9  201 292 
 ZAR  HN ES       18 3 19.29                             122    0.47 9  201 292 
 ZAR  HZ I        18 3 25.05        10.9 0.32            123            201 292 
 NOR  HZ EP       18 2 57.46                             118    0.10 8  235 234 
 NOR  HN ES       18 3 24.98                             118   -0.20 8  235 234 
 NOR  HZ I        18 3 33.31         5.7 0.34            119            235 234 
 SML  HZ EP       18 2 57.45                             117   -0.46 8  241 335 
 SML  HN ES       18 3 25.23                             117   -0.93 8  241 335 
 SML  HZ I        18 3 32.44        10.5 0.10            119            241 335 
 GUY2CHZ EP   4   18 3  6.92                             112    1.67 0  301 234 
 GUY2CHN ES   4   18 3 41.72                             112    2.49 0  301 234 
 GUY2CHZ I        18 3 47.76         4.1 0.32                           301 234 
                                                                                
