 2010  813 1742 54.3 L   6.769 -73.075140.9  RSN 11 0.3 2.3LRSN                1
 GAP=167        0.66       2.8     6.5  4.5 -0.4804E+01 -0.5398E+01  0.1064E+01E
 Epicentro: LOS SANTOS - SANTANDER                                             3
 ACTION:UP  10-09-07 10:54 OP:vdl  STATUS:               ID:20100813174254 L   I
 2010-08-13-1740-14S.COL___126                                                 6
 STAT SP IPHASW D HRMM SECON CODA AMPLIT PERI AZIMU VELO SNR AR TRES W  DIS CAZ7
 BAR2 SZ IP       1743 13.38                             170     0.110   23 211 
 BAR2 SZ ES   1   1743 27.57                             170    -0.6 7   23 211 
 BAR2 SZ I        1743 30.81        54.0 0.42                            23 211 
 BTL  SZ EP       1743 13.49                                     0.110   27 308 
 BTL  SZ ES   1   1743 28.46                             169     0.1 7   27 308 
 GIR2 SZ EP   1   1743 13.56                             164     0.0 7   37 339 
 GIR2 SZ ES   1   1743 28.00                             164    -0.6 7   37 339 
 BRR  HZ IP     C 1743 15.27                             149    -0.210   80 298 
 BRR  HE ES   1   1743 32.30                                     0.4 7   80 298 
 BRR  HZ I        1743 34.71        50.3 0.16                            80 298 
 RUS  HZ EP       1743 17.35                             144     0.110   97 181 
 RUS  HE ES   1   1743 35.78                                     0.6 7   97 181 
 RUS  HZ I        1743 36.87        24.0 0.17                            97 181 
 GUE  SZ EP       1743 18.53                             137    -0.210  119   8 
 GRA  SZ IP       1743 19.33                             135     0.110  127  14 
 GRA  SZ ES   1   1743 38.83                             135     0.2 7  127  14 
 OCA  SZ EP   3   1743 22.75                             127     0.1 2  165 351 
 CHI  HZ EP   2   1743 31.54                             116     0.0 4  247 197 
 CHI  HE ES   1   1744  0.40                             116    -0.3 6  247 197 
 CHI  HZ I        1744  4.84         7.2 0.33                           247 197 
 HEL  HZ EP   2   1743 35.24                             113     0.2 4  279 257 
 HEL  HZ I        1744 12.21        13.5 0.40                           279 257 
 PRA  HZ EP   3   1743 46.77                             105    -1.0 1  393 211 
 PRA  HE ES   3   1744 29.08                             105    -0.4 1  393 211 
 PRA  HZ I        1744 34.76         7.3 0.16                           393 211 
                                                                                
