 2015  413 1508 39.6 L   7.316 -73.263122.4  RSN  4 0.1 1.7LRSN                1
 GAP=257        0.40       5.0     3.2  4.1  0.9906E+01 -0.1673E+01 -0.7010E+01E
 Epicentro: RIONEGRO - SANTANDER                                               3
 ACTION:UPD 15-06-03 16:54 OP:cam  STATUS:               ID:20150413150839 L   I
 OLDACT:REG 15-04-13 19:49 OP:spq  STATUS:               ID:20150413150749     3
 2015-04-13-1507-49M.COL___269                                                 6
 STAT SP IPHASW D HRMM SECON CODA AMPLIT PERI AZIMU VELO AIN AR TRES W  DIS CAZ7
 BRR  HZ EP       15 8 57.06                             154   -0.2310 54.8 245 
 BRR  HE ES       15 9 11.07                             154   -0.0210 54.8 245 
 BRR  HZ I        15 9 11.52        17.1 0.20            144           54.8 245 
 BAR2 EZ EP       15 8 59.41                             144    0.1710 80.6 174 
 BAR2 EZ ES   1   15 9 14.60                             144    0.03 7 80.6 174 
 BAR2 EZ I        15 9 16.05        16.1 0.36            137           80.6 174 
 PTB  HZ EP   1   15 9  5.58                             124   -0.14 7  157 237 
 PTB  HN ES   1   15 9 26.07                             124   -0.04 7  157 237 
 PTB  HZ I        15 9 30.48         3.0 0.16            118            157 237 
 ZAR  HZ EP   1   15 9  7.82                             121    0.07 7  177 276 
 ZAR  HE ES       15 9 29.85                             121    0.13 9  177 276 
 ZAR  HZ I        15 9 33.63         5.9 0.22            117            177 276 
                                                                                
