 2011  513 1812 23.7 L   6.793 -73.123142.9  RSN  8 0.2 2.2LRSN                1
 GAP=140        0.51       3.1     6.9  5.3 -0.9848E+01  0.1451E+02 -0.6300E+01E
 Epicentro: LOS SANTOS - SANTANDER                                             3
 ACTION:UP  11-06-29 08:53 OP:tino STATUS:               ID:20110513181223 L   I
 2011-05-13-1811-15S.COL___140                                                 6
 STAT SP IPHASW D HRMM SECON CODA AMPLIT PERI AZIMU VELO SNR AR TRES W  DIS CAZ7
 BTL  SZ EP       1812 43.16                             171     0.210   21 311 
 BAR2 SZ EP   1   1812 42.79                             170    -0.2 7   23 196 
 BAR2 SZ ES   1   1812 57.83                             170    -0.2 7   23 196 
 BAR2 SZ I        1812 59.50        52.1 0.15                            23 196 
 BRR  HZ EP       1812 44.68                             151     0.010   74 298 
 PAM  SZ EP   1   1812 45.74                             151     0.2 7   76  38 
 PAM  SN ES   1   1813  2.40                             151    -0.2 7   76  38 
 RUS  HZ EP   1   1812 46.70                             143    -0.4 7  100 177 
 RUS  HE ES   1   1813  5.59                             143     0.3 7  100 177 
 RUS  HZ I        1813  7.18        15.0 0.29                           100 177 
 BRI  SZ EP   1   1812 47.39                             141     0.1 7  108  19 
 GRA  SZ EP   1   1812 48.61                             136    -0.1 7  126  16 
 GRA  SZ ES   1   1813  8.20                             136     0.0 7  126  16 
 GRA  SZ I        1813  9.76        20.1 0.32                           126  16 
 OCA  SZ EP   1   1812 51.68                             129    -0.2 7  161 352 
 OCA  SZ I        1813 18.89        16.6 0.29                           161 352 
                                                                                
