 2012  413 1634 22.0 L   6.753 -73.122146.0  RSN  5 0.2 1.4LRSN                1
 GAP=142        0.59       5.6     3.9  7.6 -0.4200E+01  0.6276E+01  0.3400E+01E
 Epicentro: LOS SANTOS - SANTANDER                                             3
 ACTION:UPD 12-07-05 11:53 OP:tino STATUS:               ID:20120413163422 L   I
 2012-04-13-1630-00M.COL___181                                                 6
 STAT SP IPHASW D HRMM SECON CODA AMPLIT PERI AZIMU VELO AIN AR TRES W  DIS CAZ7
 BRR  HZ EP   1   1634 43.60                             151     0.1 7   76 301 
 BRR  HZ I        1634 44.73         9.3 0.27                            76 301 
 BRR  HN ES   1   1635  0.28                             151     0.0 7   76 301 
 PAM  SZ EP   1   1634 44.50                             150     0.1 7   80  36 
 PAM  SN ES   1   1635  1.71                             150    -0.2 7   80  36 
 PAM  SZ I        1635  3.50         3.2 0.66                            80  36 
 RUS  HN ES   2   1635  4.09                             145     0.4 5   95 177 
 RUS  HZ I        1635  5.44         2.2 0.40                            95 177 
 PTB  HZ EP   1   1634 48.99                             132    -0.2 7  149 261 
 PTB  HZ I        1634 49.50         2.0 0.16                           149 261 
 PTB  HE ES   1   1635 10.00                             132    -0.4 7  149 261 
 ZAR  HN ES   1   1635 21.02                             122     0.4 6  209 293 
 ZAR  HZ I        1635 26.27         4.5 0.29                           209 293 
                                                                                
