 2010  313 1230 28.0 L   6.853 -73.004148.0  RSN  4 0.2 1.8LRSN                1
 GAP=255        0.49       4.9     8.2  6.1  0.2560E+02 -0.1049E+02 -0.6531E+01E
 Epicentro: CEPITA - SANTANDER                                                 3
 ACTION:UP  10-08-24 09:53 OP:vdl  STATUS:               ID:20100313123028 L   I
 2010-03-13-1228-19S.COL___095                                                 6
 STAT SP IPHASW D HRMM SECON CODA AMPLIT PERI AZIMU VELO SNR AR TRES W  DIS CAZ7
 BAR2 SZ EP   2   1230 48.34                             166     0.1 5   35 214 
 BAR2 SZ ES   2   1231  3.40                             166    -0.6 5   35 214 
 BRR  HZ EP       1230 50.11                             149     0.010   83 290 
 BRR  HN ES   1   1231  7.51                             149     0.1 7   83 290 
 RUS  HZ EP       1230 52.34                             143    -0.110  107 185 
 RUS  HN ES       1231 11.66                             143     0.210  107 185 
 RUS  HZ I        1231 12.69         6.2 0.18                           107 185 
 RREF BZ I        1231 21.75         3.8 0.28                           338 230 
 RREF BN ES   2   1231 53.32                             110    -0.2 3  338 230 
                                                                                
