 2015  613 1857  6.3 L   6.807 -73.115136.6  RSN  5 0.5 1.6LRSN                1
 GAP=246        1.09       6.5     7.2  9.1  0.9777E+01  0.2762E+02 -0.2151E+01E
 Epicentro: LOS SANTOS - SANTANDER                                             3
 ACTION:UPD 15-09-10 22:12 OP:cam  STATUS:               ID:20150613185706 L   I
 OLDACT:REG 15-06-13 21:52 OP:ak   STATUS:               ID:20150613184748     3
 2015-06-13-1847-48M.COL___315                                                 6
 STAT SP IPHASW D HRMM SECON CODA AMPLIT PERI AZIMU VELO AIN AR TRES W  DIS CAZ7
 BAR2 EZ EP       1857 24.95                             169    0.1210 24.9 197 
 BAR2 EZ ES       1857 39.52                             169    0.2110 24.9 197 
 BAR2 EZ I        1857 41.57         5.8 0.21            168           24.9 197 
 RUS  HZ EP       1857 29.37                             142    0.1910  101 178 
 RUS  HN ES   1   1857 47.01                             142   -0.03 7  101 178 
 RUS  HZ I        1857 50.44         5.5 0.36            145            101 178 
 SPBC HZ EP       1857 33.47                             126   -0.88 9  166 220 
 SPBC HN ES       1857 55.82                             126   -0.44 9  166 220 
 SPBC HZ I        1858  0.13         9.2 0.20            129            166 220 
 ZAR  HZ EP       1857 38.90                             120    0.46 8  207 292 
 ZAR  HN ES       1858  3.11                             120   -0.42 8  207 292 
 ZAR  HZ I        1858 10.03         3.8 0.12            122            207 292 
 GUY2CHZ EP   1   1857 50.08                             110    0.24 5  304 235 
 GUY2CHN ES       1858 24.79                             110    0.96 7  304 235 
 GUY2CHZ I        1858 30.35         2.8 0.28                           304 235 
                                                                                
