 2017  813 1641 28.7 L   6.808 -73.120140.0  RSN 11 0.4 1.8LRSN                1
 GAP=114        0.85       3.0     3.0  5.0  0.7702E+00  0.4026E+01  0.4573E+01E
 Epicentro: LOS SANTOS - SANTANDER                                             3
 ACTION:UPD 17-09-04 20:20 OP:rebc STATUS:               ID:20170813164128 L   I
 OLDACT:REG 17-08-14 02:41 OP:osc  STATUS:               ID:20170813163728     3
 2017-08-13-1638-00M.COL___410                                                 6
 STAT SP IPHASW D HRMM SECON CODA AMPLIT PERI AZIMU VELO AIN AR TRES W  DIS CAZ7
 BAR2 EZ EP       1641 47.63                             169   -0.0910 24.8 196 
 BAR2 EZ ES       1642  2.22                             169   -0.2910 24.8 196 
 BAR2 EZ I        1642  3.58        22.3 0.18            168           24.8 196 
 BRR  HZ EP       1641 49.08                             151   -0.3210 73.3 297 
 BRR  HE ES       1642  6.02                             151    0.5110 73.3 297 
 BRR  HZ I        1642  9.84        10.2 0.14            150           73.3 297 
 PAM  EZ EP       1641 50.16                             151   -0.0410 74.9  38 
 PAM  EE ES       1642  6.83                             151   -0.1010 74.9  38 
 PAM  EZ I        1642  9.11        21.9 0.42            154           74.9  38 
 RUS  HZ EP       1641 51.85                             142   -0.1410  101 178 
 RUS  HE ES       1642 10.25                             142    0.1310  101 178 
 RUS  HZ I        1642 11.59         3.9 0.26            144            101 178 
 SPBC HZ EP       1641 56.73                             127   -0.32 9  166 220 
 SPBC HE ES       1642 18.76                             127   -0.37 9  166 220 
 SPBC HZ I        1642 25.66         6.4 0.11            128            166 220 
 YPLC HZ EP       1641 58.02                             125   -0.05 9  176 152 
 YPLC HN ES       1642 21.71                             125    0.77 9  176 152 
 ZAR  HZ EP   2   1642  1.96                             121    0.89 4  206 292 
 ZAR  HE ES       1642 26.34                             121    0.07 8  206 292 
 ZAR  HZ I        1642 31.86         9.8 0.34            122            206 292 
 NOR  HE ES       1642 32.09                             117   -0.22 8  238 235 
 NOR  HZ I        1642 33.23         5.4 0.16            118            238 235 
 HEL  HN ES       1642 41.08                             113    0.67 8  275 256 
 GUY2CHZ EP       1642 11.94                             111   -0.48 7  304 235 
 GUY2CHN ES   4   1642 48.61                             111    2.13 0  304 235 
 GUY2CHZ I        1642 51.66         2.5 0.58                           304 235 
 PRA  HZ EP       1642 22.79                             105    0.46 6  394 210 
 PRA  HE ES       1643  4.05                             105   -0.08 6  394 210 
 PRA  HZ I        1643 11.03         2.7 0.36            107            394 210 
                                                                                
