 2013  313 1118 58.3 L   6.722 -73.183146.1  RSN  5 0.4 1.9LRSN                1
 GAP=227        0.95       8.4     6.9  8.2  0.2884E+02  0.7489E+01 -0.1006E+02E
 Epicentro: VILLANUEVA - SANTANDER                                             3
 ACTION:UPD 13-04-09 14:02 OP:ep   STATUS:               ID:20130313111858 L   I
 2013-03-13-1114-50M.COL___198                                                 6
 STAT SP IPHASW D HRMM SECON CODA AMPLIT PERI AZIMU VELO AIN AR TRES W  DIS CAZ7
 BAR2 SZ IP       1119 17.87                             174    0.0110 14.3 180 
 BAR2 SZ ES       1119 32.38                             174   -0.7110 14.3 180 
 BAR2 SZ I        1119 34.20        20.1 0.20            170           14.3 180 
 BRR  HZ IP     C 1119 19.83                             152    0.2510 72.3 306 
 BRR  HE ES   1   1119 37.00                             152    0.84 7 72.3 306 
 BRR  HE I        1119 37.72        26.9 0.21            149           72.3 306 
 RUS  HZ EP   1   1119 21.62                             146    0.07 7 92.4 173 
 RUS  HN ES   1   1119 40.11                             146    0.46 7 92.4 173 
 RUS  HN I        1119 42.08        15.8 0.31            146           92.4 173 
 PTB  HZ EP   1   1119 24.89                             133    0.06 7  142 262 
 PTB  HE ES       1119 45.45                             133   -0.05 9  142 262 
 PTB  HZ I        1119 49.18         5.8 0.15            131            142 262 
 ZAR  HZ EP   1   1119 30.20                             122   -0.56 6  204 295 
 ZAR  HN ES   1   1119 55.89                             122   -0.17 6  204 295 
 ZAR  HZ I        1120  2.90         3.6 0.15            122            204 295 
                                                                                
