 2015  213 1138 57.4 L   6.768 -73.172143.1  RSN 14 0.4 2.0LRSN                1
 GAP= 71        1.01       2.7     3.3  4.8 -0.1221E+01  0.3336E+01  0.1903E+01E
 Epicentro: LOS SANTOS - SANTANDER                                             3
 ACTION:UPD 15-04-30 21:25 OP:nd   STATUS:               ID:20150213113857 L   I
 OLDACT:REG 15-02-13 20:42 OP:stll STATUS:               ID:20150213113746     3
 2015-02-13-1137-46M.COL___305                                                 6
 STAT SP IPHASW D HRMM SECON CODA AMPLIT PERI AZIMU VELO AIN AR TRES W  DIS CAZ7
 BAR2 EZ EP       1139 16.81                             172    0.1310 19.5 183 
 BAR2 EZ ES       1139 31.95                             172    0.2710 19.5 183 
 BAR2 EZ I        1139 33.54        26.9 0.22            170           19.5 183 
 BRR  HZ EP       1139 18.75                             152    0.4910 70.5 302 
 BRR  HN ES       1139 34.82                             152    0.3210 70.5 302 
 BRR  HZ I        1139 37.61        12.8 0.40            150           70.5 302 
 PAM  SZ EP       1139 19.64                             149   -0.0110 81.9  40 
 PAM  SZ I        1139 19.93        13.9 0.24            154           81.9  40 
 PAM  SN ES       1139 36.68                             149   -0.3010 81.9  40 
 RUS  HZ EP       1139 20.50                             144   -0.1910 97.3 174 
 RUS  HE ES       1139 38.72                             144   -0.1110 97.3 174 
 RUS  HZ I        1139 40.73        12.6 0.24            146           97.3 174 
 PTB  HZ EP       1139 23.41                             132   -0.46 9  144 260 
 PTB  HN ES       1139 44.11                             132   -0.38 9  144 260 
 PTB  HZ I        1139 50.45        12.7 0.28            132            144 260 
 TAM  HZ EP       1139 24.99                             130   -0.10 9  157 103 
 SPBC HZ EP       1139 25.65                             129    0.35 9  159 219 
 SPBC HN ES       1139 47.23                             129    0.20 9  159 219 
 SPBC HZ I        1139 54.31        15.9 0.16            130            159 219 
 ZAR  HZ EP       1139 30.04                             122    0.46 9  203 293 
 ZAR  HN ES       1139 54.65                             122    0.00 9  203 293 
 ZAR  HZ I        1140  2.95         9.7 0.54            123            203 293 
 NOR  HZ EP       1139 32.17                             118   -0.37 8  230 235 
 NOR  HE ES       1139 59.98                             118    0.06 8  230 235 
 NOR  HZ I        1140  5.89         7.5 0.22            119            230 235 
 CHI  HZ EP       1139 34.59                             117    0.05 8  244 195 
 CHI  HN ES       1140  3.22                             117   -0.25 8  244 195 
 CHI  HZ I        1140  6.89         2.9 0.34            119            244 195 
 SML  HZ EP       1139 33.33                             117   -0.81 8  246 336 
 SML  HE ES       1140  2.61                             117   -0.15 8  246 336 
 SML  HZ I        1140  5.27         8.5 0.10            118            246 336 
 GUY2CHZ EP       1139 41.56                             112    1.13 7  297 235 
 GUY2CHN ES       1140 13.43                             112   -0.53 7  297 235 
 GUY2CHZ I        1140 22.19         3.9 0.36                           297 235 
 TOL  SZ EP       1139 46.31                             109    1.24 7  339 225 
 TOL  SE ES       1140 21.30                             109   -0.91 7  339 225 
 PRA  HZ EP       1139 50.25                             106   -0.09 6  388 209 
 PRA  HE ES       1140 31.44                             106   -0.17 6  388 209 
 PRA  HZ I        1140 36.05         3.0 0.22            108            388 209 
                                                                                
