 2017  513 1505 40.6 L   6.795 -73.170137.6  RSN  4 0.2 1.0LRSN                1
 GAP=134        0.48       2.5     2.3  5.4 -0.1424E+00  0.4258E+01 -0.1903E+00E
 Epicentro: LOS SANTOS - SANTANDER                                             3
 ACTION:UPD 17-06-16 13:35 OP:jn   STATUS:               ID:20170513150540 L   I
 OLDACT:REG 17-05-13 19:19 OP:lv   STATUS:               ID:20170513145730     3
 2017-05-13-1458-00M.COL___324                                                 6
 STAT SP IPHASW D HRMM SECON CODA AMPLIT PERI AZIMU VELO AIN AR TRES W  DIS CAZ7
 PAM  EZ EP       15 6  1.90                             149   -0.2210 79.5  41 
 PAM  EN ES       15 6 18.97                             149    0.0910 79.5  41 
 PAM  EZ I        15 6 20.83         3.1 0.51            151           79.5  41 
 RUS  HZ EP       15 6  3.57                             142    0.0010  100 174 
 RUS  HN ES       15 6 21.52                             142    0.0710  100 174 
 RUS  HZ I        15 6 23.51         1.4 0.15            144            100 174 
 PTB  HZ EP       15 6  6.89                             131    0.20 9  145 259 
 PTB  HN ES       15 6 26.76                             131   -0.25 9  145 259 
 PTB  HZ I        15 6 28.21                             133            145 259 
 ZAR  HZ EP   4   15 6 15.05                             121    2.73 0  202 293 
 ZAR  HN ES       15 6 37.18                             121    0.15 9  202 293 
                                                                                
