 2012  813 1237 58.3 L   6.765 -73.122142.9  RSN 14 0.4 2.7LRSN                1
 GAP= 68        0.73       3.2     3.0  4.6 -0.6661E+00  0.1558E+01  0.3622E+01E
 Epicentro: LOS SANTOS - SANTANDER                                             3
 ACTION:UPD 12-09-10 11:56 OP:ep   STATUS:               ID:20120813123758 L   I
 2012-08-13-1230-00M.COL___217                                                 6
 STAT SP IPHASW D HRMM SECON CODA AMPLIT PERI AZIMU VELO AIN AR TRES W  DIS CAZ7
 BAR2 SZ EP       1238 17.53                             171   -0.0210 20.3 199 
 BAR2 SZ ES   1   1238 32.49                             171   -0.06 7 20.3 199 
 BAR2 SZ I        1238 33.76       206.9 0.14                          20.3 199 
 GIR2 SZ EP       1238 17.62                             165   -0.1610 35.6 347 
 BRR  HZ IP     C 1238 19.50                             151    0.1010 75.4 300 
 BRR  HN ES       1238 36.38                             151    0.5310 75.4 300 
 BRR  HZ I        1238 37.48        73.9 0.16                          75.4 300 
 PAM  SZ EP       1238 20.27                             150   -0.0510 78.8  36 
 PAM  SZ I        1238 20.74       114.9 0.25                          78.8  36 
 PAM  SE ES   1   1238 37.12                             150   -0.36 7 78.8  36 
 RUS  HZ EP       1238 21.45                             144   -0.0510 96.6 177 
 RUS  HE ES   1   1238 39.45                             144   -0.14 7 96.6 177 
 RUS  HZ I        1238 41.28        42.6 0.32                          96.6 177 
 PTB  HZ EP   1   1238 24.25                             131   -0.98 7  150 260 
 TAM  HZ EP       1238 25.80                             131    0.36 9  152 104 
 OCA  HZ EP   1   1238 26.49                             128   -0.31 7  164 352 
 OCA  HZ I        1238 51.99        95.8 0.23                           164 352 
 YOP  SZ EP   1   1238 27.81                             126    0.11 7  174 154 
 ZAR  HZ EP   1   1238 31.28                             121    0.29 6  208 293 
 ZAR  HE ES   1   1238 56.06                             121   -0.41 6  208 293 
 ZAR  HZ I        1239  2.10        28.4 0.34                           208 293 
 NOR  SZ EP   1   1238 34.09                             118    0.21 6  235 236 
 NOR  SN ES   1   1239  2.10                             118    0.48 6  235 236 
 NOR  SZ I        1239  5.18        18.4 0.19                           235 236 
 HEL  HZ EP   1   1238 38.80                             114    0.23 6  274 257 
 HEL  HZ I        1239 16.32        14.8 0.48                           274 257 
 GUY  SZ EP   1   1238 42.76                             112    0.70 5  304 236 
 GUY  SE ES   1   1239 15.60                             112   -0.58 5  304 236 
 GUY  SZ I        1239 24.83        55.9 0.36                           304 236 
 PRA  HZ EP   1   1238 51.27                             106   -0.23 4  390 210 
 PRA  HN ES   1   1239 32.69                             106   -0.30 4  390 210 
 PRA  HZ I        1239 39.34        17.9 0.19                           390 210 
                                                                                
