 2015  513 1323 52.6 L   6.750 -73.118141.7  RSN  7 0.3 1.8LRSN                1
 GAP=202        0.84       3.7     4.9  5.5  0.2884E+01  0.6118E+01 -0.7585E+00E
 Epicentro: LOS SANTOS - SANTANDER                                             3
 ACTION:UPD 15-09-10 22:03 OP:cam  STATUS:               ID:20150513132352 L   I
 OLDACT:UP  15-05-13 22:52 OP:drio STATUS:               ID:20150513131750     3
 OLDACT:REG 15-05-13 20:18 OP:drio STATUS:               ID:20150513131750     3
 2015-05-13-1317-50M.COL___282                                                 6
 STAT SP IPHASW D HRMM SECON CODA AMPLIT PERI AZIMU VELO AIN AR TRES W  DIS CAZ7
 BAR2 EZ EP       1324 11.54                             172   -0.1410 18.8 202 
 BAR2 EZ ES       1324 26.47                             172   -0.0710 18.8 202 
 BAR2 EZ I        1324 27.96        11.4 0.14            168           18.8 202 
 BRR  HZ EP       1324 13.60                             150   -0.0510 76.6 301 
 BRR  HN ES       1324 30.63                             150    0.5810 76.6 301 
 RUS  HZ EP       1324 16.09                             145    0.5210 94.9 178 
 RUS  HN ES       1324 33.01                             145   -0.4510 94.9 178 
 RUS  HZ I        1324 35.23         7.0 0.18            143           94.9 178 
 SPBC HZ EP       1324 20.75                             129    0.16 9  161 221 
 SPBC HE ES       1324 42.25                             129   -0.16 9  161 221 
 SPBC HZ I        1324 45.17        11.7 0.24            128            161 221 
 ZAR  HN ES       1324 50.33                             121   -0.49 8  209 293 
 NOR  HZ EP       1324 27.99                             118   -0.06 8  234 236 
 NOR  HE ES       1324 55.90                             118    0.22 8  234 236 
 NOR  HZ I        1325  0.43         5.6 0.38            117            234 236 
 SML  HZ EP       1324 29.46                             116   -0.25 8  250 335 
 SML  HN ES   4   1324 56.47                             116   -2.17 0  250 335 
                                                                                
