 2016  313 1523 36.8 L   6.815 -73.134148.3  RSN 19 0.5 2.5LRSN                1
 GAP= 71        1.07       3.0     3.2  5.7 -0.2380E+01  0.3208E+01  0.1262E+01E
 Epicentro: LOS SANTOS - SANTANDER                                             3
 ACTION:UPD 16-05-13 21:23 OP:cam  STATUS:               ID:20160313152336 L   I
 OLDACT:UP  16-03-14 19:27 OP:Ak   STATUS:               ID:20160313152336 L   3
 OLDACT:UP  16-03-13 23:34 OP:drio STATUS:               ID:20160313151750     3
 OLDACT:UP  16-03-13 23:34 OP:drio STATUS:               ID:20160313151750     3
 OLDACT:UP  16-03-13 23:33 OP:drio STATUS:               ID:20160313151750     3
 OLDACT:REG 16-03-13 20:30 OP:drio STATUS:               ID:20160313151750     3
 2016-03-13-1517-50M.COL___292                                                 6
 STAT SP IPHASW D HRMM SECON CODA AMPLIT PERI AZIMU VELO AIN AR TRES W  DIS CAZ7
 BAR2 EZ IP     C 1523 56.84                             170    0.0810 25.2 192 
 BAR2 EZ ES       1524 11.73                             170   -0.6110 25.2 192 
 BAR2 EZ I        1524 12.92        63.7 0.26            168           25.2 192 
 PAM  EZ IP     D 1523 59.57                             152    0.4310 75.2  40 
 PAM  EE ES       1524 16.67                             152    0.0810 75.2  40 
 PAM  EZ I        1524 18.90        64.4 0.54            154           75.2  40 
 RUS  HZ EP       1524  0.71                             144   -0.1910  102 177 
 RUS  HE ES       1524 19.63                             144   -0.0810  102 177 
 RUS  HZ I        1524 20.60        18.4 0.38            145            102 177 
 PTB  HZ EP       1524  3.73                             132   -0.37 9  149 258 
 PTB  HE ES       1524 24.84                             132   -0.57 9  149 258 
 PTB  HZ I        1524 32.00        45.7 0.38            129            149 258 
 TAM  HZ EP       1524  4.98                             131    0.40 9  154 106 
 TAM  HN ES       1524 26.79                             131    0.52 9  154 106 
 TAM  HZ I        1524 27.82        17.3 0.32            135            154 106 
 OCA  HZ EP       1524  4.84                             130   -0.31 9  159 353 
 OCA  HN ES       1524 27.50                             130    0.22 9  159 353 
 OCA  HZ I        1524 30.92       102.5 0.18            129            159 353 
 SPBC HZ EP       1524  5.74                             129    0.06 9  165 219 
 SPBC HN ES       1524 28.83                             129    0.61 9  165 219 
 SPBC HZ I        1524 30.31        34.3 0.22            128            165 219 
 ZAR  HZ EP   4   1524 10.42                             123    0.97 0  205 292 
 ZAR  HE ES       1524 35.27                             123    0.33 9  205 292 
 ZAR  HZ I        1524 45.52        26.9 0.24            121            205 292 
 NOR  HZ EP       1524 13.20                             119    0.32 8  237 234 
 NOR  HE ES       1524 40.52                             119   -0.51 8  237 234 
 NOR  HZ I        1524 49.36        25.4 0.22            118            237 234 
 CHI  HZ EP       1524 14.32                             117   -0.51 8  251 195 
 CHI  HE ES       1524 43.99                             117   -0.52 8  251 195 
 CHI  HZ I        1524 46.74        10.6 0.30            117            251 195 
 ROSC BZ EP   4   1524 16.67                             117    1.40 0  255 211 
 ROSC BE ES       1524 45.82                             117    0.53 8  255 211 
 ROSC BZ I        1524 54.66        37.8 0.40            116            255 211 
 HEL  HZ EP   4   1524 18.63                             115    1.32 0  274 256 
 HEL  HE ES   4   1524 52.31                             115    3.39 0  274 256 
 HEL  HZ I        1524 55.51        14.6 0.30            114            274 256 
 URE  HZ EP   4   1524 20.95                             114    2.91 0  284 292 
 URE  HE ES   4   1524 47.86                             114   -2.37 0  284 292 
 URE  HZ I        1525  0.86        14.9 0.20            113            284 292 
 SOCV BZ EP   4   1524 18.40                             113   -1.32 0  299  57 
 SOCV BE ES   4   1524 49.88                             113   -3.33 0  299  57 
 GUY2CHZ EP   4   1524 21.77                             113    1.03 0  303 235 
 GUY2CHE ES   4   1524 59.56                             113    4.54 0  303 235 
 GUY2CHZ I        1525  3.74        17.7 0.72                           303 235 
 LL6C HZ EP   9   1524 18.41                             111   -4.00 0  323 357 
 LL6C HN ES       1524 54.52                             111    0.52 7  323 357 
 ELA  HZ EP   4   1524 27.30                             111    3.32 0  331 229 
 ELA  HE ES       1525  1.70                             111    0.91 7  331 229 
 ELA  HZ I        1525  9.59        16.3 0.42            110            331 229 
 CBOC HZ EP       1524 24.14                             110    0.14 7  335 252 
 CBOC HN ES   4   1524 59.03                             110   -1.81 0  335 252 
 CBOC HZ I        1525  9.99         5.6 0.42            109            335 252 
 SDV  BZ EP       1524 25.58                             109   -1.10 6  358  50 
 SDV  BE ES   4   1525  3.60                             109   -2.00 0  358  50 
 ANIL HZ EP   4   1524 29.04                             109    2.11 0  359 224 
 ANIL HE ES   4   1525  9.21                             109    3.17 0  359 224 
 ANIL HZ I        1525 11.08        27.8 0.26            108            359 224 
                                                                                
