 2013  613 1844  8.1 L   6.369 -73.113175.6  RSN  7 0.4 2.4LRSN                1
 GAP=183        0.73       7.8     6.2  7.2  0.1896E+02  0.8520E+00 -0.1406E+02E
 Epicentro: OCAMONTE - SANTANDER                                               3
 ACTION:UPD 14-01-08 09:54 OP:ep   STATUS:               ID:20130613184408 L   I
 OLDACT:UP  13-06-13 19:25 OP:mh   STATUS:               ID:20130613183959     3
 OLDACT:REG 13-06-13 14:19 OP:mh   STATUS:               ID:20130613183959     3
 2013-06-13-1839-59M.COL___261                                                 6
 STAT SP IPHASW D HRMM SECON CODA AMPLIT PERI AZIMU VELO AIN AR TRES W  DIS CAZ7
 BAR2 SZ EP     C 1844 31.35                             171   -0.0610 25.8 343 
 BAR2 SZ ES   1   1844 49.25                             171   -0.31 7 25.8 343 
 BAR2 SZ I        1844 51.06        16.4 0.42            166           25.8 343 
 RUS  HZ EP   1   1844 32.80                             163    0.27 7 52.8 176 
 RUS  HN ES   1   1844 51.42                             163   -0.13 7 52.8 176 
 RUS  HN I        1844 53.05        26.6 0.50            170           52.8 176 
 GIR2 SZ EP       1844 32.98                             155   -0.1910 79.0 354 
 BRR  HZ EP       1844 34.95                             148    0.4410  105 321 
 BRR  HN ES   2   1844 55.83                             148    0.76 5  105 321 
 BRR  HN I        1844 58.91        41.4 0.20            146            105 321 
 PTB  HZ EP       1844 37.61                             138   -0.24 9  150 277 
 PTB  HN ES   1   1845  1.32                             138    0.30 7  150 277 
 PTB  HN I        1845  2.74        17.7 0.24            139            150 277 
 ZAR  HN ES   1   1845 13.47                             125   -0.58 6  229 303 
 ZAR  HN I        1845 15.30        22.6 0.30            126            229 303 
 SML  HZ EP   4   1844 48.05                             118   -3.30 0  289 339 
 SML  HN ES   4   1845 17.80                             118   -7.25 0  289 339 
 SML  HN I        1845 30.96        22.2 0.10            119            289 339 
                                                                                
