 2012 1213 1824 42.5 L   6.767 -73.168143.6  RSN  6 0.4 1.7LRSN                1
 GAP=135        0.80       5.3     4.7  7.8  0.2214E+01  0.7139E+01  0.4472E+00E
 Epicentro: LOS SANTOS - SANTANDER                                             3
 ACTION:UPD 13-01-04 14:27 OP:ep   STATUS:               ID:20121213182442 L   I
 2012-12-13-1820-00M.COL___242                                                 6
 STAT SP IPHASW D HRMM SECON CODA AMPLIT PERI AZIMU VELO AIN AR TRES W  DIS CAZ7
 BAR2 SZ EP   1   1825  1.79                             172    0.00 7 19.4 185 
 BAR2 SZ ES   1   1825 16.84                             172    0.00 7 19.4 185 
 BAR2 SZ I        1825 17.57        24.0 0.34                          19.4 185 
 BRR  HZ EP   1   1825  3.62                             152    0.23 7 70.9 302 
 BRR  HN ES   1   1825 20.42                             152    0.72 7 70.9 302 
 BRR  HZ I        1825 22.08        12.1 0.26                          70.9 302 
 PAM  SZ EP   1   1825  4.73                             149   -0.02 7 81.8  39 
 PAM  SN ES   1   1825 21.56                             149   -0.55 7 81.8  39 
 PAM  SZ I        1825 24.02         8.1 0.46                          81.8  39 
 RUS  HZ EP   1   1825  6.25                             144    0.47 7 97.1 174 
 RUS  HN ES   1   1825 23.92                             144   -0.03 7 97.1 174 
 RUS  HZ I        1825 25.92         3.6 0.50                          97.1 174 
 PTB  HZ EP   1   1825  8.62                             132   -0.38 7  145 260 
 PTB  HN ES   1   1825 28.99                             132   -0.69 7  145 260 
 PTB  HZ I        1825 31.14         5.8 0.12                           145 260 
 ZAR  HN ES   1   1825 40.00                             122    0.16 6  203 293 
 ZAR  HZ I        1825 46.70         4.2 0.15                           203 293 
                                                                                
