 2017  813 1232 44.4 L   6.803 -73.134140.9  RSN  5 0.1 1.4LRSN                1
 GAP=239        0.35       2.5     3.1  3.8  0.4755E+01  0.4341E+01  0.2961E+01E
 Epicentro: LOS SANTOS - SANTANDER                                             3
 ACTION:UPD 17-09-04 20:19 OP:rebc STATUS:               ID:20170813123244 L   I
 OLDACT:UP  17-08-14 04:20 OP:edw  STATUS:               ID:20170813122741     3
 OLDACT:REG 17-08-14 02:40 OP:osc  STATUS:               ID:20170813122741     3
 2017-08-13-1228-00M.COL___410                                                 6
 STAT SP IPHASW D HRMM SECON CODA AMPLIT PERI AZIMU VELO AIN AR TRES W  DIS CAZ7
 BAR2 EZ ES       1233 18.23                             170   -0.1310 23.9 193 
 BAR2 EZ I        1233 19.67         7.4 0.20            170           23.9 193 
 BRR  HN ES       1233 21.36                             151    0.1210 72.1 298 
 RUS  HZ EP       1233  7.73                             143    0.0010  101 177 
 RUS  HN ES       1233 25.96                             143    0.0610  101 177 
 RUS  HZ I        1233 27.21         4.0 0.24            143            101 177 
 SPBC HN ES       1233 34.67                             128   -0.01 9  164 219 
 ZAR  HE ES       1233 41.75                             121   -0.06 9  205 292 
                                                                                
