 2016 1013 1329 56.0 L   6.762 -73.155146.9  RSN  6 0.4 1.5LRSN                1
 GAP=137        0.90       5.4     4.0  6.2  0.8293E+00  0.5611E+01  0.2628E+01E
 Epicentro: LOS SANTOS - SANTANDER                                             3
 ACTION:UPD 16-11-09 19:19 OP:rebc STATUS:               ID:20161013132956 L   I
 OLDACT:UP  16-10-14 00:19 OP:and  STATUS:               ID:20161013132733     3
 OLDACT:REG 16-10-13 20:08 OP:and  STATUS:               ID:20161013132733     3
 2016-10-13-1328-00M.COL___365                                                 6
 STAT SP IPHASW D HRMM SECON CODA AMPLIT PERI AZIMU VELO AIN AR TRES W  DIS CAZ7
 BAR2 EZ EP       1330 15.52                             172   -0.1410 19.1 189 
 BAR2 EZ ES       1330 31.14                             172    0.1210 19.1 189 
 BAR2 EZ I        1330 31.37         9.4 0.30            171           19.1 189 
 BRR  HZ EP       1330 17.41                             152    0.1010 72.4 302 
 BRR  HN ES       1330 34.48                             152    0.5210 72.4 302 
 PAM  EZ IP     D 1330 18.41                             150   -0.1310 81.2  38 
 PAM  EN ES       1330 35.80                             150   -0.3510 81.2  38 
 PAM  EZ I        1330 37.30         8.1 0.62            153           81.2  38 
 RUS  HZ EP       1330 19.83                             145    0.2810 96.5 175 
 RUS  HE ES   2   1330 38.11                             145    0.17 5 96.5 175 
 RUS  HZ I        1330 40.06         3.0 0.34            145           96.5 175 
 PTB  HZ EP       1330 22.40                             133   -0.47 9  146 260 
 PTB  HN ES       1330 43.35                             133   -0.51 9  146 260 
 PTB  HZ I        1330 48.14         4.2 0.14            133            146 260 
 ZAR  HZ EP       1330 29.24                             122    0.68 9  205 293 
 ZAR  HN ES       1330 53.85                             122   -0.13 9  205 293 
 ZAR  HZ I        1330 56.21         3.7 0.14            123            205 293 
                                                                                
