 2017  713 1050  5.4 L   6.805 -73.161144.2  RSN 11 0.4 2.2LRSN                1
 GAP=134        0.82       3.7     3.6  5.1 -0.3848E+01  0.7801E+01 -0.2028E+01E
 Epicentro: LOS SANTOS - SANTANDER                                             3
 ACTION:UPD 17-08-30 15:32 OP:rebc STATUS:               ID:20170713105005 L   I
 OLDACT:UP  17-07-13 21:09 OP:dani STATUS:               ID:20170713104740     3
 OLDACT:UP  17-07-13 21:09 OP:dani STATUS:               ID:20170713104740     3
 OLDACT:UP  17-07-13 21:08 OP:dani STATUS:               ID:20170713104740     3
 OLDACT:UP  17-07-13 21:08 OP:dani STATUS:               ID:20170713104740     3
 OLDACT:REG 17-07-13 20:08 OP:dani STATUS:               ID:20170713104740     3
 2017-07-13-1048-00M.COL___365                                                 6
 STAT SP IPHASW D HRMM SECON CODA AMPLIT PERI AZIMU VELO AIN AR TRES W  DIS CAZ7
 BAR2 EZ EP     D 1050 24.81                             170   -0.0310 23.6 186 
 BAR2 EZ ES       1050 39.97                             170   -0.0410 23.6 186 
 BAR2 EZ I        1050 41.46        45.9 0.22            171           23.6 186 
 PAM  EZ EP       1050 27.68                             150    0.2010 78.1  41 
 PAM  EN ES       1050 44.86                             150    0.1510 78.1  41 
 PAM  EZ I        1050 46.87        21.1 0.50            153           78.1  41 
 RUS  HZ EP       1050 28.83                             143   -0.2010  101 175 
 RUS  HE ES       1050 47.62                             143    0.1410  101 175 
 RUS  HZ I        1050 48.70        10.9 0.32            148            101 175 
 PTB  HZ EP       1050 31.71                             132   -0.38 9  146 259 
 PTB  HE ES       1050 52.72                             132   -0.19 9  146 259 
 PTB  HZ I        1050 57.50        12.7 0.16            132            146 259 
 SPBC HZ EP       1050 32.86                             129   -0.84 9  163 218 
 SPBC HE ES       1050 56.13                             129    0.34 9  163 218 
 SPBC HZ I        1050 58.70        38.8 0.20            131            163 218 
 ZAR  HZ EP       1050 37.55                             122    0.00 9  202 292 
 ZAR  HN ES   2   1051  2.92                             122    0.28 4  202 292 
 ZAR  HZ I        1051  8.34        23.1 0.34            122            202 292 
 NOR  HZ EP       1050 40.99                             118    0.08 8  234 234 
 NOR  HN ES       1051  8.82                             118    0.20 8  234 234 
 NOR  HZ I        1051 13.52        15.0 0.26            120            234 234 
 URE  HZ EP   9   1050 44.59                             113   -1.59 0  282 292 
 URE  HE ES       1051 15.68                             113   -0.73 7  282 292 
 URE  HZ I        1051 25.72         9.5 0.18            114            282 292 
 GUY2CHZ EP   3   1050 49.97                             112    1.17 2  300 235 
 GUY2CHZ I        1051 31.30        12.7 0.44                           300 235 
 DBB  EZ EP       1050 53.30                             109    0.70 7  338 274 
 DBB  EZ ES   2   1051 28.88                             109   -0.55 3  338 274 
 PAL  HZ EP       1051  0.88                             106    0.52 6  405 239 
                                                                                
