 2011 1213 1034 28.0 L   6.658 -73.623106.8  RSN  5 0.3 1.5LRSN                1
 GAP=117        0.52       6.1     5.2 10.0  0.8236E+01 -0.5123E+01  0.1530E+02E
 Epicentro: EL CARMEN DE CHUCURI - SANTANDER                                   3
 ACTION:UPD 12-07-13 16:15 OP:ep   STATUS:               ID:20111213103428 L   I
 2011-12-13-1030-00M.COL___184                                                 6
 STAT SP IPHASW D HRMM SECON CODA AMPLIT PERI AZIMU VELO AIN AR TRES W  DIS CAZ7
 BAR2 SZ EP   2   1034 44.07                             154    0.03 5 49.2  98 
 BAR2 SZ ES   2   1034 56.15                             154   -0.41 5 49.2  98 
 BAR2 SZ I        1035  1.23         7.6 0.36                          49.2  98 
 BRR  HE ES   2   1034 56.63                             153    0.55 5 50.6 349 
 BRR  HZ I        1035  2.96         9.3 0.45                          50.6 349 
 GIR2 SZ EP   2   1034 44.56                             146   -0.41 5 66.5  46 
 PTB  HN ES   2   1035  1.33                             136   -0.25 5 93.1 262 
 RUS  HZ EP   2   1034 48.77                             133    0.34 5  104 145 
 RUS  HE ES   2   1035  4.52                             133    0.16 5  104 145 
 RUS  HZ I        1035  6.43         6.7 0.28                           104 145 
                                                                                
