 2016  513 1237 27.2 L   6.505 -73.568106.0  RSN 13 0.5 2.0LRSN                1
 GAP= 69        1.19       3.4     3.8  7.3  0.2381E+01  0.1288E+02  0.7119E+01E
 Epicentro: SANTA HELENA DEL OPON - SANTANDER                                  3
 ACTION:UPD 16-08-18 17:45 OP:cam  STATUS:               ID:20160513123727 L   I
 OLDACT:REG 16-05-13 20:24 OP:ak   STATUS:               ID:20160513122742     3
 2016-05-13-1227-42M.COL___303                                                 6
 STAT SP IPHASW D HRMM SECON CODA AMPLIT PERI AZIMU VELO AIN AR TRES W  DIS CAZ7
 BAR2 EZ IP     D 1237 42.64                             156   -0.2410 43.7  77 
 BAR2 EZ ES       1237 55.42                             156    0.3210 43.7  77 
 BAR2 EZ I        1237 56.28        95.9 0.34            162           43.7  77 
 BRR  HZ EP   2   1237 43.45                             145   -0.59 5 68.4 347 
 BRR  HN ES       1237 57.28                             145    0.1210 68.4 347 
 BRR  HZ I        1238  3.05        18.9 0.18            147           68.4 347 
 RUS  HZ EP       1237 45.27                             138   -0.8310 86.4 142 
 RUS  HE ES       1238  1.26                             138    0.4210 86.4 142 
 RUS  HZ I        1238  2.86        37.4 0.04            143           86.4 142 
 PTB  HZ IP     C 1237 45.47                             134   -0.9910 98.3 272 
 PTB  HN ES       1238  0.85                             134   -0.6310 98.3 272 
 PTB  HZ I        1238  3.86        17.3 0.16            135           98.3 272 
 SPBC HZ EP       1237 47.35                             131   -0.2410  110 211 
 SPBC HN ES       1238  3.85                             131    0.3710  110 211 
 SPBC HZ I        1238  5.48        29.5 0.11            132            110 211 
 NOR  HZ EP       1237 54.23                             116   -0.32 9  178 234 
 NOR  HN ES       1238 15.74                             116   -0.14 9  178 234 
 NOR  HZ I        1238 19.74        14.0 0.24            118            178 234 
 ZAR  HZ EP       1237 55.12                             116    0.43 9  180 308 
 ZAR  HE ES       1238 17.07                             116    0.95 9  180 308 
 ZAR  HZ I        1238 21.16        16.5 0.23            118            180 308 
 OCA  HN ES   2   1238 19.68                             114    0.44 4  194   8 
 CHI  HZ EP   2   1237 58.80                             112    0.39 4  208 185 
 CHI  HN ES       1238 23.47                             112    0.73 8  208 185 
 CHI  HZ I        1238 26.78                             115            208 185 
 HEL  HZ EP       1237 59.72                             111    0.05 8  220 261 
 HEL  HN ES       1238 25.54                             111    0.56 8  220 261 
 HEL  HZ I        1238 30.84         7.5 0.22            113            220 261 
 URE  HZ EP   9   1238  2.05                             107   -1.50 0  257 303 
 URE  HN ES       1238 30.14                                   -0.25 8  257 303 
 URE  HZ I        1238 34.12         8.0 0.26            109            257 303 
 CBOC HZ EP   2   1238  7.14                             105    0.74 4  280 255 
 CBOC HE ES       1238 36.82                             105   -0.14 7  280 255 
 PRA  HZ EP   2   1238 14.41                             101    0.82 3  342 205 
 PRA  HN ES       1238 49.64                             101   -0.13 7  342 205 
 PRA  HZ I        1238 55.24         2.6 0.18            103            342 205 
                                                                                
