 2010  113 1809 38.2 L   6.851 -73.134146.9  RSN  9 0.5 3.3LRSN                1
 GAP=126        0.80       4.9     6.6  7.4 -0.7709E+01  0.8924E+01 -0.6366E+00E
 Epicentro: LOS SANTOS - SANTANDER                                             3
 ACTION:UP  10-08-24 09:44 OP:vdl  STATUS:               ID:20100113180938 L   I
 2010-01-13-1807-57S.COL___095                                                 6
 STAT SP IPHASW D HRMM SECON CODA AMPLIT PERI AZIMU VELO SNR AR TRES W  DIS CAZ7
 GIR2 SZ EP   1   18 9 58.49                             169     0.6 7   26 345 
 GIR2 SZ ES   2   1810 13.41                             169     0.2 5   26 345 
 BAR2 SZ IP       18 9 58.49                             168     0.410   29 191 
 BAR2 SZ ES   2   1810 13.34                             168    -0.3 5   29 191 
 RUS  BZ IP       1810  2.41                             143    -0.110  106 177 
 RUS  BE ES   2   1810 20.44                             143    -1.0 5  106 177 
 CHI  HZ EP   1   1810 16.65                             117     0.0 6  254 195 
 CHI  HE ES   2   1810 46.18                             117    -0.4 4  254 195 
 CHI  HZ I        1810 53.23        74.6 0.29                           254 195 
 HEL  HE ES   2   1810 51.05                             115     0.6 4  275 255 
 HEL  HZ I        1810 58.62        70.8 0.36                           275 255 
 RREF BZ EP   2   1810 25.62                             111     0.7 3  326 229 
 MON  HZ EP   1   1810 25.98                             109    -1.0 5  350 308 
 MON  HE ES   2   1811  4.14                             109    -0.8 3  350 308 
 SDV  BZ EP   1   1810 27.95                             109     0.2 5  356  51 
 SDV  BE ES   2   1811  5.55                             109    -0.9 3  356  51 
 PRA  HZ EP   1   1810 32.03                             107    -0.4 4  398 209 
 PRA  HN ES   1   1811 14.60                             107    -0.1 4  398 209 
 PRA  HZ I        1811 20.37       125.0 0.33                           398 209 
                                                                                
