 2016  613 1945 41.7 L   6.789 -73.144140.8  RSN 19 0.4 2.6LRSN 3.1WRSN        1
 SPEC AVERAGE  MO 13.7 ST0.501 OM  1.9 f0 2.31 R1.0704 AL 0.00 WI 45.0 MW  3.1 3
 SPEC SD       MO  0.3 ST  7.0 OM  0.4 f0 1.48 R0.6373 AL      WI      MW  0.2 3
 GAP= 72        0.93       2.4     2.5  4.2 -0.7781E+00  0.2614E+01  0.2455E+01E
 Epicentro: LOS SANTOS - SANTANDER                                             3
 SPEC BAR2EH Z MO 13.6 ST  1.3 OM  1.7 f0 3.87 R0.4972 AL-0.00 WI 45.0 MW  3.0 3
 SPEC BAR2EH Z T194614 K 0.000 GD  142 VS 5.20 DE 3.50 Q0750.0 QA 1.50 VS 3.50 3
 SPEC PAM EH Z MO 13.5 ST0.181 OM  1.6 f0 2.07 R0.9295 AL-0.00 WI 45.0 MW  3.0 3
 SPEC PAM EH Z T194618 K 0.000 GD  161 VS 5.20 DE 3.50 Q0750.0 QA 1.50 VS 3.50 3
 SPEC ZAR HH Z MO 13.6 ST  1.3 OM  1.5 f0 3.75 R0.5131 AL-0.00 WI 45.0 MW  3.0 3
 SPEC ZAR HH Z T194637 K 0.000 GD  248 VS 5.20 DE 3.50 Q0750.0 QA 1.50 VS 3.50 3
 SPEC NOR HH Z MO 13.5 ST0.663 OM  1.4 f0 3.12 R0.6167 AL-0.00 WI 45.0 MW  3.0 3
 SPEC NOR HH Z T194643 K 0.000 GD  273 VS 5.20 DE 3.50 Q0750.0 QA 1.50 VS 3.50 3
 SPEC CHI HH Z MO 13.8 ST0.117 OM  1.6 f0 1.48 R1.3000 AL-0.00 WI 45.0 MW  3.1 3
 SPEC CHI HH Z T194646 K 0.000 GD  285 VS 5.20 DE 3.50 Q0750.0 QA 1.50 VS 3.50 3
 SPECGUY2CHH Z MO 15.9 ST0.004 OM  3.7 f00.089 R 21.62 AL-0.00 WI 45.0 MW  4.6 3
 SPECGUY2CHH Z T194657 K 0.000 GD  332 VS 5.20 DE 3.50 Q0750.0 QA 1.50 Q1 0.00 3
 SPEC CBOCHH Z MO 13.6 ST0.086 OM  1.3 f0 1.55 R1.2413 AL-0.00 WI 45.0 MW  3.0 3
 SPEC CBOCHH Z T1947 3 K 0.000 GD  361 VS 5.20 DE 3.50 Q0750.0 QA 1.50 VS 3.50 3
 SPEC PRA HH Z MO 14.3 ST0.067 OM  2.0 f00.797 R2.4141 AL-0.00 WI 45.0 MW  3.5 3
 SPEC PRA HH Z T194715 K 0.000 GD  415 VS 5.20 DE 3.50 Q0750.0 QA 1.50 VS 3.50 3
 SPEC ORTCHH Z MO 13.8 ST0.259 OM  1.5 f0 1.83 R1.0514 AL-0.00 WI 45.0 MW  3.2 3
 SPEC ORTCHH Z T194716 K 0.000 GD  419 VS 5.20 DE 3.50 Q0750.0 QA 1.50 VS 3.50 3
 OLDACT:UP  16-06-14 00:49 OP:mh   STATUS:               ID:20160613193747     3
 OLDACT:REG 16-06-13 21:46 OP:dani STATUS:               ID:20160613193747     3
 ACTION:UPD 16-07-21 22:18 OP:rebc STATUS:               ID:20160613194541 L   I
 OLDACT:UP  16-06-14 00:51 OP:mh   STATUS:               ID:20160613193747     3
 OLDACT:UP  16-06-14 00:50 OP:mh   STATUS:               ID:20160613193747     3
 OLDACT:UP  16-06-14 00:50 OP:mh   STATUS:               ID:20160613193747     3
 OLDACT:UP  16-06-14 00:49 OP:mh   STATUS:               ID:20160613193747     3
 2016-06-13-1937-47M.COL___328                                                 6
 STAT SP IPHASW D HRMM SECON CODA AMPLIT PERI AZIMU VELO AIN AR TRES W  DIS CAZ7
 BAR2 EZ IP     C 1946  0.69                             171   -0.0210 22.2 191 
 BAR2 EZ ES       1946 15.52                             171   -0.0210 22.2 191 
 BAR2 EZ I        1946 17.03       242.8 0.05                          22.2 191 
 BRR  HZ EP       1946  2.63                             151    0.2710 71.9 299 
 BRR  HE ES       1946 19.24                             151    0.7610 71.9 299 
 BRR  HZ I        1946 23.77        57.3 0.14                          71.9 299 
 PAM  EZ EP       1946  3.49                             150    0.0510 78.2  39 
 PAM  EN ES       1946 20.40                             150   -0.0010 78.2  39 
 PAM  EZ I        1946 22.28        74.8 0.86                          78.2  39 
 RUS  HZ EP       1946  4.66                             143   -0.2210 99.4 176 
 RUS  HN ES       1946 22.85                             143   -0.1110 99.4 176 
 RUS  HZ I        1946 24.09        27.4 0.22                          99.4 176 
 PTB  HZ EP   1   1946  7.18                             131   -1.08 7  148 259 
 PTB  HN ES       1946 28.18                             131   -0.80 9  148 259 
 PTB  HZ I        1946 35.43        39.4 0.30                           148 259 
 TAM  HZ EP       1946  8.99                             129    0.05 9  155 105 
 TAM  HN ES       1946 30.40                             129    0.20 9  155 105 
 TAM  HZ I        1946 30.74        27.9 0.74                           155 105 
 OCA  HZ EP       1946  9.25                             128   -0.50 9  161 353 
 OCA  HN ES       1946 31.43                             128   -0.20 9  161 353 
 OCA  HZ I        1946 36.17        94.7 0.28                           161 353 
 SPBC HZ EP   1   1946  9.49                             128   -0.26 7  162 219 
 SPBC HN ES       1946 31.31                             128   -0.31 9  162 219 
 SPBC HZ I        1946 37.55        53.4 0.24                           162 219 
 ZAR  HZ EP       1946 14.49                             121    0.60 9  205 292 
 ZAR  HN ES       1946 38.81                             121   -0.19 9  205 292 
 ZAR  HZ I        1946 44.20        56.2 0.52                           205 292 
 NOR  HZ IP     C 1946 17.18                             117    0.09 8  234 235 
 NOR  HN ES       1946 44.69                             117    0.00 8  234 235 
 NOR  HZ I        1946 45.99        37.8 0.16                           234 235 
 CHI  HZ EP       1946 18.53                             116   -0.48 8  248 195 
 CHI  HE ES       1946 48.29                             116    0.19 8  248 195 
 CHI  HZ I        1946 55.14        17.9 0.48                           248 195 
 ROSC BZ EP       1946 20.15                             116    0.70 8  252 211 
 ROSC BN ES   4   1946 51.43                             116    2.53 0  252 211 
 ROSC BZ I        1946 58.09        29.1 0.50                           252 211 
 HEL  HZ EP       1946 22.29                             114    0.64 8  272 256 
 HEL  HE ES   1   1946 53.00                             114    0.18 6  272 256 
 URE  HZ EP   4   1946 22.19                             112   -0.41 0  284 292 
 URE  HN ES   4   1946 52.00                             112   -2.51 0  284 292 
 GUY2CHZ EP       1946 24.98                             111   -0.04 7  301 235 
 GUY2CHN ES       1946 58.67                             111   -0.14 7  301 235 
 GUY2CHZ I        1947  7.30        25.1 0.42                           301 235 
 VIL  SZ EP   1   1946 24.89                             111    0.12 5  302 192 
 VIL  SN ES   4   1946 58.14                             111   -0.22 0  302 192 
 CBOC HZ EP       1946 28.69                             109    0.30 7  333 252 
 CBOC HN ES       1947  5.21                             109    0.40 7  333 252 
 CBOC HZ I        1947 17.58         7.4 0.64                           333 252 
 ANIL HZ EP   4   1946 32.23                             108    1.00 0  357 225 
 ANIL HE ES   4   1947 12.45                             108    2.58 0  357 225 
 ANIL HZ I        1947 20.59        32.6 0.58                           357 225 
 PRA  HZ EP       1946 34.12                             106   -0.82 6  391 210 
 PRA  HN ES       1947 17.03                             106    0.56 6  391 210 
 PRA  HZ I        1947 23.32        27.0 0.26                           391 210 
 ORTC HZ EP       1946 35.08                             105   -0.27 6  395 216 
 ORTC HN ES       1947 17.71                             105    0.51 6  395 216 
 ORTC HZ I        1947 25.27        14.5 0.46                           395 216 
 SJC  HZ EP   4   1946 35.03                             105   -2.21 0  410 327 
 SJC  HN ES   4   1947 15.96                             105   -4.59 0  410 327 
                                                                                
