 2014  513 1047 39.5 L   6.793 -73.174145.7  RSN  4 0.3 1.4LRSN                1
 GAP=242        0.64       6.5     6.2 10.7  0.2368E+02 -0.1041E+02 -0.4585E+02E
 Epicentro: LOS SANTOS - SANTANDER                                             3
 ACTION:UPD 15-03-16 16:57 OP:nd   STATUS:               ID:20140513104739 L   I
 OLDACT:REG 14-05-13 21:10 OP:carl STATUS:               ID:20140513103809     3
 2014-05-13-1038-09M.COL___251                                                 6
 STAT SP IPHASW D HRMM SECON CODA AMPLIT PERI AZIMU VELO AIN AR TRES W  DIS CAZ7
 RUS  HN ES       1048 21.69                             144    0.0110  100 174 
 RUS  HZ I        1048 23.32         3.7 0.24            152            100 174 
 PTB  HZ EP       1048  6.37                             133    0.22 9  145 259 
 PTB  HN ES       1048 26.61                             133   -0.34 9  145 259 
 PTB  HZ I        1048 34.41         3.6 0.34            137            145 259 
 SPBC HN ES       1048 29.90                             129    0.13 9  161 218 
 ZAR  HZ EP       1048 11.32                             123   -0.33 9  201 293 
 ZAR  HN ES       1048 37.07                             123    0.33 9  201 293 
 ZAR  HZ I        1048 41.05         1.9 0.56            127            201 293 
                                                                                
