 2014  913 1931 48.7 L   6.740 -73.127146.6  RSN 10 0.5 1.9LRSN                1
 GAP=142        1.20       4.2     4.8  7.4 -0.3844E+01  0.1036E+02  0.3039E+00E
 Epicentro: LOS SANTOS - SANTANDER                                             3
 ACTION:UPD 14-10-03 23:04 OP:nd   STATUS:               ID:20140913193148 L   I
 OLDACT:REG 14-09-13 20:57 OP:spq  STATUS:               ID:20140913192817     3
 2014-09-13-1928-17M.COL___296                                                 6
 STAT SP IPHASW D HRMM SECON CODA AMPLIT PERI AZIMU VELO AIN AR TRES W  DIS CAZ7
 BAR2 SZ EP       1932  8.07                             173   -0.2910 17.5 200 
 BAR2 SZ ES   1   1932 24.16                             173    0.49 7 17.5 200 
 BAR2 SZ I        1932 24.72        28.0 0.24            173           17.5 200 
 BRR  HZ EP       1932 10.66                             151    0.3910 76.3 302 
 BRR  HE ES       1932 27.82                             151    0.7610 76.3 302 
 BRR  HZ I        1932 29.72        11.9 0.26            150           76.3 302 
 PAM  SZ EP       1932 11.79                             150    0.5110 81.4  35 
 PAM  SN ES       1932 28.45                             150   -0.4110 81.4  35 
 PAM  SZ I        1932 31.22        10.5 0.54            151           81.4  35 
 RUS  HZ EP       1932 12.76                             146    0.6610 93.9 177 
 RUS  HN ES       1932 29.80                             146   -0.5210 93.9 177 
 RUS  HZ I        1932 32.35         7.9 0.34            148           93.9 177 
 PTB  HZ EP       1932 14.82                             132   -1.03 9  149 261 
 PTB  HE ES       1932 36.53                             132   -0.47 9  149 261 
 PTB  HZ I        1932 37.32         8.3 0.14            132            149 261 
 SPBC HZ EP       1932 16.63                             130   -0.32 9  159 221 
 SPBC HN ES       1932 38.72                             130   -0.23 9  159 221 
 SPBC HZ I        1932 41.47         8.7 0.28            131            159 221 
 ZAR  HZ EP   1   1932 21.86                             122    0.17 6  209 294 
 ZAR  HE ES       1932 47.34                             122   -0.06 8  209 294 
 ZAR  HZ I        1932 53.32        11.5 0.38            122            209 294 
 NOR  HZ EP   1   1932 24.44                             119    0.15 6  233 236 
 NOR  HN ES       1932 52.33                             119    0.31 8  233 236 
 NOR  HZ I        1932 57.62         5.4 0.28            120            233 236 
 SML  HZ EP   1   1932 25.75                             117   -0.40 6  251 335 
 SML  HE ES   1   1932 54.76                             117   -0.57 6  251 335 
 SML  HZ I        1932 59.74         5.7 0.10            118            251 335 
 GUY2CHZ EP   1   1932 32.95                             113    0.80 5  299 236 
 GUY2CHN ES       1933  6.43                             113    0.42 7  299 236 
 GUY2CHZ I        1933 13.60         2.8 0.34                           299 236 
                                                                                
