 2013  413 1258 19.6 L   6.788 -73.183147.1  RSN  7 0.5 1.8LRSN                1
 GAP=176        1.24       5.6     9.3  7.4  0.1972E+02  0.1087E+02 -0.1875E+01E
 Epicentro: LOS SANTOS - SANTANDER                                             3
 ACTION:UPD 13-05-22 14:38 OP:EP   STATUS:               ID:20130413125819 L   I
 2013-04-13-1255-50M.COL___215                                                 6
 STAT SP IPHASW D HRMM SECON CODA AMPLIT PERI AZIMU VELO AIN AR TRES W  DIS CAZ7
 BAR2 SZ EP       1258 39.37                             171    0.0510 21.6 180 
 BAR2 SZ ES       1258 54.06                             171   -0.6710 21.6 180 
 BAR2 SZ I        1258 55.27        21.6 0.36            159           21.6 180 
 GIR2 SZ EP       1258 39.37                             167   -0.0510 32.2 358 
 GIR2 SZ ES       1258 55.17                             167    0.2610 32.2 358 
 GIR2 SZ I        1258 56.01        11.7 0.12            172           32.2 358 
 BRR  HZ EP       1258 41.16                             153    0.4610 68.3 301 
 BRR  HN ES       1258 58.11                             153    0.9310 68.3 301 
 BRR  HZ I        1259  1.43        14.3 0.12            147           68.3 301 
 RUS  HZ EP       1258 43.66                             144    0.2810 99.6 174 
 RUS  HN ES       1259  1.48                             144   -0.4710 99.6 174 
 RUS  HZ I        1259  3.44         9.9 0.35            132           99.6 174 
 PTB  HZ EP       1258 46.13                             133   -0.12 9  143 259 
 PTB  HN ES   1   1259  6.67                             133   -0.40 7  143 259 
 PTB  HZ I        1259  9.58         7.1 0.16            123            143 259 
 SML  HZ EP       1258 56.40                             118    0.19 8  243 336 
 SML  HN ES       1259 23.73                             118   -1.07 8  243 336 
 CHI  HZ EP   1   1258 57.28                             118    0.20 6  246 194 
 CHI  HZ I        1259 31.64         1.8 0.24            109            246 194 
                                                                                
