 2016 1213 1254 56.8 L   6.750 -73.137149.4  RSN  4 0.1 1.5LRSN                1
 GAP=234        0.35       4.4     7.1  3.1  0.2570E+02 -0.2720E+01 -0.1572E+01E
 Epicentro: LOS SANTOS - SANTANDER                                             3
 ACTION:UPD 17-01-11 20:14 OP:rebc STATUS:               ID:20161213125456 L   I
 OLDACT:UP  16-12-13 23:08 OP:ar   STATUS:               ID:20161213124746     3
 OLDACT:REG 16-12-13 22:07 OP:ar   STATUS:               ID:20161213124746     3
 2016-12-13-1248-00M.COL___354                                                 6
 STAT SP IPHASW D HRMM SECON CODA AMPLIT PERI AZIMU VELO AIN AR TRES W  DIS CAZ7
 BAR2 HZ EP       1255 16.75                             173   -0.0510 18.1 196 
 BAR2 HZ ES       1255 32.47                             173    0.0910 18.1 196 
 BAR2 HZ I        1255 33.31         7.0 0.20            170           18.1 196 
 BRR  HZ EP       1255 18.48                             152   -0.0910 74.8 302 
 BRR  HN ES       1255 35.54                             152    0.0110 74.8 302 
 BRR  HZ I        1255 38.12        11.6 0.38            150           74.8 302 
 RUS  HZ EP       1255 20.67                             146    0.1310 95.0 176 
 RUS  HN ES       1255 38.93                             146   -0.1110 95.0 176 
 RUS  HZ I        1255 39.80         3.1 0.24            147           95.0 176 
 PTB  HZ EP   2   1255 24.20                             133    0.11 5  148 261 
                                                                                
