 2011 1113 1329 46.5 L   6.752 -73.133138.3  RSN  5 0.3 1.7LRSN                1
 GAP=140        0.72       4.2     5.1  6.7  0.6173E+01  0.1717E+01 -0.2417E+01E
 Epicentro: LOS SANTOS - SANTANDER                                             3
 ACTION:UP  12-07-13 16:26 OP:ep   STATUS:               ID:20111113132946 L   I
 OLDACT:UPD 12-07-13 16:10 OP:ep   STATUS:               ID:20111113132946 L   3
 2011-11-13-1328-52S.COL___179                                                 6
 STAT SP IPHASW D HRMM SECON CODA AMPLIT PERI AZIMU VELO AIN AR TRES W  DIS CAZ7
 BAR2 SZ EP   1   1330  5.31                             172    0.17 7 18.5 197 
 BAR2 SZ I        1330  5.64        15.2 0.12                          18.5 197 
 BAR2 SZ ES       1330 19.34                             172   -0.3410 18.5 197 
 BRR  HZ EP   1   1330  7.11                             150    0.03 7 75.1 302 
 BRR  HZ I        1330  7.68        15.0 0.10                          75.1 302 
 BRR  HE ES       1330 23.64                             150    0.5010 75.1 302 
 PAM  SZ EP   1   1330  8.11                             148   -0.03 7 80.7  36 
 PAM  SZ I        1330  8.49         7.6 0.18                          80.7  36 
 PAM  SN ES   1   1330 24.84                             148   -0.18 7 80.7  36 
 RUS  HZ EP   1   1330  9.33                             144    0.20 7 95.2 177 
 RUS  HN ES       1330 26.79                             144    0.0110 95.2 177 
 RUS  HZ I        1330 29.03         4.1 0.27                          95.2 177 
 ZAR  HN ES   1   1330 43.35                             120   -0.68 6  207 293 
 ZAR  HZ I        1330 49.74         6.8 0.24                           207 293 
                                                                                
