 2013  113 1254 27.2 L   6.814 -73.149139.3  RSN 11 0.5 3.1LRSN                1
 GAP= 70        1.16       3.6     3.5  6.9  0.3140E+00  0.3702E+01 -0.2384E+01E
 Epicentro: LOS SANTOS - SANTANDER                                             3
 ACTION:UPD 13-02-15 09:14 OP:ep   STATUS:               ID:20130113125426 L   I
 2013-01-13-1248-36M.COL___171                                                 6
 STAT SP IPHASW D HRMM SECON CODA AMPLIT PERI AZIMU VELO AIN AR TRES W  DIS CAZ7
 BAR2 SZ IP       1254 46.45                             169    0.3310 24.8 188 
 BAR2 SZ ES       1255  0.93                             169    0.0810 24.8 188 
 BAR2 SZ I        1255  2.02       327.9 0.34            165           24.8 188 
 BRR  HZ IP     C 1254 48.32                             152    0.7010 70.1 298 
 BRR  HZ I        1254 48.63       200.6 0.26            148           70.1 298 
 BRR  HN ES   4   1255  5.11                             152    1.58 0 70.1 298 
 RUS  HZ EP       1254 50.63                             142    0.1610  102 176 
 RUS  HN ES       1255  8.27                             142   -0.3310  102 176 
 PTB  HZ EP       1254 52.93                             130   -0.74 9  148 258 
 PTB  HE ES       1255 14.30                             130    0.01 9  148 258 
 PTB  HN I        1255 19.39       173.2 0.38            127            148 258 
 TAM  HZ EP       1254 54.74                             129    0.26 9  156 105 
 TAM  HN ES       1255 15.72                             129   -0.02 9  156 105 
 OCA  HZ EP       1254 54.90                             128    0.00 9  159 353 
 OCA  HN ES       1255 15.74                             128   -0.73 9  159 353 
 OCA  HE ES       1255 16.76                             129            159 353 
 ZAR  HZ EP       1254 59.58                             121    0.42 9  203 292 
 ZAR  HN ES       1255 24.88                             121    0.81 9  203 292 
 ZAR  HE I        1255 31.50       265.5 0.54            119            203 292 
 CHI  HZ EP       1255  4.80                             116    0.07 8  250 195 
 CHI  HE ES       1255 33.93                             116   -0.06 8  250 195 
 CHI  HN I        1255 39.76        37.3 0.50            114            250 195 
 HEL  HZ EP       1255  7.43                             113    0.31 8  272 255 
 HEL  HN ES       1255 37.03                             113   -1.21 8  272 255 
 HEL  HE I        1255 45.51        43.7 0.32            112            272 255 
 ANIL HN ES       1255 55.63                             107    0.01 6  358 224 
 ANIL HE I        1256  7.12        43.9 0.42            106            358 224 
 SDV  BZ EP       1255 16.26                             107   -0.69 6  360  50 
 SJC  HN EP   4   1255 20.75                             105   -1.66 0  408 327 
                                                                                
