 2016  913 1526 18.2 L   6.803 -73.164139.7  RSN  4 0.2 1.4LRSN                1
 GAP=134        0.48       2.5     3.0  4.4  0.5298E+00  0.4122E+01 -0.1058E+01E
 Epicentro: LOS SANTOS - SANTANDER                                             3
 ACTION:UPD 17-08-17 21:09 OP:lp   STATUS:               ID:20160913152618 L   I
 OLDACT:DUP 16-09-13 23:12 OP:dnl  STATUS:               ID:20160913151742d    3
 2016-09-13-1518-00M.COL___318                                                 6
 STAT SP IPHASW D HRMM SECON CODA AMPLIT PERI AZIMU VELO AIN AR TRES W  DIS CAZ7
 BAR2 EZ EP       1526 36.92                             170   -0.1610 23.4 185 
 BAR2 EZ ES       1526 51.85                             170    0.0310 23.4 185 
 BAR2 EZ I        1526 53.33         7.9 0.38            171           23.4 185 
 PAM  EZ EP       1526 39.82                             149    0.0010 78.4  41 
 PAM  EN ES       1526 56.72                             149    0.0310 78.4  41 
 PAM  EZ I        1526 58.78         6.5 0.46            151           78.4  41 
 RUS  HZ EP       1526 41.29                             142   -0.0910  101 175 
 RUS  HE ES       1526 59.57                             142    0.1010  101 175 
 RUS  HZ I        1527  1.48         1.2 0.20            144            101 175 
 ZAR  HZ EP   2   1526 50.93                             121    0.90 4  202 292 
 ZAR  HE ES       1527 14.77                             121   -0.09 9  202 292 
 ZAR  HZ I        1527 16.61         3.7 0.50            123            202 292 
                                                                                
