 2017  513 1247 54.2 L   6.764 -73.133145.7  RSN  7 0.4 1.9LRSN                1
 GAP=140        0.98       4.0     4.2  7.1 -0.2556E+01  0.7782E+01  0.1412E+01E
 Epicentro: LOS SANTOS - SANTANDER                                             3
 ACTION:UPD 17-06-16 13:35 OP:jn   STATUS:               ID:20170513124754 L   I
 OLDACT:REG 17-05-13 19:12 OP:lv   STATUS:               ID:20170513123746     3
 2017-05-13-1238-00M.COL___330                                                 6
 STAT SP IPHASW D HRMM SECON CODA AMPLIT PERI AZIMU VELO AIN AR TRES W  DIS CAZ7
 BRR  HZ EP       1248 15.64                             151    0.0910 74.4 301 
 BRR  HN ES       1248 32.59                             151    0.4110 74.4 301 
 BRR  HZ I        1248 37.34                             150           74.4 301 
 PAM  EZ EP       1248 16.75                             150    0.1910 79.6  37 
 PAM  EN ES       1248 33.52                             150   -0.4710 79.6  37 
 PAM  EZ I        1248 34.68        17.6 0.21            153           79.6  37 
 RUS  HZ EP       1248 17.76                             145    0.0910 96.5 177 
 RUS  HN ES       1248 36.01                             145    0.0410 96.5 177 
 RUS  HZ I        1248 37.06         6.4 0.07            148           96.5 177 
 PTB  HZ EP       1248 20.60                             132   -0.65 9  148 260 
 PTB  HN ES       1248 42.08                             132   -0.24 9  148 260 
 PTB  HZ I        1248 43.84        11.8 0.32            133            148 260 
 SPBC HN ES       1248 45.04                             129    0.47 9  161 220 
 SPBC HZ I        1248 48.09        22.5 0.14            131            161 220 
 ZAR  HZ EP       1248 27.03                             122    0.07 8  207 293 
 ZAR  HN ES       1248 52.75                             122    0.26 8  207 293 
 ZAR  HZ I        1248 58.56        10.8 0.29            123            207 293 
 NOR  HZ EP       1248 30.32                             119    0.49 8  234 235 
 NOR  HN ES       1248 56.77                             119   -0.83 8  234 235 
 NOR  HZ I        1248 59.76         4.3 0.15            121            234 235 
                                                                                
