 2017  613 1043 13.2 L   5.912 -73.696123.0  RSN  6 0.4 1.5LRSN                1
 GAP=236        0.93       4.1     6.5  7.6 -0.5987E+01 -0.9437E+01 -0.5393E+01E
 Epicentro: PUENTE NACIONAL - SANTANDER                                        3
 ACTION:UPD 17-09-14 16:51 OP:jn   STATUS:               ID:20170613104313 L   I
 OLDACT:DUP 17-06-13 22:10 OP:ar   STATUS:               ID:20170613103735d    3
 2017-06-13-1038-00M.COL___356                                                 6
 STAT SP IPHASW D HRMM SECON CODA AMPLIT PERI AZIMU VELO AIN AR TRES W  DIS CAZ7
 SPBC HZ EP       1043 30.22                             156   -0.6210 50.6 235 
 SPBC HE ES       1043 44.80                             156    0.1610 50.6 235 
 PTB  HZ EP       1043 34.79                             136    0.0010  109 310 
 PTB  HE ES       1043 51.74                             136    0.0810  109 310 
 PTB  HZ I        1043 53.64         3.3 0.36            132            109 310 
 BRR  HZ EP       1043 37.69                             130    0.8510  132 359 
 BRR  HE ES       1043 55.01                             130   -0.3110  132 359 
 NOR  HZ EP       1043 37.08                             129   -0.15 9  135 254 
 NOR  HE ES       1043 56.30                             129    0.29 9  135 254 
 NOR  HZ I        1044  0.05         5.2 0.22            126            135 254 
 ZAR  HZ EP       1043 45.56                             115   -0.07 8  217 324 
 ZAR  HE ES       1044 10.70                             115   -0.26 8  217 324 
 ZAR  HZ I        1044 17.27         3.8 0.30            114            217 324 
 URE  HZ EP   9   1043 51.53                             108   -2.10 0  287 315 
 URE  HE ES       1044 23.06                                   -0.04 7  287 315 
 URE  HZ I        1044 24.99         2.1 0.20            107            287 315 
                                                                                
