 2013  213 1623 55.6 L   6.813 -73.128145.1  RSN 17 0.5 3.0LRSN 3.3WRSN        1
 SPEC AVERAGE  MO 14.0 ST 15.1 OM  2.7 f0 4.38 R0.3901 AL 3.16 WI 39.6 MW  3.3 3
 SPEC SD       MO  0.3 ST 13.2 OM  0.6 f0 1.36 R0.1889 AL      WI      MW  0.2 3
 GAP= 72        0.96       2.9     3.3  5.5 -0.5800E+00  0.6891E+00 -0.1124E+01E
 Epicentro: LOS SANTOS - SANTANDER                                             3
 SPEC PTB HH N MO 13.8 ST 13.6 OM  2.1 f0 5.32 R0.2763 AL 3.12 WI 31.5 MW  3.2 3
 SPEC PTB HH N T162441 K 0.000 GD  208 VS 4.20 DE 3.20 Q0300.0 QA 0.60 VS 4.20 3
 SPEC RUS HH N MO 13.5 ST  7.2 OM  1.9 f0 5.30 R0.2774 AL 3.52 WI 19.8 MW  3.0 3
 SPEC RUS HH N T162437 K 0.000 GD  177 VS 4.20 DE 3.20 Q0300.0 QA 0.60 VS 4.20 3
 SPEC HEL HH N MO 13.7 ST  4.3 OM  1.8 f0 3.99 R0.3684 AL 3.28 WI 33.2 MW  3.1 3
 SPEC HEL HH N T1625 5 K 0.000 GD  310 VS 4.20 DE 3.20 Q0300.0 QA 0.60 VS 4.20 3
 SPEC NOR HH N MO 14.3 ST 43.5 OM  2.5 f0 5.24 R0.2805 AL 4.05 WI 42.7 MW  3.5 3
 SPEC NOR HH N T162457 K 0.000 GD  277 VS 4.20 DE 3.20 Q0300.0 QA 0.60 VS 4.20 3
 SPEC OCA HH N MO 14.2 ST 16.7 OM  2.5 f0 4.15 R0.3542 AL 2.40 WI 32.2 MW  3.4 3
 SPEC OCA HH N T162442 K 0.000 GD  215 VS 4.20 DE 3.20 Q0300.0 QA 0.60 VS 4.20 3
 SPEC ANILHH N MO 14.3 ST  8.0 OM  2.3 f0 3.11 R0.4727 AL 2.19 WI 38.1 MW  3.5 3
 SPEC ANILHH N T162522 K 0.000 GD  388 VS 4.20 DE 3.20 Q0300.0 QA 0.60 VS 4.20 3
 SPEC COD HH N MO 13.9 ST0.523 OM  1.9 f0 1.72 R0.8547 AL 1.45 WI 49.1 MW  3.2 3
 SPEC COD HH N T162519 K 0.000 GD  376 VS 4.20 DE 3.20 Q0300.0 QA 0.60 VS 4.20 3
 SPEC BRR HH N MO 13.9 ST 26.6 OM  2.3 f0 6.21 R0.2367 AL 5.29 WI 70.3 MW  3.2 3
 SPEC BRR HH N T162432 K 0.000 GD  162 VS 4.20 DE 3.20 Q0300.0 QA 0.60 VS 4.20 3
 ACTION:UPD 13-03-12 09:32 OP:ep   STATUS:               ID:20130213162355 L   I
 2013-02-13-1620-00M.COL___241                                                 6
 STAT SP IPHASW D HRMM SECON CODA AMPLIT PERI AZIMU VELO AIN AR TRES W  DIS CAZ7
 BAR2 SZ EP       1624 15.25                             170    0.0510 25.1 194 
 BAR2 SZ ES   1   1624 30.64                             170    0.16 7 25.1 194 
 BAR2 SZ I        1624 32.95       162.6 0.42            165           25.1 194 
 BRR  HZ IP     C 1624 17.14                             152    0.3910 72.2 297 
 BRR  HN ES   1   1624 33.82                             152    0.58 7 72.2 297 
 BRR  HN I        1624 34.79       188.7 0.30            145           72.2 297 
 RUS  HZ EP       1624 19.12                             143   -0.2710  102 177 
 RUS  HN ES       1624 37.75                             143   -0.1910  102 177 
 RUS  HN I        1624 39.38       164.9 0.42            138            102 177 
 PTB  HZ EP   1   1624 21.86                             131   -0.86 7  150 258 
 PTB  HN ES       1624 42.91                             131   -0.96 9  150 258 
 PTB  HN I        1624 48.65       145.9 0.38            124            150 258 
 TAM  HZ EP       1624 23.39                             131    0.29 9  154 106 
 TAM  HN ES   2   1624 45.03                             131    0.49 5  154 106 
 TAM  HN I        1624 45.72       111.3 0.46            127            154 106 
 OCA  HZ EP   1   1624 24.69                             130    0.92 7  159 352 
 OCA  HN ES       1624 45.45                             130   -0.28 9  159 352 
 OCA  HN I        1624 48.58       297.5 0.32            125            159 352 
 ZAR  HZ EP   1   1624 28.61                             122    0.46 6  205 292 
 ZAR  HN ES   1   1624 53.74                             122    0.22 6  205 292 
 ZAR  HN I        1624 59.42        86.7 0.44            116            205 292 
 CTAB SZ EP   1   1624 32.62                             119    1.07 6  232 211 
 NOR  HZ EP   1   1624 31.07                             118   -0.49 6  237 234 
 NOR  HN ES   1   1624 59.48                             118   -0.12 6  237 234 
 NOR  HN I        1625  5.19       133.5 0.18            112            237 234 
 SML  HZ EP   1   1624 31.81                             117   -0.34 6  243 335 
 SML  HN ES   2   1625  0.92                             117    0.26 4  243 335 
 SML  HN I        1625  4.50       158.5 0.28            112            243 335 
 CHI  HZ EP   1   1624 33.29                             117   -0.18 6  250 196 
 CHI  HN ES   1   1625  2.59                             117   -0.42 6  250 196 
 CHI  HN I        1625  5.01        46.2 0.30            112            250 196 
 HEL  HZ EP   1   1624 36.53                             114    0.50 6  274 256 
 HEL  HN ES       1625  8.01                             114    0.44 8  274 256 
 HEL  HN I        1625 14.57        25.9 0.44            109            274 256 
 RREF HZ EP   1   1624 42.28                             110    0.29 5  324 229 
 RREF HZ I        1625 26.06        26.5 0.26            106            324 229 
 DBB  SZ EP   1   1624 43.03                             109   -0.24 5  341 274 
 COD  HZ EP   1   1624 43.26                             109   -0.56 5  347 354 
 COD  HN ES   1   1625 21.44                             109    0.01 5  347 354 
 COD  HZ I        1625 29.68         9.7 0.52            105            347 354 
 SDV  BZ EP       1624 44.50                             108   -0.85 6  358  50 
 ANIL HZ EP   1   1624 46.24                             108    0.58 5  360 225 
 ANIL HN ES   1   1625 24.98                             108    0.28 5  360 225 
 ANIL HZ I        1625 29.07        18.5 0.30            104            360 225 
                                                                                
