 2015  213 1029 33.9 L   6.790 -73.162150.6  RSN  6 0.5 1.6LRSN                1
 GAP=199        1.27       5.2     8.1  8.6  0.8354E+01  0.3312E+01 -0.9594E+01E
 Epicentro: LOS SANTOS - SANTANDER                                             3
 ACTION:UPD 15-04-30 21:25 OP:nd   STATUS:               ID:20150213102933 L   I
 OLDACT:REG 15-02-13 20:39 OP:stll STATUS:               ID:20150213102744     3
 2015-02-13-1027-44M.COL___299                                                 6
 STAT SP IPHASW D HRMM SECON CODA AMPLIT PERI AZIMU VELO AIN AR TRES W  DIS CAZ7
 BAR2 EZ EP       1029 54.18                             171    0.0810 22.0 186 
 BAR2 EZ ES       1030  9.53                             171   -0.3110 22.0 186 
 BAR2 EZ I        1030 10.86        10.5 0.14            170           22.0 186 
 BRR  HZ EP       1029 56.21                             154    0.6910 70.1 300 
 BRR  HN ES       1030 13.19                             154    0.8110 70.1 300 
 RUS  HZ EP       1029 58.01                             145   -0.0610 99.6 175 
 RUS  HN ES       1030 16.62                             145   -0.3010 99.6 175 
 RUS  HZ I        1030 17.96         3.3 0.24            146           99.6 175 
 PTB  HZ EP       1030  0.92                             133   -0.17 9  146 259 
 PTB  HN ES       1030 22.22                             133   -0.08 9  146 259 
 PTB  HZ I        1030 29.33         4.0 0.44            132            146 259 
 SPBC HZ EP       1030  3.10                             130    0.51 9  161 219 
 SPBC HZ I        1030  3.44         6.6 0.20            130            161 219 
 SPBC HN ES       1030 24.46                             130   -0.51 9  161 219 
 SML  HZ EP       1030 10.95                             118    0.11 8  244 336 
 SML  HN ES       1030 38.44                             118   -1.20 8  244 336 
 SML  HZ I        1030 43.56         3.2 0.26            119            244 336 
                                                                                
