 2012 1113 1555 40.7 L   6.803 -73.143148.2  RSN  5 0.4 1.7LRSN                1
 GAP=187        1.10       8.4     8.0  9.1  0.2735E+02  0.2060E+02  0.2898E+02E
 Epicentro: LOS SANTOS - SANTANDER                                             3
 ACTION:UPD 12-12-05 15:33 OP:}ep  STATUS:               ID:20121113155540 L   I
 2012-11-13-1550-00M.COL___230                                                 6
 STAT SP IPHASW D HRMM SECON CODA AMPLIT PERI AZIMU VELO AIN AR TRES W  DIS CAZ7
 BAR2 SZ EP       1556  0.91                             171    0.2910 23.7 191 
 BAR2 SZ ES       1556 16.01                             171   -0.1610 23.7 191 
 BAR2 SZ I        1556 17.08        11.5 0.20                          23.7 191 
 GIR2 SZ ES       1556 15.60                             168   -0.6110 31.0 350 
 BRR  HN ES       1556 19.63                             153    0.8110 71.3 298 
 RUS  HZ EP       1556  4.87                             144    0.1710  101 176 
 RUS  HN ES       1556 23.51                             144    0.0810  101 176 
 RUS  HN I        1556 24.34         6.3 0.20                           101 176 
 PTB  HZ EP       1556  7.44                             132   -0.45 9  148 259 
 PTB  HN ES       1556 28.89                             132   -0.21 9  148 259 
 PTB  HN I        1556 34.09         8.4 0.28                           148 259 
                                                                                
