 2014 1013 1115 23.9 L   6.746 -73.136148.5  RSN  7 0.5 1.5LRSN                1
 GAP=140        1.04       5.8     5.2  8.6 -0.2034E+01  0.9522E+01 -0.6455E+01E
 Epicentro: LOS SANTOS - SANTANDER                                             3
 ACTION:UPD 14-11-29 23:49 OP:nd   STATUS:               ID:20141013111523 L   I
 OLDACT:REG 14-10-13 20:46 OP:fm   STATUS:               ID:20141013110743     3
 2014-10-13-1107-43M.COL___287                                                 6
 STAT SP IPHASW D HRMM SECON CODA AMPLIT PERI AZIMU VELO AIN AR TRES W  DIS CAZ7
 BAR2 SZ EP   1   1115 43.74                             173   -0.01 7 17.8 197 
 BAR2 SZ ES   1   1115 59.59                             173    0.35 7 17.8 197 
 BAR2 SZ I        1116  2.09         8.4 0.26            173           17.8 197 
 BRR  HZ EP   1   1115 45.89                             152    0.34 7 75.1 302 
 BRR  HN ES       1116  2.67                             152    0.2210 75.1 302 
 BRR  HZ I        1116  4.56         6.5 0.14            153           75.1 302 
 PAM  SZ EP       1115 47.10                             150    0.4610 81.4  36 
 PAM  SN ES   1   1116  4.06                             150   -0.32 7 81.4  36 
 PAM  SZ I        1116  6.23         5.6 0.56            152           81.4  36 
 RUS  HN ES   1   1116  5.65                             146   -0.25 7 94.6 176 
 RUS  HZ I        1116  8.29         2.5 0.34            149           94.6 176 
 PTB  HZ EP       1115 50.96                             133   -0.12 9  148 261 
 PTB  HN ES       1116 11.69                             133   -0.59 9  148 261 
 PTB  HZ I        1116 14.10         3.0 0.14            135            148 261 
 OCA  HE ES   1   1116 14.71                             129   -0.96 7  166 353 
 OCA  HZ I        1116 17.47         6.1 0.26            131            166 353 
 ZAR  HZ EP   1   1115 56.27                             122   -0.58 6  207 294 
 ZAR  HN ES       1116 23.31                             122    0.76 8  207 294 
 ZAR  HZ I        1116 26.71         2.4 0.10            125            207 294 
                                                                                
