 2013  613 1110 37.0 L   6.757 -73.175152.6  RSN  9 0.4 2.2LRSN                1
 GAP=180        0.66       3.1     4.5  6.0  0.4905E+01  0.1239E+01 -0.3443E+01E
 Epicentro: VILLANUEVA - SANTANDER                                             3
 ACTION:UPD 14-01-08 09:54 OP:ep   STATUS:               ID:20130613111037 L   I
 OLDACT:UP  13-06-13 16:25 OP:mh   STATUS:               ID:20130613110959     3
 OLDACT:REG 13-06-13 14:05 OP:mh   STATUS:               ID:20130613110959     3
 2013-06-13-1109-59M.COL___261                                                 6
 STAT SP IPHASW D HRMM SECON CODA AMPLIT PERI AZIMU VELO AIN AR TRES W  DIS CAZ7
 BAR2 SZ EP   1   1110 57.24                             173   -0.11 7 18.3 183 
 BAR2 SZ I        1111 15.47         8.2 0.38            169           18.3 183 
 BRR  HZ EP   1   1110 59.02                             154    0.16 7 70.9 303 
 BRR  HN ES       1111 16.34                             154    0.4210 70.9 303 
 BRR  HN I        1111 17.31        29.8 0.18            152           70.9 303 
 RUS  HZ EP   1   1111  1.47                             147    0.36 7 96.2 174 
 RUS  HN ES       1111 19.61                             147   -0.3210 96.2 174 
 RUS  HN I        1111 20.11         8.7 0.32            139           96.2 174 
 PTB  HZ EP   1   1111  3.87                             135   -0.30 7  144 260 
 PTB  HZ E        1111  3.87                                            144 260 
 PTB  HN ES   1   1111 25.28                             135   -0.09 7  144 260 
 PTB  HN I        1111 30.56        17.2 0.38            129            144 260 
 OCA  HN ES   1   1111 29.40                             131    0.35 7  165 354 
 OCA  HN I        1111 31.35        44.7 0.38            126            165 354 
 ZAR  HZ EP   1   1111  9.93                             124    0.15 6  203 294 
 ZAR  HN ES       1111 35.25                             124   -0.10 9  203 294 
 ZAR  HN I        1111 37.05        20.3 0.14            119            203 294 
 NOR  HN ES   3   1111 40.18                             121   -0.13 2  229 235 
 NOR  HN I        1111 49.11        10.9 0.16            115            229 235 
 SML  HZ EP   1   1111 14.03                             119   -0.30 6  247 336 
 SML  HN ES   1   1111 42.71                             119   -0.74 6  247 336 
 SML  HN I        1111 50.85        27.3 0.30            114            247 336 
 PRA  HZ EP   4   1111 31.66                             108    1.57 0  386 209 
 PRA  HN ES   2   1112 12.39                             108    0.88 3  386 209 
 PRA  HZ I        1112 18.73         2.6 0.36            104            386 209 
                                                                                
