 2010  113 1108 15.3 L   6.799 -73.076151.2  RSN 14 0.5 4.0LRSN                1
 GAP=131        0.90       4.5     6.9  7.0 -0.1531E+02  0.1075E+02  0.1043E+01E
 Epicentro: LOS SANTOS - SANTANDER                                             3
 ACTION:UP  10-08-24 09:43 OP:vdl  STATUS:               ID:20100113110815 L   I
 2010-01-13-1105-45S.COL___094                                                 6
 STAT SP IPHASW D HRMM SECON CODA AMPLIT PERI AZIMU VELO SNR AR TRES W  DIS CAZ7
 BAR2 SZ IP       11 8 35.79                             170     0.110   26 207 
 BAR2 SZ ES   2   11 8 51.29                             170    -0.2 5   26 207 
 GIR2 SZ IP       11 8 35.85                             167     0.210   34 337 
 GIR2 SZ ES   2   11 8 50.99                             167    -0.6 5   34 337 
 RUS  BZ IP       11 8 39.71                             145     0.110  100 180 
 RUS  BE ES   2   11 8 58.29                             145    -0.2 5  100 180 
 RUS  BZ I        11 8 59.36       963.4 0.44                           100 180 
 OCA  SZ IP       11 8 44.12                             131     0.0 9  161 350 
 OCA  SZ ES   2   11 9  7.27                             131     0.6 5  161 350 
 CHI  HZ IP       11 8 53.39                             118    -0.1 8  251 197 
 CHI  HE ES   2   11 9 22.27                             118    -1.1 4  251 197 
 CHI  HZ I        11 9 32.72       444.5 0.73                           251 197 
 ROSC BZ IP       11 8 55.28                             117     1.1 8  257 213 
 ROSC BN ES   2   11 9 24.50                             117     0.0 4  257 213 
 ROSC BZ I        11 9 34.00       745.6 0.42                           257 213 
 HEL  HZ EP   1   11 8 55.52                             115    -1.1 6  280 256 
 HEL  HZ I        11 9 34.43       453.3 0.12                           280 256 
 GUY  HZ EP   1   11 9  0.01                             113     0.1 5  308 236 
 GUY  HE ES   2   11 9 35.55                             113     0.9 4  308 236 
 RREF BZ EP   1   11 9  1.90                             111    -0.5 5  328 230 
 RREF BN ES   2   11 9 38.90                             111    -0.1 3  328 230 
 RREF BZ I        11 9 45.40       532.4 0.40                           328 230 
 DBB  SZ EP   1   11 9  3.41                             110    -0.5 5  347 274 
 TOL  SZ EP   1   11 9  3.94                             110    -0.5 5  349 226 
 TOL  SZ ES   2   11 9 43.52                             110     0.8 3  349 226 
 SDV  BZ IP       11 9  5.01                             109     0.1 6  355  49 
 SDV  BE ES   2   11 9 42.54                             109    -1.0 3  355  49 
 ANIL BZ EP   1   11 9  5.87                             109    -0.1 5  363 225 
 PRA  HZ EP   1   11 9  8.62                             107    -0.8 4  396 211 
 PRA  HN ES   2   11 9 51.51                             107    -0.2 3  396 211 
 PRA  HZ I        11 9 57.60       598.7 0.63                           396 211 
                                                                                
