 2011 1013 1430 45.0 L   6.397 -73.588 99.5  RSN  7 0.4 1.6LRSN                1
 GAP=102        0.70       3.3     3.1  7.1 -0.1360E+01  0.1072E+02  0.1416E+01E
 Epicentro: SANTA HELENA DEL OPON - SANTANDER                                  3
 ACTION:UPD 12-07-13 16:03 OP:ep   STATUS:               ID:20111013143045 L   I
 2011-10-13-1420-00M.COL___171                                                 6
 STAT SP IPHASW D HRMM SECON CODA AMPLIT PERI AZIMU VELO AIN AR TRES W  DIS CAZ7
 BAR2 SZ ES   1   1431 11.65                             152   -0.57 7 49.8  64 
 BAR2 SZ I        1431 16.15        33.0 0.26                          49.8  64 
 RUS  HZ EP       1431  2.93                             139    0.2210 79.0 135 
 RUS  HZ I        1431  3.15         4.8 0.27                          79.0 135 
 RUS  HN ES   1   1431 16.54                             139    0.03 7 79.0 135 
 BRR  HZ EP   1   1431  1.72                             138   -0.36 7 79.7 350 
 BRR  HN ES   1   1431 15.58                             138    0.19 7 79.7 350 
 BRR  HZ I        1431 27.95        17.5 0.40                          79.7 350 
 PAM  SZ EP   1   1431  8.72                             121   -0.09 7  143  43 
 PAM  SE ES   1   1431 27.97                             121    0.60 7  143  43 
 NOR  SZ EP   1   1431 10.51                             116   -0.56 7  169 237 
 NOR  SN ES   1   1431 31.63                             116    0.25 7  169 237 
 ZAR  HZ EP   2   1431 12.64                             114   -0.18 4  185 311 
 ZAR  HE ES   2   1431 34.22                             114   -0.28 4  185 311 
 ZAR  HZ I        1431 38.57         3.3 0.26                           185 311 
 HEL  HZ EP   1   1431 16.63                             111   -0.14 6  216 264 
 HEL  HN ES   1   1431 42.09                             111    0.56 6  216 264 
 HEL  HZ I        1431 43.78         4.6 0.31                           216 264 
                                                                                
