 2010  313 1958  3.4 L   6.065 -73.701108.0  RSN 10 0.4 2.1LRSN                1
 GAP= 76        0.83       3.1     4.9  9.2 -0.4242E+01  0.2712E+02  0.1720E+01E
 Epicentro: BOLIVAR - SANTANDER                                                3
 ACTION:UP  10-08-24 09:53 OP:vdl  STATUS:               ID:20100313195802 L   I
 2010-03-13-1956-09S.COL___095                                                 6
 STAT SP IPHASW D HRMM SECON CODA AMPLIT PERI AZIMU VELO SNR AR TRES W  DIS CAZ7
 RUS  HZ EP       1958 21.20                             145    -0.110   71 106 
 RUS  HN ES   1   1958 35.21                             145    -0.1 7   71 106 
 RUS  HZ I        1958 37.00        16.7 0.60                            71 106 
 BAR2 SZ EP       1958 22.01                             140     0.210   82  44 
 BAR2 SZ ES   1   1958 36.50                             140     0.4 7   82  44 
 BRR  HZ IP       1958 24.18                             129    -0.210  115 359 
 BRR  HZ I        1958 24.55        26.6 0.22                           115 359 
 BRR  HN ES   1   1958 40.57                             129    -0.1 7  115 359 
 CHI  HZ EP   1   1958 28.66                             120    -0.6 7  159 181 
 CHI  HN ES   1   1958 49.32                             120    -0.1 7  159 181 
 CHI  HZ I        1958 51.48        11.2 0.35                           159 181 
 HEL  HN ES   2   1958 57.01                             113    -0.9 4  203 274 
 HEL  HZ I        1959  1.32         9.6 0.29                           203 274 
 RREF BZ EP   1   1958 36.71                             111     0.0 6  223 235 
 RREF BN ES   1   1959  2.77                             111     0.1 6  223 235 
 RREF BZ I        1959  7.77         6.9 1.23                           223 235 
 TOL  SZ EP   2   1958 38.81                             109     0.2 4  243 228 
 TOL  SZ ES   2   1959  6.69                             109     0.7 4  243 228 
 OCA  SZ EP   1   1958 38.63                             109     0.1 6  244  10 
 OCA  SZ I        1959 12.78        27.3 0.11                           244  10 
 PRA  HZ EP   1   1958 43.43                             105    -0.5 5  291 207 
 PRA  HN ES   1   1959 16.41                             105     1.0 5  291 207 
 PRA  HZ I        1959 20.11         9.4 0.25                           291 207 
 DBB  SZ EP   2   1958 45.32                             104     0.7 4  297 291 
                                                                                
