 2015 1213 1852 26.5 L   6.801 -73.136147.1  RSN 10 0.5 2.2LRSN                1
 GAP=138        1.04       4.4     4.8  6.5 -0.4641E+01  0.6686E+01 -0.4097E+01E
 Epicentro: LOS SANTOS - SANTANDER                                             3
 ACTION:UPD 16-02-04 15:04 OP:cam  STATUS:               ID:20151213185226 L   I
 OLDACT:DUP 15-12-14 00:21 OP:ar   STATUS:               ID:20151213184749d    3
 2015-12-13-1847-47M.COL___346                                                 6
 STAT SP IPHASW D HRMM SECON CODA AMPLIT PERI AZIMU VELO AIN AR TRES W  DIS CAZ7
 BAR2 EZ EP     D 1852 46.36                             171    0.0810 23.6 193 
 BAR2 EZ ES       1853  1.60                             171   -0.1210 23.6 193 
 BAR2 EZ I        1853  2.92        36.1 0.18            172           23.6 193 
 BRR  HZ EP       1852 48.24                             153    0.4110 72.1 298 
 BRR  HN ES       1853  5.44                             153    0.9610 72.1 298 
 BRR  HZ I        1853  6.64        34.6 0.38            150           72.1 298 
 PAM  EZ EP       1852 48.97                             152    0.1810 76.6  39 
 PAM  EN ES       1853  6.39                             152    0.1910 76.6  39 
 PAM  EZ I        1853  8.61        29.2 0.56            153           76.6  39 
 RUS  HZ EP   2   1852 50.35                             144   -0.01 5  101 177 
 RUS  HN ES   2   1853  8.37                             144   -0.62 5  101 177 
 PTB  HZ EP       1852 53.19                             132   -0.46 9  149 259 
 PTB  HN ES       1853 14.25                             132   -0.60 9  149 259 
 PTB  HZ I        1853 16.41         8.9 0.50            133            149 259 
 OCA  HZ EP       1852 54.16                             130   -0.74 9  160 353 
 OCA  HN ES       1853 16.52                             130   -0.55 9  160 353 
 OCA  HZ I        1853 21.37        27.6 0.16            130            160 353 
 SPBC HZ EP   2   1852 55.29                             130    0.14 5  164 219 
 SPBC HN ES   2   1853 17.14                             130   -0.38 5  164 219 
 SPBC HZ I        1853 19.97        31.1 0.22            131            164 219 
 ZAR  HZ EP   2   1852 59.86                             123    0.75 4  205 292 
 ZAR  HN ES       1853 24.59                             123    0.02 9  205 292 
 ZAR  HZ I        1853 31.19        12.0 0.30            123            205 292 
 SML  HZ EP       1853  3.29                             118    0.07 8  244 335 
 SML  HN ES   2   1853 32.21                             118    0.33 4  244 335 
 SML  HZ I        1853 34.42        17.0 0.24            118            244 335 
 GUY2CHZ EP   2   1853 11.30                             113    1.05 4  302 235 
 GUY2CHN ES   2   1853 45.32                             113    0.92 4  302 235 
 GUY2CHZ I        1853 54.15         7.2 0.46                           302 235 
                                                                                
