 2015 1113 1957 10.8 L   6.911 -73.408115.6  RSN 24 0.5 2.8LRSN                1
 GAP= 86        1.05       1.9     2.9  4.7 -0.9458E+00  0.6334E+01 -0.2070E+00E
 Epicentro: SAN VICENTE DE CHUCURI - SANTANDER                                 3
 ACTION:UPD 15-12-28 16:10 OP:cam  STATUS:               ID:20151113195710 L   I
 OLDACT:REG 15-11-13 22:23 OP:cara STATUS:               ID:20151113194750     3
 2015-11-13-1947-50M.COL___313                                                 6
 STAT SP IPHASW D HRMM SECON CODA AMPLIT PERI AZIMU VELO AIN AR TRES W  DIS CAZ7
 BRR  HZ EP       1957 27.47                             159    0.4710 40.0 303 
 BRR  HN ES       1957 40.32                             159    0.6710 40.0 303 
 BRR  HZ I        1957 41.72       121.5 0.46            156           40.0 303 
 BAR2 EZ IP     C 1957 27.72                             158    0.2310 43.2 145 
 BAR2 EZ ES       1957 40.29                             158   -0.2410 43.2 145 
 BAR2 EZ I        1957 41.59       134.7 0.20            161           43.2 145 
 PAM  EZ EP       1957 31.12                             139    0.1810 91.4  59 
 PAM  EN ES       1957 47.19                             139    0.5210 91.4  59 
 PAM  EZ I        1957 49.88        99.4 0.32            145           91.4  59 
 RUS  HZ EP       1957 32.79                             131   -0.4510  118 162 
 RUS  HN ES       1957 49.99                             131   -0.7810  118 162 
 RUS  HZ I        1957 53.15        41.6 0.30            133            118 162 
 OCA  HZ EP       1957 35.56                             124   -0.02 9  147   4 
 OCA  HN ES       1957 54.19                             124   -0.75 9  147   4 
 OCA  HZ I        1957 56.56       257.7 0.42            127            147   4 
 SPBC HZ EP       1957 36.09                             122   -0.46 9  157 208 
 SPBC HN ES       1957 56.25                             122   -0.41 9  157 208 
 SPBC HZ I        1958  4.35       109.7 0.28            122            157 208 
 ZAR  HZ EP       1957 38.65                             119    0.62 9  173 292 
 ZAR  HE ES       1957 59.58                             119    0.29 9  173 292 
 ZAR  HZ I        1958  5.31        80.8 0.34            119            173 292 
 NOR  HZ EP       1957 43.61                             113    0.34 8  220 227 
 NOR  HN ES       1958  7.95                             113   -0.68 8  220 227 
 NOR  HZ I        1958 14.13        63.6 0.18            113            220 227 
 SML  HZ EP       1957 43.06                             113   -0.31 8  221 341 
 SML  HE ES       1958  8.63                             113   -0.17 8  221 341 
 SML  HZ I        1958 17.36       103.3 0.26            114            221 341 
 HEL  HZ EP   4   1957 48.50                             110    1.67 0  248 251 
 HEL  HN ES       1958 15.08                             110    0.12 8  248 251 
 HEL  HZ I        1958 20.39        78.7 0.44            110            248 251 
 URE  HZ EP       1957 46.74                             110   -0.17 8  252 292 
 URE  HN ES   4   1958 14.14                             110   -0.97 0  252 292 
 URE  HZ I        1958 22.33        91.7 0.24            110            252 292 
 CHI  HZ EP       1957 48.19                             110    0.49 8  255 188 
 CHI  HE ES       1958 16.46                             110   -0.05 8  255 188 
 CHI  HZ I        1958 23.35        20.1 0.74            110            255 188 
 GUY2CHZ EP       1957 51.96                             107    0.58 7  286 229 
 GUY2CHN ES       1958 22.87                             107   -0.18 7  286 229 
 GUY2CHZ I        1958 33.40        37.2 0.34                           286 229 
 DBB  SZ EP       1957 53.85                             105    0.15 7  310 272 
 DBB  SZ ES       1958 26.41                             105   -0.77 7  310 272 
 DBB  SZ I        1958 33.19        78.0 0.28            106            310 272 
 CBOC HZ EP       1957 54.68                             105    0.79 7  311 248 
 CBOC HE ES       1958 27.67                             105    0.15 7  311 248 
 CBOC HZ I        1958 37.23        24.5 0.58            106            311 248 
 LL6C HZ EP       1957 53.73                             105   -0.19 7  313   3 
 LL6C HN ES       1958 27.65                             105    0.06 7  313   3 
 ELA  HZ EP       1957 55.57                             105    0.55 7  316 224 
 ELA  HN ES       1958 28.80                             105   -0.74 7  316 224 
 ELA  HZ I        1958 43.43        38.4 0.60            105            316 224 
 MON  HZ EP       1957 54.48                             104   -0.71 7  323 310 
 MON  HN ES       1958 29.63                             104   -0.21 7  323 310 
 MON  HZ I        1958 42.78        14.7 0.38            105            323 310 
 PTGC HZ EP   4   1957 54.65                             104   -1.50 0  331 155 
 PTGC HN ES   4   1958 28.58                             104   -2.96 0  331 155 
 PTGC HZ I        1958 35.50        40.1 0.24            105            331 155 
 ANIL HZ EP   4   1958  0.08                             103    1.72 0  347 220 
 ANIL HN ES       1958 36.24                             103    0.76 6  347 220 
 ANIL HZ I        1958 44.75        39.2 0.32            104            347 220 
 SJC  HZ EP       1958  1.83                             101   -0.59 6  384 330 
 SJC  HE ES   4   1958 39.96                             101   -2.75 0  384 330 
 SJC  HZ I        1958 43.22        16.1 0.38            102            384 330 
 PAL  HZ EP       1958  3.46                             101    0.49 6  388 235 
 PAL  HE ES   4   1958 37.94                             101   -5.75 0  388 235 
 PAL  HZ I        1958 46.87        34.7 0.28            102            388 235 
 ORTC HZ EP       1958  3.46                             101    0.35 6  389 212 
 ORTC HN ES   4   1958 44.89                             101    0.95 0  389 212 
 ORTC HZ I        1958 52.58        11.7 0.32            102            389 212 
 PRA  HZ EP       1958  3.01                             101   -0.13 6  390 205 
 PRA  HN ES       1958 44.46                             101    0.48 6  390 205 
 PRA  HZ I        1958 55.39        19.7 0.32            102            390 205 
                                                                                
