 2011  613 1007 42.8 L   6.739 -73.077143.8  RSN  5 0.1 1.7LRSN                1
 GAP=202        0.42       4.2     4.6  4.6 -0.8373E+01 -0.3756E+00 -0.4598E+01E
 Epicentro: JORDAN - SANTANDER                                                 3
 ACTION:UP  11-07-14 19:04 OP:ep   STATUS:               ID:20110613100742 L   I
 2011-06-13-1005-39S.COL___132                                                 6
 STAT SP IPHASW D HRMM SECON CODA AMPLIT PERI AZIMU VELO SNR AR TRES W  DIS CAZ7
 BAR2 SZ EP       10 8  2.27                             172     0.110   20 216 
 BAR2 SZ ES   1   10 8 17.15                             172    -0.1 7   20 216 
 BAR2 SZ I        10 8 18.80        15.9 0.09                            20 216 
 BRR  HZ EP       10 8  4.15                             149    -0.210   81 300 
 BRR  HN ES   1   10 8 21.19                             149     0.1 7   81 300 
 BRR  HZ I        10 8 25.13        10.2 0.07                            81 300 
 GRA  SZ EP   1   10 8  8.14                             136    -0.1 7  130  13 
 GRA  SZ I        10 8 33.31         2.9 0.34                           130  13 
 OCA  SZ EP   1   10 8 11.85                             128     0.2 7  168 351 
 OCA  SZ I        10 8 37.36         5.7 0.35                           168 351 
 NOR  SN ES   1   10 8 46.68                             118     0.0 6  237 237 
                                                                                
