 2011 1013 1710 38.3 L   6.805 -73.183134.5  RSN  7 0.4 1.8LRSN                1
 GAP=132        0.68       3.7     4.9  5.9 -0.2456E+01  0.8347E+01 -0.3688E+01E
 Epicentro: LOS SANTOS - SANTANDER                                             3
 ACTION:UPD 12-07-13 16:03 OP:ep   STATUS:               ID:20111013171038 L   I
 2011-10-13-1706-38S.COL___168                                                 6
 STAT SP IPHASW D HRMM SECON CODA AMPLIT PERI AZIMU VELO AIN AR TRES W  DIS CAZ7
 BAR2 SZ EP       1710 56.76                             170    0.1610 23.5 180 
 BAR2 SZ I        1710 57.08        13.1 0.11                          23.5 180 
 BAR2 SZ ES       1711 11.10                             170    0.2510 23.5 180 
 BRR  HZ EP   1   1710 58.47                             152    0.44 7 67.3 300 
 BRR  HZ I        1710 58.81        22.0 0.11                          67.3 300 
 BRR  HE ES   2   1711 12.58                             152   -0.82 5 67.3 300 
 PAM  SZ EP       1710 59.46                             148   -0.0310 79.7  42 
 PAM  SN ES   1   1711 16.18                             148    0.17 7 79.7  42 
 RUS  HZ EP   1   1711  0.82                             141   -0.23 7  102 174 
 RUS  HE ES   1   1711 18.28                             141   -0.50 7  102 174 
 RUS  HZ I        1711 21.33         6.1 0.23                           102 174 
 OCA  SZ EP   2   1711  5.60                             127   -0.08 5  159 355 
 OCA  SZ ES   2   1711 26.21                             127   -0.81 5  159 355 
 ZAR  HZ EP   2   1711  9.10                             120   -0.52 4  200 292 
 ZAR  HN ES   2   1711 34.67                             120    0.63 4  200 292 
 ZAR  HZ I        1711 40.18         9.0 0.12                           200 292 
 NOR  SZ EP   2   1711 13.26                             116    0.17 4  232 234 
 NOR  SN ES   2   1711 40.35                             116    0.15 4  232 234 
                                                                                
