 2017  113 1237  3.9 L   6.792 -73.151149.5  RSN  8 0.5 1.7LRSN                1
 GAP=136        0.93       3.8     4.1  6.2  0.1322E+01  0.4925E+01  0.5583E+01E
 Epicentro: LOS SANTOS - SANTANDER                                             3
 ACTION:UPD 17-05-22 15:59 OP:jn   STATUS:               ID:20170113123704dL   I
 OLDACT:DUP 17-01-13 22:14 OP:dani STATUS:               ID:20170113122746d    3
 OLDACT:UP  17-01-13 22:12 OP:dani STATUS:               ID:20170113122745d    3
 OLDACT:DUP 17-01-13 22:08 OP:dani STATUS:               ID:20170113122745d    3
 OLDACT:UP  17-01-13 21:52 OP:dani STATUS:               ID:20170113122744     3
 OLDACT:UP  17-01-13 21:52 OP:dani STATUS:               ID:20170113122744     3
 OLDACT:REG 17-01-13 20:08 OP:dani STATUS:               ID:20170113122744     3
 2017-01-13-1228-00M.COL___331                                                 6
 STAT SP IPHASW D HRMM SECON CODA AMPLIT PERI AZIMU VELO AIN AR TRES W  DIS CAZ7
 BAR2 EZ EP       1237 23.87                             171   -0.0410 22.3 189 
 BAR2 EZ ES       1237 39.07                             171   -0.5010 22.3 189 
 BAR2 EZ I        1237 40.07        21.3 0.34            169           22.3 189 
 BRR  HZ EP       1237 25.62                             153    0.2110 71.2 299 
 BRR  HE ES       1237 42.94                             153    0.7210 71.2 299 
 BRR  HZ I        1237 43.45        10.7 0.15            152           71.2 299 
 PAM  EZ EP       1237 26.88                             151    0.3510 78.4  39 
 PAM  EN ES       1237 43.98                             151   -0.2410 78.4  39 
 PAM  EZ I        1237 46.66         5.5 0.34            154           78.4  39 
 RUS  HZ EP       1237 28.16                             145    0.2510 99.7 176 
 RUS  HN ES       1237 46.47                             145   -0.2110 99.7 176 
 RUS  HZ I        1237 48.06         4.9 0.29            144           99.7 176 
 PTB  HZ EP       1237 30.54                             133   -0.52 9  147 259 
 PTB  HN ES       1237 51.89                             133   -0.40 9  147 259 
 PTB  HZ I        1237 56.69         5.6 0.14            132            147 259 
 ZAR  HZ EP   3   1237 35.12                             123   -1.41 2  204 292 
 ZAR  HN ES       1238  1.95                             123   -0.06 9  204 292 
 ZAR  HZ I        1238  6.88         6.5 0.34            123            204 292 
 CHI  HZ EP       1237 41.92                             118    0.27 8  248 195 
 CHI  HE ES       1238 11.41                             118    0.28 8  248 195 
 CHI  HZ I        1238 17.80         4.0 0.35            118            248 195 
 GUY2CHZ EP   3   1237 46.35                             113   -1.18 2  300 235 
 GUY2CHN ES   3   1238 23.77                             113    2.18 2  300 235 
 GUY2CHZ  IAML    1238 30.58         3.4 0.28                           300 235 
                                                                                
