 2017  213 1437  7.8 L   6.577 -73.509118.0  RSN 14 0.6 1.9LRSN                1
 GAP= 68        1.37       3.8     4.2  7.5  0.1856E+01  0.1449E+02  0.6435E+01E
 Epicentro: EL CARMEN - SANTANDER                                              3
 ACTION:UPD 17-05-24 15:36 OP:jn   STATUS:               ID:20170213143707 L   I
 OLDACT:REG 17-02-13 21:08 OP:cog  STATUS:               ID:20170213142743     3
 2017-02-13-1428-00M.COL___352                                                 6
 STAT SP IPHASW D HRMM SECON CODA AMPLIT PERI AZIMU VELO AIN AR TRES W  DIS CAZ7
 BAR2 EZ EP       1437 24.47                             161   -0.0410 36.1  87 
 BAR2 EZ ES       1437 37.64                             161    0.1010 36.1  87 
 BRR  HZ EP       1437 25.30                             149   -0.1910 62.8 339 
 BRR  HE ES       1437 39.28                             149   -0.0010 62.8 339 
 BRR  HZ I        1437 50.16        33.2 0.18            151           62.8 339 
 RUS  HZ EP       1437 27.65                             140   -0.3710 89.1 148 
 RUS  HE ES       1437 43.41                             140   -0.3810 89.1 148 
 RUS  HZ I        1437 44.55        10.7 0.38            144           89.1 148 
 PTB  HZ EP   9   1437 27.39                             135   -1.26 0  105 268 
 PTB  HN ES       1437 42.39                                   -1.2610  105 268 
 PTB  HZ I        1437 43.21        31.7 0.18            138            105 268 
 PAM  EZ EP       1437 31.09                             130    0.1910  123  47 
 PAM  EN ES       1437 48.75                             130   -0.1610  123  47 
 PAM  EZ I        1437 55.80         7.4 0.46            133            123  47 
 ZAR  HZ EP       1437 36.68                             118    0.66 9  180 304 
 ZAR  HN ES       1437 58.68                             118    0.66 9  180 304 
 NOR  HZ EP       1437 36.22                             117   -0.66 9  188 233 
 NOR  HN ES       1437 59.80                             117    0.24 9  188 233 
 NOR  HZ I        1438  1.68        10.0 0.12            121            188 233 
 CHI  HZ EP       1437 40.42                             113   -0.11 8  217 187 
 CHI  HE ES       1438  6.79                             113    0.74 8  217 187 
 URE  HZ EP       1437 44.82                             109    0.06 8  259 300 
 URE  HE ES       1438 12.05                             109   -1.53 8  259 300 
 URE  HN ES   4   1438 12.31                             109   -1.27 0  259 300 
 ELA  HZ EP   4   1437 50.12                             107    1.93 0  283 228 
 ELA  HE ES   4   1438 21.08                             107    1.39 0  283 228 
 ELA  HZ I        1438 30.74         4.4 0.40            110            283 228 
 CBOC HZ EP       1437 48.92                             106    0.55 7  288 254 
 CBOC HE ES   3   1438 17.39                             106   -2.62 2  288 254 
 CBOC HZ I        1438 17.48         2.9 0.18            109            288 254 
 DBB  EN ES       1438 23.59                             105    0.77 7  303 279 
 PRA  HN ES   3   1438 32.79                             102   -0.22 2  351 206 
 ORTC HZ EP       1437 56.34                             102    0.57 6  352 213 
 ORTC HN ES       1438 32.56                             102   -0.62 6  352 213 
                                                                                
