 2013  113 1353 35.1 L   6.339 -73.592113.1  RSN  5 0.4 1.7LRSN                1
 GAP=108        0.94       5.4     3.8  8.4 -0.9829E+00  0.1311E+02  0.2899E+01E
 Epicentro: SANTA HELENA DEL OPON - SANTANDER                                  3
 ACTION:UPD 13-02-15 09:14 OP:ep   STATUS:               ID:20130113135335 L   I
 2013-01-13-1348-36M.COL___181                                                 6
 STAT SP IPHASW D HRMM SECON CODA AMPLIT PERI AZIMU VELO AIN AR TRES W  DIS CAZ7
 BAR2 SZ EP       1353 52.40                             153    0.3610 53.2  58 
 BAR2 SZ ES       1354  5.35                             153    0.0910 53.2  58 
 BAR2 SZ I        1354  6.68        23.5 0.38            156           53.2  58 
 RUS  HZ EP       1353 53.75                             144   -0.0210 74.9 131 
 RUS  HN ES       1354  8.10                             144   -0.2510 74.9 131 
 RUS  HN I        1354  9.04         6.9 0.28            147           74.9 131 
 BRR  HZ EP       1353 54.04                             140    0.1410 85.9 351 
 PTB  HZ EP       1353 54.06                             136   -0.8610 98.1 283 
 PTB  HN ES       1354 10.49                             136    0.0910 98.1 283 
 PTB  HN I        1354 11.58        11.0 0.24            137           98.1 283 
 NOR  HZ EP       1354  1.79                             120    0.30 9  165 239 
 NOR  HN ES       1354 22.34                             120    0.25 9  165 239 
 NOR  HN I        1354 24.42         6.9 0.16            122            165 239 
                                                                                
