 2011  313 1740  0.0 L   6.837 -72.857142.8  RSN  4 0.2 1.5LRSN                1
 GAP=191        0.51       4.4    21.4  8.2 -0.5899E+02 -0.1135E+03  0.9230E+01E
 Epicentro: SAN ANDRES - SANTANDER                                             3
 ACTION:UP  11-06-16 14:33 OP:jfem STATUS:               ID:20110313173960 L   I
 2011-03-13-1734-26S.COL___134                                                 6
 STAT SP IPHASW D HRMM SECON CODA AMPLIT PERI AZIMU VELO SNR AR TRES W  DIS CAZ7
 BAR2 SZ EP       1740 20.04                             161     0.110   45 233 
 BAR2 SZ ES   1   1740 35.60                             161     0.1 7   45 233 
 BAR2 SZ I        1740 36.59        10.6 0.17                            45 233 
 RUS  HZ EP       1740 23.94                             141     0.010  107 193 
 RUS  HN ES   2   1740 42.35                             141    -0.3 5  107 193 
 RUS  HZ I        1740 43.61         2.2 0.31                           107 193 
 GRA  SZ EP       1740 24.35                             139     0.210  116   3 
 GRA  SZ ES   2   1740 42.73                             139    -0.3 5  116   3 
 GRA  SZ I        1740 52.43         6.7 0.25                           116   3 
 OCA  SZ EP   2   1740 27.90                             128    -0.5 5  163 342 
                                                                                
