 2016 1113 1426 20.4 L   7.341 -73.113 12.5  RSN  5 0.1 2.1LRSN                1
 GAP=175        0.33       1.4     0.9  1.9 -0.4541E+00  0.1069E+01 -0.9436E+00E
 Epicentro: RIONEGRO - SANTANDER                                               3
 ACTION:UPD 17-10-26 21:07 OP:lp   STATUS:               ID:20161113142620 L   I
 OLDACT:REG 16-11-13 20:46 OP:dnl  STATUS:               ID:20161113141743     3
 2016-11-13-1418-00M.COL___343                                                 6
 STAT SP IPHASW D HRMM SECON CODA AMPLIT PERI AZIMU VELO AIN AR TRES W  DIS CAZ7
 PAM  EZ IP     D 1426 28.59                             103    0.0110 45.6  90 
 PAM  EE ES       1426 34.91                             103   -0.0310 45.6  90 
 PAM  EZ I        1426 35.79       154.7 0.16            102           45.6  90 
 BRR  HZ EP       1426 31.82                              97   -0.0510 71.0 249 
 BRR  HE ES       1426 40.77                              97   -0.0210 71.0 249 
 BRR  HZ I        1426 42.67        41.1 0.14             97           71.0 249 
 BAR2 EZ EP       1426 33.98                              96    0.0510 83.1 185 
 BAR2 EZ ES       1426 44.52                              96    0.0510 83.1 185 
 BAR2 EZ I        1426 46.26        35.8 0.22             96           83.1 185 
 PTB  HZ EP       1426 46.63                              56    0.04 9  173 239 
 PTB  HE ES       1427  6.83                              56   -0.17 9  173 239 
 PTB  HZ I        1427  8.72        35.2 0.66             56            173 239 
 ZAR  HZ EP   2   1426 48.89                              56   -0.26 4  193 275 
 ZAR  HN ES       1427 11.75                              56    0.20 9  193 275 
 ZAR  HZ I        1427 13.05        37.3 0.32             56            193 275 
                                                                                
