 2012  813 1915 32.4 L   6.770 -73.140148.6  RSN  5 0.3 1.6LRSN                1
 GAP=236        0.64       8.0     8.7  6.6  0.5303E+02  0.6469E+01 -0.7625E+00E
 Epicentro: LOS SANTOS - SANTANDER                                             3
 ACTION:UPD 12-09-10 11:56 OP:ep   STATUS:               ID:20120813191532 L   I
 2012-08-13-1910-00M.COL___218                                                 6
 STAT SP IPHASW D HRMM SECON CODA AMPLIT PERI AZIMU VELO AIN AR TRES W  DIS CAZ7
 BAR2 SZ EP       1915 52.16                             172   -0.1810 20.1 193 
 BAR2 SZ ES   1   1916  7.38                             172   -0.49 7 20.1 193 
 BAR2 SZ I        1916  9.64         7.4 0.13                          20.1 193 
 BRR  HZ EP       1915 54.19                             152    0.1810 73.4 301 
 BRR  HZ I        1916 10.70        12.4 0.30                          73.4 301 
 BRR  HN ES   1   1916 11.29                             152    0.45 7 73.4 301 
 RUS  HZ EP   1   1915 56.36                             145    0.14 7 97.2 176 
 RUS  HN ES   1   1916 15.03                             145    0.25 7 97.2 176 
 PTB  HZ EP   1   1915 59.48                             133   -0.15 7  148 260 
 ZAR  HE ES   1   1916 30.56                             123   -0.29 6  206 293 
 ZAR  HZ I        1916 35.60         3.2 0.36                           206 293 
                                                                                
