 2012  513 1037 37.5 L   6.752 -73.176154.0  RSN  5 0.3 1.7LRSN                1
 GAP=230        0.71       7.7     7.0  8.0  0.3373E+02  0.4991E+00 -0.6503E+01E
 Epicentro: VILLANUEVA - SANTANDER                                             3
 ACTION:UP  12-07-05 12:04 OP:pat  STATUS:               ID:20120513103737 L   I
 2012-05-13-1030-00M.COL___195                                                 6
 STAT SP IPHASW D HRMM SECON CODA AMPLIT PERI AZIMU VELO SNR AR TRES W  DIS CAZ7
 BAR2 SZ EP   1   1037 57.61                             173    -0.4 7   18 182 
 BAR2 SZ ES   2   1038 13.50                             173    -0.5 5   18 182 
 BAR2 SZ I        1038 14.60         9.9 0.34                            18 182 
 BRR  HZ EP   1   1037 59.57                             154     0.0 7   71 304 
 BRR  HE ES   1   1038 17.08                             154     0.4 7   71 304 
 BRR  HZ I        1038 19.78        11.4 0.26                            71 304 
 RUS  HZ EP   1   1038  1.92                             147     0.2 7   96 174 
 RUS  HN ES   1   1038 20.92                             147     0.3 7   96 174 
 RUS  HZ I        1038 21.89         4.7 0.65                            96 174 
 PTB  HZ EP   1   1038  4.34                             135    -0.4 7  143 261 
 PTB  HE ES   1   1038 25.95                             135    -0.1 7  143 261 
 PTB  HZ I        1038 28.90         3.9 0.11                           143 261 
 ZAR  HZ EP   2   1038 10.83                             125     0.5 4  203 294 
 ZAR  HN ES   1   1038 36.07                             125     0.0 6  203 294 
 ZAR  HZ I        1038 42.64         6.9 0.28                           203 294 
                                                                                
