 2013  313 1441 42.5 L   6.725 -73.185143.6  RSN  6 0.2 1.9LRSN                1
 GAP=227        0.43       3.8     3.5  3.9  0.8453E+01  0.2397E+01  0.1807E+01E
 Epicentro: VILLANUEVA - SANTANDER                                             3
 ACTION:UPD 13-04-09 14:02 OP:ep   STATUS:               ID:20130313144142 L   I
 2013-03-13-1440-00M.COL___231                                                 6
 STAT SP IPHASW D HRMM SECON CODA AMPLIT PERI AZIMU VELO AIN AR TRES W  DIS CAZ7
 BAR2 SZ EP       1442  1.61                             174   -0.1110 14.7 179 
 BAR2 SZ ES   1   1442 16.38                             174   -0.34 7 14.7 179 
 BAR2 SZ I        1442 18.29        24.2 0.23            166           14.7 179 
 BRR  HZ EP       1442  3.44                             152   -0.0110 72.0 306 
 BRR  HN ES   1   1442 20.15                             152    0.35 7 72.0 306 
 BRR  HN I        1442 21.44        33.4 0.39            149           72.0 306 
 RUS  HZ EP       1442  5.62                             146    0.1410 92.7 173 
 RUS  HN ES   1   1442 23.56                             146    0.16 7 92.7 173 
 RUS  HN I        1442 26.22         9.1 0.29            144           92.7 173 
 PTB  HZ EP   1   1442  8.65                             133   -0.12 7  142 262 
 PTB  HE ES   1   1442 29.17                             133   -0.10 7  142 262 
 PTB  HZ I        1442 34.57         7.3 0.12            130            142 262 
 ZAR  HN ES       1442 39.88                             122    0.01 9  203 295 
 ZAR  HZ I        1442 45.66         5.5 0.58            122            203 295 
 PRA  HZ EP   1   1442 34.80                             107   -0.04 4  383 210 
                                                                                
