 2017  213 1512 19.3 L   6.832 -73.243139.7  RSN  4 0.3 1.5LRSN                1
 GAP=130        0.84       4.4     6.4  6.8 -0.4671E-01 -0.2681E+01  0.1772E+01E
 Epicentro: ZAPATOCA - SANTANDER                                               3
 ACTION:UPD 17-05-24 15:36 OP:jn   STATUS:               ID:20170213151219 L   I
 OLDACT:REG 17-02-13 21:14 OP:cog  STATUS:               ID:20170213150749     3
 2017-02-13-1508-00M.COL___346                                                 6
 STAT SP IPHASW D HRMM SECON CODA AMPLIT PERI AZIMU VELO AIN AR TRES W  DIS CAZ7
 BAR2 EZ EP       1512 38.10                             168   -0.2210 27.3 166 
 BAR2 EZ ES       1512 53.04                             168   -0.1010 27.3 166 
 BRR  HZ EP       1512 39.84                             155    0.6210 60.1 300 
 BRR  HN ES       1512 54.46                             155   -0.2810 60.1 300 
 BRR  HZ I        1513  0.57         8.2 0.57            153           60.1 300 
 PAM  EZ EP       1512 41.03                             148   -0.1810 82.2  47 
 PAM  EE ES       1512 58.44                             148    0.1610 82.2  47 
 PAM  EZ I        1513  0.18         5.8 0.46            151           82.2  47 
 RUS  HZ EP       1512 42.54                             141   -0.3110  105 170 
 RUS  HN ES       1513  1.51                             141    0.3110  105 170 
 RUS  HZ I        1513  1.86         4.5 0.32            146            105 170 
                                                                                
