 2016  113 1305 54.4 L   6.758 -73.074146.3  RSN  7 0.4 1.8LRSN                1
 GAP=148        0.98       4.1     4.8  6.3 -0.1824E+01  0.9596E+01  0.1910E+01E
 Epicentro: LOS SANTOS - SANTANDER                                             3
 ACTION:UPD 16-03-09 23:25 OP:cam  STATUS:               ID:20160113130554 L   I
 OLDACT:REG 16-01-13 23:05 OP:mh   STATUS:               ID:20160113125748     3
 2016-01-13-1257-48M.COL___334                                                 6
 STAT SP IPHASW D HRMM SECON CODA AMPLIT PERI AZIMU VELO AIN AR TRES W  DIS CAZ7
 BAR2 EZ EP       13 6 14.25                             171    0.1910 21.9 213 
 BAR2 EZ ES       13 6 29.09                             171   -0.3110 21.9 213 
 BAR2 EZ I        13 6 30.37        15.2 0.20            168           21.9 213 
 PAM  EZ EP       13 6 16.78                             151    0.1710 76.4  33 
 PAM  EN ES       13 6 33.56                             151   -0.3810 76.4  33 
 PAM  EZ I        13 6 36.08        13.3 0.54            155           76.4  33 
 BRR  HZ EP   1   13 6 15.88                             150   -0.26 7 80.3 299 
 BRR  HN ES       13 6 33.09                             150   -0.0110 80.3 299 
 BRR  HZ I        13 6 34.53         9.8 0.26            148           80.3 299 
 RUS  HZ EP       13 6 18.07                             145    0.2110 95.7 181 
 RUS  HN ES       13 6 36.75                             145    0.5910 95.7 181 
 RUS  HZ I        13 6 38.15         2.3 0.34            146           95.7 181 
 SPBC HZ EP       13 6 23.07                             129   -0.02 9  165 222 
 SPBC HN ES       13 6 45.02                             129   -0.45 9  165 222 
 SPBC HZ I        13 6 49.31         9.7 0.38            129            165 222 
 ZAR  HZ EP       13 6 27.31                             121   -0.50 8  213 292 
 ZAR  HE ES       13 6 54.84                             121    0.96 8  213 292 
 ZAR  HZ I        13 6 59.01         6.2 0.46            121            213 292 
 NOR  HZ EP       13 6 30.41                             118   -0.16 8  239 236 
 NOR  HN ES   1   13 6 58.37                             118   -0.42 6  239 236 
 NOR  HZ I        13 7  5.57         5.6 0.16            118            239 236 
                                                                                
