 2017  513 1436 28.2 L   6.347 -73.600115.4  RSN  7 0.3 1.6LRSN                1
 GAP=107        0.90       3.1     3.0  6.6  0.2263E+01  0.3393E+01  0.3199E+01E
 Epicentro: SANTA HELENA DEL OPON - SANTANDER                                  3
 ACTION:UPD 17-06-16 13:35 OP:jn   STATUS:               ID:20170513143628 L   I
 OLDACT:DUP 17-05-13 22:14 OP:lv   STATUS:               ID:20170513142745d    3
 2017-05-13-1428-00M.COL___324                                                 6
 STAT SP IPHASW D HRMM SECON CODA AMPLIT PERI AZIMU VELO AIN AR TRES W  DIS CAZ7
 RUS  HZ EP       1436 46.77                             144   -0.4410 76.1 131 
 RUS  HN ES       1437  1.59                             144   -0.4510 76.1 131 
 RUS  HZ I        1437  2.70         6.5 0.05            146           76.1 131 
 BRR  HZ EP       1436 47.08                             140   -0.0910 84.9 352 
 BRR  HN ES       1437  2.45                             140    0.4910 84.9 352 
 BRR  HZ I        1437  4.05                             140           84.9 352 
 PTB  HZ EP   9   1436 47.17                             136   -1.00 0 97.1 283 
 PTB  HN ES       1437  2.20                                   -0.5410 97.1 283 
 PTB  HZ I        1437  4.75         7.6 0.17            136           97.1 283 
 PAM  EN ES       1437 13.40                             124    0.08 9  148  42 
 PAM  EZ I        1437 17.58         2.4 0.13            124            148  42 
 NOR  HZ EP       1436 54.94                             120    0.21 9  165 238 
 NOR  HN ES       1437 15.70                             120    0.28 9  165 238 
 NOR  HZ I        1437 18.54         6.5 0.05            121            165 238 
 YPLC HZ EP       1436 55.32                             119   -0.07 9  171 128 
 YPLC HN ES       1437 17.04                             119    0.45 9  171 128 
 YPLC HZ I        1437 18.87         5.3 0.14            120            171 128 
 ZAR  HZ EP       1436 57.12                             116   -0.01 9  188 312 
 ZAR  HE ES       1437 19.31                             116   -0.37 9  188 312 
 ZAR  HZ I        1437 24.81         7.9 0.25            117            188 312 
                                                                                
