 2012  213 1054 32.4 L   6.669 -73.394149.8  RSN  4 0.5 1.3LRSN                1
 GAP=146        0.93       8.5     8.9 10.7  0.3341E+02 -0.6540E+01  0.1119E+02E
 ACTION:UP  12-03-07 16:30 OP:epov STATUS:               ID:20120213105432 L   I
 2012-02-13-1050-00M.COL___188                                                 6
 STAT SP IPHASW D HRMM SECON CODA AMPLIT PERI AZIMU VELO AIN AR TRES W  DIS CAZ7
 BAR2 SZ EP   1   1054 51.78                             170   -0.79 7 25.0 110 
 BAR2 SZ I        1055  7.85         4.7 0.22                          25.0 110 
 BRR  HZ EP       1054 53.60                             157    0.1710 59.8 324 
 BRR  HN ES       1055  9.90                             157    0.1010 59.8 324 
 BRR  HZ I        1055 11.71         4.7 0.11                          59.8 324 
 RUS  HZ EP   1   1054 55.83                             147   -0.19 7 92.5 158 
 RUS  HN ES   1   1055 14.81                             147    0.38 7 92.5 158 
 RUS  HZ I        1055 15.60         2.4 0.15                          92.5 158 
 PTB  HZ EP   1   1054 57.89                             140    0.65 7  118 263 
 PTB  HN ES   1   1055 16.07                             140   -0.52 7  118 263 
                                                                                
