 2014  913 1329 43.3 L   6.799 -73.062145.0  RSN  6 0.3 1.6LRSN                1
 GAP=208        0.64       3.6     5.0  6.2  0.2215E+01  0.7989E+00 -0.6977E+01E
 Epicentro: LOS SANTOS - SANTANDER                                             3
 ACTION:UPD 14-10-03 23:04 OP:nd   STATUS:               ID:20140913132943 L   I
 OLDACT:REG 14-09-13 20:17 OP:spq  STATUS:               ID:20140913132820     3
 2014-09-13-1328-20M.COL___296                                                 6
 STAT SP IPHASW D HRMM SECON CODA AMPLIT PERI AZIMU VELO AIN AR TRES W  DIS CAZ7
 BAR2 SZ EP       1330  3.08                             169    0.1610 26.4 210 
 BAR2 SZ ES   1   1330 17.78                             169   -0.43 7 26.4 210 
 BAR2 SZ I        1330 19.29        10.4 0.24            171           26.4 210 
 BRR  HZ EP   1   1330  5.08                             150    0.21 7 79.5 295 
 BRR  HN ES       1330 22.07                             150    0.3910 79.5 295 
 BRR  HZ I        1330 32.03        15.0 0.38            148           79.5 295 
 RUS  HE ES   1   1330 25.39                             144   -0.03 7  100 181 
 RUS  HZ I        1330 26.65         4.1 0.30            152            100 181 
 PTB  HZ EP   1   1330 11.37                             130    0.32 7  157 260 
 PTB  HE ES       1330 32.39                             130   -0.30 9  157 260 
 PTB  HZ I        1330 34.73         2.3 0.14            133            157 260 
 SPBC HE ES   1   1330 34.82                             128   -0.12 7  169 221 
 SPBC HZ I        1330 37.29         4.5 0.12            133            169 221 
 SML  HZ EP   1   1330 19.91                             117   -0.44 6  248 333 
 SML  HN ES   1   1330 48.97                             117   -0.26 6  248 333 
 SML  HZ I        1330 57.12         4.3 0.07            119            248 333 
                                                                                
