 2013  113 1104 58.8 L   6.356 -73.608109.6  RSN  7 0.3 2.0LRSN 2.7WRSN        1
 SPEC AVERAGE  MO 13.1 ST  2.4 OM  1.9 f0 4.14 R0.3687 AL 2.24 WI 15.0 MW  2.7 3
 SPEC SD       MO  0.5 ST  2.2 OM  0.6 f00.798 R0.0714 AL      WI      MW  0.3 3
 GAP= 81        0.81       2.3     3.4  6.0  0.1498E+01  0.1115E+02  0.1809E+01E
 Epicentro: SANTA HELENA DEL OPON - SANTANDER                                  3
 SPEC ZAR HH E MO 13.5 ST  6.1 OM  1.8 f0 5.16 R0.2849 AL 2.41 WI 19.2 MW  2.9 3
 SPEC ZAR HH E T11 548 K 0.000 GD  216 VS 4.20 DE 3.00 Q0230.0 QA 0.60 VS 4.20 3
 SPEC RUS HH E MO 12.5 ST0.199 OM  1.0 f0 3.58 R0.4106 AL 2.23 WI  5.8 MW  2.3 3
 SPEC RUS HH E T11 531 K 0.000 GD  134 VS 4.20 DE 3.00 Q0230.0 QA 0.60 VS 4.20 3
 SPEC OCA HH N MO 13.6 ST  3.6 OM  1.9 f0 3.91 R0.3760 AL 2.25 WI 15.9 MW  3.0 3
 SPEC OCA HH N T11 554 K 0.000 GD  237 VS 4.20 DE 3.00 Q0230.0 QA 0.60 VS 4.20 3
 SPEC HEL HH N MO 12.6 ST0.181 OM  0.9 f0 3.09 R0.4757 AL 1.22 WI 15.7 MW  2.4 3
 SPEC HEL HH N T11 555 K 0.000 GD  239 VS 4.20 DE 3.00 Q0230.0 QA 0.60 VS 4.20 3
 SPEC BRR HH N MO 13.1 ST  2.2 OM  1.6 f0 4.96 R0.2964 AL 3.10 WI 18.4 MW  2.7 3
 SPEC BRR HH N T11 530 K 0.000 GD  138 VS 4.20 DE 3.00 Q0230.0 QA 0.60 VS 4.20 3
 ACTION:UPD 13-02-15 09:13 OP:ep   STATUS:               ID:20130113110458 L   I
 2013-01-13-1058-36M.COL___174                                                 6
 STAT SP IPHASW D HRMM SECON CODA AMPLIT PERI AZIMU VELO AIN AR TRES W  DIS CAZ7
 BAR2 SZ IP       11 5 15.89                             152    0.4610 53.8  61 
 BAR2 SZ ES       11 5 28.29                             152   -0.0810 53.8  61 
 BAR2 SZ I        11 5 29.81        75.0 0.28            158           53.8  61 
 RUS  HZ EP       11 5 17.67                             142    0.3210 77.5 131 
 RUS  HZ I        11 5 17.98         5.8 0.30            149           77.5 131 
 RUS  HN ES       11 5 31.60                             142   -0.2010 77.5 131 
 BRR  HZ EP       11 5 17.00                             140   -0.1510 83.9 352 
 BRR  HN ES       11 5 31.23                             140   -0.2210 83.9 352 
 BRR  HN I        11 5 37.88        24.3 0.20            142           83.9 352 
 ZAR  HZ EP       11 5 26.85                             115   -0.43 9  187 312 
 ZAR  HN ES       11 5 49.64                             115    0.17 9  187 312 
 ZAR  HE I        11 5 52.43        20.7 0.36            118            187 312 
 CHI  HZ EP       11 5 27.88                             115   -0.43 9  191 184 
 CHI  HN ES       11 5 51.47                             115    0.16 9  191 184 
 CHI  HN I        11 5 55.34         8.2 0.28            119            191 184 
 OCA  HZ EP       11 5 29.62                             112   -0.51 8  211   9 
 OCA  HN ES       11 5 55.04                             112    0.49 8  211   9 
 OCA  HE I        11 5 59.99        29.8 0.34            116            211   9 
 HEL  HZ EP       11 5 31.08                             112    0.37 8  213 265 
 HEL  HN ES       11 5 55.61                             112    0.04 8  213 265 
 HEL  HN I        11 6  2.68         3.2 0.36            114            213 265 
                                                                                
