 2012  813 1259 38.1 L   6.788 -73.156141.7  RSN  4 0.2 1.7LRSN                1
 GAP=235        0.57       5.7     5.5  5.8  0.1190E+02  0.5872E+01 -0.5430E+01E
 Epicentro: LOS SANTOS - SANTANDER                                             3
 ACTION:UPD 12-09-10 11:56 OP:ep   STATUS:               ID:20120813125938 L   I
 2012-08-13-1254-45M.COL___200                                                 6
 STAT SP IPHASW D HRMM SECON CODA AMPLIT PERI AZIMU VELO AIN AR TRES W  DIS CAZ7
 BAR2 SZ EP       1259 57.10                             171   -0.0610 21.9 188 
 BAR2 SZ ES       13 0 11.74                             171   -0.3210 21.9 188 
 BAR2 SZ I        13 0 13.80        11.5 0.43                          21.9 188 
 BRR  HZ EP       1259 58.94                             152    0.2110 70.8 300 
 BRR  HE ES   1   13 0 15.07                             152    0.20 7 70.8 300 
 BRR  HZ I        13 0 21.72         9.6 0.36                          70.8 300 
 RUS  HN ES   1   13 0 19.80                             143    0.34 7 99.4 175 
 PTB  HZ EP   1   13 0  4.30                             131   -0.26 7  146 259 
 PTB  HZ I        13 0 25.12         6.1 0.29                           146 259 
 PTB  HN ES   1   13 0 25.22                             131   -0.01 7  146 259 
                                                                                
