 2016  313 1149 15.9 L   6.813 -73.201142.0  RSN  5 0.1 1.4LRSN                1
 GAP=146        0.38       1.9     2.2  2.8 -0.1129E+01  0.1383E+01  0.8239E+00E
 Epicentro: ZAPATOCA - SANTANDER                                               3
 ACTION:UPD 16-05-13 21:23 OP:cam  STATUS:               ID:20160313114915 L   I
 OLDACT:REG 16-03-13 20:22 OP:drio STATUS:               ID:20160313113751     3
 2016-03-13-1137-51M.COL___285                                                 6
 STAT SP IPHASW D HRMM SECON CODA AMPLIT PERI AZIMU VELO AIN AR TRES W  DIS CAZ7
 BAR2 EZ EP       1149 35.03                             170   -0.0610 24.5 175 
 BAR2 EZ ES       1149 49.95                             170   -0.1210 24.5 175 
 BAR2 EZ I        1149 51.24         5.8 0.26            169           24.5 175 
 PAM  EZ EP       1149 38.11                             149    0.2210 80.3  44 
 PAM  EE ES       1149 54.99                             149   -0.0610 80.3  44 
 PAM  EZ I        1149 57.17         7.2 0.52            154           80.3  44 
 RUS  HZ EP       1149 39.26                             142   -0.1610  103 173 
 RUS  HE ES       1149 57.95                             142    0.1710  103 173 
 RUS  HZ I        1149 58.77         3.3 0.24            144            103 173 
 PTB  HZ EP       1149 41.99                             132   -0.05 9  142 258 
 PTB  HN ES       1150  2.50                             132    0.07 9  142 258 
 PTB  HZ I        1150  9.70         2.0 0.46            131            142 258 
 CHI  HZ EP       1149 53.33                             116   -0.04 8  249 194 
 CHI  HE ES       1150 22.62                             116    0.02 8  249 194 
 CHI  HZ I        1150 28.10         1.5 0.34            118            249 194 
                                                                                
