 2011  713 1050 50.7 L   6.802 -73.067151.7  RSN  4 0.2 1.5LRSN                1
 GAP=206        0.45       7.7    14.7  9.6  0.9633E+02 -0.9772E+02 -0.4799E+02E
 Epicentro: LOS SANTOS - SANTANDER                                             3
 ACTION:UPD 12-07-25 14:00 OP:epov STATUS:               ID:20110713105050 L   I
 2011-07-13-1047-50S.COL___143                                                 6
 STAT SP IPHASW D HRMM SECON CODA AMPLIT PERI AZIMU VELO AIN AR TRES W  DIS CAZ7
 BAR2 SZ EP   2   1051 10.52                             170   -0.57 5 26.5 209 
 BAR2 SZ I        1051 28.54         6.1 0.16                          26.5 209 
 GIR2 SZ EP   1   1051 11.29                             167    0.17 7 33.6 335 
 BRR  HZ EP       1051 12.99                             151    0.0810 78.8 295 
 BRR  HN ES   1   1051 30.15                             151   -0.09 7 78.8 295 
 BRR  HZ I        1051 32.75        15.6 0.41                          78.8 295 
 RUS  HZ EP   1   1051 14.97                             145   -0.05 7  101 181 
 RUS  HE ES   1   1051 34.09                             145    0.08 7  101 181 
 RUS  HZ I        1051 36.10         1.7 0.37                           101 181 
                                                                                
