 2017  913 1052 53.5 L   6.792 -73.052141.2  RSN  4 0.2 1.3LRSN                1
 GAP=246        0.40       4.7     5.4  4.1  0.2067E+02  0.1624E+01 -0.1910E+01E
 Epicentro: LOS SANTOS - SANTANDER                                             3
 ACTION:UPD 17-10-05 19:12 OP:rebc STATUS:               ID:20170913105253 L   I
 OLDACT:REG 17-09-13 21:11 OP:dnl  STATUS:               ID:20170913103830     3
 2017-09-13-1048-00M.COL___436                                                 6
 STAT SP IPHASW D HRMM SECON CODA AMPLIT PERI AZIMU VELO AIN AR TRES W  DIS CAZ7
 BAR2 EZ IP     C 1053 12.67                             169    0.0710 26.4 213 
 BAR2 EZ ES       1053 27.37                             169   -0.1610 26.4 213 
 BAR2 EZ I        1053 28.90         3.9 0.38            158           26.4 213 
 BRR  HZ EP   2   1053 14.70                             148    0.00 5 80.8 296 
 BRR  HN ES       1053 31.40                             148    0.1410 80.8 296 
 BRR  HZ I        1053 34.68         4.7 0.24            142           80.8 296 
 RUS  HZ EP   2   1053 17.00                             143    0.32 5 99.6 182 
 RUS  HN ES       1053 34.78                             143   -0.0210 99.6 182 
 RUS  HZ I        1053 36.60         2.6 0.32            139           99.6 182 
 ZAR  HZ EP   2   1053 26.20                             120   -0.45 4  214 291 
 ZAR  HE ES       1053 52.51                             120   -0.03 8  214 291 
 ZAR  HZ I        1053 59.30         2.7 0.68            117            214 291 
                                                                                
