 2012  813 1347 52.5 L   6.759 -73.148143.9  RSN  8 0.3 2.1LRSN                1
 GAP=138        0.64       3.4     3.0  4.8 -0.1126E+01  0.3119E+01  0.2354E+01E
 Epicentro: LOS SANTOS - SANTANDER                                             3
 ACTION:UPD 12-09-10 11:56 OP:ep   STATUS:               ID:20120813134752 L   I
 2012-08-13-1340-00M.COL___217                                                 6
 STAT SP IPHASW D HRMM SECON CODA AMPLIT PERI AZIMU VELO AIN AR TRES W  DIS CAZ7
 BAR2 SZ EP       1348 11.99                             172    0.1510 18.8 191 
 BAR2 SZ ES   1   1348 26.79                             172   -0.12 7 18.8 191 
 BAR2 SZ I        1348 28.49        63.9 0.25                          18.8 191 
 GIR2 SZ EP       1348 12.01                             165   -0.0910 35.7 352 
 BRR  HZ EP       1348 13.74                             151    0.1610 73.2 302 
 BRR  HN ES       1348 30.53                             151    0.5210 73.2 302 
 BRR  HZ I        1348 33.22        27.2 0.20                          73.2 302 
 PAM  SZ EP       1348 14.84                             149    0.0710 81.1  38 
 PAM  SZ I        1348 15.11        30.1 0.18                          81.1  38 
 PAM  SN ES       1348 31.63                             149   -0.4910 81.1  38 
 RUS  HZ EP       1348 15.97                             145    0.2010 96.1 176 
 RUS  HZ I        1348 17.15        10.4 0.22                          96.1 176 
 RUS  HE ES   1   1348 33.89                             145   -0.01 7 96.1 176 
 PTB  HZ EP   1   1348 18.86                             132   -0.38 7  147 261 
 PTB  HN ES   1   1348 39.78                             132   -0.29 7  147 261 
 ZAR  HZ EP   1   1348 25.01                             122    0.01 6  206 293 
 ZAR  HE ES   1   1348 50.10                             122   -0.23 6  206 293 
 ZAR  HZ I        1348 56.63        11.1 0.25                           206 293 
 NOR  SZ EP   1   1348 28.03                             118    0.19 6  232 235 
 NOR  SN ES   1   1348 55.10                             118   -0.28 6  232 235 
 NOR  SZ I        1349  1.64        10.6 0.48                           232 235 
                                                                                
