 2014  513 1503  2.0 L   6.805 -73.137143.1  RSN 10 0.5 2.0LRSN                1
 GAP=137        1.17       3.4     4.8  7.9 -0.2480E+01  0.1148E+02  0.2430E+01E
 Epicentro: LOS SANTOS - SANTANDER                                             3
 ACTION:UPD 15-03-16 16:57 OP:nd   STATUS:               ID:20140513150302 L   I
 OLDACT:REG 14-05-13 21:20 OP:carl STATUS:               ID:20140513145816     3
 2014-05-13-1458-16M.COL___251                                                 6
 STAT SP IPHASW D HRMM SECON CODA AMPLIT PERI AZIMU VELO AIN AR TRES W  DIS CAZ7
 PAM  SZ EP       15 3 24.19                             150    0.3210 76.3  39 
 PAM  SN ES       15 3 41.69                             150    0.7710 76.3  39 
 PAM  SZ I        15 3 43.70        12.1 0.48            156           76.3  39 
 RUS  HZ EP       15 3 25.48                             143   -0.0410  101 177 
 RUS  HE ES       15 3 42.76                             143   -1.1110  101 177 
 PTB  HZ EP       15 3 28.66                             131   -0.18 9  149 259 
 PTB  HE ES       15 3 49.54                             131   -0.25 9  149 259 
 PTB  HZ I        15 3 55.50        13.2 0.42            132            149 259 
 SPBC HZ EP       15 3 30.17                             128   -0.22 9  164 219 
 SPBC HN ES       15 3 53.15                             128    0.61 9  164 219 
 SPBC HZ I        15 3 57.58        14.4 0.18            130            164 219 
 ZAR  HE ES       15 3 59.09                             122   -0.48 9  205 292 
 ZAR  HZ I        15 4  5.87        12.3 0.30            123            205 292 
 NOR  HZ EP       15 3 37.61                             118   -0.08 8  236 234 
 NOR  HN ES       15 4  5.77                             118    0.24 8  236 234 
 NOR  HZ I        15 4  9.35         6.9 0.38            119            236 234 
 SML  HZ EP       15 3 38.75                             117    0.29 8  244 335 
 SML  HN ES       15 4  6.53                             117   -0.38 8  244 335 
 SML  HZ I        15 4 12.53        15.8 0.10            119            244 335 
 CHI  HZ EP       15 3 39.29                             116   -0.34 8  249 195 
 CHI  HE ES       15 4  9.02                             116    0.03 8  249 195 
 CHI  HZ I        15 4 17.51         3.7 0.62            119            249 195 
 RREF HZ EP       15 3 48.08                             110   -0.07 7  323 229 
 RREF HN ES       15 4 25.05                             110    0.90 7  323 229 
 RREF HZ I        15 4 30.22         4.8 0.26            112            323 229 
 PRA  HZ EP       15 3 55.24                             106   -0.30 6  393 210 
 PRA  HN ES       15 4 38.23                             106    0.93 6  393 210 
 PRA  HZ I        15 4 43.29         4.2 0.36            108            393 210 
                                                                                
