 2017  413 1650 31.6 L   6.577 -73.405119.3  RSN  9 0.3 1.7LRSN                1
 GAP= 78        1.11       3.9     4.9  7.4  0.3167E+01  0.3984E+01  0.2259E+01E
 Epicentro: HATO - SANTANDER                                                   3
 ACTION:UPD 17-05-30 21:11 OP:jn   STATUS:               ID:20170413165031 L   I
 OLDACT:UP  17-04-14 00:28 OP:edw  STATUS:               ID:20170413164742d    3
 OLDACT:DUP 17-04-14 00:24 OP:edw  STATUS:               ID:20170413164742d    3
 OLDACT:UP  17-04-14 00:22 OP:edw  STATUS:               ID:20170413164741     3
 OLDACT:UP  17-04-14 00:22 OP:edw  STATUS:               ID:20170413164741     3
 OLDACT:REG 17-04-13 21:37 OP:edw  STATUS:               ID:20170413164741     3
 2017-04-13-1648-00M.COL___371                                                 6
 STAT SP IPHASW D HRMM SECON CODA AMPLIT PERI AZIMU VELO AIN AR TRES W  DIS CAZ7
 BAR2 EZ EP       1650 48.19                             167    0.1410 24.6  86 
 BAR2 EZ ES       1651  1.32                             167    0.4010 24.6  86 
 BAR2 EZ I        1651  2.87        27.9 0.66            170           24.6  86 
 BRR  HZ EP       1650 49.54                             148   -0.1510 67.7 330 
 BRR  HN ES       1651  4.02                             148    0.1810 67.7 330 
 BRR  HZ I        1651  4.71        19.5 0.64            140           67.7 330 
 RUS  HZ EP     D 1650 51.32                             142   -0.1710 83.7 155 
 RUS  HN ES       1651  6.59                             142   -0.4510 83.7 155 
 RUS  HZ I        1651  8.85         4.7 0.22            133           83.7 155 
 PAM  EZ EP       1650 54.06                             132    0.0310  115  43 
 PAM  EN ES       1651 11.47                             132   -0.0810  115  43 
 PAM  EZ I        1651 13.44         3.4 0.16            128            115  43 
 PTB  HZ EP   9 C 1650 51.91                             132   -1.62 0  116 268 
 PTB  HN ES       1651  7.82                             134   -1.2210  116 268 
 PTB  HZ I        1651 12.56        10.1 0.10            121            116 268 
 YPLC HZ EP   4   1650 54.51                             120   -4.67 0  173 139 
 YPLC HN ES   4   1651 23.07                             120    2.35 0  173 139 
 YPLC HZ I        1651 23.42        16.8 0.30            113            173 139 
 ZAR  HZ EP   2   1651  0.49                             117   -0.39 4  190 302 
 ZAR  HN ES       1651 23.66                             117   -0.09 9  190 302 
 ZAR  HZ I        1651 29.29         7.3 0.68            110            190 302 
 NOR  HZ EP   4   1651  2.99                             116    1.26 0  197 235 
 NOR  HZ I        1651 25.43         4.2 0.54            109            197 235 
 NOR  HN ES   4   1651 26.31                             116    1.04 0  197 235 
 CHI  HZ EP   4   1651  5.53                             114    0.99 0  218 190 
 CHI  HN ES       1651 30.62                             114    0.36 8  218 190 
                                                                                
