 2017  413 1027 22.2 L   6.772 -73.159145.9  RSN 11 0.4 1.6LRSN                1
 GAP=111        0.92       3.5     3.4  5.5  0.2279E+01  0.2957E+01  0.3564E+01E
 Epicentro: LOS SANTOS - SANTANDER                                             3
 ACTION:UPD 17-05-30 21:11 OP:jn   STATUS:               ID:20170413102722 L   I
 OLDACT:UP  17-04-13 22:18 OP:edw  STATUS:               ID:20170413101739     3
 OLDACT:UP  17-04-13 22:18 OP:edw  STATUS:               ID:20170413101739     3
 OLDACT:UP  17-04-13 22:03 OP:edw  STATUS:               ID:20170413101739     3
 OLDACT:REG 17-04-13 21:03 OP:edw  STATUS:               ID:20170413101739     3
 2017-04-13-1018-00M.COL___368                                                 6
 STAT SP IPHASW D HRMM SECON CODA AMPLIT PERI AZIMU VELO AIN AR TRES W  DIS CAZ7
 BAR2 EZ IP     C 1027 41.61                             172   -0.2210 20.0 187 
 BAR2 EZ ES       1027 56.48                             172   -0.6210 20.0 187 
 BAR2 EZ I        1027 57.76        10.9 0.16            170           20.0 187 
 BRR  HZ EP       1027 43.72                             152    0.3010 71.5 301 
 BRR  HN ES       1028  0.66                             152    0.7210 71.5 301 
 PAM  EZ EP     C 1027 44.70                             150    0.0210 80.8  39 
 PAM  EN ES       1028  1.97                             150   -0.2110 80.8  39 
 PAM  EZ I        1028  4.75         4.0 0.44            152           80.8  39 
 RUS  HZ EP       1027 45.58                             145   -0.2110 97.6 175 
 RUS  HN ES       1028  4.37                             145    0.2110 97.6 175 
 RUS  HZ I        1028  5.64         7.0 0.30            144           97.6 175 
 PTB  HZ EP       1027 48.48                             132   -0.56 9  146 260 
 PTB  HN ES       1028  9.62                             132   -0.31 9  146 260 
 PTB  HZ I        1028 11.62         4.1 0.14            130            146 260 
 SPBC HZ EP       1027 50.38                             130   -0.05 9  160 219 
 SPBC HN ES       1028 12.49                             130    0.07 9  160 219 
 SPBC HZ I        1028 14.58         6.4 0.14            128            160 219 
 YPLC HZ EP       1027 52.07                             127    0.22 9  175 150 
 YPLC HN ES       1028 15.40                             127    0.46 9  175 150 
 YPLC HZ I        1028 16.50         4.5 0.30            127            175 150 
 ZAR  HZ EP   4   1027 57.05                             122    2.37 0  204 293 
 ZAR  HN ES       1028 20.29                             122    0.31 9  204 293 
 ZAR  HZ I        1028 27.91         4.0 0.36            121            204 293 
 NOR  HZ EP   4   1027 48.68                             119   -8.98 0  232 235 
 NOR  HN ES   4   1028 26.06                             119    0.78 0  232 235 
 NOR  HZ I        1028 28.94         2.9 0.12            118            232 235 
 CHI  HZ EP   4   1027 54.43                             117   -5.15 0  245 195 
 CHI  HN ES   4   1028 27.02                             117   -1.68 0  245 195 
 CHI  HZ I        1028 34.70         1.5 0.28            117            245 195 
 CBOC HZ EP       1028  8.88                             110   -0.01 7  331 253 
 CBOC HE ES   4   1028 47.06                             110    1.79 0  331 253 
 CBOC HZ I        1028 52.26         1.1 0.20            109            331 253 
                                                                                
