 2010 1113 1927 55.8 L   6.800 -73.118146.6  RSN  8 0.3 1.8LRSN                1
 GAP=162        0.59       3.5     6.8  7.0 -0.3832E+01 -0.5002E+01  0.2976E+01E
 Epicentro: LOS SANTOS - SANTANDER                                             3
 ACTION:UP  10-12-17 16:52 OP:REBC STATUS:               ID:20101113192755 L   I
 2010-11-13-1924-34S.COL___128                                                 6
 STAT SP IPHASW D HRMM SECON CODA AMPLIT PERI AZIMU VELO SNR AR TRES W  DIS CAZ7
 BAR2 SZ EP   1   1928 15.26                             170    -0.3 7   24 197 
 BAR2 SZ ES   2   1928 30.93                             170     0.0 5   24 197 
 BAR2 SZ I        1928 31.66        12.3 0.23                            24 197 
 BRR  HZ EP       1928 17.33                             151     0.110   74 297 
 BRR  HZ I        1928 17.75        17.7 0.12                            74 297 
 BRR  HE ES   1   1928 34.21                             151     0.3 7   74 297 
 RUS  HZ EP   2   1928 19.96                             144     0.3 5  100 178 
 RUS  HN ES   2   1928 37.67                             144    -0.6 5  100 178 
 RUS  HZ I        1928 39.73         7.1 0.25                           100 178 
 GUE  SZ EP   2   1928 21.00                             140     0.4 5  116  11 
 GRA  SZ ES   2   1928 40.79                             137     0.0 5  125  16 
 GRA  SZ I        1928 43.12         9.6 0.27                           125  16 
 OCA  SZ EP   2   1928 23.87                             129    -0.4 5  161 352 
 OCA  SZ ES   2   1928 45.93                             129    -0.5 5  161 352 
 OCA  SZ I        1928 48.87         9.2 0.28                           161 352 
 NOR  SE ES   2   1928 59.60                             118    -0.4 4  237 235 
 CHI  HZ EP   2   1928 33.81                             117     0.2 4  249 196 
 CHI  HN ES   2   1929  3.48                             117     0.3 4  249 196 
 CHI  HZ I        1929  8.83         2.5 0.65                           249 196 
                                                                                
