 2011  113 1512 36.4 L   6.805 -73.156138.3  RSN 11 0.4 2.3LRSN                1
 GAP=157        0.91       4.4     7.0  7.6 -0.1417E+02  0.2386E+02  0.1000E+01E
 Epicentro: LOS SANTOS - SANTANDER                                             3
 ACTION:UP  11-02-08 08:40 OP:pat  STATUS:               ID:20110113151236 L   I
 2011-01-13-1511-02S.COL___135                                                 6
 STAT SP IPHASW D HRMM SECON CODA AMPLIT PERI AZIMU VELO SNR AR TRES W  DIS CAZ7
 BTL  SZ EP       1512 54.49                             173    -0.510   18 315 
 BTL  SZ ES   1   1513  9.71                             173     0.2 7   18 315 
 BAR2 SZ EP       1512 55.16                             170     0.010   24 187 
 BAR2 SZ I        1513 11.32        53.9 0.52                            24 187 
 RUS  HZ EP   1   1512 59.25                             142    -0.2 7  101 175 
 RUS  HN ES   2   1513 17.54                             142     0.1 5  101 175 
 RUS  HZ I        1513 19.58        18.4 0.47                           101 175 
 GRA  SZ EP       1513  1.80                             135     0.910  126  18 
 GRA  SZ ES   1   1513 19.97                             135    -0.1 7  126  18 
 GRA  SZ I        1513 23.77        22.5 0.26                           126  18 
 OCA  SZ EP       1513  3.58                             128    -0.5 9  160 354 
 OCA  SZ ES   2   1513 25.57                             128    -0.1 5  160 354 
 OCA  SZ I        1513 28.29        33.3 0.41                           160 354 
 NOR  SZ EP       1513 11.66                             117     0.0 8  234 234 
 NOR  SN ES   2   1513 38.60                             117    -0.5 4  234 234 
 CHI  HZ EP       1513 13.80                             115     0.1 8  249 195 
 HEL  HZ EP       1513 16.32                             113     0.2 8  271 256 
 HEL  HN ES   2   1513 47.51                             113     0.4 4  271 256 
 HEL  HZ I        1513 53.40         9.5 0.22                           271 256 
 GUY  SZ EP   2   1513 19.72                             111     0.1 4  301 235 
 GUY  SZ I        1514  3.56        18.6 0.67                           301 235 
 RREF HZ EP       1513 21.89                             109    -0.3 7  321 229 
 RREF HN ES   1   1513 58.49                             109     0.6 5  321 229 
 RREF HZ I        1514  4.95        17.2 0.48                           321 229 
 DBB  SZ EP       1513 23.29                             108    -0.1 7  338 274 
                                                                                
