 2011 1113 1300 37.7 L   7.247 -73.137133.2  RSN  4 0.2 1.4LRSN                1
 GAP=182        0.48       4.5     4.5  6.4 -0.2518E+01 -0.4767E+00  0.8514E+01E
 Epicentro: RIONEGRO - SANTANDER                                               3
 ACTION:UPD 12-07-13 16:10 OP:ep   STATUS:               ID:20111113130037 L   I
 2011-11-13-1258-56S.COL___179                                                 6
 STAT SP IPHASW D HRMM SECON CODA AMPLIT PERI AZIMU VELO AIN AR TRES W  DIS CAZ7
 PAM  SZ EP   1   13 0 57.17                             159    0.09 7 49.3  78 
 PAM  SN ES   1   13 1 12.07                             159   -0.11 7 49.3  78 
 PAM  SZ I        13 1 13.82         3.2 0.24                          49.3  78 
 BRR  HZ EP   1   13 0 56.93                             152   -0.25 7 65.4 256 
 BRR  HZ I        13 0 57.31        11.9 0.17                          65.4 256 
 BRR  HN ES   1   13 1 12.43                             152    0.07 7 65.4 256 
 BAR2 SZ EP   1   13 0 58.34                             150    0.39 7 72.6 184 
 RUS  HZ EP   2   13 1  4.14                             129   -0.39 5  150 178 
 RUS  HN ES   1   13 1 25.40                             129   -0.05 7  150 178 
                                                                                
