 2012 1213 1617 15.3 L   6.795 -73.165146.6  RSN  9 0.4 2.1LRSN                1
 GAP=134        0.69       3.3     4.4  5.2 -0.4535E+00  0.7037E+01  0.2260E+00E
 Epicentro: LOS SANTOS - SANTANDER                                             3
 ACTION:UPD 13-01-04 14:27 OP:ep   STATUS:               ID:20121213161715 L   I
 2012-12-13-1610-00M.COL___242                                                 6
 STAT SP IPHASW D HRMM SECON CODA AMPLIT PERI AZIMU VELO AIN AR TRES W  DIS CAZ7
 BAR2 SZ EP   1   1617 35.02                             171    0.05 7 22.5 185 
 BAR2 SZ ES   1   1617 50.25                             171   -0.10 7 22.5 185 
 BAR2 SZ I        1617 51.73        47.8 0.38                          22.5 185 
 GIR2 SZ EP   1   1617 35.08                             167    0.04 7 31.6 354 
 GIR2 SZ ES   1   1617 50.97                             167    0.50 7 31.6 354 
 GIR2 SZ I        1617 51.86        13.9 0.14                          31.6 354 
 BRR  HZ EP   1   1617 36.87                             153    0.46 7 69.7 300 
 BRR  HN ES   2   1617 53.41                             153    0.50 5 69.7 300 
 PAM  SZ EP   1   1617 37.77                             150    0.10 7 79.1  40 
 PAM  SN ES   1   1617 55.10                             150   -0.05 7 79.1  40 
 PAM  SZ I        1617 57.21        11.3 0.56                          79.1  40 
 RUS  HZ EP   1   1617 38.89                             144   -0.17 7  100 175 
 RUS  HN ES   1   1617 57.11                             144   -0.52 7  100 175 
 RUS  HZ I        1617 58.85        13.3 0.26                           100 175 
 PTB  HZ EP   1   1617 41.74                             133   -0.36 7  146 259 
 PTB  HN ES   1   1618  2.74                             133   -0.30 7  146 259 
 PTB  HZ I        1618  8.71        24.3 0.40                           146 259 
 ZAR  HE ES   2   1618 13.24                             123    0.44 4  202 293 
 SML  HZ EP   1   1617 51.74                             118   -0.15 6  243 336 
 SML  HN ES   1   1618 19.75                             118   -0.72 6  243 336 
 PRA  HZ EP   1   1618  9.46                             107    0.83 4  390 209 
 PRA  HN ES   1   1618 50.79                             107    0.53 4  390 209 
 PRA  HZ I        1618 54.60         4.6 0.42                           390 209 
                                                                                
