 2017  213 1027 23.1 L   6.872 -73.239120.2  RSN  5 0.1 1.5LRSN                1
 GAP=232        0.60       5.4     5.2  4.4  0.2194E+02 -0.3418E+01 -0.5550E+01E
 Epicentro: BETULIA - SANTANDER                                                3
 ACTION:UPD 17-05-24 15:36 OP:jn   STATUS:               ID:20170213102723 L   I
 OLDACT:DUP 17-02-13 22:18 OP:cog  STATUS:               ID:20170213101745d    3
 2017-02-13-1018-00M.COL___343                                                 6
 STAT SP IPHASW D HRMM SECON CODA AMPLIT PERI AZIMU VELO AIN AR TRES W  DIS CAZ7
 BAR2 EZ EP       1027 39.83                             164   -0.0910 31.6 168 
 BAR2 EZ ES       1027 53.26                             164    0.2410 31.6 168 
 BAR2 EZ I        1027 54.37        18.6 0.26            161           31.6 168 
 BRR  HN ES       1027 54.39                             152   -0.1510 58.3 296 
 PAM  HZ EP   4   1027 50.96                             146    8.17 0 78.9  49 
 PAM  HN ES   4   1027 54.92                             146   -3.21 0 78.9  49 
 RUS  HZ EP       1027 45.30                             135    0.0810  110 171 
 RUS  HN ES       1028  2.36                             135   -0.1010  110 171 
 PTB  HZ EP   9   1027 45.30                             127   -2.02 0  139 255 
 PTB  HN ES       1028  4.70                                    0.52 9  139 255 
 PTB  HZ I        1028  8.74         2.3 0.42            126            139 255 
 ZAR  HZ EP       1027 52.62                             118   -0.05 9  191 291 
 ZAR  HN ES       1028 15.79                             118    0.07 9  191 291 
                                                                                
