 2012  413 1428 56.6 L   6.814 -73.187148.2  RSN  5 0.3 1.7LRSN                1
 GAP=136        0.74       8.8     5.1  9.1 -0.1419E+02  0.1750E+02 -0.1520E+02E
 Epicentro: ZAPATOCA - SANTANDER                                               3
 ACTION:UPD 12-07-05 11:53 OP:tino STATUS:               ID:20120413142856 L   I
 2012-04-13-1427-59S.COL___184                                                 6
 STAT SP IPHASW D HRMM SECON CODA AMPLIT PERI AZIMU VELO AIN AR TRES W  DIS CAZ7
 BAR2 SZ EP   1   1429 16.29                             170    -0.2 7   25 179 
 BAR2 SZ ES   1   1429 32.36                             170     0.3 7   25 179 
 BAR2 SZ I        1429 32.54        16.0 0.35                            25 179 
 BRR  HZ EP       1429 18.13                             154     0.410   66 299 
 PAM  SZ EP   1   1429 19.13                             151     0.0 7   79  43 
 PAM  SZ I        1429 19.29         3.3 0.21                            79  43 
 PAM  SE ES   1   1429 36.40                             151    -0.4 7   79  43 
 PTB  HZ EP   1   1429 23.14                             133    -0.2 7  144 258 
 PTB  HN ES   1   1429 43.94                             133    -0.3 7  144 258 
 PTB  HZ I        1429 50.21         8.4 0.42                           144 258 
 ZAR  HN ES   1   1429 53.76                             123     0.0 6  199 292 
 ZAR  HZ I        1430  0.04         6.7 0.41                           199 292 
                                                                                
