 2016 1113 1234 39.1 L   6.766 -73.125144.3  RSN 19 0.4 2.8LRSN                1
 GAP= 96        0.81       3.2     2.4  4.8 -0.5426E+00  0.1450E+01  0.6105E+01E
 Epicentro: LOS SANTOS - SANTANDER                                             3
 OLDACT:UP  16-11-14 00:03 OP:dnl  STATUS:               ID:20161113122744     3
 OLDACT:UP  16-11-14 00:02 OP:dnl  STATUS:               ID:20161113122744     3
 OLDACT:UP  16-11-14 00:01 OP:dnl  STATUS:               ID:20161113122744     3
 OLDACT:UP  16-11-14 00:00 OP:dnl  STATUS:               ID:20161113122744     3
 OLDACT:REG 16-11-13 20:43 OP:dnl  STATUS:               ID:20161113122744     3
 ACTION:UPD 17-10-26 21:07 OP:lp   STATUS:               ID:20161113123439 L   I
 OLDACT:UP  16-11-14 00:04 OP:dnl  STATUS:               ID:20161113122744     3
 2016-11-13-1228-00M.COL___340                                                 6
 STAT SP IPHASW D HRMM SECON CODA AMPLIT PERI AZIMU VELO AIN AR TRES W  DIS CAZ7
 BAR2 EZ IP     C 1234 58.58                             172    0.0510 20.2 198 
 BAR2 EZ ES       1235 13.25                             172   -0.4110 20.2 198 
 BAR2 EZ I        1235 14.77       101.6 0.22            165           20.2 198 
 BRR  HZ IP     C 1235  0.51                             151    0.1610 75.0 300 
 BRR  HE ES       1235 17.57                             151    0.6810 75.0 300 
 BRR  HZ I        1235 21.85       123.9 0.46            153           75.0 300 
 PAM  EZ IP     D 1235  1.43                             150    0.1410 78.9  37 
 PAM  EN ES       1235 18.18                             150   -0.3910 78.9  37 
 PAM  EZ I        1235 19.92        59.4 0.20            160           78.9  37 
 PTB  HZ EP   2   1235  5.65                             131   -0.48 5  149 260 
 PTB  HN ES       1235 26.96                             131   -0.22 9  149 260 
 PTB  HZ I        1235 29.50        98.0 0.24            132            149 260 
 TAM  HZ IP     C 1235  6.91                             131    0.50 9  152 104 
 TAM  HE ES       1235 27.74                             131    0.06 9  152 104 
 TAM  HZ I        1235 29.36        28.6 0.48            136            152 104 
 ZAR  HZ EP       1235 11.74                             121   -0.11 8  208 293 
 ZAR  HN ES       1235 37.35                             121   -0.02 8  208 293 
 ZAR  HZ I        1235 43.52       101.3 0.30            125            208 293 
 NOR  HZ EP   2   1235 13.87                             118   -0.88 4  234 236 
 NOR  HN ES       1235 42.44                             118   -0.09 8  234 236 
 NOR  HZ I        1235 48.43        47.5 0.32            119            234 236 
 CHI  HZ EP   2   1235 16.89                             117    0.46 4  246 196 
 CHI  HE ES       1235 45.64                             117    0.12 8  246 196 
 CHI  HZ I        1235 49.21        25.1 0.34            118            246 196 
 ROSC BZ EP   4   1235 18.82                             116    1.86 0  251 212 
 ROSC BN ES   4   1235 48.05                             116    1.59 0  251 212 
 ROSC BZ I        1235 53.33        34.3 0.30            118            251 212 
 URE  HZ EP   2   1235 19.23                             113   -1.30 4  287 292 
 URE  HE ES   4   1235 50.77                             113   -2.04 0  287 292 
 URE  HZ I        1235 54.66        46.2 0.36            116            287 292 
 PTGC HZ EP       1235 21.75                             111   -0.70 7  304 159 
 PTGC HN ES   4   1235 54.47                             111   -1.75 0  304 159 
 PTGC HZ I        1235 56.15        26.6 0.44            114            304 159 
 ELA  HZ EP   4   1235 27.09                             110    1.24 0  328 230 
 ELA  HN ES       1236  2.28                             110   -0.00 7  328 230 
 ELA  HZ I        1236 10.31        24.3 0.48            112            328 230 
 LL6C HZ EP   4   1235  4.09                             110   -21.1 0  329 357 
 LL6C HN ES   4   1235 37.45                             110   -23.7 0  329 357 
 LL6C HZ I        1235 41.85        12.3 0.44            114            329 357 
 PRA  HZ EP   2   1235 32.64                             106    0.28 3  390 210 
 PRA  HN ES       1236 14.24                             106    0.36 6  390 210 
 PRA  HZ I        1236 20.43        31.3 0.34            108            390 210 
 ORTC HZ EP   4   1235 34.00                             106    1.18 0  394 217 
 ORTC HN ES   4   1236 15.77                             106    1.09 0  394 217 
 ORTC HZ I        1236 21.65        17.8 0.42            108            394 217 
 PAL  HZ EP       1235 34.63                             106    0.37 6  406 240 
 PAL  HN ES   4   1236 15.98                             106   -1.27 0  406 240 
 PAL  HZ I        1236 21.84        15.1 0.44            107            406 240 
 SJC  HZ EP   4   1235 33.04                             105   -2.13 0  414 327 
 SJC  HE ES   4   1236 14.56                             105   -4.31 0  414 327 
 SJC  HZ I        1236 18.39        19.7 0.50            108            414 327 
 CRJC HZ EP   4   1235 39.58                             103   -2.45 0  471   3 
 CRJC HN ES   4   1236 25.30                             103   -5.78 0  471   3 
 CRJC HZ I        1236 31.28        16.3 0.48            106            471   3 
 URI  HZ EP   4   1235 48.99                             100   -3.50 0  560  13 
 URI  HE ES   4   1236 44.18                             100   -5.52 0  560  13 
 URI  HZ I        1236 47.56         4.1 0.46            103            560  13 
                                                                                
