 2011  513 1033 25.6 L   6.780 -73.104147.3  RSN  5 0.1 1.3LRSN                1
 GAP=161        0.38       3.0     6.2  5.5 -0.1800E+01 -0.1072E+02 -0.3123E+01E
 Epicentro: LOS SANTOS - SANTANDER                                             3
 ACTION:UP  11-06-29 08:53 OP:tino STATUS:               ID:20110513103325 L   I
 2011-05-13-1030-57S.COL___138                                                 6
 STAT SP IPHASW D HRMM SECON CODA AMPLIT PERI AZIMU VELO SNR AR TRES W  DIS CAZ7
 BAR2 SZ ES   2   1034  1.00                             171     0.2 5   22 203 
 BAR2 SZ I        1034  2.13         5.1 0.58                            22 203 
 BRR  HZ EP   1   1033 47.22                             151     0.0 7   76 298 
 BRR  HZ I        1033 56.83         8.1 0.38                            76 298 
 BRR  HN ES   2   1034  3.91                             151    -0.1 5   76 298 
 RUS  HZ EP   1   1033 49.24                             145     0.0 7   98 179 
 RUS  HE ES   2   1034  7.69                             145    -0.1 5   98 179 
 RUS  HZ I        1034  8.96         1.1 0.36                            98 179 
 BRI  SZ EP   1   1033 49.85                             142     0.2 7  109  18 
 BRI  SZ I        1034 10.04         3.5 0.99                           109  18 
 GRA  SZ EP   1   1033 50.86                             137    -0.2 7  127  15 
 GRA  SZ ES   2   1034 10.72                             137    -0.1 5  127  15 
 GRA  SZ I        1034 11.67         3.3 0.42                           127  15 
                                                                                
