 2015  813 1717 33.4 L   6.798 -73.191138.7  RSN 16 0.4 2.6LRSN                1
 GAP=131        0.90       2.2     3.2  4.5 -0.1115E+01  0.5946E+01  0.3481E+00E
 Epicentro: ZAPATOCA - SANTANDER                                               3
 ACTION:UPD 15-09-15 23:02 OP:cam  STATUS:               ID:20150813171733 L   I
 OLDACT:REG 15-08-13 23:03 OP:ar   STATUS:               ID:20150813170747     3
 2015-08-13-1707-47M.COL___343                                                 6
 STAT SP IPHASW D HRMM SECON CODA AMPLIT PERI AZIMU VELO AIN AR TRES W  DIS CAZ7
 BAR2 EZ EP       1717 52.20                             170   -0.0210 22.8 178 
 BAR2 EZ ES       1718  6.93                             170    0.0710 22.8 178 
 BAR2 EZ I        1718  8.10        77.3 0.18            169           22.8 178 
 BRR  HZ EP     D 1717 54.19                             153    0.6010 66.9 301 
 BRR  HN ES       1718  9.86                             153    0.5510 66.9 301 
 BRR  HZ I        1718 12.09        76.5 0.14            150           66.9 301 
 PAM  EZ EP     D 1717 55.12                             148   -0.0110 80.8  42 
 PAM  EN ES       1718 12.14                             148    0.0910 80.8  42 
 PAM  EZ I        1718 15.81        26.6 0.38            154           80.8  42 
 RUS  HZ EP       1717 56.70                             142    0.1710  101 173 
 RUS  HE ES       1718 14.29                             142   -0.2410  101 173 
 RUS  HZ I        1718 15.35        35.1 0.42            145            101 173 
 SPBC HZ EP       1718  1.18                             128    0.09 9  160 218 
 SPBC HN ES       1718 22.14                             128   -0.52 9  160 218 
 SPBC HZ I        1718 28.93        49.2 0.44            129            160 218 
 OCA  HZ EP       1718  0.83                             128   -0.36 9  160 355 
 OCA  HN ES       1718 22.43                             128   -0.40 9  160 355 
 OCA  HZ I        1718 26.90       126.4 0.20            130            160 355 
 ZAR  HZ EP       1718  5.15                             121    0.19 9  200 293 
 ZAR  HN ES       1718 29.87                             121    0.32 9  200 293 
 ZAR  HZ I        1718 36.23        53.8 0.22            122            200 293 
 NOR  HZ EP       1718  8.95                             117    0.63 8  230 234 
 NOR  HN ES       1718 35.56                             117    0.04 8  230 234 
 NOR  HZ I        1718 44.30        28.0 0.18            118            230 234 
 SML  HZ EP       1718  8.82                             116   -0.66 8  242 336 
 SML  HE ES       1718 37.03                             116   -0.56 8  242 336 
 SML  HZ I        1718 41.11        55.4 0.20            118            242 336 
 CHI  HZ EP       1718 10.56                             116   -0.04 8  247 194 
 CHI  HE ES       1718 39.18                             116   -0.40 8  247 194 
 CHI  HZ I        1718 46.20        12.9 0.22            118            247 194 
 HEL  HZ EP       1718 13.05                             114    0.29 8  267 256 
 HEL  HE ES       1718 43.07                             114   -0.35 8  267 256 
 HEL  HZ I        1718 51.08        24.9 0.56            115            267 256 
 URE  HZ EP   4   1718 13.31                             113   -0.36 0  279 292 
 URE  HN ES   4   1718 44.71                             113   -0.33 0  279 292 
 URE  HZ I        1718 56.32        32.0 0.34            114            279 292 
 GUY2CHZ EP       1718 16.85                             111    0.60 7  297 234 
 GUY2CHE ES       1718 48.88                             111   -0.77 7  297 234 
 GUY2CHZ I        1718 56.88        15.7 0.36                           297 234 
 DBB  SZ EP       1718 20.27                             108    0.20 7  334 274 
 DBB  SZ ES       1718 56.28                             108   -0.15 7  334 274 
 DBB  SZ I        1719  0.39        53.6 0.46            110            334 274 
 TOL  SZ EP       1718 21.50                             108    0.50 7  340 224 
 TOL  SE ES       1718 57.83                             108   -0.26 7  340 224 
 TOL  SZ I        1719  5.23        12.3 0.34            110            340 224 
 SJC  HZ EP   4   1718 26.46                             105   -2.02 0  407 328 
 SJC  HE ES   4   1719  7.98                             105   -3.44 0  407 328 
 SJC  HZ I        1719 11.33        11.2 0.34            106            407 328 
                                                                                
