 2014 1213 1057 54.3 L   6.709 -73.147146.0  RSN  8 0.5 1.7LRSN                1
 GAP=140        1.27       4.6     5.6  8.0  0.1335E+01  0.1104E+02 -0.7365E+01E
 Epicentro: VILLANUEVA - SANTANDER                                             3
 ACTION:UPD 15-02-10 17:03 OP:nd   STATUS:               ID:20141213105754 L   I
 OLDACT:REG 14-12-13 20:22 OP:fm   STATUS:               ID:20141213104748     3
 2014-12-13-1047-48M.COL___294                                                 6
 STAT SP IPHASW D HRMM SECON CODA AMPLIT PERI AZIMU VELO AIN AR TRES W  DIS CAZ7
 BAR2 EZ EP       1058 14.58                             174    0.7910 13.5 197 
 BAR2 EZ ES       1058 29.42                             174    0.4210 13.5 197 
 BAR2 EZ I        1058 30.95        12.3 0.20            174           13.5 197 
 BRR  HZ EP       1058 16.37                             151    0.6110 76.4 305 
 BRR  HN ES       1058 32.39                             151   -0.1210 76.4 305 
 BRR  HZ I        1058 41.84         7.7 0.58            150           76.4 305 
 PAM  SZ EP       1058 17.34                             148    0.3110 85.5  35 
 PAM  SN ES       1058 34.48                             148   -0.2810 85.5  35 
 PAM  SZ I        1058 38.70         3.2 0.36            152           85.5  35 
 RUS  HZ EP       1058 17.60                             147    0.2310 90.6 176 
 RUS  HE ES       1058 34.54                             147   -0.8310 90.6 176 
 RUS  HZ I        1058 38.01         5.1 0.26            153           90.6 176 
 PTB  HZ EP       1058 20.42                             132   -0.70 9  146 263 
 PTB  HN ES       1058 41.83                             132   -0.21 9  146 263 
 PTB  HZ I        1058 47.23         6.0 0.12            135            146 263 
 OCA  HN ES       1058 46.12                             128   -0.28 9  170 354 
 OCA  HZ I        1058 49.85         6.1 0.18            131            170 354 
 ZAR  HZ EP       1058 27.20                             122    0.05 8  208 295 
 ZAR  HE ES       1058 53.45                             122    0.68 8  208 295 
 ZAR  HZ I        1058 58.65         7.6 0.28            124            208 295 
 SML  HZ EP       1058 31.24                             116   -0.68 8  253 336 
 SML  HN ES       1059  0.91                             116   -0.35 8  253 336 
 SML  HZ I        1059  7.05         8.5 0.24            120            253 336 
                                                                                
