 2010 1013 1418  6.1 L   6.760 -73.085139.3  RSN  6 0.4 2.0LRSN                1
 GAP=196        0.91       7.6     9.3  9.1 -0.4384E+02 -0.7992E+01 -0.4157E+01E
 Epicentro: LOS SANTOS - SANTANDER                                             3
 ACTION:UP  11-02-18 11:09 OP:tino STATUS:               ID:20101013141806 L   I
 2010-10-13-1416-29S.COL___124                                                 6
 STAT SP IPHASW D HRMM SECON CODA AMPLIT PERI AZIMU VELO SNR AR TRES W  DIS CAZ7
 BAR2 SZ EP       1418 25.09                             171     0.210   22 210 
 BAR2 SZ ES   1   1418 39.29                             171    -0.3 7   22 210 
 BAR2 SZ I        1418 40.91        23.7 0.26                            22 210 
 BTL  SZ EP       1418 25.37                             169     0.410   27 311 
 BRR  HZ IP     C 1418 26.95                             149    -0.110   79 299 
 BRR  HZ I        1418 27.40        28.8 0.11                            79 299 
 BRR  HE ES   1   1418 43.87                             149     0.5 7   79 299 
 GUE  SZ EP       1418 30.43                             137     0.010  120   9 
 GRA  SZ EP       1418 31.03                             135     0.110  128  14 
 GRA  SZ ES   1   1418 49.71                             135    -0.7 7  128  14 
 GRA  SZ I        1418 51.72        11.0 0.72                           128  14 
 NOR  SN ES   1   1419  8.95                             117    -0.7 6  238 236 
                                                                                
