 2012  813 1650 24.2 L   6.777 -73.167147.8  RSN  5 0.2 1.7LRSN                1
 GAP=233        0.51       6.4     4.7  7.0  0.1714E+02 -0.2362E+01  0.8758E+01E
 Epicentro: LOS SANTOS - SANTANDER                                             3
 ACTION:UPD 12-09-10 11:56 OP:ep   STATUS:               ID:20120813165024 L   I
 2012-08-13-1650-00M.COL___217                                                 6
 STAT SP IPHASW D HRMM SECON CODA AMPLIT PERI AZIMU VELO AIN AR TRES W  DIS CAZ7
 BAR2 SZ EP       1650 43.71                             172   -0.2910 20.5 185 
 BAR2 SZ I        1650 44.27         9.6 0.38                          20.5 185 
 BRR  HZ EP   1   1650 45.81                             153    0.31 7 70.4 301 
 BRR  HZ I        1650 46.46         8.8 0.35                          70.4 301 
 BRR  HE ES   1   1651  2.15                             153    0.02 7 70.4 301 
 RUS  HZ EP       1650 48.17                             145    0.2110 98.3 175 
 PTB  HZ EP   1   1650 50.75                             133   -0.31 7  145 260 
 PTB  HZ I        1651  7.11        10.7 0.85                           145 260 
 PTB  HE ES   1   1651 12.06                             133    0.04 7  145 260 
 ZAR  HZ EP   1   1650 56.69                             123    0.06 6  203 293 
 ZAR  HN ES   1   1651 21.93                             123   -0.01 6  203 293 
 ZAR  HZ I        1651 27.07         4.7 0.30                           203 293 
                                                                                
