 2014  413 1032 19.6 L   6.802 -73.168147.7  RSN  9 0.3 1.7LRSN                1
 GAP=134        0.71       2.8     3.2  5.6 -0.2129E+01  0.6354E+01 -0.1985E+01E
 Epicentro: LOS SANTOS - SANTANDER                                             3
 ACTION:UPD 14-05-13 23:08 OP:nd   STATUS:               ID:20140413103219 L   I
 OLDACT:UP  14-04-13 22:47 OP:cam  STATUS:               ID:20140413102817     3
 OLDACT:REG 14-04-13 22:22 OP:cam  STATUS:               ID:20140413102817     3
 2014-04-13-1028-17M.COL___263                                                 6
 STAT SP IPHASW D HRMM SECON CODA AMPLIT PERI AZIMU VELO AIN AR TRES W  DIS CAZ7
 PAM  SZ EP       1032 42.15                             150    0.0710 78.8  41 
 PAM  SN ES       1032 59.99                             150    0.3510 78.8  41 
 PAM  SZ I        1033  1.40         9.5 0.56            152           78.8  41 
 RUS  HE ES       1033  1.77                             144   -0.4710  101 175 
 RUS  HZ I        1033  3.09         5.2 0.34            144            101 175 
 PTB  HZ EP       1032 46.19                             133   -0.30 9  145 259 
 PTB  HN ES       1033  7.20                             133   -0.28 9  145 259 
 PTB  HZ I        1033 10.19         5.0 0.10            132            145 259 
 SPBC HZ EP       1032 48.23                             130    0.14 9  162 218 
 SPBC HN ES       1033 10.35                             130    0.01 9  162 218 
 SPBC HZ I        1033 12.98        11.7 0.22            129            162 218 
 ZAR  HZ EP       1032 51.96                             123    0.05 9  202 292 
 ZAR  HE ES       1033 17.25                             123    0.12 9  202 292 
 ZAR  HZ I        1033 21.24         3.3 0.10            123            202 292 
 NOR  HN ES       1033 23.63                             119    0.61 8  233 234 
 NOR  HZ I        1033 26.82         4.7 0.28            119            233 234 
 SML  HZ EP   1   1032 55.86                             118   -0.32 6  243 336 
 SML  HE ES   2   1033 24.19                             118   -0.55 4  243 336 
 SML  HZ I        1033 29.37         7.9 0.10            118            243 336 
 CHI  HZ EP   1   1032 57.38                             117    0.05 6  248 195 
 CHI  HN ES   4   1033 27.18                             117    0.40 0  248 195 
 CHI  HZ I        1033 36.56         2.3 0.32            117            248 195 
 HEL  HZ EP   4   1033  2.50                             115    2.87 0  270 256 
 HEL  HN ES   4   1033 32.47                             115    1.60 0  270 256 
 PRA  HZ EP   1   1033 13.52                             107    0.48 4  391 209 
                                                                                
