 2010  913 1110 34.3 L   6.871 -73.134152.3  RSN  4 0.4 1.7LRSN                1
 GAP=172        0.85      11.1    15.7 13.4 -0.7108E+02 -0.5154E+02 -0.2230E+02E
 Epicentro: LOS SANTOS - SANTANDER                                             3
 ACTION:UP  11-02-18 11:02 OP:tino STATUS:               ID:20100913111034 L   I
 2010-09-13-1106-43S.COL___120                                                 6
 STAT SP IPHASW D HRMM SECON CODA AMPLIT PERI AZIMU VELO SNR AR TRES W  DIS CAZ7
 BAR2 SZ EP   1   1110 55.08                             168     0.1 7   31 190 
 BAR2 SZ ES   2   1111 10.81                             168    -0.2 5   31 190 
 BAR2 SZ I        1111 12.19        16.0 0.48                            31 190 
 BRR  HZ EP   1   1110 56.09                             154     0.0 7   69 292 
 BRR  HZ I        1110 57.11        15.5 0.13                            69 292 
 BRR  HN ES   2   1111 13.17                             154     0.1 5   69 292 
 GUE  SZ EP   1   1110 58.38                             143    -0.7 7  109  12 
 GUE  SZ I        1110 59.28         2.5 0.07                           109  12 
 GRA  SZ EP   1   1111  0.10                             140     0.5 7  118  18 
 GRA  SZ ES   2   1111 19.31                             140     0.1 5  118  18 
 GRA  SZ I        1111 19.96         5.1 0.37                           118  18 
                                                                                
