 2010  613 1523 24.5 L   6.794 -73.207139.7  RSN  5 0.5 1.9LRSN                1
 GAP=181        0.85       9.5    40.4 12.5 -0.3249E+03  0.2379E+03 -0.4888E+02E
 Epicentro: ZAPATOCA - SANTANDER                                               3
 ACTION:UP  10-08-24 10:10 OP:vdl  STATUS:               ID:20100613152324 L   I
 2010-06-13-1519-35S.COL___114                                                 6
 STAT SP IPHASW D HRMM SECON CODA AMPLIT PERI AZIMU VELO SNR AR TRES W  DIS CAZ7
 BAR2 SZ EP   1   1523 43.21                             170    -0.2 7   23 174 
 BAR2 SZ ES   2   1523 57.66                             170    -0.5 5   23 174 
 RUS  HZ EP   1   1523 47.40                             143    -0.3 7  101 172 
 RUS  HN ES   2   1524  6.32                             143     0.6 5  101 172 
 RUS  HZ I        1524  7.10        12.0 0.20                           101 172 
 GUE  SZ EP   1   1523 49.60                             137     0.7 7  119  15 
 GRA  SZ EP   1   1523 48.97                             135    -0.5 7  129  20 
 GRA  SZ ES   2   1524  9.08                             135     0.2 5  129  20 
 CHI  HZ EP   1   1524  1.44                             116    -0.2 6  246 194 
 CHI  HE ES   2   1524 31.31                             116     0.7 4  246 194 
 CHI  HZ I        1524 34.09         5.8 0.42                           246 194 
                                                                                
