 2014  813 1404  0.4 L   6.779 -73.079149.9  RSN 13 0.3 1.9LRSN                1
 GAP=206        0.76       3.2     4.3  4.8  0.1553E+01  0.1590E+01  0.1535E+01E
 Epicentro: LOS SANTOS - SANTANDER                                             3
 ACTION:UPD 14-09-15 21:49 OP:nd   STATUS:               ID:20140813140400 L   I
 OLDACT:REG 14-08-13 20:39 OP:spq  STATUS:               ID:20140813135820     3
 2014-08-13-1358-20M.COL___263                                                 6
 STAT SP IPHASW D HRMM SECON CODA AMPLIT PERI AZIMU VELO AIN AR TRES W  DIS CAZ7
 BAR2 SZ EP       14 4 20.60                             171    0.0410 23.6 209 
 BAR2 SZ ES   1   14 4 36.29                             171    0.02 7 23.6 209 
 BAR2 SZ I        14 4 38.30        11.0 0.28            165           23.6 209 
 BRR  HZ EP       14 4 22.50                             151    0.0410 78.8 297 
 BRR  HE ES       14 4 39.89                             151    0.2410 78.8 297 
 BRR  HZ I        14 4 40.02        15.8 0.37            147           78.8 297 
 RUS  HZ EP   1   14 4 24.24                             145   -0.17 7 98.0 180 
 RUS  HE ES   1   14 4 42.99                             145   -0.12 7 98.0 180 
 RUS  HZ I        14 4 44.64         4.3 0.39            144           98.0 180 
 PTB  HZ EP       14 4 27.64                             132   -0.71 9  155 260 
 PTB  HE ES       14 4 49.58                             132   -0.56 9  155 260 
 PTB  HZ I        14 4 54.54         7.3 0.17            129            155 260 
 SPBC HZ EP       14 4 29.54                             129    0.01 9  166 221 
 SPBC HE ES       14 4 52.54                             129    0.32 9  166 221 
 SPBC HZ I        14 4 56.66         9.5 0.40            127            166 221 
 ZAR  HE ES       14 4 59.96                             122   -0.12 8  212 292 
 ZAR  HZ I        14 5  6.06         3.6 0.21            121            212 292 
 NOR  HZ EP       14 4 37.22                             119    0.32 8  239 236 
 NOR  HE ES       14 5  5.64                             119    0.28 8  239 236 
 NOR  HZ I        14 5  8.28         3.8 0.34            118            239 236 
 SML  HZ EP   1   14 4 37.44                             118   -0.42 6  249 334 
 SML  HN ES   1   14 5  7.89                             118    0.83 6  249 334 
 SML  HZ I        14 5  9.24         9.8 0.09            118            249 334 
 GUY2CHZ EP   1   14 4 45.04                             113    0.28 5  306 236 
 GUY2CHE ES   4   14 5 21.32                             113    1.98 0  306 236 
 GUY2CHZ I        14 5 27.47         4.8 0.76                           306 236 
 RREF HE ES   4   14 5 27.43                             111    3.71 0  326 231 
 RREF HZ I        14 5 29.96         3.3 0.24            111            326 231 
 TOL  SZ EP       14 4 49.60                             110    0.34 6  347 226 
 TOL  SN ES   4   14 5 29.48                             110    2.13 0  347 226 
 TOL  SZ I        14 5 33.03         6.3 0.32            109            347 226 
 PRA  HZ EP       14 4 54.24                             107   -0.05 6  394 211 
 PRA  HN ES   4   14 5 37.52                             107    1.22 0  394 211 
 PRA  HZ I        14 5 43.20         2.9 0.32            107            394 211 
 SJC  HZ EP   4   14 4 54.80                             106   -2.04 0  415 326 
 SJC  HN ES   4   14 5 36.73                             106   -4.10 0  415 326 
 SJC  HZ I        14 5 40.33         1.5 0.44            106            415 326 
                                                                                
