 2016 1113 1440 33.0 L   6.819 -73.178145.2  RSN 15 0.4 2.6LRSN                1
 GAP=138        0.88       3.7     3.6  5.4 -0.2059E+01  0.5104E+01  0.6751E+01E
 Epicentro: ZAPATOCA - SANTANDER                                               3
 ACTION:UPD 17-10-26 21:07 OP:lp   STATUS:               ID:20161113144033 L   I
 OLDACT:UP  16-11-14 00:40 OP:dnl  STATUS:               ID:20161113143743     3
 OLDACT:UP  16-11-14 00:40 OP:dnl  STATUS:               ID:20161113143743     3
 OLDACT:UP  16-11-14 00:39 OP:dnl  STATUS:               ID:20161113143743     3
 OLDACT:REG 16-11-13 20:48 OP:dnl  STATUS:               ID:20161113143743     3
 2016-11-13-1438-00M.COL___343                                                 6
 STAT SP IPHASW D HRMM SECON CODA AMPLIT PERI AZIMU VELO AIN AR TRES W  DIS CAZ7
 BAR2 HZ IP     C 1440 52.53                             170   -0.0610 25.1 181 
 BAR2 HZ ES       1441  7.55                             170   -0.3310 25.1 181 
 BAR2 HZ I        1441 10.33       122.9 0.30            167           25.1 181 
 BRR  HZ IP     C 1440 54.32                             154    0.4710 67.0 298 
 BRR  HE ES     C 1441 10.54                             154    0.4210 67.0 298 
 BRR  HZ I        1441 15.34        73.3 0.32            150           67.0 298 
 PAM  HZ IP     D 1440 55.34                             150    0.1510 78.2  43 
 PAM  HN ES       1441 12.30                             150   -0.2110 78.2  43 
 PAM  HZ I        1441 14.73        84.4 0.44            156           78.2  43 
 PTB  HZ EP       1440 59.02                             132   -0.61 9  145 258 
 PTB  HN ES       1441 20.09                             132   -0.32 9  145 258 
 PTB  HZ I        1441 22.09        37.2 0.14            130            145 258 
 ZAR  HZ EP       1441  5.01                             123    0.04 9  200 292 
 ZAR  HE ES       1441 30.34                             123    0.42 9  200 292 
 ZAR  HZ I        1441 39.39        36.6 0.24            122            200 292 
 NOR  HZ EP   2   1441  8.06                             118   -0.45 4  233 234 
 NOR  HE ES       1441 36.02                             118   -0.19 8  233 234 
 NOR  HZ I        1441 39.39        33.1 0.26            118            233 234 
 CHI  HZ EP       1441 10.78                             117   -0.00 8  250 194 
 CHI  HE ES       1441 40.66                             117    0.40 8  250 194 
 CHI  HZ I        1441 49.97        17.0 0.38            117            250 194 
 ROSC BZ EP   4   1441 12.41                             116    1.33 0  253 210 
 ROSC BN ES   4   1441 43.84                             116    3.05 0  253 210 
 ROSC BZ I        1441 50.75        37.9 0.35            116            253 210 
 URE  HZ EP   2   1441 13.16                             114   -0.41 4  280 292 
 URE  HE ES   4   1441 43.79                             114   -1.43 0  280 292 
 URE  HZ I        1441 50.27        14.5 0.36            113            280 292 
 PTGC HZ EP   4   1441 15.81                             111   -1.39 0  312 158 
 PTGC HN ES   4   1441 48.14                             111   -3.54 0  312 158 
 PTGC HZ I        1441 48.97        54.5 0.32            112            312 158 
 CBOC HZ EP   4   1441 20.69                             110    1.13 0  331 252 
 CBOC HN ES       1441 55.22                             110   -0.67 7  331 252 
 CBOC HZ I        1442 13.28        10.2 0.76            110            331 252 
 ORTC HZ EP       1441 26.87                             106    0.03 6  395 216 
 ORTC HN ES       1442  9.94                             106    1.09 6  395 216 
 ORTC HZ I        1442 16.44        12.1 0.42            106            395 216 
 PAL  HZ EP   2   1441 27.51                             106   -0.39 3  404 239 
 PAL  HE ES   4   1442  9.92                             106   -0.80 0  404 239 
 PAL  HZ I        1442 15.07         8.4 0.34            106            404 239 
 SJC  HZ EP   4   1441 26.74                             106   -1.35 0  405 327 
 SJC  HE ES   4   1442  7.45                             106   -3.62 0  405 327 
 SJC  HZ I        1442 15.39         5.3 0.30            106            405 327 
 CRJC HZ EP   4   1441 32.92                             103   -2.33 0  466   4 
 CRJC HE ES   4   1442 20.54                             103   -3.27 0  466   4 
 CRJC HZ I        1442 27.17         9.2 0.18            104            466   4 
                                                                                
