 2011  413 1156 11.4 L   6.757 -73.084141.5  RSN 14 0.4 2.6LRSN                1
 GAP=106        0.86       3.9     5.6  5.9 -0.9475E+01 -0.1020E+01  0.5582E+01E
 Epicentro: LOS SANTOS - SANTANDER                                             3
 ACTION:UP  11-06-22 15:30 OP:REBC STATUS:               ID:20110413115611 L   I
 2011-04-13-1152-48S.COL___137                                                 6
 STAT SP IPHASW D HRMM SECON CODA AMPLIT PERI AZIMU VELO SNR AR TRES W  DIS CAZ7
 BAR2 SZ IP       1156 30.84                             171     0.410   21 211 
 BAR2 SZ ES   1   1156 45.14                             171    -0.2 7   21 211 
 BAR2 SZ I        1156 48.12       111.6 0.30                            21 211 
 BTL  SZ EP       1156 30.26                             169    -0.310   27 311 
 GIR2 SZ EP       1156 30.88                             164     0.110   38 341 
 PAM  SZ EP       1156 33.66                             150     0.510   77  33 
 PAM  SN ES   1   1156 50.21                             150     0.1 7   77  33 
 BRR  HZ IP     C 1156 32.68                             149     0.110   79 299 
 BRR  HZ I        1156 33.07       160.0 0.11                            79 299 
 BRR  HE ES   1   1156 49.11                             149     0.0 7   79 299 
 GRA  SZ IP       1156 36.72                             135     0.210  129  14 
 GRA  SZ ES   1   1156 55.54                             135    -0.5 7  129  14 
 GRA  SZ I        1156 57.18        67.4 0.45                           129  14 
 OCA  SZ EP   1   1156 39.47                             128    -0.5 7  166 351 
 OCA  SZ I        1157  4.09        54.1 0.39                           166 351 
 YOP  SZ EP   2   1156 40.32                             126    -0.1 4  172 155 
 YOP  SN ES   2   1157  3.30                             126     0.2 4  172 155 
 YOP  SZ I        1157  7.67        33.1 0.53                           172 155 
 NOR  SZ EP   1   1156 46.80                             117    -0.4 6  238 236 
 NOR  SN ES   2   1157 14.60                             117    -0.5 4  238 236 
 CHI  HZ EP   1   1156 48.69                             116     0.1 6  246 197 
 CHI  HE ES   1   1157 17.06                             116    -0.5 6  246 197 
 CHI  HZ I        1157 24.51        14.9 0.45                           246 197 
 HEL  HZ EP   2   1156 52.77                             113     0.8 4  278 257 
 HEL  HZ I        1157 29.32        27.8 0.51                           278 257 
 TOL  SZ EP   1   1157  0.54                             108     0.9 5  345 226 
 SDV  BZ EP       1157  0.31                             108    -0.7 6  358  49 
 SDV  BZ I        1157  1.39        10.2 0.20                           358  49 
 PRA  HZ EP   1   1157  4.37                             106    -0.3 4  391 211 
 PRA  HN ES   2   1157 46.12                             106    -0.1 3  391 211 
                                                                                
