 2012 1113 1720  0.7 L   6.757 -73.102154.2  RSN  5 0.2 1.6LRSN                1
 GAP=144        0.69       5.3     9.8  9.9  0.2900E+02 -0.6106E+02 -0.2531E+02E
 Epicentro: LOS SANTOS - SANTANDER                                             3
 ACTION:UPD 12-12-05 15:33 OP:}ep  STATUS:               ID:20121113172000 L   I
 2012-11-13-1720-00M.COL___230                                                 6
 STAT SP IPHASW D HRMM SECON CODA AMPLIT PERI AZIMU VELO AIN AR TRES W  DIS CAZ7
 BAR2 SZ EP       1720 21.06                             172   -0.1810 20.3 206 
 GIR2 SZ EP       1720 21.05                             166   -0.4410 37.0 344 
 BRR  HZ EP       1720 23.03                             152   -0.0510 77.8 300 
 BRR  HN ES       1720 40.76                             152    0.1810 77.8 300 
 PAM  SZ EP       1720 24.08                             152    0.2610 78.2  35 
 RUS  HZ EP       1720 25.22                             147    0.3210 95.6 179 
 RUS  HN ES       1720 43.73                             147   -0.0910 95.6 179 
 RUS  HN I        1720 45.37         6.4 0.42                          95.6 179 
                                                                                
