 2017  413 1840 33.6 L   6.810 -73.166132.7  RSN  5 0.2 1.0LRSN                1
 GAP=133        0.62       3.1     2.8  5.2 -0.3259E+00  0.5077E+01 -0.1368E+01E
 Epicentro: LOS SANTOS - SANTANDER                                             3
 ACTION:UPD 17-05-30 21:11 OP:jn   STATUS:               ID:20170413184033 L   I
 OLDACT:UP  17-04-14 01:00 OP:edw  STATUS:               ID:20170413183746     3
 OLDACT:REG 17-04-13 21:45 OP:edw  STATUS:               ID:20170413183746     3
 2017-04-13-1838-00M.COL___371                                                 6
 STAT SP IPHASW D HRMM SECON CODA AMPLIT PERI AZIMU VELO AIN AR TRES W  DIS CAZ7
 BAR2 EZ EP       1840 51.83                             169    0.1310 24.1 184 
 BAR2 EZ ES       1841  5.79                             169   -0.0110 24.1 184 
 PAM  EZ EP     C 1840 54.76                             148    0.2510 78.1  41 
 PAM  EN ES       1841 10.66                             148   -0.1410 78.1  41 
 PAM  EZ I        1841 13.81         3.0 0.50            150           78.1  41 
 RUS  HZ EP       1840 56.27                             141    0.0610  102 175 
 RUS  HN ES       1841 13.65                             141   -0.1710  102 175 
 RUS  HZ I        1841 16.20         1.2 0.30            143            102 175 
 PTB  HZ EP       1840 58.98                             129   -0.38 9  146 258 
 PTB  HN ES       1841 19.84                             129    0.40 9  146 258 
 PTB  HZ I        1841 21.91         1.3 0.14            132            146 258 
 ZAR  HN ES       1841 29.25                             120   -0.19 9  202 292 
                                                                                
