 2015  813 1054 42.0 L   6.797 -73.084146.8  RSN 12 0.5 2.0LRSN                1
 GAP=189        0.98       3.2     5.5  6.0 -0.3057E+01  0.1047E+02  0.3736E+00E
 Epicentro: LOS SANTOS - SANTANDER                                             3
 ACTION:UPD 15-09-15 23:01 OP:cam  STATUS:               ID:20150813105442 L   I
 OLDACT:REG 15-08-13 22:08 OP:ar   STATUS:               ID:20150813104747     3
 2015-08-13-1047-47M.COL___331                                                 6
 STAT SP IPHASW D HRMM SECON CODA AMPLIT PERI AZIMU VELO AIN AR TRES W  DIS CAZ7
 BAR2 EZ EP       1055  1.76                             170   -0.0310 25.1 206 
 BAR2 EZ ES       1055 17.04                             170   -0.1910 25.1 206 
 BAR2 EZ I        1055 18.68        15.7 0.16            166           25.1 206 
 BRR  HZ EP       1055  3.51                             151   -0.1110 77.4 296 
 BRR  HN ES       1055 21.14                             151    0.6610 77.4 296 
 BRR  HZ I        1055 25.83        13.3 0.14            146           77.4 296 
 RUS  HZ EP   2   1055  5.72                             144   -0.09 5  100 180 
 RUS  HN ES   2   1055 23.88                             144   -0.51 5  100 180 
 RUS  HZ I        1055 25.14         9.6 0.30            147            100 180 
 OCA  HN ES       1055 32.69                             130   -0.06 9  162 351 
 OCA  HZ I        1055 37.89        18.4 0.28            130            162 351 
 SPBC HZ EP       1055 10.66                             129   -0.31 9  167 221 
 SPBC HE ES       1055 33.90                             129    0.34 9  167 221 
 SPBC HZ I        1055 34.89        14.5 0.10            129            167 221 
 ZAR  HZ EP       1055 14.37                             122   -0.81 8  210 292 
 ZAR  HN ES       1055 40.42                             122   -0.63 8  210 292 
 ZAR  HZ I        1055 45.39        15.8 0.62            121            210 292 
 NOR  HE ES   2   1055 46.02                             118   -0.71 4  240 235 
 NOR  HZ I        1055 52.78         8.3 0.18            119            240 235 
 SML  HZ EP       1055 18.66                             117   -0.37 8  247 334 
 SML  HN ES       1055 48.62                             117    0.70 8  247 334 
 SML  HZ I        1055 49.45        13.3 0.32            118            247 334 
 HEL  HZ EP       1055 23.61                             114    0.62 7  279 256 
 HEL  HN ES       1055 54.78                             114   -0.17 7  279 256 
 HEL  HZ I        1056  1.50         3.6 0.34            115            279 256 
 GUY2CHZ EP   2   1055 26.75                             112    0.49 4  307 236 
 GUY2CHN ES       1056  1.14                             112    0.35 7  307 236 
 GUY2CHZ I        1056  7.17         4.3 0.58                           307 236 
 TOL  SZ EP       1055 31.76                             109    0.94 6  348 225 
 TOL  SN ES       1056  8.66                             109   -0.24 6  348 225 
 TOL  SZ I        1056 14.56         3.1 0.26            110            348 225 
 MON  HZ EP   9   1055 29.09                             109   -2.59 0  359 308 
 MON  HN ES   2   1056  8.27                                    0.43 3  359 308 
 MON  HZ I        1056 22.60         3.6 0.74            109            359 308 
                                                                                
