 2017  313 1330 19.5 L   6.743 -73.141147.0  RSN  6 0.4 1.8LRSN                1
 GAP=140        1.07       5.7     5.0  8.2  0.3585E+00  0.1000E+02 -0.4854E+01E
 Epicentro: LOS SANTOS - SANTANDER                                             3
 ACTION:UPD 17-05-25 18:40 OP:jn   STATUS:               ID:20170313133019 L   I
 OLDACT:REG 17-03-13 21:00 OP:dnl  STATUS:               ID:20170313132744     3
 2017-03-13-1328-00M.COL___403                                                 6
 STAT SP IPHASW D HRMM SECON CODA AMPLIT PERI AZIMU VELO AIN AR TRES W  DIS CAZ7
 BAR2 EZ EP       1330 39.16                             173    0.0410 17.3 195 
 BAR2 EZ ES       1330 53.91                             173   -0.5510 17.3 195 
 BAR2 EZ I        1330 55.28        21.2 0.30            173           17.3 195 
 BRR  HZ EP       1330 41.16                             151    0.2210 74.8 303 
 BRR  HE ES       1330 58.48                             151    0.7810 74.8 303 
 BRR  HZ I        1330 59.25        19.5 0.34            151           74.8 303 
 PAM  EZ IP     C 1330 42.17                             150    0.0910 82.0  36 
 PAM  EN ES       1330 59.35                             150   -0.3710 82.0  36 
 PAM  EZ I        1331  1.51         9.9 0.64            151           82.0  36 
 RUS  HZ EP   2   1330 43.09                             146    0.21 5 94.3 176 
 RUS  HN ES       1331  1.64                             146    0.4910 94.3 176 
 RUS  HZ I        1331  2.57         6.0 0.22            147           94.3 176 
 PTB  HZ EP       1330 45.92                             132   -0.55 9  147 261 
 PTB  HN ES       1331  7.04                             132   -0.50 9  147 261 
 PTB  HZ I        1331 10.17         9.0 0.18            133            147 261 
 ZAR  HZ EP   3   1330 53.06                             122    0.78 2  207 294 
 ZAR  HE ES       1331 18.07                             122    0.19 8  207 294 
 ZAR  HZ I        1331 20.16         7.3 0.30            123            207 294 
                                                                                
