 2010  513 1734 28.3 L   6.803 -72.972155.2  RSN  5 0.5 1.5LRSN                1
 GAP=178        0.93       6.6    15.7 12.6 -0.2543E+02 -0.5672E+02  0.1147E+00E
 Epicentro: CEPITA - SANTANDER                                                 3
 ACTION:UP  10-08-24 10:04 OP:vdl  STATUS:               ID:20100513173428 L   I
 2010-05-13-1730-50S.COL___105                                                 6
 STAT SP IPHASW D HRMM SECON CODA AMPLIT PERI AZIMU VELO AIN AR TRES W  DIS CAZ7
 BAR2 SZ EP   1   1734 49.11                             167    -0.1 7   33 225 
 BAR2 SZ ES   2   1735  5.55                             167    -0.1 5   33 225 
 BRR  HZ EP   1   1734 51.74                             148     0.3 7   88 292 
 BRR  HN ES   2   1735  9.19                             148    -0.3 5   88 292 
 BRR  HZ I        1735  9.89        12.0 0.41                            88 292 
 RUS  HZ EP   1   1734 53.41                             145     0.4 7  101 187 
 RUS  HN ES   2   1735 11.93                             145    -0.4 5  101 187 
 RUS  HZ I        1735 12.73         2.5 0.29                           101 187 
 GUE  SZ EP   1   1734 54.07                             142     0.4 7  114   3 
 GUE  SZ ES   2   1735 14.29                             142     0.8 5  114   3 
 GRA  SZ EP   1   1734 53.01                             140    -1.0 7  121   9 
 GRA  SZ ES   2   1735 13.95                             140    -0.1 5  121   9 
                                                                                
