 2014  713 1217  4.5 L   6.809 -73.134147.3  RSN 12 0.4 2.2LRSN                1
 GAP=138        0.93       2.9     3.6  4.9 -0.2003E+01  0.6550E+01 -0.8911E-01E
 Epicentro: LOS SANTOS - SANTANDER                                             3
 ACTION:UPD 15-03-16 20:43 OP:nd   STATUS:               ID:20140713121704 L   I
 OLDACT:UP  14-07-13 23:14 OP:cam  STATUS:               ID:20140713121000     3
 OLDACT:UP  14-07-13 23:13 OP:cam  STATUS:               ID:20140713121000     3
 OLDACT:REG 14-07-13 21:50 OP:cam  STATUS:               ID:20140713121000     3
 2014-07-13-1210-00M.COL___282                                                 6
 STAT SP IPHASW D HRMM SECON CODA AMPLIT PERI AZIMU VELO AIN AR TRES W  DIS CAZ7
 BAR2 SZ IP     C 1217 24.20                             170   -0.1010 24.6 193 
 BAR2 SZ ES       1217 39.59                             170   -0.1810 24.6 193 
 BAR2 SZ I        1217 41.92        51.3 0.28            169           24.6 193 
 BRR  HZ EP       1217 26.06                             153    0.2510 71.9 297 
 BRR  HE ES       1217 43.17                             153    0.7010 71.9 297 
 BRR  HZ I        1217 47.08        18.9 0.54            151           71.9 297 
 PAM  SZ EP       1217 27.07                             152    0.3310 75.8  39 
 PAM  SN ES       1217 44.47                             152    0.3510 75.8  39 
 PAM  SZ I        1217 46.34        23.6 0.22            156           75.8  39 
 RUS  HZ EP   1   1217 28.18                             144   -0.24 7  101 177 
 RUS  HE ES       1217 46.53                             144   -0.5910  101 177 
 RUS  HZ I        1217 47.61        10.0 0.36            147            101 177 
 PTB  HZ EP       1217 31.15                             132   -0.54 9  149 259 
 PTB  HN ES       1217 52.49                             132   -0.43 9  149 259 
 PTB  HZ I        1217 59.85        21.2 0.34            132            149 259 
 SPBC HZ EP       1217 33.22                             129   -0.01 9  165 219 
 SPBC HN ES       1217 55.78                             129    0.12 9  165 219 
 SPBC HZ I        1218  0.26        28.1 0.40            131            165 219 
 ZAR  HZ EP       1217 36.87                             123   -0.22 9  205 292 
 ZAR  HE ES       1218  2.65                             123    0.10 9  205 292 
 ZAR  HZ I        1218  5.21        10.4 0.10            124            205 292 
 NOR  HZ EP       1217 40.29                             119   -0.16 8  236 234 
 NOR  HN ES       1218  8.61                             119    0.08 8  236 234 
 NOR  HZ I        1218 12.01        13.3 0.24            120            236 234 
 SML  HZ EP       1217 40.66                             118   -0.47 8  243 335 
 SML  HN ES       1218  9.16                             118   -0.58 8  243 335 
 SML  HZ I        1218 12.74        24.2 0.24            120            243 335 
 ROSC BZ EP   4   1217 44.36                             117    1.53 0  254 211 
 HEL  HZ EP       1217 45.08                             115    0.16 8  274 256 
 HEL  HN ES       1218 16.42                             115   -0.06 8  274 256 
 HEL  HZ I        1218 22.92         8.1 0.38            116            274 256 
 GUY2CHZ EP       1217 49.28                             113    0.95 7  303 235 
 GUY2CHN ES       1218 23.12                             113    0.58 7  303 235 
 GUY2CHZ I        1218 31.08        14.0 0.76                           303 235 
 RREF HZ EP   4   1217 52.38                             111    1.52 0  323 229 
 PRA  HZ EP   2   1217 58.52                             107    0.31 3  394 210 
 PRA  HE ES       1218 40.32                             107    0.19 6  394 210 
 PRA  HZ I        1218 45.99         8.1 0.34            109            394 210 
                                                                                
