 2012 1013 1516 16.7 L   6.722 -73.079136.0  RSN  5 0.2 1.5LRSN                1
 GAP=149        0.37       2.9     4.4  5.6  0.2660E+01 -0.1010E+02 -0.4379E-01E
 Epicentro: JORDAN - SANTANDER                                                 3
 ACTION:UPD 12-11-22 17:03 OP:ep   STATUS:               ID:20121013151616 L   I
 2012-10-13-1510-00M.COL___231                                                 6
 STAT SP IPHASW D HRMM SECON CODA AMPLIT PERI AZIMU VELO AIN AR TRES W  DIS CAZ7
 BAR2 SZ EP       1516 34.92                             172   -0.1110 18.3 219 
 BAR2 SZ ES   3   1516 49.86                             172    0.51 2 18.3 219 
 BAR2 SZ I        1516 50.49         8.9 0.26                          18.3 219 
 GIR2 SZ ES   3   1516 50.15                             162   -0.07 2 41.4 342 
 PAM  SZ EP       1516 38.00                             148   -0.0310 80.1  32 
 PAM  SE ES   3   1516 54.90                             148    0.21 2 80.1  32 
 BRR  HZ EP       1516 37.50                             147    0.0510 81.9 301 
 BRR  HN ES   1   1516 53.61                             147   -0.04 7 81.9 301 
 BRR  HN I        1516 54.25        16.8 0.20                          81.9 301 
 RUS  HZ EP       1516 38.99                             144    0.1710 91.7 180 
 RUS  HZ I        1516 39.67         2.0 0.28                          91.7 180 
 RUS  HN ES   2   1516 55.73                             144   -0.37 5 91.7 180 
                                                                                
