 2014  913 1812 41.5 L   6.364 -73.577112.9  RSN 23 0.5 2.5LRSN                1
 GAP= 52        1.20       2.7     2.9  5.7 -0.1748E+01  0.4145E+01  0.1949E+01E
 Epicentro: SANTA HELENA DEL OPON - SANTANDER                                  3
 ACTION:UPD 14-10-03 23:04 OP:nd   STATUS:               ID:20140913181241 L   I
 OLDACT:REG 14-09-13 20:51 OP:spq  STATUS:               ID:20140913180818     3
 2014-09-13-1808-18M.COL___293                                                 6
 STAT SP IPHASW D HRMM SECON CODA AMPLIT PERI AZIMU VELO AIN AR TRES W  DIS CAZ7
 BAR2 SZ IP     C 1812 58.54                             154    0.2510 50.4  60 
 BAR2 SZ ES   1   1813 11.98                             154    0.61 7 50.4  60 
 RUS  HZ IP     D 1812 59.80                             144   -0.4210 75.5 134 
 RUS  HE ES       1813 14.25                             144   -0.5710 75.5 134 
 BRR  HZ EP       1813  0.14                             141    0.0210 83.5 350 
 BRR  HN ES       1813 14.99                             141    0.3510 83.5 350 
 BRR  HZ I        1813 17.67        64.9 0.14            136           83.5 350 
 SPBC HZ EP       1813  0.73                             137   -0.5210 95.9 215 
 SPBC HN ES       1813 16.43                             137   -0.2110 95.9 215 
 SPBC HZ I        1813 18.69        90.0 0.18            133           95.9 215 
 PTB  HZ IP     C 1813  0.29                             135   -1.1310 99.2 281 
 PTB  HE ES       1813 16.79                             135   -0.1610 99.2 281 
 PTB  HZ I        1813 18.62       102.1 0.14            131           99.2 281 
 PAM  SZ EP     C 1813  6.73                             124    0.36 9  145  42 
 PAM  SE ES       1813 26.49                             124    0.73 9  145  42 
 PAM  SZ I        1813 30.26        29.7 0.22            121            145  42 
 NOR  HZ EP       1813  7.30                             119   -0.90 9  168 238 
 NOR  HE ES       1813 28.67                             119   -0.35 9  168 238 
 NOR  HZ I        1813 30.22       100.8 0.19            116            168 238 
 ROSC BZ EP       1813 10.99                             116    0.27 9  188 206 
 ROSC BN ES       1813 34.53                             116    1.02 9  188 206 
 ROSC BZ I        1813 41.12        32.7 0.30            114            188 206 
 ZAR  HZ EP       1813 10.28                             116   -0.08 9  189 311 
 ZAR  HE ES       1813 32.97                             116    0.12 9  189 311 
 ZAR  HZ I        1813 37.43        89.2 0.62            113            189 311 
 CHI  HZ EP       1813 11.35                             116    0.05 9  193 185 
 CHI  HN ES       1813 34.30                             116   -0.23 9  193 185 
 CHI  HZ I        1813 40.33        12.9 0.20            113            193 185 
 TAM  HZ EP       1813 11.19                             115   -0.21 9  198  88 
 TAM  HN ES   4   1813 32.96                             115   -1.74 0  198  88 
 TAM  HZ I        1813 33.56        49.2 0.26            113            198  88 
 OCA  HZ EP   1   1813 12.48                             113   -0.34 6  209   8 
 OCA  HN ES   4   1813 39.16                             113    1.92 0  209   8 
 OCA  HZ I        1813 44.07        30.1 0.21            111            209   8 
 HEL  HZ EP       1813 13.83                             113   -0.11 8  217 265 
 HEL  HN ES       1813 39.06                             113   -0.17 8  217 265 
 HEL  HZ I        1813 41.52        24.0 0.34            110            217 265 
 GUY2CHZ EP       1813 16.27                             111    0.17 8  235 238 
 GUY2CHN ES       1813 43.77                             111    0.69 8  235 238 
 GUY2CHZ I        1813 49.87        36.1 0.26                           235 238 
 URE  HN ES   4   1813 45.57                             108   -2.69 0  265 306 
 URE  HZ I        1813 47.73        46.3 0.16            106            265 306 
 SML  HZ EP   4   1813 18.70                             107   -1.45 0  275 349 
 SML  HN ES   4   1813 52.33                             107    2.04 0  275 349 
 SML  HZ I        1813 56.47        35.7 0.22            106            275 349 
 CBOC HZ EP       1813 20.65                             107    0.26 8  275 259 
 CBOC HN ES   4   1813 49.54                             107   -1.17 0  275 259 
 CBOC HZ I        1813 51.69        12.7 0.42            106            275 259 
 TOL  SZ EP       1813 21.34                             107    0.69 7  276 225 
 TOL  SN ES       1813 52.21                             107    1.02 7  276 225 
 TOL  SZ I        1813 57.36        49.0 0.32            106            276 225 
 ANIL HZ EP       1813 22.06                             106   -0.17 7  289 224 
 ANIL HN ES       1813 53.59                             106   -0.39 7  289 224 
 ANIL HZ I        1814  0.68         5.5 0.24            105            289 224 
 DBB  SZ EP       1813 22.97                             105   -0.21 7  300 284 
 DBB  SZ ES   1   1813 56.01                             105    0.32 5  300 284 
 PRA  HZ EP   4   1813 24.38                             103   -1.96 0  327 206 
 PRA  HN ES   4   1814  3.10                             103    1.80 0  327 206 
 PRA  HZ I        1814  5.15        14.7 0.20            103            327 206 
 ORTC HZ EP       1813 26.45                             103   -0.06 7  329 214 
 ORTC HN ES       1814  2.46                             103    0.85 7  329 214 
 ORTC HZ I        1814  7.70        15.3 0.50            103            329 214 
 MON  HZ EP   4   1813 27.66                             102   -1.67 0  353 319 
 MON  HN ES   4   1814  5.34                             102   -1.29 0  353 319 
 MON  HZ I        1814  8.98         8.6 0.56            102            353 319 
                                                                                
