 2010  713 1908 43.0 L   6.786 -73.063151.2  RSN  6 0.4 2.0LRSN                1
 GAP=165        1.20       5.7    12.2 11.3  0.2722E+01 -0.6131E+02 -0.1914E+02E
 Epicentro: LOS SANTOS - SANTANDER                                             3
 ACTION:UPD 10-12-01 15:17 OP:pat  STATUS:               ID:20100713190843 L   I
 2010-07-13-1903-15S.COL___119                                                 6
 STAT SP IPHASW D HRMM SECON CODA AMPLIT PERI AZIMU VELO AIN AR TRES W  DIS CAZ7
 BAR2 SZ EP       19 9  3.28                             170    -0.110   25 212 
 BAR2 SZ ES   1   19 9 19.14                             170    -0.1 7   25 212 
 BAR2 SZ I        19 9 20.10        31.9 0.61                            25 212 
 BRR  HZ EP       19 9  5.18                             151    -0.110   80 296 
 BRR  HZ I        19 9  5.43        82.8 0.23                            80 296 
 BRR  HN ES       19 9 22.77                             151     0.110   80 296 
 RUS  HZ EP       19 9  7.38                             145     0.210   99 181 
 RUS  HN ES       19 9 25.95                             145    -0.110   99 181 
 RUS  HZ I        19 9 27.17         9.6 0.41                            99 181 
 BRI  SZ EP       19 9  7.84                             143     0.510  107  16 
 BRI  SZ I        19 9 31.05         8.1 0.53                           107  16 
 GUE  SZ EP       19 9  7.33                             141    -0.910  116   8 
 GUE  SZ I        19 9 27.83         6.4 0.11                           116   8 
 GRA  SZ EP       19 9  9.06                             138     0.410  125  13 
 GRA  SZ ES   1   19 9 28.69                             138     0.0 7  125  13 
 GRA  SZ I        19 9 31.65        12.1 0.33                           125  13 
                                                                                
