 2012  113 1628 50.3 L   6.762 -73.158145.1  RSN  8 0.4 2.2LRSN                1
 GAP=137        0.82       3.9     4.2  6.2 -0.6824E+00  0.5618E+01  0.4658E+01E
 Epicentro: LOS SANTOS - SANTANDER                                             3
 ACTION:UP  12-02-03 08:17 OP:REBC STATUS:               ID:20120113162850 L   I
 2012-01-13-1627-00S.MAN___179                                                 6
 STAT SP IPHASW D HRMM SECON CODA AMPLIT PERI AZIMU VELO SNR AR TRES W  DIS CAZ7
 BAR2 SZ EP       1629  9.66                             172    -0.110   19 188 
 BAR2 SZ ES   1   1629 24.97                             172     0.0 7   19 188 
 BAR2 SZ I        1629 27.24        34.6 0.18                            19 188 
 BRR  HZ EP       1629 11.66                             152     0.210   72 302 
 BRR  HE ES   1   1629 28.57                             152     0.7 7   72 302 
 BRR  HZ I        1629 32.27        43.1 0.23                            72 302 
 PAM  SZ EP       1629 12.49                             149    -0.210   82  38 
 PAM  SN ES   1   1629 29.83                             149    -0.3 7   82  38 
 RUS  HZ EP   1   1629 13.75                             145     0.1 7   96 175 
 RUS  HN ES   1   1629 32.07                             145     0.1 7   96 175 
 RUS  HZ I        1629 33.93        26.0 0.47                            96 175 
 PTB  HZ EP   1   1629 16.25                             132    -0.8 7  146 260 
 PTB  HN ES   1   1629 37.45                             132    -0.4 7  146 260 
 ZAR  HZ EP   1   1629 23.37                             122     0.6 6  204 293 
 ZAR  HN ES   1   1629 47.75                             122    -0.3 6  204 293 
 NOR  SZ EP   1   1629 25.82                             119     0.2 6  231 235 
 NOR  SN ES   1   1629 53.03                             119    -0.1 6  231 235 
 CHI  HZ EP       1629 27.85                             117     0.4 8  244 195 
 CHI  HN ES   1   1629 56.17                             117    -0.3 6  244 195 
 CHI  HZ I        1630  6.24        10.1 0.63                           244 195 
                                                                                
