 2015  213 1431 38.1 L   6.782 -73.176134.0  RSN  6 0.5 1.8LRSN                1
 GAP=134        1.22       5.1     6.4  9.5 -0.4032E+01  0.2272E+02 -0.1635E+02E
 Epicentro: LOS SANTOS - SANTANDER                                             3
 ACTION:UPD 15-04-30 21:25 OP:nd   STATUS:               ID:20150213143138 L   I
 OLDACT:DUP 15-02-13 23:29 OP:stll STATUS:               ID:20150213142745d    3
 2015-02-13-1427-44M.COL___305                                                 6
 STAT SP IPHASW D HRMM SECON CODA AMPLIT PERI AZIMU VELO AIN AR TRES W  DIS CAZ7
 BAR2 EZ EP       1431 56.34                             171    0.0510 21.0 182 
 BAR2 EZ ES       1432 11.28                             171    0.8210 21.0 182 
 BAR2 EZ I        1432 13.47         9.0 0.16            171           21.0 182 
 BRR  HZ EP       1431 58.45                             151    0.5610 69.3 301 
 PAM  SZ EP       1431 59.39                             147    0.0610 81.0  40 
 PAM  SN ES       1432 15.43                             147   -0.4510 81.0  40 
 PAM  SZ I        1432 18.55         8.1 0.20            152           81.0  40 
 RUS  HZ EP       1432  0.79                             142    0.1910 98.9 174 
 RUS  HN ES       1432 17.44                             142   -0.7010 98.9 174 
 PTB  HZ EP       1432  3.35                             130   -0.46 9  144 259 
 PTB  HN ES       1432 23.75                             130   -0.10 9  144 259 
 PTB  HZ I        1432 32.03        10.8 0.36            131            144 259 
 SML  HZ EP       1432 14.65                             115    0.49 8  244 336 
 SML  HE ES       1432 41.71                             115   -0.56 8  244 336 
 SML  HZ I        1432 46.74         6.8 0.10            117            244 336 
                                                                                
