 2013 1213 1122 25.8 L   6.810 -73.164155.6  RSN  4 0.2 1.4LRSN                1
 GAP=199        0.45       4.1     3.7  5.0  0.5561E+01 -0.1072E+01 -0.4610E+01E
 Epicentro: LOS SANTOS - SANTANDER                                             3
 ACTION:UPD 14-01-13 10:17 OP:ep   STATUS:               ID:20131213112225 L   I
 OLDACT:UP  13-12-13 15:20 OP:cam  STATUS:               ID:20131213112000     3
 OLDACT:REG 13-12-13 14:27 OP:cam  STATUS:               ID:20131213112000     3
 2013-12-13-1120-00M.COL___285                                                 6
 STAT SP IPHASW D HRMM SECON CODA AMPLIT PERI AZIMU VELO AIN AR TRES W  DIS CAZ7
 BAR2 SZ EP       1122 46.60                             171    0.0010 24.1 185 
 BAR2 SZ ES       1123  3.01                             171    0.1610 24.1 185 
 BAR2 SZ I        1123  5.56         6.0 0.72            171           24.1 185 
 RUS  HZ EP       1122 50.71                             146    0.1310  102 175 
 RUS  HN ES       1123  9.69                             146   -0.2510  102 175 
 RUS  HZ I        1123 11.74         2.0 0.60            148            102 175 
 PTB  HN ES       1123 14.94                             135   -0.01 9  146 258 
 PTB  HN I        1123 16.89         4.1 0.22            137            146 258 
 SML  HN ES   2   1123 31.41                             120   -0.23 4  242 336 
                                                                                
