 2011  513 1152 19.1 L   6.754 -73.069139.8  RSN  6 0.2 1.4LRSN                1
 GAP=149        0.48       4.6     7.9  8.1  0.6732E+01 -0.2856E+02 -0.1376E+02E
 Epicentro: LOS SANTOS - SANTANDER                                             3
 ACTION:UP  11-06-29 08:53 OP:tino STATUS:               ID:20110513115219 L   I
 2011-05-13-1148-08S.COL___139                                                 6
 STAT SP IPHASW D HRMM SECON CODA AMPLIT PERI AZIMU VELO SNR AR TRES W  DIS CAZ7
 BAR2 SZ EP   2   1152 37.72                             171    -0.2 5   22 215 
 BAR2 SZ ES   2   1152 52.48                             171    -0.2 5   22 215 
 BAR2 SZ I        1152 55.92         8.2 0.44                            22 215 
 PAM  SZ EP   1   1152 40.87                             150     0.3 7   77  32 
 BRR  HZ EP   1   1152 39.98                             148    -0.2 7   81 299 
 BRR  HZ I        1152 48.66         8.0 0.19                            81 299 
 BRR  HE ES   2   1152 56.97                             148     0.3 5   81 299 
 RUS  HZ EP   1   1152 42.02                             144     0.2 7   95 181 
 RUS  HN ES   2   1152 59.46                             144    -0.2 5   95 181 
 RUS  HZ I        1153  1.69         3.5 0.25                            95 181 
 BRI  SZ EP   2   1152 42.36                             139    -0.2 5  111  16 
 BRI  SZ I        1152 44.67         2.9 0.35                           111  16 
 GRA  SZ EP   2   1152 43.87                             135    -0.1 5  128  13 
 GRA  SZ I        1153  4.60         4.4 0.35                           128  13 
                                                                                
