 2012 1213 1557 55.0 L   6.794 -73.174150.0  RSN  4 0.2 1.3LRSN                1
 GAP=142        0.46       4.3     7.5  6.6 -0.9562E+01  0.2990E+02 -0.2055E+01E
 Epicentro: LOS SANTOS - SANTANDER                                             3
 ACTION:UPD 13-01-04 14:27 OP:ep   STATUS:               ID:20121213155755 L   I
 2012-12-13-1550-00M.COL___242                                                 6
 STAT SP IPHASW D HRMM SECON CODA AMPLIT PERI AZIMU VELO AIN AR TRES W  DIS CAZ7
 BAR2 SZ EP   1   1558 15.19                             171    0.05 7 22.3 182 
 BAR2 SZ ES   1   1558 31.09                             171    0.25 7 22.3 182 
 BAR2 SZ I        1558 32.75         7.9 0.24                          22.3 182 
 PAM  SN ES   1   1558 35.51                             151   -0.13 7 79.9  41 
 RUS  HZ EP   1   1558 19.38                             145    0.22 7  100 174 
 RUS  HN ES   1   1558 37.73                             145   -0.26 7  100 174 
 RUS  HZ I        1558 41.04         2.0 0.32                           100 174 
 PTB  HZ EP   1   1558 21.92                             134   -0.14 7  145 259 
                                                                                
