 2016 1113 1745  0.3 L   6.834 -73.140144.6  RSN 10 0.6 2.3LRSN                1
 GAP=149        1.33       5.7     5.9  8.5 -0.5122E+01  0.1294E+02  0.1377E+02E
 Epicentro: LOS SANTOS - SANTANDER                                             3
 ACTION:UPD 17-10-26 21:07 OP:lp   STATUS:               ID:20161113174500 L   I
 OLDACT:UP  16-11-14 01:13 OP:dnl  STATUS:               ID:20161113173745     3
 OLDACT:REG 16-11-13 20:56 OP:dnl  STATUS:               ID:20161113173745     3
 2016-11-13-1738-00M.COL___343                                                 6
 STAT SP IPHASW D HRMM SECON CODA AMPLIT PERI AZIMU VELO AIN AR TRES W  DIS CAZ7
 BAR2 EZ IP     D 1745 19.96                             169    0.0510 27.2 190 
 BAR2 EZ ES       1745 34.47                             169   -0.7110 27.2 190 
 BAR2 EZ I        1745 35.78        15.5 0.10            168           27.2 190 
 BRR  HZ EP       1745 21.66                             153    0.3710 70.0 296 
 BRR  HN ES       1745 38.48                             153    0.8410 70.0 296 
 BRR  HZ I        1745 41.59        30.6 0.16            147           70.0 296 
 PAM  EZ IP     D 1745 22.62                             151    0.3910 74.1  41 
 PAM  EN ES       1745 39.17                             151   -0.1410 74.1  41 
 PAM  EZ I        1745 41.17        23.7 0.34            152           74.1  41 
 PTB  HZ EP       1745 26.66                             131   -0.67 9  149 257 
 PTB  HE ES       1745 48.20                             131   -0.19 9  149 257 
 PTB  HZ I        1745 51.62        32.7 0.12            127            149 257 
 ZAR  HZ EP   2   1745 33.07                             122    0.45 4  203 291 
 ZAR  HN ES       1745 58.09                             122    0.29 9  203 291 
 ZAR  HZ I        1746  3.59        51.6 0.28            119            203 291 
 NOR  HZ EP   2   1745 36.71                             118    0.42 4  237 234 
 NOR  HN ES       1746  3.88                             118   -0.45 8  237 234 
 NOR  HZ I        1746  8.51        13.7 0.34            115            237 234 
 CHI  HZ EP   2   1745 38.27                             116   -0.11 4  252 195 
 CHI  HN ES       1746  8.04                             116   -0.02 8  252 195 
 CHI  HZ I        1746 17.08         6.3 0.30            115            252 195 
 URE  HZ EP       1745 39.82                             113   -1.44 7  283 291 
 URE  HN ES   4   1746 11.16                             113   -2.02 0  283 291 
 URE  HZ I        1746 23.75        18.6 0.18            111            283 291 
 PRA  HZ EP       1745 55.29                             106    1.05 6  396 209 
 PRA  HE ES       1746 37.31                             106    1.03 6  396 209 
 PRA  HZ I        1746 42.17         9.3 0.28            105            396 209 
 SJC  HZ EP   4   1745 53.71                             106   -1.82 0  406 327 
 SJC  HN ES   4   1746 35.15                             106   -3.43 0  406 327 
 SJC  HZ I        1746 51.15         6.5 0.14            104            406 327 
                                                                                
