 2017  213 2223 59.4 L   6.808 -73.146152.5  RSN 13 0.4 2.3LRSN                1
 GAP=102        1.01       3.7     3.4  6.1 -0.7310E+00  0.3688E+01  0.5632E+01E
 Epicentro: LOS SANTOS - SANTANDER                                             3
 ACTION:UPD 17-05-24 15:36 OP:jn   STATUS:               ID:20170213222359 L   I
 OLDACT:UP  17-02-14 05:35 OP:ar   STATUS:               ID:20170213221745     3
 OLDACT:REG 17-02-14 03:16 OP:ar   STATUS:               ID:20170213221745     3
 2017-02-13-2218-00M.COL___346                                                 6
 STAT SP IPHASW D HRMM SECON CODA AMPLIT PERI AZIMU VELO AIN AR TRES W  DIS CAZ7
 BAR2 EZ EP       2224 19.72                             171   -0.1310 24.1 190 
 BAR2 EZ I        2224 36.17        99.9 0.14            169           24.1 190 
 BRR  HZ EP       2224 21.56                             154    0.3110 70.8 298 
 BRR  HN ES       2224 38.88                             154    0.5810 70.8 298 
 BRR  HZ I        2224 39.68        39.7 0.12            153           70.8 298 
 PAM  EZ EP       2224 22.62                             152    0.3310 76.7  40 
 PAM  EN ES       2224 39.79                             152   -0.3610 76.7  40 
 PAM  EZ I        2224 41.92        37.9 0.48            153           76.7  40 
 RUS  HZ EP       2224 23.64                             145   -0.2310  101 176 
 RUS  HN ES       2224 42.71                             145   -0.2510  101 176 
 RUS  HZ I        2224 43.31        35.0 0.22            144            101 176 
 PTB  HZ EP       2224 26.45                             133   -0.48 9  148 259 
 PTB  HN ES       2224 47.90                             133   -0.51 9  148 259 
 PTB  HZ I        2224 49.61        23.8 0.16            132            148 259 
 TAM  HZ EP       2224 27.92                             132    0.29 9  155 105 
 ZAR  HZ EP       2224 32.17                             124   -0.08 9  204 292 
 ZAR  HN ES       2224 58.28                             124    0.40 9  204 292 
 ZAR  HZ I        2225  0.37        17.6 0.11            123            204 292 
 NOR  HZ EP       2224 35.80                             120    0.23 8  235 234 
 NOR  HN ES       2225  4.12                             120    0.33 8  235 234 
 NOR  HZ I        2225  7.23        15.0 0.15            119            235 234 
 CHI  HZ EP       2224 37.66                             118    0.10 8  249 195 
 CHI  HN ES       2225  7.18                             118   -0.15 8  249 195 
 CHI  HZ I        2225 15.32         9.2 0.48            117            249 195 
 ROSC BZ EP       2224 38.66                             118    0.69 8  253 211 
 ROSC BE ES   4   2225 10.01                             118    1.96 0  253 211 
 ROSC BZ I        2225 11.78        16.4 0.35            117            253 211 
 URE  HZ EP       2224 39.52                             115   -1.24 7  284 292 
 URE  HN ES   4   2225 10.35                             115   -2.68 0  284 292 
 URE  HZ I        2225 22.08        10.9 0.38            114            284 292 
 ELA  HZ EP   4   2224 40.20                             111   -6.40 0  330 229 
 ELA  HN ES       2225 23.42                             111    0.00 7  330 229 
 ELA  HZ I        2225 31.12        13.4 0.38            111            330 229 
 CBOC HZ EP   4   2224 47.99                             111    1.37 0  334 252 
 CBOC HN ES       2225 23.61                             111    0.15 7  334 252 
 CBOC HZ I        2225 29.92         4.0 0.32            110            334 252 
                                                                                
