 2014  813 2101 56.2 L   6.820 -73.113146.3  RSN 19 0.5 2.6LRSN                1
 GAP=140        1.16       2.9     4.6  5.7 -0.2446E+01  0.1076E+02  0.2540E+01E
 Epicentro: LOS SANTOS - SANTANDER                                             3
 ACTION:UPD 14-09-15 21:49 OP:nd   STATUS:               ID:20140813210156 L   I
 OLDACT:REG 14-08-14 07:43 OP:carl STATUS:               ID:20140813205818     3
 2014-08-13-2058-18M.COL___272                                                 6
 STAT SP IPHASW D HRMM SECON CODA AMPLIT PERI AZIMU VELO AIN AR TRES W  DIS CAZ7
 BAR2 SZ EP       21 2 15.95                             169   -0.0610 26.4 197 
 BAR2 SZ ES       21 2 30.63                             169   -0.7910 26.4 197 
 BAR2 SZ I        21 2 32.78        67.4 0.44            167           26.4 197 
 BRR  HZ EP       21 2 17.88                             152    0.3010 73.4 296 
 BRR  HN ES       21 2 34.97                             152    0.7510 73.4 296 
 BRR  HZ I        21 2 38.41        45.4 0.42            150           73.4 296 
 PAM  SZ EP       21 2 18.82                             152    0.5310 73.4  38 
 PAM  SN ES       21 2 36.12                             152    0.6410 73.4  38 
 PAM  SZ I        21 2 38.14       103.8 0.58            157           73.4  38 
 RUS  HZ EP       21 2 19.85                             143   -0.3510  103 178 
 RUS  HN ES       21 2 38.88                             143   -0.0010  103 178 
 RUS  HZ I        21 2 41.21        46.7 0.46            146            103 178 
 PTB  HZ EP   4   21 2 22.68                             131   -0.94 0  152 258 
 PTB  HN ES   4   21 2 44.01                             131   -0.96 0  152 258 
 PTB  HZ I        21 2 51.41        56.5 0.46            132            152 258 
 OCA  HN ES       21 2 46.31                             130   -0.11 9  159 352 
 OCA  HZ I        21 2 51.62        47.3 0.20            133            159 352 
 SPBC HN ES       21 2 47.45                             128   -0.28 9  167 219 
 SPBC HZ I        21 2 51.91        85.5 0.18            130            167 219 
 ZAR  HZ EP       21 2 28.40                             122   -0.59 8  207 291 
 ZAR  HN ES       21 2 54.03                             122   -0.49 8  207 291 
 ZAR  HZ I        21 3  1.44        25.9 0.34            123            207 291 
 NOR  HZ EP       21 2 31.96                             118   -0.50 8  239 235 
 NOR  HN ES       21 3  0.22                             118   -0.49 8  239 235 
 NOR  HZ I        21 3  2.20        31.0 0.30            120            239 235 
 SML  HZ EP       21 2 32.27                             118   -0.58 8  243 334 
 SML  HN ES       21 3  0.55                             118   -0.85 8  243 334 
 SML  HZ I        21 3  3.85        53.4 0.30            120            243 334 
 CHI  HZ EP       21 2 34.10                             117   -0.21 8  252 196 
 CHI  HN ES       21 3  3.48                             117   -0.53 8  252 196 
 CHI  HZ I        21 3  9.40        18.6 0.56            119            252 196 
 ROSC BZ EP   4   21 2 35.63                             116    0.82 0  257 211 
 ROSC BN ES   4   21 3  7.36                             116    2.47 0  257 211 
 ROSC BZ I        21 3 10.41        36.2 0.35            118            257 211 
 HEL  HZ EP       21 2 38.03                             114    1.10 7  276 256 
 HEL  HN ES   4   21 3  9.07                             114    0.40 0  276 256 
 HEL  HZ I        21 3 14.21        25.8 0.30            116            276 256 
 GUY2CHZ EP       21 2 40.69                             112    0.33 7  305 235 
 GUY2CHE ES       21 3 15.64                             112    0.88 7  305 235 
 GUY2CHZ I        21 3 22.60        30.3 0.74                           305 235 
 RREF HZ EP       21 2 43.10                             111    0.21 7  326 229 
 RREF HN ES       21 3 19.50                             111    0.23 7  326 229 
 RREF HZ I        21 3 26.86        29.8 0.26            112            326 229 
 CBOC HZ EP       21 2 43.87                             110    0.21 7  338 252 
 CBOC HN ES       21 3 20.97                             110    0.34 7  338 252 
 TOL  SZ EP       21 2 45.52                             109    0.52 6  348 225 
 TOL  SN ES       21 3 22.92                             109   -0.11 6  348 225 
 ANIL HZ EP       21 2 47.00                             108    0.45 6  361 225 
 ANIL HN ES       21 3 26.51                             108    0.73 6  361 225 
 ANIL HZ I        21 3 32.75         5.3 0.36            110            361 225 
 PRA  HZ EP       21 2 49.74                             106   -0.48 6  396 210 
 PRA  HN ES       21 3 32.04                             106   -0.28 6  396 210 
 PRA  HZ I        21 3 37.20        20.7 0.24            108            396 210 
                                                                                
