 2016  613 2207 56.7 L   6.746 -73.088137.3  RSN  5 0.2 1.6LRSN                1
 GAP=147        0.68       3.2     4.5  5.5 -0.4153E+01 -0.3026E+00  0.1407E+01E
 Epicentro: JORDAN - SANTANDER                                                 3
 ACTION:UPD 16-07-21 22:18 OP:rebc STATUS:               ID:20160613220756 L   I
 OLDACT:DUP 16-06-14 06:18 OP:cara STATUS:               ID:20160613215743d    3
 OLDACT:UP  16-06-14 06:13 OP:cara STATUS:               ID:20160613215742d    3
 OLDACT:DUP 16-06-14 06:12 OP:cara STATUS:               ID:20160613215742d    3
 2016-06-13-2157-41M.COL___328                                                 6
 STAT SP IPHASW D HRMM SECON CODA AMPLIT PERI AZIMU VELO AIN AR TRES W  DIS CAZ7
 BAR2 EZ IP       22 8 14.95                             171   -0.3210 19.9 212 
 BAR2 EZ ES       22 8 29.48                             171   -0.2510 19.9 212 
 BAR2 EZ I        22 8 30.77         8.6 0.12                          19.9 212 
 PAM  EZ EP       22 8 17.96                             149   -0.1510 78.4  33 
 PAM  EN ES       22 8 34.96                             149    0.1710 78.4  33 
 PAM  EZ I        22 8 36.84         6.2 0.52                          78.4  33 
 BRR  HZ EP       22 8 17.32                             148   -0.1710 79.7 300 
 BRR  HN ES       22 8 33.96                             148    0.2810 79.7 300 
 BRR  HZ I        22 8 35.09        17.3 0.30                          79.7 300 
 RUS  HZ EP       22 8 19.66                             144    0.4710 94.4 180 
 RUS  HN ES       22 8 36.74                             144    0.0210 94.4 180 
 RUS  HZ I        22 8 39.04         4.3 0.32                          94.4 180 
 SPBC HN ES       22 8 46.19                             127   -0.06 9  163 222 
 SPBC HZ I        22 8 48.30         6.7 0.32                           163 222 
                                                                                
