 2011  113 2247 34.1 L   6.785 -73.182143.9  RSN  6 0.2 1.9LRSN                1
 GAP=176        0.42       3.0     7.2  6.9 -0.8009E+01  0.2148E+02 -0.6546E+01E
 Epicentro: LOS SANTOS - SANTANDER                                             3
 ACTION:UP  11-02-08 08:40 OP:pat  STATUS:               ID:20110113224734 L   I
 2011-01-13-2243-05S.COL___136                                                 6
 STAT SP IPHASW D HRMM SECON CODA AMPLIT PERI AZIMU VELO SNR AR TRES W  DIS CAZ7
 BAR2 SZ EP   2   2247 53.28                             171    -0.2 5   21 181 
 BAR2 SZ ES   2   2248  8.77                             171     0.2 5   21 181 
 BAR2 SZ I        2248  9.56        23.3 0.39                            21 181 
 GIR2 SZ EP   2   2247 53.62                             167     0.1 5   32 358 
 RUS  HZ EP   2   2247 57.69                             144     0.1 5   99 174 
 RUS  HN ES   2   2248 15.54                             144    -0.3 5   99 174 
 RUS  HZ I        2248 18.62         6.7 0.43                            99 174 
 OCA  SZ EP   1   2248  2.18                             129    -0.2 7  161 355 
 OCA  SZ I        2248 14.20        14.5 0.47                           161 355 
 OCA  SZ ES   2   2248 24.58                             129     0.2 5  161 355 
 NOR  SZ EP   2   2248  9.69                             119     0.4 4  231 234 
 NOR  SE ES   2   2248 36.37                             119    -0.3 4  231 234 
 CHI  HN ES   2   2248 40.74                             117     0.2 4  246 194 
 CHI  HZ I        2248 43.53         4.1 0.23                           246 194 
                                                                                
