 2013  213 2246 32.0 L   6.770 -73.122139.7  RSN  4 0.5 1.6LRSN                1
 GAP=141        1.03       6.7     6.3 11.5 -0.8012E+01 -0.4651E+01  0.1528E+02E
 Epicentro: LOS SANTOS - SANTANDER                                             3
 ACTION:UPD 13-03-12 09:32 OP:ep   STATUS:               ID:20130213224632 L   I
 2013-02-13-2240-00M.COL___241                                                 6
 STAT SP IPHASW D HRMM SECON CODA AMPLIT PERI AZIMU VELO AIN AR TRES W  DIS CAZ7
 BRR  HZ EP       2246 52.66                             150   -0.0710 75.1 300 
 BRR  HN ES       2247  9.54                             150    0.6510 75.1 300 
 BRR  HN I        2247 13.57        10.8 0.21            151           75.1 300 
 PAM  SZ EP       2246 53.79                             149    0.1510 78.4  37 
 PAM  SZ I        2246 54.47         6.7 0.19            153           78.4  37 
 PAM  SN ES       2247 10.08                             149   -0.4410 78.4  37 
 RUS  HZ EP   1   2246 55.19                             144    0.29 7 97.1 177 
 RUS  HN ES   1   2247 12.72                             144   -0.04 7 97.1 177 
 RUS  HN I        2247 14.99         5.1 0.37            146           97.1 177 
 PTB  HE ES   1   2247 18.55                             130   -0.90 7  150 260 
                                                                                
