 2013  313 2318 17.4 L   5.788 -73.872106.0  RSN  6 0.4 1.9LRSN                1
 GAP=240        1.07       7.1     4.9 10.9  0.1463E+02  0.1200E+02 -0.8460E+00E
 Epicentro: ALBANIA - SANTANDER                                                3
 ACTION:UPD 13-04-09 14:02 OP:ep   STATUS:               ID:20130313231817 L   I
 2013-03-13-2308-50M.COL___207                                                 6
 STAT SP IPHASW D HRMM SECON CODA AMPLIT PERI AZIMU VELO AIN AR TRES W  DIS CAZ7
 RUS  HZ EP       2318 36.67                             138    0.2210 88.1  82 
 RUS  HN ES       2318 51.06                             138   -0.2310 88.1  82 
 PTB  HZ EP       2318 36.62                             132   -0.6910  105 322 
 PTB  HN ES       2318 53.58                             132    0.7710  105 322 
 BAR2 SZ ES       2318 55.46                             129    0.1510  117  41 
 BAR2 SZ I        2318 56.87        20.3 0.38            125            117  41 
 BRR  HZ EP       2318 41.36                             122   -0.03 9  147   7 
 BRR  HE ES       2318 59.72                             122   -0.35 9  147   7 
 PAM  SZ EP   1   2318 50.29                             112    0.80 6  215  37 
 PAM  SN ES   1   2319 14.55                             112    0.05 6  215  37 
 PAM  SN I        2319 17.79         6.0 0.36            109            215  37 
 ZAR  HN ES       2319 13.68                             111   -0.30 8  218 330 
                                                                                
