 2017  313 2114 58.1 L   6.830 -73.139145.6  RSN 20 0.4 2.5LRSN                1
 GAP=105        0.77       2.6     2.3  3.9 -0.2434E+00  0.2208E+01  0.1848E+01E
 Epicentro: LOS SANTOS - SANTANDER                                             3
 ACTION:UPD 17-05-25 18:40 OP:jn   STATUS:               ID:20170313211458 L   I
 OLDACT:UP  17-03-14 04:14 OP:and  STATUS:               ID:20170313210744     3
 OLDACT:UP  17-03-14 04:13 OP:and  STATUS:               ID:20170313210744     3
 OLDACT:UP  17-03-14 04:13 OP:and  STATUS:               ID:20170313210744     3
 OLDACT:UP  17-03-14 04:12 OP:and  STATUS:               ID:20170313210744     3
 OLDACT:UP  17-03-14 04:11 OP:and  STATUS:               ID:20170313210744     3
 OLDACT:UP  17-03-14 04:10 OP:and  STATUS:               ID:20170313210744     3
 OLDACT:UP  17-03-14 04:06 OP:and  STATUS:               ID:20170313210744     3
 OLDACT:UP  17-03-14 04:05 OP:and  STATUS:               ID:20170313210744     3
 OLDACT:UP  17-03-14 04:04 OP:and  STATUS:               ID:20170313210744     3
 OLDACT:UP  17-03-14 04:04 OP:and  STATUS:               ID:20170313210744     3
 OLDACT:UP  17-03-14 04:04 OP:and  STATUS:               ID:20170313210744     3
 OLDACT:UP  17-03-14 04:02 OP:and  STATUS:               ID:20170313210744     3
 OLDACT:REG 17-03-14 03:24 OP:y    STATUS:               ID:20170313210744     3
 2017-03-13-2108-00M.COL___397                                                 6
 STAT SP IPHASW D HRMM SECON CODA AMPLIT PERI AZIMU VELO AIN AR TRES W  DIS CAZ7
 BAR2 EZ IP     C 2115 17.67                             169   -0.1210 26.8 190 
 BAR2 EZ ES       2115 32.98                             169   -0.1610 26.8 190 
 BAR2 EZ I        2115 33.62        48.0 0.30            166           26.8 190 
 BRR  HZ IP     D 2115 19.47                             153    0.2910 70.3 296 
 BRR  HN ES       2115 36.14                             153    0.5210 70.3 296 
 BRR  HZ I        2115 40.30        45.9 0.22            151           70.3 296 
 PAM  EZ IP     C 2115 20.33                             152    0.2110 74.4  41 
 PAM  EN ES       2115 37.27                             152   -0.0210 74.4  41 
 PAM  EZ I        2115 39.75        46.7 0.62            157           74.4  41 
 RUS  HZ EP       2115 21.69                             143   -0.3910  104 177 
 RUS  HN ES       2115 40.49                             143   -0.2910  104 177 
 RUS  HZ I        2115 42.31        48.8 0.32            142            104 177 
 PTB  HZ EP   2   2115 24.38                             132   -0.80 5  149 258 
 PTB  HN ES   2   2115 45.41                             132   -0.89 5  149 258 
 PTB  HZ I        2115 49.15        30.0 0.10            130            149 258 
 TAM  HZ IP     C 2115 26.09                             130    0.30 9  155 106 
 TAM  HN ES       2115 47.34                             130   -0.04 9  155 106 
 SPBC HZ EP   2   2115 26.18                             128   -0.70 5  166 218 
 SPBC HN ES       2115 49.15                             128   -0.18 9  166 218 
 SPBC HZ I        2115 54.85        44.2 0.22            128            166 218 
 ZAR  HZ EP       2115 30.56                             122    0.08 9  203 291 
 ZAR  HN ES       2115 55.85                             122    0.12 9  203 291 
 ZAR  HZ I        2116  1.50        41.5 0.21            122            203 291 
 NOR  HZ EP       2115 34.08                             118   -0.02 8  237 234 
 NOR  HN ES   2   2116  1.67                             118   -0.50 4  237 234 
 CHI  HZ EP       2115 36.29                             117    0.12 8  252 195 
 CHI  HN ES   4   2116  7.06                             117    1.21 0  252 195 
 CHI  HZ I        2116 14.82         7.0 0.25            117            252 195 
 ROSC BN ES       2116  6.94                             116    0.37 8  256 211 
 ROSC BZ I        2116 12.74        20.9 0.40            116            256 211 
 HEL  HZ EP   9   2115 39.63                             115    1.15 0  274 255 
 HEL  HN ES       2116 11.07                             114   -0.05 8  274 255 
 HEL  HZ I        2116 17.66        15.3 0.41            114            274 255 
 URE  HZ EP       2115 38.30                             113   -0.80 7  283 291 
 URE  HE ES   4   2116  9.12                             113   -1.96 0  283 291 
 URE  HZ I        2116 18.01        26.4 0.20            114            283 291 
 GUY2CHZ EP   4   2115 44.48                             112    2.49 0  304 234 
 GUY2CHN ES       2116 16.88                             112    0.66 7  304 234 
 GUY2CHZ  IAML    2116 24.07        12.1 0.36                           304 234 
 PTGC HZ EP   3   2115 41.17                             111   -1.11 2  312 159 
 PTGC HN ES   4   2116 14.90                             111   -1.83 0  312 159 
 DBB  EN ES       2116 22.28                             109   -0.42 7  340 274 
 DBB  EZ I        2116 25.93        10.8 0.12            110            340 274 
 ANIL HN ES   4   2116 29.50                             108    2.16 0  360 224 
 ANIL HZ I        2116 35.17        18.0 0.28            108            360 224 
 PRA  HZ EP       2115 52.47                             106    0.47 6  395 209 
 PRA  HN ES       2116 34.56                             106    0.52 6  395 209 
 PRA  HZ I        2116 40.42         8.1 0.30            107            395 209 
 ORTC HZ EP       2115 52.45                             106    0.06 6  399 216 
 ORTC HN ES   4   2116 33.12                             106   -1.60 0  399 216 
 SJC  HZ EP   4   2115 51.95                             106   -1.43 0  407 327 
 SJC  HN ES   4   2116 32.93                             106   -3.56 0  407 3277
 SJC  HZ I        2116 36.72         6.7 0.56            107            407 327 
                                                                                
