 2016 1213 2050  0.2 L   7.392 -73.158139.7  RSN  7 0.3 1.7LRSN                1
 GAP=183        0.82       4.7     3.6  5.8  0.2441E+01  0.5270E+01 -0.1242E+01E
 Epicentro: EL PLAYON - SANTANDER                                              3
 ACTION:UPD 17-01-11 20:14 OP:rebc STATUS:               ID:20161213205000 L   I
 OLDACT:REG 16-12-14 02:44 OP:lv   STATUS:               ID:20161213204745     3
 2016-12-13-2048-00M.COL___383                                                 6
 STAT SP IPHASW D HRMM SECON CODA AMPLIT PERI AZIMU VELO AIN AR TRES W  DIS CAZ7
 PAM  EZ EP       2050 20.48                             159    0.1310 51.0  97 
 PAM  EN ES       2050 35.84                             159   -0.2410 51.0  97 
 PAM  EZ I        2050 37.07         5.5 0.46            159           51.0  97 
 BRR  HZ EP       2050 20.63                             152    0.1010 68.8 243 
 BRR  HN ES       2050 36.42                             152    0.0110 68.8 243 
 BAR2 EZ EP       2050 22.31                             146    0.2010 88.5 182 
 BAR2 EZ ES       2050 39.22                             146   -0.0010 88.5 182 
 BAR2 EZ I        2050 42.36        10.5 0.27            141           88.5 182 
 RUS  HZ EP       2050 29.20                             127    0.17 9  166 177 
 RUS  HE ES       2050 51.70                             127    0.17 9  166 177 
 RUS  HZ I        2051  1.65         1.4 0.28            125            166 177 
 PTB  HZ EP       2050 27.95                             126   -0.99 9  172 237 
 PTB  HN ES       2050 51.33                             126   -0.05 9  172 237 
 PTB  HZ I        2050 54.77         7.9 0.16            125            172 237 
 ZAR  HZ EP       2050 30.79                             123    0.22 9  188 273 
 ZAR  HE ES       2050 54.54                             123    0.26 9  188 273 
 ZAR  HZ I        2050 57.87         9.4 0.22            124            188 273 
 GUY2CHZ EP   4   2050 51.99                             108    3.77 0  342 226 
 GUY2CHN ES   4   2051 28.43                             108    2.74 0  342 226 
 GUY2CHZ I        2051 38.78         2.7 0.40                           342 226 
                                                                                
