 2010 1013 2231 33.7 L   6.804 -73.106145.9  RSN 17 0.7 3.0LRSN                1
 GAP=105        1.57       5.9     8.2 11.1 -0.2067E+02 -0.1300E+02  0.2218E+02E
 Epicentro: LOS SANTOS - SANTANDER                                             3
 ACTION:UP  11-02-18 11:09 OP:tino STATUS:               ID:20101013223133 L   I
 2010-10-13-2227-54S.COL___126                                                 6
 STAT SP IPHASW D HRMM SECON CODA AMPLIT PERI AZIMU VELO SNR AR TRES W  DIS CAZ7
 BTL  SZ EP       2231 53.96                             171     0.610   22 305 
 BAR2 SZ EP       2231 53.10                             170    -0.310   25 200 
 BAR2 SZ I        2232 11.69       306.3 0.56                            25 200 
 GIR2 SZ EP       2231 53.15                             167    -0.310   32 342 
 GIR2 SZ ES   2   2232  8.05                             167    -0.7 5   32 342 
 URB  SZ EP   2   2231 55.15                             159     1.0 5   54 332 
 BRR  HZ IP     C 2231 55.02                             152    -0.110   75 297 
 BRR  HN ES       2232 12.31                             152     0.510   75 297 
 BRR  HZ I        2232 14.86       158.9 0.05                            75 297 
 GUE  SZ EP       2231 59.16                             140     0.810  115  10 
 GRA  SZ IP       2231 58.87                             137     0.010  124  16 
 GRA  SZ I        2232 19.91       114.9 0.30                           124  16 
 OCA  SZ EP       2232  1.58                             130    -0.5 9  160 352 
 OCA  SZ ES   2   2232 23.43                             130    -0.7 5  160 352 
 OCA  SZ I        2232 30.67       109.4 0.14                           160 352 
 YOP  SZ EP   1   2232  4.46                             127     0.8 7  177 155 
 YOP  SN ES   2   2232 26.61                             127    -0.3 4  177 155 
 NOR  SZ EP       2232  8.90                             118    -1.0 8  239 235 
 NOR  SN ES       2232 36.71                             118    -1.4 8  239 235 
 CHI  HZ EP   1   2232 11.18                             117    -0.4 6  250 196 
 CHI  HN ES       2232 40.84                             117    -0.3 8  250 196 
 CHI  HZ I        2232 48.63        54.3 0.59                           250 196 
 ROSC BZ EP       2232 12.96                             117     0.8 8  255 212 
 ROSC BZ I        2232 49.22        75.2 0.66                           255 212 
 HEL  HZ EP       2232 15.22                             115     0.8 7  276 256 
 HEL  HN ES   2   2232 45.27                             115    -0.9 4  276 256 
 HEL  HZ I        2232 52.34        52.2 1.32                           276 256 
 DBB  SZ EP   1   2232 21.61                             109    -0.1 5  344 274 
 TOL  SZ EP   1   2232 22.92                             109     0.5 5  347 225 
 SDV  BZ EP   1   2232 22.38                             108    -1.0 5  357  50 
 SDV  BN ES   2   2233  0.38                             108    -1.7 3  357  50 
 SDV  BZ I        2233  1.60        21.3 0.24                           357  50 
 PRA  HZ EP   1   2232 26.75                             106    -0.8 4  395 210 
 PRA  HN ES       2233 10.45                             106     0.9 6  395 210 
 PRA  HZ I        2233 15.29       138.8 0.50                           395 210 
                                                                                
