 2017  613 2146 55.7 L   6.908 -73.149107.5  RSN  4 0.0 1.6LRSN                1
 GAP=287        0.30       2.4     4.8  9.6  0.6536E+01 -0.3315E+02 -0.9519E+01E
 Epicentro: PIEDECUESTA - SANTANDER                                            3
 ACTION:UPD 17-09-14 16:51 OP:jn   STATUS:               ID:20170613214655 L   I
 OLDACT:UP  17-06-14 05:27 OP:edw  STATUS:               ID:20170613213741     3
 OLDACT:UP  17-06-14 05:23 OP:edw  STATUS:               ID:20170613213741     3
 OLDACT:REG 17-06-14 03:16 OP:edw  STATUS:               ID:20170613213741     3
 2017-06-13-2138-00M.COL___365                                                 6
 STAT SP IPHASW D HRMM SECON CODA AMPLIT PERI AZIMU VELO AIN AR TRES W  DIS CAZ7
 PTB  HZ EP       2147 20.19                             121    0.0610  150 254 
 PTB  HN ES       2147 39.20                             121    0.0310  150 254 
 PTB  HZ I        2147 45.15         2.4 0.14             47            150 254 
 SPBC HZ EP       2147 22.57                             117   -0.0310  172 216 
 SPBC HE ES       2147 43.55                             117   -0.0210  172 216 
 SPBC HZ I        2147 47.04         4.2 0.06             37            172 216 
 ZAR  HN ES       2147 48.67                             113   -0.04 9  199 289 
 ZAR  HN I        2147 59.02         7.9 0.30             37            199 289 
 NOR  HE ES       2147 57.36                             108    0.00 9  242 232 
 NOR  HE I        2148  4.29         5.1 0.14             37            242 232 
                                                                                
