 2017  713 2056 28.9 L   6.746 -73.145140.0  RSN  5 0.2 1.4LRSN                1
 GAP=139        0.47       2.6     2.3  5.2 -0.1415E+01  0.4353E+01  0.1538E+01E
 Epicentro: LOS SANTOS - SANTANDER                                             3
 ACTION:UPD 17-08-30 15:32 OP:rebc STATUS:               ID:20170713205628 L   I
 OLDACT:DUP 17-07-14 02:58 OP:dhb  STATUS:               ID:20170713204740d    3
 2017-07-13-2048-00M.COL___383                                                 6
 STAT SP IPHASW D HRMM SECON CODA AMPLIT PERI AZIMU VELO AIN AR TRES W  DIS CAZ7
 PAM  EZ EP       2056 50.59                             148   -0.1710 82.0  37 
 PAM  EN ES       2057  8.05                             148    0.2210 82.0  37 
 PAM  EZ I        2057  9.80         4.6 0.46            150           82.0  37 
 RUS  HZ EP   1   2056 51.75                             144    0.14 7 94.6 176 
 RUS  HN ES   1   2057  9.03                             144   -0.33 7 94.6 176 
 PTB  HZ EP       2056 55.21                             131   -0.06 9  147 261 
 PTB  HN ES       2057 15.89                             131    0.01 9  147 261 
 PTB  HZ I        2057 18.04         1.9 0.10            130            147 261 
 ZAR  HZ EP   4   2057  3.95                             121    2.76 0  206 294 
 ZAR  HE ES       2057 26.24                             121   -0.16 8  206 294 
 ZAR  HZ I        2057 34.94         3.0 0.32            120            206 294 
 NOR  HZ EP   1   2057  4.08                             118    0.18 6  231 236 
 NOR  HN ES       2057 31.46                             118    0.23 8  231 236 
 NOR  HZ I        2057 37.91         2.0 0.26            118            231 236 
                                                                                
