 2013 1013 2123 14.2 L   7.455 -73.255128.9  RSN  5 0.6 1.4LRSN                1
 GAP=131        1.49       6.0     7.7 11.6 -0.8010E+01  0.2845E+02 -0.8445E+01E
 Epicentro: EL PLAYON - SANTANDER                                              3
 ACTION:UPD 13-11-25 09:21 OP:ep   STATUS:               ID:20131013212314 L   I
 OLDACT:REG 13-10-13 22:20 OP:stll STATUS:               ID:20131013211841     3
 2013-10-13-2118-41M.COL___236                                                 6
 STAT SP IPHASW D HRMM SECON CODA AMPLIT PERI AZIMU VELO AIN AR TRES W  DIS CAZ7
 PAM  SZ EP       2123 33.53                             153   -0.1810 62.6 102 
 PAM  SZ I        2123 33.78         6.1 0.16            157           62.6 102 
 PAM  SN ES       2123 48.23                             153   -0.7310 62.6 102 
 BRR  HZ EP       2123 33.32                             152    0.2710 63.5 233 
 BRR  HN ES       2123 48.43                             152    0.6410 63.5 233 
 OCA  HZ EP       2123 35.67                             144    0.8710 87.0 355 
 OCA  HN ES       2123 51.33                             144    0.4310 87.0 355 
 OCA  HZ I        2123 54.46         4.9 0.20            145           87.0 355 
 PTB  HZ EP       2123 41.96                             124    0.25 9  167 233 
 PTB  HN ES       2124  2.48                             124   -0.71 9  167 233 
 PTB  HZ I        2124  7.46         4.2 0.22            125            167 233 
 SML  HZ EP       2123 42.13                             123   -0.26 9  174 329 
 SML  HE ES       2124  3.53                             123   -0.88 9  174 329 
                                                                                
