 2017  613 2351  6.8 L   6.697 -73.037142.3  RSN  6 0.3 1.8LRSN                1
 GAP=219        0.66       3.7     4.6  6.9  0.7569E+00 -0.1146E+02  0.9184E+01E
 Epicentro: ARATOCA - SANTANDER                                                3
 ACTION:UPD 17-09-14 16:51 OP:jn   STATUS:               ID:20170613235106 L   I
 OLDACT:UP  17-06-14 07:19 OP:edw  STATUS:               ID:20170613234737     3
 OLDACT:UP  17-06-14 07:18 OP:edw  STATUS:               ID:20170613234737     3
 OLDACT:UP  17-06-14 07:16 OP:edw  STATUS:               ID:20170613234737     3
 OLDACT:REG 17-06-14 03:28 OP:edw  STATUS:               ID:20170613234737     3
 2017-06-13-2348-00M.COL___362                                                 6
 STAT SP IPHASW D HRMM SECON CODA AMPLIT PERI AZIMU VELO AIN AR TRES W  DIS CAZ7
 BRR  HZ EP       2351 28.43                             146   -0.1510 87.3 301 
 BRR  HN ES       2351 45.58                             146    0.0210 87.3 301 
 BRR  HZ I        2351 48.90        10.0 0.38            145           87.3 301 
 PTB  HZ EP   9   2351 33.63                             129   -0.80 0  158 264 
 PTB  HN ES       2351 54.71                             130   -0.47 9  158 264 
 PTB  HZ I        2351 55.70         5.3 0.18            127            158 264 
 SPBC HZ EP       2351 35.48                             128    0.49 9  163 225 
 SPBC HN ES       2351 57.12                             128    0.14 9  163 225 
 SPBC HZ I        2352  1.73         9.2 0.56            127            163 225 
 NOR  HZ EP       2351 42.78                             117    0.05 8  238 238 
 NOR  HN ES       2352 10.44                             117   -0.31 8  238 238 
 NOR  HZ I        2352 15.93         4.9 0.30            116            238 238 
 HEL  HZ EP   2   2351 47.49                             113   -0.37 4  281 259 
 HEL  HE ES   2   2352 19.60                             113   -0.29 4  281 259 
 HEL  HZ I        2352 25.86         3.4 0.30            113            281 259 
 PTGC HE ES       2352 21.33                             112   -0.26 7  294 160 
                                                                                
