 2013  513 2138  7.3 L   6.768 -73.164156.0  RSN  5 0.3 1.7LRSN                1
 GAP=180        0.75       4.4     6.3  5.8  0.8009E+01  0.3556E+01  0.1422E+01E
 Epicentro: LOS SANTOS - SANTANDER                                             3
 ACTION:UPD 13-06-20 09:50 OP:ep   STATUS:               ID:20130513213807 L   I
 2013-05-13-2130-00M.COL___256                                                 6
 STAT SP IPHASW D HRMM SECON CODA AMPLIT PERI AZIMU VELO AIN AR TRES W  DIS CAZ7
 GIR2 SZ EP   1   2138 28.28                             167   -0.01 7 34.5 355 
 GIR2 SZ ES       2138 44.37                             167   -0.2810 34.5 355 
 GIR2 SZ I        2138 45.62         9.6 0.48            165           34.5 355 
 BRR  HZ EP       2138 30.01                             154    0.4310 71.2 302 
 BRR  HN ES       2138 47.41                             154    0.4610 71.2 302 
 BRR  HZ I        2138 49.02        10.5 0.14            149           71.2 302 
 RUS  HZ EP       2138 31.85                             147   -0.0110 97.2 175 
 RUS  HN ES   1   2138 50.83                             147   -0.17 7 97.2 175 
 RUS  HZ I        2138 52.02         3.7 0.44            147           97.2 175 
 PTB  HZ EP       2138 34.81                             135   -0.10 9  145 260 
 PTB  HN ES   1   2138 55.98                             135   -0.45 7  145 260 
 PTB  HZ I        2139  2.53         5.3 0.28            132            145 260 
 SML  HZ EP   1   2138 44.87                             119    0.08 6  246 336 
 SML  HE ES   1   2139 13.38                             119   -0.64 6  246 336 
 SML  HZ I        2139 18.72         7.9 0.10            119            246 336 
                                                                                
