 2016 1213 2044 15.6 L   6.794 -73.136145.3  RSN  8 0.4 1.9LRSN                1
 GAP=238        0.80       3.5     4.4  5.0  0.6020E+01  0.6560E+01  0.5154E+01E
 Epicentro: LOS SANTOS - SANTANDER                                             3
 ACTION:UPD 17-01-11 20:14 OP:rebc STATUS:               ID:20161213204415 L   I
 OLDACT:REG 16-12-14 02:43 OP:lv   STATUS:               ID:20161213203748     3
 2016-12-13-2038-00M.COL___383                                                 6
 STAT SP IPHASW D HRMM SECON CODA AMPLIT PERI AZIMU VELO AIN AR TRES W  DIS CAZ7
 BAR2 EZ EP       2044 35.21                             171   -0.0110 22.9 193 
 BAR2 EZ ES       2044 50.26                             171   -0.2210 22.9 193 
 BAR2 EZ I        2044 51.95        12.8 0.30            165           22.9 193 
 BRR  HZ EP       2044 37.23                             152    0.4110 72.4 299 
 BRR  HE ES       2044 53.47                             152    0.1410 72.4 299 
 RUS  HZ EP       2044 39.20                             144   -0.1110 99.9 177 
 RUS  HN ES       2044 58.07                             144    0.3110 99.9 177 
 PTB  HZ EP       2044 42.13                             132   -0.53 9  149 259 
 PTB  HN ES       2045  3.51                             132   -0.22 9  149 259 
 PTB  HZ I        2045  9.24        10.6 0.28            129            149 259 
 ZAR  HZ EP       2044 47.92                             122   -0.27 8  205 292 
 ZAR  HN ES       2045 13.95                             122    0.38 8  205 292 
 ZAR  HZ I        2045 19.69        11.6 0.18            122            205 292 
 CHI  HZ EP       2044 53.09                             117   -0.20 8  248 195 
 CHI  HN ES       2045 22.45                             117   -0.19 8  248 195 
 CHI  HZ I        2045 30.24         2.3 0.26            117            248 195 
 GUY2CHZ EP   4   2045  0.37                             112    1.08 0  302 235 
 GUY2CHN ES       2045 32.98                             112   -0.36 7  302 235 
 GUY2CHZ I        2045 42.42         4.3 0.32                           302 235 
 PRA  HZ EP       2045  9.67                             106    0.52 6  392 210 
 PRA  HN ES       2045 51.76                             106    0.88 6  392 210 
 PRA  HZ I        2045 55.87         3.0 0.40            107            392 210 
                                                                                
