 2014 1213 2040 16.0 L   6.806 -73.140145.7  RSN 11 0.4 2.2LRSN                1
 GAP=137        0.84       2.2     3.4  5.0 -0.1603E+01  0.5459E+01 -0.3823E+00E
 Epicentro: LOS SANTOS - SANTANDER                                             3
 ACTION:UPD 15-02-10 17:03 OP:nd   STATUS:               ID:20141213204016 L   I
 OLDACT:REG 14-12-14 06:25 OP:carl STATUS:               ID:20141213203743     3
 2014-12-13-2037-43M.COL___294                                                 6
 STAT SP IPHASW D HRMM SECON CODA AMPLIT PERI AZIMU VELO AIN AR TRES W  DIS CAZ7
 BAR2 EZ EP       2040 35.76                             170    0.1010 24.1 191 
 BAR2 EZ ES       2040 51.02                             170    0.0510 24.1 191 
 BAR2 EZ I        2040 52.37        16.9 0.34            168           24.1 191 
 PAM  SZ EP       2040 38.56                             151    0.3910 76.4  39 
 PAM  SE ES       2040 55.49                             151    0.0410 76.4  39 
 RUS  HZ EP       2040 39.70                             144   -0.1110  101 176 
 RUS  HE ES       2040 57.96                             144   -0.4010  101 176 
 RUS  HZ I        2040 59.28         9.6 0.38            144            101 176 
 PTB  HZ EP       2040 42.68                             132   -0.37 9  149 259 
 PTB  HN ES       2041  4.05                             132   -0.08 9  149 259 
 PTB  HZ I        2041  5.51        15.5 0.14            130            149 259 
 OCA  HZ EP       2040 44.57                             130    0.30 9  160 353 
 OCA  HN ES       2041  6.80                             130    0.50 9  160 353 
 OCA  HZ I        2041 10.72        13.6 0.26            130            160 353 
 SPBC HZ EP       2040 44.72                             129    0.12 9  164 219 
 SPBC HN ES       2041  6.56                             129   -0.33 9  164 219 
 SPBC HZ I        2041 13.76        24.9 0.34            128            164 219 
 ZAR  HN ES       2041 13.69                             122   -0.13 9  204 292 
 ZAR  HZ I        2041 19.34        20.8 0.34            121            204 292 
 NOR  HZ EP       2040 51.85                             118    0.00 8  236 234 
 NOR  HN ES       2041 20.40                             118    0.61 8  236 234 
 NOR  HZ I        2041 27.45        11.9 0.16            118            236 234 
 SML  HZ EP       2040 51.90                             117   -0.70 8  243 335 
 SML  HN ES       2041 20.64                             117   -0.50 8  243 335 
 SML  HZ I        2041 27.34        22.4 0.10            118            243 335 
 CHI  HZ EP       2040 53.73                             117   -0.08 8  249 195 
 CHI  HN ES       2041 23.26                             117   -0.02 8  249 195 
 CHI  HZ I        2041 29.91         3.4 0.22            117            249 195 
 TOL  SN ES       2041 42.89                             109    0.79 7  344 225 
 TOL  SZ I        2041 47.24        12.6 0.36            109            344 225 
                                                                                
