 2015 1213 2200 58.7 L   6.799 -73.162138.9  RSN 17 0.5 2.3LRSN                1
 GAP=134        1.20       3.2     4.2  5.9 -0.3900E+01  0.1042E+02 -0.9575E+00E
 Epicentro: LOS SANTOS - SANTANDER                                             3
 ACTION:UPD 16-02-04 15:04 OP:cam  STATUS:               ID:20151213220058 L   I
 OLDACT:REG 15-12-14 05:01 OP:ak   STATUS:               ID:20151213215748     3
 2015-12-13-2157-48M.COL___349                                                 6
 STAT SP IPHASW D HRMM SECON CODA AMPLIT PERI AZIMU VELO AIN AR TRES W  DIS CAZ7
 BAR2 EZ EP       22 1 17.60                             170    0.0710 23.0 186 
 BAR2 EZ ES       22 1 32.30                             170    0.1110 23.0 186 
 BAR2 EZ I        22 1 33.17        39.1 0.30            170           23.0 186 
 BRR  HZ IP     D 22 1 19.54                             152    0.4910 69.6 299 
 BRR  HN ES       22 1 35.97                             152    1.0710 69.6 299 
 BRR  HZ I        22 1 40.52        31.2 0.12            149           69.6 299 
 PAM  EZ EP       22 1 20.54                             149    0.2410 78.7  41 
 PAM  EN ES       22 1 37.36                             149    0.2410 78.7  41 
 PAM  EZ I        22 1 38.05        25.9 0.38            152           78.7  41 
 RUS  HZ EP       22 1 21.51                             142   -0.3010  101 175 
 RUS  HE ES       22 1 39.43                             142   -0.3910  101 175 
 RUS  HZ I        22 1 40.76        20.6 0.24            146            101 175 
 PTB  HZ EP       22 1 24.27                             131   -0.71 9  146 259 
 PTB  HN ES       22 1 44.63                             131   -0.82 9  146 259 
 PTB  HZ I        22 1 48.06        32.3 0.14            130            146 259 
 OCA  HZ EP       22 1 26.71                             128    0.21 9  160 354 
 OCA  HN ES       22 1 47.32                             128   -0.85 9  160 354 
 OCA  HZ I        22 1 55.87        62.7 0.26            129            160 354 
 SPBC HZ EP   2   22 1 26.85                             128    0.26 5  162 219 
 SPBC HN ES       22 1 47.97                             128   -0.35 9  162 219 
 SPBC HZ I        22 1 49.69        26.9 0.38            129            162 219 
 ZAR  HZ EP       22 1 31.19                             121    0.63 9  202 292 
 ZAR  HE ES   2   22 1 56.47                             121    1.08 4  202 292 
 ZAR  HZ I        22 2  2.99        19.3 0.29            121            202 292 
 NOR  HZ EP       22 1 34.19                             117    0.29 8  233 234 
 NOR  HN ES       22 2  1.37                             117    0.04 8  233 234 
 NOR  HZ I        22 2  3.36        13.2 0.18            118            233 234 
 SML  HZ EP       22 1 34.35                             116   -0.55 8  243 336 
 SML  HN ES       22 2  2.31                             116   -0.81 8  243 336 
 SML  HZ I        22 2  6.61        25.2 0.15            117            243 336 
 HEL  HZ EP   2   22 1 39.06                             114    0.66 4  270 256 
 HEL  HN ES       22 2  9.19                             114   -0.15 8  270 256 
 HEL  HZ I        22 2 16.29         8.1 0.22            114            270 256 
 GUY2CHZ EP       22 1 42.67                             111    0.82 7  300 235 
 GUY2CHN ES       22 2 14.88                             111   -0.60 7  300 235 
 GUY2CHZ I        22 2 22.92         8.9 0.32                           300 235 
 ELA  HZ EP   4   22 1 48.24                             109    3.11 0  328 229 
 ELA  HE ES   4   22 2 23.34                             109    2.02 0  328 229 
 ELA  HZ I        22 2 28.62         9.2 0.44            110            328 229 
 CBOC HZ EP       22 1 45.68                             109    0.52 7  332 252 
 CBOC HN ES       22 2 22.04                             109    0.66 7  332 252 
 CBOC HZ I        22 2 25.49         2.9 0.40            110            332 252 
 DBB  SZ EP       22 1 46.01                             108    0.29 7  338 274 
 DBB  SZ ES       22 2 22.15                             108   -0.23 7  338 274 
 ANIL HN ES   2   22 2 27.53                             107    0.89 3  356 224 
 PRA  HZ EP       22 1 51.31                             105   -0.59 6  391 209 
 PRA  HE ES       22 2 33.43                             105    0.06 6  391 209 
 PRA  HZ I        22 2 42.04         3.7 0.56            107            391 209 
                                                                                
