 2017  113 2320 37.5 L   6.805 -73.160146.8  RSN  4 0.2 1.3LRSN                1
 GAP=134        0.62       3.3     3.0  6.7 -0.1433E+00  0.6359E+01 -0.8133E-01E
 Epicentro: LOS SANTOS - SANTANDER                                             3
 ACTION:UPD 17-05-22 15:59 OP:jn   STATUS:               ID:20170113232037 L   I
 OLDACT:REG 17-01-14 05:10 OP:lv   STATUS:               ID:20170113231739     3
 2017-01-13-2318-00M.COL___331                                                 6
 STAT SP IPHASW D HRMM SECON CODA AMPLIT PERI AZIMU VELO AIN AR TRES W  DIS CAZ7
 PAM  EZ EP       2320 59.97                             151    0.1410 78.0  41 
 PAM  EN ES       2321 17.10                             151   -0.1710 78.0  41 
 PAM  EZ I        2321 19.79         2.2 0.20            153           78.0  41 
 RUS  HZ EP       2321  1.31                             144   -0.0610  101 175 
 RUS  HE ES       2321 20.24                             144    0.2310  101 175 
 RUS  HZ I        2321 21.03         2.6 0.28            148            101 175 
 PTB  HZ EP       2321  4.19                             132   -0.20 9  146 258 
 PTB  HN ES       2321 25.09                             132   -0.29 9  146 258 
 PTB  HZ I        2321 27.79         2.9 0.32            134            146 258 
 ZAR  HE ES       2321 35.43                             123    0.40 9  202 292 
 ZAR  HZ I        2321 40.85         3.0 0.15            124            202 292 
                                                                                
