 2011 1113 2247 21.1 L   6.769 -73.123145.1  RSN 10 0.5 2.0LRSN                1
 GAP=141        0.75       3.9     5.0  5.6 -0.3530E+01  0.8167E+01  0.2460E+01E
 Epicentro: LOS SANTOS - SANTANDER                                             3
 ACTION:UPD 12-07-13 16:10 OP:ep   STATUS:               ID:20111113224721 L   I
 2011-11-13-2244-50S.COL___179                                                 6
 STAT SP IPHASW D HRMM SECON CODA AMPLIT PERI AZIMU VELO AIN AR TRES W  DIS CAZ7
 BAR2 SZ IP       2247 40.51                             172   -0.0910 20.6 199 
 BAR2 SZ ES   1   2247 55.93                             172    0.12 7 20.6 199 
 BAR2 SZ I        2247 58.31        22.7 0.46                          20.6 199 
 BRR  HZ IP     D 2247 42.41                             151    0.0010 75.1 300 
 BRR  HN ES   1   2247 59.22                             151    0.20 7 75.1 300 
 BRR  HZ I        2248  2.13        24.7 0.16                          75.1 300 
 PAM  SZ EP       2247 43.25                             150   -0.0710 78.6  36 
 PAM  SE ES   1   2248  0.52                             150   -0.13 7 78.6  36 
 RUS  HZ EP       2247 44.38                             145   -0.1510 97.0 177 
 RUS  HZ I        2247 45.75         7.1 0.48                          97.0 177 
 RUS  HE ES   2   2248  2.58                             145   -0.23 5 97.0 177 
 OCA  SZ EP       2247 49.97                             129    0.25 9  164 352 
 OCA  SZ I        2248 16.23        12.1 0.23                           164 352 
 ZAR  HZ EP   3   2247 52.05                             122   -1.84 2  208 293 
 ZAR  HN ES   2   2248 19.09                             122   -0.37 4  208 293 
 ZAR  HZ I        2248 24.80        16.1 0.32                           208 293 
 CTAB SZ EP   2   2247 57.56                             119    0.92 4  228 212 
 NOR  SZ EP       2247 56.27                             118   -0.54 8  235 236 
 NOR  SN ES   2   2248 23.86                             118   -0.79 4  235 236 
 CHI  HZ EP   2   2247 58.39                             117   -0.09 4  246 196 
 CHI  HE ES   2   2248 29.02                             117    1.39 4  246 196 
 CHI  HZ I        2248 35.55         4.5 0.30                           246 196 
 HEL  HZ EP       2248  2.06                             114    0.59 8  274 257 
 HEL  HZ I        2248 41.15         4.5 0.32                           274 257 
                                                                                
