 2012 1013 2343  4.7 L   6.781 -73.126148.4  RSN  7 0.3 2.0LRSN                1
 GAP=140        0.65       3.5     4.4  5.5  0.7528E+00  0.5053E+01  0.3842E+01E
 Epicentro: LOS SANTOS - SANTANDER                                             3
 ACTION:UPD 12-11-22 17:03 OP:ep   STATUS:               ID:20121013234304 L   I
 2012-10-13-2340-00M.COL___231                                                 6
 STAT SP IPHASW D HRMM SECON CODA AMPLIT PERI AZIMU VELO AIN AR TRES W  DIS CAZ7
 BAR2 SZ EP       2343 24.51                             171   -0.1410 21.8 197 
 BAR2 SZ ES   1   2343 40.30                             171    0.11 7 21.8 197 
 BAR2 SZ I        2343 42.26        20.5 0.28                          21.8 197 
 BRR  HZ EP   1   2343 26.53                             152    0.20 7 74.1 299 
 BRR  HN ES   1   2343 43.70                             152    0.52 7 74.1 299 
 BRR  HN I        2343 46.39        35.7 0.16                          74.1 299 
 PAM  SZ EP       2343 27.39                             151    0.1410 77.7  37 
 PAM  SN ES   1   2343 44.52                             151   -0.29 7 77.7  37 
 PAM  SN I        2343 46.31        16.7 0.46                          77.7  37 
 RUS  HZ EP   1   2343 28.47                             145   -0.12 7 98.4 177 
 RUS  HN ES   1   2343 47.10                             145   -0.10 7 98.4 177 
 RUS  HN I        2343 47.85        10.6 0.38                          98.4 177 
 ZAR  HE ES   1   2344  2.50                             123   -0.80 6  207 292 
 ZAR  HN I        2344  6.57        12.2 0.10                           207 292 
 CHI  HZ EP   1   2343 42.36                             118   -0.06 6  247 196 
 CHI  HN ES   1   2344 11.78                             118   -0.04 6  247 196 
 CHI  HN I        2344 15.76         7.0 0.22                           247 196 
 HEL  HZ EP   1   2343 45.82                             115    0.56 6  274 256 
                                                                                
