 2015  113 2348 56.4 L   6.807 -73.145144.9  RSN 28 0.6 3.0LRSN                1
 GAP= 55        1.38       2.8     3.3  5.5 -0.6576E+00  0.4012E+01  0.1765E+01E
 Epicentro: LOS SANTOS - SANTANDER                                             3
 ACTION:UPD 15-03-02 15:39 OP:nd   STATUS:               ID:20150113234856 L   I
 OLDACT:UP  15-01-14 08:41 OP:FJMB STATUS:               ID:20150113234856 L   3
 OLDACT:UP  15-01-14 06:42 OP:nlst STATUS:               ID:20150113234856 L   3
 OLDACT:REG 15-01-14 04:16 OP:fm   STATUS:               ID:20150113234747     3
 2015-01-13-2347-47M.COL___253                                                 6
 STAT SP IPHASW D HRMM SECON CODA AMPLIT PERI AZIMU VELO AIN AR TRES W  DIS CAZ7
 BAR2 EZ EP       2349 16.19                             170    0.2210 24.1 190 
 BAR2 EZ ES       2349 30.71                             170   -0.5110 24.1 190 
 BAR2 EZ I        2349 32.82       480.3 0.18            169           24.1 190 
 BRR  HZ EP     D 2349 18.13                             152    0.6610 70.9 298 
 BRR  HE ES       2349 35.35                             152    1.4710 70.9 298 
 BRR  HZ I        2349 39.31       130.2 0.30            152           70.9 298 
 PAM  SZ IP     D 2349 19.04                             151    0.5310 76.7  40 
 PAM  SE ES       2349 35.94                             151    0.2010 76.7  40 
 PAM  SZ I        2349 38.78       183.5 0.62            151           76.7  40 
 RUS  HZ IP     C 2349 20.10                             143   -0.0510  101 176 
 RUS  HE ES       2349 37.99                             143   -0.6710  101 176 
 RUS  HZ I        2349 40.12       201.6 0.28            142            101 176 
 PTB  HZ EP       2349 22.70                             132   -0.65 9  148 259 
 PTB  HN ES       2349 43.58                             132   -0.77 9  148 259 
 PTB  HZ I        2349 46.75       114.6 0.16            131            148 259 
 TAM  HZ IP     D 2349 24.51                             130    0.46 9  155 105 
 TAM  HZ I        2349 45.31        69.8 0.38            130            155 105 
 TAM  HE ES       2349 45.33                             130   -0.26 9  155 105 
 OCA  HZ EP       2349 24.31                             130   -0.29 9  159 353 
 OCA  HE ES       2349 46.60                             130    0.03 9  159 353 
 OCA  HZ I        2349 50.17       109.9 0.20            130            159 353 
 SPBC HZ EP       2349 25.06                             129    0.13 9  164 219 
 SPBC HE ES       2349 47.35                             129    0.19 9  164 219 
 SPBC HZ I        2349 49.99       300.0 0.24            128            164 219 
 ZAR  HZ EP       2349 28.81                             122    0.01 9  204 292 
 ZAR  HE ES       2349 53.84                             122   -0.21 9  204 292 
 ZAR  HZ I        2350  0.50        90.7 0.30            122            204 292 
 NOR  HZ EP       2349 32.32                             118    0.15 8  235 234 
 NOR  HE ES       2349 59.67                             118   -0.38 8  235 234 
 NOR  HZ I        2350  3.81       115.8 0.14            117            235 234 
 SML  HZ EP       2349 32.65                             117   -0.28 8  243 335 
 SML  HN ES       2350  0.87                             117   -0.54 8  243 335 
 SML  HZ I        2350  3.43       106.1 0.32            117            243 335 
 CHI  HZ EP       2349 34.29                             117    0.12 8  249 195 
 CHI  HN ES       2350  2.92                             117   -0.68 8  249 195 
 CHI  HZ I        2350 12.34        54.8 0.38            116            249 195 
 ROSC BZ EP       2349 35.62                             116    1.04 8  254 211 
 ROSC BN ES   4   2350  8.02                             116    3.68 0  254 211 
 ROSC BZ I        2350 11.18       140.5 0.45            116            254 211 
 HEL  HZ EP       2349 37.45                             115    0.82 8  272 256 
 HEL  HN ES       2350  8.96                             115    0.97 8  272 256 
 HEL  HZ I        2350 15.24        66.0 0.36            114            272 256 
 URE  HE ES       2350  7.42                             113   -2.00 7  284 292 
 URE  HZ I        2350 14.91        46.6 0.14            113            284 292 
 VIL  SZ EP       2349 39.96                             112    0.06 7  304 192 
 VIL  SN ES       2350 13.87                             112    0.07 7  304 192 
 VIL  SZ I        2350 23.27        77.8 0.42            111            304 192 
 PTGC HZ EP     C 2349 39.15                             111   -1.18 7  309 159 
 PTGC HE ES   4   2350 11.56                             111   -3.01 0  309 159 
 PTGC HZ I        2350 14.83        27.6 0.20            111            309 159 
 RREF HZ EP   4   2349 43.24                             111    0.64 0  322 229 
 RREF HN ES   4   2350 20.70                             111    2.08 0  322 229 
 RREF HZ I        2350 23.36        74.4 0.32            110            322 229 
 CBOC HZ EP       2349 43.83                             110    0.48 7  334 252 
 CBOC HN ES       2350 19.66                             110   -0.29 7  334 252 
 CBOC HZ I        2350 24.29        20.3 0.22            109            334 252 
 DBB  SZ EP       2349 43.70                             109   -0.18 7  340 274 
 DBB  SZ ES   4   2350 19.27                             109   -1.62 0  340 274 
 DBB  SZ I        2350 24.08       133.8 0.68            109            340 274 
 TOL  SZ EP       2349 45.34                             109    0.61 7  344 225 
 TOL  SN ES       2350 23.03                             109    0.63 7  344 225 
 TOL  SZ I        2350 28.44       113.6 0.24            108            344 225 
 MON  HZ EP   4   2349 43.23                             108   -2.12 0  353 308 
 MON  HE ES   4   2350 22.02                             108   -1.49 0  353 308 
 MON  HZ I        2350 24.29        21.3 0.48            108            353 308 
 ANIL HZ EP       2349 46.54                             108    0.26 6  358 224 
 ANIL HN ES       2350 25.30                             108    0.14 6  358 224 
 ANIL HZ I        2350 32.83        14.0 0.46            108            358 224 
 ARGC HZ EP       2349 45.42                             108   -0.55 6  359 340 
 ARGC HE ES       2350 25.03                             108    0.42 6  359 340 
 ARGC HZ I        2350 35.42        23.2 0.26            108            359 340 
 SDV  BZ EP       2349 45.70                             108   -0.67 6  360  50 
 SDV  BN ES   4   2350 22.75                             108   -2.57 0  360  50 
 SDV  BZ I        2350 26.09        15.0 0.35            108            360  50 
 ORTC HZ EP       2349 50.24                             106   -0.16 6  396 216 
 ORTC HE ES       2350 32.34                             106   -0.16 6  396 216 
 ORTC HZ I        2350 39.62        58.5 0.70            106            396 216 
 PAL  HZ EP       2349 51.64                             106    0.02 6  406 239 
 PAL  HE ES   4   2350 33.71                             106   -0.96 0  406 239 
 PAL  HZ I        2350 44.92        20.8 0.32            105            406 239 
 SJC  HZ EP   4   2349 50.45                             106   -1.44 0  409 327 
 SJC  HN ES   4   2350 30.77                             106   -4.38 0  409 327 
 SJC  HZ I        2350 35.85        19.5 0.56            105            409 327 
 MACC HE ES   4   2350 52.63                             101   -6.23 0  521 189 
 MARA HZ EP   4   2350  6.10                             101   -1.42 0  538 216 
 GARC HZ EP   4   2350 10.11                             100   -1.65 0  574 207 
 GARC HE ES   4   2351  3.29                             100   -7.22 0  574 207 
                                                                                
