 2014 1113 2316 12.6 L   6.792 -73.174145.1  RSN  5 0.4 1.8LRSN                1
 GAP=133        1.10       5.3     5.5  9.7 -0.7561E+01  0.3322E+01  0.5726E+01E
 Epicentro: LOS SANTOS - SANTANDER                                             3
 ACTION:UPD 14-12-19 15:42 OP:nd   STATUS:               ID:20141113231612 L   I
 OLDACT:REG 14-11-14 09:33 OP:carl STATUS:               ID:20141113230748     3
 2014-11-13-2307-48M.COL___289                                                 6
 STAT SP IPHASW D HRMM SECON CODA AMPLIT PERI AZIMU VELO AIN AR TRES W  DIS CAZ7
 BRR  HZ EP       2316 33.74                             153    0.2210 69.0 300 
 BRR  HN ES       2316 50.58                             153    0.7210 69.0 300 
 BRR  HZ I        2316 54.80        12.1 0.32            153           69.0 300 
 PAM  SZ EP       2316 34.98                             150    0.1010 80.1  41 
 PAM  SN ES       2316 51.60                             150   -0.6810 80.1  41 
 PAM  SZ I        2316 54.25        12.3 0.66            157           80.1  41 
 RUS  HZ EP       2316 36.62                             144    0.4110 99.9 174 
 RUS  HN ES       2316 54.78                             144    0.1410 99.9 174 
 RUS  HZ I        2316 56.67         5.1 0.32            146           99.9 174 
 PTB  HZ EP       2316 38.88                             132   -0.32 9  145 259 
 PTB  HN ES       2316 59.56                             132   -0.40 9  145 259 
 PTB  HZ I        2317  4.77         7.8 0.10            134            145 259 
 SPBC HN ES       2317  2.43                             129   -0.33 9  161 218 
 SPBC HZ I        2317 12.09        12.2 0.18            131            161 218 
                                                                                
