 2012  813 2030 49.0 L   6.763 -73.155153.6  RSN  5 0.4 1.5LRSN                1
 GAP=137        0.86       7.1     6.8 10.5  0.2918E+01  0.2047E+02  0.2104E+02E
 Epicentro: LOS SANTOS - SANTANDER                                             3
 ACTION:UPD 12-09-10 11:56 OP:ep   STATUS:               ID:20120813203049 L   I
 2012-08-13-2030-00M.COL___217                                                 6
 STAT SP IPHASW D HRMM SECON CODA AMPLIT PERI AZIMU VELO AIN AR TRES W  DIS CAZ7
 BAR2 SZ ES   1   2031 25.12                             173   -0.40 7 19.1 189 
 BAR2 SZ I        2031 26.23         7.8 0.30                          19.1 189 
 BRR  HE ES   1   2031 29.11                             153    0.81 7 72.3 302 
 PAM  SN ES   1   2031 30.16                             151   -0.31 7 81.3  38 
 RUS  HZ EP   1   2031 13.60                             146    0.32 7 96.6 175 
 RUS  HN ES   1   2031 32.37                             146    0.17 7 96.6 175 
 RUS  HZ I        2031 34.99         3.4 0.49                          96.6 175 
 PTB  HZ EP   1   2031 16.29                             134   -0.20 7  146 260 
 PTB  HN ES   1   2031 37.42                             134   -0.48 7  146 260 
 PTB  HZ I        2031 45.03         4.3 0.55                           146 260 
                                                                                
