 2015 1213 2233 25.0 L   6.817 -73.122145.7  RSN  8 0.3 1.7LRSN                1
 GAP=139        0.75       2.7     3.8  5.5 -0.1649E+01  0.9584E+01 -0.1312E+01E
 Epicentro: LOS SANTOS - SANTANDER                                             3
 ACTION:UPD 16-02-04 15:04 OP:cam  STATUS:               ID:20151213223325 L   I
 OLDACT:REG 15-12-14 05:02 OP:ak   STATUS:               ID:20151213222748     3
 2015-12-13-2227-48M.COL___349                                                 6
 STAT SP IPHASW D HRMM SECON CODA AMPLIT PERI AZIMU VELO AIN AR TRES W  DIS CAZ7
 BAR2 EZ EP       2233 44.64                             170   -0.0510 25.7 195 
 BAR2 EZ ES       2233 59.79                             170   -0.2410 25.7 195 
 BAR2 EZ I        2234  0.64        10.9 0.26            169           25.7 195 
 PAM  EZ EP       2233 47.35                             152    0.3110 74.3  39 
 PAM  EN ES       2234  4.58                             152    0.3610 74.3  39 
 PAM  EZ I        2234  6.61         8.0 0.20            154           74.3  39 
 RUS  HZ EP       2233 48.52                             143   -0.3610  102 178 
 RUS  HE ES       2234  7.46                             143   -0.0410  102 178 
 RUS  HZ I        2234  7.95         3.3 0.44            145            102 178 
 SPBC HZ EP       2233 53.46                             128   -0.34 9  166 219 
 SPBC HN ES       2234 16.39                             128    0.14 9  166 219 
 SPBC HZ I        2234 17.70         6.4 0.25            129            166 219 
 ZAR  HZ EP   2   2233 57.95                             122    0.32 4  206 291 
 ZAR  HN ES       2234 23.26                             122    0.18 8  206 291 
 NOR  HZ EP   2   2234  1.00                             118   -0.08 4  238 234 
 NOR  HE ES       2234 29.25                             118    0.04 8  238 234 
 NOR  HZ I        2234 36.34         4.7 0.16            119            238 234 
 SML  HZ EP   2   2234  1.22                             117   -0.35 4  243 335 
 SML  HN ES       2234 29.53                             117   -0.56 8  243 335 
 SML  HZ I        2234 33.32        10.2 0.15            118            243 335 
 GUY2CHZ EP       2234  9.76                             112    0.78 7  304 235 
 GUY2CHE ES   4   2234 46.00                             112    2.73 0  304 235 
 GUY2CHZ I        2234 51.41         3.3 0.70                           304 235 
                                                                                
