 2014 1213 2146 44.3 L   6.810 -73.161146.3  RSN  8 0.3 2.2LRSN                1
 GAP=134        0.75       2.4     3.2  4.8 -0.3584E+00  0.5260E+01 -0.1150E+00E
 Epicentro: LOS SANTOS - SANTANDER                                             3
 ACTION:UPD 15-02-10 17:03 OP:nd   STATUS:               ID:20141213214644 L   I
 OLDACT:REG 14-12-14 06:26 OP:carl STATUS:               ID:20141213213745     3
 2014-12-13-2137-45M.COL___291                                                 6
 STAT SP IPHASW D HRMM SECON CODA AMPLIT PERI AZIMU VELO AIN AR TRES W  DIS CAZ7
 BAR2 EZ EP       2147  4.12                             170    0.1010 24.2 186 
 BAR2 EZ ES       2147 19.56                             170    0.1710 24.2 186 
 BAR2 EZ I        2147 20.50        52.5 0.18            170           24.2 186 
 PAM  SZ EP       2147  6.88                             151    0.2910 77.6  41 
 PAM  SN ES       2147 24.00                             151    0.0310 77.6  41 
 PAM  SZ I        2147 26.40        18.2 0.64            153           77.6  41 
 RUS  HZ EP       2147  8.09                             144   -0.1110  102 175 
 RUS  HN ES       2147 26.61                             144   -0.2210  102 175 
 RUS  HZ I        2147 27.90        18.0 0.30            145            102 175 
 PTB  HZ EP       2147 10.82                             132   -0.37 9  146 258 
 PTB  HN ES       2147 31.89                             132   -0.26 9  146 258 
 PTB  HZ I        2147 33.77        11.6 0.12            131            146 258 
 ZAR  HZ EP   4   2147 16.43                             123   -0.15 0  202 292 
 ZAR  HN ES       2147 42.36                             123    0.61 9  202 292 
 ZAR  HZ I        2147 51.20        14.2 0.34            122            202 292 
 NOR  HZ EP       2147 20.56                             119    0.57 8  234 234 
 NOR  HN ES       2147 47.80                             119   -0.02 8  234 234 
 NOR  HZ I        2147 53.34        13.9 0.16            118            234 234 
 SML  HZ EP       2147 20.57                             118   -0.20 8  242 336 
 SML  HN ES       2147 48.66                             118   -0.56 8  242 336 
 SML  HZ I        2147 57.55        16.9 0.10            117            242 336 
 CHI  HZ EP       2147 22.18                             117    0.08 8  249 195 
 CHI  HE ES       2147 51.43                             117   -0.15 8  249 195 
 CHI  HZ I        2147 58.59         6.3 0.44            118            249 195 
                                                                                
