 2011  513 2207 28.1 L   6.786 -73.073141.7  RSN  8 0.3 2.0LRSN                1
 GAP=147        0.63       4.1     5.8  6.6 -0.1538E+01  0.9862E+01  0.7843E+01E
 Epicentro: LOS SANTOS - SANTANDER                                             3
 ACTION:UP  11-06-29 08:53 OP:tino STATUS:               ID:20110513220728 L   I
 2011-05-13-2200-00M.COL___142                                                 6
 STAT SP IPHASW D HRMM SECON CODA AMPLIT PERI AZIMU VELO SNR AR TRES W  DIS CAZ7
 BAR2 SZ EP   1   22 7 47.09                             170    -0.2 7   25 209 
 BAR2 SZ I        22 8  3.93        32.2 0.20                            25 209 
 BTL  SZ EP   1   22 7 47.41                             169     0.1 7   26 304 
 PAM  SZ EP   1   22 7 50.13                             151     0.5 7   74  34 
 PAM  SN ES   1   22 8  6.23                             151    -0.3 7   74  34 
 BRR  HZ EP       22 7 49.13                             149    -0.110   79 297 
 BRR  HN ES   1   22 8  5.87                             149     0.1 7   79 297 
 BRR  HZ I        22 8  8.02        24.6 0.16                            79 297 
 RUS  HZ EP   1   22 7 51.20                             143    -0.1 7   99 181 
 RUS  HN ES   1   22 8  9.60                             143     0.2 7   99 181 
 RUS  HZ I        22 8 11.20         7.3 0.12                            99 181 
 HEL  HZ EP   2   22 8  9.26                             113     0.3 4  279 257 
 HEL  HZ I        22 8 47.51         7.1 0.26                           279 257 
 RREF HZ EP   2   22 8 15.42                             110     0.8 3  327 231 
 RREF HZ I        22 8 55.97         5.9 0.43                           327 231 
 PRA  HZ EP   1   22 8 21.05                             106    -0.7 4  395 211 
 PRA  HN ES   2   22 9  3.62                             106     0.0 3  395 211 
                                                                                
