 2013  213 2022 20.4 L   6.752 -73.128147.4  RSN  6 0.3 1.8LRSN                1
 GAP=141        0.71       4.5     4.6  5.9 -0.2752E+01  0.3643E+01  0.2816E+01E
 Epicentro: LOS SANTOS - SANTANDER                                             3
 ACTION:UPD 13-03-12 09:32 OP:ep   STATUS:               ID:20130213202220 L   I
 2013-02-13-2020-00M.COL___241                                                 6
 STAT SP IPHASW D HRMM SECON CODA AMPLIT PERI AZIMU VELO AIN AR TRES W  DIS CAZ7
 BAR2 SZ ES   1   2022 55.48                             172   -0.05 7 18.7 199 
 BAR2 SZ I        2022 56.93        26.8 0.19            170           18.7 199 
 BRR  HZ EP       2022 42.17                             151    0.2010 75.5 301 
 BRR  HE ES   1   2022 59.43                             151    0.64 7 75.5 301 
 BRR  HE I        2023  0.22        16.1 0.17            150           75.5 301 
 PAM  SZ EP       2022 43.05                             150    0.0810 80.4  36 
 PAM  SZ I        2022 43.47         9.9 0.27            154           80.4  36 
 PAM  SN ES   1   2023  0.10                             150   -0.47 7 80.4  36 
 RUS  HZ EP   1   2022 43.85                             146   -0.08 7 95.2 177 
 RUS  HE ES   1   2023  2.36                             146    0.08 7 95.2 177 
 RUS  HE I        2023  3.90        11.0 0.49            146           95.2 177 
 PTB  HZ EP       2022 47.27                             132   -0.32 9  149 261 
 PTB  HE ES   1   2023  8.34                             132   -0.45 7  149 261 
 PTB  HE I        2023 13.91         5.4 0.25            131            149 261 
 CHI  HZ EP   1   2022 58.09                             118    0.40 6  244 196 
                                                                                
