 2014  713 2138 38.8 L   6.807 -73.149144.2  RSN 23 0.5 2.7LRSN                1
 GAP= 71        1.05       2.4     2.8  5.0 -0.1100E+01  0.3353E+01  0.1547E+01E
 Epicentro: LOS SANTOS - SANTANDER                                             3
 ACTION:UPD 15-03-16 20:43 OP:nd   STATUS:               ID:20140713213838 L   I
 OLDACT:UP  14-07-28 10:52 OP:CAM  STATUS:               ID:20140713213838 L   3
 OLDACT:REG 14-07-14 02:56 OP:spq  STATUS:               ID:20140713213813     3
 2014-07-13-2138-13M.COL___256                                                 6
 STAT SP IPHASW D HRMM SECON CODA AMPLIT PERI AZIMU VELO AIN AR TRES W  DIS CAZ7
 BAR2 SZ IP     C 2138 58.63                             170    0.3610 24.0 189 
 BAR2 SZ ES   1   2139 13.03                             170   -0.42 7 24.0 189 
 BAR2 SZ I        2139 15.46        65.5 0.24            168           24.0 189 
 BRR  HZ IP     D 2139  0.48                             152    0.7310 70.5 298 
 BRR  HN ES       2139 16.49                             152    0.4010 70.5 298 
 BRR  HZ I        2139 21.09        44.5 0.08            151           70.5 298 
 PAM  SZ EP       2139  1.38                             151    0.5510 77.0  40 
 PAM  SE ES   1   2139 18.59                             151    0.57 7 77.0  40 
 PAM  SZ I        2139 21.05       116.5 0.47            156           77.0  40 
 RUS  HZ EP       2139  2.49                             143    0.0310  101 176 
 RUS  HN ES       2139 21.05                             143    0.1310  101 176 
 RUS  HZ I        2139 23.89        48.4 0.46            145            101 176 
 PTB  HZ EP       2139  5.22                             132   -0.41 9  148 259 
 PTB  HN ES       2139 26.14                             132   -0.41 9  148 259 
 PTB  HZ I        2139 28.99        45.6 0.10            131            148 259 
 TAM  HZ IP     D 2139  6.76                             130    0.35 9  156 105 
 TAM  HN ES       2139 26.85                             130   -1.10 9  156 105 
 OCA  HZ EP       2139  6.59                             129   -0.33 9  159 353 
 OCA  HN ES       2139 28.73                             129   -0.12 9  159 353 
 OCA  HZ I        2139 33.55        55.2 0.32            132            159 353 
 SPBC HZ EP       2139  7.47                             129    0.25 9  164 219 
 SPBC HN ES       2139 29.31                             129   -0.08 9  164 219 
 SPBC HZ I        2139 34.66        88.8 0.20            129            164 219 
 ZAR  HZ EP       2139 11.00                             122   -0.08 9  203 292 
 ZAR  HN ES       2139 35.86                             122   -0.40 9  203 292 
 ZAR  HZ I        2139 44.10        39.7 0.32            123            203 292 
 NOR  HZ EP       2139 14.32                             118   -0.14 8  235 234 
 NOR  HE ES       2139 42.14                             118   -0.14 8  235 234 
 NOR  HZ I        2139 46.94        35.0 0.18            119            235 234 
 SML  HZ EP       2139 14.93                             117   -0.32 8  243 335 
 SML  HN ES       2139 43.67                             117   -0.01 8  243 335 
 SML  HZ I        2139 46.52        82.5 0.10            119            243 335 
 CHI  HZ EP       2139 16.71                             117    0.22 8  249 195 
 CHI  HE ES   1   2139 45.17                             117   -0.71 6  249 195 
 CHI  HZ I        2139 50.28        19.3 0.36            118            249 195 
 ROSC BZ EP   4   2139 18.02                             116    1.13 0  253 211 
 ROSC BN ES       2139 46.57                             116   -0.03 8  253 211 
 ROSC BZ I        2139 53.08        36.5 0.35            118            253 211 
 HEL  HZ EP   1   2139 19.80                             114    0.88 6  272 256 
 HEL  HN ES       2139 49.89                             114   -0.32 8  272 256 
 HEL  HZ I        2139 56.94        24.2 0.28            115            272 256 
 URE  HZ EP       2139 18.84                             113   -0.89 7  283 292 
 URE  HN ES   4   2139 47.24                             113   -4.41 0  283 292 
 URE  HZ I        2140  4.82        23.9 0.14            114            283 292 
 GUY2CHZ EP   1   2139 22.58                             112    0.22 5  301 235 
 GUY2CHN ES       2139 57.41                             112    1.08 7  301 235 
 GUY2CHZ I        2140  5.30        29.7 0.74                           301 235 
 VIL  SN ES   4   2139 54.93                             112   -1.17 0  304 191 
 VIL  SZ I        2140  1.91        22.3 0.52            113            304 191 
 RREF HZ EP       2139 25.25                             111    0.34 7  322 229 
 RREF HE ES       2140  0.40                             111   -0.47 7  322 229 
 RREF HZ I        2140  9.62        31.6 0.24            112            322 229 
 TOL  SZ EP   1   2139 27.02                             109   -0.01 5  344 225 
 TOL  SN ES       2140  3.87                             109   -0.78 7  344 225 
 TOL  SZ I        2140 10.84        46.5 0.38            110            344 225 
 ANIL HN ES       2140  8.20                             108    0.79 6  358 224 
 ANIL HZ I        2140 15.55        45.2 0.26            109            358 224 
 PRA  HZ EP       2139 31.99                             106   -0.34 6  393 209 
 PRA  HN ES   1   2140 13.67                             106   -0.41 4  393 209 
 PRA  HZ I        2140 19.91        19.5 0.24            108            393 209 
 ORTC HZ EP       2139 32.83                             106    0.11 6  396 216 
 ORTC HN ES       2140 15.33                             106    0.55 6  396 216 
 ORTC HZ I        2140 22.55        12.2 0.22            107            396 216 
 SJC  HZ EP   4   2139 31.17                             105   -3.04 0  408 327 
 SJC  HE ES   4   2140 13.31                             105   -4.13 0  408 327 
 SJC  HZ I        2140 18.34         9.4 0.40            107            408 327 
                                                                                
