 2012  513 2307 29.4 L   6.800 -73.167148.2  RSN  8 0.5 2.4LRSN                1
 GAP=134        1.22       6.1     6.8  9.9 -0.9539E+00  0.7291E+01 -0.1784E+01E
 Epicentro: LOS SANTOS - SANTANDER                                             3
 ACTION:UP  12-07-05 12:04 OP:pat  STATUS:               ID:20120513230729 L   I
 2012-05-13-2300-00M.COL___195                                                 6
 STAT SP IPHASW D HRMM SECON CODA AMPLIT PERI AZIMU VELO SNR AR TRES W  DIS CAZ7
 BAR2 SZ EP       23 7 49.30                             171     0.010   23 184 
 BAR2 SZ ES   1   23 8  4.62                             171    -0.2 7   23 184 
 BAR2 SZ I        23 8  5.63        53.0 0.20                            23 184 
 BRR  HZ IP     C 23 7 51.21                             154     0.610   69 299 
 BRR  HZ I        23 7 51.47        97.1 0.10                            69 299 
 BRR  HN ES   1   23 8  8.35                             154     1.1 7   69 299 
 PAM  SZ EP       23 7 52.12                             151     0.210   79  41 
 PAM  SE ES   1   23 8  9.27                             151    -0.2 7   79  41 
 RUS  HZ EP   1   23 7 53.23                             144    -0.1 7  101 175 
 RUS  HN ES   1   23 8 11.60                             144    -0.5 7  101 175 
 RUS  HZ I        23 8 13.24        25.7 0.43                           101 175 
 PTB  HZ EP   1   23 7 55.70                             133    -0.6 7  145 259 
 PTB  HN ES   1   23 8 17.22                             133    -0.1 7  145 259 
 PTB  HZ I        23 8 23.28        15.5 0.30                           145 259 
 OCA  HZ EP   1   23 7 57.47                             130    -0.4 7  160 354 
 OCA  HE ES   1   23 8 19.68                             130    -0.4 7  160 354 
 OCA  HZ I        23 8 25.85        36.4 0.34                           160 354 
 ZAR  HN ES   1   23 8 26.16                             123    -0.8 6  202 292 
 ZAR  HZ I        23 8 34.36        23.6 0.21                           202 292 
 PRA  HZ EP   1   23 8 23.82                             107     1.0 4  391 209 
                                                                                
