 2016 1013 2322 57.2 L   6.783 -73.198140.0  RSN  4 0.4 1.3LRSN                1
 GAP=230        0.92       8.6     8.0 10.6  0.2741E+02  0.3915E+01  0.1269E+02E
 Epicentro: ZAPATOCA - SANTANDER                                               3
 ACTION:UPD 16-11-09 19:19 OP:rebc STATUS:               ID:20161013232257 L   I
 OLDACT:UP  16-10-14 09:18 OP:dani STATUS:               ID:20161013230835d    3
 OLDACT:DUP 16-10-14 09:15 OP:dani STATUS:               ID:20161013230835d    3
 OLDACT:UP  16-10-14 09:14 OP:dani STATUS:               ID:20161013230834     3
 OLDACT:UP  16-10-14 09:14 OP:dani STATUS:               ID:20161013230834     3
 OLDACT:UP  16-10-14 09:12 OP:dani STATUS:               ID:20161013230834     3
 OLDACT:UP  16-10-14 09:12 OP:dani STATUS:               ID:20161013230834     3
 OLDACT:UP  16-10-14 09:11 OP:dani STATUS:               ID:20161013230834     3
 OLDACT:UP  16-10-14 09:11 OP:dani STATUS:               ID:20161013230834     3
 OLDACT:UP  16-10-14 09:11 OP:dani STATUS:               ID:20161013230834     3
 OLDACT:REG 16-10-14 08:28 OP:dani STATUS:               ID:20161013230834     3
 2016-10-13-2318-00M.COL___362                                                 6
 STAT SP IPHASW D HRMM SECON CODA AMPLIT PERI AZIMU VELO AIN AR TRES W  DIS CAZ7
 BRR  HZ EP       2323 18.05                             153    0.5110 67.1 302 
 BRR  HN ES       2323 32.93                             153   -0.4410 67.1 302 
 BRR  HZ I        2323 34.48         9.1 0.30            153           67.1 302 
 RUS  HZ EP   2   2323 19.74                             143   -0.60 5 99.3 173 
 RUS  HN ES   2   2323 38.99                             143    0.63 5 99.3 173 
 RUS  HZ I        2323 39.37         1.9 0.21            143           99.3 173 
 PTB  HZ EP       2323 22.80                             132   -0.39 9  142 259 
 PTB  HN ES       2323 43.52                             132    0.09 9  142 259 
 PTB  HZ I        2323 46.02         1.9 0.12            132            142 259 
 ZAR  HN ES       2323 53.74                             121    0.26 9  199 293 
                                                                                
