 2011  413 2108 40.8 L   6.805 -73.130152.0  RSN 13 0.4 2.6LRSN                1
 GAP=104        0.76       4.0     4.8  5.2 -0.7769E+01 -0.3013E+00  0.5342E+01E
 Epicentro: LOS SANTOS - SANTANDER                                             3
 ACTION:UP  11-06-22 15:30 OP:REBC STATUS:               ID:20110413210840 L   I
 2011-04-13-2106-40S.COL___139                                                 6
 STAT SP IPHASW D HRMM SECON CODA AMPLIT PERI AZIMU VELO SNR AR TRES W  DIS CAZ7
 BTL  SZ EP   1   21 9  1.20                             173     0.1 7   20 310 
 BTL  SZ ES   1   21 9 16.93                             173     0.0 7   20 310 
 BAR2 SZ IP       21 9  0.99                             171    -0.210   24 194 
 BAR2 SZ ES   2   21 9 16.78                             171    -0.3 5   24 194 
 BAR2 SZ I        21 9 18.78        94.4 0.40                            24 194 
 BRR  HZ EP   1   21 9  2.85                             154     0.2 7   72 298 
 BRR  HZ I        21 9  3.06        78.8 0.15                            72 298 
 BRR  HN ES   1   21 9 20.30                             154     0.5 7   72 298 
 PAM  SZ EP   1   21 9  3.67                             152     0.1 7   76  39 
 PAM  SZ I        21 9  4.12        53.1 0.20                            76  39 
 PAM  SN ES   1   21 9 21.08                             152    -0.3 7   76  39 
 GRA  SZ IP       21 9  6.75                             139     0.210  125  17 
 GRA  SZ I        21 9  8.08        51.2 0.32                           125  17 
 GRA  SZ ES   2   21 9 26.55                             139     0.0 5  125  17 
 OCA  SZ EP   1   21 9  9.27                             131    -0.3 7  160 353 
 OCA  SZ ES   2   21 9 31.98                             131     0.0 5  160 353 
 OCA  SZ I        21 9 35.58        42.5 0.37                           160 353 
 YOP  SZ EP   1   21 9 11.43                             128     0.2 7  179 154 
 YOP  SE ES   2   21 9 35.66                             128     0.6 4  179 154 
 YOP  SZ I        21 9 40.21        16.8 0.27                           179 154 
 NOR  SZ EP   1   21 9 16.69                             120    -0.4 6  236 235 
 NOR  SN ES   1   21 9 44.49                             120    -0.9 6  236 235 
 CHI  HE ES   3   21 9 48.62                                    -0.1 2  250 196 
 CHI  HZ I        21 9 56.51        23.6 0.41                           250 196 
 HEL  HZ EP   3   21 9 21.97                                     0.4 2  274 256 
 HEL  HZ I        21 9 59.14        22.9 0.40                           274 256 
 GUY  SZ EP       21 9 25.93                                     0.8 7  305 235 
 GUY  SN ES   2   21 9 59.53                                    -0.2 4  305 235 
 GUY  SZ I        2110  7.36        33.6 0.45                           305 235 
 SDV  BZ EP   1   21 9 30.34                             109    -0.6 5  359  50 
 SDV  BZ I        2110  7.07        10.5 0.66                           359  50 
 PRA  HZ EP   2   21 9 34.58                             108    -0.1 3  393 210 
 PRA  HE ES   3   2110 17.06                             108     0.3 1  393 210 
                                                                                
