 2014  113 2159 20.6 L   6.796 -73.144145.6  RSN  7 0.3 2.2LRSN                1
 GAP=137        0.82       3.1     3.9  5.2  0.4602E+00  0.6627E+01  0.3544E+01E
 Epicentro: LOS SANTOS - SANTANDER                                             3
 ACTION:UPD 14-03-13 09:55 OP:ep   STATUS:               ID:20140113215920 L   I
 OLDACT:REG 14-01-13 21:16 OP:jn   STATUS:               ID:20140113215745     3
 2014-01-13-2157-45M.COL___253                                                 6
 STAT SP IPHASW D HRMM SECON CODA AMPLIT PERI AZIMU VELO AIN AR TRES W  DIS CAZ7
 BAR2 SZ EP       2159 40.25                             171    0.0110 22.9 191 
 BAR2 SZ ES       2159 55.30                             171   -0.2310 22.9 191 
 BAR2 SZ I        2159 56.44        69.8 0.28            167           22.9 191 
 BRR  HZ EP       2159 42.05                             152    0.2510 71.6 299 
 BRR  HE ES       2159 59.01                             152    0.7210 71.6 299 
 BRR  HZ I        22 0  3.32        33.1 0.16            149           71.6 299 
 PAM  SZ EP       2159 43.20                             151    0.3510 77.6  39 
 PAM  SN ES       2159 59.71                             151   -0.4610 77.6  39 
 PAM  SZ I        22 0  0.96        23.3 0.22            157           77.6  39 
 RUS  HZ EP       2159 44.22                             144   -0.1210  100 176 
 RUS  HN ES       22 0  2.88                             144    0.0510  100 176 
 RUS  HZ I        22 0  3.88        15.5 0.20            144            100 176 
 ZAR  HZ EP       2159 52.91                             122   -0.20 9  204 292 
 ZAR  HN ES       22 0 17.90                             122   -0.54 9  204 292 
 ZAR  HZ I        22 0 23.49        21.8 0.52            122            204 292 
 NOR  HZ EP       2159 56.34                             118   -0.01 8  235 235 
 NOR  HN ES       22 0 24.11                             118   -0.10 8  235 235 
 NOR  HZ I        22 0 33.80         9.3 0.16            118            235 235 
 CHI  HZ EP       2159 58.43                             117    0.14 8  248 195 
 CHI  HN ES       22 0 27.62                             117   -0.04 8  248 195 
 CHI  HZ I        22 0 33.07        12.8 0.32            118            248 195 
                                                                                
