 2013 1013 2339 30.4 L   6.295 -73.718 97.1  RSN  6 0.4 1.2LRSN                1
 GAP= 87        1.06       3.8     3.6  8.2 -0.1856E+01  0.8789E+01  0.4260E+01E
 Epicentro: SANTA HELENA DEL OPON - SANTANDER                                  3
 ACTION:UPD 13-11-25 09:21 OP:ep   STATUS:               ID:20131013233930 L   I
 OLDACT:REG 13-10-13 22:26 OP:stll STATUS:               ID:20131013233841     3
 2013-10-13-2338-41M.COL___236                                                 6
 STAT SP IPHASW D HRMM SECON CODA AMPLIT PERI AZIMU VELO AIN AR TRES W  DIS CAZ7
 BAR2 SZ EP       2339 46.51                             143   -0.0910 67.7  61 
 BAR2 SZ ES       2339 59.81                             143    0.5510 67.7  61 
 BAR2 SZ I        2340  1.64        26.5 0.50            152           67.7  61 
 SPBC HZ EP       2339 47.31                             137   -0.1510 81.2 209 
 SPBC HN ES       2340  1.01                             137    0.2110 81.2 209 
 SPBC HZ I        2340  7.06         4.2 0.22            142           81.2 209 
 RUS  HZ EP       2339 48.01                             137   -0.1710 83.1 122 
 RUS  HE ES       2340  1.69                             137   -0.3810 83.1 122 
 RUS  HZ I        2340  3.31         2.5 0.18            145           83.1 122 
 PTB  HZ EP       2339 46.97                             135   -0.8110 86.1 288 
 PTB  HN ES       2340  1.02                             135   -0.3410 86.1 288 
 PTB  HZ I        2340  6.20         2.1 0.20            140           86.1 288 
 BRR  HZ EP       2339 48.25                             134    0.1610 89.8   0 
 BRR  HN ES       2340  2.15                             134    0.2410 89.8   0 
 BRR  HZ I        2340  4.28         4.2 0.22            142           89.8   0 
 GUY2CHZ EP       2340  2.96                             110    0.64 8  217 237 
 GUY2CHN ES       2340 27.72                             110    0.47 8  217 237 
 GUY2CHZ I        2340 34.43         0.9 0.32                           217 237 
                                                                                
