 2010 1213 2017 55.3 L   6.802 -73.184139.9  RSN 16 0.4 2.9LRSN                1
 GAP=154        0.71       2.5     4.4  4.9 -0.5160E+01  0.9091E+01 -0.3372E-01E
 Epicentro: LOS SANTOS - SANTANDER                                             3
 ACTION:UP  11-01-14 15:24 OP:pat  STATUS:               ID:20101213201755 L   I
 2010-12-13-2016-18S.COL___137                                                 6
 STAT SP IPHASW D HRMM SECON CODA AMPLIT PERI AZIMU VELO SNR AR TRES W  DIS CAZ7
 BTL  SZ EP       2018 14.66                             173     0.510   16 324 
 BAR2 SZ IP       2018 14.25                             170     0.010   23 180 
 BAR2 SZ ES   1   2018 29.06                             170     0.1 7   23 180 
 BAR2 SZ I        2018 30.22       180.5 0.23                            23 180 
 GIR2 SZ IP       2018 14.35                             167     0.110   31 358 
 GIR2 SZ ES   1   2018 29.08                             167     0.0 7   31 358 
 RUS  HZ IP     D 2018 18.34                             142    -0.210  101 174 
 RUS  HE ES   1   2018 36.31                             142    -0.3 7  101 174 
 RUS  HZ I        2018 38.08        83.3 0.39                           101 174 
 GRA  SZ IP       2018 20.19                             135     0.010  127  19 
 GRA  SZ ES   1   2018 39.18                             135    -0.3 7  127  19 
 GRA  SZ I        2018 40.83       121.2 0.39                           127  19 
 OCA  SZ EP       2018 22.78                             128    -0.3 9  160 355 
 OCA  SZ ES   1   2018 44.95                             128     0.1 7  160 355 
 OCA  SZ I        2018 49.31       180.5 0.21                           160 355 
 NOR  SZ EP   1   2018 30.60                             118     0.2 6  231 234 
 NOR  SN ES   1   2018 57.24                             118    -0.5 6  231 234 
 CHI  HZ EP   1   2018 32.37                             116    -0.2 6  248 194 
 CHI  HN ES   1   2019  2.18                             116     0.5 6  248 194 
 CHI  HZ I        2019  7.79        32.1 0.29                           248 194 
 ROSC BZ EP   2   2018 32.95                             116     0.0 4  251 210 
 ROSC BE ES   1   2019  2.36                             116     0.1 6  251 210 
 ROSC BZ I        2019 10.47        50.2 0.34                           251 210 
 HEL  HZ EP   1   2018 35.24                             114     0.5 6  268 256 
 HEL  HE ES   1   2019  5.12                             114    -0.4 6  268 256 
 HEL  HZ I        2019 13.09        50.9 0.35                           268 256 
 GUY  SE ES   2   2019 11.66                             111    -0.2 4  298 234 
 GUY  SZ I        2019 21.41        62.6 0.43                           298 234 
 RREF HZ EP   1   2018 41.25                             110     0.4 5  319 229 
 RREF HE ES   1   2019 16.63                             110     0.3 5  319 229 
 RREF HZ I        2019 24.56        41.7 0.19                           319 229 
 DBB  SZ EP   1   2018 41.76                             109    -0.3 5  335 274 
 DBB  SZ I        2019 23.13        13.4 0.35                           335 274 
 TOL  SZ EP   2   2018 43.83                             108     0.8 3  341 224 
 PRA  HZ EP   1   2018 48.33                             106    -0.1 4  390 209 
 PRA  HN ES   1   2019 29.49                             106    -0.3 4  390 209 
 SJA  SZ EP   2   2018 48.27                             105    -1.3 3  399 192 
 SJA  SZ I        2019 42.29        52.4 0.54                           399 192 
                                                                                
