 2011  413 2127  8.7 L   6.804 -73.118144.9  RSN  5 0.2 2.0LRSN                1
 GAP=159        0.54       5.2     6.1  5.4 -0.2318E+02  0.6957E+01 -0.2459E+01E
 Epicentro: LOS SANTOS - SANTANDER                                             3
 ACTION:UP  11-06-22 15:30 OP:REBC STATUS:               ID:20110413212708 L   I
 2011-04-13-2124-34S.COL___139                                                 6
 STAT SP IPHASW D HRMM SECON CODA AMPLIT PERI AZIMU VELO SNR AR TRES W  DIS CAZ7
 BAR2 SZ EP       2127 28.17                             170    -0.110   24 197 
 BAR2 SZ ES   1   2127 43.82                             170     0.3 7   24 197 
 BAR2 SZ I        2127 44.95        23.6 0.33                            24 197 
 BRR  HZ EP   1   2127 30.17                             151     0.2 7   74 297 
 BRR  HE ES   2   2127 46.47                             151     0.0 5   74 297 
 BRR  HZ I        2127 51.64        28.6 0.13                            74 297 
 PAM  SZ EP   1   2127 30.94                             151     0.2 7   75  38 
 PAM  SN ES   1   2127 47.45                             151    -0.4 7   75  38 
 PAM  SZ I        2127 50.59         7.5 0.44                            75  38 
 GRA  SZ IP       2127 33.83                             137     0.010  124  16 
 GRA  SZ ES   1   2127 53.32                             137     0.0 7  124  16 
 GRA  SZ I        2127 54.55        16.9 0.30                           124  16 
 NOR  SZ EP   2   2127 44.47                             118    -0.2 4  237 235 
 NOR  SE ES   1   2128 12.54                             118    -0.2 6  237 235 
                                                                                
