 2017  813 2139 36.9 L   6.781 -73.920 78.8  RSN  8 0.3 1.4LRSN                1
 GAP= 85        0.84       2.5     2.2  7.1  0.4854E+00  0.6137E+01  0.6628E+01E
 Epicentro: PUERTO PARRA - SANTANDER                                           3
 ACTION:UPD 17-09-04 20:20 OP:rebc STATUS:               ID:20170813213936 L   I
 OLDACT:REG 17-08-14 03:07 OP:osc  STATUS:               ID:20170813213741     3
 2017-08-13-2138-00M.COL___413                                                 6
 STAT SP IPHASW D HRMM SECON CODA AMPLIT PERI AZIMU VELO AIN AR TRES W  DIS CAZ7
 BRR  HZ IP     D 2139 48.84                             149   -0.3610 42.8  33 
 BRR  HE ES       2139 59.25                             149    0.4510 42.8  33 
 BRR  HZ I        2139 59.90        19.5 0.10            154           42.8  33 
 BAR2 EZ EP       2139 52.52                             129   -0.4110 84.2 104 
 BAR2 EZ ES       2140  5.18                             129   -0.2510 84.2 104 
 SPBC HZ EP       2139 56.65                             117   -0.4310  126 188 
 SPBC HE ES       2140 12.65                             117   -0.1710  126 188 
 SPBC HZ I        2140 13.85        10.2 0.07            119            126 188 
 ZAR  HZ EP       2139 57.53                             116    0.0910  130 307 
 ZAR  HE ES       2140 13.16                             116   -0.3010  130 307 
 ZAR  HZ I        2140 16.46         9.4 0.10            118            130 307 
 RUS  HZ EP       2139 59.08                             115    0.4810  135 137 
 RUS  HE ES       2140 15.62                             115    0.1010  135 137 
 RUS  HZ I        2140 16.89         1.8 0.40            118            135 137 
 PAM  EE ES       2140 18.44                             113    0.23 9  148  65 
 NOR  HZ EP       2140  2.58                             109    0.44 9  171 218 
 NOR  HN ES       2140 21.97                             109    0.15 9  171 218 
 NOR  HZ I        2140 26.90         2.8 0.22            111            171 218 
 HEL  HE ES       2140 26.58                             107    0.14 9  189 250 
                                                                                
