 2015  213 2037 10.1 L   6.806 -73.145144.4  RSN 18 0.5 2.7LRSN                1
 GAP= 71        1.16       2.9     3.3  5.2 -0.4414E+00  0.3567E+01  0.1321E+01E
 Epicentro: LOS SANTOS - SANTANDER                                             3
 ACTION:UPD 15-04-30 21:25 OP:nd   STATUS:               ID:20150213203710 L   I
 OLDACT:UP  15-02-14 09:57 OP:cam  STATUS:               ID:20150213202749     3
 OLDACT:UP  15-02-14 09:57 OP:cam  STATUS:               ID:20150213202749     3
 OLDACT:UP  15-02-14 09:57 OP:cam  STATUS:               ID:20150213202749     3
 OLDACT:REG 15-02-14 09:19 OP:cam  STATUS:               ID:20150213202749     3
 2015-02-13-2027-49M.COL___305                                                 6
 STAT SP IPHASW D HRMM SECON CODA AMPLIT PERI AZIMU VELO AIN AR TRES W  DIS CAZ7
 BAR2 EZ IP     C 2037 29.75                             170    0.1210 24.0 190 
 BAR2 EZ ES       2037 44.17                             170   -0.6610 24.0 190 
 BAR2 EZ I        2037 45.49       114.4 0.32            168           24.0 190 
 BRR  HZ IP     C 2037 31.69                             152    0.5510 71.0 298 
 BRR  HN ES       2037 48.42                             152    0.9110 71.0 298 
 BRR  HZ I        2037 52.59       156.6 0.12            150           71.0 298 
 PAM  SZ IP     C 2037 32.65                             151    0.4610 76.8  40 
 PAM  SN ES       2037 49.45                             151    0.0710 76.8  40 
 PAM  SZ I        2037 51.72       131.0 0.44            154           76.8  40 
 RUS  HZ EP       2037 33.66                             143   -0.1610  101 176 
 RUS  HN ES       2037 52.13                             143   -0.1510  101 176 
 RUS  HZ I        2037 52.78        40.2 0.28            144            101 176 
 PTB  HZ EP       2037 36.53                             132   -0.50 9  148 259 
 PTB  HN ES       2037 56.80                             132   -1.19 9  148 259 
 PTB  HZ I        2038  0.01        64.0 0.10            130            148 259 
 TAM  HZ IP     D 2037 38.13                             130    0.40 9  155 105 
 TAM  HE ES       2037 59.21                             130   -0.03 9  155 105 
 TAM  HZ I        2038  0.15        42.8 0.20            133            155 105 
 OCA  HZ EP       2037 38.10                             129   -0.19 9  160 353 
 OCA  HN ES       2038  0.05                             129   -0.20 9  160 353 
 OCA  HZ I        2038  4.98       114.0 0.16            130            160 353 
 ZAR  HZ EP       2037 42.83                             122    0.34 9  204 292 
 ZAR  HN ES       2038  8.56                             122    0.84 9  204 292 
 ZAR  HZ I        2038 16.29        72.8 0.32            122            204 292 
 NOR  HZ EP       2037 46.09                             118    0.24 8  235 234 
 NOR  HN ES       2038 13.67                             118   -0.03 8  235 234 
 NOR  HZ I        2038 20.69        23.0 0.18            118            235 234 
 SML  HZ EP       2037 46.21                             117   -0.43 8  243 335 
 SML  HE ES       2038 14.56                             117   -0.54 8  243 335 
 CHI  HZ EP       2037 48.12                             117    0.28 8  249 195 
 CHI  HN ES       2038 17.19                             117   -0.06 8  249 195 
 CHI  HZ I        2038 30.10        11.7 0.38            117            249 195 
 URE  HZ EP   1   2037 50.48                             113   -0.65 6  284 292 
 URE  HN ES   4   2038 21.15                             113   -1.95 0  284 292 
 URE  HZ I        2038 34.64        41.0 0.24            113            284 292 
 GUY2CHZ EP       2037 54.00                             112    0.25 7  302 235 
 GUY2CHN ES   4   2038 25.51                             112   -2.24 0  302 235 
 GUY2CHZ I        2038 37.13        17.9 0.70                           302 235 
 RREF HZ EP   4   2037 57.86                             110    1.57 0  322 229 
 CBOC HZ EP       2037 56.83                             110   -0.21 7  334 252 
 TOL  SZ EP   4   2038  0.06                             109    1.65 0  344 225 
 TOL  SN ES       2038 36.62                             109    0.56 7  344 225 
 TOL  SZ I        2038 41.93        11.4 0.40            109            344 225 
 MON  HZ EP   4   2037 57.37                             108   -1.69 0  353 308 
 SDV  BZ EP       2037 59.41                             108   -0.67 6  360  50 
 SDV  BN ES   4   2038 36.26                             108   -2.77 0  360  50 
 SDV  BZ I        2038 39.71        16.4 0.40            109            360  50 
 PRA  HZ EP       2038  3.17                             106   -0.52 6  393 210 
 PRA  HN ES   4   2038 44.19                             106   -1.27 0  393 210 
 PRA  HZ I        2038 50.16        15.3 0.24            107            393 210 
 ORTC HZ EP       2038  4.60                             106    0.51 6  396 216 
                                                                                
