 2012 1013 2254 59.9 L   6.777 -73.099139.6  RSN  4 0.1 1.6LRSN                1
 GAP=144        0.35       2.5     3.6  4.7 -0.1942E+00 -0.8945E+00  0.1794E+01E
 Epicentro: LOS SANTOS - SANTANDER                                             3
 ACTION:UPD 12-11-22 17:03 OP:ep   STATUS:               ID:20121013225459 L   I
 2012-10-13-2250-00M.COL___231                                                 6
 STAT SP IPHASW D HRMM SECON CODA AMPLIT PERI AZIMU VELO AIN AR TRES W  DIS CAZ7
 BAR2 SZ EP   1   2255 18.81                             170    0.00 7 22.4 204 
 BAR2 SZ I        2255 36.29         7.5 0.28                          22.4 204 
 PAM  SZ EP   1   2255 21.65                             150    0.22 7 76.3  35 
 PAM  SN ES   1   2255 38.08                             150   -0.12 7 76.3  35 
 PAM  SN I        2255 39.64         7.6 0.50                          76.3  35 
 BRR  HZ EP   1   2255 20.65                             149   -0.12 7 77.0 298 
 BRR  HN ES   1   2255 37.09                             149    0.07 7 77.0 298 
 BRR  HN I        2255 38.63        16.4 0.18                          77.0 298 
 RUS  HZ EP   1   2255 22.79                             143   -0.09 7 97.8 179 
 RUS  HN ES   1   2255 40.83                             143    0.05 7 97.8 179 
 RUS  HN I        2255 42.23         4.1 0.26                          97.8 179 
                                                                                
