 2014 1013 2231 54.3 L   6.483 -73.400130.5  RSN  5 0.4 1.7LRSN                1
 GAP=121        1.07       4.8     5.8  7.8  0.4641E+01  0.4162E+01 -0.8492E+01E
 Epicentro: SIMACOTA - SANTANDER                                               3
 ACTION:UPD 14-11-29 23:49 OP:nd   STATUS:               ID:20141013223154 L   I
 OLDACT:REG 14-10-14 06:08 OP:stll STATUS:               ID:20141013222750     3
 2014-10-13-2227-50M.COL___292                                                 6
 STAT SP IPHASW D HRMM SECON CODA AMPLIT PERI AZIMU VELO AIN AR TRES W  DIS CAZ7
 BAR2 SZ EP       2232 12.24                             168    0.0610 26.9  63 
 BAR2 SZ I        2232 12.48        21.0 0.20            169           26.9  63 
 BAR2 SZ ES       2232 26.02                             168   -0.1010 26.9  63 
 RUS  HZ EP       2232 14.64                             149   -0.0610 74.1 152 
 RUS  HN ES       2232 30.50                             149   -0.1210 74.1 152 
 RUS  HZ I        2232 31.34         5.0 0.34            152           74.1 152 
 BRR  HZ EP       2232 14.87                             147    0.6810 77.2 333 
 BRR  HN ES       2232 30.28                             147    0.5710 77.2 333 
 BRR  HZ I        2232 31.54         8.0 0.40            147           77.2 333 
 PTB  HZ EP       2232 17.01                             135   -0.2510  117 273 
 PTB  HE ES       2232 34.84                             135   -0.3310  117 273 
 PTB  HZ I        2232 38.24         8.5 0.14            135            117 273 
 OCA  HZ EP       2232 25.19                             120    0.24 9  194   3 
 OCA  HN ES       2232 47.99                             120   -0.88 9  194   3 
 OCA  HZ I        2232 51.99         5.6 0.70            121            194   3 
                                                                                
