 2013 1113 2012 37.3 L   6.767 -73.147137.9  RSN  8 0.5 1.7LRSN                1
 GAP=138        1.17       4.7     4.7  7.9 -0.2986E+01  0.9506E+01  0.3940E+01E
 Epicentro: LOS SANTOS - SANTANDER                                             3
 ACTION:UPD 14-01-09 16:27 OP:ep   STATUS:               ID:20131113201237 L   I
 OLDACT:REG 13-11-13 21:26 OP:jn   STATUS:               ID:20131113201000     3
 2013-11-13-2010-00M.COL___279                                                 6
 STAT SP IPHASW D HRMM SECON CODA AMPLIT PERI AZIMU VELO AIN AR TRES W  DIS CAZ7
 BAR2 SZ EP       2012 56.05                             171    0.1310 19.7 191 
 BAR2 SZ ES       2013  9.82                             171   -0.6110 19.7 191 
 BAR2 SZ I        2013 12.04        16.9 0.26            170           19.7 191 
 BRR  HZ EP       2012 58.05                             150    0.3410 72.9 301 
 BRR  HN ES       2013 14.04                             150    0.4210 72.9 301 
 PAM  SZ EP       2012 58.99                             148    0.1210 80.3  38 
 PAM  SN ES       2013 15.40                             148   -0.2910 80.3  38 
 PAM  SZ I        2013 17.00         5.4 0.18            152           80.3  38 
 RUS  HZ EP       2012 59.89                             143   -0.1410 97.0 176 
 RUS  HN ES       2013 18.49                             143    0.7510 97.0 176 
 RUS  HZ I        2013 19.40         3.7 0.24            144           97.0 176 
 PTB  HZ EP       2013  2.71                             130   -0.86 9  147 260 
 PTB  HN ES       2013 23.48                             130   -0.57 9  147 260 
 PTB  HZ I        2013 27.83        14.9 0.86            131            147 260 
 SPBC HZ EP       2013  4.97                             128    0.03 9  160 220 
 SPBC HN ES       2013 26.48                             128   -0.00 9  160 220 
 SPBC HZ I        2013 29.55         5.6 0.18            129            160 220 
 ZAR  HN ES       2013 35.05                             120    0.64 8  205 293 
 NOR  HN ES       2013 39.76                             117    0.07 8  232 235 
                                                                                
