 2013  113 2352 38.6 L   6.412 -73.636100.0  RSN  4 0.2 1.1LRSN                1
 GAP=182        0.52       4.3     3.6  6.8  0.1057E+02  0.1217E+01  0.6194E+01E
 Epicentro: SANTA HELENA DEL OPON - SANTANDER                                  3
 ACTION:UPD 13-02-15 09:14 OP:ep   STATUS:               ID:20130113235238 L   I
 2013-01-13-2350-00M.COL___241                                                 6
 STAT SP IPHASW D HRMM SECON CODA AMPLIT PERI AZIMU VELO AIN AR TRES W  DIS CAZ7
 RUS  HZ EP       2352 56.87                             137    0.1710 83.9 133 
 RUS  HZ I        2352 57.11         3.0 0.18            133           83.9 133 
 RUS  HE ES   1   2353 10.72                             137   -0.13 7 83.9 133 
 PTB  HZ EP       2352 56.39                             134   -0.3410 91.8 279 
 PTB  HE ES       2353 11.02                             134    0.1110 91.8 279 
 PTB  HZ I        2353 12.98         3.3 0.15            126           91.8 279 
 ZAR  HN ES   2   2353 27.55                             113    0.47 4  180 312 
 ZAR  HZ I        2353 31.60         2.4 0.29            110            180 312 
 CHI  HZ EP   1   2353  8.27                             111    0.01 6  197 183 
 CHI  HE ES   1   2353 31.51                             111    0.09 6  197 183 
 CHI  HZ I        2353 37.36         1.3 0.35            108            197 183 
                                                                                
