 2012  313 2045 14.7 L   6.759 -73.131142.9  RSN  9 0.4 2.4LRSN                1
 GAP=140        0.94       4.9     4.7  7.2 -0.2657E+01  0.7328E+01  0.1051E+02E
 ACTION:UP  12-03-31 23:19 OP:EP   STATUS:               ID:20120313204514 L   I
 2012-03-13-2040-00M.COL___202                                                 6
 STAT SP IPHASW D HRMM SECON CODA AMPLIT PERI AZIMU VELO SNR AR TRES W  DIS CAZ7
 BAR2 SZ EP       2045 34.00                             172     0.010   19 197 
 BAR2 SZ ES   1   2045 49.05                             172     0.1 7   19 197 
 BAR2 SZ I        2045 50.94        43.3 0.18                            19 197 
 BRR  HZ EP       2045 36.01                             151     0.210   75 301 
 BRR  HZ I        2045 36.29        75.5 0.17                            75 301 
 BRR  HE ES   1   2045 52.91                             151     0.7 7   75 301 
 PAM  SZ EP       2045 36.94                             149     0.110   80  37 
 PAM  SN ES       2045 53.78                             149    -0.210   80  37 
 RUS  HZ EP       2045 37.82                             144    -0.110   96 177 
 RUS  HN ES   1   2045 55.60                             144    -0.3 7   96 177 
 RUS  HZ I        2045 57.62        22.8 0.36                            96 177 
 PTB  HZ EP   1   2045 40.73                             131    -0.8 7  148 261 
 PTB  HE ES   1   2046  1.86                             131    -0.6 7  148 261 
 CTAU SZ EP   1   2045 48.06                             123     0.9 6  200 210 
 ZAR  HE ES   1   2046 12.51                             121    -0.2 6  207 293 
 ZAR  HZ I        2046 18.33        28.2 0.19                           207 293 
 NOR  SZ EP   1   2045 49.99                             118    -0.2 6  233 236 
 NOR  SN ES   1   2046 18.24                             118     0.4 6  233 236 
 CHI  HZ EP   1   2045 51.74                             117    -0.1 6  245 196 
                                                                                
