 2015  913 2230 32.5 L   6.778 -73.132143.4  RSN 11 0.5 1.8LRSN                1
 GAP=139        1.21       3.5     4.6  6.7 -0.2994E+01  0.9757E+01  0.7660E+00E
 Epicentro: LOS SANTOS - SANTANDER                                             3
 ACTION:UPD 15-10-28 16:26 OP:cam  STATUS:               ID:20150913223032 L   I
 OLDACT:REG 15-09-14 04:52 OP:ak   STATUS:               ID:20150913222748     3
 2015-09-13-2227-48M.COL___329                                                 6
 STAT SP IPHASW D HRMM SECON CODA AMPLIT PERI AZIMU VELO AIN AR TRES W  DIS CAZ7
 BAR2 EZ EP       2230 52.12                             171    0.2810 21.3 195 
 BAR2 EZ ES       2231  6.70                             171   -0.2110 21.3 195 
 BAR2 EZ I        2231  7.92        13.2 0.21            172           21.3 195 
 BRR  HZ EP       2230 53.97                             151    0.3910 73.7 300 
 BRR  HE ES       2231 10.75                             151    0.7610 73.7 300 
 BRR  HZ I        2231 15.01        10.4 0.17            149           73.7 300 
 PAM  EZ EP       2230 55.08                             150    0.5210 78.3  38 
 PAM  EN ES       2231 11.97                             150    0.2310 78.3  38 
 PAM  EZ I        2231 14.60        12.9 0.42            152           78.3  38 
 RUS  HZ EP       2230 55.95                             144    0.0810 98.0 177 
 RUS  HN ES       2231 13.95                             144   -0.1310 98.0 177 
 RUS  HZ I        2231 15.53         5.0 0.22            148           98.0 177 
 PTB  HZ EP       2230 58.91                             131   -0.50 9  149 260 
 PTB  HN ES       2231 19.80                             131   -0.58 9  149 260 
 PTB  HZ I        2231 22.08        12.1 0.14            132            149 260 
 SPBC HZ EP       2231  0.39                             129   -0.38 9  162 220 
 SPBC HN ES       2231 22.08                             129   -0.71 9  162 220 
 OCA  HZ EP       2231  0.14                             129   -0.77 9  163 353 
 OCA  HN ES       2231 22.31                             129   -0.74 9  163 353 
 OCA  HZ I        2231 25.83        16.6 0.39            130            163 353 
 ZAR  HZ EP       2231  5.21                             121    0.14 8  206 293 
 ZAR  HN ES       2231 30.90                             121    0.44 8  206 293 
 ZAR  HZ I        2231 39.09         6.3 0.21            122            206 293 
 CHI  HN ES       2231 39.09                             117    0.06 8  247 196 
 HEL  HZ EP   1   2231 12.88                             114    0.15 6  273 256 
 HEL  HE ES       2231 43.82                             114   -0.27 8  273 256 
 HEL  HZ I        2231 50.41         4.2 0.51            116            273 256 
 GUY2CHZ EP       2231 16.67                             112    0.65 7  301 235 
 GUY2CHE ES       2231 50.91                             112    0.97 7  301 235 
 GUY2CHZ I        2231 57.49         2.4 0.23                           301 235 
                                                                                
