 2013  713 2125 58.2 L   5.774 -73.954105.7  RSN  6 0.3 1.4LRSN                1
 GAP=115        0.73       3.8     3.0  6.5 -0.5965E+00  0.2954E+01 -0.6050E+00E
 Epicentro: ALBANIA - SANTANDER                                                3
 ACTION:UPD 13-08-12 10:37 OP:ep   STATUS:               ID:20130713212558 L   I
 OLDACT:REG 13-07-13 21:16 OP:jn   STATUS:               ID:20130713211959     3
 2013-07-13-2119-59M.COL___266                                                 6
 STAT SP IPHASW D HRMM SECON CODA AMPLIT PERI AZIMU VELO AIN AR TRES W  DIS CAZ7
 SPBC HZ EP   1   2126 12.75                             169    0.09 7 18.8 224 
 SPBC HN ES   1   2126 24.30                             169    0.34 7 18.8 224 
 RUS  HZ EP     D 2126 18.21                             134    0.2710 97.3  82 
 RUS  HN ES   1   2126 33.48                             134    0.12 7 97.3  82 
 RUS  HZ I        2126 38.74         2.4 0.44            138           97.3  82 
 PTB  HZ EP       2126 17.41                             133   -0.2410  101 327 
 PTB  HN ES   1   2126 32.52                             133   -0.32 7  101 327 
 PTB  HZ I        2126 34.56         6.8 0.36            137            101 327 
 NOR  HZ EP       2126 17.81                             132   -0.1410  104 257 
 NOR  HE ES   1   2126 33.18                             132   -0.20 7  104 257 
 NOR  HZ I        2126 36.34        11.3 0.32            138            104 257 
 CHI  HN ES   1   2126 37.76                             125   -0.70 7  129 169 
 CHI  HZ I        2126 38.92         3.5 0.22            131            129 169 
 GUY2CHZ EP       2126 25.12                             118    0.19 9  168 249 
 GUY2CHN ES   1   2126 46.45                             118    0.63 7  168 249 
 GUY2CHZ I        2126 54.49         4.6 0.54                           168 249 
                                                                                
