 2015  613 2114 40.0 L   6.791 -73.137136.9  RSN 12 0.5 1.9LRSN                1
 GAP=138        1.20       3.3     5.2  7.3 -0.4596E+01  0.2062E+02 -0.1738E+01E
 Epicentro: LOS SANTOS - SANTANDER                                             3
 ACTION:UPD 15-09-10 22:12 OP:cam  STATUS:               ID:20150613211440 L   I
 OLDACT:REG 15-06-14 03:14 OP:ar   STATUS:               ID:20150613210748     3
 2015-06-13-2107-48M.COL___315                                                 6
 STAT SP IPHASW D HRMM SECON CODA AMPLIT PERI AZIMU VELO AIN AR TRES W  DIS CAZ7
 BAR2 EZ EP       2114 58.72                             170    0.1510 22.5 193 
 BAR2 EZ ES       2115 12.75                             170   -0.2910 22.5 193 
 BAR2 EZ I        2115 17.05         7.9 0.12            168           22.5 193 
 PAM  SZ EP       2115  1.54                             149    0.2310 77.5  39 
 PAM  SN ES       2115 18.66                             149    0.7410 77.5  39 
 PAM  SZ I        2115 19.72         7.0 0.16            155           77.5  39 
 RUS  HZ EP       2115  3.09                             142    0.2610 99.5 177 
 RUS  HE ES       2115 19.86                             142   -0.7610 99.5 177 
 RUS  HZ I        2115 22.24         4.8 0.22            147           99.5 177 
 OCA  HN ES       2115 29.39                             127   -0.02 9  161 353 
 OCA  HZ I        2115 33.88        17.3 0.20            130            161 353 
 SPBC HZ EP       2115  7.72                             127   -0.12 9  163 219 
 SPBC HN ES       2115 29.71                             127    0.17 9  163 219 
 SPBC HZ I        2115 35.25        14.4 0.36            129            163 219 
 ZAR  HZ EP       2115 11.28                             120   -0.77 8  205 292 
 ZAR  HN ES       2115 36.85                             120   -0.17 8  205 292 
 ZAR  HZ I        2115 43.20        11.4 0.32            121            205 292 
 NOR  HZ EP       2115 14.62                             116   -0.66 8  235 235 
 NOR  HE ES       2115 42.96                             116    0.18 8  235 235 
 NOR  HZ I        2115 48.09         9.4 0.32            119            235 235 
 SML  HZ EP       2115 15.53                             115   -0.79 8  245 335 
 SML  HN ES       2115 44.51                             115   -0.11 8  245 335 
 SML  HZ I        2115 52.99        10.9 0.10            118            245 335 
 HEL  HZ EP       2115 20.52                             113    0.64 8  273 256 
 HEL  HN ES       2115 51.94                             113    0.97 8  273 256 
 HEL  HZ I        2115 57.33         5.4 0.28            115            273 256 
 GUY2CHZ EP       2115 22.60                             110   -0.67 7  301 235 
 GUY2CHN ES       2115 56.74                             110   -0.25 7  301 235 
 GUY2CHZ I        2116  5.30         4.9 0.56                           301 235 
 RREF HZ EP       2115 26.71                             109    0.90 7  322 230 
 RREF HN ES   4   2116  3.80                             109    2.28 0  322 230 
 RREF HZ I        2116 11.47         1.7 0.56            112            322 230 
 TOL  SZ EP       2115 28.72                             108    0.78 7  343 225 
 TOL  SN ES       2116  5.33                             108    0.02 7  343 225 
 TOL  SZ I        2116 10.45         3.1 0.54            110            343 225 
                                                                                
