 2016  813 2238 46.3 L   6.815 -73.126149.0  RSN 19 0.5 2.5LRSN                1
 GAP=120        1.01       2.6     3.6  4.7 -0.7618E+00  0.4365E+01  0.3139E+00E
 Epicentro: LOS SANTOS - SANTANDER                                             3
 ACTION:UPD 16-10-29 15:35 OP:rebc STATUS:               ID:20160813223846 L   I
 OLDACT:UP  16-08-14 03:25 OP:edw  STATUS:               ID:20160813223735     3
 OLDACT:REG 16-08-14 02:33 OP:edw  STATUS:               ID:20160813223735     3
 2016-08-13-2238-00M.COL___377                                                 6
 STAT SP IPHASW D HRMM SECON CODA AMPLIT PERI AZIMU VELO AIN AR TRES W  DIS CAZ7
 BAR2 EZ EP       2239  6.28                             170   -0.1210 25.4 194 
 BAR2 EZ ES       2239 22.12                             170    0.0810 25.4 194 
 BAR2 EZ I        2239 22.34        88.8 0.34                          25.4 194 
 BRR  HZ IP     C 2239  8.07                             153    0.1710 72.3 297 
 BRR  HE ES       2239 24.98                             153    0.2710 72.3 297 
 BRR  HZ I        2239 28.46        70.3 0.34                          72.3 297 
 PAM  EZ EP       2239  9.29                             152    0.5510 74.7  39 
 PAM  EN ES       2239 26.29                             152    0.0810 74.7  39 
 PAM  EZ I        2239 28.45        81.3 0.52                          74.7  39 
 RUS  HZ EP       2239 10.24                             144   -0.2810  102 177 
 RUS  HN ES       2239 29.11                             144   -0.2610  102 177 
 RUS  HZ I        2239 30.03        18.0 0.30                           102 177 
 PTB  HZ EP   9   2239 13.08                             132   -0.71 0  150 258 
 PTB  HN ES       2239 34.01                             131   -0.48 9  150 258 
 PTB  HZ I        2239 41.28        40.0 0.44                           150 258 
 SPBC HZ EP       2239 15.26                             129   -0.08 9  166 219 
 SPBC HN ES       2239 37.84                             129   -0.11 9  166 219 
 SPBC HZ I        2239 45.20        26.4 0.18                           166 219 
 ZAR  HZ EP       2239 18.99                             123   -0.15 8  205 291 
 ZAR  HE ES       2239 45.15                             123    0.43 8  205 291 
 ZAR  HZ I        2239 50.37        34.4 0.28                           205 291 
 NOR  HZ EP       2239 22.74                             119    0.19 8  237 234 
 NOR  HN ES       2239 51.48                             119    0.69 8  237 234 
 NOR  HZ I        2239 55.32        17.8 0.74                           237 234 
 CHI  HZ EP       2239 24.49                             118    0.04 8  251 196 
 CHI  HN ES       2239 53.92                             118   -0.26 8  251 196 
 CHI  HZ I        2239 57.35        13.9 0.38                           251 196 
 ROSC BZ EP   2   2239 24.84                             117   -0.07 4  255 211 
 ROSC BN ES   2   2239 55.14                             117    0.14 4  255 211 
 ROSC BZ I        2239 58.40        23.9 0.35                           255 211 
 HEL  HZ EP       2239 27.15                             115    0.16 8  275 256 
 HEL  HE ES       2239 59.34                             115    0.64 8  275 256 
 HEL  HZ I        2240  6.57        12.0 0.30                           275 256 
 URE  HZ EP       2239 26.87                             114   -0.85 7  285 291 
 URE  HE ES       2239 58.38                             114   -1.62 7  285 291 
 URE  HZ I        2240  9.32        15.8 0.16                           285 291 
 GUY2CHZ EP   2   2239 31.05                             113    0.65 4  304 235 
 GUY2CHN ES   4   2240  6.09                             113    1.32 0  304 235 
 GUY2CHZ I        2240 14.59         7.8 0.36                           304 235 
 VIL  EN ES       2240  3.64                             112   -0.66 7  305 192 
 PTGC HZ EP   9   2239 29.53                             112   -0.90 0  309 159 
 PTGC HN ES       2240  3.37                             112   -0.55 7  309 159 
 PTGC HZ I        2240  5.50        22.7 0.40                           309 159 
 LL6C HZ EP       2239 31.63                             111   -0.37 7  323 357 
 LL6C HN ES       2240  7.68                             111    0.07 7  323 357 
 PRA  HZ EP       2239 40.96                             107    0.69 6  395 210 
 PRA  HN ES       2240 22.49                             107    0.16 6  395 210 
 PRA  HZ I        2240 27.22        14.9 0.52                           395 210 
 SJC  HZ EP   4   2239 40.67                             106   -1.31 0  409 327 
 SJC  HN ES   4   2240 22.94                             106   -2.44 0  409 327 
 SJC  HZ I        2240 29.32         4.6 0.22                           409 327 
 CRJC HZ EP   4   2239 45.79                             104   -2.92 0  466   3 
 CRJC HN ES   4   2240 35.51                             104   -1.86 0  466   3 
 CRJC HZ I        2240 37.18         9.7 0.44                           466   3 
                                                                                
