 2010 1113 2137 15.3 L   6.771 -73.125142.3  RSN 10 0.3 1.9LRSN                1
 GAP=161        0.94       4.8     7.6  8.7 -0.7969E+01 -0.5386E+01 -0.9938E+01E
 Epicentro: LOS SANTOS - SANTANDER                                             3
 ACTION:UP  10-12-17 16:52 OP:REBC STATUS:               ID:20101113213715 L   I
 2010-11-13-2134-46S.COL___129                                                 6
 STAT SP IPHASW D HRMM SECON CODA AMPLIT PERI AZIMU VELO SNR AR TRES W  DIS CAZ7
 BAR2 SZ EP       2137 34.34                             171    -0.110   21 198 
 BAR2 SZ ES   2   2137 49.21                             171    -0.2 5   21 198 
 BAR2 SZ I        2137 50.61        15.8 0.17                            21 198 
 BTL  SZ EP       2137 34.55                             171     0.110   23 316 
 BRR  HZ EP       2137 36.33                             151     0.110   75 300 
 BRR  HN ES   1   2137 52.84                             151     0.2 7   75 300 
 BRR  HZ I        2137 57.18        19.4 0.13                            75 300 
 RUS  HZ EP       2137 38.26                             144    -0.210   97 177 
 RUS  HN ES   1   2137 56.51                             144     0.0 7   97 177 
 RUS  HZ I        2137 57.94         9.8 0.32                            97 177 
 GUE  SZ EP       2137 39.67                             138    -0.210  119  11 
 GRA  SZ EP       2137 41.19                             136     0.810  128  16 
 GRA  SZ I        2138  2.08         9.7 0.21                           128  16 
 OCA  SZ EP       2137 42.99                             128    -0.7 9  164 352 
 OCA  SZ I        2138  8.99        14.0 0.27                           164 352 
 NOR  SZ EP   2   2137 51.12                             118     0.3 4  235 236 
 NOR  SN ES   1   2138 18.50                             118     0.0 6  235 236 
 CHI  HZ EP   2   2137 52.93                             117     0.4 4  246 196 
 CHI  HZ I        2138 28.64         3.3 0.42                           246 196 
 RREF HZ EP   2   2138  0.94                             110    -0.3 3  321 230 
 RREF HZ I        2138 46.31         4.8 0.32                           321 230 
                                                                                
