 2015  113 2219 10.4 L   6.757 -73.155134.8  RSN  5 0.4 1.1LRSN                1
 GAP=137        1.03       5.0     4.8  9.9  0.7233E+00  0.1451E+02  0.7850E+01E
 Epicentro: LOS SANTOS - SANTANDER                                             3
 ACTION:UPD 15-03-02 15:39 OP:nd   STATUS:               ID:20150113221910 L   I
 OLDACT:UP  15-01-14 06:42 OP:nlst STATUS:               ID:20150113221910 L   3
 OLDACT:REG 15-01-14 04:04 OP:fm   STATUS:               ID:20150113221743     3
 2015-01-13-2217-43M.COL___259                                                 6
 STAT SP IPHASW D HRMM SECON CODA AMPLIT PERI AZIMU VELO AIN AR TRES W  DIS CAZ7
 PAM  SZ EP       2219 31.88                             147    0.1510 81.7  38 
 PAM  SN ES       2219 48.04                             147   -0.3410 81.7  38 
 PAM  SZ I        2219 49.84         1.9 0.48            151           81.7  38 
 RUS  HZ EP       2219 33.23                             143    0.4910 96.0 175 
 RUS  HN ES       2219 50.38                             143    0.2110 96.0 175 
 RUS  HZ I        2219 52.67         1.0 0.58            146           96.0 175 
 PTB  HZ EP       2219 35.84                             130   -0.48 9  146 261 
 PTB  HE ES       2219 56.11                             130   -0.43 9  146 261 
 PTB  HZ I        2220  0.17         2.8 0.10            131            146 261 
 ZAR  HN ES       2220  7.78                             120    0.69 9  205 293 
 ZAR  HZ I        2220 12.58         1.9 0.28            122            205 293 
 CHI  HZ EP       2219 46.64                             115   -0.34 8  244 195 
                                                                                
