 2016 1213 2127  2.6 L   6.770 -73.102145.2  RSN 35 0.5 3.1LRSN 3.6WRSN        1
 SPEC AVERAGE  MO 14.5 ST0.422 OM  2.6 f0 1.13 R1.9587 AL 0.00 WI 30.0 MW  3.6 3
 SPEC SD       MO  0.2 ST0.712 OM  0.4 f00.539 R0.5878 AL      WI      MW  0.2 3
 GAP= 69        0.99       2.7     2.9  4.4 -0.2249E+00  0.3893E+01  0.2405E+01E
 Epicentro: LOS SANTOS - SANTANDER                                             3
 SPEC RUS HH Z MO 15.2 ST0.248 OM  3.2 f00.655 R2.9374 AL-0.00 WI 30.0 MW  4.0 3
 SPEC RUS HH Z T212742 K 0.000 GD  174 VS 5.20 DE 3.50 Q0750.0 QA 1.50 Q1 0.00 3
 SPEC ZAR HH Z MO 14.3 ST  2.9 OM  2.2 f0 2.81 R0.6847 AL-0.00 WI 30.0 MW  3.5 3
 SPEC ZAR HH Z T212759 K 0.000 GD  255 VS 5.20 DE 3.50 Q0750.0 QA 1.50 Q1 0.00 3
 SPEC NOR HH Z MO 14.4 ST0.428 OM  2.2 f0 1.45 R1.3269 AL-0.00 WI 30.0 MW  3.5 3
 SPEC NOR HH Z T2128 4 K 0.000 GD  277 VS 5.20 DE 3.50 Q0750.0 QA 1.50 Q1 0.00 3
 SPEC CHI HH Z MO 14.3 ST0.104 OM  2.1 f00.969 R1.9856 AL-0.00 WI 30.0 MW  3.5 3
 SPEC CHI HH Z T2128 7 K 0.000 GD  286 VS 5.20 DE 3.50 Q0750.0 QA 1.50 Q1 0.00 3
 SPEC ROSCBH Z MO 14.6 ST0.240 OM  2.4 f0 1.01 R1.9050 AL-0.00 WI 30.0 MW  3.7 3
 SPEC ROSCBH Z T2128 9 K 0.000 GD  290 VS 5.20 DE 3.50 Q0750.0 QA 1.50 Q1 0.00 3
 SPECGUY2CHH Z MO 14.5 ST0.160 OM  2.3 f00.908 R2.1189 AL-0.00 WI 30.0 MW  3.6 3
 SPECGUY2CHH Z T212819 K 0.000 GD  335 VS 5.20 DE 3.50 Q0750.0 QA 1.50 Q1 0.00 3
 SPEC PTGCHH Z MO 14.4 ST0.245 OM  2.2 f0 1.13 R1.7027 AL-0.00 WI 30.0 MW  3.6 3
 SPEC PTGCHH Z T212816 K 0.000 GD  336 VS 5.20 DE 3.50 Q0750.0 QA 1.50 Q1 0.00 3
 SPEC ELA HH Z MO 14.7 ST0.146 OM  2.4 f00.797 R2.4141 AL-0.00 WI 30.0 MW  3.7 3
 SPEC ELA HH Z T212826 K 0.000 GD  361 VS 5.20 DE 3.50 Q0750.0 QA 1.50 Q1 0.00 3
 SPEC PRA HH Z MO 14.8 ST0.144 OM  2.5 f00.699 R2.7525 AL-0.00 WI 30.0 MW  3.8 3
 SPEC PRA HH Z T212833 K 0.000 GD  418 VS 5.20 DE 3.50 Q0750.0 QA 1.50 Q1 0.00 3
 SPEC ORTCHH Z MO 14.6 ST0.165 OM  2.3 f00.851 R2.2609 AL-0.00 WI 30.0 MW  3.7 3
 SPEC ORTCHH Z T212837 K 0.000 GD  421 VS 5.20 DE 3.50 Q0750.0 QA 1.50 Q1 0.00 3
 SPEC APACHH Z MO 14.4 ST0.482 OM  2.1 f0 1.41 R1.3645 AL-0.00 WI 30.0 MW  3.6 3
 SPEC APACHH Z T212837 K 0.000 GD  429 VS 5.20 DE 3.50 Q0750.0 QA 1.50 Q1 0.00 3
 SPEC PAL HH Z MO 14.3 ST0.085 OM  2.0 f00.851 R2.2609 AL-0.00 WI 30.0 MW  3.5 3
 SPEC PAL HH Z T212839 K 0.000 GD  433 VS 5.20 DE 3.50 Q0750.0 QA 1.50 Q1 0.00 3
 SPEC SJC HH Z MO 14.4 ST0.186 OM  2.0 f0 1.10 R1.7491 AL-0.00 WI 30.0 MW  3.5 3
 SPEC SJC HH Z T212837 K 0.000 GD  439 VS 5.20 DE 3.50 Q0750.0 QA 1.50 Q1 0.00 3
 OLDACT:REG 16-12-14 02:47 OP:lv   STATUS:               ID:20161213211744     3
 ACTION:UPD 17-01-11 20:14 OP:rebc STATUS:               ID:20161213212702 L   I
 OLDACT:UP  16-12-14 04:34 OP:lv   STATUS:               ID:20161213211744     3
 2016-12-13-2118-00M.COL___383                                                 6
 STAT SP IPHASW D HRMM SECON CODA AMPLIT PERI AZIMU VELO AIN AR TRES W  DIS CAZ7
 BAR2 EZ IP     D 2127 22.41                             171    0.2410 21.5 204 
 BAR2 EZ ES       2127 37.16                             171   -0.2410 21.5 204 
 BAR2 EZ I        2127 38.43       540.8 0.25            164           21.5 204 
 PAM  EZ IP     D 2127 25.32                             151    0.5410 77.1  35 
 PAM  EE ES       2127 42.26                             151    0.2210 77.1  35 
 PAM  EZ I        2127 44.68       460.2 0.60            159           77.1  35 
 BRR  HZ IP     D 2127 24.33                             150    0.2610 77.1 299 
 BRR  HE ES       2127 41.19                             150    0.4010 77.1 299 
 BRR  HZ I        2127 44.30       224.2 0.24            150           77.1 299 
 RUS  HZ EP       2127 26.38                             145    0.3010 97.0 179 
 RUS  HE ES       2127 43.88                             145   -0.4810 97.0 179 
 RUS  HZ I        2127 46.18       279.4 0.31            142           97.0 179 
 TAM  HZ IP   4 D 2127 30.79                             131    1.03 0  150 104 
 TAM  HE ES       2127 50.06                             131   -0.85 9  150 104 
 TAM  HZ I        2127 53.31       118.7 0.36            135            150 104 
 PTB  HZ EP       2127 29.24                             131   -0.71 9  152 260 
 PTB  HN ES   4   2127 49.53                             131   -1.71 0  152 260 
 PTB  HZ I        2127 53.36       167.1 0.22            130            152 260 
 ZAR  HZ EP       2127 35.54                             121   -0.11 8  210 292 
 ZAR  HN ES       2128  1.08                             121   -0.31 8  210 292 
 ZAR  HZ I        2128  6.83       219.1 0.59            123            210 292 
 NOR  HZ EP       2127 39.01                             118    0.45 8  237 236 
 NOR  HN ES       2128  5.81                             118   -0.77 8  237 236 
 NOR  HZ I        2128 13.89        68.5 0.40            118            237 236 
 CHI  HZ EP       2127 40.60                             117    0.50 8  247 196 
 CHI  HN ES       2128  9.36                             117    0.04 8  247 196 
 CHI  HZ I        2128 17.06        42.5 0.46            117            247 196 
 ROSC BZ EP   4   2127 42.39                             117    1.69 0  252 212 
 ROSC BE ES       2128 11.08                             117    0.70 8  252 212 
 ROSC BZ I        2128 20.15       132.5 0.40            116            252 212 
 URE  HZ EP   4   2127 42.65                             113   -1.68 0  290 292 
 URE  HE ES   4   2128 13.90                             113   -2.95 0  290 292 
 URE  HZ I        2128 24.19        95.8 0.20            114            290 292 
 VIL  EZ EP       2127 45.93                             112    0.15 7  301 193 
 VIL  EE ES   4   2128 20.90                             112    1.48 0  301 193 
 VIL  EZ I        2128 28.93        69.1 0.36            112            301 193 
 GUY2CHZ EP       2127 47.22                             112    0.76 7  303 236 
 GUY2CHN ES       2128 20.78                             112    0.14 7  303 236 
 GUY2CHZ I        2128 31.11        64.5 0.44                           303 236 
 PTGC HZ EP       2127 45.52                             112   -0.40 7  304 159 
 PTGC HN ES   4   2128 18.00                             112   -1.67 0  304 159 
 PTGC HZ I        2128 21.18        86.6 0.36            113            304 159 
 LL6C HZ EP   4   2127 28.01                             110   -20.7 0  329 357 
 LL6C HE ES   4   2128  3.02                             110   -21.7 0  329 357 
 LL6C HZ I        2128  5.04        40.5 0.50            113            329 357 
 ELA  HZ EP   9   2127 51.39                             110    1.74 0  331 230 
 ELA  HE ES       2128 28.13                                    0.08 7  331 230 
 ELA  HZ I        2128 35.62        57.2 0.48            110            331 230 
 CBOC HZ EP   4   2127 50.97                             109    1.02 0  337 253 
 CBOC HN ES       2128 26.96                             109    0.11 7  337 253 
 CBOC HZ I        2128 33.15        21.1 0.43            110            337 253 
 ANIL HZ EP   9   2127 53.70                             108    1.15 0  358 225 
 ANIL HE ES       2128 33.00                                    0.38 6  358 225 
 ANIL HZ I        2128 37.21       133.5 0.37            109            358 225 
 ARGC HZ EP       2127 53.62                             108    0.78 6  364 340 
 ARGC HE ES   4   2128 33.02                             108    1.03 0  364 340 
 ARGC HZ I        2128 34.32        20.4 0.28            110            364 340 
 PRA  HZ EP   9   2127 53.39                             106   -2.70 0  392 210 
 PRA  HN ES       2128 35.40                                    0.32 6  392 210 
 PRA  HZ I        2128 41.50        76.4 0.30            107            392 210 
 ORTC HZ EP       2127 56.65                             106    0.08 6  396 217 
 ORTC HN ES       2128 39.38                             106    0.75 6  396 217 
 ORTC HZ I        2128 45.37        46.1 0.42            107            396 217 
 APAC HZ EP       2127 56.62                             106   -0.86 6  404 288 
 APAC HE ES       2128 39.29                             106   -0.96 6  404 288 
 APAC HZ I        2128 44.39        42.4 0.38            107            404 288 
 PAL  HZ EP       2127 58.48                             106    0.40 6  408 240 
 PAL  HE ES       2128 40.93                             106   -0.38 6  408 240 
 PAL  HZ I        2128 47.31        32.2 0.28            106            408 240 
 SJC  HZ EP   4   2127 56.98                             105   -1.85 0  415 327 
 SJC  HN ES   4   2128 38.56                             105   -4.10 0  415 327 
 SJC  HZ I        2128 42.83        44.5 0.56            107            415 327 
 GUA  EZ EP       2128  5.30                             103   -0.02 5  470 174 
 GUA  EN ES       2128 53.96                             103   -0.24 5  470 174 
 CRJC HZ EP   4   2128  3.35                             103   -2.14 0  471   3 
 CRJC HE ES   4   2128 50.25                             103   -4.26 0  471   3 
 CRJC HZ I        2128 55.44        26.6 0.22            105            471   3 
 YOT  HZ EP       2128  5.38                             103   -0.47 5  473 230 
 YOT  HN ES   4   2128 58.56                             103    3.41 0  473 230 
 YOT  HZ I        2129  3.05         7.6 0.72            104            473 230 
 SMAR HZ EP       2128  7.83                             102   -1.20 4  501 346 
 SMAR HN ES   4   2128 55.95                             102   -4.86 0  501 346 
 SMAR HZ I        2128 59.38        17.6 0.14            104            501 346 
 MACC HZ EP   4   2128  9.46                             102   -1.57 0  518 189 
 MACC HN ES   4   2129  1.10                             102   -3.28 0  518 189 
 MACC HZ I        2129 17.49        15.6 0.38            102            518 189 
 MARO HZ EP       2128 13.16                             101   -0.51 4  537 216 
 MARO HE ES   4   2129  7.13                             101   -1.93 0  537 216 
 MARO HZ I        2129 15.34         8.7 0.09            102            537 216 
 URI  HZ EP   4   2128 13.65                             100   -2.25 0  559  13 
 URI  HN ES   4   2129  8.12                             100   -4.92 0  559  13 
 URI  HZ I        2129 11.65        10.9 0.36            102            559  13 
 GARC HZ EP       2128 16.89                             100   -0.91 3  572 208 
 GARC HE ES   4   2129 11.00                             100   -5.41 0  572 208 
 GARC HZ I        2129 16.85        18.7 0.22            101            572 208 
 CONO HZ EP       2128 22.96                              99   -0.07 3  612 217 
 CONO HE ES   4   2129 29.24                              99    3.51 0  612 217 
 CONO HZ I        2129 39.46         5.4 0.40            100            612 217 
 SOTO HZ EP   9   2128 28.00                              99    1.31 0  643 217 
 SOTO HN ES       2129 34.00                                    0.45 2  643 217 
 BBAC HZ EP   4   2128 33.87                              98    0.94 0  698 221 
 BBAC HE ES   4   2129 39.81                              98   -3.54 0  698 221 
 BBAC HZ I        2129 48.65         6.4 0.46             98            698 221 
                                                                                
