 2013  213 2301 38.9 L   6.786 -73.126143.9  RSN  4 0.1 1.6LRSN                1
 GAP=140        0.38       2.0     3.2  3.4  0.2619E+00 -0.8958E+00  0.1737E+01E
 Epicentro: LOS SANTOS - SANTANDER                                             3
 ACTION:UPD 13-03-12 09:32 OP:ep   STATUS:               ID:20130213230138 L   I
 2013-02-13-2300-00M.COL___241                                                 6
 STAT SP IPHASW D HRMM SECON CODA AMPLIT PERI AZIMU VELO AIN AR TRES W  DIS CAZ7
 BRR  HZ EP       23 1 59.88                             151   -0.1310 73.8 299 
 BRR  HN ES       23 2 16.53                             151    0.0710 73.8 299 
 BRR  HN I        23 2 17.62        11.7 0.37            154           73.8 299 
 PAM  SZ EP       23 2  0.84                             150   -0.0710 77.2  38 
 PAM  SN ES   1   23 2 18.16                             150    0.08 7 77.2  38 
 PAM  SN I        23 2 20.41         4.6 0.52            151           77.2  38 
 RUS  HZ EP       23 2  2.53                             144    0.1810 98.9 177 
 RUS  HN ES       23 2 20.53                             144   -0.1110 98.9 177 
 RUS  HN I        23 2 21.80         5.2 0.26            146           98.9 177 
 CHI  HZ EP       23 2 16.43                             117    0.03 8  248 196 
                                                                                
