 2012  313 2131 37.7 L   6.766 -73.174148.4  RSN  5 0.4 1.7LRSN                1
 GAP=135        0.73       6.6     5.2  9.9 -0.2296E+01  0.1297E+02  0.1767E+02E
 ACTION:UP  12-03-31 23:19 OP:EP   STATUS:               ID:20120313213137 L   I
 2012-03-13-2130-00M.COL___202                                                 6
 STAT SP IPHASW D HRMM SECON CODA AMPLIT PERI AZIMU VELO SNR AR TRES W  DIS CAZ7
 BRR  HZ EP   1   2131 59.59                             153     0.5 8   70 302 
 BRR  HZ I        2132  2.94        14.8 0.36                            70 302 
 BRR  HN ES   2   2132 16.30                             153     0.5 5   70 302 
 PAM  SZ EP   2   2132  0.59                             150     0.1 5   82  40 
 PAM  SN ES   1   2132 17.89                             150    -0.4 8   82  40 
 RUS  HZ EP   1   2132  1.26                             145    -0.2 8   97 174 
 RUS  HN ES   2   2132 20.51                             145     0.5 5   97 174 
 PTB  HZ EP       2132  4.50                             133     0.010  144 260 
 PTB  HE ES   1   2132 25.05                             133    -0.4 7  144 260 
 PTB  HZ I        2132 31.61         3.4 0.25                           144 260 
 ZAR  HE ES   2   2132 35.48                             123     0.0 5  203 293 
 ZAR  HZ I        2132 42.56         5.5 0.44                           203 293 
                                                                                
