 2011  213 2015  5.4 L   6.680 -72.618153.1  RSN  4 0.1 1.4LRSN                1
 GAP=217        0.33       4.2    18.5  6.9 -0.6641E+02 -0.4924E+02  0.1244E+02E
 Epicentro: CARCASI - SANTANDER                                                3
 ACTION:UP  11-03-28 15:08 OP:jfem STATUS:               ID:20110213201505 L   I
 2011-02-13-2011-40S.COL___137                                                 6
 STAT SP IPHASW D HRMM SECON CODA AMPLIT PERI AZIMU VELO SNR AR TRES W  DIS CAZ7
 BTL  SZ EP   1   2015 27.83                             152    -0.1 7   77 290 
 RUS  HZ EP   2   2015 29.77                             145    -0.1 5  101 211 
 RUS  HE ES   2   2015 49.01                             145     0.0 5  101 211 
 RUS  HZ I        2015 50.18         3.1 0.37                           101 211 
 GRA  SZ EP   1   2015 32.08                             136     0.1 7  135 351 
 GRA  SZ I        2015 34.13         4.0 0.30                           135 351 
 GRA  SZ ES   1   2015 52.87                             136     0.1 7  135 351 
 CHI  HZ EP   2   2015 44.64                             117     0.1 4  258 209 
 CHI  HN ES   2   2016 15.29                             117     0.2 4  258 209 
 CHI  HZ I        2016 21.08         1.3 0.79                           258 209 
                                                                                
