 2012  313 2352 24.2 L   6.783 -73.221140.3  RSN  4 0.3 1.4LRSN                1
 GAP=228        0.59       7.0     7.2  8.4  0.3599E+02 -0.3813E+01 -0.1676E+02E
 ACTION:UP  12-03-31 23:19 OP:EP   STATUS:               ID:20120313235224 L   I
 2012-03-13-2350-00M.COL___199                                                 6
 STAT SP IPHASW D HRMM SECON CODA AMPLIT PERI AZIMU VELO SNR AR TRES W  DIS CAZ7
 BRR  HZ EP       2352 44.67                             154     0.310   65 303 
 BRR  HN ES   2   2352 59.66                             154    -0.5 5   65 303 
 RUS  HZ EP   1   2352 47.17                             143    -0.1 7  100 171 
 RUS  HN ES   1   2353  5.43                             143     0.1 7  100 171 
 RUS  HZ I        2353  7.33         3.7 0.48                           100 171 
 PTB  HZ EP   1   2352 49.60                             133    -0.3 7  139 259 
 PTB  HN ES   2   2353 10.14                             133     0.1 5  139 259 
 PTB  HZ I        2353 17.67         2.2 0.17                           139 259 
 ZAR  HZ EP   1   2352 55.32                             122    -0.2 6  197 294 
 ZAR  HN ES   1   2353 20.19                             122     0.2 6  197 294 
 ZAR  HZ I        2353 26.19         3.1 0.60                           197 294 
                                                                                
