 2017  313 2136 30.0 L   6.748 -73.107146.9  RSN  6 0.2 1.4LRSN                1
 GAP=144        0.66       3.6     4.1  4.4 -0.3296E+01  0.6713E+00  0.7842E+00E
 Epicentro: LOS SANTOS - SANTANDER                                             3
 ACTION:UPD 17-05-25 18:40 OP:jn   STATUS:               ID:20170313213630 L   I
 OLDACT:UP  17-03-14 04:32 OP:and  STATUS:               ID:20170313212744d    3
 OLDACT:UP  17-03-14 04:32 OP:and  STATUS:               ID:20170313212744d    3
 OLDACT:UP  17-03-14 04:32 OP:and  STATUS:               ID:20170313212744d    3
 OLDACT:UP  17-03-14 04:31 OP:and  STATUS:               ID:20170313212744d    3
 OLDACT:UP  17-03-14 04:30 OP:and  STATUS:               ID:20170313212744d    3
 OLDACT:DUP 17-03-14 04:27 OP:and  STATUS:               ID:20170313212744d    3
 OLDACT:UP  17-03-14 04:26 OP:and  STATUS:               ID:20170313212743     3
 OLDACT:UP  17-03-14 04:26 OP:and  STATUS:               ID:20170313212743     3
 OLDACT:UP  17-03-14 04:25 OP:and  STATUS:               ID:20170313212743     3
 OLDACT:UP  17-03-14 04:24 OP:and  STATUS:               ID:20170313212743     3
 OLDACT:UP  17-03-14 04:23 OP:and  STATUS:               ID:20170313212743     3
 OLDACT:UP  17-03-14 04:22 OP:and  STATUS:               ID:20170313212743     3
 OLDACT:UP  17-03-14 04:22 OP:and  STATUS:               ID:20170313212743     3
 OLDACT:UP  17-03-14 04:22 OP:and  STATUS:               ID:20170313212743     3
 OLDACT:UP  17-03-14 04:22 OP:and  STATUS:               ID:20170313212743     3
 OLDACT:UP  17-03-14 04:20 OP:and  STATUS:               ID:20170313212743     3
 OLDACT:UP  17-03-14 04:20 OP:and  STATUS:               ID:20170313212743     3
 OLDACT:REG 17-03-14 03:27 OP:and  STATUS:               ID:20170313212743     3
 2017-03-13-2128-00M.COL___397                                                 6
 STAT SP IPHASW D HRMM SECON CODA AMPLIT PERI AZIMU VELO AIN AR TRES W  DIS CAZ7
 BAR2 EZ EP       2136 49.35                             172   -0.3410 19.1 206 
 BAR2 EZ ES       2137  4.75                             172   -0.3010 19.1 206 
 BAR2 EZ I        2137  6.28         8.1 0.21            172           19.1 206 
 BRR  HZ EP       2136 51.51                             150   -0.1510 77.8 301 
 BRR  HN ES       2137  8.81                             150    0.2610 77.8 301 
 PAM  EZ EP       2136 52.59                             150    0.1310 79.4  34 
 PAM  EN ES       2137 10.05                             150    0.0710 79.4  34 
 PAM  EZ I        2137 14.44         3.5 0.36            151           79.4  34 
 RUS  HZ EP   2   2136 53.34                             146   -0.10 5 94.6 178 
 RUS  HN ES       2137 11.90                             146    0.1710 94.6 178 
 RUS  HZ I        2137 13.09         3.9 0.13            146           94.6 178 
 PTB  HZ EP   9   2136 56.45                             131   -0.91 0  151 261 
 PTB  HN ES       2137 17.34                             132   -0.45 9  151 261 
 PTB  HZ I        2137 18.63         4.0 0.10            132            151 261 
 NOR  HZ EP       2137  5.94                             118    0.12 8  235 236 
 NOR  HN ES   2   2137 34.42                             118    0.65 4  235 236 
 NOR  HZ I        2137 38.67         2.2 0.20            119            235 236 
                                                                                
