 2017  513 2121 25.8 L   6.764 -73.152138.9  RSN  5 0.5 1.8LRSN                1
 GAP=137        1.19       5.8     5.3  9.5  0.2406E+01  0.1235E+02  0.1619E+01E
 Epicentro: LOS SANTOS - SANTANDER                                             3
 ACTION:UPD 17-06-16 13:36 OP:jn   STATUS:               ID:20170513212125 L   I
 OLDACT:REG 17-05-14 06:18 OP:ar   STATUS:               ID:20170513211736     3
 2017-05-13-2118-00M.COL___355                                                 6
 STAT SP IPHASW D HRMM SECON CODA AMPLIT PERI AZIMU VELO AIN AR TRES W  DIS CAZ7
 BRR  HZ EP       2121 46.31                             151   -0.0010 72.6 302 
 BRR  HE ES       2122  2.94                             151    0.6410 72.6 302 
 BRR  HZ I        2122  7.27        11.0 0.12            152           72.6 302 
 PAM  EZ EP       2121 47.27                             148   -0.2610 80.9  38 
 PAM  EE ES       2122  4.09                             148   -0.3810 80.9  38 
 PAM  EZ I        2122  6.39        22.6 0.60            151           80.9  38 
 RUS  HZ EP       2121 49.07                             143    0.4610 96.7 175 
 RUS  HN ES       2122  6.49                             143    0.1010 96.7 175 
 RUS  HZ I        2122  7.58         6.6 0.26            148           96.7 175 
 PTB  HZ EP       2121 51.44                             131   -0.66 9  146 260 
 PTB  HN ES       2122 11.94                             131   -0.67 9  146 260 
 PTB  HZ I        2122 14.32         5.8 0.28            133            146 260 
 ZAR  HZ EP       2121 58.61                             121    0.69 9  205 293 
 ZAR  HN ES       2122 23.09                             121    0.13 9  205 293 
 ZAR  HZ I        2122 25.19         7.9 0.10            123            205 293 
                                                                                
