 2013  413 2222  8.1 L   6.796 -73.086153.2  RSN  6 0.3 1.7LRSN                1
 GAP=144        0.54       3.1     4.3  5.4 -0.2233E+01  0.6970E+01 -0.3813E+00E
 Epicentro: LOS SANTOS - SANTANDER                                             3
 ACTION:UPD 13-05-22 14:38 OP:EP   STATUS:               ID:20130413222208 L   I
 2013-04-13-2220-00M.COL___244                                                 6
 STAT SP IPHASW D HRMM SECON CODA AMPLIT PERI AZIMU VELO AIN AR TRES W  DIS CAZ7
 BAR2 SZ EP   1   2222 28.64                             170    0.01 7 24.9 205 
 PAM  SZ EP   1   2222 31.38                             153    0.49 7 73.8  35 
 PAM  SN ES   1   2222 48.62                             153   -0.05 7 73.8  35 
 PAM  SZ I        2222 50.10        10.5 0.42            157           73.8  35 
 BRR  HZ IP     D 2222 30.39                             152    0.0210 77.2 297 
 BRR  HN ES   1   2222 48.00                             152    0.24 7 77.2 297 
 BRR  HZ I        2222 52.80        10.6 0.16            148           77.2 297 
 RUS  HZ EP   1   2222 32.48                             145   -0.04 7 99.9 180 
 RUS  HN ES   1   2222 51.19                             145   -0.39 7 99.9 180 
 RUS  HZ I        2222 52.75         5.1 0.26            149           99.9 180 
 NOR  HZ EP   1   2222 45.02                             119    0.23 6  240 235 
 NOR  HN ES   1   2223 13.39                             119   -0.03 6  240 235 
 NOR  HZ I        2223 18.23         3.1 0.28            121            240 235 
 SML  HZ EP   1   2222 45.08                             118   -0.40 6  247 334 
 SML  HE ES   2   2223 14.06                             118   -0.59 4  247 334 
 SML  HZ I        2223 19.37         5.5 0.26            120            247 334 
                                                                                
