 2014  613 2046 17.4 L   6.788 -73.149138.8  RSN 19 0.4 2.4LRSN                1
 GAP= 71        0.90       2.1     2.6  4.0 -0.1509E+01  0.1808E+01  0.9698E+00E
 Epicentro: LOS SANTOS - SANTANDER                                             3
 ACTION:UPD 14-07-01 22:53 OP:nd   STATUS:               ID:20140613204617 L   I
 OLDACT:DUP 14-06-14 06:04 OP:stll STATUS:               ID:20140613203820d    3
 2014-06-13-2038-19M.COL___262                                                 6
 STAT SP IPHASW D HRMM SECON CODA AMPLIT PERI AZIMU VELO AIN AR TRES W  DIS CAZ7
 BAR2 SZ IP     D 2046 36.56                             171    0.3610 21.9 190 
 BAR2 SZ ES       2046 51.03                             171    0.1910 21.9 190 
 BAR2 SZ I        2046 52.39       186.3 0.36            168           21.9 190 
 BRR  HZ IP     C 2046 38.43                             151    0.5710 71.6 300 
 BRR  HZ I        2046 38.66        92.1 0.22            150           71.6 300 
 BRR  HE ES       2046 53.57                             151   -0.2210 71.6 300 
 PAM  SZ IP     C 2046 39.40                             149    0.4010 78.7  39 
 PAM  SN ES       2046 56.05                             149    0.2310 78.7  39 
 PAM  SZ I        2046 58.51        82.2 0.64            153           78.7  39 
 RUS  HZ EP       2046 40.46                             143    0.0510 99.2 176 
 RUS  HN ES       2046 58.20                             143   -0.1310 99.2 176 
 RUS  HZ I        2046 59.89        29.7 0.24            142           99.2 176 
 PTB  HZ EP     D 2046 43.46                             131   -0.33 9  147 259 
 PTB  HE ES       2047  3.76                             131   -0.59 9  147 259 
 PTB  HZ I        2047  6.12        43.9 0.46            129            147 259 
 TAM  HZ IP     D 2046 44.87                             129    0.30 9  155 104 
 TAM  HZ I        2046 44.99        74.0 0.20            131            155 104 
 SPBC HZ EP       2046 45.44                             128    0.15 9  162 219 
 SPBC HE ES       2047  6.89                             128   -0.12 9  162 219 
 SPBC HZ I        2047 12.29        19.8 0.22            127            162 219 
 OCA  HZ EP       2046 45.02                             128   -0.33 9  162 353 
 OCA  HE ES       2047  6.98                             128   -0.13 9  162 353 
 ZAR  HZ EP       2046 49.56                             121    0.10 9  204 293 
 ZAR  HN ES       2047 14.73                             121    0.29 9  204 293 
 NOR  HZ EP       2046 52.96                             117    0.30 8  234 235 
 NOR  HE ES       2047 19.46                             117   -0.67 8  234 235 
 NOR  HZ I        2047 25.45        15.3 0.48            117            234 235 
 SML  HZ EP       2046 53.14                             116   -0.67 8  245 336 
 SML  HE ES       2047 22.47                             116    0.30 8  245 336 
 SML  HZ I        2047 25.44        43.2 0.32            117            245 336 
 CHI  HN ES       2047 22.82                             116   -0.78 8  247 195 
 CHI  HZ I        2047 30.59        10.8 0.52            116            247 195 
 HEL  HN ES       2047 28.25                             113   -0.02 8  271 256 
 HEL  HZ I        2047 44.70         7.7 0.38            113            271 256 
 GUY2CHZ EP       2047  0.94                             111    0.33 7  300 235 
 GUY2CHE ES       2047 34.77                             111    0.48 7  300 235 
 GUY2CHZ I        2047 42.91         9.6 0.38                           300 235 
 SOCV BZ EP       2046 58.99                             111   -1.30 7  302  57 
 SOCV BN ES   4   2047 30.35                             111   -3.37 0  302  57 
 RREF HZ EP       2047  3.40                             110    0.24 7  321 230 
 RREF HE ES       2047 38.95                             110    0.14 7  321 230 
 RREF HZ I        2047 48.16         9.0 0.48            110            321 230 
 TOL  SZ EP   1   2047  5.59                             108    0.31 5  342 225 
 TOL  SN ES       2047 42.57                             108   -0.03 7  342 225 
 PRA  HZ EP       2047 10.67                             105    0.10 6  391 210 
 PRA  HN ES       2047 52.18                             105    0.17 6  391 210 
 PRA  HZ I        2047 57.48         7.8 0.30            106            391 210 
 ORTC HZ EP       2047 10.99                             105    0.02 6  394 216 
 ORTC HN ES       2047 52.89                             105    0.16 6  394 216 
 ORTC HZ I        2047 58.75         5.4 0.42            105            394 216 
                                                                                
