 2010  713 2227 37.1 L   6.841 -72.968146.6  RSN  6 0.2 1.9LRSN                1
 GAP=184        0.39       2.4     3.9  3.5  0.2560E+00 -0.3012E+01 -0.1916E+00E
 Epicentro: CEPITA - SANTANDER                                                 3
 ACTION:UPD 10-12-01 15:17 OP:pat  STATUS:               ID:20100713222737 L   I
 2010-07-13-2225-47S.COL___120                                                 6
 STAT SP IPHASW D HRMM SECON CODA AMPLIT PERI AZIMU VELO AIN AR TRES W  DIS CAZ7
 BAR2 SZ EP   1   2227 57.34                             165     0.1 7   36 221 
 BAR2 SZ ES   1   2228 12.91                             165     0.0 7   36 221 
 BAR2 SZ I        2228 14.05        29.6 0.23                            36 221 
 BRR  HZ EP       2227 59.27                             148    -0.110   87 290 
 BRR  HZ I        2227 59.44        29.4 0.16                            87 290 
 BRR  HN ES       2228 16.70                             148     0.010   87 290 
 RUS  HZ EP   1   2228  1.31                             143     0.0 7  106 187 
 RUS  HN ES   1   2228 20.22                             143     0.0 7  106 187 
 RUS  HZ I        2228 21.13         3.9 0.39                           106 187 
 GUE  SZ EP       2228  1.40                             141     0.010  109   2 
 GUE  SZ I        2228  2.80         4.8 0.08                           109   2 
 RREF HZ EP   2   2228 25.84                             110     0.5 3  340 231 
 RREF HE ES   2   2229  3.35                             110     0.3 3  340 231 
 RREF HZ I        2229  9.72         4.4 0.39                           340 231 
 PRA  HZ EP   1   2228 32.31                             106     0.0 4  406 212 
 PRA  HE ES   2   2229 14.60                             106    -0.8 3  406 212 
 PRA  HZ I        2229 17.13         3.7 0.36                           406 212 
                                                                                
