 2016  213 2309 50.5 L   6.804 -73.189136.3  RSN  4 0.2 1.3LRSN                1
 GAP=144        0.57       3.3     3.2  4.8 -0.3370E+01  0.4523E+01 -0.1599E+01E
 Epicentro: ZAPATOCA - SANTANDER                                               3
 ACTION:UPD 16-03-04 21:25 OP:rebc STATUS:               ID:20160213230950 L   I
 OLDACT:REG 16-02-14 04:38 OP:cara STATUS:               ID:20160213230748     3
 2016-02-13-2307-48M.COL___299                                                 6
 STAT SP IPHASW D HRMM SECON CODA AMPLIT PERI AZIMU VELO AIN AR TRES W  DIS CAZ7
 BAR2 EZ IP       2310  9.07                             170    0.0610 23.4 178 
 BAR2 EZ ES       2310 23.08                             170   -0.3610 23.4 178 
 BAR2 EZ I        2310 25.05         8.3 0.46            170           23.4 178 
 PAM  EZ IP     D 2310 11.92                             148    0.0110 80.2  42 
 PAM  EN ES       2310 28.76                             148    0.1510 80.2  42 
 PAM  EZ I        2310 30.84         5.2 0.50            150           80.2  42 
 RUS  HZ EP       2310 13.42                             141    0.0110  101 173 
 RUS  HE ES       2310 31.44                             141    0.1610  101 173 
 RUS  HZ I        2310 33.35         1.7 0.36            144            101 173 
 PTB  HZ EP       2310 16.01                             131   -0.29 9  143 258 
 PTB  HN ES       2310 36.66                             131    0.26 9  143 258 
 PTB  HZ I        2310 37.88         2.3 0.38            133            143 258 
                                                                                
