 2016  113 2335 51.0 L   6.779 -73.180142.1  RSN  9 0.4 1.8LRSN                1
 GAP=133        1.14       3.5     5.0  6.9 -0.4616E+01  0.9671E+01 -0.3325E+01E
 Epicentro: LOS SANTOS - SANTANDER                                             3
 ACTION:UPD 16-03-09 23:25 OP:cam  STATUS:               ID:20160113233551 L   I
 OLDACT:UP  16-01-14 08:53 OP:ak   STATUS:               ID:20160113232750     3
 OLDACT:REG 16-01-14 06:12 OP:ak   STATUS:               ID:20160113232750     3
 2016-01-13-2327-50M.COL___334                                                 6
 STAT SP IPHASW D HRMM SECON CODA AMPLIT PERI AZIMU VELO AIN AR TRES W  DIS CAZ7
 BAR2 EZ EP       2336 10.53                             171    0.3610 20.7 181 
 BAR2 EZ ES       2336 25.01                             171   -0.0910 20.7 181 
 BAR2 EZ I        2336 26.12        17.0 0.26            172           20.7 181 
 BRR  HZ EP       2336 12.45                             153    0.7910 69.0 302 
 BRR  HN ES       2336 28.62                             153    0.8610 69.0 302 
 BRR  HZ I        2336 32.58        10.4 0.12            152           69.0 302 
 PAM  EZ EP       2336 13.23                             149    0.1110 81.6  41 
 PAM  EN ES       2336 30.18                             149   -0.1710 81.6  41 
 PAM  EZ I        2336 32.53        15.0 0.60            152           81.6  41 
 RUS  HZ EP       2336 14.14                             144   -0.1410 98.6 174 
 RUS  HN ES       2336 32.06                             144   -0.3610 98.6 174 
 RUS  HZ I        2336 34.53         5.1 0.42            147           98.6 174 
 PTB  HZ EP       2336 17.17                             132   -0.15 9  144 259 
 PTB  HN ES       2336 36.88                             132   -0.94 9  144 259 
 PTB  HZ I        2336 41.32         7.9 0.24            133            144 259 
 SPBC HN ES       2336 40.77                             129    0.22 9  159 218 
 OCA  HZ EP   2   2336 19.30                             128    0.06 5  162 355 
 OCA  HE ES       2336 40.54                             128   -0.70 9  162 355 
 OCA  HZ I        2336 43.84        25.5 0.28            130            162 355 
 NOR  HZ EP       2336 26.09                             118    0.02 8  230 234 
 NOR  HN ES       2336 53.48                             118    0.08 8  230 234 
 NOR  HZ I        2336 58.65         4.1 0.20            120            230 234 
 SML  HZ EP       2336 27.34                             117   -0.17 8  244 336 
 SML  HN ES       2336 56.01                             117    0.04 8  244 336 
 SML  HZ I        2336 58.47                             118            244 336 
                                                                                
