 2011 1113 2350  6.4 L   6.506 -73.529109.1  RSN  9 0.4 1.9LRSN                1
 GAP= 68        0.87       4.0     4.5  7.1 -0.1427E+01  0.1131E+02  0.7581E-01E
 Epicentro: EL CARMEN DE CHUCURI - SANTANDER                                   3
 ACTION:UPD 12-07-13 16:10 OP:ep   STATUS:               ID:20111113235006 L   I
 2011-11-13-2349-11S.COL___179                                                 6
 STAT SP IPHASW D HRMM SECON CODA AMPLIT PERI AZIMU VELO AIN AR TRES W  DIS CAZ7
 BAR2 SZ EP       2350 22.38                             159    0.2010 39.6  76 
 BAR2 SZ ES   1   2350 34.75                             159    0.22 7 39.6  76 
 BAR2 SZ I        2350 36.44        91.0 0.42                          39.6  76 
 BRR  HZ EP       2350 23.18                             145   -0.3910 69.5 343 
 BRR  HN ES   1   2350 36.74                             145   -0.26 7 69.5 343 
 BRR  HZ I        2350 36.97        17.2 0.12                          69.5 343 
 RUS  HZ EP       2350 25.34                             140    0.0110 83.9 144 
 RUS  HN ES   2   2350 40.50                             140    0.37 5 83.9 144 
 RUS  HZ I        2350 42.49        11.1 0.26                          83.9 144 
 PAM  SZ EP       2350 28.87                             126   -0.5910  130  45 
 NOR  SZ EP       2350 34.01                             116   -0.23 9  181 235 
 NOR  SN ES   1   2350 55.99                             116    0.00 7  181 235 
 ZAR  HZ EP       2350 34.29                             116   -0.08 9  183 307 
 ZAR  HN ES   2   2350 57.08                             116    0.87 4  183 307 
 ZAR  HZ I        2350 58.69        21.5 0.42                           183 307 
 OCA  SZ EP       2350 36.52                             114    0.84 9  193   7 
 OCA  SZ I        2351  3.49        17.6 0.47                           193   7 
 CHI  HZ EP   2   2350 38.39                             113    0.64 4  209 186 
 CHI  HZ I        2351  5.05         2.6 0.60                           209 186 
 HEL  HZ EP   2   2350 39.33                             111   -0.09 4  224 261 
 HEL  HZ I        2351 11.88         5.3 0.28                           224 261 
                                                                                
