 2010  813 2239 43.1 L   6.813 -73.097148.5  RSN  6 0.4 1.6LRSN                1
 GAP=164        0.86       6.1    10.9 10.3  0.8351E+01 -0.6075E+02 -0.1271E+02E
 Epicentro: LOS SANTOS - SANTANDER                                             3
 ACTION:UP  10-09-07 10:54 OP:vdl  STATUS:               ID:20100813223943 L   I
 2010-08-13-2238-31S.COL___111                                                 6
 STAT SP IPHASW D HRMM SECON CODA AMPLIT PERI AZIMU VELO SNR AR TRES W  DIS CAZ7
 BAR2 SZ EP   1   2240  3.18                             170     0.1 7   26 201 
 BAR2 SZ ES   1   2240 17.96                             170    -0.8 7   26 201 
 BAR2 SZ I        2240 25.83         9.1 0.45                            26 201 
 GIR2 SZ EP   2   2240  3.30                             168     0.2 5   31 340 
 BRR  HZ EP   1   2240  4.99                             152     0.2 7   75 296 
 BRR  HZ I        2240  6.32        12.0 0.11                            75 296 
 BRR  HE ES       2240 21.84                             152     0.110   75 296 
 RUS  HZ EP   1   2240  7.25                             144     0.0 7  102 179 
 RUS  HE ES   2   2240 26.73                             144     0.7 5  102 179 
 RUS  HZ I        2240 28.36         3.9 0.52                           102 179 
 GUE  SZ EP   1   2240  7.75                             140    -0.1 7  114  10 
 GRA  SZ EP   1   2240  7.96                             138    -0.4 7  123  15 
 GRA  SZ ES   2   2240 28.72                             138     0.7 5  123  15 
 GRA  SZ I        2240 35.55         4.8 0.53                           123  15 
                                                                                
