 2016  713 2204  5.7 L   6.292 -73.429133.4  RSN  7 0.3 1.5LRSN                1
 GAP=104        0.82       3.5     3.4  6.9 -0.2557E+01  0.7527E+01 -0.7795E+01E
 Epicentro: CONTRATACION - SANTANDER                                           3
 ACTION:UPD 17-03-29 16:50 OP:lp   STATUS:               ID:20160713220405 L   I
 OLDACT:REG 16-07-14 02:38 OP:drio STATUS:               ID:20160713215759     3
 2016-07-13-2157-59S.COL___334                                                 6
 STAT SP IPHASW D HRMM SECON CODA AMPLIT PERI AZIMU VELO AIN AR TRES W  DIS CAZ7
 RUS  HZ EP       22 4 25.17                             155   -0.3210 58.5 139 
 RUS  HN ES       22 4 40.68                             155   -0.2810 58.5 139 
 RUS  HZ I        22 4 42.40         1.8 0.14            159           58.5 139 
 BRR  HZ EP       22 4 27.51                             142    0.3710 95.4 341 
 BRR  HE ES   4   22 4 45.63                             142    1.75 0 95.4 341 
 SPBC HZ EP       22 4 27.94                             141    0.2910  100 225 
 SPBC HE ES       22 4 44.89                             141    0.1010  100 225 
 PTB  HZ EP       22 4 28.31                             136   -0.5710  117 284 
 PTB  HE ES       22 4 46.93                             136   -0.0510  117 284 
 PTB  HZ I        22 4 47.72         6.5 0.10            137            117 284 
 PAM  EZ EP   4   22 4 33.78                             131    2.11 0  141  35 
 PAM  EN ES       22 4 52.32                             131    0.37 9  141  35 
 NOR  HZ EP       22 4 35.02                             123    0.27 9  179 243 
 NOR  HN ES       22 4 57.75                             123    0.31 9  179 243 
 ZAR  HZ EP       22 4 37.24                             119   -0.33 8  206 310 
 ZAR  HE ES       22 5  2.28                             119   -0.18 8  206 310 
 ZAR  HZ I        22 5  9.05         7.3 0.46            120            206 310 
                                                                                
