 2017  713 2311 40.0 L   6.465 -73.744 88.0  RSN 16 0.5 2.0LRSN                1
 GAP= 78        1.10       2.6     2.3  6.5 -0.1907E+00  0.2576E+01  0.2606E+01E
 Epicentro: SANTA HELENA DEL OPON - SANTANDER                                  3
 ACTION:UPD 17-08-30 15:32 OP:rebc STATUS:               ID:20170713231140 L   I
 OLDACT:DUP 17-07-14 04:06 OP:dhb  STATUS:               ID:20170713230742d    3
 2017-07-13-2308-00M.COL___380                                                 6
 STAT SP IPHASW D HRMM SECON CODA AMPLIT PERI AZIMU VELO AIN AR TRES W  DIS CAZ7
 BRR  HZ IP     C 2311 55.11                             138   -0.1510 71.1   3 
 BRR  HN ES       2312  8.08                             138    0.8810 71.1   3 
 BRR  HZ I        2312  8.91        35.3 0.14             47           71.1   3 
 PTB  HZ EP       2311 54.91                             135   -1.0710 79.2 276 
 PTB  HN ES       2312  8.00                             135   -0.4710 79.2 276 
 PTB  HZ I        2312  8.67        16.9 0.12             47           79.2 276 
 RUS  HZ IP     C 2311 57.77                             129   -0.4710 96.7 131 
 RUS  HN ES       2312 12.54                             129    0.0510 96.7 131 
 RUS  HZ I        2312 14.28        14.6 0.18             47           96.7 131 
 SPBC HZ EP       2311 57.40                             129   -0.3210 96.9 202 
 SPBC HE ES       2312 12.13                             129    0.5610 96.9 202 
 SPBC HZ I        2312 13.44        59.9 0.24             47           96.9 202 
 PAM  EZ EP       2312  4.22                             116    0.34 9  151  50 
 PAM  EN ES       2312 22.38                             116   -0.16 9  151  50 
 PAM  EZ I        2312 23.40        16.8 0.17             47            151  50 
 NOR  HZ EP       2312  3.78                             114   -0.54 9  160 231 
 NOR  HE ES       2312 23.22                             114   -0.11 9  160 231 
 NOR  HZ I        2312 25.62        18.2 0.20             47            160 231 
 ZAR  HZ EP       2312  4.83                             113   -0.34 9  168 313 
 ZAR  HE ES       2312 24.92                             113    0.08 9  168 313 
 ZAR  HZ I        2312 28.85        16.8 0.14             47            168 313 
 TABC EZ EP   4   2312  6.67                             113    0.80 0  169 198 
 TABC EZ ES   1   2312 25.65                             113   -0.43 7  169 198 
 TABC EZ I        2312 31.79        10.6 0.31             47            169 198 
 YPLC HZ EP       2312  7.99                             110   -0.05 9  192 128 
 YPLC HN ES       2312 30.34                             110    0.39 9  192 128 
 YPLC HZ I        2312 32.48         9.9 0.24             37            192 128 
 HEL  HZ EP       2312  9.21                             109   -0.14 9  200 261 
 HEL  HN ES       2312 32.60                             109    0.33 9  200 261 
 HEL  HZ I        2312 35.64        10.9 0.22             37            200 261 
 TAM  HZ I        2313 27.66        14.5 0.40             37            216  91 
 GUY2CHZ EP       2312 12.37                             107   -0.18 8  226 233 
 GUY2CHE ES       2312 38.29                             107    0.32 8  226 233 
 GUY2CHZ I        2312 43.47         6.4 0.26                           226 233 
 URE  HZ EP   3   2312 14.03                             105   -0.04 2  243 306 
 URE  HN ES   4   2312 38.46                             105   -2.22 0  243 306 
 URE  HZ I        2312 50.41         8.5 0.16             37            243 306 
 CBOC HZ IP     C 2312 16.76                             104    0.56 8  260 255 
 CBOC HN ES       2312 44.90                             104    0.44 8  260 255 
 CBOC HZ I        2312 51.16         3.4 0.40             37            260 255 
 DBB  EZ EP   4   2312 18.10                             103   -0.35 0  279 283 
 DBB  EN ES       2312 48.97                             103    0.50 7  279 283 
 DBB  EZ I        2312 50.92         5.1 0.24             37            279 283 
 ORTC HZ EP       2312 24.81                             101    0.53 7  328 211 
 ORTC HN ES       2312 59.31                             101    0.47 7  328 211 
 ORTC HZ I        2313  6.82         6.6 0.42             36            328 211 
                                                                                
