 2017  113 2006 49.6 L   6.776 -73.110142.5  RSN  4 0.3 1.4LRSN                1
 GAP=142        0.83       4.4     5.2  7.1  0.1615E+01  0.1473E+02 -0.4401E+01E
 Epicentro: LOS SANTOS - SANTANDER                                             3
 ACTION:UPD 17-05-22 15:59 OP:jn   STATUS:               ID:20170113200649 L   I
 OLDACT:DUP 17-01-14 05:15 OP:lv   STATUS:               ID:20170113195749d    3
 2017-01-13-1958-00M.COL___331                                                 6
 STAT SP IPHASW D HRMM SECON CODA AMPLIT PERI AZIMU VELO AIN AR TRES W  DIS CAZ7
 BAR2 EZ EP       20 7  8.51                             171   -0.2810 21.8 201 
 BAR2 EZ ES       20 7 23.24                             171   -0.5310 21.8 201 
 BAR2 EZ I        20 7 25.11         8.5 0.17            172           21.8 201 
 PAM  EZ EP       20 7 11.53                             150    0.0910 77.1  36 
 PAM  EE ES       20 7 28.70                             150    0.2210 77.1  36 
 PAM  EZ I        20 7 31.49         3.4 0.40            152           77.1  36 
 RUS  HZ EP       20 7 12.75                             144   -0.0510 97.7 178 
 RUS  HE ES       20 7 31.39                             144    0.4710 97.7 178 
 RUS  HZ I        20 7 32.58         2.5 0.21            147           97.7 178 
 ZAR  HZ EP       20 7 22.08                             121   -0.22 8  209 292 
 ZAR  HE ES       20 7 48.16                             121    0.34 8  209 292 
 ZAR  HZ I        20 7 51.96         3.5 0.27            122            209 292 
                                                                                
