 2011  513 2315 46.1 L   6.767 -73.068146.0  RSN 15 0.3 3.4LRSN                1
 GAP=148        0.59       2.1     3.8  3.7 -0.3048E+01  0.2260E+01  0.1391E+01E
 Epicentro: LOS SANTOS - SANTANDER                                             3
 ACTION:UP  11-06-29 08:53 OP:tino STATUS:               ID:20110513231546 L   I
 2011-05-13-2314-12S.COL___141                                                 6
 STAT SP IPHASW D HRMM SECON CODA AMPLIT PERI AZIMU VELO SNR AR TRES W  DIS CAZ7
 BAR2 SZ IP       2316  5.76                             170     0.010   23 213 
 BAR2 SZ ES   1   2316 20.89                             170    -0.2 7   23 213 
 BAR2 SZ I        2316 23.60       459.9 0.27                            23 213 
 BTL  SZ IP       2316  5.91                             169     0.110   28 307 
 GIR2 SZ IP       2316  5.81                             165    -0.110   37 338 
 GIR2 SZ ES   2   2316 21.82                             165     0.4 5   37 338 
 PAM  SZ IP       2316  8.51                             151     0.310   75  33 
 PAM  SN ES   1   2316 25.49                             151     0.0 7   75  33 
 BRR  HZ IP     D 2316  7.60                             149    -0.210   81 298 
 BRR  HE ES   1   2316 25.11                             149     0.4 7   81 298 
 BRR  HZ I        2316 27.98       389.8 0.13                            81 298 
 RUS  HZ EP   1   2316  9.65                             145     0.1 7   97 181 
 RUS  HE ES   1   2316 27.63                             145    -0.3 7   97 181 
 RUS  HZ I        2316 30.23       259.3 0.31                            97 181 
 BRI  SZ IP       2316 10.25                             141     0.210  109  16 
 BRI  SZ ES   2   2316 28.47                             141    -0.3 5  109  16 
 BRI  SZ I        2316 34.50       330.4 0.63                           109  16 
 GRA  SZ IP       2316 11.48                             137     0.010  127  13 
 GRA  SZ ES   1   2316 30.71                             137    -0.5 7  127  13 
 GRA  SZ I        2316 32.21       480.6 0.53                           127  13 
 OCA  SZ EP   1   2316 14.70                             129    -0.2 7  165 350 
 OCA  SZ ES   1   2316 37.26                             129    -0.1 7  165 350 
 OCA  SZ I        2316 42.11       440.1 0.28                           165 350 
 NOR  SZ EP   2   2316 21.89                             118    -0.5 4  240 236 
 NOR  SN ES   2   2316 50.06                             118    -0.6 4  240 236 
 HEL  HZ EP   1   2316 27.56                             114     0.4 6  280 257 
 HEL  HZ ES   2   2316 59.91                             114     0.7 4  280 257 
 HEL  HZ I        2317  4.32       125.8 0.25                           280 257 
 VIL  SZ EP       2316 29.46                             112     0.1 7  302 193 
 VIL  SE ES       2317  3.17                             112     0.1 7  302 193 
 GUY  SZ EP   2   2316 30.35                             112    -0.2 4  309 237 
 GUY  SZ I        2317 16.65       273.8 0.63                           309 237 
 DBB  SZ EP   2   2316 33.81                             109    -0.8 3  348 275 
 PRA  HZ EP   1   2316 39.67                             106    -0.1 4  393 211 
 PRA  HN ES   2   2317 20.80                             106    -0.8 3  393 211 
                                                                                
