 2016 1113 2234 52.0 L   6.665 -73.468110.8  RSN  4 0.5 1.3LRSN                1
 GAP=163        1.22       6.7     6.8 10.3  0.2127E+02  0.3049E+02  0.2169E+02E
 Epicentro: EL CARMEN - SANTANDER                                              3
 ACTION:UPD 17-10-26 21:07 OP:lp   STATUS:               ID:20161113223452 L   I
 OLDACT:REG 16-11-14 03:21 OP:cog  STATUS:               ID:20161113222746     3
 2016-11-13-2228-00M.COL___343                                                 6
 STAT SP IPHASW D HRMM SECON CODA AMPLIT PERI AZIMU VELO AIN AR TRES W  DIS CAZ7
 BAR2 EZ EP       2235  7.44                             163   -0.3210 32.5 104 
 BAR2 EZ ES       2235 20.25                             163    0.2210 32.5 104 
 PTB  HZ EP       2235 11.98                             132   -0.7510  110 263 
 PTB  HE ES       2235 28.55                             132   -0.3410  110 263 
 PTB  HZ I        2235 36.03         3.4 0.24            129            110 263 
 ZAR  HZ EP       2235 19.54                             117   -0.13 9  179 301 
 ZAR  HE ES       2235 42.17                             117    0.93 9  179 301 
 ZAR  HZ I        2235 45.13         3.3 0.08            119            179 301 
 CHI  HZ EP       2235 25.98                             111    0.42 8  227 187 
 CHI  HN ES       2235 52.08                             111    0.36 8  227 187 
 CHI  HZ I        2236  0.08         1.1 0.30            112            227 187 
                                                                                
