 2012 1013 2124 50.4 L   6.746 -73.112150.7  RSN  4 0.4 1.7LRSN                1
 GAP=143        0.74       5.3     7.9  7.7 -0.2769E+01 -0.8396E+01 -0.1441E+01E
 Epicentro: JORDAN - SANTANDER                                                 3
 ACTION:UPD 12-11-22 17:03 OP:ep   STATUS:               ID:20121013212450 L   I
 2012-10-13-2120-00M.COL___231                                                 6
 STAT SP IPHASW D HRMM SECON CODA AMPLIT PERI AZIMU VELO AIN AR TRES W  DIS CAZ7
 BAR2 SZ EP   1   2125 10.52                             173   -0.01 7 18.7 205 
 BAR2 SZ ES   1   2125 26.40                             173    0.16 7 18.7 205 
 BAR2 SZ I        2125 26.86        10.4 0.24                          18.7 205 
 BRR  HZ EP   1   2125 11.81                             151   -0.61 7 77.4 301 
 BRR  HE ES   1   2125 29.90                             151    0.29 7 77.4 301 
 BRR  HN I        2125 30.47        20.7 0.30                          77.4 301 
 PAM  SZ EP       2125 13.33                             151    0.0510 79.9  35 
 PAM  SN ES   1   2125 31.04                             151   -0.09 7 79.9  35 
 PAM  SN I        2125 31.73         9.8 0.24                          79.9  35 
 RUS  HZ EP   1   2125 14.81                             146    0.60 7 94.5 178 
 RUS  HN ES   1   2125 32.36                             146   -0.43 7 94.5 178 
 RUS  HN I        2125 34.72         4.9 0.16                          94.5 178 
                                                                                
