 2012  913 2010 18.4 L   6.741 -73.158141.1  RSN  7 0.3 1.9LRSN                1
 GAP=137        0.58       5.6     3.9  4.9 -0.5883E+01  0.5398E+00  0.4224E+01E
 Epicentro: VILLANUEVA - SANTANDER                                             3
 ACTION:UPD 12-10-22 14:18 OP:ep   STATUS:               ID:20120913201018 L   I
 2012-09-13-2010-00M.COL___227                                                 6
 STAT SP IPHASW D HRMM SECON CODA AMPLIT PERI AZIMU VELO AIN AR TRES W  DIS CAZ7
 BAR2 SZ EP       2010 37.45                             173    0.1410 16.7 189 
 BAR2 SZ ES   1   2010 51.86                             173   -0.24 7 16.7 189 
 BAR2 SZ I        2010 53.68        20.2 0.18                          16.7 189 
 GIR2 SZ EP       2010 37.73                             164    0.0610 37.5 354 
 GIR2 SZ ES   1   2010 52.83                             164    0.09 7 37.5 354 
 BRR  HZ EP       2010 39.47                             151    0.3310 73.3 304 
 BRR  HN ES   1   2010 55.46                             151    0.12 7 73.3 304 
 BRR  HN I        2011  1.32        20.5 0.24                          73.3 304 
 PAM  SZ EP       2010 40.48                             148    0.0210 83.3  37 
 PAM  SZ I        2010 40.70        11.9 0.22                          83.3  37 
 PAM  SN ES   2   2010 56.96                             148   -0.74 5 83.3  37 
 RUS  HZ EP   2   2010 41.06                             145   -0.14 5 94.2 175 
 RUS  HN ES   3   2011  0.25                             145    1.24 2 94.2 175 
 PTB  HN EP       2010 44.37                             131   -0.35 9  145 261 
 PTB  HN ES   1   2011  5.11                             131   -0.18 7  145 261 
 PTB  HN I        2011  7.46         7.4 0.22                           145 261 
 ZAR  HN ES   3   2011 15.95                             121    0.13 2  205 294 
                                                                                
