 2013  113 2154 30.8 L   6.780 -73.124140.9  RSN  8 0.5 2.1LRSN                1
 GAP=238        1.15       5.9     6.9  7.5  0.1689E+02  0.1390E+02  0.1454E+02E
 Epicentro: LOS SANTOS - SANTANDER                                             3
 ACTION:UPD 13-02-15 09:14 OP:ep   STATUS:               ID:20130113215430 L   I
 2013-01-13-2150-00M.COL___241                                                 6
 STAT SP IPHASW D HRMM SECON CODA AMPLIT PERI AZIMU VELO AIN AR TRES W  DIS CAZ7
 BAR2 SZ EP       2154 49.95                             171    0.1010 21.7 197 
 BAR2 SZ ES       2155  4.01                             171   -0.6710 21.7 197 
 BAR2 SZ I        2155  7.78        45.4 0.36            164           21.7 197 
 BRR  HZ EP       2154 51.85                             150    0.2010 74.4 299 
 BRR  HN ES       2155  8.72                             150    0.8310 74.4 299 
 BRR  HZ I        2155  9.69        12.0 0.29            148           74.4 299 
 RUS  HZ EP       2154 53.87                             143   -0.0710 98.2 177 
 RUS  HE ES       2155 12.06                             143    0.1010 98.2 177 
 RUS  HE I        2155 13.63        22.8 0.20            142           98.2 177 
 PTB  HZ EP       2154 56.82                             130   -0.78 9  150 260 
 PTB  HE ES       2155 17.98                             130   -0.49 9  150 260 
 PTB  HZ I        2155 22.33        11.6 0.14            129            150 260 
 ZAR  HN ES   1   2155 28.91                             121    0.30 6  207 292 
 ZAR  HZ I        2155 33.94        12.6 0.31            121            207 292 
 NOR  HZ EP       2155  6.10                             117   -0.27 8  235 235 
 NOR  HN ES   1   2155 34.20                             117    0.12 6  235 235 
 NOR  HZ I        2155 40.33        13.5 0.25            117            235 235 
 CHI  HZ EP       2155  8.05                             116   -0.06 8  247 196 
 CHI  HN ES       2155 37.70                             116    0.53 8  247 196 
 CHI  HZ I        2155 43.37         5.4 0.24            117            247 196 
 ROSC BZ EP   1   2155  9.58                             116    0.95 6  252 212 
                                                                                
