 2015  413 2302  1.9 L   6.831 -73.162146.2  RSN 20 0.5 2.8LRSN                1
 GAP=133        1.15       2.9     3.9  5.2 -0.1399E+01  0.6529E+01  0.6245E+00E
 Epicentro: LOS SANTOS - SANTANDER                                             3
 ACTION:UPD 15-06-03 16:54 OP:cam  STATUS:               ID:20150413230201 L   I
 OLDACT:REG 15-04-14 03:28 OP:ak   STATUS:               ID:20150413225750     3
 2015-04-13-2257-50M.COL___272                                                 6
 STAT SP IPHASW D HRMM SECON CODA AMPLIT PERI AZIMU VELO AIN AR TRES W  DIS CAZ7
 BAR2 EZ EP       23 2 21.58                             169   -0.0310 26.5 185 
 BAR2 EZ ES       23 2 36.37                             169   -0.6410 26.5 185 
 BAR2 EZ I        23 2 38.60       112.4 0.30            169           26.5 185 
 BRR  HZ EP     D 23 2 23.39                             154    0.5110 68.0 297 
 BRR  HN ES       23 2 40.25                             154    0.9810 68.0 297 
 BRR  HZ I        23 2 44.55        92.6 0.14            148           68.0 297 
 PAM  SZ EP     D 23 2 24.43                             151    0.3910 76.0  42 
 PAM  SN ES       23 2 41.49                             151    0.1510 76.0  42 
 PAM  SZ I        23 2 43.76       187.0 0.46            154           76.0  42 
 RUS  HZ EP       23 2 25.84                             143   -0.0710  104 175 
 RUS  HN ES       23 2 44.12                             143   -0.5510  104 175 
 RUS  HZ I        23 2 45.44        97.9 0.32            146            104 175 
 PTB  HZ EP       23 2 28.42                             132   -0.34 9  147 257 
 PTB  HN ES       23 2 49.39                             132   -0.35 9  147 257 
 PTB  HZ I        23 2 52.50        43.5 0.24            131            147 257 
 OCA  HZ EP       23 2 29.75                             130   -0.12 9  157 354 
 OCA  HN ES       23 2 51.58                             130   -0.13 9  157 354 
 OCA  HZ I        23 2 56.11       157.8 0.38            130            157 354 
 SPBC HZ EP       23 2 30.54                             129    0.00 9  165 218 
 SPBC HN ES       23 2 52.33                             129   -0.57 9  165 218 
 SPBC HZ I        23 2 55.15       131.4 0.38            129            165 218 
 ZAR  HZ EP       23 2 34.05                             123    0.02 9  201 291 
 ZAR  HN ES       23 2 59.60                             123    0.48 9  201 291 
 ZAR  HZ I        23 3  5.68        55.2 0.56            122            201 291 
 NOR  HZ EP       23 2 37.65                             118   -0.02 8  235 234 
 NOR  HN ES       23 3  6.09                             118    0.49 8  235 234 
 NOR  HZ I        23 3 13.46        49.1 0.14            119            235 234 
 SML  HZ EP       23 2 37.95                             118   -0.14 8  240 335 
 SML  HN ES   2   23 3  6.44                             118    0.09 4  240 335 
 SML  HZ I        23 3  9.95       115.2 0.28            118            240 335 
 ROSC BZ EP       23 2 41.11                             116    0.89 8  255 210 
 ROSC BN ES       23 3 10.78                             116    0.64 8  255 210 
 ROSC BZ I        23 3 15.13        61.3 0.30            118            255 210 
 HEL  HZ EP       23 2 42.67                             115    0.68 8  271 255 
 HEL  HN ES       23 3 12.91                             115   -0.38 8  271 255 
 HEL  HZ I        23 3 20.54        26.6 0.46            115            271 255 
 URE  HZ EP       23 2 42.14                             114   -0.48 7  281 291 
 URE  HE ES       23 3 13.59                             114   -0.82 7  281 291 
 URE  HZ I        23 3 24.28        39.2 0.18            114            281 291 
 GUY2CHZ EP       23 2 45.65                             112    0.11 7  302 234 
 GUY2CHN ES   4   23 3 23.31                             112    3.70 0  302 234 
 GUY2CHZ I        23 3 31.76        29.0 0.46                           302 234 
 VIL  SZ EP       23 2 45.34                             112   -0.29 7  306 191 
 VIL  SN ES   2   23 3 18.24                             112   -1.54 4  306 191 
 VIL  SZ I        23 3 22.25        40.3 0.38            113            306 191 
 PTGC HZ EP   4   23 2 44.96                             111   -1.21 0  313 159 
 PTGC HN ES   4   23 3 18.35                             111   -2.38 0  313 159 
 RREF HN ES   4   23 3 26.78                             111    2.59 0  323 229 
 DBB  SZ EP       23 2 49.09                             110   -0.02 7  337 274 
 DBB  SZ ES   2   23 3 25.12                             110   -0.85 3  337 274 
 DBB  SZ I        23 3 29.11        66.6 0.72            110            337 274 
 MON  HZ EP   4   23 2 48.79                             109   -1.67 0  350 308 
 MON  HN ES   4   23 3 26.89                             109   -1.49 0  350 308 
 MON  HZ I        23 3 49.82        11.7 0.64            109            350 308 
 ORTC HZ EP       23 2 56.04                             106    0.05 6  397 216 
 ORTC HN ES       23 3 39.26                             106    1.05 6  397 216 
 ORTC HZ I        23 3 42.96        17.7 0.28            107            397 216 
 SJC  HZ EP       23 2 55.62                             106   -1.36 6  405 327 
 SJC  HN ES   4   23 3 36.80                             106   -3.18 0  405 327 
 SJC  HZ I        23 3 43.17         8.6 0.34            106            405 327 
 CRJC HZ EP   4   23 3  2.05                             103   -1.93 0  464   4 
 CRJC HN ES   4   23 3 49.86                             103   -2.58 0  464   4 
 CRJC HZ I        23 3 58.57        13.4 0.16            104            464   4 
                                                                                
