 2014  213 2122 23.5 L   6.807 -73.163147.9  RSN 10 0.5 2.1LRSN                1
 GAP=144        1.27       4.4     5.6  7.9 -0.3988E+01  0.1433E+02  0.2853E+01E
 Epicentro: LOS SANTOS - SANTANDER                                             3
 ACTION:UPD 14-03-10 08:10 OP:ep   STATUS:               ID:20140213212223 L   I
 OLDACT:REG 14-02-13 21:51 OP:nd   STATUS:               ID:20140213211949     3
 2014-02-13-2119-49M.COL___202                                                 6
 STAT SP IPHASW D HRMM SECON CODA AMPLIT PERI AZIMU VELO AIN AR TRES W  DIS CAZ7
 BAR2 SZ EP       2122 43.84                             170    0.4410 23.9 185 
 BAR2 SZ ES       2122 58.92                             170    0.0110 23.9 185 
 BAR2 SZ I        2123  0.16        42.7 0.12            167           23.9 185 
 BRR  HZ EP       2122 45.67                             154    0.9010 69.2 299 
 BRR  HN ES   2   2123  1.42                             154    0.07 5 69.2 299 
 BRR  HZ I        2123 14.30        20.8 0.42            149           69.2 299 
 PAM  SZ EP       2122 45.28                             151   -0.7010 78.0  41 
 PAM  SN ES       2123  3.70                             151    0.2010 78.0  41 
 PAM  SZ I        2123  4.58        12.6 0.20            158           78.0  41 
 PTB  HZ EP       2122 50.65                             133    0.16 9  146 258 
 PTB  HN ES       2123 11.04                             133   -0.50 9  146 258 
 PTB  HZ I        2123 17.73        19.4 0.56            133            146 258 
 ZAR  HZ EP       2122 54.90                             123   -0.98 9  202 292 
 ZAR  HN ES       2123 21.79                             123    0.66 9  202 292 
 ZAR  HZ I        2123 28.79        16.6 0.26            124            202 292 
 NOR  HZ EP       2122 59.72                             119    0.47 8  234 234 
 NOR  HN ES       2123 26.67                             119   -0.45 8  234 234 
 NOR  HZ I        2123 34.37        10.0 0.14            121            234 234 
 SML  HZ EP       2122 59.94                             118   -0.14 8  242 336 
 SML  HN ES       2123 28.07                             118   -0.54 8  242 336 
 SML  HZ I        2123 32.00        11.6 0.10            121            242 336 
 CHI  HZ EP     C 2123  1.32                             118   -0.03 8  249 195 
 CHI  HN ES       2123 30.28                             118   -0.59 8  249 195 
 CHI  HZ I        2123 33.92         3.8 0.34            122            249 195 
 URE  HZ EP   4   2123  4.08                             114   -0.37 0  282 292 
 URE  HN ES   4   2123 34.03                             114   -2.36 0  282 292 
 URE  HZ I        2123 47.96         6.9 0.30            116            282 292 
 GUY2CHZ EP       2123  7.96                             113    0.87 7  300 234 
 GUY2CHN ES   2   2123 41.36                             113    0.27 4  300 234 
 GUY2CHZ I        2123 50.36         7.1 0.56                           300 234 
                                                                                
