 2014  513 2120 20.8 L   6.808 -73.167144.0  RSN 13 0.4 2.1LRSN                1
 GAP=133        0.78       2.4     3.1  5.3 -0.3774E+00  0.6097E+01  0.7723E+00E
 Epicentro: LOS SANTOS - SANTANDER                                             3
 ACTION:UPD 15-03-16 16:57 OP:nd   STATUS:               ID:20140513212020 L   I
 OLDACT:UP  14-05-14 04:04 OP:mh   STATUS:               ID:20140513212000     3
 OLDACT:REG 14-05-14 02:57 OP:mh   STATUS:               ID:20140513212000     3
 2014-05-13-2120-00M.COL___276                                                 6
 STAT SP IPHASW D HRMM SECON CODA AMPLIT PERI AZIMU VELO AIN AR TRES W  DIS CAZ7
 PAM  SZ EP   1   2120 43.05                             150    0.17 7 78.2  41 
 PAM  SN ES       2121  0.20                             150    0.1110 78.2  41 
 PAM  SZ I        2121  2.04        22.1 0.62            131           78.2  41 
 RUS  HZ EP   1   2120 44.28                             143   -0.18 7  102 175 
 RUS  HN ES       2121  3.05                             143    0.1410  102 175 
 RUS  SZ I        2121  5.39        15.4 0.50            121            102 175 
 PTB  HZ EP       2120 47.08                             132   -0.35 9  146 258 
 PTB  HN ES       2121  8.08                             132   -0.12 9  146 258 
 PTB  SZ I        2121 15.28        17.2 0.76            115            146 258 
 SPBC HZ EP       2120 49.29                             129    0.20 9  162 218 
 SPBC HN ES       2121 11.30                             129    0.14 9  162 218 
 SPBC SZ I        2121 16.76        19.2 0.24            110            162 218 
 ZAR  HZ EP       2120 52.99                             122    0.12 9  202 292 
 ZAR  HN ES       2121 18.08                             122    0.20 9  202 292 
 ZAR  SZ I        2121 25.73        11.0 0.32            107            202 292 
 NOR  HZ EP       2120 55.65                             118   -0.63 8  233 234 
 NOR  HN ES   1   2121 23.99                             118    0.04 6  233 234 
 NOR  SZ I        2121 28.45        10.5 0.22            104            233 234 
 SML  HZ EP   1   2120 57.34                             117    0.21 6  242 336 
 SML  HN ES       2121 24.99                             117   -0.48 8  242 336 
 SML  SZ I        2121 28.49        23.1 0.08            104            242 336 
 CHI  HZ EP       2120 58.50                             117    0.07 8  249 195 
 CHI  HN ES       2121 27.27                             117   -0.51 8  249 195 
 CHI  SZ I        2121 33.02         5.8 0.84            102            249 195 
 ROSC BZ EP   4   2121  1.16                             116    2.38 0  252 210 
 ROSC SZ I        2122 13.61         6.6 0.60            102            252 210 
 HEL  HN ES       2121 32.50                             115    0.69 8  270 255 
 CBOC HZ EP       2121  8.23                             110    0.81 7  332 252 
 CBOC HN ES       2121 43.16                             110   -0.62 7  332 252 
 CBOC SZ I        2121 48.45         3.2 1.44             99            332 252 
 PRA  HZ EP       2121 14.10                             106   -0.12 6  392 209 
 PRA  HN ES   1   2121 56.42                             106    0.54 4  392 209 
 PRA  SZ I        2122  0.76         5.8 1.28             97            392 209 
 SJC  HZ EP   4   2121 14.43                             106   -1.63 0  407 327 
 SJC  HN ES   4   2121 54.64                             106   -4.53 0  407 327 
 SJC  SZ I        2122  4.89         7.8 1.24             97            407 327 
                                                                                
