 2017  513 2116 21.0 L   6.794 -73.138148.9  RSN  5 0.4 1.4LRSN                1
 GAP=138        1.12       5.9     5.2  9.8  0.2089E+01  0.8671E+01  0.5966E+01E
 Epicentro: LOS SANTOS - SANTANDER                                             3
 ACTION:UPD 17-06-16 13:36 OP:jn   STATUS:               ID:20170513211621 L   I
 OLDACT:REG 17-05-14 06:18 OP:ar   STATUS:               ID:20170513210729     3
 2017-05-13-2108-00M.COL___352                                                 6
 STAT SP IPHASW D HRMM SECON CODA AMPLIT PERI AZIMU VELO AIN AR TRES W  DIS CAZ7
 BRR  HZ EP       2116 42.81                             153    0.2410 72.2 299 
 BRR  HN ES       2117  0.24                             153    0.8610 72.2 299 
 PAM  EZ EP       2116 43.86                             151    0.2810 77.4  39 
 PAM  EN ES       2117  0.50                             151   -0.6610 77.4  39 
 PAM  EZ I        2117  4.26         2.7 0.40            154           77.4  39 
 RUS  HZ EP       2116 45.18                             145    0.1410 99.8 176 
 RUS  HN ES       2117  3.68                             145   -0.0810 99.8 176 
 RUS  HZ I        2117  4.91         2.1 0.64            148           99.8 176 
 PTB  HZ EP       2116 48.06                             133   -0.25 9  148 259 
 PTB  HN ES       2117  9.19                             133   -0.40 9  148 259 
 PTB  HZ I        2117 14.31         4.5 0.56            133            148 259 
 ZAR  HN ES       2117 19.03                             123   -0.30 9  205 292 
 ZAR  HZ I        2117 24.30         6.0 0.34            124            205 292 
                                                                                
