 2012  913 2313 55.1 L   6.740 -73.140140.3  RSN  4 0.2 1.7LRSN                1
 GAP=140        0.38       5.6     3.8  5.5 -0.6001E+01 -0.3145E+01  0.9427E+01E
 Epicentro: JORDAN - SANTANDER                                                 3
 ACTION:UPD 12-10-22 14:18 OP:ep   STATUS:               ID:20120913231355 L   I
 2012-09-13-2310-00M.COL___227                                                 6
 STAT SP IPHASW D HRMM SECON CODA AMPLIT PERI AZIMU VELO AIN AR TRES W  DIS CAZ7
 BAR2 SZ EP   2   2314 14.37                             172    0.39 5 16.9 196 
 BAR2 SZ ES   3   2314 29.07                             172    0.39 2 16.9 196 
 BAR2 SZ I        2314 30.40        10.2 0.28                          16.9 196 
 BRR  HZ EP       2314 15.93                             150    0.0210 75.1 303 
 BRR  HN ES   1   2314 32.02                             150   -0.11 7 75.1 303 
 BRR  HN I        2314 33.80        14.7 0.22                          75.1 303 
 PAM  SZ EP       2314 17.09                             148    0.0210 82.3  36 
 PAM  SN ES   1   2314 34.09                             148   -0.09 7 82.3  36 
 PAM  SN I        2314 35.34         7.1 0.24                          82.3  36 
 RUS  HZ EP   3   2314 17.08                             144   -0.77 2 93.9 176 
 RUS  HN ES   3   2314 35.59                             144    0.01 2 93.9 176 
                                                                                
