 2016  113 2116 38.1 L   6.295 -73.565117.4  RSN  9 0.4 1.9LRSN                1
 GAP= 88        1.01       3.7     3.3  6.4 -0.4565E+01  0.6847E+01 -0.5032E+01E
 Epicentro: SANTA HELENA DEL OPON - SANTANDER                                  3
 ACTION:UPD 16-03-09 23:25 OP:cam  STATUS:               ID:20160113211638 L   I
 OLDACT:REG 16-01-14 06:06 OP:ak   STATUS:               ID:20160113210750     3
 2016-01-13-2107-50M.COL___337                                                 6
 STAT SP IPHASW D HRMM SECON CODA AMPLIT PERI AZIMU VELO AIN AR TRES W  DIS CAZ7
 BAR2 EZ EP       2116 55.43                             154   -0.0710 53.5  52 
 BAR2 EZ ES       2117  8.70                             154   -0.4010 53.5  52 
 BAR2 EZ I        2117 16.20        48.4 0.40            160           53.5  52 
 RUS  HZ EP       2116 56.92                             148    0.1010 69.5 130 
 RUS  HE ES       2117 11.79                             148    0.3510 69.5 130 
 RUS  HZ I        2117 18.78         8.1 0.24            159           69.5 130 
 SPBC HZ EP       2116 57.49                             140   -0.3010 90.6 218 
 SPBC HE ES       2117 13.14                             140   -0.0210 90.6 218 
 SPBC HZ I        2117 20.22        25.5 0.10            148           90.6 218 
 PTB  HZ EP   4   2116 57.28                             136   -1.35 0  102 285 
 PTB  HN ES       2117 14.40                             136   -0.2710  102 285 
 PTB  HZ I        2117 21.41        17.5 0.16            141            102 285 
 PAM  EZ EP       2117  3.71                             124   -0.02 9  150  40 
 PAM  EN ES       2117 24.18                             124    0.44 9  150  40 
 PAM  EZ I        2117 31.09         5.0 0.15            133            150  40 
 PAM  EZ E        2117 36.33                                            150  40 
 NOR  HZ EP       2117  4.09                             121   -0.67 9  166 241 
 NOR  HN ES       2117 25.51                             121   -0.07 9  166 241 
 NOR  HZ I        2117 33.28        11.1 0.16            130            166 241 
 ZAR  HZ EP   2   2117  8.75                             117    0.92 4  195 313 
 ZAR  HE ES       2117 31.60                             117    0.57 9  195 313 
 ZAR  HZ I        2117 41.08        13.0 0.34            123            195 313 
 GUY2CHZ EP       2117 13.13                             112    0.58 8  232 239 
 GUY2CHE ES       2117 39.94                             112    0.50 8  232 239 
 GUY2CHZ I        2117 54.09         4.1 0.48                           232 239 
 SML  HZ EP       2117 16.93                             107   -0.84 7  283 349 
                                                                                
