 2012  613 2324 55.7 L   6.805 -73.196145.3  RSN  9 0.4 1.9LRSN                1
 GAP=130        0.78       3.4     4.4  7.0 -0.1008E+01  0.1196E+02  0.2195E+01E
 Epicentro: ZAPATOCA - SANTANDER                                               3
 ACTION:UP  12-08-06 17:49 OP:ep   STATUS:               ID:20120613232455 L   I
 2012-06-13-2320-00M.COL___201                                                 6
 STAT SP IPHASW D HRMM SECON CODA AMPLIT PERI AZIMU VELO AIN AR TRES W  DIS CAZ7
 BAR2 SZ EP   1   2325 15.74                             170    0.43 7 23.6 176 
 BAR2 SZ I        2325 16.04        17.3 0.20                          23.6 176 
 BAR2 SZ ES   1   2325 30.89                             170    0.31 7 23.6 176 
 PAM  SZ EP   1   2325 18.61                             150    0.52 7 80.6  43 
 PAM  SN ES   1   2325 35.47                             150   -0.06 7 80.6  43 
 RUS  HZ EP   1   2325 19.61                             143    0.09 7  102 173 
 RUS  HZ I        2325 20.44         6.3 0.21                           102 173 
 RUS  HN ES   1   2325 37.49                             143   -0.58 7  102 173 
 PTB  HZ EP   1   2325 22.61                             133    0.42 7  142 258 
 PTB  HN ES   1   2325 42.89                             133    0.07 7  142 258 
 PTB  HZ I        2325 49.64        10.2 0.23                           142 258 
 OCA  HN ES   1   2325 45.17                             130   -0.70 7  159 355 
 ZAR  HZ EP   1   2325 27.35                             123   -0.25 6  199 293 
 ZAR  HN ES   1   2325 52.45                             123   -0.01 6  199 293 
 ZAR  HZ I        2326  0.61        12.8 0.37                           199 293 
 NOR  SZ ES   1   2325 58.98                             119    0.48 6  231 234 
 CHI  HZ EP   1   2325 33.45                             117    0.13 6  248 194 
 CHI  HZ I        2325 34.70         3.6 0.21                           248 194 
 CHI  HN ES   1   2326  1.96                             117   -0.67 6  248 194 
 HEL  HZ EP   1   2325 34.77                             115   -0.58 6  267 255 
 HEL  HZ I        2326 14.69         6.0 0.46                           267 255 
                                                                                
