 2012  713 2307 46.3 L   6.762 -73.196152.1  RSN  4 0.3 1.8LRSN                1
 GAP=231        0.76      11.3     7.3  8.1  0.3173E+02  0.1188E+02 -0.7376E+01E
 Epicentro: VILLANUEVA - SANTANDER                                             3
 ACTION:UPD 12-08-14 11:44 OP:ep   STATUS:               ID:20120713230746 L   I
 2012-07-13-2300-00M.COL___197                                                 6
 STAT SP IPHASW D HRMM SECON CODA AMPLIT PERI AZIMU VELO AIN AR TRES W  DIS CAZ7
 BAR2 SZ EP   1   23 8  6.44                             173    -0.2 7   19 175 
 BAR2 SZ ES   1   23 8 22.14                             173    -0.3 7   19 175 
 BAR2 SZ I        23 8 24.43         9.2 0.20            177             19 175 
 BRR  HZ EP   1   23 8  8.37                             154     0.3 7   69 304 
 BRR  HN ES   1   23 8 25.39                             154     0.4 7   69 304 
 BRR  HZ I        23 8 28.05        14.2 0.23            155             69 304 
 PTB  HZ EP   1   23 8 13.49                             135     0.2 7  141 260 
 PTB  HN ES   1   23 8 34.44                             135     0.2 7  141 260 
 ZAR  HZ EP   1   23 8 18.71                             124    -0.1 6  201 294 
 ZAR  HE ES   1   23 8 43.54                             124    -0.7 6  201 294 
