 2017  713 2151  0.9 L   6.827 -73.153145.1  RSN 27 0.5 2.8LRSN                1
 GAP= 65        0.98       2.3     2.3  4.3 -0.3643E+00  0.3167E+01 -0.2019E+00E
 Epicentro: LOS SANTOS - SANTANDER                                             3
 ACTION:UPD 17-08-30 15:32 OP:rebc STATUS:               ID:20170713215100 L   I
 OLDACT:REG 17-07-14 02:07 OP:dhb  STATUS:               ID:20170713214741     3
 2017-07-13-2148-00M.COL___380                                                 6
 STAT SP IPHASW D HRMM SECON CODA AMPLIT PERI AZIMU VELO AIN AR TRES W  DIS CAZ7
 BAR2 EZ IP     D 2151 20.54                             170    0.0010 26.1 187 
 BAR2 EZ ES       2151 35.35                             170   -0.4810 26.1 187 
 BAR2 EZ I        2151 36.87       150.6 0.22            169           26.1 187 
 BRR  HZ EP       2151 22.46                             153    0.5710 69.1 297 
 BRR  HN ES       2151 38.92                             153    0.6910 69.1 297 
 BRR  HZ I        2151 42.98        78.7 0.28            149           69.1 297 
 PAM  EZ EP       2151 23.55                             151    0.5810 75.7  41 
 PAM  EN ES       2151 40.62                             151    0.4610 75.7  41 
 PAM  EZ I        2151 42.81       241.3 0.52            151           75.7  41 
 RUS  HZ EP       2151 24.62                             143   -0.2110  104 176 
 RUS  HN ES       2151 43.25                             143   -0.2210  104 176 
 RUS  HZ I        2151 44.38       170.0 0.24            142            104 176 
 PTB  HZ EP       2151 27.36                             132   -0.46 9  148 258 
 PTB  HE ES       2151 48.54                             132   -0.26 9  148 258 
 PTB  HZ I        2151 53.07        37.4 0.14            129            148 258 
 TAM  HZ IP     D 2151 29.02                             130    0.32 9  157 106 
 TAM  HN ES       2151 49.94                             130   -0.42 9  157 106 
 TAM  HZ I        2151 51.21        24.6 0.20            130            157 106 
 SPBC HZ EP       2151 29.51                             129   -0.04 9  165 218 
 SPBC HN ES       2151 51.60                             129   -0.27 9  165 218 
 SPBC HZ I        2151 54.18       145.6 0.36            127            165 218 
 YPLC HZ IP     D 2151 31.03                             126    0.06 9  180 152 
 YPLC HE ES       2151 53.78                             126   -0.61 9  180 152 
 YPLC HZ I        2151 55.95       112.9 0.28            126            180 152 
 ZAR  HZ EP       2151 33.20                             122    0.06 9  202 291 
 ZAR  HN ES       2151 57.96                             122   -0.30 9  202 291 
 ZAR  HZ I        2152  4.70        60.7 0.30            120            202 291 
 TABC EZ EP   2   2151 38.04                             119    1.17 4  232 210 
 TABC EZ ES       2152  4.84                             119   -0.05 8  232 210 
 TABC EZ I        2152 11.24        47.6 0.32            117            232 210 
 NOR  HZ EP       2151 36.64                             118   -0.09 8  236 234 
 NOR  HN ES       2152  5.04                             118    0.38 8  236 234 
 NOR  HZ I        2152  7.13        40.8 0.20            116            236 234 
 ROSC BZ EP   2   2151 40.33                             116    1.09 4  255 211 
 ROSC BN ES       2152  8.75                             116   -0.38 8  255 211 
 ROSC BZ I        2152 14.54        70.6 0.45            115            255 211 
 HEL  HZ EP       2151 42.23                             115    1.13 8  272 255 
 HEL  HN ES       2152 12.64                             115    0.20 8  272 255 
 HEL  HZ I        2152 19.59        30.2 0.34            113            272 255 
 URE  HZ EP   4   2151 41.22                             113   -0.54 0  282 291 
 URE  HE ES   4   2152 12.12                             113   -1.49 0  282 291 
 URE  HZ I        2152 23.37        44.0 0.20            112            282 291 
 GUY2CHZ EP       2151 44.94                             112    0.31 7  302 234 
 GUY2CHE ES       2152 19.36                             112    0.65 7  302 234 
 GUY2CHZ I        2152 26.73        36.0 0.28                           302 234 
 PTGC HZ EP   9   2151 43.76                             111   -1.34 0  312 159 
 PTGC HN ES       2152 17.45                                   -0.76 7  312 159 
 PTGC HZ I        2152 22.03        60.5 0.30            110            312 159 
 LL6C HZ EP       2151 45.80                             110   -0.46 7  322 358 
 LL6C HZ ES       2152 20.63                             110   -0.99 7  322 358 
 LL6C HZ I        2152 27.61        22.3 0.40            109            322 358 
 CBOC HZ EP   3   2151 48.82                             110    0.99 2  334 252 
 CBOC HE ES       2152 24.17                             110   -0.25 7  334 252 
 CBOC HZ I        2152 28.73        10.2 0.16            108            334 252 
 DBB  EZ EP       2151 48.13                             109   -0.13 7  338 274 
 DBB  EN ES   3   2152 23.87                             109   -1.31 2  338 274 
 DBB  EZ I        2152 25.49        14.8 0.16            108            338 274 
 ARGC HN ES       2152 28.59                             108   -0.05 6  356 340 
 ARGC HZ I        2152 37.50        18.6 0.38            107            356 340 
 ORTC HZ EP       2151 54.90                             106   -0.15 6  397 216 
 ORTC HN ES       2152 37.48                             106    0.22 6  397 216 
 ORTC HZ I        2152 42.07        18.1 0.20            105            397 216 
 APAC HZ EP       2151 54.37                             106   -0.53 6  397 288 
 APAC HN ES       2152 36.73                             106   -0.26 6  397 288 
 APAC HZ I        2152 41.41        14.6 0.38            105            397 288 
 SJC  HZ IP   3 C 2151 54.82                             106   -1.31 1  406 327 
 SJC  HE ES   4   2152 36.29                             106   -2.89 0  406 327 
 SJC  HZ I        2152 40.65        10.3 0.27            105            406 327 
 VALLCHZ EP   9   2151 54.07                             106   -2.13 0  407 358 
 VALLCHN ES   4   2152 36.40                                   -0.78 0  407 358 
 PAL  HZ EP       2151 56.26                             106    0.10 6  407 239 
 PAL  HE ES       2152 38.61                             106   -0.64 6  407 239 
 PAL  HZ I        2152 42.18        13.3 0.22            105            407 239 
 CRJC HZ EP   9   2152  0.93                             103   -2.14 0  465   4 
 CRJC HN ES       2152 49.88                                    0.48 5  465   4 
 CRJC HZ I        2152 51.77        19.0 0.18            102            465   4 
 SMAR HZ EP   4   2152  6.09                             102   -0.33 0  494 346 
 SMAR HN ES   4   2152 53.68                             102   -3.82 0  494 346 
 URI  HZ EP   4   2152 13.56                             101   -0.03 0  554  13 
 URI  HN ES   4   2153  4.16                             101   -6.11 0  554  13 
 URI  HZ I        2153  6.04        15.3 0.38            100            554  13 
 BBAC HZ EP       2152 31.91                              98    0.57 1  699 221 
 BBAC HN ES       2153 38.35                              98   -3.50 1  699 221 
 BBAC HZ I        2153 45.19         1.1 0.34             97            699 221 
                                                                                
