 2012  113 2224 39.7 L   6.770 -73.181141.2  RSN  4 0.3 1.0LRSN                1
 GAP=133        0.45       5.1     5.5 11.1 -0.5449E+01 -0.1455E+02 -0.1648E+02E
 Epicentro: LOS SANTOS - SANTANDER                                             3
 ACTION:UP  12-02-03 08:17 OP:REBC STATUS:               ID:20120113222439 L   I
 2012-01-13-2220-00M.COL___187                                                 6
 STAT SP IPHASW D HRMM SECON CODA AMPLIT PERI AZIMU VELO SNR AR TRES W  DIS CAZ7
 GIR2 SZ ES   3   2225 14.48                             166     0.6 2   34 358 
 PAM  SZ EP       2225  1.68                             148    -0.110   82  40 
 RUS  HZ EP   1   2225  2.88                             143     0.1 7   98 174 
 RUS  HZ I        2225  3.48         1.6 0.52                            98 174 
 RUS  HN ES   2   2225 20.80                             143     0.0 5   98 174 
 PTB  HZ EP   3   2225  6.86                             132     1.0 2  143 260 
 PTB  HN ES   2   2225 26.05                             132    -0.3 5  143 260 
                                                                                
