 2013  413 2102 33.3 L   6.787 -73.148141.7  RSN  6 0.3 1.7LRSN                1
 GAP=137        0.60       3.7     3.5  5.1 -0.3174E+01  0.2724E+01  0.2164E+01E
 Epicentro: LOS SANTOS - SANTANDER                                             3
 ACTION:UPD 13-05-22 14:38 OP:EP   STATUS:               ID:20130413210233 L   I
 2013-04-13-2100-00M.COL___244                                                 6
 STAT SP IPHASW D HRMM SECON CODA AMPLIT PERI AZIMU VELO AIN AR TRES W  DIS CAZ7
 BAR2 SZ EP       21 2 52.34                             171   -0.1010 21.9 190 
 BAR2 SZ ES   1   21 3  7.34                             171    0.00 7 21.9 190 
 BAR2 SZ I        21 3 10.95         9.6 0.28            171           21.9 190 
 BRR  HZ IP     C 21 2 54.22                             152    0.1610 71.6 300 
 BRR  HN ES   1   21 3 10.34                             152    0.11 7 71.6 300 
 BRR  HZ I        21 3 14.13        13.3 0.30            153           71.6 300 
 PAM  SZ EP       21 2 55.32                             150    0.1310 78.6  39 
 PAM  SE ES   1   21 3 12.24                             150    0.00 7 78.6  39 
 PAM  SZ I        21 3 13.70         6.8 0.40            154           78.6  39 
 RUS  HZ EP       21 2 56.46                             143   -0.1210 99.2 176 
 RUS  HN ES   1   21 3 14.72                             143    0.01 7 99.2 176 
 RUS  HZ I        21 3 16.45         4.3 0.24            147           99.2 176 
 PTB  HZ EP   1   21 2 59.27                             131   -0.64 7  147 259 
 PTB  HN ES   1   21 3 20.27                             131   -0.38 7  147 259 
 PTB  HZ I        21 3 23.02         9.6 0.12            134            147 259 
 NOR  HZ EP   1   21 3  9.04                             118    0.33 6  234 235 
 NOR  HN ES   1   21 3 36.95                             118    0.64 6  234 235 
 NOR  HZ I        21 3 38.54         5.5 0.18            121            234 235 
                                                                                
