 2016  313 2354 19.7 L   6.108 -73.775101.4  RSN 10 0.4 1.6LRSN                1
 GAP= 99        0.99       3.0     2.6  5.8 -0.2706E+01  0.3342E+01  0.3252E+00E
 Epicentro: EL PENON - SANTANDER                                               3
 ACTION:UPD 16-05-13 21:24 OP:cam  STATUS:               ID:20160313235419 L   I
 OLDACT:REG 16-03-14 02:45 OP:ak   STATUS:               ID:20160313234749     3
 2016-03-13-2347-49M.COL___295                                                 6
 STAT SP IPHASW D HRMM SECON CODA AMPLIT PERI AZIMU VELO AIN AR TRES W  DIS CAZ7
 SPBC HZ IP     C 2354 35.68                             147    0.0210 60.2 213 
 SPBC HN ES       2354 48.23                             147    0.1510 60.2 213 
 SPBC HZ I        2354 49.61        25.4 0.34            147           60.2 213 
 RUS  HZ EP       2354 37.49                             139   -0.2110 80.2 107 
 RUS  HE ES       2354 51.61                             139   -0.1010 80.2 107 
 RUS  HZ I        2354 54.87         3.2 0.30            139           80.2 107 
 BAR2 EZ IP       2354 37.82                             137    0.1110 84.6  51 
 BAR2 EZ EP       2354 38.01                             137           84.6  51 
 BAR2 EZ ES       2354 52.35                             137    0.6210 84.6  51 
 PTB  HZ EP       2354 36.99                             135   -0.8010 89.2 302 
 PTB  HN ES       2354 51.28                             135   -0.6010 89.2 302 
 PTB  HZ I        2354 54.41         7.5 0.28            136           89.2 302 
 NOR  HZ EP       2354 42.25                             122   -0.01 9  135 244 
 NOR  HN ES       2354 59.95                             122    0.12 9  135 244 
 NOR  HZ I        2355  1.88        16.8 0.18            123            135 244 
 CHI  HZ EP   2   2354 45.04                             117   -0.69 5  164 178 
 CHI  HN ES       2355  5.96                             117   -0.05 9  164 178 
 CHI  HZ I        2355 10.79         2.8 0.38            117            164 178 
 PAM  EZ EP       2354 47.98                             114    0.26 9  181  41 
 PAM  EN ES       2355  9.42                             114   -0.13 9  181  41 
 PAM  EZ I        2355 13.87         6.2 0.32            115            181  41 
 HEL  HZ EP       2354 49.93                             112    0.83 9  194 273 
 HEL  HN ES       2355 12.52                             112    0.52 9  194 273 
 HEL  HZ I        2355 16.58         3.8 0.24            113            194 273 
 GUY2CHZ EP       2354 50.05                             111    0.02 9  201 241 
 GUY2CHE ES       2355 13.48                             111   -0.19 9  201 241 
 GUY2CHZ I        2355 18.65         5.6 0.34                           201 241 
 ORTC HZ EP       2354 59.71                             102   -0.47 7  293 214 
 ORTC HE ES       2355 32.04                             102    0.32 7  293 214 
 ORTC HZ I        2355 36.97         1.8 0.16            103            293 214 
                                                                                
