 2010  513 2105  0.6 L   6.760 -73.090147.8  RSN 14 0.5 3.0LRSN                1
 GAP=131        1.08       3.8     6.6  6.6 -0.1127E+02  0.4352E+01  0.2658E+01E
 Epicentro: LOS SANTOS - SANTANDER                                             3
 ACTION:UP  10-08-24 10:04 OP:vdl  STATUS:               ID:20100513210500 L   I
 2010-05-13-2103-28S.COL___104                                                 6
 STAT SP IPHASW D HRMM SECON CODA AMPLIT PERI AZIMU VELO AIN AR TRES W  DIS CAZ7
 BAR2 SZ EP       21 5 20.33                             171    -0.110   21 209 
 BAR2 SZ ES   1   21 5 34.89                             171    -1.0 7   21 209 
 BRR  HZ IP     C 21 5 22.91                             151     0.610   79 299 
 BRR  HN ES   1   21 5 39.72                             151     0.4 7   79 299 
 BRR  HZ I        21 5 42.06       114.7 0.09                            79 299 
 RUS  HZ IP     D 21 5 24.23                             146     0.110   96 180 
 RUS  HN ES   1   21 5 42.66                             146     0.1 7   96 180 
 RUS  HZ I        21 5 44.25        80.8 0.29                            96 180 
 BRI  SZ EP       21 5 24.88                             141     0.110  111  17 
 BRI  SZ ES   1   21 5 44.11                             141     0.4 7  111  17 
 GUE  SZ EP       21 5 25.27                             139    -0.410  120   9 
 GRA  SZ IP       21 5 27.13                             137     0.910  128  14 
 GRA  SZ ES   1   21 5 45.83                             137    -0.4 7  128  14 
 OCA  SZ EP   1   21 5 28.95                             129    -0.6 7  165 351 
 OCA  SZ ES   1   21 5 51.85                             129    -0.2 7  165 351 
 OCA  SZ I        21 5 57.79        85.0 0.37                           165 351 
 CHI  HZ EP   1   21 5 38.26                             118     0.2 6  246 197 
 CHI  HE ES   1   21 6  7.33                             118     0.0 6  246 197 
 CHI  HZ I        21 6 11.53        56.4 0.81                           246 197 
 ROSC BZ EP   1   21 5 38.94                             117     0.2 6  252 213 
 ROSC BE ES   2   21 6  8.91                             117     0.4 4  252 213 
 ROSC BZ I        21 6 14.87       106.9 0.57                           252 213 
 HEL  HZ EP       21 5 41.56                             115     0.1 7  277 257 
 HEL  HN ES   2   21 6 12.50                             115    -0.8 4  277 257 
 HEL  HZ I        21 6 18.53        56.9 0.31                           277 257 
 RREF BZ EP   1   21 5 47.12                             111     0.1 5  324 231 
 RREF BE ES   2   21 6 22.74                             111    -0.5 3  324 231 
 RREF BZ I        21 6 29.12        64.9 0.21                           324 231 
 DBB  SZ EP   1   21 5 47.98                             110    -0.9 5  346 275 
 SDV  BZ EP       21 5 49.75                             109    -0.7 6  359  49 
 SDV  BZ I        21 5 50.79        24.8 0.30                           359  49 
 PRA  HZ EP       21 5 53.92                             107    -0.1 6  391 211 
 PRA  HE ES   2   21 6 35.36                             107    -0.4 3  391 211 
 PRA  HZ I        21 6 42.24        74.5 0.57                           391 211 
                                                                                
