 2014 1013 2349 23.6 L   6.633 -73.133153.3  RSN  4 0.6 1.2LRSN                1
 GAP=227        1.42      16.2    11.1 12.9  0.6292E+02  0.1473E+02  0.7054E+02E
 Epicentro: VILLANUEVA - SANTANDER                                             3
 ACTION:UPD 14-11-29 23:49 OP:nd   STATUS:               ID:20141013234923 L   I
 OLDACT:REG 14-10-14 06:11 OP:stll STATUS:               ID:20141013234745     3
 2014-10-13-2347-45M.COL___285                                                 6
 STAT SP IPHASW D HRMM SECON CODA AMPLIT PERI AZIMU VELO AIN AR TRES W  DIS CAZ7
 BAR2 SZ EP       2349 44.66                             177    0.7810 7.05 230 
 BAR2 SZ ES       2350  0.13                             177    0.3910 7.05 230 
 BAR2 SZ I        2350  1.02         7.2 0.20            168           7.05 230 
 RUS  HZ EP       2349 45.95                             151   -0.9010 82.0 176 
 RUS  HZ I        2349 47.60         1.6 0.22            146           82.0 176 
 BRR  HZ EP       2349 46.22                             150    0.0410 82.7 309 
 BRR  HN ES       2350  3.15                             150   -0.6810 82.7 309 
 PTB  HZ EP       2349 51.31                             134    0.26 9  147 266 
 PTB  HN ES       2350 12.67                             134    0.17 9  147 266 
 PTB  HZ I        2350 18.38         1.5 0.56            131            147 266 
                                                                                
