 2011 1013 2202 25.1 L   6.824 -73.136158.0  RSN  6 0.4 1.8LRSN                1
 GAP=151        0.83       5.9     5.6  8.6 -0.1988E+01  0.1649E+02  0.7048E+01E
 Epicentro: LOS SANTOS - SANTANDER                                             3
 ACTION:UPD 12-07-13 16:03 OP:ep   STATUS:               ID:20111013220225 L   I
 2011-10-13-2201-01S.COL___168                                                 6
 STAT SP IPHASW D HRMM SECON CODA AMPLIT PERI AZIMU VELO AIN AR TRES W  DIS CAZ7
 BAR2 SZ EP   1   22 2 45.88                             170   -0.34 7 26.1 191 
 BAR2 SZ ES   1   22 3  2.40                             170   -0.32 7 26.1 191 
 BAR2 SZ I        22 3  4.14        15.3 0.24                          26.1 191 
 BRR  HZ EP   1   22 2 48.07                             155    0.54 7 71.0 296 
 BRR  HN ES   1   22 3  5.63                             155    0.57 7 71.0 296 
 BRR  HZ I        22 3  7.80        16.4 0.12                          71.0 296 
 PAM  SZ EP   1   22 2 48.95                             154    0.51 7 74.7  40 
 PAM  SN ES   1   22 3  6.34                             154   -0.34 7 74.7  40 
 PAM  SZ I        22 3  6.94         4.4 0.33                          74.7  40 
 ZAR  HZ EP   1   22 2 57.68                             125   -0.66 6  204 291 
 ZAR  HN ES   1   22 3 23.88                             125   -0.41 6  204 291 
 ZAR  HZ I        22 3 30.49         8.8 0.37                           204 291 
 CHI  HN ES   1   22 3 34.04                             119    0.08 6  251 195 
 HEL  HN ES   1   22 3 38.30                             117    0.17 6  274 255 
                                                                                
