 2013  313 2228 51.9 L   6.748 -73.146141.0  RSN  6 0.4 2.4LRSN                1
 GAP=139        1.09       7.0     5.5  7.7 -0.2102E+02 -0.4951E+01  0.8775E+01E
 Epicentro: LOS SANTOS - SANTANDER                                             3
 ACTION:UPD 13-04-09 14:02 OP:ep   STATUS:               ID:20130313222851 L   I
 2013-03-13-2218-48M.COL___210                                                 6
 STAT SP IPHASW D HRMM SECON CODA AMPLIT PERI AZIMU VELO AIN AR TRES W  DIS CAZ7
 BAR2 SZ EP       2229 11.06                             172    0.1610 17.7 193 
 BAR2 SZ ES       2229 25.53                             172   -0.1510 17.7 193 
 BAR2 SZ I        2229 27.14        48.7 0.14            172           17.7 193 
 BRR  HZ EP       2229 13.20                             151    0.4510 74.1 302 
 BRR  HN ES       2229 29.74                             151    0.7610 74.1 302 
 BRR  HN I        2229 30.20        59.6 0.20            152           74.1 302 
 PAM  SZ IP     D 2229 14.04                             148    0.1010 81.9  37 
 PAM  SZ I        2229 14.32        36.8 0.26            150           81.9  37 
 PAM  SN ES       2229 30.61                             148   -0.4810 81.9  37 
 RUS  HZ EP       2229 15.15                             144    0.3410 94.9 176 
 PTB  HZ EP       2229 18.02                             131   -0.41 9  147 261 
 PTB  HN ES       2229 38.39                             131   -0.70 9  147 261 
 CAPV BZ EP       2229 19.17                             130   -0.21 9  154  37 
 CAPV BZ ES       2229 40.74                             130   -0.04 9  154  37 
                                                                                
