 2014  913 2104 19.3 L   6.756 -73.139144.0  RSN  6 0.4 1.7LRSN                1
 GAP=139        1.01       5.1     4.6  8.1  0.1592E+01  0.7689E+01  0.1814E+01E
 Epicentro: LOS SANTOS - SANTANDER                                             3
 ACTION:UPD 14-10-03 23:04 OP:nd   STATUS:               ID:20140913210419 L   I
 OLDACT:REG 14-09-14 03:58 OP:fm   STATUS:               ID:20140913205819     3
 2014-09-13-2058-19M.COL___296                                                 6
 STAT SP IPHASW D HRMM SECON CODA AMPLIT PERI AZIMU VELO AIN AR TRES W  DIS CAZ7
 BAR2 SZ ES   1   21 4 53.89                             172    0.23 7 18.7 195 
 BAR2 SZ I        21 4 54.50        18.1 0.14            173           18.7 195 
 BRR  HZ EP   1   21 4 40.46                             151    0.07 7 74.3 302 
 BRR  HN ES       21 4 57.32                             151    0.4510 74.3 302 
 BRR  HZ I        21 5  4.55        20.0 0.34            151           74.3 302 
 PAM  SZ EP       21 4 41.74                             149    0.2510 80.8  37 
 PAM  SN ES       21 4 58.24                             149   -0.5910 80.8  37 
 PAM  SZ I        21 5  0.83         9.5 0.58            153           80.8  37 
 RUS  HZ EP       21 4 42.80                             145    0.3210 95.7 176 
 RUS  HN ES       21 5  0.63                             145    0.0410 95.7 176 
 RUS  HZ I        21 5  2.80         5.3 0.34            149           95.7 176 
 PTB  HZ EP       21 4 45.56                             132   -0.50 9  148 261 
 PTB  HN ES       21 5  6.38                             132   -0.59 9  148 261 
 PTB  HZ I        21 5  9.73         5.4 0.22            134            148 261 
 ZAR  HN ES       21 5 17.69                             122    0.42 8  207 293 
 ZAR  HZ I        21 5 20.25         4.1 0.12            124            207 293 
                                                                                
