 2016 1113 2153  9.1 L   6.783 -73.159145.1  RSN 16 0.5 2.9LRSN                1
 GAP= 99        1.00       4.2     3.0  5.7  0.4519E+00  0.3163E+01  0.1107E+02E
 Epicentro: LOS SANTOS - SANTANDER                                             3
 ACTION:UPD 17-10-26 21:07 OP:lp   STATUS:               ID:20161113215309 L   I
 OLDACT:UP  16-11-14 05:42 OP:cog  STATUS:               ID:20161113214445     3
 OLDACT:UP  16-11-14 05:41 OP:cog  STATUS:               ID:20161113214445     3
 OLDACT:REG 16-11-14 03:14 OP:cog  STATUS:               ID:20161113214445     3
 2016-11-13-2148-00M.COL___343                                                 6
 STAT SP IPHASW D HRMM SECON CODA AMPLIT PERI AZIMU VELO AIN AR TRES W  DIS CAZ7
 BAR2 HZ EP     D 2153 28.68                             171    0.0910 21.3 187 
 BAR2 HE ES       2153 43.88                             171    0.0810 21.3 187 
 BAR2 HZ I        2153 45.35       259.8 0.16            166           21.3 187 
 BRR  HZ EP     C 2153 30.49                             152    0.3610 70.8 300 
 BRR  HN ES       2153 47.07                             152    0.5210 70.8 300 
 BRR  HZ I        2153 48.22       187.4 0.12            152           70.8 300 
 PAM  EZ EP       2153 31.48                             150    0.1110 79.8  40 
 PAM  EN ES       2153 48.51                             150   -0.2410 79.8  40 
 PAM  EZ I        2153 50.88       233.6 0.50            158           79.8  40 
 PTB  HZ EP       2153 35.47                             132   -0.36 9  146 259 
 PTB  HN ES       2153 55.72                             132   -0.97 9  146 259 
 PTB  HZ I        2154  3.97        47.3 0.13            132            146 259 
 TAM  HZ EP     D 2153 37.06                             130    0.26 9  156 104 
 TAM  HE ES       2153 58.30                             130   -0.11 9  156 104 
 ZAR  HZ EP       2153 41.38                             122   -0.03 9  203 293 
 ZAR  HE ES       2154  6.44                             122   -0.19 9  203 293 
 ZAR  HZ I        2154 12.77        66.4 0.43            124            203 293 
 NOR  HZ EP       2153 44.86                             119    0.34 8  232 235 
 NOR  HE ES   3   2154 13.15                             119    0.98 2  232 235 
 NOR  HZ I        2154 20.57        42.0 0.12            119            232 235 
 CHI  HZ EP       2153 46.85                             117    0.34 8  246 195 
 CHI  HE ES       2154 15.53                             117   -0.16 8  246 195 
 CHI  HZ I        2154 19.71        39.8 0.44            118            246 195 
 ROSC BZ EP   4   2153 48.80                             117    1.89 0  250 211 
 ROSC BE ES   4   2154 14.25                             117   -2.16 0  250 211 
 ROSC BZ I        2154 20.81        91.2 0.35            117            250 211 
 PTGC HZ EP       2153 51.76                             111   -1.01 7  308 158 
 PTGC HN ES   3   2154 25.17                             111   -1.68 2  308 158 
 PTGC HZ I        2154 30.25        44.7 0.48            113            308 158 
 ELA  HZ EP   4   2153 57.79                             110    2.15 0  327 230 
 ELA  HE ES   4   2154 33.65                             110    1.70 0  327 230 
 ELA  HZ I        2154 41.71        26.9 0.44            111            327 230 
 CBOC HZ EP   4   2153 58.20                             110    2.46 0  332 252 
 CBOC HN ES       2154 32.17                             110    0.04 7  332 252 
 ANIL HZ EP   4   2154  0.63                             108    2.04 0  355 225 
 ANIL HN ES   4   2154 39.27                             108    2.07 0  355 225 
 ANIL HZ I        2154 43.31        97.9 0.36            109            355 225 
 ARGC HZ EP   4   2154  0.85                             108    1.99 0  360 341 
 ARGC HE ES   4   2154 38.91                             108    1.23 0  360 341 
 ORTC HZ EP       2154  2.25                             106   -0.45 6  393 216 
 ORTC HE ES       2154 45.82                             106    1.30 6  393 216 
 ORTC HZ I        2154 52.04        22.9 0.46            107            393 216 
 PAL  HZ EP       2154  4.41                             106    0.45 6  403 239 
 PAL  HN ES   4   2154 44.41                             106   -2.35 0  403 239 
 PAL  HZ I        2154 50.31         7.8 0.13            107            403 239 
 SJC  HZ EP   4   2154  2.98                             105   -1.73 0  410 327 
 SJC  HN ES   4   2154 44.36                             105   -3.74 0  410 327 
 CRJC HZ EP   4   2154  9.00                             103   -2.79 0  470   4 
 CRJC HE ES   4   2154 56.51                             103   -4.20 0  470   4 
 MARO HZ EP   3   2154 20.53                             101    0.73 1  535 216 
                                                                                
