 2017  913 2049 16.5 L   6.818 -73.126142.1  RSN 22 0.6 2.4LRSN                1
 GAP= 67        1.05       2.9     2.6  4.8 -0.2386E+00  0.4219E+01  0.1977E+01E
 Epicentro: LOS SANTOS - SANTANDER                                             3
 ACTION:UPD 17-10-05 19:12 OP:rebc STATUS:               ID:20170913204916 L   I
 OLDACT:UP  17-09-14 03:07 OP:dhb  STATUS:               ID:20170913204744     3
 OLDACT:UP  17-09-14 03:01 OP:dhb  STATUS:               ID:20170913204744     3
 OLDACT:REG 17-09-14 02:22 OP:dhb  STATUS:               ID:20170913204744     3
 2017-09-13-2048-00M.COL___467                                                 6
 STAT SP IPHASW D HRMM SECON CODA AMPLIT PERI AZIMU VELO AIN AR TRES W  DIS CAZ7
 BAR2 EZ IP     C 2049 35.62                             170   -0.0810 25.8 194 
 BAR2 EZ ES       2049 50.28                             170   -0.4210 25.8 194 
 BAR2 EZ I        2049 51.77        74.9 0.16            168           25.8 194 
 BRR  HZ IP     C 2049 37.52                             151    0.2510 72.2 296 
 BRR  HN ES       2049 53.87                             151    0.3810 72.2 296 
 BRR  HZ I        2049 58.84        56.2 0.14            150           72.2 296 
 PAM  HZ IP     C 2049 38.49                             150    0.3810 74.4  39 
 PAM  EE ES       2049 55.36                             150    0.3710 74.4  39 
 PAM  HZ I        2049 57.76        31.8 0.26            153           74.4  39 
 RUS  HZ EP       2049 39.64                             143   -0.3510  102 177 
 RUS  HN ES       2049 57.84                             143   -0.5010  102 177 
 RUS  HZ I        2049 58.85        45.0 0.20            143            102 177 
 TAM  HZ IP     D 2049 43.98                             130    0.28 9  154 106 
 TAM  HE ES       2050  5.21                             130    0.26 9  154 106 
 TAM  HZ I        2050  5.96        20.1 0.40            132            154 106 
 SPBC HZ EP       2049 44.65                             128   -0.31 9  166 219 
 SPBC HE ES       2050  7.00                             128   -0.19 9  166 219 
 SPBC HZ I        2050 12.83        25.6 0.28            127            166 219 
 YPLC HZ IP     D 2049 46.05                             125   -0.01 9  178 152 
 YPLC HE ES       2050  8.92                             125   -0.23 9  178 152 
 YPLC HZ I        2050 12.35        30.6 0.28            127            178 152 
 ZAR  HZ IP       2049 48.65                             121   -0.15 8  205 291 
 ZAR  HN ES       2050 14.24                             121    0.22 8  205 291 
 ZAR  HZ I        2050 20.20        36.8 0.23            121            205 291 
 NOR  HZ EP       2049 52.38                             117    0.09 8  238 234 
 NOR  HE ES       2050 19.57                             117   -0.67 8  238 234 
 NOR  HZ I        2050 24.21         9.2 0.07            117            238 234 
 CHI  HZ EP       2049 53.94                             116   -0.29 8  251 196 
 CHI  HN ES   2   2050 22.89                             116   -0.80 4  251 196 
 CHI  HZ I        2050 26.25         6.7 0.31            116            251 196 
 ROSC BZ EP   2   2049 53.71                             115   -0.98 4  256 211 
 ROSC BN ES       2050 24.97                             115    0.46 8  256 211 
 ROSC BZ I        2050 32.35        18.1 0.22            116            256 211 
 HEL  HZ EP       2049 57.77                             114    0.99 8  275 256 
 HEL  HN ES       2050 27.39                             114   -0.83 8  275 256 
 HEL  HZ I        2050 36.36         9.6 0.27            113            275 256 
 URE  HZ EP       2049 58.06                             112    0.57 7  285 291 
 URE  HN ES   2   2050 28.14                             112   -1.36 4  285 291 
 URE  HZ I        2050 37.41        15.7 0.33            112            285 291 
 GUY2CHZ EP   2   2050  1.40                             111    1.17 4  304 235 
 GUY2CHN ES       2050 34.72                             111    0.35 7  304 235 
 GUY2CHZ I        2050 40.94         7.9 0.26                           304 235 
 PTGC HZ IP   9 C 2049 58.90                             111   -1.38 0  310 159 
 PTGC HN ES       2050 32.26                                   -0.82 7  310 159 
 PTGC HZ I        2050 40.99        36.2 0.14            111            310 159 
 ELA  HZ EP   2   2050  5.11                             109    1.61 3  332 229 
 ELA  HN ES       2050 40.59                             109    0.40 7  332 229 
 ELA  HZ I        2050 44.80         5.9 0.45            109            332 229 
 CBOC HZ EP   4   2050  0.75                             109   -2.78 0  336 252 
 CBOC HN ES       2050 39.96                             109   -0.29 7  336 252 
 CBOC HZ I        2050 44.70         3.2 0.30            109            336 252 
 ANIL HZ EP       2050  6.42                             107   -0.05 6  360 225 
 ANIL HE ES       2050 46.48                             107    1.01 6  360 225 
 ANIL HZ I        2050 49.65        20.2 0.40            108            360 225 
 PRA  HZ EP       2050 10.12                             106   -0.07 6  395 210 
 PRA  HE ES       2050 52.12                             106    0.03 6  395 210 
 PRA  HZ I        2050 57.41         9.4 0.51            106            395 210 
 ORTC HZ EP   9   2050 12.12                             105    1.52 0  398 216 
 ORTC HE ES       2050 54.29                             106   -0.06 6  398 216 
 ORTC HZ I        2051  0.39         5.9 0.49            106            398 216 
 SJC  HZ EP       2050 10.53                             105   -1.31 6  409 327 
 SJC  HE ES   4   2050 51.72                             105   -3.32 0  409 327 
 SJC  HZ I        2050 55.42        10.3 0.38            105            409 327 
 CRJC HZ IP   2 C 2050 16.52                             103   -2.08 2  465   3 
 CRJC HE ES   4   2051  3.14                             103   -3.93 0  465   3 
 CRJC HZ I        2051 19.88         7.9 0.55            103            465   3 
                                                                                
