 2012  613 2243 45.1 L   6.823 -73.165138.7  RSN  5 0.4 1.6LRSN                1
 GAP=133        0.71       4.8     4.3  7.4 -0.2025E+00  0.1253E+02 -0.5461E+01E
 Epicentro: LOS SANTOS - SANTANDER                                             3
 ACTION:UPD 12-08-06 17:49 OP:ep   STATUS:               ID:20120613224345 L   I
 2012-06-13-2240-00M.COL___201                                                 6
 STAT SP IPHASW D HRMM SECON CODA AMPLIT PERI AZIMU VELO AIN AR TRES W  DIS CAZ7
 BAR2 SZ EP   1   2244  4.49                             169    0.57 7 25.6 184 
 BAR2 SZ ES   1   2244 18.75                             169    0.14 7 25.6 184 
 BAR2 SZ I        2244 21.03         7.7 0.17                          25.6 184 
 PAM  SZ EP   1   2244  6.61                             150    0.09 7 76.8  42 
 PAM  SZ I        2244  6.94         7.3 0.21                          76.8  42 
 PAM  SN ES   1   2244 23.02                             150   -0.22 7 76.8  42 
 RUS  HZ EP   1   2244  8.63                             141    0.28 7  103 175 
 RUS  HN ES   1   2244 25.97                             141   -0.53 7  103 175 
 RUS  HZ I        2244 28.98         3.2 0.30                           103 175 
 PTB  HZ EP   1   2244 10.83                             131   -0.51 7  146 258 
 PTB  HN ES   1   2244 32.21                             131    0.39 7  146 258 
 PTB  HZ I        2244 37.22         4.6 0.22                           146 258 
 ZAR  HZ EP   1   2244 16.62                             121   -0.15 6  201 292 
 ZAR  HN ES   1   2244 41.33                             121   -0.16 6  201 292 
 ZAR  HZ I        2244 47.80         7.4 0.30                           201 292 
                                                                                
