 2011  613 2306 50.0 L   6.794 -73.140148.0  RSN  9 0.3 2.1LRSN                1
 GAP=156        0.54       2.3     4.6  4.7 -0.4672E+01 -0.8860E+00  0.2679E+01E
 Epicentro: LOS SANTOS - SANTANDER                                             3
 ACTION:UP  11-07-14 19:05 OP:ep   STATUS:               ID:20110613230650 L   I
 2011-06-13-2305-17S.COL___135                                                 6
 STAT SP IPHASW D HRMM SECON CODA AMPLIT PERI AZIMU VELO SNR AR TRES W  DIS CAZ7
 BTL  SZ EP   1   23 7 10.00                             172     0.1 7   20 314 
 BTL  SZ ES   2   23 7 25.02                             172    -0.3 5   20 314 
 BRR  HZ EP   1   23 7 11.29                             153    -0.2 7   72 299 
 BRR  HE ES   1   23 7 28.41                             153     0.2 7   72 299 
 BRR  HZ I        23 7 32.06        29.3 0.28                            72 299 
 RUS  HZ EP   1   23 7 13.88                             145    -0.1 7  100 176 
 RUS  HN ES   1   23 7 32.85                             145     0.3 7  100 176 
 RUS  HZ I        23 7 33.42        17.4 0.25                           100 176 
 BRI  SZ EP   1   23 7 14.08                             142    -0.1 7  109  20 
 BRI  SZ ES   2   23 7 32.52                             142    -0.5 5  109  20 
 BRI  SZ I        23 7 37.86        16.5 0.54                           109  20 
 GRA  SZ EP   1   23 7 15.28                             138    -0.2 7  126  17 
 GRA  SZ ES   1   23 7 35.37                             138     0.0 7  126  17 
 GRA  SZ I        23 7 39.24        13.6 0.35                           126  17 
 OCA  SZ EP   1   23 7 18.49                             130    -0.1 7  161 353 
 OCA  SZ ES   1   23 7 41.31                             130     0.5 7  161 353 
 OCA  SZ I        23 7 44.70        15.4 0.35                           161 353 
 NOR  SN ES   1   23 7 53.37                             119    -0.5 6  235 235 
 CHI  HZ EP   1   23 7 27.78                             118     0.0 6  248 195 
 CHI  HE ES   2   23 7 57.12                             118    -0.1 4  248 195 
 CHI  HZ I        23 8  6.77         7.2 0.44                           248 195 
 PRA  HZ EP   1   23 7 43.75                             107     0.2 4  392 210 
 PRA  HN ES   1   23 8 25.84                             107     0.5 4  392 210 
                                                                                
