 2014  514 0137 42.1 L   6.416 -73.747 87.0  RSN  6 0.5 1.0LRSN                1
 GAP=125        1.05       3.6     4.5 13.2 -0.1036E+01  0.8023E+01  0.5293E+00E
 Epicentro: SANTA HELENA DEL OPON - SANTANDER                                  3
 ACTION:UPD 15-03-16 16:57 OP:nd   STATUS:               ID:20140514013742 L   I
 OLDACT:REG 14-05-14 12:24 OP:spq  STATUS:               ID:20140514012814     3
 2014-05-14-0128-14M.COL___260                                                 6
 STAT SP IPHASW D HRMM SECON CODA AMPLIT PERI AZIMU VELO AIN AR TRES W  DIS CAZ7
 BRR  HZ EP        137 58.19                             135    0.4110 76.5   3 
 BRR  HE ES        138 10.42                             135    0.4210 76.5   3 
 PTB  HZ EP   1    137 57.76                             134   -0.32 7 79.6 280 
 PTB  HN ES   1    138  9.69                             134   -0.85 7 79.6 280 
 PTB  HZ I         138 11.49         3.6 0.42            152           79.6 280 
 SPBC HE ES        138 12.91                             130    0.1910 91.9 203 
 RUS  HZ EP   1    137 59.57                             129   -0.44 7 93.5 128 
 RUS  HE ES   1    138 13.52                             129   -0.44 7 93.5 128 
 RUS  HZ I         138 29.02         2.4 1.08            130           93.5 128 
 NOR  HN ES        138 25.15                             114    0.47 9  156 233 
 ZAR  HN ES   1    138 27.06                             112   -0.55 7  171 314 
                                                                                
