 2012  914 0113 54.4 L   6.792 -73.097153.4  RSN  6 0.3 1.5LRSN                1
 GAP=198        0.57       5.1     4.9  6.2  0.9107E+01  0.9398E+01  0.1780E+01E
 Epicentro: LOS SANTOS - SANTANDER                                             3
 ACTION:UPD 12-10-22 14:18 OP:ep   STATUS:               ID:20120914011354 L   I
 2012-09-14-0110-00M.COL___227                                                 6
 STAT SP IPHASW D HRMM SECON CODA AMPLIT PERI AZIMU VELO AIN AR TRES W  DIS CAZ7
 BAR2 SZ EP   1    114 15.33                             171    0.36 7 24.1 203 
 BAR2 SZ ES   1    114 31.05                             171    0.04 7 24.1 203 
 BAR2 SZ I         114 31.96         8.0 0.18                          24.1 203 
 GIR2 SZ EP   1    114 15.05                             167    0.00 7 33.4 341 
 GIR2 SZ ES   1    114 30.73                             167   -0.41 7 33.4 341 
 BRR  HE ES   1    114 34.49                             152    0.45 7 76.4 297 
 RUS  HN ES   1    114 37.75                             146   -0.15 7 99.5 179 
 RUS  HZ I         114 39.70         3.0 0.44                          99.5 179 
 PTB  HZ EP   1    114 22.25                             133   -0.22 7  153 260 
 PTB  HE ES   1    114 44.43                             133    0.08 7  153 260 
 PTB  HZ I         114 46.70         1.9 0.10                           153 260 
 ZAR  HN ES   1    114 53.76                             123   -0.27 6  209 292 
 ZAR  HZ I         114 59.25         4.3 0.32                           209 292 
                                                                                
