 2014 1214 0616 34.8 L   6.801 -73.171147.8  RSN  8 0.4 1.9LRSN                1
 GAP= 70        1.09       3.8     3.7  6.4 -0.4563E+00  0.8965E+00 -0.2910E+01E
 Epicentro: LOS SANTOS - SANTANDER                                             3
 ACTION:UPD 15-02-10 17:03 OP:nd   STATUS:               ID:20141214061635dL   I
 OLDACT:DUP 14-12-14 18:36 OP:stll STATUS:               ID:20141214060744d    3
 2014-12-14-0607-43M.COL___279                                                 6
 STAT SP IPHASW D HRMM SECON CODA AMPLIT PERI AZIMU VELO AIN AR TRES W  DIS CAZ7
 BAR2 EZ EP        616 54.82                             171    0.1610 23.1 183 
 BAR2 EZ ES        617 10.10                             171   -0.0610 23.1 183 
 BAR2 EZ I         617 12.50        17.5 0.28            170           23.1 183 
 BRR  HZ EP        616 56.65                             154    0.6310 68.7 300 
 BRR  HN ES        617 13.27                             154    0.6910 68.7 300 
 BRR  HZ I         617 17.66        13.0 0.28            154           68.7 300 
 PAM  SZ EP     C  616 57.54                             150    0.2110 79.2  41 
 PAM  SE IP     D  616 57.83                             150    0.5010 79.2  41 
 PAM  SZ I         616 58.00        30.2 0.20            154           79.2  41 
 PAM  SN ES        617 14.62                             150   -0.2910 79.2  41 
 RUS  HZ EP        616 58.55                             144   -0.2110  101 174 
 RUS  HN ES        617 16.85                             144   -0.6110  101 174 
 RUS  HZ I         617 18.84         5.8 0.30            145            101 174 
 PTB  HZ EP        617  1.53                             133   -0.14 9  145 259 
 PTB  HN ES        617 22.20                             133   -0.45 9  145 259 
 PTB  HZ I         617 24.42         7.8 0.14            134            145 259 
 TAM  HZ EP        617  2.94                             130    0.06 9  158 105 
 TAM  HN ES        617 24.72                             130   -0.08 9  158 105 
 TAM  HZ I         617 25.42         5.7 0.32            134            158 105 
 SPBC HZ EP        617  3.19                             130   -0.09 9  161 218 
 SPBC HN ES        617 25.84                             130    0.33 9  161 218 
 SPBC HZ I         617 32.75        11.8 0.30            131            161 218 
 SML  HZ EP        617 11.40                             118    0.01 8  242 336 
 SML  HN ES        617 38.87                             118   -1.08 8  242 336 
                                                                                
