 2012  314 0641 49.8 L   6.725 -73.137146.1  RSN  6 0.3 1.5LRSN                1
 GAP=141        0.70       4.7     4.4  8.0 -0.4915E+01  0.4574E+01  0.4557E+01E
 ACTION:UP  12-03-31 23:19 OP:EP   STATUS:               ID:20120314064149 L   I
 2012-03-14-0640-00M.COL___202                                                 6
 STAT SP IPHASW D HRMM SECON CODA AMPLIT PERI AZIMU VELO SNR AR TRES W  DIS CAZ7
 BAR2 SZ EP        642  9.38                             174     0.010   15 199 
 BAR2 SZ I         642 27.55         4.3 0.16                            15 199 
 BRR  HZ EP        642 11.40                             151     0.110   76 304 
 BRR  HZ I         642 11.85        20.5 0.14                            76 304 
 BRR  HN ES   1    642 28.59                             151     0.6 7   76 304 
 PAM  SZ EP   1    642 12.48                             149     0.1 7   83  35 
 PAM  SN ES   1    642 29.63                             149    -0.4 7   83  35 
 RUS  HZ EP   1    642 13.24                             146     0.2 7   92 176 
 RUS  HN ES   1    642 31.07                             146     0.0 7   92 176 
 RUS  HZ I         642 32.42         2.2 0.25                            92 176 
 PTB  HZ EP   1    642 16.47                             132    -0.3 7  147 262 
 PTB  HN ES   1    642 37.35                             132    -0.4 7  147 262 
 PTB  HZ I         642 42.51         3.7 0.16                           147 262 
 NOR  SN ES   1    642 52.67                             119     0.0 6  231 236 
                                                                                
