 2011  414 0459 46.3 L   6.405 -73.670106.9  RSN 13 0.3 2.6LRSN                1
 GAP= 93        0.58       2.6     2.8  5.2 -0.3758E+01  0.3907E+01  0.2931E+01E
 Epicentro: SANTA HELENA DEL OPON - SANTANDER                                  3
 ACTION:UP  11-06-22 15:30 OP:REBC STATUS:               ID:20110414045946 L   I
 2011-04-14-0456-50S.COL___139                                                 6
 STAT SP IPHASW D HRMM SECON CODA AMPLIT PERI AZIMU VELO SNR AR TRES W  DIS CAZ7
 BAR2 SZ IP        5 0  3.04                             150     0.110   58  69 
 BAR2 SZ ES   1    5 0 15.66                             150    -0.2 7   58  69 
 BAR2 SZ I         5 0 16.98       319.2 0.13                            58  69 
 BTL  SZ EP   1    5 0  4.15                             144     0.3 7   72  38 
 BRR  HZ IP        5 0  4.06                             141     0.110   78 357 
 BRR  HZ I         5 0 12.84        54.3 0.14                            78 357 
 BRR  HN ES   2    5 0 17.72                             141     0.0 5   78 357 
 GIR2 SZ EP   2    5 0  5.52                             137     0.3 5   91  35 
 GIR2 SZ ES   3    5 0 20.36                                     0.4 2   91  35 
 PAM  SZ EP   1    5 0 11.21                             122     0.0 7  149  46 
 PAM  SN ES   2    5 0 29.66                             122    -1.0 5  149  46 
 NOR  SZ EP   1    5 0 11.84                             119    -0.2 7  162 235 
 NOR  SN ES   2    5 0 31.57                             119    -0.5 5  162 235 
 YOP  SZ EP   1    5 0 14.11                             116     0.0 7  181 130 
 YOP  SN ES   2    5 0 35.70                             116    -0.1 4  181 130 
 YOP  SZ I         5 0 36.93        24.3 0.25                           181 130 
 GRA  SZ EP        5 0 15.33                             115     0.2 9  190  30 
 GRA  SZ ES   1    5 0 37.68                             115     0.0 7  190  30 
 GRA  SZ I         5 0 45.79        33.7 0.30                           190  30 
 HEL  HN ES   2    5 0 41.61                             112     0.0 4  207 264 
 OCA  SZ EP   1    5 0 16.89                             112    -0.2 6  207  11 
 OCA  SZ I         5 0 48.23        63.7 0.37                           207  11 
 HEL  HZ EP   1    5 0 17.50                             112     0.1 6  207 264 
 HEL  HZ I         5 0 45.01        19.7 0.27                           207 264 
 RREF HZ EP        5 0 22.34                                    -0.2 8  249 228 
 RREF HN ES   1    5 0 51.22                                     0.4 6  249 228 
 RREF HZ I         5 0 57.88        15.4 0.35                           249 228 
 TOL  SZ EP        5 0 24.45                                    -0.4 8  272 222 
 PRA  HZ EP        5 0 30.94                                     0.0 7  327 204 
 PRA  HN ES   1    5 1  6.50                                     0.7 5  327 204 
 PRA  HZ I         5 1  9.40        50.1 0.12                           327 204 
                                                                                
