 2011  114 0722 27.3 L   6.814 -73.089140.2  RSN  5 0.4 1.5LRSN                1
 GAP=165        0.71       3.9    17.4 12.1 -0.1182E+02  0.7430E+02 -0.1509E+02E
 Epicentro: LOS SANTOS - SANTANDER                                             3
 ACTION:UP  11-02-08 08:40 OP:pat  STATUS:               ID:20110114072227 L   I
 2011-01-14-0720-11S.COL___136                                                 6
 STAT SP IPHASW D HRMM SECON CODA AMPLIT PERI AZIMU VELO SNR AR TRES W  DIS CAZ7
 BAR2 SZ EP   1    722 46.31                             169    -0.1 7   27 203 
 BAR2 SZ I         723  3.76         4.6 0.20                            27 203 
 RUS  HZ EP   2    722 50.81                             142     0.2 5  102 180 
 RUS  HN ES   1    723  8.67                             142    -0.1 7  102 180 
 RUS  HZ I         723  9.57         3.4 0.25                           102 180 
 GRA  SZ EP   1    722 51.94                             136     0.1 7  122  15 
 GRA  SZ ES   2    723 11.41                             136     0.5 5  122  15 
 GRA  SZ I         723 12.62         4.6 0.38                           122  15 
 OCA  SZ EP   1    722 54.62                             128    -0.5 7  160 351 
 OCA  SZ ES   1    723 16.84                             128     0.0 7  160 351 
 OCA  SZ I         723 23.46         6.7 0.45                           160 351 
 RREF HZ EP   2    723 14.84                             109     1.0 3  328 230 
 RREF HZ I         723 56.28         3.0 0.56                           328 230 
                                                                                
