 2014 1214 0228 34.6 L   6.795 -73.163147.1  RSN  8 0.5 2.1LRSN                1
 GAP= 70        1.23       4.5     4.6  8.3 -0.2427E+01  0.4720E+01  0.3718E+01E
 Epicentro: LOS SANTOS - SANTANDER                                             3
 ACTION:UPD 15-02-10 17:03 OP:nd   STATUS:               ID:20141214022834 L   I
 OLDACT:DUP 14-12-14 17:25 OP:stll STATUS:               ID:20141214021748d    3
 2014-12-14-0217-47M.COL___279                                                 6
 STAT SP IPHASW D HRMM SECON CODA AMPLIT PERI AZIMU VELO AIN AR TRES W  DIS CAZ7
 BAR2 EZ IP     C  228 54.49                             171    0.1210 22.6 185 
 BAR2 EZ I         228 54.93        37.6 0.16            171           22.6 185 
 BAR2 EZ ES        229 10.05                             171    0.2510 22.6 185 
 BRR  HZ EP        228 55.95                             153    0.1410 69.7 300 
 BRR  HZ I         228 56.62        32.0 0.26            153           69.7 300 
 BRR  HE ES        229 13.41                             153    1.0610 69.7 300 
 PAM  SZ EP        228 57.40                             151    0.3510 79.0  40 
 PAM  SN ES        229 14.23                             151   -0.3410 79.0  40 
 PAM  SZ I         229 17.09        18.4 0.28            152           79.0  40 
 RUS  HZ EP        228 58.49                             144    0.0410  100 175 
 RUS  HZ I         228 59.40        11.8 0.50            145            100 175 
 RUS  HN ES        229 16.76                             144   -0.3010  100 175 
 PTB  HZ EP        229  1.32                             133   -0.17 9  146 259 
 PTB  HN ES        229 21.84                             133   -0.63 9  146 259 
 PTB  HZ I         229 24.40        23.8 0.16            133            146 259 
 TAM  HZ I         229 23.28        21.3 0.34            132            157 105 
 TAM  HE ES        229 24.23                             131   -0.11 9  157 105 
 OCA  HN ES        229 24.45                             130   -0.77 9  161 354 
 OCA  HZ I         229 26.71        11.3 0.22            130            161 354 
 SPBC HZ EP        229  3.63                             130    0.59 9  162 219 
 SPBC HN ES        229 24.75                             130   -0.48 9  162 219 
 SPBC HZ I         229 28.59        17.5 0.22            130            162 219 
                                                                                
