 2014  514 0947 51.4 L   6.837 -73.151141.2  RSN 14 0.6 2.8LRSN                1
 GAP= 70        1.35       4.4     4.0  7.0 -0.6162E+01  0.1743E+01  0.2685E+01E
 Epicentro: LOS SANTOS - SANTANDER                                             3
 ACTION:UPD 15-03-16 16:57 OP:nd   STATUS:               ID:20140514094751 L   I
 OLDACT:DUP 14-05-14 17:03 OP:stll STATUS:               ID:20140514093813d    3
 2014-05-14-0938-11M.COL___251                                                 6
 STAT SP IPHASW D HRMM SECON CODA AMPLIT PERI AZIMU VELO AIN AR TRES W  DIS CAZ7
 BRR  HZ IP     C  948 12.05                             152    0.1710 68.8 296 
 BRR  HZ I         948 12.31       133.8 0.26            153           68.8 296 
 BRR  HN ES        948 28.27                             152    0.3810 68.8 296 
 PAM  SZ EP        948 13.15                             151    0.2210 74.7  42 
 PAM  SN ES        948 30.44                             151    0.6910 74.7  42 
 PAM  SZ I         948 32.76        74.3 0.54            152           74.7  42 
 RUS  HZ EP        948 14.84                             142   -0.1310  105 176 
 RUS  HN ES        948 33.04                             142   -0.3510  105 176 
 PTB  HZ EP        948 16.96                             131   -1.02 9  148 257 
 PTB  HN ES        948 37.88                             131   -0.87 9  148 257 
 PTB  HZ I         948 42.70        71.8 0.24            132            148 257 
 TAM  HZ EP        948 18.75                             129   -0.09 9  157 106 
 TAM  HZ I         948 18.99        81.2 0.38            131            157 106 
 TAM  HN ES        948 40.29                             129    0.02 9  157 106 
 SPBC HZ EP        948 19.62                             127   -0.16 9  166 218 
 SPBC HN ES        948 41.45                             127   -0.50 9  166 218 
 NOR  HZ EP        948 26.83                             117   -0.20 8  237 234 
 NOR  HN ES        948 54.12                             117   -0.74 8  237 234 
 SML  HZ EP        948 27.49                             117    0.19 8  240 335 
 CHI  HZ EP        948 29.21                             116   -0.01 8  252 195 
 CHI  HN ES        948 58.52                             116   -0.24 8  252 195 
 ROSC BZ EP        948 30.82                             115    1.23 8  256 210 
 ROSC BN ES        949  0.22                             115    0.82 8  256 210 
 ROSC BZ I         949  3.82        49.5 0.40            117            256 210 
 HEL  HZ EP        948 32.08                             114    0.69 8  273 255 
 SOCV BZ EP        948 33.46                             111   -0.55 7  300  58 
 GUY2CHZ EP        948 35.89                             111    0.92 7  303 234 
 GUY2CHN ES        949  9.83                             111    0.84 7  303 234 
 SDV  BZ EP        948 40.15                             107   -0.83 6  358  51 
                                                                                
