 2015  814 0740 10.0 L   6.873 -73.103145.4  RSN  5 0.6 1.4LRSN                1
 GAP=188        1.36       7.1    18.9 11.3  0.9029E+02 -0.6012E+02 -0.3280E+02E
 Epicentro: LOS SANTOS - SANTANDER                                             3
 ACTION:UPD 15-09-15 23:02 OP:cam  STATUS:               ID:20150814074010 L   I
 OLDACT:UP  15-08-14 17:44 OP:mh   STATUS:               ID:20150814073735     3
 OLDACT:REG 15-08-14 13:09 OP:mh   STATUS:               ID:20150814073735     3
 2015-08-14-0737-35M.COL___328                                                 6
 STAT SP IPHASW D HRMM SECON CODA AMPLIT PERI AZIMU VELO AIN AR TRES W  DIS CAZ7
 BAR2 EZ EP        740 30.09                             167    0.2910 32.3 196 
 BAR2 EZ ES        740 45.06                             167   -0.1810 32.3 196 
 BAR2 EZ I         740 46.08         5.1 0.48            166           32.3 196 
 BRR  HZ EP        740 31.54                             152    0.3810 72.1 291 
 BRR  HN ES        740 48.03                             152    0.3710 72.1 291 
 BRR  HZ I         740 52.66         3.3 0.12            149           72.1 291 
 RUS  HZ EP        740 35.02                             141    0.7210  108 179 
 RUS  HN ES        740 52.36                             141   -0.8910  108 179 
 RUS  HZ I         740 53.69         1.8 0.18            144            108 179 
 OCA  HN ES        740 59.38                             131    0.26 9  153 351 
 OCA  HZ I         741  2.18         7.3 0.14            132            153 351 
 SML  HZ EP        740 45.27                             118   -0.77 8  238 333 
 SML  HN ES        741 13.49                             118   -0.66 8  238 333 
 SML  HZ I         741 16.79         2.6 0.10            119            238 333 
                                                                                
