 2013  414 0937 16.0 L   6.769 -73.093142.3  RSN  7 0.2 2.5LRSN                1
 GAP=161        0.63       3.2     4.8  4.0 -0.5826E+01 -0.3172E+01  0.1259E+01E
 Epicentro: LOS SANTOS - SANTANDER                                             3
 ACTION:UPD 13-05-22 14:38 OP:EP   STATUS:               ID:20130414093716 L   I
 2013-04-14-0928-48M.COL___212                                                 6
 STAT SP IPHASW D HRMM SECON CODA AMPLIT PERI AZIMU VELO AIN AR TRES W  DIS CAZ7
 BAR2 SZ EP        937 35.14                             171   -0.0110 21.8 207 
 BAR2 SZ ES        937 49.88                             171   -0.2310 21.8 207 
 BAR2 SZ I         937 51.00        51.9 0.30            171           21.8 207 
 GIR2 SZ EP        937 35.18                             165   -0.1810 36.0 342 
 GIR2 SZ ES        937 50.18                             165   -0.3110 36.0 342 
 PAM  SZ EP        937 38.04                             150    0.2710 76.7  35 
 PAM  SN ES        937 55.01                             150    0.2410 76.7  35 
 BRR  HZ EP        937 37.02                             150   -0.1210 77.9 299 
 BRR  HN ES        937 54.05                             150    0.4010 77.9 299 
 BRR  HN I         937 54.42        90.4 0.22            150           77.9 299 
 CAPV BZ EP        937 43.06                             131    0.04 9  149  35 
 OCA  HZ EP        937 44.17                             128   -0.24 9  164 351 
 CHI  HN ES        938 22.54                             117    0.15 8  247 197 
                                                                                
