 2014  114 0130 46.8 L   6.792 -73.102144.9  RSN 12 0.5 1.8LRSN                1
 GAP=143        0.85       2.6     3.8  5.9 -0.7182E+00  0.6399E+01  0.3294E+01E
 Epicentro: LOS SANTOS - SANTANDER                                             3
 ACTION:UPD 14-03-13 09:55 OP:ep   STATUS:               ID:20140114013046 L   I
 OLDACT:UP  14-01-14 09:55 OP:cam  STATUS:               ID:20140114013000     3
 OLDACT:REG 14-01-14 08:23 OP:cam  STATUS:               ID:20140114013000     3
 2014-01-14-0130-00M.COL___285                                                 6
 STAT SP IPHASW D HRMM SECON CODA AMPLIT PERI AZIMU VELO AIN AR TRES W  DIS CAZ7
 PAM  SZ EP     C  131  9.17                             151    0.3910 75.2  36 
 PAM  SE ES        131 26.00                             151    0.0610 75.2  36 
 PAM  SZ I         131 28.11        12.7 0.26            155           75.2  36 
 BRR  HZ EP        131  8.03                             151   -0.0810 75.9 297 
 BRR  HN ES        131 24.82                             151    0.0710 75.9 297 
 BRR  HZ I         131 25.47        17.0 0.30            150           75.9 297 
 RUS  HZ EP        131 10.32                             144   -0.0510 99.4 179 
 RUS  HN ES        131 28.53                             144   -0.2410 99.4 179 
 RUS  HZ I         131 29.87         3.2 0.22            145           99.4 179 
 PTB  HZ EP   1    131 13.36                             131   -0.74 7  152 260 
 PTB  HN ES   4    131 33.58                             131   -1.82 0  152 260 
 PTB  HZ I         131 39.70         8.8 0.36            131            152 260 
 SPBC HZ EP        131 15.33                             128   -0.11 9  166 220 
 SPBC HN ES        131 38.27                             128    0.47 9  166 220 
 SPBC HZ I         131 41.76         9.9 0.14            129            166 220 
 ZAR  HZ E         131 22.11                                            209 292 
 ZAR  HE ES        131 45.23                             121   -0.09 8  209 292 
 ZAR  HZ I         131 52.51         8.1 0.12            122            209 292 
 NOR  HZ EP   1    131 23.31                             118    0.48 6  238 235 
 NOR  HE ES        131 50.61                             118   -0.33 8  238 235 
 NOR  HZ I         131 53.88         7.2 0.34            119            238 235 
 SML  HZ EP   4    131 22.69                             117   -0.99 0  247 334 
 SML  HE ES        131 52.40                             117   -0.05 8  247 334 
 SML  HZ I         131 53.41         7.9 0.10            118            247 334 
 CHI  HZ EP        131 24.80                             117    0.32 8  249 196 
 CHI  HN ES        131 53.40                             117   -0.48 8  249 196 
 CHI  HZ I         132  1.42         2.7 0.40            118            249 196 
 GUY2CHZ EP   1    131 30.35                             112   -0.39 5  305 235 
 GUY2CHN ES        132  5.36                             112    0.34 7  305 235 
 GUY2CHZ I         132 11.77         3.4 0.50                           305 235 
 RREF HZ EP   2    131 35.15                             110    1.91 3  325 230 
 SJC  HZ EP   2    131 41.02                             105   -1.70 3  413 326 
                                                                                
