 2010  914 0806  6.2 L   6.823 -73.021141.7  RSN  7 0.4 1.8LRSN                1
 GAP=196        0.83       4.4    10.6  7.0  0.3852E+01 -0.1016E+02  0.2921E+01E
 Epicentro: CEPITA - SANTANDER                                                 3
 ACTION:UP  11-02-18 11:02 OP:tino STATUS:               ID:20100914080606 L   I
 2010-09-14-0803-12S.COL___113                                                 6
 STAT SP IPHASW D HRMM SECON CODA AMPLIT PERI AZIMU VELO SNR AR TRES W  DIS CAZ7
 BAR2 SZ EP        8 6 25.58                             167     0.110   31 215 
 BAR2 SZ ES   1    8 6 40.61                             167     0.0 7   31 215 
 BRR  HZ EP        8 6 27.38                             148    -0.210   83 292 
 BRR  HZ I         8 6 28.97        16.9 0.14                            83 292 
 BRR  HE ES   1    8 6 44.29                             148     0.0 7   83 292 
 RUS  HZ EP        8 6 29.64                             142    -0.110  103 184 
 RUS  HZ I         8 6 30.45         4.7 0.31                           103 184 
 RUS  HN ES   2    8 6 48.44                             142     0.4 5  103 184 
 OCA  SZ EP        8 6 34.16                             129     0.0 9  160 348 
 OCA  SZ ES   3    8 6 55.93                             129     0.0 2  160 348 
 CHI  HZ EP   1    8 6 43.96                             115    -0.4 6  255 198 
 CHI  HE ES   2    8 7 12.71                             115    -1.4 4  255 198 
 CHI  HZ I         8 7 16.22         2.9 0.32                           255 198 
 ROSC BZ EP        8 6 45.96                             115     0.8 8  262 213 
 ROSC BN ES   2    8 7 15.33                             115    -0.2 4  262 213 
 ROSC BZ I         8 7 22.08         6.5 0.40                           262 213 
 RREF HZ EP   3    8 6 53.97                             109     0.4 2  334 231 
 RREF HZ I         8 7 37.42         3.0 0.37                           334 231 
                                                                                
