 2010  814 0729 45.1 L   6.809 -72.984147.8  RSN 11 0.3 1.9LRSN                1
 GAP=177        0.71       3.0     6.0  5.5 -0.4161E+01 -0.6704E+01  0.6413E+00E
 Epicentro: CEPITA - SANTANDER                                                 3
 ACTION:UP  10-09-07 10:54 OP:vdl  STATUS:               ID:20100814072945 L   I
 2010-08-14-0726-47S.COL___111                                                 6
 STAT SP IPHASW D HRMM SECON CODA AMPLIT PERI AZIMU VELO SNR AR TRES W  DIS CAZ7
 BAR2 SZ EP        730  5.34                             167     0.110   33 223 
 BAR2 SZ ES   1    730 20.48                             167    -0.4 7   33 223 
 BAR2 SZ I         730 22.16        16.9 0.34                            33 223 
 GIR2 SZ EP   2    730  5.66                             165     0.4 5   38 322 
 BRR  HZ IP     C  730  7.24                             148    -0.210   87 292 
 BRR  HZ I         730  7.56        38.8 0.15                            87 292 
 BRR  HN ES        730 24.80                             148    -0.110   87 292 
 RUS  HZ EP        730  9.28                             144     0.110  102 186 
 RUS  HN ES   1    730 28.10                             144     0.2 7  102 186 
 RUS  HZ I         730 31.47         5.6 0.37                           102 186 
 GUE  SZ EP        730  9.39                             141    -0.410  113   3 
 GUE  SZ I         730 32.32         4.2 0.20                           113   3 
 GRA  SZ EP        730 10.12                             139     0.010  121   9 
 GRA  SZ ES   1    730 30.07                             139     0.4 7  121   9 
 GRA  SZ I         730 32.10        12.5 0.30                           121   9 
 OCA  SZ EP   1    730 13.86                             130     0.1 7  162 347 
 OCA  SZ ES   2    730 36.82                             130     0.7 5  162 347 
 OCA  SZ I         730 41.68        15.8 0.34                           162 347 
 CHI  HZ EP   2    730 23.19                             117    -0.4 4  255 199 
 CHI  HN ES   2    730 54.21                             117     0.6 4  255 199 
 CHI  HZ I         731  0.52         2.5 0.32                           255 199 
 HEL  HZ EP   2    730 27.71                             114     0.3 4  290 256 
 HEL  HZ I         731  5.09         4.9 0.30                           290 256 
 RREF HZ EP   2    730 33.21                             110     0.2 3  336 231 
 RREF HN ES   2    731 10.87                             110     0.5 3  336 231 
 RREF HZ I         731 17.60         4.7 0.27                           336 231 
 PRA  HZ EP   2    730 39.00                             106    -0.9 3  402 212 
 PRA  HZ I         730 40.95         2.7 0.21                           402 212 
                                                                                
