 2011  214 0841 50.3 L   6.739 -73.105150.6  RSN  7 0.4 1.7LRSN                1
 GAP=164        1.05       8.1    10.6  8.6 -0.2997E+02  0.2845E+02 -0.2724E+01E
 Epicentro: JORDAN - SANTANDER                                                 3
 ACTION:UP  11-03-28 15:08 OP:jfem STATUS:               ID:20110214084150 L   I
 2011-02-14-0837-52S.COL___137                                                 6
 STAT SP IPHASW D HRMM SECON CODA AMPLIT PERI AZIMU VELO SNR AR TRES W  DIS CAZ7
 BAR2 SZ EP        842 10.19                             173    -0.310   18 208 
 BAR2 SZ ES   1    842 25.62                             173    -0.5 7   18 208 
 BAR2 SZ I         842 26.95        30.2 0.23                            18 208 
 BTL  SZ EP   1    842 11.46                             169     0.8 7   27 318 
 BTL  SZ ES   1    842 26.93                             169     0.5 7   27 318 
 RUS  HZ EP   1    842 14.05                             147     0.0 7   94 179 
 RUS  HE ES   1    842 32.68                             147     0.1 7   94 179 
 RUS  HZ I         842 34.03         6.5 0.23                            94 179 
 GRA  SZ EP   1    842 16.00                             137    -0.4 7  131  15 
 GRA  SZ I         842 41.56         5.4 0.32                           131  15 
 NOR  SZ EP   1    842 25.91                             119    -0.4 6  235 237 
 NOR  SE ES   1    842 54.20                                    -0.2 6  235 237 
 NOR  SZ I         843  0.28         0.8 0.19                           235 237 
 CHI  HZ EP   1    842 28.23                             119     0.5 6  243 197 
 CHI  HZ I         842 30.86         2.9 0.51                           243 197 
 HEL  HZ EP   1    842 31.39                             115     0.3 6  275 257 
 HEL  HZ I         843  9.77         4.0 0.40                           275 257 
                                                                                
