 2011 1214 0757 19.7 L   7.228 -73.409 19.5  RSN  6 0.4 1.4LRSN                1
 GAP=117        0.71       2.6     2.6  4.8 -0.8056E-01 -0.5871E+00  0.1516E+01E
 Epicentro: SABANA DE TORRES - SANTANDER                                       3
 ACTION:UPD 12-07-13 16:16 OP:ep   STATUS:               ID:20111214075719 L   I
 2011-12-14-0750-00M.COL___185                                                 6
 STAT SP IPHASW D HRMM SECON CODA AMPLIT PERI AZIMU VELO AIN AR TRES W  DIS CAZ7
 GIR2 SZ EP        757 25.98                             121    0.4710 28.9 125 
 GIR2 SZ ES   2    757 29.72                             121   -0.32 5 28.9 125 
 BRR  HZ EP        757 25.96                             115   -0.3310 36.0 248 
 BRR  HE ES   2    757 31.72                             115    0.29 5 36.0 248 
 BRR  HZ I         757 32.20        30.3 0.11                          36.0 248 
 BAR2 SZ EP   1    757 31.60                             102   -0.51 7 74.6 160 
 BAR2 SZ I         757 37.77        12.9 0.56                          74.6 160 
 BAR2 SZ ES   2    757 41.75                             102   -0.04 5 74.6 160 
 PAM  SZ EP   1    757 33.34                             102    0.27 7 79.3  81 
 PAM  SE ES   2    757 42.73                             102   -0.76 5 79.3  81 
 OCA  SZ EP   1    757 37.94                              98    0.31 7  112   5 
 OCA  SZ ES   2    757 51.48                              98   -0.14 5  112   5 
 OCA  SZ I         757 54.55         8.3 0.24                           112   5 
 RUS  HZ EP   1    757 43.34                              56    0.11 7  152 166 
 RUS  HN ES   2    758  1.67                              56    0.09 5  152 166 
 RUS  HZ I         758  3.59         7.9 0.29                           152 166 
                                                                                
