 2011  314 0255 46.4 L   6.827 -73.139140.0  RSN 12 0.4 2.9LRSN                1
 GAP=104        0.85       3.3     4.3  6.1 -0.1937E+01  0.8549E+01 -0.1412E+01E
 Epicentro: LOS SANTOS - SANTANDER                                             3
 ACTION:UP  11-06-16 14:33 OP:jfem STATUS:               ID:20110314025546 L   I
 2011-03-14-0254-25S.COL___131                                                 6
 STAT SP IPHASW D HRMM SECON CODA AMPLIT PERI AZIMU VELO SNR AR TRES W  DIS CAZ7
 BAR2 SZ EP   1    256  5.85                             169     0.410   27 191 
 BAR2 SZ ES   1    256 20.11                             169    -0.110   27 191 
 BAR2 SZ I         256 23.07       125.0 0.24                            27 191 
 RUS  HZ EP   1    256  9.97                             142     0.210  104 177 
 RUS  HN ES   1    256 28.13                             142     0.110  104 177 
 RUS  HZ I         256 30.44       131.9 0.27                           104 177 
 OCA  SZ EP   1    256 14.01                             129     0.0 9  157 353 
 OCA  SZ ES   1    256 35.40                             129    -0.1 9  157 353 
 OCA  SZ I         256 40.40        98.9 0.20                           157 353 
 YOP  SZ EP   1    256 16.59                             124     0.3 9  181 154 
 YOP  SN ES   1    256 39.57                             124     0.0 9  181 154 
 YOP  SZ I         256 43.78        68.2 0.33                           181 154 
 NOR  SZ EP   1    256 21.96                             117    -0.1 8  237 234 
 NOR  SN ES   1    256 49.16                             117    -0.7 8  237 234 
 CHI  HZ EP   1    256 24.24                             116     0.1 8  252 195 
 CHI  HN ES   1    256 53.15                             116    -0.4 8  252 195 
 CHI  HZ I         256 57.00        31.7 0.49                           252 195 
 HEL  HZ EP        256 26.79                             113     0.310  274 255 
 HEL  HN ES   1    256 57.65                             113    -0.1 7  274 255 
 HEL  HZ I         257  4.55        49.3 0.46                           274 255 
 GUY  SZ EP        256 30.67                             111     0.6 9  304 234 
 GUY  SE ES   1    257  4.29                             111     0.2 7  304 234 
 GUY  SZ I         257 14.60        66.6 0.34                           304 234 
 DBB  SZ EP        256 33.61                             108    -0.1 9  340 274 
 TOL  SZ EP        256 35.27                             108     0.5 9  346 224 
 MON  HZ EP   4    256 33.06                             108    -1.9 0  352 308 
 MON  HE ES   4    257 10.50                             108    -2.4 0  352 308 
 SDV  BZ EP        256 35.31                             107    -0.6 8  358  50 
 PRA  HZ EP        256 39.01                             105    -1.1 8  395 209 
 PRA  HN ES   1    257 21.60                             105    -0.3 6  395 209 
                                                                                
