 2014  814 0154 16.3 L   6.855 -73.163149.1  RSN  4 0.5 1.7LRSN                1
 GAP=282        1.26       7.9    12.7 12.1  0.9866E+01 -0.3754E+02  0.8069E+01E
 Epicentro: ZAPATOCA - SANTANDER                                               3
 ACTION:UPD 14-09-15 21:49 OP:nd   STATUS:               ID:20140814015416 L   I
 OLDACT:REG 14-08-14 13:14 OP:cam  STATUS:               ID:20140814015000     3
 2014-08-14-0150-00M.COL___285                                                 6
 STAT SP IPHASW D HRMM SECON CODA AMPLIT PERI AZIMU VELO AIN AR TRES W  DIS CAZ7
 BRR  HZ EP        154 37.34                             155   -0.1910 66.8 295 
 BRR  HN ES        154 54.26                             155    0.1410 66.8 295 
 BRR  HZ I         154 57.60        11.2 0.14            152           66.8 295 
 PTB  HZ EP        154 42.84                             133   -0.61 9  147 256 
 PTB  HN ES        155  3.81                             133   -0.85 9  147 256 
 PTB  HZ I         155  5.91         3.9 0.18            133            147 256 
 SPBC HZ EP        154 45.30                             129   -0.05 9  167 217 
 SPBC HE ES        155  8.77                             129    0.72 9  167 217 
 ZAR  HZ EP        154 49.11                             124    0.60 9  200 291 
 ZAR  HN ES        155 14.11                             124    0.44 9  200 291 
 ZAR  HZ I         155 19.07         5.4 0.42            124            200 291 
                                                                                
