 2017  814 0516 18.9 L   6.510 -73.713 94.5  RSN  6 0.4 1.1LRSN                1
 GAP= 81        0.80       3.7     4.0  6.7  0.7444E+01  0.1274E+02  0.5233E+01E
 Epicentro: SANTA HELENA DEL OPON - SANTANDER                                  3
 ACTION:UPD 17-09-04 20:20 OP:rebc STATUS:               ID:20170814051618 L   I
 OLDACT:UP  17-08-14 14:09 OP:and  STATUS:               ID:20170814050741     3
 OLDACT:UP  17-08-14 14:08 OP:and  STATUS:               ID:20170814050741     3
 OLDACT:REG 17-08-14 13:10 OP:and  STATUS:               ID:20170814050741     3
 2017-08-14-0508-00M.COL___413                                                 6
 STAT SP IPHASW D HRMM SECON CODA AMPLIT PERI AZIMU VELO AIN AR TRES W  DIS CAZ7
 BAR2 EZ EP        516 34.05                             145   -0.2510 59.4  81 
 BAR2 EZ ES        516 46.20                             145   -0.0910 59.4  81 
 BAR2 EZ I         516 48.04         7.0 0.14            153           59.4  81 
 BRR  HZ IP   2 C  516 33.63                             142   -0.81 5 66.0   0 
 BRR  HE ES        516 46.44                             142   -0.1110 66.0   0 
 BRR  HZ I         516 52.30         3.0 0.12            143           66.0   0 
 RUS  HZ EP        516 37.76                             130   -0.0510 97.6 134 
 RUS  HN ES        516 52.94                             130    0.4110 97.6 134 
 RUS  HZ I         516 54.42         2.1 0.24            139           97.6 134 
 SPBC HZ EP   9    516 37.16                             129   -0.60 0  103 203 
 SPBC HN ES        516 51.48                             128   -0.3710  103 203 
 SPBC HZ I         516 53.82         3.4 0.14            133            103 203 
 NOR  HZ EP   2    516 44.72                             115    0.44 5  165 231 
 NOR  HN ES   2    517  3.23                             115   -0.82 5  165 231 
 NOR  HZ I         517  5.69         2.3 0.18            118            165 231 
 ZAR  HZ EP        516 44.35                             115   -0.03 9  167 311 
 ZAR  HN ES        517  4.71                             115    0.48 9  167 311 
 ZAR  HZ I         517 12.93         2.9 0.40            116            167 311 
                                                                                
