 2014 1014 0513 10.7 L   6.786 -73.136146.1  RSN 11 0.4 2.1LRSN                1
 GAP=138        0.99       2.7     4.4  6.0  0.2513E+00  0.2531E+01  0.3966E-01E
 Epicentro: LOS SANTOS - SANTANDER                                             3
 ACTION:UPD 14-11-29 23:49 OP:nd   STATUS:               ID:20141014051310 L   I
 OLDACT:UP  14-10-14 16:10 OP:spq  STATUS:               ID:20141014050747     3
 OLDACT:REG 14-10-14 12:35 OP:mh   STATUS:               ID:20141014050747     3
 2014-10-14-0507-47M.COL___283                                                 6
 STAT SP IPHASW D HRMM SECON CODA AMPLIT PERI AZIMU VELO AIN AR TRES W  DIS CAZ7
 BAR2 SZ EP   1    513 30.60                             171    0.23 7 22.1 193 
 BAR2 SZ ES   1    513 45.29                             171   -0.41 7 22.1 193 
 BAR2 SZ I         513 46.74        34.7 0.20            171           22.1 193 
 BRR  HZ IP     C  513 32.55                             152    0.5510 72.8 299 
 BRR  HN ES        513 49.06                             152    0.4610 72.8 299 
 BRR  HZ I         513 52.04        19.2 0.34            150           72.8 299 
 PAM  SZ EP     C  513 33.62                             151    0.6110 77.9  38 
 PAM  SN ES   1    513 50.39                             151    0.00 7 77.9  38 
 PAM  SZ I         513 53.17        30.9 0.50            152           77.9  38 
 RUS  HZ EP        513 34.30                             144   -0.1010 99.0 177 
 RUS  HN ES        513 52.48                             144   -0.3810 99.0 177 
 RUS  HZ I         513 53.87         9.9 0.32            146           99.0 177 
 PTB  HZ EP        513 37.27                             132   -0.52 9  149 259 
 PTB  HN ES        513 58.40                             132   -0.50 9  149 259 
 PTB  HZ I         514  0.33        11.0 0.18            132            149 259 
 OCA  HZ EP        513 38.60                             129   -0.61 9  162 353 
 OCA  HN ES        514  1.33                             129   -0.11 9  162 353 
 OCA  HZ I         514  7.95        11.4 0.29            130            162 353 
 SPBC HZ EP        513 39.39                             129    0.19 9  163 220 
 SPBC HN ES   1    514  1.94                             129    0.52 7  163 220 
 SPBC HZ I         514  4.61         8.9 0.20            130            163 220 
 ZAR  HZ EP   1    513 43.44                             122    0.09 6  206 292 
 ZAR  HN ES        514  9.20                             122    0.40 8  206 292 
 ZAR  HZ I         514 15.04        15.3 0.56            122            206 292 
 SML  HZ EP   1    513 47.06                             117   -0.50 6  246 335 
 SML  HN ES        514 15.91                             117   -0.39 8  246 335 
 SML  HZ I         514 21.71        15.2 0.10            118            246 335 
 CHI  HZ EP        513 48.82                             117    0.51 8  247 195 
 CHI  HN ES        514 17.37                             117   -0.27 8  247 195 
 CHI  HZ I         514 21.47         3.6 0.32            118            247 195 
 TOL  SN ES   4    514 38.16                             109    1.58 0  343 225 
 TOL  SZ I         514 42.97         9.8 0.06            110            343 225 
 SJC  HZ EP   4    514  4.19                             106   -2.32 0  411 327 
 SJC  HN ES   4    514 43.32                             106   -6.71 0  411 327 
                                                                                
