 2016  214 0634 37.1 L   6.643 -73.237138.0  RSN  4 0.4 1.0LRSN                1
 GAP=195        0.93       8.6     6.6  8.0  0.3528E+02  0.9667E+01 -0.1431E+02E
 Epicentro: BARICHARA - SANTANDER                                              3
 ACTION:UPD 16-03-04 21:26 OP:rebc STATUS:               ID:20160214063437 L   I
 OLDACT:UP  16-02-14 18:14 OP:ak   STATUS:               ID:20160214062739     3
 OLDACT:REG 16-02-14 14:39 OP:ak   STATUS:               ID:20160214062739     3
 2016-02-14-0627-39M.COL___292                                                 6
 STAT SP IPHASW D HRMM SECON CODA AMPLIT PERI AZIMU VELO AIN AR TRES W  DIS CAZ7
 BAR2 EZ EP        634 55.09                             176   -0.4910 8.25 133 
 BAR2 EZ ES        635 10.26                             176    0.2710 8.25 133 
 BAR2 EZ I         635 11.40         1.5 0.12            174           8.25 133 
 RUS  HZ EP        634 58.93                             147   -0.0410 84.7 168 
 RUS  HN ES        635 16.10                             147    0.0710 84.7 168 
 RUS  HZ I         635 18.46         1.1 0.24            149           84.7 168 
 PTB  HZ EP        635  2.10                             133   -0.21 9  135 265 
 PTB  HN ES        635 22.04                             133    0.06 9  135 265 
 PTB  HZ I         635 27.12         1.2 0.23            132            135 265 
 ZAR  HZ EP        635  9.69                             121    0.83 9  202 298 
 ZAR  HE ES        635 33.24                             121   -0.39 9  202 298 
 ZAR  HZ I         635 39.86         2.4 0.27            122            202 298 
                                                                                
