 2010  514 0911 54.7 L   6.729 -73.074146.6  RSN  6 0.3 1.6LRSN                1
 GAP=167        0.55       3.4     6.1  5.6 -0.7101E+01 -0.4339E+01  0.3875E+01E
 Epicentro: JORDAN - SANTANDER                                                 3
 ACTION:UP  10-08-24 10:04 OP:vdl  STATUS:               ID:20100514091154 L   I
 2010-05-14-0909-41S.COL___105                                                 6
 STAT SP IPHASW D HRMM SECON CODA AMPLIT PERI AZIMU VELO AIN AR TRES W  DIS CAZ7
 BAR2 SZ EP   2    912 13.89                             172    -0.5 5   19 219 
 BAR2 SZ ES   2    912 29.84                             172     0.2 5   19 219 
 BRR  HZ EP   1    912 16.59                             149     0.0 8   82 301 
 BRR  HN ES   1    912 33.60                             149     0.0 8   82 301 
 BRR  HZ I         912 36.15         6.6 0.36                            82 301 
 RUS  HZ EP   1    912 17.67                             146    -0.3 8   93 181 
 RUS  HE ES   2    912 36.32                             146     0.2 5   93 181 
 GRA  SZ IP        912 20.75                             136     0.310  131  13 
 GRA  SZ ES   1    912 40.38                             136    -0.2 7  131  13 
 HEL  HZ EP   2    912 35.37                             114    -0.2 4  278 258 
 HEL  HZ I         913 13.68         1.5 0.50                           278 258 
 PRA  HZ EP   1    912 47.70                             107    -0.2 5  389 211 
 PRA  HE ES   2    913 30.41                             107     1.0 3  389 211 
 PRA  HZ I         913 36.32         2.4 0.24                           389 211 
                                                                                
