 2012  114 0227 32.2 L   6.809 -73.107151.0  RSN 10 0.3 1.9LRSN                1
 GAP=141        0.49       3.6     3.8  5.5 -0.7085E+00  0.3265E+01  0.7377E+01E
 Epicentro: LOS SANTOS - SANTANDER                                             3
 ACTION:UP  12-02-03 08:17 OP:REBC STATUS:               ID:20120114022732 L   I
 2012-01-14-0220-00M.COL___187                                                 6
 STAT SP IPHASW D HRMM SECON CODA AMPLIT PERI AZIMU VELO SNR AR TRES W  DIS CAZ7
 BAR2 SZ EP   1    227 52.32                             170    -0.1 7   25 199 
 BAR2 SZ ES   2    228  8.13                             170    -0.2 5   25 199 
 BAR2 SZ I         228 10.14        21.2 0.33                            25 199 
 GIR2 SZ EP   2    227 52.39                             168    -0.1 5   31 342 
 GIR2 SZ ES   2    228  8.40                             168     0.1 5   31 342 
 PAM  SZ EP   2    227 54.93                             153     0.2 5   74  37 
 PAM  SN ES   2    228 12.58                             153     0.2 5   74  37 
 BRR  HZ EP   1    227 54.24                             152     0.2 7   75 296 
 BRR  HE ES   2    228 11.35                             152     0.2 5   75 296 
 BRR  HZ I         228 14.80        14.6 0.29                            75 296 
 RUS  HZ EP   1    227 56.33                             145    -0.2 7  101 179 
 RUS  HE ES   2    228 15.34                             145    -0.1 5  101 179 
 RUS  HZ I         228 16.22         9.6 0.25                           101 179 
 PTB  HZ EP   2    227 59.21                             132    -0.7 5  152 259 
 PTB  HN ES   2    228 21.10                             132    -0.5 5  152 259 
 ZAR  HE ES   2    228 31.23                             123     0.0 4  208 291 
 ZAR  HZ I         228 41.61         7.6 0.15                           208 291 
 NOR  SN ES   2    228 37.76                             119     0.7 4  239 235 
 CHI  HZ EP   1    228 10.60                             118     0.2 6  251 196 
 CHI  HZ I         228 10.96         3.8 0.18                           251 196 
 CHI  HE ES   2    228 40.47                             118     0.3 4  251 196 
 RREF HN ES   2    228 55.78                             111     0.3 3  326 230 
                                                                                
