 2015 1014 0312 25.5 L   6.816 -73.104144.2  RSN 13 0.6 1.9LRSN                1
 GAP= 73        1.45       3.8     4.7  7.2 -0.1435E+01  0.1055E+02  0.1007E+01E
 Epicentro: LOS SANTOS - SANTANDER                                             3
 ACTION:UPD 15-12-22 20:39 OP:cam  STATUS:               ID:20151014031225 L   I
 OLDACT:DUP 15-10-14 16:49 OP:stll STATUS:               ID:20151014030749d    3
 2015-10-14-0307-48M.COL___337                                                 6
 STAT SP IPHASW D HRMM SECON CODA AMPLIT PERI AZIMU VELO AIN AR TRES W  DIS CAZ7
 BAR2 EZ EP        312 44.99                             169   -0.0310 26.2 199 
 BAR2 EZ I         312 45.52        12.5 0.18            169           26.2 199 
 BAR2 EZ ES        312 59.81                             169   -0.4210 26.2 199 
 PAM  EZ EP        312 47.57                             152    0.2510 73.2  38 
 PAM  EN ES        313  4.57                             152    0.2510 73.2  38 
 PAM  EZ I         313  7.16        10.7 0.48            154           73.2  38 
 BRR  HZ EP        312 46.88                             151    0.1910 74.5 296 
 BRR  HN ES        313  4.19                             151    0.9910 74.5 296 
 BRR  HZ I         313  6.57         9.2 0.16            150           74.5 296 
 RUS  HZ EP        312 48.86                             143   -0.3710  102 179 
 RUS  HZ I         312 49.77         5.3 0.42            145            102 179 
 RUS  HN ES        313  7.34                             143   -0.3710  102 179 
 TAM  HZ EP        312 53.08                             131    0.37 9  151 106 
 TAM  HZ I         312 53.56        13.6 0.46            135            151 106 
 TAM  HN ES        313 14.42                             131    0.51 9  151 106 
 OCA  HZ EP        312 53.92                             129    0.32 9  159 351 
 OCA  HN ES        313 15.17                             129   -0.34 9  159 351 
 OCA  HZ I         313 21.01        19.1 0.24            131            159 351 
 SPBC HZ EP        312 54.00                             128   -0.30 9  167 220 
 SPBC HN ES        313 16.15                             128   -0.60 9  167 220 
 SPBC HZ I         313 22.96        18.6 0.38            129            167 220 
 ZAR  HZ EP        312 57.92                             121   -0.32 8  208 291 
 SML  HZ EP        313  1.67                             117   -0.43 8  244 334 
 SML  HN ES        313 29.15                             117   -1.48 8  244 334 
 SML  HZ I         313 34.70        13.5 0.10            118            244 334 
 CHI  HZ EP        313  2.93                             116   -0.52 8  252 196 
 CHI  HN ES        313 32.09                             116   -0.94 8  252 196 
 CHI  HZ I         313 36.31         3.3 0.36            118            252 196 
 HEL  HZ EP        313  6.41                             114    0.22 7  277 256 
 HEL  HN ES        313 38.40                             114    0.49 7  277 256 
 HEL  HZ I         313 45.63         3.9 0.26            115            277 256 
 GUY2CHZ EP        313 10.84                             112    1.25 7  306 235 
 GUY2CHN ES        313 45.40                             112    1.44 7  306 235 
 GUY2CHZ I         313 52.15         5.0 0.64                           306 235 
 CBOC HZ EP        313 13.15                             109    0.22 7  338 252 
 CBOC HZ I         313 13.58         2.0 0.18            110            338 252 
 SJC  HZ EP   4    313 19.30                             105   -1.86 0  410 326 
 SJC  HN ES   4    313 58.91                             105   -5.64 0  410 326 
                                                                                
