 2012  214 0038 52.6 L   6.724 -73.140150.8  RSN  6 0.3 1.9LRSN                1
 GAP=141        0.59       5.2     4.6  6.0  0.3121E+01  0.2012E+01  0.1663E+01E
 ACTION:UP  12-03-07 16:30 OP:epov STATUS:               ID:20120214003852 L   I
 2012-02-14-0029-59S.COL___187                                                 6
 STAT SP IPHASW D HRMM SECON CODA AMPLIT PERI AZIMU VELO AIN AR TRES W  DIS CAZ7
 BAR2 SZ EP   1    039 12.68                             174   -0.01 7 15.3 198 
 BAR2 SZ ES   1    039 28.12                             174   -0.25 7 15.3 198 
 BAR2 SZ I         039 28.66        18.4 0.27                          15.3 198 
 BRR  HZ EP   1    039 14.71                             152    0.16 7 76.1 304 
 BRR  HZ I         039 16.25        16.5 0.12                          76.1 304 
 BRR  HE ES   1    039 32.17                             152    0.48 7 76.1 304 
 PAM  SZ EP   1    039 15.74                             150    0.03 7 83.7  36 
 PAM  SN ES   2    039 33.20                             150   -0.55 5 83.7  36 
 RUS  HZ EP   1    039 16.40                             147    0.15 7 92.2 176 
 RUS  HN ES   2    039 35.11                             147    0.39 5 92.2 176 
 RUS  HZ I         039 36.44        13.9 0.37                          92.2 176 
 PTB  HZ EP   1    039 19.61                             133   -0.28 7  147 262 
 PTB  HN ES   2    039 40.46                             133   -0.74 5  147 262 
 ZAR  HN ES   2    039 51.75                             123    0.12 4  208 294 
                                                                                
