 2010  714 0250 48.9 L   6.795 -73.090149.1  RSN 12 0.4 2.9LRSN                1
 GAP=162        0.90       3.6     6.0  6.2 -0.9004E+01  0.1027E+02  0.4642E+00E
 Epicentro: LOS SANTOS - SANTANDER                                             3
 ACTION:UPD 10-12-01 15:17 OP:pat  STATUS:               ID:20100714025048 L   I
 2010-07-14-0248-24S.COL___120                                                 6
 STAT SP IPHASW D HRMM SECON CODA AMPLIT PERI AZIMU VELO AIN AR TRES W  DIS CAZ7
 BAR2 SZ IP        251  8.94                             170     0.010   25 205 
 BAR2 SZ ES   1    251 24.26                             170    -0.3 7   25 205 
 BAR2 SZ I         251 26.72       194.6 0.34                            25 205 
 GIR2 SZ EP   2    251  9.12                             167     0.1 5   33 340 
 BRR  HZ IP     D  251 10.81                             151     0.110   77 297 
 BRR  HE ES   1    251 27.33                             151    -0.4 7   77 297 
 BRR  HZ I         251 31.75       101.1 0.21                            77 297 
 RUS  HZ IP     C  251 12.88                             145     0.010  100 180 
 RUS  HE ES   1    251 31.76                             145     0.1 7  100 180 
 RUS  HZ I         251 33.04        77.6 0.32                           100 180 
 BRI  SZ IP        251 12.52                             142    -0.410  107  18 
 BRI  SZ ES   1    251 31.84                             142     0.1 7  107  18 
 BRI  SZ I         251 36.20        72.1 0.46                           107  18 
 GUE  SZ EP   1    251 12.93                             140    -0.9 7  116   9 
 GRA  SZ IP        251 14.80                             138     0.510  125  15 
 GRA  SZ ES   1    251 34.72                             138     0.6 7  125  15 
 GRA  SZ I         251 38.99        63.1 0.37                           125  15 
 OCA  SZ EP   1    251 17.71                             130     0.1 7  162 351 
 OCA  SZ ES   1    251 40.11                             130     0.2 7  162 351 
 OCA  SZ I         251 43.94        80.6 0.37                           162 351 
 HEL  HZ EP   1    251 29.92                             115     0.0 6  278 256 
 HEL  HE ES   2    252  2.73                             115     0.8 4  278 256 
 HEL  HZ I         252  9.42        56.4 0.36                           278 256 
 RREF HZ EP   1    251 36.32                             111     0.7 5  326 230 
 RREF HE ES   1    252 12.23                             111     0.1 5  326 230 
 RREF HZ I         252 23.31        42.5 0.33                           326 230 
 DBB  SZ IP        251 36.67                             110    -0.5 6  346 274 
 PRA  HZ EP   1    251 42.53                             107    -0.3 4  395 210 
 PRA  HE ES   1    252 25.09                             107     0.2 4  395 210 
 PRA  HZ I         252 31.17        51.2 0.32                           395 210 
                                                                                
