 2011  114 0025 51.9 L   6.811 -73.157136.9  RSN 12 0.5 2.5LRSN                1
 GAP=135        1.03       3.9     6.7  8.7 -0.2661E+01  0.2395E+02 -0.5373E+00E
 Epicentro: LOS SANTOS - SANTANDER                                             3
 ACTION:UP  11-02-08 08:40 OP:pat  STATUS:               ID:20110114002551 L   I
 2011-01-14-0023-03S.COL___135                                                 6
 STAT SP IPHASW D HRMM SECON CODA AMPLIT PERI AZIMU VELO SNR AR TRES W  DIS CAZ7
 BTL  SZ EP        026  9.78                             173    -0.510   17 314 
 BAR2 SZ IP        026 10.70                             169     0.210   24 187 
 BAR2 SZ ES   1    026 25.34                             169     0.4 7   24 187 
 GIR2 SZ EP   1    026 10.77                             167     0.3 7   30 352 
 RUS  HZ EP   1    026 14.59                             141    -0.3 7  102 175 
 RUS  HN ES   1    026 32.63                             141    -0.2 7  102 175 
 RUS  HZ I         026 35.09        24.4 0.23                           102 175 
 GRA  SZ EP   1    026 16.59                             135     0.3 7  125  18 
 GRA  SZ I         026 38.16        65.6 0.41                           125  18 
 OCA  SZ EP   1    026 19.19                             128    -0.2 7  159 354 
 OCA  SZ ES   1    026 40.48                             128    -0.4 7  159 354 
 OCA  SZ I         026 44.20        49.9 0.31                           159 354 
 YOP  SZ EP   1    026 20.76                             124    -0.7 7  181 153 
 YOP  SN ES   1    026 45.55                             124     1.0 7  181 153 
 NOR  SZ EP   1    026 27.24                             117     0.1 6  235 234 
 NOR  SE ES   1    026 54.03                             117    -0.5 6  235 234 
 CHI  HZ EP   1    026 29.26                             115     0.1 6  250 195 
 CHI  HN ES   1    026 57.39                             115    -0.9 6  250 195 
 CHI  HZ I         027  4.41         8.5 0.46                           250 195 
 HEL  HZ EP   1    026 32.31                             113     0.8 6  271 255 
 HEL  HZ I         027 10.54        23.3 0.48                           271 255 
 RREF HZ EP   1    026 37.83                             109     0.2 5  322 229 
 RREF HN ES   1    027 13.75                             109     0.4 5  322 229 
 RREF HZ I         027 21.35        21.8 0.52                           322 229 
 DBB  SZ EP   1    026 39.37                             108     0.5 5  338 274 
                                                                                
