 2012 1114 0613 18.9 L   6.745 -73.165151.5  RSN  5 0.3 1.1LRSN                1
 GAP=137        0.69       5.2     4.9  7.0 -0.2964E+01  0.2384E+01  0.3467E+01E
 Epicentro: VILLANUEVA - SANTANDER                                             3
 ACTION:UPD 12-12-05 15:33 OP:}ep  STATUS:               ID:20121114061318 L   I
 2012-11-14-0610-00M.COL___230                                                 6
 STAT SP IPHASW D HRMM SECON CODA AMPLIT PERI AZIMU VELO AIN AR TRES W  DIS CAZ7
 BAR2 SZ EP   1    613 39.11                             173    0.04 7 17.0 187 
 BAR2 SZ ES   1    613 54.72                             173   -0.12 7 17.0 187 
 BAR2 SZ I         613 55.29         5.8 0.18                          17.0 187 
 BRR  HN ES   1    613 58.41                             153    0.67 7 72.5 304 
 PAM  SZ EP   1    613 42.26                             150    0.21 7 83.4  38 
 PAM  SE ES   1    613 59.66                             150   -0.47 7 83.4  38 
 PAM  SZ I         614  1.84         2.1 0.35                          83.4  38 
 RUS  HZ EP   1    613 42.87                             147    0.10 7 94.7 175 
 RUS  HN ES   1    614  1.55                             147    0.12 7 94.7 175 
 RUS  HZ I         614  2.68         1.3 0.26                          94.7 175 
 PTB  HZ EP   1    613 45.88                             134   -0.14 7  145 261 
 PTB  HN ES   1    614  6.73                             134   -0.48 7  145 261 
 PTB  HZ I         614  7.79         1.6 0.16                           145 261 
                                                                                
