 2011  814 0143  5.2 L   6.793 -73.105141.4  RSN  5 0.1 1.4LRSN                1
 GAP=142        0.35       2.1     3.5  3.4  0.1717E+00  0.5258E-01 -0.6185E+00E
 Epicentro: LOS SANTOS - SANTANDER                                             3
 ACTION:UPD 12-07-13 15:51 OP:ep   STATUS:               ID:20110814014305 L   I
 2011-08-14-0138-27S.COL___149                                                 6
 STAT SP IPHASW D HRMM SECON CODA AMPLIT PERI AZIMU VELO AIN AR TRES W  DIS CAZ7
 BAR2 SZ EP   1    143 24.04                             170   -0.28 7 23.8 201 
 BAR2 SZ ES   1    143 39.10                             170   -0.13 7 23.8 201 
 BAR2 SZ I         143 40.93         5.8 0.47                          23.8 201 
 PAM  SZ EP   1    143 27.03                             151    0.21 7 75.2  37 
 PAM  SZ I         143 34.15         1.8 0.48                          75.2  37 
 PAM  SN ES   1    143 43.69                             151    0.00 7 75.2  37 
 BRR  HZ EP        143 26.14                             150    0.0110 75.5 297 
 BRR  HZ I         143 35.69        11.9 0.54                          75.5 297 
 BRR  HN ES   1    143 42.60                             150    0.14 7 75.5 297 
 RUS  HZ EP   1    143 28.50                             143    0.04 7 99.6 179 
 RUS  HZ I         143 29.27         2.7 0.26                          99.6 179 
 RUS  HE ES   2    143 46.80                             143    0.20 5 99.6 179 
 OCA  SZ EP   1    143 33.25                             128   -0.05 7  162 352 
 OCA  SZ ES   1    143 55.16                             128   -0.06 7  162 352 
 OCA  SZ I         143 58.17         4.5 0.25                           162 352 
                                                                                
