 2011  614 0323 44.5 L   6.750 -73.078142.0  RSN  9 0.3 1.8LRSN                1
 GAP=164        0.73       4.6     6.8  6.4 -0.3248E+01 -0.7307E+01 -0.5642E+01E
 Epicentro: LOS SANTOS - SANTANDER                                             3
 ACTION:UP  11-07-14 19:05 OP:ep   STATUS:               ID:20110614032344 L   I
 2011-06-14-0320-00M.COL___122                                                 6
 STAT SP IPHASW D HRMM SECON CODA AMPLIT PERI AZIMU VELO SNR AR TRES W  DIS CAZ7
 BAR2 SZ EP        324  3.67                             171     0.110   21 213 
 BAR2 SZ ES        324 18.10                             171    -0.410   21 213 
 BAR2 SZ I         324 20.96        13.2 0.40                            21 213 
 BTL  SZ EP        324  4.08                             168     0.310   28 312 
 BRR  HZ EP        324  5.54                             148    -0.210   80 299 
 BRR  HN ES        324 22.63                             148     0.210   80 299 
 BRR  HZ I         324 23.67        16.3 0.11                            80 299 
 RUS  HN ES   2    324 25.91                             144     0.5 5   95 180 
 RUS  HZ I         324 28.25        10.4 0.30                            95 180 
 BRI  SZ EP   1    324  8.43                             140     0.2 7  111  16 
 BRI  SZ I         324 28.46         7.5 0.30                           111  16 
 GRA  SZ EP   2    324  9.26                             135    -0.4 5  129  14 
 GRA  SZ ES   2    324 29.17                             135    -0.1 5  129  14 
 GRA  SZ I         324 30.40        17.2 0.21                           129  14 
 OCA  SZ EP   2    324 13.48                             127     0.4 5  167 351 
 OCA  SZ ES   2    324 35.06                             127    -0.4 5  167 351 
 OCA  SZ I         324 39.45         7.7 0.35                           167 351 
 NOR  SN ES   2    324 47.94                             117    -0.3 4  238 237 
 PRA  HZ EP   2    324 37.68                             106    -0.1 3  391 211 
                                                                                
