 2016  514 0346 17.3 L   6.810 -73.144145.6  RSN 22 0.5 2.2LRSN                1
 GAP= 71        1.01       2.7     2.8  4.8 -0.7245E+00  0.4226E+01  0.2149E+01E
 Epicentro: LOS SANTOS - SANTANDER                                             3
 ACTION:UPD 16-08-18 17:45 OP:cam  STATUS:               ID:20160514034617 L   I
 OLDACT:REG 16-05-14 13:38 OP:ak   STATUS:               ID:20160514033746     3
 2016-05-14-0337-46M.COL___301                                                 6
 STAT SP IPHASW D HRMM SECON CODA AMPLIT PERI AZIMU VELO AIN AR TRES W  DIS CAZ7
 BAR2 EZ EP     D  346 37.04                             170    0.0810 24.4 190 
 BAR2 EZ ES        346 52.37                             170    0.0910 24.4 190 
 BAR2 EZ I         346 54.83        38.9 0.28            167           24.4 190 
 BRR  HZ IP     D  346 38.81                             153    0.3710 70.8 298 
 BRR  HN ES        346 55.65                             153    0.7410 70.8 298 
 BRR  HZ I         346 59.96        31.1 0.21            148           70.8 298 
 PAM  EZ EP   2    346 40.03                             151    0.56 5 76.5  40 
 PAM  EN ES        346 57.16                             151    0.4110 76.5  40 
 PAM  EZ I         346 57.86        20.6 0.36            152           76.5  40 
 RUS  HZ EP        346 40.93                             143   -0.2110  102 176 
 RUS  HN ES        346 59.76                             143    0.0510  102 176 
 PTB  HZ EP        346 43.34                             132   -0.97 9  148 258 
 PTB  HE ES        347  4.51                             132   -0.85 9  148 258 
 PTB  HZ I         347 11.98        13.9 0.16            128            148 258 
 TAM  HZ EP   2    346 45.25                             130    0.25 5  155 105 
 TAM  HE ES        347  6.19                             130   -0.40 9  155 105 
 OCA  HZ EP        346 45.24                             130   -0.29 9  159 353 
 OCA  HN ES        347  7.09                             130   -0.43 9  159 353 
 OCA  HZ I         347 10.64        26.9 0.16            128            159 353 
 SPBC HZ EP        346 45.88                             129   -0.02 9  164 219 
 SPBC HN ES        347  7.95                             129   -0.24 9  164 219 
 SPBC HZ I         347 12.85        23.8 0.30            126            164 219 
 ZAR  HZ EP        346 49.85                             122    0.12 9  204 292 
 ZAR  HN ES        347 14.70                             122   -0.31 9  204 292 
 ZAR  HZ I         347 23.94        18.9 0.26            119            204 292 
 NOR  HZ EP        346 53.23                             118    0.11 8  235 234 
 NOR  HE ES        347 20.96                             118   -0.09 8  235 234 
 NOR  HZ I         347 28.55        12.4 0.24            116            235 234 
 CHI  HZ EP        346 55.39                             117    0.26 8  250 195 
 CHI  HN ES        347 24.27                             117   -0.35 8  250 195 
 CHI  HZ I         347 28.10        10.9 0.50            115            250 195 
 ROSC BZ EP   9    346 58.01                             117    2.47 0  254 211 
 ROSC BN ES        347 27.06                                   -0.76 8  254 211 
 ROSC BZ I         347 33.21        23.2 0.65            114            254 211 
 HEL  HZ EP   2    346 58.18                             115    0.61 4  272 256 
 HEL  HE ES        347 29.86                             115    0.89 8  272 256 
 HEL  HZ I         347 35.43         7.6 0.38            112            272 256 
 PTGC HZ EP   4    347  0.17                             111   -1.11 0  310 159 
 PTGC HN ES   4    347 33.40                             111   -2.16 0  310 159 
 PTGC HZ I         347 40.07         8.1 0.36            110            310 159 
 ELA  HE ES        347 41.44                             110    0.57 7  330 229 
 CBOC HZ EP        347  4.90                             110    0.61 7  334 252 
 CBOC HN ES        347 40.57                             110   -0.35 7  334 252 
 CBOC HZ I         347 49.21         2.5 0.52            108            334 252 
 DBB  SZ EP   2    347  5.44                             109    0.64 3  340 274 
 DBB  SZ ES        347 41.61                             109   -0.23 7  340 274 
 ANIL HZ EP   9    347  8.83                             108    1.61 0  358 224 
 ANIL HN ES        347 48.15                                    0.40 6  358 224 
 PRA  HZ EP        347 10.87                             106   -0.09 6  393 210 
 PRA  HN ES        347 52.43                             106   -0.36 6  393 210 
 PRA  HZ I         347 57.28         7.8 0.42            105            393 210 
 ORTC HZ EP   2    347 12.24                             106    0.89 3  396 216 
 ORTC HN ES        347 54.48                             106    0.99 6  396 216 
 ORTC HZ I         347 58.43         5.8 0.24            105            396 216 
 PAL  HZ EP        347 12.53                             106   -0.03 6  406 239 
 PAL  HZ I         348  0.51         2.8 0.22            104            406 239 
 SJC  HZ EP   9    347 11.03                             106   -1.75 0  408 327 
 SJC  HE ES        347 53.80                                   -0.49 6  408 327 
 SJC  HZ I         348  4.51         2.9 0.43            104            408 327 
 CRJC HZ EP   4    347 17.61                             103   -2.08 0  467   4 
                                                                                
