 2017  614 0840  1.3 L   6.850 -73.090148.0  RSN  8 0.4 1.8LRSN                1
 GAP=264        0.76       3.5     5.5  5.9  0.1635E+01 -0.8546E+01  0.4022E+01E
 Epicentro: LOS SANTOS - SANTANDER                                             3
 ACTION:UPD 17-09-14 16:52 OP:jn   STATUS:               ID:20170614084001 L   I
 OLDACT:UP  17-06-14 17:26 OP:ar   STATUS:               ID:20170614083734     3
 OLDACT:REG 17-06-14 13:34 OP:ar   STATUS:               ID:20170614083734     3
 2017-06-14-0838-00M.COL___353                                                 6
 STAT SP IPHASW D HRMM SECON CODA AMPLIT PERI AZIMU VELO AIN AR TRES W  DIS CAZ7
 BRR  HZ IP     C  840 23.02                             152    0.1110 74.4 293 
 BRR  HN ES        840 40.16                             152    0.4310 74.4 293 
 BRR  HZ I         840 40.70        10.1 0.12            145           74.4 293 
 PTB  HZ EP   9    840 28.01                             132   -1.13 0  155 257 
 PTB  HE ES        840 49.90                                    0.21 9  155 257 
 PTB  HZ I         840 51.40         6.2 0.12            126            155 257 
 SPBC HZ EP        840 30.55                             129   -0.23 9  171 219 
 SPBC HE ES        840 53.60                             129   -0.15 9  171 219 
 SPBC HZ I         841  1.42         8.5 0.10            124            171 219 
 ZAR  HZ EP        840 33.65                             123   -0.66 8  208 290 
 ZAR  HN ES        840 59.66                             123   -0.37 8  208 290 
 ZAR  HZ I         841  5.11         9.6 0.50            120            208 290 
 NOR  HZ EP        840 38.04                             118   -0.04 8  243 234 
 NOR  HN ES        841  6.74                             118    0.01 8  243 234 
 NOR  HZ I         841 13.36         5.4 0.16            115            243 234 
 CHI  HZ EP        840 40.21                             117    0.30 8  256 196 
 CHI  HN ES        841  9.79                             117   -0.22 8  256 196 
 CHI  HZ I         841 14.90         2.0 0.24            115            256 196 
 HEL  HZ EP   2    840 43.14                             115    0.67 4  279 255 
 HEL  HN ES   4    841 17.40                             115    2.84 0  279 255 
 HEL  HZ I         841 20.79         3.9 0.32            112            279 255 
 CBOC HZ EP        840 49.85                             110    0.64 7  341 252 
 CBOC HN ES        841 26.79                             110    0.24 7  341 252 
 CBOC HZ I         841 35.65         1.2 0.46            108            341 252 
                                                                                
