 2013  514 0257 42.0 L   6.139 -73.468134.1  RSN  9 0.5 1.9LRSN                1
 GAP= 90        1.21       4.1     4.7  7.6 -0.1788E+01  0.1438E+02  0.2910E+01E
 Epicentro: SUAITA - SANTANDER                                                 3
 ACTION:UPD 13-06-20 09:50 OP:ep   STATUS:               ID:20130514025742 L   I
 OLDACT:UP  13-05-20 05:58 OP:CAM  STATUS:               ID:20130514025742 L   3
 2013-05-14-0250-00M.COL___256                                                 6
 STAT SP IPHASW D HRMM SECON CODA AMPLIT PERI AZIMU VELO AIN AR TRES W  DIS CAZ7
 RUS  HZ EP        258  1.59                             158    0.0410 50.6 123 
 RUS  HE ES        258 16.38                             158   -0.4010 50.6 123 
 RUS  HZ I         258 17.80         5.8 0.36            164           50.6 123 
 BAR2 SZ EP        258  1.55                             155   -0.0510 59.2  32 
 BAR2 SZ ES        258 17.04                             155    0.1810 59.2  32 
 BAR2 SZ I         258 18.14        18.8 0.14            158           59.2  32 
 BRR  HZ EP        258  5.04                             138    0.3110  110 346 
 BRR  HE ES        258 23.33                             138    0.8810  110 346 
 BRR  HZ I         258 29.86         6.3 0.25            139            110 346 
 PTB  HZ EP        258  5.10                             136   -0.2910  118 292 
 PTB  HN ES        258 22.87                             136   -0.7410  118 292 
 PTB  HZ I         258 25.56        14.7 0.16            136            118 292 
 NOR  HZ EP        258 10.65                             125    0.60 9  168 248 
 NOR  HN ES        258 32.16                             125    0.24 9  168 248 
 NOR  HZ I         258 35.78        10.2 0.14            126            168 248 
 ZAR  HE ES   1    258 40.46                             118    0.01 6  214 314 
 ZAR  HZ I         258 45.42         9.0 0.34            120            214 314 
 HEL  HZ EP        258 17.46                             117    0.67 8  228 272 
 HEL  HN ES        258 43.85                             117   -0.06 8  228 272 
 HEL  HZ I         258 51.44         5.0 0.26            118            228 272 
 SML  HZ EP        258 23.80                             110   -0.78 7  302 347 
 SML  HE ES        258 56.84                             110   -0.94 7  302 347 
 PRA  HZ EP        258 26.07                             109    0.39 7  311 210 
 PRA  HN ES        258 59.00                             109   -0.74 7  311 210 
 PRA  HZ I         259  6.28         9.7 0.32            111            311 210 
                                                                                
