 2016  714 0700 20.2 L   6.103 -73.767115.9  RSN  5 0.5 1.2LRSN                1
 GAP=164        0.93       5.2     5.2 10.0 -0.5393E+01  0.1513E+02 -0.1718E+02E
 Epicentro: EL PENON - SANTANDER                                               3
 ACTION:UPD 17-03-29 16:50 OP:lp   STATUS:               ID:20160714070020 L   I
 OLDACT:UP  16-07-14 16:18 OP:dani STATUS:               ID:20160714065759     3
 OLDACT:UP  16-07-14 16:18 OP:dani STATUS:               ID:20160714065759     3
 OLDACT:UP  16-07-14 16:18 OP:dani STATUS:               ID:20160714065759     3
 OLDACT:REG 16-07-14 12:47 OP:dani STATUS:               ID:20160714065759     3
 2016-07-14-0657-59S.COL___322                                                 6
 STAT SP IPHASW D HRMM SECON CODA AMPLIT PERI AZIMU VELO AIN AR TRES W  DIS CAZ7
 SPBC HZ EP        7 0 37.43                             150   -0.2210 60.3 214 
 SPBC HN ES        7 0 51.16                             150   -0.0910 60.3 214 
 SPBC HZ I         7 0 52.47         3.5 0.22            154           60.3 214 
 BAR2 EZ EP        7 0 39.82                             141    0.3310 84.3  50 
 BAR2 EZ ES        7 0 54.47                             141   -0.0710 84.3  50 
 BAR2 EZ I         7 0 55.64         9.2 0.26            146           84.3  50 
 PTB  HZ EP        7 0 39.44                             139   -0.2110 90.3 302 
 PTB  HE ES   2    7 0 56.09                             139    1.27 5 90.3 302 
 PTB  HZ I         7 0 59.45         1.9 0.48            140           90.3 302 
 ZAR  HE ES        7 1 12.75                             116   -0.38 9  195 322 
 GUY2CHZ EP   2    7 0 52.45                             115    1.18 4  202 241 
 GUY2CHN ES   4    7 1 17.91                             115    2.41 0  202 241 
 GUY2CHZ I         7 1 23.45         1.2 0.50                           202 241 
                                                                                
