 2014  714 0223 32.8 L   6.711 -73.158150.8  RSN  5 0.3 1.3LRSN                1
 GAP=197        0.65       5.1     5.1  6.7 -0.3074E+01  0.5056E+01  0.1477E+01E
 Epicentro: VILLANUEVA - SANTANDER                                             3
 ACTION:UPD 15-03-16 20:43 OP:nd   STATUS:               ID:20140714022332 L   I
 OLDACT:UP  14-07-28 10:52 OP:CAM  STATUS:               ID:20140714022332 L   3
 OLDACT:REG 14-07-14 12:55 OP:fm   STATUS:               ID:20140714021812     3
 2014-07-14-0218-12M.COL___253                                                 6
 STAT SP IPHASW D HRMM SECON CODA AMPLIT PERI AZIMU VELO AIN AR TRES W  DIS CAZ7
 BAR2 SZ EP   1    223 52.89                             175   -0.00 7 13.4 191 
 BAR2 SZ ES   1    224  8.13                             175   -0.43 7 13.4 191 
 BAR2 SZ I         224  9.67         5.7 0.18            175           13.4 191 
 BRR  HZ EP   1    223 55.04                             152    0.31 7 75.2 306 
 BRR  HN ES        224 12.25                             152    0.4210 75.2 306 
 BRR  HZ I         224 17.96         5.1 0.38            151           75.2 306 
 PTB  HZ EP        223 59.94                             134    0.01 9  145 263 
 PTB  HN ES        224 20.97                             134   -0.11 9  145 263 
 PTB  HZ I         224 24.07         1.5 0.12            136            145 263 
 OCA  HN ES   1    224 25.21                             129   -0.30 7  170 354 
 ZAR  HN ES   1    224 31.29                             123   -0.34 6  207 295 
                                                                                
