 2013  414 0215 24.1 L   6.818 -73.187143.8  RSN  9 0.5 2.0LRSN                1
 GAP=131        1.25       4.6     5.4  6.8 -0.7259E+01  0.3778E+01 -0.5857E+01E
 Epicentro: ZAPATOCA - SANTANDER                                               3
 ACTION:UPD 13-05-22 14:38 OP:EP   STATUS:               ID:20130414021524 L   I
 2013-04-14-0208-48M.COL___215                                                 6
 STAT SP IPHASW D HRMM SECON CODA AMPLIT PERI AZIMU VELO AIN AR TRES W  DIS CAZ7
 BAR2 SZ ES        215 58.28                             170   -0.4210 24.9 179 
 BAR2 SZ I         215 59.27        14.7 0.36            171           24.9 179 
 GIR2 SZ EP        215 43.66                             168    0.1610 28.9 358 
 GIR2 SZ ES        215 58.87                             168    0.2610 28.9 358 
 BRR  HZ IP        215 45.14                             154    0.3510 66.3 299 
 BRR  HN ES        216  1.89                             154    0.9810 66.3 299 
 BRR  HN I         216  5.66        34.1 0.16            151           66.3 299 
 PAM  SZ EP        215 46.25                             150    0.0310 78.9  43 
 PAM  SN ES        216  3.27                             150   -0.1910 78.9  43 
 PAM  SN I         216  4.17        30.4 0.46            153           78.9  43 
 RUS  HZ EP        215 47.94                             143    0.0910  103 174 
 RUS  HN ES        216  6.25                             143   -0.1110  103 174 
 RUS  HN I         216  7.56         3.8 0.22            145            103 174 
 PTB  HZ EP        215 50.42                             132   -0.15 9  144 258 
 PTB  HN ES        216 10.52                             132   -0.67 9  144 258 
 PTB  HN I         216 16.51        15.5 0.52            132            144 258 
 CAPV BZ EP        215 51.41                             131   -0.07 9  151  40 
 CAPV BZ ES        216 12.67                             131   -0.15 9  151  40 
 OCA  HZ EP        215 53.01                             130    0.96 9  158 355 
 OCA  HN ES        216 13.01                             130   -0.83 9  158 355 
 OCA  HN I         216 17.26        31.8 0.22            130            158 355 
 SML  HZ EP        215 59.72                             117   -0.53 8  240 336 
                                                                                
