 2013  114 0042 40.9 L   6.763 -73.178142.0  RSN 10 0.4 2.3LRSN                1
 GAP=231        0.77       5.0     6.3  5.9  0.1679E+02  0.1341E+02  0.7952E+01E
 Epicentro: VILLANUEVA - SANTANDER                                             3
 ACTION:UPD 13-02-15 09:14 OP:ep   STATUS:               ID:20130114004240 L   I
 2013-01-14-0040-00M.COL___241                                                 6
 STAT SP IPHASW D HRMM SECON CODA AMPLIT PERI AZIMU VELO AIN AR TRES W  DIS CAZ7
 BAR2 SZ EP   1    042 59.74                             172   -0.24 7 18.9 181 
 BAR2 SZ ES   1    043 14.42                             172   -0.45 7 18.9 181 
 BAR2 SZ I         043 15.81        93.9 0.22            154           18.9 181 
 BRR  HZ EP        043  1.59                             152    0.0310 70.2 303 
 BRR  HN ES   1    043 18.47                             152    0.77 7 70.2 303 
 BRR  HZ I         043 21.84        35.6 0.28            127           70.2 303 
 RUS  HZ EP   1    043  3.73                             144   -0.26 7 96.9 174 
 RUS  HN ES   1    043 22.30                             144    0.28 7 96.9 174 
 RUS  HZ I         043 23.34        27.3 0.32            116           96.9 174 
 PTB  HZ EP   1    043  6.52                             132   -0.63 7  143 260 
 PTB  HN ES   1    043 27.18                             132   -0.46 7  143 260 
 PTB  HZ I         043 29.66        22.7 0.12            107            143 260 
 ZAR  HZ EP   1    043 13.34                             122    0.44 6  202 294 
 ZAR  HN ES   1    043 37.72                             122   -0.16 6  202 294 
 ZAR  HZ I         043 43.78        24.5 0.30            101            202 294 
 CHI  HZ EP   1    043 18.08                             117    0.23 6  244 195 
 CHI  HN ES   1    043 47.13                             117    0.45 6  244 195 
 CHI  HZ I         043 50.51         7.1 0.40             99            244 195 
 ROSC BZ EP   1    043 18.33                             116    0.12 6  247 211 
 ROSC BZ I         043 54.27        17.3 0.40             99            247 211 
 HEL  HZ EP   1    043 21.05                             114    0.64 6  268 256 
 HEL  HZ I         043 58.58        11.9 0.48             98            268 256 
 RREF HZ EP   1    043 25.79                             110   -0.46 5  316 230 
 RREF HZ I         044 10.77         8.0 0.28             96            316 230 
 DBB  SZ EP   1    043 27.71                             109   -0.12 5  336 275 
                                                                                
