 2012  114 0148 39.3 L   7.350 -73.222129.9  RSN  5 0.2 1.7LRSN                1
 GAP=259        0.43       7.8     4.5  6.2  0.6767E+01  0.5749E+01 -0.9822E+01E
 Epicentro: RIONEGRO - SANTANDER                                               3
 ACTION:UP  12-02-03 08:17 OP:REBC STATUS:               ID:20120114014839 L   I
 2012-01-14-0140-00M.COL___187                                                 6
 STAT SP IPHASW D HRMM SECON CODA AMPLIT PERI AZIMU VELO SNR AR TRES W  DIS CAZ7
 GIR2 SZ EP   1    148 57.14                             166     0.1 7   30 174 
 GIR2 SZ ES   2    149 10.75                             166    -0.1 5   30 174 
 BRR  HZ EP   1    148 58.13                             154     0.1 7   60 244 
 BRR  HZ I         148 58.25        22.7 0.13                            60 244 
 BRR  HE ES   2    149 12.64                             154    -0.1 5   60 244 
 BAR2 SZ EP   2    148 59.34                             145    -0.5 5   84 177 
 BAR2 SZ ES   2    149 16.26                             145     0.3 5   84 177 
 BAR2 SZ I         149 17.30         6.0 0.30                            84 177 
 PTB  HZ EP   1    149  6.58                             125     0.1 7  163 237 
 PTB  HE ES   2    149 27.62                             125    -0.1 5  163 237 
 PTB  HZ I         149 29.81         0.0 0.13                           163 237 
 ZAR  HN ES   2    149 31.00                             122     0.0 4  181 275 
 ZAR  HZ I         149 33.56         4.1 0.13                           181 275 
                                                                                
