 2013  214 0957  9.3 L   6.835 -73.097148.1  RSN 19 0.5 2.7LRSN 2.9WRSN        1
 SPEC AVERAGE  MO 13.5 ST  3.5 OM  1.9 f0 4.10 R0.3813 AL 1.97 WI 23.0 MW  2.9 3
 SPEC SD       MO  0.3 ST  2.1 OM  0.3 f00.996 R0.0950 AL      WI      MW  0.2 3
 GAP= 72        1.07       3.1     3.7  6.0 -0.1367E+01  0.4851E+01  0.2481E+01E
 Epicentro: LOS SANTOS - SANTANDER                                             3
 SPEC RREFHH Z MO 13.8 ST  6.6 OM  1.8 f0 4.39 R0.3349 AL 2.88 WI 27.4 MW  3.1 3
 SPEC RREFHH Z T 95829 K 0.000 GD  359 VS 4.20 DE 3.20 Q0300.0 QA 0.60 VS 4.20 3
 SPEC ZAR HH Z MO 13.6 ST  4.8 OM  1.8 f0 4.43 R0.3318 AL 1.19 WI 20.3 MW  3.0 3
 SPEC ZAR HH Z T 958 5 K 0.000 GD  255 VS 4.20 DE 3.20 Q0300.0 QA 0.60 VS 4.20 3
 SPEC ROSCBH Z MO 13.8 ST  1.6 OM  1.9 f0 2.68 R0.5485 AL 2.90 WI 29.8 MW  3.1 3
 SPEC ROSCBH Z T 95816 K 0.000 GD  298 VS 4.20 DE 3.20 Q0300.0 QA 0.60 VS 4.20 3
 SPEC PTB HH Z MO 13.7 ST  5.0 OM  2.0 f0 4.08 R0.3603 AL 1.06 WI 29.3 MW  3.1 3
 SPEC PTB HH Z T 95749 K 0.000 GD  213 VS 4.20 DE 3.20 Q0300.0 QA 0.60 VS 4.20 3
 SPEC TAM HH Z MO 13.3 ST0.958 OM  1.6 f0 3.21 R0.4579 AL 2.18 WI 22.9 MW  2.8 3
 SPEC TAM HH Z T 95749 K 0.000 GD  211 VS 4.20 DE 3.20 Q0300.0 QA 0.60 VS 4.20 3
 SPEC RUS HH Z MO 13.1 ST  1.2 OM  1.4 f0 4.28 R0.3435 AL 1.49 WI 19.0 MW  2.6 3
 SPEC RUS HH Z T 95747 K 0.000 GD  180 VS 4.20 DE 3.20 Q0300.0 QA 0.60 VS 4.20 3
 SPEC HEL HH Z MO 13.6 ST  3.9 OM  1.7 f0 4.17 R0.3525 AL 2.47 WI 18.1 MW  3.0 3
 SPEC HEL HH Z T 95820 K 0.000 GD  314 VS 4.20 DE 3.20 Q0300.0 QA 0.60 VS 4.20 3
 SPEC OCA HH Z MO 13.6 ST  6.4 OM  1.9 f0 4.77 R0.3082 AL 2.16 WI 20.6 MW  3.0 3
 SPEC OCA HH Z T 95757 K 0.000 GD  215 VS 4.20 DE 3.20 Q0300.0 QA 0.60 VS 4.20 3
 SPEC PAM SH Z MO 13.0 ST  2.5 OM  1.4 f0 5.63 R0.2611 AL 2.64 WI 13.7 MW  2.6 3
 SPEC PAM SH Z T 95746 K 0.000 GD  164 VS 4.20 DE 3.20 Q0300.0 QA 0.60 VS 4.20 3
 SPEC ANILHH Z MO 13.7 ST  3.7 OM  1.7 f0 3.80 R0.3868 AL 1.77 WI 36.4 MW  3.1 3
 SPEC ANILHH Z T 95828 K 0.000 GD  392 VS 4.20 DE 3.20 Q0300.0 QA 0.60 VS 4.20 3
 SPEC CHI HH Z MO 13.4 ST0.636 OM  1.5 f0 2.71 R0.5424 AL 1.84 WI 28.1 MW  2.9 3
 SPEC CHI HH Z T 95815 K 0.000 GD  294 VS 4.20 DE 3.20 Q0300.0 QA 0.60 VS 4.20 3
 SPEC BRR HH Z MO 13.3 ST  6.4 OM  1.7 f0 6.07 R0.2422 AL 1.33 WI 21.5 MW  2.8 3
 SPEC BRR HH Z T 95741 K 0.000 GD  165 VS 4.20 DE 3.20 Q0300.0 QA 0.60 VS 4.20 3
 SPEC BAR2SH Z MO 13.8 ST  2.3 OM  2.2 f0 3.02 R0.4868 AL 1.65 WI 11.7 MW  3.1 3
 SPEC BAR2SH Z T 95742 K 0.000 GD  150 VS 4.20 DE 3.20 Q0300.0 QA 0.60 VS 4.20 3
 ACTION:UPD 13-03-12 09:33 OP:ep   STATUS:               ID:20130214095709 L   I
 2013-02-14-0950-00M.COL___241                                                 6
 STAT SP IPHASW D HRMM SECON CODA AMPLIT PERI AZIMU VELO AIN AR TRES W  DIS CAZ7
 BAR2 SZ IP        957 28.95                             169   -0.3410 28.5 199 
 BAR2 SZ ES   1    957 44.44                             169   -0.47 7 28.5 199 
 BAR2 SZ I         957 46.94       157.6 0.32            168           28.5 199 
 PAM  SZ EP        957 31.77                             153    0.4010 71.0  38 
 PAM  SN ES   1    957 49.14                             153    0.53 7 71.0  38 
 PAM  SZ I         957 51.18        51.1 0.56            152           71.0  38 
 BRR  HZ IP     C  957 30.87                             152    0.0310 74.3 294 
 BRR  HN ES   1    957 48.23                             152    0.56 7 74.3 294 
 RUS  HZ IP     D  957 32.76                             143   -0.7610  104 179 
 RUS  HN ES   1    957 51.73                             143   -0.70 7  104 179 
 RUS  HZ I         957 52.57        34.4 0.26            142            104 179 
 TAM  HZ IP     D  957 37.13                             132    0.37 9  151 107 
 TAM  HZ I         957 57.84        37.0 0.34            131            151 107 
 TAM  HN ES   1    957 58.86                             132    0.65 7  151 107 
 PTB  HZ EP   4    957 35.51                             131   -1.46 0  154 258 
 PTB  HE ES   4    957 57.60                             131   -0.98 0  154 258 
 PTB  HZ I         958  4.24        95.9 0.34            130            154 258 
 OCA  HZ EP        957 37.34                             131   -0.13 9  157 351 
 OCA  HN ES   1    957 59.51                             131    0.05 7  157 351 
 OCA  HZ I         958  3.90        66.4 0.30            130            157 351 
 ZAR  HZ EP        957 41.60                             122   -0.63 8  208 291 
 ZAR  HE ES   1    958  8.23                             122    0.29 6  208 291 
 ZAR  HZ I         958 13.81        52.4 0.44            121            208 291 
 CTAU SZ EP        957 43.78                             122    0.77 8  209 210 
 CTAB SZ EP        957 46.24                             119    0.44 8  236 211 
 SML  HZ EP        957 46.02                             118    0.13 8  242 334 
 SML  HN ES   1    958 13.85                             118   -0.61 6  242 334 
 SML  HZ I         958 21.15        69.2 0.26            117            242 334 
 CHI  HZ EP     C  957 46.89                             117   -0.77 8  254 196 
 CHI  HE ES   1    958 16.74                             117   -0.87 6  254 196 
 CHI  HZ I         958 21.52        19.2 0.60            116            254 196 
 CHI  HZ E      C  958 29.64                                            254 196 
 ROSC BZ EP        957 48.49                             116    0.31 8  259 212 
 ROSC BE ES   1    958 19.52                             116    0.99 6  259 212 
 ROSC BZ I         958 26.59        47.0 0.35            115            259 212 
 HEL  HZ EP        957 50.16                             115   -0.12 7  278 255 
 HEL  HN ES   1    958 21.64                             115   -0.63 6  278 255 
 HEL  HZ I         958 28.14        35.2 0.30            114            278 255 
 URE  HZ EP   4    957 48.65                             114   -2.19 0  287 291 
 URE  HN ES   4    958 23.72                             114    0.44 0  287 291 
 VIL  SE ES   2    958 27.53                             112   -0.20 4  308 192 
 VIL  SZ I         958 32.19        24.4 0.42            111            308 192 
 RREF HZ EP        957 57.04                             111    0.78 7  328 229 
 RREF HN ES   1    958 33.53                             111    0.61 5  328 229 
 RREF HZ I         958 39.89        36.4 0.24            110            328 229 
 DBB  SZ EP   4    957 56.50                             109   -0.92 0  345 274 
 DBB  SZ ES   4    958 32.01                             109   -2.97 0  345 274 
 DBB  SZ I         958 37.64        19.4 0.26            109            345 274 
 SDV  BZ EP   1    957 58.56                             109   -0.07 5  354  50 
 SDV  BN ES   1    958 36.24                             109   -0.90 5  354  50 
 ANIL HZ EP   1    957 59.72                             108   -0.20 5  364 225 
 ANIL HE ES   1    958 39.75                             108    0.33 5  364 225 
 ANIL HZ I         958 43.03        16.3 0.36            108            364 225 
                                                                                
