 2010  814 0407 17.8 L   6.712 -73.147143.1  RSN  5 0.3 1.3LRSN                1
 GAP=181        0.67       9.5    10.4  9.9  0.8786E+01 -0.4971E+02 -0.2526E+02E
 Epicentro: VILLANUEVA - SANTANDER                                             3
 ACTION:UP  10-09-07 10:54 OP:vdl  STATUS:               ID:20100814040717 L   I
 2010-08-14-0404-52S.COL___111                                                 6
 STAT SP IPHASW D HRMM SECON CODA AMPLIT PERI AZIMU VELO SNR AR TRES W  DIS CAZ7
 BAR2 SZ EP   1    4 7 36.77                             173    -0.2 7   14 197 
 BAR2 SZ ES   2    4 7 51.76                                    -0.2 5   14 197 
 BAR2 SZ I         4 7 53.66         5.1 0.29                            14 197 
 BTL  SZ EP        4 7 37.53                             171     0.310   26 330 
 BTL  SZ ES   3    4 7 52.72                             171     0.4 2   26 330 
 BRR  HZ EP        4 7 39.18                             153     0.210   76 305 
 BRR  HZ I         4 7 39.51         4.5 0.12                            76 305 
 BRR  HE ES   1    4 7 55.19                             153    -0.3 7   76 305 
 GUE  SZ EP   2    4 7 43.39                             138     0.3 5  126  11 
 GRA  SZ EP   1    4 7 43.15                             136    -0.5 7  135  16 
 GRA  SZ I         4 7 44.33         2.5 0.28                           135  16 
 GRA  SZ ES   3    4 8  4.22                             136     0.4 2  135  16 
                                                                                
