 2017  214 0642  9.7 L   6.778 -73.161145.5  RSN  6 0.2 1.5LRSN                1
 GAP=136        0.52       2.6     2.3  3.5  0.6432E+00  0.2057E+01 -0.4114E+00E
 Epicentro: LOS SANTOS - SANTANDER                                             3
 ACTION:UPD 17-05-24 15:36 OP:jn   STATUS:               ID:20170214064209 L   I
 OLDACT:DUP 17-02-14 15:29 OP:dani STATUS:               ID:20170214063749d    3
 2017-02-14-0638-00M.COL___349                                                 6
 STAT SP IPHASW D HRMM SECON CODA AMPLIT PERI AZIMU VELO AIN AR TRES W  DIS CAZ7
 BAR2 EZ EP        642 29.17                             172   -0.0510 20.7 186 
 BAR2 EZ ES        642 44.31                             172   -0.1610 20.7 186 
 BAR2 EZ I         642 45.49        12.0 0.37            173           20.7 186 
 BRR  HZ EP        642 30.83                             153    0.0610 70.9 301 
 BRR  HE ES        642 47.64                             153    0.4010 70.9 301 
 BRR  HZ I         642 52.12         5.2 0.15            151           70.9 301 
 PAM  EZ EP        642 32.05                             150    0.0110 80.3  39 
 PAM  EE ES        642 49.31                             150   -0.1710 80.3  39 
 PAM  EZ I         642 51.24         6.6 0.56            152           80.3  39 
 RUS  HZ EP        642 33.42                             144    0.1910 98.3 175 
 RUS  HE ES        642 51.65                             144    0.0410 98.3 175 
 RUS  HZ I         642 52.74         2.4 0.30            148           98.3 175 
 PTB  HZ EP        642 36.14                             132   -0.28 9  146 260 
 PTB  HN ES        642 57.18                             132   -0.11 9  146 260 
 PTB  HZ I         642 59.56         3.0 0.17            133            146 260 
 ZAR  HZ EP        642 42.23                             122    0.20 9  203 293 
 ZAR  HN ES        643  7.10                             122   -0.17 9  203 293 
 ZAR  HZ I         643 12.38         4.0 0.12            124            203 293 
                                                                                
