 2010  814 0831 54.6 L   6.825 -73.031149.3  RSN  5 0.2 1.5LRSN                1
 GAP=195        0.54       4.1    10.1  6.9  0.1602E+02 -0.3010E+02 -0.9517E+01E
 Epicentro: CEPITA - SANTANDER                                                 3
 ACTION:UP  10-09-07 10:54 OP:vdl  STATUS:               ID:20100814083154 L   I
 2010-08-14-0830-22S.COL___111                                                 6
 STAT SP IPHASW D HRMM SECON CODA AMPLIT PERI AZIMU VELO SNR AR TRES W  DIS CAZ7
 BTL  SZ EP        832 14.99                             170     0.210   28 292 
 BTL  SZ ES   2    832 30.61                             170     0.1 5   28 292 
 BAR2 SZ EP        832 14.62                             169    -0.210   31 213 
 BAR2 SZ ES   2    832 30.49                             169    -0.1 5   31 213 
 BRR  HZ EP        832 16.55                             151    -0.210   82 293 
 BRR  HZ I         832 17.07         7.3 0.08                            82 293 
 BRR  HN ES   1    832 34.11                                     0.1 7   82 293 
 RUS  HZ EP   3    832 18.55                             144    -0.3 2  103 183 
 RUS  HE ES   2    832 37.92                                     0.1 5  103 183 
 RUS  HZ I         832 38.20         2.1 0.38                           103 183 
 OCA  SZ EP   1    832 23.52                             130     0.4 7  160 349 
 OCA  SZ ES   1    832 45.07                             130    -0.3 7  160 349 
 OCA  SZ I         832 49.93         4.7 0.56                           160 349 
                                                                                
