 2017  914 0857 15.2 L   6.778 -73.213133.8  RSN  5 0.3 1.1LRSN                1
 GAP=227        0.81       4.3     5.6  5.9  0.1200E+02  0.9414E+01  0.2085E+01E
 Epicentro: ZAPATOCA - SANTANDER                                               3
 ACTION:UPD 17-10-05 19:12 OP:rebc STATUS:               ID:20170914085715 L   I
 OLDACT:DUP 17-09-14 13:14 OP:lv   STATUS:               ID:20170914084745d    3
 2017-09-14-0848-00M.COL___410                                                 6
 STAT SP IPHASW D HRMM SECON CODA AMPLIT PERI AZIMU VELO AIN AR TRES W  DIS CAZ7
 BAR2 EZ EP        857 33.15                             171   -0.1710 20.8 171 
 BAR2 EZ ES        857 47.81                             171    0.3410 20.8 171 
 BRR  HZ EP        857 34.76                             152    0.0210 66.1 303 
 BRR  HN ES        857 50.00                             152   -0.0010 66.1 303 
 BRR  HZ I         857 57.35         4.4 0.32            146           66.1 303 
 RUS  HZ EP        857 38.12                             142    0.4810 98.9 172 
 RUS  HN ES        857 54.53                             142   -0.6410 98.9 172 
 RUS  HZ I         857 56.80         0.9 0.19            145           98.9 172 
 SPBC HZ EP        857 42.09                             127   -0.05 9  157 217 
 SPBC HN ES        858  3.45                             127    0.27 9  157 217 
 SPBC HZ I         858  9.02         1.9 0.08            127            157 217 
 ZAR  HZ EP        857 46.11                             120   -0.13 9  198 294 
 ZAR  HE ES        858 10.33                             120   -0.15 9  198 294 
 ZAR  HZ I         858 20.81         1.5 0.43            120            198 294 
                                                                                
