 2016  714 0023 26.6 L   6.883 -73.246120.7  RSN 13 0.4 2.0LRSN                1
 GAP=117        0.80       3.1     3.2  4.6  0.8970E+00  0.5968E+01  0.4269E+01E
 Epicentro: BETULIA - SANTANDER                                                3
 ACTION:UPD 17-03-29 16:50 OP:lp   STATUS:               ID:20160714002326 L   I
 OLDACT:UP  16-07-14 13:29 OP:dani STATUS:               ID:20160714001759     3
 OLDACT:UP  16-07-14 13:29 OP:dani STATUS:               ID:20160714001759     3
 OLDACT:REG 16-07-14 12:17 OP:dani STATUS:               ID:20160714001759     3
 2016-07-14-0017-59S.COL___334                                                 6
 STAT SP IPHASW D HRMM SECON CODA AMPLIT PERI AZIMU VELO AIN AR TRES W  DIS CAZ7
 BAR2 EZ EP        023 43.79                             164    0.3210 32.9 168 
 BAR2 EZ ES        023 56.61                             164   -0.0510 32.9 168 
 BAR2 EZ I         023 58.12        72.9 0.28            165           32.9 168 
 BRR  HZ EP     D  023 44.10                             153   -0.1110 57.1 296 
 BRR  HE ES        023 58.04                             153    0.0610 57.1 296 
 BRR  HZ I         023 59.18        29.7 0.12            150           57.1 296 
 PAM  EE ES        024  1.63                             145   -0.0210 78.7  50 
 RUS  HZ EP        023 48.59                             135   -0.2310  111 171 
 RUS  HE ES        024  6.31                             135    0.1210  111 171 
 RUS  HZ I         024  7.41         9.1 0.28            134            111 171 
 PTB  HZ EP   9 D  023 49.01                             127   -1.75 0  139 254 
 PTB  HE ES        024  7.60                             127   -0.29 9  139 254 
 PTB  HZ I         024 11.27        15.0 0.36            125            139 254 
 SPBC HZ EP        023 52.93                             122   -0.42 9  164 214 
 SPBC HN ES   4    024 12.38                             122   -1.87 0  164 214 
 SPBC HZ I         024 19.38        11.2 0.34            120            164 214 
 ZAR  HZ EP        023 55.91                             118   -0.11 9  190 291 
 ZAR  HN ES        024 19.04                             118    0.04 9  190 291 
 ZAR  HZ I         024 20.95        14.1 0.26            115            190 291 
 NOR  HZ EP        024  0.91                             113    0.31 8  231 231 
 NOR  HE ES        024 26.34                             113   -0.81 8  231 231 
 NOR  HZ I         024 28.49         5.4 0.16            111            231 231 
 CHI  HN ES   2    024 32.52                             111   -0.18 4  255 192 
 GUY2CHZ EP        024  9.23                             107    0.49 7  298 232 
 GUY2CHN ES        024 42.56                             107    0.93 7  298 232 
 GUY2CHZ I         024 45.82         3.2 0.34                           298 232 
 LL6C HZ EP   9    024 12.04                             106    1.83 0  315 360 
 LL6C HE ES        024 45.97                             105   -0.12 7  315 360 
 LL6C HZ I         024 48.66         5.8 0.75            104            315 360 
 PRA  HZ EP        024 19.52                             102   -0.14 6  395 207 
 PRA  HE ES   4    025  4.37                             102    3.29 0  395 207 
 PRA  HZ I         025  5.55         2.8 0.36            100            395 207 
 SJC  HZ EP   4    024 17.80                             102   -1.97 0  395 328 
 SJC  HE ES   4    024 57.53                             102   -3.74 0  395 328 
 SJC  HZ I         025 11.75         2.0 0.39            100            395 328 
                                                                                
