 2016 1214 0657 36.1 L   6.729 -73.130139.5  RSN  6 0.4 1.1LRSN                1
 GAP=142        0.95       5.7     5.0  6.8  0.1087E+02  0.1139E+01 -0.9248E+01E
 Epicentro: JORDAN - SANTANDER                                                 3
 ACTION:UPD 17-01-11 20:15 OP:rebc STATUS:               ID:20161214065736 L   I
 OLDACT:UP  16-12-14 18:09 OP:e    STATUS:               ID:20161214064746d    3
 OLDACT:UP  16-12-14 18:08 OP:e    STATUS:               ID:20161214064746d    3
 OLDACT:DUP 16-12-14 18:06 OP:e    STATUS:               ID:20161214064746d    3
 2016-12-14-0648-00M.COL___380                                                 6
 STAT SP IPHASW D HRMM SECON CODA AMPLIT PERI AZIMU VELO AIN AR TRES W  DIS CAZ7
 BAR2 EZ EP        657 54.67                             173   -0.1410 16.1 201 
 BAR2 EZ ES        658  9.39                             173   -0.0410 16.1 201 
 BAR2 EZ I         658 11.87         3.6 0.28            172           16.1 201 
 BRR  HZ EP        657 56.70                             149   -0.1710 76.7 303 
 BRR  HN ES        658 13.42                             149    0.3210 76.7 303 
 PAM  EZ EP        657 57.68                             148   -0.2710 82.6  35 
 RUS  HZ EP        657 58.44                             145   -0.1910 92.6 177 
 RUS  HN ES        658 16.60                             145    0.3810 92.6 177 
 RUS  HZ I         658 18.17         2.6 0.34            146           92.6 177 
 PTB  HZ EP        658  2.58                             130    0.02 9  148 262 
 PTB  HN ES        658 22.68                             130   -0.55 9  148 262 
 PTB  HZ I         658 25.21         1.3 0.12            131            148 262 
 ZAR  HZ EP        658  9.56                             120    0.96 8  209 294 
 ZAR  HN ES        658 33.83                             120   -0.14 8  209 294 
 ZAR  HZ I         658 39.55         1.5 0.18            121            209 294 
                                                                                
