 2012  214 0118 35.1 L   6.736 -73.148152.9  RSN  6 0.4 1.5LRSN                1
 GAP=139        0.64       5.8     5.8  7.5  0.1268E+02 -0.5178E+01 -0.8468E+01E
 ACTION:UP  12-03-07 16:30 OP:epov STATUS:               ID:20120214011835 L   I
 2012-02-14-0109-59S.COL___187                                                 6
 STAT SP IPHASW D HRMM SECON CODA AMPLIT PERI AZIMU VELO AIN AR TRES W  DIS CAZ7
 BAR2 SZ EP   1    118 55.08                             174   -0.38 7 16.4 193 
 BAR2 SZ ES   2    119 11.19                             174   -0.15 5 16.4 193 
 BAR2 SZ I         119 12.11        10.5 0.19                          16.4 193 
 BRR  HZ EP   1    118 57.18                             153   -0.01 7 74.6 303 
 BRR  HZ I         118 57.47         8.2 0.19                          74.6 303 
 BRR  HN ES   1    119 14.73                             153    0.30 7 74.6 303 
 PAM  SZ EP   1    118 58.24                             150   -0.16 7 83.1  37 
 RUS  HZ EP   1    118 59.70                             147    0.63 7 93.6 176 
 RUS  HN ES   1    119 17.71                             147   -0.06 7 93.6 176 
 RUS  HZ I         119 18.78         2.8 0.60                          93.6 176 
 PTB  HZ EP   1    119  2.33                             134   -0.18 7  146 262 
 PTB  HN ES   2    119 23.26                             134   -0.64 5  146 262 
 ZAR  HN ES   2    119 34.63                             124    0.50 4  207 294 
                                                                                
