 2010  314 0214  7.8 L   6.771 -73.069148.5  RSN  6 0.3 1.7LRSN                1
 GAP=191        0.59       3.6     8.4  6.1  0.1112E+02 -0.1011E+02  0.1598E+01E
 Epicentro: LOS SANTOS - SANTANDER                                             3
 ACTION:UP  10-08-24 09:53 OP:vdl  STATUS:               ID:20100314021407 L   I
 2010-03-14-0210-46S.COL___095                                                 6
 STAT SP IPHASW D HRMM SECON CODA AMPLIT PERI AZIMU VELO SNR AR TRES W  DIS CAZ7
 BAR2 SZ EP   1    214 27.67                             171    -0.1 7   24 213 
 BAR2 SZ ES   2    214 42.82                             171    -0.5 5   24 213 
 BRR  HZ IP        214 29.64                             150    -0.110   80 298 
 BRR  HZ I         214 37.51        14.2 0.45                            80 298 
 BRR  HE ES        214 47.06                             150     0.110   80 298 
 RUS  HZ EP   1    214 31.72                             145     0.1 7   97 181 
 RUS  HE ES   1    214 50.50                             145     0.4 7   97 181 
 RUS  HZ I         214 52.02         4.8 0.22                            97 181 
 OCA  SZ EP   2    214 36.41                             130    -0.3 5  165 350 
 OCA  SZ ES   2    214 59.61                             130     0.3 5  165 350 
 CHI  HZ EP   2    214 45.94                             118     0.4 4  248 197 
 CHI  HE ES   2    215 14.24                             118    -0.8 4  248 197 
 CHI  HZ I         215 21.08         1.8 0.29                           248 197 
 PRA  HZ EP   2    215  2.18                             107     0.6 3  393 211 
 PRA  HE ES   2    215 43.31                             107    -0.2 3  393 211 
 PRA  HZ I         215 48.17         2.1 0.84                           393 211 
                                                                                
