 2010  314 0232 36.6 L   6.808 -73.042144.0  RSN 10 0.3 2.2LRSN                1
 GAP=193        0.59       2.6     5.6  4.7  0.3583E+01  0.1744E+01  0.6429E+00E
 Epicentro: LOS SANTOS - SANTANDER                                             3
 ACTION:UP  10-08-24 09:53 OP:vdl  STATUS:               ID:20100314023236 L   I
 2010-03-14-0227-53S.COL___095                                                 6
 STAT SP IPHASW D HRMM SECON CODA AMPLIT PERI AZIMU VELO SNR AR TRES W  DIS CAZ7
 BAR2 SZ IP        232 56.26                             168     0.110   29 213 
 BAR2 SZ ES   2    233 10.77                             168    -0.7 5   29 213 
 BRR  HZ EP        232 58.11                             149    -0.110   81 294 
 BRR  HZ I         233  0.02        44.2 0.11                            81 294 
 BRR  HE ES        233 15.23                             149     0.210   81 294 
 RUS  HZ IP        233  0.25                             143     0.010  101 183 
 RUS  HE ES        233 18.79                             143     0.110  101 183 
 RUS  HZ I         233 20.07        14.0 0.36                           101 183 
 OCA  SZ EP   1    233  5.05                             129     0.1 7  161 349 
 OCA  SZ ES   1    233 26.89                             129    -0.1 7  161 349 
 OCA  SZ I         233 29.96        41.4 0.47                           161 349 
 CHI  HZ EP   2    233 14.43                             116    -0.3 4  253 198 
 CHI  HN ES   2    233 44.53                             116     0.2 4  253 198 
 CHI  HZ I         233 50.28         3.8 0.64                           253 198 
 HEL  HZ EP   2    233 18.43                             114     0.4 4  283 256 
 HEL  HZ I         233 55.09         8.9 0.58                           283 256 
 RREF BN ES   2    234  0.30                             110    -0.2 3  331 231 
 RREF BZ I         234  6.60         5.3 0.28                           331 231 
 DBB  SZ EP   1    233 24.47                             109    -0.9 5  351 274 
 TOL  SZ EP   2    233 26.55                             109     0.7 3  352 226 
 PRA  HZ EP   2    233 30.65                             106    -0.2 3  399 211 
 PRA  HN ES   2    234 13.46                             106     0.3 3  399 211 
 PRA  HZ I         234 17.30         5.9 0.34                           399 211 
                                                                                
