 2013 1014 0248 17.5 L   6.803 -73.130148.3  RSN  7 0.3 1.7LRSN                1
 GAP=184        0.66       2.8     4.3  5.4 -0.1368E+01  0.3500E+01  0.4726E+00E
 Epicentro: LOS SANTOS - SANTANDER                                             3
 ACTION:UPD 13-11-25 09:21 OP:ep   STATUS:               ID:20131014024817 L   I
 OLDACT:UP  13-10-14 12:55 OP:mh   STATUS:               ID:20131014024735     3
 OLDACT:UP  13-10-14 12:55 OP:mh   STATUS:               ID:20131014024735     3
 OLDACT:REG 13-10-14 12:16 OP:mh   STATUS:               ID:20131014024735     3
 2013-10-14-0247-35M.COL___233                                                 6
 STAT SP IPHASW D HRMM SECON CODA AMPLIT PERI AZIMU VELO AIN AR TRES W  DIS CAZ7
 BAR2 SZ EP   1    248 37.72                             170    0.25 7 24.0 194 
 BAR2 SZ ES   1    248 53.34                             170    0.31 7 24.0 194 
 BAR2 SZ I         248 53.99        15.5 0.20            168           24.0 194 
 BRR  HZ EP        248 39.44                             152    0.4210 72.5 298 
 BRR  HN ES   1    248 55.82                             152    0.03 7 72.5 298 
 RUS  HZ EP        248 41.09                             144   -0.4510  101 177 
 RUS  HN ES   1    249  0.06                             144   -0.21 7  101 177 
 RUS  HZ I         249  1.60         3.6 0.22            146            101 177 
 OCA  HZ EP   1    248 46.13                             130    0.11 7  160 353 
 OCA  HN ES   1    249  7.88                             130   -0.37 7  160 353 
 SPBC HZ EP        248 46.41                             129    0.07 9  164 219 
 SPBC HN ES        249  8.65                             129   -0.16 9  164 219 
 SPBC HZ I         249 11.31         8.7 0.21            129            164 219 
 ZAR  HN ES   1    249 15.31                             123   -0.52 6  206 292 
 ZAR  HZ I         249 22.00         4.8 0.32            122            206 292 
 ZAR  HZ I         249 22.01         3.4 0.14                           206 292 
 NOR  HZ EP        248 53.75                             119    0.19 8  236 235 
 NOR  HN ES        249 21.82                             119    0.14 8  236 235 
 NOR  HZ I         249 25.26         4.7 0.16            119            236 235 
                                                                                
