 2012 1014 0618  7.1 L   6.840 -73.284122.3  RSN  5 0.1 1.6LRSN                1
 GAP=134        0.39       3.7     5.6  4.2  0.1177E+02 -0.3698E+01  0.3603E+00E
 Epicentro: ZAPATOCA - SANTANDER                                               3
 ACTION:UPD 12-11-22 17:03 OP:ep   STATUS:               ID:20121014061807 L   I
 2012-10-14-0610-00M.COL___231                                                 6
 STAT SP IPHASW D HRMM SECON CODA AMPLIT PERI AZIMU VELO AIN AR TRES W  DIS CAZ7
 GIR2 SZ EP        618 23.90                             166    0.0210 28.3  21 
 BAR2 SZ EP        618 24.31                             166    0.2510 29.6 158 
 BAR2 SZ ES   1    618 37.14                             166   -0.17 7 29.6 158 
 BAR2 SZ I         618 38.48        32.3 0.46                          29.6 158 
 BRR  HZ EP        618 24.64                             154   -0.1810 55.7 302 
 BRR  HZ I         618 24.94         9.8 0.46                          55.7 302 
 BRR  HN ES   1    618 38.77                             154    0.11 7 55.7 302 
 PAM  SZ EP   3    618 27.42                             143    0.03 2 85.0  49 
 PAM  SN ES   3    618 43.18                             143   -0.05 2 85.0  49 
 PAM  SN I         618 46.11         3.4 0.24                          85.0  49 
 RUS  HZ EP        618 29.08                             136   -0.0610  107 168 
 RUS  HN ES   2    618 46.37                             136    0.03 5  107 168 
                                                                                
