 2017  114 0629 17.5 L   6.712 -73.549108.3  RSN  6 0.5 1.3LRSN                1
 GAP=109        0.81       4.2     3.5  6.1  0.3252E+01  0.2877E+00  0.1512E+01E
 Epicentro: EL CARMEN - SANTANDER                                              3
 ACTION:UPD 17-05-22 15:59 OP:jn   STATUS:               ID:20170114062917 L   I
 OLDACT:UP  17-01-14 15:40 OP:dani STATUS:               ID:20170114062744     3
 OLDACT:UP  17-01-14 15:40 OP:dani STATUS:               ID:20170114062744     3
 OLDACT:REG 17-01-14 12:51 OP:dani STATUS:               ID:20170114062744     3
 2017-01-14-0628-00M.COL___323                                                 6
 STAT SP IPHASW D HRMM SECON CODA AMPLIT PERI AZIMU VELO AIN AR TRES W  DIS CAZ7
 BAR2 EZ EP        629 33.40                             157    0.0610 42.6 108 
 BAR2 EZ ES        629 45.49                             157   -0.2310 42.6 108 
 BAR2 EZ I         629 46.39        11.9 0.60            160           42.6 108 
 BRR  HZ EP        629 33.23                             154    0.0010 47.3 338 
 BRR  HN ES        629 45.98                             154    0.4610 47.3 338 
 BRR  HZ I         629 46.50         9.9 0.14            156           47.3 338 
 PTB  HZ EP        629 37.14                             133   -0.1110  102 259 
 PTB  HN ES        629 52.21                             133   -0.4710  102 259 
 PTB  HZ I         629 57.36         3.1 0.54            133            102 259 
 RUS  HZ EP        629 38.26                             133    0.1810  104 150 
 RUS  HN ES        629 54.20                             133    0.0510  104 150 
 RUS  HZ I         629 55.78         1.8 0.70            135            104 150 
 PAM  EZ EP        629 39.27                             129    0.0510  117  53 
 PAM  EN ES   3    629 54.33                             129   -1.86 2  117  53 
 PAM  EZ I         629 56.86         2.6 0.36            133            117  53 
 ZAR  HN ES   3    630  6.51                             118    2.07 2  168 301 
                                                                                
