 2016  414 0959 37.9 L   6.761 -73.159136.5  RSN  6 0.5 1.5LRSN                1
 GAP=137        1.17       5.9     5.4  9.2 -0.8161E+00  0.1927E+02 -0.9235E+01E
 Epicentro: LOS SANTOS - SANTANDER                                             3
 ACTION:UPD 16-05-05 14:21 OP:rebc STATUS:               ID:20160414095937 L   I
 OLDACT:UP  16-04-15 00:50 OP:mh   STATUS:               ID:20160414095748     3
 OLDACT:UP  16-04-15 00:50 OP:mh   STATUS:               ID:20160414095748     3
 OLDACT:UP  16-04-15 00:49 OP:mh   STATUS:               ID:20160414095748     3
 OLDACT:REG 16-04-14 21:15 OP:ar   STATUS:               ID:20160414095748     3
 2016-04-14-0957-48M.COL___314                                                 6
 STAT SP IPHASW D HRMM SECON CODA AMPLIT PERI AZIMU VELO AIN AR TRES W  DIS CAZ7
 BAR2 EZ EP     D  959 56.39                             172    0.1010 18.9 188 
 BAR2 EZ ES       10 0  9.79                             172   -0.8810 18.9 188 
 BAR2 EZ I        10 0 12.50         6.3 0.33            172           18.9 188 
 PAM  EZ EP        959 59.28                             148   -0.0910 81.6  38 
 PAM  EN ES       10 0 16.46                             148    0.3110 81.6  38 
 PAM  EZ I        10 0 18.62         5.5 0.12            150           81.6  38 
 RUS  HZ EP       10 0  0.31                             143   -0.1010 96.4 175 
 RUS  HN ES       10 0 18.72                             143    0.7310 96.4 175 
 RUS  HZ I        10 0 20.18         2.5 0.29            148           96.4 175 
 PTB  HZ EP       10 0  3.38                             130   -0.50 9  146 260 
 PTB  HN ES       10 0 24.20                             130    0.02 9  146 260 
 PTB  HZ I        10 0 26.74         4.6 0.19            130            146 260 
 ZAR  HZ EP       10 0  9.64                             120   -0.11 9  204 293 
 ZAR  HN ES       10 0 35.23                             120    0.60 9  204 293 
 ZAR  HZ I        10 0 40.61         4.7 0.35            120            204 293 
 URE  HZ EP   4   10 0 19.48                             112    0.95 0  284 293 
 URE  HN ES   4   10 0 48.08                             112   -2.17 0  284 293 
 URE  HZ I        10 1  0.58         2.3 0.21            112            284 293 
                                                                                
