 2010  914 0348 15.2 L   6.219 -73.322151.5  RSN  9 0.5 2.1LRSN                1
 GAP=123        0.88       3.6     6.2  8.6 -0.1962E+01  0.1344E+02 -0.3051E+01E
 Epicentro: OIBA - SANTANDER                                                   3
 ACTION:UP  11-02-18 11:02 OP:tino STATUS:               ID:20100914034815 L   I
 2010-09-14-0344-13S.COL___113                                                 6
 STAT SP IPHASW D HRMM SECON CODA AMPLIT PERI AZIMU VELO SNR AR TRES W  DIS CAZ7
 BAR2 SZ EP        348 35.94                             163    -0.210   44  20 
 BAR2 SZ I         348 53.34        31.3 0.25                            44  20 
 RUS  HZ EP        348 36.56                             163     0.110   45 144 
 RUS  HN ES   1    348 52.73                             163    -0.4 7   45 144 
 RUS  HZ I         348 55.85        31.7 0.52                            45 144 
 BRR  HZ EP        348 39.54                             142     0.210  107 336 
 BRR  HZ I         348 40.21        54.4 0.10                           107 336 
 BRR  HN ES   1    348 58.76                             142     0.6 7  107 336 
 CHI  HZ EP        348 46.69                             127     0.3 9  182 195 
 CHI  HN ES   1    349 10.07                             127    -0.5 7  182 195 
 CHI  HZ I         349 12.74         7.5 0.62                           182 195 
 ROSC BN ES   3    349 12.60                             126     0.8 2  188 216 
 ROSC BZ I         349 20.19         6.9 0.47                           188 216 
 OCA  SZ EP        348 50.22                             121     0.0 8  223   0 
 OCA  SZ ES   1    349 17.15                             121    -0.4 6  223   0 
 HEL  HZ EP   3    348 53.25                             119     0.5 2  244 269 
 HEL  HN ES   1    349 22.07                             119     0.1 6  244 269 
 HEL  HZ I         349 35.24         9.9 0.41                           244 269 
 RREF HZ EP   2    348 55.69                             116     0.1 4  268 237 
 RREF HE ES   2    349 26.68                             116    -0.4 4  268 237 
 RREF HZ I         349 34.04         9.3 0.21                           268 237 
 MON  HZ EP   3    349  6.46                             108    -1.4 1  382 318 
 MON  HE ES   2    349 47.01                             108    -1.9 3  382 318 
 MON  HZ I         349 48.47         3.7 0.21                           382 318 
                                                                                
