 2013 1214 0244 27.8 L   6.793 -73.164147.8  RSN 12 0.5 1.9LRSN                1
 GAP=135        1.19       3.3     4.9  6.7 -0.2094E+01  0.7411E+01  0.4764E+01E
 Epicentro: LOS SANTOS - SANTANDER                                             3
 ACTION:UPD 14-01-13 10:18 OP:ep   STATUS:               ID:20131214024427 L   I
 OLDACT:REG 13-12-14 07:27 OP:jn   STATUS:               ID:20131214024000     3
 2013-12-14-0240-00M.COL___285                                                 6
 STAT SP IPHASW D HRMM SECON CODA AMPLIT PERI AZIMU VELO AIN AR TRES W  DIS CAZ7
 BAR2 SZ IP     C  244 47.76                             171    0.0610 22.3 185 
 BAR2 SZ ES        245  2.78                             171   -0.4110 22.3 185 
 BAR2 SZ I         245  4.14        21.8 0.36            170           22.3 185 
 BRR  HZ EP        244 49.58                             153    0.4410 69.8 300 
 BRR  HN ES        245  7.05                             153    1.3110 69.8 300 
 BRR  HZ I         245 10.09        13.6 0.34            151           69.8 300 
 PAM  SZ EP        244 50.66                             151    0.2710 79.3  40 
 PAM  SN ES        245  7.73                             151   -0.2510 79.3  40 
 PAM  SZ I         245  9.97        22.7 0.56            154           79.3  40 
 RUS  HZ EP        244 51.67                             144   -0.0910100.0 175 
 RUS  HN ES        245 10.13                             144   -0.2710100.0 175 
 RUS  HZ I         245 13.26         7.9 0.36            146          100.0 175 
 PTB  HZ EP        244 54.50                             133   -0.29 9  146 259 
 PTB  HN ES        245 15.26                             133   -0.54 9  146 259 
 PTB  HZ I         245 18.07        11.7 0.14            132            146 259 
 OCA  HN ES        245 17.92                             130   -0.69 9  161 354 
 OCA  HZ I         245 22.69        13.5 0.30            131            161 354 
 SPBC HZ EP        244 56.75                             130    0.43 9  161 219 
 SPBC HN ES        245 18.76                             130    0.22 9  161 219 
 SPBC HZ I         245 23.80        15.1 0.22            130            161 219 
 ZAR  HN ES   1    245 25.86                             123    0.32 6  202 293 
 ZAR  HZ I         245 34.35         8.5 0.34            123            202 293 
 NOR  HZ EP        245  3.47                             119    0.00 8  233 234 
 NOR  HE ES        245 30.68                             119   -0.57 8  233 234 
 NOR  HZ I         245 35.47         6.4 0.20            120            233 234 
 SML  HE ES        245 32.82                             118   -0.40 8  244 336 
 CHI  HZ EP        245  6.03                             118    0.51 8  247 195 
 CHI  HN ES        245 35.10                             118    0.20 8  247 195 
 CHI  HZ I         245 40.67         3.5 0.24            119            247 195 
 PRA  HZ EP        245 21.31                             107    0.07 6  390 209 
 PRA  HN ES        246  2.12                             107   -0.77 6  390 209 
 PRA  HZ I         246 11.05         2.7 0.28            108            390 209 
                                                                                
