 2013  814 0546 32.2 L   6.704 -73.243145.8  RSN  5 0.3 1.7LRSN                1
 GAP=201        0.63       5.7     5.0  7.3  0.1534E+02 -0.4790E+01 -0.1020E+02E
 Epicentro: BARICHARA - SANTANDER                                              3
 *SOL-CBOC-PTA                                                                 3
 ACTION:UPD 14-01-14 09:02 OP:ep   STATUS:               ID:20130814054632 L   I
 OLDACT:DUP 13-08-14 11:32 OP:mh   STATUS:               ID:20130814053852d    3
 2013-08-14-0538-49M.COL___230                                                 6
 STAT SP IPHASW D HRMM SECON CODA AMPLIT PERI AZIMU VELO AIN AR TRES W  DIS CAZ7
 BAR2 SZ EP   1    546 51.60                             174   -0.04 7 14.1 152 
 BRR  HZ EP        546 52.93                             153   -0.2210 68.4 311 
 BRR  HN ES   1    547  9.84                             153    0.32 7 68.4 311 
 BRR  HN I         547 10.28        23.3 0.36            150           68.4 311 
 RUS  HZ EP   1    546 55.88                             146    0.61 7 91.5 169 
 RUS  HN ES   1    547 12.90                             146   -0.40 7 91.5 169 
 RUS  HN I         547 15.40         2.0 0.20            145           91.5 169 
 PTB  HZ EP   1    546 57.90                             135   -0.13 7  135 262 
 PTB  HN ES        547 18.32                             135    0.10 9  135 262 
 PTB  HN I         547 23.48         7.2 0.44            131            135 262 
 ZAR  HZ EP   1    547  4.09                             123    0.05 6  199 296 
 ZAR  HN ES   1    547 28.69                             123   -0.22 6  199 296 
 ZAR  HN I         547 36.40         7.4 0.26            122            199 296 
                                                                                
