 2017  914 0923  1.8 L   6.769 -73.075145.0  RSN 16 0.5 1.9LRSN                1
 GAP=120        1.02       3.2     3.6  5.4  0.2344E+01  0.7075E+01  0.6128E+01E
 Epicentro: LOS SANTOS - SANTANDER                                             3
 ACTION:UPD 17-10-05 19:12 OP:rebc STATUS:               ID:20170914092301 L   I
 OLDACT:DUP 17-09-14 14:13 OP:lv   STATUS:               ID:20170914091740d    3
 2017-09-14-0918-00M.COL___410                                                 6
 STAT SP IPHASW D HRMM SECON CODA AMPLIT PERI AZIMU VELO AIN AR TRES W  DIS CAZ7
 BAR2 EZ IP     C  923 21.42                             171    0.1110 22.8 211 
 BAR2 EZ ES        923 36.30                             171   -0.2410 22.8 211 
 BAR2 EZ I         923 37.59        19.1 0.14            167           22.8 211 
 PAM  EZ IP     D  923 24.41                             151    0.6110 75.5  33 
 PAM  EN ES        923 40.85                             151   -0.1310 75.5  33 
 PAM  EZ I         923 41.99        11.5 0.32            155           75.5  33 
 BRR  HZ IP     C  923 23.34                             150   -0.0110 79.7 298 
 BRR  HE ES        923 40.52                             150    0.3510 79.7 298 
 BRR  HZ I         923 41.51        19.3 0.12            148           79.7 298 
 RUS  HZ EP        923 25.38                             145    0.1910 96.9 181 
 RUS  HN ES        923 44.08                             145    0.6310 96.9 181 
 RUS  HZ I         923 47.21         5.6 0.42            145           96.9 181 
 YPLC HE ES        923 52.83                             128   -0.72 9  170 153 
 ZAR  HZ EP        923 34.39                             121   -0.67 8  213 292 
 ZAR  HE ES        924  0.52                             121   -0.50 8  213 292 
 ZAR  HZ I         924  5.96        10.6 0.23            121            213 292 
 NOR  HZ EP        923 37.86                             118   -0.08 8  239 236 
 NOR  HN ES        924  5.65                             118   -0.50 8  239 236 
 NOR  HZ I         924  7.47         8.0 0.24            118            239 236 
 CHI  HZ EP        923 39.67                             117    0.36 8  247 197 
 CHI  HN ES        924  8.38                             117   -0.20 8  247 197 
 CHI  HZ I         924 14.62         2.9 0.20            118            247 197 
 HEL  HZ EP        923 43.39                             114    0.69 7  279 257 
 HEL  HN ES        924 14.57                             114   -0.05 7  279 257 
 HEL  HZ I         924 20.59         5.5 0.50            114            279 257 
 URE  HZ EP   4    923 41.81                             113   -1.96 0  292 292 
 URE  HN ES   4    924 13.22                             113   -3.30 0  292 292 
 URE  HZ I         924 25.99         7.0 0.28            113            292 292 
 PTGC HZ EP        923 44.64                             112   -0.28 7  303 160 
 PTGC HN ES        924 17.84                             112   -0.73 7  303 160 
 GUY2CHZ EP   4    923 46.89                             112    1.04 0  306 236 
 GUY2CHN ES        924 20.33                             112    0.10 7  306 236 
 GUY2CHZ I         924 28.05         5.7 0.42                           306 236 
 ELA  HN ES   4    924 28.47                             110    2.59 0  333 231 
 CBOC HZ EP   4    923 50.44                             109    1.04 0  340 253 
 CBOC HN ES   4    924 27.89                             109    1.35 0  340 253 
 DBB  EZ EP        923 49.31                             109   -0.84 6  348 275 
 DBB  EN ES   4    924 25.81                             109   -2.07 0  348 275 
 PRA  HZ EP        923 55.88                             106    0.50 6  393 211 
 PRA  HN ES        924 37.24                             106    0.05 6  393 211 
 PRA  HZ I         924 43.22         4.4 0.26            107            393 211 
 ORTC HZ EP        923 56.73                             106    0.84 6  397 217 
 ORTC HN ES        924 38.59                             106    0.49 6  397 217 
 ORTC HZ I         924 43.86         1.6 0.32            107            397 217 
 SJC  HZ EP   4    923 56.73                             105   -1.43 0  416 326 
 SJC  HN ES   4    924 37.25                             105   -4.89 0  416 326 
 SJC  HZ I         924 42.04         1.3 0.56            106            416 326 
                                                                                
