 2017  114 0221 34.5 L   7.357 -73.183134.3  RSN  5 0.4 1.3LRSN                1
 GAP=177        0.65       6.6     2.9  5.6 -0.2846E+01  0.2514E+01  0.1157E+02E
 Epicentro: RIONEGRO - SANTANDER                                               3
 ACTION:UPD 17-05-22 15:59 OP:jn   STATUS:               ID:20170114022134 L   I
 OLDACT:UP  17-01-14 13:36 OP:dani STATUS:               ID:20170114021744     3
 OLDACT:REG 17-01-14 12:24 OP:dani STATUS:               ID:20170114021744     3
 2017-01-14-0218-00M.COL___326                                                 6
 STAT SP IPHASW D HRMM SECON CODA AMPLIT PERI AZIMU VELO AIN AR TRES W  DIS CAZ7
 PAM  EZ EP        221 54.44                             157    0.2410 53.4  92 
 PAM  EN ES        222  9.47                             157   -0.0710 53.4  92 
 PAM  EZ I         222 11.36         4.4 0.19            160           53.4  92 
 BRR  HZ EP        221 54.08                             153    0.0210 64.6 245 
 BRR  HN ES        222  9.01                             153   -0.2910 64.6 245 
 BRR  HZ I         222 10.19         5.1 0.14            152           64.6 245 
 RUS  HZ EP        222  2.37                             127   -0.24 9  162 176 
 PTB  HZ EP        222  2.65                             125    0.18 9  167 237 
 PTB  HE ES        222 24.50                             125    0.23 9  167 237 
 PTB  HZ I         222 27.09         1.9 0.19            126            167 237 
 ZAR  HZ EP   3    222  2.22                             122   -2.09 2  186 275 
 ZAR  HN ES        222 27.61                             122    0.07 9  186 275 
 ZAR  HZ I         222 31.96         3.2 0.16            122            186 275 
                                                                                
