 2016 1214 0930 43.2 L   6.775 -73.154145.9  RSN  7 0.2 1.5LRSN                1
 GAP=235        0.56       2.6     3.7  3.3  0.4393E+01  0.2186E+01  0.1997E+01E
 Epicentro: LOS SANTOS - SANTANDER                                             3
 ACTION:UPD 17-01-11 20:15 OP:rebc STATUS:               ID:20161214093043 L   I
 OLDACT:UP  16-12-14 17:24 OP:edw  STATUS:               ID:20161214092745     3
 OLDACT:UP  16-12-14 17:23 OP:edw  STATUS:               ID:20161214092745     3
 OLDACT:REG 16-12-14 12:48 OP:and  STATUS:               ID:20161214092745     3
 2016-12-14-0928-00M.COL___374                                                 6
 STAT SP IPHASW D HRMM SECON CODA AMPLIT PERI AZIMU VELO AIN AR TRES W  DIS CAZ7
 BAR2 EZ EP        931  2.84                             172    0.0110 20.5 189 
 BAR2 EZ ES        931 18.24                             172    0.1310 20.5 189 
 BAR2 EZ I         931 19.06        14.7 0.23            168           20.5 189 
 BRR  HZ IP     C  931  4.60                             152    0.1710 71.8 301 
 BRR  HN ES        931 21.21                             152    0.2510 71.8 301 
 BRR  HZ I         931 24.71         3.8 0.19            149           71.8 301 
 RUS  HZ EP        931  6.83                             145    0.0210 97.9 175 
 RUS  HN ES        931 24.83                             145   -0.3710 97.9 175 
 RUS  HZ I         931 26.55         6.8 0.20            144           97.9 175 
 PTB  HZ EP   9    931  9.79                             132   -0.30 0  146 260 
 PTB  HN ES        931 30.54                             133   -0.20 9  146 260 
 PTB  HZ I         931 32.55         3.1 0.16            130            146 260 
 ZAR  HZ EP        931 15.49                             122   -0.22 9  204 293 
 ZAR  HN ES        931 40.82                             122   -0.22 9  204 293 
 ZAR  HZ I         931 47.55         4.3 0.36            121            204 293 
 CHI  HZ EP        931 20.34                             117   -0.29 8  246 195 
 CHI  HN ES        931 50.10                             117    0.30 8  246 195 
 CHI  HZ I         931 55.69         1.3 0.27            117            246 195 
 PRA  HZ EP        931 36.75                             107    0.32 6  389 210 
 PRA  HN ES        932 17.90                             107   -0.02 6  389 210 
 PRA  HZ I         932 21.51         1.6 0.32            107            389 210 
                                                                                
