 2011  614 0252 23.3 L   6.763 -73.064144.9  RSN  7 0.2 1.6LRSN                1
 GAP=166        0.54       4.2     7.5  7.4  0.1553E+01 -0.2414E+02 -0.1101E+02E
 Epicentro: LOS SANTOS - SANTANDER                                             3
 ACTION:UP  11-07-14 19:05 OP:ep   STATUS:               ID:20110614025223 L   I
 2011-06-14-0250-50S.COL___135                                                 6
 STAT SP IPHASW D HRMM SECON CODA AMPLIT PERI AZIMU VELO SNR AR TRES W  DIS CAZ7
 BAR2 SZ EP   1    252 42.90                             171     0.1 7   23 215 
 BAR2 SZ ES   2    252 57.92                             171    -0.2 5   23 215 
 BAR2 SZ I         252 59.26        10.6 0.17                            23 215 
 BTL  SZ EP   1    252 43.35                             169     0.4 7   28 307 
 BRR  HZ EP   1    252 44.77                             149    -0.2 7   81 298 
 BRR  HN ES   1    253  1.97                             149     0.1 7   81 298 
 BRR  HZ I         253  5.22        12.9 0.36                            81 298 
 RUS  HZ I         252 44.97         2.8 0.56                            96 181 
 RUS  HN ES   2    253  4.57                             145    -0.3 5   96 181 
 BRI  SZ EP   1    252 47.29                             141     0.1 7  110  16 
 BRI  SZ I         253 11.38         4.8 0.39                           110  16 
 GRA  SZ EP   1    252 48.83                             136     0.2 7  127  13 
 GRA  SZ ES   2    253  8.31                             136    -0.1 5  127  13 
 GRA  SZ I         253 14.48         3.5 0.50                           127  13 
 OCA  SZ EP   1    252 51.69                             128    -0.4 7  166 350 
 OCA  SZ ES   2    253 14.39                             128    -0.1 5  166 350 
 OCA  SZ I         253 17.00         5.4 0.27                           166 350 
                                                                                
