 2017  514 0056 39.9 L   6.761 -73.141140.9  RSN  6 0.3 1.1LRSN                1
 GAP=139        0.75       3.9     3.8  7.4 -0.2317E+01  0.4752E+01  0.2668E+01E
 Epicentro: LOS SANTOS - SANTANDER                                             3
 ACTION:UPD 17-06-16 13:36 OP:jn   STATUS:               ID:20170514005639 L   I
 OLDACT:DUP 17-05-14 13:29 OP:lv   STATUS:               ID:20170514004743d    3
 2017-05-14-0048-00M.COL___356                                                 6
 STAT SP IPHASW D HRMM SECON CODA AMPLIT PERI AZIMU VELO AIN AR TRES W  DIS CAZ7
 BRR  HE ES   1    057 17.26                             151    0.37 7 73.8 301 
 PAM  EZ EP        057  1.81                             149    0.0110 80.4  37 
 PAM  EN ES        057 18.71                             149   -0.1610 80.4  37 
 RUS  HZ EP        057  2.85                             144   -0.0210 96.2 176 
 RUS  HN ES        057 20.96                             144    0.1810 96.2 176 
 RUS  HZ I         057 22.48         2.4 0.14            144           96.2 176 
 PTB  HZ EP        057  6.67                             131    0.21 9  148 261 
 PTB  HN ES        057 26.52                             131   -0.65 9  148 261 
 SPBC HN ES   2    057 29.51                             128    0.04 5  160 220 
 ZAR  HN ES   2    057 38.36                             121    0.86 4  206 293 
                                                                                
