 2011  814 0044 31.8 L   6.767 -73.102146.4  RSN  6 0.2 1.6LRSN                1
 GAP=144        0.52       2.5     3.8  4.8 -0.1043E+01 -0.3126E+00  0.8826E+00E
 Epicentro: LOS SANTOS - SANTANDER                                             3
 ACTION:UPD 12-07-13 15:51 OP:ep   STATUS:               ID:20110814004431 L   I
 2011-08-14-0042-02S.COL___150                                                 6
 STAT SP IPHASW D HRMM SECON CODA AMPLIT PERI AZIMU VELO AIN AR TRES W  DIS CAZ7
 BAR2 SZ EP   1    044 51.27                             171   -0.18 7 21.3 205 
 BAR2 SZ I         044 51.81         8.3 0.21                          21.3 205 
 BAR2 SZ ES   2    045  6.99                             171    0.20 5 21.3 205 
 BRR  HZ EP        044 53.45                             151    0.0910 77.3 299 
 BRR  HZ I         044 54.79        10.9 0.20                          77.3 299 
 BRR  HN ES        045 10.28                             151    0.1010 77.3 299 
 PAM  SZ EP   1    044 54.44                             151    0.37 7 77.4  35 
 PAM  SZ I         044 55.01         2.2 0.25                          77.4  35 
 PAM  SN ES   1    045 10.97                             151   -0.48 7 77.4  35 
 RUS  HZ EP        044 55.35                             145    0.0310 96.7 179 
 RUS  HZ I         044 56.48         4.8 0.29                          96.7 179 
 RUS  HE ES   1    045 13.81                             145    0.13 7 96.7 179 
 OCA  SZ EP   1    045  0.36                             129   -0.19 7  165 352 
 OCA  SZ ES   1    045 23.09                             129    0.10 7  165 352 
 OCA  SZ I         045 29.69         9.0 0.37                           165 352 
 NOR  SN ES   1    045 35.41                             118   -0.40 6  237 236 
                                                                                
