 2012  314 0722  4.6 L   6.757 -73.154141.8  RSN  6 0.4 1.6LRSN                1
 GAP=137        1.05       6.9     6.2  9.5  0.3466E+01  0.1675E+02 -0.4034E+01E
 ACTION:UP  12-03-31 23:19 OP:EP   STATUS:               ID:20120314072204 L   I
 2012-03-14-0720-00M.COL___202                                                 6
 STAT SP IPHASW D HRMM SECON CODA AMPLIT PERI AZIMU VELO SNR AR TRES W  DIS CAZ7
 BAR2 SZ ES   1    722 38.43                             172    -0.1 7   19 190 
 BAR2 SZ I         722 39.50         8.9 0.08                            19 190 
 BRR  HZ EP   1    722 25.69                             151     0.2 7   73 302 
 BRR  HE ES   1    722 42.42                             151     0.7 7   73 302 
 BRR  HZ I         722 47.98         8.4 0.08                            73 302 
 PAM  SZ EP   1    722 26.60                             149    -0.1 7   82  38 
 PAM  SN ES   1    722 43.39                             149    -0.5 7   82  38 
 RUS  HZ EP   1    722 27.96                             144     0.3 7   96 175 
 RUS  HN ES   1    722 45.87                             144     0.3 7   96 175 
 RUS  HZ I         722 46.98         5.6 0.28                            96 175 
 PTB  HZ EP   1    722 30.69                             131    -0.4 7  146 261 
 PTB  HN ES   1    722 50.86                             131    -0.9 7  146 261 
 PTB  HZ I         722 53.82         3.6 0.18                           146 261 
 ZAR  HZ EP   1    722 37.10                             121     0.2 6  205 293 
 ZAR  HN ES   1    723  2.42                             121     0.3 6  205 293 
 ZAR  HZ I         723  8.24         3.5 0.13                           205 293 
                                                                                
