 2016 1114 0216 19.0 L   6.775 -73.149145.4  RSN  7 0.4 1.6LRSN                1
 GAP=152        0.88       4.1     4.0  5.9  0.1011E-02  0.4908E+01  0.6944E+01E
 Epicentro: LOS SANTOS - SANTANDER                                             3
 ACTION:UPD 17-10-26 21:07 OP:lp   STATUS:               ID:20161114021619 L   I
 OLDACT:REG 16-11-14 12:47 OP:lv   STATUS:               ID:20161114020744     3
 2016-11-14-0208-00M.COL___337                                                 6
 STAT SP IPHASW D HRMM SECON CODA AMPLIT PERI AZIMU VELO AIN AR TRES W  DIS CAZ7
 BAR2 EZ EP        216 38.50                             172   -0.0010 20.6 190 
 BAR2 EZ ES        216 53.80                             172    0.0710 20.6 190 
 BAR2 EZ I         216 54.88        10.2 0.22            170           20.6 190 
 BRR  HZ EP        216 40.05                             152   -0.0910 72.2 301 
 BRR  HN ES        216 57.17                             152    0.5310 72.2 301 
 BRR  HZ I         217  1.09         9.2 0.42            151           72.2 301 
 PAM  EZ EP        216 41.30                             150    0.0110 79.8  39 
 PAM  EN ES        216 58.42                             150   -0.2810 79.8  39 
 PAM  EZ I         217  0.73         6.9 0.32            154           79.8  39 
 PTB  HZ EP        216 45.10                             132   -0.73 9  147 260 
 PTB  HE ES        217  6.35                             132   -0.42 9  147 260 
 PTB  HZ I         217 13.26         5.7 0.45            132            147 260 
 ZAR  HZ EP        216 52.06                             122    0.60 9  205 293 
 ZAR  HN ES        217 16.83                             122    0.03 9  205 293 
 ZAR  HZ I         217 18.57         3.6 0.22            123            205 293 
 CHI  HZ EP        216 56.72                             117    0.37 8  246 195 
 CHI  HE ES        217 25.63                             117    0.12 8  246 195 
 CHI  HZ I         217 28.90         1.4 0.20            119            246 195 
 PTGC HZ EP   4    217  1.03                             112   -1.51 0  306 158 
 PTGC HN ES   4    217 34.78                             112   -1.74 0  306 158 
 SJC  HZ EP   9    217 12.37                             105   -2.40 0  411 327 
 SJC  HN ES        217 55.81                                   -0.08 6  411 327 
 SJC  HZ I         218  1.41         0.7 0.22            107            411 327 
                                                                                
