 2013  414 0716 48.7 L   6.781 -73.163141.5  RSN  7 0.4 2.1LRSN                1
 GAP=135        0.94       4.7     4.5  7.5 -0.4828E+01 -0.2185E+01  0.2589E+00E
 Epicentro: LOS SANTOS - SANTANDER                                             3
 ACTION:UPD 13-05-22 14:38 OP:EP   STATUS:               ID:20130414071648 L   I
 2013-04-14-0708-40M.COL___212                                                 6
 STAT SP IPHASW D HRMM SECON CODA AMPLIT PERI AZIMU VELO AIN AR TRES W  DIS CAZ7
 BAR2 SZ EP        717  7.78                             171   -0.0110 21.0 186 
 GIR2 SZ EP        717  7.82                             166   -0.1110 33.1 354 
 BRR  HZ EP        717  9.63                             152    0.2610 70.6 301 
 BRR  HN ES        717 26.11                             152    0.6310 70.6 301 
 PAM  SZ IP     C  717 10.78                             149    0.1310 80.2  40 
 PAM  SZ I         717 10.95        40.7 0.18            152           80.2  40 
 PAM  SN ES        717 27.40                             149   -0.3610 80.2  40 
 RUS  HZ EP        717 12.47                             143    0.5610 98.7 175 
 RUS  HN ES        717 29.79                             143   -0.2110 98.7 175 
 RUS  HN I         717 34.13         6.7 0.14            143           98.7 175 
 PTB  HZ EP        717 14.83                             131   -0.30 9  146 259 
 PTB  HN ES        717 35.24                             131   -0.50 9  146 259 
 PTB  HN I         717 37.99        23.6 0.30            133            146 259 
 CAPV BZ EP        717 15.80                             130   -0.22 9  152  38 
                                                                                
