 2012  814 0223 35.7 L   6.772 -73.180152.3  RSN  6 0.3 1.9LRSN                1
 GAP=179        0.76       5.1     5.3  7.9  0.1379E+02  0.4094E+01 -0.2791E+01E
 Epicentro: LOS SANTOS - SANTANDER                                             3
 ACTION:UPD 12-09-10 11:56 OP:ep   STATUS:               ID:20120814022335 L   I
 2012-08-14-0220-00M.COL___217                                                 6
 STAT SP IPHASW D HRMM SECON CODA AMPLIT PERI AZIMU VELO AIN AR TRES W  DIS CAZ7
 BAR2 SZ EP   1    223 55.59                             172   -0.47 7 19.8 181 
 BAR2 SZ ES   1    224 11.29                             172   -0.64 7 19.8 181 
 BAR2 SZ I         224 12.47        28.4 0.17                          19.8 181 
 BRR  HZ EP   1    223 57.64                             154    0.17 7 69.5 302 
 BRR  HE ES        224 14.94                             154    0.4910 69.5 302 
 BRR  HZ I         224 19.29        15.1 0.20                          69.5 302 
 RUS  HZ EP   1    224  0.15                             146    0.24 7 97.8 174 
 RUS  HN ES        224 19.01                             146    0.2210 97.8 174 
 RUS  HZ I         224 20.16         5.7 0.30                          97.8 174 
 PTB  HZ EP   2    224  2.96                             135    0.13 5  143 260 
 PTB  HN ES        224 23.78                             135   -0.21 9  143 260 
 OCA  HN ES   2    224 27.42                             131   -0.04 5  163 355 
 OCA  HZ I         224 29.25         9.9 0.23                           163 355 
 ZAR  HN ES        224 33.61                             124   -0.20 9  202 293 
                                                                                
