 2015 1114 0114  7.3 L   6.797 -73.145143.7  RSN 11 0.3 1.9LRSN                1
 GAP=137        0.66       2.1     3.3  4.5 -0.1054E+01  0.2431E+01  0.2811E+01E
 Epicentro: LOS SANTOS - SANTANDER                                             3
 ACTION:UPD 15-12-28 16:10 OP:cam  STATUS:               ID:20151114011407 L   I
 OLDACT:UP  15-12-02 15:46 OP:cam  STATUS:               ID:20151114011407 L   3
 OLDACT:UP  15-11-19 06:51 OP:CARA STATUS:               ID:20151114011407 L   3
 OLDACT:UP  15-11-14 19:19 OP:dnl  STATUS:               ID:20151114010748     3
 OLDACT:REG 15-11-14 13:52 OP:dnl  STATUS:               ID:20151114010748     3
 2015-11-14-0107-48M.COL___316                                                 6
 STAT SP IPHASW D HRMM SECON CODA AMPLIT PERI AZIMU VELO AIN AR TRES W  DIS CAZ7
 BAR2 EZ EP        114 26.47                             170   -0.2410 23.0 190 
 BAR2 EZ ES   1    114 41.30                             170   -0.52 7 23.0 190 
 BAR2 EZ I         114 43.13        18.5 0.22            168           23.0 190 
 BRR  HZ EP   1    114 28.29                             152    0.02 7 71.4 299 
 BRR  HN ES   1    114 45.16                             152    0.56 7 71.4 299 
 PAM  EZ EP        114 29.25                             150   -0.0910 77.6  39 
 PAM  EE ES        114 46.74                             150    0.2310 77.6  39 
 PAM  EZ I         114 48.64        15.6 0.52            151           77.6  39 
 RUS  HZ EP   1    114 30.69                             143   -0.16 7  100 176 
 RUS  HN ES   2    114 49.05                             143   -0.16 5  100 176 
 RUS  HZ I         114 50.08         4.0 0.28            145            100 176 
 OCA  HZ EP   1    114 35.55                             129    0.04 7  161 353 
 OCA  HE ES   1    114 57.94                             129    0.44 7  161 353 
 OCA  HZ I         115  1.98        15.0 0.16            126            161 353 
 SPBC HZ EP        114 35.60                             129   -0.05 9  163 219 
 SPBC HE ES        114 57.78                             129    0.04 9  163 219 
 SPBC HZ I         115  2.14         9.5 0.32            127            163 219 
 ZAR  HZ EP   4    114 41.75                             122    2.09 0  204 292 
 ZAR  HE ES        115  4.48                             122   -0.40 9  204 292 
 ZAR  HZ I         115 11.22         9.0 0.34            119            204 292 
 SML  HZ EP   2    114 44.46                             117    0.58 4  244 335 
 SML  HE ES   2    115 11.52                             117   -0.86 4  244 335 
 SML  HZ I         115 21.13        13.5 0.10            115            244 335 
 CHI  HZ EP        114 44.85                             117   -0.03 8  248 195 
 CHI  HN ES        115 14.33                             117    0.16 8  248 195 
 CHI  HZ I         115 17.44         4.2 0.60            116            248 195 
 MON  HZ EP   9    114 53.94                             108   -2.34 0  354 308 
 MON  HE ES        115 32.27                             108    0.15 6  354 308 
 MON  HZ I         115 48.97         1.9 0.62            107            354 308 
 PRA  HZ EP        115  0.64                             106   -0.11 6  392 210 
 PRA  HN ES        115 43.21                             106    0.80 6  392 210 
 PRA  HZ I         115 47.72         3.9 0.32            106            392 210 
                                                                                
