 2013 1014 0333 35.0 L   6.811 -73.129146.6  RSN 11 0.4 1.7LRSN                1
 GAP=138        0.75       2.7     3.8  5.5 -0.9624E+00  0.3017E+01 -0.1591E+01E
 Epicentro: LOS SANTOS - SANTANDER                                             3
 ACTION:UPD 13-11-25 09:21 OP:ep   STATUS:               ID:20131014033335 L   I
 OLDACT:UP  13-10-14 08:45 OP:mh   STATUS:               ID:20131014032959     3
 OLDACT:REG 13-10-14 07:24 OP:mh   STATUS:               ID:20131014032959     3
 2013-10-14-0329-59M.COL___273                                                 6
 STAT SP IPHASW D HRMM SECON CODA AMPLIT PERI AZIMU VELO AIN AR TRES W  DIS CAZ7
 BAR2 SZ EP   1    333 54.96                             170    0.15 7 24.9 194 
 BAR2 SZ ES   1    334  9.95                             170   -0.27 7 24.9 194 
 BAR2 SZ I         334 11.89        10.3 0.25            172           24.9 194 
 BRR  HZ EP        333 56.72                             152    0.3810 72.3 297 
 BRR  HN ES   1    334 13.27                             152    0.31 7 72.3 297 
 BRR  HZ I         334 16.82         8.8 0.16            150           72.3 297 
 PAM  SZ EP   1    333 56.71                             152   -0.51 7 75.3  39 
 PAM  SN ES   2    334 14.99                             152    0.46 5 75.3  39 
 PAM  SZ I         334 17.42         3.3 0.33            153           75.3  39 
 RUS  HZ EP   1    333 58.76                             144   -0.19 7  102 177 
 RUS  HN ES   1    334 17.68                             144    0.08 7  102 177 
 RUS  HZ I         334 18.72         4.2 0.29            149            102 177 
 PTB  HN ES        334 22.93                             132   -0.57 9  150 259 
 OCA  HN ES   1    334 25.82                             130    0.42 7  159 352 
 OCA  HZ I         334 30.91         4.5 0.31            131            159 352 
 SPBC HZ EP        334  3.96                             129    0.16 9  165 219 
 SPBC HN ES        334 26.14                             129   -0.10 9  165 219 
 SPBC HZ I         334 28.56         5.4 0.27            132            165 219 
 ZAR  HZ EP   1    334  8.07                             122    0.39 6  205 292 
 ZAR  HN ES        334 33.38                             122    0.25 8  205 292 
 ZAR  HZ I         334 39.90         7.7 0.30            123            205 292 
 NOR  HZ EP   1    334 10.75                             118   -0.31 6  237 234 
 NOR  HE ES   1    334 39.51                             118    0.36 6  237 234 
 NOR  HZ I         334 43.18         3.6 0.27            121            237 234 
 SML  HZ EP        334 11.48                             118   -0.20 8  243 335 
 SML  HN ES   1    334 39.43                             118   -0.84 6  243 335 
 SML  HZ I         334 45.66         6.7 0.08            119            243 335 
 GUY2CHZ EP   4    334 20.14                             112    1.20 0  303 235 
 GUY2CHN ES   4    334 56.63                             112    3.45 0  303 235 
 PRA  HN ES   2    335 11.57                             107    0.81 3  394 210 
                                                                                
