 2015 1214 0619 38.0 L   7.429 -73.199132.2  RSN 11 0.3 2.0LRSN                1
 GAP=109        0.78       2.4     2.9  4.5 -0.5116E+00  0.4736E+01  0.7826E+00E
 Epicentro: EL PLAYON - SANTANDER                                              3
 ACTION:UPD 16-02-04 15:04 OP:cam  STATUS:               ID:20151214061938 L   I
 OLDACT:REG 15-12-14 13:24 OP:cara STATUS:               ID:20151214061748     3
 2015-12-14-0617-48M.COL___330                                                 6
 STAT SP IPHASW D HRMM SECON CODA AMPLIT PERI AZIMU VELO AIN AR TRES W  DIS CAZ7
 PAM  EZ EP     C  619 58.01                             156    0.4110 56.1 100 
 PAM  EN ES        620 12.96                             156    0.1010 56.1 100 
 PAM  EZ I         620 14.67        22.6 0.18            160           56.1 100 
 BRR  HZ IP     D  619 57.59                             151    0.1210 66.8 238 
 BRR  HE ES        620 12.80                             151    0.1710 66.8 238 
 BRR  HZ I         620 13.40        19.5 0.26            150           66.8 238 
 OCA  HZ EP        619 59.33                             143    0.0810 90.5 352 
 OCA  HN ES        620 15.79                             143   -0.0110 90.5 352 
 OCA  HZ I         620 18.21        22.0 0.34            145           90.5 352 
 BAR2 EZ IP     D  619 59.51                             143   -0.0010 92.5 179 
 BAR2 EZ ES        620 15.62                             143   -0.6410 92.5 179 
 BAR2 EZ I         620 16.94        24.0 0.30            144           92.5 179 
 RUS  HZ EP        620  6.71                             125   -0.07 9  170 176 
 RUS  HE ES        620 29.21                             125    0.02 9  170 176 
 PTB  HZ EP        620  5.89                             124   -0.24 9  170 235 
 PTB  HN ES        620 27.61                             124   -0.43 9  170 235 
 PTB  HZ I         620 31.91        11.2 0.20            125            170 235 
 SML  HZ EP        620  6.63                             123   -0.43 9  180 328 
 SML  HN ES   4    620 28.55                             123   -1.15 0  180 328 
 SML  HZ I         620 29.73        19.0 0.24            124            180 328 
 ZAR  HZ EP        620  7.54                             122    0.09 9  183 272 
 ZAR  HN ES        620 30.70                             122    0.31 9  183 272 
 ZAR  HZ I         620 34.05         9.5 0.36            123            183 272 
 SPBC HZ EP        620 11.11                             117   -0.23 8  219 206 
 SPBC HE ES        620 37.98                             117    0.67 8  219 206 
 SPBC HZ I         620 40.84        12.1 0.24            118            219 206 
 HEL  HZ EP        620 19.93                             110    0.11 7  292 242 
 HEL  HN ES        620 52.08                             110   -0.33 7  292 242 
 HEL  HZ I         621  0.49         3.3 0.32            111            292 242 
 GUY2CHZ EP   4    620 26.88                             107    1.12 0  342 225 
 GUY2CHN ES        621  3.42                             107    0.44 7  342 225 
 GUY2CHZ I         621 14.92         4.0 0.64                           342 225 
                                                                                
