 2010  514 0344 11.6 L   6.783 -73.039136.0  RSN  7 0.4 1.6LRSN                1
 GAP=168        0.91       4.4    11.4 10.1 -0.7713E+01 -0.5245E+02 -0.2388E+01E
 Epicentro: LOS SANTOS - SANTANDER                                             3
 ACTION:UP  10-08-24 10:04 OP:vdl  STATUS:               ID:20100514034411 L   I
 2010-05-14-0340-16S.COL___105                                                 6
 STAT SP IPHASW D HRMM SECON CODA AMPLIT PERI AZIMU VELO AIN AR TRES W  DIS CAZ7
 BAR2 SZ EP        344 30.20                             169     0.010   27 217 
 BAR2 SZ ES   2    344 44.63                             169     0.0 5   27 217 
 BRR  HZ EP   3    344 32.98                             148     0.5 2   83 296 
 BRR  HZ I         344 33.36        15.9 0.09                            83 296 
 BRR  HN ES   1    344 49.11                             148     0.4 7   83 296 
 RUS  HZ EP        344 34.15                             142    -0.110   99 183 
 RUS  HN ES   2    344 51.44                             142    -0.5 5   99 183 
 RUS  HZ I         344 53.95         3.2 0.20                            99 183 
 BRI  SZ EP        344 35.04                             140     0.610  107  15 
 GUE  SZ EP        344 35.46                             137     0.010  116   6 
 GUE  SZ ES   2    344 53.42                             137    -0.6 5  116   6 
 GRA  SZ EP        344 36.08                             135     0.210  125  12 
 GRA  SZ ES   1    344 55.00                             135     0.1 7  125  12 
 OCA  SZ EP        344 38.99                             127    -0.6 9  164 349 
 OCA  SZ ES   2    345  0.20                             127    -1.1 5  164 349 
 OCA  SZ I         345  3.86         5.1 0.35                           164 349 
                                                                                
