 2012 1014 0824 54.1 L   6.754 -73.093146.1  RSN  4 0.2 1.6LRSN                1
 GAP=145        0.48       3.2     4.7  4.6 -0.2860E+00 -0.1550E+01  0.3804E+00E
 Epicentro: LOS SANTOS - SANTANDER                                             3
 ACTION:UPD 12-11-22 17:03 OP:ep   STATUS:               ID:20121014082454 L   I
 2012-10-14-0820-00M.COL___231                                                 6
 STAT SP IPHASW D HRMM SECON CODA AMPLIT PERI AZIMU VELO AIN AR TRES W  DIS CAZ7
 BAR2 SZ EP        825 13.59                             172   -0.1110 20.5 209 
 BAR2 SZ ES   1    825 28.82                             172   -0.18 7 20.5 209 
 PAM  SZ EP        825 16.53                             151    0.1610 77.9  34 
 PAM  SZ I         825 16.69         4.9 0.22                          77.9  34 
 PAM  SN ES   1    825 33.70                             151   -0.05 7 77.9  34 
 BRR  HZ EP        825 15.45                             150   -0.2610 78.7 300 
 BRR  HN ES   1    825 32.87                             150    0.29 7 78.7 300 
 RUS  HZ EP        825 17.66                             145    0.1610 95.3 179 
 RUS  HN ES   1    825 35.79                             145    0.03 7 95.3 179 
 RUS  HN I         825 37.96        10.0 0.26                          95.3 179 
                                                                                
