 2016 1214 0123 15.5 L   6.705 -73.195145.2  RSN  5 0.3 1.3LRSN                1
 GAP=224        0.82       6.2     5.7  6.6  0.2170E+02  0.6589E+01  0.1068E+01E
 Epicentro: VILLANUEVA - SANTANDER                                             3
 ACTION:UPD 17-01-11 20:14 OP:rebc STATUS:               ID:20161214012315 L   I
 OLDACT:UP  16-12-14 13:16 OP:and  STATUS:               ID:20161214011745     3
 OLDACT:REG 16-12-14 11:57 OP:and  STATUS:               ID:20161214011745     3
 2016-12-14-0118-00M.COL___377                                                 6
 STAT SP IPHASW D HRMM SECON CODA AMPLIT PERI AZIMU VELO AIN AR TRES W  DIS CAZ7
 BAR2 EZ EP        123 34.58                             175   -0.2710 12.5 174 
 BAR2 EZ ES        123 49.57                             175   -0.4010 12.5 174 
 BRR  HZ EP        123 36.56                             152   -0.0510 72.5 308 
 BRR  HN ES        123 53.42                             152    0.3010 72.5 308 
 RUS  HZ EP        123 38.76                             147    0.3110 90.6 172 
 RUS  HN ES        123 56.74                             147    0.3410 90.6 172 
 PTB  HZ EP        123 41.46                             133   -0.28 9  141 263 
 PTB  HN ES        124  1.93                             133   -0.32 9  141 263 
 PTB  HZ I         124  6.96         2.2 0.11            129            141 263 
 ZAR  HZ EP   4    123 50.22                             122    2.43 0  203 295 
 ZAR  HE ES        124 13.42                             122    0.41 9  203 295 
 ZAR  HZ I         124 19.87         2.4 0.37            120            203 295 
                                                                                
