 2014  314 0343 21.0 L   6.810 -73.181148.0  RSN  7 0.4 1.7LRSN                1
 GAP=132        0.84       4.3     4.3  7.6 -0.1727E+01  0.5530E+01  0.3212E+00E
 Epicentro: LOS SANTOS - SANTANDER                                             3
 OLDACT:DUP 14-03-14 11:33 OP:fm   STATUS:               ID:20140314033820d    3
 ACTION:UPD 14-04-09 23:17 OP:nd   STATUS:               ID:20140314034321 L   I
 OLDACT:UP  14-03-14 11:42 OP:fm   STATUS:               ID:20140314033820d    3
 2014-03-14-0338-19M.COL___232                                                 6
 STAT SP IPHASW D HRMM SECON CODA AMPLIT PERI AZIMU VELO AIN AR TRES W  DIS CAZ7
 BAR2 SZ EP   1    343 40.94                             170   -0.00 7 24.1 180 
 BAR2 SZ ES   2    343 56.06                             170   -0.42 5 24.1 180 
 BAR2 SZ I         343 59.51        18.8 1.02            169           24.1 180 
 PAM  SZ EP        343 43.88                             151    0.3010 79.1  42 
 PAM  SN ES   1    344  0.80                             151   -0.38 7 79.1  42 
 PAM  SZ I         344  2.80         5.5 0.50            156           79.1  42 
 RUS  HZ EP        343 45.12                             144    0.0210  102 174 
 RUS  HN ES        344  4.16                             144    0.2810  102 174 
 RUS  SZ I         344  4.29         4.9 0.60            145            102 174 
 PTB  HZ EP        343 47.05                             133   -0.81 9  144 258 
 PTB  HN ES        344  8.75                             133   -0.03 9  144 258 
 PTB  SZ I         344 10.09         4.5 2.28            135            144 258 
 SPBC HZ EP   1    343 49.87                             130    0.32 7  162 218 
 SPBC HN ES   1    344 11.74                             130   -0.06 7  162 218 
 SPBC SZ I         344 19.02         6.5 0.66            131            162 218 
 ZAR  HE ES   1    344 19.19                             123    0.89 6  200 292 
 CHI  HZ EP   1    343 58.85                             118   -0.01 6  249 194 
 CHI  HN ES   2    344 28.25                             118   -0.12 4  249 194 
 CHI  HZ I         344 30.58         3.9 1.78            120            249 194 
                                                                                
