 2014  414 0722 44.6 L   6.801 -73.101137.1  RSN  5 0.2 1.5LRSN                1
 GAP=222        0.55       2.4     8.6 13.3  0.1193E+02 -0.9649E+02 -0.1826E+02E
 Epicentro: LOS SANTOS - SANTANDER                                             3
 ACTION:UPD 14-05-13 23:08 OP:nd   STATUS:               ID:20140414072244 L   I
 OLDACT:DUP 14-04-14 15:11 OP:nd   STATUS:               ID:20140414072046d    3
 2014-04-14-0720-45M.COL___263                                                 6
 STAT SP IPHASW D HRMM SECON CODA AMPLIT PERI AZIMU VELO AIN AR TRES W  DIS CAZ7
 PTB  HZ EP        723 11.36                             129    0.0310  153 259 
 PTB  HN ES        723 32.00                             129   -0.1710  153 259 
 PTB  HZ I         723 34.12         4.4 0.12            141            153 259 
 SPBC HZ EP        723 13.08                             126    0.3210  166 220 
 SPBC HN ES        723 34.83                             126    0.1110  166 220 
 SPBC HZ I         723 37.99         5.1 0.18            137            166 220 
 ZAR  HZ EP        723 16.79                             120   -0.18 9  209 292 
 ZAR  HN ES        723 42.36                             120    0.14 9  209 292 
 ZAR  HZ I         723 44.91         2.1 0.42            130            209 292 
 SML  HZ EP        723 20.65                             115   -0.33 9  246 334 
 SML  HN ES        723 49.50                             115    0.15 9  246 334 
 SML  HZ I         723 53.74         3.8 0.26            123            246 334 
 CHI  HZ EP     D  723 22.21                             115    0.22 8  250 196 
 CHI  HN ES        723 50.77                             115   -0.38 8  250 196 
 CHI  HZ I         723 56.96         1.2 0.30            123            250 196 
                                                                                
