 2015  214 0755  0.8 L   6.819 -73.161143.7  RSN 24 0.5 2.6LRSN                1
 GAP= 57        1.16       2.6     3.2  4.9 -0.4905E+00  0.2783E+01  0.5599E+00E
 Epicentro: LOS SANTOS - SANTANDER                                             3
 ACTION:UPD 15-04-30 21:26 OP:nd   STATUS:               ID:20150214075500 L   I
 OLDACT:REG 15-02-14 13:01 OP:fm   STATUS:               ID:20150214074735     3
 2015-02-14-0747-35M.COL___293                                                 6
 STAT SP IPHASW D HRMM SECON CODA AMPLIT PERI AZIMU VELO AIN AR TRES W  DIS CAZ7
 BAR2 EZ EP     D  755 20.73                             170    0.5310 25.2 185 
 BAR2 EZ ES        755 35.53                             170    0.1910 25.2 185 
 BAR2 EZ I         755 38.51       126.9 0.26            169           25.2 185 
 BRR  HZ EP        755 22.48                             153    0.9210 68.7 298 
 BRR  HE ES        755 38.49                             153    0.7210 68.7 298 
 BRR  HZ I         755 43.50        89.9 0.26            151           68.7 298 
 RUS  HZ EP     D  755 24.71                             143    0.2210  103 175 
 RUS  HE ES        755 42.63                             143   -0.3510  103 175 
 RUS  HZ I         755 44.78        48.8 0.28            145            103 175 
 PTB  HZ EP        755 27.20                             132   -0.26 9  146 258 
 PTB  HN ES        755 47.64                             132   -0.63 9  146 258 
 PTB  HZ I         755 51.05        48.3 0.14            132            146 258 
 TAM  HZ IP     C  755 29.18                             129    0.68 9  157 106 
 TAM  HE ES        755 49.25                             129   -0.87 9  157 106 
 TAM  HZ I         755 50.22        29.9 0.28            135            157 106 
 OCA  HZ EP        755 28.78                             129    0.07 9  158 354 
 OCA  HE ES        755 50.32                             129   -0.18 9  158 354 
 OCA  HZ I         755 59.20        51.7 0.22            131            158 354 
 SPBC HZ EP        755 29.50                             128    0.33 9  164 218 
 SPBC HE ES        755 50.32                             128   -1.00 9  164 218 
 SPBC HZ I         755 58.58        79.8 0.36            130            164 218 
 NOR  HZ EP        755 36.61                             118    0.24 8  235 234 
 NOR  HE ES        756  3.59                             118   -0.54 8  235 234 
 NOR  HZ I         756 11.53        34.5 0.22            119            235 234 
 SML  HZ EP        755 36.68                             117   -0.32 8  241 335 
 SML  HE ES        756  4.93                             117   -0.33 8  241 335 
 SML  HZ I         756 11.95        54.9 0.26            119            241 335 
 CHI  HZ EP        755 39.06                             116    0.53 8  250 195 
 CHI  HN ES        756  8.03                             116    0.05 8  250 195 
 CHI  HZ I         756 13.58        26.7 0.30            119            250 195 
 ROSC BZ EP        755 40.01                             116    1.13 8  254 210 
 ROSC BE ES        756  8.70                             116    0.09 8  254 210 
 ROSC BZ I         756 15.26        72.1 0.45            118            254 210 
 URE  HZ EP        755 41.21                             113   -0.27 7  281 292 
 URE  HE ES   4    756 10.81                             113   -2.42 0  281 292 
 URE  HZ I         756 22.81        24.6 0.22            115            281 292 
 GUY2CHZ EP        755 44.39                             112    0.12 7  301 234 
 GUY2CHN ES        756 18.22                             112    0.03 7  301 234 
 GUY2CHZ I         756 27.13        28.6 0.62                           301 234 
 PTGC HZ EP     D  755 43.88                             111   -0.95 7  311 158 
 PTGC HE ES   4    756 16.29                             111   -2.91 0  311 158 
 PTGC HZ I         756 18.68        14.5 0.22            113            311 158 
 CBOC HZ EP        755 47.42                             109   -0.07 7  333 252 
 CBOC HN ES        756 23.90                             109   -0.03 7  333 252 
 CBOC HZ I         756 33.64         7.5 0.58            111            333 252 
 DBB  SZ EP        755 48.74                             109    0.78 7  338 274 
 DBB  SZ ES   1    756 24.43                             109   -0.32 5  338 274 
 MON  HZ EP   1    755 48.70                             108   -0.69 5  351 308 
 MON  HN ES        756 26.48                             108   -0.83 6  351 308 
 MON  HZ I         756 28.52        10.6 0.36            110            351 308 
 SDV  BZ EP        755 50.04                             108   -0.70 6  360  51 
 SDV  BE ES   4    756 24.93                             108   -4.78 0  360  51 
 SDV  BZ I         756 31.36         5.0 0.45            110            360  51 
 PRA  HZ EP        755 54.29                             106   -0.05 6  393 209 
 PRA  HE ES        756 35.39                             106   -0.73 6  393 209 
 PRA  HZ I         756 43.21        29.8 0.26            108            393 209 
 ORTC HZ EP        755 54.81                             106    0.10 6  396 216 
 ORTC HE ES        756 37.15                             106    0.38 6  396 216 
 ORTC HZ I         756 44.67        13.2 0.34            107            396 216 
 PAL  HZ EP        755 56.15                             105    0.33 6  405 239 
 PAL  HN ES   4    756 35.59                             105   -3.17 0  405 239 
 PAL  HZ I         756 46.25         6.4 0.24            107            405 239 
 YOT  HZ EP   1    756  3.77                             103   -0.00 4  472 229 
 YOT  HE ES   4    756 47.06                             103   -5.85 0  472 229 
 MACC HZ EP   4    756  7.70                             101   -1.95 0  522 188 
 MACC HE ES   4    756 58.63                             101   -4.74 0  522 188 
 GARC HZ EP   1    756 15.54                             100   -0.57 2  574 207 
 FLO2 HZ EP        756 23.93                              98   -0.07 2  642 206 
                                                                                
