 2016  914 0042 19.8 L   6.800 -73.089149.7  RSN 13 0.5 1.9LRSN                1
 GAP=123        1.06       3.8     4.2  6.2 -0.5479E+01 -0.3978E+01 -0.5721E+00E
 Epicentro: LOS SANTOS - SANTANDER                                             3
 ACTION:UPD 17-08-17 21:09 OP:lp   STATUS:               ID:20160914004219 L   I
 OLDACT:UP  16-09-14 09:32 OP:dani STATUS:               ID:20160914003738     3
 OLDACT:REG 16-09-14 08:33 OP:dani STATUS:               ID:20160914003738     3
 2016-09-14-0038-00M.COL___324                                                 6
 STAT SP IPHASW D HRMM SECON CODA AMPLIT PERI AZIMU VELO AIN AR TRES W  DIS CAZ7
 BAR2 EZ EP        042 40.04                             170    0.1410 25.1 204 
 BAR2 EZ ES        042 55.27                             170   -0.3510 25.1 204 
 BAR2 EZ I         042 57.63        23.4 0.28            167           25.1 204 
 PAM  EZ EP        042 42.91                             153    0.7310 73.6  36 
 PAM  EZ I         043  2.08        10.6 0.46            146           73.6  36 
 BRR  HZ EP        042 41.82                             152    0.1710 76.7 296 
 BRR  HN ES        042 59.05                             152    0.3210 76.7 296 
 BRR  HZ I         043  2.82        11.0 0.12            141           76.7 296 
 RUS  HZ EP        042 43.97                             145    0.0910  100 180 
 RUS  HE ES        043  2.85                             145    0.1510  100 180 
 RUS  HZ I         043  3.69         9.4 0.24            138            100 180 
 PTB  HZ EP        042 46.91                             132   -0.70 9  154 259 
 PTB  HE ES        043  8.72                             132   -0.60 9  154 259 
 OCA  HE ES        043 11.13                             130    0.28 9  161 351 
 SPBC HZ EP        042 48.70                             129   -0.24 9  167 221 
 SPBC HN ES        043 11.71                             129    0.01 9  167 221 
 ZAR  HZ EP        042 52.93                             122   -0.13 8  210 292 
 ZAR  HN ES   4    043 16.83                             122   -2.20 0  210 292 
 ZAR  HZ I         043 26.64         8.4 0.46            113            210 292 
 NOR  HE ES        043 24.83                             119    0.09 8  240 235 
 CHI  HZ EP        042 58.35                             118    0.49 8  250 197 
 CHI  HN ES   4    043 26.17                             118   -1.41 0  250 197 
 CHI  HZ I         043 38.46         3.3 0.17            110            250 197 
 HEL  HZ EP   4    043  2.27                             115    1.43 0  278 256 
 HEL  HZ I         043 39.67         6.1 0.56            107            278 256 
 SOCV BZ EP        043  2.79                             113    0.38 7  296  56 
 SOCV BN ES        043 34.43                             113   -1.25 7  296  56 
 GUY2CHZ EP   9    043  6.65                             113    2.52 0  306 235 
 GUY2CHE ES        043 41.22                             112   -0.04 7  306 235 
 GUY2CHZ I         043 46.59         7.8 0.34                           306 235 
                                                                                
