 2013 1214 0510  6.7 L   6.803 -73.184141.5  RSN  8 0.4 1.6LRSN                1
 GAP=132        0.97       3.6     4.5  7.2 -0.2405E+01  0.9362E+01  0.2285E-01E
 Epicentro: LOS SANTOS - SANTANDER                                             3
 ACTION:UPD 14-01-13 10:18 OP:ep   STATUS:               ID:20131214051006 L   I
 OLDACT:REG 13-12-14 07:29 OP:jn   STATUS:               ID:20131214051000     3
 2013-12-14-0510-00M.COL___285                                                 6
 STAT SP IPHASW D HRMM SECON CODA AMPLIT PERI AZIMU VELO AIN AR TRES W  DIS CAZ7
 BAR2 SZ EP        510 25.91                             170    0.0810 23.3 179 
 BAR2 SZ ES        510 40.84                             170    0.1010 23.3 179 
 BAR2 SZ I         510 41.99        13.2 0.46            169           23.3 179 
 BRR  HZ EP        510 27.67                             153    0.4910 67.3 300 
 BRR  HN ES   2    510 44.36                             153    1.21 5 67.3 300 
 BRR  HZ I         510 47.67        10.4 0.44            153           67.3 300 
 PAM  SZ EP        510 28.79                             149    0.1610 79.9  42 
 PAM  SN ES        510 45.11                             149   -0.6210 79.9  42 
 PAM  SZ I         510 47.81         6.7 0.46            155           79.9  42 
 RUS  HZ EP        510 30.23                             142    0.1410  101 174 
 RUS  HN ES        510 48.49                             142    0.1610  101 174 
 RUS  HZ I         510 49.85         3.0 0.34            145            101 174 
 PTB  HZ EP        510 32.73                             132   -0.22 9  144 258 
 PTB  HN ES        510 53.46                             132    0.03 9  144 258 
 PTB  HZ I         510 57.30         4.1 0.10            133            144 258 
 OCA  HN ES        510 56.22                             129   -0.17 9  160 355 
 SPBC HZ EP        510 34.82                             128    0.17 9  161 218 
 SPBC HN ES   1    510 55.36                             128   -1.09 7  161 218 
 SPBC HZ I         511  4.94         4.8 0.26            130            161 218 
 ZAR  HN ES   1    511  2.91                             122   -0.31 6  200 293 
                                                                                
