 2015  414 0805 28.6 L   6.804 -73.152157.5  RSN  4 0.4 1.3LRSN                1
 GAP=200        0.90       4.9     7.6  8.4  0.1707E+02 -0.1618E+02 -0.1613E+02E
 Epicentro: LOS SANTOS - SANTANDER                                             3
 ACTION:UPD 15-06-03 16:54 OP:cam  STATUS:               ID:20150414080528 L   I
 OLDACT:DUP 15-04-14 14:59 OP:carl STATUS:               ID:20150414075748d    3
 2015-04-14-0757-47M.COL___272                                                 6
 STAT SP IPHASW D HRMM SECON CODA AMPLIT PERI AZIMU VELO AIN AR TRES W  DIS CAZ7
 BRR  HZ EP        8 5 51.62                             155    0.6610 70.4 299 
 BRR  HN ES        8 6  8.63                             155    0.2110 70.4 299 
 BRR  HZ I         8 6 12.57         2.3 0.20            156           70.4 299 
 RUS  HZ EP        8 5 53.60                             146    0.0710  101 176 
 RUS  HN ES        8 6 12.63                             146   -0.3610  101 176 
 RUS  HZ I         8 6 14.26         2.2 0.30            150            101 176 
 PTB  HZ EP        8 5 56.61                             135    0.14 9  147 259 
 PTB  HE ES        8 6 17.97                             135   -0.25 9  147 259 
 PTB  HZ I         8 6 19.63         2.2 0.36            138            147 259 
 SML  HZ EP        8 6  5.32                             120   -0.49 8  243 335 
 SML  HN ES        8 6 34.57                             120   -0.29 8  243 335 
 SML  HZ I         8 6 37.98         2.2 0.10            122            243 335 
                                                                                
