 2017  814 0659 18.2 L   5.927 -74.057 90.9  RSN  6 0.2 1.3LRSN                1
 GAP= 91        0.52       2.5     1.9  4.3 -0.2184E+01  0.1759E+01 -0.5803E+01E
 Epicentro: LA BELLEZA - SANTANDER                                             3
 ACTION:UPD 17-09-04 20:20 OP:rebc STATUS:               ID:20170814065918 L   I
 OLDACT:UP  17-08-14 15:28 OP:and  STATUS:               ID:20170814065739     3
 OLDACT:UP  17-08-14 15:28 OP:and  STATUS:               ID:20170814065739     3
 OLDACT:REG 17-08-14 13:17 OP:and  STATUS:               ID:20170814065739     3
 2017-08-14-0658-00M.COL___413                                                 6
 STAT SP IPHASW D HRMM SECON CODA AMPLIT PERI AZIMU VELO AIN AR TRES W  DIS CAZ7
 SPBC HZ EP        659 31.43                             160    0.0610 30.4 183 
 SPBC HN ES        659 41.65                             160    0.0410 30.4 183 
 SPBC HZ I         659 43.09        11.0 0.10            163           30.4 183 
 NOR  HZ EP        659 36.60                             129    0.2610 98.5 246 
 NOR  HN ES        659 50.24                             129   -0.2110 98.5 246 
 NOR  HZ I         659 52.82         3.7 0.20            132           98.5 246 
 RUS  HZ EP        659 37.72                             127   -0.1210  108  92 
 RUS  HN ES        659 53.07                             127   -0.0510  108  92 
 BAR2 EZ EP        659 38.97                             123    0.0810  122  53 
 BAR2 EZ ES        659 55.18                             123    0.1810  122  53 
 BAR2 EZ I         659 57.01         3.7 0.42            126            122  53 
 BRR  HZ EP        659 39.70                             119   -0.40 9  136  16 
 BRR  HN ES        659 57.15                             119   -0.00 9  136  16 
 ZAR  HZ EP        659 46.87                             110    0.19 9  194 333 
                                                                                
