 2014 1114 0546  9.9 L   6.828 -73.176140.0  RSN 11 0.6 1.8LRSN                1
 GAP=131        1.43       4.6     5.5  7.9 -0.5408E+01  0.1411E+02  0.7067E+01E
 Epicentro: ZAPATOCA - SANTANDER                                               3
 ACTION:UPD 14-12-19 15:42 OP:nd   STATUS:               ID:20141114054609 L   I
 OLDACT:ARG 14-11-14 12:38 OP:stll STATUS:               ID:20141114053740     3
 2014-11-14-0537-40M.COL___277                                                 6
 STAT SP IPHASW D HRMM SECON CODA AMPLIT PERI AZIMU VELO AIN AR TRES W  DIS CAZ7
 BAR2 SZ IP     D  546 29.03                             169    0.1710 26.1 182 
 BAR2 SZ I         546 29.47        16.6 0.14            167           26.1 182 
 BAR2 SZ ES        546 44.23                             169    0.5510 26.1 182 
 BRR  HZ IP     C  546 30.80                             153    0.6610 66.8 298 
 BRR  HZ I         546 31.14        12.5 0.18            152           66.8 298 
 BRR  HN ES        546 46.62                             153    0.6610 66.8 298 
 PAM  SZ EP     C  546 31.67                             150    0.2110 77.2  43 
 PAM  SZ I         546 32.07        36.6 0.20            154           77.2  43 
 PAM  SN ES        546 47.93                             150   -0.3710 77.2  43 
 RUS  HZ EP        546 33.07                             142   -0.2310  104 174 
 RUS  HN ES        546 51.24                             142   -0.3410  104 174 
 RUS  HZ I         546 53.33         7.2 0.26            141            104 174 
 PTB  HZ EP        546 35.66                             131   -0.46 9  145 257 
 PTB  HN ES        546 56.57                             131   -0.04 9  145 257 
 PTB  HZ I         547  1.13         9.1 0.16            131            145 257 
 OCA  HN ES        546 57.76                             129   -1.12 9  157 354 
 SPBC HZ EP        546 38.36                             128    0.40 9  164 217 
 SPBC HE ES        547  0.09                             128    0.22 9  164 217 
 SPBC HZ I         547  5.14        10.4 0.38            127            164 217 
 NOR  HZ EP        546 45.39                             117    0.22 8  234 233 
 NOR  HN ES        547 12.61                             117   -0.09 8  234 233 
 NOR  HZ I         547 15.22         6.7 0.20            117            234 233 
 CHI  HZ EP        546 47.22                             116   -0.26 8  251 194 
 CHI  HN ES        547 16.02                             116   -0.80 8  251 194 
 CHI  HZ I         547 21.73         2.1 0.26            116            251 194 
 HEL  HZ EP        546 50.93                             114    1.42 8  270 255 
 HEL  HN ES        547 19.82                             114   -0.62 8  270 255 
 HEL  HZ I         547 26.90         2.7 0.24            114            270 255 
 CBOC HZ EP        546 56.85                             109    0.56 7  331 251 
 CBOC HZ I         546 58.19         1.4 0.20            109            331 251 
 CBOC HE ES        547 31.18                             109   -1.32 7  331 251 
 MON  HZ EP   9    546 56.32                             108   -1.80 0  349 308 
                                                                                
