 2013  914 0019 36.3 L   6.813 -73.126144.1  RSN  9 0.5 2.0LRSN                1
 GAP=138        1.24       3.8     6.0  7.0  0.8715E+00  0.1002E+02 -0.9563E+00E
 Epicentro: LOS SANTOS - SANTANDER                                             3
 ACTION:UPD 13-10-22 09:22 OP:ep   STATUS:               ID:20130914001936 L   I
 OLDACT:DUP 13-09-14 09:40 OP:carl STATUS:               ID:20130914001742d    3
 2013-09-14-0017-41M.COL___244                                                 6
 STAT SP IPHASW D HRMM SECON CODA AMPLIT PERI AZIMU VELO AIN AR TRES W  DIS CAZ7
 BAR2 SZ EP        019 55.81                             170    0.0810 25.2 194 
 BAR2 SZ ES        020 10.29                             170   -0.6210 25.2 194 
 BAR2 SZ I         020 12.91        13.9 0.26            170           25.2 194 
 BRR  HZ EP        019 57.67                             152    0.3710 72.5 297 
 BRR  HE ES        020 14.25                             152    0.5410 72.5 297 
 BRR  HE I         020 15.06        49.5 0.26            150           72.5 297 
 PAM  SZ EP        019 58.71                             151    0.5610 74.8  39 
 PAM  SN ES        020 15.62                             151    0.4110 74.8  39 
 PAM  SZ I         020 17.95        26.8 0.60            153           74.8  39 
 RUS  HZ EP        019 59.92                             143   -0.0210  102 177 
 RUS  HN ES        020 18.16                             143   -0.2610  102 177 
 RUS  HZ I         020 19.30         8.1 0.40            145            102 177 
 PTB  HZ EP        020  3.66                             131    0.35 9  150 258 
 PTB  HN ES   1    020 24.09                             131   -0.32 7  150 258 
 PTB  HZ I         020 26.82         9.1 0.16            131            150 258 
 OCA  HZ EP        020  3.55                             129   -0.78 9  159 352 
 OCA  HN ES   1    020 25.74                             129   -0.48 7  159 352 
 OCA  HZ I         020 29.49        11.6 0.38            130            159 352 
 ZAR  HZ EP        020  9.76                             122    1.01 8  206 292 
 ZAR  HN ES   1    020 34.22                             122    0.13 6  206 292 
 ZAR  HZ I         020 39.86        11.2 0.32            122            206 292 
 SML  HZ EP        020 11.96                             117   -0.79 8  243 335 
 SML  HN ES   1    020 40.39                             117   -0.81 6  243 335 
 SML  HZ I         020 47.79        13.2 0.10            117            243 335 
 CHI  HZ EP        020 14.15                             117    0.06 8  251 196 
 CHI  HN ES        020 43.00                             117   -0.59 8  251 196 
 CHI  HZ I         020 47.51         2.6 0.28            118            251 196 
                                                                                
