 2014 1014 0649 14.9 L   6.814 -73.147148.6  RSN 11 0.4 2.2LRSN                1
 GAP=136        0.99       3.2     4.3  6.3 -0.2015E+01  0.6104E+01 -0.2156E+01E
 Epicentro: LOS SANTOS - SANTANDER                                             3
 ACTION:UPD 14-11-29 23:49 OP:nd   STATUS:               ID:20141014064914 L   I
 OLDACT:UP  14-10-14 17:02 OP:mh   STATUS:               ID:20141014064745     3
 OLDACT:REG 14-10-14 12:54 OP:mh   STATUS:               ID:20141014064745     3
 2014-10-14-0647-45M.COL___283                                                 6
 STAT SP IPHASW D HRMM SECON CODA AMPLIT PERI AZIMU VELO AIN AR TRES W  DIS CAZ7
 BAR2 SZ EP     C  649 34.94                             170    0.0810 24.8 189 
 BAR2 SZ ES   1    649 49.82                             170   -0.65 7 24.8 189 
 BAR2 SZ I         649 52.96        33.2 0.24            167           24.8 189 
 BRR  HZ EP     C  649 36.92                             153    0.6610 70.3 297 
 BRR  HN ES   1    649 53.35                             153    0.38 7 70.3 297 
 BRR  HZ I         649 56.93        20.4 0.14            150           70.3 297 
 PAM  SZ EP     C  649 37.70                             152    0.3910 76.3  40 
 PAM  SN ES        649 54.99                             152    0.1610 76.3  40 
 PAM  SZ I         649 56.62        19.1 0.54            158           76.3  40 
 RUS  HZ EP   1    649 38.83                             144   -0.17 7  102 176 
 RUS  HN ES   1    649 57.71                             144   -0.12 7  102 176 
 PTB  HZ EP   1    649 41.51                             133   -0.56 7  148 258 
 PTB  HN ES        650  2.88                             133   -0.42 9  148 258 
 PTB  HZ I         650 10.55        26.3 0.21            131            148 258 
 OCA  HZ EP        649 43.16                             131   -0.08 9  159 353 
 OCA  HN ES        650  4.96                             131   -0.43 9  159 353 
 OCA  HZ I         650 10.30        10.4 0.14            133            159 353 
 SPBC HZ EP        649 43.69                             129    0.01 9  164 219 
 SPBC HN ES        650  6.21                             129    0.05 9  164 219 
 SPBC HZ I         650 13.02        13.7 0.28            130            164 219 
 ZAR  HZ EP        649 46.69                             123   -0.72 9  203 292 
 ZAR  HN ES        650 13.65                             123    0.85 9  203 292 
 ZAR  HZ I         650 19.58        19.3 0.34            123            203 292 
 SML  HZ EP        649 51.29                             118   -0.19 8  242 335 
 SML  HN ES        650 19.86                             118   -0.19 8  242 335 
 SML  HZ I         650 26.99        23.8 0.22            120            242 335 
 ROSC BZ EP   1    649 53.82                             117    0.55 6  254 211 
 ROSC BN ES   4    650 24.25                             117    1.02 0  254 211 
 ROSC BZ I         650 32.69        11.7 0.47            118            254 211 
 GUY2CHZ EP   4    649 59.97                             113    1.29 0  302 235 
 GUY2CHN ES   4    650 35.47                             113    2.61 0  302 235 
 TOL  SZ EP   4    650  5.25                             110    1.91 0  344 224 
 TOL  SN ES   4 C  650 38.63                             110   -2.53 0  344 224 
 TOL  SZ I         650 46.34        10.0 0.46            111            344 224 
                                                                                
