 2017  814 0413 27.0 L   6.776 -73.056146.0  RSN 10 0.3 1.5LRSN                1
 GAP=223        0.62       3.5     3.9  4.5 -0.2446E+01 -0.5638E+01  0.7728E+01E
 Epicentro: LOS SANTOS - SANTANDER                                             3
 ACTION:UPD 17-09-04 20:20 OP:rebc STATUS:               ID:20170814041327 L   I
 OLDACT:UP  17-08-14 18:23 OP:and  STATUS:               ID:20170814040747     3
 OLDACT:UP  17-08-14 18:23 OP:and  STATUS:               ID:20170814040747     3
 OLDACT:UP  17-08-14 18:22 OP:and  STATUS:               ID:20170814040747     3
 OLDACT:UP  17-08-14 18:22 OP:and  STATUS:               ID:20170814040747     3
 OLDACT:REG 17-08-14 14:19 OP:mg   STATUS:               ID:20170814040747     3
 2017-08-14-0408-00M.COL___413                                                 6
 STAT SP IPHASW D HRMM SECON CODA AMPLIT PERI AZIMU VELO AIN AR TRES W  DIS CAZ7
 BAR2 EZ IP     C  413 46.62                             170   -0.0310 24.7 214 
 BAR2 EZ ES        414  1.60                             170   -0.4110 24.7 214 
 BAR2 EZ I         414  4.33        10.2 0.34            162           24.7 214 
 BRR  HZ EP        413 48.66                             149   -0.0710 81.2 297 
 BRR  HN ES        414  5.87                             149    0.1610 81.2 297 
 BRR  HZ I         414 10.15         4.6 0.14            147           81.2 297 
 RUS  HZ EP        413 50.97                             144    0.4310 97.8 182 
 RUS  HN ES   3    414  9.91                             144    0.98 2 97.8 182 
 RUS  HZ I         414 12.13         1.8 0.30            143           97.8 182 
 SPBC HZ IP     C  413 56.01                             128    0.10 9  168 222 
 SPBC HN ES        414 18.36                             128   -0.12 9  168 222 
 SPBC HZ I         414 25.64         6.0 0.30            127            168 222 
 ZAR  HZ EP   9    414  1.56                             121    1.08 0  214 292 
 ZAR  HN ES        414 27.80                             121    0.10 8  214 292 
 ZAR  HZ I         414 30.70         4.1 0.36            121            214 292 
 NOR  HZ EP   3    414  2.85                             117   -0.58 2  241 236 
 NOR  HN ES        414 31.63                             117   -0.24 8  241 236 
 NOR  HZ I         414 39.34         2.8 0.40            117            241 236 
 CHI  HZ EP        414  4.95                             117    0.24 8  249 198 
 CHI  HN ES        414 34.31                             117    0.16 8  249 198 
 CHI  HZ I         414 42.74         1.3 0.18            117            249 198 
 ROSC BZ EP        414  5.59                             116    0.16 8  256 213 
 PTGC HZ EP        414  9.56                             112   -0.60 7  303 160 
 GUY2CHZ EP   9    414 13.26                             112    1.92 0  308 236 
 GUY2CHN ES        414 47.73                             111   -0.14 7  308 236 
 GUY2CHZ I         414 55.41         1.7 0.50                           308 236 
                                                                                
