 2015  514 0159 28.3 L   6.768 -73.108147.3  RSN  6 0.2 1.7LRSN                1
 GAP=239        0.47       3.0     3.1  4.1  0.4588E+01  0.3294E+01  0.1034E+01E
 Epicentro: LOS SANTOS - SANTANDER                                             3
 ACTION:UPD 15-09-10 22:03 OP:cam  STATUS:               ID:20150514015928 L   I
 OLDACT:UP  15-05-14 13:00 OP:mh   STATUS:               ID:20150514015750     3
 OLDACT:REG 15-05-14 12:22 OP:mh   STATUS:               ID:20150514015750     3
 2015-05-14-0157-50M.COL___282                                                 6
 STAT SP IPHASW D HRMM SECON CODA AMPLIT PERI AZIMU VELO AIN AR TRES W  DIS CAZ7
 BAR2 EZ EP        159 47.93                             171   -0.1510 21.2 203 
 BAR2 EZ I         2 0 12.71         4.5 0.23            172           21.2 203 
 BRR  HZ EP        159 49.79                             151   -0.1410 76.5 299 
 BRR  HN ES        2 0  6.99                             151    0.1910 76.5 299 
 BRR  HZ I         2 0 11.25        10.1 0.34            151           76.5 299 
 RUS  HZ EP        159 51.97                             145    0.0210 96.9 178 
 RUS  HN ES        2 0 10.39                             145   -0.0010 96.9 178 
 RUS  HZ I         2 0 11.05         4.1 0.20            146           96.9 178 
 ZAR  HZ EP        2 0  1.54                             122    0.15 8  209 293 
 ZAR  HN ES        2 0 26.96                             122   -0.23 8  209 293 
 ZAR  HZ I         2 0 31.91         8.0 0.60            121            209 293 
 NOR  HZ EP        2 0  4.54                             119    0.26 8  236 236 
 NOR  HN ES   2    2 0 31.78                             119   -0.56 4  236 236 
 NOR  HZ I         2 0 36.43         4.9 0.17            119            236 236 
 HEL  HN ES        2 0 40.77                             115    0.11 7  275 257 
                                                                                
