 2016 1114 0031 24.2 L   6.728 -73.117150.7  RSN  5 0.4 1.4LRSN                1
 GAP=171        0.99      11.1     5.4  8.4 -0.2497E+02  0.6419E+01  0.1717E+02E
 Epicentro: JORDAN - SANTANDER                                                 3
 ACTION:UPD 17-10-26 21:07 OP:lp   STATUS:               ID:20161114003124 L   I
 OLDACT:REG 16-11-14 12:38 OP:lv   STATUS:               ID:20161114002746     3
 2016-11-14-0028-00M.COL___340                                                 6
 STAT SP IPHASW D HRMM SECON CODA AMPLIT PERI AZIMU VELO AIN AR TRES W  DIS CAZ7
 BAR2 EZ ES   2    032  0.15                             174    0.17 5 16.6 206 
 BAR2 EZ I         032  3.40         4.8 0.15            172           16.6 206 
 BRR  HZ EP        031 46.75                             151    0.5010 78.0 303 
 BRR  HN ES        032  3.65                             151    0.1810 78.0 303 
 PAM  EZ EP        031 47.52                             150    0.3210 81.9  34 
 PAM  EN ES        032  4.68                             150   -0.4710 81.9  34 
 PAM  EZ I         032  6.74         1.9 0.19            153           81.9  34 
 PTB  HZ EP        031 51.79                             133    0.07 9  150 262 
 PTB  HN ES        032 12.79                             133   -0.40 9  150 262 
 PTB  HZ I         032 16.77         3.0 0.16            134            150 262 
 ZAR  HZ EP        031 56.82                             122   -0.75 8  210 294 
 ZAR  HE ES        032 23.94                             122    0.33 8  210 294 
 ZAR  HZ I         032 30.33         3.5 0.12            124            210 294 
                                                                                
