 2013  714 0925  1.3 L   6.770 -73.165150.1  RSN  4 0.3 1.4LRSN                1
 GAP=233        0.78       4.8     5.8  7.0  0.8502E+01 -0.2610E+01  0.9368E+00E
 Epicentro: LOS SANTOS - SANTANDER                                             3
 ACTION:UPD 13-08-12 10:37 OP:ep   STATUS:               ID:20130714092501 L   I
 OLDACT:REG 13-07-14 07:39 OP:nd   STATUS:               ID:20130714091959     3
 2013-07-14-0919-59M.COL___266                                                 6
 STAT SP IPHASW D HRMM SECON CODA AMPLIT PERI AZIMU VELO AIN AR TRES W  DIS CAZ7
 BRR  HZ EP        925 23.21                             153    0.2610 71.0 302 
 BRR  HN ES        925 39.93                             153    0.1210 71.0 302 
 BRR  HZ I         925 44.26         4.5 0.16            154           71.0 302 
 RUS  HZ EP        925 25.36                             146    0.0510 97.5 175 
 RUS  HN ES        925 43.71                             146   -0.2910 97.5 175 
 RUS  HZ I         925 46.39         3.1 0.48            150           97.5 175 
 PTB  HZ EP        925 27.87                             134   -0.55 9  145 260 
 PTB  HN ES        925 49.34                             134   -0.21 9  145 260 
 PTB  HZ I         925 54.93         3.3 0.30            136            145 260 
 SPBC HZ EP        925 30.07                             131    0.26 9  159 219 
 SPBC HN ES        925 52.39                             131    0.37 9  159 219 
                                                                                
