 2014 1114 0607 27.4 L   6.824 -73.148143.4  RSN  6 0.5 1.2LRSN                1
 GAP=135        1.24       5.2     6.4 10.8 -0.3392E+01  0.5387E+01  0.8283E+01E
 Epicentro: LOS SANTOS - SANTANDER                                             3
 ACTION:UPD 14-12-19 15:42 OP:nd   STATUS:               ID:20141114060727 L   I
 OLDACT:DUP 14-11-14 18:07 OP:stll STATUS:               ID:20141114055744d    3
 2014-11-14-0557-43M.COL___274                                                 6
 STAT SP IPHASW D HRMM SECON CODA AMPLIT PERI AZIMU VELO AIN AR TRES W  DIS CAZ7
 BAR2 SZ EP        6 7 46.89                             169    0.1310 25.9 189 
 BRR  HZ EP        6 7 48.76                             153    0.5910 69.8 297 
 BRR  HN ES        6 8  5.13                             153    0.7310 69.8 297 
 PAM  SZ EP        6 7 49.61                             151    0.4010 75.5  41 
 PAM  SZ I         6 7 49.95         3.2 0.22            154           75.5  41 
 PAM  SN ES        6 8  6.06                             151   -0.1910 75.5  41 
 RUS  HZ EP        6 7 51.27                             143    0.2010  103 176 
 RUS  HN ES        6 8  9.11                             143   -0.4610  103 176 
 RUS  HZ I         6 8 10.61         2.2 0.42            143            103 176 
 PTB  HZ EP        6 7 53.62                             131   -0.55 9  148 258 
 PTB  HN ES        6 8 14.78                             131   -0.29 9  148 258 
 PTB  HZ I         6 8 21.91         2.4 0.30            130            148 258 
 OCA  HN ES        6 8 16.20                             130   -0.78 9  158 353 
                                                                                
