 2016  714 0309 39.4 L   6.788 -73.138148.0  RSN 33 0.4 3.1LRSN                1
 GAP= 54        0.87       2.1     2.1  3.4 -0.5769E+00  0.1131E+01  0.4237E+00E
 Epicentro: LOS SANTOS - SANTANDER                                             3
 ACTION:UPD 17-03-29 16:50 OP:lp   STATUS:               ID:20160714030939 L   I
 OLDACT:UP  16-07-14 14:27 OP:dani STATUS:               ID:20160714030759     3
 OLDACT:UP  16-07-14 14:22 OP:dani STATUS:               ID:20160714030759     3
 OLDACT:UP  16-07-14 14:22 OP:dani STATUS:               ID:20160714030759     3
 OLDACT:UP  16-07-14 14:21 OP:dani STATUS:               ID:20160714030759     3
 OLDACT:UP  16-07-14 14:21 OP:dani STATUS:               ID:20160714030759     3
 OLDACT:UP  16-07-14 14:15 OP:dani STATUS:               ID:20160714030759     3
 OLDACT:REG 16-07-14 12:31 OP:dani STATUS:               ID:20160714030759     3
 2016-07-14-0307-59S.COL___328                                                 6
 STAT SP IPHASW D HRMM SECON CODA AMPLIT PERI AZIMU VELO AIN AR TRES W  DIS CAZ7
 BAR2 EZ EP     D  3 9 59.37                             171    0.0510 22.1 193 
 BAR2 EZ ES        310 14.69                             171   -0.1310 22.1 193 
 BAR2 EZ I         310 16.02       420.2 0.22            173           22.1 193 
 BRR  HZ IP     C  310  1.26                             152    0.3510 72.6 299 
 BRR  HN ES        310 18.19                             152    0.5310 72.6 299 
 BRR  HZ I         310 22.28       266.3 0.24            149           72.6 299 
 PAM  EZ IP     C  310  2.22                             151    0.2910 77.9  38 
 PAM  EE ES        310 19.02                             151   -0.4510 77.9  38 
 PAM  EZ I         310 21.59       196.0 0.52            148           77.9  38 
 RUS  HZ IP     D  310  3.27                             145   -0.0410 99.2 176 
 RUS  HN ES        310 21.58                             145   -0.3510 99.2 176 
 RUS  HZ I         310 23.07       125.8 0.22            144           99.2 176 
 PTB  HZ EP        310  6.17                             132   -0.47 9  148 259 
 PTB  HE ES        310 27.12                             132   -0.73 9  148 259 
 PTB  HZ I         310 33.83       143.7 0.34            130            148 259 
 TAM  HZ IP     D  310  7.74                             131    0.55 9  154 105 
 TAM  HZ I         310 28.71       111.3 0.36            130            154 105 
 TAM  HE ES        310 29.41                             131    0.57 9  154 105 
 SPBC HZ EP        310  8.30                             130    0.24 9  163 220 
 SPBC HN ES        310 30.75                             130    0.37 9  163 220 
 SPBC HZ I         310 38.32       273.1 0.22            128            163 220 
 ZAR  HZ EP        310 12.15                             123   -0.01 8  205 292 
 ZAR  HN ES        310 37.43                             123   -0.25 8  205 292 
 ZAR  HZ I         310 42.62       205.2 0.32            120            205 292 
 NOR  HZ EP        310 15.57                             119    0.29 8  235 235 
 NOR  HE ES        310 43.41                             119    0.17 8  235 235 
 NOR  HZ I         310 52.96       130.5 0.44            117            235 235 
 CHI  HZ EP        310 17.31                             118    0.17 8  248 195 
 CHI  HN ES        310 46.88                             118    0.33 8  248 195 
 CHI  HZ I         310 50.73       118.8 0.48            116            248 195 
 ROSC BZ EP   9    310 19.17                             117    1.57 0  252 211 
 ROSC BE ES        310 49.49                             117    0.55 8  252 211 
 HEL  HZ EP        310 20.05                             115    0.24 8  273 256 
 HEL  HN ES        310 51.56                             115    0.25 8  273 256 
 HEL  HZ I         310 57.50        92.1 0.30            113            273 256 
 URE  HZ EP   4    310 19.28                             114   -1.48 0  285 292 
 URE  HE ES   4    310 49.86                             114   -3.13 0  285 292 
 URE  HZ I         311  3.14        83.7 0.34            112            285 292 
 GUY2CHZ EP        310 23.50                             113    0.36 7  301 235 
 GUY2CHN ES        310 56.84                             113   -0.38 7  301 235 
 GUY2CHZ I         311  5.64       121.4 0.36                           301 235 
 SOCV BZ EP     C  310 22.21                             113   -0.39 7  301  57 
 PTGC HZ IP     D  310 22.48                             112   -0.74 7  307 159 
 PTGC HN ES        310 56.12                             112   -1.24 7  307 159 
 PTGC HZ I         310 58.83        64.3 0.42            111            307 159 
 LL1C HN ES   4    310 59.56                             112    2.05 0  308 351 
 LL6C HZ EP   9    310 23.90                             111   -1.49 0  326 357 
 LL6C HE ES        310 59.26                             111   -0.49 7  326 357 
 LL6C HZ I         311  5.46        44.3 0.42            108            326 357 
 CBOC HZ EP        310 27.01                             110    0.52 7  334 252 
 CBOC HE ES        311  3.08                             110   -0.10 7  334 252 
 CBOC HZ I         311  9.17        24.7 0.52            108            334 252 
 LL5C HZ EP        310 26.22                             110   -0.01 7  334 349 
 LL5C HE ES        311  2.72                             110   -0.02 7  334 349 
 ANIL HZ EP   9    310 30.68                             109    1.40 0  357 225 
 ANIL HE ES        311  9.80                             109    0.24 6  357 225 
 ARGC HZ EP        310 29.22                             109   -0.14 6  361 340 
 ARGC HN ES   4    311  9.26                             109    0.96 0  361 340 
 ARGC HZ I         311 15.13        21.7 0.38            106            361 340 
 PRA  HZ EP        310 32.93                             107   -0.01 6  391 210 
 PRA  HE ES        311 14.46                             107   -0.22 6  391 210 
 PRA  HZ I         311 21.63       118.3 0.38            105            391 210 
 ORTC HZ EP        310 33.66                             107    0.30 6  395 216 
 ORTC HN ES   4    311 17.45                             107    2.03 0  395 216 
 ORTC HZ I         311 20.80        63.6 0.24            105            395 216 
 PAL  HZ EP        310 34.95                             106    0.28 6  406 239 
 PAL  HN ES        311 17.40                             106   -0.35 6  406 239 
 PAL  HZ I         311 22.86        17.1 0.38            105            406 239 
 SJC  HZ EP   4    310 33.00                             106   -2.26 0  411 327 
 SJC  HN ES   4    311 14.47                             106   -4.33 0  411 327 
 SJC  HZ I         311 29.22        27.6 0.62            104            411 327 
 CRJC HZ EP   9    310 39.63                             104   -2.53 0  469   3 
 CRJC HN ES   2    311 27.28                             104   -1.27 2  469   3 
 CRJC HZ I         311 34.73        47.0 0.28            102            469   3 
 YOT  HZ EP        310 41.85                             103   -0.66 5  472 229 
 SMAR HZ EP        310 44.90                             103   -0.65 4  499 346 
 CAP2 HN ES   4    311 35.60                             102   -3.76 0  509 294 
 MACC HZ EP   4    310 46.29                             102   -1.76 0  519 189 
 MACC HN ES   4    311 38.84                             102   -2.74 0  519 189 
 MACC HZ I         311 43.67        30.3 0.82            101            519 189 
 URI  HZ EP   4    310 50.09                             101   -2.54 0  558  13 
 URI  HZ I         311 52.19         7.4 0.38             99            558  13 
 POP2 HZ EP        310 59.10                             100   -0.33 3  612 220 
 FLO2 HZ EP        311  1.94                              99   -0.55 2  640 206 
 FLO2 HN ES        312  7.41                              99    0.13 2  640 206 
 FLO2 HZ I         312 13.44         6.7 0.38             98            640 206 
 BBAC HZ EP        311 10.07                              98    0.45 1  697 221 
 GCUF HZ EP   4    311 20.07                              97    0.98 0  772 217 
                                                                                
