 2017  514 0115 15.7 L   6.812 -73.111143.6  RSN  5 0.4 1.3LRSN                1
 GAP=140        1.00       5.6     6.5  9.5  0.6911E+01  0.2151E+02 -0.1719E+01E
 Epicentro: LOS SANTOS - SANTANDER                                             3
 ACTION:UPD 17-06-16 13:36 OP:jn   STATUS:               ID:20170514011515 L   I
 OLDACT:DUP 17-05-14 13:42 OP:lv   STATUS:               ID:20170514010742d    3
 2017-05-14-0108-00M.COL___357                                                 6
 STAT SP IPHASW D HRMM SECON CODA AMPLIT PERI AZIMU VELO AIN AR TRES W  DIS CAZ7
 PAM  EZ EP        115 37.97                             151    0.4610 74.0  38 
 BRR  HZ EP        115 36.98                             151    0.1810 74.0 296 
 BRR  HN ES   1    115 53.18                             151   -0.06 7 74.0 296 
 BRR  HZ I         115 56.70         8.5 0.33            151           74.0 296 
 PAM  EN ES   1    115 53.88                             151   -0.62 7 74.0  38 
 PAM  EZ I         115 56.96                             154           74.0  38 
 RUS  HZ EP        115 39.18                             143   -0.1610  102 178 
 RUS  HN ES        115 58.04                             143    0.2710  102 178 
 RUS  HZ I         115 59.24         1.7 0.41            148            102 178 
 PTB  HZ EP        115 42.05                             131   -0.83 9  152 259 
 PTB  HN ES   4    116  2.39                             131   -1.67 0  152 259 
 PTB  HZ I         116  4.65         2.0 0.14            133            152 259 
 ZAR  HZ EP        115 48.66                             121    0.31 8  207 291 
 ZAR  HN ES   1    116 14.09                             121    0.30 6  207 291 
 ZAR  HZ I         116 19.52         2.8 0.05            124            207 291 
                                                                                
