 2011 1114 0806 52.9 L   6.777 -73.123140.7  RSN  4 0.4 1.1LRSN                1
 GAP=141        0.76       5.7     8.5  9.1  0.5611E+01  0.7656E+01  0.9282E+01E
 Epicentro: LOS SANTOS - SANTANDER                                             3
 ACTION:UPD 12-07-13 16:10 OP:ep   STATUS:               ID:20111114080652 L   I
 2011-11-14-0803-38S.COL___179                                                 6
 STAT SP IPHASW D HRMM SECON CODA AMPLIT PERI AZIMU VELO AIN AR TRES W  DIS CAZ7
 BAR2 SZ EP   1    8 7 11.71                             171   -0.20 7 21.5 198 
 BAR2 SZ ES   1    8 7 26.01                             171   -0.70 7 21.5 198 
 BAR2 SZ I         8 7 27.92         4.5 0.29                          21.5 198 
 BRR  HZ EP   1    8 7 13.50                             150   -0.23 7 74.6 299 
 BRR  HE ES   1    8 7 30.36                             150    0.40 7 74.6 299 
 BRR  HZ I         8 7 33.08         2.7 0.17                          74.6 299 
 PAM  SE ES   1    8 7 31.77                             150    0.22 7 77.8  37 
 RUS  HZ EP   1    8 7 16.08                             143    0.09 7 97.9 177 
 RUS  HN ES   1    8 7 34.39                             143    0.42 7 97.9 177 
 RUS  HZ I         8 7 35.65         1.7 0.29                          97.9 177 
                                                                                
