 2014 1214 0623 59.6 L   6.809 -73.167145.5  RSN  7 0.5 1.3LRSN                1
 GAP=133        1.41       5.5     7.0 12.2 -0.9163E+01  0.4000E+01  0.7397E+01E
 Epicentro: LOS SANTOS - SANTANDER                                             3
 ACTION:UPD 15-02-10 17:03 OP:nd   STATUS:               ID:20141214062359 L   I
 OLDACT:REG 14-12-14 13:58 OP:stll STATUS:               ID:20141214061748     3
 2014-12-14-0617-48M.COL___279                                                 6
 STAT SP IPHASW D HRMM SECON CODA AMPLIT PERI AZIMU VELO AIN AR TRES W  DIS CAZ7
 BAR2 EZ EP        624 19.33                             170    0.0910 24.0 184 
 BAR2 EZ I         624 19.67         5.2 0.18            169           24.0 184 
 BRR  HZ EP        624 21.15                             153    0.5510 68.6 299 
 BRR  HZ I         624 21.36         4.5 0.26            152           68.6 299 
 BRR  HN ES        624 38.07                             153    1.1110 68.6 299 
 PAM  SZ EP        624 22.29                             151    0.4310 78.2  41 
 PAM  SZ I         624 22.41         3.0 0.24            152           78.2  41 
 PAM  SN ES        624 38.83                             151   -0.3710 78.2  41 
 RUS  HZ EP        624 23.28                             143   -0.1610  102 175 
 RUS  HN ES        624 41.87                             143   -0.1410  102 175 
 RUS  HZ I         624 42.55         1.9 0.24            143            102 175 
 PTB  HZ EP        624 26.47                             132    0.09 9  146 258 
 PTB  HN ES        624 46.57                             132   -0.67 9  146 258 
 PTB  HZ I         624 49.14         2.4 0.14            131            146 258 
 OCA  HN ES        624 48.85                             130   -0.92 9  159 354 
 SPBC HN ES        624 49.91                             129   -0.29 9  162 218 
 SPBC HZ I         624 53.46         5.0 0.10            128            162 218 
                                                                                
