 2010  514 0553 39.1 L   6.794 -73.021140.4  RSN 10 0.4 2.0LRSN                1
 GAP=170        1.05       4.6     9.3  7.3 -0.2204E+02  0.4913E+00  0.6797E+01E
 Epicentro: CEPITA - SANTANDER                                                 3
 ACTION:UP  10-08-24 10:04 OP:vdl  STATUS:               ID:20100514055339 L   I
 2010-05-14-0552-12S.COL___105                                                 6
 STAT SP IPHASW D HRMM SECON CODA AMPLIT PERI AZIMU VELO AIN AR TRES W  DIS CAZ7
 BAR2 SZ IP        553 58.20                             168    -0.110   29 219 
 BAR2 SZ ES   1    554 12.61                             168    -0.6 7   29 219 
 BRR  HZ EP        554  0.61                             147     0.110   84 294 
 BRR  HN ES   1    554 17.39                             147     0.2 7   84 294 
 BRR  HZ I         554 18.40        38.7 0.07                            84 294 
 RUS  HZ EP        554  2.21                             143    -0.110  100 184 
 RUS  HZ I         554  3.45        10.1 0.09                           100 184 
 RUS  HN ES   2    554 20.31                             143    -0.1 5  100 184 
 BRI  SZ IP        554  2.73                             141     0.510  105  14 
 BRI  SZ ES   1    554 20.74                             141     0.5 7  105  14 
 GUE  SZ EP        554  2.85                             139    -0.410  115   5 
 GRA  SZ IP        554  3.93                             137     0.310  123  11 
 GRA  SZ ES   1    554 22.97                             137     0.2 7  123  11 
 OCA  SZ EP        554  6.60                             128    -0.7 9  163 348 
 OCA  SZ ES   2    554 28.80                             128    -0.5 5  163 348 
 OCA  SZ I         554 33.32        12.6 0.17                           163 348 
 ROSC BZ EP        554 18.57                             115     0.8 8  260 214 
 ROSC BN ES   2    554 48.44                             115     0.6 4  260 214 
 ROSC BZ I         554 52.58         4.5 0.40                           260 214 
 RREF BZ EP        554 26.39                             109     0.2 7  332 231 
 RREF BZ I         555  6.10         4.1 0.47                           332 231 
 PRA  HZ EP        554 32.38                             105    -0.9 6  398 211 
 PRA  HN ES   2    555 14.98                             105    -0.5 3  398 211 
 PRA  HZ I         555 19.31         3.1 0.08                           398 211 
                                                                                
