 2014  914 0556 30.4 L   6.544 -73.563112.4  RSN  7 0.4 1.5LRSN                1
 GAP= 98        1.04       3.9     4.6  9.2  0.2981E+01  0.2064E+02  0.6907E+01E
 Epicentro: EL CARMEN - SANTANDER                                              3
 ACTION:UPD 14-10-03 23:04 OP:nd   STATUS:               ID:20140914055630 L   I
 OLDACT:REG 14-09-14 14:07 OP:carl STATUS:               ID:20140914054819     3
 2014-09-14-0548-19M.COL___293                                                 6
 STAT SP IPHASW D HRMM SECON CODA AMPLIT PERI AZIMU VELO AIN AR TRES W  DIS CAZ7
 BAR2 SZ IP     D  556 46.70                             158   -0.0110 42.4  83 
 BAR2 SZ ES        556 59.35                             158   -0.1010 42.4  83 
 BRR  HZ IP        556 47.54                             148   -0.0510 64.4 345 
 BRR  HN ES        557  1.12                             148    0.1110 64.4 345 
 BRR  HZ I         557  2.12         7.4 0.10            153           64.4 345 
 RUS  HZ EP        556 50.00                             139   -0.1010 89.5 144 
 RUS  HN ES        557  5.36                             139   -0.1310 89.5 144 
 RUS  HZ I         557  6.55         2.7 0.54            141           89.5 144 
 PTB  HZ EP        556 49.54                             135   -0.6810 98.8 270 
 PTB  HN ES   4    557  4.40                             135   -1.29 0 98.8 270 
 PTB  HZ I         557  5.64         9.1 0.40            137           98.8 270 
 SPBC HZ EP        556 52.46                             131    0.8310  114 210 
 SPBC HN ES        557  8.55                             131    0.3510  114 210 
 SPBC HZ I         557 14.65        10.3 0.28            132            114 210 
 ZAR  HN ES        557 19.82                             118    0.32 9  177 306 
 NOR  HN ES        557 19.66                             117   -0.57 9  181 233 
                                                                                
