 2016  214 0000 27.8 L   6.820 -73.140140.5  RSN 14 0.5 2.3LRSN                1
 GAP=136        1.16       3.2     4.6  6.4 -0.3715E+01  0.1035E+02  0.1987E+01E
 Epicentro: LOS SANTOS - SANTANDER                                             3
 ACTION:UPD 16-03-04 21:25 OP:rebc STATUS:               ID:20160214000027 L   I
 OLDACT:UP  16-02-14 16:26 OP:ak   STATUS:               ID:20160214000005     3
 OLDACT:REG 16-02-14 12:24 OP:ak   STATUS:               ID:20160214000005     3
 2016-02-14-0000-05M.COL___307                                                 6
 STAT SP IPHASW D HRMM SECON CODA AMPLIT PERI AZIMU VELO AIN AR TRES W  DIS CAZ7
 BAR2 EZ EP        0 0 46.99                             169    0.1310 25.6 191 
 BAR2 EZ ES        0 1  2.04                             169    0.3310 25.6 191 
 BAR2 EZ I         0 1  3.50        49.1 0.20            167           25.6 191 
 PAM  EZ EP        0 0 49.50                             150    0.1610 75.2  40 
 PAM  EN ES        0 1  6.65                             150    0.5210 75.2  40 
 PAM  EZ I         0 1  9.25        18.6 0.32            156           75.2  40 
 RUS  HZ EP        0 0 50.37                             142   -0.8410  103 177 
 RUS  HN ES        0 1  9.41                             142   -0.0510  103 177 
 RUS  HZ I         0 1 10.31        10.1 0.50            143            103 177 
 PTB  HZ EP        0 0 53.72                             131   -0.73 9  149 258 
 PTB  HN ES        0 1 14.32                             131   -0.92 9  149 258 
 PTB  HZ I         0 1 17.86        15.9 0.17            130            149 258 
 OCA  HZ EP        0 0 55.43                             129   -0.08 9  158 353 
 OCA  HN ES        0 1 16.78                             129   -0.34 9  158 353 
 OCA  HZ I         0 1 20.22        48.1 0.20            131            158 353 
 SPBC HZ EP        0 0 55.93                             127   -0.19 9  165 219 
 SPBC HN ES        0 1 17.93                             127   -0.27 9  165 219 
 SPBC HZ I         0 1 23.40        27.6 0.20            127            165 219 
 ZAR  HZ EP        0 1  0.47                             121    0.57 9  204 291 
 ZAR  HN ES        0 1 25.32                             121    0.40 9  204 291 
 ZAR  HZ I         0 1 31.45        14.3 0.35            121            204 291 
 NOR  HZ EP        0 1  3.38                             117   -0.06 8  237 234 
 NOR  HN ES        0 1 31.01                             117   -0.22 8  237 234 
 NOR  HZ I         0 1 38.06        13.9 0.16            117            237 234 
 CHI  HZ EP        0 1  5.29                             116   -0.19 8  251 195 
 CHI  HN ES        0 1 34.65                             116   -0.21 8  251 195 
 CHI  HZ I         0 1 41.51         8.5 0.46            117            251 195 
 ROSC BZ EP        0 1  6.67                             115    0.77 8  255 211 
 ROSC BE ES        0 1 36.16                             115    0.56 8  255 211 
 ROSC BZ I         0 1 39.44        21.3 0.45            116            255 211 
 GUY2CHZ EP        0 1 11.99                             111    0.60 7  303 235 
 GUY2CHE ES        0 1 46.23                             111    0.85 7  303 235 
 GUY2CHZ I         0 1 53.61        13.3 0.42                           303 235 
 ELA  HZ EP   4    0 1 16.25                             109    1.58 0  331 229 
 ELA  HN ES   4    0 1 55.04                             109    3.82 0  331 229 
 ELA  HZ I         0 2  5.16         7.2 0.56            110            331 229 
 ANIL HZ EP   4    0 1 19.26                             107    1.60 0  359 224 
 ANIL HE ES   4    0 1 54.45                             107   -2.08 0  359 224 
 ANIL HZ I         0 2  3.48        21.6 0.30            108            359 224 
 ORTC HZ EP        0 1 21.34                             105   -0.47 6  398 216 
 ORTC HN ES        0 2  4.62                             105    0.69 6  398 216 
 ORTC HZ I         0 2 11.29         7.9 0.38            106            398 216 
                                                                                
