 2017  914 0059 27.7 L   6.773 -73.047141.5  RSN  5 0.4 1.4LRSN                1
 GAP=151        0.85       4.8     6.7  7.0  0.3585E+01  0.2491E+01 -0.4735E+01E
 Epicentro: LOS SANTOS - SANTANDER                                             3
 ACTION:UPD 17-10-05 19:12 OP:rebc STATUS:               ID:20170914005927 L   I
 OLDACT:UP  17-09-14 13:11 OP:mg   STATUS:               ID:20170914005739     3
 OLDACT:UP  17-09-14 13:11 OP:mg   STATUS:               ID:20170914005739     3
 OLDACT:UP  17-09-14 13:11 OP:mg   STATUS:               ID:20170914005739     3
 OLDACT:UP  17-09-14 13:10 OP:mg   STATUS:               ID:20170914005739     3
 OLDACT:REG 17-09-14 10:47 OP:dhb  STATUS:               ID:20170914005739     3
 2017-09-14-0058-00M.COL___467                                                 6
 STAT SP IPHASW D HRMM SECON CODA AMPLIT PERI AZIMU VELO AIN AR TRES W  DIS CAZ7
 BAR2 EZ EP        059 46.70                             170   -0.1210 25.0 217 
 BAR2 EZ ES        1 0  2.21                             170    0.4510 25.0 217 
 BAR2 EZ I         1 0  3.74         3.8 0.20            168           25.0 217 
 PAM  EZ EP        059 49.61                             151    0.4110 73.5  31 
 PAM  EN ES   1    1 0  5.52                             151   -0.47 7 73.5  31 
 PAM  EZ I         1 0  7.27         3.7 0.22            153           73.5  31 
 BRR  HZ EP        059 48.68                             148   -0.3610 82.3 297 
 BRR  HN ES   1    1 0  5.99                             148    0.29 7 82.3 297 
 BRR  HZ I         1 0  8.06         7.8 0.31            146           82.3 297 
 RUS  HZ EP        059 50.74                             144   -0.0410 97.4 182 
 RUS  HN ES        1 0  8.53                             144   -0.2610 97.4 182 
 RUS  HZ I         1 0  9.76         3.1 0.50            146           97.4 182 
 ZAR  HN EP   2    1 0  1.87                             120    0.84 4  215 292 
 ZAR  HE ES   2    1 0 26.30                             120   -0.74 4  215 292 
 ZAR  HN I         1 0 31.48         6.3 0.14            120            215 292 
                                                                                
