 2013  514 0631 18.3 L   6.791 -73.169148.2  RSN  6 0.3 1.4LRSN                1
 GAP=179        0.71       3.6     4.6  5.2  0.3197E+01  0.2069E+01  0.5315E+00E
 Epicentro: LOS SANTOS - SANTANDER                                             3
 ACTION:UPD 13-06-20 09:50 OP:ep   STATUS:               ID:20130514063118 L   I
 2013-05-14-0630-00M.COL___256                                                 6
 STAT SP IPHASW D HRMM SECON CODA AMPLIT PERI AZIMU VELO AIN AR TRES W  DIS CAZ7
 BAR2 SZ EP        631 38.21                             171    0.0510 22.1 184 
 BAR2 SZ ES        631 53.61                             171   -0.0710 22.1 184 
 BAR2 SZ I         631 54.66         6.2 0.18            170           22.1 184 
 GIR2 SZ EP        631 38.26                             167    0.0210 31.9 355 
 GIR2 SZ ES   1    631 53.80                             167   -0.02 7 31.9 355 
 GIR2 SZ I         631 54.65         7.0 0.32            168           31.9 355 
 BRR  HZ EP        631 39.87                             153    0.3010 69.4 300 
 BRR  HN ES        631 56.66                             153    0.4610 69.4 300 
 BRR  HZ I         631 57.48         5.6 0.10            153           69.4 300 
 RUS  HZ EP        631 42.41                             145    0.2110 99.8 175 
 RUS  HN ES        632  0.62                             145   -0.2510 99.8 175 
 RUS  HZ I         632  2.21         2.1 0.26            145           99.8 175 
 PTB  HZ EP        631 44.97                             133   -0.21 9  145 259 
 PTB  HN ES        632  5.96                             133   -0.23 9  145 259 
 PTB  HZ I         632  8.98         3.6 0.16            133            145 259 
 OCA  HN ES   1    632  8.41                             130   -0.69 7  161 354 
                                                                                
