 2010  214 0352 44.6 L   6.735 -72.926137.8  RSN  4 0.2 1.9LRSN                1
 GAP=320        0.38       6.1     9.4  5.6 -0.2555E+02  0.2609E+01  0.1955E+02E
 Epicentro: CEPITA - SANTANDER                                                 3
 ACTION:UP  10-08-24 09:48 OP:vdl  STATUS:               ID:20100214035244 L   I
 2010-02-14-0340-00S.COL___092                                                 6
 STAT SP IPHASW D HRMM SECON CODA AMPLIT PERI AZIMU VELO SNR AR TRES W  DIS CAZ7
 BAR2 SZ EP   2    353  3.81                             166     0.3 5   33 241 
 BAR2 SZ ES   1    353 18.11                             166    -0.1 7   33 241 
 CHI  HZ EP   1    353 21.74                             115    -0.2 6  249 201 
 CHI  HE ES   1    353 51.11                             115     0.1 6  249 201 
 CHI  HZ I         353 54.64         3.3 0.53                           249 201 
 RREF BZ EP   2    353 31.88                             108    -0.2 3  336 233 
 RREF BE ES   2    354  9.10                             108     0.0 3  336 233 
 RREF BZ I         354 15.63         5.0 0.30                           336 233 
 PRA  HZ I         354 20.37         3.0 0.76                           399 213 
 PRA  HN ES   1    354 20.86                             105     0.1 4  399 213 
                                                                                
