 2011 1114 0924 33.8 L   6.766 -73.150150.3  RSN  4 0.3 1.5LRSN                1
 GAP=234        0.62       9.4    10.6  7.5  0.8276E+02 -0.3488E+00 -0.5137E+01E
 Epicentro: LOS SANTOS - SANTANDER                                             3
 ACTION:UPD 12-07-13 16:10 OP:ep   STATUS:               ID:20111114092433 L   I
 2011-11-14-0922-05S.COL___179                                                 6
 STAT SP IPHASW D HRMM SECON CODA AMPLIT PERI AZIMU VELO AIN AR TRES W  DIS CAZ7
 BAR2 SZ EP   1    924 53.64                             172   -0.31 7 19.5 191 
 BAR2 SZ ES   1    925  9.27                             172   -0.36 7 19.5 191 
 BAR2 SZ I         925 10.65         6.1 0.31                          19.5 191 
 BRR  HZ EP   1    924 55.68                             153    0.12 7 72.7 301 
 BRR  HZ I         924 55.80        11.3 0.21                          72.7 301 
 BRR  HE ES   1    925 12.99                             153    0.48 7 72.7 301 
 RUS  HZ EP   1    924 58.01                             146    0.23 7 96.8 176 
 RUS  HN ES   1    925 16.53                             146    0.08 7 96.8 176 
 RUS  HZ I         925 17.38         2.8 0.39                          96.8 176 
 ZAR  HE ES   1    925 31.98                             123   -0.34 6  205 293 
 ZAR  HZ I         925 38.71         4.1 0.25                           205 293 
                                                                                
