 2017  914 0601  6.1 L   6.339 -73.576116.1  RSN  5 0.2 1.1LRSN                1
 GAP=111        0.46       2.0     2.3  4.0 -0.1271E+01  0.3612E+01 -0.7499E-01E
 Epicentro: SANTA HELENA DEL OPON - SANTANDER                                  3
 ACTION:UPD 17-10-05 19:12 OP:rebc STATUS:               ID:20170914060106 L   I
 OLDACT:REG 17-09-14 11:30 OP:dhb  STATUS:               ID:20170914055742     3
 2017-09-14-0558-00M.COL___419                                                 6
 STAT SP IPHASW D HRMM SECON CODA AMPLIT PERI AZIMU VELO AIN AR TRES W  DIS CAZ7
 BAR2 EZ IP     D  6 1 23.38                             154    0.0710 51.7  57 
 BAR2 EZ ES        6 1 36.68                             154   -0.0510 51.7  57 
 BAR2 EZ I         6 1 37.60         5.0 0.22            161           51.7  57 
 RUS  HZ EP        6 1 25.18                             146    0.1710 73.6 132 
 RUS  HN ES        6 1 39.67                             146   -0.0710 73.6 132 
 RUS  HZ I         6 1 40.30         2.4 0.16            149           73.6 132 
 BRR  HZ EP        6 1 24.90                             141   -0.3410 86.2 350 
 BRR  HE ES        6 1 40.35                             141    0.1910 86.2 350 
 SPBC HN ES        6 1 41.40                             138   -0.0410 93.8 216 
 SPBC HZ I         6 1 46.09         2.5 0.14            138           93.8 216 
 NOR  HZ EP        6 1 32.96                             121    0.09 9  167 239 
 NOR  HN ES        6 1 53.72                             121   -0.01 9  167 239 
 NOR  HZ I         6 1 57.75         1.5 0.18            122            167 239 
                                                                                
