 2016  514 0453 26.5 L   6.799 -73.158144.7  RSN 13 0.5 1.7LRSN                1
 GAP=182        1.09       3.2     4.4  6.1 -0.2997E+00  0.5349E+01  0.3047E+01E
 Epicentro: LOS SANTOS - SANTANDER                                             3
 ACTION:UPD 16-08-18 17:45 OP:cam  STATUS:               ID:20160514045326 L   I
 OLDACT:REG 16-05-14 13:45 OP:ak   STATUS:               ID:20160514044744     3
 2016-05-14-0447-44M.COL___298                                                 6
 STAT SP IPHASW D HRMM SECON CODA AMPLIT PERI AZIMU VELO AIN AR TRES W  DIS CAZ7
 BAR2 EZ EP        453 46.07                             170    0.0210 23.0 187 
 BAR2 EZ ES        454  0.64                             170   -0.6210 23.0 187 
 BAR2 EZ I         454  2.78        13.0 0.18            168           23.0 187 
 BRR  HZ EP        453 48.05                             153    0.5310 70.0 299 
 BRR  HN ES        454  4.87                             153    0.9910 70.0 299 
 BRR  HZ I         454  5.58        10.7 0.10            151           70.0 299 
 RUS  HZ EP        453 49.77                             144   -0.4310  101 175 
 RUS  HN ES        454  8.93                             144    0.2910  101 175 
 RUS  HZ I         454  9.84         5.3 0.24            143            101 175 
 PTB  HZ EP   2    453 52.69                             132   -0.61 5  146 259 
 PTB  HN ES        454 13.41                             132   -0.77 9  146 259 
 PTB  HZ I         454 16.84         4.5 0.11            131            146 259 
 OCA  HZ EP        453 54.36                             129   -0.41 9  160 354 
 OCA  HE ES        454 16.79                             129    0.01 9  160 354 
 SPBC HZ EP   2    453 55.51                             129    0.63 5  162 219 
 SPBC HN ES        454 17.05                             129    0.08 9  162 219 
 SPBC HZ I         454 20.35        11.4 0.05            128            162 219 
 ZAR  HZ EP   2    453 58.76                             122   -0.04 4  203 292 
 ZAR  HN ES        454 23.56                             122   -0.39 9  203 292 
 NOR  HZ EP        454  2.15                             118    0.06 8  234 234 
 NOR  HN ES        454 29.10                             118   -0.71 8  234 234 
 NOR  HZ I         454 32.62         3.4 0.18            118            234 234 
 CHI  HZ EP        454  3.78                             117   -0.36 8  248 195 
 CHI  HN ES        454 34.09                             117    0.63 8  248 195 
 HEL  HZ EP   2    454  6.63                             115    0.07 4  271 256 
 HEL  HN ES        454 38.50                             115    0.74 8  271 256 
 HEL  HZ I         454 44.17         2.1 0.30            115            271 256 
 CBOC HZ EP   2    454 13.75                             110    0.49 3  332 252 
 CBOC HE ES        454 49.82                             110    0.12 7  332 252 
 PRA  HZ EP        454 20.38                             106    0.44 6  391 209 
 PRA  HN ES        455  1.57                             106   -0.02 6  391 209 
 PRA  HZ I         455  6.43         1.9 0.20            107            391 209 
 ORTC HZ EP   2    454 20.48                             106    0.15 3  395 216 
 ORTC HE ES   4    454 58.87                             106   -3.40 0  395 216 
 ORTC HZ I         455  7.51         1.7 0.16            107            395 216 
                                                                                
