 2015  114 0342 26.1 L   6.718 -73.181138.8  RSN  6 0.4 0.9LRSN                1
 GAP=136        0.94       4.3     4.5  8.3 -0.4881E+01  0.1814E+01  0.2883E+01E
 Epicentro: VILLANUEVA - SANTANDER                                             3
 ACTION:UPD 15-03-02 15:39 OP:nd   STATUS:               ID:20150114034226 L   I
 OLDACT:REG 15-01-14 14:13 OP:carl STATUS:               ID:20150114033744     3
 2015-01-14-0337-44M.COL___256                                                 6
 STAT SP IPHASW D HRMM SECON CODA AMPLIT PERI AZIMU VELO AIN AR TRES W  DIS CAZ7
 BAR2 EZ EP        342 44.99                             174    0.2510 13.9 181 
 BRR  HZ EP        342 46.86                             151    0.2610 72.8 306 
 BRR  HN ES        343  3.15                             151    0.5710 72.8 306 
 PAM  SZ EP        342 47.78                             146   -0.4210 86.9  38 
 PAM  SN ES        343  5.06                             146   -0.3710 86.9  38 
 PAM  SZ I         343  5.42         1.4 0.28            149           86.9  38 
 RUS  HZ EP        342 48.92                             145    0.3710 91.9 173 
 RUS  HN ES        343  6.11                             145    0.0610 91.9 173 
 RUS  HZ I         343  8.23         1.1 0.30            145           91.9 173 
 PTB  HZ EP        342 52.04                             131    0.01 9  142 262 
 PTB  HN ES        343 11.78                             131   -0.46 9  142 262 
 PTB  HZ I         343 15.00         1.4 0.14            132            142 262 
 SPBC HN ES        343 13.90                             129   -0.38 9  154 220 
                                                                                
