 2010  314 0135 38.7 L   6.857 -72.906132.8  RSN  4 0.3 1.6LRSN                1
 GAP=207        0.62       9.8    18.3 12.9  0.1433E+03 -0.1746E+03 -0.8416E+02E
 Epicentro: GUACA - SANTANDER                                                  3
 ACTION:UP  10-08-24 09:53 OP:vdl  STATUS:               ID:20100314013539 L   I
 2010-03-14-0131-19S.COL___095                                                 6
 STAT SP IPHASW D HRMM SECON CODA AMPLIT PERI AZIMU VELO SNR AR TRES W  DIS CAZ7
 BAR2 SZ ES   2    136 11.58                             161    -0.4 5   43 226 
 BRR  HZ IP        136  0.00                             143     0.010   93 287 
 BRR  HZ I         136  1.86         8.4 0.22                            93 287 
 BRR  HE ES   1    136 16.60                             143     0.0 7   93 287 
 RUS  HZ EP   1    136  1.60                             139    -0.3 7  108 190 
 RUS  HE ES   2    136 20.58                             139     0.7 5  108 190 
 OCA  SZ EP   2    136  6.36                             127     0.4 5  159 343 
 OCA  SZ I         136 14.17         5.4 0.29                           159 343 
                                                                                
