 2016 1214 0837 31.0 L   6.458 -73.720104.0  RSN  5 0.2 0.9LRSN                1
 GAP=145        0.50       2.8     2.2  4.1  0.2591E+01  0.2613E+01  0.1822E+01E
 Epicentro: SANTA HELENA DEL OPON - SANTANDER                                  3
 ACTION:UPD 17-01-11 20:15 OP:rebc STATUS:               ID:20161214083731 L   I
 OLDACT:UP  16-12-14 19:49 OP:and  STATUS:               ID:20161214082748     3
 OLDACT:REG 16-12-14 12:45 OP:and  STATUS:               ID:20161214082748     3
 2016-12-14-0828-00M.COL___374                                                 6
 STAT SP IPHASW D HRMM SECON CODA AMPLIT PERI AZIMU VELO AIN AR TRES W  DIS CAZ7
 BAR2 EZ EP        837 47.24                             147   -0.2110 61.2  76 
 BAR2 EZ ES        838  0.44                             147    0.1410 61.2  76 
 BRR  HZ EP        837 47.71                             143   -0.1410 71.7   1 
 BRR  HN ES        838  0.97                             143   -0.0310 71.7   1 
 PTB  HZ EP        837 48.52                             139   -0.1410 82.0 276 
 PTB  HN ES        838  2.44                             139   -0.0210 82.0 276 
 PTB  HZ I         838  3.44         2.0 0.10            137           82.0 276 
 RUS  HZ EP        837 50.31                             135   -0.0410 94.2 132 
 RUS  HN ES        838  5.56                             135    0.1110 94.2 132 
 RUS  HZ I         838  6.62         1.4 0.26            136           94.2 132 
 ZAR  HZ EP        837 57.70                             116    0.40 9  170 312 
 ZAR  HN ES   4    838 20.19                             116    2.37 0  170 312 
 ZAR  HZ I         838 22.42         1.3 0.22            116            170 312 
                                                                                
