 2017  414 0128 35.7 L   6.735 -73.122139.0  RSN 10 0.5 1.5LRSN                1
 GAP=116        1.27       4.3     4.7  7.4 -0.2682E+00  0.5088E+01  0.6055E+01E
 Epicentro: JORDAN - SANTANDER                                                 3
 ACTION:UPD 17-05-30 21:11 OP:jn   STATUS:               ID:20170414012835 L   I
 OLDACT:UP  17-04-14 13:40 OP:edw  STATUS:               ID:20170414012740     3
 OLDACT:UP  17-04-14 13:39 OP:edw  STATUS:               ID:20170414012740     3
 OLDACT:REG 17-04-14 12:13 OP:edw  STATUS:               ID:20170414012740     3
 2017-04-14-0128-00M.COL___365                                                 6
 STAT SP IPHASW D HRMM SECON CODA AMPLIT PERI AZIMU VELO AIN AR TRES W  DIS CAZ7
 BAR2 EZ EP        128 54.35                             173   -0.0410 17.1 203 
 BAR2 EZ ES        129  9.08                             173    0.1010 17.1 203 
 BAR2 EZ I         129 10.27         6.6 0.46            173           17.1 203 
 BRR  HZ EP     C  128 56.50                             149    0.0410 77.1 302 
 BRR  HN ES        129 13.07                             149    0.4010 77.1 302 
 BRR  HZ I         129 18.49         5.6 0.14            151           77.1 302 
 PAM  EZ EP     D  128 57.47                             148    0.0210 81.5  35 
 PAM  EN ES        129 14.32                             148   -0.1010 81.5  35 
 PAM  EZ I         129 16.21        10.9 0.70            150           81.5  35 
 RUS  HZ EP        128 58.95                             144    0.7010 93.3 177 
 RUS  HN ES        129 14.86                             144   -0.9810 93.3 177 
 RUS  HZ I         129 18.59         3.9 0.32            147           93.3 177 
 PTB  HZ EP        129  1.44                             130   -0.79 9  149 262 
 PTB  HN ES        129 23.43                             130    0.49 9  149 262 
 PTB  HZ I         129 24.55         3.4 0.14            132            149 262 
 SPBC HN ES        129 25.21                             128    0.36 9  159 221 
 YPLC HZ EP        129  4.93                             126    0.68 9  169 151 
 YPLC HN ES   4    129 28.14                             126    1.61 0  169 151 
 YPLC HZ I         129 31.30         5.5 0.30            129            169 151 
 ZAR  HZ EP        129  7.74                             120   -0.50 8  209 294 
 ZAR  HN ES        129 33.17                             120   -0.47 8  209 294 
 ZAR  HZ I         129 38.78         3.9 0.30            122            209 294 
 NOR  HN ES        129 38.72                             117    0.50 8  233 236 
 CHI  HZ EP        129 12.48                             116    0.14 8  242 196 
 CHI  HN ES        129 40.22                             116   -0.70 8  242 196 
 HEL  HE ES   4    129 44.35                             113   -2.49 0  273 257 
                                                                                
