 2010  314 0931 14.4 L   6.879 -72.442 13.7  RSN  4 0.5 2.3LRSN                1
 GAP=246        1.10       9.1    11.0 21.7  0.6639E+02 -0.1802E+03 -0.1652E+03E
 Epicentro: CERRITO - SANTANDER                                                3
 ACTION:UP  10-08-24 09:53 OP:vdl  STATUS:               ID:20100314093114 L   I
 2010-03-14-0928-35S.COL___095                                                 6
 STAT SP IPHASW D HRMM SECON CODA AMPLIT PERI AZIMU VELO SNR AR TRES W  DIS CAZ7
 BAR2 SZ EP        931 28.31                              97    -0.310   88 249 
 BAR2 SZ ES   2    931 38.75                              97    -1.0 5   88 249 
 RUS  HZ EP        931 35.42                              95     0.210  130 213 
 RUS  HN ES   2    931 51.31                              95    -0.2 5  130 213 
 RUS  HZ I         931 53.88        22.4 0.27                           130 213 
 BRR  HZ IP        931 37.02                              94     0.4 9  143 280 
 BRR  HZ I         931 37.54        39.1 0.20                           143 280 
 BRR  HE ES        931 54.48                              94     0.5 9  143 280 
 OCA  SZ IP        931 41.37                              56     0.0 9  179 327 
 OCA  SZ ES   2    932  1.19                              56    -1.2 4  179 327 
 OCA  SZ I         932  5.97        69.1 0.51                           179 327 
                                                                                
