 2010 1114 0849 35.3 L   6.814 -73.044141.2  RSN  4 0.4 1.7LRSN                1
 GAP=170        0.95       6.0    10.6 10.5  0.2024E+02  0.8774E+01  0.8899E+01E
 Epicentro: LOS SANTOS - SANTANDER                                             3
 ACTION:UP  10-12-17 16:52 OP:REBC STATUS:               ID:20101114084935 L   I
 2010-11-14-0848-38S.COL___128                                                 6
 STAT SP IPHASW D HRMM SECON CODA AMPLIT PERI AZIMU VELO SNR AR TRES W  DIS CAZ7
 BRR  HZ EP        849 56.07                             149    -0.410   81 294 
 BRR  HN ES        850 13.12                             149     0.110   81 294 
 BRR  HZ I         850 15.15        11.8 0.35                            81 294 
 RUS  HZ EP   1    849 58.23                             143    -0.4 7  102 182 
 RUS  HN ES        850 17.10                             143     0.210  102 182 
 RUS  HZ I         850 17.59         4.1 1.03                           102 182 
 GRA  SZ ES   2    850 19.60                             138     0.8 5  121  13 
 RREF HZ EP   1    850 23.04                             110     0.7 5  331 230 
 RREF HN ES   2    850 59.56                             110     0.5 3  331 230 
 RREF HZ I         851  3.00         3.8 0.56                           331 230 
                                                                                
