 2015 1014 0205  4.4 L   6.758 -73.056130.6  RSN  4 0.3 1.3LRSN                1
 GAP=150        0.74       3.7     5.5  6.3 -0.6571E+00 -0.2441E+01  0.3378E+00E
 Epicentro: LOS SANTOS - SANTANDER                                             3
 ACTION:UPD 15-12-22 20:39 OP:cam  STATUS:               ID:20151014020504 L   I
 OLDACT:DUP 15-10-14 15:07 OP:stll STATUS:               ID:20151014015737d    3
 2015-10-14-0157-36M.COL___337                                                 6
 STAT SP IPHASW D HRMM SECON CODA AMPLIT PERI AZIMU VELO AIN AR TRES W  DIS CAZ7
 BAR2 EZ ES        2 5 36.14                             169    0.0310 23.0 217 
 BAR2 EZ I         2 5 37.69         3.6 0.48            167           23.0 217 
 PAM  EZ EP        2 5 24.54                             148   -0.3810 75.4  31 
 PAM  EZ I         2 5 24.72         9.5 0.18            152           75.4  31 
 PAM  EN ES        2 5 41.12                             148    0.2110 75.4  31 
 BRR  HZ EP        2 5 25.15                             146    0.4910 82.1 298 
 BRR  HN ES        2 5 40.17                             146   -0.2810 82.1 298 
 BRR  HZ I         2 5 44.07         6.6 0.12            145           82.1 298 
 RUS  HZ EP        2 5 26.25                             142   -0.0910 95.7 182 
 RUS  HN ES        2 5 43.48                             142    0.0410 95.7 182 
 RUS  HZ I         2 5 45.44         1.6 0.32            143           95.7 182 
                                                                                
