 2017  214 0550 47.6 L   7.410 -73.315112.0  RSN  9 0.6 1.6LRSN                1
 GAP= 95        1.17       6.8     4.7  7.5  0.4591E+01  0.4932E+01 -0.8698E-01E
 Epicentro: EL PLAYON - SANTANDER                                              3
 ACTION:UPD 17-05-24 15:36 OP:jn   STATUS:               ID:20170214055047 L   I
 OLDACT:UP  17-02-14 15:18 OP:dani STATUS:               ID:20170214054747     3
 OLDACT:REG 17-02-14 12:38 OP:dani STATUS:               ID:20170214054747     3
 2017-02-14-0548-00M.COL___346                                                 6
 STAT SP IPHASW D HRMM SECON CODA AMPLIT PERI AZIMU VELO AIN AR TRES W  DIS CAZ7
 BRR  HZ EP     C  551  3.80                             152   -0.4110 55.2 233 
 BRR  HE ES        551 17.33                             152    0.1710 55.2 233 
 BRR  HZ I         551 18.08        14.1 0.10            146           55.2 233 
 PAM  EZ EP        551  5.83                             148    0.0910 68.3  96 
 PAM  EE ES        551 20.18                             148    0.3110 68.3  96 
 PAM  EZ I         551 21.02         5.5 0.14            149           68.3  96 
 BAR2 EZ EP        551  6.70                             139   -0.4210 91.6 171 
 BAR2 EZ ES        551 22.54                             139    0.2110 91.6 171 
 PTB  HZ EP   9    551 12.06                             122   -1.14 0  159 233 
 PTB  HN ES        551 32.29                             120    0.28 9  159 233 
 PTB  HZ I         551 38.52         8.9 0.14            118            159 233 
 RUS  HZ EP        551 14.40                             120   -0.58 9  170 171 
 RUS  HN ES   4    551 35.82                             120   -0.51 0  170 171 
 RUS  HZ I         551 37.75         2.3 0.27            117            170 171 
 ZAR  HZ EP        551 13.91                             120   -0.55 9  171 273 
 ZAR  HN ES        551 35.73                             120    0.34 9  171 273 
 ZAR  HZ I         551 40.38         9.2 0.24            117            171 273 
 LL6C HN EP   9    551  4.33                             109   -19.8 0  257   1 
 LL6C HE ES        551 33.60                                    0.76 8  257   1 
 NOR  HN ES   3    551 56.70                             108    1.91 2  267 220 
 CHI  HZ EP        551 32.22                             105    1.26 7  311 189 
 CHI  HN ES   4    552  8.29                             105    3.51 0  311 189 
 CHI  HZ I         552 14.42         1.3 0.27            103            311 189 
                                                                                
