 2012  714 0018 42.8 L   6.634 -73.151136.0  RSN  4 0.1 1.3LRSN                1
 GAP=225        0.41       4.5     4.5  5.5  0.9808E+01  0.9884E+01  0.3645E+01E
 Epicentro: VILLANUEVA - SANTANDER                                             3
 ACTION:UPD 12-08-14 11:44 OP:ep   STATUS:               ID:20120714001842 L   I
 2012-07-14-0010-00M.COL___197                                                 6
 STAT SP IPHASW D HRMM SECON CODA AMPLIT PERI AZIMU VELO AIN AR TRES W  DIS CAZ7
 BAR2 SZ EP   1    019  1.24                             177     0.2 7    6 217 
 BAR2 SZ ES   1    019 15.11                             177    -0.2 7    6 217 
 BAR2 SZ I         019 18.06         6.8 0.22            176              6 217 
 BRR  HN ES   1    019 19.76                             147     0.0 7   81 310 
 RUS  HN ES   1    019 21.15                             147     0.0 7   82 175 
 PTB  HZ EP   1    019  8.53                             130    -0.2 7  145 266 
 PTB  HN ES   1    019 29.05                             130     0.1 7  145 266 
 PTB  HZ I         019 30.80         1.6 0.23            133            145 266 
