 2011  114 0727 58.9 L   6.793 -73.166139.8  RSN 15 0.5 2.8LRSN                1
 GAP=134        1.01       3.2     5.5  9.4 -0.2312E+01  0.2518E+02  0.4559E+01E
 Epicentro: LOS SANTOS - SANTANDER                                             3
 ACTION:UP  11-02-08 08:40 OP:pat  STATUS:               ID:20110114072758 L   I
 2011-01-14-0725-51S.COL___136                                                 6
 STAT SP IPHASW D HRMM SECON CODA AMPLIT PERI AZIMU VELO SNR AR TRES W  DIS CAZ7
 BTL  SZ IP        728 17.09                             172    -0.610   18 321 
 BAR2 SZ IP        728 17.98                             170     0.210   22 185 
 BAR2 SZ I         728 36.04       127.4 0.16                            22 185 
 GIR2 SZ EP   1    728 18.13                             167     0.2 7   32 355 
 RUS  HZ IP     D  728 21.82                             143    -0.210  100 175 
 RUS  HE ES   1    728 40.47                             143     0.4 7  100 175 
 RUS  HZ I         728 41.72        60.2 0.08                           100 175 
 GRA  SZ IP        728 23.77                             135     0.010  127  18 
 GRA  SZ ES   1    728 43.16                             135     0.0 7  127  18 
 GRA  SZ I         728 46.38       146.9 0.28                           127  18 
 OCA  SZ EP   1    728 26.43                             128    -0.4 7  161 354 
 OCA  SZ ES   1    728 49.01                             128     0.4 7  161 354 
 OCA  SZ I         728 53.35       216.1 0.31                           161 354 
 YOP  SZ EP   1    728 28.43                             125    -0.1 7  179 153 
 YOP  SE ES   1    728 52.07                             125     0.4 7  179 153 
 YOP  SZ I         728 55.26        43.1 0.29                           179 153 
 NOR  SZ EP        728 34.00                             117    -0.1 8  233 234 
 NOR  SN ES   1    729  0.92                             117    -0.6 6  233 234 
 CHI  HZ EP   1    728 35.87                             116    -0.3 6  247 195 
 CHI  HN ES   1    729  4.99                             116    -0.2 6  247 195 
 CHI  HZ I         729 13.71        45.3 0.47                           247 195 
 ROSC BZ EP   1    728 37.42                             116     0.9 6  251 211 
 ROSC BZ I         729 12.60        67.5 0.36                           251 211 
 HEL  HZ EP   1    728 39.02                             114     0.5 6  270 256 
 HEL  HN ES   1    729  9.06                             114    -0.4 6  270 256 
 HEL  HZ I         729 16.33        55.7 0.33                           270 256 
 VIL  SZ EP   1    728 41.31                             111    -0.4 5  300 189 
 VIL  SE ES   1    729 14.21                             111    -0.9 5  300 189 
 VIL  SZ I         729 23.21        25.6 0.63                           300 189 
 RREF HZ EP   1    728 44.93                             110     0.4 5  320 229 
 RREF HN ES   1    729 21.04                             110     0.9 5  320 229 
 RREF HZ I         729 30.24        62.4 0.27                           320 229 
 DBB  SZ EP        728 45.70                             108    -0.2 7  337 274 
 DBB  SZ I         729 25.11        10.0 0.40                           337 274 
 TOL  SZ EP        728 47.42                             108     0.7 7  341 224 
                                                                                
