 2010  914 0855 45.9 L   6.812 -73.091141.3  RSN 12 0.4 3.1LRSN                1
 GAP=189        0.97       4.3     6.9  6.3 -0.3631E+01  0.1377E+02  0.4512E+01E
 Epicentro: LOS SANTOS - SANTANDER                                             3
 ACTION:UP  11-02-18 11:02 OP:tino STATUS:               ID:20100914085545 L   I
 2010-09-14-0853-22S.COL___113                                                 6
 STAT SP IPHASW D HRMM SECON CODA AMPLIT PERI AZIMU VELO SNR AR TRES W  DIS CAZ7
 BAR2 SZ IP        856  5.05                             169     0.010   26 203 
 BAR2 SZ ES   1    856 19.89                             169    -0.1 7   26 203 
 BAR2 SZ I         856 21.07       230.1 0.44                            26 203 
 BRR  HZ IP     C  856  6.84                             150     0.010   76 295 
 BRR  HN ES   1    856 23.57                             150     0.4 7   76 295 
 BRR  HZ I         856 25.71       289.2 0.54                            76 295 
 RUS  HZ EP        856  9.03                             143    -0.210  102 180 
 RUS  HN ES   1    856 27.81                             143     0.3 7  102 180 
 RUS  HZ I         856 30.14       111.9 0.47                           102 180 
 OCA  SZ EP        856 13.35                             129    -0.4 9  160 351 
 OCA  SZ I         856 39.89       118.2 0.41                           160 351 
 CHI  HZ EP        856 23.28                             116    -0.4 8  252 196 
 CHI  HE ES   1    856 52.31                             116    -0.8 6  252 196 
 CHI  HZ I         856 55.82        80.9 0.44                           252 196 
 ROSC BZ EP        856 24.89                             115     0.7 8  257 212 
 ROSC BN ES   1    856 54.23                             115     0.1 6  257 212 
 ROSC BZ I         857  0.11        86.6 0.31                           257 212 
 CVER SZ EP        856 26.35                             114     0.0 7  276 203 
 CVER SZ I         857  7.81        75.4 0.35                           276 203 
 HEL  HZ EP        856 26.28                             113    -0.3 7  278 256 
 HEL  HN ES   2    856 57.57                             113    -0.7 4  278 256 
 HEL  HZ I         857  4.64        60.3 0.28                           278 256 
 GUY  SZ EP        856 30.92                             111     1.0 7  307 235 
 RREF HZ EP        856 32.70                             110     0.3 7  327 230 
 RREF HN ES   1    857  7.96                             110    -0.8 5  327 230 
 RREF HZ I         857 17.91        52.6 0.31                           327 230 
 TOL  SZ EP        856 34.53                             108     0.0 6  349 225 
 TOL  SZ ES   2    857 12.75                             108     0.2 3  349 225 
 ANIL HZ EP        856 36.34                             107     0.2 6  363 225 
 ANIL HN ES   1    857 15.41                             107     0.1 5  363 225 
 ANIL HZ I         857 17.38        93.8 0.39                           363 225 
                                                                                
