 2016 1214 0621 47.9 L   6.789 -73.101142.4  RSN 14 0.4 2.0LRSN                1
 GAP= 99        0.94       3.4     3.1  4.5 -0.6342E+00  0.2581E+01  0.4380E+01E
 Epicentro: LOS SANTOS - SANTANDER                                             3
 ACTION:UPD 17-01-11 20:14 OP:rebc STATUS:               ID:20161214062148 L   I
 OLDACT:UP  16-12-14 17:06 OP:e    STATUS:               ID:20161214061745     3
 OLDACT:UP  16-12-14 17:06 OP:e    STATUS:               ID:20161214061745     3
 OLDACT:UP  16-12-14 17:04 OP:e    STATUS:               ID:20161214061745     3
 OLDACT:UP  16-12-14 17:02 OP:e    STATUS:               ID:20161214061745     3
 OLDACT:REG 16-12-14 12:34 OP:and  STATUS:               ID:20161214061745     3
 2016-12-14-0618-00M.COL___380                                                 6
 STAT SP IPHASW D HRMM SECON CODA AMPLIT PERI AZIMU VELO AIN AR TRES W  DIS CAZ7
 BAR2 EZ EP        622  6.87                             170   -0.2710 23.6 202 
 BAR2 HN ES        622 21.99                             170   -0.1510 23.6 202 
 BAR2 EZ I         622 22.79        35.0 0.14            168           23.6 202 
 PAM  EZ EP        622  9.77                             151    0.1310 75.3  36 
 PAM  EN ES        622 26.67                             151    0.0810 75.3  36 
 PAM  EZ I         622 29.21        16.8 0.19            153           75.3  36 
 BRR  HZ EP        622  8.83                             150   -0.1510 76.1 298 
 BRR  HN ES        622 25.57                             150    0.1510 76.1 298 
 BRR  HZ I         622 27.51        16.4 0.22            150           76.1 298 
 RUS  HZ EP        622 11.31                             143    0.0810 99.2 179 
 RUS  HN ES        622 29.35                             143   -0.0710 99.2 179 
 RUS  HZ I         622 30.34        25.9 0.36            142           99.2 179 
 TAM  HZ IP     D  622 15.28                             131    0.43 9  150 105 
 PTB  HZ EP   9    622 13.62                             130   -1.41 0  152 260 
 PTB  HN ES        622 34.01                                   -0.76 9  152 260 
 PTB  HZ I         622 35.91        11.1 0.28            130            152 260 
 ZAR  HZ EP        622 20.74                             121    0.08 8  209 292 
 ZAR  HN ES        622 45.89                             121   -0.31 8  209 292 
 ZAR  HZ I         622 47.91        10.5 0.10            121            209 292 
 NOR  HZ EP        622 23.49                             117   -0.32 8  238 235 
 NOR  HN ES        622 51.67                             117   -0.14 8  238 235 
 NOR  HZ I         622 58.29         7.1 0.26            117            238 235 
 CHI  HZ EP        622 25.79                             116    0.34 8  249 196 
 CHI  HN ES        622 54.61                             116   -0.11 8  249 196 
 CHI  HZ I         622 57.74         4.0 0.56            116            249 196 
 GUY2CHZ EP        622 31.87                             111    0.12 7  305 235 
 GUY2CHN ES        623  7.15                             111    1.21 7  305 235 
 GUY2CHZ I         623 11.97         4.3 0.24                           305 235 
 PTGC HZ EP        622 30.14                             111   -1.15 7  306 159 
 PTGC HN ES   4    623  3.28                             111   -1.85 0  306 159 
 PTGC HZ I         623 10.20         4.7 0.28            111            306 159 
 LL6C HZ EP   9    622 13.01                             110   -20.6 0  326 357 
 LL6C HN ES   4    622 50.21                                    1.54 0  326 357 
 CBOC HZ EP        622 35.55                             109    0.36 7  338 253 
 CBOC HN ES        623 11.66                             109   -0.40 7  338 253 
 CBOC HZ I         623 17.08         1.5 0.20            109            338 253 
 ORTC HZ EP        622 42.42                             106    0.47 6  397 217 
 ORTC HN ES   4    623 25.80                             106    1.70 0  397 217 
 ORTC HZ I         623 31.74         2.7 0.52            105            397 217 
 PAL  HZ EP        622 43.12                             105   -0.27 6  409 240 
 PAL  HE ES   4    623 24.26                             105   -2.40 0  409 240 
 PAL  HZ I         623 31.77         2.4 0.34            105            409 240 
 SJC  HZ EP   4    622 41.82                             105   -1.98 0  413 326 
 SJC  HN ES   4    623 24.36                             105   -3.03 0  413 326 
                                                                                
