 2016  314 0348  6.8 L   6.874 -73.133140.7  RSN  7 0.4 1.5LRSN                1
 GAP=247        0.54       6.0     5.3  8.8  0.1399E+02  0.5720E+00 -0.7207E+01E
 Epicentro: LOS SANTOS - SANTANDER                                             3
 ACTION:UPD 16-05-13 21:24 OP:cam  STATUS:               ID:20160314034806 L   I
 OLDACT:REG 16-03-14 12:42 OP:dnl  STATUS:               ID:20160314033750     3
 2016-03-14-0337-50M.COL___295                                                 6
 STAT SP IPHASW D HRMM SECON CODA AMPLIT PERI AZIMU VELO AIN AR TRES W  DIS CAZ7
 BAR2 EZ EP   3    348 26.37                             167    0.35 3 31.7 190 
 BAR2 EZ ES   3    348 40.34                             167   -0.67 3 31.7 190 
 BAR2 EZ I         348 43.60         5.5 0.30            162           31.7 190 
 RUS  HZ EP        348 30.87                             140    0.2110  109 177 
 RUS  HN ES   2    348 49.46                             140    0.18 5  109 177 
 RUS  HZ I         348 50.22         3.4 0.26            141            109 177 
 PTB  HZ EP        348 33.36                             130   -0.28 9  151 256 
 PTB  HN ES   2    348 54.67                             130    0.09 5  151 256 
 PTB  HZ I         348 59.19         4.8 0.32            128            151 256 
 SPBC HZ EP   2    348 35.50                             126   -0.12 5  170 218 
 SPBC HN ES   2    348 58.19                             126    0.09 5  170 218 
 SPBC HZ I         348 59.78         6.0 0.09            126            170 218 
 ZAR  HN ES   2    349  3.62                             121   -0.03 4  202 290 
 ZAR  HZ I         349 10.27         4.0 0.21            122            202 290 
 CHI  HZ EP   2    348 44.77                             115   -0.36 4  257 195 
 CHI  HN ES   2    349 14.15                             115   -0.88 4  257 195 
 CHI  HZ I         349 23.43         1.3 0.56            116            257 195 
 GUY2CHZ EP   2    348 51.84                             111    1.00 4  307 234 
 GUY2CHE ES   2    349 25.78                             111    0.58 4  307 234 
 GUY2CHZ I         349 32.12         1.8 0.58                           307 234 
                                                                                
