 2013  214 0756 32.3 L   6.807 -73.168143.9  RSN 11 0.5 2.1LRSN                1
 GAP=133        0.94       3.1     4.4  6.4 -0.1745E+00  0.7885E+01  0.1714E+01E
 Epicentro: LOS SANTOS - SANTANDER                                             3
 ACTION:UPD 13-03-12 09:32 OP:ep   STATUS:               ID:20130214075632 L   I
 2013-02-14-0750-00M.COL___241                                                 6
 STAT SP IPHASW D HRMM SECON CODA AMPLIT PERI AZIMU VELO AIN AR TRES W  DIS CAZ7
 BAR2 SZ EP        756 51.67                             170   -0.0110 23.8 184 
 BAR2 SZ ES   1    757  6.61                             170   -0.21 7 23.8 184 
 BAR2 SZ I         757  7.94        43.9 0.20            169           23.8 184 
 BRR  HZ EP        756 53.61                             153    0.5410 68.7 299 
 BRR  HE ES   1    757 10.33                             153    1.03 7 68.7 299 
 PAM  SZ EP        756 54.68                             150    0.3410 78.4  41 
 PAM  SN ES   1    757 11.47                             150   -0.09 7 78.4  41 
 PAM  SZ I         757 13.53        18.8 0.42            153           78.4  41 
 RUS  HZ EP        756 55.68                             143   -0.2210  102 175 
 RUS  HN ES   1    757 14.00                             143   -0.34 7  102 175 
 RUS  HZ I         757 16.07        13.3 0.34            144            102 175 
 PTB  HZ EP        756 58.57                             132   -0.31 9  146 258 
 PTB  HN ES   1    757 18.85                             132   -0.78 7  146 258 
 PTB  HZ I         757 21.52        17.2 0.24            131            146 258 
 OCA  HN ES   1    757 21.47                             129   -0.75 7  159 354 
 ZAR  HZ EP   1    757  4.85                             122    0.53 6  201 292 
 ZAR  HN ES   1    757 29.76                             122    0.43 6  201 292 
 ZAR  HZ I         757 35.43        12.7 0.42            122            201 292 
 SML  HZ EP        757  8.06                             117   -0.54 8  242 336 
 SML  HE ES   1    757 36.80                             117   -0.14 6  242 336 
 SML  HZ I         757 42.61        14.5 0.26            118            242 336 
 CHI  HZ EP        757 10.13                             117    0.26 8  249 195 
 CHI  HN ES        757 39.33                             117    0.12 8  249 195 
 CHI  HZ I         757 47.09         4.2 0.30            117            249 195 
 HEL  HZ EP   1    757 12.28                             115    0.14 6  270 256 
 HEL  HE ES   1    757 42.66                             115   -0.58 6  270 256 
 HEL  HZ I         757 50.31         4.8 0.26            114            270 256 
 RREF HN ES   1    757 54.16                             111    0.18 5  320 229 
                                                                                
