 2013  514 0407 43.4 L   6.668 -73.980 20.0  RSN  5 0.4 1.2LRSN                1
 GAP=124        1.01       3.3     2.2  4.5 -0.6844E+00 -0.1493E+01  0.5377E+01E
 Epicentro: PUERTO PARRA - SANTANDER                                           3
 ACTION:UPD 13-06-20 09:50 OP:ep   STATUS:               ID:20130514040743 L   I
 2013-05-14-0400-00M.COL___256                                                 6
 STAT SP IPHASW D HRMM SECON CODA AMPLIT PERI AZIMU VELO AIN AR TRES W  DIS CAZ7
 PTB  HZ EP     D  4 7 52.68                             107    0.0610 54.5 255 
 PTB  HN ES        4 7 59.65                             107   -0.1910 54.5 255 
 PTB  HZ I         4 7 59.83        17.2 0.34            104           54.5 255 
 BRR  HZ IP     C  4 7 53.07                             107    0.1210 56.9  31 
 BRR  HN ES        4 8  0.45                             107    0.0310 56.9  31 
 BAR2 SZ EP        4 7 58.17                             101    0.2910 88.6  95 
 BAR2 SZ ES        4 8  8.64                             101   -0.5510 88.6  95 
 BAR2 SZ I         4 8  9.25         9.4 0.38             99           88.6  95 
 RUS  HZ EP        4 8  5.10                              56    0.8410  131 131 
 RUS  HN ES        4 8 20.15                              56   -0.3910  131 131 
 RUS  HZ I         4 8 24.94         2.9 0.16             96            131 131 
 ZAR  HE ES   1    4 8 19.60                              56   -0.33 7  133 313 
                                                                                
