 2015  614 0940 37.3 L   6.791 -73.173146.2  RSN  6 0.5 1.5LRSN                1
 GAP=180        1.24       4.4    10.9  8.6 -0.1109E+01 -0.5802E+01 -0.4896E+01E
 Epicentro: LOS SANTOS - SANTANDER                                             3
 ACTION:UPD 15-09-10 22:12 OP:cam  STATUS:               ID:20150614094037 L   I
 OLDACT:REG 15-06-14 13:12 OP:stll STATUS:               ID:20150614093739     3
 2015-06-14-0937-39M.COL___312                                                 6
 STAT SP IPHASW D HRMM SECON CODA AMPLIT PERI AZIMU VELO AIN AR TRES W  DIS CAZ7
 BAR2 EZ EP        940 57.02                             171    0.0410 22.0 183 
 BAR2 EZ ES        941 11.71                             171   -0.6110 22.0 183 
 BAR2 EZ I         941 14.75         6.8 0.28            157           22.0 183 
 BRR  HZ EP        940 58.99                             153    0.5810 69.1 300 
 BRR  HN ES        941 15.66                             153    0.8110 69.1 300 
 RUS  HZ EP        941  1.44                             144    0.3710 99.8 174 
 RUS  HZ I         941 22.65         1.6 0.32            133           99.8 174 
 SPBC HZ EP        941  5.69                             129    0.08 9  161 218 
 SPBC HZ I         941  6.38         6.6 0.20            126            161 218 
 SPBC HN ES        941 27.04                             129   -0.63 9  161 218 
 OCA  HZ EP        941  5.98                             129    0.25 9  161 354 
 OCA  HE ES        941 27.51                             129   -0.38 9  161 354 
 OCA  HZ I         941 31.21         3.8 0.14            124            161 354 
 SML  HZ EP        941 13.31                             117   -0.63 8  243 336 
 SML  HN ES        941 42.15                             117   -0.35 8  243 336 
 SML  HZ I         941 48.60         4.6 0.10            114            243 336 
                                                                                
