 2016  514 0924 37.3 L   6.785 -73.142146.6  RSN  8 0.5 1.5LRSN                1
 GAP=237        1.01       4.7     5.6  7.0  0.5571E+01  0.1273E+02  0.6041E+01E
 Epicentro: LOS SANTOS - SANTANDER                                             3
 ACTION:UPD 16-08-18 17:45 OP:cam  STATUS:               ID:20160514092437 L   I
 OLDACT:REG 16-05-14 14:11 OP:ak   STATUS:               ID:20160514091747     3
 2016-05-14-0917-47M.COL___293                                                 6
 STAT SP IPHASW D HRMM SECON CODA AMPLIT PERI AZIMU VELO AIN AR TRES W  DIS CAZ7
 BAR2 EZ EP        924 57.16                             171    0.1610 21.8 192 
 BAR2 EZ ES        925 12.11                             171   -0.2610 21.8 192 
 BAR2 EZ I         925 14.49         8.8 0.24            168           21.8 192 
 BRR  HZ EP        924 58.74                             152    0.1310 72.3 300 
 BRR  HN ES        925 16.01                             152    0.7810 72.3 300 
 BRR  HZ I         925 17.09         5.0 0.43            151           72.3 300 
 RUS  HZ EP   2    925  0.80                             144   -0.21 5 98.9 176 
 RUS  HE ES        925 19.36                             144   -0.1510 98.9 176 
 RUS  HZ I         925 21.11         3.6 0.28            144           98.9 176 
 PTB  HZ EP        925  3.91                             132   -0.43 9  148 260 
 PTB  HN ES        925 24.71                             132   -0.73 9  148 260 
 PTB  HZ I         925 27.99         3.0 0.11            131            148 260 
 SPBC HZ EP   2    925  5.73                             129   -0.03 5  162 219 
 SPBC HN ES        925 27.99                             129    0.02 9  162 219 
 SPBC HZ I         925 33.03         5.6 0.10            129            162 219 
 ZAR  HZ EP   2    925 10.50                             122    0.60 4  205 293 
 ZAR  HE ES        925 34.93                             122   -0.40 9  205 293 
 ZAR  HZ I         925 41.02         2.9 0.08            123            205 293 
 NOR  HZ EP   2    925 12.18                             119   -0.83 4  234 235 
 NOR  HE ES        925 41.69                             119    0.83 8  234 235 
 NOR  HZ I         925 42.11         2.4 0.16            119            234 235 
 PRA  HZ EP        925 30.97                             107    0.27 6  391 210 
 PRA  HN ES        926 12.58                             107    0.23 6  391 210 
 PRA  HZ I         926 19.36         1.4 0.37            107            391 210 
                                                                                
