 2016  814 0948 58.1 L   6.739 -73.128141.4  RSN  6 0.4 1.3LRSN                1
 GAP=165        0.94       7.6     4.5  7.2 -0.8319E+01  0.7625E+01 -0.8313E+00E
 Epicentro: LOS SANTOS - SANTANDER                                             3
 ACTION:UPD 16-10-29 15:35 OP:rebc STATUS:               ID:20160814094858 L   I
 OLDACT:REG 16-08-14 13:20 OP:dani STATUS:               ID:20160814094737     3
 2016-08-14-0948-00M.COL___368                                                 6
 STAT SP IPHASW D HRMM SECON CODA AMPLIT PERI AZIMU VELO AIN AR TRES W  DIS CAZ7
 BAR2 EZ EP        949 17.36                             173    0.3010 17.3 200 
 BAR2 EZ ES        949 31.81                             173   -0.0610 17.3 200 
 BAR2 EZ I         949 37.79         7.4 0.60                          17.3 200 
 BRR  HZ EP        949 19.22                             150    0.1710 76.4 302 
 BRR  HE ES        949 36.13                             150    0.7210 76.4 302 
 BRR  HZ I         949 40.91         3.4 0.28                          76.4 302 
 PAM  EZ EP        949 20.14                             149    0.0710 81.5  35 
 PAM  EN ES        949 36.71                             149   -0.5310 81.5  35 
 PAM  EZ I         949 39.44         2.1 0.50                          81.5  35 
 PTB  HZ EP        949 24.66                             131   -0.09 9  149 262 
 PTB  HN ES        949 45.03                             131   -0.54 9  149 262 
 PTB  HZ I         949 46.70         1.9 0.18                           149 262 
 ZAR  HZ EP   2    949 31.03                             121    0.34 4  209 294 
 ZAR  HE ES        949 55.89                             121   -0.26 8  209 294 
 ZAR  HZ I         950  2.03         1.8 0.34                           209 294 
 GUY2CHZ EP   9    949 43.12                             112    1.90 0  299 236 
 GUY2CHN ES   2    950 17.45                                    0.67 4  299 236 
 GUY2CHZ I         950 21.81         0.9 0.40                           299 236 
                                                                                
