 2012  214 0458 37.0 L   6.748 -73.186139.7  RSN  4 0.2 1.2LRSN                1
 GAP=134        0.45       4.2     3.7  7.8 -0.2456E+01 -0.5858E+01  0.3487E+01E
 ACTION:UP  12-03-07 16:30 OP:epov STATUS:               ID:20120214045837 L   I
 2012-02-14-0450-00M.COL___187                                                 6
 STAT SP IPHASW D HRMM SECON CODA AMPLIT PERI AZIMU VELO AIN AR TRES W  DIS CAZ7
 BRR  HZ EP   1    458 57.74                             152    0.28 7 70.4 304 
 BRR  HZ I         458 58.20         5.1 0.09                          70.4 304 
 BRR  HN ES   2    459 13.69                             152    0.28 5 70.4 304 
 PAM  SZ EP   1    458 58.82                             147   -0.23 7 84.7  39 
 PAM  SN ES   2    459 16.15                             147   -0.08 5 84.7  39 
 RUS  HZ EP   1    458 59.90                             144    0.11 7 95.3 173 
 RUS  HE ES   2    459 17.53                             144   -0.01 5 95.3 173 
 RUS  HZ I         459 18.98         1.9 0.40                          95.3 173 
 PTB  HN ES   1    459 22.98                             132   -0.28 7  142 261 
                                                                                
