 2015  214 0349 17.0 L   6.817 -73.139143.0  RSN  5 0.5 1.3LRSN                1
 GAP=202        1.16       5.3     8.5 10.4  0.1249E+02 -0.1521E+02 -0.1023E+02E
 Epicentro: LOS SANTOS - SANTANDER                                             3
 ACTION:UPD 15-04-30 21:26 OP:nd   STATUS:               ID:20150214034918dL   I
 OLDACT:DUP 15-02-14 14:24 OP:fm   STATUS:               ID:20150214034744d    3
 2015-02-14-0347-43M.COL___299                                                 6
 STAT SP IPHASW D HRMM SECON CODA AMPLIT PERI AZIMU VELO AIN AR TRES W  DIS CAZ7
 BRR  HZ EP        349 38.55                             152    0.6910 71.0 297 
 BRR  HE ES        349 54.44                             152    0.3310 71.0 297 
 BRR  HZ I         350  2.58         4.4 0.42            152           71.0 297 
 RUS  HZ EP        349 40.38                             143   -0.2610  102 177 
 RUS  HN ES        349 58.72                             143   -0.3410  102 177 
 RUS  HZ I         349 60.00         1.2 0.50            150            102 177 
 PTB  HZ EP   1    349 44.13                             131    0.26 7  149 258 
 PTB  HN ES        350  3.91                             131   -0.89 9  149 258 
 PTB  HZ I         350  6.74         3.6 0.16            135            149 258 
 SPBC HZ EP        349 45.46                             128   -0.04 9  165 219 
 SPBC HE ES        350  8.32                             128    0.62 9  165 219 
 SPBC HZ I         350 12.05         3.2 0.24            134            165 219 
 SML  HZ EP   1    349 53.08                             117   -0.27 6  242 335 
 SML  HE ES   1    350 21.23                             117   -0.45 6  242 335 
 SML  HZ I         350 28.18         2.7 0.22            120            242 335 
                                                                                
