 2015  614 0235 50.2 L   6.790 -73.130142.8  RSN 10 0.4 1.8LRSN                1
 GAP=139        1.01       3.1     5.1  6.5 -0.2457E+01  0.2799E+01 -0.3872E+00E
 Epicentro: LOS SANTOS - SANTANDER                                             3
 ACTION:UPD 15-09-10 22:12 OP:cam  STATUS:               ID:20150614023550 L   I
 OLDACT:UP  15-06-14 15:00 OP:stll STATUS:               ID:20150614022746     3
 OLDACT:REG 15-06-14 12:52 OP:stll STATUS:               ID:20150614022746     3
 2015-06-14-0227-46M.COL___312                                                 6
 STAT SP IPHASW D HRMM SECON CODA AMPLIT PERI AZIMU VELO AIN AR TRES W  DIS CAZ7
 BAR2 EZ EP        236  9.65                             171    0.1510 22.6 195 
 BAR2 EZ ES        236 24.17                             171   -0.3510 22.6 195 
 BAR2 EZ I         236 27.51        13.7 0.34            161           22.6 195 
 BRR  HZ EP     D  236 11.49                             151    0.3010 73.3 299 
 BRR  HE ES        236 27.74                             151    0.2110 73.3 299 
 BRR  HZ I         236 32.28         7.8 0.56            147           73.3 299 
 PAM  SZ EP        236 12.13                             150    0.0110 77.2  38 
 RUS  HZ EP        236 13.43                             143   -0.1810 99.3 177 
 OCA  HZ EP        236 18.17                             129   -0.28 9  162 353 
 OCA  HE ES        236 40.83                             129    0.38 9  162 353 
 OCA  HZ I         236 45.89         9.7 0.20            118            162 353 
 SPBC HZ EP        236 18.71                             128    0.18 9  163 220 
 SPBC HE ES        236 40.79                             128    0.19 9  163 220 
 SPBC HZ I         236 46.67         7.6 0.14            117            163 220 
 ZAR  HZ EP   1    236 23.74                             121    1.03 6  206 292 
 ZAR  HE ES        236 48.22                             121    0.19 8  206 292 
 ZAR  HZ I         236 54.73         7.7 0.34            112            206 292 
 SML  HZ EP        236 27.03                             117    0.14 8  246 335 
 SML  HN ES        236 54.25                             117   -1.23 8  246 335 
 SML  HZ I         236 58.31         7.2 0.10            108            246 335 
 GUY2CHE ES        237  7.12                             112   -0.65 7  302 235 
 GUY2CHZ I         237 20.00         2.5 0.44                           302 235 
 PRA  HN ES        237 25.09                             106   -0.20 6  392 210 
 PRA  HZ I         237 32.44         1.7 0.28            100            392 210 
                                                                                
