 2016  214 0226 49.4 L   6.803 -73.143140.0  RSN  7 0.4 1.7LRSN                1
 GAP=137        0.97       3.3     4.6  7.2 -0.1954E+01  0.1115E+02 -0.2739E+01E
 Epicentro: LOS SANTOS - SANTANDER                                             3
 ACTION:UPD 16-03-04 21:25 OP:rebc STATUS:               ID:20160214022649 L   I
 OLDACT:REG 16-02-14 14:03 OP:ak   STATUS:               ID:20160214021746     3
 2016-02-14-0217-46M.COL___304                                                 6
 STAT SP IPHASW D HRMM SECON CODA AMPLIT PERI AZIMU VELO AIN AR TRES W  DIS CAZ7
 BAR2 EZ EP        227  8.19                             170   -0.1510 23.7 191 
 BAR2 EZ ES        227 22.76                             170   -0.3610 23.7 191 
 BAR2 EZ I         227 25.03         9.1 0.14            172           23.7 191 
 PAM  EZ EP        227 11.43                             150    0.4610 76.9  40 
 PAM  EN ES        227 28.10                             150    0.3010 76.9  40 
 PAM  EZ I         227 30.41         9.8 0.52            151           76.9  40 
 RUS  HZ EP   2    227 12.89                             142    0.28 5  101 176 
 RUS  HN ES        227 30.67                             142   -0.0410  101 176 
 PTB  HZ EP        227 15.80                             131   -0.14 9  148 259 
 PTB  HN ES        227 36.35                             131   -0.29 9  148 259 
 PTB  HZ I         227 39.42         4.9 0.18            132            148 259 
 OCA  HZ EP        227 16.30                             128   -0.93 9  160 353 
 OCA  HN ES        227 39.06                             128    0.11 9  160 353 
 OCA  HZ I         227 43.04        12.7 0.14            130            160 353 
 ZAR  HZ EP   2    227 21.44                             121   -0.05 4  204 292 
 ZAR  HN ES        227 47.22                             121    0.70 9  204 292 
 CHI  HZ EP   2    227 26.88                             116    0.05 4  249 195 
 CHI  HE ES        227 56.45                             116    0.43 8  249 195 
                                                                                
