 2016  914 0036 35.0 L   6.805 -73.158150.8  RSN  4 0.1 1.4LRSN                1
 GAP=135        0.40       2.6     2.6  4.0  0.1496E+01 -0.2499E+01 -0.1711E+01E
 Epicentro: LOS SANTOS - SANTANDER                                             3
 ACTION:UPD 17-08-17 21:09 OP:lp   STATUS:               ID:20160914003635 L   I
 OLDACT:REG 16-09-14 08:33 OP:dani STATUS:               ID:20160914002739     3
 2016-09-14-0028-00M.COL___318                                                 6
 STAT SP IPHASW D HRMM SECON CODA AMPLIT PERI AZIMU VELO AIN AR TRES W  DIS CAZ7
 BRR  HZ EP        036 56.49                             154   -0.0810 69.8 299 
 BRR  HN ES        037 13.53                             154    0.1110 69.8 299 
 BRR  HZ I         037 18.60        10.9 0.32            154           69.8 299 
 PAM  EZ EP        036 57.66                             152   -0.0710 77.8  41 
 RUS  HZ EP        036 59.22                             145   -0.0210  101 175 
 RUS  HE ES        037 18.21                             145    0.0210  101 175 
 RUS  HZ I         037 18.78         2.2 0.26            150            101 175 
 PTB  HZ EP        037  2.44                             133    0.21 9  147 259 
 PTB  HE ES        037 23.32                             133   -0.18 9  147 259 
 PTB  HZ I         037 25.86         2.0 0.16            136            147 259 
                                                                                
