 2012  814 0901 17.7 L   6.885 -73.373111.4  RSN  6 0.2 1.8LRSN                1
 GAP=129        0.42       2.6     3.0  3.8  0.2862E+01  0.4117E-01 -0.2814E+01E
 Epicentro: SAN VICENTE DE CHUCURI - SANTANDER                                 3
 ACTION:UPD 12-09-10 11:56 OP:ep   STATUS:               ID:20120814090117 L   I
 2012-08-14-0900-00M.COL___217                                                 6
 STAT SP IPHASW D HRMM SECON CODA AMPLIT PERI AZIMU VELO AIN AR TRES W  DIS CAZ7
 GIR2 SZ EP   1    9 1 33.52                             164    0.28 7 29.2  43 
 BAR2 SZ EP        9 1 33.91                             160    0.1710 38.6 147 
 BAR2 SZ ES   1    9 1 46.22                             160   -0.03 7 38.6 147 
 BAR2 SZ I         9 1 46.73        26.3 0.08                          38.6 147 
 BRR  HZ EP   1    9 1 33.44                             156   -0.22 7 44.8 303 
 BRR  HZ I         9 1 33.68        24.6 0.15                          44.8 303 
 BRR  HN ES        9 1 46.13                             156    0.0110 44.8 303 
 RUS  HN ES   2    9 1 55.98                             131   -0.48 5  114 164 
 OCA  HZ EP   1    9 1 42.42                             122   -0.08 7  150   2 
 OCA  HN ES   1    9 2  1.69                             122   -0.16 7  150   2 
 OCA  HZ I         9 2  7.54        10.0 0.14                           150   2 
 ZAR  HZ EP   1    9 1 45.25                             117    0.05 7  177 292 
 ZAR  HN ES   1    9 2  6.70                             117    0.04 7  177 292 
 ZAR  HZ I         9 2  8.57         4.4 0.15                           177 292 
                                                                                
