 2015 1014 0246  4.2 L   6.314 -73.449128.3  RSN 12 0.5 1.9LRSN                1
 GAP= 95        1.10       2.7     3.9  6.0 -0.2780E+01  0.9861E+01 -0.2323E+01E
 Epicentro: CONTRATACION - SANTANDER                                           3
 ACTION:UPD 15-12-22 20:39 OP:cam  STATUS:               ID:20151014024604 L   I
 OLDACT:REG 15-10-14 12:28 OP:stll STATUS:               ID:20151014023748     3
 2015-10-14-0237-48M.COL___334                                                 6
 STAT SP IPHASW D HRMM SECON CODA AMPLIT PERI AZIMU VELO AIN AR TRES W  DIS CAZ7
 BAR2 EZ EP        246 22.40                             160    0.0810 42.6  44 
 BAR2 EZ ES        246 36.49                             160    0.0110 42.6  44 
 BAR2 EZ I         246 39.90        14.4 0.26            165           42.6  44 
 RUS  HZ EP        246 23.61                             153   -0.0110 61.7 139 
 RUS  HE ES        246 38.65                             153   -0.1310 61.7 139 
 BRR  HZ EP        246 25.07                             142    0.1410 92.4 342 
 BRR  HN ES        246 41.74                             142    0.6210 92.4 342 
 BRR  HZ I         246 49.58         7.1 0.14            144           92.4 342 
 SPBC HZ EP        246 25.55                             139   -0.1510  101 223 
 SPBC HN ES        246 42.15                             139   -0.3310  101 223 
 SPBC HZ I         246 45.83        21.6 0.22            142            101 223 
 NOR  HZ EP        246 32.36                             122   -0.48 9  178 242 
 NOR  HN ES        246 54.45                             122   -0.75 9  178 242 
 NOR  HZ I         247  0.04        13.0 0.36            125            178 242 
 CHI  HZ EP        246 34.49                             121    0.03 9  189 190 
 CHI  HN ES        246 58.01                             121   -0.08 9  189 190 
 CHI  HZ I         247  2.96         3.9 0.36            125            189 190 
 ZAR  HZ EP        246 36.12                             118    0.68 9  203 310 
 ZAR  HE ES        246 59.70                             118   -0.12 9  203 310 
 ZAR  HZ I         247  4.47        10.7 0.24            121            203 310 
 OCA  HZ EP        246 36.58                             117   -0.15 8  213   4 
 OCA  HN ES        247  2.52                             117    0.39 8  213   4 
 HEL  HZ EP        246 38.81                             115   -0.09 8  231 267 
 HEL  HN ES        247  5.44                             115   -0.55 8  231 267 
 HEL  HZ I         247 10.06         7.8 0.28            118            231 267 
 GUY2CHZ EP     C  246 41.44                             114    0.90 8  244 240 
 GUY2CHN ES        247  9.53                             114    0.63 8  244 240 
 GUY2CHZ I         247 16.07         7.3 0.74                           244 240 
 ELA  HZ EP   1    246 43.96                             111    0.50 6  269 233 
 ELA  HN ES        247 14.83                             111    0.73 8  269 233 
 ELA  HZ I         247 21.72         4.7 0.44            115            269 233 
 SML  HZ EP        246 43.42                             110   -0.97 7  283 346 
 SML  HZ I         246 45.49         9.5 0.10            113            283 346 
 SML  HE ES        247 14.99                             110   -0.76 7  283 346 
                                                                                
