 2015  614 0732 45.1 L   6.759 -73.166141.1  RSN  6 0.5 1.5LRSN                1
 GAP=136        1.30       5.0     9.2  9.0  0.6403E+01 -0.6979E+00 -0.1200E+02E
 Epicentro: LOS SANTOS - SANTANDER                                             3
 ACTION:UPD 15-09-10 22:12 OP:cam  STATUS:               ID:20150614073245 L   I
 OLDACT:DUP 15-06-14 17:31 OP:stll STATUS:               ID:20150614072737d    3
 2015-06-14-0727-36M.COL___312                                                 6
 STAT SP IPHASW D HRMM SECON CODA AMPLIT PERI AZIMU VELO AIN AR TRES W  DIS CAZ7
 BAR2 EZ EP        733  4.31                             172    0.2610 18.6 186 
 BAR2 EZ ES        733 19.07                             172    0.2210 18.6 186 
 BAR2 EZ I         733 20.44         5.0 0.26            168           18.6 186 
 BRR  HZ EP        733  6.37                             151    0.6310 71.6 303 
 BRR  HN ES        733 22.22                             151    0.3610 71.6 303 
 PAM  SZ EP        733  7.17                             148    0.0810 82.3  39 
 PAM  SZ I         733  7.41         8.2 0.24            152           82.3  39 
 RUS  HZ EP        733  8.29                             144    0.2410 96.3 175 
 RUS  HE ES        733 25.03                             144   -0.9510 96.3 175 
 RUS  HZ I         733 27.90         1.8 0.46            143           96.3 175 
 SPBC HZ EP        733 12.79                             129    0.04 9  158 219 
 SPBC HN ES        733 34.22                             129   -0.12 9  158 219 
 SPBC HZ I         733 41.20         4.9 0.24            127            158 219 
 SML  HZ EP        733 21.79                             116    0.00 8  247 336 
 SML  HN ES        733 49.18                             116   -1.24 8  247 336 
 SML  HZ I         733 52.16         4.4 0.32            116            247 336 
                                                                                
