 2010  414 0144 36.1 L   6.818 -72.977150.3  RSN 12 0.7 3.1LRSN                1
 GAP=151        1.26       5.6     7.7  8.1 -0.1788E+02 -0.8968E+01  0.1407E+02E
 Epicentro: CEPITA - SANTANDER                                                 3
 ACTION:UPD 10-08-24 09:59 OP:vdl  STATUS:               ID:20100414014436 L   I
 2010-04-14-0141-18S.COL___097                                                 6
 STAT SP IPHASW D HRMM SECON CODA AMPLIT PERI AZIMU VELO AIN AR TRES W  DIS CAZ7
 BAR2 SZ EP        144 56.53                             167     0.010   34 222 
 BAR2 SZ ES   1    145 12.08                             167    -0.4 7   34 222 
 BRR  HZ EP        144 58.69                             148     0.010   87 292 
 BRR  HZ I         144 59.12       296.8 0.06                            87 292 
 BRR  HN ES        145 16.20                             148    -0.110   87 292 
 OCA  SZ EP        145  4.79                             130    -0.1 9  162 347 
 OCA  SZ ES   1    145 27.76                             130     0.4 7  162 347 
 CHI  HZ EP        145 14.60                             117    -0.3 8  256 199 
 CHI  HZ I         145 16.67        39.4 0.84                           256 199 
 CHI  HN ES   1    145 45.02                             117    -0.1 6  256 199 
 HEL  HZ EP        145 18.99                             114     0.4 7  291 256 
 HEL  HN ES        145 52.68                             114     0.9 7  291 256 
 HEL  HZ I         145 55.84        72.0 0.39                           291 256 
 RREF BZ EP        145 24.55                             110     0.3 7  337 231 
 RREF BN ES        146  1.94                             110     0.2 7  337 231 
 RREF BZ I         146  8.56        47.1 0.27                           337 231 
 SDV  BZ EP        145 25.87                             110     1.3 7  345  48 
 TOL  SZ EP        145 26.33                             109     0.1 6  358 227 
 DBB  SZ EP        145 24.47                             109    -1.4 6  358 274 
 ANIL BZ EP   1    145 27.29                             108    -0.5 5  372 226 
 ANIL BN ES   2    146  7.48                             108    -0.6 3  372 226 
 PRA  HZ EP        145 30.19                             107    -0.9 6  403 212 
 PRA  HN ES   1    146 15.42                             107     1.4 4  403 212 
 PRA  HZ I         146 17.19        24.9 0.14                           403 212 
 URI  HZ EP        145 46.87                             101    -1.7 4  551  11 
                                                                                
