 2010  814 0056 38.7 L   6.738 -73.221150.0  RSN  4 0.2 1.1LRSN                1
 GAP=156        0.44       6.5    16.3 12.6  0.5913E+02 -0.8344E+02 -0.4342E+02E
 Epicentro: VILLANUEVA - SANTANDER                                             3
 ACTION:UP  10-09-07 10:54 OP:vdl  STATUS:               ID:20100814005638 L   I
 2010-08-14-0055-06S.COL___111                                                 6
 STAT SP IPHASW D HRMM SECON CODA AMPLIT PERI AZIMU VELO SNR AR TRES W  DIS CAZ7
 BTL  SZ EP   1    056 58.53                             172    -0.3 7   21 345 
 BRR  HZ EP   2    057  0.07                             154    -0.1 5   68 307 
 BRR  HE ES   3    057 17.25                             154     0.4 2   68 307 
 RUS  HZ EP   1    057  2.60                             147     0.1 7   95 171 
 RUS  HN ES   2    057 21.00                             147     0.0 5   95 171 
 RUS  HZ I         057 22.32         2.7 0.47                            95 171 
 GUE  SZ EP   2    057  4.76                             139     0.3 5  125  15 
 GUE  SZ I         057 26.14         1.2 0.10                           125  15 
                                                                                
