 2013  814 0202 23.7 L   6.815 -73.138145.6  RSN  6 0.4 2.0LRSN                1
 GAP=189        1.08       5.9     6.6  7.8  0.4318E+01  0.3096E+01  0.1137E+01E
 Epicentro: LOS SANTOS - SANTANDER                                             3
 ACTION:UPD 14-01-14 09:02 OP:ep   STATUS:               ID:20130814020223 L   I
 OLDACT:DUP 13-08-14 11:28 OP:stll STATUS:               ID:20130814020001d    3
 2013-08-14-0200-00M.COL___268                                                 6
 STAT SP IPHASW D HRMM SECON CODA AMPLIT PERI AZIMU VELO AIN AR TRES W  DIS CAZ7
 BAR2 SZ EP        2 2 43.04                             170   -0.3010 25.1 191 
 BAR2 SZ ES        2 2 58.40                             170   -0.2610 25.1 191 
 BAR2 SZ I         2 3  0.05        10.7 0.20            163           25.1 191 
 GIR2 SZ EP        2 2 42.85                             168   -0.4610 29.8 348 
 BRR  HZ EP        2 2 45.30                             152    0.4810 71.2 297 
 BRR  HN ES        2 3  1.91                             152    0.6110 71.2 297 
 BRR  HN I         2 3  2.74        25.3 0.32            149           71.2 297 
 RUS  HZ EP        2 2 48.05                             143    0.5110  102 177 
 RUS  HN ES        2 3  6.00                             143   -0.1410  102 177 
 RUS  HN I         2 3  7.73        11.4 0.38            141            102 177 
 PTB  HZ EP        2 2 50.31                             132   -0.45 9  149 258 
 PTB  HN ES        2 3 11.33                             132   -0.53 9  149 258 
 PTB  HN I         2 3 16.70        19.0 0.26            129            149 258 
 SPBC HZ EP        2 2 52.52                             129    0.17 9  165 219 
 SPBC HN ES        2 3 15.04                             129    0.34 9  165 219 
 SPBC HN I         2 3 22.76        14.7 0.14            126            165 219 
                                                                                
