 2012 1114 0312 45.4 L   6.778 -73.159150.9  RSN  5 0.3 1.2LRSN                1
 GAP=136        0.70       5.1     4.9  6.9 -0.2597E+01  0.4754E+01  0.9227E+00E
 Epicentro: LOS SANTOS - SANTANDER                                             3
 ACTION:UPD 12-12-05 15:33 OP:}ep  STATUS:               ID:20121114031245 L   I
 2012-11-14-0310-00M.COL___230                                                 6
 STAT SP IPHASW D HRMM SECON CODA AMPLIT PERI AZIMU VELO AIN AR TRES W  DIS CAZ7
 BAR2 SZ ES   1    313 21.53                             172    0.12 7 20.7 187 
 BAR2 SZ I         313 23.16         6.1 0.18                          20.7 187 
 BRR  HZ EP   1    313  7.43                             153    0.28 7 71.1 301 
 BRR  HN ES   1    313 24.60                             153    0.53 7 71.1 301 
 BRR  HZ I         313 28.68         4.3 0.42                          71.1 301 
 PAM  SZ EP   1    313  8.40                             151    0.03 7 80.2  39 
 PAM  SE ES   1    313 25.77                             151   -0.49 7 80.2  39 
 RUS  HZ EP   1    313  9.87                             145    0.32 7 98.3 175 
 RUS  HN ES   1    313 28.23                             145   -0.12 7 98.3 175 
 RUS  HZ I         313 29.34         1.2 0.32                          98.3 175 
 PTB  HZ EP   1    313 12.36                             133   -0.31 7  146 260 
 PTB  HE ES   1    313 33.43                             133   -0.47 7  146 260 
 PTB  HZ I         313 39.38         2.0 0.21                           146 260 
                                                                                
