 2015 1114 0016 17.6 L   6.816 -73.118147.3  RSN 16 0.5 2.2LRSN                1
 GAP=139        1.00       2.7     4.9  5.8 -0.8117E+00  0.5411E+01  0.2204E+01E
 Epicentro: LOS SANTOS - SANTANDER                                             3
 ACTION:UPD 15-12-28 16:10 OP:cam  STATUS:               ID:20151114001617 L   I
 OLDACT:UP  15-11-19 06:51 OP:CARA STATUS:               ID:20151114001617 L   3
 OLDACT:REG 15-11-14 13:08 OP:dnl  STATUS:               ID:20151114000749     3
 2015-11-14-0007-49M.COL___316                                                 6
 STAT SP IPHASW D HRMM SECON CODA AMPLIT PERI AZIMU VELO AIN AR TRES W  DIS CAZ7
 BAR2 EZ EP        016 37.68                             170    0.2310 25.8 196 
 BAR2 EZ ES        016 52.39                             170   -0.5510 25.8 196 
 BAR2 EZ I         016 55.41        37.5 0.28            166           25.8 196 
 BRR  HZ EP   1    016 39.46                             152    0.46 7 73.0 296 
 BRR  HN ES        016 56.42                             152    0.7110 73.0 296 
 BRR  HZ I         016 57.22        26.5 0.14            147           73.0 296 
 PAM  EZ EP     C  016 40.44                             152    0.6710 74.1  39 
 PAM  EZ I         016 40.87        99.5 0.20            155           74.1  39 
 RUS  HZ EP        016 41.63                             144    0.0310  102 178 
 RUS  HE ES   1    016 59.84                             144   -0.50 7  102 178 
 RUS  HZ I         017  1.74        12.4 0.30            144            102 178 
 OCA  HZ EP   1    016 45.47                             130   -0.41 7  159 352 
 OCA  HE ES        017  7.67                             130   -0.29 9  159 352 
 OCA  HZ I         017 11.51        35.4 0.22            129            159 352 
 ZAR  HZ EP   1    016 50.74                             122    0.39 6  206 291 
 ZAR  HE ES        017 15.72                             122   -0.18 8  206 291 
 NOR  HZ EP   1    016 52.83                             118   -0.95 6  238 235 
 NOR  HE ES   1    017 21.54                             118   -0.47 6  238 235 
 NOR  HZ I         017 27.17         8.8 0.20            117            238 235 
 SML  HZ EP        016 53.64                             118   -0.62 8  243 334 
 SML  HE ES        017 22.63                             118   -0.23 8  243 334 
 SML  HZ I         017 27.31        20.7 0.22            117            243 334 
 CHI  HZ EP   1    016 55.93                             117    0.29 6  251 196 
 CHI  HN ES        017 25.10                             117   -0.23 8  251 196 
 CHI  HZ I         017 28.68         8.3 0.64            117            251 196 
 ROSC BZ EP   4    016 57.79                             117    1.66 0  256 211 
 ROSC BE ES   1    017 26.84                             117    0.65 6  256 211 
 ROSC BZ I         017 32.17        21.1 0.40            116            256 211 
 HEL  HZ EP   4    016 59.98                             115    1.73 0  275 256 
 HEL  HN ES   4    017 28.73                             115   -1.23 0  275 256 
 HEL  HZ I         017 36.24         5.9 0.62            113            275 256 
 GUY2CHZ EP   4    017  3.64                             112    1.98 0  305 235 
 GUY2CHE ES        017 36.51                             112    0.47 7  305 235 
 GUY2CHZ I         017 44.05         6.1 0.56                           305 235 
 MON  HZ EP   4    017  4.84                             109   -1.95 0  355 308 
 MON  HE ES   4    017 43.64                             109   -1.53 0  355 308 
 MON  HZ I         017 58.58         4.8 0.52            108            355 308 
 PRA  HZ EP        017 11.71                             107    0.19 6  395 210 
 PRA  HE ES        017 52.88                             107   -0.70 6  395 210 
 PRA  HZ I         017 57.74         7.7 0.36            106            395 210 
 ORTC HZ EP        017 12.25                             106    0.32 6  399 216 
 ORTC HE ES   1    017 54.61                             106    0.28 4  399 216 
 ORTC HZ I         017 59.01         3.6 0.26            106            399 216 
 SJC  HZ EP   4    017 11.91                             106   -1.30 0  409 326 
 SJC  HN ES   4    017 53.87                             106   -2.73 0  409 326 
 SJC  HZ I         017 59.74         3.0 0.52            105            409 326 
                                                                                
