 2010  514 0856  0.8 L   6.810 -72.989140.9  RSN 10 0.6 3.4LRSN                1
 GAP=137        1.32       4.7     9.1  8.8 -0.1891E+02 -0.1813E+02  0.9226E+01E
 Epicentro: CEPITA - SANTANDER                                                 3
 ACTION:UP  10-08-24 10:04 OP:vdl  STATUS:               ID:20100514085600 L   I
 2010-05-14-0854-27S.COL___105                                                 6
 STAT SP IPHASW D HRMM SECON CODA AMPLIT PERI AZIMU VELO AIN AR TRES W  DIS CAZ7
 BAR2 SZ IP        856 20.32                             167     0.310   32 222 
 BAR2 SZ ES   1    856 34.84                             167    -0.2 7   32 222 
 BRR  HZ IP        856 22.91                             147     0.610   86 292 
 BRR  HN ES   1    856 39.89                             147     0.7 7   86 292 
 BRR  HZ I         856 44.06       543.8 0.15                            86 292 
 RUS  HZ IP     C  856 24.31                             142     0.110  102 186 
 RUS  HE ES   1    856 42.32                             142    -0.1 7  102 186 
 RUS  HZ I         856 43.81       267.2 0.28                           102 186 
 BRI  SZ IP        856 23.29                             142    -0.510  102  12 
 BRI  SZ ES   1    856 41.25                             142    -0.4 7  102  12 
 OCA  SZ IP        856 28.77                             128    -0.1 9  162 347 
 OCA  SZ ES   1    856 50.25                             128    -0.6 7  162 347 
 OCA  SZ I         856 57.63       321.0 0.11                           162 347 
 CHI  HZ EP        856 38.39                             115    -0.5 8  255 199 
 CHI  HE ES   1    857  7.73                             115    -0.9 6  255 199 
 CHI  HZ I         857 11.20       107.8 0.59                           255 199 
 ROSC BZ EP        856 40.04                             114     0.3 8  263 214 
 ROSC BN ES   1    857  9.16                             114    -1.0 6  263 214 
 ROSC BZ I         857 14.19       192.8 0.47                           263 214 
 CVER SZ EP        856 42.84                             113     1.0 7  280 205 
 SDV  BZ EP        856 49.81                             108     0.8 6  347  49 
 SDV  BZ I         856 50.74        77.1 0.13                           347  49 
 SDV  BE ES   1    857 26.52                             108    -0.2 5  347  49 
 DBB  SZ EP   2    856 48.31                             107    -1.7 3  357 274 
                                                                                
