 2011  914 0729 57.6 L   6.744 -73.125148.0  RSN  6 0.2 1.7LRSN                1
 GAP=142        0.32       2.5     3.2  4.1  0.1418E+01  0.1816E+01 -0.1487E+00E
 Epicentro: JORDAN - SANTANDER                                                 3
 ACTION:UPD 12-07-13 15:57 OP:ep   STATUS:               ID:20110914072957 L   I
 2011-09-14-0728-49S.COL___169                                                 6
 STAT SP IPHASW D HRMM SECON CODA AMPLIT PERI AZIMU VELO AIN AR TRES W  DIS CAZ7
 BAR2 SZ EP   2    730 17.49                             173    0.10 5 17.9 201 
 BAR2 SZ ES   2    730 33.16                             173    0.32 5 17.9 201 
 BAR2 SZ I         730 34.01         7.6 0.40                          17.9 201 
 BRR  HZ EP   1    730 19.25                             151   -0.02 7 76.3 302 
 BRR  HZ I         730 29.26        10.6 0.79                          76.3 302 
 BRR  HN ES   2    730 36.07                             151   -0.11 5 76.3 302 
 PAM  SZ EP   1    730 20.25                             150    0.00 7 80.9  35 
 PAM  SN ES   2    730 37.81                             150   -0.12 5 80.9  35 
 RUS  HZ EP   1    730 20.98                             146   -0.14 7 94.3 177 
 RUS  HN ES   2    730 39.48                             146    0.01 5 94.3 177 
 OCA  SZ ES   2    730 49.43                             129    0.06 5  167 353 
 OCA  SZ I         730 51.96         4.4 0.35                           167 353 
 ZAR  HZ EP   2    730 31.01                             122    0.36 4  209 293 
 ZAR  HN ES   2    730 56.22                             122   -0.21 4  209 293 
 ZAR  HZ I         730 58.99         7.8 0.63                           209 293 
                                                                                
