 2012 1214 0208 57.1 L   6.790 -73.144147.9  RSN 11 0.4 2.2LRSN                1
 GAP= 72        0.84       3.3     3.7  5.6  0.2038E+01  0.3100E+01  0.1344E+01E
 Epicentro: LOS SANTOS - SANTANDER                                             3
 ACTION:UPD 13-01-04 14:27 OP:ep   STATUS:               ID:20121214020857 L   I
 2012-12-14-0205-43M.COL___212                                                 6
 STAT SP IPHASW D HRMM SECON CODA AMPLIT PERI AZIMU VELO AIN AR TRES W  DIS CAZ7
 BAR2 SZ EP        2 9 16.94                             171    0.0010 22.3 191 
 BAR2 SZ ES   1    2 9 32.26                             171   -0.18 7 22.3 191 
 BAR2 SZ I         2 9 34.85        52.5 0.35                          22.3 191 
 GIR2 SZ EP   1    2 9 17.01                             167   -0.02 7 32.4 350 
 GIR2 SZ ES   1    2 9 33.13                             167    0.53 7 32.4 350 
 GIR2 SZ I         2 9 39.91        18.6 0.32                          32.4 350 
 BRR  HZ EP     C  2 9 18.81                             153    0.3110 71.9 299 
 BRR  HN ES   1    2 9 36.22                             153    1.02 7 71.9 299 
 BRR  HZ I         2 9 38.45        22.3 0.14                          71.9 299 
 PAM  SZ EP   1    2 9 19.73                             151    0.17 7 78.1  39 
 PAM  SE ES   1    2 9 36.54                             151   -0.55 7 78.1  39 
 PAM  SZ I         2 9 39.22        26.9 0.52                          78.1  39 
 RUS  HZ EP   1    2 9 20.88                             145   -0.08 7 99.5 176 
 RUS  HN ES   1    2 9 38.99                             145   -0.60 7 99.5 176 
 RUS  HZ I         2 9 40.82        19.2 0.28                          99.5 176 
 PTB  HZ EP   1    2 9 23.64                             132   -0.58 7  148 259 
 PTB  HN ES   1    2 9 44.98                             132   -0.41 7  148 259 
 PTB  HZ I         2 9 46.43        16.4 0.34                           148 259 
 TAM  HZ EP   1    2 9 25.09                             131    0.21 7  155 105 
 TAM  HN ES   1    2 9 46.85                             131    0.29 7  155 105 
 OCA  HN ES   1    2 9 47.27                             130   -0.67 7  161 353 
 OCA  HZ I         2 9 52.72        26.3 0.38                           161 353 
 ZAR  HZ EP   1    2 9 30.02                             123    0.29 6  205 292 
 ZAR  HE ES   1    2 9 55.32                             123    0.13 6  205 292 
 ZAR  HZ I         210  2.02        23.6 0.26                           205 292 
 SML  HZ EP   1    2 9 33.88                             118   -0.06 6  245 335 
 SML  HN ES   1    210  2.25                             118   -0.44 6  245 335 
 CHI  HZ EP   1    2 9 35.19                             118    0.40 6  248 195 
 CHI  HN ES   1    210  4.08                             118   -0.13 6  248 195 
 CHI  HZ I         210 12.69         5.6 0.36                           248 195 
                                                                                
