 2012  514 0716 29.0 L   7.597 -73.618 97.2  RSN  4 0.4 1.7LRSN                1
 GAP=166        0.74       5.5     8.5 12.5 -0.2748E+02  0.2086E+02 -0.1299E+02E
 Epicentro: SABANA DE TORRES - SANTANDER                                       3
 ACTION:UP  12-07-05 12:05 OP:pat  STATUS:               ID:20120514071629 L   I
 2012-05-14-0710-00M.COL___195                                                 6
 STAT SP IPHASW D HRMM SECON CODA AMPLIT PERI AZIMU VELO SNR AR TRES W  DIS CAZ7
 BRR  HZ EP   1    716 44.44                             148     0.4 7   55 191 
 BRR  HZ I         716 44.68        13.0 0.13                            55 191 
 BRR  HE ES   1    716 55.88                             148     0.2 7   55 191 
 OCA  HZ EP   1    716 46.02                             138     0.1 7   78  25 
 OCA  HN ES   1    716 58.97                             138    -0.2 7   78  25 
 OCA  HZ I         717  1.18        16.0 0.45                            78  25 
 PAM  SN ES   2    717  3.86                             129    -0.4 5  105 106 
 PTB  HN ES   2    717 10.29                             119    -0.8 5  149 218 
                                                                                
