 2010  814 0904 32.3 L   6.843 -72.984140.6  RSN  6 0.3 1.5LRSN                1
 GAP=183        0.76       6.2    12.2  8.7  0.3793E+02 -0.5432E+02 -0.2052E+02E
 Epicentro: CEPITA - SANTANDER                                                 3
 ACTION:UP  10-09-07 10:54 OP:vdl  STATUS:               ID:20100814090432 L   I
 2010-08-14-0859-54S.COL___111                                                 6
 STAT SP IPHASW D HRMM SECON CODA AMPLIT PERI AZIMU VELO SNR AR TRES W  DIS CAZ7
 BTL  SZ EP        9 4 51.90                             166     0.410   32 285 
 BTL  SZ ES   2    9 5  6.88                             166     0.3 5   32 285 
 BAR2 SZ EP        9 4 51.61                             165     0.010   35 218 
 BAR2 SZ ES   1    9 5  6.11                             165    -0.6 7   35 218 
 BAR2 SZ I         9 5  8.38         9.2 0.20                            35 218 
 BRR  HZ EP        9 4 53.50                             146    -0.310   86 290 
 BRR  HN ES   1    9 5 10.84                             146     0.3 7   86 290 
 BRR  HZ I         9 5 12.92         9.5 0.60                            86 290 
 RUS  HZ EP        9 4 56.05                             141     0.110  106 186 
 RUS  HN ES   1    9 5 14.46                             141     0.1 7  106 186 
 RUS  HZ I         9 5 15.85         5.4 0.30                           106 186 
 GUE  SZ EP   1    9 4 55.87                             140    -0.1 7  109   3 
 GUE  SZ I         9 5 18.12         1.1 0.13                           109   3 
 PRA  HZ EP   3    9 5 26.76                             105    -0.4 1  405 211 
 PRA  HZ I         9 6 13.62         1.8 0.54                           405 211 
                                                                                
