 2011 1114 0349 27.9 L   6.769 -73.101145.7  RSN  4 0.4 1.2LRSN                1
 GAP=144        0.70       7.7    12.0 11.3  0.4081E+02 -0.7177E+02 -0.2151E+02E
 Epicentro: LOS SANTOS - SANTANDER                                             3
 ACTION:UPD 12-07-13 16:10 OP:ep   STATUS:               ID:20111114034927 L   I
 2011-11-14-0346-46S.COL___178                                                 6
 STAT SP IPHASW D HRMM SECON CODA AMPLIT PERI AZIMU VELO AIN AR TRES W  DIS CAZ7
 BAR2 SZ EP   2    349 46.78                             171   -0.66 5 21.5 205 
 BAR2 SZ ES   2    350  2.16                             171   -0.55 5 21.5 205 
 BAR2 SZ I         350  3.33         3.5 0.17                          21.5 205 
 PAM  SZ EP   1    349 50.27                             151    0.23 7 77.1  35 
 BRR  HZ EP   1    349 48.91                             151   -0.43 7 77.2 299 
 BRR  HE ES   1    350  6.46                             151    0.36 7 77.2 299 
 BRR  HZ I         350  7.64         7.0 0.20                          77.2 299 
 RUS  HZ EP   1    349 51.68                             145    0.35 7 96.9 179 
 RUS  HE ES   2    350  9.73                             145    0.08 5 96.9 179 
 RUS  HZ I         350 12.24         1.3 0.29                          96.9 179 
                                                                                
