 2017  114 0633 56.2 L   6.811 -73.180149.4  RSN  4 0.2 1.1LRSN                1
 GAP=132        0.62       3.5     3.2  5.4 -0.1359E+01  0.1267E+01  0.2686E+01E
 Epicentro: ZAPATOCA - SANTANDER                                               3
 ACTION:UPD 17-05-22 15:59 OP:jn   STATUS:               ID:20170114063356 L   I
 OLDACT:UP  17-01-14 15:43 OP:dani STATUS:               ID:20170114062745d    3
 OLDACT:DUP 17-01-14 15:41 OP:dani STATUS:               ID:20170114062745d    3
 OLDACT:UP  17-01-14 15:40 OP:dani STATUS:               ID:20170114062744     3
 OLDACT:UP  17-01-14 15:40 OP:dani STATUS:               ID:20170114062744     3
 OLDACT:REG 17-01-14 12:51 OP:dani STATUS:               ID:20170114062744     3
 2017-01-14-0628-00M.COL___323                                                 6
 STAT SP IPHASW D HRMM SECON CODA AMPLIT PERI AZIMU VELO AIN AR TRES W  DIS CAZ7
 BRR  HZ EP        634 17.82                             154    0.2610 67.3 299 
 BRR  HN ES        634 34.47                             154    0.2810 67.3 299 
 BRR  HZ I         634 36.73         3.1 0.12            154           67.3 299 
 PAM  EZ EP        634 19.03                             151    0.1110 78.9  42 
 PAM  EN ES        634 36.29                             151   -0.3210 78.9  42 
 PAM  EZ I         634 38.26         2.1 0.66            155           78.9  42 
 RUS  HZ EP        634 20.48                             144    0.0410  102 174 
 RUS  HN ES        634 39.40                             144    0.0710  102 174 
 RUS  HZ I         634 41.07         1.4 0.34            146            102 174 
 PTB  HZ EP        634 22.92                             133   -0.26 9  144 258 
 PTB  HN ES        634 43.98                             133   -0.23 9  144 258 
 PTB  HZ I         634 49.01         1.9 0.38            135            144 258 
                                                                                
