 2015  314 0229 45.4 L   7.233 -73.878 95.0  RSN  5 0.5 1.7LRSN                1
 GAP=133        1.27       4.2     5.6  9.0 -0.7384E+01  0.7012E+01 -0.7122E+01E
 Epicentro: PUERTO WILCHES - SANTANDER                                         3
 ACTION:UPD 15-04-30 16:25 OP:nd   STATUS:               ID:20150314022945 L   I
 OLDACT:UP  15-03-14 14:30 OP:cam  STATUS:               ID:20150314021736     3
 OLDACT:UP  15-03-14 14:30 OP:cam  STATUS:               ID:20150314021736     3
 OLDACT:REG 15-03-14 12:31 OP:cam  STATUS:               ID:20150314021736     3
 2015-03-14-0217-36M.COL___269                                                 6
 STAT SP IPHASW D HRMM SECON CODA AMPLIT PERI AZIMU VELO AIN AR TRES W  DIS CAZ7
 BRR  HZ IP     D  229 59.12                             165    0.5610 23.0 127 
 BRR  HN ES        230  9.34                             165    0.4910 23.0 127 
 BRR  HZ I         230  9.76        39.8 0.12            167           23.0 127 
 PTB  HZ EP        230  4.02                             130    0.1710 99.8 220 
 PTB  HN ES        230 17.80                             130   -0.4710 99.8 220 
 PTB  HZ I         230 23.14         6.5 0.42            130           99.8 220 
 PAM  SZ EP        230  8.01                             122    0.4610  131  85 
 PAM  SN ES        230 24.05                             122   -0.8010  131  85 
 PAM  SZ I         230 25.83         7.6 0.20            124            131  85 
 SML  HZ EP        230 11.88                             114    0.16 9  175 353 
 SML  HN ES        230 31.75                             114   -0.53 9  175 353 
 SPBC HZ EP        230 12.41                             114    0.41 9  176 187 
 SPBC HN ES        230 32.16                             114   -0.61 9  176 187 
 SPBC HZ I         230 33.83         5.6 0.12            114            176 187 
                                                                                
