 2015 1114 0948 53.5 L   6.801 -73.138148.4  RSN 17 0.5 2.4LRSN                1
 GAP= 71        1.09       2.6     3.3  5.2 -0.6677E+00  0.4624E+01  0.1828E+01E
 Epicentro: LOS SANTOS - SANTANDER                                             3
 ACTION:UPD 15-12-28 16:10 OP:cam  STATUS:               ID:20151114094853 L   I
 OLDACT:UP  15-12-02 16:39 OP:nlst STATUS:               ID:20151114094853 L   3
 OLDACT:REG 15-11-14 15:06 OP:dnl  STATUS:               ID:20151114094750     3
 2015-11-14-0947-50M.COL___314                                                 6
 STAT SP IPHASW D HRMM SECON CODA AMPLIT PERI AZIMU VELO AIN AR TRES W  DIS CAZ7
 BAR2 EZ EP     C  949 13.19                             171   -0.2610 23.6 192 
 BAR2 EZ ES        949 28.49                             171   -0.5210 23.6 192 
 BAR2 EZ I         949 29.59        84.6 0.14            169           23.6 192 
 BRR  HZ EP        949 15.06                             153    0.0910 71.9 298 
 BRR  HN ES        949 32.16                             153    0.4410 71.9 298 
 BRR  HZ I         949 34.64        37.8 0.20            152           71.9 298 
 PAM  EZ EP        949 16.12                             151    0.1710 76.7  39 
 PAM  EN ES        949 33.51                             151    0.0410 76.7  39 
 PAM  EZ I         949 34.81        17.9 0.18            154           76.7  39 
 RUS  HZ EP        949 17.37                             144   -0.1410  101 177 
 RUS  HN ES        949 36.19                             144   -0.0610  101 177 
 RUS  HZ I         949 37.00        23.5 0.22            144            101 177 
 TAM  HZ EP        949 21.39                             131    0.08 9  154 105 
 TAM  HN ES        949 43.23                             131    0.23 9  154 105 
 TAM  HZ I         949 50.19        19.6 0.50            133            154 105 
 OCA  HZ EP        949 21.87                             130   -0.14 9  160 353 
 OCA  HE ES        949 44.88                             130    0.63 9  160 353 
 OCA  HZ I         949 46.51        47.0 0.24            132            160 353 
 SPBC HZ EP        949 22.23                             129   -0.03 9  164 219 
 SPBC HN ES        949 44.61                             129   -0.09 9  164 219 
 SPBC HZ I         949 52.11        50.3 0.26            129            164 219 
 ZAR  HE ES        949 51.78                             123    0.09 9  205 292 
 ZAR  HZ I         949 56.32        32.7 0.40            123            205 292 
 NOR  HZ EP        949 29.18                             119   -0.29 8  235 235 
 NOR  HN ES        949 57.66                             119    0.14 8  235 235 
 NOR  HZ I         950  1.71        18.6 0.22            119            235 235 
 SML  HZ EP        949 29.67                             118   -0.63 8  244 335 
 SML  HE ES        949 58.35                             118   -0.65 8  244 335 
 SML  HZ I         950  2.28        29.2 0.10            119            244 335 
 CHI  HZ EP        949 31.37                             118   -0.01 8  249 195 
 CHI  HN ES        950  0.79                             118   -0.14 8  249 195 
 CHI  HZ I         950  6.15         8.5 0.34            118            249 195 
 ROSC BZ EP   4    949 33.40                             117    1.58 0  253 211 
 ROSC BN ES   4    950  4.33                             117    2.61 0  253 211 
 HEL  HZ EP   4    949 35.55                             115    1.61 0  273 256 
 HEL  HN ES        950  5.65                             115    0.16 8  273 256 
 HEL  HZ I         950 11.18        11.1 0.28            115            273 256 
 URE  HZ EP        949 33.95                             114   -0.83 7  285 292 
 URE  HN ES   4    950  3.82                             114   -3.16 0  285 292 
 URE  HZ I         950 13.80        14.1 0.26            114            285 292 
 GUY2CHZ EP        949 39.38                             113    2.06 7  302 235 
 GUY2CHZ ES   4    950 16.09                             113    4.59 0  302 235 
 GUY2CHZ I         950 25.42        10.1 0.60                           302 235 
 MON  HZ EP   4    949 40.51                             109   -2.16 0  354 308 
 MON  HN ES   4    950 19.25                             109   -1.77 0  354 308 
 MON  HZ I         950 21.17         5.6 0.14            109            354 308 
 PRA  HZ EP        949 46.89                             107   -0.29 6  393 210 
 PRA  HN ES        950 28.87                             107   -0.17 6  393 210 
 PRA  HZ I         950 37.61        12.1 0.32            107            393 210 
 ORTC HZ EP        949 48.22                             107    0.64 6  396 216 
 ORTC HN ES        950 29.32                             107   -0.45 6  396 216 
 ORTC HZ I         950 36.18         6.6 0.50            107            396 216 
                                                                                
