 2016  714 0741 19.9 L   6.807 -73.137145.1  RSN 17 0.4 2.1LRSN                1
 GAP=120        0.98       3.1     3.2  4.6 -0.1866E+01  0.3347E+01  0.2220E+01E
 Epicentro: LOS SANTOS - SANTANDER                                             3
 ACTION:UPD 17-03-29 16:50 OP:lp   STATUS:               ID:20160714074119 L   I
 OLDACT:UP  16-07-14 17:03 OP:dani STATUS:               ID:20160714073759     3
 OLDACT:UP  16-07-14 17:02 OP:dani STATUS:               ID:20160714073759     3
 OLDACT:REG 16-07-14 12:49 OP:dani STATUS:               ID:20160714073759     3
 2016-07-14-0737-59S.COL___322                                                 6
 STAT SP IPHASW D HRMM SECON CODA AMPLIT PERI AZIMU VELO AIN AR TRES W  DIS CAZ7
 BAR2 EZ IP     C  741 39.39                             170   -0.0810 24.3 192 
 BAR2 EZ ES        741 54.40                             170   -0.3410 24.3 192 
 BAR2 EZ I         742  0.46        17.6 0.22            167           24.3 192 
 BRR  HZ IP     C  741 41.16                             152    0.1510 71.7 298 
 BRR  HN ES        741 58.09                             152    0.6210 71.7 298 
 BRR  HZ I         741 58.93        23.5 0.26            150           71.7 298 
 PAM  EZ EP        741 42.34                             151    0.3710 76.1  39 
 PAM  EN ES        741 59.35                             151    0.1610 76.1  39 
 PAM  EZ I         741 59.93        23.1 0.20            157           76.1  39 
 RUS  HZ EP        741 43.43                             143   -0.2110  101 177 
 RUS  HE ES        742  2.19                             143    0.0310  101 177 
 RUS  HZ I         742  3.45        10.1 0.30            144            101 177 
 PTB  HZ EP        741 45.98                             132   -0.94 9  149 259 
 PTB  HN ES        742  7.21                             132   -0.78 9  149 259 
 PTB  HZ I         742  8.99        15.9 0.24            131            149 259 
 SPBC HZ EP        741 48.36                             129   -0.11 9  164 219 
 SPBC HN ES        742 10.67                             129   -0.08 9  164 219 
 SPBC HZ I         742 16.64        20.1 0.28            129            164 219 
 ZAR  HZ EP        741 52.19                             122   -0.17 9  205 292 
 ZAR  HE ES        742 17.75                             122    0.06 9  205 292 
 ZAR  HZ I         742 23.20        23.1 0.56            123            205 292 
 NOR  HZ EP        741 55.87                             118    0.14 8  236 234 
 NOR  HE ES        742 24.07                             118    0.40 8  236 234 
 NOR  HZ I         742 30.83        13.0 0.20            119            236 234 
 CHI  HZ EP        741 57.92                             117    0.25 8  250 195 
 CHI  HN ES        742 27.69                             117    0.55 8  250 195 
 CHI  HZ I         742 30.94         5.9 0.32            118            250 195 
 ROSC BZ EP   4    742  0.14                             116    2.03 0  254 211 
 ROSC BE ES        742 27.34                             116   -0.58 8  254 211 
 ROSC BZ I         742 33.44        11.8 0.45            117            254 211 
 HEL  HZ EP        742  0.89                             114    0.68 8  273 256 
 HEL  HE ES        742 32.05                             114    0.41 8  273 256 
 HEL  HZ I         742 37.13         5.4 0.64            115            273 256 
 URE  HZ EP   4    741 59.43                             113   -1.58 0  284 292 
 URE  HE ES   4    742 30.35                             113   -2.72 0  284 292 
 URE  HZ I         742 42.24        11.7 0.20            114            284 292 
 SOCV BZ EP        742  2.32                             112   -0.46 7  300  57 
 SOCV BE ES   4    742 33.98                             112   -2.24 0  300  57 
 GUY2CHZ EP        742  3.84                             112    0.22 7  302 235 
 GUY2CHE ES   4    742 39.43                             112    1.71 0  302 235 
 GUY2CHZ I         742 49.87         8.4 0.78                           302 235 
 CBOC HZ EP        742  7.19                             110    0.27 7  335 252 
 CBOC HE ES        742 43.02                             110   -0.58 7  335 252 
 CBOC HZ I         742 54.43         2.6 0.40            110            335 252 
 PRA  HZ EP        742 13.47                             106   -0.07 6  393 210 
 PRA  HE ES        742 55.91                             106    0.54 6  393 210 
 PRA  HZ I         743  0.68         5.7 0.42            107            393 210 
 SJC  HZ EP   4    742 13.65                             106   -1.77 0  409 327 
 SJC  HN ES   4    742 54.68                             106   -4.05 0  409 327 
 SJC  HZ I         742 55.86         2.2 0.66            107            409 327 
                                                                                
