 2012 1214 0651 57.4 L   6.766 -73.195134.4  RSN  7 0.4 1.4LRSN                1
 GAP=177        0.71       4.0     5.2  7.0  0.6462E+01  0.1021E+02 -0.1209E+01E
 Epicentro: VILLANUEVA - SANTANDER                                             3
 ACTION:UPD 13-01-04 14:27 OP:ep   STATUS:               ID:20121214065157 L   I
 2012-12-14-0650-00M.COL___242                                                 6
 STAT SP IPHASW D HRMM SECON CODA AMPLIT PERI AZIMU VELO AIN AR TRES W  DIS CAZ7
 BAR2 SZ EP   1    652 15.34                             171   -0.23 7 19.3 176 
 BAR2 SZ ES   1    652 29.82                             171    0.07 7 19.3 176 
 BAR2 SZ I         652 31.28        11.3 0.34                          19.3 176 
 BRR  HZ EP   1    652 17.19                             151    0.04 7 68.4 303 
 BRR  HN ES   4    652 33.97                             151    1.40 0 68.4 303 
 BRR  HZ I         652 37.14         5.5 0.38                          68.4 303 
 RUS  HZ EP   1    652 19.64                             142   -0.15 7 97.4 173 
 RUS  HN ES   1    652 37.49                             142    0.22 7 97.4 173 
 RUS  HZ I         652 39.95         2.1 0.46                          97.4 173 
 PTB  HZ EP   1    652 22.16                             131   -0.72 7  142 260 
 PTB  HN ES   1    652 42.91                             131    0.14 7  142 260 
 PTB  HZ I         652 45.69         4.0 0.20                           142 260 
 OCA  HN ES   1    652 46.80                             126   -0.01 7  163 355 
 ZAR  HZ EP   1    652 29.64                             120    0.90 6  200 294 
 ZAR  HN ES   1    652 52.95                             120   -0.24 6  200 294 
 ZAR  HZ I         652 59.38         3.0 0.32                           200 294 
 CHI  HZ EP   1    652 34.07                             115    0.15 6  244 194 
 CHI  HZ I         653  6.79         1.4 0.36                           244 194 
                                                                                
