 2010 1114 0337 52.2 L   6.159 -73.591118.8  RSN  4 0.1 1.5LRSN                1
 GAP=128        0.38       2.1     2.4  4.4 -0.2069E+00  0.4412E+01  0.1494E+01E
 Epicentro: LA PAZ - SANTANDER                                                 3
 ACTION:UP  10-12-17 16:52 OP:REBC STATUS:               ID:20101114033752 L   I
 2010-11-14-0331-53S.COL___128                                                 6
 STAT SP IPHASW D HRMM SECON CODA AMPLIT PERI AZIMU VELO SNR AR TRES W  DIS CAZ7
 RUS  HZ EP        338 10.65                             150    -0.110   63 118 
 RUS  HZ I         338 11.17         4.1 0.09                            63 118 
 RUS  HN ES   1    338 25.27                             150     0.1 7   63 118 
 BAR2 SZ EP        338 10.71                             149     0.210   66  43 
 BAR2 SZ ES   1    338 24.68                             149    -0.1 7   66  43 
 BAR2 SZ I         338 25.86        23.8 1.29                            66  43 
 BRR  HZ EP        338 13.10                             135    -0.110  106 353 
 BRR  HN ES        338 29.58                             135     0.010  106 353 
 BRR  HZ I         338 30.72         5.1 0.84                           106 353 
 NOR  SZ EP   1    338 18.12                             123     0.1 7  156 245 
 NOR  SN ES   1    338 38.20                             123     0.0 7  156 245 
                                                                                
