 2014  614 0730 21.6 L   6.809 -73.225148.0  RSN  5 0.3 1.8LRSN                1
 GAP=173        0.64       2.6     4.8  5.9 -0.3817E+01  0.6011E+01 -0.3279E+01E
 Epicentro: ZAPATOCA - SANTANDER                                               3
 ACTION:UPD 14-07-01 22:53 OP:nd   STATUS:               ID:20140614073021 L   I
 OLDACT:DUP 14-06-14 18:33 OP:mh   STATUS:               ID:20140614072812d    3
 2014-06-14-0728-10M.COL___259                                                 6
 STAT SP IPHASW D HRMM SECON CODA AMPLIT PERI AZIMU VELO AIN AR TRES W  DIS CAZ7
 BAR2 SZ EP        730 41.19                             170   -0.3110 24.5 169 
 BAR2 SZ ES        730 57.14                             170    0.1010 24.5 169 
 PTB  HZ EP   1    730 48.24                             134    0.25 7  139 258 
 PTB  HN ES        731  8.72                             134    0.13 9  139 258 
 OCA  HZ EP   1    730 50.33                             131    0.44 7  158 356 
 OCA  HN ES        731 12.20                             131    0.23 9  158 356 
 OCA  HZ I         731 15.74         7.5 0.21            132            158 356 
 SPBC HZ EP        730 49.77                             131   -0.06 9  159 216 
 SPBC HN ES        731 11.80                             131   -0.06 9  159 216 
 SPBC HZ I         731 18.76         6.5 0.02            131            159 216 
 SML  HN ES        731 25.63                             119   -0.51 8  239 337 
                                                                                
