 2013  514 0525  6.3 L   7.433 -73.270133.7  RSN  6 0.5 1.2LRSN                1
 GAP=177        0.96       4.9     9.5 13.6  0.1063E+01  0.6848E+02 -0.1013E+01E
 Epicentro: EL PLAYON - SANTANDER                                              3
 ACTION:UPD 13-06-20 09:50 OP:ep   STATUS:               ID:20130514052506 L   I
 2013-05-14-0520-00M.COL___256                                                 6
 STAT SP IPHASW D HRMM SECON CODA AMPLIT PERI AZIMU VELO AIN AR TRES W  DIS CAZ7
 BRR  HZ EP   1    525 25.94                             154    0.40 7 60.6 234 
 BRR  HN ES   1    525 40.84                             154    0.28 7 60.6 234 
 BRR  HZ I         525 41.63         4.1 0.12            152           60.6 234 
 OCA  HE ES   1    525 44.60                             144    0.44 7 89.3 357 
 BAR2 SZ ES   1    525 44.05                             143   -0.86 7 93.5 174 
 BAR2 SZ I         525 45.16         3.0 0.28            143           93.5 174 
 PTB  HZ EP   1    525 34.19                             126    0.31 7  164 233 
 PTB  HN ES   1    525 55.78                             126    0.37 7  164 233 
 PTB  HZ I         525 58.22         2.2 0.22            126            164 233 
 SML  HE ES   1    525 56.70                             124   -0.63 7  175 330 
 URE  HN ES   1    526 11.51                             114   -0.53 6  252 278 
                                                                                
