 2015  614 0733 50.5 L   6.698 -73.162139.7  RSN  4 0.4 1.2LRSN                1
 GAP=228        0.92       6.6     9.5  8.5 -0.1391E+02  0.3063E+02 -0.1166E+02E
 Epicentro: VILLANUEVA - SANTANDER                                             3
 ACTION:UPD 15-09-10 22:12 OP:cam  STATUS:               ID:20150614073350 L   I
 OLDACT:DUP 15-06-14 17:32 OP:stll STATUS:               ID:20150614072738d    3
 2015-06-14-0727-36M.COL___312                                                 6
 STAT SP IPHASW D HRMM SECON CODA AMPLIT PERI AZIMU VELO AIN AR TRES W  DIS CAZ7
 BAR2 EZ EP        734  9.00                             175   -0.1810 11.9 191 
 BAR2 EZ I         734  9.15         2.8 0.38            165           11.9 191 
 BAR2 EZ ES        734 24.24                             175    0.4610 11.9 191 
 BRR  HZ EP        734 10.85                             150   -0.3810 75.8 307 
 BRR  HZ I         734 11.25         5.9 0.26            146           75.8 307 
 RUS  HZ EP        734 13.04                             146    0.2210 89.5 174 
 RUS  HN ES        734 29.85                             146   -0.4210 89.5 174 
 RUS  HZ I         734 32.63         1.3 0.34            143           89.5 174 
 SPBC HZ EP        734 18.05                             129    0.49 9  153 221 
 SPBC HN ES        734 38.57                             129   -0.14 9  153 221 
 SPBC HZ I         734 47.14         2.9 0.30            126            153 221 
                                                                                
