 2015  114 0041 32.9 L   6.800 -73.151146.6  RSN  8 0.5 1.5LRSN                1
 GAP=136        1.15       4.2     5.0  7.1  0.3737E+00  0.8141E+01  0.3828E+01E
 Epicentro: LOS SANTOS - SANTANDER                                             3
 ACTION:UPD 15-03-02 15:39 OP:nd   STATUS:               ID:20150114004132 L   I
 OLDACT:REG 15-01-14 14:01 OP:carl STATUS:               ID:20150114003749     3
 2015-01-14-0037-49M.COL___259                                                 6
 STAT SP IPHASW D HRMM SECON CODA AMPLIT PERI AZIMU VELO AIN AR TRES W  DIS CAZ7
 BAR2 EZ ES        042  7.74                             171   -0.2710 23.2 189 
 BAR2 EZ I         042  8.75         7.0 0.12            168           23.2 189 
 BRR  HZ EP        041 54.47                             153    0.3610 70.7 299 
 BRR  HN ES        042 11.48                             153    0.8310 70.7 299 
 BRR  HZ I         042 15.54         7.7 0.14            151           70.7 299 
 PAM  SZ EP        041 55.46                             151    0.2310 77.8  40 
 PAM  SN ES        042 12.51                             151   -0.1310 77.8  40 
 PAM  SZ I         042 16.24         3.1 0.52            156           77.8  40 
 RUS  HZ EP        041 56.83                             144    0.0910  101 176 
 RUS  HN ES        042 14.77                             144   -0.5510  101 176 
 RUS  HZ I         042 17.78         2.4 0.36            145            101 176 
 PTB  HZ EP        041 59.23                             132   -0.65 9  147 259 
 PTB  HN ES        042 20.60                             132   -0.32 9  147 259 
 PTB  HZ I         042 27.58         5.3 0.50            132            147 259 
 SPBC HN ES        042 23.57                             129   -0.10 9  163 219 
 SPBC HZ I         042 29.34         7.7 0.30            129            163 219 
 ZAR  HZ EP        042  4.82                             123   -0.52 9  203 292 
 ZAR  HN ES        042 30.68                             123    0.04 9  203 292 
 ZAR  HZ I         042 38.00         4.2 0.40            123            203 292 
 CHI  HZ EP        042 10.83                             117    0.20 8  248 195 
 CHI  HE ES        042 41.00                             117    0.95 8  248 195 
 CHI  HZ I         042 49.72         1.0 0.30            118            248 195 
                                                                                
