 2014  614 0010 47.7 L   6.812 -73.125126.7  RSN  5 0.4 1.2LRSN                1
 GAP=203        0.72       5.3     5.9  9.1  0.1371E+02  0.8883E+01 -0.1487E+02E
 Epicentro: LOS SANTOS - SANTANDER                                             3
 ACTION:UPD 14-07-01 22:53 OP:nd   STATUS:               ID:20140614001047 L   I
 OLDACT:REG 14-06-14 13:24 OP:mh   STATUS:               ID:20140614000818     3
 2014-06-14-0008-18M.COL___262                                                 6
 STAT SP IPHASW D HRMM SECON CODA AMPLIT PERI AZIMU VELO AIN AR TRES W  DIS CAZ7
 BAR2 SZ EP        011  5.47                             168    0.3610 25.1 195 
 BAR2 SZ ES   1    011 18.46                             168   -0.21 7 25.1 195 
 BAR2 SZ I         011 22.52         7.7 0.39            164           25.1 195 
 RUS  HZ EP   1    011  9.82                             139    0.07 7  102 177 
 RUS  HN ES   1    011 26.67                             139   -0.25 7  102 177 
 RUS  HZ I         011 29.58         1.6 0.40            142            102 177 
 PTB  HZ EP   1    011 12.87                             127   -0.58 7  150 259 
 PTB  HN ES   1    011 34.07                             127    0.55 7  150 259 
 PTB  HZ I         011 39.59         2.0 0.20            129            150 259 
 ZAR  HN ES   1    011 43.38                             118   -0.33 6  206 292 
 SML  HE ES   1    011 51.12                             113    0.02 6  243 335 
                                                                                
