 2014  214 0010 34.1 L   6.788 -73.144146.4  RSN 14 0.5 2.3LRSN                1
 GAP=137        1.17       3.1     4.1  6.0 -0.1924E+01  0.8691E+01  0.1068E+01E
 Epicentro: LOS SANTOS - SANTANDER                                             3
 ACTION:UPD 14-03-10 08:10 OP:ep   STATUS:               ID:20140214001034 L   I
 OLDACT:REG 14-02-14 08:09 OP:carl STATUS:               ID:20140214001000     3
 2014-02-14-0010-00M.COL___291                                                 6
 STAT SP IPHASW D HRMM SECON CODA AMPLIT PERI AZIMU VELO AIN AR TRES W  DIS CAZ7
 BAR2 SZ EP        010 53.74                             171    0.0010 22.1 191 
 BAR2 SZ ES        011  8.64                             171   -0.4510 22.1 191 
 BAR2 SZ I         011  9.80        79.2 0.26            170           22.1 191 
 BRR  HZ EP        010 55.81                             152    0.4910 72.0 299 
 BRR  HN ES        011 12.91                             152    1.0110 72.0 299 
 BRR  HZ I         011 13.61        40.2 0.48            150           72.0 299 
 PAM  SZ EP        010 56.69                             151    0.3010 78.3  39 
 PAM  SN ES        011 14.03                             151    0.2210 78.3  39 
 PAM  SZ I         011 16.31        27.8 0.72            153           78.3  39 
 RUS  HZ IP     C  010 57.59                             144   -0.1810 99.3 176 
 RUS  HN ES        011 16.30                             144    0.0310 99.3 176 
 PTB  HZ EP        011  0.78                             132   -0.29 9  148 259 
 PTB  HN ES        011 21.58                             132   -0.56 9  148 259 
 PTB  HZ I         011 23.95        28.3 0.22            131            148 259 
 OCA  HN ES        011 23.63                             130   -1.13 9  162 353 
 SPBC HZ EP        011  2.66                             129    0.14 9  162 219 
 SPBC HE ES        011 24.87                             129    0.15 9  162 219 
 SPBC HZ I         011 27.05        23.9 0.20            129            162 219 
 ZAR  HZ EP        011  6.78                             122    0.17 9  205 292 
 ZAR  HN ES        011 32.68                             122    0.67 9  205 292 
 ZAR  HZ I         011 38.91        18.4 0.40            122            205 292 
 NOR  HE ES        011 37.34                             119   -0.27 8  234 235 
 SML  HZ EP        011 10.58                             117   -0.28 8  245 335 
 SML  HN ES        011 39.10                             117   -0.46 8  245 335 
 SML  HZ I         011 43.42        28.7 0.30            118            245 335 
 CHI  HZ EP        011 11.68                             117    0.02 8  247 195 
 CHI  HN ES        011 40.84                             117   -0.15 8  247 195 
 CHI  HZ I         011 48.76         3.4 0.28            118            247 195 
 HEL  HZ EP        011 14.76                             115    0.47 8  272 256 
 HEL  HN ES        011 45.93                             115    0.26 8  272 256 
 HEL  HZ I         011 52.82         8.1 0.58            115            272 256 
 GUY2CHZ EP        011 18.19                             112    0.56 7  301 235 
 GUY2CHE ES        011 50.42                             112   -1.19 7  301 235 
 CBOC HZ EP        011 21.23                             110    0.26 7  333 252 
 CBOC HN ES        011 57.40                             110   -0.17 7  333 252 
 CBOC HZ I         012  5.95         4.0 0.50            110            333 252 
                                                                                
