 2012  414 0607 29.7 L   6.769 -73.151143.2  RSN  6 0.4 1.5LRSN                1
 GAP=137        0.87       5.8     5.1  8.5  0.2536E+01  0.8704E+01  0.5333E+00E
 Epicentro: LOS SANTOS - SANTANDER                                             3
 ACTION:UPD 12-07-05 11:53 OP:tino STATUS:               ID:20120414060729 L   I
 2012-04-14-0600-00M.COL___181                                                 6
 STAT SP IPHASW D HRMM SECON CODA AMPLIT PERI AZIMU VELO AIN AR TRES W  DIS CAZ7
 BAR2 SZ EP   1    6 7 49.06                             172     0.1 7   20 190 
 BAR2 SZ ES   1    6 8  3.87                             172    -0.1 7   20 190 
 BAR2 SZ I         6 8  5.22        10.7 0.21                            20 190 
 BRR  HZ EP   1    6 7 50.88                             152     0.3 7   72 301 
 BRR  HN ES   1    6 8  7.62                             152     0.7 7   72 301 
 BRR  HZ I         6 8  8.89         6.8 0.12                            72 301 
 PAM  SZ EP   1    6 7 52.03                             149     0.2 7   80  38 
 PAM  SN ES   1    6 8  8.43                             149    -0.6 7   80  38 
 PAM  SZ I         6 8 11.03         4.2 0.47                            80  38 
 RUS  HZ EP   1    6 7 53.11                             144     0.2 7   97 176 
 RUS  HN ES   1    6 8 11.06                             144     0.0 7   97 176 
 RUS  HZ I         6 8 13.95         4.6 0.34                            97 176 
 PTB  HZ EP   1    6 7 55.85                             132    -0.5 7  147 260 
 PTB  HN ES   1    6 8 16.70                             132    -0.4 7  147 260 
 PTB  HZ I         6 8 18.89         4.0 0.27                           147 260 
 ZAR  HN ES   1    6 8 27.20                             122    -0.1 6  205 293 
                                                                                
