 2013 1214 0947 17.4 L   6.779 -73.178142.0  RSN  8 0.4 1.5LRSN                1
 GAP=179        0.97       3.6     5.7  6.6  0.4137E+01  0.1080E+02  0.4128E+01E
 Epicentro: LOS SANTOS - SANTANDER                                             3
 ACTION:UPD 14-01-13 10:18 OP:ep   STATUS:               ID:20131214094717 L   I
 OLDACT:REG 13-12-14 07:35 OP:jn   STATUS:               ID:20131214094000     3
 2013-12-14-0940-00M.COL___285                                                 6
 STAT SP IPHASW D HRMM SECON CODA AMPLIT PERI AZIMU VELO AIN AR TRES W  DIS CAZ7
 BAR2 SZ EP        947 36.46                             171   -0.0910 20.6 181 
 BAR2 SZ ES        947 51.48                             171    0.0210 20.6 181 
 BAR2 SZ I         947 52.45        10.7 0.64            167           20.6 181 
 BRR  HZ EP        947 38.19                             153    0.1410 69.2 302 
 BRR  HN ES        947 54.80                             153    0.6510 69.2 302 
 BRR  HZ I         947 58.54         8.7 0.42            150           69.2 302 
 RUS  HZ EP   1    947 40.94                             144    0.28 7 98.6 174 
 RUS  HN ES        947 58.44                             144   -0.3410 98.6 174 
 RUS  HZ I         948  0.23         1.8 0.30            143           98.6 174 
 PTB  HZ EP        947 42.84                             132   -0.88 9  144 259 
 PTB  HN ES        948  3.97                             132   -0.27 9  144 259 
 PTB  HZ I         948  7.64         3.8 0.48            130            144 259 
 OCA  HN ES        948  7.45                             128   -0.18 9  162 355 
 ZAR  HZ EP   1    947 49.52                             122    0.15 6  202 293 
 ZAR  HN ES   1    948 14.36                             122    0.07 6  202 293 
 ZAR  HZ I         948 19.44         4.1 0.38            121            202 293 
 CHI  HN ES   1    948 23.93                             117    0.39 6  245 194 
 CHI  HZ I         948 27.81         2.1 0.36            117            245 194 
 PRA  HZ EP        948 11.32                             106    0.95 6  388 209 
 PRA  HN ES        948 51.86                             106    0.19 6  388 209 
 PRA  HZ I         948 58.37         1.9 0.32            106            388 209 
                                                                                
