 2015  114 0639 29.1 L   7.326 -73.690 96.2  RSN  6 0.4 1.3LRSN                1
 GAP=104        1.13       4.1     3.9  8.0  0.4534E+01  0.2289E+01 -0.3080E+01E
 Epicentro: SABANA DE TORRES - SANTANDER                                       3
 ACTION:UPD 15-03-02 15:39 OP:nd   STATUS:               ID:20150114063929 L   I
 OLDACT:REG 15-01-14 14:22 OP:carl STATUS:               ID:20150114063740     3
 2015-01-14-0637-40M.COL___256                                                 6
 STAT SP IPHASW D HRMM SECON CODA AMPLIT PERI AZIMU VELO AIN AR TRES W  DIS CAZ7
 BRR  HZ EP        639 42.40                             165   -0.0510 24.3 186 
 BRR  HN ES        639 52.64                             165   -0.2510 24.3 186 
 BRR  HZ I         639 53.98         4.0 0.44            168           24.3 186 
 PAM  SZ EP        639 49.38                             128    0.1910  109  89 
 PAM  SN ES        640  5.08                             128    0.1910  109  89 
 PAM  SN I         640  5.47         7.9 0.40            131            109  89 
 PTB  HZ EP        639 48.72                             124   -1.0510  121 224 
 PTB  HN ES   4    640  4.35                             124   -1.57 0  121 224 
 PTB  HZ I         640  5.16         3.7 0.24            126            121 224 
 ZAR  HZ EP        639 51.27                             122    0.6010  130 278 
 ZAR  HN ES        640  8.10                             122    0.5710  130 278 
 ZAR  HZ I         640 14.75         2.9 0.54            122            130 278 
 SML  HZ EP     D  639 54.70                             115   -0.09 9  168 346 
 SML  HN ES        640 14.48                             115   -0.37 9  168 346 
 SML  HZ I         640 18.53         4.7 0.26            115            168 346 
 RUS  HZ EP        639 55.90                             115    0.07 9  172 157 
 RUS  HN ES        640 16.90                             115    0.21 9  172 157 
                                                                                
