 2015 1214 0834 29.4 L   6.789 -73.126141.5  RSN  8 0.3 1.3LRSN                1
 GAP=139        0.84       3.7     3.8  6.3 -0.3056E+01  0.9095E+01 -0.7241E+00E
 Epicentro: LOS SANTOS - SANTANDER                                             3
 ACTION:UPD 16-02-04 15:04 OP:cam  STATUS:               ID:20151214083429 L   I
 OLDACT:UP  15-12-14 18:01 OP:cara STATUS:               ID:20151214082745     3
 OLDACT:REG 15-12-14 13:50 OP:cara STATUS:               ID:20151214082745     3
 2015-12-14-0827-45M.COL___330                                                 6
 STAT SP IPHASW D HRMM SECON CODA AMPLIT PERI AZIMU VELO AIN AR TRES W  DIS CAZ7
 BAR2 EZ EP        834 48.49                             171   -0.0510 22.6 196 
 BAR2 EZ ES        835  3.49                             171    0.0510 22.6 196 
 BAR2 EZ I         835  5.70         4.1 0.14            171           22.6 196 
 BRR  HZ EP        834 50.55                             151    0.2810 73.6 299 
 BRR  HE ES   4    835  8.09                             151    1.57 0 73.6 299 
 BRR  HZ I         835 12.43         2.3 0.16            151           73.6 299 
 PAM  EZ EP        834 51.49                             150    0.3210 77.0  38 
 PAM  EE ES        835  8.14                             150    0.0110 77.0  38 
 PAM  EZ I         835 11.15         4.3 0.60            155           77.0  38 
 RUS  HZ EP        834 51.94                             143   -0.7310 99.2 177 
 RUS  HE ES        835 10.88                             143    0.0810 99.2 177 
 RUS  HZ I         835 14.17         2.4 0.32            148           99.2 177 
 PTB  HZ EP        834 55.85                             131   -0.38 9  150 259 
 PTB  HN ES        835 16.75                             131   -0.38 9  150 259 
 PTB  HZ I         835 19.65         3.1 0.14            133            150 259 
 SPBC HZ EP        834 57.98                             128    0.33 9  164 220 
 SPBC HE ES        835 19.83                             128    0.17 9  164 220 
 SPBC HZ I         835 25.54         6.3 0.36            132            164 220 
 ZAR  HE ES        835 27.15                             121    0.00 8  206 292 
 ZAR  HZ I         835 33.10         2.3 0.34            124            206 292 
 GUY2CHZ EP   4    835 14.89                             111    1.93 0  302 235 
 GUY2CHE ES        835 47.45                             111    0.53 7  302 235 
 GUY2CHZ I         835 54.95         1.1 0.38                           302 235 
                                                                                
