 2015  614 0903 54.4 L   6.807 -73.044144.2  RSN  6 0.5 1.6LRSN                1
 GAP=193        1.22       5.5     9.6  8.9  0.2631E+02  0.1832E+01 -0.1435E+02E
 Epicentro: LOS SANTOS - SANTANDER                                             3
 ACTION:UPD 15-09-10 22:12 OP:cam  STATUS:               ID:20150614090354 L   I
 OLDACT:REG 15-06-14 13:11 OP:stll STATUS:               ID:20150614085739     3
 2015-06-14-0857-39M.COL___312                                                 6
 STAT SP IPHASW D HRMM SECON CODA AMPLIT PERI AZIMU VELO AIN AR TRES W  DIS CAZ7
 BAR2 EZ EP        9 4 14.38                             169    0.4210 28.2 213 
 BAR2 EZ I         9 4 14.70         8.0 0.42            170           28.2 213 
 BAR2 EZ ES        9 4 29.37                             169    0.1610 28.2 213 
 BRR  HZ EP        9 4 16.57                             149    0.6010 80.9 294 
 BRR  HZ I         9 4 16.93         6.1 0.26            147           80.9 294 
 BRR  HE ES        9 4 32.95                             149    0.1610 80.9 294 
 RUS  HZ EP        9 4 17.93                             143   -0.1210  101 182 
 RUS  HZ I         9 4 19.38         1.9 0.48            145            101 182 
 RUS  HN ES        9 4 35.78                             143   -0.7110  101 182 
 OCA  HN ES        9 4 45.05                             129    0.30 9  161 349 
 OCA  HZ I         9 4 49.81         8.7 0.28            128            161 349 
 ZAR  HZ EP        9 4 27.81                             121    0.00 8  214 291 
 ZAR  HE ES        9 4 53.89                             121    0.03 8  214 291 
 ZAR  HZ I         9 4 58.80         4.8 0.26            120            214 291 
 SML  HZ EP        9 4 31.46                             117    0.06 8  248 333 
 SML  HN ES        9 4 58.93                             117   -1.33 8  248 333 
 SML  HZ I         9 5  4.62         4.7 0.10            116            248 333 
                                                                                
