 2012  914 0542 26.1 L   6.700 -73.172142.6  RSN  6 0.3 1.5LRSN                1
 GAP=177        0.68       5.3     5.2  6.5  0.1156E+02  0.9011E+01  0.4689E+01E
 Epicentro: VILLANUEVA - SANTANDER                                             3
 ACTION:UPD 12-10-22 14:18 OP:ep   STATUS:               ID:20120914054226 L   I
 2012-09-14-0540-00M.COL___227                                                 6
 STAT SP IPHASW D HRMM SECON CODA AMPLIT PERI AZIMU VELO AIN AR TRES W  DIS CAZ7
 BAR2 SZ EP   1    542 45.32                             175    0.18 7 12.0 185 
 BAR2 SZ I         542 45.59         9.3 0.21                          12.0 185 
 BAR2 SZ ES   1    542 59.54                             175   -0.47 7 12.0 185 
 GIR2 SZ EP   1    542 45.67                             163   -0.03 7 41.9 357 
 GIR2 SZ ES   1    543  0.69                             163   -0.32 7 41.9 357 
 BRR  HZ EP   1    542 47.25                             151    0.17 7 74.7 307 
 BRR  HE ES   1    543  4.06                             151    0.59 7 74.7 307 
 BRR  HZ I         543  8.25         7.9 0.12                          74.7 307 
 RUS  HZ EP   1    542 48.68                             146   -0.07 7 89.9 174 
 RUS  HE ES   1    543  6.88                             146    0.43 7 89.9 174 
 RUS  HZ I         543  8.94         2.5 0.33                          89.9 174 
 PTB  HZ EP   1    542 51.96                             132   -0.40 7  143 263 
 PTB  HN ES   1    543 12.58                             132   -0.28 7  143 263 
 PTB  HN I         543 18.91         5.5 0.30                           143 263 
 ZAR  HE ES   1    543 23.94                             121    0.16 6  206 295 
                                                                                
