 2014  514 0548 21.1 L   6.800 -73.148145.5  RSN 13 0.4 2.0LRSN                1
 GAP=136        0.93       2.8     3.8  6.2 -0.1825E+01  0.4969E+01  0.1854E+01E
 Epicentro: LOS SANTOS - SANTANDER                                             3
 ACTION:UPD 15-03-16 16:57 OP:nd   STATUS:               ID:20140514054821 L   I
 OLDACT:UP  14-05-14 17:51 OP:cam  STATUS:               ID:20140514053812     3
 OLDACT:UP  14-05-14 17:51 OP:cam  STATUS:               ID:20140514053812     3
 OLDACT:REG 14-05-14 13:02 OP:spq  STATUS:               ID:20140514053812     3
 2014-05-14-0538-12M.COL___257                                                 6
 STAT SP IPHASW D HRMM SECON CODA AMPLIT PERI AZIMU VELO AIN AR TRES W  DIS CAZ7
 BRR  HZ EP        548 42.34                             153    0.1610 71.0 299 
 BRR  HN ES        548 59.44                             153    0.7910 71.0 299 
 PAM  SZ EP     C  548 43.43                             151    0.1610 77.6  40 
 PAM  SN ES        549  0.54                             151   -0.0510 77.6  40 
 PAM  SZ I         549  2.43        15.2 0.50            153           77.6  40 
 RUS  HZ EP   1    548 44.60                             144   -0.20 7  101 176 
 RUS  HN ES        549  3.39                             144    0.0910  101 176 
 RUS  HZ I         549  4.06        11.8 0.28            144            101 176 
 PTB  HZ EP        548 47.47                             132   -0.53 9  148 259 
 PTB  HN ES        549  8.17                             132   -0.83 9  148 259 
 PTB  HZ I         549 13.32        10.5 0.14            129            148 259 
 OCA  HZ EP   2    548 49.10                             130   -0.26 5  160 353 
 OCA  HN ES        549 10.88                             130   -0.55 9  160 353 
 OCA  HZ I         549 13.81         8.6 0.26            129            160 353 
 SPBC HZ EP   1    548 49.53                             129   -0.01 7  163 219 
 SPBC HN ES        549 11.39                             129   -0.35 9  163 219 
 SPBC HZ I         549 16.26        14.7 0.24            127            163 219 
 ZAR  HZ EP   1    548 54.08                             122    0.60 6  204 292 
 ZAR  HN ES        549 19.01                             122    0.25 9  204 292 
 ZAR  HZ I         549 24.24        14.6 0.32            120            204 292 
 NOR  HZ EP        548 56.99                             118    0.22 8  234 234 
 NOR  HN ES        549 24.84                             118    0.24 8  234 234 
 NOR  HZ I         549 30.69         8.9 0.18            117            234 234 
 SML  HZ EP   1    548 58.23                             117    0.55 6  244 335 
 SML  HN ES   2    549 25.48                             117   -0.75 4  244 335 
 SML  HZ I         549 33.99        12.2 0.10            116            244 335 
 CHI  HZ EP   1    548 58.96                             117    0.21 6  249 195 
 CHI  HE ES        549 28.15                             117    0.02 8  249 195 
 CHI  HZ I         549 36.16         3.4 0.68            117            249 195 
 HEL  HZ EP   4    549  2.98                             115    1.73 0  272 256 
 HEL  HN ES   2    549 32.99                             115    0.41 4  272 256 
 HEL  HZ I         549 40.64         4.7 0.28            113            272 256 
 URE  HZ EP   4    549  1.52                             114   -0.59 0  284 292 
 URE  HE ES   4    549 31.79                             114   -2.32 0  284 292 
 URE  HZ I         549 45.34         7.7 0.20            112            284 292 
 GUY2CHZ EP   4    549  6.20                             112    1.55 0  301 235 
 GUY2CHN ES   4    549 41.56                             112    2.93 0  301 235 
 GUY2CHZ I         549 45.06         3.8 0.26                           301 235 
                                                                                
