 2011  914 0848 36.8 L   6.795 -73.072150.6  RSN 18 0.3 3.0LRSN                1
 GAP=121        0.42       1.6     2.5  3.2 -0.6238E+00  0.1971E+01  0.9296E+00E
 Epicentro: LOS SANTOS - SANTANDER                                             3
 ACTION:UPD 12-07-13 15:57 OP:ep   STATUS:               ID:20110914084836 L   I
 2011-09-14-0847-04S.COL___169                                                 6
 STAT SP IPHASW D HRMM SECON CODA AMPLIT PERI AZIMU VELO AIN AR TRES W  DIS CAZ7
 BAR2 SZ IP        848 56.98                             170   -0.0710 25.6 209 
 BAR2 SZ I         848 57.38       165.6 0.37                          25.6 209 
 BAR2 SZ ES   2    849 12.41                             170   -0.43 5 25.6 209 
 PAM  SZ IP        848 59.76                             153    0.4910 72.9  34 
 PAM  SE ES   2    849 17.00                             153    0.20 5 72.9  34 
 BRR  HZ IP     D  848 58.88                             151   -0.0110 78.7 296 
 BRR  HZ I         849  0.50       223.2 0.12                          78.7 296 
 BRR  HN ES   1    849 16.19                             151    0.06 7 78.7 296 
 RUS  HZ IP        849  0.79                             145   -0.1810 99.8 181 
 RUS  HZ I         849  2.52        73.3 0.51                          99.8 181 
 RUS  HN ES   2    849 19.47                             145   -0.35 5 99.8 181 
 OCA  SZ EP   1    849  5.64                             130    0.00 7  162 350 
 OCA  SZ ES   2    849 28.05                             130   -0.09 5  162 350 
 OCA  SZ I         849 33.41       110.3 0.28                           162 350 
 YOP  SE ES   2    849 30.66                             128    0.45 4  175 156 
 ZAR  HZ EP   2    849 10.16                             122   -0.20 4  212 291 
 ZAR  HN ES   2    849 36.17                             122   -0.36 4  212 291 
 ZAR  HZ I         849 41.46       153.6 0.54                           212 291 
 NOR  SZ EP   1    849 13.10                             119   -0.39 6  241 236 
 NOR  SN ES   2    849 42.33                             119    0.22 4  241 236 
 CHI  HZ EP   1    849 14.75                             118   -0.21 6  250 197 
 CHI  HN ES   2    849 44.43                             118   -0.29 4  250 197 
 CHI  HZ I         849 48.49        41.4 0.44                           250 197 
 ROSC BZ EP   2    849 15.87                             117    0.27 4  257 213 
 ROSC BN ES   2    849 46.01                             117    0.14 4  257 213 
 ROSC BZ I         849 54.74        98.8 0.53                           257 213 
 HEL  HZ EP   1    849 18.07                             115   -0.05 6  280 256 
 HEL  HE ES   2    849 50.95                             115    0.60 4  280 256 
 HEL  HZ I         849 55.66        44.8 0.31                           280 256 
 VIL  SZ EP   2    849 20.50                             113   -0.08 4  305 193 
 VIL  SN ES   2    849 54.58                             113   -0.14 4  305 193 
 VIL  SZ I         849 58.80        23.2 0.32                           305 193 
 RREF HZ EP   1    849 23.83                             111    0.01 5  328 230 
 RREF HN ES   2    850  0.38                             111   -0.12 3  328 230 
 RREF HZ I         850  6.63        64.8 0.24                           328 230 
 DBB  SZ EP   2    849 25.56                             110    0.15 3  348 274 
 TOL  SZ EP   1    849 26.27                             110    0.40 5  349 226 
 TOL  SZ ES   2    850  4.39                             110    0.24 3  349 226 
 COD  HZ EP   1    849 24.97                             110   -0.55 5  350 353 
 COD  HN ES   2    850  3.53                             110    0.00 3  350 353 
 COD  HZ I         850  8.22        36.2 0.70                           350 353 
 ANIL HZ EP   1    849 27.46                             109    0.05 5  363 226 
 ANIL HN ES   2    850  6.83                             109   -0.06 3  363 226 
 ANIL HZ I         850 13.67       133.1 0.15                           363 226 
 PRA  HZ EP   2    849 31.03                             107    0.12 3  396 211 
 PRA  HN ES   2    850 13.40                             107    0.28 3  396 211 
                                                                                
