 2012  214 0736 36.1 L   6.781 -73.145154.9  RSN  4 0.2 1.2LRSN                1
 GAP=236        0.41       5.7     6.4  6.0  0.2089E+02 -0.1041E+02 -0.7471E+00E
 ACTION:UP  12-03-07 16:30 OP:epov STATUS:               ID:20120214073636 L   I
 2012-02-14-0730-00M.COL___187                                                 6
 STAT SP IPHASW D HRMM SECON CODA AMPLIT PERI AZIMU VELO AIN AR TRES W  DIS CAZ7
 BAR2 SZ EP   1    736 56.62                             172   -0.13 7 21.3 191 
 BAR2 SZ ES   2    737 12.56                             172   -0.33 5 21.3 191 
 BAR2 SZ I         737 13.19         3.7 0.18                          21.3 191 
 BRR  HZ EP   1    736 58.41                             154    0.15 7 72.3 300 
 BRR  HE ES   1    737 15.66                             154    0.09 7 72.3 300 
 BRR  HZ I         737 18.73         3.7 0.24                          72.3 300 
 RUS  HZ EP   1    737  0.52                             146   -0.06 7 98.5 176 
 RUS  HZ I         737 16.18         1.4 0.67                          98.5 176 
 RUS  HN ES   2    737 20.08                             146    0.38 5 98.5 176 
 PTB  HE ES   2    737 25.17                             134   -0.20 5  147 260 
                                                                                
