 2014 1014 0203 42.5 L   6.814 -73.152149.5  RSN 18 0.4 2.7LRSN                1
 GAP=118        0.89       2.5     4.0  4.5 -0.1598E+01  0.3658E+01  0.2452E+01E
 Epicentro: LOS SANTOS - SANTANDER                                             3
 ACTION:UPD 14-11-29 23:49 OP:nd   STATUS:               ID:20141014020342 L   I
 OLDACT:DUP 14-10-14 14:42 OP:mh   STATUS:               ID:20141014015738d    3
 2014-10-14-0157-37M.COL___286                                                 6
 STAT SP IPHASW D HRMM SECON CODA AMPLIT PERI AZIMU VELO AIN AR TRES W  DIS CAZ7
 BAR2 SZ EP        2 4  2.44                             170   -0.1610 24.8 188 
 BAR2 SZ ES        2 4 18.02                             170   -0.2710 24.8 188 
 BAR2 SZ I         2 4 19.54       255.8 0.20            167           24.8 188 
 BRR  HZ IP        2 4  4.50                             154    0.5310 69.8 298 
 BRR  HN ES        2 4 21.46                             154    0.7310 69.8 298 
 BRR  HZ I         2 4 24.26       152.9 0.05            151           69.8 298 
 PAM  SZ EP   1    2 4  5.59                             152    0.53 7 76.6  41 
 PAM  SN ES        2 4 22.76                             152    0.0910 76.6  41 
 PAM  SZ I         2 4 25.97        51.5 0.54            156           76.6  41 
 RUS  HZ EP        2 4  6.70                             144   -0.0310  102 176 
 RUS  HN ES   1    2 4 25.35                             144   -0.29 7  102 176 
 RUS  HZ I         2 4 26.21        48.7 0.34            144            102 176 
 PTB  HZ EP   1    2 4  9.45                             133   -0.28 7  147 258 
 PTB  HN ES        2 4 30.27                             133   -0.71 9  147 258 
 PTB  HZ I         2 4 32.80        50.5 0.16            131            147 258 
 TAM  HZ EP   4    2 4 11.12                             131    0.55 0  156 105 
 TAM  HN ES   4    2 4 32.72                             131    0.25 0  156 105 
 OCA  HZ EP   1    2 4 10.74                             131   -0.20 7  159 353 
 OCA  HN ES   1    2 4 32.87                             131   -0.26 7  159 353 
 OCA  HZ I         2 4 35.95        45.2 0.18            132            159 353 
 SPBC HZ EP        2 4 11.67                             130    0.32 9  164 218 
 SPBC HN ES   1    2 4 33.94                             130    0.07 7  164 218 
 SPBC HZ I         2 4 38.19        79.4 0.20            128            164 218 
 ZAR  HZ EP   1    2 4 15.06                             123    0.00 6  203 292 
 ZAR  HN ES   4    2 4 40.44                             123   -0.02 0  203 292 
 ZAR  HZ I         2 4 46.00        63.3 0.20            123            203 292 
 SML  HZ EP        2 4 19.12                             118   -0.02 8  242 335 
 SML  HN ES        2 4 47.15                             118   -0.58 8  242 335 
 SML  HZ I         2 4 49.42        51.7 0.34            119            242 335 
 CHI  HZ EP   1    2 4 21.12                             118    0.58 6  250 195 
 CHI  HN ES        2 4 50.16                             118   -0.07 8  250 195 
 CHI  HZ I         2 4 53.61        30.0 0.66            118            250 195 
 ROSC BZ EP   4    2 4 22.77                             117    1.84 0  254 211 
 ROSC BN ES   4    2 4 52.34                             117    1.43 0  254 211 
 ROSC BZ I         2 4 57.57        87.1 0.12            117            254 211 
 URE  HZ EP   4    2 4 22.94                             114   -0.67 0  283 292 
 URE  HN ES   4    2 4 52.85                             114   -2.83 0  283 292 
 GUY2CHZ EP        2 4 26.59                             113    0.28 7  302 234 
 GUY2CHN ES   4    2 5  3.97                             113    3.48 0  302 234 
 GUY2CHZ I         2 5  9.20        34.8 0.11                           302 234 
 VIL  SZ EP   4    2 4 26.10                             113   -0.14 0  305 191 
 VIL  SN ES   4    2 5  0.51                             113    0.14 0  305 191 
 PTGC HZ EP        2 4 25.87                             112   -0.84 7  310 159 
 PTGC HN ES   4    2 4 58.83                             112   -2.38 0  310 159 
 RREF HZ EP   4    2 4 26.54                             111   -2.31 0  322 229 
 RREF HN ES   2    2 5  3.98                             111   -1.04 3  322 229 
 TOL  SZ EP   1    2 4 31.66                             110    0.69 5  344 224 
 TOL  SN ES        2 5  9.20                             110    0.41 7  344 224 
 PRA  HZ EP        2 4 35.75                             107   -0.51 6  393 209 
 PRA  HN ES        2 5 18.41                             107    0.21 6  393 209 
 PRA  HZ I         2 5 24.67        38.8 0.40            107            393 209 
 ORTC HZ EP        2 4 36.89                             107    0.25 6  396 216 
 ORTC HN ES   1    2 5 18.70                             107   -0.18 4  396 216 
 ORTC HZ I         2 5 47.22         5.0 0.31            107            396 216 
 PAL  HZ EP   4    2 4 38.16                             106    0.36 0  406 239 
 PAL  HN ES   4    2 5 19.41                             106   -1.53 0  406 239 
 PAL  HZ I         2 5 24.55         6.7 0.20            106            406 239 
 SJC  HZ EP   4    2 4 35.92                             106   -2.06 0  408 327 
 SJC  HN ES   4    2 5 17.64                             106   -3.62 0  408 327 
 MACC HN ES   4    2 5 40.63                             102   -4.64 0  522 189 
                                                                                
