 2017  714 0154 52.1 L   6.880 -73.576  0.0  RSN  4 0.2 0.9LRSN                1
 GAP=157        0.52       1.6     1.5  3.6  0.1203E+01  0.3411E+00  0.9630E+00E
 Epicentro: SAN VICENTE DE CHUCURI - SANTANDER                                 3
 ACTION:UPD 17-08-30 15:32 OP:rebc STATUS:               ID:20170714015452 L   I
 OLDACT:REG 17-07-14 12:33 OP:dnl  STATUS:               ID:20170714014747     3
 2017-07-14-0148-00M.COL___377                                                 6
 STAT SP IPHASW D HRMM SECON CODA AMPLIT PERI AZIMU VELO AIN AR TRES W  DIS CAZ7
 BRR  HZ EP        154 57.36                              47   -0.3310 29.3 329 
 BRR  HE ES        155  2.28                              47    0.2210 29.3 329 
 BRR  HZ I         155  2.71        17.5 0.10             47           29.3 329 
 BAR2 EZ EP        155  1.53                              47   -0.1210 53.8 126 
 BAR2 EZ ES        155  9.35                              47    0.2410 53.8 126 
 BAR2 EZ I         155 10.27         5.7 0.60             47           53.8 126 
 PTB  HZ EP        155  9.09                              47    0.0110  104 249 
 PTB  HN ES        155 22.40                              47    0.0710  104 249 
 PTB  HZ I         155 23.22         4.1 0.20             47            104 249 
 RUS  HZ EP   2    155 12.36                              47    0.13 5  122 153 
 RUS  HN ES        155 27.82                              47   -0.1310  122 153 
 RUS  HZ I         155 29.36         1.9 0.24             47            122 153 
                                                                                
