 2012 1014 0259  9.3 L   6.756 -73.100146.6  RSN  5 0.2 1.8LRSN                1
 GAP=144        0.46       3.1     4.6  4.1 -0.3970E+00 -0.1351E+01  0.6098E+00E
 Epicentro: LOS SANTOS - SANTANDER                                             3
 ACTION:UPD 12-11-22 17:03 OP:ep   STATUS:               ID:20121014025909 L   I
 2012-10-14-0250-00M.COL___231                                                 6
 STAT SP IPHASW D HRMM SECON CODA AMPLIT PERI AZIMU VELO AIN AR TRES W  DIS CAZ7
 BAR2 SZ EP        259 28.80                             172   -0.1610 20.3 207 
 BAR2 SZ ES   1    259 44.01                             172   -0.30 7 20.3 207 
 BAR2 SZ I         259 45.13        18.1 0.26                          20.3 207 
 GIR2 SZ EP   2    259 29.08                             165   -0.15 5 37.1 344 
 GIR2 SZ ES   1    259 44.94                             165    0.15 7 37.1 344 
 BRR  HZ EP        259 30.78                             150   -0.1410 77.9 300 
 BRR  HZ I         259 31.21        13.7 0.32                          77.9 300 
 BRR  HN ES   1    259 48.02                             150    0.22 7 77.9 300 
 PAM  SZ EP        259 31.87                             151    0.2210 78.2  34 
 PAM  SN ES   1    259 48.94                             151   -0.15 7 78.2  34 
 PAM  SN I         259 50.29         9.4 0.62                          78.2  34 
 RUS  HZ EP   1    259 32.85                             145    0.08 7 95.5 179 
 RUS  HN ES   1    259 51.29                             145    0.21 7 95.5 179 
 RUS  HN I         259 52.96         5.4 0.26                          95.5 179 
                                                                                
