 2014 1014 0202 48.6 L   6.818 -73.103145.1  RSN  9 0.5 1.8LRSN                1
 GAP=141        1.10       3.9     4.9  6.8 -0.1768E+01  0.7135E+01 -0.3464E+01E
 Epicentro: LOS SANTOS - SANTANDER                                             3
 ACTION:UPD 14-11-29 23:49 OP:nd   STATUS:               ID:20141014020248 L   I
 OLDACT:UP  14-10-14 14:51 OP:mh   STATUS:               ID:20141014015737     3
 OLDACT:REG 14-10-14 12:26 OP:mh   STATUS:               ID:20141014015737     3
 2014-10-14-0157-37M.COL___286                                                 6
 STAT SP IPHASW D HRMM SECON CODA AMPLIT PERI AZIMU VELO AIN AR TRES W  DIS CAZ7
 BAR2 SZ EP        2 3  7.60                             169   -0.5910 26.5 199 
 BAR2 SZ ES        2 3 23.14                             169   -0.3510 26.5 199 
 PAM  SZ EP        2 3 11.11                             152    0.6510 72.9  38 
 PAM  SN ES        2 3 28.07                             152    0.5510 72.9  38 
 PAM  SZ I         2 3 30.71        12.7 0.42            155           72.9  38 
 BRR  HZ EP   1    2 3  9.37                             151   -0.47 7 74.5 295 
 BRR  HN ES        2 3 26.92                             151    0.5010 74.5 295 
 BRR  HZ I         2 3 31.01        14.1 0.08            153           74.5 295 
 RUS  HZ EP   1    2 3 12.59                             143    0.20 7  102 179 
 RUS  HN ES   1    2 3 30.41                             143   -0.55 7  102 179 
 PTB  HZ EP        2 3 15.57                             131   -0.37 9  153 258 
 PTB  HN ES        2 3 37.04                             131   -0.25 9  153 258 
 OCA  HZ EP        2 3 16.41                             130   -0.30 9  159 351 
 OCA  HN ES   1    2 3 38.37                             130   -0.28 7  159 351 
 OCA  HZ I         2 3 41.72        10.6 0.16            133            159 351 
 SPBC HZ EP        2 3 18.06                             128    0.61 9  168 220 
 SPBC HN ES   1    2 3 40.28                             128    0.30 7  168 220 
 SPBC HZ I         2 3 46.08         5.9 0.30            131            168 220 
 ZAR  HZ EP   1    2 3 22.04                             122    0.69 6  208 291 
 ZAR  HN ES        2 3 47.23                             122    0.31 8  208 291 
 SML  HZ EP   1    2 3 24.48                             117   -0.70 6  244 334 
 SML  HN ES        2 3 53.31                             117   -0.43 8  244 334 
                                                                                
