 2012  414 0854  3.3 L   6.773 -73.150146.0  RSN 11 0.4 2.0LRSN                1
 GAP=137        1.03       5.0     5.6  8.2 -0.1236E+01  0.1094E+02  0.8800E+01E
 Epicentro: LOS SANTOS - SANTANDER                                             3
 ACTION:UPD 12-07-05 11:53 OP:tino STATUS:               ID:20120414085403 L   I
 2012-04-14-0850-00M.COL___181                                                 6
 STAT SP IPHASW D HRMM SECON CODA AMPLIT PERI AZIMU VELO AIN AR TRES W  DIS CAZ7
 BAR2 SZ EP        854 22.74                             172    -0.110   20 190 
 BAR2 SZ ES   1    854 37.73                             172    -0.4 7   20 190 
 BAR2 SZ I         854 39.50        19.1 0.25                            20 190 
 BRR  HZ EP   1    854 24.58                             152     0.1 7   72 301 
 BRR  HE ES   1    854 41.95                             152     0.9 7   72 301 
 BRR  HZ I         854 45.37        19.7 0.13                            72 301 
 PAM  SZ EP   1    854 25.61                             150    -0.1 7   80  38 
 PAM  SE ES   1    854 42.91                             150    -0.2 7   80  38 
 PAM  SZ I         854 44.86        12.8 0.61                            80  38 
 RUS  HZ EP   1    854 26.63                             145    -0.2 7   98 176 
 RUS  HN ES   1    854 45.59                             145     0.4 7   98 176 
 RUS  HZ I         854 47.10        12.2 0.18                            98 176 
 PTB  HZ EP   1    854 29.49                             132    -0.7 7  147 260 
 PTB  HN ES   1    854 50.77                             132    -0.4 7  147 260 
 PTB  HZ I         854 58.31        12.9 0.33                           147 260 
 OCA  SZ ES   1    854 54.61                             129     0.4 7  163 353 
 ZAR  HN ES   1    855  0.50                             122    -0.7 6  205 293 
 ZAR  HZ I         855  8.42        14.0 0.28                           205 293 
 NOR  SE ES   1    855  6.77                             119     0.3 6  233 235 
 CHI  HZ EP   1    854 40.68                             117     0.0 6  246 195 
 CHI  HZ I         855 16.08         6.3 0.57                           246 195 
 HEL  HZ EP   1    854 44.07                             115     0.7 6  271 256 
 HEL  HZ I         855 21.20         5.7 0.29                           271 256 
 PRA  HZ EP   1    854 57.08                             107     0.6 4  389 210 
                                                                                
