 2015  114 0505 43.7 L   6.803 -73.146145.4  RSN 17 0.5 2.4LRSN                1
 GAP= 71        1.21       3.0     3.3  5.7 -0.9718E+00  0.4987E+01  0.1205E+01E
 Epicentro: LOS SANTOS - SANTANDER                                             3
 ACTION:UPD 15-03-02 15:39 OP:nd   STATUS:               ID:20150114050543 L   I
 OLDACT:REG 15-01-14 14:20 OP:carl STATUS:               ID:20150114045742     3
 2015-01-14-0457-42M.COL___256                                                 6
 STAT SP IPHASW D HRMM SECON CODA AMPLIT PERI AZIMU VELO AIN AR TRES W  DIS CAZ7
 BAR2 EZ EP        5 6  3.31                             170    0.0210 23.7 190 
 BAR2 EZ ES        5 6 18.47                             170   -0.1010 23.7 190 
 BAR2 EZ I         5 6 20.88        81.4 0.24            171           23.7 190 
 BRR  HZ IP     D  5 6  5.22                             153    0.4310 71.0 298 
 BRR  HN ES        5 6 22.22                             153    0.9710 71.0 298 
 BRR  HZ I         5 6 22.86        34.0 0.30            150           71.0 298 
 PAM  SZ IP     D  5 6  6.13                             151    0.2710 77.1  40 
 PAM  SN ES        5 6 22.94                             151   -0.2010 77.1  40 
 PAM  SZ I         5 6 27.05        17.3 0.48            147           77.1  40 
 RUS  HZ IP     C  5 6  7.20                             144   -0.2410  101 176 
 RUS  HN ES        5 6 25.79                             144   -0.1710  101 176 
 RUS  HZ I         5 6 26.98        26.6 0.30            141            101 176 
 PTB  HZ EP        5 6  9.97                             132   -0.67 9  148 259 
 PTB  HN ES        5 6 31.07                             132   -0.58 9  148 259 
 PTB  HZ I         5 6 32.33        26.2 0.26            129            148 259 
 TAM  HZ EP        5 6 10.93                             130   -0.43 9  155 105 
 TAM  HZ I         5 6 32.23        15.2 0.46            127            155 105 
 TAM  HN ES        5 6 33.09                             130    0.16 9  155 105 
 OCA  HZ EP        5 6 11.67                             130   -0.27 9  160 353 
 OCA  HN ES        5 6 34.27                             130    0.30 9  160 353 
 OCA  HZ I         5 6 36.82        32.8 0.18            126            160 353 
 SPBC HZ EP        5 6 12.23                             129    0.04 9  163 219 
 SPBC HN ES        5 6 34.32                             129   -0.10 9  163 219 
 SPBC HZ I         5 6 35.49        46.0 0.22            126            163 219 
 ZAR  HZ EP        5 6 16.02                             122   -0.08 9  204 292 
 ZAR  HN ES        5 6 41.68                             122    0.31 9  204 292 
 ZAR  HZ I         5 6 47.37        27.1 0.48            119            204 292 
 NOR  HZ EP        5 6 19.51                             118    0.09 8  235 234 
 NOR  HN ES        5 6 46.73                             118   -0.56 8  235 234 
 NOR  HZ I         5 6 52.52        20.5 0.32            116            235 234 
 SML  HZ EP        5 6 19.74                             117   -0.52 8  243 335 
 SML  HN ES        5 6 48.23                             117   -0.55 8  243 335 
 SML  HZ I         5 6 55.26        34.9 0.26            114            243 335 
 CHI  HZ EP        5 6 21.34                             117   -0.07 8  249 195 
 CHI  HN ES        5 6 50.92                             117    0.09 8  249 195 
 CHI  HZ I         5 6 56.15        10.9 0.24            114            249 195 
 ROSC BZ EP   4    5 6 22.68                             117    0.85 0  253 211 
 ROSC BN ES   4    5 6 53.61                             117    2.04 0  253 211 
 HEL  HZ EP        5 6 25.12                             115    1.23 8  272 256 
 HEL  HN ES        5 6 54.47                             115   -0.78 8  272 256 
 HEL  HZ I         5 7  1.72        13.8 0.26            112            272 256 
 URE  HZ EP   4    5 6 23.41                             113   -1.32 0  284 292 
 URE  HN ES   4    5 6 54.33                             113   -2.40 0  284 292 
 URE  HZ I         5 6 59.13        17.3 0.12            111            284 292 
 CBOC HZ EP        5 6 31.49                             110    0.89 7  334 252 
 CBOC HN ES        5 7  6.35                             110   -0.84 7  334 252 
 CBOC HZ I         5 7 21.31         4.5 0.66            107            334 252 
 TOL  SZ EP        5 6 32.86                             109    0.90 7  344 225 
 TOL  SN ES        5 7 10.78                             109    1.17 7  344 225 
 MON  HZ EP   4    5 6 30.29                             108   -2.36 0  353 308 
 MON  HN ES   4    5 7  8.73                             108   -2.11 0  353 308 
 MON  HZ I         5 7 24.56         7.9 0.52            106            353 308 
 PAL  HZ EP   4    5 6 39.16                             106    0.30 0  406 239 
 PAL  HN ES   4    5 7 20.47                             106   -1.42 0  406 239 
                                                                                
