 2013 1014 0425 33.4 L   6.779 -73.190150.0  RSN  5 0.5 1.3LRSN                1
 GAP=197        0.85       4.9     8.1 10.7  0.9087E+01 -0.1496E+02 -0.2413E+02E
 Epicentro: LOS SANTOS - SANTANDER                                             3
 ACTION:UPD 13-11-25 09:21 OP:ep   STATUS:               ID:20131014042533 L   I
 OLDACT:UP  13-10-14 08:49 OP:mh   STATUS:               ID:20131014041959     3
 OLDACT:UP  13-10-14 08:49 OP:mh   STATUS:               ID:20131014041959     3
 OLDACT:REG 13-10-14 07:26 OP:mh   STATUS:               ID:20131014041959     3
 2013-10-14-0419-59M.COL___273                                                 6
 STAT SP IPHASW D HRMM SECON CODA AMPLIT PERI AZIMU VELO AIN AR TRES W  DIS CAZ7
 BRR  HZ EP   1    425 55.49                             154    0.69 9 68.2 302 
 BRR  HN ES   2    426 12.30                             154    0.78 6 68.2 302 
 BRR  HZ I         426 16.35         4.6 0.10            153           68.2 302 
 RUS  HZ EP   1    425 57.56                             145    0.17 9 98.7 173 
 RUS  HN ES   1    426 15.65                             145   -0.48 9 98.7 173 
 RUS  HZ I         426 16.69         2.1 0.24            149           98.7 173 
 PTB  HZ EP   1    426  0.25                             134    0.05 9  143 259 
 PTB  HN ES   1    426 20.96                             134   -0.19 9  143 259 
 PTB  HZ I         426 24.28         3.4 0.14            135            143 259 
 SPBC HZ EP   1    426  2.26                             131    0.54 9  158 218 
 SPBC HN ES   1    426 23.52                             131   -0.33 9  158 218 
 SPBC HZ I         426 28.63         1.5 0.07            133            158 218 
 SML  HZ EP        426  9.73                             118   -0.5110  244 337 
 SML  HN ES   1    426 38.68                             118   -0.33 7  244 337 
                                                                                
