 2014  214 0835 35.0 L   6.779 -73.127146.0  RSN 15 0.4 2.4LRSN                1
 GAP= 67        0.80       2.5     2.5  4.3 -0.1089E+01  0.2270E+01  0.4588E+00E
 Epicentro: LOS SANTOS - SANTANDER                                             3
 ACTION:UPD 14-03-10 08:10 OP:ep   STATUS:               ID:20140214083535 L   I
 OLDACT:UP  14-02-14 11:38 OP:fm   STATUS:               ID:20140214083000     3
 OLDACT:UP  14-02-14 11:36 OP:fm   STATUS:               ID:20140214083000     3
 OLDACT:REG 14-02-14 08:32 OP:carl STATUS:               ID:20140214083000     3
 2014-02-14-0830-00M.COL___291                                                 6
 STAT SP IPHASW D HRMM SECON CODA AMPLIT PERI AZIMU VELO AIN AR TRES W  DIS CAZ7
 BAR2 SZ EP        835 54.54                             171   -0.1110 21.5 197 
 BAR2 SZ ES        836  9.76                             171   -0.1910 21.5 197 
 BAR2 SZ I         836 10.55        75.0 0.19            174           21.5 197 
 PAM  SZ EP     D  835 57.39                             151    0.0910 77.9  37 
 PAM  SN ES        836 14.58                             151   -0.0910 77.9  37 
 PAM  SZ I         836 16.81        44.5 0.60            145           77.9  37 
 RUS  HZ EP        835 58.52                             144   -0.1010 98.1 177 
 RUS  HN ES        836 17.04                             144    0.0110 98.1 177 
 RUS  HZ I         836 18.43        25.3 0.32            145           98.1 177 
 PTB  HZ EP        836  1.97                             132   -0.19 9  149 260 
 PTB  HN ES        836 23.67                             132    0.34 9  149 260 
 PTB  HZ I         836 26.50        24.0 0.15            127            149 260 
 TAM  HZ IP     D  836  2.80                             131    0.32 9  152 104 
 TAM  HN ES        836 24.31                             131    0.42 9  152 104 
 SPBC HZ EP        836  3.51                             129    0.01 9  163 220 
 SPBC HN ES        836 25.38                             129   -0.32 9  163 220 
 SPBC HZ I         836 26.60        26.5 0.20            126            163 220 
 OCA  HZ EP        836  4.14                             129    0.54 9  163 353 
 OCA  HE ES        836 25.25                             129   -0.64 9  163 353 
 OCA  HZ I         836 29.10        24.1 0.18            123            163 353 
 ZAR  HZ EP   1    836  8.41                             122    0.63 6  207 293 
 ZAR  HN ES   2    836 33.90                             122    0.57 4  207 293 
 ZAR  HZ I         836 35.42        24.0 0.26            117            207 293 
 NOR  HZ EP        836 11.08                             118    0.27 8  235 235 
 NOR  HN ES        836 38.74                             118    0.02 8  235 235 
 NOR  HZ I         836 42.90        14.5 0.17            115            235 235 
 CHI  HZ EP     D  836 12.67                             117    0.12 8  247 196 
 CHI  HN ES   2    836 42.27                             117    0.45 4  247 196 
 SML  HZ EP   2    836 11.16                             117   -0.83 4  247 335 
 SML  HN ES   4    836 39.34                             117   -1.49 0  247 335 
 ROSC BZ EP   4    836 14.39                             117    1.33 0  252 212 
 ROSC BN ES   4    836 46.80                             117    4.08 0  252 212 
 HEL  HZ EP   1    836 15.11                             115   -0.30 6  274 256 
 HEL  HN ES   2    836 47.32                             115    0.40 4  274 256 
 URE  HZ EP   2    836 15.66                             113   -0.77 4  287 292 
 URE  HN ES   4    836 45.79                             113   -2.93 0  287 292 
 GUY2CHZ EP   4    836 19.23                             112    0.54 0  302 235 
 GUY2CHN ES   4    836 53.46                             112    0.72 0  302 235 
 PTGC HZ EP        836 17.63                             112   -0.93 7  306 159 
 PTGC HE ES   4    836 50.69                             112   -1.82 0  306 159 
 RREF BZ EP   4    836 22.72                             111    1.53 0  322 230 
 RREF BN ES   4 D  837  0.56                             111    3.37 0  322 230 
 RREF BZ I         837  6.30        10.8 0.30            108            322 230 
 CBOC HZ EP   4    836 22.62                             110    0.52 0  335 253 
 CBOC HN ES   4    836 59.80                             110    0.99 0  335 253 
 ORTC HZ EP   4    836 29.30                             106    0.42 0  395 217 
 ORTC HN ES   4    837 14.06                             106    3.18 0  395 217 
 SJC  HZ EP   4 D  836 29.28                             105   -1.68 0  412 327 
 SJC  HN ES   4    837 12.65                             105   -1.94 0  412 327 
                                                                                
