 2010  114 0958 25.9 L   6.789 -73.086146.9  RSN  9 0.5 2.4LRSN                1
 GAP=189        0.91       4.7     7.0  7.0  0.4679E+00  0.2154E+02  0.8267E+01E
 Epicentro: LOS SANTOS - SANTANDER                                             3
 ACTION:UP  10-08-24 09:44 OP:vdl  STATUS:               ID:20100114095825 L   I
 2010-01-14-0957-03S.COL___094                                                 6
 STAT SP IPHASW D HRMM SECON CODA AMPLIT PERI AZIMU VELO SNR AR TRES W  DIS CAZ7
 BAR2 SZ IP        958 45.71                             170     0.010   24 206 
 BAR2 SZ ES   1    959  0.43                             170    -0.7 7   24 206 
 GIR2 SZ EP        958 45.86                             166     0.110   34 340 
 GIR2 SZ ES   1    959  1.90                             166     0.6 7   34 340 
 RUS  BZ EP   1    958 49.75                             144     0.1 7   99 180 
 RUS  BN ES   2    959  8.70                             144     0.5 5   99 180 
 RUS  BZ I         959  9.48        27.8 0.42                            99 180 
 OCA  SZ EP   1    958 54.59                             129     0.1 7  162 351 
 OCA  SZ ES   2    959 16.16                             129    -0.7 5  162 351 
 CHI  HZ EP        959  3.87                             117     0.1 8  249 197 
 CHI  HE ES   1    959 32.55                             117    -0.7 6  249 197 
 CHI  HZ I         959 43.11        10.8 0.60                           249 197 
 HEL  HZ EP   1    959  6.84                             114     0.0 6  278 256 
 HEL  HN ES   1    959 39.43                             114     0.6 6  278 256 
 HEL  HZ I         959 46.17        15.6 0.32                           278 256 
 DBB  SZ EP   1    959 13.48                             109    -0.7 5  346 274 
 DBB  SZ ES   1    959 51.34                             109    -0.5 5  346 274 
 TOL  SZ EP        959 15.34                             109     0.7 6  347 226 
 PRA  HZ EP        959 19.21                             107    -0.5 6  394 211 
 PRA  HZ I        10 0  7.93        14.2 0.35                           394 211 
                                                                                
