 2017  414 0400 21.1 L   6.777 -73.142147.9  RSN  7 0.4 1.3LRSN                1
 GAP=138        1.13       4.9     4.9  7.6 -0.9680E+00  0.9234E+01 -0.2846E+01E
 Epicentro: LOS SANTOS - SANTANDER                                             3
 ACTION:UPD 17-05-30 21:11 OP:jn   STATUS:               ID:20170414040021 L   I
 OLDACT:REG 17-04-14 12:37 OP:edw  STATUS:               ID:20170414035743     3
 2017-04-14-0358-00M.COL___359                                                 6
 STAT SP IPHASW D HRMM SECON CODA AMPLIT PERI AZIMU VELO AIN AR TRES W  DIS CAZ7
 BAR2 EZ IP     D  4 0 40.93                             172   -0.0010 20.9 192 
 BAR2 EZ ES        4 0 55.85                             172   -0.5610 20.9 192 
 BRR  HZ EP        4 0 42.85                             152    0.2910 72.8 300 
 BRR  HN ES        4 1  0.16                             152    0.8510 72.8 300 
 PAM  EZ EP        4 0 43.81                             151    0.1710 79.1  38 
 PAM  EN ES        4 1  0.89                             151   -0.3310 79.1  38 
 PAM  EZ I         4 1  1.58         2.4 0.20            151           79.1  38 
 RUS  HZ EP        4 0 44.68                             145   -0.1910 98.0 176 
 RUS  HN ES        4 1  3.77                             145    0.3510 98.0 176 
 PTB  HZ EP        4 0 47.83                             132   -0.40 9  148 260 
 PTB  HN ES        4 1  8.59                             132   -0.80 9  148 260 
 PTB  HZ I         4 1 11.31         2.1 0.10            131            148 260 
 SPBC HN ES        4 1 12.24                             130    0.42 9  161 220 
 ZAR  HZ EP        4 0 53.99                             123    0.17 8  205 293 
 ZAR  HN ES        4 1 19.33                             123   -0.01 8  205 293 
 ZAR  HZ I         4 1 25.46         2.5 0.28            122            205 293 
                                                                                
