 2017  714 0932  6.0 L   6.857 -73.166142.7  RSN 17 0.6 2.4LRSN                1
 GAP= 63        1.54       5.7     4.3  7.9  0.1945E+01  0.9680E+01  0.3146E+01E
 Epicentro: ZAPATOCA - SANTANDER                                               3
 ACTION:UPD 17-08-30 15:32 OP:rebc STATUS:               ID:20170714093206 L   I
 OLDACT:UP  17-07-14 17:48 OP:dnl  STATUS:               ID:20170714091518     3
 OLDACT:UP  17-07-14 17:47 OP:dnl  STATUS:               ID:20170714091518     3
 OLDACT:REG 17-07-14 12:51 OP:dnl  STATUS:               ID:20170714091518     3
 2017-07-14-0928-00M.COL___374                                                 6
 STAT SP IPHASW D HRMM SECON CODA AMPLIT PERI AZIMU VELO AIN AR TRES W  DIS CAZ7
 BAR2 EZ IP     C  932 25.35                             168   -0.0210 29.4 183 
 BAR2 EZ ES        932 40.09                             168   -0.4110 29.4 183 
 BAR2 EZ I         932 41.02        94.5 0.20            172           29.4 183 
 BRR  HZ IP     D  932 27.24                             153    0.7310 66.3 295 
 BRR  HE ES   4    932 44.06                             153    1.52 0 66.3 295 
 BRR  HZ I         932 48.25        63.3 0.10            145           66.3 295 
 PAM  EZ EP        932 28.32                             151    0.6610 74.2  44 
 PAM  EN ES        932 45.23                             151    0.6410 74.2  44 
 PAM  EZ I         932 47.18        33.3 0.58            145           74.2  44 
 RUS  HZ EP        932 29.33                             142   -0.5710  107 175 
 RUS  HN ES        932 47.55                             142   -1.0210  107 175 
 RUS  HZ I         932 48.61        30.9 0.24            142            107 175 
 PTB  HZ EP        932 32.06                             131   -0.54 9  147 256 
 PTB  HN ES        932 52.96                             131   -0.43 9  147 256 
 PTB  HZ I         932 58.39        21.6 0.28            126            147 256 
 TAM  HZ IP     C  932 33.70                             129   -0.07 9  159 107 
 TAM  HN ES        932 54.90                             129   -0.56 9  159 107 
 TAM  HZ I         932 55.76        15.5 0.24            126            159 107 
 SPBC HZ EP        932 34.40                             128   -0.17 9  167 217 
 SPBC HE ES   4    932 56.35                             128   -0.54 0  167 217 
 SPBC HZ I         933  0.16        56.0 0.60            125            167 217 
 YPLC HZ IP     C  932 35.81                             125   -0.39 9  183 152 
 YPLC HN ES        933  0.97                             125    1.19 9  183 152 
 YPLC HZ I         933  2.47        11.1 0.32            123            183 152 
 ZAR  HZ EP   9    932 38.36                             122    0.61 0  200 291 
 ZAR  HE ES        933  4.36                             123    1.20 9  200 291 
 ZAR  HZ I         933 10.14        32.0 0.30            116            200 291 
 NOR  HZ EP        932 41.91                             118    0.19 8  237 233 
 NOR  HN ES   4    933  9.09                             118   -0.53 0  237 233 
 NOR  HZ I         933 15.20        16.3 0.18            114            237 233 
 HEL  HZ EP        932 46.52                             114    0.56 8  271 254 
 HEL  HE ES        933 18.12                             114    0.97 8  271 254 
 HEL  HZ I         933 24.61        12.0 0.32            110            271 254 
 URE  HZ EP   4    932 47.14                             113    0.75 0  279 291 
 URE  HN ES        933 17.09                             113   -0.83 7  279 291 
 URE  HZ I         933 19.83        22.5 0.58            109            279 291 
 GUY2CHZ EP   9    932 51.37                             112    1.73 0  303 234 
 GUY2CHN ES        933 26.28                             112    0.84 7  303 234 
 GUY2CHZ I         933 32.75         8.1 0.50                           303 234 
 LL6C HZ EP   2    932 50.39                             110   -0.41 3  318 358 
 LL6C HZ I         933 32.81         9.3 0.50            106            318 358 
 ORTC HZ EP        933  0.33                             106    0.11 6  399 215 
 ORTC HN ES        933 43.64                             106    1.09 6  399 215 
 ORTC HZ I         933 50.07         5.6 0.30            103            399 215 
 SJC  HZ EP        933  0.22                             105   -0.43 6  403 327 
 SJC  HN ES   4    933 41.28                             105   -2.03 0  403 327 
 SJC  HZ I         933 45.56         7.8 0.56            102            403 327 
 PAL  HZ EP        933  1.61                             105    0.43 6  407 238 
 PAL  HN ES   4    933 43.66                             105   -0.59 0  407 238 
 PAL  HZ I         933 54.91         3.6 0.34            102            407 238 
                                                                                
