 2013  514 0952 51.2 L   6.798 -73.163143.3  RSN  7 0.4 1.8LRSN                1
 GAP=135        1.09       4.3     5.5  7.3 -0.1487E+01  0.1224E+02  0.4010E+00E
 Epicentro: LOS SANTOS - SANTANDER                                             3
 ACTION:UPD 13-06-20 09:50 OP:ep   STATUS:               ID:20130514095251 L   I
 2013-05-14-0950-00M.COL___256                                                 6
 STAT SP IPHASW D HRMM SECON CODA AMPLIT PERI AZIMU VELO AIN AR TRES W  DIS CAZ7
 BAR2 SZ EP        953 10.55                             171    0.0510 22.8 185 
 BAR2 SZ ES        953 24.84                             171   -0.7310 22.8 185 
 BAR2 SZ I         953 26.41        16.6 0.32            169           22.8 185 
 BRR  HZ IP     D  953 12.27                             153    0.3010 69.7 299 
 BRR  HN ES        953 29.04                             153    0.8510 69.7 299 
 BRR  HZ I         953 29.78        15.6 0.32            153           69.7 299 
 PAM  SZ EP        953 13.43                             150    0.2210 78.8  40 
 PAM  SN ES        953 30.44                             150    0.0410 78.8  40 
 PAM  SZ I         953 31.88        11.1 0.34            153           78.8  40 
 RUS  HZ EP        953 14.61                             143   -0.0710  100 175 
 RUS  HN ES        953 33.09                             143    0.0810  100 175 
 RUS  HZ I         953 35.11         7.6 0.16            144            100 175 
 PTB  HZ EP        953 17.23                             132   -0.54 9  146 259 
 PTB  HN ES   1    953 38.16                             132   -0.35 7  146 259 
 PTB  HZ I         953 40.93        10.9 0.16            132            146 259 
 NOR  HZ EP        953 27.00                             118    0.42 8  233 234 
 NOR  HN ES   1    953 54.31                             118    0.11 6  233 234 
 NOR  HZ I         953 58.28         4.8 0.30            119            233 234 
 SML  HE ES        953 55.38                             117   -0.64 8  243 336 
                                                                                
