 2014  914 0138 15.4 L   6.803 -73.128141.6  RSN 16 0.5 2.7LRSN                1
 GAP= 72        1.25       3.0     3.5  5.8 -0.9803E+00  0.5081E+01  0.1651E+01E
 Epicentro: LOS SANTOS - SANTANDER                                             3
 ACTION:UPD 14-10-03 23:04 OP:nd   STATUS:               ID:20140914013815 L   I
 OLDACT:REG 14-09-14 14:02 OP:carl STATUS:               ID:20140914013819     3
 2014-09-14-0138-19M.COL___296                                                 6
 STAT SP IPHASW D HRMM SECON CODA AMPLIT PERI AZIMU VELO AIN AR TRES W  DIS CAZ7
 BAR2 SZ IP     C  138 34.61                             170    0.0710 24.1 194 
 BAR2 SZ ES        138 49.15                             170   -0.3210 24.1 194 
 BAR2 SZ I         138 50.34       117.3 0.20            169           24.1 194 
 BRR  HZ IP        138 36.56                             151    0.3810 72.7 298 
 BRR  HN ES        138 53.38                             151    0.9810 72.7 298 
 BRR  HZ I         138 58.35        90.9 0.14            151           72.7 298 
 PAM  SZ EP        138 37.52                             150    0.4410 75.9  39 
 PAM  SN ES        138 54.22                             150    0.2310 75.9  39 
 PAM  SZ I         138 56.75       163.9 0.58            154           75.9  39 
 RUS  HZ EP        138 38.63                             143   -0.1210  101 177 
 RUS  HN ES        138 56.91                             143   -0.0710  101 177 
 RUS  HZ I         138 58.59        40.3 0.34            145            101 177 
 PTB  HZ EP        138 41.38                             131   -0.82 9  150 259 
 PTB  HN ES        139  2.44                             131   -0.67 9  150 259 
 PTB  HZ I         139  4.97        94.5 0.14            132            150 259 
 TAM  HZ IP     D  138 42.96                             130    0.38 9  153 105 
 TAM  HN ES        139  3.97                             130    0.18 9  153 105 
 TAM  HZ I         139  5.35        26.9 0.36            134            153 105 
 OCA  HZ EP        138 43.03                             129   -0.34 9  160 352 
 OCA  HN ES        139  4.69                             129   -0.51 9  160 352 
 OCA  HZ I         139  8.01        93.2 0.38            131            160 352 
 SPBC HZ EP        138 43.62                             128   -0.10 9  165 219 
 SPBC HN ES        139  5.02                             128   -0.79 9  165 219 
 SPBC HZ I         139  9.94       111.4 0.90            129            165 219 
 ZAR  HZ EP        138 47.66                             121   -0.08 8  206 292 
 ZAR  HE ES        139 13.62                             121    0.65 8  206 292 
 ZAR  HZ I         139 18.54        65.5 0.32            123            206 292 
 NOR  HZ EP        138 51.37                             117    0.30 8  236 235 
 NOR  HE ES        139 19.16                             117    0.25 8  236 235 
 NOR  HZ I         139 22.27        31.1 0.22            119            236 235 
 SML  HZ EP        138 51.18                             116   -0.66 8  244 335 
 SML  HN ES        139 19.54                             116   -0.73 8  244 335 
 SML  HZ I         139 22.72        82.9 0.10            118            244 335 
 CHI  HZ EP        138 52.56                             116   -0.40 8  249 196 
 CHI  HN ES        139 21.56                             116   -0.70 8  249 196 
 CHI  HZ I         139 25.66        10.6 0.28            118            249 196 
 HEL  HZ EP        138 56.28                             114    0.67 8  274 256 
 HEL  HN ES   4    139 26.40                             114   -0.58 0  274 256 
 HEL  HZ I         139 33.32        17.5 0.26            115            274 256 
 URE  HZ EP   4    138 55.10                             113   -1.35 0  285 292 
 URE  HN ES   4    139 27.06                             113   -1.41 0  285 292 
 GUY2CHZ EP        138 59.97                             111    0.96 7  303 235 
 GUY2CHN ES        139 33.82                             111    0.79 7  303 235 
 GUY2CHZ I         139 39.82        19.8 0.28                           303 235 
 MON  HZ IP   4 D  139  2.52                             108   -1.86 0  355 308 
 MON  HN ES   4    139 40.11                             108   -2.49 0  355 308 
 MON  HZ I         139 41.75        20.0 0.20            109            355 308 
 ORTC HZ EP        139  9.84                             106    0.50 6  397 216 
 ORTC HN ES        139 51.48                             106    0.06 6  397 216 
 ORTC HZ I         139 57.75         9.5 0.64            107            397 216 
                                                                                
