 2015 1114 0625 48.8 L   6.815 -73.098148.3  RSN 15 0.6 2.1LRSN                1
 GAP=142        1.19       3.0     5.0  6.6 -0.1881E+01  0.1379E+02  0.9705E+00E
 Epicentro: LOS SANTOS - SANTANDER                                             3
 ACTION:UPD 15-12-28 16:10 OP:cam  STATUS:               ID:20151114062548 L   I
 OLDACT:UP  15-11-19 06:51 OP:CARA STATUS:               ID:20151114062548 L   3
 OLDACT:UP  15-11-14 23:43 OP:dnl  STATUS:               ID:20151114061738     3
 OLDACT:REG 15-11-14 14:43 OP:dnl  STATUS:               ID:20151114061738     3
 2015-11-14-0617-38M.COL___310                                                 6
 STAT SP IPHASW D HRMM SECON CODA AMPLIT PERI AZIMU VELO AIN AR TRES W  DIS CAZ7
 BAR2 EZ EP        626  8.87                             169    0.0210 26.4 201 
 BAR2 EZ ES        626 24.06                             169   -0.3910 26.4 201 
 BAR2 EZ I         626 25.48        54.9 0.18            169           26.4 201 
 PAM  EZ EP        626 11.87                             153    0.8010 72.8  37 
 PAM  EN ES        626 28.94                             153    0.5310 72.8  37 
 PAM  EZ I         626 33.72         7.3 0.28            156           72.8  37 
 BRR  HZ EP     D  626 10.74                             152    0.2510 75.1 295 
 BRR  HN ES   2    626 26.98                             152   -0.40 5 75.1 295 
 BRR  HZ I         626 29.07        20.9 0.16            150           75.1 295 
 RUS  HZ EP        626 12.46                             144   -0.5010  102 179 
 RUS  HE ES        626 31.62                             144   -0.1410  102 179 
 RUS  HZ I         626 32.69        12.5 0.22            147            102 179 
 OCA  HZ EP        626 17.80                             130    0.54 9  159 351 
 OCA  HN ES        626 38.99                             130   -0.44 9  159 351 
 OCA  HZ I         626 42.26        12.5 0.26            132            159 351 
 SPBC HZ EP        626 17.96                             129   -0.02 9  168 220 
 SPBC HE ES        626 40.59                             129   -0.12 9  168 220 
 SPBC HZ I         626 45.94        24.9 0.20            130            168 220 
 ZAR  HZ EP   1    626 21.63                             122   -0.26 6  208 291 
 ZAR  HE ES        626 47.94                             122    0.27 8  208 291 
 ZAR  HZ I         626 53.36        10.4 0.26            123            208 291 
 NOR  HZ EP        626 25.03                             118   -0.26 8  240 235 
 NOR  HN ES   4    626 52.43                             118   -1.28 0  240 235 
 NOR  HZ I         626 56.36        12.4 0.16            120            240 235 
 SML  HZ EP        626 25.15                             118   -0.54 8  244 334 
 SML  HE ES        626 53.75                             118   -0.68 8  244 334 
 SML  HZ I         626 59.98         9.2 0.22            119            244 334 
 CHI  HZ EP        626 26.91                             117   -0.11 8  252 196 
 CHI  HN ES        626 56.67                             117   -0.12 8  252 196 
 CHI  HZ I         626 58.58         5.1 0.30            119            252 196 
 HEL  HZ EP   2    626 31.15                             115    1.35 4  278 256 
 HEL  HN ES   1    627  2.65                             115    0.91 6  278 256 
 HEL  HZ I         627  7.70         8.1 0.28            116            278 256 
 URE  HZ EP   4    626 32.98                             114    2.47 0  288 291 
 URE  HE ES   1    627  2.70                             114   -0.31 5  288 291 
 URE  HZ I         627  8.63         4.2 0.60            115            288 291 
 GUY2CHZ EP        626 31.73                             112   -1.44 7  306 235 
 GUY2CHE ES        627  8.36                             112    0.63 7  306 235 
 GUY2CHZ I         627 19.07         5.7 0.56                           306 235 
 ANIL HZ EP   1    626 41.02                             109    1.71 5  362 225 
 ANIL HN ES        627 19.28                             109    0.60 6  362 225 
 PRA  HZ EP        626 42.79                             107   -0.14 6  396 210 
 PRA  HE ES   4    627 24.27                             107   -0.85 0  396 210 
 PRA  HZ I         627 31.00         6.0 0.36            108            396 210 
                                                                                
