 2017  314 0125  2.7 L   6.654 -73.550100.1  RSN  5 0.4 1.0LRSN                1
 GAP=119        1.01       5.4     4.8  7.9  0.1513E+02  0.1513E+02  0.8785E+01E
 Epicentro: EL CARMEN - SANTANDER                                              3
 ACTION:UPD 17-05-25 18:40 OP:jn   STATUS:               ID:20170314012502 L   I
 OLDACT:DUP 17-03-14 13:58 OP:cara STATUS:               ID:20170314011742d    3
 OLDACT:REG 17-03-14 12:30 OP:cara STATUS:               ID:20170314011741     3
 2017-03-14-0118-00M.COL___403                                                 6
 STAT SP IPHASW D HRMM SECON CODA AMPLIT PERI AZIMU VELO AIN AR TRES W  DIS CAZ7
 BAR2 EZ EP        125 17.30                             156   -0.2910 41.3 100 
 BAR2 EZ ES        125 29.52                             156    0.3110 41.3 100 
 BAR2 EZ I         125 30.51         3.6 0.28            158           41.3 100 
 BRR  HZ EP        125 17.62                             150   -0.2910 53.2 340 
 BRR  HN ES        125 29.47                             150   -0.3010 53.2 340 
 RUS  HZ EP        125 22.16                             132    0.0110 98.8 148 
 RUS  HE ES        125 37.66                             132    0.3410 98.8 148 
 RUS  HZ I         125 39.85         1.3 0.28            133           98.8 148 
 PTB  HZ EP        125 21.23                             131   -0.4710  101 263 
 PTB  HN ES        125 36.32                             131   -0.2110  101 263 
 PTB  HZ I         125 37.48         1.8 0.10            131            101 263 
 ZAR  HZ EP        125 29.24                             115    0.24 9  172 303 
 ZAR  HN ES        125 50.38                             115    0.87 9  172 303 
 ZAR  HZ I         125 53.23         2.3 0.26            116            172 303 
                                                                                
