 2010  414 0730 31.3 L   6.475 -73.334  0.0  RSN  8 0.6 2.8LRSN                1
 GAP=140        1.27       5.5     8.8 10.8 -0.2288E+02  0.7991E+02 -0.9549E+01E
 Epicentro: SIMACOTA - SANTANDER                                               3
 ACTION:UP  10-08-24 09:59 OP:vdl  STATUS:               ID:20100414073032 L   I
 2010-04-14-0728-41S.COL___097                                                 6
 STAT SP IPHASW D HRMM SECON CODA AMPLIT PERI AZIMU VELO AIN AR TRES W  DIS CAZ7
 BAR2 SZ IP        730 35.60                              95    -0.110   21  52 
 BAR2 SZ ES   1    730 38.92                              95    -0.2 7   21  52 
 BRR  HZ IP     C  730 44.90                              47     0.110   81 329 
 BRR  HZ I         730 45.28       257.1 0.35                            81 329 
 BRR  HE ES   2    730 55.13                              47    -0.2 5   81 329 
 OCA  SZ EP        731  2.17                              37     0.4 9  195   0 
 OCA  SZ ES   2    731 26.72                              37     1.1 4  195   0 
 OCA  SZ I         731 31.25       265.7 0.31                           195   0 
 CHI  HN ES   3    731 29.10                              37    -0.1 2  209 192 
 CHI  HZ I         731 39.92        36.0 0.26                           209 192 
 HEL  HZ EP        731  6.86                              37    -1.4 8  245 263 
 HEL  HZ I         731 35.01        66.5 0.17                           245 263 
 RREF BZ EP        731 13.40                              37     0.1 7  283 232 
 RREF BE ES   2    731 46.32                              37     0.2 4  283 232 
 RREF BZ I         731 50.56        27.4 0.14                           283 232 
 TOL  SZ EP        731 16.04                              36     0.5 7  303 227 
 ANIL BZ EP   1    731 18.04                              36     0.8 5  317 226 
 ANIL BN ES   1    731 53.13                              36     0.1 5  317 226 
 ANIL BZ I         731 59.31        46.2 0.07                           317 226 
                                                                                
