 2010  414 0646 44.1 L   6.814 -73.021148.5  RSN  7 0.4 2.0LRSN                1
 GAP=223        0.81       6.3    11.3 10.3 -0.4801E+02  0.5467E+02 -0.1949E+02E
 Epicentro: CEPITA - SANTANDER                                                 3
 ACTION:UPD 10-08-24 09:59 OP:vdl  STATUS:               ID:20100414064644 L   I
 2010-04-14-0643-10S.COL___097                                                 6
 STAT SP IPHASW D HRMM SECON CODA AMPLIT PERI AZIMU VELO AIN AR TRES W  DIS CAZ7
 BAR2 SZ EP        647  4.00                             168    -0.210   30 216 
 BAR2 SZ ES   1    647 19.97                             168     0.1 7   30 216 
 BRR  HZ EP   1    647  6.36                             149     0.2 7   83 293 
 BRR  HZ I         647 25.11        13.3 0.74                            83 293 
 OCA  SZ EP        647 12.69                             130     0.0 9  161 348 
 OCA  SZ ES   2    647 34.97                             130     0.0 5  161 348 
 OCA  SZ I         647 39.50        12.3 0.36                           161 348 
 ROSC BN ES   2    647 53.17                             116    -0.7 4  261 213 
 ROSC BZ I         648  1.31         6.9 0.46                           261 213 
 HEL  HN ES   2    647 57.57                             114    -1.0 4  286 256 
 HEL  HZ I         648  2.73         3.7 0.78                           286 256 
 RREF BN ES        648  9.39                             111     0.6 7  333 231 
 RREF BZ I         648 14.09         3.1 0.32                           333 231 
 PRA  HN ES   1    648 20.82                             107    -0.4 4  400 211 
 PRA  HZ I         648 24.07         4.1 1.92                           400 211 
                                                                                
