 2016  914 0412 40.3 L   6.786 -73.139147.0  RSN  7 0.4 1.7LRSN                1
 GAP=200        1.13       4.8     6.7  7.7 -0.6248E+01  0.4932E+01 -0.3254E+01E
 Epicentro: LOS SANTOS - SANTANDER                                             3
 ACTION:UPD 17-08-17 21:10 OP:lp   STATUS:               ID:20160914041240 L   I
 OLDACT:UP  16-09-15 06:31 OP:dani STATUS:               ID:20160914040809d    3
 OLDACT:UP  16-09-15 06:30 OP:dani STATUS:               ID:20160914040809d    3
 OLDACT:DUP 16-09-15 06:26 OP:dani STATUS:               ID:20160914040809d    3
 OLDACT:UP  16-09-15 06:25 OP:dani STATUS:               ID:20160914040808d    3
 OLDACT:UP  16-09-15 06:24 OP:dani STATUS:               ID:20160914040808d    3
 OLDACT:DUP 16-09-15 06:20 OP:dani STATUS:               ID:20160914040808d    3
 OLDACT:UP  16-09-15 06:15 OP:dani STATUS:               ID:20160914040807d    3
 OLDACT:DUP 16-09-15 06:11 OP:dani STATUS:               ID:20160914040807d    3
 2016-09-14-0408-00M.COL___318                                                 6
 STAT SP IPHASW D HRMM SECON CODA AMPLIT PERI AZIMU VELO AIN AR TRES W  DIS CAZ7
 BAR2 EZ EP        412 59.95                             171   -0.1110 21.9 193 
 BAR2 EZ ES        413 15.27                             171   -0.1910 21.9 193 
 BAR2 EZ I         413 16.59        11.3 0.38            167           21.9 193 
 BRR  HZ EP        413  1.86                             152    0.1910 72.6 299 
 BRR  HN ES        413 19.18                             152    0.8610 72.6 299 
 BRR  HZ I         413 22.40         6.2 0.18            149           72.6 299 
 PTB  HZ EP        413  6.97                             132   -0.44 9  148 259 
 PTB  HE ES        413 28.31                             132   -0.24 9  148 259 
 PTB  HZ I         413 35.48         5.5 0.33            131            148 259 
 SPBC HZ EP        413  8.81                             129   -0.02 9  162 220 
 SPBC HE ES        413 31.02                             129   -0.05 9  162 220 
 SPBC HZ I         413 37.63         8.7 0.13            129            162 220 
 OCA  HZ EP        413  9.45                             130    0.58 9  162 353 
 OCA  HE ES        413 30.29                             130   -0.85 9  162 353 
 OCA  HZ I         413 34.19        13.4 0.22            132            162 353 
 ZAR  HZ EP        413 13.37                             122    0.41 8  205 292 
 ZAR  HN ES        413 38.17                             122   -0.26 8  205 292 
 ZAR  HZ I         413 43.90         6.1 0.32            122            205 292 
 CHI  HZ EP   4    413 14.60                             117   -3.33 0  247 195 
 CHI  HN ES   4    413 47.91                             117    0.64 0  247 195 
 CHI  HZ I         413 53.08         1.7 0.18            118            247 195 
                                                                                
