 2013  114 0014 19.6 L   6.762 -73.204143.4  RSN  4 0.3 1.3LRSN                1
 GAP=228        0.55       5.9     5.9  7.4  0.2329E+02  0.1866E-01 -0.1863E+01E
 Epicentro: VILLANUEVA - SANTANDER                                             3
 ACTION:UPD 13-02-15 09:14 OP:ep   STATUS:               ID:20130114001419 L   I
 2013-01-14-0010-00M.COL___241                                                 6
 STAT SP IPHASW D HRMM SECON CODA AMPLIT PERI AZIMU VELO AIN AR TRES W  DIS CAZ7
 BRR  HZ EP   1    014 40.44                             153    0.10 7 67.9 304 
 BRR  HN ES   1    014 56.23                             153   -0.26 7 67.9 304 
 BRR  HZ I         014 58.41         5.0 0.34            154           67.9 304 
 RUS  HZ EP   1    014 42.93                             144    0.03 7 97.0 172 
 RUS  HN ES   1    015  1.22                             144    0.18 7 97.0 172 
 RUS  HZ I         015  2.41         2.1 0.33            146           97.0 172 
 PTB  HZ EP   1    014 45.37                             133   -0.39 7  141 260 
 PTB  HN ES   1    015  6.05                             133   -0.09 7  141 260 
 PTB  HZ I         015  8.21         2.9 0.32            135            141 260 
 ZAR  HN ES   1    015 16.82                             122    0.50 6  200 294 
                                                                                
