 2017  714 0714 33.9 L   6.808 -73.139145.3  RSN 20 0.5 2.6LRSN                1
 GAP=102        1.08       3.6     2.7  5.1  0.1131E+00  0.3959E+01  0.1379E+01E
 Epicentro: LOS SANTOS - SANTANDER                                             3
 ACTION:UPD 17-08-30 15:32 OP:rebc STATUS:               ID:20170714071433 L   I
 OLDACT:UP  17-07-14 16:03 OP:dnl  STATUS:               ID:20170714070637     3
 OLDACT:UP  17-07-14 16:03 OP:dnl  STATUS:               ID:20170714070637     3
 OLDACT:REG 17-07-14 12:43 OP:dnl  STATUS:               ID:20170714070637     3
 2017-07-14-0707-00M.COL___376                                                 6
 STAT SP IPHASW D HRMM SECON CODA AMPLIT PERI AZIMU VELO AIN AR TRES W  DIS CAZ7
 BAR2 EZ IP     D  714 53.32                             170   -0.1410 24.3 191 
 BAR2 EZ ES        715  8.51                             170   -0.2310 24.3 191 
 BAR2 EZ I         715  9.33       166.5 0.24            168           24.3 191 
 BRR  HZ IP     C  714 55.20                             152    0.2310 71.4 298 
 BRR  HE ES        715 12.16                             152    0.7210 71.4 298 
 BRR  HZ I         715 15.19       129.6 0.40            152           71.4 298 
 PAM  EZ IP     D  714 56.15                             151    0.1910 76.2  40 
 PAM  EN ES        715 12.96                             151   -0.2410 76.2  40 
 PAM  EZ I         715 15.54       126.2 0.58            155           76.2  40 
 RUS  HZ IP     D  714 57.26                             144   -0.3710  101 176 
 RUS  HN ES        715 15.90                             144   -0.2710  101 176 
 RUS  HZ I         715 16.84        41.6 0.22            144            101 176 
 PTB  HZ EP        715  0.18                             132   -0.69 9  149 259 
 PTB  HE ES        715 21.28                             132   -0.66 9  149 259 
 PTB  HZ I         715 25.12        43.0 0.10            132            149 259 
 TAM  HZ IP     D  715  1.62                             131    0.15 9  155 105 
 TAM  HN ES        715 23.12                             131    0.13 9  155 105 
 TAM  HZ I         715 24.13        23.0 0.44            134            155 105 
 SPBC HZ EP        715  2.33                             129   -0.10 9  164 219 
 SPBC HN ES        715 24.56                             129   -0.16 9  164 219 
 SPBC HZ I         715 31.27        62.7 0.26            129            164 219 
 YPLC HZ IP     D  715  3.69                             127    0.02 9  177 152 
 YPLC HN ES        715 27.52                             127    0.60 9  177 152 
 YPLC HZ I         715 30.21        32.9 0.34            128            177 152 
 ZAR  HZ EP        715  6.16                             122   -0.15 9  204 292 
 ZAR  HE ES        715 32.25                             122    0.63 9  204 292 
 ZAR  HZ I         715 38.11        72.4 0.34            123            204 292 
 NOR  HZ EP        715  9.37                             118   -0.31 8  236 234 
 NOR  HE ES        715 37.28                             118   -0.34 8  236 234 
 NOR  HZ I         715 42.69        42.8 0.50            119            236 234 
 ROSC BZ EP   9    715 13.67                             116    1.59 0  254 211 
 ROSC BN ES        715 44.20                             116    0.72 8  254 211 
 ROSC BZ I         715 47.40        26.7 0.75            117            254 211 
 HEL  HZ EP        715 15.15                             115    1.00 8  273 256 
 HEL  HE ES        715 45.60                             115    0.03 8  273 256 
 HEL  HZ I         715 52.52        30.2 0.48            115            273 256 
 URE  HZ EP        715 14.25                             113   -0.69 7  284 292 
 URE  HE ES   4    715 45.28                             113   -1.71 0  284 292 
 URE  HZ I         715 48.71        30.2 0.20            114            284 292 
 GUY2CHZ EP   4    715 19.02                             112    1.45 0  302 235 
 GUY2CHE ES        715 52.89                             112    1.22 7  302 235 
 GUY2CHZ I         715 58.40        26.9 0.36                           302 235 
 PTGC HZ EP   4    715 16.51                             111   -1.26 0  309 159 
 PTGC HN ES   4    715 49.61                             111   -2.40 0  309 159 
 PTGC HZ I         715 52.32        17.8 0.44            113            309 159 
 CBOC HZ EP   4    715 22.20                             110    1.33 0  335 252 
 CBOC HN ES        715 57.88                             110    0.35 7  335 252 
 CBOC HZ I         715 59.00         9.0 0.44            111            335 252 
 DBB  EZ EP        715 21.07                             109   -0.32 7  340 274 
 DBB  EN ES   4    715 56.44                             109   -2.02 0  340 274 
 DBB  EZ I         716  1.89        18.5 0.22            110            340 274 
 ORTC HZ EP   2    715 28.21                             106    0.31 3  397 216 
 ORTC HN ES   4    716 12.60                             106    2.55 0  397 216 
 ORTC HZ I         716 16.41        12.0 0.50            107            397 216 
 PAL  HZ EP        715 29.34                             106    0.21 6  407 239 
 PAL  HN ES        716 11.93                             106   -0.31 6  407 239 
 PAL  HZ I         716 17.19         6.4 0.26            107            407 239 
 SJC  HZ EP   4    715 27.45                             106   -1.92 0  409 327 
 SJC  HN ES   4    716  9.14                             106   -3.52 0  409 327 
 SJC  HZ I         716 13.27        12.2 0.50            107            409 327 
                                                                                
