 2017  914 0758  7.3 L   6.853 -73.099152.6  RSN 14 0.5 1.5LRSN                1
 GAP=114        0.94       3.0     3.7  5.0  0.1072E+01  0.5043E+01  0.2967E+01E
 Epicentro: LOS SANTOS - SANTANDER                                             3
 ACTION:UPD 17-10-05 19:12 OP:rebc STATUS:               ID:20170914075807 L   I
 OLDACT:UP  17-09-14 20:24 OP:and  STATUS:               ID:20170914074745d    3
 OLDACT:UP  17-09-14 20:23 OP:and  STATUS:               ID:20170914074745d    3
 OLDACT:UP  17-09-14 20:23 OP:and  STATUS:               ID:20170914074745d    3
 OLDACT:DUP 17-09-14 19:01 OP:leo  STATUS:               ID:20170914074745d    3
 OLDACT:UP  17-09-14 18:55 OP:leo  STATUS:               ID:20170914074744d    3
 OLDACT:DUP 17-09-14 18:16 OP:leo  STATUS:               ID:20170914074744d    3
 OLDACT:UP  17-09-14 18:04 OP:leo  STATUS:               ID:20170914074743     3
 OLDACT:UP  17-09-14 18:01 OP:leo  STATUS:               ID:20170914074743     3
 OLDACT:UP  17-09-14 18:00 OP:leo  STATUS:               ID:20170914074743     3
 OLDACT:UP  17-09-14 17:59 OP:leo  STATUS:               ID:20170914074743     3
 OLDACT:UP  17-09-14 17:58 OP:leo  STATUS:               ID:20170914074743     3
 OLDACT:UP  17-09-14 17:58 OP:leo  STATUS:               ID:20170914074743     3
 OLDACT:UP  17-09-14 17:52 OP:leo  STATUS:               ID:20170914074743     3
 OLDACT:UP  17-09-14 17:52 OP:leo  STATUS:               ID:20170914074743     3
 OLDACT:REG 17-09-14 11:37 OP:dhb  STATUS:               ID:20170914074743     3
 2017-09-14-0748-00M.COL___410                                                 6
 STAT SP IPHASW D HRMM SECON CODA AMPLIT PERI AZIMU VELO AIN AR TRES W  DIS CAZ7
 BAR2 EZ IP     C  758 27.68                             169   -0.2410 30.3 198 
 BAR2 EZ ES        758 43.75                             169   -0.2510 30.3 198 
 BAR2 EZ I         758 46.77         6.3 0.48            166           30.3 198 
 PAM  EZ IP     C  758 30.38                             154    0.5510 69.5  39 
 PAM  EN ES        758 47.49                             154    0.0910 69.5  39 
 PAM  EZ I         758 48.63         3.4 0.20            159           69.5  39 
 BRR  HZ EP        758 29.66                             153    0.3310 73.4 293 
 BRR  HN ES        758 46.99                             153    0.4910 73.4 293 
 BRR  HZ I         758 53.30         3.8 0.16            154           73.4 293 
 RUS  HZ EP        758 32.15                             144    0.0010  106 179 
 RUS  HN ES   1    758 50.78                             144   -0.73 7  106 179 
 RUS  HZ I         758 53.74         1.2 0.34            143            106 179 
 SPBC HZ EP        758 36.76                             129   -0.32 9  171 219 
 SPBC HN ES        758 59.60                             129   -0.70 9  171 219 
 SPBC HZ I         759  5.36         5.7 0.32            130            171 219 
 YPLC HZ IP     C  758 37.90                             128    0.01 9  180 154 
 YPLC HN ES        759  1.77                             128    0.04 9  180 154 
 YPLC HZ I         759  9.97         2.4 0.44            129            180 154 
 ZAR  HZ EP        758 40.53                             123    0.03 8  207 290 
 ZAR  HN ES        759  6.50                             123    0.13 8  207 290 
 ZAR  HZ I         759 11.73         4.7 0.26            125            207 290 
 NOR  HZ EP        758 43.58                             119   -0.68 8  242 234 
 NOR  HN ES        759 13.02                             119   -0.06 8  242 234 
 NOR  HZ I         759 15.95         2.3 0.14            120            242 234 
 CHI  HZ EP        758 46.20                             118    0.04 8  256 196 
 CHI  HN ES        759 17.18                             118    0.72 8  256 196 
 HEL  HZ EP        758 48.85                             115    0.25 7  279 255 
 HEL  HN ES   4    759 22.86                             115    2.05 0  279 255 
 HEL  HZ I         759 28.87         2.2 0.44            117            279 255 
 GUY2CHZ EP   3    758 50.64                             113   -1.47 2  309 234 
 GUY2CHN ES   3    759 28.50                             113    1.46 2  309 234 
 GUY2CHZ I         759 34.67         2.5 0.48                           309 234 
 PTGC HZ EP   9    758 50.48                             112   -1.42 0  312 160 
 PTGC HN ES        759 24.70                             113   -0.55 7  312 160 
 PTGC HZ I         759 37.79         2.0 0.42            114            312 160 
 PRA  HZ EP   2    759  2.58                             107    0.61 3  400 210 
 PRA  HN ES        759 45.21                             107    0.60 6  400 210 
 PRA  HZ I         759 50.75         1.1 0.20            108            400 210 
 SJC  HZ EP        759  2.02                             107   -0.86 6  407 326 
 SJC  HN ES   4    759 42.09                             107   -4.12 0  407 326 
 SJC  HZ I         759 47.24         0.8 0.44            109            407 326 
                                                                                
