 2014 1014 0850 33.3 L   6.807 -73.165155.3  RSN  7 0.4 1.6LRSN                1
 GAP=134        0.97       3.8     4.9  9.2  0.2610E-01  0.1323E+02 -0.5367E+01E
 Epicentro: LOS SANTOS - SANTANDER                                             3
 ACTION:UPD 14-11-29 23:49 OP:nd   STATUS:               ID:20141014085033 L   I
 OLDACT:UP  14-10-14 17:17 OP:mh   STATUS:               ID:20141014084742     3
 OLDACT:UP  14-10-14 17:17 OP:mh   STATUS:               ID:20141014084742     3
 OLDACT:REG 14-10-14 12:58 OP:mh   STATUS:               ID:20141014084742     3
 2014-10-14-0847-42M.COL___280                                                 6
 STAT SP IPHASW D HRMM SECON CODA AMPLIT PERI AZIMU VELO AIN AR TRES W  DIS CAZ7
 PAM  SZ EP   1    850 57.37                             152    0.74 7 78.2  41 
 PAM  SN ES        851 15.05                             152    0.2610 78.2  41 
 PAM  SZ I         851 18.45         3.2 0.56            155           78.2  41 
 RUS  HZ EP        850 57.65                             145   -0.4610  102 175 
 RUS  HN ES        851 17.42                             145   -0.0110  102 175 
 RUS  HZ I         851 18.92         3.6 0.43            151            102 175 
 PTB  HZ EP   1    851  0.87                             134   -0.06 7  146 258 
 PTB  HN ES        851 22.38                             134   -0.07 9  146 258 
 PTB  HZ I         851 25.76         5.5 0.16            137            146 258 
 OCA  HN ES        851 24.24                             132   -0.68 9  159 354 
 OCA  HZ I         851 30.69         4.6 0.09            134            159 354 
 ZAR  HZ EP   4    851  8.83                             125    2.64 0  202 292 
 ZAR  HN ES        851 32.39                             125    0.57 9  202 292 
 ZAR  HZ I         851 38.72         5.8 0.57            127            202 292 
 SML  HZ EP        851 10.57                             120    0.22 8  242 336 
 SML  HN ES   1    851 38.91                             120   -0.30 6  242 336 
 GUY2CHZ EP   4    851 19.89                             114    2.63 0  300 234 
 GUY2CHN ES   4    851 56.98                             114    5.46 0  300 234 
 GUY2CHZ I         852  3.17         1.8 0.36                           300 234 
                                                                                
