 2011  114 0910 54.8 L   6.829 -73.136139.7  RSN 15 0.5 2.5LRSN                1
 GAP=104        1.01       3.8     5.9  7.3 -0.1086E+02  0.1240E+02 -0.1400E+01E
 Epicentro: LOS SANTOS - SANTANDER                                             3
 ACTION:UP  11-02-08 08:40 OP:pat  STATUS:               ID:20110114091054 L   I
 2011-01-14-0909-40S.COL___136                                                 6
 STAT SP IPHASW D HRMM SECON CODA AMPLIT PERI AZIMU VELO SNR AR TRES W  DIS CAZ7
 BTL  SZ EP        911 14.12                             172     0.610   18 304 
 BAR2 SZ IP        911 14.01                             169     0.310   27 191 
 BAR2 SZ ES   1    911 28.90                             169     0.3 7   27 191 
 BAR2 SZ I         911 29.96       111.8 0.20                            27 191 
 GIR2 SZ EP   1    911 14.07                             168     0.4 7   28 347 
 RUS  HZ EP   1    911 18.01                             142    -0.2 7  104 177 
 RUS  HN ES   1    911 36.32                             142    -0.1 7  104 177 
 RUS  HZ I         911 37.38        27.3 0.33                           104 177 
 GRA  SZ EP        911 18.86                             137    -0.310  122  17 
 GRA  SZ ES   1    911 37.78                             137    -0.5 7  122  17 
 GRA  SZ I         911 39.52        63.2 0.37                           122  17 
 OCA  SZ EP   1    911 22.56                             129     0.2 7  157 353 
 OCA  SZ ES   1    911 43.51                             129    -0.3 7  157 353 
 OCA  SZ I         911 47.62        66.1 0.24                           157 353 
 YOP  SZ EP   2    911 24.78                             125     0.1 4  181 154 
 YOP  SZ I         911 51.80         9.5 0.34                           181 154 
 NOR  SZ EP        911 30.47                             117     0.0 8  238 234 
 NOR  SN ES   1    911 57.69                             117    -0.6 6  238 234 
 CHI  HZ EP   1    911 32.58                             116     0.1 6  252 195 
 CHI  HN ES   1    912  1.02                             116    -0.9 6  252 195 
 CHI  HZ I         912  8.37        12.4 0.39                           252 195 
 ROSC BE ES   1    912  2.43                             115    -0.3 6  256 211 
 ROSC BZ I         912  9.83        19.9 0.30                           256 211 
 HEL  HZ EP   1    911 35.78                             113     0.9 6  274 255 
 HEL  HN ES   1    912  5.27                             113    -0.9 6  274 255 
 HEL  HZ I         912 14.36        14.4 0.42                           274 255 
 RREF HZ EP   1    911 41.77                             110     0.8 5  325 229 
 RREF HE ES   1    912 17.23                             110     0.2 5  325 229 
 RREF HZ I         912 26.43        12.0 0.35                           325 229 
 DBB  SZ EP   1    911 42.38                             108     0.3 5  340 274 
 SDV  BZ EP        911 43.65                             107    -0.6 6  357  50 
 SJA  SZ EP   2    911 49.45                             105    -0.1 3  403 193 
 SJA  SZ I         912 41.80        16.4 0.20                           403 193 
                                                                                
