 2013  214 0458  2.9 L   6.356 -73.516113.2  RSN  6 0.5 1.9LRSN                1
 GAP=128        1.05       6.6     6.4 15.5 -0.1434E+02  0.5803E+02 -0.4634E+02E
 Epicentro: CONTRATACION - SANTANDER                                           3
 ACTION:UPD 13-03-12 09:32 OP:ep   STATUS:               ID:20130214045802 L   I
 2013-02-14-0450-00M.COL___241                                                 6
 STAT SP IPHASW D HRMM SECON CODA AMPLIT PERI AZIMU VELO AIN AR TRES W  DIS CAZ7
 BAR2 SZ EP        458 19.92                             157    0.4510 45.2  55 
 BAR2 SZ ES   1    458 32.95                             157    0.58 7 45.2  55 
 RUS  HN ES   1    458 34.86                             146   -0.76 7 70.2 137 
 RUS  HZ I         458 38.14        12.1 0.22            155           70.2 137 
 BRR  HN ES   2    458 36.69                             140    0.27 5 85.8 345 
 PTB  HN ES   2    458 38.62                             134   -0.84 5  106 281 
 PTB  HZ I         458 45.03        15.3 0.12            136            106 281 
 OCA  HN ES        458 58.20                             114   -0.48 8  209   6 
 OCA  HZ I         459  4.78        16.6 0.42            117            209   6 
 HEL  HN ES        459  2.21                             112    0.20 8  223 265 
                                                                                
