 2016  714 0535 36.9 L   6.351 -73.484120.0  RSN  7 0.5 1.3LRSN                1
 GAP= 87        1.20       4.7     5.3  8.0  0.5560E+01  0.1514E+02  0.2867E+01E
 Epicentro: CONTRATACION - SANTANDER                                           3
 ACTION:UPD 17-03-29 16:50 OP:lp   STATUS:               ID:20160714053536 L   I
 OLDACT:REG 16-07-14 12:40 OP:dani STATUS:               ID:20160714052759     3
 2016-07-14-0527-59S.COL___322                                                 6
 STAT SP IPHASW D HRMM SECON CODA AMPLIT PERI AZIMU VELO AIN AR TRES W  DIS CAZ7
 BAR2 EZ EP        535 53.87                             160   -0.2110 42.7  51 
 BAR2 EZ ES        536  8.15                             160    0.6610 42.7  51 
 BAR2 EZ I         536  8.99         8.1 0.12            163           42.7  51 
 RUS  HZ EP        535 55.47                             150   -0.2910 67.3 139 
 RUS  HE ES        536  9.99                             150   -0.5010 67.3 139 
 RUS  HZ I         536 12.48         1.6 0.22            156           67.3 139 
 BRR  HZ EP        535 56.34                             142   -0.1110 87.4 343 
 BRR  HN ES        536 12.20                             142    0.4710 87.4 343 
 BRR  HZ I         536 17.64         2.7 0.16            143           87.4 343 
 SPBC HZ EP        535 57.71                             137    0.0410  101 220 
 SPBC HN ES        536 14.25                             137    0.3610  101 220 
 SPBC HZ I         536 17.48         5.2 0.18            140            101 220 
 PTB  HZ EP        535 57.69                             135   -0.6010  110 281 
 PTB  HN ES        536 14.71                             135   -0.2910  110 281 
 PTB  HZ I         536 17.68         5.7 0.14            136            110 281 
 ZAR  HZ EP        536  6.71                             117   -0.35 9  197 310 
 ZAR  HE ES        536 30.73                             117    0.12 9  197 310 
 ZAR  HZ I         536 36.09         5.5 0.38            120            197 310 
 PRA  HZ EP        536 23.71                             105    1.40 7  330 208 
                                                                                
