 2012  314 0650 28.3 L   6.794 -73.164141.6  RSN  6 0.5 1.5LRSN                1
 GAP=134        1.19       7.6     6.5 10.4  0.2066E+01  0.1371E+02 -0.7214E+01E
 ACTION:UP  12-03-31 23:19 OP:EP   STATUS:               ID:20120314065028 L   I
 2012-03-14-0650-00M.COL___202                                                 6
 STAT SP IPHASW D HRMM SECON CODA AMPLIT PERI AZIMU VELO SNR AR TRES W  DIS CAZ7
 BAR2 SZ EP   1    650 47.23                             171    -0.2 7   22 185 
 BAR2 SZ ES   1    651  1.69                             171    -0.6 7   22 185 
 BAR2 SZ I         651  3.68         8.7 0.51                            22 185 
 BRR  HZ EP   1    650 48.99                             152     0.1 7   70 300 
 BRR  HE ES   1    651  5.78                             152     0.8 7   70 300 
 BRR  HZ I         651 10.07        10.0 0.21                            70 300 
 PAM  SZ EP        650 50.10                             150    -0.110   79  40 
 PAM  SN ES   1    651  6.95                             150    -0.3 7   79  40 
 RUS  HZ EP   1    650 51.75                             143     0.2 7  100 175 
 RUS  HE ES   1    651 10.54                             143     0.8 7  100 175 
 RUS  HZ I         651 11.70         4.3 0.25                           100 175 
 PTB  HZ EP   1    650 54.00                             131    -0.7 7  146 259 
 PTB  HN ES   1    651 14.52                             131    -0.8 7  146 259 
 PTB  HZ I         651 18.44         2.8 0.18                           146 259 
 ZAR  HZ EP   1    651  0.82                             122     0.5 6  202 293 
 ZAR  HN ES   1    651 25.64                             122     0.4 6  202 293 
                                                                                
