 2016  214 0708  9.8 L   6.528 -73.576 20.1  RSN  5 0.5 0.8LRSN                1
 GAP=136        1.13       4.0     2.4  6.4 -0.1048E+01 -0.3883E-01 -0.1189E+02E
 Epicentro: EL CARMEN - SANTANDER                                              3
 ACTION:UPD 16-03-04 21:26 OP:rebc STATUS:               ID:20160214070809 L   I
 OLDACT:UP  16-02-14 16:20 OP:ak   STATUS:               ID:20160214065750     3
 OLDACT:REG 16-02-14 14:43 OP:ak   STATUS:               ID:20160214065750     3
 2016-02-14-0657-50M.COL___295                                                 6
 STAT SP IPHASW D HRMM SECON CODA AMPLIT PERI AZIMU VELO AIN AR TRES W  DIS CAZ7
 BAR2 EZ EP        7 8 18.35                             113    0.5210 44.1  81 
 BAR2 EZ ES        7 8 24.01                             113   -0.0710 44.1  81 
 BAR2 EZ I         7 8 24.46         6.7 0.11             47           44.1  81 
 RUS  HZ EP        7 8 24.93                             102    0.2910 89.0 142 
 RUS  HE ES        7 8 35.60                             102   -0.6110 89.0 142 
 RUS  HZ I         7 8 36.88         1.3 0.26             47           89.0 142 
 PTB  HZ EP        7 8 25.53                             100    0.1410 97.3 271 
 PTB  HN ES        7 8 37.06                             100   -0.4710 97.3 271 
 PTB  HZ I         7 8 39.23         8.3 0.16             47           97.3 271 
 SPBC HZ EP   2    7 8 26.93                              99   -0.63 5  111 210 
 SPBC HE ES   1    7 8 42.22                              99    0.82 7  111 210 
 SPBC HZ I         7 8 45.83         3.1 0.13             47            111 210 
 PAM  EZ EP   2    7 8 31.84                              56    1.05 5  132  47 
 PAM  EN ES        7 8 46.80                              56   -0.3510  132  47 
 PAM  EZ I         7 8 48.70         1.0 0.21             47            132  47 
                                                                                
