 2013  514 0324 47.3 L   6.805 -73.141142.4  RSN  7 0.5 1.4LRSN                1
 GAP=183        1.18       4.8     8.1  9.3  0.1309E+02  0.5630E+01 -0.1317E+02E
 Epicentro: LOS SANTOS - SANTANDER                                             3
 ACTION:UPD 13-06-20 09:50 OP:ep   STATUS:               ID:20130514032447 L   I
 2013-05-14-0320-00M.COL___256                                                 6
 STAT SP IPHASW D HRMM SECON CODA AMPLIT PERI AZIMU VELO AIN AR TRES W  DIS CAZ7
 BAR2 SZ EP        325  6.69                             170    0.1410 24.0 191 
 BAR2 SZ ES        325 20.98                             170   -0.5810 24.0 191 
 BAR2 SZ I         325 23.08         8.5 0.28            165           24.0 191 
 BRR  HZ EP        325  8.42                             152    0.3210 71.3 298 
 BRR  HN ES   1    325 25.51                             152    1.19 7 71.3 298 
 BRR  HZ I         325 26.50         3.2 0.14            147           71.3 298 
 RUS  HZ EP        325 10.86                             143    0.0910  101 176 
 RUS  HN ES        325 28.92                             143   -0.1510  101 176 
 RUS  HZ I         325 30.25         2.9 0.28            143            101 176 
 PTB  HZ EP   1    325 14.50                             131    0.44 7  148 259 
 PTB  HN ES   1    325 34.35                             131   -0.57 7  148 259 
 PTB  HZ I         325 37.88         2.5 0.14            128            148 259 
 OCA  HN ES        325 37.54                             129    0.39 9  160 353 
 ZAR  HN ES   1    325 44.75                             121    0.03 6  204 292 
 ZAR  HZ I         325 54.09         2.7 0.20            120            204 292 
 SML  HZ EP        325 23.49                             117   -0.22 8  243 335 
 SML  HN ES        325 51.13                             117   -0.98 8  243 335 
                                                                                
