 2011 1214 0821 32.8 L   6.809 -73.076149.0  RSN 15 0.4 2.4LRSN                1
 GAP=145        0.62       2.8     3.8  4.4 -0.3771E+01  0.3341E+01  0.2359E+01E
 Epicentro: LOS SANTOS - SANTANDER                                             3
 ACTION:UPD 12-07-13 16:16 OP:ep   STATUS:               ID:20111214082132 L   I
 2011-12-14-0820-00M.COL___185                                                 6
 STAT SP IPHASW D HRMM SECON CODA AMPLIT PERI AZIMU VELO AIN AR TRES W  DIS CAZ7
 BAR2 SZ EP        821 52.70                             169   -0.2310 26.6 206 
 BAR2 SZ ES   2    822  8.38                             169   -0.22 5 26.6 206 
 BAR2 SZ I         822  8.80        41.6 0.29                          26.6 206 
 GIR2 SZ EP        821 52.80                             167   -0.1410 32.6 337 
 GIR2 SZ ES   2    822  8.62                             167    0.01 5 32.6 337 
 PAM  SZ EP        821 55.69                             153    0.5910 71.9  35 
 PAM  SN ES   1    822 12.80                             153    0.35 7 71.9  35 
 BRR  HZ EP        821 54.49                             151   -0.2210 77.7 295 
 BRR  HZ I         821 54.76        77.6 0.16                          77.7 295 
 BRR  HN ES   1    822 11.72                             151   -0.05 7 77.7 295 
 RUS  HZ EP        821 56.73                             144   -0.2310  101 180 
 RUS  HN ES   2    822 15.41                             144   -0.37 5  101 180 
 PTB  HN ES   2    822 22.18                             131   -0.39 5  156 259 
 OCA  SZ EP   1    822  1.42                             130    0.00 7  160 350 
 OCA  SZ ES   2    822 23.87                             130    0.15 5  160 350 
 OCA  SZ I         822 27.84        19.5 0.17                           160 350 
 NOR  SZ EP   1    822  9.35                             118   -0.14 6  242 235 
 NOR  SE ES   2    822 38.21                             118    0.13 4  242 235 
 CHI  HZ EP   1    822 11.06                             117    0.01 6  252 197 
 CHI  HN ES   2    822 41.62                             117    0.77 4  252 197 
 CHI  HZ I         822 44.63         9.2 0.56                           252 197 
 ROSC BZ EP   2    822 12.32                             117    0.65 4  258 212 
 ROSC BN ES   2    822 41.46                             117   -0.49 4  258 212 
 HEL  HZ EP   1    822 13.81                             115   -0.26 6  280 256 
 HEL  HE ES   2    822 46.58                             115    0.35 4  280 256 
 HEL  HZ I         822 51.20        10.8 0.31                           280 256 
 GUY  SZ EP   1    822 18.45                             112    0.81 5  310 236 
 GUY  SE ES   2    822 53.27                             112    0.69 3  310 236 
 GUY  SZ I         823  0.44        12.6 0.39                           310 236 
 RREF HZ EP   1    822 19.60                             111   -0.27 5  328 230 
 RREF HE ES   2    822 57.11                             111    0.57 3  328 230 
 RREF HZ I         823  2.30        10.3 0.34                           328 230 
 COD  HZ EP   1    822 20.64                             109   -0.69 5  348 353 
 COD  HZ I         822 52.99        12.7 0.64                           348 353 
 COD  HN ES   2    822 58.99                             109   -0.17 3  348 353 
 TOL  SZ EP   2    822 22.55                             109    0.62 3  350 225 
                                                                                
