 2012  514 0450 37.8 L   6.735 -73.226158.9  RSN  4 0.3 1.4LRSN                1
 GAP=223        0.68       8.5     9.7  8.1  0.5917E+02  0.4464E+01 -0.5078E+01E
 Epicentro: VILLANUEVA - SANTANDER                                             3
 ACTION:UP  12-07-05 12:05 OP:pat  STATUS:               ID:20120514045037 L   I
 2012-05-14-0450-00M.COL___195                                                 6
 STAT SP IPHASW D HRMM SECON CODA AMPLIT PERI AZIMU VELO SNR AR TRES W  DIS CAZ7
 BRR  HZ EP   1    451  0.56                             156     0.4 7   68 308 
 BRR  HZ I         451  0.82         9.8 0.15                            68 308 
 BRR  HN ES   1    451 17.54                             156    -0.1 7   68 308 
 RUS  HZ EP   1    451  2.64                             148     0.2 7   94 170 
 RUS  HN ES   1    451 21.51                             148    -0.2 7   94 170 
 RUS  HZ I         451 22.56         1.6 0.29                            94 170 
 PTB  HZ EP   1    451  5.17                             137     0.2 7  138 261 
 PTB  HN ES   2    451 26.28                             137     0.0 5  138 261 
 ZAR  HZ EP   1    451  9.88                             126    -0.7 6  199 295 
 ZAR  HE ES   2    451 36.60                             126     0.4 4  199 295 
                                                                                
