 2012  514 0354 10.6 L   6.776 -73.162151.2  RSN  6 0.4 1.4LRSN                1
 GAP=136        0.82       5.9     7.8  8.5  0.9641E+01 -0.4339E+01 -0.6780E+01E
 Epicentro: LOS SANTOS - SANTANDER                                             3
 ACTION:UP  12-07-05 12:05 OP:pat  STATUS:               ID:20120514035410 L   I
 2012-05-14-0350-00M.COL___195                                                 6
 STAT SP IPHASW D HRMM SECON CODA AMPLIT PERI AZIMU VELO SNR AR TRES W  DIS CAZ7
 BAR2 SZ EP   1    354 30.83                             172     0.0 7   20 186 
 BAR2 SZ ES   1    354 46.36                             172    -0.3 7   20 186 
 BRR  HZ EP   1    354 32.50                             153     0.1 7   71 301 
 BRR  HZ I         354 32.81        10.9 0.16                            71 301 
 BRR  HE ES   1    354 49.99                             153     0.7 7   71 301 
 PAM  SZ EP   1    354 33.56                             151    -0.1 7   81  39 
 RUS  HZ EP   1    354 35.27                             145     0.5 7   98 175 
 RUS  HN ES   1    354 53.30                             145    -0.3 7   98 175 
 RUS  HZ I         354 54.53         2.1 0.34                            98 175 
 PTB  HZ EP   1    354 37.64                             133    -0.2 7  145 260 
 PTB  HN ES   2    354 58.58                             133    -0.5 5  145 260 
 PTB  HZ I         355  2.69         2.8 0.56                           145 260 
 OCA  HN ES   2    355  1.46                             130    -0.7 5  163 354 
                                                                                
