 2012  914 0823 20.7 L   6.738 -73.172152.1  RSN  6 0.3 1.7LRSN                1
 GAP=177        0.54       5.1     4.8  5.5  0.1365E+02  0.6437E+01  0.3536E+01E
 Epicentro: VILLANUEVA - SANTANDER                                             3
 ACTION:UPD 12-10-22 14:18 OP:ep   STATUS:               ID:20120914082320 L   I
 2012-09-14-0820-00M.COL___227                                                 6
 STAT SP IPHASW D HRMM SECON CODA AMPLIT PERI AZIMU VELO AIN AR TRES W  DIS CAZ7
 BAR2 SZ EP   1    823 40.79                             174   -0.16 7 16.1 184 
 BAR2 SZ ES   1    823 56.72                             174   -0.04 7 16.1 184 
 BAR2 SZ I         823 57.30        10.9 0.20                          16.1 184 
 GIR2 SZ ES   2    823 56.69                             165   -0.67 5 37.8 356 
 BRR  HZ EP   1    823 42.68                             153    0.11 7 72.3 304 
 BRR  HE ES   1    824  0.08                             153    0.43 7 72.3 304 
 BRR  HN I         824  2.47        18.3 0.16                          72.3 304 
 RUS  HZ EP   1    823 44.86                             147    0.26 7 94.0 174 
 RUS  HN ES   1    824  3.31                             147    0.05 7 94.0 174 
 RUS  HZ I         824  4.41         2.6 0.34                          94.0 174 
 PTB  HZ EP   1    823 47.58                             134   -0.22 7  144 261 
 PTB  HN ES   1    824  8.70                             134   -0.26 7  144 261 
 PTB  HN I         824 14.08         6.9 0.44                           144 261 
 ZAR  HN ES   1    824 19.26                             124    0.09 6  204 294 
 ZAR  HZ I         824 25.06         3.2 0.28                           204 294 
                                                                                
