 2014  614 0457 12.6 L   6.051 -73.773110.1  RSN  6 0.4 1.6LRSN                1
 GAP=158        0.85       4.7     5.3  6.9 -0.7448E+01 -0.3311E+01 -0.1326E+01E
 Epicentro: BOLIVAR - SANTANDER                                                3
 ACTION:UPD 14-07-01 22:53 OP:nd   STATUS:               ID:20140614045712 L   I
 OLDACT:UP  14-06-14 17:35 OP:mh   STATUS:               ID:20140614044819d    3
 OLDACT:UP  14-06-14 17:35 OP:mh   STATUS:               ID:20140614044819d    3
 OLDACT:UP  14-06-14 17:34 OP:mh   STATUS:               ID:20140614044819d    3
 OLDACT:DUP 14-06-14 17:34 OP:mh   STATUS:               ID:20140614044819d    3
 2014-06-14-0448-18M.COL___259                                                 6
 STAT SP IPHASW D HRMM SECON CODA AMPLIT PERI AZIMU VELO AIN AR TRES W  DIS CAZ7
 SPBC HZ EP        457 28.83                             151   -0.3010 55.2 217 
 SPBC HN ES        457 42.35                             151    0.3310 55.2 217 
 SPBC HZ I         457 45.30         4.7 0.25            158           55.2 217 
 BAR2 SZ EP        457 31.76                             138    0.0710 88.6  48 
 BAR2 SZ I         457 48.53        26.3 0.14            128           88.6  48 
 PTB  HZ EP        457 31.26                             137   -0.4810 92.9 306 
 PTB  HN ES   1    457 46.64                             137   -0.03 7 92.9 306 
 NOR  HZ EP        457 35.83                             126    0.3510  133 246 
 NOR  HE ES        457 53.02                             126   -0.2910  133 246 
 HEL  HZ EP        457 43.11                             115    0.65 9  195 275 
 HEL  HN ES   4    458  7.89                             115    2.15 0  195 275 
 HEL  HZ I         458 10.96         3.6 0.42            115            195 275 
 PRA  HZ EP   1    457 52.44                             105   -0.11 6  286 206 
 PRA  HN ES   1    458 23.37                             105   -0.34 6  286 206 
 PRA  HZ I         458 27.00         1.6 0.30            104            286 206 
                                                                                
