 2013  614 0045 15.3 L   6.357 -73.573112.5  RSN 14 0.5 2.4LRSN                1
 GAP= 64        1.11       3.0     3.1  6.0  0.4909E+00  0.3691E+01  0.1196E+01E
 Epicentro: SANTA HELENA DEL OPON - SANTANDER                                  3
 ACTION:UPD 14-01-08 09:54 OP:ep   STATUS:               ID:20130614004515 L   I
 OLDACT:UP  13-06-14 09:08 OP:cam  STATUS:               ID:20130614003959     3
 OLDACT:REG 13-06-14 07:33 OP:cam  STATUS:               ID:20130614003959     3
 2013-06-14-0039-59M.COL___261                                                 6
 STAT SP IPHASW D HRMM SECON CODA AMPLIT PERI AZIMU VELO AIN AR TRES W  DIS CAZ7
 BAR2 SZ IP     C  045 32.10                             154    0.0810 50.4  59 
 BAR2 SZ ES        045 45.39                             154    0.3110 50.4  59 
 BAR2 SZ I         045 45.94        90.2 0.17            159           50.4  59 
 RUS  HZ EP        045 33.54                             144   -0.3610 74.7 133 
 RUS  HN ES        045 48.36                             144   -0.0710 74.7 133 
 RUS  HZ I         045 48.97        33.9 0.20            148           74.7 133 
 BRR  HZ EP        045 33.78                             140   -0.1510 84.3 350 
 BRR  HN ES        045 48.77                             140    0.3110 84.3 350 
 BRR  HZ I         045 55.98        49.1 0.14            142           84.3 350 
 GIR2 SZ EP     C  045 34.49                             138   -0.1010 90.2  28 
 PTB  HZ IP     D  045 34.56                             135   -0.6510 99.7 282 
 PTB  HZ I         045 34.69        61.9 0.20            135           99.7 282 
 PTB  HN ES        045 49.95                             135   -0.8010 99.7 282 
 NOR  HZ EP        045 41.68                             119   -0.28 9  168 239 
 NOR  HN ES        046  3.07                             119    0.31 9  168 239 
 NOR  HZ I         046  7.80        31.7 0.28            120            168 239 
 YOP  SZ EP        045 42.06                             119   -0.07 9  169 131 
 YOP  SN ES   1    046  3.79                             119    0.73 7  169 131 
 YOP  SZ I         046  4.59        70.3 0.28            122            169 131 
 ROSC BZ EP   4    045 46.40                             117    1.97 0  187 206 
 CHI  HZ EP   1    045 44.95                             116   -0.03 7  192 185 
 CHI  HN ES   1    046  9.02                             116    0.88 7  192 185 
 CHI  HZ I         046 12.39         7.0 0.30            118            192 185 
 TAM  HZ EP        045 44.34                             115   -0.77 9  197  87 
 OCA  HN ES        046 11.23                             113    0.11 8  210   8 
 HEL  HZ EP        045 48.66                             113    0.92 8  217 265 
 HEL  HN ES   1    046 13.39                             113    0.34 6  217 265 
 HEL  HZ I         046 19.55        21.7 0.26            114            217 265 
 SML  HZ EP   1    045 54.12                             107    0.12 6  276 349 
 SML  HE ES        046 24.97                             107    0.77 7  276 349 
 SML  HZ I         046 29.05        17.5 0.22            109            276 349 
 DBB  SZ EP        045 57.04                             105    0.02 7  300 284 
 DBB  SZ ES   4    046 31.17                             105    1.61 0  300 284 
 DBB  SZ I         046 32.83        32.1 0.23            106            300 284 
 PRA  HZ EP   4    046  1.54                             103    1.49 0  327 207 
 PRA  HN ES   4    046 36.49                             103    1.53 0  327 207 
 PRA  HZ I         046 42.99         8.2 0.34            105            327 207 
                                                                                
