 2012  614 0902 26.2 L   6.815 -73.155140.5  RSN  8 0.4 2.0LRSN                1
 GAP=135        0.68       3.0     3.8  6.2 -0.1455E+01  0.9934E+01 -0.1630E+01E
 Epicentro: LOS SANTOS - SANTANDER                                             3
 ACTION:UPD 12-08-06 17:49 OP:ep   STATUS:               ID:20120614090226 L   I
 2012-06-14-0900-00M.COL___201                                                 6
 STAT SP IPHASW D HRMM SECON CODA AMPLIT PERI AZIMU VELO AIN AR TRES W  DIS CAZ7
 BAR2 SZ EP   1    9 2 45.16                             170   -0.12 7 24.8 187 
 BAR2 SZ ES   1    9 2 59.95                             170   -0.17 7 24.8 187 
 BAR2 SZ I         9 3  1.09        27.9 0.32                          24.8 187 
 PAM  SZ EP   1    9 2 48.01                             150    0.14 7 76.8  41 
 PAM  SN ES   1    9 3  4.94                             150    0.20 7 76.8  41 
 RUS  HZ EP   1    9 2 49.22                             142   -0.39 7  102 176 
 RUS  HE ES   1    9 3  8.20                             142    0.37 7  102 176 
 PTB  HZ EP   1    9 2 51.95                             131   -0.77 7  147 258 
 PTB  HN ES   1    9 3 13.06                             131   -0.31 7  147 258 
 PTB  HZ I         9 3 15.86         8.1 0.13                           147 258 
 OCA  HZ EP   1    9 2 53.69                             129   -0.30 7  159 353 
 OCA  HN ES   1    9 3 15.62                             129    0.00 7  159 353 
 OCA  HZ I         9 3 18.91        26.0 0.20                           159 353 
 ZAR  HZ EP   1    9 2 58.84                             121    0.66 6  202 292 
 ZAR  HE ES   1    9 3 23.36                             121    0.26 6  202 292 
 ZAR  HZ I         9 3 31.19        12.9 0.43                           202 292 
 CHI  HN ES   1    9 3 33.36                             116    0.27 6  250 195 
 CHI  HZ I         9 3 35.91         3.1 0.31                           250 195 
 HEL  HZ EP   1    9 3  6.53                             114    0.41 6  271 255 
 HEL  HE ES   1    9 3 37.40                             114    0.17 6  271 255 
 HEL  HZ I         9 3 43.73         7.0 0.47                           271 255 
                                                                                
