 2016  414 0419 52.3 L   6.847 -73.139150.3  RSN  5 0.5 1.5LRSN                1
 GAP=145        1.18       7.0     7.3  9.4 -0.2420E+02  0.2206E+02 -0.6078E+01E
 Epicentro: LOS SANTOS - SANTANDER                                             3
 OLDACT:REG 16-04-14 12:20 OP:mh   STATUS:               ID:20160414041746     3
 OLDACT:UP  16-04-14 17:15 OP:mh   STATUS:               ID:20160414041746     3
 OLDACT:UP  16-04-14 17:15 OP:mh   STATUS:               ID:20160414041746     3
 OLDACT:UP  16-04-14 17:15 OP:mh   STATUS:               ID:20160414041746     3
 OLDACT:UP  16-04-14 17:15 OP:mh   STATUS:               ID:20160414041746     3
 OLDACT:UP  16-04-14 17:02 OP:mh   STATUS:               ID:20160414041746     3
 OLDACT:UP  16-04-14 16:46 OP:dani STATUS:               ID:20160414041746     3
 ACTION:UPD 16-05-05 14:21 OP:rebc STATUS:               ID:20160414041952 L   I
 OLDACT:UP  16-04-14 17:26 OP:mh   STATUS:               ID:20160414041746     3
 OLDACT:UP  16-04-14 17:17 OP:mh   STATUS:               ID:20160414041746     3
 OLDACT:UP  16-04-14 17:16 OP:mh   STATUS:               ID:20160414041746     3
 OLDACT:UP  16-04-14 17:15 OP:mh   STATUS:               ID:20160414041746     3
 2016-04-14-0417-46M.COL___322                                                 6
 STAT SP IPHASW D HRMM SECON CODA AMPLIT PERI AZIMU VELO AIN AR TRES W  DIS CAZ7
 BAR2 EZ EP        420 12.99                             169    0.3510 28.6 190 
 BAR2 EZ ES        420 27.94                             169   -0.5210 28.6 190 
 BAR2 EZ I         420 30.48         6.1 0.20            170           28.6 190 
 PAM  EZ EP        420 13.97                             153   -0.8210 72.9  42 
 PAM  EN ES        420 33.07                             153    0.7710 72.9  42 
 PAM  EZ I         420 35.24         7.0 0.43            156           72.9  42 
 RUS  HZ EP   1    420 16.81                             143   -0.10 7  106 177 
 RUS  HN ES        420 35.94                             143   -0.1410  106 177 
 RUS  HZ I         420 37.32         1.7 0.09            148            106 177 
 PTB  HZ EP        420 19.86                             133    0.01 9  150 257 
 PTB  HN ES        420 41.09                             133   -0.22 9  150 257 
 PTB  HZ I         420 47.06         6.6 0.08            133            150 257 
 SPBC HZ EP        420 21.94                             129    0.32 9  168 218 
 SPBC HN ES        420 44.87                             129    0.41 9  168 218 
 SPBC HZ I         420 47.37         4.9 0.13            132            168 218 
                                                                                
