 2015  714 0230 36.8 L   6.820 -73.120144.4  RSN 11 0.3 1.9LRSN                1
 GAP=139        0.73       2.3     3.9  5.2 -0.1291E+01  0.1014E+02  0.3422E+00E
 Epicentro: LOS SANTOS - SANTANDER                                             3
 ACTION:UPD 15-09-08 21:48 OP:cam  STATUS:               ID:20150714023036 L   I
 OLDACT:DUP 15-07-14 17:41 OP:drio STATUS:               ID:20150714022750d    3
 2015-07-14-0227-49M.COL___340                                                 6
 STAT SP IPHASW D HRMM SECON CODA AMPLIT PERI AZIMU VELO AIN AR TRES W  DIS CAZ7
 BAR2 EZ ES   1    231 11.98                             169    0.45 7 26.1 195 
 BAR2 EZ I         231 12.46        11.4 0.12            170           26.1 195 
 PAM  EZ EP        230 59.12                             152    0.4810 73.9  39 
 PAM  EN ES        231 15.93                             152    0.2310 73.9  39 
 PAM  EZ I         231 18.31        10.5 0.42            154           73.9  39 
 RUS  HZ EP        231  0.21                             143   -0.3310  103 178 
 RUS  HE ES        231 18.68                             143   -0.3910  103 178 
 RUS  HZ I         231 20.12         5.1 0.28            145            103 178 
 OCA  HZ EP        231  4.87                             130    0.06 9  158 352 
 OCA  HN ES        231 26.16                             130   -0.52 9  158 352 
 OCA  HZ I         231 30.43        17.8 0.34            131            158 352 
 ZAR  HN ES        231 34.81                             122    0.11 8  206 291 
 ZAR  HZ I         231 39.72         9.3 0.44            122            206 291 
 NOR  HZ EP        231 12.97                             118    0.17 8  238 234 
 NOR  HE ES   1    231 40.52                             118   -0.39 6  238 234 
 NOR  HZ I         231 42.25         6.2 0.20            119            238 234 
 SML  HZ EP   1    231 13.04                             117   -0.20 6  243 334 
 SML  HE ES   1    231 41.61                             117   -0.07 6  243 334 
 SML  HZ I         231 44.77         7.6 0.22            118            243 334 
 HEL  HZ EP   1    231 16.92                             114   -0.36 6  275 256 
 GUY2CHZ EP        231 20.87                             112    0.15 7  305 235 
 GUY2CHN ES   1    231 55.50                             112    0.50 5  305 235 
 GUY2CHZ I         232  2.46         2.6 0.52                           305 235 
 PRA  HZ EP        231 30.56                             106   -0.07 6  395 210 
 PRA  HN ES   1    232 13.19                             106    0.55 4  395 210 
 PRA  HZ I         232 18.81         4.7 0.26            107            395 210 
 SJC  HZ EP   4    231 30.85                             105   -1.41 0  409 326 
 SJC  HN ES   4    232 13.84                             105   -1.70 0  409 326 
 SJC  HZ I         232 16.08         1.4 0.44            106            409 326 
                                                                                
