 2010  314 0111 49.0 L   6.822 -73.023148.5  RSN 11 0.3 2.3LRSN                1
 GAP=195        0.59       3.1     6.4  4.5  0.1068E+01  0.7273E+01  0.2474E+01E
 Epicentro: CEPITA - SANTANDER                                                 3
 ACTION:UP  10-08-24 09:53 OP:vdl  STATUS:               ID:20100314011149 L   I
 2010-03-14-0108-37S.COL___095                                                 6
 STAT SP IPHASW D HRMM SECON CODA AMPLIT PERI AZIMU VELO SNR AR TRES W  DIS CAZ7
 BAR2 SZ IP        112  9.19                             168     0.110   31 215 
 BAR2 SZ ES   1    112 24.46                             168    -0.3 7   31 215 
 BRR  HZ IP        112 11.15                             149     0.110   82 293 
 BRR  HE ES   1    112 28.37                             149     0.1 7   82 293 
 BRR  HZ I         112 30.01        26.8 0.13                            82 293 
 RUS  HZ EP   1    112 13.13                             144     0.0 7  103 184 
 RUS  HN ES   1    112 32.16                             144     0.2 7  103 184 
 RUS  HZ I         112 33.55        19.6 0.47                           103 184 
 OCA  SZ EP   1    112 17.67                             130     0.2 7  160 348 
 OCA  SZ ES   2    112 39.23                             130    -0.5 5  160 348 
 OCA  SZ I         112 44.24        26.1 0.19                           160 348 
 CHI  HZ EP   1    112 27.20                             117    -0.3 6  255 198 
 CHI  HN ES   3    112 57.07                             117    -0.4 2  255 198 
 CHI  HZ I         113  4.68         8.1 0.56                           255 198 
 ROSC BZ EP   2    112 28.72                             116     0.5 4  262 213 
 ROSC BZ I         113  5.01         9.4 0.36                           262 213 
 HEL  HZ EP   2    112 30.51                             114    -0.3 4  286 256 
 HEL  HZ I         113  7.37         9.0 0.28                           286 256 
 RREF BZ EP   1    112 36.89                             110     0.3 5  334 231 
 RREF BN ES   2    113 14.08                             110     0.4 3  334 231 
 RREF BZ I         113 20.13        10.0 0.18                           334 231 
 DBB  SZ EP   2    112 37.17                             109    -0.9 3  353 274 
 TOL  SZ EP   1    112 39.08                             109     0.5 5  355 226 
 PRA  HZ EP   1    112 42.81                             106    -0.8 4  401 211 
 PRA  HE ES   1    113 25.96                             106    -0.3 4  401 211 
 PRA  HZ I         113 30.40         7.3 0.21                           401 211 
                                                                                
