 2012  414 0419 32.8 L   6.750 -73.163143.6  RSN  8 0.4 1.7LRSN                1
 GAP=137        1.00       6.0     5.5  8.9 -0.2139E+01  0.1382E+02  0.6250E+01E
 Epicentro: LOS SANTOS - SANTANDER                                             3
 ACTION:UPD 12-07-05 11:53 OP:tino STATUS:               ID:20120414041932 L   I
 2012-04-14-0417-59S.COL___189                                                 6
 STAT SP IPHASW D HRMM SECON CODA AMPLIT PERI AZIMU VELO AIN AR TRES W  DIS CAZ7
 BAR2 SZ EP   1    419 51.90                             173    -0.1 7   18 187 
 BAR2 SZ ES   1    420  6.86                             173    -0.2 7   18 187 
 BAR2 SZ I         420  7.94        11.5 0.17                            18 187 
 BRR  HZ EP   1    419 54.13                             152     0.4 7   72 303 
 BRR  HZ I         419 56.88         8.9 0.14                            72 303 
 BRR  HE ES   1    420 10.99                             152     0.9 7   72 303 
 PAM  SZ EP   1    419 55.03                             149    -0.1 7   83  38 
 PAM  SE ES   1    420 12.16                             149    -0.3 7   83  38 
 PAM  SZ I         420 14.02         5.2 0.80                            83  38 
 RUS  HZ EP   1    419 55.82                             145    -0.1 7   95 175 
 RUS  HN ES   1    420 14.12                             145     0.2 7   95 175 
 RUS  HZ I         420 15.89         7.3 0.25                            95 175 
 PTB  HZ EP   1    419 58.99                             132    -0.3 7  145 261 
 PTB  HN ES   1    420 19.66                             132    -0.3 7  145 261 
 PTB  HZ I         420 22.15         5.1 0.17                           145 261 
 ZAR  HN ES   1    420 29.84                             122    -0.5 6  204 294 
 ZAR  HZ I         420 37.26         4.5 0.13                           204 294 
 NOR  SN ES   1    420 34.90                             119    -0.3 6  230 235 
 GUY  SZ EP   1    420 16.97                             112     1.0 5  299 236 
 GUY  SZ I         420 59.23         4.0 0.39                           299 236 
                                                                                
