 2013  814 0902 50.7 L   6.771 -73.161152.0  RSN  6 0.2 1.7LRSN                1
 GAP=181        0.60       2.9     3.5  4.5  0.2749E+01  0.3040E+01  0.2265E+01E
 Epicentro: LOS SANTOS - SANTANDER                                             3
 ACTION:UPD 14-01-14 09:02 OP:ep   STATUS:               ID:20130814085837 L   I
 OLDACT:UP  13-08-14 15:40 OP:cam  STATUS:               ID:20130814085837 L   3
 OLDACT:UPD 13-08-14 12:02 OP:stll STATUS:               ID:20130814085837 L   3
 2013-08-14-0858-37M.COL___230                                                 6
 STAT SP IPHASW D HRMM SECON CODA AMPLIT PERI AZIMU VELO AIN AR TRES W  DIS CAZ7
 GIR2 SZ EP   1    9 3 11.01                             167   -0.14 7 34.2 354 
 GIR2 SZ ES        9 3 26.89                             167   -0.2410 34.2 354 
 BRR  HZ EP        9 3 12.54                             153    0.0510 71.4 301 
 BRR  HN ES        9 3 29.95                             153    0.4310 71.4 301 
 BRR  HZ I         9 3 32.70         7.4 0.36            151           71.4 301 
 RUS  HZ EP        9 3 15.00                             146    0.1910 97.5 175 
 RUS  HN ES        9 3 33.48                             146   -0.1710 97.5 175 
 RUS  HZ I         9 3 33.99         3.4 0.32            147           97.5 175 
 PTB  HZ EP   1    9 3 17.72                             134   -0.22 7  146 260 
 PTB  HN ES        9 3 38.91                             134   -0.31 9  146 260 
 PTB  HZ I         9 3 40.68         8.4 0.16            132            146 260 
 SPBC HZ EP        9 3 19.58                             131    0.27 9  160 219 
 SPBC HN ES        9 3 41.74                             131    0.08 9  160 219 
 SPBC HZ I         9 3 44.63         5.5 0.10            131            160 219 
 ZAR  HZ EP   1    9 3 23.17                             124   -0.31 6  204 293 
 ZAR  HE ES        9 3 49.14                             124    0.05 9  204 293 
 ZAR  HZ I         9 3 55.69         7.3 0.28            123            204 293 
                                                                                
