 2012 1014 0535 31.6 L   5.953 -73.687114.0  RSN  4 0.2 1.9LRSN                1
 GAP=263        0.43       9.6    14.1 13.5  0.1135E+03  0.1614E+03  0.1036E+03E
 Epicentro: VELEZ - SANTANDER                                                  3
 ACTION:UPD 12-11-22 17:03 OP:ep   STATUS:               ID:20121014053531 L   I
 2012-10-14-0530-00M.COL___231                                                 6
 STAT SP IPHASW D HRMM SECON CODA AMPLIT PERI AZIMU VELO AIN AR TRES W  DIS CAZ7
 RUS  HZ EP   2    535 50.05                             149    0.17 5 67.2  96 
 RUS  HN ES   3    536  4.26                             149    0.14 2 67.2  96 
 BAR2 SZ EP        535 51.29                             140    0.0910 90.1  38 
 BAR2 SZ ES   1    536  6.27                             140   -0.19 7 90.1  38 
 BAR2 SZ I         536  7.72        34.0 0.34                          90.1  38 
 BRR  HZ EP        535 54.00                             129   -0.2110  128 359 
 BRR  HZ I         535 54.48         7.3 0.26                           128 359 
 BRR  HN ES   1    536 12.08                             129    0.26 7  128 359 
 PAM  SZ EP   3    536  1.48                             118    0.38 2  188  35 
                                                                                
