 2016  314 0206 21.7 L   6.813 -73.151138.4  RSN 22 0.4 2.4LRSN                1
 GAP= 70        0.63       2.1     2.4  4.1 -0.1044E+01  0.3618E+01  0.2251E+00E
 Epicentro: LOS SANTOS - SANTANDER                                             3
 ACTION:UPD 16-05-13 21:24 OP:cam  STATUS:               ID:20160314020621 L   I
 OLDACT:UP  16-03-28 16:05 OP:cam  STATUS:               ID:20160314020621 L   3
 OLDACT:UP  16-03-28 15:55 OP:Mher STATUS:               ID:20160314020621 L   3
 OLDACT:REG 16-03-14 12:40 OP:dnl  STATUS:               ID:20160314015750     3
 2016-03-14-0157-50M.COL___295                                                 6
 STAT SP IPHASW D HRMM SECON CODA AMPLIT PERI AZIMU VELO AIN AR TRES W  DIS CAZ7
 BAR2 EZ EP        2 6 40.60                             169    0.1210 24.6 188 
 BAR2 EZ ES   2    2 6 54.64                             169   -0.48 5 24.6 188 
 BAR2 EZ I         2 6 56.58        48.1 0.12            166           24.6 188 
 PAM  EZ IP     D  2 6 43.44                             150    0.3410 76.6  41 
 PAM  EN ES        2 7  0.04                             150    0.2610 76.6  41 
 PAM  EZ I         2 7  2.70        39.4 0.20            155           76.6  41 
 RUS  HZ EP        2 6 44.61                             142   -0.2410  102 176 
 RUS  HN ES        2 7  2.93                             142    0.0310  102 176 
 RUS  HZ I         2 7  4.49        22.3 0.28            142            102 176 
 PTB  HZ EP        2 6 47.51                             130   -0.56 9  148 258 
 PTB  HN ES   2    2 7  8.38                             130   -0.24 5  148 258 
 PTB  HZ I         2 7 11.61        44.9 0.17            129            148 258 
 TAM  HZ IP     C  2 6 48.91                             128    0.01 9  156 105 
 TAM  HE ES   4    2 7  8.65                             128   -1.46 0  156 105 
 TAM  HZ I         2 7 10.95        22.9 0.58            133            156 105 
 OCA  HZ EP        2 6 48.95                             128   -0.37 9  159 353 
 OCA  HN ES        2 7 10.77                             128   -0.08 9  159 353 
 SPBC HZ EP        2 6 49.72                             127   -0.01 9  164 219 
 SPBC HE ES   2    2 7 11.86                             127    0.28 5  164 219 
 SPBC HZ I         2 7 13.87        30.7 0.22            127            164 219 
 ZAR  HZ EP        2 6 53.69                             121    0.11 9  203 292 
 ZAR  HN ES   2    2 7 19.56                             121    1.13 4  203 292 
 ZAR  HZ I         2 7 21.24        25.7 0.12            121            203 292 
 NOR  HZ EP   4    2 6 59.17                             117    2.10 0  235 234 
 NOR  HN ES        2 7 24.51                             117   -0.13 8  235 234 
 NOR  HZ I         2 7 27.67        16.1 0.24            117            235 234 
 CHI  HZ EP   2    2 6 58.99                             115   -0.16 4  250 195 
 CHI  HN ES   2    2 7 27.97                             115   -0.37 4  250 195 
 ROSC BZ EP   4    2 7  1.17                             115    1.63 0  254 211 
 ROSC BN ES   4    2 7 31.60                             115    2.55 0  254 211 
 ROSC BZ I         2 7 38.90        20.0 0.35            116            254 211 
 HEL  HZ EP   2    2 7  1.77                             113    0.23 4  272 255 
 HEL  HE ES   2    2 7 31.92                             113   -0.69 4  272 255 
 HEL  HZ I         2 7 40.25         7.4 0.20            114            272 255 
 URE  HZ EP   9    2 7  1.16                             112   -1.16 0  283 292 
 URE  HN ES        2 7 32.51                             112   -0.32 7  283 292 
 URE  HZ I         2 7 45.51        20.4 0.30            113            283 292 
 GUY2CHZ EP   2    2 7  5.89                             111    0.86 4  302 234 
 GUY2CHE ES   4    2 7 39.93                             111    1.11 0  302 234 
 GUY2CHZ I         2 7 43.62         9.9 0.28                           302 234 
 PTGC HZ EP   4    2 7  3.90                             110   -1.52 0  310 159 
 PTGC HN ES   4    2 7 36.71                             110   -2.80 0  310 159 
 PTGC HZ I         2 7 38.21        15.6 0.38            112            310 159 
 CBOC HZ EP        2 7  8.99                             108    0.67 7  334 252 
 CBOC HN ES   2    2 7 44.75                             108    0.07 3  334 252 
 CBOC HZ I         2 7 50.58         6.0 0.56            109            334 252 
 DBB  SZ EP        2 7  8.86                             108    0.03 7  339 274 
 DBB  SZ ES   2    2 7 45.08                             108   -0.49 3  339 274 
 MON  HZ EP   9    2 7  8.59                             107   -1.70 0  352 308 
 MON  HE ES   2    2 7 46.62                             108    0.14 3  352 308 
 MON  HZ I         2 7 48.05        11.7 0.16            108            352 308 
 ANIL HZ EP   2    2 7 11.73                             107    0.41 3  358 224 
 ANIL HE ES   2    2 7 50.32                             107    0.31 3  358 224 
 ANIL HZ I         2 7 59.84        18.1 0.46            108            358 224 
 SDV  BZ EP   2    2 7 10.43                             107   -1.00 3  360  50 
 SDV  BN ES   4    2 7 47.27                             107   -2.93 0  360  50 
 ORTC HZ EP   2    2 7 15.83                             105    0.34 3  396 216 
 ORTC HE ES   2    2 7 58.03                             105    0.60 3  396 216 
 ORTC HZ I         2 8  3.62         7.2 0.48            106            396 216 
 SJC  HZ EP   4    2 7 15.56                             104   -1.31 0  408 327 
 SJC  HN ES   4    2 7 56.82                             104   -3.07 0  408 327 
 SJC  HZ I         2 8  0.50        12.7 0.50            106            408 327 
                                                                                
