 2015 1114 0941 29.0 L   6.808 -73.104144.5  RSN 18 0.5 2.1LRSN                1
 GAP=142        1.15       3.0     4.4  5.7 -0.2642E+01  0.7944E+01  0.3905E+01E
 Epicentro: LOS SANTOS - SANTANDER                                             3
 ACTION:UPD 15-12-28 16:10 OP:cam  STATUS:               ID:20151114094127 L   I
 OLDACT:UP  15-11-15 02:17 OP:ar   STATUS:               ID:20151114093751     3
 OLDACT:UP  15-11-15 02:08 OP:dnl  STATUS:               ID:20151114093751     3
 OLDACT:REG 15-11-14 15:05 OP:dnl  STATUS:               ID:20151114093751     3
 2015-11-14-0937-51M.COL___314                                                 6
 STAT SP IPHASW D HRMM SECON CODA AMPLIT PERI AZIMU VELO AIN AR TRES W  DIS CAZ7
 BAR2 EZ EP        941 48.38                             170   -0.1610 25.3 200 
 BAR2 EZ ES        942  3.95                             170    0.1810 25.3 200 
 BAR2 EZ I         942  6.27        22.4 0.28            167           25.3 200 
 PAM  EZ EP        941 51.08                             152    0.1910 73.8  37 
 PAM  EN ES        942  8.59                             152    0.6310 73.8  37 
 PAM  EZ I         942 10.72        18.7 0.20            157           73.8  37 
 BRR  HZ EP        941 50.32                             151    0.0710 74.9 296 
 BRR  HN ES        942  7.34                             151    0.5310 74.9 296 
 BRR  HZ I         942 15.66        12.3 0.34            149           74.9 296 
 RUS  HZ EP        941 52.47                             143   -0.2210  101 179 
 RUS  HE ES        942 10.50                             143   -0.6610  101 179 
 RUS  HZ I         942 12.37         7.3 0.46            146            101 179 
 OCA  HZ EP        941 57.31                             129    0.10 9  160 351 
 OCA  HN ES        942 18.54                             129   -0.66 9  160 351 
 OCA  HZ I         942 23.76        16.8 0.30            132            160 351 
 SPBC HZ EP        941 57.52                             128   -0.25 9  167 220 
 SPBC HE ES        942 20.51                             128    0.32 9  167 220 
 SPBC HZ I         942 25.39        26.6 0.16            130            167 220 
 ZAR  HZ EP   1    942  1.62                             122   -0.18 6  208 291 
 ZAR  HN ES        942 26.71                             122   -0.65 8  208 291 
 ZAR  HZ I         942 32.99        12.4 0.22            123            208 291 
 NOR  HZ EP        942  4.64                             118   -0.49 8  239 235 
 NOR  HN ES        942 32.53                             118   -0.78 8  239 235 
 NOR  HZ I         942 36.41         9.8 0.20            119            239 235 
 SML  HZ EP   9    942  5.14                             117   -0.57 0  245 334 
 SML  HN ES        942 33.22                             116   -0.54 8  245 334 
 SML  HZ I         942 37.10        13.2 0.26            119            245 334 
 CHI  HZ EP        942  6.73                             117   -0.14 8  251 196 
 CHI  HE ES        942 35.48                             117   -0.92 8  251 196 
 CHI  HZ I         942 41.90         4.0 0.42            119            251 196 
 ROSC BZ EP        942  8.02                             116    0.61 8  256 212 
 ROSC BN ES        942 37.63                             116    0.27 8  256 212 
 HEL  HZ EP        942  9.62                             114   -0.07 7  277 256 
 HEL  HN ES        942 41.78                             114    0.37 7  277 256 
 HEL  HZ I         942 47.15         6.5 0.38            116            277 256 
 GUY2CHZ EP        942 14.30                             112    1.25 7  305 235 
 GUY2CHN ES        942 48.05                             112    0.65 7  305 235 
 GUY2CHZ I         942 55.40        11.3 0.76                           305 235 
 CBOC HZ EP        942 15.88                             109   -0.54 7  338 252 
 CBOC HN ES   4    942 45.85                             109   -7.54 0  338 252 
 CBOC HZ I         943  0.79         1.9 0.50            111            338 252 
 MON  HZ EP   4    942 25.69                             108    7.36 0  357 308 
 MON  HN ES   4    942 53.43                             108   -3.37 0  357 308 
 MON  HZ I         942 56.91         2.2 0.40            110            357 308 
 ANIL HZ EP   4    942 24.76                             108    5.54 0  361 225 
 ANIL HN ES   4    943  0.49                             108    2.11 0  361 225 
 ANIL HZ I         943  2.62        13.6 0.44            110            361 225 
 PRA  HZ EP   4    942 21.85                             106   -1.00 0  395 210 
 PRA  HN ES        943  5.42                             106    0.58 6  395 210 
 PRA  HZ I         943  9.97         6.2 0.62            108            395 210 
 ORTC HZ EP        942 23.66                             106    0.36 6  399 217 
 ORTC HN ES        943  6.07                             106    0.44 6  399 217 
 ORTC HZ I         943 13.23         5.0 0.58            108            399 217 
                                                                                
