 2014  914 0616 27.1 L   6.819 -73.160144.4  RSN 18 0.5 2.8LRSN                1
 GAP= 70        1.24       2.9     3.3  5.7 -0.5557E+00  0.4620E+01  0.2285E+01E
 Epicentro: LOS SANTOS - SANTANDER                                             3
 ACTION:UPD 14-10-03 23:04 OP:nd   STATUS:               ID:20140914061627 L   I
 OLDACT:REG 14-09-14 14:07 OP:carl STATUS:               ID:20140914060818     3
 2014-09-14-0608-18M.COL___293                                                 6
 STAT SP IPHASW D HRMM SECON CODA AMPLIT PERI AZIMU VELO AIN AR TRES W  DIS CAZ7
 BAR2 SZ IP        616 46.62                             170    0.0310 25.2 186 
 BAR2 SZ ES        617  1.66                             170   -0.1410 25.2 186 
 BAR2 SZ I         617  2.47       161.9 0.32            167           25.2 186 
 BRR  HZ IP     D  616 48.41                             153    0.4610 68.8 298 
 BRR  HN ES        617  5.15                             153    0.9210 68.8 298 
 BRR  HZ I         617  8.17       177.2 0.24            152           68.8 298 
 PAM  SZ IP     C  616 49.43                             151    0.3010 76.8  41 
 PAM  SN ES        617  6.10                             151   -0.2110 76.8  41 
 PAM  SZ I         617  8.44       225.7 0.48            155           76.8  41 
 RUS  HZ IP     C  616 50.70                             143   -0.1610  103 175 
 RUS  HN ES        617  9.13                             143   -0.2810  103 175 
 RUS  HZ I         617 10.56        39.5 0.36            143            103 175 
 PTB  HZ EP        616 53.21                             132   -0.63 9  147 258 
 PTB  HN ES        617 13.69                             132   -1.01 9  147 258 
 PTB  HZ I         617 15.70        78.9 0.18            131            147 258 
 TAM  HZ IP     C  616 55.03                             130    0.18 9  157 106 
 TAM  HN ES        617 16.44                             130   -0.07 9  157 106 
 TAM  HZ I         617 17.36        36.0 0.68            132            157 106 
 OCA  HZ EP        616 54.59                             130   -0.49 9  158 354 
 OCA  HN ES        617 17.22                             130    0.31 9  158 354 
 OCA  HZ I         617 21.42        90.5 0.34            131            158 354 
 SPBC HZ EP        616 55.53                             129   -0.01 9  164 218 
 SPBC HN ES        617 18.35                             129    0.62 9  164 218 
 SPBC HZ I         617 24.68        78.0 0.28            128            164 218 
 ZAR  HZ EP        616 59.35                             122    0.14 9  202 292 
 ZAR  HN ES        617 24.50                             122    0.24 9  202 292 
 ZAR  HZ I         617 30.91       114.6 0.44            122            202 292 
 NOR  HZ EP        617  2.59                             118   -0.14 8  235 234 
 NOR  HN ES        617 29.86                             118   -0.67 8  235 234 
 NOR  HZ I         617 35.17        34.7 0.26            118            235 234 
 SML  HZ EP        617  2.50                             117   -0.86 8  241 335 
 SML  HN ES        617 31.15                             117   -0.50 8  241 335 
 SML  HZ I         617 35.86       110.3 0.24            118            241 335 
 CHI  HZ EP        617  5.18                             117    0.29 8  250 195 
 CHI  HN ES        617 34.54                             117    0.18 8  250 195 
 CHI  HZ I         617 38.21        18.5 0.48            117            250 195 
 ROSC BZ EP   4    617  6.10                             116    0.86 0  254 210 
 ROSC BN ES   4    617 37.28                             116    2.28 0  254 210 
 ROSC BZ I         617 42.13        61.4 0.35            116            254 210 
 HEL  HZ EP        617  8.55                             115    1.43 8  271 255 
 HEL  HN ES        617 38.78                             115    0.44 8  271 255 
 HEL  HZ I         617 44.88        43.4 0.38            114            271 255 
 URE  HZ EP   4    617  6.97                             113   -0.87 0  282 292 
 URE  HN ES   4    617 38.46                             113   -1.16 0  282 292 
 GUY2CHZ EP   4    617 11.67                             112    1.05 0  301 234 
 GUY2CHN ES   4    617 46.46                             112    1.88 0  301 234 
 GUY2CHZ I         617 55.03        24.6 0.62                           301 234 
 VIL  SZ EP        617 10.52                             112   -0.12 7  305 191 
 VIL  SN ES        617 44.12                             112   -0.49 7  305 191 
 VIL  SZ I         617 59.42        23.9 0.34            112            305 191 
 CBOC HZ EP        617 14.77                             110    0.92 7  333 252 
 CBOC HE ES        617 49.35                             110   -0.97 7  333 252 
 CBOC HZ I         618  0.23         9.4 0.54            110            333 252 
 ORTC HZ EP        617 21.13                             106    0.08 6  396 216 
 ORTC HN ES        618  3.54                             106    0.40 6  396 216 
 ORTC HZ I         618  9.17        21.4 0.44            106            396 216 
                                                                                
