 2014 1014 0951 50.6 L   6.815 -73.169147.6  RSN  9 0.4 1.8LRSN                1
 GAP=133        1.03       3.5     4.7  6.2  0.6156E+00  0.6421E+01 -0.2177E+01E
 Epicentro: LOS SANTOS - SANTANDER                                             3
 ACTION:UPD 14-11-29 23:49 OP:nd   STATUS:               ID:20141014095150 L   I
 OLDACT:UP  14-10-14 18:10 OP:mh   STATUS:               ID:20141014094742     3
 OLDACT:REG 14-10-14 12:59 OP:mh   STATUS:               ID:20141014094742     3
 2014-10-14-0947-42M.COL___274                                                 6
 STAT SP IPHASW D HRMM SECON CODA AMPLIT PERI AZIMU VELO AIN AR TRES W  DIS CAZ7
 BAR2 SZ EP   1    952 10.75                             170    0.27 7 24.7 184 
 BAR2 SZ ES        952 25.31                             170   -0.6710 24.7 184 
 BAR2 SZ I         952 26.98        23.0 0.20            173           24.7 184 
 BRR  HZ EP        952 12.50                             154    0.7210 68.2 298 
 BRR  HN ES        952 29.00                             154    0.7010 68.2 298 
 BRR  HZ I         952 33.52        13.8 0.32            152           68.2 298 
 PAM  SZ EP        952 13.20                             151    0.1710 77.7  42 
 PAM  SN ES   1    952 30.56                             151    0.03 7 77.7  42 
 PAM  SZ I         952 33.09         7.4 0.48            152           77.7  42 
 RUS  HZ EP   1    952 14.15                             144   -0.52 7  102 175 
 RUS  HN ES        952 33.61                             144    0.1710  102 175 
 RUS  HZ I         952 34.74         3.6 0.56            148            102 175 
 PTB  HZ EP        952 17.04                             133   -0.49 9  146 258 
 PTB  HN ES        952 38.39                             133   -0.14 9  146 258 
 PTB  HZ I         952 39.71         6.7 0.16            134            146 258 
 OCA  HZ EP   1    952 19.03                             130    0.16 7  158 354 
 OCA  HN ES        952 40.62                             130   -0.30 9  158 354 
 OCA  HZ I         952 49.04         4.7 0.22            131            158 354 
 ZAR  HZ EP        952 22.34                             123   -0.52 9  201 292 
 ZAR  HN ES        952 48.25                             123    0.23 9  201 292 
 ZAR  HZ I         952 54.01         6.4 0.50            124            201 292 
 SML  HZ EP   1    952 27.09                             118    0.04 6  241 336 
 SML  HN ES        952 55.12                             118   -0.36 8  241 336 
 SML  HZ I         952 59.65         7.5 0.10            119            241 336 
 PRA  HZ EP        952 44.99                             107    0.77 6  392 209 
 PRA  HN ES   1    953 25.66                             107   -0.37 4  392 209 
 PRA  HZ I         953 31.08         1.6 0.60            108            392 209 
                                                                                
