 2016  914 0718  1.9 L   6.807 -73.101152.8  RSN 18 0.4 2.2LRSN                1
 GAP=123        0.98       3.0     4.5  4.7 -0.2076E+01  0.2261E+01  0.7151E+00E
 Epicentro: LOS SANTOS - SANTANDER                                             3
 ACTION:UPD 17-08-17 21:10 OP:lp   STATUS:               ID:20160914071806dL   I
 OLDACT:UP  16-09-15 18:52 OP:edw  STATUS:               ID:20160914070701d    3
 OLDACT:UP  16-09-15 18:51 OP:edw  STATUS:               ID:20160914070701d    3
 OLDACT:DUP 16-09-15 18:38 OP:edw  STATUS:               ID:20160914070701d    3
 OLDACT:UP  16-09-15 17:56 OP:edw  STATUS:               ID:20160914070700     3
 OLDACT:UP  16-09-15 17:52 OP:edw  STATUS:               ID:20160914070700     3
 OLDACT:UP  16-09-14 17:37 OP:and  STATUS:               ID:20160914070700     3
 OLDACT:UP  16-09-14 15:40 OP:and  STATUS:               ID:20160914070700     3
 OLDACT:UP  16-09-14 15:20 OP:and  STATUS:               ID:20160914070700     3
 OLDACT:UP  16-09-14 15:01 OP:and  STATUS:               ID:20160914070700     3
 OLDACT:UP  16-09-14 14:56 OP:and  STATUS:               ID:20160914070700     3
 OLDACT:ARG 16-09-14 13:50 OP:ar   STATUS:               ID:20160914070700     3
 2016-09-14-0707-00M.COL___318                                                 6
 STAT SP IPHASW D HRMM SECON CODA AMPLIT PERI AZIMU VELO AIN AR TRES W  DIS CAZ7
 BAR2 EZ EP        718 22.44                             170   -0.0210 25.3 201 
 BAR2 EZ ES        718 38.07                             170   -0.3910 25.3 201 
 BAR2 EZ I         718 38.97        69.6 0.16            166           25.3 201 
 PAM  EZ EP        718 25.35                             153    0.6410 73.8  37 
 PAM  EE ES        718 42.65                             153    0.1910 73.8  37 
 BRR  HZ IP     C  718 24.22                             152    0.1410 75.2 296 
 BRR  HN ES        718 41.41                             152    0.0610 75.2 296 
 BRR  HZ I         718 45.37        20.6 0.32            147           75.2 296 
 RUS  HZ EP        718 26.31                             145   -0.1210  101 179 
 RUS  HN ES        718 45.33                             145   -0.1910  101 179 
 RUS  HZ I         718 46.28        17.2 0.22            146            101 179 
 PTB  HZ EP   9    718 29.29                             132   -0.65 0  153 259 
 PTB  HN ES        718 50.42                             132   -0.70 9  153 259 
 PTB  HZ I         718 54.89         6.4 0.14            129            153 259 
 OCA  HZ EP        718 30.52                             131   -0.28 9  160 351 
 OCA  HN ES   4    718 53.79                             131    0.48 0  160 351 
 OCA  HZ I         718 59.40        29.4 0.46            131            160 351 
 SPBC HZ EP        718 31.41                             130    0.08 9  167 220 
 SPBC HN ES   4    718 53.75                             130   -0.51 0  167 220 
 SPBC HZ I         718 57.99        17.3 0.14            128            167 220 
 ZAR  HZ EP   2    718 35.66                             123    0.37 4  208 291 
 ZAR  HE ES   2    719  1.53                             123    0.23 4  208 291 
 ZAR  HZ I         719  6.05        14.0 0.54            121            208 291 
 NOR  HZ EP        718 38.35                             119   -0.21 8  239 235 
 NOR  HN ES   4    719  6.45                             119   -0.67 0  239 235 
 NOR  HZ I         719 10.93         9.6 0.18            118            239 235 
 CHI  HZ EP        718 40.57                             118    0.31 8  251 196 
 CHI  HN ES        719 10.09                             118   -0.05 8  251 196 
 ROSC BZ EP   4    718 42.66                             117    1.86 0  256 212 
 ROSC BN ES   4    719 12.96                             117    1.85 0  256 212 
 ROSC BZ I         719 16.16        16.8 0.35            117            256 212 
 HEL  HZ EP   4    718 44.77                             115    1.70 0  277 256 
 HEL  HN ES        719 14.95                             115   -0.19 7  277 256 
 HEL  HZ I         719 20.54         5.6 0.30            114            277 256 
 SOCV BZ EP   4    718 45.04                             113    0.22 0  297  56 
 SOCV BN ES   4    719 36.89                             113   18.63 0  297  56 
 GUY2CHZ EP        718 47.68                             113    1.30 7  306 235 
 GUY2CHN ES   4    719 23.79                             113    2.75 0  306 235 
 GUY2CHZ I         719 34.58         6.5 0.58                           306 235 
 PTGC HZ EP        718 45.37                             113   -0.63 7  308 160 
 PTGC HN ES   4    719 19.33                             113   -1.04 0  308 160 
 LL6C HZ EP        718 46.97                             111   -0.92 7  324 357 
 LL6C HN ES        719 23.57                             111   -0.17 7  324 357 
 ELA  HZ EP   4    718 51.05                             111    1.47 0  333 230 
 ELA  HN ES   4    719 30.06                             111    3.33 0  333 230 
 ELA  HZ I         719 35.65         5.5 0.52            111            333 230 
 SJC  HZ EP   4    718 56.56                             106   -1.43 0  411 326 
 SJC  HN ES   4    719 39.11                             106   -2.59 0  411 326 
 SJC  HZ I         719 45.02         2.7 0.25            106            411 326 
 CRJC HZ EP   9    719  2.77                             104   -1.76 0  467   3 
 CRJC HN ES        719 51.68                             104    0.09 5  467   3 
 CRJC HZ I         719 51.71         2.7 0.16            105            467   3 
                                                                                
