 2010 1014 0545 17.0 L   6.789 -73.045129.9  RSN  4 0.4 1.4LRSN                1
 GAP=203        0.90      11.3    13.3 11.9  0.1739E+02 -0.8906E+02 -0.4502E+02E
 Epicentro: LOS SANTOS - SANTANDER                                             3
 ACTION:UP  11-02-18 11:09 OP:tino STATUS:               ID:20101014054517 L   I
 2010-10-14-0544-04S.COL___126                                                 6
 STAT SP IPHASW D HRMM SECON CODA AMPLIT PERI AZIMU VELO SNR AR TRES W  DIS CAZ7
 BAR2 SZ EP        545 35.05                             168     0.210   27 215 
 BAR2 SZ ES   2    545 49.07                             168     0.4 5   27 215 
 BAR2 SZ I         545 51.16         7.3 0.19                            27 215 
 BTL  SZ EP   1    545 34.34                             167    -0.5 7   28 300 
 BTL  SZ ES   1    545 48.31                             167    -0.5 7   28 300 
 BRR  HZ EP   1    545 36.83                             146    -0.3 7   82 296 
 BRR  HE ES   1    545 53.24                             146     0.4 7   82 296 
 BRR  HZ I         545 56.10         8.8 0.14                            82 296 
 GRA  SZ EP        545 40.94                             133     0.210  124  12 
 GRA  SZ I         545 42.15         2.9 0.35                           124  12 
                                                                                
