 2012  414 0504 17.9 L   6.771 -73.160148.7  RSN  6 0.2 1.4LRSN                1
 GAP=136        0.62       4.5     4.4  6.3  0.2621E+01  0.7965E+01  0.2923E+01E
 Epicentro: LOS SANTOS - SANTANDER                                             3
 ACTION:UPD 12-07-05 11:53 OP:tino STATUS:               ID:20120414050417 L   I
 2012-04-14-0500-00M.COL___181                                                 6
 STAT SP IPHASW D HRMM SECON CODA AMPLIT PERI AZIMU VELO AIN AR TRES W  DIS CAZ7
 BAR2 SZ EP   1    5 4 37.75                             172    -0.1 7   20 187 
 BAR2 SZ I         5 4 39.90         8.0 0.41                            20 187 
 BAR2 SZ ES   1    5 4 53.36                             172     0.0 7   20 187 
 BRR  HZ EP        5 4 39.74                             153     0.310   71 301 
 BRR  HZ I         5 4 40.01         7.8 0.15                            71 301 
 BRR  HN ES   1    5 4 56.30                             153     0.1 7   71 301 
 PAM  SN ES   1    5 4 58.08                             150    -0.3 7   81  39 
 RUS  HZ EP   1    5 4 41.76                             145     0.0 7   97 175 
 RUS  HE ES   1    5 5  0.51                             145     0.2 7   97 175 
 RUS  HZ I         5 5  2.84         2.1 0.42                            97 175 
 PTB  HZ EP   1    5 4 44.55                             133    -0.4 7  146 260 
 PTB  HN ES   1    5 5  5.68                             133    -0.3 7  146 260 
 PTB  HZ I         5 5  7.30         2.8 0.34                           146 260 
 ZAR  HN ES   2    5 5 16.24                             123     0.3 4  204 293 
                                                                                
