 2012  714 0104 20.6 L   6.709 -73.220147.5  RSN  5 0.3 1.6LRSN                1
 GAP=213        0.72       6.9     6.5  6.9  0.2838E+02  0.1275E+02  0.8352E+01E
 Epicentro: VILLANUEVA - SANTANDER                                             3
 ACTION:UPD 12-08-14 11:44 OP:ep   STATUS:               ID:20120714010420 L   I
 2012-07-14-0100-00M.COL___197                                                 6
 STAT SP IPHASW D HRMM SECON CODA AMPLIT PERI AZIMU VELO AIN AR TRES W  DIS CAZ7
 BAR2 SZ EP   1    1 4 40.08                             175    -0.2 7   14 162 
 BAR2 SZ ES        1 4 55.26                             175    -0.410   14 162 
 BAR2 SZ I         1 4 56.10        10.8 0.22            172             14 162 
 BRR  HZ EP   1    1 4 41.88                             153     0.0 7   70 309 
 BRR  HZ I         1 4 42.11        19.6 0.14            155             70 309 
 BRR  HN ES        1 4 58.90                             153     0.410   70 309 
 RUS  HZ EP   1    1 4 44.19                             147     0.3 7   92 170 
 RUS  HN ES   1    1 5  2.23                             147     0.2 7   92 170 
 RUS  HZ I         1 5  4.71         2.5 0.20            145             92 170 
 PTB  HZ EP   1    1 4 46.76                             134    -0.1 7  138 262 
 PTB  HN ES   1    1 5  7.17                             134    -0.1 7  138 262 
 ZAR  HN ES   1    1 5 17.69                             123    -0.2 6  201 296 
