 2014 1114 0808 52.5 L   6.775 -73.142145.8  RSN  6 0.5 1.6LRSN                1
 GAP=138        1.18       5.5     5.9  8.0 -0.8175E+01  0.6408E+01  0.4679E+01E
 Epicentro: LOS SANTOS - SANTANDER                                             3
 ACTION:UPD 14-12-19 15:42 OP:nd   STATUS:               ID:20141114080852 L   I
 OLDACT:ARG 14-11-14 12:39 OP:stll STATUS:               ID:20141114080745     3
 2014-11-14-0807-45M.COL___271                                                 6
 STAT SP IPHASW D HRMM SECON CODA AMPLIT PERI AZIMU VELO AIN AR TRES W  DIS CAZ7
 BAR2 SZ EP        8 9 12.15                             172    0.0310 20.7 192 
 BAR2 SZ ES        8 9 26.76                             172   -0.6310 20.7 192 
 BAR2 SZ I         8 9 29.84         9.0 0.26            169           20.7 192 
 BRR  HZ EP        8 9 14.31                             152    0.5210 72.9 300 
 BRR  HN ES        8 9 30.92                             152    0.5610 72.9 300 
 PAM  SZ EP        8 9 15.00                             150    0.1310 79.3  38 
 PAM  SZ I         8 9 15.24         6.4 0.22            155           79.3  38 
 PAM  SN ES        8 9 32.24                             150   -0.0510 79.3  38 
 RUS  HZ EP        8 9 15.98                             145   -0.1110 97.8 176 
 RUS  HZ I         8 9 17.01         2.9 0.42            145           97.8 176 
 RUS  HN ES        8 9 34.54                             145    0.0810 97.8 176 
 PTB  HZ EP        8 9 18.83                             132   -0.67 9  148 260 
 PTB  HN ES        8 9 39.89                             132   -0.63 9  148 260 
 PTB  HZ I         8 9 45.93         4.7 0.16            131            148 260 
 SPBC HZ EP        8 9 20.78                             129   -0.08 9  161 220 
 SPBC HN ES        8 9 43.75                             129    0.80 9  161 220 
 SPBC HZ I         8 9 48.97         8.8 0.14            129            161 220 
                                                                                
