 2010  414 0407 10.8 L   6.801 -73.051147.2  RSN  4 0.2 2.0LRSN                1
 GAP=223        0.56       4.5     8.4  6.8 -0.9315E+01 -0.2417E+02  0.2172E+00E
 Epicentro: LOS SANTOS - SANTANDER                                             3
 ACTION:UPD 10-08-24 09:59 OP:vdl  STATUS:               ID:20100414040710 L   I
 2010-04-14-0404-21S.COL___097                                                 6
 STAT SP IPHASW D HRMM SECON CODA AMPLIT PERI AZIMU VELO AIN AR TRES W  DIS CAZ7
 BAR2 SZ EP   1    4 7 30.93                             169     0.2 7   27 212 
 BAR2 SZ ES   2    4 7 45.77                             169    -0.5 5   27 212 
 BRR  HZ EP        4 7 32.88                             150     0.210   81 295 
 BRR  HN ES        4 7 49.73                             150     0.010   81 295 
 BRR  HZ I         4 7 50.51        19.2 0.04                            81 295 
 OCA  SZ EP        4 7 39.18                             130    -0.2 9  162 349 
 OCA  SZ ES   1    4 8  1.67                             130     0.0 7  162 349 
 OCA  SZ I         4 8  3.98        15.2 0.04                           162 349 
 RREF BN ES   2    4 8 34.25                             110    -0.4 3  330 231 
 RREF BZ I         4 8 39.88         2.5 0.48                           330 231 
                                                                                
