 2015  314 0411 35.9 L   6.819 -73.166142.8  RSN  5 0.4 1.3LRSN                1
 GAP=133        0.96       5.1     4.9  7.2 -0.2609E+01  0.5298E+01  0.1529E+01E
 Epicentro: LOS SANTOS - SANTANDER                                             3
 ACTION:UPD 15-04-30 16:25 OP:nd   STATUS:               ID:20150314041135 L   I
 OLDACT:REG 15-03-14 12:35 OP:cam  STATUS:               ID:20150314040747     3
 2015-03-14-0407-47M.COL___272                                                 6
 STAT SP IPHASW D HRMM SECON CODA AMPLIT PERI AZIMU VELO AIN AR TRES W  DIS CAZ7
 BAR2 EZ ES        412 10.39                             169    0.0910 25.1 184 
 BAR2 EZ I         412 11.55         4.8 0.26            171           25.1 184 
 BRR  HZ EP        411 57.05                             153    0.4610 68.2 298 
 BRR  HN ES        412 13.12                             153    0.4210 68.2 298 
 BRR  HZ I         412 16.31         4.5 0.20            154           68.2 298 
 PAM  SZ IP     C  411 58.05                             150    0.2310 77.3  42 
 PAM  SN ES        412 14.31                             150   -0.5910 77.3  42 
 PAM  SZ I         412 17.03         4.6 0.44            152           77.3  42 
 RUS  HZ EP        411 59.72                             142    0.1610  103 175 
 RUS  HN ES        412 17.98                             142   -0.0110  103 175 
 RUS  HZ I         412 19.62         2.6 0.18            145            103 175 
 PTB  HZ EP        412  1.97                             132   -0.52 9  146 258 
 PTB  HN ES        412 22.87                             132   -0.34 9  146 258 
 PTB  HZ I         412 24.14         2.5 0.48            134            146 258 
                                                                                
