 2013 1114 0219 39.0 L   6.820 -73.193140.4  RSN  8 0.5 1.7LRSN                1
 GAP=130        1.16       4.4     5.5  7.3 -0.4796E+01  0.7240E+01 -0.1929E+01E
 Epicentro: ZAPATOCA - SANTANDER                                               3
 ACTION:UPD 14-01-09 16:27 OP:ep   STATUS:               ID:20131114021939 L   I
 OLDACT:REG 13-11-14 13:18 OP:nd   STATUS:               ID:20131114021736     3
 2013-11-14-0217-36M.COL___222                                                 6
 STAT SP IPHASW D HRMM SECON CODA AMPLIT PERI AZIMU VELO AIN AR TRES W  DIS CAZ7
 BAR2 SZ EP        219 58.32                             169    0.2510 25.2 177 
 BAR2 SZ ES        220 12.64                             169   -0.2710 25.2 177 
 BAR2 SZ I         220 14.42        20.1 0.18            173           25.2 177 
 BRR  HZ IP     C  220  0.21                             153    0.9110 65.6 299 
 BRR  HN ES        220 15.73                             153    0.6310 65.6 299 
 BRR  HZ I         220 21.03         7.9 0.34            149           65.6 299 
 PAM  SZ EP        220  0.82                             149    0.0210 79.2  43 
 PAM  SN ES        220 17.65                             149   -0.1310 79.2  43 
 PAM  SZ I         220 18.69         8.9 0.38            150           79.2  43 
 RUS  HZ EP        220  2.26                             142   -0.2110  103 173 
 RUS  HN ES   2    220 20.27                             142   -0.47 5  103 173 
 RUS  HZ I         220 21.52         5.0 0.24            148            103 173 
 PTB  HZ EP        220  4.99                             132   -0.16 9  143 258 
 PTB  HN ES        220 25.44                             132   -0.07 9  143 258 
 PTB  HZ I         220 28.26        10.9 0.18            132            143 258 
 OCA  HZ EP   4    220 10.43                             129    3.75 0  158 355 
 OCA  HN ES   4    220 26.40                             129   -1.84 0  158 355 
 OCA  HZ I         220 33.50         6.6 0.30            128            158 355 
 SPBC HZ EP        220  7.22                             128    0.23 9  162 217 
 SPBC HN ES        220 28.30                             128   -0.49 9  162 217 
 SPBC HZ I         220 31.20         5.6 0.58            130            162 217 
 SML  HZ EP        220 15.00                             117    0.08 8  240 336 
 SML  HN ES        220 41.78                             117   -1.13 8  240 336 
 SML  HZ I         220 53.44         6.1 0.32            117            240 336 
                                                                                
