 2014 1214 0901 14.5 L   6.781 -73.175143.5  RSN  6 0.5 1.0LRSN                1
 GAP=134        1.39       7.2     6.4 12.1  0.7277E+00  0.9156E+01  0.1094E+02E
 Epicentro: LOS SANTOS - SANTANDER                                             3
 ACTION:UPD 15-02-10 17:03 OP:nd   STATUS:               ID:20141214090114 L   I
 OLDACT:REG 14-12-14 14:03 OP:stll STATUS:               ID:20141214085742     3
 2014-12-14-0857-42M.COL___278                                                 6
 STAT SP IPHASW D HRMM SECON CODA AMPLIT PERI AZIMU VELO AIN AR TRES W  DIS CAZ7
 BAR2 EZ EP        9 1 33.26                             171   -0.5210 20.9 182 
 BRR  HZ EP        9 1 34.54                             153   -0.7410 69.5 301 
 BRR  HN ES        9 1 52.00                             153    0.4910 69.5 301 
 BRR  HZ I         9 1 55.23         2.1 0.12            151           69.5 301 
 PAM  SZ EP        9 1 37.65                             149    0.9810 81.1  40 
 PAM  SN ES        9 1 53.51                             149   -0.4810 81.1  40 
 PAM  SZ I         9 1 57.27         1.7 0.42            153           81.1  40 
 RUS  HZ EP        9 1 38.40                             144    0.5310 98.7 174 
 RUS  HN ES        9 1 56.05                             144   -0.0610 98.7 174 
 RUS  HZ I         9 1 59.39         1.0 0.48            149           98.7 174 
 PTB  HZ EP        9 1 40.49                             132   -0.44 9  144 259 
 PTB  HN ES        9 2  1.72                             132    0.15 9  144 259 
 PTB  HZ I         9 2  5.52         1.4 0.14            133            144 259 
 ZAR  HN ES   1    9 2 11.74                             122    0.17 6  202 293 
 ZAR  HZ I         9 2 22.14         1.1 0.30            123            202 293 
                                                                                
