 2010 1014 0815 19.0 L   6.789 -73.212146.9  RSN  9 0.6 2.0LRSN                1
 GAP=151        1.52      10.5    12.8 14.8 -0.5659E+02  0.1832E+02  0.1634E+02E
 Epicentro: ZAPATOCA - SANTANDER                                               3
 ACTION:UP  11-02-18 11:09 OP:tino STATUS:               ID:20101014081519 L   I
 2010-10-14-0812-45S.COL___126                                                 6
 STAT SP IPHASW D HRMM SECON CODA AMPLIT PERI AZIMU VELO SNR AR TRES W  DIS CAZ7
 BTL  SZ IP        815 37.78                             173    -0.910   16 337 
 BAR2 SZ IP        815 38.46                             171    -0.310   22 172 
 BAR2 SZ I         815 38.72        18.8 0.14                            22 172 
 BRR  HZ EP   1    815 40.54                             155     0.5 7   66 303 
 BRR  HN ES   1    815 56.44                             155     0.1 7   66 303 
 BRR  HZ I         816  2.19        82.4 0.09                            66 303 
 GUE  SZ EP   1    815 43.89                             138    -0.2 7  119  15 
 GUE  SZ I         815 51.90         3.8 0.07                           119  15 
 GRA  SZ EP        815 45.66                             136     1.010  129  20 
 GRA  SZ ES   1    816  5.04                             136     0.4 7  129  20 
 GRA  SZ I         816  6.25        16.5 0.36                           129  20 
 OCA  SZ EP   1    815 47.29                             129    -0.2 7  161 356 
 OCA  SZ I         816 13.95        14.1 0.19                           161 356 
 NOR  SZ EP   1    815 55.09                             119     1.0 6  228 234 
 NOR  SE ES   2    816 21.44                             119    -0.1 4  228 234 
 MON  HZ EP        816  6.46                             109    -1.0 6  348 309 
 MON  HE ES   2    816 45.34                             109     0.1 3  348 309 
 MON  HZ I         816 47.91         2.1 0.60                           348 309 
 PRA  HZ EP   1    816 12.24                             107     0.2 4  387 209 
                                                                                
