 2010  914 0933  0.1 L   7.191 -72.979147.8  RSN  4 0.3 2.0LRSN                1
 GAP=203        0.59       3.9    10.8  8.1  0.7108E+01 -0.4186E+02 -0.8983E+01E
 Epicentro: TONA - SANTANDER                                                   3
 ACTION:UP  11-02-18 11:02 OP:tino STATUS:               ID:20100914093300 L   I
 2010-09-14-0929-40S.COL___113                                                 6
 STAT SP IPHASW D HRMM SECON CODA AMPLIT PERI AZIMU VELO SNR AR TRES W  DIS CAZ7
 BAR2 SZ EP        933 21.84                             154     0.010   70 199 
 BAR2 SZ ES   1    933 38.85                             154     0.2 7   70 199 
 BAR2 SZ I         933 40.73        24.8 0.41                            70 199 
 BRR  HZ EP        933 21.98                             150    -0.110   82 264 
 BRR  HZ I         933 22.56        32.3 0.13                            82 264 
 BRR  HN ES   1    933 39.34                             150     0.1 7   82 264 
 OCA  SZ EP        933 25.36                             139     0.110  122 342 
 OCA  SZ ES   1    933 44.68                             139    -0.1 7  122 342 
 OCA  SZ I         933 46.69        15.2 0.21                           122 342 
 RUS  HN ES   3    933 47.51                             134    -1.5 2  144 185 
 RUS  HZ I         933 51.65         3.9 0.21                           144 185 
                                                                                
