 2016  314 0948 44.1 L   6.804 -73.138147.2  RSN  7 0.4 1.4LRSN                1
 GAP=137        1.02       3.9     4.8  9.5 -0.1546E+01  0.9512E+01  0.5698E+01E
 Epicentro: LOS SANTOS - SANTANDER                                             3
 ACTION:UPD 16-05-13 21:24 OP:cam  STATUS:               ID:20160314094844 L   I
 OLDACT:UP  16-03-14 17:58 OP:mher STATUS:               ID:20160314094749     3
 OLDACT:REG 16-03-14 13:00 OP:dnl  STATUS:               ID:20160314094749     3
 2016-03-14-0947-49M.COL___291                                                 6
 STAT SP IPHASW D HRMM SECON CODA AMPLIT PERI AZIMU VELO AIN AR TRES W  DIS CAZ7
 BAR2 EZ EP        949  3.35                             170   -0.5710 23.9 192 
 BAR2 EZ I         949 20.47         2.4 0.09            170           23.9 192 
 PAM  EZ EP        949  6.51                             151    0.0910 76.5  39 
 PAM  EN ES        949 24.01                             151    0.1810 76.5  39 
 PAM  EZ I         949 26.02         3.7 0.41            152           76.5  39 
 RUS  HZ EP        949  8.45                             144    0.4210  101 177 
 RUS  HN ES   1    949 26.12                             144   -0.56 7  101 177 
 RUS  HZ I         949 27.35         1.8 0.41            144            101 177 
 PTB  HN EP        949 11.11                             132   -0.16 9  149 259 
 PTB  HZ ES        949 32.14                             132   -0.32 9  149 259 
 PTB  HN I         949 36.95         6.6 0.44            132            149 259 
 OCA  HZ EP        949 12.35                             130   -0.15 9  160 353 
 OCA  HN ES   1    949 34.96                             130    0.32 7  160 353 
 OCA  HZ I         949 39.65         5.9 0.14            130            160 353 
 ZAR  HN ES        949 42.50                             122    0.36 9  205 292 
 ZAR  HZ I         949 47.12         4.6 0.38            122            205 292 
 CHI  HZ EP   1    949 21.24                             117   -0.72 6  249 195 
 CHI  HN ES        949 52.41                             117    0.93 8  249 195 
 CHI  HZ I         949 56.38         1.3 0.50            117            249 195 
                                                                                
