 2017  714 0616 56.5 L   6.761 -73.163142.3  RSN  7 0.4 1.3LRSN                1
 GAP=232        0.97       5.7     5.7  8.7  0.1096E+02  0.1755E+02  0.4132E+01E
 Epicentro: LOS SANTOS - SANTANDER                                             3
 ACTION:UPD 17-08-30 15:32 OP:rebc STATUS:               ID:20170714061656 L   I
 OLDACT:UP  17-07-14 14:27 OP:dnl  STATUS:               ID:20170714060738     3
 OLDACT:REG 17-07-14 12:41 OP:dnl  STATUS:               ID:20170714060738     3
 2017-07-14-0608-00M.COL___377                                                 6
 STAT SP IPHASW D HRMM SECON CODA AMPLIT PERI AZIMU VELO AIN AR TRES W  DIS CAZ7
 BAR2 EZ EP        617 15.39                             172   -0.2010 18.8 187 
 BAR2 EZ ES        617 29.87                             172   -0.6410 18.8 187 
 BAR2 EZ I         617 31.05         5.9 0.26            167           18.8 187 
 BRR  HZ EP        617 17.23                             152   -0.0410 71.8 302 
 BRR  HE ES        617 34.06                             152    0.5610 71.8 302 
 BRR  HZ I         617 34.66         3.9 0.30            149           71.8 302 
 RUS  HZ EP   2    617 19.45                             144   -0.12 5 96.4 175 
 RUS  HN ES        617 38.17                             144    0.5710 96.4 175 
 RUS  HZ I         617 40.10         1.7 0.30            142           96.4 175 
 PTB  HZ EP   2    617 22.46                             132   -0.44 5  145 260 
 PTB  HN ES        617 43.08                             132   -0.45 9  145 260 
 PTB  HZ I         617 45.22         2.1 0.18            129            145 260 
 SPBC HZ EP   2    617 24.74                             129    0.48 5  159 219 
 SPBC HE ES   4    617 47.37                             129    1.42 0  159 219 
 SPBC HZ I         617 51.39         3.9 0.10            127            159 219 
 ZAR  HZ EP   4    617 29.75                             122    1.08 0  204 293 
 ZAR  HN ES        617 54.04                             122    0.24 9  204 293 
 ZAR  HZ I         618  0.38         2.8 0.30            121            204 293 
 NOR  HE ES        617 58.92                             118   -0.01 8  231 235 
 NOR  HZ I         618  2.15         1.7 0.24            117            231 235 
                                                                                
