 2017  814 0344 53.2 L   6.801 -73.094153.6  RSN  5 0.3 1.3LRSN                1
 GAP=243        0.71       4.4     5.4  5.7  0.1171E+02  0.2940E+01 -0.3502E+01E
 Epicentro: LOS SANTOS - SANTANDER                                             3
 ACTION:UPD 17-09-04 20:20 OP:rebc STATUS:               ID:20170814034453 L   I
 OLDACT:UP  17-08-14 18:37 OP:and  STATUS:               ID:20170814033740     3
 OLDACT:REG 17-08-14 14:08 OP:mg   STATUS:               ID:20170814033740     3
 2017-08-14-0338-00M.COL___413                                                 6
 STAT SP IPHASW D HRMM SECON CODA AMPLIT PERI AZIMU VELO AIN AR TRES W  DIS CAZ7
 BAR2 EZ IP     D  345 13.83                             170    0.0310 25.1 203 
 BAR2 EZ ES        345 29.43                             170   -0.4410 25.1 203 
 BAR2 EZ I         345 31.61         4.6 0.16            171           25.1 203 
 BRR  HZ IP     C  345 15.74                             152    0.2610 76.3 296 
 BRR  HN ES        345 33.30                             152    0.4510 76.3 296 
 BRR  HZ I         345 38.00         3.4 0.15            150           76.3 296 
 RUS  HZ EP        345 17.73                             145    0.0210  100 179 
 RUS  HN ES        345 36.84                             145    0.0010  100 179 
 RUS  HZ I         345 37.62         1.5 0.06            150            100 179 
 SPBC HN ES        345 45.74                             130    0.11 9  167 221 
 ZAR  HZ EP        345 26.49                             123   -0.21 8  209 292 
 ZAR  HN ES        345 52.48                             123   -0.35 8  209 292 
 ZAR  HZ I         345 58.33         4.2 0.54            124            209 292 
                                                                                
