 2013  714 0110 26.4 L   6.818 -73.177140.6  RSN  7 0.4 1.4LRSN                1
 GAP=132        0.97       4.3     4.7  6.0 -0.5422E+01  0.3701E+01  0.4856E+01E
 Epicentro: LOS SANTOS - SANTANDER                                             3
 ACTION:UPD 13-08-12 10:37 OP:ep   STATUS:               ID:20130714011026 L   I
 OLDACT:REG 13-07-14 07:12 OP:nd   STATUS:               ID:20130714010959     3
 2013-07-14-0109-59M.COL___266                                                 6
 STAT SP IPHASW D HRMM SECON CODA AMPLIT PERI AZIMU VELO AIN AR TRES W  DIS CAZ7
 BAR2 SZ EP        110 44.84                             169   -0.6410 24.9 181 
 BAR2 SZ ES        110 59.91                             169   -0.4210 24.9 181 
 BAR2 SZ I         111  1.91         7.8 0.10            171           24.9 181 
 GIR2 SZ EP        110 45.49                             168    0.0610 28.9 356 
 GIR2 SZ ES        111  0.85                             168    0.6110 28.9 356 
 GIR2 SZ I         111  2.21         7.9 0.14            166           28.9 356 
 BRR  HZ IP     C  110 47.26                             153    0.4610 67.2 299 
 BRR  HN ES        111  2.52                             153   -0.1610 67.2 299 
 BRR  HZ I         111  8.57         6.3 0.40            151           67.2 299 
 PAM  SZ EP        110 48.39                             150    0.2310 78.2  42 
 PAM  SN ES        111  4.95                             150   -0.1410 78.2  42 
 PAM  SZ I         111  5.93         4.6 0.20            153           78.2  42 
 RUS  HZ EP        110 49.63                             142   -0.2210  103 174 
 RUS  HN ES        111  8.25                             142    0.1410  103 174 
 RUS  HZ I         111  9.26         1.7 0.44            146            103 174 
 PTB  HZ EP     D  110 52.36                             131   -0.35 9  145 258 
 PTB  HN ES        111 12.91                             131   -0.29 9  145 258 
 PTB  HZ I         111 17.34         3.8 0.14            132            145 258 
 SPBC HZ EP        110 54.78                             128    0.30 9  163 218 
 SPBC HN ES        111 16.82                             128    0.47 9  163 218 
                                                                                
