 2013  614 0800  5.4 L   6.774 -73.165154.4  RSN  5 0.4 1.3LRSN                1
 GAP=199        0.82       5.3     6.9  8.0  0.1639E+02  0.2269E+01 -0.7502E+01E
 Epicentro: LOS SANTOS - SANTANDER                                             3
 ACTION:UPD 14-01-08 09:54 OP:ep   STATUS:               ID:20130614080005 L   I
 OLDACT:UP  13-06-14 10:49 OP:cam  STATUS:               ID:20130614075959     3
 OLDACT:REG 13-06-14 08:22 OP:cam  STATUS:               ID:20130614075959     3
 2013-06-14-0759-59M.COL___261                                                 6
 STAT SP IPHASW D HRMM SECON CODA AMPLIT PERI AZIMU VELO AIN AR TRES W  DIS CAZ7
 BAR2 SZ ES   1    8 0 41.90                             173   -0.20 7 20.1 185 
 BRR  HZ EP        8 0 27.73                             154    0.2510 70.8 301 
 BRR  HN ES        8 0 45.14                             154    0.4610 70.8 301 
 RUS  HZ EP   1    8 0 30.22                             146    0.39 7 97.9 175 
 RUS  HN ES        8 0 48.58                             146   -0.3010 97.9 175 
 RUS  HZ I         8 0 49.32         1.8 0.54            143           97.9 175 
 PTB  HZ EP   1    8 0 32.83                             135   -0.03 7  145 260 
 PTB  HN ES        8 0 54.00                             135   -0.27 9  145 260 
 PTB  HZ I         8 1  1.14         3.6 0.50            129            145 260 
 SML  HN ES   1    8 1 11.07                             119   -0.75 6  245 336 
                                                                                
