 2012 1114 0037 31.1 L   6.777 -73.177141.5  RSN  6 0.2 1.3LRSN                1
 GAP=134        0.53       3.5     3.6  4.6 -0.1226E+01  0.3137E+01  0.1289E+01E
 Epicentro: LOS SANTOS - SANTANDER                                             3
 ACTION:UPD 12-12-05 15:33 OP:}ep  STATUS:               ID:20121114003731 L   I
 2012-11-14-0030-00M.COL___230                                                 6
 STAT SP IPHASW D HRMM SECON CODA AMPLIT PERI AZIMU VELO AIN AR TRES W  DIS CAZ7
 BAR2 SZ ES        038  5.10                             171    0.0510 20.5 182 
 BAR2 SZ I         038  6.29         7.0 0.20                          20.5 182 
 GIR2 SZ ES   1    038  5.21                             166   -0.13 7 33.4 357 
 BRR  HZ EP   1    037 52.25                             152    0.53 7 69.5 302 
 BRR  HN ES   1    038  7.97                             152    0.20 7 69.5 302 
 BRR  HZ I         038 11.39         5.2 0.66                          69.5 302 
 PAM  SZ EP   1    037 53.22                             149    0.07 7 81.5  40 
 PAM  SE ES   1    038 10.04                             149   -0.28 7 81.5  40 
 PAM  SZ I         038 15.85         3.0 0.40                          81.5  40 
 RUS  HZ EP   1    037 54.22                             143   -0.08 7 98.4 174 
 RUS  HN ES   1    038 12.47                             143    0.10 7 98.4 174 
 RUS  HZ I         038 13.95         3.1 0.32                          98.4 174 
 PTB  HZ EP   1    037 57.05                             132   -0.35 7  144 260 
 PTB  HN ES   1    038 17.67                             132   -0.21 7  144 260 
 PTB  HZ I         038 18.94         2.6 0.12                           144 260 
                                                                                
