 2013  414 0255 15.8 L   6.805 -73.155142.4  RSN  8 0.5 2.3LRSN                1
 GAP=135        1.38       5.3     6.0  7.8 -0.6620E+01  0.1284E+02 -0.6811E+00E
 Epicentro: LOS SANTOS - SANTANDER                                             3
 ACTION:UPD 13-05-22 14:38 OP:EP   STATUS:               ID:20130414025515 L   I
 2013-04-14-0248-48M.COL___212                                                 6
 STAT SP IPHASW D HRMM SECON CODA AMPLIT PERI AZIMU VELO AIN AR TRES W  DIS CAZ7
 BAR2 SZ EP        255 34.86                             170   -0.1410 23.7 187 
 BAR2 SZ ES        255 50.18                             170    0.1810 23.7 187 
 BAR2 SZ I         255 50.88        48.1 0.42            169           23.7 187 
 GIR2 SZ EP        255 35.01                             167   -0.0110 30.5 352 
 GIR2 SZ ES        255 50.05                             167    0.0210 30.5 352 
 BRR  HZ EP        255 36.75                             152    0.2710 70.0 299 
 BRR  HN ES        255 53.66                             152    1.0210 70.0 299 
 BRR  HN I         255 54.18        83.1 0.22            150           70.0 299 
 PAM  SZ EP        255 37.76                             150    0.1210 77.6  40 
 PAM  SZ I         255 38.05        41.2 0.24            152           77.6  40 
 PAM  SN ES        255 54.76                             150    0.0610 77.6  40 
 RUS  HZ EP        255 39.42                             143    0.1910  101 175 
 RUS  HN ES        255 57.15                             143   -0.3910  101 175 
 RUS  HZ I         255 59.19         7.8 0.30            143            101 175 
 PTB  HZ EP        255 41.50                             131   -0.87 9  147 259 
 PTB  HN ES        256  2.31                             131   -0.82 9  147 259 
 PTB  HN I         256  4.82        34.1 0.20            130            147 259 
 OCA  HZ EP        255 44.08                             129    0.33 9  160 353 
 OCA  HN ES        256  4.57                             129   -1.01 9  160 353 
 OCA  HZ I         256  8.30        14.8 0.46            129            160 353 
 OCA  HN I         256  8.86        67.2 0.30                           160 353 
 HEL  HZ EP        255 56.68                             114    0.97 8  271 256 
 HEL  HE ES        256 27.14                             114    0.28 8  271 256 
 HEL  HE I         256 33.83         9.5 0.54            114            271 256 
                                                                                
