 2017  414 0252 19.9 L   6.732 -73.201152.4  RSN  4 0.3 1.1LRSN                1
 GAP=226        0.71       5.7     5.3  5.7  0.1459E+02  0.2903E+01  0.8492E+00E
 Epicentro: VILLANUEVA - SANTANDER                                             3
 ACTION:UPD 17-05-30 21:11 OP:jn   STATUS:               ID:20170414025219 L   I
 OLDACT:UP  17-04-14 14:45 OP:edw  STATUS:               ID:20170414024740     3
 OLDACT:REG 17-04-14 12:24 OP:edw  STATUS:               ID:20170414024740     3
 2017-04-14-0248-00M.COL___368                                                 6
 STAT SP IPHASW D HRMM SECON CODA AMPLIT PERI AZIMU VELO AIN AR TRES W  DIS CAZ7
 BAR2 EZ EP        252 39.65                             174   -0.5310 15.6 173 
 BAR2 EZ ES        252 55.86                             174   -0.1610 15.6 173 
 BAR2 EZ I         252 58.48         7.4 0.78            171           15.6 173 
 BRR  HZ EP        252 41.93                             154    0.2410 70.1 306 
 BRR  HN ES        252 58.92                             154    0.2210 70.1 306 
 RUS  HZ EP        252 44.01                             147    0.1910 93.8 172 
 RUS  HN ES        253  2.69                             147    0.1910 93.8 172 
 RUS  HZ I         253  4.20         1.3 0.28            147           93.8 172 
 PTB  HZ EP        252 46.79                             135    0.03 9  140 261 
 PTB  HN ES        253  7.53                             135   -0.20 9  140 261 
 PTB  HZ I         253 10.91         1.1 0.18            135            140 261 
                                                                                
