 2014  714 0150 10.4 L   6.687 -73.208146.0  RSN  4 0.3 1.4LRSN                1
 GAP=215        0.67       7.9     5.0  6.1  0.9210E+01  0.4638E+01  0.4007E+01E
 Epicentro: VILLANUEVA - SANTANDER                                             3
 ACTION:UPD 15-03-16 20:43 OP:nd   STATUS:               ID:20140714015010 L   I
 OLDACT:REG 14-07-14 12:50 OP:fm   STATUS:               ID:20140714014816     3
 2014-07-14-0148-16M.COL___253                                                 6
 STAT SP IPHASW D HRMM SECON CODA AMPLIT PERI AZIMU VELO AIN AR TRES W  DIS CAZ7
 BAR2 SZ EP        150 29.82                             176   -0.0810 10.9 165 
 BAR2 SZ ES   1    150 44.84                             176   -0.25 7 10.9 165 
 BAR2 SZ I         150 45.86         5.4 0.44            173           10.9 165 
 BRR  HZ EP        150 31.70                             152    0.0310 72.5 310 
 BRR  HN ES        150 48.56                             152    0.3210 72.5 310 
 BRR  HZ I         150 49.06         6.9 0.42            153           72.5 310 
 PTB  HZ EP        150 36.60                             134   -0.03 9  139 263 
 PTB  HN ES        150 57.22                             134    0.15 9  139 263 
 PTB  HZ I         150 59.32         2.6 0.24            134            139 263 
 ZAR  HZ EP   1    150 43.01                             123    0.25 6  203 296 
 ZAR  HN ES   1    151  7.16                             123   -0.82 6  203 296 
 SJC  HZ EP   4    151  3.81                             106   -2.99 0  416 329 
                                                                                
