 2011  814 0907 34.2 L   6.817 -73.158145.7  RSN  4 0.2 1.2LRSN                1
 GAP=238        0.49       5.9    10.1  5.3  0.4462E+02 -0.2865E+01 -0.2577E+01E
 Epicentro: LOS SANTOS - SANTANDER                                             3
 ACTION:UPD 12-07-13 15:51 OP:ep   STATUS:               ID:20110814090734 L   I
 2011-08-14-0900-00M.COL___151                                                 6
 STAT SP IPHASW D HRMM SECON CODA AMPLIT PERI AZIMU VELO AIN AR TRES W  DIS CAZ7
 BAR2 SZ EP        9 7 53.85                             170    0.0110 25.0 186 
 BAR2 SZ ES   1    9 8  9.55                             170    0.38 7 25.0 186 
 BAR2 SZ I         9 8 11.92         3.8 0.22                          25.0 186 
 BRR  HZ EP   1    9 7 54.99                             153   -0.21 7 69.0 298 
 BRR  HE ES   1    9 8 11.52                             153   -0.08 7 69.0 298 
 BRR  HZ I         9 8 15.52         4.7 0.12                          69.0 298 
 RUS  HZ EP   1    9 7 58.13                             143    0.06 7  103 175 
 RUS  HZ I         9 7 58.97         1.4 0.18                           103 175 
 RUS  HE ES        9 8 16.53                             143   -0.1810  103 175 
 NOR  SZ EP   2    9 8 10.39                             119    0.49 4  235 234 
                                                                                
