 2016 1114 0010 34.5 L   6.807 -73.151146.0  RSN  6 0.5 1.4LRSN                1
 GAP=148        1.36       6.8     6.3 10.0 -0.2454E+01  0.9280E+01  0.2378E+02E
 Epicentro: LOS SANTOS - SANTANDER                                             3
 ACTION:UPD 17-10-26 21:07 OP:lp   STATUS:               ID:20161114001034 L   I
 OLDACT:REG 16-11-14 12:35 OP:lv   STATUS:               ID:20161114000000     3
 2016-11-14-0000-15M.COL___340                                                 6
 STAT SP IPHASW D HRMM SECON CODA AMPLIT PERI AZIMU VELO AIN AR TRES W  DIS CAZ7
 BAR2 EZ EP        010 54.22                             170    0.0810 24.0 188 
 BAR2 EZ ES        011  9.26                             170   -0.2310 24.0 188 
 BAR2 EZ I         011 11.75         9.7 0.28            169           24.0 188 
 BRR  HZ EP        010 55.97                             153    0.3810 70.3 298 
 BRR  HE ES        011 12.97                             153    0.9010 70.3 298 
 PAM  EZ EP        010 56.88                             151    0.1810 77.2  40 
 PAM  EN ES        011 13.54                             151   -0.5010 77.2  40 
 PAM  EZ I         011 16.99         2.8 0.28            153           77.2  40 
 PTB  HZ EP        011  0.62                             132   -0.79 9  147 258 
 PTB  HE ES        011 21.56                             132   -0.87 9  147 258 
 PTB  HZ I         011 24.30         2.6 0.12            133            147 258 
 ZAR  HN ES        011 32.39                             123    0.30 9  203 292 
 ZAR  HZ I         011 37.17         2.3 0.21            123            203 292 
 CHI  HZ EP        011 12.24                             117   -0.00 8  249 195 
 CHI  HN ES        011 42.38                             117    0.67 8  249 195 
 CHI  HZ I         011 46.84         1.1 0.17            118            249 195 
                                                                                
