 2017  614 0245  8.6 L   6.823 -73.096150.0  RSN  5 0.4 1.9LRSN                1
 GAP=285        0.88       5.1     8.4  8.2 -0.4555E+01 -0.1953E+02  0.9205E+01E
 Epicentro: LOS SANTOS - SANTANDER                                             3
 ACTION:UPD 17-09-14 16:51 OP:jn   STATUS:               ID:20170614024508 L   I
 OLDACT:UP  17-06-14 15:09 OP:ar   STATUS:               ID:20170614023645     3
 OLDACT:REG 17-06-14 12:44 OP:ar   STATUS:               ID:20170614023645     3
 2017-06-14-0238-00M.COL___356                                                 6
 STAT SP IPHASW D HRMM SECON CODA AMPLIT PERI AZIMU VELO AIN AR TRES W  DIS CAZ7
 BRR  HZ EP        245 30.51                             152    0.0710 75.0 295 
 BRR  HN ES        245 47.53                             152    0.0710 75.0 295 
 BRR  HZ I         245 48.27        10.1 0.14            149           75.0 295 
 PTB  HZ EP        245 35.70                             132   -0.76 9  154 258 
 PTB  HN ES        245 58.35                             132    0.17 9  154 258 
 PTB  HZ I         245 59.88         5.1 0.20            129            154 258 
 SPBC HZ EP        245 37.72                             129   -0.24 9  169 220 
 SPBC HE ES        246  0.95                             129    0.11 9  169 220 
 SPBC HZ I         246  6.80        12.3 0.36            127            169 220 
 ZAR  HZ EP        245 42.44                             123    0.67 8  208 291 
 ZAR  HE ES        246  7.28                             123   -0.35 8  208 291 
 ZAR  HZ I         246 12.46         8.6 0.48            122            208 291 
 NOR  HZ EP        245 45.53                             119    0.30 8  241 235 
 NOR  HN ES        246 13.85                             119    0.06 8  241 235 
 NOR  HZ I         246 17.61         5.8 0.28            118            241 235 
                                                                                
