 2015  914 0104  1.3 L   6.801 -73.183141.4  RSN  8 0.4 1.6LRSN                1
 GAP=132        0.90       3.0     4.4  7.7 -0.2783E+00  0.1225E+02 -0.3735E+01E
 Epicentro: ZAPATOCA - SANTANDER                                               3
 ACTION:UPD 15-10-28 16:26 OP:cam  STATUS:               ID:20150914010401 L   I
 OLDACT:UP  15-09-14 13:52 OP:mh   STATUS:               ID:20150914005748     3
 OLDACT:REG 15-09-14 12:48 OP:mh   STATUS:               ID:20150914005748     3
 2015-09-14-0057-48M.COL___332                                                 6
 STAT SP IPHASW D HRMM SECON CODA AMPLIT PERI AZIMU VELO AIN AR TRES W  DIS CAZ7
 BAR2 EZ I         1 4 36.29         5.2 0.11            172           23.0 180 
 PAM  EN ES        1 4 40.33                             149   -0.0010 80.0  42 
 RUS  HZ EP        1 4 24.60                             143   -0.0910  101 174 
 RUS  HN ES        1 4 42.97                             143    0.0710  101 174 
 RUS  HZ I         1 4 44.23         2.5 0.62            147            101 174 
 PTB  HZ EP   1    1 4 26.60                             132   -0.97 7  144 258 
 PTB  HN ES        1 4 47.85                             132   -0.19 9  144 258 
 PTB  HZ I         1 4 50.37         3.9 0.10            132            144 258 
 OCA  HZ EP        1 4 28.99                             129   -0.27 9  160 355 
 OCA  HN ES   1    1 4 51.40                             129    0.37 7  160 355 
 OCA  HZ I         1 4 53.31         9.7 0.20            129            160 355 
 ZAR  HZ EP        1 4 33.95                             122    0.86 9  200 293 
 ZAR  HN ES        1 4 58.05                             122    0.18 9  200 293 
 ZAR  HZ I         1 5  3.09         4.8 0.40            122            200 293 
 SML  HZ EP        1 4 37.58                             117    0.06 8  242 336 
 SML  HN ES   1    1 5  5.24                             117   -0.51 6  242 336 
 SML  HZ I         1 5 12.72         5.9 0.26            118            242 336 
 CHI  HN ES        1 5  7.98                             116    0.16 8  248 194 
                                                                                
