 2015  114 0556 30.2 L   6.723 -73.190140.8  RSN  4 0.4 1.3LRSN                1
 GAP=230        1.03       7.2     7.6  8.5 -0.7247E+01  0.8173E+01  0.1330E+02E
 Epicentro: VILLANUEVA - SANTANDER                                             3
 ACTION:UPD 15-03-02 15:39 OP:nd   STATUS:               ID:20150114055630 L   I
 OLDACT:DUP 15-01-14 16:56 OP:carl STATUS:               ID:20150114054736d    3
 2015-01-14-0547-35M.COL___256                                                 6
 STAT SP IPHASW D HRMM SECON CODA AMPLIT PERI AZIMU VELO AIN AR TRES W  DIS CAZ7
 BAR2 EZ EP        556 48.86                             174   -0.1710 14.5 177 
 BAR2 EZ ES        557  3.51                             174   -0.2510 14.5 177 
 BAR2 EZ I         557  4.50         4.4 0.22            172           14.5 177 
 BRR  HZ EP        556 50.62                             151   -0.1710 71.7 306 
 BRR  HN ES        557  7.48                             151    0.5910 71.7 306 
 BRR  HZ I         557 11.04         3.9 0.54            151           71.7 306 
 PTB  HZ EP        556 55.74                             132   -0.41 9  142 262 
 PTB  HN ES        557 16.07                             132   -0.35 9  142 262 
 PTB  HZ I         557 18.33         2.8 0.28            132            142 262 
 SPBC HZ EP        556 58.10                             130    0.75 9  154 220 
 SPBC HN ES        557 18.61                             130    0.04 9  154 220 
 SPBC HZ I         557 23.00         3.7 0.10            131            154 220 
                                                                                
