 2016  714 0618 30.0 L   6.765 -73.215156.9  RSN  5 0.4 1.2LRSN                1
 GAP=225        1.11       6.8     7.1  8.1  0.9020E+01  0.5981E+01  0.4386E+01E
 Epicentro: ZAPATOCA - SANTANDER                                               3
 ACTION:UPD 17-03-29 16:50 OP:lp   STATUS:               ID:20160714061830 L   I
 OLDACT:UP  16-07-14 15:18 OP:dani STATUS:               ID:20160714060759     3
 OLDACT:UP  16-07-14 15:17 OP:dani STATUS:               ID:20160714060759     3
 OLDACT:REG 16-07-14 12:43 OP:dani STATUS:               ID:20160714060759     3
 2016-07-14-0607-59S.COL___322                                                 6
 STAT SP IPHASW D HRMM SECON CODA AMPLIT PERI AZIMU VELO AIN AR TRES W  DIS CAZ7
 BAR2 EZ EP        618 50.29                             173   -0.5710 19.4 169 
 BAR2 EZ ES        619  7.95                             173    0.7910 19.4 169 
 BAR2 EZ I         619  8.52         2.6 0.46            171           19.4 169 
 BRR  HZ EP        618 52.22                             156    0.1310 66.7 305 
 BRR  HN ES        619  9.14                             156   -0.2110 66.7 305 
 BRR  HZ I         619 12.46         3.5 0.14            155           66.7 305 
 RUS  HZ EP        618 54.70                             147    0.0910 97.5 171 
 RUS  HN ES        619 13.28                             147   -0.5610 97.5 171 
 RUS  HZ I         619 15.14         1.5 0.28            148           97.5 171 
 PTB  HZ EP        618 57.02                             136   -0.12 9  140 260 
 PTB  HN ES        619 18.18                             136   -0.17 9  140 260 
 PTB  HZ I         619 21.77         2.5 0.16            136            140 260 
 SPBC HZ EP        618 59.26                             133    0.63 9  155 218 
 SPBC HE ES        619 21.06                             133    0.07 9  155 218 
 SPBC HZ I         619 25.68         2.9 0.16            133            155 218 
                                                                                
