 2015 1114 0941 28.7 L   6.806 -73.090146.7  RSN 18 0.5 2.1LRSN                1
 GAP=143        1.13       2.7     4.4  5.5 -0.2347E+01  0.8459E+01  0.1491E+01E
 Epicentro: LOS SANTOS - SANTANDER                                             3
 ACTION:UPD 15-12-28 16:10 OP:cam  STATUS:               ID:20151114094128 L   I
 OLDACT:UP  15-11-15 02:08 OP:dnl  STATUS:               ID:20151114093751     3
 OLDACT:REG 15-11-14 15:05 OP:dnl  STATUS:               ID:20151114093751     3
 2015-11-14-0937-51M.COL___314                                                 6
 STAT SP IPHASW D HRMM SECON CODA AMPLIT PERI AZIMU VELO AIN AR TRES W  DIS CAZ7
 BAR2 EZ EP        941 48.38                             170   -0.0710 25.7 203 
 BAR2 EZ ES        942  3.95                             170    0.0610 25.7 203 
 BAR2 EZ I         942  6.27        22.4 0.28            167           25.7 203 
 PAM  EZ EP        941 51.08                             152    0.3610 73.1  36 
 PAM  EN ES        942  8.59                             152    0.6610 73.1  36 
 PAM  EZ I         942 10.72        18.7 0.20            158           73.1  36 
 BRR  HZ EP        941 50.32                             151    0.1110 76.4 296 
 BRR  HN ES        942  7.34                             151    0.3210 76.4 296 
 BRR  HZ I         942 15.66        12.3 0.34            149           76.4 296 
 RUS  HZ EP        941 52.47                             144   -0.0610  101 180 
 RUS  HE ES        942 10.50                             144   -0.6510  101 180 
 RUS  HZ I         942 12.37         7.3 0.46            147            101 180 
 OCA  HZ EP        941 57.31                             130    0.25 9  160 351 
 OCA  HN ES        942 18.54                             130   -0.68 9  160 351 
 OCA  HZ I         942 23.76        16.8 0.30            133            160 351 
 SPBC HZ EP        941 57.52                             128   -0.13 9  168 220 
 SPBC HE ES        942 20.51                             128    0.25 9  168 220 
 SPBC HZ I         942 25.39        26.6 0.16            130            168 220 
 ZAR  HZ EP        942  2.70                             122    0.97 8  210 291 
 ZAR  HN ES        942 27.53                             122   -0.00 8  210 291 
 ZAR  HZ I         942 32.99        12.4 0.22            123            210 291 
 NOR  HZ EP        942  4.64                             118   -0.38 8  240 235 
 NOR  HN ES        942 32.53                             118   -0.86 8  240 235 
 NOR  HZ I         942 36.41         9.8 0.20            120            240 235 
 SML  HZ EP        942  5.45                             117   -0.11 8  246 334 
 SML  HN ES        942 33.22                             117   -1.12 8  246 334 
 SML  HZ I         942 37.10        13.2 0.26            120            246 334 
 CHI  HZ EP        942  6.73                             117    0.07 8  251 196 
 CHI  HE ES        942 35.48                             117   -0.82 8  251 196 
 CHI  HZ I         942 41.90         4.0 0.42            120            251 196 
 ROSC BZ EP   2    942  8.02                             116    0.78 4  257 212 
 ROSC BN ES        942 37.63                             116    0.30 8  257 212 
 HEL  HZ EP        942  9.62                             114    0.02 7  278 256 
 HEL  HN ES        942 41.78                             114    0.25 7  278 256 
 HEL  HZ I         942 47.15         6.5 0.38            116            278 256 
 GUY2CHZ EP   4    942 14.68                             112    1.76 0  307 235 
 GUY2CHN ES        942 48.05                             112    0.60 7  307 235 
 GUY2CHZ I         942 55.40        11.3 0.76                           307 235 
 CBOC HZ EP        942 15.88                             110   -0.43 7  340 252 
 CBOC HN ES   4    942 45.85                             110   -7.63 0  340 252 
 CBOC HZ I         943  0.79         1.9 0.50            111            340 252 
 MON  HZ EP   4    942 25.69                             108    7.48 0  358 308 
 MON  HN ES   4    942 53.43                             108   -3.44 0  358 308 
 MON  HZ I         942 56.91         2.2 0.40            110            358 308 
 ANIL HZ EP   4    942 24.76                             108    5.70 0  362 225 
 ANIL HN ES   4    943  0.49                             108    2.13 0  362 225 
 ANIL HZ I         943  2.62        13.6 0.44            110            362 225 
 PRA  HZ EP        942 21.85                             106   -0.79 6  396 210 
 PRA  HN ES        943  5.42                             106    0.68 6  396 210 
 PRA  HZ I         943  9.97         6.2 0.62            109            396 210 
 ORTC HZ EP        942 23.66                             106    0.56 6  400 217 
 ORTC HN ES        943  6.07                             106    0.51 6  400 217 
 ORTC HZ I         943 13.23         5.0 0.58            108            400 217 
                                                                                
