 2010  314 0530 48.0 L   6.863 -73.044146.2  RSN 12 0.4 3.0LRSN                1
 GAP=194        0.87       3.4     6.9  5.6 -0.3639E+00  0.8241E+01  0.4286E+01E
 Epicentro: LOS SANTOS - SANTANDER                                             3
 ACTION:UP  10-08-24 09:53 OP:vdl  STATUS:               ID:20100314053048 L   I
 2010-03-14-0527-38S.COL___095                                                 6
 STAT SP IPHASW D HRMM SECON CODA AMPLIT PERI AZIMU VELO SNR AR TRES W  DIS CAZ7
 BAR2 SZ IP        531  8.11                             166     0.110   34 207 
 BAR2 SZ ES   1    531 23.46                             166    -0.1 7   34 207 
 BRR  HZ IP        531  9.71                             150     0.010   79 290 
 BRR  HE ES        531 26.74                             150     0.210   79 290 
 BRR  HZ I         531 28.77       281.1 0.07                            79 290 
 RUS  HZ IP        531 12.25                             142    -0.110  107 182 
 RUS  HE ES   1    531 31.13                             142    -0.1 7  107 182 
 RUS  HZ I         531 32.97        60.0 0.33                           107 182 
 OCA  SZ EP        531 15.94                             131     0.0 9  155 349 
 OCA  SZ ES   1    531 37.18                             131    -0.5 7  155 349 
 OCA  SZ I         531 39.16       184.9 0.08                           155 349 
 CHI  HZ EP   1    531 26.74                             116    -0.1 6  258 197 
 CHI  HE ES   1    531 56.29                             116    -0.8 6  258 197 
 CHI  HZ I         532  2.15        31.5 0.29                           258 197 
 ROSC BZ EP        531 28.38                             115     0.9 8  265 212 
 ROSC BZ I         532  5.44        46.9 0.67                           265 212 
 HEL  HZ EP   1    531 29.86                             114     0.2 6  285 255 
 HEL  HZ I         532  6.81        64.6 0.22                           285 255 
 RREF BZ EP   1    531 35.80                             110     0.1 5  335 230 
 RREF BN ES   2    532 12.09                             110    -0.8 3  335 230 
 RREF BZ I         532 20.07        48.6 0.34                           335 230 
 DBB  SZ IP        531 36.01                             109    -0.8 6  350 273 
 TOL  SZ EP   1    531 37.79                             108     0.0 5  356 225 
 TOL  SZ ES   2    532 16.87                             108     0.3 3  356 225 
 ANIL BZ EP   1    531 39.99                             108     0.6 5  370 225 
 ANIL BN ES   1    532 19.71                             108     0.3 5  370 225 
 ANIL BZ I         532 22.95        91.8 0.42                           370 225 
 PRA  HZ EP   2    531 42.14                             106    -0.8 3  404 210 
 PRA  HE ES   2    532 24.72                             106    -1.0 3  404 210 
 PRA  HZ I         532 31.45        42.6 0.48                           404 210 
                                                                                
