 2016  314 0705 29.7 L   6.817 -73.218135.1  RSN  8 0.5 1.5LRSN                1
 GAP=126        0.94       4.4     6.4  9.7 -0.9729E+01  0.1958E+02  0.6944E+01E
 Epicentro: ZAPATOCA - SANTANDER                                               3
 ACTION:UPD 16-05-13 21:24 OP:cam  STATUS:               ID:20160314070529 L   I
 OLDACT:UP  16-03-28 15:55 OP:Mher STATUS:               ID:20160314070529 L   3
 OLDACT:REG 16-03-14 12:53 OP:dnl  STATUS:               ID:20160314065751     3
 2016-03-14-0657-51M.COL___292                                                 6
 STAT SP IPHASW D HRMM SECON CODA AMPLIT PERI AZIMU VELO AIN AR TRES W  DIS CAZ7
 BAR2 EZ EP        7 5 48.26                             169    0.2010 25.1 171 
 BAR2 EZ ES   2    7 6  2.11                             169   -0.30 5 25.1 171 
 BAR2 EZ I         7 6  4.02         7.1 0.23            170           25.1 171 
 PAM  EZ EP        7 5 51.45                             147    0.4310 81.4  45 
 PAM  EN ES        7 6  8.10                             147    0.4310 81.4  45 
 PAM  EZ I         7 6 10.67         5.3 0.58            153           81.4  45 
 RUS  HZ EP        7 5 52.22                             140   -0.3810  103 172 
 RUS  HE ES   2    7 6  9.70                             140   -0.78 5  103 172 
 RUS  HZ I         7 6 11.46         3.1 0.22            147            103 172 
 PTB  HZ EP        7 5 54.98                             131   -0.12 9  140 257 
 PTB  HN ES   2    7 6 16.01                             131    1.08 5  140 257 
 PTB  HZ I         7 6 18.18         5.4 0.17            131            140 257 
 OCA  HZ EP   4    7 5 58.08                             127    1.16 0  158 356 
 OCA  HE ES        7 6 17.52                             127   -0.66 9  158 356 
 OCA  HZ I         7 6 23.33         6.7 0.29            130            158 356 
 SPBC HZ EP        7 5 57.09                             127    0.05 9  160 216 
 SPBC HN ES   2    7 6 18.18                             127   -0.21 5  160 216 
 SPBC HZ I         7 6 24.93         3.6 0.10            130            160 216 
 ZAR  HE ES   4    7 6 26.16                             121    1.45 0  196 293 
 ZAR  HZ I         7 6 32.50         2.2 0.10            122            196 293 
 GUY2CHZ EP   9    7 6 14.92                             111    2.73 0  296 234 
 GUY2CHE ES        7 6 47.70                             111   -0.39 7  296 234 
 GUY2CHZ I         7 6 53.60         1.4 0.30                           296 234 
                                                                                
