 2017  114 0530 41.6 L   6.713 -73.163152.0  RSN  7 0.3 1.4LRSN                1
 GAP= 91        0.60       3.9     3.4  4.3  0.6344E+01 -0.2787E+01 -0.3527E+01E
 Epicentro: VILLANUEVA - SANTANDER                                             3
 ACTION:UPD 17-05-22 15:59 OP:jn   STATUS:               ID:20170114053041 L   I
 OLDACT:UP  17-03-28 21:13 OP:jn   STATUS:               ID:20170114053041 L   3
 OLDACT:UP  17-03-28 20:26 OP:nlst STATUS:               ID:20170114053041 L   3
 OLDACT:UP  17-01-14 15:12 OP:dani STATUS:               ID:20170114052742     3
 OLDACT:REG 17-01-14 12:36 OP:dani STATUS:               ID:20170114052742     3
 2017-01-14-0528-00M.COL___323                                                 6
 STAT SP IPHASW D HRMM SECON CODA AMPLIT PERI AZIMU VELO AIN AR TRES W  DIS CAZ7
 BAR2 EZ EP        531  1.77                             175   -0.0310 13.5 189 
 BAR2 EZ ES        531 17.22                             175   -0.3610 13.5 189 
 BAR2 EZ I         531 18.39         5.5 0.24            176           13.5 189 
 BRR  HZ EP        531  3.71                             152    0.1210 74.7 306 
 BRR  HN ES        531 21.10                             152    0.3310 74.7 306 
 BRR  HZ I         531 24.57         4.2 0.14            152           74.7 306 
 PAM  EZ EP        531  4.84                             149   -0.1410 86.2  36 
 PAM  EN ES   3    531 22.65                             149   -0.59 2 86.2  36 
 PAM  EZ I         531 24.26         4.7 0.48            150           86.2  36 
 RUS  HZ EP        531  5.39                             148    0.0810 91.2 174 
 RUS  HN ES        531 24.01                             148    0.1910 91.2 174 
 RUS  HZ I         531 25.07         2.2 0.62            151           91.2 174 
 PTB  HZ EP        531  8.40                             134   -0.35 9  144 262 
 PTB  HN ES   3    531 29.00                             134   -0.95 2  144 262 
 PTB  HZ I         531 30.39         2.7 0.16            135            144 262 
 TAM  HZ EP        531  9.89                             132    0.16 9  155 101 
 ZAR  HN ES        531 40.52                             123    0.09 8  206 295 
 ZAR  HZ I         531 44.10         2.2 0.09            124            206 295 
                                                                                
