 2015  914 0528  1.9 L   6.824 -73.157143.8  RSN 21 0.4 2.4LRSN                1
 GAP=134        0.96       2.2     3.5  4.6 -0.9882E+00  0.4884E+01  0.1253E+01E
 Epicentro: LOS SANTOS - SANTANDER                                             3
 ACTION:UPD 15-10-28 16:26 OP:cam  STATUS:               ID:20150914052801 L   I
 OLDACT:UP  15-09-14 17:36 OP:mh   STATUS:               ID:20150914051748     3
 OLDACT:UP  15-09-14 17:33 OP:mh   STATUS:               ID:20150914051748     3
 OLDACT:UP  15-09-14 17:01 OP:mh   STATUS:               ID:20150914051748     3
 OLDACT:UP  15-09-14 17:01 OP:mh   STATUS:               ID:20150914051748     3
 OLDACT:UP  15-09-14 17:00 OP:mh   STATUS:               ID:20150914051748     3
 OLDACT:REG 15-09-14 12:54 OP:mh   STATUS:               ID:20150914051748     3
 2015-09-14-0517-48M.COL___329                                                 6
 STAT SP IPHASW D HRMM SECON CODA AMPLIT PERI AZIMU VELO AIN AR TRES W  DIS CAZ7
 BAR2 EZ EP        528 21.34                             169    0.0110 25.8 186 
 BAR2 EZ ES        528 36.18                             169   -0.3210 25.8 186 
 BAR2 EZ I         528 37.58        33.0 0.16            169           25.8 186 
 BRR  HZ IP     D  528 23.12                             153    0.4310 68.8 297 
 BRR  HN ES        528 39.75                             153    0.8310 68.8 297 
 BRR  HZ I         528 43.60        28.2 0.16            150           68.8 297 
 PAM  EZ IP     D  528 24.31                             151    0.5010 76.2  42 
 PAM  EN ES        528 41.05                             151    0.1310 76.2  42 
 PAM  EZ I         528 42.86        26.1 0.44            154           76.2  42 
 RUS  HZ EP        528 25.44                             143   -0.2010  103 175 
 RUS  HN ES        528 44.05                             143   -0.1310  103 175 
 PTB  HZ EP        528 28.04                             132   -0.59 9  147 258 
 PTB  HN ES        528 49.11                             132   -0.38 9  147 258 
 PTB  HZ I         528 53.84        18.9 0.52            130            147 258 
 OCA  HZ EP   1    528 29.20                             130   -0.57 7  157 353 
 OCA  HN ES        528 51.05                             130   -0.48 9  157 353 
 OCA  HZ I         528 55.65        41.7 0.18            130            157 353 
 SPBC HZ EP        528 30.40                             128    0.05 9  164 218 
 SPBC HN ES        528 52.13                             128   -0.44 9  164 218 
 SPBC HZ I         528 59.88        29.1 0.40            128            164 218 
 ZAR  HZ EP   1    528 33.81                             122   -0.16 6  202 292 
 ZAR  HN ES        528 58.98                             122   -0.03 9  202 292 
 ZAR  HZ I         529  4.46        20.4 0.44            122            202 292 
 NOR  HZ EP   1    528 37.55                             118   -0.01 6  235 234 
 NOR  HE ES        529  6.10                             118    0.72 8  235 234 
 NOR  HZ I         529  8.40        14.2 0.16            118            235 234 
 SML  HZ EP   1    528 38.00                             117   -0.07 6  241 335 
 SML  HN ES        529  5.74                             117   -0.57 8  241 335 
 SML  HZ I         529 10.98        22.4 0.26            118            241 335 
 CHI  HZ EP        528 39.94                             116    0.22 8  251 195 
 CHI  HN ES        529  9.03                             116   -0.20 8  251 195 
 CHI  HZ I         529 12.38        13.1 0.46            118            251 195 
 ROSC BZ EP   4    528 41.63                             116    1.56 0  254 210 
 ROSC BN ES   4    529 12.18                             116    2.31 0  254 210 
 ROSC BZ I         529 14.86        18.3 0.60            117            254 210 
 HEL  HZ EP        528 42.43                             114    0.50 8  272 255 
 HEL  HN ES        529 13.03                             114   -0.15 8  272 255 
 HEL  HZ I         529 20.46        11.5 0.22            114            272 255 
 URE  HZ EP   4    528 41.16                             113   -1.45 0  282 291 
 URE  HN ES   4    529 11.76                             113   -2.63 0  282 291 
 URE  HZ I         529 16.52        12.0 0.14            113            282 291 
 GUY2CHZ EP   1    528 45.62                             112    0.16 5  302 234 
 GUY2CHN ES   4    529 23.07                             112    3.62 0  302 234 
 GUY2CHZ I         529 29.14        11.1 0.34                           302 234 
 LL2C HZ EP   4    528 47.30                             112    2.24 0  304 354 
 LL2C HN ES   1    529 19.80                             112    1.07 5  304 354 
 LL2C HZ I         529 24.58        15.9 0.32            112            304 354 
 VIL  SZ EP   4    528 43.48                             111   -2.00 0  306 191 
 VIL  SN ES   1    529 19.46                             111   -0.02 5  306 191 
 PTGC HZ EP   4    528 44.55                             111   -1.43 0  312 159 
 PTGC HN ES   4    529 17.63                             111   -2.76 0  312 159 
 DBB  SZ EP        528 48.74                             109   -0.37 7  338 274 
 DBB  SZ ES   4    529 25.22                             109   -0.73 0  338 274 
 DBB  SZ I         529 27.75        20.6 0.47            109            338 274 
 PRA  HZ EP   1    528 55.00                             106   -0.53 4  394 209 
 PRA  HN ES        529 37.12                             106   -0.26 6  394 209 
 PRA  HZ I         529 43.73        11.6 0.28            107            394 209 
 ORTC HZ EP        528 56.03                             106    0.13 6  397 216 
 ORTC HN ES        529 39.10                             106    1.06 6  397 216 
 ORTC HZ I         529 42.26         5.5 0.24            107            397 216 
 SJC  HZ EP   4    528 55.17                             105   -1.86 0  406 327 
 SJC  HN ES   4    529 36.05                             105   -4.00 0  406 327 
 SJC  HZ I         529 50.65         3.0 0.74            106            406 327 
                                                                                
