 2014 1214 0546 19.2 L   6.748 -73.166144.6  RSN  5 0.4 1.2LRSN                1
 GAP=136        1.14       6.0     5.8  8.4 -0.3180E+01  0.5983E+01  0.1734E+01E
 Epicentro: LOS SANTOS - SANTANDER                                             3
 ACTION:UPD 15-02-10 17:03 OP:nd   STATUS:               ID:20141214054619 L   I
 OLDACT:DUP 14-12-14 18:25 OP:stll STATUS:               ID:20141214053746d    3
 OLDACT:DUP 14-12-14 18:20 OP:stll STATUS:               ID:20141214053744d    3
 2014-12-14-0537-43M.COL___279                                                 6
 STAT SP IPHASW D HRMM SECON CODA AMPLIT PERI AZIMU VELO AIN AR TRES W  DIS CAZ7
 BAR2 EZ EP        546 38.75                             173    0.1510 17.3 186 
 BAR2 EZ ES        546 53.34                             173   -0.3710 17.3 186 
 BAR2 EZ I         546 55.31         5.3 0.22            175           17.3 186 
 BRR  HZ EP        546 40.58                             152    0.2810 72.2 303 
 BRR  HN ES        546 57.63                             152    0.8910 72.2 303 
 BRR  HZ I         547  0.66         3.1 0.24            153           72.2 303 
 PAM  SZ EP        546 41.47                             149   -0.2010 83.3  38 
 PAM  SN ES        546 58.80                             149   -0.3910 83.3  38 
 PAM  SZ I         547  1.11         3.4 0.48            150           83.3  38 
 RUS  HZ EP        546 42.72                             145    0.2610 95.0 174 
 RUS  HN ES        547  0.76                             145    0.1810 95.0 174 
 RUS  HZ I         547  1.63         2.5 0.54            148           95.0 174 
 PTB  HZ EP        546 45.61                             132   -0.18 9  145 261 
 PTB  HN ES        547  5.79                             132   -0.73 9  145 261 
 PTB  HZ I         547  6.85         2.0 0.16            135            145 261 
                                                                                
