 2010  714 0007 17.5 L   6.781 -73.073150.7  RSN 12 0.4 2.5LRSN                1
 GAP=164        0.95       3.9     7.8  6.3 -0.1110E+02  0.2330E+01  0.1301E+01E
 Epicentro: LOS SANTOS - SANTANDER                                             3
 ACTION:UPD 10-12-01 15:17 OP:pat  STATUS:               ID:20100714000717 L   I
 2010-07-14-0003-24S.COL___120                                                 6
 STAT SP IPHASW D HRMM SECON CODA AMPLIT PERI AZIMU VELO AIN AR TRES W  DIS CAZ7
 BAR2 SZ EP        0 7 37.84                             170     0.110   24 210 
 BAR2 SZ ES   1    0 7 52.86                             170    -0.7 7   24 210 
 BAR2 SZ I         0 7 54.66       129.2 0.15                            24 210 
 GIR2 SZ EP   1    0 7 38.03                             166     0.2 7   36 338 
 GIR2 SZ ES   1    0 7 53.55                             166    -0.2 7   36 338 
 BRR  HZ IP     C  0 7 39.78                             151     0.110   79 297 
 BRR  HZ I         0 7 40.14        46.6 0.06                            79 297 
 BRR  HE ES   1    0 7 57.13                             151     0.2 7   79 297 
 RUS  HZ IP     D  0 7 41.82                             145     0.310   98 181 
 RUS  HE ES   1    0 8  0.47                             145     0.1 7   98 181 
 RUS  HZ I         0 8  1.82        40.3 0.28                            98 181 
 BRI  SZ IP        0 7 41.46                             142    -0.410  108  16 
 BRI  SZ ES   2    0 8  0.54                             142    -0.2 5  108  16 
 BRI  SZ I         0 8  5.54        27.2 0.47                           108  16 
 GUE  SZ EP   1    0 7 41.75                             140    -1.0 7  117   8 
 GRA  SZ IP        0 7 43.73                             138     0.610  126  14 
 GRA  SZ ES   1    0 8  3.52                             138     0.3 7  126  14 
 GRA  SZ I         0 8  4.84        35.5 0.36                           126  14 
 OCA  SZ EP   1    0 7 46.38                             130    -0.1 7  164 350 
 OCA  SZ ES   1    0 8  9.40                             130     0.3 7  164 350 
 OCA  SZ I         0 8 11.84        30.1 0.46                           164 350 
 HEL  HZ EP   2    0 7 58.23                             115    -0.5 4  279 257 
 HEL  HZ I         0 8 35.56         9.5 0.45                           279 257 
 RREF HZ EP   2    0 8  4.74                             111     0.4 3  327 231 
 RREF HE ES   2    0 8 41.77                             111     0.8 3  327 231 
 RREF HZ I         0 8 48.73        16.9 0.17                           327 231 
 DBB  SZ EP   2    0 8  4.92                             110    -1.2 3  348 275 
 PRA  HZ EP   1    0 8 11.18                             107    -0.3 4  394 211 
 PRA  HN ES   1    0 8 53.32                             107    -0.2 4  394 211 
 PRA  HZ I         0 8 59.61        16.6 0.66                           394 211 
                                                                                
