 2015  714 0451 25.5 L   5.872 -73.696123.2  RSN  7 0.4 1.4LRSN                1
 GAP=121        0.93       4.1     3.5  9.1 -0.3835E+01  0.1509E+02 -0.5977E+00E
 Epicentro: PUENTE NACIONAL - SANTANDER                                        3
 ACTION:UPD 15-09-08 21:48 OP:cam  STATUS:               ID:20150714045125 L   I
 OLDACT:REG 15-07-14 14:11 OP:spq  STATUS:               ID:20150714044743     3
 2015-07-14-0447-43M.COL___340                                                 6
 STAT SP IPHASW D HRMM SECON CODA AMPLIT PERI AZIMU VELO AIN AR TRES W  DIS CAZ7
 RUS  HZ EP        451 44.81                             150    0.0210 67.8  88 
 RUS  HE ES        451 59.70                             150   -0.1110 67.8  88 
 RUS  HZ I         452  0.98         3.0 0.42            151           67.8  88 
 BAR2 EZ EP        451 46.90                             139    0.3410 97.8  35 
 BAR2 EZ ES   1    452  3.20                             139    0.23 7 97.8  35 
 NOR  HZ EP        451 49.07                             129   -0.4510  134 255 
 NOR  HN ES        452  7.75                             129   -0.4810  134 255 
 NOR  HZ I         452  8.71         5.6 0.20            129            134 255 
 GUY2CHZ EP        451 56.29                             118   -0.31 9  198 249 
 GUY2CHN ES        452 21.63                             118    0.80 9  198 249 
 GUY2CHZ I         452 26.37         1.1 0.20                           198 249 
 HEL  HZ EP   4    451 58.34                             117    1.05 0  206 280 
 HEL  HE ES        452 22.54                             117    0.48 8  206 280 
 HEL  HZ I         452 26.01         2.9 0.28            116            206 280 
 ZAR  HZ EP   1    451 58.62                             115    0.20 6  221 324 
 ZAR  HE ES        452 23.62                             115   -0.46 8  221 324 
 ZAR  HZ I         452 27.50         3.0 0.36            115            221 324 
 PRA  HZ EP   4    452  5.70                             110    1.34 0  273 209 
 PRA  HN ES        452 34.63                             110   -0.02 8  273 209 
 PRA  HZ I         452 39.39         2.7 0.20            109            273 209 
                                                                                
