 2012 1114 0410 32.5 L   5.852 -73.813111.5  RSN  4 0.4 1.3LRSN                1
 GAP=230        0.75       7.3     5.4 10.8  0.1717E+02  0.1689E+02  0.1307E+02E
 Epicentro: JESUS MARIA - SANTANDER                                            3
 ACTION:UPD 12-12-05 15:33 OP:}ep  STATUS:               ID:20121114041032 L   I
 2012-11-14-0410-00M.COL___230                                                 6
 STAT SP IPHASW D HRMM SECON CODA AMPLIT PERI AZIMU VELO AIN AR TRES W  DIS CAZ7
 RUS  HZ EP   1    410 51.81                             142    0.36 7 80.9  87 
 RUS  HN ES   1    411  6.32                             142    0.07 7 80.9  87 
 PTB  HZ EP   1    410 52.66                             134   -0.05 7  104 317 
 PTB  HE ES   1    411  8.38                             134   -0.11 7  104 317 
 PTB  HZ I         411  8.92         5.1 0.60                           104 317 
 BAR2 SZ EP   1    410 53.33                             133    0.02 7  108  40 
 BAR2 SZ ES   1    411  9.00                             133   -0.57 7  108  40 
 BRR  HZ EP   1    410 55.60                             125   -0.42 7  139   5 
 BRR  HN ES   1    411 15.10                             125    0.72 7  139   5 
 BRR  HZ I         411 16.07         2.5 0.13                           139   5 
                                                                                
