 2013  114 0405 57.2 L   6.774 -73.388124.2  RSN  4 0.4 1.0LRSN                1
 GAP=175        0.78       7.3     6.4  8.6  0.2254E+02  0.1170E+02  0.1263E+02E
 Epicentro: ZAPATOCA - SANTANDER                                               3
 ACTION:UPD 13-02-15 09:14 OP:ep   STATUS:               ID:20130114040557 L   I
 2013-01-14-0400-00M.COL___241                                                 6
 STAT SP IPHASW D HRMM SECON CODA AMPLIT PERI AZIMU VELO AIN AR TRES W  DIS CAZ7
 BAR2 SZ EP   1    4 6 14.38                             165   -0.03 7 30.4 131 
 BAR2 SZ ES   1    4 6 27.12                             165   -0.74 7 30.4 131 
 BRR  HZ EP   1    4 6 14.96                             156    0.05 7 51.3 316 
 BRR  HN ES   1    4 6 29.27                             156    0.54 7 51.3 316 
 BRR  HZ I         4 6 29.84         5.5 0.12            157           51.3 316 
 RUS  HZ EP   1    4 6 19.11                             138    0.03 7  103 161 
 RUS  HE ES   1    4 6 36.68                             138    0.51 7  103 161 
 RUS  HZ I         4 6 38.51         1.0 0.42            138            103 161 
 PTB  HZ EP   1    4 6 19.72                             133   -0.23 7  121 258 
 PTB  HN ES   1    4 6 37.57                             133   -0.15 7  121 258 
 PTB  HZ I         4 6 41.43         1.3 0.16            132            121 258 
                                                                                
