 2013  514 0239  5.7 L   6.825 -73.125146.0  RSN 11 0.5 2.0LRSN                1
 GAP= 71        1.12       4.0     4.5  6.3 -0.7971E+00  0.1921E+01  0.9968E+00E
 Epicentro: LOS SANTOS - SANTANDER                                             3
 ACTION:UPD 13-06-20 09:50 OP:ep   STATUS:               ID:20130514023905 L   I
 2013-05-14-0237-36M.COL___224                                                 6
 STAT SP IPHASW D HRMM SECON CODA AMPLIT PERI AZIMU VELO AIN AR TRES W  DIS CAZ7
 BAR2 SZ EP        239 25.33                             169   -0.0810 26.5 194 
 BAR2 SZ ES        239 40.67                             169   -0.1310 26.5 194 
 BAR2 SZ I         239 41.35        21.4 0.18            171           26.5 194 
 GIR2 SZ EP        239 25.43                             168    0.1010 29.0 345 
 GIR2 SZ ES        239 40.58                             168   -0.0710 29.0 345 
 GIR2 SZ I         239 42.28        15.0 0.20            165           29.0 345 
 BRR  HZ EP        239 27.36                             152    0.4610 71.9 296 
 BRR  HN ES        239 43.96                             152    0.5110 71.9 296 
 BRR  HZ I         239 50.11        12.4 0.14            150           71.9 296 
 PAM  SZ EP        239 28.30                             152    0.5910 73.8  40 
 PAM  SN ES        239 45.13                             152    0.2310 73.8  40 
 PAM  SZ I         239 47.45        28.1 0.64            153           73.8  40 
 RUS  HZ EP        239 29.37                             143   -0.2810  103 177 
 RUS  HN ES   1    239 47.15                             143   -1.19 7  103 177 
 RUS  HZ I         239 48.82        10.1 0.36            147            103 177 
 PTB  HZ EP   1    239 32.46                             131   -0.46 7  151 258 
 PTB  HN ES   1    239 54.25                             131    0.08 7  151 258 
 PTB  HZ I         239 55.36        11.6 0.12            132            151 258 
 TAM  HZ EP        239 33.66                             131    0.41 9  154 106 
 OCA  HN ES        239 55.05                             130   -0.65 9  158 352 
 OCA  HZ I         239 58.82        13.8 0.28            131            158 352 
 ZAR  HN ES   1    240  4.20                             122    0.54 6  205 291 
 ZAR  HZ I         240  9.52        10.8 0.12            123            205 291 
 NOR  HN ES        240 10.17                             118    0.21 8  238 234 
 SML  HZ EP        239 41.70                             118   -0.45 8  242 335 
 SML  HE ES   1    240  9.57                             118   -1.03 6  242 335 
                                                                                
