 2011  714 0128 40.4 L   6.794 -73.114145.3  RSN 26 0.4 3.5LRSN                1
 GAP=136        0.55       1.8     3.2  2.9 -0.2413E+01  0.1958E+01  0.1364E+01E
 Epicentro: LOS SANTOS - SANTANDER                                             3
 ACTION:UPD 12-07-25 14:00 OP:epov STATUS:               ID:20110714012840 L   I
 2011-07-14-0127-06S.COL___132                                                 6
 STAT SP IPHASW D HRMM SECON CODA AMPLIT PERI AZIMU VELO AIN AR TRES W  DIS CAZ7
 BTL  SZ EP   1    129  0.05                             171    0.15 7 21.9 309 
 BTL  SZ ES   1    129 15.62                             171    0.48 7 21.9 309 
 BAR2 SZ IP        128 59.90                             170   -0.0310 23.6 199 
 BAR2 SZ ES   1    129 15.11                             170   -0.09 7 23.6 199 
 BAR2 SZ I         129 17.25       967.3 0.24                          23.6 199 
 GIR2 SZ EP   1    129  0.19                             167    0.18 7 32.7 344 
 GIR2 SZ ES   1    129 15.30                             167   -0.04 7 32.7 344 
 BRR  HZ EP   1    129  1.73                             151    0.09 7 74.6 298 
 BRR  HE ES   1    129 18.43                             151    0.18 7 74.6 298 
 BRR  HZ I         129 22.82       803.6 0.13                          74.6 298 
 PAM  SZ EP   1    129  2.71                             151    0.29 7 75.7  37 
 PAM  SE ES   1    129 19.59                             151   -0.04 7 75.7  37 
 RUS  HZ EP   1    129  3.85                             144   -0.15 7 99.7 178 
 RUS  HN ES   1    129 22.07                             144   -0.37 7 99.7 178 
 RUS  HZ I         129 24.17       649.7 0.31                          99.7 178 
 BRI  SZ EP   1    129  4.44                             141    0.29 7  108  19 
 BRI  SZ ES   1    129 22.36                             141   -0.36 7  108  19 
 BRI  SZ I         129 27.75       369.0 0.40                           108  19 
 GRA  SZ IP        129  5.74                             137    0.2210  125  16 
 GRA  SZ ES   1    129 25.25                             137    0.10 7  125  16 
 GRA  SZ I         129 26.53       542.2 0.32                           125  16 
 OCA  SZ EP   1    129  8.53                             129   -0.20 7  161 352 
 OCA  SZ ES   1    129 30.11                             129   -0.75 7  161 352 
 OCA  SZ I         129 31.51       266.3 0.17                           161 352 
 NOR  SZ EP   1    129 15.98                             118   -0.34 6  237 235 
 NOR  SN ES   1    129 44.26                             118   -0.12 6  237 235 
 CHI  HZ EP   1    129 18.37                             117    0.31 6  249 196 
 CHI  HN ES   1    129 47.31                             117   -0.16 6  249 196 
 CHI  HZ I         129 55.64       137.7 0.42                           249 196 
 ROSC BN ES   1    129 48.85                             116    0.45 6  254 212 
 ROSC BZ I         129 56.55       246.8 0.42                           254 212 
 HEL  HZ EP   1    129 20.07                             114   -0.83 6  275 256 
 HEL  HZ I         129 59.11       293.9 0.43                           275 256 
 VIL  SZ EP   1    129 23.15                             112   -0.61 5  303 192 
 VIL  SE ES   1    129 57.67                             112    0.06 5  303 192 
 VIL  SZ I         130  7.56        64.7 0.32                           303 192 
 GUY  SZ EP   1    129 24.76                             112    0.27 5  306 236 
 GUY  SE ES   2    129 59.19                             112    0.28 4  306 236 
 GUY  SZ I         130  4.97       195.6 0.43                           306 236 
 DBB  SZ EP   1    129 28.30                             109    0.08 5  343 274 
 TOL  SZ EP   1    129 29.48                             109    0.66 5  346 225 
 PRA  HZ EP   1    129 33.60                             106   -0.39 4  393 210 
 PRA  HN ES   2    130 15.83                             106    0.00 3  393 210 
 SJA  SZ EP   1    129 35.24                             106    0.33 4  400 193 
 SJA  SZ ES   1    130 17.21                             106   -0.25 4  400 193 
 SJA  SZ I         130 22.03       221.9 0.40                           400 193 
 GUA  SZ ES   1    130 32.24                             103   -0.27 4  473 173 
 GUA  SZ I         130 38.61        24.2 0.19                           473 173 
 MARA HZ EP   1    129 50.98                             101   -0.56 3  539 216 
 MAL  SZ EP   1    129 54.48                             100    0.77 3  560 237 
 MAL  SZ I         129 57.22        31.6 0.48                           560 237 
 PCON HZ EP   1    130  1.77                              99    0.87 2  614 217 
 POP2 HZ EP   1    130  0.67                              99    0.10 2  614 220 
 POP2 HZ I         130  5.33        16.0 0.20                           614 220 
 POP2 HE ES   2    131  2.47                              99   -0.66 1  614 220 
 SOTA HZ EP   1    130  5.24                              99    0.68 2  645 217 
 SOTA HZ I         130 12.79        14.8 0.24                           645 217 
 GCUF HZ EP   1    130 20.47                              97    0.24 0  774 218 
                                                                                
