 2015  114 0548  1.2 L   6.772 -73.159143.0  RSN  9 0.5 1.6LRSN                1
 GAP=136        1.20       3.9     4.8  7.3 -0.3890E+01  0.8775E+01 -0.2143E+01E
 Epicentro: LOS SANTOS - SANTANDER                                             3
 ACTION:UPD 15-03-02 15:39 OP:nd   STATUS:               ID:20150114054801 L   I
 OLDACT:REG 15-01-14 14:21 OP:carl STATUS:               ID:20150114054735     3
 2015-01-14-0547-35M.COL___256                                                 6
 STAT SP IPHASW D HRMM SECON CODA AMPLIT PERI AZIMU VELO AIN AR TRES W  DIS CAZ7
 BAR2 EZ EP        548 20.10                             172   -0.3110 20.1 187 
 BAR2 EZ ES        548 35.41                             172    0.0010 20.1 187 
 BAR2 EZ I         548 36.25        11.1 0.22            174           20.1 187 
 BRR  HZ EP        548 22.59                             152    0.5510 71.5 301 
 BRR  HN ES        548 39.13                             152    0.8210 71.5 301 
 BRR  HZ I         548 41.31         6.9 0.26            151           71.5 301 
 PAM  SZ EP        548 23.36                             149    0.0610 80.7  39 
 PAM  SN ES        548 40.56                             149    0.0110 80.7  39 
 PAM  SZ I         548 42.71         7.1 0.44            150           80.7  39 
 RUS  HZ EP        548 23.99                             144   -0.4510 97.6 175 
 RUS  HN ES        548 42.67                             144    0.0810 97.6 175 
 RUS  HZ I         548 44.00         5.3 0.34            148           97.6 175 
 PTB  HZ EP        548 27.22                             132   -0.52 9  146 260 
 PTB  HN ES        548 47.61                             132   -0.85 9  146 260 
 PTB  HZ I         548 48.93         5.5 0.26            133            146 260 
 SPBC HZ EP        548 29.83                             129    0.68 9  160 219 
 SPBC HN ES        548 50.63                             129   -0.34 9  160 219 
 SPBC HZ I         548 53.29         5.9 0.18            131            160 219 
 OCA  HZ EP        548 29.87                             128    0.32 9  163 354 
 OCA  HN ES        548 51.00                             128   -0.67 9  163 354 
 OCA  HZ I         548 56.88         4.4 0.26            129            163 354 
 ZAR  HZ EP        548 33.60                             122    0.17 9  204 293 
 ZAR  HN ES        548 58.50                             122   -0.08 9  204 293 
 ZAR  HZ I         549  4.73         7.1 0.36            122            204 293 
 NOR  HE ES        549  4.50                             118    0.57 8  232 235 
                                                                                
