 2016 1214 0934  9.0 L   7.061 -73.325126.5  RSN  4 0.3 0.5LRSN                1
 GAP=237        0.62       7.4     4.4  7.5  0.1918E+02  0.3768E+01 -0.1392E+02E
 Epicentro: LEBRIJA - SANTANDER                                                3
 ACTION:UPD 17-01-11 20:15 OP:rebc STATUS:               ID:20161214093409 L   I
 OLDACT:DUP 16-12-14 17:27 OP:edw  STATUS:               ID:20161214092746d    3
 OLDACT:UP  16-12-14 17:24 OP:edw  STATUS:               ID:20161214092745     3
 OLDACT:UP  16-12-14 17:23 OP:edw  STATUS:               ID:20161214092745     3
 OLDACT:REG 16-12-14 12:48 OP:and  STATUS:               ID:20161214092745     3
 2016-12-14-0928-00M.COL___374                                                 6
 STAT SP IPHASW D HRMM SECON CODA AMPLIT PERI AZIMU VELO AIN AR TRES W  DIS CAZ7
 BAR2 EZ EP        934 27.83                             155    0.3210 54.2 163 
 BAR2 EZ ES        934 41.68                             155   -0.2410 54.2 163 
 RUS  HZ EP   2    934 33.10                             131   -0.55 5  132 168 
 RUS  HN ES   2    934 53.35                             131    0.51 5  132 168 
 PTB  HZ EP        934 33.35                             129   -0.19 9  138 245 
 PTB  HN ES        934 52.65                             129   -0.01 9  138 245 
 PTB  HZ I         934 52.89         0.5 0.12            129            138 245 
 ZAR  HN ES        934 59.52                             122    0.14 9  176 286 
                                                                                
