 2013  514 0130 29.2 L   6.747 -73.166142.5  RSN  5 0.3 1.4LRSN                1
 GAP=179        0.86       6.3     7.7  7.4  0.2396E+02  0.3502E+01  0.6808E+01E
 Epicentro: VILLANUEVA - SANTANDER                                             3
 ACTION:UPD 13-06-20 09:50 OP:ep   STATUS:               ID:20130514013029 L   I
 2013-05-14-0130-00M.COL___256                                                 6
 STAT SP IPHASW D HRMM SECON CODA AMPLIT PERI AZIMU VELO AIN AR TRES W  DIS CAZ7
 BAR2 SZ EP        130 48.02                             173   -0.3410 17.2 186 
 BAR2 SZ ES        131  2.93                             173   -0.3510 17.2 186 
 BAR2 SZ I         131  4.51         6.4 0.17            169           17.2 186 
 GIR2 SZ ES   1    131  3.68                             165   -0.17 7 36.8 355 
 BRR  HZ EP        130 50.02                             152   -0.0710 72.3 303 
 BRR  HN ES        131  6.93                             152    0.5710 72.3 303 
 BRR  HZ I         131 10.44         6.9 0.62            149           72.3 303 
 RUS  HZ EP        130 52.51                             145    0.2610 95.0 174 
 RUS  HN ES        131 10.47                             145    0.2510 95.0 174 
 RUS  HZ I         131 11.93         4.0 0.30            145           95.0 174 
 PTB  HN ES   1    131 15.77                             132   -0.47 7  145 261 
 PTB  HZ I         131 20.19         3.3 0.20            130            145 261 
                                                                                
