 2011  514 0207 26.2 L   6.779 -73.081140.9  RSN  7 0.2 1.4LRSN                1
 GAP=146        0.58       4.3     5.5  5.3 -0.5698E+01 -0.7630E+01 -0.3365E+00E
 Epicentro: LOS SANTOS - SANTANDER                                             3
 ACTION:UP  11-06-29 08:53 OP:tino STATUS:               ID:20110514020726 L   I
 2011-05-14-0205-53S.COL___141                                                 6
 STAT SP IPHASW D HRMM SECON CODA AMPLIT PERI AZIMU VELO SNR AR TRES W  DIS CAZ7
 BTL  SZ EP        2 7 45.30                             169     0.010   26 307 
 BTL  SZ ES   1    2 8  0.17                             169     0.0 7   26 307 
 GIR2 SZ EP   1    2 7 45.36                             165    -0.1 7   35 339 
 PAM  SZ IP        2 7 48.15                             151     0.410   75  34 
 PAM  SN ES   1    2 8  4.51                             151    -0.1 7   75  34 
 BRR  HZ IP     D  2 7 47.06                             149    -0.210   79 298 
 BRR  HZ I         2 7 47.26         7.4 0.16                            79 298 
 BRR  HN ES   1    2 8  3.94                             149     0.2 7   79 298 
 RUS  HZ EP   1    2 7 49.59                             143     0.3 7   98 180 
 RUS  HN ES   2    2 8  6.89                             143    -0.4 5   98 180 
 RUS  HZ I         2 8  9.82         2.8 0.31                            98 180 
 BRI  SZ EP        2 7 49.60                             140     0.010  108  17 
 GRA  SZ EP        2 7 50.85                             136    -0.210  126  14 
 GRA  SZ I         2 7 52.34         4.5 0.28                           126  14 
                                                                                
