 2013  714 0115 53.0 L   7.597 -73.643 91.3  RSN  4 0.4 1.3LRSN                1
 GAP=169        0.97       4.0     6.9  8.4 -0.1333E+02 -0.3053E+01  0.9244E+01E
 Epicentro: SABANA DE TORRES - SANTANDER                                       3
 ACTION:UPD 13-08-12 10:37 OP:ep   STATUS:               ID:20130714011553 L   I
 OLDACT:DUP 13-07-14 08:48 OP:nd   STATUS:               ID:20130714010960d    3
 2013-07-14-0109-59M.COL___266                                                 6
 STAT SP IPHASW D HRMM SECON CODA AMPLIT PERI AZIMU VELO AIN AR TRES W  DIS CAZ7
 BRR  HZ EP     D  116  7.92                             147    0.4910 54.7 188 
 BRR  HN ES        116 18.80                             147    0.1510 54.7 188 
 BRR  HZ I         116 20.69         9.3 0.12            144           54.7 188 
 OCA  HZ EP        116  9.36                             136   -0.2010 79.4  27 
 OCA  HN ES        116 22.34                             136   -0.1110 79.4  27 
 OCA  HZ I         116 23.24         7.0 0.50            140           79.4  27 
 PTB  HZ EP        116 15.90                             117   -0.30 9  148 218 
 PTB  HN ES        116 34.13                             117   -0.13 9  148 218 
 PTB  HZ I         116 39.84         4.3 0.18            118            148 218 
 RUS  HZ EP        116 23.26                             110    0.70 9  198 162 
 RUS  HN ES        116 44.96                             110   -0.62 9  198 162 
 RUS  HZ I         116 52.43         0.9 0.18            110            198 162 
                                                                                
