 2014  814 0936 37.2 L   6.752 -73.131142.3  RSN  4 0.3 1.4LRSN                1
 GAP=256        0.66       5.3     5.9  7.1 -0.7056E+01 -0.2177E+01  0.8626E+01E
 Epicentro: LOS SANTOS - SANTANDER                                             3
 ACTION:UPD 14-09-15 21:49 OP:nd   STATUS:               ID:20140814093637 L   I
 OLDACT:UP  14-08-14 16:53 OP:cam  STATUS:               ID:20140814093000     3
 OLDACT:REG 14-08-14 13:37 OP:cam  STATUS:               ID:20140814093000     3
 2014-08-14-0930-00M.COL___285                                                 6
 STAT SP IPHASW D HRMM SECON CODA AMPLIT PERI AZIMU VELO AIN AR TRES W  DIS CAZ7
 BAR2 SZ EP   1    936 56.28                             172   -0.06 7 18.6 198 
 BAR2 SZ ES   1    937 10.97                             172   -0.29 7 18.6 198 
 BAR2 SZ I         937 12.31         7.3 0.16            171           18.6 198 
 BRR  HZ EP        936 58.35                             151    0.1210 75.3 301 
 BRR  HE ES   1    937 15.01                             151    0.39 7 75.3 301 
 BRR  HE I         937 21.06         6.1 0.26            149           75.3 301 
 PTB  HN ES        937 24.45                             131   -0.38 9  148 261 
 SPBC HZ EP        937  5.02                             129   -0.14 9  160 221 
 SPBC HN ES        937 27.32                             129    0.36 9  160 221 
 SPBC HZ I         937 31.56         1.7 0.38            131            160 221 
                                                                                
