 2017  714 0802  8.3 L   5.911 -73.794110.2  RSN  5 0.3 1.1LRSN                1
 GAP=222        0.60       6.7     3.5  6.4  0.1153E+02  0.3818E+01 -0.3997E+01E
 Epicentro: SUCRE - SANTANDER                                                  3
 ACTION:UPD 17-08-30 15:32 OP:rebc STATUS:               ID:20170714080208 L   I
 OLDACT:UP  17-07-14 16:18 OP:dnl  STATUS:               ID:20170714075742     3
 OLDACT:REG 17-07-14 12:46 OP:dnl  STATUS:               ID:20170714075742     3
 2017-07-14-0758-00M.COL___385                                                 6
 STAT SP IPHASW D HRMM SECON CODA AMPLIT PERI AZIMU VELO AIN AR TRES W  DIS CAZ7
 RUS  HZ EP   2    8 2 27.53                             142    0.54 5 78.7  91 
 RUS  HN ES        8 2 41.38                             142   -0.1810 78.7  91 
 RUS  HZ I         8 2 43.84         2.1 0.62            143           78.7  91 
 PTB  HZ EP   2    8 2 27.48                             134   -0.67 5  101 313 
 PTB  HN ES        8 2 43.77                             134    0.1410  101 313 
 PTB  HZ I         8 2 44.89         1.9 0.14            135            101 313 
 BAR2 EZ EP        8 2 28.76                             134    0.2910  101  42 
 BAR2 EZ ES        8 2 44.13                             134   -0.0710  101  42 
 BRR  HZ EP        8 2 30.98                             125   -0.1110  133   4 
 BRR  HN ES   4    8 2 50.34                             125    1.49 0  133   4 
 BRR  HZ I         8 2 52.86         3.1 0.12            126            133   4 
 ZAR  HZ EP   2    8 2 39.20                             112   -0.28 4  211 326 
 ZAR  HE ES   4    8 3  2.78                             112   -1.00 0  211 326 
 ZAR  HZ I         8 3  5.04         2.7 0.40            114            211 326 
                                                                                
