 2012 1014 0433 17.0 L   7.035 -73.317  4.2  RSN  4 0.3 1.0LRSN                1
 GAP=150        0.69       7.4     6.7 11.3  0.4476E+02  0.7104E+02  0.7772E+02E
 Epicentro: BETULIA - SANTANDER                                                3
 ACTION:UPD 12-11-22 17:03 OP:ep   STATUS:               ID:20121014043317 L   I
 2012-10-14-0430-00M.COL___231                                                 6
 STAT SP IPHASW D HRMM SECON CODA AMPLIT PERI AZIMU VELO AIN AR TRES W  DIS CAZ7
 GIR2 SZ EP        433 19.81                             101   -0.1510 14.4  71 
 BRR  HZ IP        433 24.30                              47   -0.0510 44.4 280 
 BRR  HZ I         433 24.49        15.5 0.12                          44.4 280 
 BRR  HN ES   1    433 30.02                              47   -0.04 7 44.4 280 
 BAR2 SZ EP        433 25.56                              47   -0.0710 51.2 163 
 BAR2 SZ ES   1    433 32.26                              47   -0.08 7 51.2 163 
 BAR2 SZ I         433 32.79         6.2 0.18                          51.2 163 
 RUS  HZ EP        433 38.23                              47    0.5510  129 168 
 RUS  HN ES   2    433 53.07                              47   -0.72 5  129 168 
 RUS  HN I         433 54.45         2.4 0.40                           129 168 
                                                                                
