 2015  314 0518 41.2 L   6.274 -73.663111.2  RSN  4 0.3 1.2LRSN                1
 GAP=189        0.84       5.8     6.6  8.2 -0.2800E+02  0.1921E+02 -0.2155E+02E
 Epicentro: SANTA HELENA DEL OPON - SANTANDER                                  3
 ACTION:UPD 15-04-30 16:25 OP:nd   STATUS:               ID:20150314051841 L   I
 OLDACT:REG 15-03-14 12:40 OP:cam  STATUS:               ID:20150314050741     3
 2015-03-14-0507-41M.COL___272                                                 6
 STAT SP IPHASW D HRMM SECON CODA AMPLIT PERI AZIMU VELO AIN AR TRES W  DIS CAZ7
 BAR2 EZ EP        518 58.99                             148    0.3710 63.7  57 
 BAR2 EZ ES        519 12.12                             148   -0.0610 63.7  57 
 BAR2 EZ I         519 12.84        11.6 0.42            152           63.7  57 
 RUS  HZ EP        519  0.23                             143    0.3410 76.9 123 
 RUS  HN ES        519 14.21                             143   -0.2210 76.9 123 
 RUS  HZ I         519 18.29         1.4 0.50            148           76.9 123 
 SPBC HZ EP        518 59.13                             141   -0.6110 82.4 213 
 SPBC HE ES        519 14.45                             141    0.2910 82.4 213 
 SPBC HZ I         519 19.61         4.6 0.10            144           82.4 213 
 PAM  SZ EP        519  7.44                             121    0.03 9  159  42 
 PAM  SN ES        519 27.65                             121   -0.17 9  159  42 
 PAM  SZ I         519 32.61         2.2 0.50            125            159  42 
                                                                                
