 2013 1114 0340 20.3 L   6.825 -73.143140.1  RSN 11 0.4 1.8LRSN                1
 GAP=136        1.12       3.2     4.5  6.3 -0.1523E+01  0.7921E+01 -0.1557E+01E
 Epicentro: LOS SANTOS - SANTANDER                                             3
 ACTION:UPD 14-01-09 16:27 OP:ep   STATUS:               ID:20131114034020 L   I
 OLDACT:REG 13-11-14 09:27 OP:nd   STATUS:               ID:20131114034000     3
 2013-11-14-0340-00M.COL___279                                                 6
 STAT SP IPHASW D HRMM SECON CODA AMPLIT PERI AZIMU VELO AIN AR TRES W  DIS CAZ7
 BAR2 SZ EP        340 39.58                             169    0.2810 26.1 190 
 BAR2 SZ ES        340 54.15                             169    0.0310 26.1 190 
 BAR2 SZ I         340 55.75        34.6 0.14            168           26.1 190 
 BRR  HZ EP        340 41.43                             152    0.6710 70.2 296 
 BRR  HN ES        340 57.42                             152    0.6810 70.2 296 
 BRR  HZ I         341  1.96         9.8 0.38            148           70.2 296 
 PAM  SZ EP        340 42.47                             150    0.7110 75.1  41 
 PAM  SN ES        340 58.25                             150   -0.2610 75.1  41 
 PAM  SZ I         341  1.34        12.7 0.44            155           75.1  41 
 RUS  HZ EP        340 43.52                             142   -0.1710  103 176 
 RUS  HN ES        341  1.73                             142   -0.2110  103 176 
 RUS  HZ I         341  3.91         3.1 0.26            146            103 176 
 PTB  HZ EP        340 46.49                             130   -0.38 9  149 258 
 PTB  HN ES        341  7.21                             130   -0.40 9  149 258 
 PTB  HZ I         341 13.02         5.4 0.24            130            149 258 
 OCA  HZ EP        340 47.64                             129   -0.26 9  158 353 
 OCA  HN ES        341  8.58                             129   -0.86 9  158 353 
 OCA  HZ I         341 13.56         6.1 0.60            130            158 353 
 SPBC HZ EP        340 48.52                             127   -0.06 9  166 218 
 SPBC HN ES        341 10.14                             127   -0.51 9  166 218 
 SPBC HZ I         341 16.93         6.8 0.36            129            166 218 
 ZAR  HZ EP        340 52.71                             121    0.42 9  203 291 
 ZAR  HN ES        341 17.75                             121    0.50 9  203 291 
 ZAR  HZ I         341 24.04         6.7 0.18            122            203 291 
 NOR  HZ EP        340 56.04                             117    0.15 8  237 234 
 NOR  HN ES   2    341 23.34                             117   -0.33 4  237 234 
 NOR  HZ I         341 32.27         4.8 0.20            118            237 234 
 SML  HZ EP   2    340 56.11                             116   -0.22 4  241 335 
 SML  HN ES        341 23.95                             116   -0.50 8  241 335 
 SML  HZ I         341 34.12         6.9 0.10            118            241 335 
 SJC  HZ EP   4    341 13.94                             105   -1.47 0  407 327 
 SJC  HN ES   4    341 55.01                             105   -3.39 0  407 327 
 SJC  HZ I         341 59.45         2.3 0.56            106            407 327 
                                                                                
