 2015 1214 0540 29.2 L   6.809 -73.141149.2  RSN  8 0.3 1.5LRSN                1
 GAP=137        0.87       3.1     3.6  5.3 -0.6418E+00  0.2902E+01 -0.2405E+01E
 Epicentro: LOS SANTOS - SANTANDER                                             3
 ACTION:UPD 16-02-04 15:04 OP:cam  STATUS:               ID:20151214054029 L   I
 OLDACT:REG 15-12-14 13:18 OP:cara STATUS:               ID:20151214053749     3
 2015-12-14-0537-49M.COL___330                                                 6
 STAT SP IPHASW D HRMM SECON CODA AMPLIT PERI AZIMU VELO AIN AR TRES W  DIS CAZ7
 BAR2 EZ EP        540 48.95                             170   -0.2910 24.4 191 
 BAR2 EZ ES        541  4.37                             170   -0.5210 24.4 191 
 BAR2 EZ I         541  5.29         7.9 0.38            169           24.4 191 
 BRR  HZ EP        540 50.51                             153   -0.1810 71.2 298 
 BRR  HN ES        541  8.00                             153    0.5210 71.2 298 
 BRR  HZ I         541 12.14         6.0 0.16            150           71.2 298 
 PAM  EZ EP        540 52.04                             152    0.3510 76.3  40 
 PAM  EZ IP     D  540 52.18                             152    0.4910 76.3  40 
 PAM  EN ES        541  9.30                             152    0.0510 76.3  40 
 PAM  EZ I         541 11.29         5.6 0.52            155           76.3  40 
 RUS  HZ EP        540 53.31                             144   -0.0210  102 176 
 RUS  HN ES        541 11.99                             144   -0.1810  102 176 
 RUS  HZ I         541 13.36         1.8 0.48            147            102 176 
 PTB  HZ EP        540 56.24                             133   -0.25 9  148 259 
 PTB  HE ES        541 17.58                             133   -0.21 9  148 259 
 PTB  HZ I         541 23.99         2.5 0.24            132            148 259 
 SPBC HZ EP        540 58.16                             130    0.12 9  164 219 
 SPBC HN ES        541 20.96                             130    0.40 9  164 219 
 SPBC HZ I         541 24.77         5.3 0.30            131            164 219 
 ZAR  HN ES        541 27.73                             123    0.38 9  204 292 
 ZAR  HZ I         541 33.89         2.8 0.36            123            204 292 
 SML  HZ EP        541  5.57                             118   -0.35 8  243 335 
 SML  HE ES        541 34.11                             118   -0.48 8  243 335 
 SML  HZ I         541 37.18         5.3 0.10            119            243 335 
                                                                                
