 2011  614 0006  1.8 L   6.760 -73.160144.5  RSN  9 0.4 1.9LRSN                1
 GAP=154        0.67       3.5     7.0  6.9 -0.9105E+01  0.2861E+01  0.1053E+01E
 Epicentro: LOS SANTOS - SANTANDER                                             3
 ACTION:UP  11-07-14 19:05 OP:ep   STATUS:               ID:20110614000601 L   I
 2011-06-14-0002-07S.COL___135                                                 6
 STAT SP IPHASW D HRMM SECON CODA AMPLIT PERI AZIMU VELO SNR AR TRES W  DIS CAZ7
 BAR2 SZ EP   1    0 6 21.06                             172    -0.1 7   19 187 
 BAR2 SZ ES   2    0 6 35.95                             172    -0.4 5   19 187 
 BAR2 SZ I         0 6 37.62        22.6 0.22                            19 187 
 BTL  SZ EP   2    0 6 21.69                             171     0.5 5   21 326 
 BRR  HZ EP   1    0 6 22.87                             152     0.0 7   72 302 
 BRR  HN ES   2    0 6 39.04                             152    -0.2 5   72 302 
 BRR  HZ I         0 6 43.86        32.3 0.28                            72 302 
 RUS  HZ EP   1    0 6 24.89                             145    -0.2 7   96 175 
 RUS  HN ES   2    0 6 43.85                             145     0.5 5   96 175 
 RUS  HZ I         0 6 46.62         9.2 0.24                            96 175 
 BRI  SZ EP   1    0 6 26.05                             140     0.1 7  113  21 
 BRI  SZ I         0 6 56.95         7.7 0.37                           113  21 
 GRA  SZ EP   1    0 6 26.86                             136    -0.5 7  130  18 
 GRA  SZ ES   2    0 6 47.59                             136     0.4 5  130  18 
 GRA  SZ I         0 6 52.55         6.7 0.27                           130  18 
 OCA  SZ EP   1    0 6 30.15                             128    -0.2 7  164 354 
 OCA  SZ ES   2    0 6 53.13                             128     0.4 5  164 354 
 OCA  SZ I         0 6 58.25        11.6 0.33                           164 354 
 NOR  SZ EP   1    0 6 37.62                             119     0.6 6  231 235 
 NOR  SN ES   2    0 7  4.00                             119    -0.5 4  231 235 
 CHI  HZ EP   1    0 6 39.15                             117     0.2 6  244 195 
 CHI  HN ES   2    0 7  7.53                             117    -0.3 4  244 195 
 CHI  HZ I         0 7 11.61         6.4 0.43                           244 195 
                                                                                
