 2015  714 0733 26.9 L   6.763 -73.187134.0  RSN  4 0.4 1.3LRSN                1
 GAP=178        0.80       4.2     6.7  9.5  0.1173E+02  0.1967E+02 -0.2594E+01E
 Epicentro: LOS SANTOS - SANTANDER                                             3
 ACTION:UPD 15-09-08 21:48 OP:cam  STATUS:               ID:20150714073326 L   I
 OLDACT:REG 15-07-14 14:17 OP:spq  STATUS:               ID:20150714072742     3
 2015-07-14-0727-42M.COL___337                                                 6
 STAT SP IPHASW D HRMM SECON CODA AMPLIT PERI AZIMU VELO AIN AR TRES W  DIS CAZ7
 BAR2 EZ EP        733 44.76                             172   -0.2510 18.9 178 
 BAR2 EZ ES   1    733 59.19                             172    0.04 7 18.9 178 
 BAR2 EZ I         734  0.37         5.5 0.32            169           18.9 178 
 RUS  HZ EP        733 48.92                             142   -0.3110 97.0 173 
 RUS  HE ES   1    734  7.21                             142    0.56 7 97.0 173 
 RUS  HZ I         734  9.07         2.0 0.16            145           97.0 173 
 OCA  HN ES        734 16.42                             126    0.10 9  164 355 
 OCA  HZ I         734 18.26         3.5 0.18            128            164 355 
 ZAR  HZ EP   1    733 59.07                             120    0.76 6  201 294 
 ZAR  HN ES        734 22.59                             120   -0.23 9  201 294 
 ZAR  HZ I         734 29.50         2.4 0.28            120            201 294 
                                                                                
