 2013  214 0802 43.3 L   6.914 -73.173149.6  RSN 11 0.4 2.0LRSN                1
 GAP= 66        0.80       2.9     3.0  5.9  0.1042E+01  0.2753E+01  0.1314E+01E
 Epicentro: BETULIA - SANTANDER                                                3
 ACTION:UPD 13-03-12 09:32 OP:ep   STATUS:               ID:20130214080243 L   I
 2013-02-14-0800-00M.COL___241                                                 6
 STAT SP IPHASW D HRMM SECON CODA AMPLIT PERI AZIMU VELO AIN AR TRES W  DIS CAZ7
 BAR2 SZ IP        8 3  3.70                             166   -0.0410 35.5 182 
 BAR2 SZ I         8 3 23.12        21.0 0.48            164           35.5 182 
 BRR  HZ IP     C  8 3  4.87                             156    0.3810 63.3 290 
 BRR  HN ES   1    8 3 21.85                             156    0.86 7 63.3 290 
 BRR  HZ I         8 3 22.96        21.9 0.10            156           63.3 290 
 PAM  SZ EP        8 3  5.75                             154    0.1710 70.4  48 
 PAM  SN ES   1    8 3 22.66                             154   -0.26 7 70.4  48 
 PAM  SZ I         8 3 23.79        16.2 0.20            157           70.4  48 
 RUS  HZ EP        8 3  8.36                             141   -0.0610  113 175 
 RUS  HN ES   1    8 3 27.69                             141   -0.28 7  113 175 
 RUS  HZ I         8 3 29.05         5.5 0.60            141            113 175 
 OCA  HZ EP   1    8 3 10.21                             133   -0.58 7  147 354 
 OCA  HN ES   1    8 3 31.86                             133   -0.33 7  147 354 
 OCA  HZ I         8 3 35.24        20.4 0.20            135            147 354 
 PTB  HZ IP     C  8 3 10.17                             133   -0.46 9  148 254 
 PTB  HN ES   1    8 3 31.30                             133   -0.61 7  148 254 
 PTB  HZ I         8 3 36.01        16.5 0.40            133            148 254 
 TAM  HZ IP     C  8 3 12.25                             130    0.31 9  162 109 
 TAM  HN ES   1    8 3 34.22                             130   -0.02 7  162 109 
 TAM  HZ I         8 3 39.62         6.3 0.58            132            162 109 
 ZAR  HZ EP        8 3 15.44                             124    0.14 9  197 289 
 ZAR  HN ES   1    8 3 40.74                             124    0.51 6  197 289 
 ZAR  HZ I         8 3 48.82        19.9 0.54            125            197 289 
 SML  HZ EP        8 3 18.70                             120   -0.14 8  231 335 
 SML  HN ES   1    8 3 46.16                             120   -0.36 6  231 335 
 CHI  HZ EP   1    8 3 22.91                             117    0.42 6  260 194 
 CHI  HE ES   1    8 3 52.65                             117   -0.38 6  260 194 
 CHI  HZ I         8 3 57.78         2.9 0.38            117            260 194 
 HEL  HZ EP   1    8 3 24.43                             115    0.63 6  273 253 
 HEL  HN ES   1    8 3 55.17                             115   -0.19 6  273 253 
 HEL  HZ I         8 4  2.89         5.9 0.34            116            273 253 
 URE  HZ EP   4    8 3 20.98                             115   -2.81 0  277 290 
 URE  HN ES   4    8 3 53.03                             115   -2.31 0  277 290 
                                                                                
