 2011  414 0128 30.8 L   6.763 -73.108140.6  RSN 10 0.4 2.2LRSN                1
 GAP=168        0.61       6.1     6.3  6.9 -0.2344E+02  0.1080E+02 -0.1492E+00E
 Epicentro: LOS SANTOS - SANTANDER                                             3
 ACTION:UP  11-06-22 15:30 OP:REBC STATUS:               ID:20110414012830 L   I
 2011-04-14-0120-00M.COL___141                                                 6
 STAT SP IPHASW D HRMM SECON CODA AMPLIT PERI AZIMU VELO SNR AR TRES W  DIS CAZ7
 BAR2 SZ EP   1    128 49.72                             171     0.0 7   21 204 
 BAR2 SZ ES   2    129  4.52                             171     0.0 5   21 204 
 BAR2 SZ I         129  8.24        21.8 0.19                            21 204 
 BTL  SZ EP   1    128 50.02                             170     0.2 7   25 314 
 GIR2 SZ EP   1    128 49.87                             165    -0.1 7   36 345 
 BRR  HZ EP   1    128 51.55                             150    -0.2 7   77 300 
 BRR  HZ I         128 52.00        44.9 0.11                            77 300 
 BRR  HE ES   2    129  8.48                             150     0.5 5   77 300 
 PAM  SZ EP   1    128 52.57                             150     0.1 7   78  35 
 PAM  SZ I         128 52.99         6.2 0.22                            78  35 
 PAM  SN ES   2    129  9.73                             150     0.3 5   78  35 
 GRA  SZ EP   2    128 55.48                             135    -0.3 5  129  15 
 GRA  SZ ES   2    129 14.60                             135    -0.7 5  129  15 
 GRA  SZ I         129 18.06        32.3 0.38                           129  15 
 OCA  SZ EP   1    128 59.18                             127     0.0 7  165 352 
 NOR  SZ EP   3    129  5.66                                    -0.7 2  236 236 
 NOR  SN ES   2    129 33.10                             117    -1.0 4  236 236 
 HEL  HZ EP   1    129 11.83                             113     0.8 6  275 257 
 HEL  HN ES   2    129 42.23                             113    -0.3 4  275 257 
 PRA  HZ EP   2    129 23.89                                    -0.1 3  391 210 
 PRA  HZ I         129 25.64        19.2 0.18                           391 210 
 PRA  HE ES   3    130  5.26                                    -0.2 1  391 210 
                                                                                
