 2012 1014 0052 50.2 L   6.826 -73.085133.2  RSN  5 0.4 1.3LRSN                1
 GAP=143        0.83       5.9     7.4  9.3 -0.3445E+01 -0.5863E+01  0.1326E+02E
 Epicentro: LOS SANTOS - SANTANDER                                             3
 ACTION:UPD 12-11-22 17:03 OP:ep   STATUS:               ID:20121014005250 L   I
 2012-10-14-0050-00M.COL___232                                                 6
 STAT SP IPHASW D HRMM SECON CODA AMPLIT PERI AZIMU VELO AIN AR TRES W  DIS CAZ7
 BAR2 SZ EP        053  8.36                             167   -0.0610 28.0 203 
 BAR2 SZ ES   2    053 23.70                             167    1.05 5 28.0 203 
 GIR2 SZ EP        053  8.28                             166   -0.0610 30.4 337 
 PAM  SZ EP        053 11.20                             150    0.5210 71.0  37 
 PAM  SZ I         053 11.42         5.8 0.22                          71.0  37 
 PAM  SN ES   1    053 26.04                             150   -0.63 7 71.0  37 
 BRR  HZ EP        053 10.19                             148   -0.0910 75.9 294 
 BRR  HN ES   1    053 25.92                             148   -0.04 7 75.9 294 
 RUS  HZ EP        053 12.85                             140   -0.0810  103 180 
 RUS  HN ES   2    053 30.26                             140   -0.41 5  103 180 
 RUS  HN I         053 32.04         3.1 0.38                           103 180 
                                                                                
