 2011  614 0616 35.3 L   6.783 -73.108144.6  RSN  8 0.2 1.9LRSN                1
 GAP=160        0.54       3.4     5.3  4.8 -0.7465E+01  0.5734E+00 -0.4848E+01E
 Epicentro: LOS SANTOS - SANTANDER                                             3
 ACTION:UP  11-07-14 19:05 OP:ep   STATUS:               ID:20110614061635 L   I
 2011-06-14-0615-02S.COL___135                                                 6
 STAT SP IPHASW D HRMM SECON CODA AMPLIT PERI AZIMU VELO SNR AR TRES W  DIS CAZ7
 BAR2 SZ EP   1    616 54.85                             171     0.0 7   23 201 
 BAR2 SZ ES        617  9.84                             171    -0.210   23 201 
 BAR2 SZ I         617 12.39        19.1 0.26                            23 201 
 GIR2 SZ EP   2    616 54.83                             166    -0.1 5   34 344 
 BRR  HZ IP     D  616 56.59                             151     0.010   76 298 
 BRR  HZ I         616 56.77        37.2 0.14                            76 298 
 BRR  HN ES   1    617 13.56                             151     0.3 7   76 298 
 RUS  HN ES   2    617 17.22                             144     0.1 5   98 178 
 RUS  HZ I         617 19.04         7.5 0.88                            98 178 
 BRI  SZ EP        616 59.50                             141     0.310  109  18 
 GRA  SZ EP   1    617  0.62                             136     0.1 7  126  15 
 GRA  SZ ES        617 20.13                             136    -0.110  126  15 
 GRA  SZ I         617 23.22         6.6 0.33                           126  15 
 OCA  SZ EP   1    617  3.45                             129    -0.4 7  163 352 
 OCA  SZ ES   2    617 25.66                             129    -0.3 5  163 352 
 OCA  SZ I         617 30.05         6.9 0.30                           163 352 
 NOR  SN ES   2    617 39.07                             118    -0.2 4  237 235 
                                                                                
