 2012  414 0405 27.1 L   6.767 -73.202149.5  RSN  4 0.2 1.3LRSN                1
 GAP=229        0.60       6.4     6.0  6.5  0.1886E+02  0.3539E+01  0.1158E+01E
 Epicentro: VILLANUEVA - SANTANDER                                             3
 ACTION:UPD 12-07-05 11:53 OP:tino STATUS:               ID:20120414040527 L   I
 2012-04-14-0400-00M.COL___181                                                 6
 STAT SP IPHASW D HRMM SECON CODA AMPLIT PERI AZIMU VELO AIN AR TRES W  DIS CAZ7
 BAR2 SZ EP   1    4 5 46.85                             172    -0.3 7   19 174 
 BAR2 SZ ES   1    4 6  2.37                             172    -0.3 7   19 174 
 BAR2 SZ I         4 6  2.98         8.6 0.48                            19 174 
 BRR  HZ EP   1    4 5 48.69                             154     0.2 7   68 304 
 BRR  HZ I         4 5 51.03         5.4 0.12                            68 304 
 BRR  HN ES   1    4 6  5.40                             154     0.3 7   68 304 
 RUS  HZ EP   1    4 5 51.14                             145     0.1 7   98 172 
 RUS  HZ I         4 5 51.36         1.3 0.17                            98 172 
 RUS  HN ES   1    4 6  9.91                             145     0.2 7   98 172 
 PTB  HZ EP   1    4 5 53.58                             134    -0.2 7  141 260 
 PTB  HN ES   1    4 6 14.50                             134    -0.1 7  141 260 
 PTB  HZ I         4 6 22.15         2.9 0.42                           141 260 
                                                                                
