 2015  814 0611 25.4 L   6.805 -73.119140.0  RSN  9 0.4 1.8LRSN                1
 GAP=186        0.95       3.1     5.2  5.8  0.1133E+01  0.8150E+01  0.1451E+01E
 Epicentro: LOS SANTOS - SANTANDER                                             3
 ACTION:UPD 15-09-15 23:02 OP:cam  STATUS:               ID:20150814061125 L   I
 OLDACT:UP  15-08-14 16:57 OP:mh   STATUS:               ID:20150814060744     3
 OLDACT:UP  15-08-14 16:57 OP:mh   STATUS:               ID:20150814060744     3
 OLDACT:UP  15-08-14 16:57 OP:mh   STATUS:               ID:20150814060744     3
 OLDACT:UP  15-08-14 16:57 OP:mh   STATUS:               ID:20150814060744     3
 OLDACT:UP  15-08-14 16:57 OP:mh   STATUS:               ID:20150814060744     3
 OLDACT:UP  15-08-14 16:56 OP:mh   STATUS:               ID:20150814060744     3
 OLDACT:REG 15-08-14 12:59 OP:mh   STATUS:               ID:20150814060744     3
 2015-08-14-0607-44M.COL___328                                                 6
 STAT SP IPHASW D HRMM SECON CODA AMPLIT PERI AZIMU VELO AIN AR TRES W  DIS CAZ7
 BAR2 EZ EP   1    611 44.13                             170   -0.24 7 24.5 197 
 BAR2 EZ ES        611 59.15                             170   -0.0110 24.5 197 
 BAR2 EZ I         612  0.23        15.0 0.22            169           24.5 197 
 BRR  HZ EP        611 46.28                             151    0.2110 73.6 297 
 BRR  HN ES        612  2.97                             151    0.7810 73.6 297 
 BRR  HZ I         612  5.90        10.5 0.30            148           73.6 297 
 RUS  HZ EP   1    611 48.18                             143   -0.44 7  101 178 
 RUS  HN ES   1    612  6.47                             143   -0.26 7  101 178 
 RUS  HZ I         612  7.76         5.9 0.26            145            101 178 
 OCA  HZ EP        611 53.24                             129   -0.02 9  160 352 
 OCA  HN ES        612 14.90                             129   -0.08 9  160 352 
 OCA  HZ I         612 22.66        13.0 0.22            129            160 352 
 SPBC HZ EP   1    611 53.35                             127   -0.34 7  165 220 
 SPBC HN ES   1    612 15.80                             127    0.05 7  165 220 
 SPBC HZ I         612 20.02         9.2 0.14            128            165 220 
 ZAR  HZ EP        611 57.21                             121   -0.54 8  207 292 
 ZAR  HN ES        612 22.25                             121   -0.73 8  207 292 
 ZAR  HZ I         612 28.14         6.5 0.34            121            207 292 
 CHI  HZ EP   1    612  3.64                             116    0.71 6  250 196 
 CHI  HN ES        612 32.04                             116   -0.16 8  250 196 
 CHI  HZ I         612 35.48         4.6 0.66            118            250 196 
 HEL  HZ EP        612  6.37                             113    0.70 8  275 256 
 HEL  HN ES        612 36.97                             113   -0.10 8  275 256 
 HEL  HZ I         612 42.16         3.3 0.28            114            275 256 
 GUY2CHZ EP        612  9.46                             111    0.40 7  304 235 
 GUY2CHN ES   4    612 46.21                             111    3.09 0  304 235 
 GUY2CHZ I         612 50.51         3.2 0.56                           304 235 
                                                                                
