 2011 1014 0802  1.6 L   6.798 -73.114140.3  RSN  6 0.2 1.4LRSN                1
 GAP=141        0.40       2.9     3.9  5.0  0.1595E+01  0.2043E+01 -0.1363E+01E
 Epicentro: LOS SANTOS - SANTANDER                                             3
 ACTION:UPD 12-07-13 16:03 OP:ep   STATUS:               ID:20111014075922 L   I
 2011-10-14-0759-22S.COL___168                                                 6
 STAT SP IPHASW D HRMM SECON CODA AMPLIT PERI AZIMU VELO AIN AR TRES W  DIS CAZ7
 BAR2 SZ ES   2    8 2 35.05                             170   -0.31 5 24.0 198 
 BAR2 SZ I         8 2 36.42         5.8 0.19                          24.0 198 
 BRR  HZ EP   2    8 2 22.22                             150   -0.10 5 74.4 297 
 BRR  HN ES   2    8 2 38.77                             150    0.27 5 74.4 297 
 BRR  HZ I         8 2 43.36        10.1 0.17                          74.4 297 
 PAM  SZ EP   1    8 2 23.29                             150    0.21 7 75.4  37 
 PAM  SN ES   2    8 2 40.04                             150    0.19 5 75.4  37 
 RUS  HZ EP   1    8 2 24.88                             143    0.13 7  100 178 
 RUS  HN ES   2    8 2 42.57                             143   -0.27 5  100 178 
 RUS  HZ I         8 2 44.97         1.9 0.27                           100 178 
 OCA  SZ EP   2    8 2 29.16                             128   -0.36 5  161 352 
 OCA  SZ ES   2    8 2 50.93                             128   -0.39 5  161 352 
 OCA  SZ I         8 2 55.88         2.8 0.17                           161 352 
 ZAR  HZ EP   2    8 2 33.89                             121   -0.12 4  207 292 
 ZAR  HN ES   2    8 2 59.55                             121    0.23 4  207 292 
 ZAR  HZ I         8 3  4.31         2.3 0.41                           207 292 
                                                                                
