 2011  814 0513 26.9 L   6.590 -73.792 94.1  RSN  4 0.2 1.4LRSN                1
 GAP=142        0.40       2.8     3.4  6.2  0.3627E+01  0.8710E+01  0.8107E+01E
 Epicentro: PUERTO PARRA - SANTANDER                                           3
 ACTION:UPD 12-07-13 15:51 OP:ep   STATUS:               ID:20110814051326 L   I
 2011-08-14-0510-13S.COL___150                                                 6
 STAT SP IPHASW D HRMM SECON CODA AMPLIT PERI AZIMU VELO AIN AR TRES W  DIS CAZ7
 BRR  HZ EP        513 41.78                             146   -0.0310 57.8   9 
 BRR  HZ I         513 42.27        14.5 0.11                          57.8   9 
 BRR  HN ES   1    513 53.60                             146    0.18 7 57.8   9 
 BAR2 SZ EP   1    513 42.80                             142   -0.05 7 67.5  90 
 BAR2 SZ ES   1    513 54.99                             142   -0.28 7 67.5  90 
 BAR2 SZ I         513 56.15        10.9 0.18                          67.5  90 
 RUS  HZ EP   1    513 47.01                             127    0.04 7  110 134 
 RUS  HE ES   1    514  2.81                             127    0.21 7  110 134 
 RUS  HZ I         514  4.37         3.2 0.23                           110 134 
 NOR  SN ES   2    514 11.75                             115   -0.13 5  165 226 
                                                                                
