 2010  614 0949 25.9 L   6.848 -73.448137.6  RSN  6 0.4 1.5LRSN                1
 GAP=178        0.86       3.8    18.8 11.1 -0.3298E+02  0.1307E+03 -0.1267E+02E
 Epicentro: SAN VICENTE DE CHUCURI - SANTANDER                                 3
 ACTION:UP  10-08-24 10:10 OP:vdl  STATUS:               ID:20100614094925 L   I
 2010-06-14-0948-35S.COL___114                                                 6
 STAT SP IPHASW D HRMM SECON CODA AMPLIT PERI AZIMU VELO SNR AR TRES W  DIS CAZ7
 BAR2 SZ IP        949 45.33                             163     0.310   41 134 
 BAR2 SZ ES   1    950  0.47                             163     0.5 7   41 134 
 RUS  HZ EP   1    949 49.25                             139    -0.5 7  113 159 
 RUS  HN ES   1    950  8.02                             139    -0.4 7  113 159 
 RUS  HZ I         950  9.63         5.4 0.16                           113 159 
 GUE  SZ EP   1    949 50.73                             136     0.4 7  123  28 
 GRA  SZ EP   2    949 51.22                             133     0.0 5  135  32 
 GRA  SZ ES   1    950 10.79                             133    -0.1 7  135  32 
 OCA  SZ EP   1    949 53.15                             129     0.2 7  154   5 
 OCA  SZ ES   1    950 13.50                             129    -0.6 7  154   5 
 OCA  SZ I         950 21.54         4.3 0.25                           154   5 
 CHI  HZ EP   1    950  3.21                             116     0.2 6  247 187 
 CHI  HN ES   1    950 31.68                             116    -0.2 6  247 187 
 CHI  HZ I         950 38.59         2.5 0.57                           247 187 
                                                                                
