 2017  814 0918 12.8 L   6.387 -73.462117.0  RSN 20 0.6 2.0LRSN                1
 GAP= 58        1.09       2.7     2.6  5.6 -0.6168E+00  0.4029E+01  0.4485E+01E
 Epicentro: CONTRATACION - SANTANDER                                           3
 ACTION:UPD 17-09-04 20:20 OP:rebc STATUS:               ID:20170814091812 L   I
 OLDACT:UP  17-08-14 16:58 OP:and  STATUS:               ID:20170814091741     3
 OLDACT:UP  17-08-14 16:58 OP:and  STATUS:               ID:20170814091741     3
 OLDACT:UP  17-08-14 16:57 OP:and  STATUS:               ID:20170814091741     3
 OLDACT:UP  17-08-14 16:56 OP:and  STATUS:               ID:20170814091741     3
 OLDACT:UP  17-08-14 16:56 OP:and  STATUS:               ID:20170814091741     3
 OLDACT:UP  17-08-14 16:56 OP:and  STATUS:               ID:20170814091741     3
 OLDACT:UP  17-08-14 16:54 OP:and  STATUS:               ID:20170814091741     3
 OLDACT:UP  17-08-14 16:53 OP:and  STATUS:               ID:20170814091741     3
 OLDACT:UP  17-08-14 16:52 OP:and  STATUS:               ID:20170814091741     3
 OLDACT:UP  17-08-14 16:52 OP:and  STATUS:               ID:20170814091741     3
 OLDACT:UP  17-08-14 16:50 OP:and  STATUS:               ID:20170814091741     3
 OLDACT:UP  17-08-14 16:50 OP:and  STATUS:               ID:20170814091741     3
 OLDACT:REG 17-08-14 13:27 OP:and  STATUS:               ID:20170814091741     3
 2017-08-14-0918-00M.COL___401                                                 6
 STAT SP IPHASW D HRMM SECON CODA AMPLIT PERI AZIMU VELO AIN AR TRES W  DIS CAZ7
 BAR2 EZ IP     C  918 29.52                             160    0.0910 38.3  54 
 BAR2 EZ ES        918 42.37                             160   -0.0710 38.3  54 
 RUS  HZ EP        918 31.22                             148   -0.2110 68.9 143 
 RUS  HN ES        918 46.04                             148    0.0410 68.9 143 
 RUS  HZ I         918 47.94        37.9 0.28            148           68.9 143 
 BRR  HZ IP     C  918 31.42                             141   -0.3910 84.3 341 
 BRR  HN ES        918 46.49                             141   -0.1910 84.3 341 
 BRR  HZ I         918 47.12        19.4 0.10            142           84.3 341 
 SPBC HZ IP     D  918 33.03                             135   -0.6610  106 220 
 SPBC HN ES   3    918 49.08                             135   -0.93 2  106 220 
 SPBC HZ I         918 54.52        25.1 0.05            134            106 220 
 PAM  EZ EP        918 37.35                             127    0.4510  135  39 
 PAM  EN ES        918 56.20                             127    0.4710  135  39 
 PAM  EZ I         919  1.70        11.9 0.42            129            135  39 
 NOR  HZ IP   3 D  918 39.71                             119   -1.29 2  180 240 
 NOR  HN ES        919  2.91                             119   -0.12 9  180 240 
 NOR  HZ I         919  6.85        13.3 0.16            118            180 240 
 TAM  HZ IP     C  918 41.68                             118    0.22 9  185  88 
 TAM  HN ES        919  4.44                             118    0.59 9  185  88 
 TAM  HZ I         919  5.49        11.1 0.38            119            185  88 
 ROSC BZ EP   3    918 44.45                             116    1.37 2  196 209 
 ROSC BN ES   4    919 11.04                             116    4.30 0  196 209 
 ROSC BZ I         919 17.26         9.5 0.35            116            196 209 
 CHI  HZ EP        918 42.50                             116   -0.71 9  197 189 
 CHI  HN ES        919  6.90                             116   -0.07 9  197 189 
 CHI  HZ I         919 13.65         4.8 0.22            116            197 189 
 ZAR  HZ EP     C  918 42.25                             116   -0.46 9  197 308 
 ZAR  HN ES        919  6.80                             116    0.73 9  197 308 
 ZAR  HZ I         919  7.75        17.6 0.34            116            197 308 
 HEL  HZ EP        918 46.58                             112   -0.25 8  230 265 
 HEL  HN ES        919 12.62                             112   -0.79 8  230 265 
 HEL  HZ I         919 15.64         6.7 0.20            112            230 265 
 GUY2CHZ EP        918 48.75                             111   -0.16 8  247 239 
 GUY2CHN ES        919 17.95                             111    0.83 8  247 239 
 GUY2CHZ I         919 22.30         7.6 0.32                           247 239 
 ELA  HZ EP   9    918 53.38                             108    1.38 0  273 232 
 ELA  HN ES        919 23.40                             108   -0.59 8  273 232 
 ELA  HZ I         919 30.14         4.6 0.52            108            273 232 
 URE  HZ EP   3    918 49.97                             108   -1.49 2  274 304 
 URE  HN ES   4    919 18.92                             108   -2.73 0  274 304 
 URE  HZ I         919 27.27         8.5 0.18            108            274 304 
 PTGC HZ EP        918 51.80                             107   -0.71 7  283 149 
 PTGC HN ES        919 23.00                             107   -0.52 7  283 149 
 ANIL HZ EP   3    918 56.15                             106    1.27 2  300 226 
 ANIL HN ES        919 28.64                             106    0.90 7  300 226 
 ANIL HZ I         919 30.28        16.7 0.28            106            300 226 
 DBB  EZ EP        918 56.09                             105    0.15 7  312 283 
 DBB  EN ES   3    919 27.84                             105   -1.79 2  312 283 
 DBB  EZ I         919 31.12         4.7 0.30            105            312 283 
 PRA  HZ EP        918 59.11                             104    0.45 7  335 208 
 PRA  HN ES        919 34.99                             104    0.52 7  335 208 
 PRA  HZ I         919 39.05         8.0 0.22            104            335 208 
 ORTC HZ EP        918 59.02                             104    0.03 7  338 216 
 ORTC HN ES        919 36.17                             104    1.11 7  338 216 
 ORTC HZ I         919 44.09         3.2 0.37            104            338 216 
 SJC  HZ EP   4    919  8.03                              99   -2.20 0  432 334 
 SJC  HN ES   4    919 51.56                              99   -3.50 0  432 334 
 SJC  HZ I         920  9.87         2.2 0.66            100            432 334 
                                                                                
