 2014 1014 0435 35.9 L   6.802 -73.114152.0  RSN 15 0.4 1.9LRSN                1
 GAP=141        0.80       2.8     3.7  5.1 -0.1325E+01  0.4159E+01  0.3934E+01E
 Epicentro: LOS SANTOS - SANTANDER                                             3
 ACTION:UPD 14-11-29 23:49 OP:nd   STATUS:               ID:20141014043535 L   I
 OLDACT:REG 14-10-14 12:33 OP:mh   STATUS:               ID:20141014042743     3
 2014-10-14-0427-43M.COL___283                                                 6
 STAT SP IPHASW D HRMM SECON CODA AMPLIT PERI AZIMU VELO AIN AR TRES W  DIS CAZ7
 BAR2 SZ EP        435 56.27                             170    0.0110 24.4 198 
 BAR2 SZ ES   1    436 11.84                             170   -0.33 7 24.4 198 
 BAR2 SZ I         436 14.12        25.3 0.52            166           24.4 198 
 BRR  HZ EP        435 58.34                             153    0.4910 74.2 297 
 BRR  HN ES        436 15.55                             153    0.5410 74.2 297 
 BRR  HZ I         436 19.11         7.1 0.11            147           74.2 297 
 PAM  SZ EP        435 59.00                             153    0.4010 75.0  38 
 PAM  SN ES        436 16.29                             153   -0.0610 75.0  38 
 PAM  SZ I         436 18.42        10.6 0.20            157           75.0  38 
 RUS  HZ EP   1    435 59.94                             145   -0.29 7  101 178 
 RUS  HN ES   1    436 18.79                             145   -0.45 7  101 178 
 RUS  HZ I         436 20.09         4.9 0.42            145            101 178 
 PTB  HZ EP        436  3.35                             133   -0.31 9  151 259 
 PTB  HE ES   1    436 24.97                             133   -0.37 7  151 259 
 PTB  HZ I         436 30.12        10.2 0.18            129            151 259 
 OCA  HN ES        436 26.67                             131   -0.49 9  160 352 
 OCA  HZ I         436 32.25         8.0 0.19            131            160 352 
 SPBC HZ EP        436  5.25                             130    0.18 9  166 220 
 SPBC HE ES        436 28.25                             130    0.40 9  166 220 
 SPBC HZ I         436 32.33        14.0 0.40            128            166 220 
 ZAR  HZ EP   1    436  8.66                             123   -0.38 6  207 292 
 ZAR  HN ES        436 34.82                             123   -0.11 8  207 292 
 ZAR  HZ I         436 45.19         8.2 0.34            121            207 292 
 CHI  HZ EP   1    436 14.19                             118    0.15 6  250 196 
 CHI  HN ES   1    436 43.48                             118   -0.34 6  250 196 
 CHI  HZ I         436 49.65         2.9 0.42            118            250 196 
 ROSC BZ EP   4    436 15.67                             118    1.12 0  255 212 
 ROSC BE ES   4    436 45.96                             118    1.24 0  255 212 
 ROSC BZ I         436 54.06         8.1 0.45            117            255 212 
 GUY2CHZ EP   1    436 19.33                             113   -0.77 5  304 235 
 GUY2CHE ES   4    436 56.84                             113    2.23 0  304 235 
 GUY2CHZ I         437  3.14         6.7 0.76                           304 235 
 TOL  SE ES   1    437  2.72                             110   -0.04 5  346 225 
 TOL  SZ I         437 10.26         8.9 0.36            110            346 225 
 PRA  HZ EP   1    436 29.95                             107    0.12 4  394 210 
 PRA  HN ES   4    437 13.57                             107    1.64 0  394 210 
 PRA  HZ I         437 17.49         3.0 0.36            107            394 210 
 ORTC HZ EP   1    436 30.77                             107    0.51 4  398 217 
 ORTC HN ES   4    437 13.97                             107    1.27 0  398 217 
 ORTC HZ I         437 19.47         3.1 0.46            107            398 217 
 SJC  HZ EP   4    436 30.55                             107   -1.28 0  411 327 
 SJC  HN ES   4    437 11.12                             107   -4.38 0  411 327 
 SJC  HZ I         437 24.20         1.2 0.38            107            411 327 
                                                                                
