 2011  514 0643 16.1 L   6.769 -73.079146.0  RSN  9 0.3 1.8LRSN                1
 GAP=147        0.82       4.5     7.6  6.8 -0.8044E+01 -0.4140E+01  0.4161E+00E
 Epicentro: LOS SANTOS - SANTANDER                                             3
 ACTION:UP  11-06-29 08:53 OP:tino STATUS:               ID:20110514064316 L   I
 2011-05-14-0641-31S.COL___141                                                 6
 STAT SP IPHASW D HRMM SECON CODA AMPLIT PERI AZIMU VELO SNR AR TRES W  DIS CAZ7
 BAR2 SZ EP        643 35.60                             171    -0.110   23 210 
 BAR2 SZ ES   2    643 50.49                             171    -0.6 5   23 210 
 BAR2 SZ I         643 52.43        23.8 0.24                            23 210 
 BTL  SZ EP        643 36.41                             169     0.610   27 308 
 GIR2 SZ EP        643 35.75                             165    -0.210   37 340 
 GIR2 SZ ES   2    643 51.74                             165     0.3 5   37 340 
 PAM  SZ EP        643 38.49                             151     0.210   76  34 
 PAM  SN ES   1    643 55.90                             151     0.4 7   76  34 
 BRR  HZ EP        643 37.56                             150    -0.210   79 298 
 BRR  HN ES   1    643 54.91                             150     0.3 7   79 298 
 BRR  HZ I         643 56.24        10.6 0.13                            79 298 
 RUS  HZ EP        643 39.54                             145    -0.110   97 180 
 RUS  HN ES   2    643 57.71                             145    -0.2 5   97 180 
 RUS  HZ I         643 59.47         4.9 0.29                            97 180 
 BRI  SZ EP   2    643 40.15                             141     0.1 5  109  17 
 GRA  SZ EP        643 41.48                             137     0.010  127  14 
 GRA  SZ ES   1    644  0.58                             137    -0.7 7  127  14 
 GRA  SZ I         644  2.32         9.3 0.42                           127  14 
 OCA  SZ EP        643 44.74                             129    -0.1 9  165 351 
 OCA  SZ I         644 11.30         7.7 0.34                           165 351 
                                                                                
