 2015  314 0407 23.7 L   6.823 -73.177152.8  RSN  7 0.4 1.8LRSN                1
 GAP=132        1.08       4.0     5.5  7.9 -0.6229E+01  0.1772E+01  0.1895E+01E
 Epicentro: ZAPATOCA - SANTANDER                                               3
 ACTION:UPD 15-04-30 16:25 OP:nd   STATUS:               ID:20150314040723 L   I
 OLDACT:UP  15-03-14 15:05 OP:cam  STATUS:               ID:20150314035748     3
 OLDACT:REG 15-03-14 12:35 OP:cam  STATUS:               ID:20150314035748     3
 2015-03-14-0357-48M.COL___272                                                 6
 STAT SP IPHASW D HRMM SECON CODA AMPLIT PERI AZIMU VELO AIN AR TRES W  DIS CAZ7
 BAR2 EZ EP     C  4 7 44.23                             170   -0.0210 25.5 181 
 BAR2 EZ I         4 8  0.22        19.5 0.28            169           25.5 181 
 BRR  HZ IP     D  4 7 46.00                             155    0.5810 66.9 298 
 BRR  HN ES        4 8  3.03                             155    0.6910 66.9 298 
 BRR  HZ I         4 8  3.50        12.2 0.32            156           66.9 298 
 PAM  SZ IP     D  4 7 47.18                             152    0.4610 77.8  43 
 PAM  SN ES        4 8  4.30                             152   -0.3610 77.8  43 
 PAM  SZ I         4 8  6.24        17.9 0.52            150           77.8  43 
 RUS  HZ EP        4 7 48.26                             144   -0.1110  103 174 
 RUS  HN ES        4 8  7.34                             144   -0.2610  103 174 
 RUS  HZ I         4 8  7.91         5.0 0.26            143            103 174 
 PTB  HZ EP        4 7 50.31                             134   -0.71 9  145 258 
 PTB  HN ES        4 8 11.92                             134   -0.39 9  145 258 
 PTB  HZ I         4 8 13.55         5.6 0.30            134            145 258 
 OCA  HZ EP        4 7 52.21                             132   -0.12 9  157 354 
 OCA  HN ES        4 8 14.27                             132   -0.38 9  157 354 
 OCA  HZ I         4 8 17.85         6.1 0.20            131            157 354 
 SPBC HZ EP        4 7 53.15                             131    0.39 9  163 217 
 SPBC HN ES        4 8 15.49                             131    0.09 9  163 217 
 SPBC HZ I         4 8 18.97         5.3 0.10            130            163 217 
                                                                                
