 2015  714 0350 30.4 L   6.840 -73.151136.5  RSN  8 0.5 1.7LRSN                1
 GAP=134        1.28       4.0     5.9  8.6 -0.2896E+01  0.2438E+02 -0.6272E+01E
 Epicentro: LOS SANTOS - SANTANDER                                             3
 ACTION:UPD 15-09-08 21:48 OP:cam  STATUS:               ID:20150714035030 L   I
 OLDACT:REG 15-07-14 14:09 OP:spq  STATUS:               ID:20150714034749     3
 2015-07-14-0347-49M.COL___337                                                 6
 STAT SP IPHASW D HRMM SECON CODA AMPLIT PERI AZIMU VELO AIN AR TRES W  DIS CAZ7
 BAR2 EZ IP     C  350 49.15                             168    0.1110 27.7 187 
 BAR2 EZ ES        351  3.60                             168    0.0410 27.7 187 
 BAR2 EZ I         351  4.86         9.1 0.36            171           27.7 187 
 PAM  EN ES        351  8.26                             150    0.3710 74.4  42 
 PAM  EZ I         351 11.25        14.9 0.66            152           74.4  42 
 RUS  HZ EP        350 53.25                             140   -0.3710  105 176 
 RUS  HN ES        351 11.54                             140   -0.1710  105 176 
 RUS  HZ I         351 13.11         4.6 0.42            146            105 176 
 CPBEREZ EP        350 57.12                             130    0.43 9  148 257 
 CPBEREE ES        351 16.30                             130   -0.87 9  148 257 
 OCA  HZ EP        350 57.76                             128    0.16 9  156 353 
 OCA  HN ES        351 18.90                             128    0.11 9  156 353 
 OCA  HZ I         351 24.43        13.3 0.28            130            156 353 
 ZAR  HZ EP        351  1.30                             121   -0.75 9  202 291 
 ZAR  HN ES        351 27.51                             121    0.80 9  202 291 
 ZAR  HZ I         351 35.96         5.4 0.44            122            202 291 
 SML  HZ EP        351  5.31                             116   -0.76 8  239 335 
 SML  HN ES        351 33.60                             116   -0.28 8  239 335 
 SML  HZ I         351 38.24         7.0 0.24            118            239 335 
 GUY2CHZ EP        351 15.15                             110    1.29 7  303 234 
 GUY2CHE ES        351 48.02                             110    0.28 7  303 234 
 GUY2CHZ I         351 52.54         1.2 0.30                           303 234 
                                                                                
