 2011  614 0526 11.4 L   6.769 -73.107144.6  RSN  7 0.3 1.5LRSN                1
 GAP=163        0.59       4.5     7.3  8.2 -0.1153E+02 -0.2813E+01 -0.8696E+01E
 Epicentro: LOS SANTOS - SANTANDER                                             3
 ACTION:UP  11-07-14 19:05 OP:ep   STATUS:               ID:20110614052611 L   I
 2011-06-14-0525-02S.COL___135                                                 6
 STAT SP IPHASW D HRMM SECON CODA AMPLIT PERI AZIMU VELO SNR AR TRES W  DIS CAZ7
 BAR2 SZ EP   1    526 30.98                             171     0.1 7   21 203 
 BAR2 SZ ES   2    526 46.30                             171     0.3 5   21 203 
 BAR2 SZ I         526 47.58         8.5 0.22                            21 203 
 BTL  SZ EP        526 31.26                             170     0.310   24 313 
 BRR  HZ EP   1    526 32.63                             151    -0.1 7   77 299 
 BRR  HN ES   2    526 49.26                             151    -0.1 5   77 299 
 BRR  HZ I         526 52.17         5.1 0.13                            77 299 
 RUS  HZ I         526 32.40         5.9 0.36                            97 178 
 RUS  HN ES   2    526 52.65                             145    -0.4 5   97 178 
 GRA  SZ EP        526 36.58                             136    -0.210  128  15 
 GRA  SZ ES   2    526 56.01                             136    -0.5 5  128  15 
 GRA  SZ I         526 57.37         3.1 0.49                           128  15 
 OCA  SZ ES   2    527  2.61                             129     0.3 5  164 352 
 OCA  SZ I         527  7.10         3.3 0.38                           164 352 
 NOR  SN ES   2    527 14.92                             118    -0.3 4  236 236 
                                                                                
