 2012 1014 0956 21.9 L   6.784 -73.112142.0  RSN  4 0.2 0.8LRSN                1
 GAP=142        0.41       4.7     5.2  6.7  0.4322E+01 -0.4177E+01  0.1488E+02E
 Epicentro: LOS SANTOS - SANTANDER                                             3
 ACTION:UPD 12-11-22 17:03 OP:ep   STATUS:               ID:20121014095621 L   I
 2012-10-14-0950-00M.COL___231                                                 6
 STAT SP IPHASW D HRMM SECON CODA AMPLIT PERI AZIMU VELO AIN AR TRES W  DIS CAZ7
 BAR2 SZ ES   3    956 55.85                             170   -0.14 2 22.6 200 
 BRR  HZ EP        956 42.64                             151   -0.2310 75.2 298 
 BRR  HN ES   1    956 59.49                             151    0.26 7 75.2 298 
 PAM  SZ EP   2    956 43.88                             151    0.23 5 76.5  37 
 PAM  SZ I         956 44.09         2.0 0.20                          76.5  37 
 PAM  SN ES   2    957  0.58                             151   -0.04 5 76.5  37 
 RUS  HZ EP        956 45.17                             144    0.0410 98.7 178 
 RUS  HE ES   3    957  3.28                             144    0.02 2 98.7 178 
 RUS  HZ I         957  4.61         0.7 0.24                          98.7 178 
                                                                                
