 2017  814 0534 17.8 L   6.787 -73.097140.5  RSN 11 0.5 1.5LRSN                1
 GAP= 98        1.10       4.2     3.9  5.8 -0.1828E+01  0.4255E+01  0.4354E+01E
 Epicentro: LOS SANTOS - SANTANDER                                             3
 ACTION:UPD 17-09-04 20:20 OP:rebc STATUS:               ID:20170814053417 L   I
 OLDACT:UP  17-08-14 14:29 OP:and  STATUS:               ID:20170814052745d    3
 OLDACT:DUP 17-08-14 14:25 OP:and  STATUS:               ID:20170814052745d    3
 2017-08-14-0528-00M.COL___413                                                 6
 STAT SP IPHASW D HRMM SECON CODA AMPLIT PERI AZIMU VELO AIN AR TRES W  DIS CAZ7
 BAR2 EZ IP     C  534 36.47                             170   -0.3610 23.6 204 
 BAR2 EZ ES        534 51.33                             170   -0.3310 23.6 204 
 BAR2 EZ I         534 52.14        11.3 0.22            169           23.6 204 
 PAM  EZ EP        534 39.64                             151    0.2910 75.2  36 
 PAM  EN ES        534 56.21                             151    0.0610 75.2  36 
 PAM  EZ I         534 58.65        12.3 0.62            154           75.2  36 
 BRR  HZ IP     C  534 38.38                             150   -0.3610 76.6 298 
 BRR  HE ES        534 55.20                             150    0.1510 76.6 298 
 BRR  HZ I         534 59.51         6.3 0.14            150           76.6 298 
 RUS  HZ EP        534 41.25                             143    0.3010 98.9 179 
 RUS  HN ES        534 58.87                             143   -0.1110 98.9 179 
 RUS  HZ I         535  1.60         2.3 0.66            145           98.9 179 
 TAM  HZ IP     D  534 44.80                             130    0.23 9  150 105 
 SPBC HN ES        535  9.31                             127    1.05 9  166 221 
 SPBC HZ I         535 12.36         3.1 0.10            129            166 221 
 ZAR  HZ EP        534 51.16                             120    0.64 8  210 292 
 ZAR  HN ES        535 15.51                             120   -0.50 8  210 292 
 ZAR  HZ I         535 18.82         3.6 0.12            122            210 292 
 NOR  HZ EP        534 53.44                             117   -0.21 8  238 235 
 NOR  HN ES        535 21.54                             117   -0.05 8  238 235 
 NOR  HZ I         535 26.26         2.3 0.22            118            238 235 
 PTGC HZ EP        535  0.09                             111   -0.99 7  305 160 
 GUY2CHZ EP        535  2.01                             111    0.40 7  305 236 
 GUY2CHN ES        535 34.99                             111   -0.77 7  305 236 
 CBOC HZ EP        535  5.17                             109    0.10 7  338 253 
                                                                                
