 2017  614 0216 35.8 L   6.781 -73.146149.2  RSN  5 0.3 1.6LRSN                1
 GAP=279        0.83       4.6     7.7  7.9 -0.4190E+01 -0.1420E+02  0.6496E+01E
 Epicentro: LOS SANTOS - SANTANDER                                             3
 ACTION:UPD 17-09-14 16:51 OP:jn   STATUS:               ID:20170614021635 L   I
 OLDACT:UP  17-06-14 14:55 OP:ar   STATUS:               ID:20170614020740     3
 OLDACT:UP  17-06-14 14:40 OP:ar   STATUS:               ID:20170614020740     3
 OLDACT:REG 17-06-14 12:41 OP:ar   STATUS:               ID:20170614020740     3
 2017-06-14-0208-00M.COL___360                                                 6
 STAT SP IPHASW D HRMM SECON CODA AMPLIT PERI AZIMU VELO AIN AR TRES W  DIS CAZ7
 BRR  HZ EP        216 57.44                             153    0.0910 72.2 300 
 BRR  HN ES        217 14.26                             153    0.0910 72.2 300 
 BRR  HZ I         217 20.17         7.0 0.38            153           72.2 300 
 PTB  HZ EP        217  2.27                             133   -0.71 9  147 260 
 PTB  HN ES        217 23.76                             133   -0.45 9  147 260 
 PTB  HZ I         217 25.06         3.5 0.68            135            147 260 
 SPBC HZ EP        217  4.74                             130    0.36 9  162 219 
 SPBC HN ES        217 26.70                             130    0.00 9  162 219 
 SPBC HZ I         217 31.50         4.2 0.30            134            162 219 
 ZAR  HZ EP        217  8.59                             123    0.07 9  205 293 
 ZAR  HE ES        217 34.41                             123    0.35 9  205 293 
 ZAR  HZ I         217 42.15         3.7 0.17            126            205 293 
 NOR  HZ EP   2    217 11.54                             119   -0.03 4  233 235 
 NOR  HE ES        217 39.86                             119    0.36 8  233 235 
                                                                                
