 2010 1014 0626 55.0 L   6.782 -73.114141.6  RSN 23 0.5 4.2LRSN                1
 GAP=104        1.04       3.3     4.7  5.6 -0.3184E+01 -0.5357E-01  0.6657E+01E
 Epicentro: LOS SANTOS - SANTANDER                                             3
 ACTION:UP  11-02-18 11:09 OP:tino STATUS:               ID:20101014062655 L   I
 2010-10-14-0625-20S.COL___126                                                 6
 STAT SP IPHASW D HRMM SECON CODA AMPLIT PERI AZIMU VELO SNR AR TRES W  DIS CAZ7
 BAR2 SZ IP        627 14.20                             171     0.110   22 200 
 BAR2 SZ ES   1    627 28.18                             171    -0.8 7   22 200 
 BAR2 SZ I         627 30.04      5077.2 0.40                            22 200 
 BTL  SZ IP        627 13.34                             170    -0.710   23 312 
 GIR2 SZ IP        627 14.31                             166     0.110   34 345 
 GIR2 SZ ES   2    627 28.91                             166    -0.3 5   34 345 
 URB  SZ EP        627 15.75                             157     0.710   56 334 
 URB  SZ ES   2    627 30.69                             157     0.1 5   56 334 
 BRR  HZ IP     C  627 16.12                             150     0.210   75 299 
 BRR  HE ES        627 32.82                             150     0.610   75 299 
 BRR  HZ I         627 34.19      2750.7 0.42                            75 299 
 GUE  SZ EP        627 19.38                             138     0.010  118  10 
 GRA  SZ IP        627 20.26                             136     0.310  127  16 
 GRA  SZ ES   1    627 39.20                             136    -0.2 7  127  16 
 GRA  SZ I         627 40.93      2964.9 0.28                           127  16 
 OCA  SZ EP        627 22.86                             128    -0.3 9  163 352 
 OCA  SZ ES   1    627 44.94                             128    -0.3 7  163 352 
 OCA  SZ I         627 48.08      1617.5 0.24                           163 352 
 YOP  SZ IP     C  627 24.88                             126     0.5 9  176 154 
 YOP  SN ES   1    627 47.28                             126    -0.1 7  176 154 
 NOR  SZ EP        627 30.19                             117    -0.5 8  237 235 
 NOR  SE ES   2    627 57.91                             117    -0.6 4  237 235 
 CHI  HZ EP        627 32.37                             116     0.0 8  248 196 
 CHI  HE ES   1    628  1.06                             116    -0.4 6  248 196 
 CHI  HZ I         628  4.90      1014.8 0.35                           248 196 
 ROSC BZ EP   1    627 33.78                             116     0.9 6  253 212 
 ROSC BZ I         628 13.63       895.6 0.39                           253 212 
 CVER SZ EP   1    627 35.85                             114     0.8 6  272 203 
 CVER SZ I         628 14.07       631.0 0.53                           272 203 
 HEL  HZ EP        627 34.73                             114    -0.6 8  275 256 
 HEL  HN ES   1    628  6.45                             114    -0.3 6  275 256 
 HEL  HZ I         628 13.24      1229.5 0.31                           275 256 
 DBB  SZ EP   1    627 42.56                             108    -0.1 5  343 275 
 TOL  SZ EP   1    627 43.54                             108     0.4 5  345 225 
 SDV  BZ EP        627 44.02                             108    -0.7 6  359  50 
 SDV  BZ I         628 26.36       591.4 0.66                           359  50 
 PRA  HZ EP        627 48.26                             106    -0.1 6  392 210 
 PRA  HE ES   1    628 30.33                             106     0.4 4  392 210 
 GUA  SZ EP   1    627 56.77                             103    -0.9 4  472 173 
 GUA  SZ ES   2    628 46.52                             103    -0.1 2  472 173 
 SOL  SZ EP   2    627 58.57                             102     0.0 2  479 263 
 HORQ SZ EP        628  5.17                             101    -0.3 4  533 227 
 HORQ SZ I         628  8.36       149.9 0.12                           533 227 
 PCON HZ EP   2    628 15.68                              99     0.4 1  613 217 
 PCON HZ I         629 29.17        81.6 0.54                           613 217 
 POP2 HZ EP   1    628 14.55                              99    -0.4 2  613 220 
 POP2 HZ I         628 21.55       138.1 0.22                           613 220 
                                                                                
