 2017  714 0518 13.4 L   6.729 -73.107147.7  RSN  5 0.2 1.2LRSN                1
 GAP=236        0.44       4.8     8.0  4.0  0.2917E+02  0.1165E+01 -0.8639E+00E
 Epicentro: JORDAN - SANTANDER                                                 3
 ACTION:UPD 17-08-30 15:32 OP:rebc STATUS:               ID:20170714051813 L   I
 OLDACT:UP  17-07-14 14:17 OP:dnl  STATUS:               ID:20170714050737d    3
 OLDACT:DUP 17-07-14 14:11 OP:dnl  STATUS:               ID:20170714050737d    3
 OLDACT:UP  17-07-14 14:10 OP:dnl  STATUS:               ID:20170714050736     3
 OLDACT:UP  17-07-14 14:10 OP:dnl  STATUS:               ID:20170714050736     3
 OLDACT:UP  17-07-14 14:10 OP:dnl  STATUS:               ID:20170714050736     3
 OLDACT:UP  17-07-14 14:10 OP:dnl  STATUS:               ID:20170714050736     3
 OLDACT:REG 17-07-14 12:39 OP:dnl  STATUS:               ID:20170714050736     3
 2017-07-14-0508-00M.COL___377                                                 6
 STAT SP IPHASW D HRMM SECON CODA AMPLIT PERI AZIMU VELO AIN AR TRES W  DIS CAZ7
 BAR2 EZ EP        518 33.19                             172    0.0210 17.3 209 
 BAR2 EZ ES        518 48.38                             172   -0.2110 17.3 209 
 BAR2 EZ I         518 49.59         3.6 0.18            166           17.3 209 
 BRR  HZ EP        518 35.17                             150   -0.0510 78.9 302 
 BRR  HN ES        518 52.39                             150    0.1610 78.9 302 
 BRR  HZ I         518 53.34         3.6 0.70            148           78.9 302 
 RUS  HZ EP   2    518 36.99                             146    0.19 5 92.6 178 
 RUS  HN ES        518 55.13                             146    0.0910 92.6 178 
 RUS  HZ I         518 56.52         1.4 0.42            144           92.6 178 
 PTB  HZ EP   2    518 40.31                             132   -0.49 5  151 262 
 PTB  HN ES   4    519  1.01                             132   -1.16 0  151 262 
 PTB  HZ I         519  4.47         1.6 0.12            129            151 262 
 SPBC HZ EP   2    518 41.96                             130    0.20 5  160 222 
 SPBC HN ES   4    519  5.24                             130    1.36 0  160 222 
 SPBC HZ I         519  6.92         3.8 0.22            127            160 222 
                                                                                
