 2016  814 0014  3.5 L   5.765 -73.913100.8  RSN 15 0.5 1.9LRSN                1
 GAP= 90        1.19       2.9     3.3  6.3  0.3309E+00  0.6214E+01  0.2209E+01E
 Epicentro: ALBANIA - SANTANDER                                                3
 ACTION:UPD 16-10-29 15:35 OP:rebc STATUS:               ID:20160814001403 L   I
 OLDACT:UP  16-08-14 13:49 OP:dani STATUS:               ID:20160814000734     3
 OLDACT:UP  16-08-14 13:48 OP:dani STATUS:               ID:20160814000734     3
 OLDACT:UP  16-08-14 13:48 OP:dani STATUS:               ID:20160814000734     3
 OLDACT:REG 16-08-14 12:20 OP:dani STATUS:               ID:20160814000734     3
 2016-08-14-0008-00M.COL___383                                                 6
 STAT SP IPHASW D HRMM SECON CODA AMPLIT PERI AZIMU VELO AIN AR TRES W  DIS CAZ7
 SPBC HZ EP        014 17.69                             167    0.2110 21.7 235 
 SPBC HN ES        014 28.69                             167    0.3010 21.7 235 
 RUS  HZ EP        014 22.47                             134   -0.0110 92.9  81 
 RUS  HN ES        014 37.28                             134   -0.0010 92.9  81 
 RUS  HZ I         014 38.38        10.9 0.14                          92.9  81 
 PTB  HZ EP        014 22.00                             130   -0.9010  105 325 
 PTB  HE ES        014 37.44                             130   -0.5910  105 325 
 PTB  HZ I         014 41.20        13.7 0.46                           105 325 
 NOR  HZ EP        014 22.99                             129   -0.3010  108 258 
 NOR  HN ES        014 38.21                             129   -0.5210  108 258 
 NOR  HZ I         014 40.85        54.1 0.18                           108 258 
 ROSC BZ EP        014 24.90                             128    0.8110  112 204 
 ROSC BN ES   4    014 38.35                             128   -1.79 0  112 204 
 ROSC BZ I         014 44.74        23.5 0.35                           112 204 
 CHI  HZ EP        014 25.19                             124   -0.4310  127 171 
 CHI  HN ES        014 42.88                             124   -0.0010  127 171 
 CHI  HZ I         014 45.57         7.6 0.17                           127 171 
 BRR  HZ EP        014 27.45                             119   -0.02 9  150   8 
 BRR  HN ES        014 46.88                             119    0.72 9  150   8 
 GUY2CHZ EP        014 30.15                             115   -0.28 9  172 250 
 GUY2CHN ES   4    014 53.18                             115    1.74 0  172 250 
 GUY2CHZ I         014 57.55        12.1 0.38                           172 250 
 HEL  HZ EP        014 32.08                             113    0.30 9  185 285 
 HEL  HE ES        014 53.83                             113   -0.01 9  185 285 
 HEL  HZ I         014 57.99        11.5 0.70                           185 285 
 ELA  HZ EP        014 33.18                             112    0.31 9  193 239 
 ELA  HZ I         015  1.90         6.8 0.27                           193 239 
 ANIL HZ EP        014 35.23                             109   -0.12 8  217 230 
 ANIL HZ I         015  3.36        24.9 0.29                           217 230 
 ZAR  HN ES        014 59.83                             109    0.16 8  218 331 
 CBOC HZ EP        014 37.04                             107    0.03 8  233 273 
 CBOC HN ES        015  4.08                             107    0.94 8  233 273 
 CBOC HZ I         015  5.82         4.3 0.19                           233 273 
 PRA  HZ EP        014 38.01                             105   -0.99 8  251 206 
 PRA  HN ES        015  7.16                             105    0.47 8  251 206 
 PRA  HZ I         015  8.68        10.3 0.34                           251 206 
 PTGC HE ES   4    015  7.41                             104   -1.56 0  262 131 
 PAL  HZ EP        014 42.78                             103    0.41 7  279 250 
                                                                                
