 2014  814 0246 36.3 L   6.787 -73.137150.0  RSN  9 0.4 1.8LRSN                1
 GAP=210        0.86       4.0     4.9  5.3  0.5908E+01  0.4374E+01  0.1884E+01E
 Epicentro: LOS SANTOS - SANTANDER                                             3
 ACTION:UPD 14-09-15 21:49 OP:nd   STATUS:               ID:20140814024636 L   I
 OLDACT:UP  14-08-14 14:24 OP:cam  STATUS:               ID:20140814024000     3
 OLDACT:REG 14-08-14 13:15 OP:cam  STATUS:               ID:20140814024000     3
 2014-08-14-0240-00M.COL___285                                                 6
 STAT SP IPHASW D HRMM SECON CODA AMPLIT PERI AZIMU VELO AIN AR TRES W  DIS CAZ7
 BAR2 SZ EP        246 56.78                             171    0.3310 22.1 193 
 BAR2 SZ ES        247 11.88                             171   -0.2610 22.1 193 
 BRR  HZ EP        246 58.33                             153    0.3010 72.8 299 
 BRR  HN ES        247 14.88                             153   -0.0710 72.8 299 
 BRR  HZ I         247 21.01         8.1 0.18            141           72.8 299 
 RUS  HZ EP        247  0.29                             145   -0.1010 99.1 177 
 RUS  HN ES        247 18.98                             145   -0.1810 99.1 177 
 RUS  HZ I         247 20.38         6.1 0.28            140           99.1 177 
 PTB  HZ EP        247  3.67                             133   -0.04 9  148 259 
 PTB  HN ES        247 24.64                             133   -0.43 9  148 259 
 PTB  HZ I         247 30.29         7.3 0.42            123            148 259 
 SPBC HZ EP        247  5.71                             130    0.60 9  163 220 
 SPBC HN ES        247 27.82                             130    0.26 9  163 220 
 SPBC HZ I         247 33.21         8.4 0.22            122            163 220 
 ZAR  HZ EP   4    247 10.62                             123    1.41 0  206 292 
 ZAR  HN ES        247 35.18                             123    0.33 8  206 292 
 ZAR  HZ I         247 40.79         4.3 0.42            112            206 292 
 SML  HE ES   4    247 41.46                             118   -0.83 0  245 335 
 SML  HZ I         247 46.40        10.8 0.10            107            245 335 
 PRA  HZ EP        247 29.68                             107   -0.23 6  391 210 
 PRA  HN ES        248 11.30                             107   -0.40 6  391 210 
 PRA  HZ I         248 18.35         2.5 0.22            100            391 210 
 SJC  HZ EP        247 31.12                             106   -1.12 6  411 327 
 SJC  HZ I         248 16.55         2.3 0.62             98            411 327 
                                                                                
