 2011  514 0502 28.5 L   6.808 -73.071147.7  RSN 10 0.4 1.9LRSN                1
 GAP=146        0.97       4.1     7.3  5.9 -0.8329E+01  0.8593E+00 -0.4781E+00E
 Epicentro: LOS SANTOS - SANTANDER                                             3
 ACTION:UP  11-06-29 08:53 OP:tino STATUS:               ID:20110514050228 L   I
 2011-05-14-0500-55S.COL___141                                                 6
 STAT SP IPHASW D HRMM SECON CODA AMPLIT PERI AZIMU VELO SNR AR TRES W  DIS CAZ7
 BTL  SZ EP        5 2 48.45                             170     0.010   25 299 
 BTL  SZ ES   1    5 3  3.97                             170     0.0 7   25 299 
 BAR2 SZ IP     C  5 2 48.20                             169    -0.310   27 207 
 BAR2 SZ I         5 2 48.48        17.5 0.22                            27 207 
 BAR2 SZ ES   1    5 3  4.39                             169     0.4 7   27 207 
 GIR2 SZ EP        5 2 48.25                             167    -0.210   33 336 
 GIR2 SZ ES   1    5 3  4.12                             167     0.1 7   33 336 
 PAM  SZ EP        5 2 51.13                             153     0.510   72  35 
 PAM  SN ES   1    5 3  8.18                             153     0.3 7   72  35 
 BRR  HZ IP     D  5 2 50.10                             151    -0.210   78 295 
 BRR  HN ES   1    5 3  7.48                             151     0.2 7   78 295 
 BRR  HZ I         5 3  9.81        24.7 0.14                            78 295 
 RUS  HZ EP        5 2 52.07                             144    -0.410  101 181 
 RUS  HZ I         5 2 52.88         5.0 0.17                           101 181 
 RUS  HN ES   1    5 3 11.25                             144     0.0 7  101 181 
 BRI  SZ EP        5 2 52.82                             143     0.510  105  17 
 BRI  SZ ES   1    5 3  9.83                             143    -1.1 7  105  17 
 GRA  SZ IP        5 2 54.02                             138     0.310  123  14 
 GRA  SZ ES   1    5 3 13.31                             138     0.0 7  123  14 
 GRA  SZ I         5 3 14.82        11.5 0.32                           123  14 
 OCA  SZ EP        5 2 56.66                             130    -0.4 9  161 350 
 OCA  SZ ES   1    5 3 18.95                             130    -0.3 7  161 350 
 OCA  SZ I         5 3 23.14         8.3 0.22                           161 350 
 HEL  HZ EP   1    5 3 10.27                             114     0.5 6  280 256 
 HEL  HN ES   3    5 3 42.40                             114     0.5 2  280 256 
                                                                                
