 2013  514 0855 13.8 L   5.891 -73.734114.0  RSN  4 0.2 1.2LRSN                1
 GAP=222        0.54       5.0     4.4  7.3  0.1223E+02  0.5723E+01  0.3166E+01E
 Epicentro: JESUS MARIA - SANTANDER                                            3
 ACTION:UPD 13-06-20 09:50 OP:ep   STATUS:               ID:20130514085513 L   I
 2013-05-14-0850-00M.COL___256                                                 6
 STAT SP IPHASW D HRMM SECON CODA AMPLIT PERI AZIMU VELO AIN AR TRES W  DIS CAZ7
 RUS  HZ EP        855 32.38                             146    0.0110 72.1  90 
 RUS  HN ES        855 47.00                             146    0.1410 72.1  90 
 RUS  HZ I         855 48.02         1.9 0.39            146           72.1  90 
 BAR2 SZ EP        855 33.97                             136   -0.0910 98.7  38 
 BAR2 SZ ES   1    855 49.49                             136   -0.38 7 98.7  38 
 BAR2 SZ I         855 50.62         7.3 0.16            137           98.7  38 
 PTB  HN ES   1    855 50.56                             134   -0.10 7  107 312 
 BRR  HN ES   1    855 55.56                             127    0.41 7  134   1 
                                                                                
