 2011 1114 0827 22.0 L   6.928 -72.821123.1  RSN  4 0.3 1.2LRSN                1
 GAP=269        0.57      10.1    16.2  9.9  0.1421E+03 -0.1089E+03 -0.6679E+02E
 Epicentro: GUACA - SANTANDER                                                  3
 ACTION:UPD 12-07-13 16:10 OP:ep   STATUS:               ID:20111114082722 L   I
 2011-11-14-0824-12S.COL___179                                                 6
 STAT SP IPHASW D HRMM SECON CODA AMPLIT PERI AZIMU VELO AIN AR TRES W  DIS CAZ7
 BAR2 SZ EP   1    827 40.46                             155    0.31 7 54.5 227 
 BAR2 SZ ES   1    827 54.13                             155   -0.15 7 54.5 227 
 BRR  HZ EP   1    827 42.43                             138   -0.50 7  100 281 
 BRR  HZ I         827 42.72         7.7 0.15                           100 281 
 BRR  HN ES   1    827 59.50                             138    0.26 7  100 281 
 RUS  HZ EP   1    827 45.29                             134    0.18 7  118 194 
 RUS  HN ES   1    828  3.00                             134   -0.11 7  118 194 
 RUS  HZ I         828  4.43         1.2 0.27                           118 194 
 ZAR  HZ EP   2    827 56.44                             113    0.08 4  234 286 
                                                                                
