 2017  914 0635 55.2 L   6.752 -73.676 94.9  RSN 17 0.7 1.6LRSN                1
 GAP= 65        1.17       3.3     2.5  6.5  0.5775E+00  0.4537E+01  0.5916E+01E
 Epicentro: EL CARMEN - SANTANDER                                              3
 ACTION:UPD 17-10-05 19:12 OP:rebc STATUS:               ID:20170914063555 L   I
 OLDACT:UP  17-09-14 17:46 OP:and  STATUS:               ID:20170914062741     3
 OLDACT:UP  17-09-14 17:44 OP:and  STATUS:               ID:20170914062741     3
 OLDACT:UP  17-09-14 17:38 OP:and  STATUS:               ID:20170914062741     3
 OLDACT:UP  17-09-14 17:38 OP:and  STATUS:               ID:20170914062741     3
 OLDACT:UP  17-09-14 17:37 OP:and  STATUS:               ID:20170914062741     3
 OLDACT:UP  17-09-14 17:36 OP:and  STATUS:               ID:20170914062741     3
 OLDACT:UP  17-09-14 17:36 OP:and  STATUS:               ID:20170914062741     3
 OLDACT:REG 17-09-14 11:31 OP:dhb  STATUS:               ID:20170914062741     3
 2017-09-14-0628-00M.COL___410                                                 6
 STAT SP IPHASW D HRMM SECON CODA AMPLIT PERI AZIMU VELO AIN AR TRES W  DIS CAZ7
 BRR  HZ IP     C  636  8.58                             155   -0.5010 39.4 354 
 BRR  HN ES        636 19.83                             155   -0.0610 39.4 354 
 BRR  HZ I         636 20.67        11.6 0.12            160           39.4 354 
 BAR2 EZ EP        636 10.05                             146   -0.4510 57.4 108 
 BAR2 EZ ES        636 22.26                             146   -0.1510 57.4 108 
 BAR2 EZ I         636 25.35        14.8 0.20            149           57.4 108 
 RUS  HZ EP        636 14.84                             125   -1.0210  116 145 
 RUS  HN ES        636 31.56                             125   -0.3910  116 145 
 RUS  HZ I         636 32.29         7.9 0.14            127            116 145 
 PAM  EZ IP     C  636 16.81                             122   -0.1010  126  59 
 PAM  EN ES        636 34.27                             122    0.4410  126  59 
 PAM  EZ I         636 34.63         3.6 0.18            127            126  59 
 SPBC HZ EP   3    636 15.25                             122   -1.49 2  129 200 
 SPBC HN ES   3    636 34.72                             122    1.19 2  129 200 
 SPBC HZ I         636 38.65        11.1 0.08            122            129 200 
 ZAR  HZ EP        636 19.64                             116    0.35 9  154 302 
 ZAR  HE ES        636 38.86                             116    0.79 9  154 302 
 ZAR  HZ I         636 40.10        12.4 0.30            119            154 302 
 NOR  HZ IP   3 D  636 21.32                             112   -1.64 2  186 225 
 NOR  HN ES        636 43.83                             112   -0.77 9  186 225 
 NOR  HZ I         636 47.94         8.2 0.16            113            186 225 
 YPLC HZ EP        636 25.96                             110    0.54 8  207 136 
 YPLC HE ES        636 49.58                             110    0.60 8  207 136 
 YPLC HZ I         636 51.49         7.0 0.28            111            207 136 
 TAM  HZ IP        636 26.07                             109    0.24 8  211  99 
 TAM  HN ES        636 50.20                             109    0.49 8  211  99 
 HEL  HZ EP        636 26.25                             109   -0.31 8  214 253 
 HEL  HN ES        636 51.07                             109    0.06 8  214 253 
 HEL  HZ I         636 55.36         4.7 0.32            110            214 253 
 URE  HN ES   3    636 52.60                             107   -1.53 2  233 298 
 URE  HZ I         636 54.83         8.8 0.16            109            233 298 
 CHI  HZ EP   3    636 27.89                             107   -1.15 2  235 182 
 CHI  HN ES   3    636 56.88                             107    1.47 2  235 182 
 CHI  HZ I         637  3.71         2.1 0.32            108            235 182 
 GUY2CHZ EP        636 32.00                             106    0.86 8  252 228 
 GUY2CHN ES        636 59.61                             106    0.45 8  252 228 
 GUY2CHZ I         637  6.84         3.4 0.50                           252 228 
 CBOC HZ EP   4    636 37.28                             104    3.60 0  276 249 
 CBOC HN ES        637  4.45                             104    0.77 7  276 249 
 CBOC HZ I         637 10.16         1.1 0.20            105            276 249 
 PTGC HZ EP   9    636 38.68                             102   -1.23 0  330 149 
 PTGC HE ES        637 13.29                             102   -0.24 7  330 149 
 PRA  HZ EP        636 43.91                             100    0.12 6  362 202 
 PRA  HN ES   2    637 20.31                             100   -1.37 3  362 202 
 SJC  HZ EP        636 45.85                             100   -0.81 6  385 335 
 SJC  HN ES   3    637 24.96                             100   -1.82 1  385 335 
 SJC  HZ I         637 28.17         0.9 0.56            101            385 335 
                                                                                
