 2016  914 0930 12.8 L   6.800 -73.210133.9  RSN  9 0.5 1.5LRSN                1
 GAP=129        1.27       4.6     5.8  9.7 -0.4490E+01  0.1936E+02  0.2873E+00E
 Epicentro: ZAPATOCA - SANTANDER                                               3
 ACTION:UPD 17-08-17 21:11 OP:lp   STATUS:               ID:20160914093012 L   I
 OLDACT:ARG 16-09-14 13:50 OP:ar   STATUS:               ID:20160914092800     3
 2016-09-14-0928-00M.COL___318                                                 6
 STAT SP IPHASW D HRMM SECON CODA AMPLIT PERI AZIMU VELO AIN AR TRES W  DIS CAZ7
 BAR2 EZ EP        930 31.12                             170    0.1010 23.2 172 
 BAR2 EZ ES        930 44.62                             170   -0.6010 23.2 172 
 BAR2 EZ I         930 47.71        12.8 0.26            171           23.2 172 
 BRR  HZ EP        930 32.96                             152    0.6310 65.0 302 
 BRR  HZ I         930 53.19        11.2 0.28            145           65.0 302 
 PAM  EZ EP        930 34.14                             147    0.0510 82.1  43 
 PAM  EN ES        930 51.10                             147    0.4110 82.1  43 
 PAM  EZ I         930 53.33         7.4 0.46            147           82.1  43 
 RUS  HZ EP        930 35.15                             141   -0.3310  101 172 
 RUS  HE ES        930 53.27                             141    0.1210  101 172 
 RUS  HZ I         930 54.88         2.0 0.66            144            101 172 
 PTB  HZ EP        930 37.38                             130   -0.81 9  141 258 
 PTB  HN ES        930 57.44                             130   -0.53 9  141 258 
 PTB  HZ I         931  6.03         3.7 0.20            127            141 258 
 SPBC HZ EP        930 40.09                             127    0.09 9  159 217 
 SPBC HN ES   1    931  2.18                             127    0.98 7  159 217 
 SPBC HZ I         931  7.01         6.9 0.12            126            159 217 
 OCA  HE ES   1    931  0.86                             127   -0.64 7  160 356 
 ZAR  HE ES   1    931  9.11                             120    1.11 6  197 293 
 CHI  HN ES   1    931 18.76                             114    0.31 6  247 194 
                                                                                
