 2011  314 0337 33.0 L   6.786 -73.133147.1  RSN  8 0.3 2.0LRSN                1
 GAP=161        0.56       3.0     3.7  4.8 -0.9836E+00  0.4437E+01  0.6266E+00E
 Epicentro: LOS SANTOS - SANTANDER                                             3
 ACTION:UP  11-06-16 14:33 OP:jfem STATUS:               ID:20110314033733 L   I
 2011-03-14-0337-37S.COL___131                                                 6
 STAT SP IPHASW D HRMM SECON CODA AMPLIT PERI AZIMU VELO SNR AR TRES W  DIS CAZ7
 BAR2 SZ EP   1    337 53.11                             171     0.3 8   22 195 
 BAR2 SZ ES   1    338  8.24                             171     0.0 8   22 195 
 BAR2 SZ I         338  9.90        59.8 0.23                            22 195 
 RUS  HZ EP   1    337 56.75                             145    -0.1 8   99 177 
 RUS  HN ES   1    338 15.45                             145     0.1 8   99 177 
 RUS  HZ I         338 16.97        13.5 0.26                            99 177 
 OCA  SZ EP   1    338  1.30                             130    -0.3 8  162 353 
 OCA  SZ ES   2    338 24.25                             130     0.3 5  162 353 
 OCA  SZ I         338 28.11        17.5 0.29                           162 353 
 YOP  SZ EP        338  2.73                             127    -0.310  177 154 
 NOR  SZ EP   1    338  9.04                             119     0.1 7  235 235 
 NOR  SN ES   1    338 36.42                             119    -0.4 7  235 235 
 NOR  SZ I         338 41.54         1.8 0.26                           235 235 
 CHI  HZ EP   1    338 10.69                             118     0.0 7  248 196 
 CHI  HE ES   1    338 40.14                             118     0.1 7  248 196 
 CHI  HZ I         338 44.07         7.6 0.52                           248 196 
 HEL  HZ EP   1    338 13.87                             115     0.4 6  273 256 
 HEL  HE ES   1    338 44.66                             115    -0.3 6  273 256 
 HEL  HZ I         338 52.25         7.2 0.29                           273 256 
 PRA  HZ EP   1    338 27.11                             107     0.6 5  391 210 
 PRA  HE ES   1    339  8.43                             107     0.2 5  391 210 
                                                                                
