 2016 1214 0813 45.1 L   6.816 -73.190146.0  RSN  4 0.3 1.0LRSN                1
 GAP=234        0.65       6.1     4.8  6.1  0.1138E+02  0.2871E+01 -0.1015E+02E
 Epicentro: ZAPATOCA - SANTANDER                                               3
 ACTION:UPD 17-01-11 20:15 OP:rebc STATUS:               ID:20161214081345 L   I
 OLDACT:UP  16-12-14 19:41 OP:and  STATUS:               ID:20161214080745d    3
 OLDACT:DUP 16-12-14 19:38 OP:and  STATUS:               ID:20161214080745d    3
 2016-12-14-0808-00M.COL___374                                                 6
 STAT SP IPHASW D HRMM SECON CODA AMPLIT PERI AZIMU VELO AIN AR TRES W  DIS CAZ7
 BAR2 EZ EP        814  4.46                             170   -0.3110 24.8 178 
 BAR2 EZ ES        814 19.87                             170   -0.2510 24.8 178 
 BAR2 EZ I         814 21.23         2.5 0.16            169           24.8 178 
 BRR  HZ EP        814  6.31                             154    0.3410 66.1 299 
 BRR  HN ES   3    814 23.47                             154    1.20 2 66.1 299 
 RUS  HZ EP        814  9.14                             143    0.1310  103 173 
 RUS  HN ES        814 27.86                             143    0.1810  103 173 
 RUS  HZ I         814 28.53         1.4 0.32            144            103 173 
 PTB  HZ EP        814 11.56                             133   -0.11 9  143 258 
 PTB  HN ES        814 32.33                             133   -0.08 9  143 258 
 PTB  HZ I         814 34.32         1.8 0.14            133            143 258 
                                                                                
