 2017  214 0146 17.5 L   6.791 -73.164145.8  RSN 15 0.5 2.1LRSN                1
 GAP= 73        1.06       3.7     3.0  5.3  0.3263E+00  0.3400E+01  0.2497E+01E
 Epicentro: LOS SANTOS - SANTANDER                                             3
 ACTION:UPD 17-05-24 15:36 OP:jn   STATUS:               ID:20170214014617 L   I
 OLDACT:UP  17-02-14 14:19 OP:dani STATUS:               ID:20170214013741     3
 OLDACT:UP  17-02-14 14:18 OP:dani STATUS:               ID:20170214013741     3
 OLDACT:UP  17-02-14 14:18 OP:dani STATUS:               ID:20170214013741     3
 OLDACT:UP  17-02-14 14:18 OP:dani STATUS:               ID:20170214013741     3
 OLDACT:UP  17-02-14 14:17 OP:dani STATUS:               ID:20170214013741     3
 OLDACT:REG 17-02-14 12:23 OP:dani STATUS:               ID:20170214013741     3
 2017-02-14-0138-00M.COL___358                                                 6
 STAT SP IPHASW D HRMM SECON CODA AMPLIT PERI AZIMU VELO AIN AR TRES W  DIS CAZ7
 BAR2 EZ EP        146 37.09                             171   -0.0510 22.1 185 
 BAR2 EZ ES        146 51.83                             171   -0.6110 22.1 185 
 BAR2 EZ I         146 53.15        32.2 0.38            167           22.1 185 
 BRR  HZ EP        146 38.83                             153    0.2210 69.9 300 
 BRR  HN ES        146 55.99                             153    0.9410 69.9 300 
 BRR  HZ I         146 59.07        16.6 0.28            152           69.9 300 
 PAM  EZ EP        146 40.05                             150    0.1810 79.4  40 
 PAM  EE ES        146 57.13                             150   -0.1610 79.4  40 
 PAM  EZ I         147  0.31        13.4 0.52            155           79.4  40 
 RUS  HZ EP        146 40.99                             144   -0.2410 99.8 175 
 RUS  HN ES        146 59.73                             144    0.0210 99.8 175 
 RUS  HZ I         147  0.73        11.2 0.20            143           99.8 175 
 PTB  HZ EP        146 43.59                             133   -0.71 9  146 259 
 PTB  HN ES        147  4.78                             133   -0.41 9  146 259 
 PTB  HZ I         147  6.75        14.5 0.42            132            146 259 
 TAM  HZ EP        146 45.51                             130    0.14 9  157 104 
 TAM  HN ES        147  7.16                             130    0.08 9  157 104 
 TAM  HZ I         147  7.83         6.7 0.30            133            157 104 
 ZAR  HZ EP        146 49.90                             123    0.08 9  203 293 
 ZAR  HN ES        147 15.10                             123    0.09 9  203 293 
 ZAR  HZ I         147 20.21        16.0 0.40            123            203 293 
 NOR  HZ EP        146 53.22                             119    0.19 8  233 234 
 NOR  HN ES        147 20.75                             119    0.04 8  233 234 
 NOR  HZ I         147 30.40         8.4 0.42            118            233 234 
 CHI  HZ EP        146 55.17                             117    0.10 8  247 195 
 CHI  HE ES        147 24.65                             117    0.29 8  247 195 
 CHI  HZ I         147 29.70         7.8 0.38            117            247 195 
 ROSC BZ EP   9    146 57.17                             117    1.72 0  251 211 
 ROSC BE ES        147 28.12                             116    1.37 8  251 211 
 ROSC BZ I         147 31.93        24.6 0.44            117            251 211 
 PTGC HZ EP   3    147  0.21                             112   -1.16 2  309 158 
 PTGC HN ES   3    147 33.81                             112   -1.76 2  309 158 
 ELA  HZ EP   9    147  6.14                             111    2.00 0  327 229 
 ELA  HN ES        147 42.86                             110    0.37 7  327 229 
 ELA  HZ I         147 50.10         4.9 0.60            111            327 229 
 DBB  EZ EP        147  5.34                             110    0.56 7  338 274 
 DBB  EN ES        147 40.99                             110   -0.65 7  338 274 
 DBB  EZ I         147 42.72         3.5 0.38            110            338 274 
 ORTC HZ EP        147 11.55                             107    0.33 6  393 216 
 ORTC HN ES   3    147 54.92                             107    1.82 1  393 216 
 ORTC HZ I         147 58.50         4.6 0.16            107            393 216 
 SJC  HZ EP   3    147 11.28                             106   -1.78 1  409 327 
                                                                                
