 2013  114 0603 13.7 L   6.801 -73.125142.3  RSN  7 0.4 1.6LRSN                1
 GAP=185        0.73       3.8     6.2  7.7  0.4697E+01  0.1055E+02  0.2668E+01E
 Epicentro: LOS SANTOS - SANTANDER                                             3
 ACTION:UPD 13-02-15 09:14 OP:ep   STATUS:               ID:20130114060313 L   I
 2013-01-14-0600-00M.COL___241                                                 6
 STAT SP IPHASW D HRMM SECON CODA AMPLIT PERI AZIMU VELO AIN AR TRES W  DIS CAZ7
 BAR2 SZ EP   1    6 3 33.25                             170    0.37 7 23.9 195 
 BAR2 SZ ES   1    6 3 47.75                             170   -0.13 7 23.9 195 
 BRR  HZ EP   1    6 3 35.13                             151    0.58 7 73.1 298 
 BRR  HN ES   4    6 3 52.59                             151    1.75 0 73.1 298 
 BRR  HZ I         6 3 56.18        10.0 0.40            148           73.1 298 
 RUS  HZ EP   1    6 3 37.10                             143    0.03 7  101 177 
 RUS  HN ES   1    6 3 55.47                             143    0.14 7  101 177 
 RUS  HZ I         6 3 56.91         4.9 0.38            145            101 177 
 PTB  HZ EP   1    6 3 39.92                             131   -0.63 7  150 259 
 PTB  HN ES   1    6 4  1.53                             131    0.00 7  150 259 
 PTB  HZ I         6 4  7.09         6.1 0.20            130            150 259 
 OCA  HN ES   1    6 4  3.11                             129   -0.49 7  160 352 
 ZAR  HN ES   2    6 4 11.95                             121    0.56 4  206 292 
 CHI  HZ EP   1    6 3 51.44                             116    0.19 6  249 196 
 CHI  HN ES   1    6 4 20.01                             116   -0.55 6  249 196 
 CHI  HZ I         6 4 24.38         1.8 0.62            119            249 196 
                                                                                
