 2014 1214 0428 59.5 L   6.827 -73.159146.9  RSN  8 0.5 1.6LRSN                1
 GAP= 69        1.30       4.1     4.5  8.7  0.8359E-01  0.2010E+01  0.1578E+00E
 Epicentro: LOS SANTOS - SANTANDER                                             3
 ACTION:UPD 15-02-10 17:03 OP:nd   STATUS:               ID:20141214042859 L   I
 OLDACT:REG 14-12-14 13:51 OP:stll STATUS:               ID:20141214042744     3
 2014-12-14-0427-44M.COL___278                                                 6
 STAT SP IPHASW D HRMM SECON CODA AMPLIT PERI AZIMU VELO AIN AR TRES W  DIS CAZ7
 BRR  HZ EP        429 21.35                             154    0.6910 68.5 297 
 BRR  HN ES        429 38.03                             154    0.8910 68.5 297 
 BRR  HZ I         429 41.29         6.5 0.30            153           68.5 297 
 PAM  SZ EP        429 22.28                             151    0.4810 76.1  42 
 PAM  SZ I         429 22.53        18.3 0.18            155           76.1  42 
 PAM  SN ES        429 39.10                             151   -0.0610 76.1  42 
 RUS  HZ EP        429 23.20                             143   -0.4210  104 175 
 RUS  HZ I         429 24.46         2.7 0.22            145            104 175 
 RUS  HN ES        429 42.20                             143   -0.2110  104 175 
 PTB  HZ EP        429 26.37                             132   -0.15 9  147 258 
 PTB  HN ES        429 46.51                             132   -1.06 9  147 258 
 PTB  HZ I         429 54.18         4.5 0.26            133            147 258 
 TAM  HZ EP        429 27.75                             130    0.24 9  157 106 
 TAM  HN ES        429 48.90                             130   -0.42 9  157 106 
 OCA  HN ES        429 49.00                             130   -0.57 9  157 354 
 OCA  HZ I         429 52.81         4.8 0.34            133            157 354 
 SPBC HZ EP        429 28.67                             129    0.41 9  165 218 
 SPBC HN ES        429 50.94                             129    0.28 9  165 218 
 SPBC HZ I         429 54.91         8.0 0.10            130            165 218 
 SML  HZ EP        429 35.53                             118   -0.34 8  240 335 
 SML  HN ES        430  4.13                             118   -0.08 8  240 335 
                                                                                
