 2016  414 0304  0.3 L   6.770 -73.123135.8  RSN  5 0.4 1.3LRSN                1
 GAP=141        0.91       4.7     4.7  7.9 -0.8242E+00  0.1434E+02 -0.3434E+01E
 Epicentro: LOS SANTOS - SANTANDER                                             3
 ACTION:UPD 16-05-05 14:21 OP:rebc STATUS:               ID:20160414030400 L   I
 OLDACT:REG 16-04-14 12:18 OP:mh   STATUS:               ID:20160414025746     3
 2016-04-14-0257-46M.COL___322                                                 6
 STAT SP IPHASW D HRMM SECON CODA AMPLIT PERI AZIMU VELO AIN AR TRES W  DIS CAZ7
 BAR2 EZ ES        3 4 33.05                             171    0.0210 20.7 198 
 BAR2 EZ I         3 4 35.13         6.6 0.07            170           20.7 198 
 PAM  EZ EP        3 4 21.60                             149    0.0410 78.5  37 
 PAM  EN ES        3 4 37.92                             149   -0.2010 78.5  37 
 PAM  EZ I         3 4 40.68         3.7 0.32            152           78.5  37 
 RUS  HZ EP        3 4 23.14                             143    0.3010 97.1 177 
 RUS  HN ES        3 4 40.52                             143    0.1110 97.1 177 
 RUS  HZ I         3 4 42.51         1.1 0.20            146           97.1 177 
 PTB  HZ EP        3 4 26.08                             129   -0.59 9  150 260 
 PTB  HN ES   1    3 4 46.67                             129   -0.55 7  150 260 
 PTB  HZ I         3 4 51.33         2.7 0.18            130            150 260 
 ZAR  HE ES        3 4 58.32                             120    0.69 8  208 293 
 ZAR  HZ I         3 5  3.66         4.6 0.25            121            208 293 
                                                                                
