 2011 1214 0228 43.9 L   6.820 -73.096144.0  RSN  6 0.3 1.4LRSN                1
 GAP=142        0.45       3.4     4.3  5.1 -0.5811E+00  0.1587E+01 -0.2746E+00E
 Epicentro: LOS SANTOS - SANTANDER                                             3
 ACTION:UPD 12-07-13 16:16 OP:ep   STATUS:               ID:20111214022843 L   I
 2011-12-14-0220-00M.COL___186                                                 6
 STAT SP IPHASW D HRMM SECON CODA AMPLIT PERI AZIMU VELO AIN AR TRES W  DIS CAZ7
 BAR2 SZ ES   2    229 18.18                             169   -0.42 5 26.9 201 
 BAR2 SZ I         229 21.04         8.2 0.35                          26.9 201 
 GIR2 SZ EP   2    229  3.07                             167   -0.27 5 30.6 339 
 GIR2 SZ ES   2    229 18.40                             167   -0.10 5 30.6 339 
 PAM  SZ EP   1    229  5.73                             152    0.11 7 72.2  37 
 PAM  SN ES   2    229 22.74                             152    0.17 5 72.2  37 
 BRR  HZ EP   1    229  4.79                             151   -0.29 7 75.1 295 
 BRR  HN ES   2    229 22.13                             151    0.53 5 75.1 295 
 BRR  HZ I         229 27.37         5.9 0.32                          75.1 295 
 RUS  HZ EP   1    229  7.64                             143    0.02 7  103 179 
 RUS  HN ES   1    229 26.22                             143    0.10 7  103 179 
 RUS  HZ I         229 27.25         2.7 0.38                           103 179 
 PTB  HZ EP   2    229 11.66                             130    0.40 5  154 258 
 PTB  HE ES   2    229 32.48                             130   -0.12 5  154 258 
                                                                                
