 2013 1214 0441 58.0 L   6.756 -73.121154.9  RSN  4 0.2 1.3LRSN                1
 GAP=237        0.57       4.9     4.7  5.1  0.9223E+01  0.3984E+01 -0.2990E+01E
 Epicentro: LOS SANTOS - SANTANDER                                             3
 ACTION:UPD 14-01-13 10:18 OP:ep   STATUS:               ID:20131214044158 L   I
 OLDACT:REG 13-12-14 07:29 OP:jn   STATUS:               ID:20131214044000     3
 2013-12-14-0440-00M.COL___285                                                 6
 STAT SP IPHASW D HRMM SECON CODA AMPLIT PERI AZIMU VELO AIN AR TRES W  DIS CAZ7
 BAR2 SZ EP        442 18.67                             173    0.0010 19.3 201 
 BAR2 SZ ES        442 34.42                             173   -0.3610 19.3 201 
 BAR2 SZ I         442 35.36         8.0 0.24            164           19.3 201 
 BRR  HZ EP        442 20.54                             152    0.1310 76.0 301 
 BRR  HN ES        442 38.09                             152    0.2010 76.0 301 
 RUS  HN ES        442 41.52                             147    0.2310 95.6 177 
 RUS  HZ I         442 42.47         2.0 0.24            143           95.6 177 
 PTB  HZ EP        442 25.68                             134   -0.21 9  150 261 
 PTB  HN ES        442 47.62                             134   -0.02 9  150 261 
 PTB  HZ I         442 54.60         1.7 0.18            129            150 261 
                                                                                
