 2013  514 0045 46.0 L   6.784 -73.160149.0  RSN 13 0.4 2.3LRSN                1
 GAP= 71        1.10       2.9     3.6  5.1 -0.7658E+00  0.3449E+01  0.2606E+01E
 Epicentro: LOS SANTOS - SANTANDER                                             3
 ACTION:UPD 13-06-20 09:50 OP:ep   STATUS:               ID:20130514004546 L   I
 2013-05-14-0040-00M.COL___256                                                 6
 STAT SP IPHASW D HRMM SECON CODA AMPLIT PERI AZIMU VELO AIN AR TRES W  DIS CAZ7
 BAR2 SZ EP     D  046  6.03                             171    0.0410 21.4 186 
 BAR2 SZ ES        046 21.41                             171   -0.1710 21.4 186 
 BAR2 SZ I         046 23.76        57.8 0.30            168           21.4 186 
 GIR2 SZ EP        046  6.10                             167   -0.0010 32.8 354 
 GIR2 SZ ES        046 22.40                             167    0.6210 32.8 354 
 GIR2 SZ I         046 28.87        26.7 0.52            165           32.8 354 
 BRR  HZ IP     C  046  7.90                             153    0.4310 70.6 300 
 BRR  HN ES        046 25.33                             153    1.1110 70.6 300 
 BRR  HZ I         046 29.48        26.7 0.12            148           70.6 300 
 PAM  SZ EP     C  046  8.84                             151    0.1410 79.8  40 
 PAM  SN ES        046 26.27                             151   -0.1410 79.8  40 
 PAM  SZ I         046 28.33        26.7 0.52            153           79.8  40 
 RUS  HZ EP     D  046  9.94                             145   -0.0210 99.0 175 
 RUS  HN ES        046 28.08                             145   -0.5710 99.0 175 
 RUS  HZ I         046 29.89        30.8 0.38            143           99.0 175 
 PTB  HZ EP        046 12.78                             133   -0.28 9  146 259 
 PTB  HN ES        046 33.45                             133   -0.72 9  146 259 
 PTB  HZ I         046 39.74        36.5 0.42            128            146 259 
 TAM  HZ EP        046 14.19                             131    0.15 9  156 104 
 TAM  HN ES        046 35.67                             131   -0.25 9  156 104 
 TAM  HZ I         046 37.09        16.0 0.39            132            156 104 
 OCA  HZ EP   1    046 14.72                             130    0.01 7  162 354 
 OCA  HE ES        046 36.22                             130   -0.88 9  162 354 
 OCA  HZ I         046 41.80        38.9 0.40            128            162 354 
 NOR  HZ EP        046 21.65                             119   -0.02 8  232 235 
 NOR  HE ES        046 49.19                             119   -0.31 8  232 235 
 NOR  HZ I         046 55.38        23.7 0.27            116            232 235 
 SML  HZ EP        046 22.94                             118    0.03 8  245 336 
 SML  HN ES        046 51.37                             118   -0.32 8  245 336 
 CHI  HZ EP     C  046 24.00                             118    0.34 8  247 195 
 CHI  HN ES        046 53.43                             118    0.40 8  247 195 
 CHI  HZ I         047  3.44        10.3 0.36            116            247 195 
 HEL  HZ EP   1    046 26.90                             116    0.74 6  270 256 
 HEL  HZ I         047  4.37        12.0 0.32            113            270 256 
 PRA  HZ EP        046 39.56                             107    0.19 6  390 209 
 PRA  HN ES        047 20.66                             107   -0.33 6  390 209 
 PRA  HZ I         047 27.87        11.3 0.32            106            390 209 
                                                                                
