 2017  814 0803 54.2 L   7.110 -73.044146.8  RSN 12 0.5 1.8LRSN                1
 GAP= 62        1.02       3.5     4.5  5.7  0.1321E-01  0.3448E+01 -0.3068E+01E
 Epicentro: FLORIDABLANCA - SANTANDER                                          3
 ACTION:UPD 17-09-04 20:20 OP:rebc STATUS:               ID:20170814080354 L   I
 OLDACT:UP  17-08-14 15:57 OP:and  STATUS:               ID:20170814075738     3
 OLDACT:UP  17-08-14 15:57 OP:and  STATUS:               ID:20170814075738     3
 OLDACT:UP  17-08-14 15:56 OP:and  STATUS:               ID:20170814075738     3
 OLDACT:UP  17-08-14 15:56 OP:and  STATUS:               ID:20170814075738     3
 OLDACT:UP  17-08-14 15:55 OP:and  STATUS:               ID:20170814075738     3
 OLDACT:UP  17-08-14 15:54 OP:and  STATUS:               ID:20170814075738     3
 OLDACT:UP  17-08-14 15:51 OP:and  STATUS:               ID:20170814075738     3
 OLDACT:REG 17-08-14 13:22 OP:and  STATUS:               ID:20170814075738     3
 2017-08-14-0758-00M.COL___413                                                 6
 STAT SP IPHASW D HRMM SECON CODA AMPLIT PERI AZIMU VELO AIN AR TRES W  DIS CAZ7
 PAM  EZ EP        8 4 15.64                             162    0.7010 45.8  56 
 PAM  EN ES        8 4 31.15                             162   -0.0010 45.8  56 
 PAM  EZ I         8 4 34.01         9.5 0.27            163           45.8  56 
 BAR2 EZ IP     D  8 4 15.17                             157    0.0210 59.2 195 
 BAR2 EZ ES        8 4 31.02                             157   -0.5010 59.2 195 
 BAR2 EZ I         8 4 32.95        31.0 0.38            156           59.2 195 
 BRR  HZ IP     D  8 4 15.75                             152    0.1810 73.8 270 
 BRR  HN ES        8 4 32.60                             152    0.3310 73.8 270 
 BRR  HZ I         8 4 33.34        16.1 0.12            153           73.8 270 
 RUS  HZ EP        8 4 21.05                             136    0.3410  135 182 
 RUS  HN ES        8 4 41.12                             136   -0.3010  135 182 
 RUS  HZ I         8 4 42.42         9.7 0.44            135            135 182 
 TAM  HZ IP   2 D  8 4 22.89                             130    0.77 5  157 118 
 SPBC HZ EP   4    8 4 28.01                             124    1.92 0  197 215 
 SPBC HE ES        8 4 50.04                             124   -0.95 9  197 215 
 SPBC HZ I         8 4 55.36         4.3 0.06            124            197 215 
 YPLC HN ES   3    8 4 52.98                             123    0.94 2  203 159 
 YPLC HZ I         8 4 56.17         5.5 0.34            123            203 159 
 ZAR  HZ EP        8 4 26.99                             122    0.25 9  205 282 
 ZAR  HN ES        8 4 52.33                             122    0.18 9  205 282 
 ZAR  HZ I         8 4 53.77         4.8 0.14            124            205 282 
 LL6C HZ EP        8 4 35.56                             113   -0.55 7  291 355 
 LL6C HE ES        8 5  8.50                             113   -0.34 7  291 355 
 GUY2CHN ES   4    8 5 19.62                             110    1.77 0  331 231 
 PTGC HZ EP        8 4 40.59                             110   -0.73 7  337 163 
 PTGC HN ES   4    8 5 13.32                             110   -4.79 0  337 163 
 CBOC HZ EP        8 4 44.48                             109    0.79 6  356 247 
 CBOC HN ES   2    8 5 22.45                             109    0.12 3  356 247 
 SJC  HZ EP   2    8 4 46.27                             107   -0.96 3  388 323 
 SJC  HN ES   3    8 5 27.52                             107   -1.10 1  388 323 
 SJC  HZ I         8 5 28.48         1.1 0.36            108            388 323 
                                                                                
