 2016  214 0810 18.8 L   6.563 -73.602114.0  RSN  5 0.2 1.1LRSN                1
 GAP=121        0.94       5.7     4.3  8.3 -0.1324E+02 -0.1540E+01 -0.2207E+01E
 Epicentro: EL CARMEN - SANTANDER                                              3
 ACTION:UPD 16-03-04 21:26 OP:rebc STATUS:               ID:20160214081018 L   I
 OLDACT:UP  16-02-14 15:25 OP:ak   STATUS:               ID:20160214080747d    3
 OLDACT:DUP 16-02-14 15:22 OP:ak   STATUS:               ID:20160214080747d    3
 2016-02-14-0807-46M.COL___295                                                 6
 STAT SP IPHASW D HRMM SECON CODA AMPLIT PERI AZIMU VELO AIN AR TRES W  DIS CAZ7
 BAR2 EZ EP        810 35.81                             157    0.3110 46.5  86 
 BAR2 EZ ES        810 48.45                             157   -0.0810 46.5  86 
 BAR2 EZ I         810 49.44         5.6 0.20            160           46.5  86 
 PTB  HZ EP        810 38.11                             137   -0.3210 94.6 268 
 PTB  HN ES        810 53.81                             137    0.0810 94.6 268 
 PTB  HZ I         810 55.78         1.6 0.14            135           94.6 268 
 SPBC HZ EP   2    810 40.59                             132    0.42 5  113 207 
 SPBC HN ES        810 56.87                             132    0.0310  113 207 
 PAM  EZ EP        810 42.56                             128    0.1510  132  49 
 PAM  EE ES        811  0.53                             128   -0.2910  132  49 
 PAM  EZ I         811  2.01         1.7 0.20            128            132  49 
 ZAR  HZ EP   9    810 48.66                             119    2.68 0  173 307 
 ZAR  HN ES        811 10.83                                    0.97 9  173 307 
 ZAR  HZ I         811 13.79         2.2 0.36            117            173 307 
                                                                                
