 2010  614 0954 22.3 L   6.791 -73.094148.4  RSN 11 0.3 2.2LRSN                1
 GAP=162        0.72       2.7     6.7  5.0 -0.9090E+01  0.7699E+01 -0.4624E+00E
 Epicentro: LOS SANTOS - SANTANDER                                             3
 ACTION:UP  10-08-24 10:10 OP:vdl  STATUS:               ID:20100614095422 L   I
 2010-06-14-0952-49S.COL___114                                                 6
 STAT SP IPHASW D HRMM SECON CODA AMPLIT PERI AZIMU VELO SNR AR TRES W  DIS CAZ7
 BAR2 SZ IP        954 42.28                             170     0.010   24 204 
 BAR2 SZ ES   1    954 57.75                             170    -0.1 7   24 204 
 GIR2 SZ EP   1    954 42.35                             167     0.0 7   34 341 
 GIR2 SZ ES   1    954 58.34                             167     0.4 7   34 341 
 RUS  HZ EP        954 46.09                             145    -0.110   99 179 
 RUS  HE ES   1    955  5.12                             145     0.2 7   99 179 
 RUS  HZ I         955  6.10        15.7 0.19                            99 179 
 BRI  SZ IP        954 46.77                             142     0.410  108  18 
 BRI  SZ ES   1    955  5.16                             142     0.0 7  108  18 
 GUE  SZ EP        954 47.18                             140    -0.110  116   9 
 GUE  SZ ES   1    955  5.78                             140    -0.9 7  116   9 
 GRA  SZ EP        954 48.01                             138     0.310  125  15 
 GRA  SZ ES   1    955  7.58                             138     0.0 7  125  15 
 OCA  SZ EP        954 50.66                             130    -0.3 9  162 351 
 OCA  SZ ES   1    955 13.52                             130     0.2 7  162 351 
 OCA  SZ I         955 18.58        32.8 0.25                           162 351 
 CHI  HZ EP   1    955  0.31                             118     0.1 6  249 197 
 CHI  HE ES   1    955 29.41                             118    -0.4 6  249 197 
 CHI  HZ I         955 37.54         6.2 0.21                           249 197 
 ROSC BN ES   1    955 30.54                             117    -0.3 6  255 212 
 ROSC BZ I         955 40.07        10.4 0.17                           255 212 
 HEL  HN ES   2    955 35.30                             115     0.1 4  277 256 
 HEL  HZ I         955 40.93        12.5 0.38                           277 256 
 DBB  SZ EP   1    955 10.80                             110     0.3 5  345 274 
                                                                                
