 2014 1214 1022 35.0 L   6.996 -73.489 90.8  RSN  5 0.3 0.9LRSN                1
 GAP= 93        0.87       3.6     3.1 12.7 -0.2725E+01  0.1663E+02 -0.4131E+01E
 Epicentro: SAN VICENTE DE CHUCURI - SANTANDER                                 3
 ACTION:UPD 15-02-10 17:03 OP:nd   STATUS:               ID:20141214102235 L   I
 OLDACT:REG 14-12-14 20:32 OP:fm   STATUS:               ID:20141214101742     3
 2014-12-14-1017-42M.COL___278                                                 6
 STAT SP IPHASW D HRMM SECON CODA AMPLIT PERI AZIMU VELO AIN AR TRES W  DIS CAZ7
 PAM  SZ EP       1022 53.62                             131    0.3110 95.1  66 
 PAM  SN ES       1023  7.66                             131    0.0410 95.1  66 
 PAM  SZ I        1023 13.28         2.1 0.22            145           95.1  66 
 PTB  HZ EP       1022 54.34                             123   -0.6210  118 245 
 PTB  HE ES       1023 10.51                             123   -0.0610  118 245 
 PTB  HZ I        1023 17.61         1.4 0.16            136            118 245 
 RUS  HE ES   1   1023 13.99                             121    0.12 7  130 160 
 RUS  HZ I        1023 17.64         0.8 0.16            135            130 160 
 OCA  HE ES       1023 14.35                             119   -0.39 9  139   8 
 OCA  HZ I        1023 21.31         2.9 0.16            132            139   8 
 ZAR  HZ EP       1022 59.79                             115    0.23 9  161 290 
 ZAR  HN ES       1023 19.20                             115    0.46 9  161 290 
 ZAR  HZ I        1023 22.75         2.2 0.36            127            161 290 
                                                                                
