 2010 1214 1900  5.4 L   7.396 -73.192132.0  RSN 17 0.4 4.2LRSN                1
 GAP=100        0.88       3.1     5.2  5.8 -0.2326E+01  0.7538E+01  0.5033E+01E
 Epicentro: EL PLAYON - SANTANDER                                              3
 ACTION:UP  11-01-14 15:24 OP:pat  STATUS:               ID:20101214190005 L   I
 2010-12-14-1858-19S.COL___137                                                 6
 STAT SP IPHASW D HRMM SECON CODA AMPLIT PERI AZIMU VELO SNR AR TRES W  DIS CAZ7
 GIR2 SZ IP       19 0 23.59                             164     0.110   35 180 
 GIR2 SZ ES   2   19 0 37.10                             164    -0.6 5   35 180 
 BTL  SZ IP       19 0 24.55                             157     0.110   53 189 
 GUE  SZ EP       19 0 24.75                             156     0.110   56  32 
 GRA  SZ ES   1   19 0 41.44                             151     0.9 7   69  38 
 GRA  SZ I        19 0 43.28      8227.7 0.25                            69  38 
 BAR2 SZ IP       19 0 26.75                             144     0.210   89 179 
 BAR2 SZ ES   1   19 0 43.03                             144    -0.1 7   89 179 
 BAR2 SZ I        19 0 44.95      1917.4 0.45                            89 179 
 OCA  SZ EP       19 0 26.53                             143    -0.310   94 351 
 OCA  SZ ES   1   19 0 43.36                             143    -0.2 7   94 351 
 OCA  SZ I        19 0 45.40      2135.2 0.31                            94 351 
 RUS  HZ EP       19 0 33.04                             126    -0.7 9  167 176 
 RUS  HN ES   1   19 0 55.84                             126     0.0 7  167 176 
 YOP  SZ EP       19 0 41.74                             115     0.6 8  241 159 
 YOP  SE ES   1   19 1  8.75                             115    -0.3 6  241 159 
 YOP  SZ I        19 1 11.36       764.3 0.23                           241 159 
 NOR  SZ EP   1   19 0 44.84                             112     0.0 6  275 223 
 NOR  SN ES   1   19 1 15.48                             112    -0.1 6  275 223 
 HEL  HZ EP   1   19 0 46.92                             110    -0.1 5  291 243 
 HEL  HZ I        19 1 28.28       623.5 0.58                           291 243 
 CHI  HZ EP   1   19 0 49.98                             109     0.5 5  312 191 
 CHI  HZ I        19 1 31.82       480.3 0.35                           312 191 
 SDV  BZ EP       19 0 50.33                             108    -0.6 7  327  60 
 SDV  BZ I        19 1 26.03       424.8 0.58                           327  60 
 DBB  SZ EP       19 0 51.96                             107     0.1 7  336 263 
 RREF HZ EP   1   19 0 56.67                             106     0.7 5  365 221 
 RREF HN ES   1   19 1 35.69                             106     0.3 5  365 221 
 RREF HZ I        19 1 44.08       804.1 0.45                           365 221 
 VIL  SZ EP   1   19 0 55.96                             106     0.5 5  366 187 
 PRA  HZ EP   1   19 1  5.10                             102     0.0 4  448 205 
 SJA  SZ EP       19 1  6.59                             101    -0.5 5  464 190 
 SJA  SZ ES   2   19 1 54.26                             101    -0.9 2  464 190 
 SJA  SZ I        19 2  7.40       877.4 1.38                           464 190 
                                                                                
