 2012  314 1055  2.9 L   6.399 -73.656 99.1  RSN  9 0.5 1.9LRSN                1
 GAP= 64        1.05       4.6     4.2  8.9  0.1781E+01  0.1451E+02  0.8015E+01E
 ACTION:UP  12-03-31 23:19 OP:EP   STATUS:               ID:20120314105502 L   I
 2012-03-14-1050-00M.COL___202                                                 6
 STAT SP IPHASW D HRMM SECON CODA AMPLIT PERI AZIMU VELO SNR AR TRES W  DIS CAZ7
 BAR2 SZ EP   1   1055 18.74                             148     0.2 8   57  68 
 BAR2 SZ ES   1   1055 31.41                             148     0.6 8   57  68 
 BAR2 SZ I        1055 32.89        68.5 0.13                            57  68 
 BRR  HZ EP   1   1055 19.26                             139    -0.6 8   79 355 
 BRR  HE ES   1   1055 33.31                             139     0.2 8   79 355 
 BRR  HZ I        1055 35.74        18.2 0.15                            79 355 
 RUS  HZ EP   1   1055 20.88                             137    -0.2 8   85 131 
 RUS  HZ I        1055 21.14        11.3 0.19                            85 131 
 RUS  HN ES   1   1055 34.89                             137    -0.3 8   85 131 
 PTB  HZ EP   1   1055 20.14                             135    -0.7 8   90 280 
 PTB  HN ES   1   1055 34.43                             135    -0.4 8   90 280 
 PTB  HZ I        1055 37.22        11.5 0.15                            90 280 
 NOR  SZ EP       1055 28.71                             117     0.410  163 236 
 NOR  SE ES   1   1055 48.57                             117     0.5 7  163 236 
 ZAR  HZ EP   1   1055 30.22                             115     0.2 7  180 312 
 ZAR  HE ES   1   1055 50.79                             115    -0.4 7  180 312 
 ZAR  HZ I        1055 56.47        16.3 0.38                           180 312 
 CHI  HZ EP   1   1055 31.70                             113    -0.7 7  196 182 
 OCA  SZ EP   1   1055 33.78                             111     0.4 7  207  10 
 HEL  HZ EP   1   1055 34.38                             111     0.6 7  209 264 
 HEL  HN ES   1   1055 58.11                             111     0.2 7  209 264 
 HEL  HZ I        1056  1.14         7.0 0.22                           209 264 
                                                                                
