 2014  614 1442 26.2 L   6.815 -73.151144.0  RSN 22 0.5 2.5LRSN                1
 GAP= 70        1.02       2.6     2.8  4.8 -0.4898E+00  0.3590E+01  0.1718E+01E
 Epicentro: LOS SANTOS - SANTANDER                                             3
 ACTION:UPD 14-07-01 22:53 OP:nd   STATUS:               ID:20140614144226 L   I
 OLDACT:REG 14-06-14 21:17 OP:fm   STATUS:               ID:20140614143820     3
 2014-06-14-1438-20M.COL___237                                                 6
 STAT SP IPHASW D HRMM SECON CODA AMPLIT PERI AZIMU VELO AIN AR TRES W  DIS CAZ7
 BAR2 SZ EP       1442 45.65                             170   -0.0410 24.9 188 
 BAR2 SZ ES   1   1443  0.25                             170   -0.61 7 24.9 188 
 BAR2 SZ I        1443  3.54       108.9 0.44            168           24.9 188 
 BRR  HZ EP     C 1442 47.60                             153    0.4710 69.9 298 
 BRR  HE ES       1443  4.29                             153    0.8710 69.9 298 
 BRR  HZ I        1443  6.63        34.1 0.12            151           69.9 298 
 PAM  SZ EP       1442 48.43                             151    0.2210 76.5  41 
 PAM  SN ES       1443  5.51                             151    0.1610 76.5  41 
 PAM  SZ I        1443  8.14        45.6 0.68            155           76.5  41 
 RUS  HZ EP   1   1442 49.60                             143   -0.34 7  102 176 
 RUS  HN ES       1443  8.76                             143    0.3310  102 176 
 RUS  HZ I        1443  9.52        29.4 0.32            144            102 176 
 PTB  HZ EP       1442 52.60                             132   -0.45 9  148 258 
 PTB  HN ES       1443 13.26                             132   -0.69 9  148 258 
 PTB  HZ I        1443 16.62        33.1 0.10            131            148 258 
 TAM  HZ EP       1442 53.87                             130    0.00 9  156 106 
 TAM  HE ES       1443 15.35                             130   -0.07 9  156 106 
 OCA  HZ EP   1   1442 54.36                             130    0.11 7  159 353 
 OCA  HN ES       1443 16.20                             130    0.10 9  159 353 
 OCA  HZ I        1443 20.43        32.4 0.44            132            159 353 
 SPBC HZ EP       1442 54.56                             129   -0.14 9  164 218 
 SPBC HN ES       1443 16.54                             129   -0.35 9  164 218 
 SPBC HZ I        1443 19.35        59.7 0.22            128            164 218 
 ZAR  HZ EP       1442 57.87                             122   -0.59 9  203 292 
 ZAR  HE ES       1443 23.37                             122   -0.21 9  203 292 
 ZAR  HZ I        1443 27.74        20.2 0.14            122            203 292 
 NOR  HZ EP       1443  1.85                             118   -0.07 8  235 234 
 NOR  HN ES       1443 29.58                             118   -0.18 8  235 234 
 NOR  HZ I        1443 36.12        20.4 0.14            118            235 234 
 SML  HZ EP       1443  2.24                             117   -0.34 8  242 335 
 SML  HN ES       1443 30.31                             117   -0.61 8  242 335 
 SML  HZ I        1443 35.78        35.4 0.10            119            242 335 
 CHI  HZ EP   1   1443  3.65                             117   -0.35 6  250 195 
 CHI  HN ES       1443 33.26                             117   -0.19 8  250 195 
 CHI  HZ I        1443 43.15        15.1 0.38            117            250 195 
 HEL  HZ EP       1443  6.39                             115    0.04 8  272 255 
 HEL  HN ES       1443 38.71                             115    1.07 8  272 255 
 HEL  HZ I        1443 46.02        11.3 0.22            115            272 255 
 URE  HZ EP   4   1443  6.10                             113   -1.00 0  283 292 
 URE  HN ES   4   1443 36.48                             113   -2.49 0  283 292 
 URE  HZ I        1443 44.37        12.1 0.14            114            283 292 
 GUY2CHZ EP   4   1443 11.58                             112    1.75 0  302 234 
 GUY2CHN ES   4   1443 45.08                             112    1.26 0  302 234 
 GUY2CHZ I        1443 52.37        15.0 0.74                           302 234 
 RREF HZ EP   4   1443 13.88                             111    1.50 0  322 229 
 RREF HN ES   4   1443 50.46                             111    2.09 0  322 229 
 RREF HZ I        1443 54.18        12.4 0.24            111            322 229 
 CBOC HZ EP       1443 13.11                             110    0.03 7  334 252 
 CBOC HN ES       1443 50.23                             110    0.61 7  334 252 
 TOL  SZ EP       1443 15.43                             109    0.91 7  344 224 
 TOL  SN ES   4   1443 53.64                             109    1.47 0  344 224 
 TOL  SZ I        1444  0.12        23.5 0.40            110            344 224 
 ANIL HZ EP       1443 16.64                             108    0.57 6  358 224 
 ANIL HE ES   4   1443 56.74                             108    1.80 0  358 224 
 ANIL HZ I        1444  2.02        27.4 0.28            109            358 224 
 PRA  HZ EP       1443 19.19                             106   -0.65 6  393 209 
 PRA  HE ES   4   1444  0.57                             106   -1.07 0  393 209 
 PRA  HZ I        1444  6.24        10.1 0.52            107            393 209 
 ORTC HZ EP       1443 20.59                             106    0.37 6  396 216 
 ORTC HE ES   4   1444  1.68                             106   -0.64 0  396 216 
 ORTC HZ I        1444  9.00         9.5 0.72            107            396 216 
 SJC  HZ EP   4   1443 19.91                             106   -1.64 0  408 327 
 SJC  HN ES   4   1443 59.84                             106   -4.85 0  408 327 
 SJC  HZ I        1444  5.29         4.8 0.50            106            408 327 
                                                                                
