 2016  414 1233 44.4 L   6.780 -73.091147.7  RSN  8 0.4 1.7LRSN                1
 GAP=124        0.88       3.9     3.3  5.5 -0.4685E+01  0.2388E+01 -0.5068E+01E
 Epicentro: LOS SANTOS - SANTANDER                                             3
 ACTION:UPD 16-05-05 14:21 OP:rebc STATUS:               ID:20160414123344 L   I
 OLDACT:UP  16-04-15 02:03 OP:ar   STATUS:               ID:20160414122745     3
 OLDACT:REG 16-04-14 22:43 OP:ar   STATUS:               ID:20160414122745     3
 2016-04-14-1227-45M.COL___318                                                 6
 STAT SP IPHASW D HRMM SECON CODA AMPLIT PERI AZIMU VELO AIN AR TRES W  DIS CAZ7
 BAR2 EZ EP       1234  4.41                             171    0.1810 23.1 206 
 BAR2 EZ ES       1234 19.20                             171   -0.5210 23.1 206 
 BAR2 EZ I        1234 20.22        10.2 0.18            170           23.1 206 
 PAM  EZ EP     C 1234  7.38                             152    0.7010 75.5  35 
 PAM  EN ES       1234 24.38                             152    0.2910 75.5  35 
 PAM  EZ I        1234 26.80         9.1 0.58            154           75.5  35 
 RUS  HZ EP       1234  8.12                             145   -0.0210 98.1 180 
 RUS  HN ES       1234 26.92                             145    0.2510 98.1 180 
 RUS  HZ I        1234 27.97         4.7 0.32            146           98.1 180 
 PTB  HZ EP       1234 11.71                             131   -0.29 9  153 260 
 PTB  HN ES       1234 33.42                             131   -0.14 9  153 260 
 PTB  HZ I        1234 34.77         4.6 0.14            132            153 260 
 SPBC HZ EP       1234 13.30                             129    0.07 9  165 221 
 SPBC HN ES       1234 35.57                             129   -0.16 9  165 221 
 SPBC HZ I        1234 41.18         6.9 0.38            130            165 221 
 ZAR  HZ EP       1234 17.42                             122   -0.19 8  211 292 
 ZAR  HN ES       1234 43.71                             122    0.17 8  211 292 
 ZAR  HZ I        1234 45.61         5.8 0.48            123            211 292 
 URE  HN ES   4   1234 56.77                             113   -2.16 0  290 292 
 URE  HZ I        1234 58.88         5.4 0.42            114            290 292 
 SOCV BZ EP       1234 27.06                             113   -0.02 7  297  56 
 SOCV BN ES       1234 59.58                             113   -0.81 7  297  56 
                                                                                
