 2011  914 1809 42.5 L   6.776 -73.158143.5  RSN  7 0.4 1.9LRSN                1
 GAP=181        0.83       5.2     7.3  7.5  0.7016E+01 -0.5679E+01  0.2592E+01E
 Epicentro: LOS SANTOS - SANTANDER                                             3
 ACTION:UPD 12-07-13 15:57 OP:ep   STATUS:               ID:20110914180942 L   I
 2011-09-14-1806-56S.COL___169                                                 6
 STAT SP IPHASW D HRMM SECON CODA AMPLIT PERI AZIMU VELO AIN AR TRES W  DIS CAZ7
 BAR2 SZ EP       1810  1.61                             172   -0.2010 20.5 188 
 BAR2 SZ ES   1   1810 16.10                             172   -0.76 7 20.5 188 
 BAR2 SZ I        1810 18.75        19.1 0.24                          20.5 188 
 GIR2 SZ EP       1810  2.43                             166    0.4610 33.7 353 
 BRR  HZ EP       1810  3.55                             152    0.1310 71.3 301 
 BRR  HN ES       1810 19.83                             152    0.1110 71.3 301 
 BRR  HZ I        1810 30.78        18.5 0.46                          71.3 301 
 RUS  HZ EP       1810  5.61                             144   -0.2410 98.1 175 
 RUS  HE ES   1   1810 24.66                             144    0.60 7 98.1 175 
 RUS  HZ I        1810 25.36         9.7 0.22                          98.1 175 
 OCA  SZ EP   2   1810 10.35                             128   -0.52 5  163 354 
 NOR  SN ES   1   1810 45.28                             118   -0.09 6  232 235 
 CHI  HZ EP   2   1810 19.59                             117   -0.18 4  246 195 
 CHI  HZ I        1810 56.16         3.9 0.46                           246 195 
                                                                                
