 2013  714 1813 27.4 L   6.751 -73.210142.7  RSN  4 0.3 1.7LRSN                1
 GAP=225        0.72       5.6     5.2  5.8  0.1438E+02  0.3760E+01  0.1726E+01E
 Epicentro: VILLANUEVA - SANTANDER                                             3
 ACTION:UPD 13-08-12 10:37 OP:ep   STATUS:               ID:20130714181327 L   I
 OLDACT:REG 13-07-14 16:06 OP:stll STATUS:               ID:20130714180850     3
 2013-07-14-1808-50M.COL___228                                                 6
 STAT SP IPHASW D HRMM SECON CODA AMPLIT PERI AZIMU VELO AIN AR TRES W  DIS CAZ7
 BAR2 SZ EP       1813 46.52                             173   -0.0610 17.8 170 
 BAR2 SZ ES       1814  1.04                             173   -0.4910 17.8 170 
 BAR2 SZ I        1814  3.61         6.0 0.16            168           17.8 170 
 BRR  HZ EP       1813 48.24                             153    0.1810 68.0 305 
 BRR  HN ES       1814  4.46                             153    0.3110 68.0 305 
 BRR  HN I        1814  5.54        14.7 0.24            151           68.0 305 
 RUS  HZ EP       1813 50.49                             144   -0.0510 96.0 172 
 RUS  HN ES       1814  8.94                             144    0.3710 96.0 172 
 RUS  HN I        1814  9.84         6.0 0.20            144           96.0 172 
 PTB  HZ EP       1813 53.23                             133   -0.19 9  140 260 
 PTB  HN ES       1814 13.59                             133   -0.10 9  140 260 
 PTB  HN I        1814 19.45         8.0 0.44            131            140 260 
                                                                                
