 2015  714 1959 32.8 L   6.835 -73.159136.0  RSN  7 0.4 2.0LRSN                1
 GAP=133        0.76       4.0     4.4  7.7 -0.4619E+00  0.1913E+02  0.8179E+01E
 Epicentro: LOS SANTOS - SANTANDER                                             3
 ACTION:UPD 15-09-08 21:48 OP:cam  STATUS:               ID:20150714195932 L   I
 OLDACT:UP  15-07-15 03:15 OP:ar   STATUS:               ID:20150714195449     3
 OLDACT:REG 15-07-15 02:41 OP:ar   STATUS:               ID:20150714195449     3
 2015-07-14-1954-49M.COL___340                                                 6
 STAT SP IPHASW D HRMM SECON CODA AMPLIT PERI AZIMU VELO AIN AR TRES W  DIS CAZ7
 BAR2 EZ EP   2   1959 51.20                             168   -0.12 5 27.0 186 
 BAR2 EZ ES   2   20 0  6.42                             168    0.64 5 27.0 186 
 BAR2 EZ I        20 0  7.90        14.1 0.40            168           27.0 186 
 PAM  EZ EP       1959 53.81                             150   -0.0310 75.4  42 
 PAM  EN ES       20 0 10.53                             150    0.2710 75.4  42 
 PAM  EZ I        20 0 12.75        32.2 0.52            155           75.4  42 
 RUS  HZ EP       1959 55.54                             141   -0.3510  105 175 
 RUS  HE ES   2   20 0 13.12                             141   -0.79 5  105 175 
 RUS  HZ I        20 0 15.77         9.0 0.38            144            105 175 
 ZAR  HZ EP       20 0  3.82                             120   -0.49 9  201 291 
 ZAR  HN ES       20 0 28.79                             120   -0.12 9  201 291 
 ZAR  HZ I        20 0 34.56        14.7 0.52            123            201 291 
 SML  HZ EP   2   20 0  8.98                             116    0.56 4  240 335 
 SML  HN ES   4   20 0 34.74                             116   -1.48 0  240 335 
 SML  HZ I        20 0 37.74         8.3 0.10            119            240 335 
 GUY2CHZ EP   2   20 0 16.29                             110    0.21 4  302 234 
 GUY2CHN ES   2   20 0 50.70                             110    0.85 4  302 234 
 TOL  SZ EP       20 0 21.49                             107    0.63 7  345 224 
 TOL  SE ES       20 0 58.68                             107    0.31 7  345 224 
 TOL  SZ I        20 1  3.65         2.8 0.39            110            345 224 
                                                                                
