 2012  614 1755  2.1 L   6.801 -73.159141.4  RSN  9 0.3 2.1LRSN                1
 GAP=135        0.67       2.3     3.4  4.5 -0.1587E+01  0.6154E+01 -0.1788E+00E
 Epicentro: LOS SANTOS - SANTANDER                                             3
 ACTION:UPD 12-08-06 17:49 OP:ep   STATUS:               ID:20120614175502 L   I
 2012-06-14-1750-00M.COL___200                                                 6
 STAT SP IPHASW D HRMM SECON CODA AMPLIT PERI AZIMU VELO AIN AR TRES W  DIS CAZ7
 BAR2 SZ EP       1755 21.45                             170    0.2310 23.3 186 
 BAR2 SZ I        1755 21.87        35.8 0.13                          23.3 186 
 BAR2 SZ ES       1755 36.34                             170    0.2210 23.3 186 
 PAM  SZ EP       1755 24.29                             150    0.3710 78.2  40 
 PAM  SN ES       1755 40.50                             150   -0.4310 78.2  40 
 RUS  HZ EP       1755 25.37                             143   -0.0910  101 175 
 RUS  HE ES       1755 43.83                             143    0.1610  101 175 
 RUS  HZ I        1755 45.78        19.8 0.40                           101 175 
 PTB  HZ EP       1755 28.33                             131   -0.27 9  146 259 
 PTB  HE ES   1   1755 48.96                             131   -0.30 7  146 259 
 PTB  HZ I        1755 52.25        12.1 0.15                           146 259 
 OCA  HZ EP       1755 30.04                             129   -0.02 9  160 354 
 OCA  HN ES   1   1755 51.47                             129   -0.39 7  160 354 
 OCA  HZ I        1755 56.22        27.8 0.18                           160 354 
 ZAR  HZ EP   1   1755 34.95                             122    0.81 6  203 292 
 ZAR  HE ES   1   1755 59.34                             122    0.23 6  203 292 
 ZAR  HZ I        1756  5.79        11.8 0.18                           203 292 
 NOR  SZ EP   1   1755 37.49                             118    0.01 6  234 234 
 NOR  SN ES   1   1756  5.01                             118   -0.05 6  234 234 
 CHI  HZ EP   1   1755 39.50                             116   -0.05 6  248 195 
 CHI  HE ES   1   1756  8.32                             116   -0.43 6  248 195 
 PRA  HZ EP   1   1755 55.07                             106   -0.35 4  391 209 
 PRA  HN ES   1   1756 36.73                             106   -0.27 4  391 209 
                                                                                
