 2011 1114 1051  4.3 L   6.788 -73.078144.8  RSN  4 0.2 1.4LRSN                1
 GAP=244        0.52       7.8     9.0  6.3  0.5779E+02 -0.4460E+01 -0.7450E+01E
 Epicentro: LOS SANTOS - SANTANDER                                             3
 ACTION:UPD 12-07-13 16:10 OP:ep   STATUS:               ID:20111114105104 L   I
 2011-11-14-1049-44S.COL___179                                                 6
 STAT SP IPHASW D HRMM SECON CODA AMPLIT PERI AZIMU VELO AIN AR TRES W  DIS CAZ7
 BAR2 SZ EP   1   1051 23.63                             170   -0.20 7 24.5 208 
 BAR2 SZ ES   1   1051 38.78                             170   -0.29 7 24.5 208 
 BAR2 SZ I        1051 40.70         5.7 0.25                          24.5 208 
 BRR  HZ EP   1   1051 26.08                             150    0.31 7 78.5 297 
 BRR  HN ES   1   1051 42.75                             150    0.23 7 78.5 297 
 BRR  HZ I        1051 47.29         5.5 0.14                          78.5 297 
 RUS  HZ EP   1   1051 27.74                             144   -0.09 7 99.0 180 
 RUS  HN ES   1   1051 46.42                             144    0.22 7 99.0 180 
 RUS  HZ I        1051 47.91         3.2 0.27                          99.0 180 
 ZAR  HE ES   1   1052  3.05                             121   -0.26 6  212 292 
                                                                                
