 2015  114 1410 22.0 L   7.487 -73.019158.6  RSN  4 0.3 2.0LRSN                1
 GAP=229        0.70       3.8     6.2  8.4  0.5681E+01  0.2083E+01 -0.1163E+02E
 Epicentro: SURATA - SANTANDER                                                 3
 ACTION:UPD 15-03-02 15:39 OP:nd   STATUS:               ID:20150114141022 L   I
 OLDACT:UP  15-01-15 00:03 OP:mh   STATUS:               ID:20150114140749     3
 OLDACT:REG 15-01-14 21:13 OP:mh   STATUS:               ID:20150114140749     3
 2015-01-14-1407-49M.COL___256                                                 6
 STAT SP IPHASW D HRMM SECON CODA AMPLIT PERI AZIMU VELO AIN AR TRES W  DIS CAZ7
 BAR2 EZ EP   1   1410 46.22                             146   -0.50 7  101 190 
 BAR2 EZ ES       1411  6.21                             146    0.2410  101 190 
 BAR2 EZ I        1411  7.58        20.7 0.30            149            101 190 
 SML  HZ EP       1410 53.81                             128    0.25 9  186 321 
 SML  HN ES       1411 17.89                             128   -0.26 9  186 321 
 SML  HZ I        1411 22.56        16.0 0.26            129            186 321 
 PTB  HZ EP       1410 53.89                             127   -0.12 9  190 237 
 PTB  HN ES       1411 18.67                             127   -0.27 9  190 237 
 PTB  HZ I        1411 24.12         3.6 0.42            129            190 237 
 ZAR  HZ EP   1   1410 55.76                             125    0.51 6  203 270 
 ZAR  HN ES   1   1411 21.50                             125    0.34 6  203 270 
 ZAR  HZ I        1411 23.16         9.1 0.62            127            203 270 
                                                                                
