 2016  714 1516 16.9 L   6.782 -73.913 21.0  RSN  6 0.3 2.0LRSN                1
 GAP=109        0.82       2.2     1.6  2.6 -0.7859E-01 -0.9319E-01  0.3374E+00E
 Epicentro: PUERTO PARRA - SANTANDER                                           3
 ACTION:UPD 17-03-29 16:50 OP:lp   STATUS:               ID:20160714151616 L   I
 OLDACT:REG 16-07-14 21:42 OP:lv   STATUS:               ID:20160714150759     3
 2016-07-14-1507-59S.COL___322                                                 6
 STAT SP IPHASW D HRMM SECON CODA AMPLIT PERI AZIMU VELO AIN AR TRES W  DIS CAZ7
 BRR  HZ IP     C 1516 24.31                             114   -0.0810 42.2  32 
 BRR  HE ES       1516 30.65                             114    0.3810 42.2  32 
 BRR  HZ I        1516 30.99       118.9 0.10            111           42.2  32 
 PTB  HZ EP       1516 27.72                             105   -0.0610 65.8 246 
 PTB  HN ES       1516 36.50                             105    0.1910 65.8 246 
 PTB  HZ I        1516 37.59       116.8 0.20            103           65.8 246 
 BAR2 EZ EP       1516 30.42                             102   -0.2010 83.5 105 
 BAR2 EZ ES       1516 40.81                             102   -0.5510 83.5 105 
 BAR2 EZ I        1516 43.80        39.5 0.10            101           83.5 105 
 ZAR  HZ EP       1516 36.77                              56   -0.2210  131 307 
 ZAR  HE ES       1516 52.35                              56   -0.3510  131 307 
 ZAR  HZ I        1516 56.05         9.1 0.08             56            131 307 
 RUS  HZ EP       1516 38.53                              56    0.4610  135 137 
 RUS  HE ES       1516 54.72                              56    0.1110  135 137 
 RUS  HZ I        1516 56.66        25.3 0.20             56            135 137 
 PAM  EZ EP       1516 40.13                              56    0.44 9  148  65 
 PAM  EN ES       1516 57.44                              56   -0.06 9  148  65 
 PAM  EZ I        1516 59.46        31.6 0.26             56            148  65 
                                                                                
