 2013  314 1204 23.1 L   6.779 -73.123150.0  RSN  6 0.4 1.8LRSN                1
 GAP=140        0.83       5.6     5.6  6.5 -0.4208E+00  0.3877E+01  0.4671E+01E
 Epicentro: LOS SANTOS - SANTANDER                                             3
 ACTION:UPD 13-04-09 14:02 OP:ep   STATUS:               ID:20130314120423 L   I
 2013-03-14-1200-00M.COL___243                                                 6
 STAT SP IPHASW D HRMM SECON CODA AMPLIT PERI AZIMU VELO AIN AR TRES W  DIS CAZ7
 BAR2 SZ EP   1   12 4 43.13                             171   -0.10 7 21.7 198 
 BAR2 SZ ES       12 4 59.12                             171    0.2010 21.7 198 
 BAR2 SZ I        12 5  0.87        17.2 0.14            156           21.7 198 
 BRR  HZ EP       12 4 45.04                             152    0.1210 74.5 299 
 BRR  HN ES       12 5  2.42                             152    0.5010 74.5 299 
 BRR  HZ I        12 5  9.19        11.6 0.30            137           74.5 299 
 PAM  SZ EP   1   12 4 45.76                             152   -0.05 7 77.6  37 
 PAM  SZ I        12 4 46.33         9.5 0.21            151           77.6  37 
 PAM  SN ES   1   12 5  3.08                             152   -0.42 7 77.6  37 
 RUS  HZ EP   1   12 4 47.01                             146   -0.12 7 98.2 177 
 RUS  HE ES   1   12 5  5.90                             146    0.06 7 98.2 177 
 RUS  HZ I        12 5  7.05         4.3 0.39            129           98.2 177 
 PTB  HZ EP   1   12 4 49.91                             133   -0.72 7  150 260 
 PTB  HE ES   1   12 5 11.46                             133   -0.62 7  150 260 
 PTB  HZ I        12 5 17.09        10.0 0.34            117            150 260 
 PRA  HZ EP   1   12 5 17.59                             108    0.88 4  391 210 
 PRA  HZ I        12 6  4.18         3.4 0.64             97            391 210 
                                                                                
