 2013  914 1642 57.8 L   6.801 -73.149143.3  RSN  9 0.5 2.2LRSN                1
 GAP=136        1.12       4.5     4.5  6.9 -0.2391E+01  0.8652E+01  0.3119E+01E
 Epicentro: LOS SANTOS - SANTANDER                                             3
 ACTION:UPD 13-10-22 09:22 OP:ep   STATUS:               ID:20130914164257 L   I
 OLDACT:UP  13-09-14 16:05 OP:cam  STATUS:               ID:20130914163959     3
 OLDACT:REG 13-09-14 14:52 OP:cam  STATUS:               ID:20130914163959     3
 2013-09-14-1639-59M.COL___269                                                 6
 STAT SP IPHASW D HRMM SECON CODA AMPLIT PERI AZIMU VELO AIN AR TRES W  DIS CAZ7
 BAR2 SZ EP       1643 16.99                             170   -0.1410 23.4 189 
 BAR2 SZ ES       1643 31.81                             170   -0.4010 23.4 189 
 BAR2 SZ I        1643 33.33        46.8 0.16            169           23.4 189 
 BRR  HZ EP       1643 18.81                             152    0.1510 70.8 299 
 BRR  HN ES       1643 35.65                             152    0.7310 70.8 299 
 BRR  HZ I        1643 39.32        28.5 0.38            152           70.8 299 
 PAM  SZ EP       1643 19.94                             150    0.1810 77.5  40 
 PAM  SN ES       1643 36.87                             150   -0.0210 77.5  40 
 PAM  SZ I        1643 38.43        16.0 0.16            155           77.5  40 
 RUS  HZ EP       1643 21.02                             143   -0.3010  101 176 
 RUS  HN ES       1643 39.86                             143    0.1910  101 176 
 RUS  HZ I        1643 41.65        15.4 0.18            146            101 176 
 PTB  HZ EP       1643 23.71                             132   -0.82 9  147 259 
 PTB  HN ES       1643 44.39                             132   -1.00 9  147 259 
 PTB  HZ I        1643 47.22        22.3 0.20            132            147 259 
 SPBC HZ EP   1   1643 26.15                             129    0.05 7  163 219 
 SPBC HN ES       1643 48.75                             129    0.58 9  163 219 
 SPBC HZ I        1643 55.46        30.8 0.36            130            163 219 
 ZAR  HZ EP   1   1643 30.43                             122    0.39 6  204 292 
 ZAR  HN ES       1643 55.21                             122    0.02 9  204 292 
 ZAR  HZ I        1644  0.76        22.6 0.46            123            204 292 
 NOR  HZ EP       1643 33.69                             118    0.33 8  234 234 
 NOR  HE ES       1644  1.51                             118    0.41 8  234 234 
 NOR  HZ I        1644  2.87        13.3 0.20            120            234 234 
 CHI  HZ EP   2   1643 35.49                             117    0.12 4  249 195 
 GUY2CHZ EP   4   1643 43.36                             112    2.09 0  301 235 
 SJC  HZ EP   4   1643 51.53                             105   -1.71 0  409 327 
                                                                                
