 2011  314 1057 35.5 L   6.748 -73.127142.0  RSN  6 0.3 1.7LRSN                1
 GAP=184        0.67       5.8     9.4 13.2 -0.1911E+01  0.8197E+02  0.2656E+01E
 Epicentro: LOS SANTOS - SANTANDER                                             3
 ACTION:UP  11-06-16 14:33 OP:jfem STATUS:               ID:20110314105734 L   I
 2011-03-14-1055-37S.COL___131                                                 6
 STAT SP IPHASW D HRMM SECON CODA AMPLIT PERI AZIMU VELO SNR AR TRES W  DIS CAZ7
 BAR2 SZ EP       1057 54.39                             172    -0.210   18 200 
 BAR2 SZ I        1058 11.16        12.3 0.17                            18 200 
 RUS  HZ EP   1   1057 58.30                             145    -0.2 7   95 177 
 RUS  HN ES   2   1058 16.80                             145     0.4 5   95 177 
 RUS  HZ I        1058 17.92         5.3 0.24                            95 177 
 OCA  SZ ES   2   1058 26.48                             128     0.1 5  166 353 
 OCA  SZ I        1058 31.21         8.0 0.13                           166 353 
 NOR  SZ EP   1   1058 10.63                             118    -0.3 6  233 236 
 NOR  SN ES   2   1058 38.39                             118    -0.1 4  233 236 
 CHI  HZ EP   2   1058 12.46                             117     0.0 4  244 196 
 CHI  HZ I        1058 47.89         2.6 0.27                           244 196 
 HEL  HZ EP       1058 16.20                             114     0.6 8  273 257 
 HEL  HE ES   3   1058 46.31                             114    -0.6 2  273 257 
 HEL  HZ I        1058 54.96         4.9 0.45                           273 257 
                                                                                
