 2014 1114 1526  6.6 L   6.833 -73.167147.2  RSN 16 0.5 2.7LRSN                1
 GAP=132        1.12       3.5     4.3  5.5 -0.1421E+01  0.8835E+01  0.1785E+01E
 Epicentro: LOS SANTOS - SANTANDER                                             3
 ACTION:UPD 14-12-19 15:43 OP:nd   STATUS:               ID:20141114152606 L   I
 OLDACT:UP  14-11-14 22:57 OP:cam  STATUS:               ID:20141114151814     3
 OLDACT:UP  14-11-14 22:56 OP:cam  STATUS:               ID:20141114151814     3
 OLDACT:UP  14-11-14 22:56 OP:cam  STATUS:               ID:20141114151814     3
 OLDACT:REG 14-11-14 20:56 OP:cam  STATUS:               ID:20141114151814     3
 2014-11-14-1518-14M.COL___295                                                 6
 STAT SP IPHASW D HRMM SECON CODA AMPLIT PERI AZIMU VELO AIN AR TRES W  DIS CAZ7
 BAR2 SZ IP     C 1526 26.68                             169    0.2110 26.7 184 
 BAR2 SZ ES       1526 41.95                             169   -0.0210 26.7 184 
 BAR2 SZ I        1526 44.39       110.6 0.30            167           26.7 184 
 BRR  HZ EP       1526 28.50                             154    0.8010 67.4 297 
 BRR  HE ES       1526 43.53                             154   -0.6210 67.4 297 
 BRR  HZ I        1526 47.99        47.6 0.54            151           67.4 297 
 PAM  SZ IP     C 1526 29.41                             151    0.5110 76.2  43 
 PAM  SE ES       1526 46.78                             151    0.5010 76.2  43 
 PAM  SZ I        1526 48.85        83.4 0.22            157           76.2  43 
 RUS  HZ EP       1526 30.59                             143   -0.1810  104 175 
 RUS  HE ES       1526 48.91                             143   -0.7110  104 175 
 RUS  HZ I        1526 50.52        39.3 0.42            145            104 175 
 PTB  HZ EP     C 1526 33.32                             133   -0.22 9  146 257 
 PTB  HN ES       1526 54.21                             133   -0.35 9  146 257 
 PTB  HZ I        1527  2.30        75.5 0.36            132            146 257 
 SPBC HZ EP       1526 35.61                             129    0.27 9  165 218 
 SPBC HN ES       1526 58.34                             129    0.58 9  165 218 
 SPBC HZ I        1527  4.84       120.6 0.36            129            165 218 
 NOR  HZ EP       1526 42.57                             119    0.13 8  235 233 
 NOR  HN ES       1527 10.78                             119    0.39 8  235 233 
 NOR  HZ I        1527 14.35        51.5 0.32            119            235 233 
 CHI  HZ EP       1526 44.43                             117   -0.27 8  252 194 
 CHI  HN ES       1527 13.54                             117   -0.87 8  252 194 
 CHI  HZ I        1527 20.04        21.0 0.38            119            252 194 
 HEL  HZ EP   4   1526 47.78                             115    1.04 0  271 255 
 HEL  HN ES   4   1527 19.43                             115    1.39 0  271 255 
 HEL  HZ I        1527 25.39        33.2 0.34            116            271 255 
 URE  HN ES   4   1527 17.78                             114   -1.35 0  280 291 
 DBB  SZ EP       1526 54.17                             110    0.33 7  337 274 
 DBB  SZ ES       1527 31.15                             110    0.47 7  337 274 
 TOL  SZ EP   4   1526 56.10                             109    1.07 0  344 224 
 TOL  SN ES       1527 32.84                             109    0.05 7  344 224 
 MON  HZ EP       1526 54.18                             109   -1.01 6  350 308 
 MON  HN ES       1527 32.50                             109   -0.58 6  350 308 
 MON  HZ I        1527 35.08        11.4 0.40            110            350 308 
 ANIL HZ EP       1526 56.57                             108   -0.00 6  358 224 
 ANIL HN ES   4   1527 36.78                             108    1.23 0  358 224 
 ANIL HZ I        1527 40.81         9.5 0.38            110            358 224 
 PRA  HZ EP       1527  0.19                             107   -0.22 6  394 209 
 PRA  HN ES   4   1527 41.19                             107   -1.19 0  394 209 
 PRA  HZ I        1527 48.17        32.4 0.60            108            394 209 
 ORTC HZ EP       1527  0.70                             106   -0.05 6  397 216 
 ORTC HN ES       1527 43.79                             106    0.80 6  397 216 
 ORTC HZ I        1527 51.45        22.5 0.56            108            397 216 
 SJC  HZ EP     C 1527  0.94                             106   -0.76 6  405 327 
 SJC  HN ES   4   1527 41.89                             106   -2.79 0  405 327 
 SJC  HZ I        1527 54.66         7.3 0.32            107            405 327 
                                                                                
