 2015  214 1701 10.6 L   6.806 -73.171147.3  RSN  8 0.5 2.0LRSN                1
 GAP=133        1.17       3.7     6.1  7.5 -0.2228E+01  0.1290E+02 -0.2263E+01E
 Epicentro: LOS SANTOS - SANTANDER                                             3
 ACTION:UPD 15-04-30 21:26 OP:nd   STATUS:               ID:20150214170110 L   I
 OLDACT:REG 15-02-14 22:25 OP:stll STATUS:               ID:20150214165745     3
 2015-02-14-1657-45M.COL___305                                                 6
 STAT SP IPHASW D HRMM SECON CODA AMPLIT PERI AZIMU VELO AIN AR TRES W  DIS CAZ7
 BAR2 EZ EP       17 1 30.57                             170    0.1110 23.7 183 
 BAR2 EZ ES       17 1 45.50                             170   -0.4210 23.7 183 
 BAR2 EZ I        17 1 47.13        22.9 0.26            170           23.7 183 
 BRR  HZ EP       17 1 32.50                             154    0.7010 68.4 299 
 BRR  HN ES       17 1 48.89                             154    0.5810 68.4 299 
 PAM  SN ES       17 1 51.11                             151    0.5010 78.7  41 
 RUS  HZ EP       17 1 34.36                             144   -0.2410  101 175 
 RUS  HN ES       17 1 52.68                             144   -0.6210  101 175 
 RUS  HZ I        17 1 54.39        10.3 0.20            145            101 175 
 PTB  HZ EP       17 1 37.68                             133    0.18 9  145 258 
 PTB  HN ES       17 1 58.06                             133   -0.39 9  145 258 
 PTB  HZ I        17 2  1.62         8.9 0.42            132            145 258 
 OCA  HN ES       17 2  0.82                             130   -0.26 9  159 354 
 SPBC HZ EP       17 1 39.55                             130    0.41 9  162 218 
 SPBC HN ES       17 2  1.60                             130    0.23 9  162 218 
 SPBC HZ I        17 2  4.15        16.7 0.26            130            162 218 
 SML  HZ EP       17 1 46.78                             118   -0.38 8  242 336 
 SML  HN ES       17 2 14.84                             118   -0.80 8  242 336 
 SML  HZ I        17 2 19.33        13.4 0.10            118            242 336 
                                                                                
