 2016  514 1108 16.8 L   6.799 -73.101149.5  RSN  9 0.4 2.1LRSN                1
 GAP=142        0.98       3.3     4.4  5.8 -0.2249E+01  0.7888E+01  0.5397E-01E
 Epicentro: LOS SANTOS - SANTANDER                                             3
 ACTION:UPD 16-08-18 17:45 OP:cam  STATUS:               ID:20160514110816 L   I
 OLDACT:REG 16-05-14 19:30 OP:drio STATUS:               ID:20160514105744     3
 2016-05-14-1057-44M.COL___303                                                 6
 STAT SP IPHASW D HRMM SECON CODA AMPLIT PERI AZIMU VELO AIN AR TRES W  DIS CAZ7
 BAR2 EZ EP     D 11 8 37.07                             170    0.1810 24.6 201 
 BAR2 EZ ES       11 8 51.84                             170   -0.7310 24.6 201 
 BAR2 EZ I        11 8 54.75        18.1 0.38            169           24.6 201 
 PAM  EN ES       11 8 56.70                             152   -0.0310 74.4  37 
 PAM  EZ I        11 8 59.16        16.9 0.56            156           74.4  37 
 BRR  HZ EP       11 8 39.03                             152    0.4410 75.6 297 
 BRR  HE ES       11 8 56.22                             152    0.6310 75.6 297 
 BRR  HZ I        11 8 59.31        35.5 0.84            150           75.6 297 
 RUS  HZ EP       11 8 40.97                             145    0.0910  100 179 
 RUS  HE ES       11 8 59.63                             145   -0.0510  100 179 
 RUS  HZ I        11 9  2.70         8.1 0.22            148            100 179 
 PTB  HZ EP       11 8 43.82                             132   -0.67 9  153 259 
 PTB  HE ES       11 9  6.05                             132   -0.06 9  153 259 
 PTB  HZ I        11 9 12.26        24.9 0.40            133            153 259 
 OCA  HZ EP       11 8 45.73                             130    0.28 9  161 351 
 OCA  HN ES       11 9  7.82                             130    0.00 9  161 351 
 OCA  HZ I        11 9 14.06        25.9 0.32            133            161 351 
 SPBC HZ EP       11 8 46.01                             129    0.15 9  166 220 
 SPBC HE ES       11 9  8.73                             129    0.19 9  166 220 
 SPBC HZ I        11 9 14.52        19.2 0.22            131            166 220 
 ZAR  HZ EP       11 8 49.24                             122   -0.71 8  209 292 
 ZAR  HN ES       11 9 15.55                             122   -0.27 8  209 292 
 ZAR  HZ I        11 9 21.15        20.3 0.36            124            209 292 
 NOR  HZ EP       11 8 53.14                             119   -0.02 8  239 235 
 NOR  HN ES       11 9 21.96                             119    0.43 8  239 235 
 NOR  HZ I        11 9 26.62         9.3 0.30            121            239 235 
                                                                                
