 2011  414 1224 41.8 L   6.799 -73.092139.0  RSN 11 0.3 2.1LRSN                1
 GAP=119        0.52       2.8     4.1  4.2 -0.1775E+01  0.1107E+01  0.1071E+01E
 Epicentro: LOS SANTOS - SANTANDER                                             3
 ACTION:UP  11-06-22 15:30 OP:REBC STATUS:               ID:20110414122441 L   I
 2011-04-14-1220-11S.COL___139                                                 6
 STAT SP IPHASW D HRMM SECON CODA AMPLIT PERI AZIMU VELO SNR AR TRES W  DIS CAZ7
 BTL  SZ EP       1225  0.67                             170     0.110   23 304 
 BAR2 SZ EP       1225  0.47                             169    -0.210   25 204 
 BAR2 SZ ES   1   1225 15.19                             169    -0.1 7   25 204 
 BAR2 SZ I        1225 17.98        17.7 0.43                            25 204 
 GIR2 SZ EP   2   1225  0.68                             166     0.0 5   33 340 
 PAM  SZ EP   1   1225  3.31                             151     0.3 7   74  36 
 PAM  SE ES   1   1225 19.80                             151     0.1 7   74  36 
 BRR  HZ EP       1225  2.37                             149    -0.110   77 296 
 BRR  HE ES   1   1225 18.94                             149     0.2 7   77 296 
 BRR  HZ I        1225 23.74        34.4 0.15                            77 296 
 GRA  SZ EP       1225  6.50                             136     0.210  124  15 
 GRA  SZ ES   2   1225 25.44                             136     0.0 5  124  15 
 GRA  SZ I        1225 27.08        16.0 0.39                           124  15 
 OCA  SZ EP   1   1225  9.33                             128    -0.3 7  161 351 
 OCA  SZ ES   2   1225 30.57                             128    -0.8 5  161 351 
 OCA  SZ I        1225 34.13        26.3 0.45                           161 351 
 YOP  SZ EP   2   1225 11.01                             125    -0.1 4  176 155 
 YOP  SE ES   2   1225 33.60                             125    -0.3 4  176 155 
 YOP  SZ I        1225 37.86        13.7 0.37                           176 155 
 NOR  SZ EP   2   1225 17.96                             116     0.3 4  239 235 
 HEL  HZ EP   2   1225 22.57                             113     0.3 4  278 256 
 HEL  HZ I        1225 59.44         7.1 0.61                           278 256 
 PRA  HZ EP   2   1225 35.12                             105    -0.3 3  395 210 
 PRA  HN ES   2   1226 17.70                             105     0.5 3  395 210 
                                                                                
