 2016 1214 1715 26.5 L   6.851 -73.158138.1  RSN  4 0.2 1.2LRSN                1
 GAP=147        0.63       5.0     3.8  6.1 -0.7291E+00  0.2497E+01 -0.1171E+02E
 Epicentro: LOS SANTOS - SANTANDER                                             3
 ACTION:UPD 17-01-11 20:15 OP:rebc STATUS:               ID:20161214171526 L   I
 OLDACT:REG 16-12-14 20:05 OP:ar   STATUS:               ID:20161214170647     3
 2016-12-14-1707-00M.COL___361                                                 6
 STAT SP IPHASW D HRMM SECON CODA AMPLIT PERI AZIMU VELO AIN AR TRES W  DIS CAZ7
 BAR2 EZ EP       1715 45.89                             168    0.5110 28.7 185 
 BAR2 EZ ES       1715 59.98                             168   -0.0910 28.7 185 
 BAR2 EZ I        1716  1.79         6.3 0.68            168           28.7 185 
 PAM  EZ EP       1715 47.57                             150   -0.1710 74.0  43 
 RUS  HZ EP       1715 49.94                             140   -0.0410  106 176 
 RUS  HN ES       1716  8.18                             140   -0.0810  106 176 
 RUS  HZ I        1716  9.14         1.8 0.22            143            106 176 
 PTB  HZ EP       1715 52.68                             130   -0.20 9  148 257 
 PTB  HN ES       1716 13.48                             130    0.05 9  148 257 
 PTB  HZ I        1716 16.67         2.2 0.42            131            148 257 
                                                                                
