 2016  914 1122 52.5 L   6.779 -73.129144.9  RSN  7 0.3 1.9LRSN                1
 GAP=140        0.75       2.7     3.7  4.7  0.1393E+00  0.4446E+01  0.2249E+01E
 Epicentro: LOS SANTOS - SANTANDER                                             3
 ACTION:UPD 17-08-17 21:11 OP:lp   STATUS:               ID:20160914112252 L   I
 OLDACT:DUP 16-09-14 19:56 OP:lv   STATUS:               ID:20160914111801d    3
 2016-09-14-1118-00M.COL___321                                                 6
 STAT SP IPHASW D HRMM SECON CODA AMPLIT PERI AZIMU VELO AIN AR TRES W  DIS CAZ7
 BAR2 EZ EP       1123 11.78                             171   -0.2410 21.5 196 
 BAR2 EZ ES       1123 26.91                             171   -0.3110 21.5 196 
 BAR2 EZ I        1123 28.55        26.3 0.16            169           21.5 196 
 BRR  HZ EP       1123 13.56                             151   -0.1910 74.0 299 
 BRR  HE ES       1123 30.92                             151    0.6310 74.0 299 
 BRR  HZ I        1123 31.35        19.1 0.10            151           74.0 299 
 PAM  EZ EP       1123 14.82                             150    0.1310 78.0  37 
 PAM  EE ES       1123 32.07                             150    0.0910 78.0  37 
 PAM  EZ I        1123 34.02        21.2 0.48            154           78.0  37 
 RUS  HZ EP       1123 15.77                             144   -0.2510 98.1 177 
 RUS  HN ES       1123 34.32                             144   -0.0310 98.1 177 
 RUS  HZ I        1123 35.71         4.6 0.24            145           98.1 177 
 SPBC HZ EP       1123 21.04                             129    0.13 9  163 220 
 SPBC HN ES       1123 43.07                             129    0.03 9  163 220 
 SPBC HZ I        1123 47.65         7.2 0.09            129            163 220 
 ZAR  HZ EP       1123 25.43                             122    0.24 8  207 293 
 ZAR  HN ES       1123 50.09                             122   -0.58 8  207 293 
 ZAR  HZ I        1123 54.52        14.9 0.15            122            207 293 
 CHI  HZ EP       1123 30.23                             117    0.24 8  247 196 
 CHI  HN ES       1123 59.45                             117    0.24 8  247 196 
 CHI  HZ I        1124  3.00         3.5 0.25            118            247 196 
                                                                                
