 2013  614 1443 39.9 L   6.762 -73.142142.7  RSN  8 0.4 2.3LRSN                1
 GAP=200        0.72       2.8     5.3  6.9  0.7951E+00  0.9889E+01 -0.3266E+01E
 Epicentro: LOS SANTOS - SANTANDER                                             3
 ACTION:UPD 14-01-08 09:54 OP:ep   STATUS:               ID:20130614144339 L   I
 OLDACT:UP  13-06-14 19:14 OP:mh   STATUS:               ID:20130614143959     3
 OLDACT:REG 13-06-14 16:08 OP:mh   STATUS:               ID:20130614143959     3
 2013-06-14-1439-59M.COL___261                                                 6
 STAT SP IPHASW D HRMM SECON CODA AMPLIT PERI AZIMU VELO AIN AR TRES W  DIS CAZ7
 BRR  HZ IP     C 1444  1.42                             151    0.5510 73.6 301 
 BRR  HN ES   2   1444 17.79                             151    0.58 5 73.6 301 
 BRR  HZ I        1444 20.96        24.3 0.12            145           73.6 301 
 RUS  HZ EP   1   1444  3.23                             144    0.18 7 96.3 176 
 RUS  HN ES       1444 20.86                             144   -0.2410 96.3 176 
 PTB  HZ EP   1   1444  5.98                             131   -0.61 7  147 260 
 PTB  HN ES   1   1444 27.11                             131   -0.29 7  147 260 
 PTB  HN I        1444 32.87        24.3 0.70            128            147 260 
 ZAR  HZ EP   1   1444 12.32                             121   -0.04 6  206 293 
 ZAR  HN ES   4   1444 40.08                             121    2.41 0  206 293 
 ZAR  HN I        1444 46.11        31.5 0.30            120            206 293 
 NOR  HZ EP   1   1444 15.32                             118    0.09 6  233 235 
 NOR  HE ES       1444 43.00                             118    0.22 8  233 235 
 NOR  HE I        1444 48.30        18.8 0.24            117            233 235 
 CHI  HN ES   2   1444 45.29                             117   -0.64 4  245 196 
 CHI  HN I        1444 52.16         7.7 0.28            117            245 196 
 SML  HZ EP   1   1444 16.49                             116   -0.31 6  248 336 
 SML  HN ES       1444 45.29                             116   -0.28 8  248 336 
 SML  HN I        1444 50.10        34.1 0.28            117            248 336 
 GUY2CHN ES   4   1444 59.22                             112    2.37 0  299 235 
 PRA  HZ EP   1   1444 33.50                             106    0.59 4  389 210 
 PRA  HN ES       1445 14.24                             106   -0.02 6  389 210 
 PRA  HN I        1445 21.62         2.6 0.34            107            389 210 
                                                                                
