 2011  514 1153 31.6 L   6.795 -73.105147.4  RSN  6 0.3 1.7LRSN                1
 GAP=164        0.63       8.4     8.1  9.7 -0.4994E+02 -0.3681E+02  0.4418E+02E
 Epicentro: LOS SANTOS - SANTANDER                                             3
 ACTION:UP  11-06-29 08:53 OP:tino STATUS:               ID:20110514115331 L   I
 2011-05-14-1149-03S.COL___139                                                 6
 STAT SP IPHASW D HRMM SECON CODA AMPLIT PERI AZIMU VELO SNR AR TRES W  DIS CAZ7
 BAR2 SZ EP   1   1153 51.23                             170    -0.2 7   24 201 
 BAR2 SZ I        1154  5.02        22.4 0.85                            24 201 
 PAM  SZ EP   1   1153 54.20                             152     0.4 7   75  37 
 PAM  SE ES   2   1154 11.13                             152     0.0 5   75  37 
 BRR  HZ EP   1   1153 53.22                             151     0.1 7   75 297 
 BRR  HZ I        1153 53.37        16.0 0.30                            75 297 
 BRR  HN ES   1   1154 10.11                             151     0.2 7   75 297 
 BRI  SZ EP   1   1153 55.16                             142    -0.4 7  107  18 
 BRI  SZ ES   2   1154 14.41                             142     0.2 5  107  18 
 BRI  SZ I        1154 16.06         3.7 0.37                           107  18 
 GRA  SZ EP   1   1153 57.19                             137     0.3 7  125  15 
 GRA  SZ ES   1   1154 16.24                             137    -0.4 7  125  15 
 GRA  SZ I        1154 17.85         4.5 0.24                           125  15 
 NOR  SE ES   2   1154 35.60                             118    -0.4 4  238 235 
                                                                                
