 2014  414 1150 50.4 L   6.834 -73.180132.5  RSN  5 0.3 1.5LRSN                1
 GAP=131        0.79       2.8     4.8  8.0 -0.6646E+00  0.1790E+02 -0.2268E+01E
 Epicentro: ZAPATOCA - SANTANDER                                               3
 2014-04-14-1148-12M.COL___266                                                 6
 ACTION:UPD 14-05-13 23:08 OP:nd   STATUS:               ID:20140414115050 L   I
 OLDACT:REG 14-04-14 20:30 OP:stll STATUS:               ID:20140414114812     3
 STAT SP IPHASW D HRMM SECON CODA AMPLIT PERI AZIMU VELO AIN AR TRES W  DIS CAZ7
 PAM  SN ES       1151 27.60                             148    0.1810 77.1  43 
 PAM  SZ I        1151 30.98         8.7 0.48            158           77.1  43 
 RUS  HZ EP       1151 12.99                             140   -0.1910  105 174 
 RUS  HN ES       1151 30.85                             140   -0.1010  105 174 
 RUS  HZ I        1151 47.23         3.1 0.08            146            105 174 
 PTB  HZ EP       1151 16.75                             129    0.72 9  145 257 
 PTB  HN ES       1151 35.95                             129   -0.09 9  145 257 
 PTB  HZ I        1151 42.02         3.3 0.26            136            145 257 
 SML  HZ EP       1151 25.69                             115   -0.07 8  239 336 
 SML  HN ES       1151 52.91                             115   -0.44 8  239 336 
 SML  HZ I        1151 59.68         5.9 0.08            123            239 336 
 CHI  HN ES       1151 56.57                             114   -0.20 8  251 194 
 CHI  HZ I        1152  0.31         2.0 0.38            121            251 194 
                                                                                
