 2012 1014 1921 26.8 L   6.795 -73.076144.2  RSN  8 0.5 2.4LRSN                1
 GAP=244        0.84       5.1     6.4  7.2  0.3409E+01  0.1611E+02  0.1178E+02E
 Epicentro: LOS SANTOS - SANTANDER                                             3
 ACTION:UPD 12-11-22 17:03 OP:ep   STATUS:               ID:20121014192126 L   I
 2012-10-14-1920-00M.COL___230                                                 6
 STAT SP IPHASW D HRMM SECON CODA AMPLIT PERI AZIMU VELO AIN AR TRES W  DIS CAZ7
 BAR2 SZ EP   1   1921 45.28                             170   -0.97 7 25.4 208 
 BAR2 SZ ES   1   1922  1.69                             170    0.24 7 25.4 208 
 BAR2 SZ I        1922  4.26        44.3 0.49                          25.4 208 
 BRR  HZ EP       1921 48.38                             150    0.2210 78.3 296 
 BRR  HN ES   1   1922  5.22                             150    0.37 7 78.3 296 
 BRR  HN I        1922  8.06        70.1 0.13                          78.3 296 
 RUS  HZ EP   1   1921 50.30                             144    0.00 7 99.8 180 
 RUS  HN ES   1   1922  8.50                             144   -0.17 7 99.8 180 
 NOR  SN ES   1   1922 30.66                             117   -0.70 6  241 236 
 NOR  SN I        1922 35.04        45.1 0.13                           241 236 
 CHI  HZ EP   1   1922  4.55                             117    0.00 6  250 197 
 CHI  HN ES   1   1922 34.46                             117    0.43 6  250 197 
 CHI  HN I        1922 37.92        10.0 0.33                           250 197 
 HEL  HZ EP   1   1922  7.98                             114    0.27 6  279 256 
 HEL  HN ES   1   1922 39.11                             114   -0.55 6  279 256 
 HEL  HN I        1922 45.91         9.9 0.41                           279 256 
 RREF HZ EP   1   1922 14.25                             110    0.78 5  327 230 
 RREF HN ES   1   1922 49.65                             110   -0.26 5  327 230 
 RREF HZ I        1922 58.34         8.3 0.31                           327 230 
 PRA  HZ EP   1   1922 20.38                             106   -0.25 4  395 211 
 PRA  HN ES   1   1923  3.57                             106    0.93 4  395 211 
 PRA  HN I        1923  8.21         4.6 0.29                           395 211 
                                                                                
