 2010  814 1542 26.7 L   6.747 -73.144141.6  RSN  4 0.2 1.5LRSN                1
 GAP=212        0.41       7.0    11.9  4.8  0.6241E+02 -0.5445E+01 -0.6926E+01E
 Epicentro: LOS SANTOS - SANTANDER                                             3
 ACTION:UP  10-09-07 10:54 OP:vdl  STATUS:               ID:20100814154226 L   I
 2010-08-14-1541-26S.COL___111                                                 6
 STAT SP IPHASW D HRMM SECON CODA AMPLIT PERI AZIMU VELO SNR AR TRES W  DIS CAZ7
 BAR2 SZ EP   1   1542 45.58                             174    -0.2 7   18 194 
 BAR2 SZ ES   1   1543  0.79                             174     0.2 7   18 194 
 BAR2 SZ I        1543  2.37         7.0 0.34                            18 194 
 BTL  SZ EP       1542 45.92                             170     0.110   23 324 
 BTL  SZ ES   2   1543  0.48                             170    -0.3 5   23 324 
 BRR  HZ EP       1542 47.58                             151     0.010   74 302 
 BRR  HE ES   2   1543  3.96                             151     0.1 5   74 302 
 BRR  HZ I        1543  8.45         6.0 0.31                            74 302 
 RUS  HZ EP   2   1542 49.90                             146     0.3 5   95 176 
 RUS  HE ES   2   1543  7.27                             146    -0.3 5   95 176 
                                                                                
