 2017  214 1435 25.5 L   6.775 -73.207132.0  RSN  5 0.3 1.5LRSN                1
 GAP=130        0.82       4.0     3.6  6.5 -0.2706E+00  0.9173E+01 -0.4602E+01E
 Epicentro: ZAPATOCA - SANTANDER                                               3
 ACTION:UPD 17-05-24 15:36 OP:jn   STATUS:               ID:20170214143525 L   I
 OLDACT:DUP 17-02-15 00:42 OP:cara STATUS:               ID:20170214142746d    3
 2017-02-14-1428-00M.COL___358                                                 6
 STAT SP IPHASW D HRMM SECON CODA AMPLIT PERI AZIMU VELO AIN AR TRES W  DIS CAZ7
 BAR2 EZ IP     D 1435 43.48                             171    0.0410 20.4 172 
 BAR2 EZ ES       1435 57.78                             171    0.3610 20.4 172 
 BAR2 EZ I        1436  1.06         6.6 0.32            174           20.4 172 
 PAM  EZ EP       1435 46.40                             146   -0.3310 83.9  42 
 PAM  EN ES       1436  3.23                             146   -0.0410 83.9  42 
 PAM  EZ I        1436  6.21         4.3 0.38            150           83.9  42 
 RUS  HZ EP       1435 47.54                             141   -0.2610 98.5 172 
 RUS  HN ES       1436  5.19                             141    0.0310 98.5 172 
 RUS  HZ I        1436  7.33         3.5 0.30            147           98.5 172 
 PTB  HZ EP       1435 51.17                             130    0.44 9  141 259 
 PTB  HN ES       1436  9.86                             130   -0.53 9  141 259 
 PTB  HZ I        1436 13.51         4.8 0.18            133            141 259 
 ZAR  HZ EP       1435 57.03                             120    0.46 9  199 294 
 ZAR  HN ES       1436 20.70                             120   -0.08 9  199 294 
 ZAR  HZ I        1436 27.49         7.0 0.28            123            199 294 
                                                                                
