 2014 1014 1243  5.1 L   6.758 -73.194155.4  RSN  5 0.3 1.6LRSN                1
 GAP=199        0.69       4.9     6.0  7.9 -0.1780E+00 -0.1112E+02 -0.7924E+01E
 Epicentro: VILLANUEVA - SANTANDER                                             3
 ACTION:UPD 14-11-29 23:49 OP:nd   STATUS:               ID:20141014124305 L   I
 OLDACT:REG 14-10-14 20:27 OP:fm   STATUS:               ID:20141014123748     3
 2014-10-14-1237-48M.COL___291                                                 6
 STAT SP IPHASW D HRMM SECON CODA AMPLIT PERI AZIMU VELO AIN AR TRES W  DIS CAZ7
 BAR2 SZ EP   1   1243 25.94                             173    0.16 7 18.4 176 
 BAR2 SZ I        1243 43.50         5.2 0.60            159           18.4 176 
 BRR  HZ EP   1   1243 27.58                             155    0.42 7 69.0 304 
 BRR  HN ES       1243 44.28                             155   -0.1110 69.0 304 
 BRR  HZ I        1243 47.27        15.0 0.40            166           69.0 304 
 PTB  HZ EP   1   1243 32.46                             135    0.14 7  142 260 
 PTB  HN ES       1243 53.19                             135   -0.38 9  142 260 
 PTB  HZ I        1243 56.06         2.8 0.18            137            142 260 
 ZAR  HN ES       1244  3.79                             125    0.37 9  201 294 
 ZAR  HZ I        1244 10.11         3.6 0.40            127            201 294 
 SML  HZ EP   1   1243 41.87                             119   -0.60 6  246 337 
 SML  HN ES       1244 11.62                             119   -0.03 8  246 337 
 SML  HZ I        1244 13.46         3.8 0.24            119            246 337 
                                                                                
