 2015  614 1706 17.1 L   6.332 -73.586110.0  RSN 17 0.4 2.2LRSN                1
 GAP= 75        0.99       2.2     2.9  5.1 -0.2678E+01  0.6773E+01 -0.8387E+00E
 Epicentro: SANTA HELENA DEL OPON - SANTANDER                                  3
 ACTION:UPD 15-09-10 22:12 OP:cam  STATUS:               ID:20150614170617 L   I
 OLDACT:REG 15-06-14 21:25 OP:ak   STATUS:               ID:20150614165749     3
 2015-06-14-1657-49M.COL___315                                                 6
 STAT SP IPHASW D HRMM SECON CODA AMPLIT PERI AZIMU VELO AIN AR TRES W  DIS CAZ7
 BAR2 EZ IP     D 17 6 34.14                             153    0.4610 53.1  57 
 BAR2 EZ ES       17 6 46.56                             153   -0.0710 53.1  57 
 BAR2 EZ I        17 6 48.69       126.0 0.40            157           53.1  57 
 RUS  HZ EP       17 6 35.40                             144    0.0210 73.9 131 
 RUS  HN ES       17 6 49.98                             144    0.3310 73.9 131 
 RUS  HZ I        17 6 51.03        18.1 0.16            149           73.9 131 
 BRR  HZ IP     C 17 6 35.70                             139    0.0210 86.8 351 
 BRR  HN ES       17 6 50.09                             139   -0.1010 86.8 351 
 BRR  HZ I        17 6 58.30        24.0 0.18            140           86.8 351 
 SPBC HZ EP       17 6 35.89                             137   -0.3810 92.5 216 
 SPBC HN ES       17 6 51.51                             137    0.2710 92.5 216 
 SPBC HZ I        17 6 53.68        68.6 0.23            139           92.5 216 
 PAM  SZ EP       17 6 41.12                             123   -0.95 9  148  41 
 PAM  SN ES       17 7  1.33                             123   -0.24 9  148  41 
 PAM  SZ I        17 7  3.59        11.1 0.30            126            148  41 
 NOR  HZ EP       17 6 42.70                             119   -0.61 9  166 239 
 NOR  HN ES       17 7  3.46                             119   -0.32 9  166 239 
 NOR  HZ I        17 7  5.70        34.6 0.18            121            166 239 
 ZAR  HZ EP       17 6 45.89                             115   -0.06 9  190 312 
 ZAR  HE ES       17 7  8.51                             115    0.04 9  190 312 
 ZAR  HZ I        17 7 12.62        30.0 0.26            117            190 312 
 OCA  HZ EP   1   17 6 49.18                             112    0.53 6  213   8 
 OCA  HN ES       17 7 13.59                             112    0.30 8  213   8 
 OCA  HZ I        17 7 19.29        37.6 0.25            115            213   8 
 HEL  HZ EP       17 6 49.88                             112    0.65 8  216 266 
 HEL  HN ES       17 7 14.66                             112    0.35 8  216 266 
 HEL  HZ I        17 7 18.50         9.3 0.34            114            216 266 
 GUY2CHZ EP       17 6 51.73                             110    0.50 8  232 238 
 GUY2CHN ES       17 7 17.98                             110    0.10 8  232 238 
 GUY2CHZ I        17 7 23.88        12.3 0.24                           232 238 
 RREF HZ EP       17 6 54.33                             109    0.68 8  251 231 
 RREF HN ES       17 7 21.38                             109   -0.80 8  251 231 
 RREF HZ I        17 7 32.04         4.5 0.26            111            251 231 
 URE  HZ EP   4   17 6 55.99                             107    1.37 0  266 306 
 URE  HN ES   4   17 7 21.60                             107   -2.31 0  266 306 
 URE  HZ I        17 7 24.07        21.7 0.12            109            266 306 
 TOL  SZ EP       17 6 55.92                             107    0.18 8  273 225 
 TOL  SN ES       17 7 26.06                             107    0.15 8  273 225 
 TOL  SZ I        17 7 31.03         5.8 0.28            109            273 225 
 CBOC HZ EP       17 6 55.49                             106   -0.17 8  274 259 
 CBOC HN ES       17 7 25.19                             106   -0.57 8  274 259 
 CBOC HZ I        17 7 27.53         5.3 0.18            108            274 259 
 SML  HZ EP       17 6 55.85                             106   -0.14 7  278 349 
 SML  HE ES       17 7 26.56                             106    0.21 7  278 349 
 SML  HZ I        17 7 31.59        16.0 0.10            108            278 349 
 PRA  HZ EP       17 7  0.78                             103   -0.61 7  323 207 
 PRA  HN ES       17 7 35.40                             103   -0.56 7  323 207 
 PRA  HZ I        17 7 41.98         6.4 0.26            105            323 207 
 ORTC HZ EP       17 7  2.10                             103    0.52 7  325 215 
 ORTC HN ES       17 7 36.99                             103    0.69 7  325 215 
 ORTC HZ I        17 7 45.36         4.6 0.24            105            325 215 
                                                                                
