 2015  414 1302 46.2 L   6.797 -73.123147.2  RSN 14 0.5 2.4LRSN                1
 GAP=167        1.05       3.6     5.0  6.3  0.1584E+01  0.1204E+01  0.2033E+01E
 Epicentro: LOS SANTOS - SANTANDER                                             3
 ACTION:UPD 15-06-03 16:54 OP:cam  STATUS:               ID:20150414130246 L   I
 OLDACT:REG 15-04-14 20:11 OP:spq  STATUS:               ID:20150414125748     3
 2015-04-14-1257-48M.COL___268                                                 6
 STAT SP IPHASW D HRMM SECON CODA AMPLIT PERI AZIMU VELO AIN AR TRES W  DIS CAZ7
 BAR2 EZ EP       13 3  6.20                             171    0.2010 23.6 196 
 BAR2 EZ ES   1   13 3 21.12                             171   -0.34 7 23.6 196 
 BAR2 EZ I        13 3 22.06        45.2 0.24            169           23.6 196 
 BRR  HZ EP     D 13 3  8.11                             152    0.4710 73.6 298 
 BRR  HN ES       13 3 25.16                             152    0.8010 73.6 298 
 BRR  HZ I        13 3 28.03        35.0 0.16            146           73.6 298 
 RUS  HZ EP       13 3 10.11                             144    0.0610  100 178 
 RUS  HE ES   1   13 3 28.31                             144   -0.35 7  100 178 
 RUS  HZ I        13 3 29.33        22.7 0.44            148            100 178 
 PTB  HZ EP       13 3 13.13                             132   -0.37 9  150 259 
 PTB  HE ES   1   13 3 34.01                             132   -0.79 7  150 259 
 PTB  HZ I        13 3 39.35        20.2 0.30            129            150 259 
 OCA  HN ES   1   13 3 36.41                             130   -0.49 7  161 352 
 OCA  HZ I        13 3 40.93        62.1 0.26            128            161 352 
 SPBC HZ EP       13 3 15.18                             129    0.25 9  165 220 
 SPBC HE ES       13 3 37.30                             129   -0.05 9  165 220 
 SPBC HZ I        13 3 39.56        31.3 0.27            129            165 220 
 ZAR  HZ EP   1   13 3 18.93                             122   -0.06 6  207 292 
 ZAR  HE ES       13 3 44.62                             122    0.05 8  207 292 
 ZAR  HZ I        13 3 50.83        27.9 0.28            120            207 292 
 NOR  HZ EP       13 3 22.77                             119    0.56 8  237 235 
 NOR  HE ES       13 3 49.83                             119   -0.47 8  237 235 
 NOR  HZ I        13 3 52.79        14.3 0.52            118            237 235 
 SML  HZ EP       13 3 22.63                             118   -0.42 8  245 335 
 SML  HE ES   1   13 3 51.33                             118   -0.47 6  245 335 
 SML  HZ I        13 3 59.14        26.8 0.28            116            245 335 
 HEL  HE ES   1   13 3 57.71                             115   -0.67 6  274 256 
 HEL  HZ I        13 4  5.96         9.2 0.24            114            274 256 
 GUY2CHZ EP       13 3 31.02                             112    0.94 7  303 235 
 GUY2CHE ES   4   13 4  7.29                             112    2.97 0  303 235 
 GUY2CHZ I        13 4 12.80         8.4 0.42                           303 235 
 PTGC HZ EP       13 3 29.24                             112   -0.73 7  307 159 
 MON  HZ EP   4   13 3 33.65                             109   -1.86 0  356 308 
 MON  HN ES   4   13 4 12.71                             109   -1.26 0  356 308 
 MON  HZ I        13 4 27.59         7.3 0.54            108            356 308 
 ORTC HZ EP   1   13 3 40.85                             107    0.54 4  397 217 
 SJC  HZ EP   4   13 3 40.79                             106   -1.21 0  411 327 
                                                                                
