 2015  414 1347 58.7 L   6.804 -73.124153.3  RSN  8 0.4 2.0LRSN                1
 GAP=203        0.86       4.5     5.4  7.1  0.6374E+01  0.7778E+01  0.3198E+01E
 Epicentro: LOS SANTOS - SANTANDER                                             3
 ACTION:UPD 15-06-03 16:54 OP:cam  STATUS:               ID:20150414134758 L   I
 OLDACT:REG 15-04-14 20:20 OP:spq  STATUS:               ID:20150414133750     3
 2015-04-14-1337-50M.COL___268                                                 6
 STAT SP IPHASW D HRMM SECON CODA AMPLIT PERI AZIMU VELO AIN AR TRES W  DIS CAZ7
 BAR2 EZ EP       1348 19.34                             171    0.0510 24.2 195 
 BAR2 EZ ES   1   1348 34.68                             171   -0.64 7 24.2 195 
 BAR2 EZ I        1348 37.08        12.1 0.26            170           24.2 195 
 BRR  HZ EP       1348 21.28                             153    0.4710 73.1 297 
 BRR  HN ES       1348 38.57                             153    0.5510 73.1 297 
 BRR  HZ I        1348 43.10        13.1 0.20            152           73.1 297 
 RUS  HZ EP   1   1348 23.42                             145    0.17 7  101 177 
 RUS  HE ES   1   1348 42.18                             145   -0.19 7  101 177 
 RUS  HZ I        1348 47.42         4.5 0.28            149            101 177 
 PTB  HZ EP   1   1348 25.98                             133   -0.56 7  150 259 
 PTB  HE ES   1   1348 47.89                             133   -0.33 7  150 259 
 PTB  HZ I        1348 53.25        14.0 0.22            134            150 259 
 ZAR  HE ES       1348 57.59                             124   -0.16 8  206 292 
 ZAR  HZ I        1349  3.89         9.7 0.12            126            206 292 
 NOR  HZ EP       1348 35.05                             120   -0.09 8  237 235 
 NOR  HN ES       1349  3.70                             120    0.17 8  237 235 
 NOR  HZ I        1349  7.20         7.2 0.22            122            237 235 
 SML  HN ES   1   1349  4.21                             119   -0.61 6  244 335 
 SML  HZ I        1349  9.09        17.1 0.10            122            244 335 
 GUY2CHZ EP   4   1348 44.59                             114    1.65 0  303 235 
 GUY2CHE ES   4   1349 20.98                             114    3.56 0  303 235 
 GUY2CHZ I        1349 26.24         7.2 0.74                           303 235 
                                                                                
