 2013  414 1221  8.7 L   6.772 -73.228145.0  RSN  4 0.2 1.4LRSN                1
 GAP=159        0.46       4.5     3.4  4.6 -0.3460E+00  0.5903E+01 -0.1768E+01E
 Epicentro: ZAPATOCA - SANTANDER                                               3
 ACTION:UPD 13-05-22 14:38 OP:EP   STATUS:               ID:20130414122108 L   I
 2013-04-14-1218-48M.COL___196                                                 6
 STAT SP IPHASW D HRMM SECON CODA AMPLIT PERI AZIMU VELO AIN AR TRES W  DIS CAZ7
 BAR2 SZ EP       1221 28.11                             172   -0.0210 20.5 166 
 BAR2 SZ ES       1221 43.24                             172   -0.0910 20.5 166 
 BAR2 SZ I        1221 44.66        11.2 0.48            173           20.5 166 
 GIR2 SZ EP   1   1221 28.02                             166   -0.29 7 34.2   6 
 GIR2 SZ ES   1   1221 43.89                             166    0.24 7 34.2   6 
 GIR2 SZ I        1221 47.43         3.9 0.38            165           34.2   6 
 RUS  HE ES   1   1221 50.60                             144    0.07 7 98.5 171 
 RUS  HZ I        1221 51.60         2.5 0.44            149           98.5 171 
 PTB  HZ EP       1221 34.93                             134    0.23 9  138 259 
 PTB  HN ES       1221 54.91                             134   -0.11 9  138 259 
 PTB  HZ I        1222  1.66         2.7 0.14            134            138 259 
                                                                                
