 2015  114 1209 37.7 L   6.813 -73.174142.0  RSN 17 0.4 2.5LRSN                1
 GAP=132        0.92       2.4     3.6  4.5 -0.1780E+01  0.4543E+01  0.3934E+00E
 Epicentro: LOS SANTOS - SANTANDER                                             3
 ACTION:UPD 15-03-02 15:39 OP:nd   STATUS:               ID:20150114120937 L   I
 OLDACT:UP  15-01-14 23:32 OP:mh   STATUS:               ID:20150114120747     3
 OLDACT:UP  15-01-14 23:32 OP:mh   STATUS:               ID:20150114120747     3
 OLDACT:UP  15-01-14 23:24 OP:mh   STATUS:               ID:20150114120747     3
 OLDACT:REG 15-01-14 21:06 OP:mh   STATUS:               ID:20150114120747     3
 2015-01-14-1207-47M.COL___250                                                 6
 STAT SP IPHASW D HRMM SECON CODA AMPLIT PERI AZIMU VELO AIN AR TRES W  DIS CAZ7
 BAR2 EZ EP       12 9 56.94                             170    0.0710 24.4 182 
 BAR2 EZ ES       1210 11.80                             170   -0.0410 24.4 182 
 BAR2 EZ I        1210 12.90        59.9 0.22            165           24.4 182 
 BRR  HZ EP       12 9 58.77                             153    0.5510 67.8 299 
 BRR  HN ES   1   1210 13.90                             153   -0.35 7 67.8 299 
 BRR  HZ I        1210 19.80        37.4 0.16            148           67.8 299 
 PAM  SZ EP       12 9 59.77                             150    0.2310 78.3  42 
 PAM  SN ES       1210 16.74                             150    0.1410 78.3  42 
 PAM  SZ I        1210 19.01        85.4 0.44            152           78.3  42 
 RUS  HZ EP   1   1210  1.03                             143   -0.14 7  102 174 
 RUS  HN ES       1210 19.52                             143    0.0210  102 174 
 RUS  HZ I        1210 20.56        44.9 0.32            139            102 174 
 PTB  HZ EP       1210  3.40                             132   -0.68 9  145 258 
 PTB  HN ES       1210 24.67                             132   -0.01 9  145 258 
 PTB  HZ I        1210 30.03        31.0 0.50            127            145 258 
 OCA  HZ EP       1210  5.98                             129    0.46 9  159 354 
 OCA  HN ES       1210 26.87                             129   -0.38 9  159 354 
 OCA  HZ I        1210 32.28        32.5 0.18            127            159 354 
 SPBC HZ EP       1210  5.66                             128   -0.14 9  162 218 
 SPBC HN ES       1210 27.74                             128   -0.00 9  162 218 
 ZAR  HZ EP       1210  9.47                             122   -0.05 9  201 292 
 ZAR  HN ES   1   1210 34.24                             122   -0.12 6  201 292 
 ZAR  HZ I        1210 43.96        21.4 0.27            118            201 292 
 NOR  HZ EP       1210 13.04                             118    0.04 8  233 234 
 NOR  HN ES   1   1210 40.47                             118   -0.09 6  233 234 
 NOR  HZ I        1210 55.66        12.6 0.34            114            233 234 
 SML  HZ EP       1210 13.90                             117    0.10 8  241 336 
 SML  HN ES   1   1210 41.59                             117   -0.40 6  241 336 
 CHI  HZ EP       1210 15.03                             116   -0.19 8  249 194 
 CHI  HN ES       1210 44.27                             116   -0.24 8  249 194 
 CHI  HZ I        1210 47.78        20.1 0.48            113            249 194 
 ROSC BZ EP   9   1210 16.80                             116    1.26 0  252 210 
 ROSC BN ES   0   1210 47.03                             115    0.69 8  252 210 
 ROSC BZ I        1210 55.03        24.9 0.40            113            252 210 
 HEL  HZ EP   1   1210 18.99                             114    1.60 6  269 255 
 HEL  HN ES   1   1210 48.68                             114    0.30 6  269 255 
 HEL  HZ I        1210 54.83        15.9 0.26            111            269 255 
 VIL  SZ EP       1210 20.51                             111   -0.49 7  304 191 
 VIL  SZ I        1210 57.71        21.4 0.62            109            304 191 
 TOL  SZ EP   1   1210 24.76                             109   -0.88 5  342 224 
 TOL  SN ES   4   1211  6.30                             109    3.24 0  342 224 
 TOL  SZ I        1211 10.34        26.1 0.52            106            342 224 
 MON  HZ EP   4   1210 23.77                             108   -2.37 0  350 309 
 MON  HN ES   4   1211  2.10                             108   -1.85 0  350 309 
 ANIL HZ EP   4   1210 28.20                             108    1.01 0  356 224 
 ANIL HN ES   4   1211  9.43                             108    3.61 0  356 224 
 ANIL HZ I        1211 13.71         4.3 0.28            105            356 224 
 ORTC HZ EP       1210 30.95                             106   -0.43 6  395 216 
 ORTC HN ES       1211 14.36                             106    1.09 6  395 216 
 ORTC HZ I        1211 18.19        10.3 0.32            103            395 216 
                                                                                
