 2011 1114 1041  5.1 L   6.816 -73.120148.7  RSN  6 0.4 1.6LRSN                1
 GAP=139        0.83       4.6     5.8  7.8  0.5806E+01  0.1252E+02 -0.3454E+01E
 Epicentro: LOS SANTOS - SANTANDER                                             3
 ACTION:UPD 12-07-13 16:10 OP:ep   STATUS:               ID:20111114104105 L   I
 2011-11-14-1040-32S.COL___179                                                 6
 STAT SP IPHASW D HRMM SECON CODA AMPLIT PERI AZIMU VELO AIN AR TRES W  DIS CAZ7
 BAR2 SZ EP   1   1041 25.08                             170   -0.03 9 25.7 196 
 BAR2 SZ ES   1   1041 39.97                             170   -0.76 9 25.7 196 
 BAR2 SZ I        1041 42.15        12.9 0.17                          25.7 196 
 BRR  HZ EP   1   1041 27.16                             152    0.52 9 72.9 296 
 BRR  HZ I        1041 27.44        12.1 0.13                          72.9 296 
 BRR  HN ES   1   1041 44.12                             152    0.66 9 72.9 296 
 PAM  SN ES   1   1041 45.15                             152    0.30 9 74.2  39 
 RUS  HZ EP   1   1041 29.43                             144    0.20 9  102 178 
 RUS  HN ES   1   1041 48.04                             144   -0.03 9  102 178 
 RUS  HZ I        1041 49.21         2.7 0.24                           102 178 
 OCA  SZ EP   1   1041 33.51                             130    0.02 8  159 352 
 OCA  SZ ES   1   1041 55.18                             130   -0.47 8  159 352 
 OCA  SZ I        1042  0.35         5.4 0.19                           159 352 
 ZAR  HZ EP   1   1041 37.37                             123   -0.55 7  206 291 
 ZAR  HN ES       1042  3.48                             123   -0.0610  206 291 
 ZAR  HZ I        1042  9.12         3.8 0.26                           206 291 
                                                                                
