 2013  814 1246 32.1 L   6.788 -73.176142.7  RSN  8 0.4 1.6LRSN                1
 GAP=133        0.94       4.6     4.4  8.0 -0.3799E+01  0.7365E+01 -0.1743E+01E
 Epicentro: LOS SANTOS - SANTANDER                                             3
 ACTION:UPD 14-01-14 09:02 OP:ep   STATUS:               ID:20130814124632 L   I
 OLDACT:REG 13-08-14 15:24 OP:jn   STATUS:               ID:20130814123960d    3
 2013-08-14-1239-59M.COL___270                                                 6
 STAT SP IPHASW D HRMM SECON CODA AMPLIT PERI AZIMU VELO AIN AR TRES W  DIS CAZ7
 BAR2 SZ EP       1246 51.12                             171   -0.2210 21.7 182 
 BAR2 SZ ES       1247  5.92                             171   -0.4210 21.7 182 
 BAR2 SZ I        1247  7.51        10.0 0.22            171           21.7 182 
 BRR  HN ES   1   1247 10.02                             153    1.08 7 68.9 301 
 PAM  SZ EP       1246 54.27                             149    0.0710 80.6  41 
 PAM  SN ES   1   1247 11.45                             149    0.02 7 80.6  41 
 PAM  SZ I        1247 13.47        10.2 0.50            152           80.6  41 
 RUS  HZ EP   1   1246 56.02                             143    0.53 7 99.5 174 
 RUS  HN ES       1247 13.71                             143   -0.0110 99.5 174 
 RUS  HZ I        1247 15.07         6.0 0.28            146           99.5 174 
 PTB  HZ EP   1   1246 58.04                             132   -0.47 7  144 259 
 PTB  HN ES       1247 18.69                             132   -0.41 9  144 259 
 PTB  HZ I        1247 26.60         3.6 0.52            131            144 259 
 SPBC HE ES       1247 22.10                             129    0.21 9  160 218 
 SPBC HZ I        1247 24.91         7.5 0.36            129            160 218 
 ZAR  HN ES   1   1247 28.82                             122   -0.22 6  201 293 
 ZAR  HZ I        1247 34.64         3.9 0.48            121            201 293 
 NOR  HE ES   1   1247 35.19                             118    0.46 6  231 234 
 NOR  HZ I        1247 37.88         2.9 0.16            119            231 234 
                                                                                
