 2010  814 1836 15.8 L   6.799 -73.091142.1  RSN 10 0.5 2.3LRSN                1
 GAP=170        1.21       5.8    10.8  8.7 -0.1297E+02 -0.6734E+01  0.1086E+02E
 Epicentro: LOS SANTOS - SANTANDER                                             3
 ACTION:UP  10-09-07 10:54 OP:vdl  STATUS:               ID:20100814183615 L   I
 2010-08-14-1834-23S.COL___110                                                 6
 STAT SP IPHASW D HRMM SECON CODA AMPLIT PERI AZIMU VELO SNR AR TRES W  DIS CAZ7
 BTL  SZ IP       1836 35.24                             170     0.310   24 304 
 BTL  SZ ES   1   1836 49.78                             170    -0.2 7   24 304 
 BAR2 SZ IP       1836 35.12                             169     0.110   25 204 
 BAR2 SZ ES   1   1836 50.10                             169     0.1 7   25 204 
 BAR2 SZ I        1836 52.53        55.2 0.75                            25 204 
 GIR2 SZ EP       1836 35.13                             166     0.110   33 340 
 BRR  HZ IP     D 1836 36.88                             150     0.010   77 296 
 BRR  HZ I        1836 37.13        37.7 0.03                            77 296 
 BRR  HN ES   1   1836 53.65                             150     0.4 7   77 296 
 BTN  SZ IP       1836 36.28                             149    -1.210   80 359 
 BTN  SZ ES   2   1836 53.61                             149    -0.9 5   80 359 
 RUS  HZ EP       1836 39.13                             143     0.010  100 180 
 RUS  HE ES   2   1836 57.46                             143     0.1 5  100 180 
 RUS  HZ I        1836 59.24        20.3 0.35                           100 180 
 GUE  SZ EP       1836 40.99                             139     0.910  115   9 
 CHI  HZ EP   1   1836 53.51                             116     0.1 6  250 197 
 CHI  HE ES   1   1837 22.52                             116    -0.3 6  250 197 
 CHI  HZ I        1837 29.24        13.6 0.52                           250 197 
 HEL  HZ EP   2   1836 56.61                             113     0.2 4  278 256 
 HEL  HN ES   2   1837 27.87                             113    -0.3 4  278 256 
 HEL  HZ I        1837 35.46        16.5 0.33                           278 256 
 PRA  HZ EP   1   1837  9.14                             106    -0.4 4  395 210 
 PRA  HE ES   2   1837 51.59                             106     0.2 3  395 210 
                                                                                
