 2012  314 1530 40.9 L   6.781 -73.158136.9  RSN  5 0.4 1.3LRSN                1
 GAP=136        0.87       4.9     4.8 10.0  0.4666E+01  0.1244E+02 -0.1669E+01E
 ACTION:UP  12-03-31 23:19 OP:EP   STATUS:               ID:20120314153040 L   I
 2012-03-14-1530-00M.COL___201                                                 6
 STAT SP IPHASW D HRMM SECON CODA AMPLIT PERI AZIMU VELO SNR AR TRES W  DIS CAZ7
 BRR  HZ EP   1   1531  1.28                             151     0.2 7   71 300 
 BRR  HZ I        1531  3.05        12.0 0.44                            71 300 
 BRR  HN ES   1   1531 17.22                             151     0.4 7   71 300 
 PAM  SZ EP   1   1531  2.27                             148     0.0 7   80  39 
 PAM  SN ES   1   1531 18.57                             148    -0.4 7   80  39 
 PAM  SZ I        1531 21.94         3.8 0.33                            80  39 
 RUS  HZ EP   1   1531  4.02                             142     0.4 7   99 175 
 RUS  HZ I        1531  7.01         3.1 0.37                            99 175 
 RUS  HN ES       1531 21.35                             142     0.010   99 175 
 PTB  HZ EP   1   1531  6.43                             130    -0.5 7  146 260 
 PTB  HZ I        1531  8.27         1.6 0.08                           146 260 
 PTB  HN ES   1   1531 26.77                             130    -0.5 7  146 260 
 ZAR  HE ES       1531 37.72                             120     0.2 9  204 293 
                                                                                
