 2014  714 1529 17.4 L   6.844 -73.115142.6  RSN 16 0.6 2.7LRSN                1
 GAP= 71        1.36       3.6     3.8  6.4 -0.1367E+01  0.6554E+01  0.5105E+01E
 Epicentro: LOS SANTOS - SANTANDER                                             3
 ACTION:UPD 15-03-16 20:43 OP:nd   STATUS:               ID:20140714152917 L   I
 OLDACT:REG 14-07-14 20:31 OP:stll STATUS:               ID:20140714152818     3
 2014-07-14-1528-18M.COL___256                                                 6
 STAT SP IPHASW D HRMM SECON CODA AMPLIT PERI AZIMU VELO AIN AR TRES W  DIS CAZ7
 BAR2 SZ IP     C 1529 36.95                             168    0.1910 28.8 195 
 BAR2 SZ ES       1529 52.38                             168    0.5110 28.8 195 
 BAR2 SZ I        1529 54.14        51.6 0.26            167           28.8 195 
 PAM  SZ EP       1529 39.55                             152    0.6310 71.5  40 
 PAM  SZ I        1529 39.78       112.3 0.18            152           71.5  40 
 PAM  SN ES       1529 55.71                             152   -0.0010 71.5  40 
 BRR  HZ IP     D 1529 38.55                             152    0.3110 72.1 294 
 BRR  HN ES       1529 55.44                             152    0.9310 72.1 294 
 BRR  HZ I        1529 59.32        56.3 0.10            146           72.1 294 
 RUS  HZ EP       1529 41.14                             142   -0.0310  105 178 
 RUS  HN ES       1529 59.64                             142   -0.0910  105 178 
 PTB  HZ EP       1529 43.58                             130   -0.91 9  152 257 
 PTB  HZ I        1529 44.55        48.1 0.16            126            152 257 
 PTB  HE ES       1530  5.39                             130   -0.25 9  152 257 
 TAM  HZ IP     D 1529 45.34                             130    0.70 9  153 107 
 TAM  HZ I        1529 45.72        76.8 0.36            131            153 107 
 TAM  HN ES       1530  5.18                             130   -0.71 9  153 107 
 OCA  HZ EP       1529 44.50                             130   -0.54 9  156 352 
 OCA  HN ES       1530  5.94                             130   -0.67 9  156 352 
 OCA  HZ I        1530 10.82        40.6 0.18            126            156 352 
 SPBC HZ EP       1529 45.92                             127   -0.29 9  169 219 
 SPBC HN ES       1530  8.07                             127   -0.62 9  169 219 
 SPBC HZ I        1530 14.95        33.0 0.14            124            169 219 
 ZAR  HZ EP       1529 49.34                             122   -0.43 8  205 291 
 ZAR  HE ES       1530 14.19                             122   -0.84 8  205 291 
 ZAR  HZ I        1530 20.25        68.3 0.40            118            205 291 
 CHI  HZ EP       1529 55.49                             116   -0.03 8  254 196 
 CHI  HE ES       1530 24.42                             116   -0.84 8  254 196 
 HEL  HZ EP       1529 58.55                             114    0.61 7  277 255 
 HEL  HN ES       1530 30.30                             114    0.73 7  277 255 
 HEL  HZ I        1530 35.87        27.1 0.26            111            277 255 
 GUY2CHZ EP       1530  2.69                             111    1.21 7  307 234 
 GUY2CHN ES       1530 36.46                             111    0.59 7  307 234 
 GUY2CHZ I        1530 44.93        24.5 0.36                           307 234 
 DBB  SZ EP       1530  5.08                             109   -0.01 7  343 273 
 DBB  SZ I        1530 45.65        40.8 0.48            106            343 273 
 TOL  SZ EP       1530  6.77                             108    0.58 6  349 224 
 TOL  SN ES       1530 44.09                             108   -0.16 6  349 224 
 TOL  SZ I        1530 51.95        46.0 0.74            106            349 224 
 PRA  HZ EP       1530 11.73                             106    0.24 6  398 210 
 PRA  HN ES       1530 52.42                             106   -1.27 6  398 210 
 PRA  HZ I        1531  0.25        21.7 0.30            104            398 210 
 ORTC HZ EP       1530 12.26                             106    0.37 6  401 216 
 ORTC HN ES       1530 54.98                             106    0.58 6  401 216 
 ORTC HZ I        1531  0.28         9.8 0.40            104            401 216 
                                                                                
