 2015  114 1906 28.8 L   6.787 -73.154140.0  RSN  9 0.4 2.3LRSN                1
 GAP=136        1.00       3.2     4.3  6.8 -0.1346E+00  0.4259E+01  0.3864E+01E
 Epicentro: LOS SANTOS - SANTANDER                                             3
 ACTION:UPD 15-03-02 15:39 OP:nd   STATUS:               ID:20150114190628 L   I
 OLDACT:UP  15-01-15 01:28 OP:mh   STATUS:               ID:20150114185746     3
 OLDACT:REG 15-01-14 21:21 OP:mh   STATUS:               ID:20150114185746     3
 2015-01-14-1857-46M.COL___250                                                 6
 STAT SP IPHASW D HRMM SECON CODA AMPLIT PERI AZIMU VELO AIN AR TRES W  DIS CAZ7
 BAR2 EZ EP   1   19 6 47.63                             171   -0.12 7 21.8 188 
 BAR2 EZ I        19 7  3.30        27.1 0.18            166           21.8 188 
 BRR  HZ EP       19 6 49.67                             152    0.3010 71.1 300 
 BRR  HN ES       19 7  5.39                             152    0.0210 71.1 300 
 BRR  HZ I        19 7 10.06        29.0 0.50            144           71.1 300 
 PAM  SZ EP       19 6 50.67                             149    0.1210 79.0  39 
 PAM  SN ES       19 7  7.26                             149   -0.2210 79.0  39 
 PAM  SZ I        19 7  9.56        63.6 0.46            145           79.0  39 
 RUS  HZ EP       19 6 51.80                             143   -0.1310 99.3 175 
 RUS  HN ES       19 7 10.12                             143    0.1810 99.3 175 
 RUS  HZ I        19 7 11.13        21.0 0.26            134           99.3 175 
 PTB  HZ EP       19 6 55.00                             131   -0.24 9  147 259 
 PTB  HN ES       19 7 16.00                             131    0.17 9  147 259 
 PTB  HZ I        19 7 17.46        21.4 0.14            122            147 259 
 OCA  HZ EP       19 6 56.02                             128   -0.82 9  162 354 
 OCA  HN ES       19 7 19.41                             128    0.74 9  162 354 
 OCA  HZ I        19 7 21.44        35.0 0.20            121            162 354 
 ZAR  HZ EP   1   19 7  1.80                             121    0.91 6  204 293 
 ZAR  HN ES       19 7 25.22                             121   -0.66 9  204 293 
 ZAR  HZ I        19 7 34.78        17.0 0.10            113            204 293 
 CHI  HZ EP       19 7  5.77                             116   -0.29 8  247 195 
 CHI  HN ES       19 7 35.16                             116    0.08 8  247 195 
 CHI  HZ I        19 7 39.35         5.5 0.44            109            247 195 
 TOL  SZ EP   1   19 7 17.38                             108    0.69 5  342 225 
 TOL  SZ I        19 7 59.99        15.2 0.69            102            342 225 
                                                                                
