 2013  414 1811 53.2 L   6.872 -73.387116.6  RSN 15 0.5 2.6LRSN                1
 GAP= 62        1.01       3.0     3.5  5.4  0.5060E+00  0.5074E+01  0.5836E+00E
 Epicentro: SAN VICENTE DE CHUCURI - SANTANDER                                 3
 ACTION:UPD 13-05-22 14:38 OP:EP   STATUS:               ID:20130414181153 L   I
 2013-04-14-1808-48M.COL___206                                                 6
 STAT SP IPHASW D HRMM SECON CODA AMPLIT PERI AZIMU VELO AIN AR TRES W  DIS CAZ7
 GIR2 SZ EP       1812  9.68                             164    0.2010 31.3  43 
 GIR2 SZ I        1812 23.75        93.9 0.38            165           31.3  43 
 BAR2 SZ EP       1812 10.00                             161    0.1210 38.3 144 
 BAR2 SZ ES       1812 22.52                             161   -0.3310 38.3 144 
 BAR2 SZ I        1812 23.88       650.9 0.34            157           38.3 144 
 BRR  HZ IP     C 1812 10.02                             158    0.2310 44.3 306 
 BRR  HN ES       1812 23.25                             158    0.5610 44.3 306 
 BRR  HZ I        1812 24.02        80.7 0.12            151           44.3 306 
 RUS  HZ EP       1812 15.02                             133   -0.3510  113 163 
 RUS  HN ES   1   1812 32.23                             133   -0.40 7  113 163 
 RUS  HZ I        1812 33.35        28.6 0.20            127            113 163 
 PTB  HZ EP       1812 14.64                             130   -1.0410  124 253 
 PTB  HZ I        1812 35.71       104.4 0.24            122            124 253 
 OCA  HZ EP       1812 18.34                             124   -0.22 9  151   3 
 OCA  HN ES   1   1812 38.10                             124   -0.20 7  151   3 
 OCA  HZ I        1812 42.79        45.4 0.14            119            151   3 
 TAM  HZ EP       1812 21.83                             118    0.11 9  183 105 
 TAM  HN ES   1   1812 44.05                             118    0.13 7  183 105 
 TAM  HZ I        1812 45.50        29.0 0.28            114            183 105 
 NOR  HZ EP   1   1812 25.57                             113   -0.10 6  219 229 
 NOR  HE ES   1   1812 51.19                             113    0.23 6  219 229 
 NOR  HZ I        1812 54.58        54.7 0.18            109            219 229 
 SML  HZ EP       1812 26.46                             113    0.02 8  226 341 
 SML  HN ES   1   1812 52.96                             113    0.62 6  226 341 
 ROSC BN ES   1   1812 57.29                             111   -0.19 6  247 205 
 HEL  HZ EP       1812 30.32                             110    0.87 8  249 252 
 HEL  HN ES   1   1812 58.01                             110    0.32 6  249 252 
 HEL  HZ I        1813  3.77        28.6 0.24            106            249 252 
 CHI  HZ EP   1   1812 30.59                             110    0.82 6  251 189 
 CHI  HN ES   1   1812 58.85                             110    0.59 6  251 189 
 CHI  HZ I        1813  3.62        17.6 0.60            106            251 189 
 URE  HZ EP   1   1812 28.88                             110   -0.99 6  256 292 
 DBB  SZ EP   1   1812 36.69                             105    0.19 5  312 273 
 DBB  SZ ES   1   1813  9.48                             105   -0.76 5  312 273 
 PRA  HZ EP   1   1812 45.25                             101   -0.04 4  387 206 
 PRA  HZ I        1813 32.18        14.6 0.32            100            387 206 
                                                                                
