 2010 1214 1813 39.8 L   6.756 -73.156148.4  RSN  9 0.3 1.9LRSN                1
 GAP=158        0.55       3.3     7.6  6.9 -0.1278E+02  0.2024E+02 -0.1089E+01E
 Epicentro: LOS SANTOS - SANTANDER                                             3
 ACTION:UP  11-01-14 15:24 OP:pat  STATUS:               ID:20101214181339 L   I
 2010-12-14-1808-03S.COL___136                                                 6
 STAT SP IPHASW D HRMM SECON CODA AMPLIT PERI AZIMU VELO SNR AR TRES W  DIS CAZ7
 BAR2 SZ EP       1813 59.56                             173    -0.110   18 190 
 BAR2 SZ I        1813 59.95        17.8 0.15                            18 190 
 BAR2 SZ ES   2   1814 15.17                             173     0.0 5   18 190 
 BTL  SZ EP   1   1813 59.77                             171     0.0 7   22 326 
 GIR2 SZ EP   2   1814  0.14                             166     0.2 5   36 353 
 RUS  HZ EP   1   1814  3.39                             146    -0.1 7   96 175 
 RUS  HN ES   2   1814 21.83                             146    -0.1 5   96 175 
 RUS  HZ I        1814 23.50         7.5 0.19                            96 175 
 GRA  SZ EP   1   1814  6.23                             136     0.5 7  131  17 
 GRA  SZ ES   1   1814 25.84                             136    -0.1 7  131  17 
 GRA  SZ I        1814 27.12        13.2 0.35                           131  17 
 OCA  SZ EP   2   1814  8.55                             129    -0.2 5  165 354 
 OCA  SZ ES   2   1814 31.16                             129    -0.2 5  165 354 
 OCA  SZ I        1814 36.03        14.2 0.33                           165 354 
 NOR  SZ EP   1   1814 14.93                             119    -0.4 6  231 235 
 NOR  SE ES   2   1814 43.59                             119     0.6 4  231 235 
 CHI  HZ EP   2   1814 17.60                             118     0.5 4  244 195 
 CHI  HN ES   2   1814 46.70                             118     0.5 4  244 195 
 CHI  HZ I        1814 51.08         4.0 0.55                           244 195 
 PRA  HZ EP   2   1814 32.22                             107    -0.7 3  387 210 
                                                                                
