 2014  314 1045 44.5 L   6.795 -73.162145.3  RSN 10 0.4 2.0LRSN                1
 GAP=135        0.89       3.2     3.7  5.9 -0.1635E+01  0.8877E+01 -0.2595E+01E
 Epicentro: LOS SANTOS - SANTANDER                                             3
 ACTION:UPD 14-04-09 23:17 OP:nd   STATUS:               ID:20140314104544 L   I
 OLDACT:DUP 14-03-14 17:39 OP:nd   STATUS:               ID:20140314104042d    3
 2014-03-14-1040-39M.COL___232                                                 6
 STAT SP IPHASW D HRMM SECON CODA AMPLIT PERI AZIMU VELO AIN AR TRES W  DIS CAZ7
 BAR2 SZ EP       1046  4.32                             171    0.2210 22.5 186 
 BAR2 SZ ES       1046 19.43                             171    0.0810 22.5 186 
 BAR2 SZ I        1046 20.54        24.4 0.28            169           22.5 186 
 PAM  SZ EP       1046  7.03                             150    0.2310 79.0  40 
 PAM  SN ES       1046 24.39                             150    0.2210 79.0  40 
 PAM  SZ I        1046 26.51        15.6 0.20            156           79.0  40 
 RUS  HZ EP       1046  8.48                             144    0.2710  100 175 
 RUS  HN ES       1046 26.17                             144   -0.5110  100 175 
 RUS  HZ I        1046 28.19         6.1 0.42            147            100 175 
 PTB  HZ EP       1046 10.92                             132   -0.37 9  146 259 
 PTB  HN ES       1046 31.76                             132   -0.40 9  146 259 
 PTB  HZ I        1046 38.22        13.0 0.22            132            146 259 
 SPBC HZ EP       1046 13.23                             129    0.38 9  162 219 
 SPBC HN ES   2   1046 35.23                             129    0.30 5  162 219 
 SPBC HZ I        1046 41.20        17.2 0.12            130            162 219 
 ZAR  HZ EP   2   1046 16.49                             122   -0.31 4  203 292 
 ZAR  HN ES       1046 42.79                             122    0.82 9  203 292 
 ZAR  HZ I        1046 48.68        11.2 0.30            123            203 292 
 NOR  HZ EP       1046 20.09                             119    0.05 8  233 234 
 NOR  HN ES       1046 47.45                             119   -0.28 8  233 234 
 NOR  HZ I        1046 52.19         7.8 0.24            120            233 234 
 SML  HZ EP       1046 20.60                             117   -0.51 8  243 336 
 SML  HN ES       1046 49.07                             117   -0.57 8  243 336 
 SML  HZ I        1046 52.92        15.1 0.10            119            243 336 
 HEL  HZ EP   2   1046 24.73                             115    0.22 4  270 256 
 HEL  HN ES   2   1046 56.14                             115    0.45 4  270 256 
 HEL  HZ I        1047  3.24         4.8 0.32            116            270 256 
 URE  HZ EP   4   1046 29.00                             114    3.58 0  282 292 
 URE  HN ES   4   1046 55.76                             114   -1.55 0  282 292 
 URE  HZ I        1046 58.11         4.7 0.14            115            282 292 
                                                                                
