 2013  414 1643 43.8 L   6.800 -73.187142.4  RSN  8 0.3 1.9LRSN                1
 GAP=131        0.77       3.7     3.8  5.4 -0.2906E+01  0.4969E+01  0.4052E+00E
 Epicentro: ZAPATOCA - SANTANDER                                               3
 ACTION:UPD 13-05-22 14:38 OP:EP   STATUS:               ID:20130414164343 L   I
 2013-04-14-1638-48M.COL___212                                                 6
 STAT SP IPHASW D HRMM SECON CODA AMPLIT PERI AZIMU VELO AIN AR TRES W  DIS CAZ7
 BAR2 SZ EP   1   1644  3.15                             170    0.14 7 23.0 179 
 BAR2 SZ ES       1644 18.21                             170    0.2110 23.0 179 
 BAR2 SZ I        1644 19.36        32.3 0.26            171           23.0 179 
 GIR2 SZ EP   1   1644  2.77                             167   -0.28 7 30.8 359 
 GIR2 SZ ES   1   1644 18.15                             167    0.08 7 30.8 359 
 GIR2 SZ I        1644 21.24         7.0 0.58            168           30.8 359 
 BRR  HZ EP       1644  4.95                             153    0.6010 67.2 300 
 BRR  HE ES   1   1644 20.38                             153    0.00 7 67.2 300 
 BRR  HZ I        1644 22.45        15.1 0.32            154           67.2 300 
 PAM  SZ EP       1644  6.02                             149    0.1910 80.4  42 
 PAM  SN ES       1644 22.87                             149   -0.1510 80.4  42 
 PAM  SZ I        1644 25.61        11.9 0.48            153           80.4  42 
 RUS  HZ EP       1644  7.23                             143   -0.0110  101 173 
 RUS  HN ES   1   1644 24.85                             143   -0.69 7  101 173 
 RUS  HZ I        1644 27.47        10.6 0.26            145            101 173 
 PTB  HZ EP       1644  9.78                             132   -0.29 9  143 258 
 PTB  HN ES       1644 30.48                             132   -0.09 9  143 258 
 PTB  HZ I        1644 33.78         9.5 0.20            134            143 258 
 NOR  HE ES   1   1644 46.72                             118    0.39 6  231 234 
 NOR  HZ I        1644 49.25        10.4 0.22            120            231 234 
 SML  HN ES   1   1644 47.63                             117   -0.65 6  242 336 
                                                                                
