 2014  114 1710 36.1 L   6.780 -73.126150.9  RSN  9 0.5 2.1LRSN                1
 GAP=140        1.29       4.5     6.3 10.0 -0.5968E+01  0.1220E+02  0.9272E+01E
 Epicentro: LOS SANTOS - SANTANDER                                             3
 ACTION:UPD 14-03-13 09:55 OP:ep   STATUS:               ID:20140114171036 L   I
 OLDACT:REG 14-01-14 14:43 OP:carl STATUS:               ID:20140114171000     3
 2014-01-14-1710-00M.COL___285                                                 6
 STAT SP IPHASW D HRMM SECON CODA AMPLIT PERI AZIMU VELO AIN AR TRES W  DIS CAZ7
 BRR  HZ EP   4   1710 55.54                             152   -2.47 0 74.2 299 
 BRR  HN ES       1711 15.92                             152    0.8510 74.2 299 
 PAM  SZ EP       1710 59.42                             152    0.5010 77.8  37 
 PAM  SN ES       1711 15.93                             152   -0.7610 77.8  37 
 PAM  SZ I        1711 18.79        14.3 0.56            154           77.8  37 
 RUS  HZ EP       1711  0.54                             145    0.3110 98.2 177 
 RUS  HN ES       1711 19.03                             145    0.0110 98.2 177 
 RUS  HZ I        1711 21.85        14.1 0.50            146           98.2 177 
 PTB  HZ EP       1711  3.06                             133   -0.63 9  149 260 
 PTB  HN ES       1711 24.28                             133   -0.89 9  149 260 
 PTB  HZ I        1711 32.13        18.2 0.42            132            149 260 
 OCA  HN ES       1711 27.70                             130    0.04 9  163 352 
 NOR  HZ EP       1711 11.99                             119   -0.24 8  235 235 
 NOR  HE ES       1711 40.95                             119    0.58 8  235 235 
 NOR  HZ I        1711 42.92         9.5 0.26            119            235 235 
 SML  HZ EP   2   1711 13.26                             118   -0.11 4  247 335 
 SML  HN ES   2   1711 43.06                             118    0.65 4  247 335 
 CHI  HZ EP   4   1711 13.25                             118   -0.71 0  247 196 
 SML  HZ I        1711 46.32        16.2 0.10            118            247 335 
 CHI  HN ES       1711 43.56                             118    0.10 8  247 196 
 CHI  HZ I        1711 49.90         6.4 0.26            119            247 196 
 GUY2CHZ EP   4   1711 21.38                             113    1.33 0  302 235 
 GUY2CHN ES   4   1711 55.87                             113    1.58 0  302 235 
 SJC  HZ EP   4   1711 30.79                             106   -1.44 0  412 327 
 SJC  HN ES   4   1712 14.21                             106   -1.77 0  412 327 
 SJC  HZ I        1712 22.56         1.9 0.60            107            412 327 
                                                                                
