 2014  114 1515 20.1 L   6.823 -73.113147.7  RSN 10 0.5 2.0LRSN                1
 GAP=139        1.09       3.3     4.8  7.1 -0.9772E+00  0.1248E+02  0.3493E+01E
 Epicentro: LOS SANTOS - SANTANDER                                             3
 ACTION:UPD 14-03-13 09:55 OP:ep   STATUS:               ID:20140114151520 L   I
 OLDACT:DUP 14-01-14 17:26 OP:carl STATUS:               ID:20140114151001d    3
 2014-01-14-1510-00M.COL___285                                                 6
 STAT SP IPHASW D HRMM SECON CODA AMPLIT PERI AZIMU VELO AIN AR TRES W  DIS CAZ7
 PAM  SZ IP     C 1515 42.87                             152    0.6210 73.1  39 
 PAM  SN ES       1515 59.88                             152    0.3310 73.1  39 
 PAM  SZ I        1516  0.47        10.5 0.18            157           73.1  39 
 BRR  HZ EP       1515 41.78                             152    0.2310 73.2 295 
 BRR  HN ES       1515 58.74                             152    0.4410 73.2 295 
 BRR  HZ I        1516  2.00        25.1 0.34            152           73.2 295 
 RUS  HZ EP       1515 44.00                             144   -0.1910  103 178 
 RUS  HN ES       1516  2.37                             144   -0.6310  103 178 
 RUS  HZ I        1516  4.44        10.4 0.28            145            103 178 
 PTB  HZ EP       1515 46.96                             132   -0.61 9  152 258 
 PTB  HE ES   4   1516  7.52                             132   -1.49 0  152 258 
 PTB  HZ I        1516 10.41        14.6 0.10            132            152 258 
 ZAR  HZ EP       1515 52.86                             122   -0.03 8  206 291 
 ZAR  HN ES       1516 17.94                             122   -0.55 8  206 291 
 ZAR  HZ I        1516 23.45         8.7 0.24            124            206 291 
 NOR  HZ EP       1515 56.39                             118   -0.00 8  239 234 
 NOR  HN ES       1516 24.96                             118    0.24 8  239 234 
 SML  HZ EP       1515 56.61                             118   -0.11 8  243 334 
 SML  HN ES       1516 24.57                             118   -0.74 8  243 334 
 SML  HZ I        1516 26.75        15.8 0.32            120            243 334 
 CHI  HZ EP       1515 58.29                             117    0.03 8  252 196 
 CHI  HN ES       1516 27.45                             117   -0.59 8  252 196 
 CHI  HZ I        1516 34.71         5.4 0.48            119            252 196 
 GUY2CHZ EP       1516  4.94                             112    0.67 7  306 235 
 GUY2CHN ES       1516 39.45                             112    0.71 7  306 235 
 GUY2CHZ I        1516 47.83         4.6 0.60                           306 235 
 RREF HE ES       1516 43.62                             111    0.37 7  326 229 
 RREF HZ I        1516 49.77         4.5 0.30            112            326 229 
                                                                                
