 2016 1114 1020 27.2 L   7.529 -73.596102.7  RSN  5 0.2 1.4LRSN                1
 GAP=193        0.55       3.8     1.9  5.4 -0.3442E+00  0.2786E+01 -0.7586E+01E
 Epicentro: SABANA DE TORRES - SANTANDER                                       3
 ACTION:UPD 17-10-26 21:08 OP:lp   STATUS:               ID:20161114102027 L   I
 OLDACT:UP  16-11-14 20:34 OP:edw  STATUS:               ID:20161114101744     3
 OLDACT:REG 16-11-14 18:43 OP:edw  STATUS:               ID:20161114101744     3
 2016-11-14-1018-00M.COL___338                                                 6
 STAT SP IPHASW D HRMM SECON CODA AMPLIT PERI AZIMU VELO AIN AR TRES W  DIS CAZ7
 BRR  HZ EP     C 1020 42.47                             153    0.0310 48.4 195 
 BRR  HN ES       1020 54.19                             153   -0.1110 48.4 195 
 BRR  HZ I        1020 55.16        10.5 0.12            150           48.4 195 
 PAM  EZ EP       1020 47.32                             132    0.2110  101 102 
 PAM  EN ES       1021  2.54                             132   -0.0710  101 102 
 PAM  EZ I        1021  4.78         4.2 0.14            133            101 102 
 BAR2 EZ ES       1021  4.02                             128    0.0110  113 156 
 ZAR  HZ EP       1020 49.75                             122   -0.45 9  139 268 
 ZAR  HN ES       1021  8.41                             122    0.29 9  139 268 
 ZAR  HZ I        1021  9.89         5.0 0.26            122            139 268 
 PTB  HZ EP       1020 50.88                             120    0.08 9  145 221 
 PTB  HN ES       1021  9.17                             120   -0.01 9  145 221 
 PTB  HZ I        1021 14.63         3.1 0.26            120            145 221 
                                                                                
