 2016 1014 1028  0.8 L   6.785 -73.141140.7  RSN 20 0.5 2.5LRSN                1
 GAP= 72        1.07       2.8     3.0  5.2 -0.1482E+01  0.3839E+01  0.2433E+01E
 Epicentro: LOS SANTOS - SANTANDER                                             3
 ACTION:UPD 16-11-09 19:19 OP:rebc STATUS:               ID:20161014102800 L   I
 OLDACT:UP  16-10-14 20:57 OP:dnl  STATUS:               ID:20161014101749d    3
 OLDACT:DUP 16-10-14 20:48 OP:dnl  STATUS:               ID:20161014101749d    3
 OLDACT:UP  16-10-14 20:47 OP:dnl  STATUS:               ID:20161014101748     3
 OLDACT:REG 16-10-14 20:11 OP:dnl  STATUS:               ID:20161014101748     3
 2016-10-14-1018-00M.COL___359                                                 6
 STAT SP IPHASW D HRMM SECON CODA AMPLIT PERI AZIMU VELO AIN AR TRES W  DIS CAZ7
 BAR2 EZ IP     C 1028 19.85                             171    0.1210 21.8 192 
 BAR2 EZ ES       1028 34.29                             171   -0.2510 21.8 192 
 BAR2 EZ I        1028 35.69        66.2 0.44            169           21.8 192 
 BRR  HZ EP       1028 21.76                             151    0.3410 72.4 299 
 BRR  HN ES       1028 38.30                             151    0.7610 72.4 299 
 BRR  HZ I        1028 42.72        51.8 0.36            150           72.4 299 
 PAM  EZ IP       1028 22.70                             150    0.2210 78.4  38 
 PAM  EZ EP       1028 22.82                             149           78.4  38 
 PAM  EN ES       1028 39.53                             150    0.1010 78.4  38 
 PAM  EZ I        1028 41.80       107.2 0.44            153           78.4  38 
 RUS  HZ EP       1028 23.84                             143   -0.0410 98.9 176 
 RUS  HN ES       1028 42.12                             143    0.2010 98.9 176 
 RUS  HZ I        1028 43.36        44.3 0.40            144           98.9 176 
 PTB  HZ EP       1028 26.67                             131   -0.65 9  148 259 
 PTB  HN ES       1028 48.01                             131   -0.04 9  148 259 
 PTB  HZ I        1028 50.88        37.0 0.12            130            148 259 
 TAM  HZ IP     C 1028 28.24                             130    0.30 9  154 104 
 TAM  HE ES       1028 49.04                             130   -0.11 9  154 104 
 TAM  HZ I        1028 50.33        19.5 0.28            133            154 104 
 OCA  HZ EP       1028 28.17                             128   -0.66 9  162 353 
 OCA  HN ES       1028 49.74                             128   -0.99 9  162 353 
 OCA  HZ I        1028 54.91       113.3 0.18            130            162 353 
 SPBC HZ EP       1028 28.78                             128    0.01 9  162 219 
 SPBC HN ES       1028 50.18                             128   -0.44 9  162 219 
 SPBC HZ I        1028 54.08        45.1 0.20            128            162 219 
 ZAR  HZ EP       1028 32.87                             121   -0.11 9  205 293 
 ZAR  HE ES       1028 58.95                             121    0.83 9  205 293 
 ZAR  HZ I        1029  3.65        36.9 0.28            121            205 293 
 NOR  HZ EP       1028 36.48                             117    0.35 8  234 235 
 NOR  HN ES       1029  3.32                             117   -0.40 8  234 235 
 NOR  HZ I        1029  7.31        19.0 0.20            118            234 235 
 CHI  HZ EP   2   1028 38.01                             116    0.00 4  247 195 
 CHI  HN ES       1029  6.84                             116   -0.23 8  247 195 
 CHI  HZ I        1029 11.68         9.7 0.42            117            247 195 
 ROSC BZ EP   4   1028 40.05                             116    1.58 0  252 211 
 ROSC BN ES       1029  8.26                             116    0.37 8  252 211 
 ROSC BZ I        1029 14.30        19.6 0.35            116            252 211 
 HEL  HZ EP       1028 41.30                             114    0.58 8  272 256 
 HEL  HN ES   4   1029 10.73                             114   -1.16 0  272 256 
 HEL  HZ I        1029 20.21        12.4 0.68            114            272 256 
 GUY2CHZ EP       1028 44.90                             111    0.84 7  301 235 
 GUY2CHN ES       1029 17.06                             111   -0.79 7  301 235 
 GUY2CHZ I        1029 26.47        12.4 0.32                           301 235 
 SOCV BZ EP   4   1028 42.66                             111   -0.96 0  302  57 
 SOCV BN ES   4   1029 14.36                             111   -2.70 0  302  57 
 PTGC HZ EP   4   1028 43.16                             111   -1.03 0  307 159 
 PTGC HN ES   4   1029 16.27                             111   -1.79 0  307 159 
 PTGC HZ I        1029 18.70        20.5 0.38            112            307 159 
 ELA  HZ EP   4   1028 49.66                             109    2.35 0  328 230 
 ELA  HN ES       1029 22.86                             109   -0.77 7  328 230 
 ELA  HZ I        1029 35.50         9.4 0.32            110            328 230 
 CBOC HZ EP   3   1028 47.62                             109    0.17 2  334 252 
 CBOC HN ES   4   1029 20.53                             109   -3.35 0  334 252 
 ANIL HZ EP   3   1028 50.77                             108    0.50 2  357 225 
 ANIL HN ES   3   1029 28.05                             108   -0.84 2  357 225 
 ANIL HZ I        1029 35.89        32.7 0.26            108            357 225 
 PRA  HZ EP       1028 53.78                             106   -0.18 6  391 210 
 PRA  HN ES       1029 36.06                             106    0.60 6  391 210 
 PRA  HZ I        1029 42.51        11.2 0.68            106            391 210 
 SJC  HZ EP   4   1028 54.46                             105   -1.88 0  411 327 
 SJC  HE ES   4   1029 35.80                             105   -3.90 0  411 327 
 SJC  HZ I        1029 39.64         9.6 0.52            106            411 327 
                                                                                
