 2017  714 1151 23.2 L   6.754 -73.158138.8  RSN 10 0.4 1.8LRSN                1
 GAP=112        0.89       3.4     3.5  5.3 -0.4914E+00  0.4265E+01  0.2260E+01E
 Epicentro: LOS SANTOS - SANTANDER                                             3
 ACTION:UPD 17-08-30 15:32 OP:rebc STATUS:               ID:20170714115123 L   I
 OLDACT:REG 17-07-14 19:51 OP:lv   STATUS:               ID:20170714114740     3
 2017-07-14-1148-00M.COL___371                                                 6
 STAT SP IPHASW D HRMM SECON CODA AMPLIT PERI AZIMU VELO AIN AR TRES W  DIS CAZ7
 BAR2 EZ EP       1151 41.81                             172   -0.0710 18.1 189 
 BAR2 EZ ES       1151 56.23                             172   -0.2310 18.1 189 
 BAR2 EZ I        1151 58.06        34.9 0.29            170           18.1 189 
 BRR  HZ EP       1151 43.48                             151   -0.1910 72.6 303 
 BRR  HE ES       1152  0.58                             151    0.9310 72.6 303 
 BRR  HZ I        1152  4.98        15.2 0.34            149           72.6 303 
 PAM  EZ EP       1151 44.81                             148   -0.1610 82.1  38 
 PAM  EN ES       1152  1.64                             148   -0.3210 82.1  38 
 PAM  EZ I        1152  4.14        29.7 0.20            154           82.1  38 
 RUS  HZ EP       1151 46.05                             144    0.1510 95.6 175 
 RUS  HN ES       1152  3.85                             144    0.2410 95.6 175 
 RUS  HZ I        1152  5.53         6.5 0.33            147           95.6 175 
 PTB  HZ EP       1151 48.97                             131   -0.42 9  146 261 
 PTB  HN ES   2   1152  9.70                             131   -0.13 5  146 261 
 PTB  HZ I        1152 16.67         5.4 0.16            131            146 261 
 SPBC HZ EP       1151 50.81                             128    0.10 9  158 220 
 SPBC HN ES       1152 11.97                             128   -0.20 9  158 220 
 SPBC HZ I        1152 17.74        11.4 0.25            130            158 220 
 YPLC HZ EP       1151 52.26                             126    0.15 9  173 150 
 ZAR  HZ EP       1151 55.80                             121    0.53 9  205 294 
 ZAR  HN ES       1152 19.77                             121   -0.52 9  205 294 
 ZAR  HZ I        1152 24.86         6.1 0.09            122            205 294 
 NOR  HZ EP   3   1151 59.62                             118    1.53 2  231 235 
 NOR  HN ES       1152 25.27                             118   -0.04 8  231 235 
 NOR  HZ I        1152 31.68         4.0 0.16            119            231 235 
 GUY2CHN ES   2   1152 39.22                             111   -0.23 4  297 235 
 GUY2CHZ I        1152 45.96         2.2 0.36                           297 235 
                                                                                
