 2013  214 1755 36.3 L   6.476 -74.024  0.0  RSN  4 0.2 1.5LRSN                1
 GAP=157        0.49       1.6     1.1  3.4  0.2912E+00  0.2241E+00 -0.4918E+00E
 Epicentro: PUERTO PARRA - SANTANDER                                           3
 ACTION:UPD 13-03-12 09:33 OP:ep   STATUS:               ID:20130214175536 L   I
 2013-02-14-1750-00M.COL___241                                                 6
 STAT SP IPHASW D HRMM SECON CODA AMPLIT PERI AZIMU VELO AIN AR TRES W  DIS CAZ7
 PTB  HZ EP       1755 44.77                              47   -0.0210 48.4 278 
 PTB  HN ES       1755 51.46                              47    0.0310 48.4 278 
 PTB  HN I        1755 51.48        42.0 0.16             47           48.4 278 
 BRR  HZ EP       1755 48.95                              47   -0.2910 77.8  26 
 BRR  HN ES       1755 59.54                              47    0.1910 77.8  26 
 BAR2 SZ EP       1755 51.85                              47   -0.0810 93.9  82 
 RUS  HZ EP       1755 56.73                              47    0.2210  122 122 
 RUS  HN ES       1756 12.24                              47   -0.0510  122 122 
 RUS  HN I        1756 12.82         6.0 0.14             47            122 122 
                                                                                
