 2013 1114 1444  7.2 L   6.588 -73.567106.1  RSN  6 0.6 1.6LRSN                1
 GAP= 78        1.54       6.8     6.0 15.4 -0.9915E+01  0.2295E+02 -0.1772E+02E
 Epicentro: EL CARMEN DE CHUCURI - SANTANDER                                   3
 ACTION:UPD 14-01-09 16:28 OP:ep   STATUS:               ID:20131114144407 L   I
 OLDACT:DUP 13-11-14 20:14 OP:stll STATUS:               ID:20131114143820d    3
 2013-11-14-1438-19M.COL___234                                                 6
 STAT SP IPHASW D HRMM SECON CODA AMPLIT PERI AZIMU VELO AIN AR TRES W  DIS CAZ7
 BAR2 SZ EP       1444 23.39                             157    0.6210 42.5  89 
 BAR2 SZ ES       1444 35.66                             157    0.7010 42.5  89 
 BAR2 SZ I        1444 37.47        38.8 0.52            162           42.5  89 
 BRR  HZ EP       1444 24.17                             148    0.7810 59.6 344 
 RUS  HZ EP       1444 26.64                             136   -0.0210 93.7 145 
 RUS  HN ES       1444 41.39                             136   -0.4910 93.7 145 
 RUS  HZ I        1444 43.33         3.4 0.46            142           93.7 145 
 PTB  HZ EP       1444 26.35                             134   -0.0710 98.5 267 
 PTB  HN ES       1444 40.87                             134   -0.5810 98.5 267 
 PTB  HZ I        1444 45.91         8.2 0.10            137           98.5 267 
 SPBC HN ES       1444 44.81                             128    0.0310  118 208 
 PAM  SN ES       1444 46.27                             126   -1.0510  127  49 
                                                                                
