 2011  214 1136 41.9 L   6.783 -73.067140.9  RSN  6 0.2 1.5LRSN                1
 GAP=168        0.58       3.5    13.0  4.6 -0.3011E+02 -0.1771E+02  0.5311E+01E
 Epicentro: LOS SANTOS - SANTANDER                                             3
 ACTION:UP  11-03-28 15:08 OP:jfem STATUS:               ID:20110214113641 L   I
 2011-02-14-1135-06S.COL___137                                                 6
 STAT SP IPHASW D HRMM SECON CODA AMPLIT PERI AZIMU VELO SNR AR TRES W  DIS CAZ7
 BAR2 SZ EP       1137  0.87                             169    -0.110   25 211 
 BAR2 SZ ES   1   1137 15.47                             169    -0.3 7   25 211 
 BAR2 SZ I        1137 17.43        14.4 0.16                            25 211 
 BTL  SZ EP       1137  1.11                             168     0.110   27 304 
 BTL  SZ ES   1   1137 16.41                             168     0.5 7   27 304 
 GIR2 SZ EP   3   1137  0.97                             165    -0.1 2   36 337 
 GIR2 SZ ES   2   1137 15.55                             165    -0.5 5   36 337 
 RUS  HZ EP       1137  5.15                             143     0.210   98 181 
 RUS  HN ES   1   1137 23.09                             143     0.1 7   98 181 
 RUS  HZ I        1137 24.76         3.4 0.45                            98 181 
 GRA  SZ EP       1137  6.61                             136     0.010  125  13 
 GRA  SZ ES   1   1137 25.84                             136    -0.1 7  125  13 
 GRA  SZ I        1137 28.93         3.7 0.31                           125  13 
 CHI  HZ EP       1137 19.23                             116    -0.1 8  249 197 
 CHI  HE ES   1   1137 48.38                             116    -0.2 6  249 197 
 CHI  HZ I        1137 51.99         2.9 0.38                           249 197 
                                                                                
