 2016  114 1242 27.0 L   6.784 -73.147153.4  RSN  5 0.4 1.6LRSN                1
 GAP=200        1.14       6.0     8.4  8.4  0.2091E+02 -0.4085E+01 -0.1660E+02E
 Epicentro: LOS SANTOS - SANTANDER                                             3
 ACTION:UPD 16-03-09 23:25 OP:cam  STATUS:               ID:20160114124227 L   I
 OLDACT:REG 16-01-14 21:16 OP:drio STATUS:               ID:20160114123750     3
 2016-01-14-1237-50M.COL___334                                                 6
 STAT SP IPHASW D HRMM SECON CODA AMPLIT PERI AZIMU VELO AIN AR TRES W  DIS CAZ7
 BAR2 EZ EP       1242 47.68                             172    0.1310 21.5 190 
 BAR2 EZ ES       1243  3.01                             172   -0.5410 21.5 190 
 BAR2 EZ I        1243  4.41         7.3 0.28            173           21.5 190 
 BRR  HZ EP       1242 49.80                             154    0.7510 71.9 300 
 BRR  HN ES       1243  6.92                             154    0.7010 71.9 300 
 RUS  HZ EP       1242 51.48                             146    0.0610 98.8 176 
 RUS  HN ES       1243 10.28                             146   -0.1610 98.8 176 
 RUS  HZ I        1243 11.68         3.3 0.32            149           98.8 176 
 PTB  HZ EP       1242 54.52                             134   -0.06 9  147 259 
 PTB  HN ES       1243 15.70                             134   -0.38 9  147 259 
 PTB  HZ I        1243 21.34         3.9 0.18            133            147 259 
 SML  HZ EP       1243  3.97                             119   -0.29 8  245 336 
 SML  HE ES       1243 32.69                             119   -0.61 8  245 336 
 SML  HZ I        1243 43.09         6.9 0.10            118            245 336 
                                                                                
