 2013  414 1517  9.9 L   6.092 -73.730 99.7  RSN  5 0.3 1.2LRSN                1
 GAP=194        0.67       5.3     7.1 10.7  0.1611E+02  0.5326E+02  0.1447E+02E
 Epicentro: BOLIVAR - SANTANDER                                                3
 ACTION:UPD 13-05-22 14:38 OP:EP   STATUS:               ID:20130414151709 L   I
 2013-04-14-1508-50M.COL___206                                                 6
 STAT SP IPHASW D HRMM SECON CODA AMPLIT PERI AZIMU VELO AIN AR TRES W  DIS CAZ7
 RUS  HZ EP   1   1517 27.92                             141    0.59 7 74.9 107 
 RUS  HN ES   1   1517 40.49                             141   -0.40 7 74.9 107 
 RUS  HZ I        1517 45.33         1.7 0.36            147           74.9 107 
 BAR2 SZ EP   1   1517 27.76                             138    0.22 7 82.0  48 
 BAR2 SZ ES       1517 41.33                             138    0.0510 82.0  48 
 PTB  HZ EP   1   1517 28.26                             133   -0.05 7 94.4 302 
 PTB  HZ I        1517 46.08         2.6 0.16            118           94.4 302 
 BRR  HZ EP       1517 29.76                             128   -0.2010  112   1 
 BRR  HN ES   1   1517 45.82                             128    0.25 7  112   1 
 BRR  HZ I        1517 56.45         9.7 0.32            128            112   1 
 GIR2 SZ EP   1   1517 30.96                             125   -0.37 7  124  28 
                                                                                
