 2011  814 1435 35.0 L   6.770 -73.114150.0  RSN  6 0.4 1.8LRSN                1
 GAP=186        0.71       4.1     8.5  7.5  0.7687E+01 -0.1313E+02 -0.6129E+01E
 Epicentro: LOS SANTOS - SANTANDER                                             3
 ACTION:UPD 12-07-13 15:51 OP:ep   STATUS:               ID:20110814143534 L   I
 2011-08-14-1433-40S.COL___150                                                 6
 STAT SP IPHASW D HRMM SECON CODA AMPLIT PERI AZIMU VELO AIN AR TRES W  DIS CAZ7
 BAR2 SZ EP       1435 55.11                             171   -0.0310 21.0 201 
 BAR2 SZ ES   2   1436  9.87                             171   -0.94 5 21.0 201 
 BAR2 SZ I        1436 11.12        12.0 0.36                          21.0 201 
 BRR  HZ EP       1435 56.95                             152    0.0410 75.8 300 
 BRR  HZ I        1435 57.21        18.8 0.28                          75.8 300 
 BRR  HN ES   1   1436 14.53                             152    0.56 7 75.8 300 
 RUS  HZ EP       1435 59.24                             146    0.2710 97.1 178 
 RUS  HE ES   1   1436 17.63                             146    0.00 7 97.1 178 
 RUS  HZ I        1436 18.75         6.2 0.40                          97.1 178 
 OCA  SZ EP       1436  3.64                             130   -0.40 9  164 352 
 OCA  SZ ES   3   1436 27.41                             130    0.76 2  164 352 
 OCA  SZ I        1436 35.11        11.7 0.20                           164 352 
 NOR  SN ES   2   1436 38.57                             119   -0.69 4  236 236 
 CHI  HZ EP   2   1436 12.84                             118    0.11 4  246 196 
 CHI  HN ES   2   1436 42.27                             118    0.14 4  246 196 
                                                                                
