 2014  814 1107 53.0 L   7.385 -73.230122.8  RSN  9 0.3 1.6LRSN                1
 GAP=205        0.79       3.5     4.7  6.6  0.5294E+01 -0.2084E+01 -0.6603E+01E
 Epicentro: EL PLAYON - SANTANDER                                              3
 ACTION:UPD 14-09-15 21:49 OP:nd   STATUS:               ID:20140814110753 L   I
 OLDACT:REG 14-08-14 20:54 OP:spq  STATUS:               ID:20140814105819     3
 2014-08-14-1058-19M.COL___257                                                 6
 STAT SP IPHASW D HRMM SECON CODA AMPLIT PERI AZIMU VELO AIN AR TRES W  DIS CAZ7
 BRR  HZ EP       11 8 11.02                             152   -0.0810 61.5 240 
 BRR  HE ES       11 8 25.05                             152   -0.1810 61.5 240 
 BRR  HZ I        11 8 25.50        20.4 0.10            137           61.5 240 
 BAR2 SZ EP       11 8 13.51                             142    0.3110 87.9 177 
 BAR2 SZ ES   1   11 8 29.07                             142    0.09 7 87.9 177 
 PTB  HZ EP       11 8 19.36                             123   -0.51 9  165 235 
 PTB  HE ES       11 8 41.15                             123    0.29 9  165 235 
 PTB  HZ I        11 8 45.34         5.1 0.32            113            165 235 
 RUS  HN ES   1   11 8 42.14                             123   -0.05 7  166 174 
 RUS  HZ I        11 8 45.62         2.0 0.26            114            166 174 
 ZAR  HZ EP       11 8 21.03                             120   -0.44 9  180 274 
 ZAR  HE ES       11 8 44.13                             120    0.43 9  180 274 
 ZAR  HZ I        11 8 46.96         5.7 0.14            111            180 274 
 SML  HZ EP       11 8 22.09                             120    0.44 9  182 329 
 SML  HE ES   1   11 8 43.58                             120   -0.44 7  182 329 
 SML  HZ I        11 8 45.62         9.2 0.10            114            182 329 
 SPBC HZ EP   1   11 8 25.42                             116    0.29 6  213 206 
 SPBC HN ES   1   11 8 49.82                             116   -0.39 6  213 206 
 SPBC HZ I        11 8 59.84         4.4 0.22            107            213 206 
 HEL  HE ES   4   11 9  7.05                             109    1.45 0  286 243 
 HEL  HZ I        11 9 16.04         2.1 0.26            101            286 243 
 GUY2CHZ EP   4   11 8 41.23                             105    1.53 0  336 225 
 GUY2CHE ES   4   11 9 20.70                             105    4.55 0  336 225 
 GUY2CHZ I        11 9 25.94         1.2 0.28                           336 225 
                                                                                
