 2012  914 1353 21.0 L   6.743 -73.144140.3  RSN  8 0.3 2.1LRSN                1
 GAP=139        0.65       3.8     3.4  4.7  0.2071E+01  0.2508E+01  0.1618E+00E
 Epicentro: JORDAN - SANTANDER                                                 3
 ACTION:UPD 12-10-22 14:18 OP:ep   STATUS:               ID:20120914135321 L   I
 2012-09-14-1350-00M.COL___227                                                 6
 STAT SP IPHASW D HRMM SECON CODA AMPLIT PERI AZIMU VELO AIN AR TRES W  DIS CAZ7
 BAR2 SZ EP       1353 40.05                             173    0.1610 17.2 194 
 BAR2 SZ ES       1353 54.48                             173   -0.1210 17.2 194 
 BAR2 SZ I        1353 56.14        36.2 0.18                          17.2 194 
 GIR2 SZ EP       1353 40.07                             164   -0.1710 37.6 352 
 GIR2 SZ ES   1   1353 55.14                             164   -0.09 7 37.6 352 
 BRR  HZ EP       1353 42.02                             150    0.2310 74.6 303 
 BRR  HZ I        1353 44.16        33.6 0.13                          74.6 303 
 BRR  HN ES   1   1353 58.66                             150    0.68 7 74.6 303 
 PAM  SZ EP       1353 42.90                             148   -0.0710 82.3  37 
 PAM  SZ I        1353 43.36        43.2 0.25                          82.3  37 
 PAM  SN ES   2   1353 59.53                             148   -0.56 5 82.3  37 
 RUS  HZ EP   1   1353 44.06                             144    0.28 7 94.2 176 
 RUS  HE ES   1   1354  1.63                             144    0.09 7 94.2 176 
 RUS  HZ I        1354  3.55        11.7 0.36                          94.2 176 
 PTB  HZ EP   1   1353 47.14                             131   -0.33 7  147 261 
 PTB  HN ES   1   1354  7.49                             131   -0.61 7  147 261 
 PTB  HZ I        1354 10.12         9.1 0.13                           147 261 
 ZAR  HN ES       1354 18.70                             121    0.05 8  207 294 
 ZAR  HZ I        1354 24.29        15.9 0.23                           207 294 
 PRA  HZ EP   1   1354 13.72                             106   -0.01 4  387 210 
                                                                                
