 2017  814 1425 56.9 L   6.077 -73.703111.9  RSN 13 0.3 2.0LRSN                1
 GAP= 64        0.74       2.0     1.9  4.2 -0.1654E+00  0.2752E+01  0.1668E+01E
 Epicentro: CHIPATA - SANTANDER                                                3
 ACTION:UPD 17-09-04 20:20 OP:rebc STATUS:               ID:20170814142556 L   I
 OLDACT:REG 17-08-14 20:16 OP:lv   STATUS:               ID:20170814141740     3
 2017-08-14-1418-00M.COL___412                                                 6
 STAT SP IPHASW D HRMM SECON CODA AMPLIT PERI AZIMU VELO AIN AR TRES W  DIS CAZ7
 SPBC HZ EP       1426 13.71                             149   -0.3610 62.3 221 
 SPBC HN ES       1426 27.75                             149    0.3010 62.3 221 
 SPBC HZ I        1426 29.72        24.9 0.21            145           62.3 221 
 RUS  HZ EP       1426 15.23                             145   -0.0310 71.6 107 
 RUS  HN ES       1426 29.42                             145   -0.1510 71.6 107 
 RUS  HZ I        1426 30.68        13.7 0.26            144           71.6 107 
 BAR2 EZ EP       1426 15.71                             141    0.1210 81.0  45 
 BAR2 EZ ES       1426 29.98                             141   -0.1710 81.0  45 
 BAR2 EZ I        1426 32.59        60.9 0.22            139           81.0  45 
 BRR  HZ EP       1426 18.11                             131    0.0710  114 359 
 BRR  HN ES       1426 34.71                             131    0.1910  114 359 
 NOR  HZ EP       1426 20.72                             124   -0.03 9  141 246 
 NOR  HN ES       1426 39.18                             124   -0.15 9  141 246 
 NOR  HZ I        1426 41.17        21.7 0.22            120            141 246 
 CHI  HZ EP       1426 22.89                             121   -0.28 9  160 181 
 CHI  HN ES   4   1426 42.48                             121   -1.16 0  160 181 
 CHI  HZ I        1426 44.99         7.9 0.53            118            160 181 
 YPLC HZ EP       1426 23.17                             120   -0.04 9  165 117 
 YPLC HN ES       1426 44.05                             120    0.33 9  165 117 
 YPLC HZ I        1426 47.55        15.1 0.30            118            165 117 
 ZAR  HZ EP       1426 27.49                             114    0.30 9  202 321 
 ZAR  HN ES       1426 50.59                             114   -0.21 9  202 321 
 ZAR  HZ I        1426 55.63        12.1 0.26            111            202 321 
 HEL  HZ EP       1426 28.06                             114    0.36 9  202 274 
 HEL  HN ES       1426 51.27                             114   -0.44 9  202 274 
 HEL  HZ I        1426 56.07         6.7 0.29            111            202 274 
 GUY2CHZ EP       1426 28.63                             114    0.30 8  207 243 
 GUY2CHN ES   4   1426 54.31                             114    1.49 0  207 243 
 GUY2CHZ I        1426 57.77         9.8 0.72                           207 243 
 ANIL HN ES   2   1427  3.43                             108    0.76 4  257 227 
 ANIL HZ I        1427  6.20        13.5 0.26            107            257 227 
 PRA  HZ EP       1426 37.22                             105   -0.41 7  292 207 
 PRA  HN ES       1427  8.86                             105   -0.52 7  292 207 
 PRA  HZ I        1427 14.90         5.7 0.40            105            292 207 
 ORTC HZ EP       1426 37.68                             105   -0.20 7  295 216 
 ORTC HN ES       1427 10.67                             105    0.85 7  295 216 
 ORTC HZ I        1427 14.60         4.9 0.20            104            295 216 
                                                                                
