 2010  114 1305 49.9 L   6.856 -73.095146.0  RSN  6 0.3 2.1LRSN                1
 GAP=249        0.55       5.4     9.6 24.6  0.2867E+02 -0.9621E+02 -0.4883E+02E
 Epicentro: LOS SANTOS - SANTANDER                                             3
 ACTION:UP  10-08-24 09:44 OP:vdl  STATUS:               ID:20100114130550 L   I
 2010-01-14-1302-08S.COL___094                                                 6
 STAT SP IPHASW D HRMM SECON CODA AMPLIT PERI AZIMU VELO SNR AR TRES W  DIS CAZ7
 CHI  HZ EP       13 6 28.23                             116    -0.210  256 196 
 CHI  HZ I        13 6 30.89         4.1 0.39                           256 196 
 CHI  HN ES   2   13 6 59.13                             116     0.6 5  256 196 
 RREF BE ES   2   13 7 13.89                             110     0.1 4  330 229 
 RREF BZ I        13 7 18.69         6.3 0.23                           330 229 
 DBB  SZ EP   1   13 6 38.67                             109     0.6 6  345 273 
 TOL  SZ EP       13 6 39.26                             108     0.1 8  352 225 
 TOL  SZ ES   1   13 7 17.25                             108    -0.3 6  352 225 
 MON  HN ES   1   13 7 16.98                             108    -0.3 6  353 307 
 PRA  HZ EP   1   13 6 44.54                             106     0.1 6  400 210 
 PRA  HN ES   2   13 7 26.69                             106    -0.2 4  400 210 
 PRA  HZ I        13 7 32.01         5.2 0.36                           400 210 
                                                                                
