 2015  414 1137 15.7 L   6.395 -73.259  4.0  RSN 10 0.4 1.8LRSN                1
 GAP=130        0.92       1.9     2.2  4.4 -0.9343E+00  0.2769E+01 -0.1734E+01E
 Epicentro: PALMAS DEL SOCORRO - SANTANDER                                     3
 ACTION:UPD 15-06-03 16:54 OP:cam  STATUS:               ID:20150414113715 L   I
 OLDACT:REG 15-04-14 20:08 OP:spq  STATUS:               ID:20150414112749     3
 2015-04-14-1127-49M.COL___271                                                 6
 STAT SP IPHASW D HRMM SECON CODA AMPLIT PERI AZIMU VELO AIN AR TRES W  DIS CAZ7
 BAR2 EZ EP     D 1137 20.52                              47    0.4910 23.3  21 
 BAR2 EZ ES   1   1137 23.51                              47    0.07 7 23.3  21 
 BAR2 EZ I        1137 25.24       196.6 0.14             47           23.3  21 
 RUS  HZ EP       1137 25.89                              47    0.2110 58.9 161 
 RUS  HE ES   1   1137 33.27                              47   -0.23 7 58.9 161 
 RUS  HZ I        1137 33.63        25.7 0.18             47           58.9 161 
 BRR  HZ EP     D 1137 30.76                              47    0.3710 93.3 328 
 BRR  HN ES       1137 41.91                              47    0.0310 93.3 328 
 BRR  HZ I        1137 48.55        22.8 0.12             47           93.3 328 
 PAM  SZ EP   1   1137 34.87                              47   -0.26 7  121  31 
 PAM  SE ES       1137 49.54                              47   -0.7910  121  31 
 PAM  SZ I        1137 51.19        28.6 0.14             47            121  31 
 PTB  HZ EP       1137 36.55                              47    0.0710  133 277 
 PTB  HE ES       1137 52.18                              47   -0.5510  133 277 
 PTB  HZ I        1137 53.55        55.1 0.12             47            133 277 
 NOR  HZ EP   1   1137 45.95                              37   -0.10 6  201 243 
 NOR  HN ES       1138  9.93                              37    0.16 9  201 243 
 NOR  HZ I        1138 11.20         6.4 0.38             37            201 243 
 OCA  HE ES       1138 11.28                              37    0.55 9  204 358 
 ZAR  HN ES       1138 12.69                              37   -0.04 8  214 305 
 ZAR  HZ I        1138 14.61         7.9 0.26             37            214 305 
 HEL  HZ EP       1137 52.42                              37   -0.46 8  252 265 
 HEL  HN ES   4   1138 19.83                              37   -2.09 0  252 265 
 HEL  HZ I        1138 26.10         5.4 0.44             37            252 265 
 GUY2CHZ EP   4   1137 55.96                              37    1.13 0  267 241 
 GUY2CHE ES   1   1138 25.79                              37    0.39 6  267 241 
 GUY2CHZ I        1138 33.09         4.5 0.48                           267 241 
 SML  HE ES   4   1138 30.24                              37    2.77 0  281 341 
                                                                                
