 2010  214 1414  3.1 L   6.771 -72.918153.6  RSN  9 0.4 4.0LRSN                1
 GAP=216        0.61       4.6     8.4  7.4 -0.2314E+02  0.1481E+02  0.4657E+01E
 Epicentro: CEPITA - SANTANDER                                                 3
 ACTION:UP  10-08-24 09:49 OP:vdl  STATUS:               ID:20100214141403 L   I
 2010-02-14-1410-40S.COL___093                                                 6
 STAT SP IPHASW D HRMM SECON CODA AMPLIT PERI AZIMU VELO SNR AR TRES W  DIS CAZ7
 BAR2 SZ IP       1414 24.32                             167     0.310   35 236 
 BAR2 SZ ES   2   1414 39.79                             167    -0.5 5   35 236 
 OCA  SZ EP   1   1414 32.74                             130    -0.1 7  168 345 
 OCA  SZ ES   2   1414 55.75                             130    -0.2 5  168 345 
 CHI  HZ EP   1   1414 41.96                             118     0.2 6  253 201 
 CHI  HZ I        1414 45.03       401.7 0.35                           253 201 
 CHI  HE ES   2   1415 11.47                             118    -0.5 4  253 201 
 ROSC BN ES   2   1415 14.81                             117     0.9 4  264 216 
 ROSC BZ I        1415 19.82       455.9 0.65                           264 216 
 GUY  HZ EP   1   1414 49.54                             112     0.3 5  321 238 
 GUY  HN ES   2   1415 25.24                             112     0.0 3  321 238 
 RREF BZ EP   1   1414 51.21                             111    -0.4 5  339 233 
 RREF BN ES   2   1415 29.55                             111     0.1 3  339 233 
 RREF BZ I        1415 35.99       454.8 0.59                           339 233 
 TOL  SZ EP   1   1414 53.81                             110     0.3 5  359 228 
 TOL  SZ ES       1415 32.77                             110    -0.1 6  359 228 
 ANIL BZ EP   1   1414 54.76                             109    -0.3 5  373 228 
 ANIL BN ES   2   1415 35.49                             109    -0.1 3  373 228 
 ANIL BZ I        1415 45.13       707.2 0.45                           373 228 
 PRA  HZ EP   1   1414 57.11                             107    -1.0 4  402 213 
 PRA  HE ES   2   1415 40.81                             107    -0.2 3  402 213 
 PRA  HZ I        1415 46.18       271.6 0.41                           402 213 
                                                                                
