 2010  614 1001 49.4 L   6.761 -73.223146.8  RSN  7 0.3 1.4LRSN                1
 GAP=185        0.56       2.5    11.1  5.3 -0.1109E+02  0.1580E+02 -0.1231E+01E
 Epicentro: ZAPATOCA - SANTANDER                                               3
 ACTION:UP  10-08-24 10:10 OP:vdl  STATUS:               ID:20100614100149 L   I
 2010-06-14-0958-37S.COL___114                                                 6
 STAT SP IPHASW D HRMM SECON CODA AMPLIT PERI AZIMU VELO SNR AR TRES W  DIS CAZ7
 BAR2 SZ EP       10 2  9.03                             172     0.010   19 167 
 BAR2 SZ ES   2   10 2 24.59                             172     0.2 5   19 167 
 GIR2 SZ EP       10 2  9.35                             166     0.110   35   5 
 GIR2 SZ ES   2   10 2 25.58                             166     0.8 5   35   5 
 RUS  HZ EP       10 2 12.89                             145    -0.110   97 171 
 RUS  HE ES   1   10 2 31.17                             145    -0.3 7   97 171 
 RUS  HZ I        10 2 32.40         3.0 0.25                            97 171 
 BRI  SZ EP   1   10 2 14.13                             139     0.2 7  116  24 
 BRI  SZ ES   1   10 2 33.12                             139     0.0 7  116  24 
 GUE  SZ EP   1   10 2 14.79                             138     0.1 7  123  16 
 GUE  SZ ES       10 2 34.29                             138    -0.110  123  16 
 GRA  SZ EP       10 2 15.40                             135     0.110  133  20 
 GRA  SZ ES   1   10 2 35.48                             135     0.0 7  133  20 
 OCA  SZ EP   1   10 2 18.46                             129     0.4 7  164 356 
 OCA  SZ ES   1   10 2 39.93                             129    -0.6 7  164 356 
 OCA  SZ I        10 2 43.82         3.3 0.25                           164 356 
                                                                                
