 2015  714 1707 50.0 L   6.811 -73.258135.1  RSN 12 0.4 2.1LRSN                1
 GAP=114        0.89       2.2     4.0  5.9 -0.1303E+01  0.1446E+02 -0.8351E-01E
 Epicentro: ZAPATOCA - SANTANDER                                               3
 ACTION:UPD 15-09-08 21:48 OP:cam  STATUS:               ID:20150714170750 L   I
 OLDACT:UP  15-07-14 22:52 OP:ak   STATUS:               ID:20150714165749     3
 OLDACT:REG 15-07-14 22:10 OP:ak   STATUS:               ID:20150714165749     3
 2015-07-14-1657-49M.COL___343                                                 6
 STAT SP IPHASW D HRMM SECON CODA AMPLIT PERI AZIMU VELO AIN AR TRES W  DIS CAZ7
 BAR2 EZ EP       17 8  8.77                             169    0.3510 25.6 161 
 BAR2 EZ ES       17 8 23.17                             169    0.3910 25.6 161 
 BAR2 EZ I        17 8 26.12        22.5 0.29            169           25.6 161 
 PAM  EZ IP     D 17 8 11.81                             146    0.2010 85.0  47 
 PAM  EN ES       17 8 28.60                             146    0.1510 85.0  47 
 PAM  EZ I        17 8 30.93        41.5 0.58            150           85.0  47 
 RUS  HZ EP       17 8 13.04                             141    0.0810  103 169 
 RUS  HE ES       17 8 30.36                             141   -0.4910  103 169 
 RUS  HZ I        17 8 32.42        15.4 0.26            142            103 169 
 OCA  HZ EP   1   17 8 16.80                             127   -0.51 7  158 358 
 OCA  HN ES       17 8 38.20                             127   -0.39 9  158 358 
 OCA  HZ I        17 8 40.73        36.5 0.36            130            158 358 
 NOR  HZ EP   1   17 8 24.95                             117    0.80 6  225 232 
 NOR  HN ES       17 8 51.28                             117    0.52 8  225 232 
 NOR  HZ I        17 8 54.73         7.8 0.14            118            225 232 
 SML  HZ EP       17 8 25.15                             116   -0.25 8  238 338 
 SML  HN ES       17 8 52.99                             116   -0.01 8  238 338 
 SML  HZ I        17 9  1.15        14.2 0.10            117            238 338 
 CHI  HZ EP       17 8 26.77                             115   -0.19 8  247 192 
 CHI  HN ES       17 8 54.94                             115   -0.83 8  247 192 
 CHI  HZ I        17 9  3.93         2.6 0.24            116            247 192 
 GUY2CHZ EP   1   17 8 32.92                             111    0.83 5  292 233 
 GUY2CHE ES       17 9  4.41                             111   -0.50 7  292 233 
 GUY2CHZ I        17 9 16.21         3.6 0.44                           292 233 
 DBB  SZ EP       17 8 36.01                             108    0.37 7  327 274 
 DBB  SZ ES       17 9 10.73                             108   -0.49 7  327 274 
 MON  HN ES       17 9 14.32                             107   -0.06 7  343 309 
 MON  HZ I        17 9 16.05         9.3 0.20            108            343 309 
 PRA  HZ EP       17 8 43.03                             105    0.41 6  387 208 
 PRA  HN ES       17 9 23.34                             105   -0.30 6  387 208 
 PRA  HZ I        17 9 30.73         5.2 0.26            106            387 208 
 ORTC HZ EP   1   17 8 42.73                             105   -0.14 4  389 215 
 ORTC HN ES       17 9 24.44                             105    0.36 6  389 215 
 ORTC HZ I        17 9 31.77         3.4 0.38            106            389 215 
                                                                                
