 2017  914 1352 41.7 L   6.828 -73.152149.9  RSN 22 0.4 2.4LRSN                1
 GAP= 75        0.91       2.7     2.7  4.7  0.4371E-01  0.2860E+01  0.3058E+01E
 Epicentro: LOS SANTOS - SANTANDER                                             3
 ACTION:UPD 17-10-05 19:12 OP:rebc STATUS:               ID:20170914135241 L   I
 OLDACT:UP  17-09-14 22:08 OP:dnl  STATUS:               ID:20170914134739     3
 OLDACT:UP  17-09-14 22:07 OP:dnl  STATUS:               ID:20170914134739     3
 OLDACT:REG 17-09-14 20:34 OP:dnl  STATUS:               ID:20170914134739     3
 2017-09-14-1348-00M.COL___458                                                 6
 STAT SP IPHASW D HRMM SECON CODA AMPLIT PERI AZIMU VELO AIN AR TRES W  DIS CAZ7
 BAR2 EZ IP     C 1353  1.79                             170   -0.1310 26.2 187 
 BAR2 EZ ES       1353 17.11                             170   -0.5610 26.2 187 
 BAR2 EZ I        1353 19.59        56.0 0.46            169           26.2 187 
 BRR  HZ IP     C 1353  3.57                             154    0.3610 69.1 297 
 BRR  HN ES       1353 20.67                             154    0.7010 69.1 297 
 BRR  HZ I        1353 23.80        44.4 0.28            147           69.1 297 
 PAM  EZ EP       1353  4.76                             152    0.4810 75.5  41 
 PAM  EE ES       1353 22.20                             152    0.3310 75.5  41 
 PAM  EZ I        1353 24.01        37.9 0.48            149           75.5  41 
 RUS  HZ EP       1353  5.81                             144   -0.3010  104 176 
 RUS  HN ES       1353 25.02                             144   -0.1110  104 176 
 RUS  HZ I        1353 25.54        26.3 0.22            141            104 176 
 TAM  HZ IP     D 1353 10.26                             131    0.39 9  157 106 
 TAM  HZ I        1353 29.32        10.1 0.32            129            157 106 
 TAM  HN ES       1353 30.85                             131   -0.98 9  157 106 
 SPBC HZ EP   2   1353 10.84                             130    0.11 5  165 218 
 SPBC HE ES       1353 33.15                             130   -0.20 9  165 218 
 SPBC HZ I        1353 38.23        42.7 0.24            125            165 218 
 YPLC HZ EP       1353 12.26                             127    0.14 9  180 152 
 YPLC HN ES       1353 36.34                             127    0.51 9  180 152 
 YPLC HZ I        1353 37.18        38.6 0.26            124            180 152 
 ZAR  HZ EP   2   1353 14.26                             123   -0.00 4  202 291 
 ZAR  HE ES       1353 39.48                             123   -0.16 9  202 291 
 ZAR  HZ I        1353 50.07        28.5 0.44            118            202 291 
 NOR  HZ EP       1353 17.60                             119   -0.23 8  236 234 
 NOR  HN ES       1353 45.62                             119   -0.37 8  236 234 
 NOR  HZ I        1353 50.50        19.4 0.24            115            236 234 
 CHI  HZ EP       1353 20.10                             118    0.14 8  251 195 
 CHI  HE ES       1353 49.71                             118   -0.07 8  251 195 
 CHI  HZ I        1353 52.58        11.6 0.40            114            251 195 
 ROSC BZ EP   4   1353 22.01                             117    1.69 0  255 211 
 ROSC BE ES   4   1353 54.48                             117    4.06 0  255 211 
 ROSC BZ I        1353 57.90        17.5 0.35            113            255 211 
 HEL  HZ EP   4   1353 23.12                             116    0.96 0  272 255 
 HEL  HE ES   4   1353 52.77                             116   -0.93 0  272 255 
 HEL  HZ I        1354  1.39        13.0 0.42            111            272 255 
 URE  HZ EP   2   1353 22.51                             114   -0.29 4  282 291 
 URE  HN ES   4   1353 53.51                             114   -1.33 0  282 291 
 URE  HZ I        1354  6.33        11.8 0.18            110            282 291 
 GUY2CHZ EP   4   1353 27.20                             113    1.54 0  302 234 
 GUY2CHN ES   4   1354  4.38                             113    4.45 0  302 234 
 GUY2CHZ I        1354  6.99        10.9 0.24                           302 234 
 VIL  EZ EP   2   1353 25.52                             113   -0.14 4  306 191 
 VIL  EE ES       1354  0.13                             113    0.21 7  306 191 
 VIL  EZ I        1354  2.80        20.1 0.34            109            306 191 
 ELA  HZ EP   4   1353 31.83                             111    2.91 0  331 229 
 ELA  HN ES   4   1354  7.15                             111    1.42 0  331 229 
 ELA  HZ I        1354 21.24         9.0 0.44            107            331 229 
 CBOC HZ EP   2   1353 29.30                             111    0.45 3  334 252 
 CBOC HE ES       1354  5.44                             111   -0.16 7  334 252 
 CBOC HZ I        1354 22.53         4.8 0.70            107            334 252 
 DBB  EZ EP   2   1353 28.78                             110   -0.49 3  339 274 
 DBB  EN ES   4   1354  5.05                             110   -1.30 0  339 274 
 DBB  EZ I        1354  7.40         6.1 0.64            106            339 274 
 ANIL HZ EP   2   1353 32.06                             109    0.17 3  359 224 
 ANIL HE ES   4   1354 13.11                             109    2.10 0  359 224 
 PRA  HZ EP   2   1353 35.58                             107   -0.08 3  394 209 
 PRA  HN ES       1354 17.33                             107   -0.40 6  394 209 
 PRA  HZ I        1354 21.81         8.8 0.24            104            394 209 
 ORTC HZ EP   2   1353 36.17                             107    0.14 3  397 216 
 ORTC HN ES       1354 19.26                             107    0.87 6  397 216 
 ORTC HZ I        1354 25.75         5.8 0.20            104            397 216 
 SJC  HZ EP       1353 36.02                             106   -1.06 6  406 327 
 SJC  HN ES   4   1354 16.97                             106   -3.29 0  406 327 
 SJC  HZ I        1354 24.65         3.7 0.26            103            406 327 
                                                                                
