 2017  714 1732  7.4 L   6.765 -73.158139.2  RSN 12 0.5 1.9LRSN                1
 GAP=112        1.04       3.6     3.3  5.6  0.1337E+01  0.6398E+01  0.5496E+01E
 Epicentro: LOS SANTOS - SANTANDER                                             3
 ACTION:UPD 17-08-30 15:33 OP:rebc STATUS:               ID:20170714173207 L   I
 OLDACT:REG 17-07-14 20:32 OP:lv   STATUS:               ID:20170714172746     3
 2017-07-14-1728-00M.COL___389                                                 6
 STAT SP IPHASW D HRMM SECON CODA AMPLIT PERI AZIMU VELO AIN AR TRES W  DIS CAZ7
 BAR2 EZ EP       1732 26.19                             172    0.0110 19.3 188 
 BAR2 EZ ES       1732 40.65                             172   -0.1710 19.3 188 
 BAR2 EZ I        1732 42.21        31.6 0.12            170           19.3 188 
 BRR  HZ EP       1732 27.94                             151    0.0310 72.0 302 
 BRR  HE ES       1732 44.86                             151    0.9710 72.0 302 
 BRR  HZ I        1732 48.97        20.1 0.23            150           72.0 302 
 PAM  EZ EP       1732 28.93                             148   -0.2510 81.3  39 
 PAM  EN ES       1732 45.97                             148   -0.1910 81.3  39 
 PAM  EZ I        1732 48.25         7.8 0.32            153           81.3  39 
 RUS  HZ EP       1732 29.89                             143   -0.3610 96.8 175 
 RUS  HN ES       1732 48.05                             143   -0.0110 96.8 175 
 RUS  HZ I        1732 49.47        16.6 0.21            145           96.8 175 
 PTB  HZ EP       1732 33.09                             131   -0.58 9  146 260 
 PTB  HN ES       1732 53.38                             131   -0.76 9  146 260 
 PTB  HZ I        1732 56.71        10.3 0.06            131            146 260 
 SPBC HN ES   3   1732 57.71                             128    1.11 2  159 219 
 YPLC HZ EP       1732 36.47                             126    0.00 9  174 150 
 YPLC HN ES       1732 59.42                             126    0.29 9  174 150 
 ZAR  HZ EP       1732 39.42                             121   -0.05 9  204 293 
 ZAR  HN ES       1733  4.84                             121    0.37 9  204 293 
 ZAR  HZ I        1733 10.29                             122            204 293 
 NOR  HZ EP       1732 42.76                             117    0.35 8  231 235 
 NOR  HN ES       1733 10.03                             117    0.33 8  231 235 
 NOR  HZ I        1733 16.71         5.8 0.23            118            231 235 
 HEL  HZ EP       1732 47.17                             114    0.12 8  270 257 
 HEL  HE ES       1733 17.31                             114   -0.65 8  270 257 
 HEL  HZ I        1733 24.45         3.2 0.10            115            270 257 
 GUY2CHZ EP       1732 51.05                             111    0.71 7  298 235 
 GUY2CHN ES       1733 23.29                             111   -0.54 7  298 235 
 PTGC HZ EP   4   1732 49.31                             110   -1.32 0  306 158 
 ORTC HZ EP       1733  1.40                             105    0.75 6  391 216 
 ORTC HN ES       1733 42.53                             105    0.35 6  391 216 
 ORTC HZ I        1733 49.48         4.0 0.24            107            391 216 
                                                                                
