 2014  114 1913 47.2 L   6.816 -73.145151.8  RSN  8 0.5 1.9LRSN                1
 GAP=136        1.34       3.9     6.9  9.7 -0.3464E+01  0.1540E+01  0.2986E+01E
 Epicentro: LOS SANTOS - SANTANDER                                             3
 ACTION:UPD 14-03-13 09:55 OP:ep   STATUS:               ID:20140114191347 L   I
 OLDACT:REG 14-01-14 14:49 OP:carl STATUS:               ID:20140114191000     3
 2014-01-14-1910-00M.COL___285                                                 6
 STAT SP IPHASW D HRMM SECON CODA AMPLIT PERI AZIMU VELO AIN AR TRES W  DIS CAZ7
 BRR  HN ES       1914 27.24                             154    1.2710 70.5 297 
 BRR  HZ I        1914 29.96        26.4 0.34            154           70.5 297 
 PAM  SZ EP       1914 10.49                             152    0.4810 76.0  40 
 PAM  SN ES       1914 27.49                             152   -0.2910 76.0  40 
 PAM  SZ I        1914 29.85        15.2 0.56            154           76.0  40 
 RUS  HZ EP       1914 11.61                             145   -0.0910  102 176 
 RUS  HN ES       1914 30.61                             145   -0.1810  102 176 
 RUS  HZ I        1914 32.01         6.6 0.22            146            102 176 
 PTB  HN ES       1914 35.68                             133   -0.51 9  148 258 
 OCA  HN ES       1914 37.40                             131   -0.78 9  159 353 
 OCA  HZ I        1914 41.51         6.0 0.20            132            159 353 
 SPBC HZ EP   4   1914  7.50                             130   -8.83 0  165 219 
 SPBC HN ES       1914 38.83                             130   -0.20 9  165 219 
 SML  HZ EP       1914 24.36                             119    0.33 8  242 335 
 SML  HN ES       1914 52.42                             119   -0.32 8  242 335 
 SML  HZ I        1914 55.56         9.8 0.32            120            242 335 
 CHI  HZ EP       1914 25.83                             118    0.38 8  250 195 
 CHI  HN ES       1914 55.00                             118   -0.27 8  250 195 
 CHI  HZ I        1915  0.57         2.3 0.26            119            250 195 
                                                                                
