 2012  514 1020 49.7 L   6.694 -73.161156.4  RSN  4 0.5 1.4LRSN                1
 GAP=228        0.91      13.6    15.0 13.4  0.8723E+02  0.4129E+02  0.3702E+02E
 Epicentro: VILLANUEVA - SANTANDER                                             3
 ACTION:UP  12-07-05 12:05 OP:pat  STATUS:               ID:20120514102049 L   I
 2012-05-14-1020-00M.COL___195                                                 6
 STAT SP IPHASW D HRMM SECON CODA AMPLIT PERI AZIMU VELO SNR AR TRES W  DIS CAZ7
 BAR2 SZ EP   2   1021  9.44                             175    -1.0 5   11 192 
 BRR  HZ EP   2   1021 12.22                             153     0.0 5   76 307 
 BRR  HZ I        1021 13.98        11.7 0.46                            76 307 
 BRR  HE ES   1   1021 30.05                             153     0.2 8   76 307 
 RUS  HN ES   2   1021 32.84                             149     0.3 5   89 174 
 RUS  HZ I        1021 34.70         2.1 0.32                            89 174 
 PTB  HZ EP       1021 17.52                             135     0.310  144 263 
 PTB  HN ES   2   1021 38.01                             135    -0.7 5  144 263 
 PTB  HZ I        1021 42.82         1.6 0.46                           144 263 
                                                                                
