 2014 1014 1340 47.3 L   6.796 -73.143145.4  RSN 14 0.5 2.0LRSN                1
 GAP=137        0.91       2.7     3.6  5.3 -0.8420E+00  0.5336E+01  0.2046E+01E
 Epicentro: LOS SANTOS - SANTANDER                                             3
 ACTION:UPD 14-11-29 23:49 OP:nd   STATUS:               ID:20141014134047 L   I
 OLDACT:REG 14-10-14 20:29 OP:fm   STATUS:               ID:20141014133748     3
 2014-10-14-1337-48M.COL___288                                                 6
 STAT SP IPHASW D HRMM SECON CODA AMPLIT PERI AZIMU VELO AIN AR TRES W  DIS CAZ7
 BAR2 SZ EP       1341  7.08                             171    0.1910 22.9 191 
 BAR2 SZ ES   1   1341 22.74                             171    0.58 7 22.9 191 
 BAR2 SZ I        1341 25.04        34.8 0.36            167           22.9 191 
 BRR  HZ EP   1   1341  8.73                             152    0.28 7 71.7 299 
 BRR  HN ES       1341 25.19                             152    0.2510 71.7 299 
 BRR  HZ I        1341 26.98        14.1 0.40            151           71.7 299 
 PAM  SZ EP       1341  9.88                             151    0.3810 77.6  39 
 PAM  SN ES       1341 26.82                             151    0.0110 77.6  39 
 PAM  SZ I        1341 28.24         9.6 0.18            156           77.6  39 
 RUS  HZ EP       1341 10.74                             144   -0.2510  100 176 
 RUS  HN ES       1341 28.98                             144   -0.4810  100 176 
 RUS  HZ I        1341 30.74         8.2 0.26            144            100 176 
 PTB  HZ EP       1341 13.69                             132   -0.58 9  148 259 
 PTB  HN ES       1341 35.10                             132   -0.19 9  148 259 
 PTB  HZ I        1341 42.33        15.4 0.34            131            148 259 
 SPBC HZ EP       1341 15.81                             129    0.05 9  163 219 
 SPBC HE ES       1341 37.94                             129   -0.02 9  163 219 
 SPBC HZ I        1341 40.99        17.5 0.34            128            163 219 
 ZAR  HZ EP   1   1341 20.05                             122    0.27 6  205 292 
 ZAR  HN ES       1341 45.02                             122   -0.09 9  205 292 
 ZAR  HZ I        1341 51.21        12.2 0.40            122            205 292 
 SML  HZ EP   1   1341 23.95                             117   -0.03 6  244 335 
 SML  HE ES       1341 51.97                             117   -0.61 8  244 335 
 SML  HZ I        1341 55.40        16.0 0.10            119            244 335 
 CHI  HZ EP   1   1341 24.11                             117   -0.84 6  248 195 
 CHI  HN ES   1   1341 54.37                             117    0.07 6  248 195 
 CHI  HZ I        1342  4.28         3.5 0.30            117            248 195 
 GUY2CHZ EP   1   1341 32.39                             112    1.49 5  301 235 
 GUY2CHN ES       1342  4.72                             112   -0.18 7  301 235 
 GUY2CHZ I        1342 15.88         6.3 0.50                           301 235 
 RREF HZ EP   4   1341 30.96                             111   -2.47 0  322 229 
 RREF HE ES   4   1342  8.29                             111   -1.11 0  322 229 
 RREF HZ I        1342 12.63         5.0 0.28            111            322 229 
 TOL  SN ES   1   1342 14.03                             109    0.88 5  343 225 
 TOL  SZ I        1342 19.71        11.0 0.28            110            343 225 
 PRA  HZ EP   1   1341 41.33                             106    0.54 4  392 210 
 PRA  HN ES   1   1342 22.13                             106   -0.37 4  392 210 
 PRA  HZ I        1342 27.31         3.3 0.30            107            392 210 
 ORTC HE ES   1   1342 23.75                             106    0.53 4  395 216 
 ORTC HZ I        1342 31.04         2.4 0.58            107            395 216 
                                                                                
