 2017  414 1451 45.5 L   6.779 -73.145140.4  RSN  6 0.3 1.4LRSN                1
 GAP=138        0.83       4.1     3.7  6.2  0.1062E+01  0.5363E+01  0.4419E-02E
 Epicentro: LOS SANTOS - SANTANDER                                             3
 ACTION:UPD 17-05-30 21:12 OP:jn   STATUS:               ID:20170414145145 L   I
 OLDACT:REG 17-04-14 19:53 OP:cara STATUS:               ID:20170414144738     3
 2017-04-14-1448-00M.COL___374                                                 6
 STAT SP IPHASW D HRMM SECON CODA AMPLIT PERI AZIMU VELO AIN AR TRES W  DIS CAZ7
 BAR2 EZ ES       1452 19.46                             171    0.2110 21.1 191 
 BRR  HZ IP       1452  6.30                             151    0.1310 72.4 300 
 BRR  HN ES       1452 22.71                             151    0.4410 72.4 300 
 BRR  HZ I        1452 32.10         5.9 0.38            150           72.4 300 
 PAM  EZ IP       1452  7.27                             149   -0.0210 79.2  38 
 PAM  EN ES       1452 23.83                             149   -0.4310 79.2  38 
 PAM  EZ I        1452 28.97         3.6 0.40            151           79.2  38 
 RUS  HZ IP       1452  8.95                             143    0.3610 98.3 176 
 RUS  HN ES       1452 26.43                             143   -0.1510 98.3 176 
 RUS  HZ I        1452 28.16         3.1 0.26            151           98.3 176 
 PTB  HZ EP       1452 11.87                             131   -0.16 9  147 260 
 PTB  HE ES       1452 32.11                             131   -0.59 9  147 260 
 ZAR  HN ES       1452 43.00                             121    0.16 9  205 293 
 ZAR  HZ I        1452 49.63         2.8 0.18            124            205 293 
                                                                                
