 2011  214 1603 41.1 L   6.194 -73.745102.0  RSN  4 0.1 1.0LRSN                1
 GAP=152        0.37       4.5     4.0  7.1 -0.1114E+02  0.1657E+02 -0.1074E+02E
 Epicentro: LANDAZURI - SANTANDER                                              3
 ACTION:UP  11-03-28 15:08 OP:jfem STATUS:               ID:20110214160341 L   I
 2011-02-14-1601-26S.COL___136                                                 6
 STAT SP IPHASW D HRMM SECON CODA AMPLIT PERI AZIMU VELO SNR AR TRES W  DIS CAZ7
 BAR2 SZ EP   1   16 3 58.48                             141     0.1 7   76  55 
 BAR2 SZ ES   1   16 4 12.11                             141     0.2 7   76  55 
 BAR2 SZ I        16 4 13.24         4.5 0.15                            76  55 
 RUS  HZ EP   2   16 3 59.25                             140     0.1 5   81 114 
 RUS  HN ES   2   16 4 13.00                             140    -0.2 5   81 114 
 RUS  HZ I        16 4 15.23         1.6 0.11                            81 114 
 BTL  SZ EP       16 3 59.95                             134    -0.110   96  33 
 NOR  SZ EP   2   16 4  4.55                             121     0.1 5  143 241 
 NOR  SE ES   2   16 4 22.64                             121     0.0 5  143 241 
                                                                                
