 2017  614 1810 11.6 L   6.869 -73.267152.2  RSN  5 0.2 1.9LRSN                1
 GAP=263        0.74       6.8     8.8  6.9 -0.3446E+02 -0.3022E+02  0.2095E+02E
 Epicentro: BETULIA - SANTANDER                                                3
 ACTION:UPD 17-09-14 16:52 OP:jn   STATUS:               ID:20170614181011 L   I
 OLDACT:UP  17-06-15 00:38 OP:dani STATUS:               ID:20170614180729     3
 OLDACT:REG 17-06-14 21:27 OP:dani STATUS:               ID:20170614180729     3
 2017-06-14-1808-00M.COL___368                                                 6
 STAT SP IPHASW D HRMM SECON CODA AMPLIT PERI AZIMU VELO AIN AR TRES W  DIS CAZ7
 BRR  HZ EP     C 1810 32.77                             158    0.1310 55.8 298 
 BRR  HE ES       1810 49.05                             158   -0.0410 55.8 298 
 BRR  HZ I        1810 52.64        17.0 0.14            148           55.8 298 
 PTB  HZ EP       1810 37.95                             136   -0.12 9  136 255 
 PTB  HN ES       1810 58.74                             136   -0.02 9  136 255 
 PTB  HZ I        1811  3.85         7.3 0.16            130            136 255 
 ZAR  HZ EP   9   1810 44.26                             126    1.36 0  189 292 
 ZAR  HE ES       1811  9.53                             124    0.82 9  189 292 
 ZAR  HZ I        1811 14.42         9.5 0.30            121            189 292 
 NOR  HZ EP       1810 47.31                             121    0.28 8  229 231 
 NOR  HN ES       1811 14.65                             121   -0.05 8  229 231 
 NOR  HZ I        1811 21.32         5.5 0.18            118            229 231 
 SJC  HZ EP       1811  5.40                             107   -0.35 6  396 328 
 SJC  HN ES   3   1811 47.45                             107   -0.56 1  396 328 
 SJC  HZ I        1811 50.72         2.3 0.38            106            396 328 
                                                                                
