 2017  914 1500 54.1 L   6.795 -73.157146.9  RSN  6 0.3 1.6LRSN                1
 GAP=135        0.80       3.9     4.0  6.7 -0.1155E+01  0.7778E+01  0.1014E+01E
 Epicentro: LOS SANTOS - SANTANDER                                             3
 ACTION:UPD 17-10-05 19:12 OP:rebc STATUS:               ID:20170914150054 L   I
 OLDACT:REG 17-09-14 20:37 OP:dnl  STATUS:               ID:20170914145739     3
 2017-09-14-1458-00M.COL___455                                                 6
 STAT SP IPHASW D HRMM SECON CODA AMPLIT PERI AZIMU VELO AIN AR TRES W  DIS CAZ7
 BAR2 EZ EP       15 1 13.64                             171   -0.1710 22.5 187 
 BAR2 EZ ES       15 1 29.06                             171   -0.1610 22.5 187 
 BAR2 EZ I        15 1 31.45         9.7 0.30            171           22.5 187 
 BRR  HZ EP   2   15 1 15.61                             153    0.33 5 70.4 299 
 BRR  HN ES       15 1 32.54                             153    0.7010 70.4 299 
 BRR  HZ I        15 1 34.84        11.6 0.34            150           70.4 299 
 PAM  EZ IP     C 15 1 16.64                             151    0.1710 78.6  40 
 PAM  EN ES       15 1 33.65                             151   -0.3010 78.6  40 
 PAM  EZ I        15 1 36.15         4.6 0.34            153           78.6  40 
 RUS  HZ EP   2   15 1 18.04                             144    0.16 5  100 175 
 RUS  HN ES       15 1 36.47                             144    0.0010  100 175 
 RUS  HZ I        15 1 37.70         3.5 0.30            147            100 175 
 ZAR  HN ES       15 1 51.22                             123   -0.56 9  203 292 
 ZAR  HZ I        15 1 58.76         3.8 0.28            123            203 292 
 NOR  HZ EP   2   15 1 30.11                             119    0.40 4  233 234 
 NOR  HN ES       15 1 57.46                             119   -0.05 8  233 234 
 NOR  HZ I        15 2  0.50         3.0 0.28            120            233 234 
                                                                                
