 2010  914 1831 58.1 L   6.853 -72.997137.1  RSN  4 0.5 1.5LRSN                1
 GAP=255        0.87      14.2    26.1 11.9  0.2722E+03 -0.5582E+02  0.6035E-01E
 Epicentro: CEPITA - SANTANDER                                                 3
 ACTION:UP  11-02-18 11:02 OP:tino STATUS:               ID:20100914183158 L   I
 2010-09-14-1830-00S.COL___113                                                 6
 STAT SP IPHASW D HRMM SECON CODA AMPLIT PERI AZIMU VELO SNR AR TRES W  DIS CAZ7
 BAR2 SZ EP   1   1832 17.23                             165     0.2 7   36 216 
 BAR2 SZ ES   2   1832 32.45                             165     0.7 5   36 216 
 BRR  HZ EP   1   1832 18.67                             147    -0.4 7   84 290 
 BRR  HN ES   2   1832 35.61                             147     0.1 5   84 290 
 BRR  HZ I        1832 36.34        14.5 0.28                            84 290 
 RUS  HZ EP   1   1832 21.31                             140    -0.1 7  107 185 
 RUS  HN ES   2   1832 38.79                             140    -0.9 5  107 185 
 RUS  HZ I        1832 41.63         2.3 0.45                           107 185 
 CHI  HZ EP   1   1832 37.02                             114     0.6 6  259 198 
                                                                                
