 2014  814 1305  0.7 L   6.804 -73.144148.6  RSN 24 0.4 2.4LRSN                1
 GAP=119        0.92       2.3     3.2  4.5 -0.7668E+00  0.1767E+01  0.2882E+01E
 Epicentro: LOS SANTOS - SANTANDER                                             3
 ACTION:UPD 14-09-15 21:49 OP:nd   STATUS:               ID:20140814130500 L   I
 OLDACT:REG 14-08-14 21:12 OP:spq  STATUS:               ID:20140814125818     3
 2014-08-14-1258-18M.COL___263                                                 6
 STAT SP IPHASW D HRMM SECON CODA AMPLIT PERI AZIMU VELO AIN AR TRES W  DIS CAZ7
 BAR2 SZ EP       13 5 20.64                             170   -0.0410 23.8 190 
 BAR2 SZ ES   1   13 5 35.87                             170   -0.40 7 23.8 190 
 BAR2 SZ I        13 5 37.18       123.1 0.28            168           23.8 190 
 BRR  HZ IP     C 13 5 22.43                             153    0.2810 71.1 298 
 BRR  HN ES       13 5 39.46                             153    0.5810 71.1 298 
 BRR  HZ I        13 5 43.43        47.0 0.32            151           71.1 298 
 PAM  SZ EP       13 5 23.41                             151    0.2210 76.9  40 
 PAM  SE ES       13 5 40.69                             151   -0.0410 76.9  40 
 PAM  SZ I        13 5 43.87        18.3 0.48            149           76.9  40 
 RUS  HZ EP       13 5 24.56                             144   -0.2010  101 176 
 RUS  HN ES   1   13 5 43.38                             144   -0.16 7  101 176 
 RUS  HZ I        13 5 44.74        21.7 0.20                           101 176 
 PTB  HZ EP       13 5 27.37                             133   -0.55 9  148 259 
 PTB  HE ES       13 5 48.54                             133   -0.62 9  148 259 
 PTB  HZ I        13 5 50.99        23.9 0.16            128            148 259 
 OCA  HZ EP       13 5 28.71                             130   -0.48 9  160 353 
 OCA  HN ES       13 5 52.07                             130    0.66 9  160 353 
 OCA  HZ I        13 5 59.10        19.2 0.24            127            160 353 
 SPBC HZ EP       13 5 29.46                             130   -0.00 9  164 219 
 SPBC HE ES       13 5 51.89                             130   -0.01 9  164 219 
 SPBC HZ I        13 5 56.51        31.3 0.22            125            164 219 
 ZAR  HZ EP       13 5 33.52                             123    0.19 9  204 292 
 ZAR  HN ES       13 5 58.55                             123   -0.23 9  204 292 
 ZAR  HZ I        13 6  3.82        17.3 0.30            119            204 292 
 NOR  HZ EP       13 5 36.83                             119    0.19 8  235 234 
 NOR  HN ES       13 6  4.51                             119   -0.16 8  235 234 
 NOR  HZ I        13 6 11.42        14.8 0.22                           235 234 
 SML  HZ EP       13 5 37.05                             118   -0.39 8  243 335 
 SML  HN ES   1   13 6  5.49                             118   -0.61 6  243 335 
 SML  HZ I        13 6  7.84        31.4 0.10                           243 335 
 CHI  HZ EP       13 5 38.91                             118    0.30 8  249 195 
 CHI  HN ES   1   13 6  8.36                             118    0.18 6  249 195 
 CHI  HZ I        13 6 11.68        12.2 0.62                           249 195 
 ROSC BZ EP   4   13 5 40.81                             117    1.78 0  253 211 
 ROSC BE ES   4   13 6 10.86                             117    1.93 0  253 211 
 ROSC BZ I        13 6 15.14        29.3 0.40                           253 211 
 HEL  HZ EP   4   13 5 42.38                             115    1.29 0  272 256 
 HEL  HN ES       13 6 13.08                             115    0.49 8  272 256 
 HEL  HZ I        13 6 20.95         8.2 0.28                           272 256 
 URE  HN ES   4   13 6 16.81                             114    2.77 0  284 292 
 URE  HZ I        13 6 22.03        11.2 0.14                           284 292 
 GUY2CHZ EP       13 5 45.30                             113    0.81 7  302 235 
 GUY2CHE ES   4   13 6 21.52                             113    2.88 0  302 235 
 GUY2CHZ I        13 6 27.06        11.5 0.58                           302 235 
 VIL  SZ EP       13 5 44.46                             112    0.16 7  304 192 
 VIL  SN ES       13 6 18.46                             112    0.14 7  304 192 
 VIL  SZ I        13 6 24.19        20.0 0.32                           304 192 
 PTGC HZ IP     C 13 5 43.87                             112   -0.86 7  309 159 
 PTGC HZ I        13 6 27.57        26.9 0.34                           309 159 
 RREF HZ EP   4   13 5 48.61                             111    1.59 0  322 229 
 RREF HN ES   4   13 6 25.84                             111    2.70 0  322 229 
 RREF HZ I        13 6 27.92        11.0 0.24                           322 229 
 DBB  SZ ES   1   13 6 24.52                             110   -0.92 5  340 274 
 DBB  SZ I        13 6 28.28        26.8 0.46                           340 274 
 TOL  SZ EP       13 5 49.95                             110    0.83 7  344 225 
 TOL  SN ES   4   13 6 28.15                             110    1.26 0  344 225 
 TOL  SZ I        13 6 34.52        19.8 0.38                           344 225 
 ANIL HN ES   4   13 6 31.29                             109    1.65 0  358 224 
 ANIL HZ I        13 6 40.74         3.1 0.36                           358 224 
 PRA  HZ EP       13 5 54.16                             107   -0.22 6  393 210 
 PRA  HN ES       13 6 36.37                             107    0.12 6  393 210 
 PRA  HZ I        13 6 42.91        14.6 0.38                           393 210 
 ORTC HZ EP       13 5 55.06                             107    0.29 6  396 216 
 ORTC HE ES   4   13 6 39.82                             107    2.87 0  396 216 
 ORTC HZ I        13 6 44.03         6.1 0.42                           396 216 
 SJC  HZ EP   4   13 5 54.82                             106   -1.50 0  409 327 
 SJC  HE ES   4   13 6 37.04                             106   -2.66 0  409 327 
 SJC  HZ I        13 6 48.05         4.3 0.30                           409 327 
                                                                                
