 2015  714 1700 38.1 L   6.860 -73.160139.7  RSN  5 0.5 1.6LRSN                1
 GAP=132        1.07       4.4     8.2  9.8 -0.1002E+02  0.4868E+02 -0.1196E+02E
 Epicentro: ZAPATOCA - SANTANDER                                               3
 ACTION:UPD 15-09-08 21:48 OP:cam  STATUS:               ID:20150714170038 L   I
 OLDACT:UP  15-07-14 23:01 OP:ak   STATUS:               ID:20150714165750d    3
 OLDACT:DUP 15-07-14 22:53 OP:ak   STATUS:               ID:20150714165750d    3
 OLDACT:UP  15-07-14 22:52 OP:ak   STATUS:               ID:20150714165749     3
 OLDACT:REG 15-07-14 22:10 OP:ak   STATUS:               ID:20150714165749     3
 2015-07-14-1657-49M.COL___343                                                 6
 STAT SP IPHASW D HRMM SECON CODA AMPLIT PERI AZIMU VELO AIN AR TRES W  DIS CAZ7
 BAR2 EZ EP       17 0 57.28                             167    0.1310 29.7 185 
 BAR2 EZ ES       17 1 12.05                             167    0.0410 29.7 185 
 BAR2 EZ I        17 1 14.75         7.7 0.26            170           29.7 185 
 PAM  EZ EP       17 0 59.98                             151    0.5410 73.4  44 
 PAM  EE ES       17 1 16.32                             151    0.2410 73.4  44 
 PAM  EZ I        17 1 19.68         4.9 0.24            152           73.4  44 
 RUS  HZ EP   1   17 1  1.25                             141   -0.52 7  107 175 
 RUS  HE ES       17 1 19.66                             141   -0.5710  107 175 
 SML  HZ EP   1   17 1 14.02                             117    0.36 6  237 335 
 SML  HN ES       17 1 40.66                             117   -0.74 8  237 335 
 GUY2CHZ EP   1   17 1 21.26                             111   -0.47 5  304 234 
 GUY2CHN ES       17 1 56.53                             111    0.76 7  304 234 
 GUY2CHZ I        17 2  3.66         3.0 0.50                           304 234 
                                                                                
