 2017  214 1658 52.3 L   6.710 -73.158140.7  RSN  6 0.3 1.5LRSN                1
 GAP=139        0.76       3.7     3.4  5.6  0.1012E+01  0.3815E+01 -0.1646E+00E
 Epicentro: VILLANUEVA - SANTANDER                                             3
 ACTION:UPD 17-05-24 15:36 OP:jn   STATUS:               ID:20170214165852 L   I
 OLDACT:REG 17-02-14 21:08 OP:cara STATUS:               ID:20170214165748     3
 2017-02-14-1658-00M.COL___358                                                 6
 STAT SP IPHASW D HRMM SECON CODA AMPLIT PERI AZIMU VELO AIN AR TRES W  DIS CAZ7
 BAR2 EZ EP       1659 11.68                             174    0.5710 13.3 192 
 BAR2 EZ ES       1659 25.56                             174   -0.2510 13.3 192 
 BAR2 EZ I        1659 27.49         8.4 0.16            173           13.3 192 
 BRR  HZ EP       1659 12.77                             150   -0.3310 75.3 306 
 BRR  HN ES       1659 29.61                             150    0.2510 75.3 306 
 PAM  EZ EP       1659 14.65                             147    0.1710 86.1  36 
 PAM  EN ES       1659 31.70                             147   -0.1210 86.1  36 
 PAM  EZ I        1659 33.56         5.9 0.48            150           86.1  36 
 RUS  HZ EP       1659 14.39                             146   -0.4210 90.8 175 
 RUS  HN ES       1659 32.50                             146    0.1010 90.8 175 
 RUS  HZ I        1659 34.99         4.6 0.34            148           90.8 175 
 PTB  HZ EP       1659 18.69                             131    0.15 9  145 263 
 PTB  HN ES       1659 39.09                             131    0.05 9  145 263 
 PTB  HZ I        1659 43.29         3.7 0.20            131            145 263 
 ZAR  HN ES       1659 49.73                             121   -0.20 8  207 295 
 ZAR  HZ I        1659 56.50         4.7 0.28            121            207 295 
                                                                                
