 2013  314 1145 33.3 L   6.803 -73.166142.1  RSN 17 0.5 3.5LRSN 3.5WRSN        1
 SPEC AVERAGE  MO 14.4 ST  3.7 OM  3.0 f0 2.18 R0.7147 AL 2.38 WI 15.8 MW  3.5 3
 SPEC SD       MO  0.2 ST  2.1 OM  0.4 f00.546 R0.1705 AL      WI      MW  0.1 3
 GAP= 70        1.02       2.9     3.4  5.2  0.5799E+00  0.4190E+01  0.3759E+00E
 Epicentro: LOS SANTOS - SANTANDER                                             3
 SPEC ZAR HH Z MO 14.6 ST  6.4 OM  2.8 f0 2.29 R0.6419 AL 1.99 WI 18.9 MW  3.7 3
 SPEC ZAR HH Z T114628 K 0.000 GD  246 VS 4.20 DE 3.20 Q0300.0 QA 0.60 VS 4.20 3
 SPEC ROSCBH Z MO 14.6 ST  4.7 OM  2.7 f0 2.11 R0.6967 AL 2.67 WI 19.8 MW  3.6 3
 SPEC ROSCBH Z T114642 K 0.000 GD  289 VS 4.20 DE 3.20 Q0300.0 QA 0.60 VS 4.20 3
 SPEC RUS HH Z MO 14.1 ST  7.3 OM  2.5 f0 3.37 R0.4362 AL 2.72 WI 13.6 MW  3.4 3
 SPEC RUS HH Z T114612 K 0.000 GD  174 VS 4.20 DE 3.20 Q0300.0 QA 0.60 VS 4.20 3
 SPEC HEL HH Z MO 14.3 ST  2.8 OM  2.4 f0 2.19 R0.6712 AL 2.51 WI 18.0 MW  3.5 3
 SPEC HEL HH Z T114643 K 0.000 GD  305 VS 4.20 DE 3.20 Q0300.0 QA 0.60 VS 4.20 3
 SPEC PAM SH Z MO 14.4 ST  2.3 OM  2.8 f0 1.87 R0.7861 AL 3.54 WI  8.9 MW  3.5 3
 SPEC PAM SH Z T114611 K 0.000 GD  162 VS 4.20 DE 3.20 Q0300.0 QA 0.60 VS 4.20 3
 SPEC CHI HH Z MO 14.2 ST  1.1 OM  2.3 f0 1.78 R0.8258 AL 2.37 WI 17.4 MW  3.4 3
 SPEC CHI HH Z T114638 K 0.000 GD  285 VS 4.20 DE 3.20 Q0300.0 QA 0.60 VS 4.20 3
 SPEC BRR HH Z MO 14.2 ST  3.1 OM  2.6 f0 2.44 R0.6025 AL 1.18 WI 20.3 MW  3.4 3
 SPEC BRR HH Z T1146 7 K 0.000 GD  158 VS 4.20 DE 3.20 Q0300.0 QA 0.60 VS 4.20 3
 SPEC BAR2SH Z MO 14.7 ST  1.7 OM  3.1 f0 1.39 R1.0576 AL 2.09 WI  9.5 MW  3.7 3
 SPEC BAR2SH Z T1146 5 K 0.000 GD  144 VS 4.20 DE 3.20 Q0300.0 QA 0.60 VS 4.20 3
 ACTION:UPD 13-04-09 14:02 OP:ep   STATUS:               ID:20130314114533 L   I
 2013-03-14-1140-00M.COL___243                                                 6
 STAT SP IPHASW D HRMM SECON CODA AMPLIT PERI AZIMU VELO AIN AR TRES W  DIS CAZ7
 BAR2 SZ IP       1145 52.76                             170    0.3010 23.4 184 
 BAR2 SZ ES       1146  7.34                             170   -0.0910 23.4 184 
 BAR2 SZ I        1146  9.90      1423.1 0.25            163           23.4 184 
 BRR  HZ IP     C 1145 54.57                             153    0.6710 69.1 299 
 BRR  HE ES   1   1146 10.88                             153    0.89 7 69.1 299 
 BRR  HZ I        1146 12.15       575.6 0.19            139           69.1 299 
 PAM  SZ IP     C 1145 55.68                             150    0.5110 78.6  41 
 PAM  SZ I        1145 56.00       773.8 0.19            142           78.6  41 
 PAM  SZ ES   1   1146 12.29                             150    0.04 7 78.6  41 
 RUS  HZ IP     C 1145 56.79                             143    0.0910  101 175 
 RUS  HN ES       1146 14.38                             143   -0.5910  101 175 
 RUS  HN I        1146 16.91       763.0 0.35            131            101 175 
 PTB  HZ IP     C 1145 59.26                             131   -0.49 9  146 259 
 PTB  HN ES       1146 20.01                             131   -0.38 9  146 259 
 PTB  HZ I        1146 22.52       349.2 0.24            118            146 259 
 TAM  HZ IP     D 1146  1.15                             129    0.27 9  157 105 
 TAM  HZ I        1146  1.33       483.3 0.14            120            157 105 
 TAM  HE ES   1   1146 22.07                             129   -0.33 7  157 105 
 OCA  HZ EP       1146  1.02                             129   -0.23 9  160 354 
 OCA  HE ES       1146 22.28                             129   -0.78 9  160 354 
 OCA  HZ I        1146 30.75       207.7 0.36            118            160 354 
 CTAU SZ EP   4   1146  8.69                             122    2.77 0  202 209 
 ZAR  HZ EP       1146  5.50                             122    0.25 9  202 292 
 ZAR  HN ES   1   1146 30.75                             122    0.56 6  202 292 
 ZAR  HZ I        1146 37.30       421.2 0.39            111            202 292 
 CTAB SZ EP   4   1146 10.12                             118    1.40 0  229 210 
 SML  HZ EP   1   1146  9.27                             117   -0.29 6  242 336 
 SML  HE ES   1   1146 37.78                             117   -0.08 6  242 336 
 CHI  HZ EP       1146 11.05                             116    0.31 8  248 195 
 CHI  HE ES       1146 39.74                             116   -0.23 8  248 195 
 ROSC BZ EP   4   1146 12.65                             116    1.55 0  252 211 
 ROSC BE ES   4   1146 42.45                             116    1.85 0  252 211 
 ROSC BZ I        1146 48.05       180.5 0.60            107            252 211 
 HEL  HZ EP   1   1146 13.06                             114   -0.01 6  270 256 
 HEL  HE ES   1   1146 44.53                             114    0.43 6  270 256 
 HEL  HZ I        1146 51.10       207.9 0.42            105            270 256 
 URE  HZ EP       1146 12.89                             113   -1.03 7  282 292 
 VIL  SZ EP   1   1146 16.99                             111    0.48 5  303 191 
 VIL  SZ I        1146 56.53       122.5 0.29            104            303 191 
 DBB  SZ EP       1146 20.68                             109    0.34 7  337 274 
 DBB  SZ I        1147  1.04       133.1 0.52            102            337 274 
 PRA  HZ EP   1   1146 26.28                             106   -0.29 4  391 209 
 PRA  HN ES   1   1147  8.16                             106    0.01 4  391 209 
 PRA  HZ I        1147 16.54        88.2 0.48            100            391 209 
 SJC  HN EP   4   1146 27.13                             105   -1.41 0  408 327 
 SJC  HN I        1147 11.87        65.3 0.46            100            408 327 
                                                                                
