 2010 1014 1726 28.0 L   6.776 -73.072144.0  RSN  5 0.3 1.8LRSN                1
 GAP=198        0.73       8.6     9.6 11.0 -0.6240E+02 -0.4680E+02  0.5608E+02E
 Epicentro: LOS SANTOS - SANTANDER                                             3
 ACTION:UP  11-02-18 11:09 OP:tino STATUS:               ID:20101014172628 L   I
 2010-10-14-1724-27S.COL___128                                                 6
 STAT SP IPHASW D HRMM SECON CODA AMPLIT PERI AZIMU VELO SNR AR TRES W  DIS CAZ7
 BAR2 SZ EP       1726 47.34                             170     0.010   24 211 
 BAR2 SZ I        1726 47.78        11.8 0.07                            24 211 
 BRR  HZ EP       1726 49.17                             149    -0.310   80 297 
 BRR  HZ I        1726 49.44        14.8 0.22                            80 297 
 BRR  HN ES   1   1727  6.43                             149     0.3 7   80 297 
 GUE  SZ EP   2   1726 52.13                             138    -0.5 5  118   8 
 GRA  SZ EP       1726 53.53                             136     0.510  126  14 
 GRA  SZ ES   1   1727 12.33                             136    -0.3 7  126  14 
 GRA  SZ I        1727 13.19        11.7 0.35                           126  14 
 NOR  SZ EP       1727  4.23                             117     0.1 8  240 236 
 NOR  SN ES   2   1727 32.28                             117    -0.1 4  240 236 
                                                                                
