 2012  114 1520 46.5 L   6.799 -73.141144.1  RSN 12 0.4 2.2LRSN                1
 GAP=137        0.80       3.8     3.9  6.9 -0.1310E+01  0.6233E+01  0.5801E+01E
 Epicentro: LOS SANTOS - SANTANDER                                             3
 ACTION:UP  12-02-03 08:17 OP:REBC STATUS:               ID:20120114152046 L   I
 2012-01-14-1520-00M.COL___187                                                 6
 STAT SP IPHASW D HRMM SECON CODA AMPLIT PERI AZIMU VELO SNR AR TRES W  DIS CAZ7
 BAR2 SZ EP       1521  5.90                             170     0.010   23 191 
 BAR2 SZ I        1521 22.06        26.6 0.22                            23 191 
 BRR  HZ EP       1521  7.70                             152     0.210   72 298 
 BRR  HE ES   1   1521 24.20                             152     0.4 7   72 298 
 BRR  HZ I        1521 28.99        67.6 0.16                            72 298 
 PAM  SZ EP   1   1521  8.75                             151     0.3 7   77  39 
 PAM  SN ES   1   1521 25.38                             151    -0.3 7   77  39 
 RUS  HZ EP   1   1521 10.05                             143     0.0 7  100 176 
 RUS  HE ES   1   1521 28.37                             143    -0.1 7  100 176 
 RUS  HZ I        1521 29.77         7.4 0.30                           100 176 
 PTB  HZ EP   1   1521 12.90                             131    -0.5 7  148 259 
 PTB  HN ES   1   1521 34.57                             131     0.3 7  148 259 
 OCA  SZ EP   2   1521 13.52                             129    -1.1 5  160 353 
 OCA  SZ I        1521 38.89        34.2 0.35                           160 353 
 ZAR  HZ EP   1   1521 18.80                             122    -0.1 6  205 292 
 ZAR  HN ES   1   1521 44.21                             122     0.1 6  205 292 
 ZAR  HZ I        1521 50.34        24.2 0.26                           205 292 
 NOR  SZ EP   1   1521 22.53                             118     0.4 6  235 235 
 NOR  SE ES       1521 49.81                             118    -0.2 8  235 235 
 CHI  HZ EP   1   1521 24.56                             117     0.5 6  249 195 
 CHI  HN ES   1   1521 53.05                             117    -0.4 6  249 195 
 CHI  HZ I        1521 56.96         4.7 0.38                           249 195 
 HEL  HN ES   1   1521 57.22                             114    -0.8 6  273 256 
 HEL  HZ I        1522  4.66        14.2 0.36                           273 256 
 RREF HZ EP   2   1521 33.39                             110     0.8 3  322 229 
 RREF HZ I        1522 14.90         9.6 0.23                           322 229 
 PRA  HZ EP   2   1521 40.50                             106     0.5 3  392 210 
                                                                                
