 2012  214 1658  2.8 L   6.806 -73.202139.5  RSN  5 0.1 1.4LRSN                1
 GAP=145        0.32       2.4     2.4  4.1 -0.1513E+01  0.2229E+01  0.1505E+01E
 ACTION:UP  12-03-07 16:30 OP:epov STATUS:               ID:20120214165802 L   I
 2012-02-14-1650-45S.COL___163                                                 6
 STAT SP IPHASW D HRMM SECON CODA AMPLIT PERI AZIMU VELO AIN AR TRES W  DIS CAZ7
 BAR2 SZ EP   1   1658 21.80                             170    0.07 7 23.7 175 
 BAR2 SZ I        1658 37.74         8.1 0.44                          23.7 175 
 PAM  SZ EP   1   1658 24.80                             148    0.18 7 81.0  43 
 PAM  SN ES   1   1658 41.48                             148   -0.13 7 81.0  43 
 RUS  HZ EP   1   1658 25.99                             142   -0.09 7  102 173 
 RUS  HN ES   1   1658 44.24                             142    0.04 7  102 173 
 RUS  HZ I        1658 46.71         4.0 0.26                           102 173 
 PTB  HZ EP   1   1658 28.64                             132   -0.11 7  142 258 
 PTB  HN ES   1   1658 49.02                             132    0.05 7  142 258 
 CHI  HZ EP   1   1658 40.06                             116   -0.04 6  248 194 
 CHI  HZ I        1658 40.72         1.8 0.13                           248 194 
                                                                                
