 2012  814 1533 34.0 L   6.776 -73.148141.9  RSN 11 0.3 2.6LRSN                1
 GAP= 66        0.83       2.9     2.9  4.5  0.3818E+00  0.2084E+01  0.9039E+00E
 Epicentro: LOS SANTOS - SANTANDER                                             3
 ACTION:UPD 12-09-10 11:56 OP:ep   STATUS:               ID:20120814153334 L   I
 2012-08-14-1530-00M.COL___217                                                 6
 STAT SP IPHASW D HRMM SECON CODA AMPLIT PERI AZIMU VELO AIN AR TRES W  DIS CAZ7
 BAR2 SZ IP       1533 53.21                             171    0.1110 20.7 191 
 BAR2 SZ ES       1534  7.44                             171   -0.5610 20.7 191 
 BRR  HZ IP     C 1533 55.13                             151    0.3510 72.3 300 
 BRR  HZ I        1533 55.59       161.1 0.09                          72.3 300 
 BRR  HN ES       1534 11.78                             151    0.7910 72.3 300 
 PAM  SZ EP       1533 56.10                             149    0.1710 79.6  38 
 PAM  SZ I        1533 56.47        99.0 0.30                          79.6  38 
 PAM  SE ES       1534 12.97                             149   -0.0710 79.6  38 
 RUS  HZ EP       1533 57.20                             144    0.0310 98.0 176 
 RUS  HN ES       1534 15.14                             144   -0.1010 98.0 176 
 RUS  HZ I        1534 17.19        41.0 0.31                          98.0 176 
 PTB  HZ EP       1533 59.92                             131   -0.65 9  147 260 
 PTB  HE ES   1   1534 21.47                             131    0.17 7  147 260 
 PTB  HZ I        1534 23.74        46.8 0.16                           147 260 
 TAM  HZ EP       1534  1.61                             130    0.29 9  155 104 
 OCA  HZ EP       1534  1.98                             128   -0.27 9  163 353 
 OCA  HE ES   1   1534 23.62                             128   -0.66 7  163 353 
 YOP  SZ EP   1   1534  3.60                             126    0.07 7  177 153 
 YOP  SN ES   1   1534 26.69                             126    0.12 7  177 153 
 YOP  SZ I        1534 28.39        44.8 0.28                           177 153 
 ZAR  HZ EP   1   1534  6.15                             121   -0.11 6  205 293 
 ZAR  HN ES   1   1534 31.46                             121    0.03 6  205 293 
 ZAR  HZ I        1534 34.81        35.2 0.13                           205 293 
 NOR  SZ EP       1534  9.35                             118    0.04 8  233 235 
 NOR  SN ES   1   1534 36.66                             118   -0.19 6  233 235 
 NOR  SZ I        1534 39.02        29.0 0.21                           233 235 
 HEL  HZ EP   1   1534 14.12                             114    0.22 6  271 256 
 HEL  HN ES   1   1534 44.92                             114   -0.12 6  271 256 
 HEL  HZ I        1534 52.24        20.3 0.35                           271 256 
                                                                                
