 2015  114 1815 22.8 L   6.840 -73.148150.2  RSN  5 0.3 2.0LRSN                1
 GAP=146        0.70       4.4     3.7  6.1 -0.4807E+01  0.6066E+01 -0.7674E+00E
 Epicentro: LOS SANTOS - SANTANDER                                             3
 ACTION:UPD 15-03-02 15:39 OP:nd   STATUS:               ID:20150114181522 L   I
 OLDACT:REG 15-01-14 21:20 OP:mh   STATUS:               ID:20150114180742     3
 2015-01-14-1807-42M.COL___250                                                 6
 STAT SP IPHASW D HRMM SECON CODA AMPLIT PERI AZIMU VELO AIN AR TRES W  DIS CAZ7
 BAR2 EZ EP   1   1815 43.18                             169    0.12 7 27.6 188 
 BAR2 EZ ES       1815 58.74                             169   -0.1210 27.6 188 
 BAR2 EZ I        1816  1.26        13.2 0.30            168           27.6 188 
 PAM  SZ EP       1815 45.21                             153   -0.1010 74.2  42 
 PAM  SN ES   1   1816  3.07                             153    0.20 7 74.2  42 
 PAM  SZ I        1816  4.09         9.4 0.16            158           74.2  42 
 PTB  HZ EP       1815 49.92                             133   -0.27 9  148 257 
 PTB  HN ES       1816 11.08                             133   -0.47 9  148 257 
 PTB  HZ I        1816 18.26        14.4 0.52            133            148 257 
 SPBC HZ EP       1815 52.00                             129    0.05 9  166 218 
 SPBC HN ES       1816 15.09                             129    0.40 9  166 218 
 SPBC HZ I        1816 21.00        21.8 0.20            131            166 218 
 ZAR  HN ES       1816 21.15                             124    0.42 9  202 291 
 ZAR  HZ I        1816 27.54         8.4 0.42            124            202 291 
                                                                                
