 2010  514 1313 18.9 L   6.757 -73.016144.5  RSN  5 0.3 1.5LRSN                1
 GAP=174        0.60       4.0     9.6  8.1 -0.7720E+01 -0.2136E+02 -0.1827E+01E
 Epicentro: CEPITA - SANTANDER                                                 3
 ACTION:UP  10-08-24 10:05 OP:vdl  STATUS:               ID:20100514131318 L   I
 2010-05-14-1308-44S.COL___105                                                 6
 STAT SP IPHASW D HRMM SECON CODA AMPLIT PERI AZIMU VELO AIN AR TRES W  DIS CAZ7
 BAR2 SZ IP     D 1313 38.01                             169    -0.410   26 225 
 BAR2 SZ ES   2   1313 53.38                             169    -0.2 5   26 225 
 BRR  HZ EP   1   1313 40.70                             147    -0.1 7   86 297 
 BRR  HZ I        1313 43.09        11.2 0.21                            86 297 
 BRR  HN ES   2   1313 58.21                             147     0.3 5   86 297 
 RUS  HZ EP   1   1313 42.39                             145     0.2 7   96 184 
 RUS  HZ I        1313 43.25         2.4 0.45                            96 184 
 RUS  HE ES   2   1314  0.73                             145     0.4 5   96 184 
 GUE  SZ EP   1   1313 44.09                             138     0.4 7  119   5 
 GUE  SZ ES   2   1314  2.98                             138     0.0 5  119   5 
 GRA  SZ EP   1   1313 44.02                             136    -0.1 7  127  11 
 GRA  SZ ES   2   1314  3.68                             136    -0.1 5  127  11 
                                                                                
