 2013  314 1855 37.1 L   6.850 -73.171144.4  RSN  4 0.5 1.8LRSN                1
 GAP=189        1.22      19.2    11.4 14.8 -0.1860E+03 -0.8511E+02  0.2021E+03E
 Epicentro: ZAPATOCA - SANTANDER                                               3
 ACTION:UPD 13-04-09 14:02 OP:ep   STATUS:               ID:20130314185537 L   I
 2013-03-14-1850-00M.COL___243                                                 6
 STAT SP IPHASW D HRMM SECON CODA AMPLIT PERI AZIMU VELO AIN AR TRES W  DIS CAZ7
 BRR  HZ EP       1855 58.28                             154    0.4510 66.2 295 
 BRR  HN ES       1856 14.61                             154    0.6110 66.2 295 
 BRR  HN I        1856 18.63        14.9 0.34            156           66.2 295 
 PAM  SZ EP       1855 59.13                             151    0.0910 75.1  44 
 PAM  SZ I        1855 59.34         6.8 0.20            158           75.1  44 
 PAM  SN ES       1856 15.80                             151   -0.3510 75.1  44 
 PTB  HZ EP       1856  3.25                             132   -0.57 9  146 256 
 PTB  HN ES       1856 23.84                             132   -0.82 9  146 256 
 PTB  HN I        1856 29.51        11.0 0.20            134            146 256 
 NOR  HZ EP       1856 13.03                             118    0.17 8  236 233 
 NOR  HN ES       1856 41.21                             118    0.45 8  236 233 
 NOR  HN I        1856 46.00         6.6 0.16            120            236 233 
                                                                                
