 2012  814 1735 41.4 L   6.407 -73.780 89.3  RSN  4 0.2 1.3LRSN                1
 GAP=155        0.42       3.8     2.2  6.4  0.9959E+00  0.3318E+00  0.1379E+02E
 Epicentro: SANTA HELENA DEL OPON - SANTANDER                                  3
 ACTION:UPD 12-09-10 11:56 OP:ep   STATUS:               ID:20120814173541 L   I
 2012-08-14-1730-00M.COL___217                                                 6
 STAT SP IPHASW D HRMM SECON CODA AMPLIT PERI AZIMU VELO AIN AR TRES W  DIS CAZ7
 BAR2 SZ EP   1   1735 56.92                             139   -0.03 7 69.2  73 
 BAR2 SZ ES   1   1736  9.12                             139    0.01 7 69.2  73 
 BAR2 SZ I        1736 10.56        13.2 0.13                          69.2  73 
 PTB  HZ EP       1735 57.41                             136    0.1810 76.3 281 
 PTB  HN ES   1   1736  9.44                             136   -0.18 7 76.3 281 
 PTB  HZ I        1736 14.35         4.6 0.14                          76.3 281 
 BRR  HZ EP   1   1735 57.05                             136   -0.29 7 77.8   6 
 BRR  HZ I        1736  8.48         6.2 0.57                          77.8   6 
 BRR  HN ES   1   1736  9.96                             136    0.15 7 77.8   6 
 RUS  HZ EP       1735 59.65                             130    0.0110 95.8 126 
 RUS  HZ I        1736  0.26         5.1 0.08                          95.8 126 
                                                                                
