 2014  714 1926 16.1 L   6.775 -73.155146.8  RSN  5 0.3 1.6LRSN                1
 GAP=137        0.90       4.8     4.7  6.6 -0.2118E+01  0.3700E+01  0.1296E+01E
 Epicentro: LOS SANTOS - SANTANDER                                             3
 ACTION:UPD 15-03-16 20:43 OP:nd   STATUS:               ID:20140714192616 L   I
 OLDACT:DUP 14-07-14 23:41 OP:stll STATUS:               ID:20140714191821d    3
 2014-07-14-1918-19M.COL___262                                                 6
 STAT SP IPHASW D HRMM SECON CODA AMPLIT PERI AZIMU VELO AIN AR TRES W  DIS CAZ7
 BAR2 SZ EP       1926 35.82                             172    0.0610 20.4 189 
 BAR2 SZ I        1926 36.03        11.6 0.40            171           20.4 189 
 BAR2 SZ ES       1926 50.93                             172   -0.2010 20.4 189 
 BRR  HZ EP       1926 38.00                             152    0.6510 71.7 301 
 BRR  HN ES       1926 54.26                             152    0.3010 71.7 301 
 BRR  HZ I        1926 59.57         9.4 0.20            152           71.7 301 
 PAM  SZ EP       1926 38.59                             150    0.0410 80.2  39 
 PAM  SN ES       1926 55.75                             150   -0.3510 80.2  39 
 PAM  SZ I        1926 57.75         7.7 0.32            154           80.2  39 
 RUS  HZ EP       1926 39.40                             145   -0.3210 97.9 175 
 RUS  HN ES       1926 58.54                             145    0.3710 97.9 175 
 RUS  HZ I        1927  0.82         3.2 0.62            148           97.9 175 
 PTB  HZ EP       1926 42.73                             132   -0.24 9  146 260 
 PTB  HN ES       1927  3.57                             132   -0.40 9  146 260 
 PTB  HZ I        1927  9.03         4.7 0.40            134            146 260 
                                                                                
