 2014  114 1809 40.0 L   6.823 -73.157144.9  RSN 11 0.4 2.2LRSN                1
 GAP=134        1.05       2.7     4.2  5.5 -0.1092E+01  0.5575E+01  0.1286E+00E
 Epicentro: LOS SANTOS - SANTANDER                                             3
 ACTION:UPD 14-03-13 09:55 OP:ep   STATUS:               ID:20140114180940 L   I
 OLDACT:DUP 14-01-14 18:47 OP:carl STATUS:               ID:20140114180741d    3
 2014-01-14-1807-40M.COL___253                                                 6
 STAT SP IPHASW D HRMM SECON CODA AMPLIT PERI AZIMU VELO AIN AR TRES W  DIS CAZ7
 BAR2 SZ EP       18 9 59.55                             169   -0.0710 25.6 186 
 BAR2 SZ ES       1810 14.04                             169   -0.8410 25.6 186 
 BAR2 SZ I        1810 15.96        45.6 0.30            169           25.6 186 
 BRR  HZ EP       1810  1.32                             153    0.3510 68.9 297 
 BRR  HN ES       1810 18.15                             153    0.8610 68.9 297 
 BRR  HZ I        1810 22.73        23.7 0.16            151           68.9 297 
 PAM  SZ EP       1810  2.36                             151    0.2610 76.3  41 
 PAM  SN ES       1810 19.43                             151    0.1310 76.3  41 
 PAM  SZ I        1810 21.08        18.4 0.18            155           76.3  41 
 RUS  HZ EP       1810  3.71                             143   -0.1910  103 175 
 RUS  HN ES       1810 22.36                             143   -0.1410  103 175 
 RUS  HZ I        1810 25.02        11.4 0.24            144            103 175 
 PTB  HZ EP       1810  6.39                             132   -0.48 9  147 258 
 PTB  HN ES       1810 27.31                             132   -0.49 9  147 258 
 PTB  HZ I        1810 30.20        19.3 0.42            132            147 258 
 OCA  HZ EP       1810  7.94                             130   -0.10 9  158 353 
 OCA  HN ES       1810 30.20                             130    0.33 9  158 353 
 OCA  HZ I        1810 34.80        22.9 0.26            132            158 353 
 SPBC HZ EP       1810  8.93                             129    0.34 9  164 218 
 SPBC HN ES       1810 31.15                             129    0.30 9  164 218 
 SPBC HZ I        1810 35.01        24.1 0.40            129            164 218 
 ZAR  HZ EP       1810 12.56                             122    0.35 9  202 292 
 ZAR  HN ES       1810 37.44                             122    0.14 9  202 292 
 ZAR  HZ I        1810 42.65        22.6 0.24            123            202 292 
 SML  HZ EP       1810 15.78                             118   -0.53 8  241 335 
 SML  HN ES       1810 43.87                             118   -0.73 8  241 335 
 SML  HZ I        1810 48.54        19.9 0.20            119            241 335 
 CHI  HZ EP       1810 18.02                             117    0.10 8  251 195 
 CHI  HN ES       1810 47.87                             117    0.41 8  251 195 
 CHI  HZ I        1810 55.26         8.9 0.42            118            251 195 
 RREF HZ EP   1   1810 26.46                             111    0.24 5  322 229 
 RREF HN ES       1811  1.88                             111   -0.36 7  322 229 
 RREF HZ I        1811 10.71        11.4 0.24            112            322 229 
                                                                                
