 2017  114 1057 53.7 L   6.790 -73.100144.4  RSN  5 0.3 1.4LRSN                1
 GAP=143        0.70       3.7     4.7  5.5 -0.8964E+00  0.4202E+00  0.9211E+00E
 Epicentro: LOS SANTOS - SANTANDER                                             3
 ACTION:UPD 17-05-22 15:59 OP:jn   STATUS:               ID:20170114105753 L   I
 OLDACT:UP  17-01-14 20:59 OP:e    STATUS:               ID:20170114104743d    3
 OLDACT:DUP 17-01-14 20:58 OP:e    STATUS:               ID:20170114104743d    3
 OLDACT:UP  17-01-14 20:57 OP:e    STATUS:               ID:20170114104742d    3
 OLDACT:UP  17-01-14 20:57 OP:e    STATUS:               ID:20170114104742d    3
 OLDACT:UP  17-01-14 20:56 OP:e    STATUS:               ID:20170114104742d    3
 OLDACT:DUP 17-01-14 20:54 OP:e    STATUS:               ID:20170114104742d    3
 OLDACT:REG 17-01-14 19:31 OP:and  STATUS:               ID:20170114104741     3
 2017-01-14-1048-00M.COL___329                                                 6
 STAT SP IPHASW D HRMM SECON CODA AMPLIT PERI AZIMU VELO AIN AR TRES W  DIS CAZ7
 BAR2 EZ EP       1058 12.99                             170   -0.2410 23.7 203 
 BAR2 EZ ES       1058 28.63                             170    0.2110 23.7 203 
 PAM  EZ EP       1058 15.96                             151    0.2710 75.2  36 
 PAM  EN ES       1058 32.59                             151   -0.2210 75.2  36 
 PAM  EZ I        1058 34.90         4.3 0.50            152           75.2  36 
 BRR  HZ EP       1058 15.00                             151   -0.0410 76.1 297 
 BRR  HN ES       1058 31.81                             151    0.1610 76.1 297 
 RUS  HZ EP       1058 17.08                             144   -0.1910 99.2 179 
 RUS  HN ES       1058 35.67                             144    0.0510 99.2 179 
 RUS  HZ I        1058 36.96         2.3 0.24            145           99.2 179 
 PTB  HZ EP   2   1058 21.94                             131    0.90 5  152 260 
 PTB  HN ES   2   1058 41.44                             131   -0.89 5  152 260 
 PTB  HZ I        1058 43.18         5.4 0.34            132            152 260 
                                                                                
