 2011 1214 1742 55.1 L   6.788 -73.134145.2  RSN  5 0.3 1.4LRSN                1
 GAP=139        0.62       4.3     5.6  5.9  0.1131E+00  0.6736E+01  0.8070E+00E
 Epicentro: LOS SANTOS - SANTANDER                                             3
 ACTION:UPD 12-07-13 16:16 OP:ep   STATUS:               ID:20111214174255 L   I
 2011-12-14-1740-00M.COL___182                                                 6
 STAT SP IPHASW D HRMM SECON CODA AMPLIT PERI AZIMU VELO AIN AR TRES W  DIS CAZ7
 BAR2 SZ EP       1743 14.59                             171   -0.1010 22.3 194 
 BAR2 SZ ES   1   1743 29.43                             171   -0.50 7 22.3 194 
 BAR2 SZ I        1743 30.87         6.1 0.17                          22.3 194 
 BRR  HZ EP       1743 16.50                             152    0.1610 73.0 299 
 BRR  HE ES   1   1743 33.21                             152    0.34 7 73.0 299 
 PAM  SZ EP   1   1743 17.47                             151    0.15 7 77.6  38 
 PAM  SE ES   1   1743 34.50                             151   -0.11 7 77.6  38 
 RUS  HZ EP   1   1743 18.82                             144    0.08 7 99.1 177 
 RUS  HE ES   1   1743 37.48                             144    0.34 7 99.1 177 
 RUS  HZ I        1743 38.83         3.5 0.36                          99.1 177 
 PTB  HZ EP   1   1743 21.71                             132   -0.45 7  149 259 
                                                                                
