 2017  614 1747 57.8 L   6.775 -73.125140.0  RSN  6 0.5 1.9LRSN                1
 GAP=256        0.95       4.9     7.1  8.1 -0.1729E+00 -0.1010E+02  0.1141E+02E
 Epicentro: LOS SANTOS - SANTANDER                                             3
 ACTION:UPD 17-09-14 16:52 OP:jn   STATUS:               ID:20170614174757 L   I
 OLDACT:UP  17-06-15 00:22 OP:dani STATUS:               ID:20170614173743d    3
 OLDACT:UP  17-06-15 00:22 OP:dani STATUS:               ID:20170614173743d    3
 OLDACT:UP  17-06-15 00:21 OP:dani STATUS:               ID:20170614173743d    3
 OLDACT:UP  17-06-15 00:21 OP:dani STATUS:               ID:20170614173743d    3
 OLDACT:UP  17-06-15 00:21 OP:dani STATUS:               ID:20170614173743d    3
 OLDACT:DUP 17-06-15 00:15 OP:dani STATUS:               ID:20170614173743d    3
 OLDACT:UP  17-06-15 00:14 OP:dani STATUS:               ID:20170614173742d    3
 OLDACT:DUP 17-06-15 00:06 OP:dani STATUS:               ID:20170614173742d    3
 2017-06-14-1738-00M.COL___368                                                 6
 STAT SP IPHASW D HRMM SECON CODA AMPLIT PERI AZIMU VELO AIN AR TRES W  DIS CAZ7
 BRR  HZ EP       1748 18.50                             151   -0.0710 74.6 300 
 BRR  HN ES       1748 35.00                             151    0.2610 74.6 300 
 PTB  HZ EP   9   1748 23.23                             131   -1.28 0  150 260 
 PTB  HN ES       1748 44.20                             131    0.17 9  150 260 
 PTB  HZ I        1748 46.86         9.5 0.16            127            150 260 
 ZAR  HZ EP       1748 29.53                             121   -0.73 8  207 293 
 ZAR  HN ES       1748 55.62                             121    0.08 8  207 293 
 ZAR  HZ I        1749  1.52        13.5 0.33            119            207 293 
 NOR  HZ EP       1748 33.14                             118   -0.14 8  235 235 
 NOR  HN ES       1749  0.29                             118   -0.62 8  235 235 
 NOR  HZ I        1749  5.43         5.6 0.17            115            235 235 
 CHI  HZ EP   3   1748 36.46                             116    1.46 2  247 196 
 CHI  HE ES       1749  4.14                             116    0.16 8  247 196 
 CHI  HZ I        1749 10.69         2.8 0.25            115            247 196 
 HEL  HZ EP       1748 38.87                             114    0.92 8  274 256 
 HEL  HN ES       1749  9.39                             114    0.17 8  274 256 
 HEL  HZ I        1749 16.17         4.9 0.31            112            274 256 
                                                                                
