 2015 1014 1651 55.1 L   6.822 -73.141144.3  RSN 19 0.5 2.8LRSN                1
 GAP=136        1.12       2.7     3.9  5.5 -0.4673E+00  0.9409E+01  0.1863E+01E
 Epicentro: LOS SANTOS - SANTANDER                                             3
 ACTION:UPD 15-12-22 20:40 OP:cam  STATUS:               ID:20151014165155 L   I
 OLDACT:REG 15-10-14 20:48 OP:ak   STATUS:               ID:20151014164747     3
 2015-10-14-1647-47M.COL___325                                                 6
 STAT SP IPHASW D HRMM SECON CODA AMPLIT PERI AZIMU VELO AIN AR TRES W  DIS CAZ7
 BAR2 EZ IP     C 1652 14.73                             169    0.0810 25.8 190 
 BAR2 EZ ES       1652 29.27                             169   -0.5910 25.8 190 
 BAR2 EZ I        1652 32.41        91.8 0.26            167           25.8 190 
 BRR  HZ EP     D 1652 16.61                             152    0.5110 70.6 297 
 BRR  HN ES       1652 33.05                             152    0.6110 70.6 297 
 BRR  HZ I        1652 35.09        50.1 0.16            150           70.6 297 
 PAM  EZ IP     D 1652 17.49                             151    0.4210 75.2  40 
 PAM  EN ES       1652 34.61                             151    0.4310 75.2  40 
 PAM  EZ I        1652 36.52        91.7 0.62            157           75.2  40 
 RUS  HZ EP     C 1652 18.66                             143   -0.2610  103 176 
 RUS  HN ES       1652 37.04                             143   -0.4310  103 176 
 OCA  HN ES       1652 44.73                             130   -0.21 9  158 353 
 OCA  HZ I        1652 48.84       115.0 0.18            132            158 353 
 SPBC HZ EP       1652 23.70                             128   -0.04 9  165 219 
 SPBC HN ES       1652 45.61                             128   -0.43 9  165 219 
 SPBC HZ I        1652 53.31        65.1 0.20            128            165 219 
 ZAR  HZ EP       1652 27.50                             122    0.05 9  204 291 
 ZAR  HN ES       1652 53.27                             122    0.62 9  204 291 
 ZAR  HZ I        1652 58.83        65.1 0.36            123            204 291 
 NOR  HZ EP       1652 30.60                             118   -0.39 8  237 234 
 NOR  HN ES       1652 59.17                             118    0.23 8  237 234 
 NOR  HZ I        1653  4.85        36.7 0.14            119            237 234 
 SML  HZ EP       1652 30.97                             117   -0.51 8  242 335 
 SML  HN ES       1652 59.43                             117   -0.38 8  242 335 
 SML  HZ I        1653  2.93        74.1 0.10            119            242 335 
 CHI  HZ EP       1652 32.86                             117   -0.17 8  251 195 
 CHI  HN ES       1653  2.04                             117   -0.54 8  251 195 
 CHI  HZ I        1653 11.89        20.9 0.36            118            251 195 
 ROSC BZ EP   1   1652 34.43                             116    0.99 6  255 211 
 ROSC BN ES   4   1653  5.24                             116    1.93 0  255 211 
 ROSC BZ I        1653 12.30        62.2 0.40            117            255 211 
 HEL  HZ EP   1   1652 36.13                             114    0.72 6  273 255 
 HEL  HN ES       1653  6.73                             114   -0.08 8  273 255 
 HEL  HZ I        1653 13.44        23.7 0.32            115            273 255 
 URE  HZ EP       1652 35.20                             113   -0.90 7  283 291 
 URE  HN ES       1653  7.35                             113   -0.69 7  283 291 
 URE  HZ I        1653 18.78        35.7 0.18            114            283 291 
 GUY2CHZ EP       1652 39.49                             112    0.60 7  303 234 
 GUY2CHN ES       1653 14.00                             112    0.99 7  303 234 
 GUY2CHZ I        1653 23.51        27.2 0.52                           303 234 
 DBB  SZ EP       1652 42.18                             109   -0.42 7  340 274 
 DBB  SZ ES       1653 18.77                             109   -0.85 7  340 274 
 DBB  SZ I        1653 26.20        53.9 0.40            110            340 274 
 ANIL HZ EP   1   1652 45.00                             108   -0.13 5  359 224 
 ANIL HN ES       1653 24.37                             108    0.25 6  359 224 
 ANIL HZ I        1653 30.69        44.1 0.40            109            359 224 
 ORTC HZ EP       1652 49.98                             106    0.70 6  398 216 
 ORTC HN ES       1653 32.10                             106    0.60 6  398 216 
 ORTC HZ I        1653 37.72        14.0 0.52            107            398 216 
 SJC  HZ EP   4   1652 48.78                             105   -1.68 0  408 327 
 SJC  HN ES   4   1653 29.43                             105   -4.17 0  408 327 
 SJC  HZ I        1653 34.48        11.3 0.40            107            408 327 
 CRJC HZ EP   4   1652 54.99                             103   -2.32 0  465   3 
 CRJC HE ES   4   1653 40.59                             103   -5.22 0  465   3 
 CRJC HZ I        1653 49.07        11.6 0.24            105            465   3 
                                                                                
