 2011 1214 1918  6.4 L   6.845 -73.285118.9  RSN 11 0.4 2.5LRSN                1
 GAP=108        0.66       3.1     4.0  4.7 -0.2295E+01  0.4248E+01  0.3725E+01E
 Epicentro: ZAPATOCA - SANTANDER                                               3
 ACTION:UPD 12-07-13 16:16 OP:ep   STATUS:               ID:20111214191806 L   I
 2011-12-14-1910-00M.COL___185                                                 6
 STAT SP IPHASW D HRMM SECON CODA AMPLIT PERI AZIMU VELO AIN AR TRES W  DIS CAZ7
 GIR2 SZ IP       1918 22.76                             166   -0.0410 27.8  21 
 GIR2 SZ ES   1   1918 35.30                             166   -0.28 7 27.8  21 
 BAR2 SZ IP     D 1918 23.15                             165    0.1310 30.1 158 
 BAR2 SZ ES   2   1918 36.06                             165    0.09 5 30.1 158 
 BRR  HZ EP       1918 23.51                             153   -0.2610 55.4 302 
 BRR  HE ES   1   1918 37.65                             153    0.35 7 55.4 302 
 BRR  HZ I        1918 38.58       221.9 0.15                          55.4 302 
 PAM  SZ EP       1918 26.22                             143   -0.1610 84.7  50 
 PAM  SN ES   2   1918 42.73                             143    0.78 5 84.7  50 
 RUS  HZ EP       1918 27.89                             135   -0.3410  108 168 
 RUS  HN ES   2   1918 45.56                             135    0.32 5  108 168 
 RUS  HZ I        1918 46.57        35.4 0.29                           108 168 
 OCA  SZ EP       1918 32.02                             124   -0.15 9  154 359 
 OCA  SZ I        1918 52.96        84.4 0.20                           154 359 
 CTAU SZ EP   1   1918 38.01                             117    0.53 6  200 205 
 NOR  SZ EP   2   1918 39.07                             113   -0.63 4  225 231 
 NOR  SE ES   2   1919  4.91                             113   -0.74 4  225 231 
 CHI  HZ EP   1   1918 43.32                             111    0.40 6  250 191 
 CHI  HE ES   2   1919 11.47                             111    0.08 4  250 191 
 CHI  HZ I        1919 15.35        10.8 0.71                           250 191 
 HEL  HZ EP       1918 44.41                             110    0.56 8  259 254 
 HEL  HN ES   2   1919 13.07                             110    0.02 4  259 254 
 HEL  HZ I        1919 17.70        19.7 0.42                           259 254 
 PRA  HZ EP   2   1918 58.57                             102   -0.22 3  389 207 
                                                                                
