 2012  614 1204 53.3 L   6.794 -73.200136.1  RSN  5 0.3 1.6LRSN                1
 GAP=130        0.58       3.9     3.3  5.6 -0.3484E+01  0.8783E+01 -0.7080E+01E
 Epicentro: ZAPATOCA - SANTANDER                                               3
 ACTION:UPD 12-08-06 17:49 OP:ep   STATUS:               ID:20120614120453 L   I
 2012-06-14-1200-00M.COL___200                                                 6
 STAT SP IPHASW D HRMM SECON CODA AMPLIT PERI AZIMU VELO AIN AR TRES W  DIS CAZ7
 BAR2 SZ EP       12 5 12.02                             170    0.2710 22.4 175 
 BAR2 SZ ES       12 5 26.20                             170    0.0610 22.4 175 
 BAR2 SZ I        12 5 27.74        12.1 0.28                          22.4 175 
 PAM  SZ EP       12 5 14.64                             147   -0.1410 81.8  42 
 PAM  SN ES       12 5 31.48                             147   -0.0510 81.8  42 
 RUS  HN ES   1   12 5 33.83                             142   -0.07 7  101 173 
 PTB  HZ EP   1   12 5 18.41                             131   -0.53 7  142 259 
 PTB  HE ES   1   12 5 38.88                             131   -0.06 7  142 259 
 PTB  HZ I        12 5 43.67         2.6 0.19                           142 259 
 ZAR  HZ EP   1   12 5 25.12                             121    0.54 6  199 293 
 ZAR  HN ES   1   12 5 48.93                             121   -0.05 6  199 293 
 ZAR  HZ I        12 5 56.89         5.9 0.41                           199 293 
                                                                                
