 2014  714 1758  9.7 L   6.154 -73.736106.9  RSN  6 0.4 1.7LRSN                1
 GAP=102        0.95       3.7     3.5  7.3  0.1634E+01  0.5105E+01 -0.6515E+01E
 Epicentro: LANDAZURI - SANTANDER                                              3
 ACTION:UPD 15-03-16 20:43 OP:nd   STATUS:               ID:20140714175809 L   I
 OLDACT:DUP 14-07-14 23:22 OP:stll STATUS:               ID:20140714174818d    3
 2014-07-14-1748-17M.COL___262                                                 6
 STAT SP IPHASW D HRMM SECON CODA AMPLIT PERI AZIMU VELO AIN AR TRES W  DIS CAZ7
 SPBC HZ EP       1758 26.90                             145    0.2910 66.8 214 
 SPBC HN ES       1758 39.60                             145   -0.2210 66.8 214 
 SPBC HZ I        1758 42.23        12.3 0.30            148           66.8 214 
 RUS  HZ EP       1758 28.09                             142    0.1210 77.8 112 
 RUS  HN ES       1758 42.25                             142    0.0110 77.8 112 
 RUS  HZ I        1758 44.59         3.7 0.36            145           77.8 112 
 BAR2 SZ EP       1758 27.97                             141    0.3410 78.1  52 
 BAR2 SZ ES       1758 41.62                             141   -0.0310 78.1  52 
 BAR2 SZ I        1758 43.55        35.6 0.32            145           78.1  52 
 PTB  HZ EP       1758 27.51                             136   -0.8110 90.4 298 
 PTB  HN ES       1758 43.26                             136    0.4010 90.4 298 
 PTB  HZ I        1758 44.71         9.8 0.16            139           90.4 298 
 BRR  HZ EP       1758 29.70                             132    0.0910  105   1 
 BRR  HE ES       1758 44.78                             132   -0.3910  105   1 
 ZAR  HZ EP       1758 38.45                             114   -0.25 9  193 320 
 ZAR  HN ES       1759  1.84                             114    0.49 9  193 320 
 ZAR  HZ I        1759  3.48         5.8 0.50            117            193 320 
                                                                                
