 2013  814 1203 58.6 L   6.794 -73.142148.0  RSN 13 0.3 2.4LRSN                1
 GAP=137        0.77       2.6     3.1  3.9 -0.7344E+00  0.3402E+01  0.2256E+01E
 Epicentro: LOS SANTOS - SANTANDER                                             3
 ACTION:UPD 14-01-14 09:02 OP:ep   STATUS:               ID:20130814120358 L   I
 OLDACT:REG 13-08-14 15:20 OP:jn   STATUS:               ID:20130814115960d    3
 2013-08-14-1159-59M.COL___271                                                 6
 STAT SP IPHASW D HRMM SECON CODA AMPLIT PERI AZIMU VELO AIN AR TRES W  DIS CAZ7
 BAR2 SZ EP       12 4 18.46                             171   -0.0110 22.7 191 
 BAR2 SZ ES       12 4 34.13                             171    0.1510 22.7 191 
 BAR2 SZ I        12 4 35.18        33.6 0.20            168           22.7 191 
 GIR2 SZ EP       12 4 18.38                             167   -0.1610 32.0 350 
 GIR2 SZ ES       12 4 33.65                             167   -0.4610 32.0 350 
 GIR2 SZ I        12 4 35.38        27.4 0.28            166           32.0 350 
 BRR  HZ EP       12 4 20.34                             153    0.3310 71.9 299 
 BRR  HN ES       12 4 37.44                             153    0.7110 71.9 299 
 BRR  HZ I        12 4 42.19        31.4 0.22            150           71.9 299 
 PAM  SZ EP       12 4 21.34                             151    0.2910 77.7  39 
 PAM  SN ES       12 4 38.39                             151   -0.1910 77.7  39 
 PAM  SZ I        12 4 40.64        41.4 0.48            156           77.7  39 
 RUS  HZ EP       12 4 22.35                             144   -0.1510 99.9 176 
 RUS  HN ES       12 4 41.35                             144    0.1910 99.9 176 
 RUS  HZ I        12 4 42.49        14.9 0.36            146           99.9 176 
 PTB  HZ EP       12 4 25.36                             132   -0.40 9  148 259 
 PTB  HN ES       12 4 46.63                             132   -0.32 9  148 259 
 PTB  HZ I        12 4 52.42        41.2 0.40            132            148 259 
 SPBC HZ EP       12 4 27.37                             130    0.14 9  163 219 
 SPBC HN ES       12 4 49.06                             130   -0.51 9  163 219 
 SPBC HZ I        12 4 54.50        41.1 0.20            130            163 219 
 ZAR  HZ EP       12 4 31.09                             123   -0.16 9  205 292 
 ZAR  HE ES       12 4 56.89                             123    0.17 9  205 292 
 ZAR  HZ I        12 5  2.97        32.2 0.62            123            205 292 
 NOR  HZ EP       12 4 34.57                             119    0.13 8  235 235 
 NOR  HN ES       12 5  2.49                             119    0.09 8  235 235 
 NOR  HZ I        12 5  9.60        19.2 0.26            120            235 235 
 SML  HN ES   1   12 5  3.72                             118   -0.44 6  245 335 
 CHI  HZ EP       12 4 36.47                             118    0.12 8  248 195 
 CBOC HZ EP   1   12 4 46.18                             110    0.56 5  334 252 
 PRA  HZ EP       12 4 51.88                             107   -0.26 6  392 210 
 PRA  HN ES       12 5 34.22                             107    0.31 6  392 210 
 PRA  HZ I        12 5 39.91        11.5 0.60            108            392 210 
                                                                                
