 2013  414 1423  6.6 L   6.794 -73.122147.6  RSN 11 0.5 2.0LRSN                1
 GAP=140        1.16       4.4     5.9  6.8 -0.3158E+01  0.1269E+02  0.2556E+01E
 Epicentro: LOS SANTOS - SANTANDER                                             3
 ACTION:UPD 13-05-22 14:38 OP:EP   STATUS:               ID:20130414142306 L   I
 2013-04-14-1418-52M.COL___212                                                 6
 STAT SP IPHASW D HRMM SECON CODA AMPLIT PERI AZIMU VELO AIN AR TRES W  DIS CAZ7
 BAR2 SZ EP       1423 26.60                             171    0.1010 23.2 197 
 BAR2 SZ ES       1423 41.83                             171   -0.1510 23.2 197 
 BAR2 SZ I        1423 43.36        39.8 0.24            167           23.2 197 
 GIR2 SZ EP       1423 26.86                             167    0.2910 32.5 346 
 GIR2 SZ ES       1423 41.53                             167   -0.5810 32.5 346 
 GIR2 SZ I        1423 44.17        12.8 0.12            166           32.5 346 
 BRR  HZ EP       1423 28.44                             152    0.3010 73.8 298 
 BRR  HN ES       1423 45.92                             152    1.0110 73.8 298 
 BRR  HZ I        1423 48.26        21.2 0.56            149           73.8 298 
 PAM  SN ES   1   1423 46.65                             151    0.22 7 76.3  38 
 PAM  SZ I        1423 48.85         7.6 0.48            157           76.3  38 
 RUS  HZ EP       1423 30.52                             144    0.0010 99.7 178 
 RUS  HN ES   1   1423 48.74                             144   -0.40 7 99.7 178 
 RUS  HZ I        1423 50.48        12.0 0.38            145           99.7 178 
 PTB  HZ EP       1423 33.29                             132   -0.69 9  150 259 
 PTB  HN ES       1423 54.93                             132   -0.37 9  150 259 
 PTB  HZ I        1424  0.65        15.0 0.36            131            150 259 
 OCA  HN ES       1423 57.61                             130    0.14 9  161 352 
 NOR  HE ES   1   1424 10.93                             119    0.17 6  236 235 
 NOR  HZ I        1424 17.81        12.7 0.24            119            236 235 
 SML  HZ EP   1   1423 42.84                             118   -0.72 6  245 335 
 SML  HE ES   1   1424 11.30                             118   -1.06 6  245 335 
 HEL  HZ EP       1423 47.97                             115    0.76 8  274 256 
 HEL  HE ES   1   1424 18.64                             115   -0.21 6  274 256 
 HEL  HZ I        1424 27.30         6.8 0.30            115            274 256 
 URE  HN ES   4   1424 16.85                             114   -3.59 0  286 292 
 PRA  HZ EP   1   1424  0.92                             107    0.61 4  393 210 
                                                                                
