 2010  314 1038  6.6 L   6.789 -73.111147.9  RSN  5 0.5 1.4LRSN                1
 GAP=240        1.13       8.6    16.3  9.5  0.8184E+02 -0.4501E+01  0.1505E+02E
 Epicentro: LOS SANTOS - SANTANDER                                             3
 ACTION:UP  10-08-24 09:53 OP:vdl  STATUS:               ID:20100314103806 L   I
 2010-03-14-1035-20S.COL___095                                                 6
 STAT SP IPHASW D HRMM SECON CODA AMPLIT PERI AZIMU VELO SNR AR TRES W  DIS CAZ7
 BAR2 SZ EP       1038 26.23                             170    -0.210   23 200 
 BAR2 SZ ES   1   1038 40.83                             170    -1.1 7   23 200 
 BRR  HZ EP       1038 28.16                             151     0.010   75 298 
 BRR  HN ES       1038 45.28                             151     0.310   75 298 
 BRR  HZ I        1038 47.85         4.7 0.14                            75 298 
 RUS  HZ EP       1038 30.45                             144     0.010   99 178 
 RUS  HN ES       1038 49.58                             144     0.610   99 178 
 RUS  HZ I        1038 50.09         4.1 0.38                            99 178 
 CHI  HZ EP       1038 44.44                             117     0.1 8  249 196 
 CHI  HN ES   2   1039 13.93                             117     0.1 4  249 196 
 CHI  HZ I        1039 19.81         1.8 0.46                           249 196 
 PRA  HN ES   2   1039 41.09                             107    -1.0 3  393 210 
                                                                                
