 2013  614 1231 47.9 L   6.742 -73.209141.4  RSN  5 0.2 1.8LRSN                1
 GAP=193        0.40       2.6     3.3  5.4  0.1234E+01  0.4601E+01 -0.6171E+01E
 Epicentro: VILLANUEVA - SANTANDER                                             3
 ACTION:UPD 14-01-08 09:54 OP:ep   STATUS:               ID:20130614123147 L   I
 OLDACT:REG 13-06-14 16:04 OP:mh   STATUS:               ID:20130614122959     3
 2013-06-14-1229-59M.COL___261                                                 6
 STAT SP IPHASW D HRMM SECON CODA AMPLIT PERI AZIMU VELO AIN AR TRES W  DIS CAZ7
 BAR2 SZ EP   1   1232  6.99                             173    0.13 8 16.8 170 
 BAR2 SZ ES   1   1232 21.89                             173    0.22 8 16.8 170 
 BAR2 SZ I        1232 22.94         6.7 0.18            177           16.8 170 
 BRR  HN ES   2   1232 24.34                             153   -0.09 5 68.7 306 
 BRR  HN I        1232 30.57        21.1 0.24            153           68.7 306 
 RUS  HN ES   1   1232 28.39                             145   -0.28 8 95.0 172 
 RUS  HN I        1232 29.28        13.0 0.30            153           95.0 172 
 PTB  HZ EP   1   1232 13.88                             133    0.12 7  140 261 
 PTB  HN ES       1232 33.95                             133   -0.0010  140 261 
 PTB  HN I        1232 35.28         9.2 0.20            137            140 261 
 SML  HE ES       1232 53.12                             116   -0.11 8  247 337 
                                                                                
