 2016 1114 1610 22.9 L   6.815 -73.166152.5  RSN  6 0.3 1.8LRSN                1
 GAP=143        0.71       2.9     5.1  4.6 -0.1922E+01  0.7154E+01  0.2794E+01E
 Epicentro: LOS SANTOS - SANTANDER                                             3
 ACTION:UPD 17-10-26 21:08 OP:lp   STATUS:               ID:20161114161022 L   I
 OLDACT:UP  16-11-14 23:03 OP:edw  STATUS:               ID:20161114160743     3
 OLDACT:UP  16-11-14 23:02 OP:edw  STATUS:               ID:20161114160743     3
 OLDACT:REG 16-11-14 19:23 OP:edw  STATUS:               ID:20161114160743     3
 2016-11-14-1608-00M.COL___338                                                 6
 STAT SP IPHASW D HRMM SECON CODA AMPLIT PERI AZIMU VELO AIN AR TRES W  DIS CAZ7
 BAR2 EZ EP       1610 43.38                             170    0.0310 24.7 184 
 BAR2 EZ ES       1610 58.85                             170   -0.4710 24.7 184 
 BAR2 EZ I        1610 59.47         9.5 0.26            168           24.7 184 
 BRR  HZ EP       1610 44.70                             154    0.0810 68.5 298 
 BRR  HE ES       1611  1.94                             154    0.3710 68.5 298 
 PAM  EZ EP       1610 46.30                             152    0.4710 77.6  42 
 PAM  EN ES       1611  3.55                             152   -0.1810 77.6  42 
 PAM  EZ I        1611  5.54        10.2 0.52            152           77.6  42 
 CHI  HZ EP       1611  1.05                             118   -0.02 8  250 195 
 CHI  HN ES       1611 30.69                             118   -0.17 8  250 195 
 CHI  HZ I        1611 34.40         2.2 0.40            118            250 195 
 PRA  HZ EP       1611 16.73                             107    0.05 6  392 209 
 PRA  HN ES       1611 58.79                             107    0.15 6  392 209 
 PRA  HZ I        1612  4.30         3.1 0.34            107            392 209 
 SJC  HN EP       1611 18.20                             107   -0.17 6  407 327 
 SJC  HE ES       1612  0.98                             107   -0.67 6  407 327 
                                                                                
