 2011  114 1050 41.5 L   6.822 -73.123155.0  RSN 12 0.5 2.4LRSN                1
 GAP=138        0.96       4.4     7.2  7.9 -0.6808E+01  0.1311E+02  0.6215E+01E
 Epicentro: LOS SANTOS - SANTANDER                                             3
 ACTION:UP  11-02-08 08:40 OP:pat  STATUS:               ID:20110114105041 L   I
 2011-01-14-1040-00M.COL___137                                                 6
 STAT SP IPHASW D HRMM SECON CODA AMPLIT PERI AZIMU VELO SNR AR TRES W  DIS CAZ7
 BTL  SZ ES   2   1051 18.96                             172     0.7 5   19 304 
 BAR2 SZ IP       1051  2.27                             170     0.010   26 195 
 BAR2 SZ ES   2   1051 17.85                             170    -0.6 5   26 195 
 BAR2 SZ I        1051 20.15        59.6 0.21                            26 195 
 GIR2 SZ EP   1   1051  3.39                             169     1.2 7   29 345 
 GIR2 SZ ES   2   1051 18.62                             169     0.3 5   29 345 
 RUS  HZ EP   1   1051  6.12                             145    -0.2 7  103 178 
 RUS  HN ES   2   1051 25.25                             145    -0.4 5  103 178 
 RUS  HZ I        1051 26.64        21.5 0.28                           103 178 
 GRA  SZ IP       1051  7.03                             140    -0.310  123  17 
 GRA  SZ ES   2   1051 26.70                             140    -0.8 5  123  17 
 GRA  SZ I        1051 28.01        34.7 0.34                           123  17 
 OCA  SZ EP   1   1051  9.81                             132    -0.5 7  158 352 
 OCA  SZ ES   2   1051 32.96                             132     0.1 5  158 352 
 OCA  SZ I        1051 36.86        24.7 0.65                           158 352 
 YOP  SZ EP   1   1051 12.13                             128    -0.2 7  180 154 
 YOP  SN ES   2   1051 36.91                             128     0.6 4  180 154 
 YOP  SZ I        1051 44.33        12.3 0.20                           180 154 
 NOR  SZ EP   1   1051 17.92                             120    -0.2 6  238 234 
 NOR  SE ES   2   1051 45.84                             120    -0.9 4  238 234 
 CHI  HZ EP   1   1051 20.28                             119     0.3 6  252 196 
 CHI  HN ES   2   1051 49.86                             119    -0.2 4  252 196 
 CHI  HZ I        1051 59.58        11.6 0.72                           252 196 
 HEL  HZ EP   1   1051 23.26                             116     0.8 6  275 255 
 HEL  HN ES   2   1051 54.67                             116     0.2 4  275 255 
 HEL  HZ I        1051 59.68        11.6 0.34                           275 255 
 RREF HZ EP   1   1051 28.83                             112     0.4 5  325 229 
 RREF HN ES   2   1052  4.40                             112    -0.6 3  325 229 
 RREF HZ I        1052 14.69        15.2 0.30                           325 229 
 SJA  SZ EP   1   1051 36.20                             107    -0.5 4  403 193 
 SJA  SZ ES   2   1052 19.99                             107     0.2 3  403 193 
 SJA  SZ I        1052 25.61        17.0 0.43                           403 193 
                                                                                
