 2013  614 1806 53.6 L   6.725 -73.168143.5  RSN  6 0.4 1.9LRSN                1
 GAP=178        0.66       7.8     6.2  7.5  0.2403E+02  0.5973E+01 -0.5985E+01E
 Epicentro: VILLANUEVA - SANTANDER                                             3
 ACTION:UPD 14-01-08 09:54 OP:ep   STATUS:               ID:20130614180653 L   I
 OLDACT:REG 13-06-14 16:17 OP:mh   STATUS:               ID:20130614175959     3
 2013-06-14-1759-59M.COL___261                                                 6
 STAT SP IPHASW D HRMM SECON CODA AMPLIT PERI AZIMU VELO AIN AR TRES W  DIS CAZ7
 BAR2 SZ EP       18 7 12.92                             174    0.1410 14.7 186 
 BAR2 SZ ES   1   18 7 27.32                             174   -0.44 7 14.7 186 
 BAR2 SZ I        18 7 30.23         9.3 0.18            164           14.7 186 
 GIR2 SZ EP   1   18 7 12.86                             164   -0.36 7 39.2 356 
 BRR  HZ EP   1   18 7 14.72                             151    0.12 7 73.5 305 
 BRR  HN ES   1   18 7 31.33                             151    0.32 7 73.5 305 
 BRR  HN I        18 7 32.30        28.0 0.44            147           73.5 305 
 RUS  HN ES   2   18 7 35.12                             145    0.69 5 92.5 174 
 RUS  HN I        18 7 36.60        12.5 0.32            143           92.5 174 
 PTB  HZ EP   1   18 7 19.91                             132   -0.09 7  144 262 
 PTB  HN ES   2   18 7 39.96                             132   -0.66 5  144 262 
 PTB  HN I        18 7 45.97         8.6 0.36            129            144 262 
 ZAR  HZ EP   4   18 7 18.79                             122   -7.18 0  205 295 
 ZAR  HE ES   1   18 7 51.45                             122    0.21 6  205 295 
 ZAR  HE I        18 7 57.48        15.8 0.36            121            205 295 
                                                                                
