 2013  514 1447 54.0 L   6.783 -73.023142.7  RSN  6 0.4 2.1LRSN                1
 GAP=214        0.89       6.8     8.4  8.8  0.3110E+02  0.1261E+02 -0.6329E+01E
 Epicentro: CEPITA - SANTANDER                                                 3
 ACTION:UPD 13-06-20 09:50 OP:ep   STATUS:               ID:20130514144754 L   I
 2013-05-14-1440-00M.COL___256                                                 6
 STAT SP IPHASW D HRMM SECON CODA AMPLIT PERI AZIMU VELO AIN AR TRES W  DIS CAZ7
 BAR2 SZ EP       1448 13.59                             168    0.2410 27.5 220 
 BAR2 SZ ES   1   1448 28.09                             168   -0.36 7 27.5 220 
 GIR2 SZ EP       1448 13.55                             164    0.0510 37.7 330 
 GIR2 SZ ES   1   1448 28.73                             164    0.02 7 37.7 330 
 BRR  HZ EP   1   1448 15.21                             147   -0.40 7 84.2 295 
 BRR  HN ES   1   1448 31.88                             147   -0.59 7 84.2 295 
 BRR  HZ I        1448 35.26        23.7 0.30            117           84.2 295 
 RUS  HN ES       1448 35.65                             143    0.1510 98.7 184 
 RUS  HZ I        1448 37.48         9.6 0.42            111           98.7 184 
 ZAR  HN ES       1448 54.58                             119    0.70 8  217 291 
 ZAR  HZ I        1448 57.18        19.8 0.62            100            217 291 
 NOR  HZ EP   2   1448 29.54                             116   -1.11 4  245 237 
 NOR  HZ I        1449  4.47        10.4 0.20             98            245 237 
                                                                                
