 2013  714 1825 39.4 L   6.755 -73.163138.1  RSN  6 0.3 1.8LRSN                1
 GAP=136        0.87       4.4     4.5  7.0 -0.1994E+01 -0.1260E+00 -0.7989E+00E
 Epicentro: LOS SANTOS - SANTANDER                                             3
 ACTION:UPD 13-08-12 10:37 OP:ep   STATUS:               ID:20130714182539 L   I
 OLDACT:REG 13-07-14 16:07 OP:stll STATUS:               ID:20130714181846     3
 2013-07-14-1818-46M.COL___231                                                 6
 STAT SP IPHASW D HRMM SECON CODA AMPLIT PERI AZIMU VELO AIN AR TRES W  DIS CAZ7
 BAR2 SZ ES       1826 12.12                             172   -0.3610 18.1 187 
 BAR2 SZ I        1826 13.71         7.5 0.14            171           18.1 187 
 GIR2 SZ EP       1825 57.78                             165   -0.4910 36.0 355 
 BRR  HZ EP       1825 59.98                             151    0.2410 72.1 303 
 BRR  HN ES       1826 16.17                             151    0.5310 72.1 303 
 BRR  HN I        1826 17.06        23.8 0.26            151           72.1 303 
 PAM  SZ EP       1826  1.05                             148   -0.0410 82.5  38 
 PAM  SZ I        1826  1.20         8.9 0.20            150           82.5  38 
 PAM  SN ES       1826 18.05                             148    0.0110 82.5  38 
 RUS  HZ EP       1826  2.27                             144    0.2610 95.7 175 
 RUS  HN ES       1826 19.84                             144    0.1710 95.7 175 
 RUS  HN I        1826 21.99         9.5 0.34            144           95.7 175 
 PTB  HN ES       1826 25.45                             131   -0.36 9  145 261 
 PTB  HN I        1826 28.09        13.2 0.32            131            145 261 
                                                                                
