 2013  314 1106 38.3 L   6.735 -73.185146.7  RSN  5 0.2 1.7LRSN                1
 GAP=228        0.48       4.7     4.3  5.0  0.1186E+02  0.2313E+01 -0.1309E+01E
 Epicentro: VILLANUEVA - SANTANDER                                             3
 ACTION:UPD 13-04-09 14:02 OP:ep   STATUS:               ID:20130314110638 L   I
 2013-03-14-1100-00M.COL___243                                                 6
 STAT SP IPHASW D HRMM SECON CODA AMPLIT PERI AZIMU VELO AIN AR TRES W  DIS CAZ7
 BAR2 SZ EP   1   11 6 57.75                             174   -0.14 7 15.7 179 
 BAR2 SZ ES   1   11 7 12.81                             174   -0.38 7 15.7 179 
 BAR2 SZ I        11 7 14.42        16.3 0.18            172           15.7 179 
 BRR  HZ EP       11 6 59.71                             153    0.1810 71.3 305 
 BRR  HN ES   1   11 7 16.27                             153    0.16 7 71.3 305 
 RUS  HZ EP   1   11 7  1.60                             146   -0.04 7 93.8 173 
 RUS  HE ES   1   11 7 20.17                             146    0.30 7 93.8 173 
 RUS  HE I        11 7 21.49         9.0 0.48            147           93.8 173 
 PTB  HZ EP   1   11 7  4.58                             133   -0.24 7  142 261 
 PTB  HN ES   1   11 7 25.44                             133   -0.08 7  142 261 
 PTB  HZ I        11 7 27.50         5.5 0.11            132            142 261 
 ZAR  HN ES   1   11 7 35.97                             123    0.05 6  203 294 
 ZAR  HZ I        11 7 42.26         3.1 0.42            122            203 294 
                                                                                
