 2014 1114 1720 21.0 L   6.791 -73.146145.9  RSN  5 0.4 1.7LRSN                1
 GAP=137        1.03       4.7     5.6  9.0 -0.4446E+01 -0.3185E+01  0.1653E+02E
 Epicentro: LOS SANTOS - SANTANDER                                             3
 ACTION:UPD 14-12-19 15:43 OP:nd   STATUS:               ID:20141114172021 L   I
 OLDACT:UP  14-11-14 23:39 OP:cam  STATUS:               ID:20141114171817     3
 OLDACT:REG 14-11-14 21:08 OP:cam  STATUS:               ID:20141114171817     3
 2014-11-14-1718-17M.COL___304                                                 6
 STAT SP IPHASW D HRMM SECON CODA AMPLIT PERI AZIMU VELO AIN AR TRES W  DIS CAZ7
 BRR  HZ EP       1720 42.38                             152    0.1410 71.6 299 
 BRR  HN ES       1720 59.51                             152    0.7410 71.6 299 
 BRR  HN I        1721  0.00        26.7 0.28            153           71.6 299 
 PAM  SZ EP     C 1720 43.35                             151    0.0210 78.2  39 
 PAM  SN ES       1721  0.28                             151   -0.4310 78.2  39 
 PAM  SZ I        1721  2.74         7.2 0.50            153           78.2  39 
 RUS  HZ EP       1720 44.66                             144   -0.0810 99.5 176 
 RUS  HN ES       1721  3.31                             144    0.0910 99.5 176 
 RUS  HZ I        1721  4.25         3.7 0.18            144           99.5 176 
 PTB  HN ES       1721  8.26                             132   -0.76 9  147 259 
 PTB  HZ I        1721 11.28         5.9 0.12            133            147 259 
 CHI  HZ EP       1720 58.92                             117    0.28 8  248 195 
 CHI  HN ES       1721 27.97                             117    0.01 8  248 195 
 CHI  HZ I        1721 33.04         3.2 0.62            118            248 195 
                                                                                
