 2012 1014 1259 47.9 L   6.766 -73.097147.7  RSN  4 0.1 1.9LRSN                1
 GAP=144        0.38       2.6     3.9  3.9 -0.7806E+00 -0.2146E+01 -0.2744E+00E
 Epicentro: LOS SANTOS - SANTANDER                                             3
 ACTION:UPD 12-11-22 17:03 OP:ep   STATUS:               ID:20121014125947 L   I
 2012-10-14-1300-00M.COL___230                                                 6
 STAT SP IPHASW D HRMM SECON CODA AMPLIT PERI AZIMU VELO AIN AR TRES W  DIS CAZ7
 BAR2 SZ EP   1   13 0  7.49                             171   -0.19 7 21.4 206 
 BAR2 SZ ES   1   13 0 23.09                             171   -0.06 7 21.4 206 
 BAR2 SZ I        13 0 24.08        22.2 0.17                          21.4 206 
 PAM  SZ EP       13 0 10.42                             151    0.1610 77.1  35 
 PAM  SN ES   1   13 0 27.64                             151   -0.10 7 77.1  35 
 PAM  SN I        13 0 29.03         8.4 0.40                          77.1  35 
 BRR  HZ EP   1   13 0  9.39                             151   -0.20 7 77.7 299 
 BRR  HE ES   1   13 0 26.69                             151    0.15 7 77.7 299 
 BRR  HN I        13 0 27.36        16.9 0.08                          77.7 299 
 RUS  HZ EP   1   13 0 11.59                             145    0.07 7 96.6 179 
 RUS  HN ES   1   13 0 30.01                             145    0.04 7 96.6 179 
                                                                                
