 2017  314 1617 32.2 L   6.789 -73.177135.8  RSN  5 0.4 1.7LRSN                1
 GAP=133        0.76       4.2     3.7  7.7 -0.2101E+01  0.1121E+02 -0.9464E+01E
 Epicentro: LOS SANTOS - SANTANDER                                             3
 ACTION:UPD 17-05-25 18:40 OP:jn   STATUS:               ID:20170314161732 L   I
 OLDACT:REG 17-03-14 21:00 OP:dnl  STATUS:               ID:20170314160745     3
 2017-03-14-1608-00M.COL___364                                                 6
 STAT SP IPHASW D HRMM SECON CODA AMPLIT PERI AZIMU VELO AIN AR TRES W  DIS CAZ7
 BAR2 EZ EP   2   1617 50.72                             170    0.09 5 21.8 182 
 BAR2 EZ ES       1618  4.68                             170   -0.3010 21.8 182 
 BAR2 EZ I        1618  7.01        11.5 0.30            171           21.8 182 
 PAM  EZ EP       1617 53.36                             148   -0.2310 80.5  41 
 PAM  EE ES       1618 10.40                             148    0.1510 80.5  41 
 PAM  EZ I        1618 12.23         7.1 0.54            151           80.5  41 
 RUS  HZ EP   2   1617 54.66                             142   -0.29 5 99.7 174 
 RUS  HN ES       1618 13.06                             142    0.4010 99.7 174 
 RUS  HZ I        1618 15.07         7.0 0.18            144           99.7 174 
 PTB  HZ EP   2   1617 57.28                             130   -0.79 5  144 259 
 PTB  HN ES       1618 18.05                             130   -0.17 9  144 259 
 PTB  HZ I        1618 20.74        10.5 0.46            132            144 259 
 ZAR  HZ EP   2   1618  4.88                             120    1.12 4  201 293 
 ZAR  HE ES       1618 28.55                             120    0.20 9  201 293 
 ZAR  HZ I        1618 30.24         8.8 0.10            122            201 293 
                                                                                
