 2013  414 1509  4.8 L   6.760 -73.203131.6  RSN  5 0.4 1.2LRSN                1
 GAP=170        0.77       6.6     7.3 10.0  0.1790E+01  0.2157E+02 -0.9318E+01E
 Epicentro: VILLANUEVA - SANTANDER                                             3
 ACTION:UPD 13-05-22 14:38 OP:EP   STATUS:               ID:20130414150904 L   I
 2013-04-14-1508-50M.COL___206                                                 6
 STAT SP IPHASW D HRMM SECON CODA AMPLIT PERI AZIMU VELO AIN AR TRES W  DIS CAZ7
 BAR2 SZ EP   1   15 9 22.63                             171   -0.03 7 18.7 173 
 BAR2 SZ ES   1   15 9 37.24                             171    0.67 7 18.7 173 
 BAR2 SZ I        15 9 39.03        10.3 0.22            167           18.7 173 
 GIR2 SZ EP   1   15 9 22.75                             164   -0.19 7 35.3   2 
 GIR2 SZ ES   1   15 9 36.60                             164   -0.47 7 35.3   2 
 GIR2 SZ I        15 9 36.62         3.0 0.48            169           35.3   2 
 BRR  HZ EP   1   15 9 24.71                             151    0.44 7 68.1 304 
 RUS  HN ES   1   15 9 43.88                             142   -0.27 7 96.8 172 
 RUS  HZ I        15 9 46.54         1.9 0.28            140           96.8 172 
 PTB  HN ES   1   15 9 49.49                             130   -0.17 7  141 260 
 PTB  HZ I        15 9 51.84         2.5 0.40            130            141 260 
                                                                                
