 2013  114 1922 25.8 L   6.800 -73.131142.2  RSN  6 0.4 2.1LRSN                1
 GAP=239        0.78       5.3     6.4  6.5  0.1915E+02  0.7290E+01  0.4381E+01E
 Epicentro: LOS SANTOS - SANTANDER                                             3
 ACTION:UPD 13-02-15 09:14 OP:ep   STATUS:               ID:20130114192225 L   I
 2013-01-14-1920-00M.COL___241                                                 6
 STAT SP IPHASW D HRMM SECON CODA AMPLIT PERI AZIMU VELO AIN AR TRES W  DIS CAZ7
 BAR2 SZ EP   1   1922 44.60                             170   -0.45 7 23.7 194 
 BAR2 SZ ES   1   1922 59.54                             170   -0.49 7 23.7 194 
 BAR2 SZ I        1923  1.11        30.8 0.34            159           23.7 194 
 BRR  HZ EP       1922 46.84                             151    0.1510 72.6 298 
 BRR  HN ES   1   1923  3.43                             151    0.49 7 72.6 298 
 BRR  HZ I        1923  7.67        39.1 0.12            146           72.6 298 
 RUS  HZ EP       1922 49.34                             143    0.1010  101 177 
 RUS  HN ES   1   1923  7.96                             143    0.48 7  101 177 
 PTB  HZ EP       1922 52.09                             131   -0.58 9  149 259 
 PTB  HN ES   1   1923 13.42                             131   -0.17 7  149 259 
 PTB  HZ I        1923 15.14        17.1 0.50            126            149 259 
 ZAR  HZ EP   1   1922 58.45                             121    0.24 6  206 292 
 ZAR  HN ES   1   1923 23.67                             121    0.21 6  206 292 
 ZAR  HZ I        1923 31.39        14.0 0.32            120            206 292 
 CHI  HZ EP   1   1923  3.86                             116    0.47 6  249 196 
 CHI  HE ES   1   1923 32.56                             116   -0.12 6  249 196 
 CHI  HZ I        1923 43.98         2.8 0.42            115            249 196 
                                                                                
