 2013  814 1842 19.4 L   6.845 -73.103135.7  RSN  4 0.2 1.2LRSN                1
 GAP=205        0.42       3.7     4.3  9.5  0.8751E+01 -0.6749E+01 -0.1860E+02E
 Epicentro: LOS SANTOS - SANTANDER                                             3
 ACTION:UPD 14-01-14 09:02 OP:ep   STATUS:               ID:20130814184219 L   I
 OLDACT:REG 13-08-14 15:46 OP:jn   STATUS:               ID:20130814183959     3
 2013-08-14-1839-59M.COL___270                                                 6
 STAT SP IPHASW D HRMM SECON CODA AMPLIT PERI AZIMU VELO AIN AR TRES W  DIS CAZ7
 RUS  HZ EP   1   1842 42.73                             140    0.21 7  105 179 
 RUS  HN ES   1   1843  0.49                             140   -0.07 7  105 179 
 RUS  HZ I        1843  2.60         2.2 0.46            141            105 179 
 PTB  HZ EP   1   1842 45.83                             128   -0.25 7  153 257 
 PTB  HN ES   1   1843  6.84                             128   -0.06 7  153 257 
 PTB  HZ I        1843 14.00         2.8 0.36            128            153 257 
 ZAR  HE ES   1   1843 16.75                             120    0.26 6  207 290 
 SML  HE ES   1   1843 23.03                             115   -0.10 6  241 334 
                                                                                
