 2012 1214 1409 21.0 L   6.793 -73.158142.0  RSN  9 0.4 2.5LRSN                1
 GAP=135        1.01       3.2     4.3  6.1 -0.2320E+00  0.3471E+01  0.1672E+01E
 Epicentro: LOS SANTOS - SANTANDER                                             3
 ACTION:UPD 13-01-04 14:27 OP:ep   STATUS:               ID:20121214140921 L   I
 2012-12-14-1407-50M.COL___204                                                 6
 STAT SP IPHASW D HRMM SECON CODA AMPLIT PERI AZIMU VELO AIN AR TRES W  DIS CAZ7
 BAR2 SZ EP       14 9 40.28                             171    0.1010 22.4 187 
 BAR2 SZ ES       14 9 54.81                             171   -0.3210 22.4 187 
 BAR2 SZ I        14 9 56.62        71.3 0.18                          22.4 187 
 GIR2 SZ EP       14 9 40.33                             167    0.0610 31.8 353 
 BRR  HZ EP       14 9 42.23                             152    0.5110 70.4 300 
 BRR  HN ES       14 9 58.75                             152    0.8910 70.4 300 
 BRR  HN I        1410  2.47        84.2 0.16                          70.4 300 
 PAM  SZ EP       14 9 43.18                             150    0.2510 78.8  40 
 PAM  SN ES       14 9 59.97                             150   -0.0410 78.8  40 
 PAM  SN I        1410  1.10        38.5 0.48                          78.8  40 
 RUS  HZ EP     C 14 9 44.34                             143   -0.0210100.0 175 
 RUS  HN ES       1410  2.33                             143   -0.2410100.0 175 
 RUS  HN I        1410  5.33        25.3 0.22                         100.0 175 
 PTB  HZ EP       14 9 47.19                             131   -0.36 9  146 259 
 PTB  HN ES       1410  7.57                             131   -0.67 9  146 259 
 PTB  HN I        1410 11.08        41.7 0.20                           146 259 
 OCA  HZ EP       14 9 48.71                             129   -0.39 9  161 354 
 OCA  HN ES       1410 10.54                             129   -0.46 9  161 354 
 ZAR  HE ES       1410 18.33                             122    0.17 9  203 292 
 ZAR  HE I        1410 25.46        59.2 0.18                           203 292 
 CHI  HZ EP       14 9 58.62                             116    0.22 8  248 195 
 CHI  HN ES       1410 27.82                             116    0.27 8  248 195 
 CHI  HN I        1410 33.75        21.2 0.44                           248 195 
                                                                                
