 2010  114 1512 59.8 L   6.751 -72.932143.2  RSN  5 0.5 1.9LRSN                1
 GAP=312        0.83      11.7    16.3 10.8 -0.6637E+02  0.5743E+02  0.2142E+02E
 Epicentro: CEPITA - SANTANDER                                                 3
 ACTION:UP  10-08-24 09:44 OP:vdl  STATUS:               ID:20100114151259 L   I
 2010-01-14-1510-50S.COL___095                                                 6
 STAT SP IPHASW D HRMM SECON CODA AMPLIT PERI AZIMU VELO SNR AR TRES W  DIS CAZ7
 BAR2 SZ EP   1   1513 19.15                             167    -0.2 7   33 238 
 BAR2 SZ ES   2   1513 34.11                             167    -0.5 5   33 238 
 RUS  BZ EP   1   1513 23.44                             144     0.4 7   96 190 
 RUS  BN ES   2   1513 41.84                             144     0.7 5   96 190 
 RUS  BZ I        1513 43.48         4.8 0.44                            96 190 
 CHI  HZ EP   1   1513 37.24                             116    -0.4 6  251 201 
 CHI  HE ES   2   1514  6.40                             116    -0.7 4  251 201 
 CHI  HZ I        1514 10.41         4.2 0.73                           251 201 
 RREF BZ EP   1   1513 48.30                             109     0.7 5  337 233 
 RREF BE ES   2   1514 25.23                             109     0.4 3  337 233 
 RREF BZ I        1514 30.83         4.2 0.56                           337 233 
 PRA  HZ EP   1   1513 53.76                             106    -0.4 4  400 213 
 PRA  HE ES   2   1514 35.90                             106    -0.6 3  400 213 
 PRA  HZ I        1514 41.22         3.8 0.39                           400 213 
                                                                                
