 2011  214 1050 53.4 L   6.705 -72.988141.2  RSN  4 0.3 1.0LRSN                1
 GAP=178        0.68       5.4    26.8 11.5  0.2084E+02 -0.2422E+03 -0.2127E+02E
 Epicentro: ARATOCA - SANTANDER                                                3
 ACTION:UP  11-03-28 15:08 OP:jfem STATUS:               ID:20110214105053 L   I
 2011-02-14-1049-47S.COL___137                                                 6
 STAT SP IPHASW D HRMM SECON CODA AMPLIT PERI AZIMU VELO SNR AR TRES W  DIS CAZ7
 BAR2 SZ ES   1   1051 27.25                             169    -0.2 7   25 240 
 BTL  SZ EP       1051 13.19                             163     0.310   39 307 
 BTL  SZ ES   1   1051 28.00                             163    -0.1 7   39 307 
 RUS  HZ EP   1   1051 15.48                             146    -0.5 7   90 187 
 RUS  HN ES   1   1051 33.93                             146     0.3 7   90 187 
 RUS  HZ I        1051 35.74         1.7 0.67                            90 187 
 GRA  SZ EP       1051 18.77                             134     0.010  132   9 
                                                                                
