 2011 1214 1447 35.1 L   6.754 -73.122146.0  RSN  8 0.4 1.7LRSN                1
 GAP=142        0.64       3.7     4.4  5.1 -0.3787E+01  0.3367E+01  0.3981E+01E
 Epicentro: LOS SANTOS - SANTANDER                                             3
 ACTION:UPD 12-07-13 16:16 OP:ep   STATUS:               ID:20111214144735 L   I
 2011-12-14-1440-00M.COL___185                                                 6
 STAT SP IPHASW D HRMM SECON CODA AMPLIT PERI AZIMU VELO AIN AR TRES W  DIS CAZ7
 BAR2 SZ EP       1447 54.65                             172   -0.0610 19.1 200 
 BAR2 SZ ES   1   1448  9.96                             172   -0.02 7 19.1 200 
 BAR2 SZ I        1448 12.35        10.5 0.21                          19.1 200 
 BRR  HZ EP       1447 56.54                             151   -0.0410 76.0 301 
 BRR  HE ES       1448 13.74                             151    0.4310 76.0 301 
 BRR  HE I        1448 14.43        38.8 0.26                          76.0 301 
 PAM  SZ EP       1447 57.51                             150   -0.0110 79.8  36 
 PAM  SE ES   1   1448 14.71                             150   -0.27 7 79.8  36 
 RUS  HZ EP   2   1447 58.65                             146    0.11 5 95.4 177 
 RUS  HN ES   1   1448 16.80                             146    0.01 7 95.4 177 
 RUS  HZ I        1448 18.61         3.6 0.35                          95.4 177 
 PTB  HZ EP   1   1448  1.85                             132   -0.42 7  149 261 
 CTAU SZ EP   2   1448  8.65                             124    0.85 4  200 211 
 NOR  SZ EP   1   1448 10.65                             119   -0.14 6  234 236 
 NOR  SE ES   1   1448 37.94                             119   -0.67 6  234 236 
 CHI  HZ EP   2   1448 12.54                             118    0.15 4  244 196 
 CHI  HZ I        1448 15.43         2.7 0.34                           244 196 
 CHI  HN ES   2   1448 42.25                             118    0.80 4  244 196 
                                                                                
