 2010  814 1212 19.9 L   6.744 -73.035144.5  RSN  4 0.1 1.2LRSN                1
 GAP=236        0.33       6.2    14.2  7.6  0.7096E+02 -0.6309E+02 -0.2563E+02E
 Epicentro: ARATOCA - SANTANDER                                                3
 ACTION:UP  10-09-07 10:54 OP:vdl  STATUS:               ID:20100814121219 L   I
 2010-08-14-1211-10S.COL___111                                                 6
 STAT SP IPHASW D HRMM SECON CODA AMPLIT PERI AZIMU VELO SNR AR TRES W  DIS CAZ7
 BAR2 SZ ES   2   1212 54.49                             171    -0.1 5   24 224 
 BAR2 SZ I        1212 55.85         5.2 0.22                            24 224 
 BTL  SZ EP   1   1212 39.70                             168     0.1 7   32 307 
 BTL  SZ ES   3   1212 54.90                             168    -0.1 2   32 307 
 BRR  HN ES   2   1212 58.80                             149     0.0 5   85 298 
 RUS  HZ EP   2   1212 42.89                             146    -0.2 5   94 183 
 RUS  HN ES   1   1213  1.24                             146     0.1 7   94 183 
 RUS  HZ I        1213  3.17         2.0 0.29                            94 183 
                                                                                
