 2013  514 1532 10.6 L   6.804 -73.146145.9  RSN 13 0.5 2.5LRSN                1
 GAP=136        0.99       3.2     4.6  6.0 -0.3383E+00  0.7469E+01  0.3587E+01E
 Epicentro: LOS SANTOS - SANTANDER                                             3
 ACTION:UPD 13-06-20 09:50 OP:ep   STATUS:               ID:20130514153210 L   I
 2013-05-14-1530-00M.COL___256                                                 6
 STAT SP IPHASW D HRMM SECON CODA AMPLIT PERI AZIMU VELO AIN AR TRES W  DIS CAZ7
 BAR2 SZ IP     C 1532 30.33                             170    0.0610 23.7 190 
 BAR2 SZ ES   1   1532 45.53                             170   -0.08 7 23.7 190 
 BAR2 SZ I        1532 47.82        83.3 0.32            168           23.7 190 
 GIR2 SZ IP     D 1532 30.35                             167    0.0510 30.9 350 
 GIR2 SZ ES   1   1532 44.91                             167   -0.74 7 30.9 350 
 GIR2 SZ I        1532 47.29        46.1 0.12            166           30.9 350 
 BRR  HZ IP     D 1532 32.13                             153    0.3610 71.0 298 
 BRR  HN ES   1   1532 49.22                             153    0.95 7 71.0 298 
 BRR  HZ I        1532 50.20        41.8 0.12            149           71.0 298 
 PAM  SZ IP     C 1532 33.25                             151    0.4210 77.1  40 
 PAM  SN ES   1   1532 50.38                             151    0.22 7 77.1  40 
 PAM  SZ I        1532 50.95        33.8 0.20            156           77.1  40 
 RUS  HZ EP       1532 34.29                             144   -0.1210  101 176 
 RUS  HN ES   1   1532 52.43                             144   -0.54 7  101 176 
 RUS  HZ I        1532 54.36        54.7 0.28            145            101 176 
 PTB  HZ EP   1   1532 37.27                             132   -0.33 7  148 259 
 PTB  HN ES   1   1532 57.88                             132   -0.77 7  148 259 
 PTB  HZ I        1533  3.57        40.6 0.36            131            148 259 
 OCA  HN ES   1   1533  0.50                             130   -0.47 7  160 353 
 OCA  HZ I        1533  3.38        36.2 0.16            131            160 353 
 ZAR  HZ EP   1   1532 43.66                             122    0.60 6  204 292 
 ZAR  HN ES       1533  8.79                             122    0.43 9  204 292 
 ZAR  HZ I        1533 14.12        42.5 0.50            122            204 292 
 NOR  HZ EP       1532 46.38                             118    0.00 8  235 234 
 NOR  HN ES   1   1533 14.22                             118   -0.05 6  235 234 
 NOR  HZ I        1533 22.68        13.9 0.26            119            235 234 
 SML  HZ EP       1532 46.65                             117   -0.56 8  243 335 
 SML  HN ES   1   1533 15.16                             117   -0.60 6  243 335 
 SML  HZ I        1533 21.16        58.1 0.10            119            243 335 
 CHI  HZ EP   1   1532 48.40                             117    0.03 6  249 195 
 CHI  HN ES   1   1533 18.95                             117    1.14 6  249 195 
 CHI  HZ I        1533 21.39        10.5 0.32            118            249 195 
 PRA  HZ EP       1533  3.97                             106   -0.21 6  392 210 
 PRA  HN ES       1533 45.34                             106   -0.62 6  392 210 
 PRA  HZ I        1533 49.44        11.4 0.34            107            392 210 
 SJC  HZ EP   4   1533  4.63                             106   -1.52 0  409 327 
 SJC  HN ES   4   1533 45.94                             106   -3.52 0  409 327 
 SJC  HZ I        1533 50.00         6.2 0.44            107            409 327 
                                                                                
