 2011  314 1416 59.8 L   6.772 -73.151136.0  RSN  4 0.4 2.0LRSN                1
 GAP=300        0.86      13.0    11.4 16.3 -0.6333E+02  0.1151E+03 -0.8611E+02E
 Epicentro: LOS SANTOS - SANTANDER                                             3
 ACTION:UP  11-06-16 14:33 OP:jfem STATUS:               ID:20110314141659 L   I
 2011-03-14-1413-29S.COL___131                                                 6
 STAT SP IPHASW D HRMM SECON CODA AMPLIT PERI AZIMU VELO SNR AR TRES W  DIS CAZ7
 BAR2 SZ EP       1417 18.09                             171    -0.110   20 190 
 BAR2 SZ I        1417 35.58        19.8 0.20                            20 190 
 RUS  HZ EP   1   1417 22.33                             142    -0.1 7   98 176 
 RUS  HN ES   1   1417 40.16                             142     0.1 7   98 176 
 RUS  HZ I        1417 41.59         8.3 0.27                            98 176 
 NOR  SZ EP   1   1417 35.65                             116     0.9 6  233 235 
 NOR  SN ES   1   1418  1.67                             116    -0.4 6  233 235 
 PRA  HZ EP   1   1417 52.12                             105    -0.6 4  389 210 
 PRA  HZ I        1418 40.01         6.9 0.16                           389 210 
                                                                                
