 2014  914 1844 42.5 L   7.444 -73.215134.7  RSN  4 0.1 1.4LRSN                1
 GAP=228        0.38       3.7     3.4  5.5 -0.3585E+00  0.1187E+02  0.5450E+01E
 Epicentro: EL PLAYON - SANTANDER                                              3
 ACTION:UPD 14-10-03 23:04 OP:nd   STATUS:               ID:20140914184442 L   I
 OLDACT:REG 14-09-14 20:57 OP:mh   STATUS:               ID:20140914183818     3
 2014-09-14-1838-18M.COL___293                                                 6
 STAT SP IPHASW D HRMM SECON CODA AMPLIT PERI AZIMU VELO AIN AR TRES W  DIS CAZ7
 PAM  SN ES       1845 17.96                             156   -0.0410 58.1 101 
 PAM  SZ I        1845 20.03         8.2 0.33            139           58.1 101 
 BAR2 SZ EP   1   1845  4.61                             143    0.26 7 94.3 178 
 BAR2 SZ I        1845 22.58         6.6 0.17            131           94.3 178 
 PTB  HZ EP       1845 10.71                             125   -0.01 9  170 234 
 PTB  HN ES   1   1845 32.71                             125   -0.03 7  170 234 
 PTB  HZ I        1845 35.83         4.5 0.21            115            170 234 
 RUS  HZ EP   1   1845 11.38                             125   -0.22 7  172 175 
 RUS  HE ES       1845 34.31                             125    0.02 9  172 175 
 RUS  HZ I        1845 38.78         1.3 0.22            114            172 175 
                                                                                
