 2012  414 1237 11.8 L   6.835 -73.385120.9  RSN  7 0.3 2.1LRSN                1
 GAP= 87        0.74       3.7     3.6  5.6 -0.2677E+01  0.2306E+01 -0.7863E+00E
 Epicentro: SAN VICENTE DE CHUCURI - SANTANDER                                 3
 ACTION:UPD 12-07-05 11:53 OP:tino STATUS:               ID:20120414123711 L   I
 2012-04-14-1230-00M.COL___180                                                 6
 STAT SP IPHASW D HRMM SECON CODA AMPLIT PERI AZIMU VELO AIN AR TRES W  DIS CAZ7
 BAR2 SZ EP       1237 28.97                             163     0.210   35 140 
 BAR2 SZ ES   1   1237 41.58                             163    -0.4 7   35 140 
 BAR2 SZ I        1237 43.32        52.0 0.36                            35 140 
 BRR  HZ EP       1237 29.24                             157     0.310   47 310 
 BRR  HE ES       1237 42.61                             157     0.310   47 310 
 BRR  HZ I        1237 44.34        20.8 0.15                            47 310 
 PAM  SZ EP   1   1237 32.36                             140    -0.3 7   94  54 
 PAM  SN ES   1   1237 48.78                             140    -0.1 7   94  54 
 RUS  HZ EP   1   1237 33.83                             135    -0.1 7  109 162 
 RUS  HE ES   1   1237 51.31                             135     0.1 7  109 162 
 PTB  HZ EP       1237 34.17                             131    -0.310  123 255 
 PTB  HN ES   1   1237 51.55                             131    -0.6 7  123 255 
 OCA  SZ EP       1237 37.72                             124     0.0 9  155   3 
 NOR  SN ES   1   1238  9.69                             115     0.3 6  216 230 
                                                                                
