 2015  314 1301  2.1 L   6.796 -73.123145.9  RSN 10 0.4 1.9LRSN                1
 GAP=140        0.85       3.5     4.9  6.5 -0.7815E+01  0.1488E+02 -0.4047E+01E
 Epicentro: LOS SANTOS - SANTANDER                                             3
 ACTION:UPD 15-04-30 16:25 OP:nd   STATUS:               ID:20150314130102 L   I
 OLDACT:REG 15-03-14 20:51 OP:spq  STATUS:               ID:20150314125747     3
 2015-03-14-1257-47M.COL___272                                                 6
 STAT SP IPHASW D HRMM SECON CODA AMPLIT PERI AZIMU VELO AIN AR TRES W  DIS CAZ7
 BAR2 EZ EP       13 1 21.88                             170    0.0810 23.5 196 
 BAR2 EZ ES   1   13 1 36.89                             170   -0.24 7 23.5 196 
 BAR2 EZ I        13 1 37.73        19.3 0.14            169           23.5 196 
 BRR  HZ EP       13 1 23.86                             151    0.4110 73.6 298 
 PAM  SZ EP       13 1 24.58                             151    0.2710 76.1  38 
 PAM  SN ES       13 1 41.66                             151    0.0710 76.1  38 
 PAM  SZ I        13 1 43.87        17.6 0.60            153           76.1  38 
 RUS  HZ EP   1   13 1 26.13                             144    0.25 7  100 177 
 RUS  HN ES       13 1 44.13                             144   -0.2510  100 177 
 RUS  HZ I        13 1 45.40         8.9 0.22            145            100 177 
 PTB  HZ EP   1   13 1 29.85                             131    0.50 7  150 259 
 PTB  HN ES   1   13 1 50.72                             131    0.15 7  150 259 
 PTB  HZ I        13 1 51.74         8.9 0.16            131            150 259 
 SPBC HZ EP       13 1 30.27                             129   -0.51 9  164 220 
 SPBC HN ES       13 1 52.51                             129   -0.61 9  164 220 
 SPBC HZ I        13 1 58.32         9.9 0.28            129            164 220 
 NOR  HN ES       13 2  6.67                             118    0.56 8  237 235 
 NOR  HZ I        13 2 10.56         5.0 0.16            118            237 235 
 SML  HZ EP   1   13 1 38.25                             117   -0.69 6  245 335 
 SML  HE ES   1   13 2  7.02                             117   -0.62 6  245 335 
 SML  HZ I        13 2 10.87         9.6 0.24            118            245 335 
 GUY2CHZ EP   1   13 1 45.51                             112   -0.46 5  303 235 
 GUY2CHE ES   1   13 2 20.78                             112    0.63 5  303 235 
 GUY2CHZ I        13 2 29.38         3.1 0.60                           303 235 
 PRA  HZ EP   1   13 1 55.95                             106    0.17 4  393 210 
 PRA  HN ES   1   13 2 37.83                             106    0.22 4  393 210 
 PRA  HZ I        13 2 43.71         2.2 0.24            107            393 210 
                                                                                
