 2013  314 1500 52.6 L   6.962 -72.739127.0  RSN  4 0.1 1.7LRSN                1
 GAP=192        0.41       3.3     4.1  5.3  0.3176E+01  0.3030E+01  0.6759E+01E
 Epicentro: CERRITO - SANTANDER                                                3
 ACTION:UPD 13-04-09 14:02 OP:ep   STATUS:               ID:20130314150052 L   I
 2013-03-14-1500-00M.COL___243                                                 6
 STAT SP IPHASW D HRMM SECON CODA AMPLIT PERI AZIMU VELO AIN AR TRES W  DIS CAZ7
 PAM  SE ES   1   15 1 25.21                             161   -0.04 8 42.0   6 
 BAR2 SZ EP   1   15 1 11.90                             152    0.26 8 63.8 230 
 BAR2 SZ I        15 1 29.37         8.2 0.33            151           63.8 230 
 BRR  HZ EP       15 1 14.36                             137   -0.1710  109 279 
 BRR  HE ES       15 1 31.70                             137    0.0610  109 279 
 BRR  HE I        15 1 32.67        15.7 0.29            134            109 279 
 RUS  HZ EP   1   15 1 16.63                             133    0.09 7  124 198 
 RUS  HN ES   1   15 1 35.08                             133   -0.14 7  124 198 
 RUS  HE I        15 1 36.96         4.9 0.30            126            124 198 
                                                                                
