 2015  214 1515 20.9 L   6.826 -73.172138.0  RSN 23 0.6 2.4LRSN                1
 GAP= 53        1.86       4.2     4.9  8.2 -0.2558E+01  0.1373E+02  0.6069E+01E
 Epicentro: ZAPATOCA - SANTANDER                                               3
 ACTION:UPD 15-04-30 21:26 OP:nd   STATUS:               ID:20150214151520 L   I
 OLDACT:REG 15-02-14 22:23 OP:stll STATUS:               ID:20150214150749     3
 2015-02-14-1507-49M.COL___305                                                 6
 STAT SP IPHASW D HRMM SECON CODA AMPLIT PERI AZIMU VELO AIN AR TRES W  DIS CAZ7
 BAR2 EZ IP     C 1515 39.89                             169    0.2610 25.8 183 
 BAR2 EZ ES       1515 54.34                             169    0.0910 25.8 183 
 BAR2 EZ I        1515 55.96        84.0 0.18            168           25.8 183 
 BRR  HZ EP       1515 41.84                             152    0.8810 67.3 298 
 BRR  HN ES       1515 57.26                             152    0.6310 67.3 298 
 BRR  HZ I        1516  3.56        54.9 0.16            148           67.3 298 
 PAM  SZ EP       1515 42.30                             150    0.0510 77.1  43 
 PAM  SZ I        1515 42.90        87.5 0.22            150           77.1  43 
 PAM  SN ES       1515 59.04                             150    0.1110 77.1  43 
 RUS  HZ EP       1515 43.95                             141   -0.1510  104 175 
 RUS  HZ I        1515 44.98        30.0 0.12            141            104 175 
 RUS  HE ES       1516  2.04                             141   -0.1810  104 175 
 PTB  HZ EP       1515 47.12                             131    0.11 9  145 258 
 PTB  HN ES       1516  7.22                             131   -0.17 9  145 258 
 PTB  HZ I        1516 10.17        42.1 0.14            127            145 258 
 OCA  HN ES       1516  9.07                             128   -0.60 9  157 354 
 TAM  HZ IP     C 1515 48.29                             128    0.00 9  159 106 
 TAM  HZ I        1515 48.36        48.2 0.20            129            159 106 
 TAM  HN ES       1516  8.56                             128   -1.11 9  159 106 
 SPBC HZ EP       1515 49.29                             127    0.46 9  164 218 
 SPBC HE ES       1516 10.50                             127   -0.13 9  164 218 
 NOR  HZ EP       1515 56.12                             117    0.03 8  234 233 
 NOR  HE ES       1516 23.69                             117    0.13 8  234 233 
 NOR  HZ I        1516 27.81        19.6 0.20            115            234 233 
 SML  HZ EP       1515 55.88                             116   -0.78 8  240 336 
 SML  HE ES       1516 24.52                             116   -0.05 8  240 336 
 CHI  HZ EP       1515 58.24                             115   -0.13 8  251 194 
 CHI  HE ES       1516 27.23                             115   -0.39 8  251 194 
 CHI  HZ I        1516 30.92         8.5 0.24            114            251 194 
 URE  HZ EP       1516  0.23                             112   -0.92 7  280 292 
 URE  HE ES       1516 30.92                             112   -1.65 7  280 292 
 URE  HZ I        1516 33.50        17.7 0.12            110            280 292 
 GUY2CHZ EP       1516  5.12                             111    1.07 7  300 234 
 GUY2CHE ES       1516 37.35                             111   -0.38 7  300 234 
 GUY2CHZ I        1516 45.32        12.2 0.30                           300 234 
 SOCV BZ EP   9   1516  2.85                             111   -0.83 0  302  58 
 SOCV BE ES       1516 40.61                                    4.37 7  302  58 
 PTGC HZ EP   9   1516  3.18                             110   -1.64 0  312 158 
 PTGC HN ES       1516 35.84                                   -1.62 7  312 158 
 RREF HZ EP       1516  7.09                             109    0.44 7  321 229 
 RREF HN ES       1516 42.45                             109    0.09 7  321 229 
 RREF HZ I        1516 52.25        11.3 0.24            108            321 229 
 CBOC HZ EP       1516  8.07                             109    0.81 7  332 251 
 CBOC HE ES       1516 43.30                             109   -0.14 7  332 251 
 CBOC HZ I        1516 55.98         4.9 0.62            107            332 251 
 DBB  SZ EP       1516  8.20                             108    0.51 7  336 274 
 DBB  SZ I        1516 50.73        27.5 0.42            107            336 274 
 TOL  SZ EP       1516  9.76                             108    0.93 7  344 224 
 TOL  SN ES       1516 46.72                             108    0.49 7  344 224 
 MON  HZ EP   9   1516  7.58                             107   -1.53 0  350 308 
 MON  HE ES       1516 45.35                                    0.14 6  350 308 
 MON  HZ I        1516 46.94         6.9 0.16            106            350 308 
 ANIL HN ES       1516 48.48                             107   -0.53 6  357 224 
 PRA  HZ EP       1516 13.94                             105   -0.32 6  393 209 
 PRA  HN ES       1516 56.10                             105    0.20 6  393 209 
 PRA  HZ I        1517  1.01        10.5 0.74            104            393 209 
 ORTC HZ EP       1516 14.95                             105    0.34 6  396 216 
 ORTC HE ES       1516 56.91                             105    0.39 6  396 216 
 ORTC HZ I        1517  2.77         6.6 0.60            104            396 216 
                                                                                
