 2013  814 1748  2.5 L   6.814 -73.163144.8  RSN 16 0.5 2.8LRSN                1
 GAP= 70        1.18       3.5     3.7  5.9 -0.1633E+00  0.4420E+01  0.3821E+01E
 Epicentro: LOS SANTOS - SANTANDER                                             3
 ACTION:UPD 14-01-14 09:02 OP:ep   STATUS:               ID:20130814174802 L   I
 OLDACT:REG 13-08-14 15:58 OP:jn   STATUS:               ID:20130814174650     3
 2013-08-14-1746-50M.COL___229                                                 6
 STAT SP IPHASW D HRMM SECON CODA AMPLIT PERI AZIMU VELO AIN AR TRES W  DIS CAZ7
 BAR2 SZ EP     D 1748 22.15                             170    0.1010 24.7 185 
 BAR2 SZ ES       1748 37.23                             170   -0.0710 24.7 185 
 BAR2 SZ I        1748 38.56       111.4 0.14            164           24.7 185 
 BRR  HZ EP       1748 23.91                             153    0.4910 68.8 298 
 BRR  HN ES       1748 40.90                             153    1.1710 68.8 298 
 BRR  HZ I        1748 45.35       125.3 0.14            143           68.8 298 
 PAM  SZ EP       1748 25.06                             151    0.4410 77.4  41 
 PAM  SN ES       1748 41.94                             151    0.0710 77.4  41 
 PAM  SZ I        1748 44.82        69.5 0.44            148           77.4  41 
 RUS  HZ EP       1748 26.22                             143   -0.0710  102 175 
 RUS  HN ES       1748 43.95                             143   -0.8910  102 175 
 RUS  HZ I        1748 46.26        42.3 0.24            135            102 175 
 PTB  HZ EP       1748 28.74                             132   -0.52 9  146 258 
 PTB  HN ES       1748 49.31                             132   -0.81 9  146 258 
 PTB  HZ I        1748 58.20        76.5 0.34            122            146 258 
 TAM  HZ EP       1748 30.59                             130    0.27 9  157 105 
 TAM  HN ES       1748 51.76                             130   -0.25 9  157 105 
 TAM  HZ I        1748 52.76        42.6 0.30            125            157 105 
 OCA  HN ES       1748 51.78                             130   -0.69 9  158 354 
 OCA  HZ I        1748 55.67        95.1 0.20            122            158 354 
 SPBC HZ EP       1748 31.37                             129    0.43 9  163 218 
 SPBC HE ES   1   1748 53.55                             129    0.43 7  163 218 
 SPBC HZ I        1748 59.24        92.0 0.22            119            163 218 
 ZAR  HE ES   1   1748 59.92                             122    0.20 6  202 292 
 ZAR  HZ I        1749  6.22        79.5 0.32            114            202 292 
 NOR  HZ EP       1748 38.43                             118    0.31 8  234 234 
 NOR  HN ES   1   1749  5.99                             118    0.10 6  234 234 
 NOR  HZ I        1749  9.78        51.2 0.36            110            234 234 
 SML  HZ EP   1   1748 38.49                             117   -0.35 6  241 336 
 SML  HE ES   1   1749  6.50                             117   -0.68 6  241 336 
 SML  HZ I        1749 11.91       113.5 0.22            110            241 336 
 CHI  HZ EP       1748 40.47                             117    0.20 8  250 195 
 CHI  HN ES   1   1749 10.17                             117    0.45 6  250 195 
 CHI  HZ I        1749 17.66        35.9 0.42            109            250 195 
 HEL  HZ EP   1   1748 41.94                             115   -0.57 6  271 255 
 HEL  HZ I        1749 20.41        34.8 0.34            107            271 255 
 GUY2CHZ EP   1   1748 46.29                             112    0.29 5  301 234 
 GUY2CHZ I        1749 30.42        34.8 0.44                           301 234 
 DBB  SZ EP   1   1748 49.37                             109   -0.35 5  337 274 
 PRA  HZ EP       1748 55.69                             106   -0.36 6  392 209 
 PRA  HZ I        1749 43.15        33.7 0.64            100            392 209 
                                                                                
