 2011 1014 1749 28.7 L   6.747 -73.079140.2  RSN  5 0.2 1.8LRSN                1
 GAP=148        0.54       3.3     5.0  5.1  0.1241E+01  0.4749E+01 -0.2305E+01E
 Epicentro: LOS SANTOS - SANTANDER                                             3
 ACTION:UPD 12-07-13 16:03 OP:ep   STATUS:               ID:20111014174928 L   I
 2011-10-14-1744-30S.COL___168                                                 6
 STAT SP IPHASW D HRMM SECON CODA AMPLIT PERI AZIMU VELO AIN AR TRES W  DIS CAZ7
 BAR2 SZ EP   1   1749 47.63                             171   -0.02 7 20.5 214 
 BAR2 SZ ES   1   1750  2.93                             171    0.54 7 20.5 214 
 BAR2 SZ I        1750  3.90        16.1 0.29                          20.5 214 
 PAM  SZ EP   1   1749 50.41                             150    0.02 7 77.8  33 
 PAM  SN ES   1   1750  7.20                             150   -0.08 7 77.8  33 
 BRR  HZ EP   1   1749 49.63                             148   -0.23 7 80.5 300 
 BRR  HE ES   1   1750  6.08                             148   -0.24 7 80.5 300 
 BRR  HZ I        1750  7.80        17.4 0.19                          80.5 300 
 RUS  HZ EP   1   1749 51.58                             144    0.08 7 94.4 180 
 RUS  HN ES       1750  9.08                             144   -0.1710 94.4 180 
 RUS  HZ I        1750 11.75         4.6 0.31                          94.4 180 
 ZAR  HZ EP   1   1750  2.12                             120    0.34 6  213 293 
 ZAR  HZ I        1750 31.87         6.6 0.36                           213 293 
                                                                                
