 2016 1214 1619 16.9 L   7.038 -73.404 44.6  RSN  6 0.4 1.6LRSN                1
 GAP=139        1.11       3.5     2.7  7.5  0.1597E+01  0.1133E+01  0.2460E+01E
 Epicentro: SAN VICENTE DE CHUCURI - SANTANDER                                 3
 ACTION:UPD 17-01-11 20:15 OP:rebc STATUS:               ID:20161214161916 L   I
 OLDACT:REG 16-12-14 20:02 OP:ar   STATUS:               ID:20161214161647     3
 2016-12-14-1617-00M.COL___361                                                 6
 STAT SP IPHASW D HRMM SECON CODA AMPLIT PERI AZIMU VELO AIN AR TRES W  DIS CAZ7
 BRR  HZ EP       1619 25.46                             135    0.2710 34.9 283 
 BRR  HN ES       1619 31.66                             135   -0.0310 34.9 283 
 BRR  HZ I        1619 33.12        32.6 0.10            135           34.9 283 
 BAR2 EZ EP       1619 27.69                             119    0.1810 55.0 154 
 BAR2 EZ ES       1619 35.96                             119    0.1510 55.0 154 
 BAR2 EZ I        1619 37.14        41.1 0.16            120           55.0 154 
 PAM  EZ EP       1619 31.02                             105   -0.2010 84.7  67 
 PAM  EN ES       1619 41.99                             105   -0.4410 84.7  67 
 PAM  EZ I        1619 42.63        14.7 0.20            108           84.7  67 
 PTB  HZ EP       1619 35.87                              96   -0.1210  129 245 
 PTB  HN ES       1619 49.95                              96   -0.9710  129 245 
 PTB  HZ I        1619 53.27         4.7 0.26             97            129 245 
 RUS  HZ EP       1619 37.66                              96    0.7410  132 164 
 RUS  HN ES       1619 52.35                              96   -0.2210  132 164 
 RUS  HZ I        1619 54.46         8.3 0.26             97            132 164 
 ZAR  HZ EP       1619 41.22                              93    0.37 9  168 287 
 ZAR  HN ES       1619 59.95                              93    0.38 9  168 287 
 ZAR  HZ I        1620  1.24        11.6 0.34             94            168 287 
                                                                                
