 2015 1014 1259  0.5 L   6.833 -73.156139.2  RSN 19 0.4 2.6LRSN                1
 GAP=134        0.99       2.2     3.5  4.7 -0.1400E+01  0.6673E+01  0.1109E+01E
 Epicentro: LOS SANTOS - SANTANDER                                             3
 ACTION:UPD 15-12-22 20:40 OP:cam  STATUS:               ID:20151014125900 L   I
 OLDACT:REG 15-10-14 20:30 OP:ak   STATUS:               ID:20151014125750     3
 2015-10-14-1257-50M.COL___334                                                 6
 STAT SP IPHASW D HRMM SECON CODA AMPLIT PERI AZIMU VELO AIN AR TRES W  DIS CAZ7
 BAR2 EZ IP     C 1259 19.51                             169    0.0710 26.8 186 
 BAR2 EZ ES       1259 34.07                             169   -0.1310 26.8 186 
 BAR2 EZ I        1259 35.75       127.6 0.20            166           26.8 186 
 BRR  HZ IP     C 1259 21.32                             152    0.5210 68.5 296 
 BRR  HN ES       1259 37.09                             152    0.4610 68.5 296 
 BRR  HZ I        1259 39.24        65.6 0.14            148           68.5 296 
 PAM  EZ IP     C 1259 22.25                             150    0.3310 75.4  42 
 PAM  EN ES       1259 38.88                             150    0.2710 75.4  42 
 PAM  EZ I        1259 41.82        43.7 0.60            156           75.4  42 
 RUS  HZ EP       1259 23.69                             141   -0.2210  104 176 
 RUS  HN ES       1259 42.11                             141   -0.0510  104 176 
 RUS  HZ I        1259 43.90        58.4 0.30            143            104 176 
 OCA  HZ EP       1259 27.56                             129   -0.40 9  157 353 
 OCA  HN ES       1259 49.25                             129   -0.13 9  157 353 
 OCA  HZ I        1259 52.75        74.9 0.22            131            157 353 
 SPBC HZ EP       1259 28.50                             127   -0.22 9  165 218 
 SPBC HE ES       1259 50.10                             127   -0.63 9  165 218 
 SPBC HZ I        1259 53.09        59.8 0.20            127            165 218 
 ZAR  HZ EP       1259 32.78                             121    0.50 9  202 291 
 ZAR  HN ES       1259 57.26                             121    0.19 9  202 291 
 ZAR  HZ I        13 0  4.32        58.6 0.46            121            202 291 
 NOR  HZ EP       1259 35.76                             117   -0.24 8  236 234 
 NOR  HE ES       13 0  2.91                             117   -0.77 8  236 234 
 NOR  HZ I        13 0  9.52        22.5 0.13            117            236 234 
 SML  HZ EP       1259 35.92                             116   -0.44 8  240 335 
 SML  HN ES       13 0  3.37                             116   -0.96 8  240 335 
 SML  HZ I        13 0  7.15        50.5 0.07            118            240 335 
 CHI  HZ EP       1259 37.86                             115   -0.35 8  252 195 
 CHI  HN ES       13 0  6.74                             115   -0.87 8  252 195 
 CHI  HZ I        13 0 11.69        12.8 0.22            117            252 195 
 ROSC BZ EP       1259 39.08                             115    0.52 8  255 210 
 ROSC BN ES       13 0  8.66                             115    0.42 8  255 210 
 ROSC BZ I        13 0 17.56        24.0 0.40            116            255 210 
 HEL  HZ EP       1259 40.70                             113    0.33 8  272 255 
 HEL  HN ES       13 0 11.68                             113    0.21 8  272 255 
 HEL  HZ I        13 0 19.99        17.6 0.26            114            272 255 
 URE  HZ EP   4   1259 39.73                             112   -1.27 0  281 291 
 URE  HN ES   4   13 0 10.01                             112   -2.56 0  281 291 
 URE  HZ I        13 0 23.87        16.5 0.52            113            281 291 
 GUY2CHZ EP       1259 44.11                             111    0.15 7  302 234 
 GUY2CHN ES       13 0 18.61                             111    0.77 7  302 234 
 GUY2CHZ I        13 0 30.93        13.0 0.66                           302 234 
 ELA  HZ EP   1   1259 47.75                             109    0.48 5  331 229 
 ELA  HE ES       13 0 23.58                             109   -0.15 7  331 229 
 ELA  HZ I        13 0 35.60        15.4 0.30            110            331 229 
 DBB  SZ EP       1259 47.49                             108   -0.07 7  338 274 
 DBB  SZ ES       13 0 23.70                             108   -0.57 7  338 274 
 DBB  SZ I        13 0 31.31        40.1 0.32            109            338 274 
 ANIL HZ EP   1   1259 50.79                             107    0.51 5  359 224 
 ANIL HN ES       13 0 29.39                             107    0.29 6  359 224 
 ANIL HZ I        13 0 36.93        45.3 0.30            108            359 224 
 ORTC HZ EP       1259 55.34                             105    0.86 6  398 216 
 ORTC HE ES       13 0 36.71                             105    0.14 6  398 216 
 ORTC HZ I        13 0 44.81        14.8 0.44            106            398 216 
 SJC  HZ EP   4   1259 54.18                             105   -1.25 0  406 327 
 SJC  HN ES   4   13 0 34.86                             105   -3.41 0  406 327 
 SJC  HZ I        13 0 39.29         6.0 0.36            106            406 327 
                                                                                
