 2012 1114 1412 28.7 L   6.806 -73.142148.1  RSN 18 0.6 2.8LRSN 3.2WRSN        1
 SPEC AVERAGE  MO 13.9 ST  3.2 OM  2.3 f0 2.86 R0.5315 AL 1.90 WI 24.5 MW  3.2 3
 SPEC SD       MO  0.2 ST  3.4 OM  0.4 f00.495 R0.1040 AL      WI      MW  0.1 3
 GAP= 71        1.31       3.4     4.4  5.7 -0.8510E+00  0.6952E+01  0.4560E+01E
 Epicentro: LOS SANTOS - SANTANDER                                             3
 SPEC PTB HH N MO 13.8 ST  2.0 OM  2.1 f0 2.88 R0.5104 AL 1.27 WI 17.6 MW  3.1 3
 SPEC PTB HH N T141316 K 0.000 GD  209 VS 4.20 DE 3.00 Q0230.0 QA 0.60 VS 4.20 3
 SPEC RUS HH N MO 13.6 ST  1.0 OM  2.0 f0 2.62 R0.5611 AL 2.11 WI 16.2 MW  3.0 3
 SPEC RUS HH N T141310 K 0.000 GD  179 VS 4.20 DE 3.00 Q0230.0 QA 0.60 VS 4.20 3
 SPEC MON HH N MO 13.8 ST  2.5 OM  1.8 f0 3.16 R0.4652 AL 1.83 WI 28.0 MW  3.1 3
 SPEC MON HH N T141354 K 0.000 GD  383 VS 4.20 DE 3.00 Q0230.0 QA 0.60 VS 4.20 3
 SPEC HEL HH E MO 13.9 ST  2.4 OM  2.0 f0 2.87 R0.5122 AL 2.14 WI 34.1 MW  3.2 3
 SPEC HEL HH E T141339 K 0.000 GD  310 VS 4.20 DE 3.00 Q0230.0 QA 0.60 VS 4.20 3
 SPEC OCA HH N MO 14.2 ST 11.4 OM  2.5 f0 3.71 R0.3962 AL 2.36 WI 23.7 MW  3.4 3
 SPEC OCA HH N T141317 K 0.000 GD  218 VS 4.20 DE 3.00 Q0230.0 QA 0.60 VS 4.20 3
 SPEC CHI HH N MO 13.9 ST0.859 OM  2.1 f0 1.94 R0.7577 AL 1.72 WI 35.5 MW  3.2 3
 SPEC CHI HH N T141335 K 0.000 GD  289 VS 4.20 DE 3.00 Q0230.0 QA 0.60 VS 4.20 3
 SPEC BRR HH Z MO 13.9 ST  2.3 OM  1.5 f0 2.84 R0.5176 AL 1.89 WI 16.2 MW  3.2 3
 SPEC BRR HH Z T141250 K 0.000 GD  164 VP 7.60 DE 3.00 Q0230.0 QA 0.60 VS 4.20 3
 ACTION:UPD 12-12-05 15:33 OP:}ep  STATUS:               ID:20121114141228 L   I
 2012-11-14-1410-00M.COL___230                                                 6
 STAT SP IPHASW D HRMM SECON CODA AMPLIT PERI AZIMU VELO AIN AR TRES W  DIS CAZ7
 BAR2 SZ IP     D 1412 48.56                             170   -0.1010 24.0 191 
 BAR2 SZ ES       1413  3.94                             170   -0.2610 24.0 191 
 BAR2 SZ I        1413  7.08       113.5 0.82                          24.0 191 
 GIR2 SZ IP     C 1412 48.65                             168   -0.0210 30.7 349 
 GIR2 SZ ES       1413  4.28                             168    0.0610 30.7 349 
 BRR  HZ IP     C 1412 50.44                             153    0.3010 71.3 298 
 BRR  HN ES       1413  7.74                             153    0.9010 71.3 298 
 BRR  HN I        1413  8.49        95.6 0.36                          71.3 298 
 PAM  SZ IP     D 1412 51.35                             151    0.2010 76.6  40 
 PAM  SZ I        1412 51.36        70.7 0.18                          76.6  40 
 PAM  SN ES       1413  8.54                             151   -0.1010 76.6  40 
 RUS  HZ EP       1412 52.57                             144   -0.1910  101 176 
 RUS  HN ES       1413 10.89                             144   -0.6110  101 176 
 RUS  HN I        1413 12.74       106.8 0.40                           101 176 
 PTB  HZ EP       1412 55.27                             132   -0.67 9  148 259 
 PTB  HN ES       1413 16.41                             132   -0.76 9  148 259 
 PTB  HN I        1413 21.33        66.7 0.28                           148 259 
 TAM  HZ IP     C 1412 56.70                             131    0.13 9  155 105 
 TAM  HZ I        1412 56.88        80.2 0.34                           155 105 
 OCA  HN ES       1413 19.59                             130    0.24 9  160 353 
 OCA  HN I        1413 22.10       160.6 0.56                           160 353 
 ZAR  HZ EP       1413  1.39                             123    0.04 9  204 292 
 ZAR  HE ES       1413 26.94                             123    0.15 9  204 292 
 ZAR  HN I        1413 32.86        55.4 0.40                           204 292 
 SML  HZ EP       1413  5.24                             118   -0.21 8  243 335 
 SML  HN ES       1413 34.21                             118    0.12 8  243 335 
 CHI  HZ IP     C 1413  6.75                             117    0.11 8  249 195 
 CHI  HN ES       1413 35.89                             117   -0.32 8  249 195 
 CHI  HN I        1413 38.51        25.5 0.58                           249 195 
 ROSC BZ EP       1413  8.29                             117    1.23 8  254 211 
 ROSC BZ I        1413 44.16        24.5 0.50                           254 211 
 HEL  HE ES       1413 39.99                             115   -0.65 8  273 256 
 HEL  HE I        1413 47.73        26.8 0.34                           273 256 
 GUY  SZ EP       1413 14.10                             112    1.31 7  304 235 
 GUY  SE I        1413 53.09        89.4 0.30                           304 235 
 RREF HZ EP       1413 15.16                             111    0.10 7  323 229 
 RREF HN ES       1413 52.32                             111    1.12 7  323 229 
 RREF HZ I        1413 59.20        18.0 0.26                           323 229 
 MON  HZ EP       1413 15.80                             109   -2.02 6  354 308 
 MON  HN I        1414 10.15        13.6 0.32                           354 308 
 ANIL HZ EP       1413 18.65                             109   -0.07 6  358 224 
 ANIL HN ES       1413 57.61                             109   -0.09 6  358 224 
 ANIL HZ I        1414  4.60        32.5 0.28                           358 224 
 PRA  HZ EP       1413 22.23                             107   -0.19 6  393 210 
 PRA  HN ES       1414  4.74                             107    0.44 6  393 210 
 PRA  HN I        1414  9.72         7.9 0.38                           393 210 
                                                                                
