 2011  214 1006 48.8 L   6.722 -73.391111.7  RSN  5 0.4 0.9LRSN                1
 GAP=227        1.04       6.6    26.8  8.5 -0.7869E+02  0.1783E+02 -0.6953E+01E
 Epicentro: EL CARMEN DE CHUCURI - SANTANDER                                   3
 ACTION:UP  11-03-28 15:08 OP:jfem STATUS:               ID:20110214100649 L   I
 2011-02-14-1005-12S.COL___137                                                 6
 STAT SP IPHASW D HRMM SECON CODA AMPLIT PERI AZIMU VELO SNR AR TRES W  DIS CAZ7
 BTL  SZ EP       10 7  4.97                             167     0.510   26  32 
 BTL  SZ ES   1   10 7 17.16                             167     0.5 7   26  32 
 BAR2 SZ EP       10 7  4.22                             166    -0.210   27 122 
 BAR2 SZ I        10 7  4.54         3.4 0.35                            27 122 
 BAR2 SZ ES   1   10 7 16.26                             166    -0.4 7   27 122 
 GIR2 SZ EP   1   10 7  4.61                             157    -0.4 7   45  29 
 GIR2 SZ ES   1   10 7 17.15                             157    -0.6 7   45  29 
 RUS  HZ EP   1   10 7  9.29                             136     0.1 7   98 160 
 RUS  HE ES   2   10 7 25.52                             136     0.5 5   98 160 
 RUS  HZ I        10 7 29.11         1.0 0.72                            98 160 
 GRA  SZ EP       10 7 12.78                             124    -0.3 9  144  27 
 GRA  SZ I        10 7 32.31         1.4 0.42                           144  27 
 GRA  SZ ES   1   10 7 32.44                             124     0.5 7  144  27 
                                                                                
