 2010  714 1123  7.9 L   6.786 -73.076144.9  RSN 10 0.6 2.5LRSN                1
 GAP=164        1.76       8.2    12.9 11.4 -0.7586E+01  0.9777E-01 -0.3134E+02E
 Epicentro: LOS SANTOS - SANTANDER                                             3
 ACTION:UPD 10-12-01 15:17 OP:pat  STATUS:               ID:20100714112307 L   I
 2010-07-14-1117-26S.COL___120                                                 6
 STAT SP IPHASW D HRMM SECON CODA AMPLIT PERI AZIMU VELO AIN AR TRES W  DIS CAZ7
 BAR2 SZ EP       1123 27.19                             170    -0.310   25 209 
 BAR2 SZ ES       1123 42.22                             170    -0.510   25 209 
 BAR2 SZ I        1123 43.51       112.7 0.10                            25 209 
 BRR  HZ EP       1123 28.97                             150    -0.410   79 297 
 BRR  HN ES       1123 46.80                             150     0.610   79 297 
 BRR  HZ I        1123 49.31       100.9 0.26                            79 297 
 RUS  HZ EP       1123 31.29                             144    -0.210   99 180 
 RUS  HN ES       1123 49.96                             144     0.210   99 180 
 RUS  HZ I        1123 51.39        48.1 0.56                            99 180 
 BRI  SZ EP       1123 31.61                             141     0.010  107  17 
 BRI  SZ I        1123 53.67        25.4 0.74                           107  17 
 GUE  SZ EP       1123 33.02                             139     0.510  117   8 
 GRA  SZ EP       1123 33.81                             137     0.810  125  14 
 OCA  SZ EP       1123 35.54                             129    -0.9 9  163 351 
 OCA  SZ I        1124  2.70        61.4 0.23                           163 351 
 HEL  HZ EP   2   1123 49.56                             114     0.7 4  279 257 
 HEL  HZ I        1123 51.71        16.6 0.07                           279 257 
 RREF HZ EP       1123 55.69                             110     1.1 7  327 230 
 RREF HZ I        1123 57.20        11.7 0.35                           327 230 
 DBB  SZ EP       1123 55.13                             109    -1.1 6  347 274 
 DBB  SZ I        1124 33.64         7.5 0.04                           347 274 
                                                                                
