 2011 1014 1358 53.6 L   6.759 -73.128136.6  RSN  5 0.1 1.9LRSN                1
 GAP=141        0.32       2.0     2.4  3.2 -0.1055E+01  0.1274E+01  0.4043E+00E
 Epicentro: LOS SANTOS - SANTANDER                                             3
 ACTION:UPD 12-07-13 16:03 OP:ep   STATUS:               ID:20111014135853 L   I
 2011-10-14-1356-50S.COL___168                                                 6
 STAT SP IPHASW D HRMM SECON CODA AMPLIT PERI AZIMU VELO AIN AR TRES W  DIS CAZ7
 BAR2 SZ EP       1359 12.06                             172    0.0510 19.4 198 
 BAR2 SZ ES   1   1359 26.31                             172   -0.09 7 19.4 198 
 BAR2 SZ I        1359 27.78        14.7 0.25                          19.4 198 
 BRR  HZ EP       1359 13.87                             149   -0.0910 75.2 301 
 BRR  HN ES   1   1359 30.07                             149    0.19 7 75.2 301 
 BRR  HZ I        1359 34.97        28.6 0.14                          75.2 301 
 PAM  SZ EP   1   1359 15.00                             148    0.05 7 79.8  36 
 PAM  SN ES   1   1359 31.54                             148   -0.11 7 79.8  36 
 RUS  HZ EP   1   1359 16.15                             143    0.08 7 95.9 177 
 RUS  HN ES   1   1359 33.65                             143    0.02 7 95.9 177 
 RUS  HZ I        1359 36.14         9.4 0.28                          95.9 177 
 NOR  SN ES   1   1359 55.91                             117   -0.13 6  234 236 
                                                                                
