 2013  314 1303 29.4 L   6.762 -73.170145.1  RSN  5 0.2 1.7LRSN                1
 GAP=135        0.49       3.8     3.6  4.9  0.1766E+01 -0.2287E+01 -0.4588E+01E
 Epicentro: LOS SANTOS - SANTANDER                                             3
 ACTION:UPD 13-04-09 14:02 OP:ep   STATUS:               ID:20130314130329 L   I
 2013-03-14-1300-00M.COL___243                                                 6
 STAT SP IPHASW D HRMM SECON CODA AMPLIT PERI AZIMU VELO AIN AR TRES W  DIS CAZ7
 BAR2 SZ EP       13 3 48.90                             172   -0.0110 18.8 184 
 BAR2 SZ ES   1   13 4  3.72                             172   -0.38 7 18.8 184 
 BAR2 SZ I        13 4  5.41        12.7 0.21            167           18.8 184 
 BRR  HZ EP       13 3 50.61                             152    0.0910 71.1 303 
 BRR  HZ I        13 4  2.29        13.5 0.42            144           71.1 303 
 BRR  HE ES   1   13 4  7.31                             152    0.36 7 71.1 303 
 PAM  SZ EP       13 3 51.78                             149   -0.1210 82.3  39 
 PAM  SZ I        13 3 51.99        16.7 0.21            150           82.3  39 
 RUS  HZ EP   1   13 3 53.04                             145    0.19 7 96.6 174 
 RUS  HE ES   1   13 4 11.27                             145    0.17 7 96.6 174 
 RUS  HZ I        13 4 12.96         4.3 0.26            142           96.6 174 
 PTB  HZ EP   1   13 3 55.87                             132   -0.19 7  144 260 
 PTB  HN ES   1   13 4 16.69                             132   -0.12 7  144 260 
 PTB  HZ I        13 4 23.47         3.5 0.38            126            144 260 
                                                                                
