 2010  614 1029 16.1 L   6.813 -73.171141.4  RSN 11 0.4 2.4LRSN                1
 GAP=124        0.85       3.1     7.1  5.7 -0.8864E+01  0.8588E+01 -0.7412E+00E
 Epicentro: LOS SANTOS - SANTANDER                                             3
 ACTION:UP  10-08-24 10:10 OP:vdl  STATUS:               ID:20100614102916 L   I
 2010-06-14-1025-30S.COL___114                                                 6
 STAT SP IPHASW D HRMM SECON CODA AMPLIT PERI AZIMU VELO SNR AR TRES W  DIS CAZ7
 BAR2 SZ IP       1029 35.40                             170     0.110   25 183 
 BAR2 SZ ES   1   1029 49.83                             170    -0.4 7   25 183 
 GIR2 SZ EP       1029 35.40                             168     0.210   29 355 
 GIR2 SZ ES   2   1029 50.38                             168     0.2 5   29 355 
 RUS  HZ EP       1029 39.45                             142    -0.110  102 175 
 RUS  HE ES   1   1029 57.50                             142    -0.4 7  102 175 
 RUS  HZ I        1029 58.88        27.6 0.21                           102 175 
 BRI  SZ IP       1029 39.90                             141     0.310  108  22 
 BRI  SZ ES       1029 58.43                             141     0.510  108  22 
 GUE  SZ EP       1029 40.23                             139    -0.210  116  14 
 GUE  SZ ES   2   1029 59.28                             139     0.0 5  116  14 
 GRA  SZ IP       1029 41.22                             136     0.310  125  19 
 GRA  SZ ES   1   1029 59.97                             136    -0.3 7  125  19 
 OCA  SZ EP       1029 43.72                             129    -0.2 9  158 354 
 OCA  SZ ES   1   1030  5.11                             129    -0.5 7  158 354 
 OCA  SZ I        1030  8.96        46.5 0.23                           158 354 
 CHI  HZ EP   1   1029 54.32                             116     0.6 6  249 194 
 CHI  HN ES   1   1030 23.04                             116     0.1 6  249 194 
 CHI  HZ I        1030 31.08         9.4 0.31                           249 194 
 DBB  SZ EP   1   1030  3.53                             109     0.4 5  337 274 
 DBB  SZ ES   2   1030 39.04                             109    -0.7 3  337 274 
 TOL  SZ EP   2   1030  4.14                             109     0.0 3  343 224 
 SDV  BZ EP       1030  5.14                             107    -1.0 6  362  51 
 SDV  BZ I        1030  6.05        10.2 0.37                           362  51 
                                                                                
