 2013  914 1720 47.0 L   6.749 -73.183148.6  RSN  5 0.2 1.3LRSN                1
 GAP=229        0.61       4.8     4.5  5.2  0.1312E+02  0.5019E+01  0.3998E-01E
 Epicentro: VILLANUEVA - SANTANDER                                             3
 ACTION:UPD 13-10-22 09:22 OP:ep   STATUS:               ID:20130914172047 L   I
 OLDACT:UP  13-09-14 16:32 OP:cam  STATUS:               ID:20130914171960d    3
 OLDACT:DUP 13-09-14 16:24 OP:cam  STATUS:               ID:20130914171960d    3
 2013-09-14-1719-59M.COL___269                                                 6
 STAT SP IPHASW D HRMM SECON CODA AMPLIT PERI AZIMU VELO AIN AR TRES W  DIS CAZ7
 BAR2 SZ EP   1   1721  6.70                             173   -0.16 7 17.3 180 
 BAR2 SZ ES       1721 22.07                             173   -0.2810 17.3 180 
 BAR2 SZ I        1721 22.56         9.2 0.32            169           17.3 180 
 BRR  HZ EP       1721  8.29                             153   -0.1210 70.6 304 
 BRR  HN ES       1721 25.37                             153    0.2510 70.6 304 
 RUS  HZ EP   1   1721 11.09                             146    0.44 7 95.3 173 
 RUS  HN ES       1721 29.28                             146    0.1710 95.3 173 
 RUS  HZ I        1721 31.07         1.5 0.16            144           95.3 173 
 PTB  HZ EP       1721 13.50                             134   -0.24 9  143 261 
 PTB  HN ES       1721 34.44                             134   -0.15 9  143 261 
 PTB  HZ I        1721 36.90         3.1 0.56            133            143 261 
 ZAR  HZ EP   4   1721 21.08                             123    1.62 0  202 294 
 ZAR  HE ES       1721 45.01                             123    0.23 9  202 294 
                                                                                
