 2015  114 1031 58.5 L   6.657 -73.114152.6  RSN  9 0.5 1.5LRSN                1
 GAP=146        1.05       3.4     5.3  6.7  0.1752E+01  0.7080E+01  0.5111E-02E
 Epicentro: VILLANUEVA - SANTANDER                                             3
 ACTION:UPD 15-03-02 15:39 OP:nd   STATUS:               ID:20150114103158 L   I
 OLDACT:REG 15-01-14 21:04 OP:mh   STATUS:               ID:20150114102741     3
 2015-01-14-1027-41M.COL___250                                                 6
 STAT SP IPHASW D HRMM SECON CODA AMPLIT PERI AZIMU VELO AIN AR TRES W  DIS CAZ7
 BAR2 EZ EP       1032 19.16                             176    0.4110 10.4 226 
 BAR2 EZ ES   1   1032 34.51                             176   -0.05 7 10.4 226 
 BAR2 EZ I        1032 38.86         3.4 0.30            173           10.4 226 
 BRR  HZ EP   1   1032 21.65                             150    0.62 7 82.7 307 
 BRR  HN ES       1032 38.89                             150    0.2610 82.7 307 
 BRR  HZ I        1032 43.50        10.3 0.46            149           82.7 307 
 RUS  HZ EP       1032 22.56                             150    0.7010 84.6 178 
 RUS  HN ES       1032 39.73                             150   -0.3710 84.6 178 
 RUS  HZ I        1032 41.29         6.9 0.40            152           84.6 178 
 PAM  SZ EP   1   1032 21.71                             149   -0.37 7 88.3  31 
 PAM  SN ES       1032 40.24                             149   -0.2510 88.3  31 
 PAM  SZ I        1032 42.68         4.2 0.36            152           88.3  31 
 PTB  HZ EP       1032 25.60                             133   -0.52 9  149 265 
 PTB  HE ES   1   1032 46.92                             133   -0.76 7  149 265 
 PTB  HZ I        1032 51.18         1.6 0.14            134            149 265 
 OCA  HZ EP   1   1032 28.36                             128   -0.48 7  176 353 
 OCA  HN ES       1032 52.45                             128   -0.07 9  176 353 
 OCA  HZ I        1032 55.51         5.8 0.24            130            176 353 
 ZAR  HN ES       1032 58.86                             122    0.08 8  214 296 
 ZAR  HZ I        1033  2.89         3.8 0.24            124            214 296 
 CHI  HZ EP       1032 34.83                             120   -0.22 8  234 197 
 CHI  HN ES   1   1033  4.10                             120    0.52 6  234 197 
 CHI  HZ I        1033  9.10         1.3 0.72            122            234 197 
 SML  HZ EP       1032 36.62                             117   -0.58 8  260 336 
 SML  HN ES       1033  8.17                             117    0.77 8  260 336 
 SML  HZ I        1033 13.81         5.5 0.10            119            260 336 
                                                                                
