 2016 1014 1956 37.8 L   6.803 -73.168149.0  RSN  9 0.4 2.0LRSN                1
 GAP=134        0.93       3.5     3.8  6.1 -0.1115E+01  0.3976E+01  0.6077E+01E
 Epicentro: LOS SANTOS - SANTANDER                                             3
 ACTION:UPD 16-11-09 19:19 OP:rebc STATUS:               ID:20161014195637 L   I
 OLDACT:REG 16-10-14 20:36 OP:dnl  STATUS:               ID:20161014194742     3
 2016-10-14-1948-00M.COL___359                                                 6
 STAT SP IPHASW D HRMM SECON CODA AMPLIT PERI AZIMU VELO AIN AR TRES W  DIS CAZ7
 BRR  HZ EP       1956 59.47                             154    0.2810 68.8 299 
 BRR  HE ES       1957 16.54                             154    0.6810 68.8 299 
 BRR  HZ I        1957 20.29        26.2 0.46            154           68.8 299 
 PAM  EZ EP       1957  0.64                             151    0.1810 78.7  41 
 PAM  EN ES       1957 17.76                             151   -0.3610 78.7  41 
 PAM  EZ I        1957 20.56        12.8 0.60            155           78.7  41 
 RUS  HZ EP       1957  1.62                             144   -0.3210  101 175 
 RUS  HN ES       1957 20.51                             144   -0.2310  101 175 
 RUS  HZ I        1957 21.70         8.7 0.28            146            101 175 
 PTB  HZ EP       1957  4.34                             133   -0.51 9  145 258 
 PTB  HN ES       1957 25.56                             133   -0.36 9  145 258 
 PTB  HZ I        1957 27.91        11.6 0.22            134            145 258 
 SPBC HZ EP       1957  6.60                             130    0.14 9  162 218 
 SPBC HN ES       1957 28.53                             130   -0.25 9  162 218 
 SPBC HZ I        1957 33.45        21.7 0.40            132            162 218 
 ZAR  HZ EP   2   1957 10.30                             123    0.07 4  202 292 
 ZAR  HN ES       1957 35.63                             123    0.12 9  202 292 
 ZAR  HZ I        1957 40.50        11.0 0.22            125            202 292 
 NOR  HZ EP       1957 13.82                             119    0.27 8  233 234 
 NOR  HN ES       1957 41.14                             119   -0.28 8  233 234 
 NOR  HZ I        1957 44.18         7.7 0.18            121            233 234 
 CHI  HZ EP       1957 15.96                             118    0.28 8  248 195 
 CHI  HE ES       1957 46.06                             118    0.87 8  248 195 
 CHI  HZ I        1957 51.44         6.7 0.32            120            248 195 
 GUY2CHZ EP       1957 20.99                             113   -0.39 7  299 234 
 GUY2CHN ES   4   1957 57.60                             113    2.25 0  299 234 
 GUY2CHZ I        1958  7.92         6.2 0.44                           299 234 
                                                                                
