 2017  314 1957 29.5 L   6.809 -73.191142.6  RSN  7 0.2 1.8LRSN                1
 GAP=131        0.62       2.9     2.6  4.8 -0.4257E+00  0.2729E+01  0.4002E+01E
 Epicentro: ZAPATOCA - SANTANDER                                               3
 ACTION:UPD 17-05-25 18:40 OP:jn   STATUS:               ID:20170314195729 L   I
 OLDACT:UP  17-03-15 00:36 OP:edw  STATUS:               ID:20170314194749     3
 OLDACT:REG 17-03-14 21:06 OP:dnl  STATUS:               ID:20170314194749     3
 2017-03-14-1948-00M.COL___366                                                 6
 STAT SP IPHASW D HRMM SECON CODA AMPLIT PERI AZIMU VELO AIN AR TRES W  DIS CAZ7
 BRR  HZ EP       1957 50.50                             154    0.4310 66.4 300 
 BRR  HN ES       1958  6.11                             154    0.0210 66.4 300 
 PAM  EZ EP       1957 51.52                             149   -0.0410 79.9  43 
 PAM  EN ES       1958  8.59                             149   -0.1610 79.9  43 
 PAM  EZ I        1958 10.73        15.6 0.52            151           79.9  43 
 RUS  HZ EP       1957 53.02                             143   -0.0610  102 173 
 RUS  HN ES       1958 11.42                             143   -0.0310  102 173 
 RUS  HZ I        1958 12.84        10.6 0.46            145            102 173 
 PTB  HZ EP       1957 56.07                             132    0.26 9  143 258 
 PTB  HN ES       1958 16.47                             132    0.15 9  143 258 
 PTB  HZ I        1958 18.24         6.0 0.40            133            143 258 
 SPBC HZ EP       1957 57.73                             129    0.16 9  161 217 
 SPBC HN ES   4   1958 21.30                             129    1.86 0  161 217 
 ZAR  HZ EP   4   1957 59.72                             122   -1.53 0  199 292 
 ZAR  HN ES       1958 25.65                             122   -0.35 9  199 292 
 ZAR  HZ I        1958 31.92         6.7 0.34            123            199 292 
 NOR  HZ EP       1958  4.20                             118   -0.50 8  231 234 
 NOR  HN ES       1958 32.02                             118   -0.12 8  231 234 
 NOR  HZ I        1958 33.48         5.8 0.26            119            231 234 
                                                                                
