 2017  114 1150 13.1 L   6.777 -73.118140.1  RSN  5 0.3 1.2LRSN                1
 GAP=141        0.87       4.4     4.7  6.2  0.4531E+01  0.7074E+01 -0.1325E+01E
 Epicentro: LOS SANTOS - SANTANDER                                             3
 ACTION:UPD 17-05-22 15:59 OP:jn   STATUS:               ID:20170114115013 L   I
 OLDACT:UP  17-01-14 21:13 OP:e    STATUS:               ID:20170114114743     3
 OLDACT:REG 17-01-14 19:37 OP:and  STATUS:               ID:20170114114743     3
 2017-01-14-1148-00M.COL___329                                                 6
 STAT SP IPHASW D HRMM SECON CODA AMPLIT PERI AZIMU VELO AIN AR TRES W  DIS CAZ7
 BAR2 EZ EP       1150 31.77                             171   -0.2010 21.6 199 
 BAR2 EZ ES       1150 46.13                             171   -0.6010 21.6 199 
 BAR2 EZ I        1150 48.93         4.6 0.40            169           21.6 199 
 BRR  HZ EP       1150 33.87                             150    0.0410 75.1 299 
 BRR  HN ES       1150 50.63                             150    0.6010 75.1 299 
 PAM  EZ EP       1150 34.60                             150   -0.0810 77.5  37 
 PAM  EN ES       1150 51.62                             150    0.0710 77.5  37 
 PAM  EZ I        1150 53.96         2.9 0.50            144           77.5  37 
 RUS  HZ EP       1150 36.47                             143    0.4110 97.9 178 
 RUS  HN ES       1150 54.08                             143    0.0810 97.9 178 
 RUS  HZ I        1150 54.92         1.1 0.28            138           97.9 178 
 ZAR  HZ EP       1150 45.33                             120   -0.21 8  208 292 
 ZAR  HZ I        1151  6.71         1.9 0.25            113            208 292 
 ZAR  HN ES       1151 10.64                             120   -0.23 8  208 292 
                                                                                
