 2015  414 1853 54.8 L   6.811 -73.136149.2  RSN  6 0.4 1.6LRSN                1
 GAP=137        0.91       5.9     5.0  9.5 -0.1488E+01  0.8932E+01  0.9269E+01E
 Epicentro: LOS SANTOS - SANTANDER                                             3
 ACTION:UPD 15-06-03 16:54 OP:cam  STATUS:               ID:20150414185354 L   I
 OLDACT:DUP 15-04-15 01:22 OP:spq  STATUS:               ID:20150414184752d    3
 2015-04-14-1847-49M.COL___284                                                 6
 STAT SP IPHASW D HRMM SECON CODA AMPLIT PERI AZIMU VELO AIN AR TRES W  DIS CAZ7
 BAR2 EZ EP       1854 14.90                             170    0.0410 24.7 192 
 BRR  HZ EP       1854 16.48                             153    0.1510 71.6 297 
 BRR  HN ES   1   1854 33.94                             153    0.81 7 71.6 297 
 BRR  HZ I        1854 38.30         8.2 0.26            151           71.6 297 
 PAM  SZ EP       1854 17.44                             152    0.1710 75.7  39 
 PAM  SE ES       1854 34.30                             152   -0.5110 75.7  39 
 PAM  SZ I        1854 35.04         6.4 0.22            155           75.7  39 
 RUS  HZ EP   1   1854 19.32                             144    0.36 7  102 177 
 RUS  HN ES   1   1854 37.90                             144    0.09 7  102 177 
 RUS  HZ I        1854 39.00         2.7 0.16            148            102 177 
 PTB  HZ EP   1   1854 21.60                             132   -0.55 7  149 258 
 PTB  HN ES   1   1854 42.81                             132   -0.69 7  149 258 
 PTB  HZ I        1854 44.91         5.6 0.52            133            149 258 
 ZAR  HN ES   1   1854 53.12                             123    0.08 6  205 292 
 ZAR  HZ I        1854 58.08         7.7 0.28            124            205 292 
                                                                                
