 2015  814 1903  6.3 L   6.798 -73.153137.4  RSN 10 0.4 2.1LRSN                1
 GAP=136        1.03       3.3     4.4  5.9 -0.1644E+01  0.1179E+02  0.5494E+00E
 Epicentro: LOS SANTOS - SANTANDER                                             3
 ACTION:UPD 15-09-15 23:02 OP:cam  STATUS:               ID:20150814190306 L   I
 OLDACT:REG 15-08-14 22:28 OP:ar   STATUS:               ID:20150814185748     3
 2015-08-14-1857-48M.COL___319                                                 6
 STAT SP IPHASW D HRMM SECON CODA AMPLIT PERI AZIMU VELO AIN AR TRES W  DIS CAZ7
 BAR2 EZ EP       19 3 25.19                             170    0.3110 23.0 188 
 BAR2 EZ ES       19 3 38.82                             170   -0.5810 23.0 188 
 BAR2 EZ I        19 3 43.25        17.0 0.16            170           23.0 188 
 BRR  HZ EP       19 3 26.86                             151    0.3810 70.6 299 
 BRR  HE ES       19 3 42.51                             151    0.2610 70.6 299 
 BRR  HZ I        19 3 47.41        35.4 0.12            150           70.6 299 
 PAM  EZ EP       19 3 27.89                             149    0.2610 78.1  40 
 PAM  EN ES       19 3 44.66                             149    0.3510 78.1  40 
 PAM  EZ I        19 3 46.78        37.5 0.48            153           78.1  40 
 RUS  HZ EP       19 3 29.32                             142    0.1410  100 176 
 RUS  HN ES       19 3 46.64                             142   -0.4310  100 176 
 RUS  HZ I        19 3 48.26         6.9 0.24            145            100 176 
 ZAR  HZ EP       19 3 38.28                             120    0.18 9  203 292 
 ZAR  HN ES       19 4  3.27                             120    0.33 9  203 292 
 ZAR  HZ I        19 4  6.47        20.0 0.14            122            203 292 
 NOR  HZ EP       19 3 41.63                             117    0.20 8  234 234 
 NOR  HN ES       19 4  8.57                             117   -0.30 8  234 234 
 NOR  HZ I        19 4 14.78        11.6 0.52            119            234 234 
 SML  HZ EP       19 3 41.45                             116   -0.97 8  244 335 
 SML  HN ES       19 4  9.84                             116   -0.78 8  244 335 
 SML  HZ I        19 4 17.51        20.0 0.10            118            244 335 
 URE  HZ EP   4   19 3 45.36                             112   -1.50 0  283 292 
 URE  HE ES   4   19 4 15.78                             112   -2.75 0  283 292 
 URE  HZ I        19 4 19.83        14.0 0.16            113            283 292 
 GUY2CHZ EP       19 3 49.98                             111    0.58 7  300 235 
 GUY2CHN ES       19 4 23.08                             111    0.02 7  300 235 
 GUY2CHZ I        19 4 32.82         4.9 0.68                           300 235 
 TOL  SZ EP       19 3 53.50                             108   -0.61 7  343 225 
 TOL  SN ES       19 4 31.56                             108    0.13 7  343 225 
 TOL  SZ I        19 4 40.67         4.5 0.56            110            343 225 
                                                                                
