 2011 1214 1143 25.2 L   6.736 -73.118140.5  RSN 15 0.4 2.8LRSN                1
 GAP=143        0.83       2.8     3.8  4.4 -0.3289E+01  0.3577E+01  0.1918E+01E
 Epicentro: JORDAN - SANTANDER                                                 3
 ACTION:UPD 12-07-13 16:16 OP:ep   STATUS:               ID:20111214114325 L   I
 2011-12-14-1140-00M.COL___185                                                 6
 STAT SP IPHASW D HRMM SECON CODA AMPLIT PERI AZIMU VELO AIN AR TRES W  DIS CAZ7
 BAR2 SZ IP       1143 44.04                             173    0.0010 17.4 204 
 BAR2 SZ I        1143 44.35        79.0 0.18                          17.4 204 
 BAR2 SZ ES       1143 59.44                             173    0.6710 17.4 204 
 GIR2 SZ EP       1143 44.35                             164   -0.0810 38.8 348 
 GIR2 SZ ES   2   1143 59.22                             164   -0.25 5 38.8 348 
 BRR  HZ IP     D 1143 46.15                             150    0.0410 77.4 302 
 BRR  HN ES       1144  2.67                             150    0.2210 77.4 302 
 BRR  HN I        1144  3.93       381.9 0.16                          77.4 302 
 PAM  SZ EP       1143 47.12                             149    0.0710 81.2  35 
 PAM  SE ES   1   1144  3.41                             149   -0.71 7 81.2  35 
 RUS  HZ EP       1143 47.77                             145   -0.1010 93.3 178 
 RUS  HN ES       1144  5.56                             145   -0.0210 93.3 178 
 RUS  HZ I        1144  7.61        78.9 0.23                          93.3 178 
 BRI  SZ EP   1   1143 48.96                             139   -0.03 7  114  18 
 PTB  HN ES   1   1144 11.83                             131   -0.87 7  150 262 
 OCA  SZ EP       1143 54.07                             127    0.29 9  168 352 
 OCA  SZ ES   1   1144 15.80                             127   -0.30 7  168 352 
 OCA  SZ I        1144 23.12        58.1 0.32                           168 352 
 CTAU SZ EP       1143 57.65                             122    0.34 9  198 211 
 NOR  SZ EP       1143 59.65                             118   -0.77 8  233 236 
 NOR  SN ES   1   1144 27.70                             118   -0.23 6  233 236 
 CHI  HZ EP   1   1144  1.77                             117   -0.14 6  243 196 
 CHI  HE ES   1   1144 30.85                             117    0.27 6  243 196 
 HEL  HZ EP   1   1144  5.84                             114    0.58 6  273 257 
 HEL  HE ES   1   1144 37.28                             114    0.75 6  273 257 
 HEL  HZ I        1144 43.38        28.6 0.34                           273 257 
 GUY  SZ EP   1   1144  8.80                             111    0.17 5  302 237 
 GUY  SN ES   1   1144 42.03                             111   -0.50 5  302 237 
 GUY  SZ I        1144 51.48        31.0 0.42                           302 237 
 RREF HZ EP   1   1144 11.61                             110    0.79 5  320 231 
 RREF HN ES   1   1144 46.19                             110   -0.25 5  320 231 
 RREF HZ I        1144 53.38        26.2 0.36                           320 231 
 PRA  HZ EP       1144 17.66                             106   -0.30 6  387 210 
 PRA  HE ES   2   1144 58.52                             106   -0.63 3  387 210 
 PRA  HZ I        1145  3.14        36.9 0.25                           387 210 
                                                                                
