 2015  514 1020 46.9 L   6.805 -73.173148.8  RSN  8 0.4 1.8LRSN                1
 GAP=133        1.11       3.5     5.4  6.9  0.6326E+00  0.1060E+02 -0.2677E+01E
 Epicentro: LOS SANTOS - SANTANDER                                             3
 ACTION:UPD 15-09-10 22:03 OP:cam  STATUS:               ID:20150514102046 L   I
 OLDACT:REG 15-05-14 20:06 OP:drio STATUS:               ID:20150514101749     3
 2015-05-14-1017-49M.COL___279                                                 6
 STAT SP IPHASW D HRMM SECON CODA AMPLIT PERI AZIMU VELO AIN AR TRES W  DIS CAZ7
 BAR2 EZ EP       1021  6.72                             171   -0.1710 23.5 183 
 BAR2 EZ ES       1021 22.44                             171   -0.0510 23.5 183 
 BAR2 EZ I        1021 24.51        15.0 0.26            171           23.5 183 
 BRR  HZ EP       1021  8.63                             154    0.4110 68.3 299 
 BRR  HN ES       1021 25.71                             154    0.8610 68.3 299 
 BRR  HZ I        1021 29.50        12.3 0.28            151           68.3 299 
 PAM  SZ EP       1021  9.81                             151    0.2810 78.9  41 
 PAM  SN ES       1021 26.99                             151   -0.1910 78.9  41 
 PAM  SZ I        1021 29.84         9.8 0.24            155           78.9  41 
 RUS  HZ EP       1021 10.79                             144   -0.2110  101 174 
 RUS  HN ES       1021 29.79                             144   -0.0110  101 174 
 RUS  HZ I        1021 30.59         6.2 0.36            148            101 174 
 OCA  HN ES       1021 37.29                             130   -0.28 9  159 354 
 SPBC HZ EP       1021 15.96                             130    0.47 9  162 218 
 SPBC HN ES       1021 37.00                             130   -0.80 9  162 218 
 SPBC HZ I        1021 42.43        12.2 0.10            132            162 218 
 ZAR  HZ EP       1021 19.77                             123    0.53 9  201 292 
 ZAR  HN ES       1021 44.13                             123   -0.33 9  201 292 
 ZAR  HZ I        1021 51.80         5.5 0.28            124            201 292 
 SML  HZ EP       1021 23.28                             118   -0.23 8  242 336 
 SML  HN ES       1021 51.40                             118   -0.67 8  242 336 
 SML  HZ I        1021 58.01         8.1 0.10            120            242 336 
                                                                                
