 2012  514 1045 55.9 L   6.703 -73.219146.0  RSN  4 0.3 1.2LRSN                1
 GAP=213        0.58       8.7     9.9 12.4  0.4722E+02  0.3379E+02 -0.1588E+02E
 Epicentro: VILLANUEVA - SANTANDER                                             3
 ACTION:UP  12-07-05 12:05 OP:pat  STATUS:               ID:20120514104555 L   I
 2012-05-14-1040-00M.COL___195                                                 6
 STAT SP IPHASW D HRMM SECON CODA AMPLIT PERI AZIMU VELO SNR AR TRES W  DIS CAZ7
 BAR2 SZ ES   3   1046 29.75                             175    -0.9 2   13 162 
 BRR  HZ EP       1046 17.19                             153     0.110   70 309 
 BRR  HZ I        1046 36.19         7.6 0.24                            70 309 
 RUS  HZ EP       1046 18.95                             147    -0.110   91 171 
 RUS  HN ES   2   1046 37.44                             147     0.4 5   91 171 
 RUS  HZ I        1046 39.54         1.9 0.42                            91 171 
 PTB  HZ EP       1046 21.91                             135    -0.1 9  138 263 
 PTB  HE ES   3   1046 43.18                             135     0.7 2  138 263 
 PTB  HZ I        1046 45.53         1.6 0.42                           138 263 
                                                                                
