 2010  114 1542 43.0 L   6.787 -72.978145.8  RSN  6 0.4 2.0LRSN                1
 GAP=223        0.66       6.5    12.1  7.8 -0.2316E+02  0.2441E+02  0.1738E+02E
 Epicentro: CEPITA - SANTANDER                                                 3
 ACTION:UP  10-08-24 09:44 OP:vdl  STATUS:               ID:20100114154243 L   I
 2010-01-14-1539-23S.COL___095                                                 6
 STAT SP IPHASW D HRMM SECON CODA AMPLIT PERI AZIMU VELO SNR AR TRES W  DIS CAZ7
 BAR2 SZ EP   1   1543  2.72                             167    -0.1 7   31 226 
 BAR2 SZ ES   2   1543 17.33                             167    -1.0 5   31 226 
 GIR2 SZ EP   1   1543  2.98                             164     0.0 7   40 324 
 GIR2 SZ ES   2   1543 19.07                             164     0.5 5   40 324 
 RUS  BZ EP   1   1543  6.81                             144     0.1 7  100 187 
 RUS  BE ES   2   1543 25.66                             144     0.5 5  100 187 
 CHI  HZ EP   1   1543 21.24                             117     0.1 6  253 199 
 CHI  HZ I        1543 37.01         4.7 0.64                           253 199 
 CHI  HE ES   2   1543 51.15                             117     0.2 4  253 199 
 RREF BZ EP   1   1543 31.08                             110     0.4 5  335 232 
 RREF BE ES   2   1544  8.20                             110     0.3 3  335 232 
 RREF BZ I        1544 12.81         3.7 0.37                           335 232 
 PRA  HZ EP   1   1543 36.89                             106    -0.6 4  400 212 
 PRA  HE ES   2   1544 19.41                             106    -0.6 3  400 212 
 PRA  HZ I        1544 23.09         4.0 0.55                           400 212 
                                                                                
