 2015  614 1011 43.0 L   6.869 -73.102137.2  RSN  5 0.4 1.2LRSN                1
 GAP=205        0.99       4.2     8.1  8.4 -0.2675E+01  0.3315E+02 -0.8349E+01E
 Epicentro: LOS SANTOS - SANTANDER                                             3
 ACTION:UPD 15-09-10 22:12 OP:cam  STATUS:               ID:20150614101143 L   I
 OLDACT:DUP 15-06-15 00:34 OP:ak   STATUS:               ID:20150614100749d    3
 OLDACT:REG 15-06-14 20:26 OP:ak   STATUS:               ID:20150614100748     3
 2015-06-14-1007-48M.COL___312                                                 6
 STAT SP IPHASW D HRMM SECON CODA AMPLIT PERI AZIMU VELO AIN AR TRES W  DIS CAZ7
 BAR2 EZ EP       1012  2.42                             166    0.5810 31.9 196 
 BAR2 EZ ES       1012 16.76                             166    0.2410 31.9 196 
 BAR2 EZ I        1012 19.18         5.7 0.20            165           31.9 196 
 RUS  HZ EP       1012  6.86                             140    0.3510  108 179 
 RUS  HN ES       1012 24.05                             140   -0.7810  108 179 
 RUS  HZ I        1012 26.72         1.1 0.26            142            108 179 
 SPBC HZ EP       1012 11.39                             125   -0.37 9  172 219 
 SPBC HN ES       1012 34.24                             125    0.06 9  172 219 
 SPBC HZ I        1012 38.83         2.8 0.21            127            172 219 
 SML  HZ EP   1   1012 18.26                             116   -0.40 6  239 333 
 SML  HN ES       1012 46.23                             116   -0.23 8  239 333 
 GUY2CHZ EP       1012 27.27                             110    0.06 7  310 234 
 GUY2CHN ES       1013  1.92                             110    0.25 7  310 234 
 GUY2CHZ I        1013  9.35         0.7 0.36                           310 234 
                                                                                
