 2016  814 1814 56.2 L   6.786 -73.137142.5  RSN 10 0.3 2.3LRSN                1
 GAP=138        0.77       3.0     2.9  4.3 -0.1239E+01  0.4558E+01  0.1143E+01E
 Epicentro: LOS SANTOS - SANTANDER                                             3
 ACTION:UPD 16-10-29 15:35 OP:rebc STATUS:               ID:20160814181456 L   I
 OLDACT:REG 16-08-14 20:26 OP:lv   STATUS:               ID:20160814180759     3
 2016-08-14-1807-59S.COL___349                                                 6
 STAT SP IPHASW D HRMM SECON CODA AMPLIT PERI AZIMU VELO AIN AR TRES W  DIS CAZ7
 BAR2 EZ IP       1815 15.37                             171   -0.0010 22.0 193 
 BAR2 HN ES       1815 29.75                             171   -0.6110 22.0 193 
 BAR2 EZ I        1815 34.64        72.0 0.86                          22.0 193 
 BRR  HZ IP       1815 17.13                             151    0.0810 72.8 299 
 BRR  HN ES       1815 33.81                             151    0.4710 72.8 299 
 BRR  HZ I        1815 36.56        37.6 0.16                          72.8 299 
 PAM  EZ EP       1815 18.23                             150    0.1610 78.0  38 
 PAM  EE ES       1815 35.25                             150    0.1010 78.0  38 
 PAM  EZ I        1815 35.85        30.6 0.20                          78.0  38 
 RUS  HZ EP       1815 19.40                             144   -0.0710 99.0 177 
 RUS  HE ES       1815 37.92                             144    0.2610 99.0 177 
 RUS  HZ I        1815 39.39        19.4 0.26                          99.0 177 
 PTB  HZ EP       1815 22.24                             131   -0.68 9  148 259 
 PTB  HE ES       1815 43.71                             131   -0.09 9  148 259 
 PTB  HZ I        1815 44.92        23.6 0.22                           148 259 
 SPBC HZ EP       1815 24.32                             128   -0.03 9  163 220 
 SPBC HE ES       1815 46.35                             128    0.00 9  163 220 
 SPBC HZ I        1815 56.10        27.3 0.46                           163 220 
 ZAR  HZ EP       1815 28.69                             121    0.14 8  206 292 
 ZAR  HE ES       1815 53.56                             121   -0.25 8  206 292 
 ZAR  HZ I        1815 59.14        35.0 0.56                           206 292 
 NOR  HZ IP       1815 31.75                             118    0.06 8  235 235 
 NOR  HN ES       1815 59.42                             118    0.02 8  235 235 
 NOR  HZ I        1816  5.68        19.1 0.26                           235 235 
 HEL  HZ EP       1815 35.95                             114   -0.32 8  273 256 
 HEL  HN ES       1816  7.78                             114    0.22 8  273 256 
 HEL  HZ I        1816 13.50        11.0 0.26                           273 256 
 GUY2CHZ EP       1815 40.12                             112    0.51 7  301 235 
 GUY2CHE ES   2   1816 14.49                             112    0.99 4  301 235 
 GUY2CHZ I        1816 25.83        12.5 0.78                           301 235 
                                                                                
