 2011  714 1050 12.7 L   6.725 -73.264163.4  RSN  5 0.2 1.4LRSN                1
 GAP=143        0.51       6.8    11.2 11.1  0.3562E+02 -0.9011E+02 -0.3856E+02E
 Epicentro: BARICHARA - SANTANDER                                              3
 ACTION:UPD 12-07-25 14:00 OP:epov STATUS:               ID:20110714105012 L   I
 2011-07-14-1047-35S.COL___132                                                 6
 STAT SP IPHASW D HRMM SECON CODA AMPLIT PERI AZIMU VELO AIN AR TRES W  DIS CAZ7
 BAR2 SZ EP       1050 34.61                             174    0.2910 17.2 148 
 BAR2 SZ I        1050 49.23         4.4 0.53                          17.2 148 
 BRR  HZ EP   1   1050 35.16                             157   -0.29 7 65.1 311 
 BRR  HZ I        1050 41.96         6.1 0.11                          65.1 311 
 BRR  HE ES   1   1050 53.28                             157    0.07 7 65.1 311 
 PAM  SZ EP   1   1050 37.50                             149   -0.15 7 92.2  43 
 RUS  HN ES   2   1050 57.02                             149   -0.34 5 94.2 168 
 RUS  HZ I        1050 58.66         1.6 0.29                          94.2 168 
 GRA  SZ EP   1   1050 40.51                             138    0.01 7  138  22 
 GRA  SZ I        1050 41.84         4.3 0.23                           138  22 
                                                                                
