 2014 1014 1315 40.4 L   6.799 -73.140147.2  RSN 21 0.4 2.6LRSN                1
 GAP=137        0.95       2.4     3.6  4.8 -0.1508E+01  0.6390E+01  0.9259E+00E
 Epicentro: LOS SANTOS - SANTANDER                                             3
 ACTION:UPD 14-11-29 23:49 OP:nd   STATUS:               ID:20141014131540 L   I
 OLDACT:REG 14-10-14 20:28 OP:fm   STATUS:               ID:20141014130748     3
 2014-10-14-1307-48M.COL___288                                                 6
 STAT SP IPHASW D HRMM SECON CODA AMPLIT PERI AZIMU VELO AIN AR TRES W  DIS CAZ7
 BAR2 SZ EP       1316  0.23                             171    0.0310 23.3 192 
 BAR2 SZ ES   1   1316 15.28                             171   -0.37 7 23.3 192 
 BAR2 SZ I        1316 16.21       110.7 0.20            168           23.3 192 
 BRR  HZ EP       1316  2.08                             152    0.3410 71.8 298 
 BRR  HN ES       1316 18.99                             152    0.6110 71.8 298 
 BRR  HZ I        1316 21.94        60.1 0.30            149           71.8 298 
 PAM  SZ EP       1316  3.05                             151    0.3010 77.1  39 
 PAM  SN ES       1316 19.90                             151   -0.2810 77.1  39 
 PAM  SZ I        1316 22.17       113.9 0.60            155           77.1  39 
 RUS  HZ EP   1   1316  4.46                             144    0.18 7  100 176 
 RUS  HN ES       1316 22.46                             144   -0.4510  100 176 
 RUS  HZ I        1316 23.80        33.8 0.34            146            100 176 
 PTB  HZ EP       1316  7.03                             132   -0.51 9  148 259 
 PTB  HE ES       1316 28.65                             132   -0.06 9  148 259 
 PTB  HZ I        1316 32.02        29.2 0.14            130            148 259 
 OCA  HZ EP   1   1316  7.97                             130   -0.87 7  160 353 
 OCA  HE ES       1316 31.73                             130    0.71 9  160 353 
 OCA  HZ I        1316 37.37        47.2 0.20            131            160 353 
 SPBC HZ EP       1316  9.13                             129    0.09 9  163 219 
 SPBC HN ES       1316 31.24                             129   -0.14 9  163 219 
 SPBC HZ I        1316 35.78        29.8 0.16            129            163 219 
 ZAR  HZ EP       1316 12.82                             123   -0.18 9  205 292 
 ZAR  HN ES       1316 38.80                             123    0.37 9  205 292 
 ZAR  HZ I        1316 44.92        54.2 0.52            122            205 292 
 SML  HZ EP       1316 16.67                             118   -0.47 8  244 335 
 SML  HN ES       1316 45.19                             118   -0.62 8  244 335 
 SML  HZ I        1316 49.30        53.8 0.10            118            244 335 
 CHI  HZ EP   4   1316 16.80                             117   -1.38 0  249 195 
 CHI  HN ES       1316 47.55                             117   -0.10 8  249 195 
 CHI  HZ I        1316 51.40        11.1 0.30            118            249 195 
 ROSC BZ EP   4   1316 20.80                             117    2.18 0  253 211 
 ROSC BN ES   4   1316 49.68                             117    1.24 0  253 211 
 ROSC BZ I        1316 55.06        20.6 0.40            117            253 211 
 URE  HZ EP   1   1316 21.17                             114   -0.44 6  284 292 
 URE  HE ES   4   1316 52.26                             114   -1.49 0  284 292 
 URE  HZ I        1317  5.08        24.0 0.22            114            284 292 
 GUY2CHZ EP       1316 25.46                             113    1.33 7  302 235 
 GUY2CHE ES       1316 58.06                             113   -0.17 7  302 235 
 GUY2CHZ I        1317  6.58        13.8 0.38                           302 235 
 PTGC HZ EP   4   1316 22.98                             112   -1.30 0  308 159 
 PTGC HN ES   4   1316 55.48                             112   -3.03 0  308 159 
 PTGC HZ I        1316 59.48        19.9 0.44            114            308 159 
 CBOC HZ EP   1   1316 27.77                             110    0.33 5  334 252 
 CBOC HN ES   1   1317  3.85                             110   -0.28 5  334 252 
 CBOC HZ I        1317 18.89         4.5 0.60            110            334 252 
 DBB  SZ EP       1316 27.68                             110   -0.33 7  340 274 
 DBB  SZ ES   1   1317  4.58                             110   -0.56 5  340 274 
 DBB  SZ I        1317  8.52        42.2 0.42            110            340 274 
 TOL  SZ EP   4   1316 29.97                             110    1.22 0  344 225 
 TOL  SE ES       1317  7.01                             110    0.54 7  344 225 
 TOL  SZ I        1317 12.39        29.9 0.30            110            344 225 
 PRA  HZ EP       1316 34.36                             107    0.37 6  392 210 
 PRA  HN ES       1317 15.84                             107    0.04 6  392 210 
 PRA  HZ I        1317 19.64        11.2 0.22            107            392 210 
 ORTC HZ EP       1316 34.33                             107   -0.07 6  396 216 
 ORTC HN ES   1   1317 16.58                             107    0.06 4  396 216 
 ORTC HZ I        1317 21.88         6.0 0.36            107            396 216 
 PAL  HZ EP       1316 35.85                             106    0.19 6  406 239 
 PAL  HE ES   1   1317 18.24                             106   -0.53 4  406 239 
 PAL  HZ I        1317 24.74         6.9 0.42            106            406 239 
 SJC  HZ EP   4   1316 34.50                             106   -1.56 0  410 327 
 SJC  HN ES   4   1317 14.95                             106   -4.52 0  410 327 
 SJC  HZ I        1317 20.54         7.7 0.40            106            410 327 
                                                                                
