 2012 1014 1646 24.8 L   6.772 -73.086144.4  RSN  5 0.2 1.8LRSN                1
 GAP=146        0.52       3.0     5.2  4.9 -0.1836E+01  0.1863E+01  0.3554E+01E
 Epicentro: LOS SANTOS - SANTANDER                                             3
 ACTION:UPD 12-11-22 17:03 OP:ep   STATUS:               ID:20121014164624 L   I
 2012-10-14-1640-00M.COL___230                                                 6
 STAT SP IPHASW D HRMM SECON CODA AMPLIT PERI AZIMU VELO AIN AR TRES W  DIS CAZ7
 BAR2 SZ EP   1   1646 44.30                             171    0.02 7 22.6 208 
 BAR2 SZ ES   1   1646 59.04                             171   -0.40 7 22.6 208 
 BAR2 SZ I        1647  0.90        11.6 0.12                          22.6 208 
 PAM  SZ EP   1   1646 46.91                             151    0.11 7 75.8  34 
 PAM  SN ES   1   1647  3.81                             151   -0.13 7 75.8  34 
 PAM  SN I        1647  5.60         6.5 0.31                          75.8  34 
 BRR  HZ EP       1646 46.13                             150   -0.1310 78.5 298 
 BRR  HN ES   1   1647  3.26                             150    0.29 7 78.5 298 
 BRR  HN I        1647  4.12        21.8 0.17                          78.5 298 
 RUS  HZ EP   1   1646 48.31                             144    0.11 7 97.3 180 
 RUS  HN ES   1   1647  6.87                             144    0.43 7 97.3 180 
 RUS  HN I        1647  8.02         8.4 0.17                          97.3 180 
 CHI  HZ EP   1   1647  2.35                             117    0.02 6  248 197 
 CHI  HN ES   1   1647 31.24                             117   -0.34 6  248 197 
 CHI  HN I        1647 36.66         5.0 0.28                           248 197 
                                                                                
