 2012  814 1033 43.1 L   6.747 -73.142147.6  RSN 10 0.3 2.2LRSN                1
 GAP= 73        0.79       4.0     3.3  4.8 -0.1411E+01  0.1390E+01  0.8937E+00E
 Epicentro: LOS SANTOS - SANTANDER                                             3
 ACTION:UPD 12-09-10 11:56 OP:ep   STATUS:               ID:20120814103343 L   I
 2012-08-14-1030-00M.COL___217                                                 6
 STAT SP IPHASW D HRMM SECON CODA AMPLIT PERI AZIMU VELO AIN AR TRES W  DIS CAZ7
 BAR2 SZ EP       1034  2.88                             173    0.0310 17.7 195 
 BAR2 SZ ES       1034 18.29                             173    0.0310 17.7 195 
 BAR2 SZ I        1034 19.31        50.7 0.27                          17.7 195 
 GIR2 SZ EP       1034  3.14                             165   -0.0210 37.2 351 
 BRR  HZ EP       1034  4.95                             152    0.3110 74.6 302 
 BRR  HN ES       1034 22.06                             152    0.6210 74.6 302 
 BRR  HZ I        1034 23.38        39.3 0.18                          74.6 302 
 PAM  SZ EP       1034  5.90                             150    0.1310 81.7  37 
 PAM  SZ I        1034  6.28        43.1 0.35                          81.7  37 
 PAM  SN ES       1034 22.95                             150   -0.5110 81.7  37 
 RUS  HZ EP   1   1034  6.63                             146    0.01 7 94.7 176 
 RUS  HN ES   1   1034 24.59                             146   -0.37 7 94.7 176 
 RUS  HZ I        1034 26.95        14.5 0.26                          94.7 176 
 PTB  HZ EP       1034  9.61                             133   -0.56 9  147 261 
 PTB  HE ES   1   1034 31.07                             133   -0.21 7  147 261 
 PTB  HZ I        1034 32.18        10.4 0.10                           147 261 
 TAM  HZ EP       1034 11.16                             131    0.40 9  153 103 
 OCA  HZ EP   1   1034 11.95                             129   -0.16 7  166 353 
 OCA  HZ I        1034 42.53        26.3 0.31                           166 353 
 ZAR  HZ EP   1   1034 15.91                             122   -0.04 6  207 294 
 ZAR  HN ES   1   1034 41.20                             122   -0.36 6  207 294 
 ZAR  HZ I        1034 46.59        12.8 0.36                           207 294 
 NOR  SZ EP   1   1034 18.56                             119   -0.06 6  232 236 
 NOR  SN ES   1   1034 46.65                             119    0.33 6  232 236 
 NOR  SZ I        1034 52.13         6.6 0.28                           232 236 
                                                                                
