 2010  414 1756 51.1 L   6.789 -72.977148.2  RSN  8 0.4 2.6LRSN                1
 GAP=213        0.79       4.3     8.3  5.6 -0.9336E+01 -0.3454E+01  0.7742E+01E
 Epicentro: CEPITA - SANTANDER                                                 3
 ACTION:UPD 10-08-24 09:59 OP:vdl  STATUS:               ID:20100414175702 L   I
 2010-04-14-1740-00S.COL___097                                                 6
 STAT SP IPHASW D HRMM SECON CODA AMPLIT PERI AZIMU VELO AIN AR TRES W  DIS CAZ7
 BAR2 SZ EP       1757 11.35                             167     0.110   32 226 
 BAR2 SZ ES       1757 26.62                             167    -0.310   32 226 
 BRR  HZ IP     C 1757 13.61                             147     0.010   89 293 
 BRR  HN ES       1757 31.24                             147     0.110   89 293 
 BRR  HZ I        1757 33.31        53.8 0.09                            89 293 
 OCA  SZ EP       1757 19.90                             129    -0.1 9  165 347 
 OCA  SZ ES   2   1757 42.69                             129     0.1 5  165 347 
 OCA  SZ I        1757 46.60        60.3 0.18                           165 347 
 CHI  HZ EP       1757 30.20                             117     0.8 8  253 199 
 HEL  HZ EP   2   1757 33.15                             113    -0.3 4  290 257 
 HEL  HZ I        1758  9.88        11.4 0.24                           290 257 
 RREF BZ EP   2   1757 38.84                             110    -0.1 3  335 232 
 RREF BN ES   1   1758 16.52                             110     0.3 5  335 232 
 RREF BZ I        1758 21.09        17.0 0.27                           335 232 
 TOL  SZ EP   2   1757 40.95                             109     0.0 3  356 227 
 PRA  HZ EP       1757 44.93                             106    -0.8 6  400 212 
 PRA  HE ES       1758 27.97                             106    -0.3 6  400 212 
 PRA  HZ I        1758 32.91        15.5 0.25                           400 212 
                                                                                
