 2010  814 1134  1.4 L   6.788 -72.961134.0  RSN  5 0.4 1.3LRSN                1
 GAP=180        0.51       6.1    17.6 11.6 -0.3683E+02 -0.1428E+03  0.2998E+01E
 Epicentro: CEPITA - SANTANDER                                                 3
 ACTION:UP  10-09-07 10:54 OP:vdl  STATUS:               ID:20100814113401 L   I
 2010-08-14-1133-10S.COL___111                                                 6
 STAT SP IPHASW D HRMM SECON CODA AMPLIT PERI AZIMU VELO SNR AR TRES W  DIS CAZ7
 BAR2 SZ ES   3   1134 33.73                             166    -0.5 2   33 229 
 BAR2 SZ I        1134 36.10         5.1 0.36                            33 229 
 BTL  SZ EP       1134 19.97                             164     0.010   37 293 
 BTL  SZ ES   2   1134 34.96                             164     0.5 5   37 293 
 BRR  HN ES   3   1134 38.23                             144    -0.8 2   90 293 
 RUS  HZ EP   2   1134 23.70                             142    -0.2 5  100 188 
 RUS  HN ES   3   1134 41.79                             142     0.3 2  100 188 
 GRA  SZ EP       1134 25.36                             135     0.110  123   8 
 GRA  SZ I        1134 26.61         3.6 0.23                           123   8 
 GRA  SZ ES   3   1134 43.03                             135    -0.9 2  123   8 
                                                                                
