 2012  714 1532  1.9 L   6.789 -73.119140.5  RSN  7 0.4 1.9LRSN                1
 GAP=140        0.84       5.2     5.5  7.5 -0.6133E+01  0.1456E+02  0.4885E+01E
 Epicentro: LOS SANTOS - SANTANDER                                             3
 ACTION:UPD 12-08-14 11:44 OP:ep   STATUS:               ID:20120714153201 L   I
 2012-07-14-1530-00M.COL___197                                                 6
 STAT SP IPHASW D HRMM SECON CODA AMPLIT PERI AZIMU VELO AIN AR TRES W  DIS CAZ7
 BAR2 SZ EP   1   1532 20.99                             170     0.1 9   23 198 
 BAR2 SZ ES   1   1532 35.54                             170    -0.2 9   23 198 
 BAR2 SZ I        1532 37.76        25.5 0.14            157             23 198 
 BRR  HZ EP   1   1532 22.80                             150     0.1 9   74 298 
 BRR  HZ I        1532 34.89        15.5 0.33            125             74 298 
 BRR  HN ES   1   1532 39.57                             150     0.7 9   74 298 
 PAM  SZ EP   1   1532 23.47                             150    -0.1 9   76  37 
 PAM  SN ES   1   1532 40.08                             150    -0.3 9   76  37 
 RUS  HZ EP   1   1532 25.02                             143     0.0 9   99 178 
 RUS  HZ I        1532 26.11         6.9 0.20            132             99 178 
 RUS  HE ES   1   1532 43.36                             143     0.2 9   99 178 
 ZAR  HN ES   2   1532 58.88                             121    -0.8 5  207 292 
 NOR  SZ EP   1   1532 37.18                             117    -0.4 7  236 235 
 NOR  SN ES       1533  4.92                             117    -0.410  236 235 
 HEL  HZ EP   1   1532 42.97                             114     0.8 7  275 256 
 HEL  HZ I        1533 22.00         5.6 0.29            102            275 256 
