 2017  214 1640 53.0 L   6.770 -73.133140.2  RSN  7 0.2 1.9LRSN                1
 GAP=139        0.57       2.5     2.4  3.8 -0.3559E+00  0.2635E+01  0.1195E+01E
 Epicentro: LOS SANTOS - SANTANDER                                             3
 ACTION:UPD 17-05-24 15:36 OP:jn   STATUS:               ID:20170214164053 L   I
 OLDACT:DUP 17-02-15 00:56 OP:cara STATUS:               ID:20170214163750d    3
 2017-02-14-1638-00M.COL___358                                                 6
 STAT SP IPHASW D HRMM SECON CODA AMPLIT PERI AZIMU VELO AIN AR TRES W  DIS CAZ7
 BAR2 EZ EP       1641 11.91                             171    0.0210 20.4 195 
 BAR2 EZ ES       1641 26.60                             171   -0.0310 20.4 195 
 BAR2 EZ I        1641 27.94        23.4 0.28            171           20.4 195 
 BRR  HZ EP       1641 13.77                             151    0.0710 74.0 300 
 BRR  HN ES       1641 30.24                             151    0.3810 74.0 300 
 BRR  HZ I        1641 35.04        20.5 0.12            151           74.0 300 
 PAM  EZ EP       1641 14.80                             149    0.0810 79.2  37 
 PAM  EN ES       1641 31.37                             149   -0.3010 79.2  37 
 PAM  EZ I        1641 34.02        11.5 0.28            153           79.2  37 
 RUS  HZ EP       1641 15.85                             144   -0.0910 97.1 177 
 RUS  HN ES       1641 33.97                             144    0.1310 97.1 177 
 RUS  HZ I        1641 36.05         8.5 0.44            146           97.1 177 
 PTB  HZ EP       1641 19.86                             131    0.29 9  148 260 
 PTB  HN ES       1641 39.90                             131   -0.41 9  148 260 
 PTB  HZ I        1641 41.85        11.8 0.14            132            148 260 
 ZAR  HZ EP   4   1641 26.84                             121    1.50 0  207 293 
 ZAR  HN ES       1641 50.50                             121   -0.07 8  207 293 
 NOR  HZ EP       1641 28.14                             117   -0.17 8  234 235 
 NOR  HE ES       1641 55.87                             117    0.01 8  234 235 
 NOR  HZ I        1642  1.74         5.8 0.20            119            234 235 
                                                                                
