 2011  614 1947 51.9 L   6.532 -73.510108.9  RSN  6 0.4 2.0LRSN                1
 GAP=194        0.86       5.1     8.4  8.0  0.9027E+01 -0.5652E+01 -0.9526E+01E
 Epicentro: EL CARMEN DE CHUCURI - SANTANDER                                   3
 ACTION:UP  11-07-14 19:05 OP:ep   STATUS:               ID:20110614194751 L   I
 2011-06-14-1945-35S.COL___135                                                 6
 STAT SP IPHASW D HRMM SECON CODA AMPLIT PERI AZIMU VELO SNR AR TRES W  DIS CAZ7
 BAR2 SZ EP       1948  7.71                             160     0.210   37  80 
 BAR2 SZ ES   1   1948 20.05                             160     0.3 7   37  80 
 BAR2 SZ I        1948 21.54        93.7 0.40                            37  80 
 BRR  HZ EP   1   1948  8.44                             146    -0.5 7   67 341 
 BRR  HN ES   1   1948 22.26                             146     0.1 7   67 341 
 BRR  HN I        1948 23.13        98.4 0.10                            67 341 
 RUS  HZ EP   1   1948 10.58                             139    -0.3 7   85 146 
 RUS  HN ES   1   1948 25.86                             139     0.1 7   85 146 
 RUS  HZ I        1948 27.43         5.0 0.40                            85 146 
 PAM  SZ EP   1   1948 14.31                             127    -0.3 7  126  45 
 PAM  SN ES   1   1948 31.83                             127    -0.5 7  126  45 
 BRI  SZ EP   1   1948 17.53                             121     0.7 7  153  31 
 GRA  SZ EP   1   1948 18.90                             118     0.4 7  169  28 
 GRA  SZ I        1948 43.09         7.9 0.19                           169  28 
                                                                                
