 2015  414 1034  3.0 L   6.805 -73.103152.0  RSN  7 0.4 1.4LRSN                1
 GAP=204        0.78       4.6     6.3  7.7  0.4552E+01  0.1312E+02 -0.9372E+01E
 Epicentro: LOS SANTOS - SANTANDER                                             3
 ACTION:UPD 15-06-03 16:54 OP:cam  STATUS:               ID:20150414103403 L   I
 OLDACT:REG 15-04-14 20:05 OP:spq  STATUS:               ID:20150414102749     3
 2015-04-14-1027-49M.COL___271                                                 6
 STAT SP IPHASW D HRMM SECON CODA AMPLIT PERI AZIMU VELO AIN AR TRES W  DIS CAZ7
 BAR2 EZ ES   1   1034 39.14                             170   -0.16 7 25.1 200 
 BAR2 EZ I        1034 41.24         4.5 0.28            166           25.1 200 
 BRR  HZ EP   1   1034 25.63                             152    0.62 7 75.1 296 
 BRR  HN ES       1034 42.61                             152    0.4110 75.1 296 
 BRR  HZ I        1034 44.71         4.3 0.17            149           75.1 296 
 RUS  HN ES   1   1034 46.03                             145   -0.36 7  101 179 
 RUS  HZ I        1034 48.16         2.4 0.30            144            101 179 
 PTB  HZ EP   1   1034 30.47                             133   -0.40 7  152 259 
 PTB  HE ES   1   1034 52.28                             133   -0.35 7  152 259 
 PTB  HZ I        1034 56.23         2.8 0.14            130            152 259 
 ZAR  HE ES       1035  1.93                             123   -0.27 8  208 292 
 ZAR  HZ I        1035  8.07         2.5 0.40            122            208 292 
 NOR  HE ES   1   1035  8.50                             119    0.49 6  239 235 
 NOR  HZ I        1035 13.95         1.8 0.16            118            239 235 
 SML  HZ EP   1   1034 40.22                             119    0.12 6  245 334 
 SML  HE ES   1   1035  8.68                             119   -0.39 6  245 334 
 SML  HZ I        1035 10.88         3.6 0.30            119            245 334 
                                                                                
