 2011  814 1614 20.8 L   7.473 -73.219113.7  RSN  5 0.4 2.0LRSN                1
 GAP=183        0.90       4.3    10.6  8.6 -0.1361E+01 -0.1608E+02  0.8663E+01E
 Epicentro: EL PLAYON - SANTANDER                                              3
 ACTION:UPD 12-07-13 15:51 OP:ep   STATUS:               ID:20110814161420 L   I
 2011-08-14-1612-47S.COL___150                                                 6
 STAT SP IPHASW D HRMM SECON CODA AMPLIT PERI AZIMU VELO AIN AR TRES W  DIS CAZ7
 BRR  HZ IP     D 1614 38.35                             147   -0.0310 67.8 233 
 BRR  HN ES   1   1614 52.21                             147    0.14 7 67.8 233 
 BRR  HZ I        1614 53.66        37.0 0.62                          67.8 233 
 OCA  SZ EP       1614 40.45                             140    0.5810 85.4 353 
 OCA  SZ ES   1   1614 53.93                             140   -0.81 7 85.4 353 
 OCA  SZ I        1614 57.48        16.4 0.33                          85.4 353 
 BAR2 SZ IP       1614 41.19                             137    0.2310 97.5 178 
 BAR2 SZ ES   1   1614 56.88                             137    0.21 7 97.5 178 
 BAR2 SZ I        1614 57.92        80.5 0.36                          97.5 178 
 RUS  HZ EP       1614 48.42                             119   -0.47 9  175 175 
 RUS  HN ES   3   1615 10.11                             119   -0.68 2  175 175 
 RUS  HZ I        1615 12.96         3.7 0.26                           175 175 
 NOR  SZ EP       1614 59.83                             107   -0.20 7  279 221 
                                                                                
