 2011 1114 1632 12.1 L   6.777 -73.124135.8  RSN  5 0.2 1.7LRSN                1
 GAP=140        0.42       2.8     3.1  4.5  0.1710E+01  0.1839E+01 -0.2018E+00E
 Epicentro: LOS SANTOS - SANTANDER                                             3
 ACTION:UPD 12-07-13 16:10 OP:ep   STATUS:               ID:20111114163212 L   I
 2011-11-14-1630-31S.COL___179                                                 6
 STAT SP IPHASW D HRMM SECON CODA AMPLIT PERI AZIMU VELO AIN AR TRES W  DIS CAZ7
 BAR2 SZ EP   1   1632 30.38                             171   -0.10 7 21.4 198 
 BAR2 SZ ES   1   1632 44.64                             171   -0.19 7 21.4 198 
 BAR2 SZ I        1632 46.58        18.9 0.31                          21.4 198 
 BRR  HZ EP   1   1632 32.05                             149   -0.32 7 74.6 299 
 BRR  HN ES   1   1632 48.46                             149    0.26 7 74.6 299 
 BRR  HZ I        1632 53.64        12.9 0.11                          74.6 299 
 PAM  SZ EP   1   1632 33.49                             149    0.21 7 77.9  37 
 PAM  SN ES   1   1632 49.77                             149   -0.05 7 77.9  37 
 RUS  HZ EP   1   1632 34.78                             142    0.11 7 97.9 177 
 RUS  HN ES   1   1632 52.37                             142    0.08 7 97.9 177 
 RUS  HZ I        1632 54.31         6.6 0.26                          97.9 177 
 ZAR  HE ES   1   1633  9.33                             120    0.00 6  207 293 
                                                                                
