 2016  314 1126 22.9 L   6.810 -73.176146.4  RSN  7 0.2 1.6LRSN                1
 GAP=132        0.58       2.4     2.6  4.1 -0.6006E+00  0.2649E+01  0.1496E+01E
 Epicentro: LOS SANTOS - SANTANDER                                             3
 ACTION:UPD 16-05-13 21:24 OP:cam  STATUS:               ID:20160314112622 L   I
 OLDACT:REG 16-03-14 20:13 OP:cara STATUS:               ID:20160314111748     3
 2016-03-14-1117-48M.COL___294                                                 6
 STAT SP IPHASW D HRMM SECON CODA AMPLIT PERI AZIMU VELO AIN AR TRES W  DIS CAZ7
 BAR2 EZ EP       1126 42.69                             170    0.0610 24.1 182 
 BAR2 EZ ES       1126 57.88                             170   -0.1310 24.1 182 
 BAR2 EZ I        1127  0.11         9.6 0.18            169           24.1 182 
 PAM  EZ IP       1126 45.52                             150    0.2510 78.7  42 
 PAM  EZ I        1126 45.70         8.2 0.20            154           78.7  42 
 PAM  EE ES       1127  2.72                             150    0.0110 78.7  42 
 RUS  HZ EP       1126 46.54                             144   -0.2810  102 174 
 RUS  HN ES       1127  5.48                             144    0.0110  102 174 
 RUS  HZ I        1127  6.45         5.3 0.30            144            102 174 
 PTB  HZ EP       1126 49.48                             133   -0.17 9  145 258 
 PTB  HE ES       1127 10.97                             133    0.46 9  145 258 
 PTB  HZ I        1127 12.83         3.5 0.40            133            145 258 
 SPBC HZ EP       1126 51.19                             129   -0.15 9  162 218 
 SPBC HN ES       1127 13.28                             129   -0.24 9  162 218 
 SPBC HZ I        1127 19.42         7.3 0.36            130            162 218 
 ZAR  HE ES       1127 19.90                             123   -0.19 9  201 292 
 ZAR  HZ I        1127 21.75         4.0 0.28            124            201 292 
 CHI  HZ EP       1127  0.83                             117    0.16 8  249 194 
 CHI  HZ I        1127  1.56         2.4 0.28            118            249 194 
 CHI  HN ES       1127 30.44                             117    0.33 8  249 194 
                                                                                
