 2016  414 1135 24.1 L   6.783 -73.185142.0  RSN  6 0.4 1.7LRSN                1
 GAP=142        0.76       4.8     4.7  6.5 -0.1236E+02  0.7780E+01  0.5076E+01E
 Epicentro: LOS SANTOS - SANTANDER                                             3
 ACTION:UPD 16-05-05 14:21 OP:rebc STATUS:               ID:20160414113524 L   I
 OLDACT:UP  16-04-15 01:16 OP:ar   STATUS:               ID:20160414112744     3
 OLDACT:REG 16-04-14 22:28 OP:ar   STATUS:               ID:20160414112744     3
 2016-04-14-1127-44M.COL___312                                                 6
 STAT SP IPHASW D HRMM SECON CODA AMPLIT PERI AZIMU VELO AIN AR TRES W  DIS CAZ7
 BAR2 EZ EP       1135 43.20                             171   -0.0810 21.1 179 
 BAR2 EZ ES       1135 58.47                             171    0.2610 21.1 179 
 BAR2 EZ I        1135 59.54        11.4 0.68            169           21.1 179 
 PAM  EZ EP       1135 46.20                             149   -0.0310 81.6  41 
 PAM  EN ES       1136  3.53                             149    0.0810 81.6  41 
 PAM  EZ I        1136  5.37         6.5 0.54            155           81.6  41 
 PTB  HZ EP       1135 50.08                             132   -0.31 9  143 259 
 PTB  HN ES       1136 10.55                             132   -0.31 9  143 259 
 PTB  HZ I        1136 16.56         3.3 0.40            133            143 259 
 SPBC HZ EP   1   1135 51.94                             129   -0.02 7  159 218 
 SPBC HN ES   2   1136 14.07                             129    0.42 5  159 218 
 SPBC HZ I        1136 20.06       101.4 0.04            130            159 218 
 CHI  HN ES       1136 29.85                             117   -0.46 8  246 194 
 CHI  HZ I        1136 34.62         1.3 0.32            119            246 194 
 GUY2CHZ EP   2   1136  7.95                             112    0.89 4  297 235 
 GUY2CHE ES       1136 41.31                             112    0.78 7  297 235 
 GUY2CHZ I        1136 47.01         0.8 0.22                           297 235 
                                                                                
