 2011 1214 1203 57.4 L   6.803 -73.076149.5  RSN  4 0.2 1.9LRSN                1
 GAP=145        0.43       4.5     4.9  6.7 -0.9097E+00  0.6475E+00  0.1018E+02E
 Epicentro: LOS SANTOS - SANTANDER                                             3
 ACTION:UPD 12-07-13 16:16 OP:ep   STATUS:               ID:20111214120357 L   I
 2011-12-14-1200-00M.COL___185                                                 6
 STAT SP IPHASW D HRMM SECON CODA AMPLIT PERI AZIMU VELO AIN AR TRES W  DIS CAZ7
 BAR2 SZ EP   1   12 4 17.20                             170   -0.31 7 26.1 207 
 BAR2 SZ I        12 4 31.46        11.9 0.49                          26.1 207 
 PAM  SZ EP   2   12 4 20.18                             153    0.48 5 72.4  35 
 PAM  SN ES   1   12 4 37.05                             153   -0.07 7 72.4  35 
 BRR  HZ EP   1   12 4 19.31                             151    0.00 7 77.9 296 
 BRR  HN ES   1   12 4 36.48                             151    0.06 7 77.9 296 
 BRR  HN I        12 4 39.09        23.6 0.19                          77.9 296 
 RUS  HZ EP   2   12 4 21.57                             145    0.07 5  101 180 
 RUS  HE ES   2   12 4 40.50                             145    0.18 5  101 180 
                                                                                
