 2016 1014 1927  3.5 L   6.765 -73.125140.1  RSN  6 0.4 1.6LRSN                1
 GAP=141        0.90       4.4     4.0  6.5  0.1480E+01  0.5877E+01 -0.2073E+00E
 Epicentro: LOS SANTOS - SANTANDER                                             3
 ACTION:UPD 16-11-09 19:19 OP:rebc STATUS:               ID:20161014192703 L   I
 OLDACT:DUP 16-10-14 22:39 OP:dnl  STATUS:               ID:20161014191738d    3
 2016-10-14-1918-00M.COL___365                                                 6
 STAT SP IPHASW D HRMM SECON CODA AMPLIT PERI AZIMU VELO AIN AR TRES W  DIS CAZ7
 BAR2 EZ EP       1927 22.38                             171    0.0410 20.1 198 
 BAR2 EZ ES       1927 36.84                             171   -0.2310 20.1 198 
 BAR2 EZ I        1927 38.13        12.9 0.22            172           20.1 198 
 BRR  HZ EP       1927 24.39                             150    0.1610 75.1 300 
 BRR  HN ES       1927 40.43                             150    0.0010 75.1 300 
 BRR  HZ I        1927 45.90         9.1 0.48            151           75.1 300 
 PAM  EZ EP       1927 25.54                             149    0.3610 79.0  36 
 PAM  EE ES       1927 41.97                             149   -0.1510 79.0  36 
 PAM  EZ I        1927 44.53         5.5 0.52            152           79.0  36 
 RUS  HZ EP       1927 26.38                             144    0.0210 96.6 177 
 RUS  HE ES       1927 44.41                             144    0.1810 96.6 177 
 RUS  HZ I        1927 46.44         4.1 0.40            148           96.6 177 
 PTB  HZ EP       1927 29.13                             130   -0.98 9  149 260 
 PTB  HE ES       1927 51.34                             130    0.44 9  149 260 
 PTB  HZ I        1927 53.00         5.8 0.48            133            149 260 
 ZAR  HZ EP   2   1927 36.46                             121    0.54 4  208 293 
 ZAR  HN ES       1928  1.23                             121   -0.00 8  208 293 
 ZAR  HZ I        1928  3.30         4.2 0.10            123            208 293 
                                                                                
