 2011 1014 1153 24.7 L   6.787 -73.106143.2  RSN  9 0.4 2.2LRSN                1
 GAP=142        0.83       3.4     4.9  6.5 -0.2941E+00  0.1079E+02  0.1985E+01E
 Epicentro: LOS SANTOS - SANTANDER                                             3
 ACTION:UPD 12-07-13 16:03 OP:ep   STATUS:               ID:20111014115325 L   I
 2011-10-14-1150-51S.COL___168                                                 6
 STAT SP IPHASW D HRMM SECON CODA AMPLIT PERI AZIMU VELO AIN AR TRES W  DIS CAZ7
 BAR2 SZ EP   1   1153 43.70                             170   -0.29 7 23.1 201 
 BAR2 SZ ES   1   1153 59.07                             170    0.01 7 23.1 201 
 BAR2 SZ I        1154  0.64        40.1 0.46                          23.1 201 
 BRR  HZ EP       1153 45.90                             151    0.0910 75.7 298 
 BRR  HZ I        1153 46.71        57.7 0.14                          75.7 298 
 BRR  HN ES   1   1154  2.79                             151    0.50 7 75.7 298 
 PAM  SZ EP   1   1153 46.84                             151    0.32 7 75.8  36 
 PAM  SN ES   1   1154  3.69                             151    0.13 7 75.8  36 
 RUS  HZ EP   1   1153 48.33                             144    0.28 7 99.0 179 
 RUS  HN ES   1   1154  5.55                             144   -0.74 7 99.0 179 
 RUS  HZ I        1154  7.85         8.1 0.26                          99.0 179 
 OCA  SZ EP   1   1153 53.08                             129    0.11 7  162 352 
 OCA  SZ ES   1   1154 14.95                             129   -0.09 7  162 352 
 OCA  SZ I        1154 19.87        25.6 0.31                           162 352 
 ZAR  HZ EP   1   1153 56.82                             121   -0.60 6  209 292 
 ZAR  HN ES   1   1154 22.04                             121   -0.93 6  209 292 
 ZAR  HZ I        1154 29.67        12.9 0.32                           209 292 
 CHI  HZ EP   1   1154  2.10                             117   -0.11 6  248 196 
 CHI  HE ES   1   1154 31.88                             117    0.39 6  248 196 
 CHI  HZ I        1154 35.45         4.7 0.79                           248 196 
 HEL  HZ EP   1   1154  5.07                             114   -0.12 6  276 256 
 HEL  HE ES   1   1154 37.83                             114    1.04 6  276 256 
 HEL  HZ I        1154 43.73        13.0 0.34                           276 256 
 RREF HE ES   2   1154 47.14                             110    0.04 3  324 230 
 RREF HZ I        1154 56.50         8.8 0.17                           324 230 
                                                                                
