 2016  214 1454 40.3 L   6.821 -73.194128.5  RSN  7 0.5 1.7LRSN                1
 GAP=130        0.64       4.3     4.7  8.6 -0.5856E+01  0.1302E+02 -0.7995E+01E
 Epicentro: ZAPATOCA - SANTANDER                                               3
 ACTION:UPD 16-03-04 21:26 OP:rebc STATUS:               ID:20160214145440 L   I
 OLDACT:REG 16-02-14 20:58 OP:dnl  STATUS:               ID:20160214144747     3
 2016-02-14-1447-47M.COL___305                                                 6
 STAT SP IPHASW D HRMM SECON CODA AMPLIT PERI AZIMU VELO AIN AR TRES W  DIS CAZ7
 BAR2 EZ EP   2   1454 57.88                             168   -0.04 5 25.3 177 
 BAR2 EZ ES   2   1455 12.12                             168    0.47 5 25.3 177 
 BAR2 EZ I        1455 15.34         8.3 0.23            169           25.3 177 
 PAM  EZ EP       1455  0.92                             147    0.0710 79.2  44 
 PAM  EE ES   2   1455 16.88                             147    0.02 5 79.2  44 
 PAM  EZ I        1455 19.81        10.7 0.28            154           79.2  44 
 RUS  HZ EP   2   1455  2.65                             139    0.01 5  103 173 
 RUS  HE ES   2   1455 19.76                             139   -0.28 5  103 173 
 RUS  HZ I        1455 23.14         2.9 0.27            145            103 173 
 PTB  HE ES   2   1455 24.75                             129   -0.36 5  143 258 
 PTB  HZ I        1455 28.43         7.9 0.12            131            143 258 
 OCA  HZ EP   2   1455  6.21                             126   -0.86 5  157 355 
 OCA  HE ES   2   1455 27.71                             126   -0.22 5  157 355 
 OCA  HZ I        1455 32.33        18.9 0.22            130            157 355 
 ZAR  HZ EP   2   1455 11.43                             119    0.35 4  198 292 
 ZAR  HN ES   2   1455 35.58                             119    0.51 4  198 292 
 ZAR  HZ I        1455 42.42        13.7 0.42            122            198 292 
 NOR  HZ EP   2   1455 15.87                             115    1.09 4  232 233 
 NOR  HE ES   2   1455 40.75                             115   -0.91 4  232 233 
 NOR  HZ I        1455 48.70         4.1 0.20            118            232 233 
                                                                                
