 2014 1114 1319 47.7 L   6.813 -73.175147.4  RSN 11 0.4 2.3LRSN                1
 GAP=132        0.90       3.2     3.8  4.9 -0.1465E+01  0.4921E+01  0.3348E+01E
 Epicentro: LOS SANTOS - SANTANDER                                             3
 ACTION:UPD 14-12-19 15:42 OP:nd   STATUS:               ID:20141114131947 L   I
 OLDACT:UP  14-11-14 22:19 OP:cam  STATUS:               ID:20141114131817     3
 OLDACT:UP  14-11-14 22:18 OP:cam  STATUS:               ID:20141114131817     3
 OLDACT:UP  14-11-14 22:18 OP:cam  STATUS:               ID:20141114131817     3
 OLDACT:UP  14-11-14 22:18 OP:cam  STATUS:               ID:20141114131817     3
 OLDACT:REG 14-11-14 20:43 OP:cam  STATUS:               ID:20141114131817     3
 2014-11-14-1318-17M.COL___286                                                 6
 STAT SP IPHASW D HRMM SECON CODA AMPLIT PERI AZIMU VELO AIN AR TRES W  DIS CAZ7
 BAR2 SZ EP     C 1320  7.53                             170   -0.0410 24.4 182 
 BAR2 SZ ES       1320 22.96                             170   -0.0910 24.4 182 
 BAR2 SZ I        1320 24.32        31.7 0.28            169           24.4 182 
 BRR  HZ EP       1320  9.27                             154    0.4210 67.7 299 
 BRR  HN ES       1320 25.90                             154    0.5610 67.7 299 
 BRR  HN I        1320 30.93       104.9 0.20            153           67.7 299 
 PAM  SZ EP     D 1320 10.37                             151    0.2010 78.4  42 
 PAM  SE ES       1320 27.57                             151   -0.1110 78.4  42 
 PAM  SZ I        1320 29.67        25.9 0.60            156           78.4  42 
 RUS  HZ EP       1320 11.49                             144   -0.2610  102 174 
 RUS  HN ES       1320 30.30                             144   -0.2010  102 174 
 RUS  HZ I        1320 32.59        19.9 0.50            146            102 174 
 PTB  HZ EP       1320 14.09                             133   -0.47 9  145 258 
 PTB  HN ES       1320 35.34                             133   -0.16 9  145 258 
 PTB  HZ I        1320 42.81        30.3 0.44            134            145 258 
 SPBC HZ EP       1320 16.46                             130    0.20 9  162 218 
 SPBC HN ES       1320 38.05                             130   -0.48 9  162 218 
 SPBC HZ I        1320 43.37        38.3 0.20            131            162 218 
 NOR  HZ EP       1320 23.52                             119    0.16 8  233 234 
 NOR  HN ES       1320 51.70                             119    0.55 8  233 234 
 NOR  HZ I        1320 53.62        14.6 0.26            121            233 234 
 CHI  HZ EP       1320 25.56                             117   -0.01 8  249 194 
 CHI  HN ES       1320 55.11                             117    0.02 8  249 194 
 CHI  HZ I        1321  0.78         9.8 0.26            120            249 194 
 TOL  SZ EP       1320 36.65                             110    0.75 7  342 224 
 TOL  SN ES   4   1321 14.91                             110    1.43 0  342 224 
 MON  HZ EP   4   1320 34.48                             109   -1.91 0  350 309 
 MON  HN ES       1321 13.28                             109   -1.07 6  350 309 
 MON  HN I        1321 16.05         6.5 0.16            111            350 309 
 PRA  HZ EP       1320 41.11                             107   -0.15 6  392 209 
 ORTC HZ EP   4   1320 40.39                             107   -1.22 0  395 216 
                                                                                
