 2013  114 1110 59.0 L   6.776 -73.118148.9  RSN  5 0.3 1.4LRSN                1
 GAP=239        0.57       4.9     6.6  5.8  0.1991E+02  0.9755E+01  0.1146E+02E
 Epicentro: LOS SANTOS - SANTANDER                                             3
 ACTION:UPD 13-02-15 09:14 OP:ep   STATUS:               ID:20130114111059 L   I
 2013-01-14-1110-00M.COL___241                                                 6
 STAT SP IPHASW D HRMM SECON CODA AMPLIT PERI AZIMU VELO AIN AR TRES W  DIS CAZ7
 BAR2 SZ EP       1111 18.78                             171   -0.1410 21.5 199 
 BAR2 SZ ES   1   1111 34.59                             171    0.10 7 21.5 199 
 BAR2 SZ I        1111 35.21         8.4 0.40            157           21.5 199 
 BRR  HN ES   1   1111 38.01                             152    0.42 7 75.2 299 
 RUS  HZ EP   1   1111 22.75                             145   -0.06 7 97.8 178 
 RUS  HN ES   1   1111 41.12                             145   -0.30 7 97.8 178 
 RUS  HZ I        1111 42.65         3.6 0.28            137           97.8 178 
 ZAR  HN ES   1   1111 57.35                             122   -0.42 6  208 292 
 CHI  HZ EP       1111 36.96                             118    0.32 8  247 196 
 CHI  HN ES   1   1112  6.08                             118    0.05 6  247 196 
 CHI  HZ I        1112 15.92         1.2 0.36            114            247 196 
                                                                                
