 2016 1014 1402 36.1 L   6.586 -73.256142.0  RSN  4 0.3 1.3LRSN                1
 GAP=146        0.67       6.7     5.0  7.6  0.1827E+02  0.8847E+01 -0.1238E+02E
 Epicentro: CABRERA - SANTANDER                                                3
 ACTION:UPD 16-11-09 19:19 OP:rebc STATUS:               ID:20161014140236 L   I
 OLDACT:UP  16-10-14 21:44 OP:dnl  STATUS:               ID:20161014135731     3
 OLDACT:REG 16-10-14 20:18 OP:dnl  STATUS:               ID:20161014135731     3
 2016-10-14-1358-00M.COL___374                                                 6
 STAT SP IPHASW D HRMM SECON CODA AMPLIT PERI AZIMU VELO AIN AR TRES W  DIS CAZ7
 BAR2 EZ EP       14 2 54.63                             177   -0.4510 8.22  85 
 BAR2 EZ ES       14 3 10.17                             177    0.3010 8.22  85 
 BAR2 EZ I        14 3 14.21        10.0 0.18            178           8.22  85 
 RUS  HZ EP   2   14 2 58.71                             150    0.67 5 79.0 166 
 RUS  HE ES       14 3 15.07                             150   -0.0710 79.0 166 
 RUS  HZ I        14 3 19.37         1.3 0.46            155           79.0 166 
 PTB  HZ EP   2   14 3  1.48                             135    0.04 5  133 268 
 PTB  HN ES       14 3 21.16                             135   -0.0310  133 268 
 PTB  HZ I        14 3 24.58         2.9 0.58            137            133 268 
 ZAR  HZ EP   2   14 3  8.77                             122    0.52 4  203 300 
 ZAR  HN ES       14 3 33.28                             122   -0.03 9  203 300 
 ZAR  HZ I        14 3 40.51         2.6 0.22            125            203 300 
                                                                                
