 2013  214 1649 40.8 L   6.830 -73.141151.9  RSN 19 0.5 3.4LRSN 3.6WRSN        1
 SPEC AVERAGE  MO 14.5 ST 19.9 OM  2.9 f0 2.99 R0.5902 AL 2.10 WI 32.2 MW  3.6 3
 SPEC SD       MO  0.3 ST 23.9 OM  0.5 f0 1.14 R0.2902 AL      WI      MW  0.2 3
 GAP= 70        1.11       2.6     3.0  4.8 -0.5122E+00  0.2837E+01 -0.2573E+00E
 Epicentro: LOS SANTOS - SANTANDER                                             3
 SPEC VIL SH N MO 15.1 ST 19.6 OM  3.2 f0 2.19 R0.6712 AL 2.65 WI 26.9 MW  4.0 3
 SPEC VIL SH N T165058 K 0.000 GD  342 VS 4.20 DE 3.20 Q0300.0 QA 0.60 VS 4.20 3
 SPEC ZAR HH N MO 14.6 ST 19.8 OM  2.8 f0 3.30 R0.4455 AL 1.90 WI 52.1 MW  3.7 3
 SPEC ZAR HH N T165036 K 0.000 GD  253 VS 4.20 DE 3.20 Q0300.0 QA 0.60 VS 4.20 3
 SPEC TAM HH N MO 14.3 ST  3.8 OM  2.6 f0 2.33 R0.6309 AL 2.19 WI 23.9 MW  3.5 3
 SPEC TAM HH N T165030 K 0.000 GD  217 VS 4.20 DE 3.20 Q0300.0 QA 0.60 VS 4.20 3
 SPEC OCA HH N MO 14.8 ST 81.7 OM  3.1 f0 4.42 R0.3326 AL 2.86 WI 27.0 MW  3.8 3
 SPEC OCA HH N T165030 K 0.000 GD  218 VS 4.20 DE 3.20 Q0300.0 QA 0.60 VS 4.20 3
 SPEC PTB HH N MO 14.4 ST 25.3 OM  2.7 f0 4.10 R0.3585 AL 1.49 WI 24.9 MW  3.6 3
 SPEC PTB HH N T165028 K 0.000 GD  212 VS 4.20 DE 3.20 Q0300.0 QA 0.60 VS 4.20 3
 SPEC RUS HH N MO 14.2 ST  9.3 OM  2.5 f0 3.59 R0.4095 AL 2.38 WI 14.6 MW  3.4 3
 SPEC RUS HH N T165022 K 0.000 GD  184 VS 4.20 DE 3.20 Q0300.0 QA 0.60 VS 4.20 3
 SPEC PAM SH N MO 14.8 ST  1.2 OM  3.2 f0 1.09 R1.3486 AL 1.87 WI 43.8 MW  3.8 3
 SPEC PAM SH N T165020 K 0.000 GD  169 VS 4.20 DE 3.20 Q0300.0 QA 0.60 VS 4.20 3
 SPEC COD HH N MO 14.4 ST  9.0 OM  2.4 f0 3.02 R0.4868 AL 1.69 WI 37.6 MW  3.5 3
 SPEC COD HH N T1651 3 K 0.000 GD  376 VS 4.20 DE 3.20 Q0300.0 QA 0.60 VS 4.20 3
 SPEC HEL HH E MO 14.5 ST  3.7 OM  2.6 f0 2.05 R0.7171 AL 1.60 WI 41.1 MW  3.6 3
 SPEC HEL HH E T165049 K 0.000 GD  312 VS 4.20 DE 3.20 Q0300.0 QA 0.60 VS 4.20 3
 SPEC HEL HH Z MO 14.2 ST  6.9 OM  1.5 f0 3.25 R0.4523 AL 1.21 WI 29.1 MW  3.4 3
 SPEC HEL HH Z T165021 K 0.000 GD  312 VP 7.60 DE 3.20 Q0300.0 QA 0.60 VS 4.20 3
 SPEC CHI HH Z MO 14.5 ST  1.6 OM  2.6 f0 1.57 R0.9363 AL 1.93 WI 43.2 MW  3.6 3
 SPEC CHI HH Z T165046 K 0.000 GD  294 VS 4.20 DE 3.20 Q0300.0 QA 0.60 VS 4.20 3
 SPEC BRR HH N MO 14.5 ST 57.5 OM  2.9 f0 5.01 R0.2934 AL 3.43 WI 22.1 MW  3.6 3
 SPEC BRR HH N T165019 K 0.000 GD  167 VS 4.20 DE 3.20 Q0300.0 QA 0.60 VS 4.20 3
 ACTION:UPD 13-03-12 09:33 OP:ep   STATUS:               ID:20130214164940 L   I
 2013-02-14-1647-47M.COL___192                                                 6
 STAT SP IPHASW D HRMM SECON CODA AMPLIT PERI AZIMU VELO AIN AR TRES W  DIS CAZ7
 BAR2 SZ IP     C 1650  1.29                             170    0.0210 26.7 190 
 BAR2 SZ ES       1650 16.73                             170   -0.4910 26.7 190 
 BAR2 SZ I        1650 17.69      1001.6 0.20            167           26.7 190 
 BRR  HZ EP       1650  3.18                             154    0.5910 70.1 296 
 BRR  HN ES       1650 20.27                             154    0.7110 70.1 296 
 BRR  HN I        1650 21.52       683.7 0.32            146           70.1 296 
 PAM  SZ IP     D 1650  4.15                             153    0.6110 74.5  41 
 PAM  SN ES       1650 21.29                             153    0.0410 74.5  41 
 PAM  SN I        1650 22.86       397.8 0.28            144           74.5  41 
 RUS  HZ IP     D 1650  5.11                             144   -0.3110  104 176 
 RUS  HN ES       1650 24.16                             144   -0.4510  104 176 
 RUS  HN I        1650 25.77       347.9 0.26            136            104 176 
 PTB  HZ EP       1650  7.88                             133   -0.53 9  149 258 
 PTB  HN ES       1650 29.45                             133   -0.48 9  149 258 
 PTB  HN I        1650 34.62       425.0 0.54            124            149 258 
 TAM  HZ IP     D 1650  9.49                             132    0.45 9  155 106 
 TAM  HE ES       1650 31.22                             132    0.18 9  155 106 
 TAM  HE I        1650 32.66       159.4 0.48            122            155 106 
 OCA  HZ EP       1650  9.30                             132   -0.02 9  157 353 
 OCA  HN ES       1650 31.25                             132   -0.30 9  157 353 
 ZAR  HZ EP       1650 13.85                             124    0.25 9  203 291 
 ZAR  HN ES       1650 39.35                             124    0.18 9  203 291 
 ZAR  HN I        1650 45.47       332.4 0.44            114            203 291 
 NOR  HZ EP       1650 16.99                             119   -0.18 8  237 234 
 NOR  HN ES       1650 45.74                             119    0.21 8  237 234 
 NOR  HN I        1650 47.73       300.9 0.14            111            237 234 
 SML  HZ EP       1650 17.73                             119    0.23 8  241 335 
 SML  HN ES   1   1650 46.79                             119    0.68 6  241 335 
 SML  HN I        1650 53.53       347.8 0.22            110            241 335 
 CHI  HZ EP       1650 19.13                             118   -0.11 8  252 195 
 CHI  HN ES   2   1650 48.49                             118   -0.71 4  252 195 
 CHI  HN I        1650 51.18       217.3 0.32            110            252 195 
 ROSC BZ EP   4   1650 21.24                             118    1.61 0  256 211 
 ROSC BZ I        1650 55.05       180.8 0.45            109            256 211 
 HEL  HZ EP       1650 22.49                             116    0.98 8  273 255 
 HEL  HN ES       1650 53.40                             116    0.16 8  273 255 
 HEL  HN I        1650 58.53        75.4 0.68            108            273 255 
 URE  HZ EP       1650 20.91                             115   -1.21 7  283 291 
 URE  HN I        1651  3.16       199.6 0.30            107            283 291 
 VIL  SZ EP       1650 25.08                             113    0.17 7  307 192 
 VIL  SN ES       1650 58.81                             113   -0.49 7  307 192 
 COD  HZ EP       1650 28.64                             110   -0.44 7  345 354 
 COD  HN ES       1651  6.38                             110   -0.33 7  345 354 
 COD  HN I        1651 12.41        80.4 0.74            102            345 354 
 SDV  BZ EP       1650 30.61                             109   -0.21 6  358  51 
 SDV  BZ I        1651 10.21        28.4 0.40            102            358  51 
 ANIL HZ EP       1650 31.40                             109    0.21 6  360 224 
 ANIL HN ES       1651 11.41                             109    0.93 6  360 224 
 SJC  HN EP       1650 35.42                             107   -0.88 6  407 327 
 SJC  HE ES   1   1651 18.17                             107   -1.40 4  407 327 
 SJC  HE I        1651 22.77        58.2 0.34            100            407 327 
                                                                                
