 2015  614 1337 55.3 L   6.891 -73.051147.0  RSN  6 0.6 1.7LRSN                1
 GAP=232        1.25       6.4     9.5  9.0  0.9921E+01  0.2265E+02  0.6743E-01E
 Epicentro: PIEDECUESTA - SANTANDER                                            3
 ACTION:UPD 15-09-10 22:12 OP:cam  STATUS:               ID:20150614133755 L   I
 OLDACT:REG 15-06-14 21:06 OP:ak   STATUS:               ID:20150614132749     3
 2015-06-14-1327-49M.COL___315                                                 6
 STAT SP IPHASW D HRMM SECON CODA AMPLIT PERI AZIMU VELO AIN AR TRES W  DIS CAZ7
 BAR2 EZ EP       1338 15.49                             166    0.0910 36.1 204 
 BAR2 EZ ES       1338 30.36                             166   -0.7110 36.1 204 
 BAR2 EZ I        1338 32.36         6.6 0.20            166           36.1 204 
 BRR  HZ EP       1338 17.51                             151    0.6110 76.8 288 
 BRR  HN ES       1338 34.54                             151    0.7810 76.8 288 
 BRR  HZ I        1338 38.64         6.6 0.30            150           76.8 288 
 ZAR  HZ EP   1   1338 29.21                             122    0.74 6  210 289 
 ZAR  HN ES       1338 53.56                             122   -0.79 8  210 289 
 SML  HZ EP   1   1338 31.16                             118   -0.36 6  239 332 
 SML  HN ES       1338 59.44                             118   -0.33 8  239 332 
 SML  HZ I        1339  4.27         4.4 0.12            119            239 332 
 GUY2CHZ EP       1338 40.12                             111   -0.47 7  316 234 
 GUY2CHN ES       1339 16.12                             111    0.21 7  316 234 
 GUY2CHZ I        1339 21.94         1.9 0.32                           316 234 
 PRA  HZ EP   1   1338 50.30                             106   -0.19 4  406 210 
 PRA  HN ES   4   1339 31.67                             106   -1.87 0  406 210 
 PRA  HZ I        1339 38.11         2.3 0.24            107            406 210 
                                                                                
