 2015  414 1354 45.8 L   6.347 -73.571110.0  RSN  7 0.4 1.7LRSN                1
 GAP=105        1.03       5.8     4.4 10.8 -0.1451E+01  0.8252E+01  0.3345E+02E
 Epicentro: SANTA HELENA DEL OPON - SANTANDER                                  3
 ACTION:UPD 15-06-03 16:54 OP:cam  STATUS:               ID:20150414135445 L   I
 OLDACT:REG 15-04-14 20:21 OP:spq  STATUS:               ID:20150414134750     3
 2015-04-14-1347-50M.COL___271                                                 6
 STAT SP IPHASW D HRMM SECON CODA AMPLIT PERI AZIMU VELO AIN AR TRES W  DIS CAZ7
 BAR2 EZ EP       1355  2.46                             154    0.1510 50.8  58 
 BAR2 EZ ES   1   1355 15.23                             154    0.06 7 50.8  58 
 BAR2 EZ I        1355 16.81        15.7 0.28            155           50.8  58 
 RUS  HZ EP       1355  3.95                             144   -0.1810 73.8 133 
 BRR  HZ EP   1   1355  4.23                             139   -0.10 7 85.5 350 
 BRR  HN ES       1355 19.14                             139    0.3910 85.5 350 
 BRR  HZ I        1355 20.29         8.5 0.20            139           85.5 350 
 PTB  HZ EP       1355  5.01                             134   -0.5710  100 282 
 PTB  HN ES       1355 20.44                             134   -0.5510  100 282 
 PTB  HZ I        1355 21.38        15.8 0.16            134            100 282 
 NOR  HZ EP       1355 12.01                             119   -0.30 9  168 239 
 NOR  HN ES       1355 33.65                             119    0.68 9  168 239 
 NOR  HZ I        1355 36.40         5.6 0.18            119            168 239 
 ZAR  HN ES   1   1355 37.66                             115    0.42 7  190 312 
 ZAR  HZ I        1355 41.93        10.4 0.30            115            190 312 
 GUY2CHZ EP   1   1355 21.07                             110    0.82 6  234 238 
 GUY2CHE ES   4   1355 50.48                             110    3.38 0  234 238 
 GUY2CHZ I        1355 58.29         2.6 0.50                           234 238 
                                                                                
