 2013  814 1956 48.9 L   6.812 -73.154145.7  RSN  7 0.3 1.7LRSN                1
 GAP=135        0.73       4.7     4.2  7.6  0.4418E+01  0.1203E+02  0.1165E+02E
 Epicentro: LOS SANTOS - SANTANDER                                             3
 ACTION:UPD 14-01-14 09:02 OP:ep   STATUS:               ID:20130814195648 L   I
 OLDACT:REG 13-08-14 15:55 OP:jn   STATUS:               ID:20130814194959     3
 2013-08-14-1949-59M.COL___270                                                 6
 STAT SP IPHASW D HRMM SECON CODA AMPLIT PERI AZIMU VELO AIN AR TRES W  DIS CAZ7
 BAR2 SZ ES   1   1957 23.49                             170   -0.40 8 24.5 187 
 BAR2 SZ I        1957 25.06        11.4 0.24            168           24.5 187 
 BRR  HN ES   1   1957 27.16                             153    0.76 8 69.7 298 
 PAM  SN ES   1   1957 28.06                             151   -0.34 8 77.0  41 
 RUS  HZ EP       1957 12.91                             143    0.1510  102 176 
 RUS  HN ES       1957 31.54                             143    0.1810  102 176 
 RUS  HZ I        1957 32.60         6.4 0.28            145            102 176 
 PTB  HN ES       1957 36.47                             132   -0.33 9  147 258 
 PTB  HZ I        1957 42.93         4.8 0.16            130            147 258 
 ZAR  HE ES   1   1957 46.42                             123    0.01 6  203 292 
 ZAR  HZ I        1957 52.14         4.9 0.52            122            203 292 
 NOR  HZ EP   1   1957 24.50                             118   -0.14 6  235 234 
 NOR  HE ES   1   1957 52.47                             118   -0.03 6  235 234 
 NOR  HZ I        1957 55.39         3.7 0.16            118            235 234 
                                                                                
