 2012  814 1005 11.1 L   6.798 -73.146143.7  RSN  5 0.2 1.5LRSN                1
 GAP=150        0.49       5.0     2.8  4.6 -0.6082E+01  0.2582E+01  0.1711E+01E
 Epicentro: LOS SANTOS - SANTANDER                                             3
 ACTION:UPD 12-09-10 11:56 OP:ep   STATUS:               ID:20120814100511 L   I
 2012-08-14-1000-00M.COL___217                                                 6
 STAT SP IPHASW D HRMM SECON CODA AMPLIT PERI AZIMU VELO AIN AR TRES W  DIS CAZ7
 BAR2 SZ EP   1   10 5 30.80                             170    0.31 7 23.1 190 
 BAR2 SZ ES   1   10 5 45.67                             170    0.06 7 23.1 190 
 BAR2 SZ I        10 5 47.79         4.9 0.15                          23.1 190 
 BRR  HZ EP   1   10 5 32.02                             152   -0.02 7 71.2 299 
 BRR  HN ES   1   10 5 48.69                             152    0.32 7 71.2 299 
 BRR  HZ I        10 5 51.23         5.8 0.13                          71.2 299 
 PAM  SZ EP       10 5 33.04                             150   -0.0810 77.6  39 
 PAM  SN ES       10 5 50.16                             150   -0.1310 77.6  39 
 PAM  SZ I        10 5 52.48         7.9 0.58                          77.6  39 
 PTB  HZ EP       10 5 38.00                             131    0.10 9  148 259 
 PTB  HE ES       10 5 58.47                             131   -0.33 9  148 259 
 ZAR  HN ES   1   10 6  8.75                             122    0.12 6  204 292 
 ZAR  HZ I        10 6 13.83         2.3 0.26                           204 292 
                                                                                
