 2010  714 1855 50.1 L   6.802 -73.131146.3  RSN 13 0.9 2.6LRSN                1
 GAP=127        2.14       7.7    11.5 12.7 -0.2821E+02  0.2044E+02 -0.9239E+01E
 Epicentro: LOS SANTOS - SANTANDER                                             3
 ACTION:UPD 10-12-01 15:17 OP:pat  STATUS:               ID:20100714185550 L   I
 2010-07-14-1851-33S.COL___120                                                 6
 STAT SP IPHASW D HRMM SECON CODA AMPLIT PERI AZIMU VELO AIN AR TRES W  DIS CAZ7
 BAR2 SZ EP       1856  9.46                             170    -0.310   24 194 
 BAR2 SZ ES   1   1856 24.81                             170    -0.3 7   24 194 
 BAR2 SZ I        1856 27.35        94.4 0.26                            24 194 
 GIR2 SZ EP   2   1856 10.59                             167     0.8 5   31 347 
 BRR  HZ EP       1856 11.35                             152     0.010   73 298 
 BRR  HN ES       1856 28.34                             152     0.410   73 298 
 BRR  HZ I        1856 30.51       107.7 0.22                            73 298 
 RUS  HZ EP       1856 13.23                             144    -0.610  101 177 
 RUS  HN ES       1856 32.05                             144    -0.410  101 177 
 RUS  HZ I        1856 33.50        46.5 0.23                           101 177 
 BRI  SZ EP       1856 14.98                             142     1.010  108  20 
 BRI  SZ ES   2   1856 32.79                             142     0.2 5  108  20 
 BRI  SZ I        1856 35.71        57.7 0.04                           108  20 
 GUE  SZ EP       1856 14.46                             140    -0.310  116  11 
 GUE  SZ I        1856 16.23        27.9 0.99                           116  11 
 GRA  SZ EP       1856 16.24                             137     0.910  125  17 
 GRA  SZ ES   1   1856 35.06                             137     0.1 7  125  17 
 GRA  SZ I        1856 37.21        59.4 0.49                           125  17 
 OCA  SZ EP       1856 17.95                             130    -0.5 9  160 353 
 OCA  SZ ES   1   1856 40.25                             130    -0.3 7  160 353 
 OCA  SZ I        1856 45.88        65.6 0.08                           160 353 
 ROSC BZ EP   1   1856 29.45                             117     1.1 6  254 211 
 ROSC BZ I        1857  7.53        40.6 0.75                           254 211 
 HEL  HZ EP   1   1856 31.69                             115     1.2 6  274 256 
 HEL  HN ES   1   1857  1.44                             115    -0.6 6  274 256 
 HEL  HZ I        1857  7.73        24.9 0.29                           274 256 
 RREF HZ EP       1856 37.62                             111     1.2 7  323 230 
 RREF HN ES   1   1857 12.73                             111     0.2 5  323 230 
 RREF HZ I        1857 18.00        38.5 0.03                           323 230 
 MON  HZ EP       1856 36.53                             109    -2.7 6  354 308 
 MON  HZ I        1857 16.97        11.4 0.94                           354 308 
 SDV  BZ EP   1   1856 38.53                             108    -1.4 5  359  50 
 SDV  BZ I        1856 39.77        21.0 0.30                           359  50 
                                                                                
