 2016 1014 1315 35.9 L   6.768 -73.139147.2  RSN 10 0.5 2.1LRSN                1
 GAP=139        0.97       4.5     4.3  6.4  0.4186E+00  0.1012E+02  0.4366E+01E
 Epicentro: LOS SANTOS - SANTANDER                                             3
 ACTION:UPD 16-11-09 19:19 OP:rebc STATUS:               ID:20161014131535 L   I
 OLDACT:UP  16-10-14 21:35 OP:dnl  STATUS:               ID:20161014130747     3
 OLDACT:REG 16-10-14 20:16 OP:dnl  STATUS:               ID:20161014130747     3
 2016-10-14-1308-00M.COL___374                                                 6
 STAT SP IPHASW D HRMM SECON CODA AMPLIT PERI AZIMU VELO AIN AR TRES W  DIS CAZ7
 BAR2 EZ IP     C 1315 55.68                             172    0.0610 20.0 194 
 BAR2 EZ ES       1316 11.09                             172    0.0710 20.0 194 
 BAR2 EZ I        1316 12.83        20.5 0.26            170           20.0 194 
 BRR  HZ IP     C 1315 57.56                             152    0.2410 73.6 301 
 BRR  HE ES       1316 14.59                             152    0.5510 73.6 301 
 BRR  HZ I        1316 17.76        23.1 0.46            151           73.6 301 
 PAM  EZ EP   2   1315 58.32                             150   -0.07 5 79.7  38 
 PAM  EN ES       1316 15.48                             150   -0.4710 79.7  38 
 PAM  EZ I        1316 16.39        18.5 0.52            154           79.7  38 
 RUS  HZ EP       1315 59.67                             145    0.1510 97.0 176 
 RUS  HN ES       1316 18.07                             145    0.1110 97.0 176 
 RUS  HZ I        1316 19.58        11.1 0.30            147           97.0 176 
 PTB  HZ EP       1316  2.34                             132   -0.63 9  148 260 
 PTB  HN ES       1316 23.33                             132   -0.77 9  148 260 
 PTB  HZ I        1316 25.77        20.3 0.16            133            148 260 
 SPBC HZ EP   3   1316  4.52                             130    0.24 2  161 220 
 SPBC HN ES   3   1316 26.40                             130   -0.02 2  161 220 
 SPBC HZ I        1316 30.78        24.5 0.56            131            161 220 
 ZAR  HZ EP   2   1316  8.98                             122    0.35 4  206 293 
 ZAR  HE ES       1316 34.60                             122    0.43 8  206 293 
 ZAR  HZ I        1316 39.76        24.8 0.50            124            206 293 
 NOR  HZ EP       1316 12.12                             119    0.58 8  233 235 
 NOR  HE ES       1316 38.98                             119   -0.37 8  233 235 
 NOR  HZ I        1316 41.45        10.9 0.20            120            233 235 
 GUY2CHZ EP   2   1316 20.34                             113    0.95 4  300 235 
 GUY2CHE ES   4   1316 55.10                             113    1.77 0  300 235 
 GUY2CHZ I        1317  2.31         7.8 0.40                           300 235 
 SJC  HZ EP   2   1316 30.39                             106   -1.50 3  413 327 
 SJC  HN ES   4   1317 11.29                             106   -4.28 0  413 327 
 SJC  HZ I        1317 15.49         3.4 0.54            107            413 327 
                                                                                
