 2014  414 1219 54.2 L   6.845 -73.196143.3  RSN  6 0.2 1.7LRSN                1
 GAP=128        0.61       2.1     3.0  5.0 -0.1126E+01  0.5500E+01 -0.2088E+00E
 Epicentro: ZAPATOCA - SANTANDER                                               3
 ACTION:UPD 14-05-13 23:08 OP:nd   STATUS:               ID:20140414121954 L   I
 OLDACT:REG 14-04-14 20:30 OP:stll STATUS:               ID:20140414121812     3
 2014-04-14-1218-12M.COL___269                                                 6
 STAT SP IPHASW D HRMM SECON CODA AMPLIT PERI AZIMU VELO AIN AR TRES W  DIS CAZ7
 PAM  SZ EP       1220 16.51                             150    0.3810 77.4  45 
 PAM  SZ I        1220 16.75        12.7 0.20            153           77.4  45 
 PAM  SN ES       1220 33.28                             150    0.0310 77.4  45 
 RUS  HZ EP       1220 18.09                             142   -0.0110  106 173 
 RUS  HN ES       1220 36.61                             142   -0.1410  106 173 
 RUS  HZ I        1220 38.49         6.7 0.28            144            106 173 
 PTB  HZ EP       1220 20.32                             132   -0.23 9  143 256 
 PTB  HN ES       1220 41.04                             132   -0.08 9  143 256 
 PTB  HZ I        1220 43.86         5.3 0.20            132            143 256 
 NOR  HZ EP       1220 29.70                             118    0.09 8  233 233 
 NOR  HN ES       1220 57.76                             118    0.52 8  233 233 
 NOR  HZ I        1221  2.89         3.3 0.20            119            233 233 
 SML  HZ EP       1220 30.06                             118    0.14 8  237 336 
 SML  HN ES       1220 57.47                             118   -0.33 8  237 336 
 SML  HZ I        1221  3.53         5.9 0.10            118            237 336 
 CHI  HZ EP       1220 31.76                             116   -0.36 8  252 194 
 CHI  HZ I        1220 33.24         2.2 0.20            118            252 194 
 CHI  HN ES       1221  1.64                             116   -0.08 8  252 194 
                                                                                
