 2015 1214 1253 51.1 L   6.787 -73.127146.8  RSN 11 0.4 2.0LRSN                1
 GAP=140        0.80       3.1     4.6  5.4 -0.7431E+00  0.1155E+02 -0.2005E+01E
 Epicentro: LOS SANTOS - SANTANDER                                             3
 ACTION:UPD 16-02-04 15:04 OP:cam  STATUS:               ID:20151214125351 L   I
 OLDACT:UP  15-12-14 22:58 OP:ar   STATUS:               ID:20151214124748     3
 OLDACT:UP  15-12-14 22:53 OP:ar   STATUS:               ID:20151214124748     3
 OLDACT:REG 15-12-14 20:39 OP:ar   STATUS:               ID:20151214124748     3
 2015-12-14-1247-48M.COL___327                                                 6
 STAT SP IPHASW D HRMM SECON CODA AMPLIT PERI AZIMU VELO AIN AR TRES W  DIS CAZ7
 BAR2 EZ EP       1254 10.74                             171   -0.0710 22.4 196 
 BAR2 EZ ES       1254 25.91                             171   -0.3010 22.4 196 
 BAR2 EZ I        1254 27.11        28.4 0.20            167           22.4 196 
 BRR  HZ EP       1254 12.70                             152    0.2210 73.7 299 
 BRR  HN ES   2   1254 30.07                             152    0.89 5 73.7 299 
 PAM  EZ EP       1254 13.66                             151    0.2710 77.2  38 
 PAM  EN ES       1254 30.65                             151   -0.1510 77.2  38 
 PAM  EZ I        1254 32.80        19.2 0.46            155           77.2  38 
 RUS  HZ EP       1254 14.47                             144   -0.3510 99.0 177 
 RUS  HN ES       1254 33.70                             144    0.3610 99.0 177 
 RUS  HZ I        1254 34.38        14.3 0.22            145           99.0 177 
 PTB  HZ EP   2   1254 17.29                             132   -1.00 5  150 260 
 PTB  HN ES   2   1254 38.81                             132   -0.71 5  150 260 
 PTB  HZ I        1254 40.37         9.0 0.22            130            150 260 
 ZAR  HZ EP   2   1254 24.11                             122    0.27 4  207 292 
 ZAR  HN ES   2   1254 48.62                             122   -0.78 4  207 292 
 ZAR  HZ I        1254 55.05         7.7 0.14            121            207 292 
 NOR  HZ EP   2   1254 27.50                             119    0.54 4  236 235 
 NOR  HN ES   2   1254 54.96                             119    0.01 4  236 235 
 NOR  HZ I        1254 59.65         8.9 0.22            118            236 235 
 SML  HZ EP       1254 27.41                             117   -0.58 8  246 335 
 SML  HN ES       1254 57.23                             117    0.44 8  246 335 
 SML  HZ I        1254 58.78        13.7 0.04            118            246 335 
 HEL  HZ EP       1254 31.70                             115    0.17 8  274 256 
 HEL  HE ES   2   1255  3.68                             115    0.60 4  274 256 
 HEL  HZ I        1255 12.15         4.8 0.24            114            274 256 
 GUY2CHZ EP   4   1254 36.38                             112    1.55 0  302 235 
 GUY2CHN ES   4   1255 11.84                             112    2.87 0  302 235 
 GUY2CHZ I        1255 17.13         4.2 0.24                           302 235 
 PRA  HZ EP       1254 44.82                             107    0.21 6  392 210 
 PRA  HE ES   4   1255 25.47                             107   -0.89 0  392 210 
 PRA  HZ I        1255 33.19         4.1 0.09            107            392 210 
                                                                                
