 2017  114 1105 26.3 L   6.005 -73.696115.6  RSN  7 0.4 1.3LRSN                1
 GAP= 81        0.75       2.4     3.6  6.9 -0.1065E+01  0.1293E+02 -0.1318E+01E
 Epicentro: VELEZ - SANTANDER                                                  3
 ACTION:UPD 17-05-22 15:59 OP:jn   STATUS:               ID:20170114110526 L   I
 OLDACT:UP  17-01-14 21:04 OP:e    STATUS:               ID:20170114105741     3
 OLDACT:UP  17-01-14 21:03 OP:e    STATUS:               ID:20170114105741     3
 OLDACT:UP  17-01-14 21:03 OP:e    STATUS:               ID:20170114105741     3
 OLDACT:REG 17-01-14 19:32 OP:and  STATUS:               ID:20170114105741     3
 2017-01-14-1058-00M.COL___329                                                 6
 STAT SP IPHASW D HRMM SECON CODA AMPLIT PERI AZIMU VELO AIN AR TRES W  DIS CAZ7
 RUS  HZ EP       11 5 44.62                             147   -0.2310 69.0 100 
 RUS  HN ES       11 5 59.04                             147   -0.2710 69.0 100 
 RUS  HZ I        11 6  0.50         2.7 0.25            135           69.0 100 
 BAR2 EZ EP       11 5 45.72                             140   -0.0110 86.3  41 
 BAR2 EZ ES       11 6  0.79                             140   -0.0910 86.3  41 
 BRR  HZ EP       11 5 48.22                             129   -0.2510  122 359 
 BRR  HZ I        11 5 59.91         7.0 0.58            120            122 359 
 BRR  HE ES       11 6  5.92                             129    0.1710  122 359 
 CHI  HZ EP   3   11 5 50.72                             123   -1.25 2  152 181 
 CHI  HN ES       11 6 12.18                             123    0.19 9  152 181 
 CHI  HZ I        11 6 14.89         1.9 0.38            115            152 181 
 PAM  EZ EP       11 5 55.49                             117    0.05 9  184  37 
 PAM  EN ES       11 6 18.84                             117    0.68 9  184  37 
 PAM  EZ I        11 6 26.90         2.4 0.40            109            184  37 
 GUY2CHZ EP       11 5 57.86                             115    0.27 9  204 245 
 GUY2CHN ES   2   11 6 22.74                             115    0.76 4  204 245 
 GUY2CHZ  IAML    11 6 27.88         2.1 0.52                           204 245 
 ZAR  HZ EP   3   11 5 56.59                             114   -0.92 2  209 322 
 ZAR  HN ES       11 6 21.43                             114   -0.41 8  209 322 
 ZAR  HZ I        11 6 22.35         2.3 0.08            108            209 322 
                                                                                
