 2013  814 2136 17.5 L   6.809 -73.166148.9  RSN 11 0.5 2.2LRSN                1
 GAP=134        0.97       2.9     4.6  6.3 -0.3171E+01  0.5135E+01 -0.1037E+01E
 Epicentro: LOS SANTOS - SANTANDER                                             3
 ACTION:UPD 14-01-14 09:02 OP:ep   STATUS:               ID:20130814213617 L   I
 OLDACT:REG 13-08-15 03:46 OP:carl STATUS:               ID:20130814212959     3
 2013-08-14-2129-59M.COL___270                                                 6
 STAT SP IPHASW D HRMM SECON CODA AMPLIT PERI AZIMU VELO AIN AR TRES W  DIS CAZ7
 BAR2 SZ ES   1   2136 52.89                             170   -0.30 7 24.1 184 
 BAR2 SZ I        2136 53.68        24.0 0.24            168           24.1 184 
 BRR  HZ EP       2136 39.49                             154    0.5810 68.8 299 
 BRR  HN ES   1   2136 56.67                             154    1.11 7 68.8 299 
 BRR  HN I        2136 57.92        65.0 0.20            149           68.8 299 
 PAM  SZ EP       2136 40.43                             151    0.2910 78.0  41 
 PAM  SN ES   1   2136 57.73                             151   -0.03 7 78.0  41 
 PAM  SZ I        2136 59.72        20.1 0.22            156           78.0  41 
 RUS  HZ EP       2136 41.41                             144   -0.2810  102 175 
 RUS  HN ES   1   2136 59.70                             144   -0.83 7  102 175 
 RUS  HZ I        2137  1.18        12.1 0.34            146            102 175 
 PTB  HZ EP       2136 44.51                             133   -0.09 9  146 258 
 PTB  HN ES   1   2137  5.21                             133   -0.49 7  146 258 
 PTB  HZ I        2137 13.12        15.4 0.30            131            146 258 
 OCA  HZ EP       2136 46.14                             131    0.15 9  159 354 
 OCA  HN ES       2137  8.06                             131   -0.11 9  159 354 
 OCA  HZ I        2137 12.71        21.0 0.32            132            159 354 
 SPBC HZ EP   1   2136 46.64                             130    0.41 7  163 218 
 SPBC HN ES       2137  8.90                             130    0.29 9  163 218 
 SPBC HZ I        2137 13.54        25.2 0.42            130            163 218 
 ZAR  HZ EP   1   2136 50.18                             123    0.23 6  202 292 
 ZAR  HN ES   1   2137 14.65                             123   -0.58 6  202 292 
 ZAR  HZ I        2137 22.56        21.2 0.30            123            202 292 
 NOR  HZ EP   1   2136 53.31                             119   -0.02 6  233 234 
 NOR  HN ES       2137 21.27                             119    0.03 8  233 234 
 NOR  HZ I        2137 29.77        11.5 0.14            119            233 234 
 SML  HZ EP       2136 53.35                             118   -0.80 8  242 336 
 SML  HN ES   1   2137 22.29                             118   -0.42 6  242 336 
 SML  HZ I        2137 27.06        33.6 0.10            119            242 336 
 CHI  HZ EP   1   2136 55.75                             118    0.28 6  249 195 
 CHI  HE ES   1   2137 24.98                             118   -0.06 6  249 195 
 CHI  HZ I        2137 30.83         6.6 0.32            119            249 195 
                                                                                
