 2010  714 2039 17.2 L   5.961 -73.766 94.8  RSN  8 0.4 2.5LRSN                1
 GAP=111        0.72       3.5     4.2 10.7 -0.4259E+01  0.2084E+02  0.7667E+01E
 Epicentro: GUAVATA - SANTANDER                                                3
 ACTION:UPD 10-12-01 15:17 OP:pat  STATUS:               ID:20100714203917 L   I
 2010-07-14-2037-46S.COL___119                                                 6
 STAT SP IPHASW D HRMM SECON CODA AMPLIT PERI AZIMU VELO AIN AR TRES W  DIS CAZ7
 RUS  HZ IP     D 2039 34.26                             139     0.010   76  96 
 RUS  HN ES   2   2039 48.02                             139     0.5 5   76  96 
 BAR2 SZ EP       2039 35.38                             132    -0.210   95  43 
 BAR2 SZ ES   2   2039 49.32                             132    -0.5 5   95  43 
 BAR2 SZ I        2039 51.58       156.2 0.27                            95  43 
 BRR  HZ EP       2039 37.98                             123    -0.410  127   3 
 BRR  HE ES   1   2039 54.78                             123    -0.1 7  127   3 
 BRR  HZ I        2039 58.71        53.3 0.17                           127   3 
 GIR2 SZ EP   1   2039 40.27                             120     0.5 7  139  27 
 GIR2 SZ ES   2   2039 58.03                             120     0.6 5  139  27 
 GUY  SZ EP   1   2039 47.06                             112     0.6 6  195 245 
 GUY  SZ ES   2   2040  8.72                             112    -0.6 4  195 245 
 GUY  SZ I        2040 16.68        58.5 0.48                           195 245 
 HEL  HZ EP   2   2039 46.89                             111     0.3 4  197 278 
 HEL  HN ES   2   2040  9.80                             111     0.4 4  197 278 
 HEL  HZ I        2040 16.48        16.9 0.30                           197 278 
 BRI  SZ EP   2   2039 49.56                             109     0.4 4  222  29 
 BRI  SZ ES   2   2040 14.01                             109    -0.1 4  222  29 
 BRI  SZ I        2040 22.06        19.8 0.44                           222  29 
 PRA  HZ EP       2039 55.46                             105    -0.2 7  278 207 
 PRA  HN ES   2   2040 25.46                             105    -0.2 4  278 207 
 PRA  HZ I        2040 31.61        14.5 0.69                           278 207 
                                                                                
