 2011  414 2119 51.1 L   6.858 -72.997141.8  RSN  4 0.1 1.9LRSN                1
 GAP=257        0.38       9.3     8.3  4.9  0.4218E+02 -0.2727E+01  0.6352E+01E
 Epicentro: CEPITA - SANTANDER                                                 3
 ACTION:UP  11-06-22 15:31 OP:REBC STATUS:               ID:20110414211951 L   I
 2011-04-14-2115-23S.COL___139                                                 6
 STAT SP IPHASW D HRMM SECON CODA AMPLIT PERI AZIMU VELO SNR AR TRES W  DIS CAZ7
 BTL  SZ ES   2   2120 25.23                             167    -0.3 5   31 283 
 GIR2 SZ EP   2   2120 10.51                             166     0.1 5   33 318 
 GIR2 SZ ES   1   2120 25.43                             166     0.0 7   33 318 
 BAR2 SZ EP   1   2120 10.71                             165     0.1 7   36 215 
 BAR2 SZ ES   2   2120 25.83                             165     0.0 5   36 215 
 BAR2 SZ I        2120 27.09        15.4 0.25                            36 215 
 BRR  HZ EP   1   2120 12.47                             148    -0.2 7   84 289 
 BRR  HZ I        2120 12.65        16.5 0.14                            84 289 
 BRR  HN ES   1   2120 29.51                             148     0.1 7   84 289 
                                                                                
