 2012  414 2057 19.3 L   7.559 -73.491112.0  RSN  6 0.4 1.7LRSN                1
 GAP=107        0.86       4.2     5.4  8.8 -0.5406E+00 -0.8324E+00  0.2255E+01E
 Epicentro: SABANA DE TORRES - SANTANDER                                       3
 ACTION:UPD 12-07-05 11:53 OP:tino STATUS:               ID:20120414205719 L   I
 2012-04-14-2050-00M.COL___181                                                 6
 STAT SP IPHASW D HRMM SECON CODA AMPLIT PERI AZIMU VELO AIN AR TRES W  DIS CAZ7
 BRR  HZ EP       2057 36.06                             151     0.110   56 206 
 BRR  HN ES   1   2057 49.04                             151     0.1 7   56 206 
 BRR  HZ I        2057 54.89        14.9 0.30                            56 206 
 OCA  SZ EP       2057 37.70                             142     0.110   78  14 
 OCA  SZ ES   1   2057 51.38                             142    -0.5 7   78  14 
 PAM  SZ EP       2057 39.45                             138     0.310   91 105 
 PAM  SN ES   1   2057 54.53                             138     0.0 7   91 105 
 BAR2 SZ EP       2057 40.82                             131     0.210  112 162 
 BAR2 SZ I        2057 40.94        11.9 0.34                           112 162 
 BAR2 SZ ES   1   2057 56.70                             131    -0.5 7  112 162 
 ZAR  HN ES   2   2058  3.37                             122    -0.1 5  151 267 
 ZAR  HZ I        2058  8.71         6.8 0.32                           151 267 
 RUS  HZ EP   2   2057 47.64                             115    -1.2 4  190 166 
                                                                                
