 2017  414 2250 44.6 L   6.786 -73.121145.5  RSN  6 0.4 1.1LRSN                1
 GAP=140        0.69       5.3     4.4  5.1 -0.3179E+01  0.8060E+01 -0.1822E+01E
 Epicentro: LOS SANTOS - SANTANDER                                             3
 ACTION:UPD 17-05-30 21:12 OP:jn   STATUS:               ID:20170414225044 L   I
 OLDACT:UP  17-04-15 04:27 OP:and  STATUS:               ID:20170414224742d    3
 OLDACT:UP  17-04-15 04:27 OP:and  STATUS:               ID:20170414224742d    3
 OLDACT:UP  17-04-15 04:26 OP:and  STATUS:               ID:20170414224742d    3
 OLDACT:UP  17-04-15 04:26 OP:and  STATUS:               ID:20170414224742d    3
 OLDACT:UP  17-04-15 04:25 OP:and  STATUS:               ID:20170414224742d    3
 OLDACT:UP  17-04-15 04:24 OP:and  STATUS:               ID:20170414224742d    3
 OLDACT:DUP 17-04-15 04:22 OP:and  STATUS:               ID:20170414224742d    3
 OLDACT:UP  17-04-15 04:21 OP:and  STATUS:               ID:20170414224741     3
 OLDACT:REG 17-04-15 02:47 OP:and  STATUS:               ID:20170414224741     3
 2017-04-14-2248-00M.COL___365                                                 6
 STAT SP IPHASW D HRMM SECON CODA AMPLIT PERI AZIMU VELO AIN AR TRES W  DIS CAZ7
 BAR2 EZ EP       2251  3.98                             171   -0.2510 22.5 198 
 BAR2 EZ ES       2251 19.59                             171    0.0810 22.5 198 
 BAR2 EZ I        2251 20.21         3.0 0.14            171           22.5 198 
 BRR  HZ EP       2251  6.07                             151    0.1210 74.4 299 
 BRR  HN EP   3   2251  6.73                             151    0.78 2 74.4 299 
 BRR  HN ES       2251 23.02                             151    0.4510 74.4 299 
 PAM  EZ IP     C 2251  6.96                             151    0.1610 76.8  37 
 PAM  EN ES       2251 23.69                             151   -0.3910 76.8  37 
 PAM  EZ I        2251 25.97         3.0 0.54            153           76.8  37 
 RUS  HN ES   2   2251 26.52                             144   -0.15 5 98.9 178 
 RUS  HZ I        2251 28.49         2.3 0.38            146           98.9 178 
 PTB  HZ EP       2251 11.77                             131   -0.04 9  150 260 
 PTB  HN ES   3   2251 31.81                             131   -1.20 2  150 260 
 PTB  HZ I        2251 34.32         1.2 0.14            131            150 260 
 ZAR  HZ EP       2251 17.50                             122    0.10 8  207 292 
 ZAR  HN ES   2   2251 42.05                             122   -0.89 4  207 292 
 ZAR  HZ I        2251 48.81         1.6 0.24            122            207 292 
                                                                                
