 2015  214 2315 23.2 L   6.826 -73.191147.3  RSN  7 0.5 1.8LRSN                1
 GAP=130        1.18       4.4     5.9  9.8 -0.8895E+01  0.2247E+02 -0.9113E+01E
 Epicentro: ZAPATOCA - SANTANDER                                               3
 ACTION:UPD 15-04-30 21:26 OP:nd   STATUS:               ID:20150214231523 L   I
 OLDACT:REG 15-02-15 04:13 OP:cam  STATUS:               ID:20150214230744     3
 2015-02-14-2307-44M.COL___302                                                 6
 STAT SP IPHASW D HRMM SECON CODA AMPLIT PERI AZIMU VELO AIN AR TRES W  DIS CAZ7
 PAM  SZ EP       2315 46.15                             151    0.4710 78.6  44 
 PAM  SN ES       2316  3.37                             151    0.1810 78.6  44 
 PAM  SZ I        2316  5.61        11.6 0.66            151           78.6  44 
 RUS  HZ EP       2315 47.28                             143   -0.0910  104 173 
 RUS  HN ES       2316  5.73                             143   -0.4610  104 173 
 RUS  HZ I        2316  6.60         7.6 0.30            150            104 173 
 PTB  HZ EP       2315 48.97                             133   -0.97 9  143 257 
 PTB  HN ES       2316 11.04                             133    0.27 9  143 257 
 PTB  HZ I        2316 13.18         7.7 0.14            133            143 257 
 SPBC HZ EP       2315 52.39                             129    0.62 9  162 217 
 SPBC HN ES       2316 13.81                             129   -0.21 9  162 217 
 SPBC HZ I        2316 16.72        11.5 0.26            133            162 217 
 NOR  HZ EP       2315 59.33                             119    0.53 8  232 233 
 NOR  HN ES       2316 26.90                             119    0.36 8  232 233 
 NOR  HZ I        2316 30.08         4.8 0.26            121            232 233 
 SML  HZ EP       2315 58.74                             118   -0.70 8  239 336 
 SML  HE ES       2316 27.72                             118    0.03 8  239 336 
 SML  HZ I        2316 43.52         5.2 0.10            118            239 336 
 GUY2CHZ EP   4   2316  8.19                             113    1.55 0  299 234 
 GUY2CHN ES   4   2316 42.33                             113    1.83 0  299 234 
 GUY2CHZ I        2316 50.70         4.1 0.60                           299 234 
                                                                                
