 2014  914 2005 22.1 L   6.795 -73.292126.6  RSN 10 0.5 1.8LRSN                1
 GAP=153        1.06       2.9     4.9  7.1 -0.5530E+00  0.1140E+02 -0.1552E+01E
 Epicentro: ZAPATOCA - SANTANDER                                               3
 ACTION:UPD 14-10-03 23:04 OP:nd   STATUS:               ID:20140914200522 L   I
 OLDACT:DUP 14-09-15 05:31 OP:fm   STATUS:               ID:20140914195824d    3
 OLDACT:DUP 14-09-15 05:25 OP:fm   STATUS:               ID:20140914195823d    3
 2014-09-14-1958-20M.COL___293                                                 6
 STAT SP IPHASW D HRMM SECON CODA AMPLIT PERI AZIMU VELO AIN AR TRES W  DIS CAZ7
 BAR2 SZ EP       20 5 39.98                             168    0.4810 25.5 152 
 BAR2 SZ ES   1   20 5 53.00                             168   -0.06 7 25.5 152 
 BAR2 SZ I        20 5 53.81        28.3 0.24            169           25.5 152 
 BRR  HZ EP       20 5 40.73                             154    0.2910 57.8 307 
 BRR  HN ES       20 5 54.95                             154    0.2110 57.8 307 
 BRR  HZ I        20 5 55.59        17.6 0.48            152           57.8 307 
 RUS  HZ EP       20 5 44.31                             139    0.1310  102 167 
 RUS  HN ES       20 6  1.45                             139    0.0510  102 167 
 RUS  HZ I        20 6  3.72         3.5 0.26            139            102 167 
 SPBC HZ EP   1   20 5 47.96                             126   -0.25 7  153 214 
 SPBC HN ES       20 6  7.92                             126   -0.65 9  153 214 
 SPBC HZ I        20 6 16.14         6.7 0.20            125            153 214 
 OCA  HZ EP   1   20 5 48.75                             125   -0.20 7  160 359 
 OCA  HN ES       20 6  9.24                             125   -0.64 9  160 359 
 OCA  HZ I        20 6 17.32         9.5 0.20            125            160 359 
 ZAR  HZ EP       20 5 51.63                             120   -0.19 9  189 294 
 ZAR  HN ES       20 6 15.35                             120    0.35 9  189 294 
 ZAR  HZ I        20 6 19.43         7.7 0.12            119            189 294 
 NOR  HZ EP   1   20 5 55.74                             116    0.40 6  221 232 
 NOR  HN ES       20 6 20.30                             116   -0.96 8  221 232 
 NOR  HZ I        20 6 26.04         5.1 0.30            115            221 232 
 SML  HZ EP   1   20 5 56.30                             114   -0.79 6  238 339 
 SML  HN ES       20 6 24.76                             114    0.39 8  238 339 
 SML  HZ I        20 6 29.14         9.8 0.10            113            238 339 
 GUY2CHZ EP   1   20 6  4.01                             109    0.64 5  288 233 
 GUY2CHN ES       20 6 36.32                             109    0.77 7  288 233 
 GUY2CHZ I        20 6 42.77         3.4 0.80                           288 233 
 MON  HN ES   4   20 6 42.22                             106   -3.37 0  342 310 
 PRA  HE ES   4   20 6 57.65                             103    3.06 0  384 207 
 PRA  HZ I        20 7  3.08         3.9 0.76            103            384 207 
                                                                                
