 2012 1014 2218 13.7 L   6.814 -73.122142.7  RSN  6 0.2 1.7LRSN                1
 GAP=139        0.48       3.2     3.5  4.4  0.2140E+01  0.1911E+01  0.9813E+00E
 Epicentro: LOS SANTOS - SANTANDER                                             3
 ACTION:UPD 12-11-22 17:03 OP:ep   STATUS:               ID:20121014221813 L   I
 2012-10-14-2210-00M.COL___230                                                 6
 STAT SP IPHASW D HRMM SECON CODA AMPLIT PERI AZIMU VELO AIN AR TRES W  DIS CAZ7
 BAR2 SZ EP   1   2218 32.96                             169   -0.01 7 25.4 195 
 BAR2 SZ I        2218 33.20         9.7 0.16                          25.4 195 
 BAR2 SZ ES   1   2218 48.04                             169    0.01 7 25.4 195 
 GIR2 SZ EP   1   2218 32.50                             167   -0.45 7 30.3 345 
 GIR2 SZ ES   1   2218 47.76                             167   -0.22 7 30.3 345 
 BRR  HZ EP   1   2218 34.57                             151   -0.01 7 72.8 296 
 BRR  HZ I        2218 38.37         7.9 0.14                          72.8 296 
 BRR  HN ES   1   2218 50.99                             151    0.11 7 72.8 296 
 PAM  SZ EP   1   2218 35.79                             151    0.40 7 74.5  39 
 PAM  SN ES   1   2218 52.38                             151    0.06 7 74.5  39 
 PAM  SN I        2218 53.67        10.8 0.22                          74.5  39 
 RUS  HZ EP   1   2218 37.06                             143   -0.16 7  102 178 
 RUS  HE ES   1   2218 55.77                             143    0.18 7  102 178 
 RUS  HE I        2218 56.63         7.7 0.21                           102 178 
 ZAR  HE ES   1   2219 11.52                             121    0.12 6  206 291 
                                                                                
