 2015  214 2346 11.5 L   6.807 -73.174145.5  RSN  4 0.1 1.5LRSN                1
 GAP=133        0.33       1.5     1.9  3.2 -0.3295E+00  0.2174E+01 -0.1337E+01E
 Epicentro: LOS SANTOS - SANTANDER                                             3
 ACTION:UPD 15-04-30 21:26 OP:nd   STATUS:               ID:20150214234611 L   I
 OLDACT:REG 15-02-15 04:16 OP:cam  STATUS:               ID:20150214233744     3
 2015-02-14-2337-44M.COL___299                                                 6
 STAT SP IPHASW D HRMM SECON CODA AMPLIT PERI AZIMU VELO AIN AR TRES W  DIS CAZ7
 PAM  SZ EP       2346 33.85                             150    0.1110 78.8  42 
 PAM  SN ES       2346 51.09                             150   -0.0210 78.8  42 
 PAM  SZ I        2346 52.82         7.2 0.58            152           78.8  42 
 RUS  HZ EP       2346 35.11                             143   -0.1610  102 174 
 RUS  HN ES       2346 53.86                             143    0.0310  102 174 
 RUS  HZ I        2346 56.45         1.6 0.22            147            102 174 
 PTB  HZ EP       2346 38.18                             133    0.03 9  145 258 
 PTB  HN ES       2346 58.99                             133    0.03 9  145 258 
 PTB  HZ I        2347  1.03         3.2 0.48            134            145 258 
 SML  HZ EP       2346 47.95                             118    0.09 8  242 336 
 SML  HE ES       2347 16.13                             118   -0.12 8  242 336 
 SML  HZ I        2347 20.65         5.8 0.24            119            242 336 
                                                                                
