 2010 1114 2139 45.5 L   6.761 -73.076137.5  RSN 10 0.4 2.4LRSN                1
 GAP=167        0.93       4.1     7.0  6.1 -0.7912E+01  0.1138E+02  0.9854E+00E
 Epicentro: LOS SANTOS - SANTANDER                                             3
 ACTION:UP  10-12-17 16:52 OP:REBC STATUS:               ID:20101114213945 L   I
 2010-11-14-2138-11S.COL___128                                                 6
 STAT SP IPHASW D HRMM SECON CODA AMPLIT PERI AZIMU VELO SNR AR TRES W  DIS CAZ7
 BAR2 SZ IP       2140  4.24                             170     0.210   22 212 
 BAR2 SZ ES   1   2140 18.31                             170    -0.3 7   22 212 
 BAR2 SZ I        2140 19.91        67.3 0.36                            22 212 
 BTL  SZ ES   2   2140 19.22                             168     0.4 5   27 310 
 GIR2 SZ IP       2140  4.36                             164     0.010   37 340 
 GIR2 SZ ES   1   2140 19.01                             164    -0.1 7   37 340 
 BRR  HZ IP     C 2140  6.16                             148    -0.110   80 299 
 BRR  HZ I        2140  6.51       105.0 0.09                            80 299 
 BRR  HN ES   1   2140 23.02                             148     0.5 7   80 299 
 RUS  HZ EP       2140  8.48                             143     0.410   96 180 
 RUS  HN ES   1   2140 25.31                             143    -0.4 7   96 180 
 RUS  HZ I        2140 27.35        16.5 0.20                            96 180 
 GRA  SZ IP   2   2140 11.26                             135     1.1 5  128  14 
 GRA  SZ I        2140 12.37        40.3 0.30                           128  14 
 GRA  SZ ES   1   2140 29.33                             135    -0.1 7  128  14 
 OCA  SZ EP       2140 12.94                             127    -0.7 9  166 351 
 OCA  SZ ES   2   2140 35.42                             127    -0.2 5  166 351 
 OCA  SZ I        2140 39.74        36.8 0.31                           166 351 
 NOR  SZ EP       2140 20.78                             116    -0.4 8  239 236 
 NOR  SN ES   1   2140 48.73                             116    -0.3 6  239 236 
 HEL  HZ EP       2140 26.44                             113     0.5 7  279 257 
 PRA  HN ES   2   2141 20.46                             105     0.2 3  392 211 
                                                                                
