 2010  514 2031 49.1 L   6.725 -73.053144.3  RSN  8 0.4 2.0LRSN                1
 GAP=168        0.84       4.0     9.0  6.9 -0.1195E+02 -0.1033E+02  0.1324E+01E
 Epicentro: ARATOCA - SANTANDER                                                3
 ACTION:UP  10-08-24 10:05 OP:vdl  STATUS:               ID:20100514203149 L   I
 2010-05-14-2030-54S.COL___108                                                 6
 STAT SP IPHASW D HRMM SECON CODA AMPLIT PERI AZIMU VELO AIN AR TRES W  DIS CAZ7
 BAR2 SZ EP       2032  8.24                             171    -0.210   21 224 
 BAR2 SZ ES   1   2032 23.05                             171    -0.6 7   21 224 
 BRR  HZ EP   1   2032 10.85                             148     0.0 7   84 300 
 BRR  HE ES   1   2032 28.03                             148     0.2 7   84 300 
 BRR  HZ I        2032 29.03        29.3 0.15                            84 300 
 RUS  HZ EP       2032 12.12                             146     0.010   92 182 
 RUS  HZ I        2032 12.72         6.8 0.19                            92 182 
 RUS  HN ES   1   2032 30.49                             146     0.5 7   92 182 
 BRI  SZ EP       2032 12.77                             140    -0.410  113  14 
 BRI  SZ ES   1   2032 32.49                             140     0.5 7  113  14 
 GRA  SZ EP       2032 15.04                             135     0.410  131  12 
 OCA  SZ EP   2   2032 17.42                             127    -0.8 5  170 350 
 CHI  HZ EP   2   2032 26.25                             117     0.1 4  244 198 
 CHI  HE ES   2   2032 54.65                             117    -0.4 4  244 198 
 CHI  HZ I        2033  5.10         8.1 0.41                           244 198 
 PRA  HZ EP   1   2032 42.45                             106     0.1 4  390 211 
 PRA  HE ES   2   2033 24.70                             106     0.9 3  390 211 
 PRA  HZ I        2033 31.64         5.8 0.66                           390 211 
                                                                                
