 2014  814 2153 56.7 L   6.814 -73.150146.4  RSN 17 0.5 2.7LRSN                1
 GAP=135        1.13       3.0     4.1  5.4 -0.1049E+01  0.7456E+01  0.2381E+01E
 Epicentro: LOS SANTOS - SANTANDER                                             3
 ACTION:UPD 14-09-15 21:49 OP:nd   STATUS:               ID:20140814215356 L   I
 OLDACT:REG 14-08-15 03:30 OP:carl STATUS:               ID:20140814214817     3
 2014-08-14-2148-17M.COL___275                                                 6
 STAT SP IPHASW D HRMM SECON CODA AMPLIT PERI AZIMU VELO AIN AR TRES W  DIS CAZ7
 BAR2 SZ IP     C 2154 16.62                             170    0.1810 24.8 188 
 BAR2 SZ ES       2154 31.67                             170   -0.1710 24.8 188 
 BAR2 SZ I        2154 33.00       207.3 0.20            169           24.8 188 
 BRR  HZ IP     D 2154 18.46                             153    0.6010 70.0 298 
 BRR  HN ES       2154 35.21                             153    0.8510 70.0 298 
 BRR  HZ I        2154 39.43        68.5 0.50            151           70.0 298 
 PAM  SZ EP       2154 19.42                             151    0.4910 76.5  41 
 PAM  SN ES       2154 36.16                             151   -0.1110 76.5  41 
 PAM  SZ I        2154 38.55        41.2 0.52            155           76.5  41 
 RUS  HZ EP       2154 20.61                             143   -0.0210  102 176 
 RUS  HN ES       2154 38.46                             143   -0.8410  102 176 
 RUS  HZ I        2154 40.06        46.6 0.24            145            102 176 
 PTB  HZ EP       2154 23.50                             132   -0.21 9  148 258 
 PTB  HN ES       2154 44.06                             132   -0.72 9  148 258 
 PTB  HZ I        2154 47.22        44.5 0.16            132            148 258 
 SPBC HZ EP       2154 25.60                             129    0.26 9  164 219 
 SPBC HN ES       2154 47.45                             129   -0.23 9  164 219 
 SPBC HZ I        2154 48.65        36.4 0.18            129            164 219 
 ZAR  HZ EP       2154 29.53                             123    0.45 9  203 292 
 ZAR  HN ES       2154 54.54                             123    0.20 9  203 292 
 ZAR  HZ I        2155  0.73        37.1 0.52            123            203 292 
 NOR  HZ EP       2154 33.03                             118    0.50 8  235 234 
 NOR  HN ES       2155  0.70                             118    0.23 8  235 234 
 NOR  HZ I        2155  6.15        33.4 0.18            119            235 234 
 SML  HZ EP       2154 32.55                             118   -0.64 8  242 335 
 SML  HN ES       2155  0.72                             118   -0.92 8  242 335 
 SML  HZ I        2155  5.06        63.4 0.10            119            242 335 
 CHI  HZ EP       2154 34.97                             117    0.38 8  250 195 
 CHI  HE ES       2155  4.42                             117    0.28 8  250 195 
 CHI  HZ I        2155 11.40        19.0 0.42            118            250 195 
 URE  HZ EP   4   2154 36.77                             114   -0.92 0  283 292 
 URE  HN ES   4   2155  7.60                             114   -2.06 0  283 292 
 GUY2CHZ EP       2154 40.63                             112    0.23 7  302 234 
 GUY2CHN ES       2155 14.54                             112    0.05 7  302 234 
 GUY2CHZ I        2155 25.08        19.5 0.36                           302 234 
 DBB  SZ EP       2154 44.07                             110   -0.07 7  339 274 
 DBB  SZ ES       2155 20.77                             110   -0.37 7  339 274 
 DBB  SZ I        2155 24.71        43.0 0.44            110            339 274 
 TOL  SN ES       2155 22.98                             109    0.17 7  344 224 
 TOL  SZ I        2155 33.87        29.0 0.46            110            344 224 
 ANIL HZ EP       2154 45.45                             108   -1.17 6  358 224 
 ANIL HN ES   4   2155 26.84                             108    1.28 0  358 224 
 PRA  HZ EP       2154 50.16                             106   -0.22 6  393 209 
 PRA  HN ES       2155 32.30                             106    0.05 6  393 209 
 PRA  HZ I        2155 39.41        25.2 0.28            107            393 209 
 ORTC HZ EP       2154 49.91                             106   -0.85 6  396 216 
 ORTC HN ES       2155 33.60                             106    0.67 6  396 216 
 SJC  HZ EP   4   2154 50.63                             106   -1.47 0  408 327 
 SJC  HN ES   4   2155 31.53                             106   -3.78 0  408 327 
 SJC  HZ I        2155 36.53        14.3 0.44            107            408 327 
                                                                                
