 2013 1014 2220 18.9 L   6.322 -73.659101.4  RSN 10 0.4 1.8LRSN                1
 GAP= 83        1.07       2.8     3.0  7.0 -0.1219E+01  0.2911E+01 -0.9942E-01E
 Epicentro: SANTA HELENA DEL OPON - SANTANDER                                  3
 ACTION:UPD 13-11-25 09:21 OP:ep   STATUS:               ID:20131014222018 L   I
 OLDACT:REG 13-10-14 22:02 OP:nd   STATUS:               ID:20131014221959     3
 2013-10-14-2219-59M.COL___274                                                 6
 STAT SP IPHASW D HRMM SECON CODA AMPLIT PERI AZIMU VELO AIN AR TRES W  DIS CAZ7
 RUS  HZ EP       2220 36.98                             139    0.1510 79.4 127 
 RUS  HN ES       2220 51.00                             139    0.2010 79.4 127 
 RUS  HZ I        2220 52.49        10.7 0.22            144           79.4 127 
 BRR  HZ EP       2220 36.91                             136    0.1410 87.0 356 
 BRR  HN ES       2220 51.15                             136    0.4510 87.0 356 
 BRR  HZ I        2220 52.28        19.2 0.10            139           87.0 356 
 SPBC HZ EP       2220 36.78                             136   -0.1310 87.1 212 
 SPBC HN ES       2220 51.08                             136    0.1510 87.1 212 
 SPBC HZ I        2220 52.50        18.0 0.16            138           87.1 212 
 PTB  HZ EP       2220 36.35                             134   -0.8310 91.5 285 
 PTB  HN ES       2220 50.55                             134   -0.8710 91.5 285 
 PTB  HZ I        2220 56.84        10.2 0.18            136           91.5 285 
 PAM  SZ EP       2220 44.07                             118    0.02 9  155  43 
 PAM  SE ES       2221  3.55                             118   -0.09 9  155  43 
 PAM  SZ I        2221  4.84        12.3 0.46            122            155  43 
 NOR  HZ EP       2220 43.69                             117   -0.18 9  158 238 
 NOR  HN ES       2221  3.80                             117    0.48 9  158 238 
 NOR  HZ I        2221  6.08        14.7 0.14            120            158 238 
 ZAR  HZ EP       2220 46.93                             113    0.12 9  185 314 
 ZAR  HN ES   2   2221  8.33                             113   -0.22 4  185 314 
 ZAR  HZ I        2221 13.79        10.1 0.20            116            185 314 
 CHI  HZ EP       2220 47.32                             113   -0.23 9  187 182 
 CHI  HN ES       2221  9.63                             113   -0.25 9  187 182 
 CHI  HZ I        2221 14.29         4.3 0.24            116            187 182 
 HEL  HZ EP       2220 50.12                             110    0.34 8  207 266 
 HEL  HN ES       2221 14.72                             110    0.87 8  207 266 
 HEL  HZ I        2221 17.18         7.0 0.26            113            207 266 
 GUY2CHZ EP   4 C 2220 52.78                             108    0.89 0  225 237 
 GUY2CHN ES   4   2221 18.11                             108    0.51 0  225 237 
 GUY2CHZ I        2221 24.55         4.9 0.42                           225 237 
                                                                                
