 2016  714 2029 49.1 L   6.858 -73.040150.0  RSN 17 0.4 2.1LRSN                1
 GAP=143        0.87       3.2     2.9  4.4  0.3334E+00  0.3252E+01  0.1564E+01E
 Epicentro: LOS SANTOS - SANTANDER                                             3
 ACTION:UPD 17-03-29 16:51 OP:lp   STATUS:               ID:20160714202949 L   I
 OLDACT:REG 16-07-15 02:51 OP:edw  STATUS:               ID:20160714202759     3
 2016-07-14-2027-59S.COL___331                                                 6
 STAT SP IPHASW D HRMM SECON CODA AMPLIT PERI AZIMU VELO AIN AR TRES W  DIS CAZ7
 BAR2 EZ EP       2030  9.87                             167    0.3910 33.3 208 
 BAR2 EZ ES       2030 25.36                             167   -0.0210 33.3 208 
 BAR2 EZ I        2030 27.12        18.0 0.16            165           33.3 208 
 PAM  HZ EP   4   2030 12.57                             155    1.46 0 65.2  35 
 PAM  EN ES   4   2030 29.48                             155    1.20 0 65.2  35 
 PAM  HZ I        2030 30.26        13.8 0.22            159           65.2  35 
 BRR  HZ EP       2030 11.80                             151    0.6310 79.2 290 
 BRR  HE ES       2030 28.85                             151    0.4610 79.2 290 
 RUS  HZ EP       2030 14.07                             143    0.3510  107 183 
 RUS  HN ES       2030 32.85                             143   -0.0810  107 183 
 RUS  HZ I        2030 34.26         7.5 0.34            143            107 183 
 TAM  HZ EP       2030 15.78                             133   -0.50 9  146 109 
 TAM  HE ES       2030 37.18                             133   -0.30 9  146 109 
 PTB  HZ EP       2030 17.39                             130   -0.19 9  160 257 
 PTB  HN ES   4   2030 38.13                             130   -1.66 0  160 257 
 PTB  HZ I        2030 41.84        15.0 0.15            130            160 257 
 SPBC HZ EP       2030 18.96                             128   -0.14 9  176 221 
 SPBC HN ES       2030 42.07                             128   -0.44 9  176 221 
 SPBC HZ I        2030 45.21        19.2 0.13            128            176 221 
 ZAR  HZ EP       2030 23.10                             122    0.39 8  213 289 
 ZAR  HN ES       2030 48.11                             122   -0.82 8  213 289 
 ZAR  HZ I        2030 53.50        19.4 0.28            122            213 289 
 NOR  HZ EP       2030 26.61                             118    0.12 8  248 235 
 NOR  HE ES       2030 55.05                             118   -0.61 8  248 235 
 NOR  HZ I        2030 56.35        12.6 0.24            118            248 235 
 CHI  HZ EP       2030 28.19                             117    0.13 8  258 197 
 CHI  HN ES       2030 58.63                             117    0.19 8  258 197 
 CHI  HZ I        2031  4.05         8.0 0.24            117            258 197 
 GUY2CHZ EP       2030 34.51                             112    0.11 7  314 235 
 GUY2CHE ES       2031  9.95                             112    0.22 7  314 235 
 GUY2CHZ I        2031 18.55         9.7 0.58                           314 235 
 ELA  HZ EP   2   2030 37.77                             110    0.15 3  342 230 
 ELA  HE ES   2   2031 16.23                             110    0.77 3  342 230 
 CBOC HZ EP       2030 38.09                             110    0.40 6  347 252 
 CBOC HN ES   4   2031 13.83                             110   -1.76 0  347 252 
 CBOC HZ I        2031 26.11         2.9 0.42            110            347 252 
 ANIL HZ EP   2   2030 40.88                             108    0.34 3  370 225 
 ANIL HN ES   2   2031 20.86                             108    0.19 3  370 225 
 PRA  HZ EP       2030 44.11                             107    0.01 6  403 211 
 PRA  HE ES       2031 26.56                             107   -0.43 6  403 211 
 PRA  HZ I        2031 33.23         9.6 0.26            107            403 211 
 ORTC HZ EP       2030 44.93                             106    0.35 6  407 217 
 ORTC HE ES       2031 27.42                             106   -0.43 6  407 217 
 ORTC HZ I        2031 34.67         6.0 0.38            107            407 217 
 SJC  HZ EP       2030 43.99                             106   -0.96 6  410 325 
 SJC  HN ES   4   2031 24.92                             106   -3.59 0  410 325 
 SJC  HZ I        2031 29.09         3.0 0.52            107            410 325 
                                                                                
