 2011  414 2021 16.2 L   6.723 -73.135144.0  RSN  4 0.3 2.2LRSN                1
 GAP=165        0.53       9.7     7.7  7.3 -0.1729E+02 -0.6327E+01  0.2880E+01E
 Epicentro: JORDAN - SANTANDER                                                 3
 ACTION:UP  11-06-22 15:31 OP:REBC STATUS:               ID:20110414202116 L   I
 2011-04-14-2017-47S.COL___138                                                 6
 STAT SP IPHASW D HRMM SECON CODA AMPLIT PERI AZIMU VELO SNR AR TRES W  DIS CAZ7
 BAR2 SZ EP   1   2021 35.58                             173     0.1 7   15 200 
 BAR2 SZ ES   2   2021 50.09                             173    -0.4 5   15 200 
 BAR2 SZ I        2021 52.39        30.2 0.24                            15 200 
 BTL  SZ ES   2   2021 51.46                             169     0.6 5   26 326 
 BRR  HZ EP   1   2021 37.50                             150     0.0 7   77 304 
 BRR  HZ I        2021 37.77        32.2 0.14                            77 304 
 BRR  HN ES   2   2021 53.72                             150    -0.3 5   77 304 
 PAM  SZ EP   1   2021 38.46                             149    -0.1 7   83  35 
 PAM  SN ES   2   2021 56.05                             149     0.0 5   83  35 
                                                                                
