 2013  714 2147 56.0 L   6.790 -73.148147.4  RSN  9 0.4 2.0LRSN                1
 GAP=137        0.94       3.9     4.5  6.3 -0.3528E+01  0.5226E+01  0.6822E+00E
 Epicentro: LOS SANTOS - SANTANDER                                             3
 ACTION:UPD 13-08-12 10:37 OP:ep   STATUS:               ID:20130714214756 L   I
 OLDACT:UP  13-07-14 21:43 OP:jn   STATUS:               ID:20130714213959     3
 OLDACT:REG 13-07-14 21:23 OP:jn   STATUS:               ID:20130714213959     3
 2013-07-14-2139-59M.COL___267                                                 6
 STAT SP IPHASW D HRMM SECON CODA AMPLIT PERI AZIMU VELO AIN AR TRES W  DIS CAZ7
 BAR2 SZ EP       2148 15.87                             171    0.0310 22.1 190 
 BAR2 SZ ES       2148 31.38                             171    0.0910 22.1 190 
 BAR2 SZ I        2148 31.91        20.9 0.28            170           22.1 190 
 GIR2 SZ EP       2148 15.81                             167   -0.1310 32.4 351 
 BRR  HZ EP       2148 17.76                             153    0.3810 71.5 299 
 BRR  HN ES       2148 34.62                             153    0.5910 71.5 299 
 BRR  HZ I        2148 37.96        19.0 0.42            151           71.5 299 
 PAM  SZ EP       2148 18.82                             151    0.3310 78.4  39 
 PAM  SN ES       2148 35.80                             151   -0.2110 78.4  39 
 PAM  SZ I        2148 37.87        26.7 0.58            155           78.4  39 
 RUS  HZ EP       2148 19.75                             144   -0.1210 99.5 176 
 RUS  HN ES       2148 38.09                             144   -0.3710 99.5 176 
 RUS  HZ I        2148 41.13         5.8 0.30            146           99.5 176 
 PTB  HZ EP       2148 22.71                             133   -0.38 9  147 259 
 PTB  HN ES       2148 43.46                             133   -0.74 9  147 259 
 PTB  HZ I        2148 49.51        14.0 0.18            132            147 259 
 SPBC HZ EP       2148 24.85                             130    0.29 9  162 219 
 SPBC HN ES   1   2148 47.40                             130    0.59 7  162 219 
 NOR  HN ES   1   2148 59.85                             119    0.22 6  234 235 
 NOR  HZ I        2149  5.73         8.1 0.14            120            234 235 
 SML  HE ES   1   2149  1.00                             118   -0.57 6  245 335 
                                                                                
