 2016  414 2332 54.0 L   6.773 -73.144143.3  RSN  5 0.2 1.5LRSN                1
 GAP=138        0.33       2.6     2.0  4.5 -0.1403E+00  0.3938E+01  0.1146E+01E
 Epicentro: LOS SANTOS - SANTANDER                                             3
 ACTION:UPD 16-05-05 14:21 OP:rebc STATUS:               ID:20160414233254 L   I
 OLDACT:REG 16-04-15 03:44 OP:dnl  STATUS:               ID:20160414232743     3
 2016-04-14-2327-43M.COL___322                                                 6
 STAT SP IPHASW D HRMM SECON CODA AMPLIT PERI AZIMU VELO AIN AR TRES W  DIS CAZ7
 BAR2 EZ EP   2   2333 13.16                             171   -0.10 5 20.4 192 
 BAR2 EZ ES   3   2333 28.88                             171    0.58 2 20.4 192 
 BAR2 EZ I        2333 31.66         4.0 0.09            171           20.4 192 
 PAM  EZ EP       2333 16.05                             150   -0.0310 79.7  38 
 PAM  EN ES       2333 33.29                             150   -0.0210 79.7  38 
 PAM  EZ I        2333 35.92         7.1 0.40            155           79.7  38 
 RUS  HZ EP   2   2333 17.40                             144    0.12 5 97.6 176 
 RUS  HE ES   2   2333 35.45                             144    0.01 5 97.6 176 
 RUS  HZ I        2333 36.75         4.0 0.36            150           97.6 176 
 PTB  HZ EP   2   2333 20.48                             131   -0.23 5  147 260 
 PTB  HN ES   2   2333 41.40                             131   -0.16 5  147 260 
 PTB  HZ I        2333 45.96         4.5 0.16            134            147 260 
 ZAR  HZ EP   2   2333 26.80                             122    0.40 4  205 293 
 ZAR  HN ES       2333 51.71                             122    0.02 8  205 293 
 ZAR  HZ I        2333 57.44         8.7 0.34            125            205 293 
                                                                                
