 2017  514 2025 17.7 L   6.760 -73.143143.9  RSN  5 0.4 1.5LRSN                1
 GAP=198        1.01       8.0     5.4  8.9 -0.2121E+02  0.4970E+00  0.2961E+02E
 Epicentro: LOS SANTOS - SANTANDER                                             3
 ACTION:UPD 17-06-16 13:36 OP:jn   STATUS:               ID:20170514202517 L   I
 OLDACT:UP  17-05-15 22:00 OP:nlst STATUS:               ID:20170514202517 L   3
 OLDACT:DUP 17-05-15 03:41 OP:ar   STATUS:               ID:20170514201746d    3
 2017-05-14-2018-00M.COL___353                                                 6
 STAT SP IPHASW D HRMM SECON CODA AMPLIT PERI AZIMU VELO AIN AR TRES W  DIS CAZ7
 BRR  HZ EP       2025 38.60                             151   -0.1610 73.6 301 
 BRR  HN ES       2025 55.54                             151    0.3310 73.6 301 
 BRR  HZ I        2025 57.68         9.8 0.36            151           73.6 301 
 PAM  EZ EP       2025 40.10                             149    0.2110 80.7  37 
 PAM  EN ES       2025 57.05                             149   -0.1710 80.7  37 
 PAM  EZ I        2026  0.96         2.4 0.18            154           80.7  37 
 PTB  HZ EP       2025 43.85                             132   -0.59 9  147 261 
 PTB  HN ES       2026  5.13                             132   -0.19 9  147 261 
 PTB  HZ I        2026 12.04         4.3 0.46            133            147 261 
 ZAR  HZ EP       2025 51.07                             122    0.87 8  206 293 
 ZAR  HE ES       2026 15.17                             122   -0.40 8  206 293 
 ZAR  HZ I        2026 22.72         2.5 0.14            124            206 293 
 NOR  HZ EP       2025 52.76                             118   -0.29 8  232 235 
 NOR  HN ES       2026 21.12                             118    0.49 8  232 235 
 NOR  HZ I        2026 25.63         2.8 0.30            121            232 235 
                                                                                
