 2011  214 2131 35.4 L   6.688 -73.192130.6  RSN  7 0.4 1.9LRSN                1
 GAP=191        0.78       5.9     8.9  8.7 -0.5429E+01  0.4767E+02  0.3284E+01E
 Epicentro: VILLANUEVA - SANTANDER                                             3
 ACTION:UP  11-03-28 15:08 OP:jfem STATUS:               ID:20110214213135 L   I
 2011-02-14-2128-40S.COL___136                                                 6
 STAT SP IPHASW D HRMM SECON CODA AMPLIT PERI AZIMU VELO SNR AR TRES W  DIS CAZ7
 BAR2 SZ EP       2131 52.92                             175    -0.110   11 175 
 BAR2 SZ ES   1   2132  6.39                             175    -0.3 7   11 175 
 BAR2 SZ I        2132  9.24        18.6 0.18                            11 175 
 BTL  SZ EP   1   2131 53.90                             168     0.6 7   27 342 
 RUS  HZ EP   1   2131 56.27                             144    -0.5 7   89 172 
 RUS  HN ES   2   2132 13.90                             144     0.4 5   89 172 
 RUS  HZ I        2132 16.89        12.7 0.48                            89 172 
 NOR  SZ EP   1   2132  8.62                             116    -0.4 6  224 236 
 NOR  SN ES   2   2132 35.25                             116    -0.1 4  224 236 
 CHI  HZ EP   1   2132 10.59                             115    -0.2 6  235 195 
 CHI  HN ES   1   2132 39.00                             115     0.6 6  235 195 
 CHI  HZ I        2132 43.05         4.6 0.50                           235 195 
 RREF HZ EP   2   2132 19.71                             109     0.2 4  310 230 
 RREF HE ES   2   2132 53.73                             109    -0.2 4  310 230 
 RREF HZ I        2133  4.55         7.3 0.41                           310 230 
 DBB  SZ EP       2132 22.12                             107     0.3 7  336 276 
                                                                                
