 2013 1014 2350 55.5 L   6.575 -73.541115.5  RSN  6 0.3 1.3LRSN                1
 GAP=100        0.76       3.1     3.7  5.4  0.2998E+01  0.3238E+01 -0.2975E+01E
 Epicentro: EL CARMEN DE CHUCURI - SANTANDER                                   3
 ACTION:UPD 13-11-25 09:21 OP:ep   STATUS:               ID:20131014235055 L   I
 OLDACT:REG 13-10-14 22:14 OP:nd   STATUS:               ID:20131014234959     3
 2013-10-14-2349-59M.COL___274                                                 6
 STAT SP IPHASW D HRMM SECON CODA AMPLIT PERI AZIMU VELO AIN AR TRES W  DIS CAZ7
 BAR2 SZ EP       2351 12.10                             160    0.0010 39.7  87 
 BAR2 SZ ES       2351 24.84                             160   -0.1710 39.7  87 
 BAR2 SZ I        2351 25.97        12.7 0.26            165           39.7  87 
 BRR  HZ EP       2351 13.08                             150    0.1810 61.8 342 
 BRR  HN ES       2351 26.95                             150    0.5110 61.8 342 
 BRR  HZ I        2351 30.12         3.1 0.28            150           61.8 342 
 RUS  HZ EP       2351 15.69                             140    0.0310 90.9 146 
 RUS  HN ES       2351 31.13                             140   -0.2210 90.9 146 
 RUS  HZ I        2351 33.01         1.5 0.16            142           90.9 146 
 PTB  HZ EP       2351 15.58                             136   -0.2810  101 268 
 PTB  HN ES       2351 31.46                             136   -0.2410  101 268 
 PTB  HZ I        2351 34.35         3.0 0.16            135            101 268 
 SPBC HZ EP   2   2351 17.83                             131    0.41 5  118 210 
 SPBC HN ES   2   2351 35.06                             131    0.58 5  118 210 
 SPBC HZ I        2351 40.81         4.2 0.20            131            118 210 
 SML  HZ EP       2351 32.19                             109    0.45 8  253 347 
 SML  HN ES       2351 59.44                             109   -0.53 8  253 347 
 SML  HZ I        2352  5.64         4.4 0.24            111            253 347 
                                                                                
