 2016  414 2044 51.8 L   6.799 -73.161144.0  RSN  9 0.4 2.0LRSN                1
 GAP=135        0.71       3.2     3.2  6.1 -0.1564E+01  0.5735E+01  0.6538E+00E
 Epicentro: LOS SANTOS - SANTANDER                                             3
 ACTION:UPD 16-05-05 14:21 OP:rebc STATUS:               ID:20160414204451 L   I
 OLDACT:REG 16-04-15 03:35 OP:dnl  STATUS:               ID:20160414203747     3
 2016-04-14-2037-47M.COL___325                                                 6
 STAT SP IPHASW D HRMM SECON CODA AMPLIT PERI AZIMU VELO AIN AR TRES W  DIS CAZ7
 BAR2 EZ EP       2045 11.13                             171   -0.0610 23.0 186 
 BAR2 EZ ES   2   2045 25.83                             171   -0.50 5 23.0 186 
 BAR2 EZ I        2045 28.92        14.5 0.26            168           23.0 186 
 PAM  EZ EP     C 2045 13.94                             151    0.0610 78.5  40 
 PAM  EE ES       2045 31.28                             151    0.1710 78.5  40 
 PAM  EZ I        2045 33.49        16.6 0.20            157           78.5  40 
 RUS  HZ EP       2045 15.06                             144   -0.3010  101 175 
 RUS  HE ES       2045 33.97                             144    0.2110  101 175 
 RUS  HZ I        2045 35.41         8.0 0.48            146            101 175 
 PTB  HZ EP       2045 17.90                             132   -0.55 9  146 259 
 PTB  HN ES       2045 39.02                             132   -0.23 9  146 259 
 PTB  HZ I        2045 45.10        11.8 0.20            132            146 259 
 SPBC HZ EP   2   2045 19.87                             129   -0.17 5  162 219 
 SPBC HN ES       2045 42.60                             129    0.53 9  162 219 
 SPBC HZ I        2045 47.27        20.6 0.18            130            162 219 
 ZAR  HZ EP   3   2045 24.22                             123    0.27 2  202 292 
 ZAR  HE ES       2045 49.45                             123    0.41 9  202 292 
 ZAR  HZ I        2045 55.72         9.3 0.15            124            202 292 
 NOR  HZ EP   2   2045 27.13                             119   -0.12 4  233 234 
 NOR  HN ES   2   2045 54.27                             119   -0.65 4  233 234 
 NOR  HZ I        2046  2.50         7.6 0.32            120            233 234 
 CHI  HZ EP   2   2045 29.28                             117   -0.04 4  248 195 
 CHI  HN ES   2   2045 58.71                             117    0.10 4  248 195 
 CHI  HZ I        2046  2.66         4.2 0.40            119            248 195 
 GUY2CHZ EP   2   2045 36.17                             112    1.03 4  300 235 
 GUY2CHN ES   4   2046 12.66                             112    3.69 0  300 235 
 GUY2CHZ I        2046 17.85         6.2 0.72                           300 235 
                                                                                
