 2011 1014 2357 53.7 L   6.794 -73.129147.1  RSN 18 0.5 3.4LRSN                1
 GAP=116        0.80       2.5     3.4  4.8 -0.5379E+00  0.5489E+01  0.4019E+01E
 Epicentro: LOS SANTOS - SANTANDER                                             3
 ACTION:UPD 12-07-13 16:03 OP:ep   STATUS:               ID:20111014235753 L   I
 2011-10-14-2354-44S.COL___166                                                 6
 STAT SP IPHASW D HRMM SECON CODA AMPLIT PERI AZIMU VELO AIN AR TRES W  DIS CAZ7
 BAR2 SZ IP     C 2358 13.50                             171   -0.0310 23.0 195 
 BAR2 SZ ES   1   2358 27.96                             171   -1.01 7 23.0 195 
 BAR2 SZ I        2358 30.06       675.5 0.18                          23.0 195 
 GIR2 SZ EP   1   2358 13.61                             167    0.00 7 32.3 347 
 GIR2 SZ ES   1   2358 29.15                             167    0.05 7 32.3 347 
 BRR  HZ IP     C 2358 15.38                             152    0.2310 73.1 298 
 BRR  HE ES   1   2358 32.61                             152    0.76 7 73.1 298 
 BRR  HZ I        2358 35.28       468.7 0.14                          73.1 298 
 PAM  SZ IP     C 2358 16.32                             151    0.2510 76.8  38 
 PAM  SN ES   1   2358 33.37                             151   -0.11 7 76.8  38 
 PAM  SZ I        2358 35.73       296.4 0.52                          76.8  38 
 RUS  HZ EP   1   2358 17.18                             144   -0.39 7 99.8 177 
 RUS  HN ES   1   2358 35.89                             144   -0.27 7 99.8 177 
 RUS  HZ I        2358 37.87       287.6 0.34                          99.8 177 
 OCA  SZ EP   1   2358 22.08                             130   -0.17 7  161 353 
 OCA  SZ ES   1   2358 44.87                             130    0.39 7  161 353 
 OCA  SZ I        2358 48.78       394.3 0.23                           161 353 
 YOP  SZ EP   1   2358 23.79                             127    0.04 7  177 154 
 YOP  SE ES   1   2358 47.96                             127    0.81 7  177 154 
 YOP  SZ I        2358 49.41       126.5 0.26                           177 154 
 ZAR  HZ EP   1   2358 25.73                             122   -0.75 6  206 292 
 ZAR  HN ES   1   2358 51.66                             122   -0.35 6  206 292 
 ZAR  HZ I        2358 58.45       186.5 0.31                           206 292 
 NOR  SZ EP   1   2358 29.25                             119   -0.42 6  236 235 
 NOR  SN ES   1   2358 57.63                             119   -0.06 6  236 235 
 CHI  HZ EP   1   2358 31.07                             117   -0.43 6  248 196 
 CHI  HZ I        2358 33.19        90.1 0.20                           248 196 
 CHI  HN ES   1   2359  1.03                             117    0.08 6  248 196 
 ROSC BZ EP   1   2358 32.92                             117    0.94 6  253 211 
 ROSC BN ES   1   2359  2.06                             117    0.26 6  253 211 
 ROSC BZ I        2359  8.68       164.9 0.58                           253 211 
 HEL  HZ EP   1   2358 34.32                             115    0.11 6  274 256 
 HEL  HN ES   1   2359  5.13                             115   -0.63 6  274 256 
 HEL  HZ I        2359 11.49       111.0 0.32                           274 256 
 VIL  SZ EP   1   2358 36.68                             112   -0.51 5  303 192 
 VIL  SN ES   1   2359 10.56                             112   -0.52 5  303 192 
 VIL  SZ I        2359 13.78        79.0 0.44                           303 192 
 RREF HZ EP   1   2358 40.45                             111    0.39 5  323 230 
 RREF HN ES   1   2359 16.88                             111    0.70 5  323 230 
 RREF HZ I        2359 25.43       184.9 0.57                           323 230 
 ANIL HZ EP   1   2358 43.74                             108    0.04 5  358 225 
 ANIL HE ES   1   2359 23.53                             108    0.87 5  358 225 
 PRA  HZ EP   1   2358 47.21                             107   -0.14 4  392 210 
 PRA  HZ I        2358 49.25       565.3 0.19                           392 210 
 PRA  HN ES   1   2359 28.78                             107   -0.38 4  392 210 
 PAL  HZ EP   1   2358 49.00                             106   -0.10 4  407 239 
 PAL  HZ I        2358 51.52        88.7 0.10                           407 239 
 PAL  HN ES   1   2359 32.13                             106   -0.14 4  407 239 
 HORQ SZ EP   1   2359  4.06                             101   -0.26 3  533 227 
 HORQ SE ES   1   24 0  0.30                             101    0.93 3  533 227 
                                                                                
