 2012  114 2034 43.9 L   6.768 -73.140145.5  RSN 18 0.5 2.6LRSN                1
 GAP=115        1.01       3.9     4.9  6.1 -0.4982E+01  0.7692E+01  0.2292E+01E
 Epicentro: LOS SANTOS - SANTANDER                                             3
 ACTION:UP  12-02-03 08:17 OP:REBC STATUS:               ID:20120114203443 L   I
 2012-01-14-2030-00M.COL___188                                                 6
 STAT SP IPHASW D HRMM SECON CODA AMPLIT PERI AZIMU VELO SNR AR TRES W  DIS CAZ7
 BAR2 SZ IP       2035  3.42                             172     0.010   20 193 
 BAR2 SZ ES   1   2035 18.43                             172    -0.2 7   20 193 
 BAR2 SZ I        2035 21.23        94.8 0.40                            20 193 
 GIR2 SZ EP       2035  3.49                             166    -0.110   35 350 
 BRR  HZ IP     D 2035  5.31                             152     0.210   73 301 
 BRR  HZ I        2035  5.47        98.5 0.16                            73 301 
 BRR  HN ES   1   2035 22.77                             152     1.1 7   73 301 
 PAM  SZ IP       2035  6.21                             150     0.010   80  38 
 PAM  SN ES   1   2035 23.29                             150    -0.3 7   80  38 
 RUS  HZ EP       2035  7.26                             145    -0.110   97 176 
 RUS  HN ES   1   2035 25.47                             145    -0.2 7   97 176 
 RUS  HZ I        2035 27.59        32.0 0.42                            97 176 
 BRI  SZ EP       2035  7.99                             140     0.010  111  20 
 PTB  HZ EP       2035  9.84                             132    -1.0 9  148 260 
 PTB  HN ES   1   2035 31.38                             132    -0.4 7  148 260 
 PTB  HZ I        2035 38.77        46.7 0.46                           148 260 
 OCA  SZ EP       2035 12.49                             129     0.0 9  164 353 
 OCA  SZ I        2035 40.06        47.7 0.50                           164 353 
 YOP  SZ EP   3   2035 13.76                             127     0.2 2  176 153 
 ZAR  HZ EP       2035 16.47                             122     0.0 8  206 293 
 ZAR  HE ES   2   2035 42.28                             122     0.4 4  206 293 
 ZAR  HZ I        2035 47.78        55.9 0.54                           206 293 
 NOR  SZ EP       2035 19.10                             119    -0.3 8  233 235 
 NOR  SN ES   1   2035 46.55                             119    -0.6 6  233 235 
 CHI  HZ EP       2035 21.63                             117     0.4 8  245 196 
 CHI  HN ES   1   2035 50.80                             117     0.5 6  245 196 
 CHI  HZ I        2035 58.63        16.1 0.52                           245 196 
 ROSC BZ EP   3   2035 20.11                             117    -1.6 2  250 212 
 ROSC BZ I        2035 59.26        40.8 0.55                           250 212 
 HEL  HZ EP   1   2035 24.47                             115     0.4 6  272 257 
 HEL  HZ I        2036  1.78        20.7 0.34                           272 257 
 RREF HZ EP       2035 30.08                             111     0.3 7  320 230 
 RREF HZ I        2036 10.75        16.4 0.56                           320 230 
 TOL  SZ EP       2035 32.48                             109     0.6 7  341 225 
 PRA  HZ EP   2   2035 37.03                             107     0.0 3  389 210 
 PRA  HN ES   2   2036 19.28                             107     0.7 3  389 210 
 SJA  SZ EP   3   2035 36.79                             106    -1.2 1  397 193 
 SJA  SZ I        2036 31.09        24.5 0.40                           397 193 
                                                                                
