 2012  814 2118  2.1 L   6.707 -73.194146.2  RSN  4 0.3 1.5LRSN                1
 GAP=225        0.65       6.8     6.4  7.0  0.2132E+02  0.5640E+01  0.1994E+01E
 Epicentro: VILLANUEVA - SANTANDER                                             3
 ACTION:UPD 12-09-10 11:56 OP:ep   STATUS:               ID:20120814211802 L   I
 2012-08-14-2110-00M.COL___217                                                 6
 STAT SP IPHASW D HRMM SECON CODA AMPLIT PERI AZIMU VELO AIN AR TRES W  DIS CAZ7
 BAR2 SZ EP   1   2118 21.43                             175   -0.22 7 12.7 174 
 BAR2 SZ ES   1   2118 36.50                             175   -0.38 7 12.7 174 
 BAR2 SZ I        2118 37.75        12.4 0.34                          12.7 174 
 BRR  HZ EP   1   2118 23.28                             152   -0.12 7 72.4 308 
 BRR  HZ I        2118 23.44        15.7 0.10                          72.4 308 
 BRR  HN ES   1   2118 40.45                             152    0.46 7 72.4 308 
 RUS  HZ EP   1   2118 25.77                             147    0.52 7 90.9 172 
 RUS  HN ES   1   2118 43.32                             147    0.03 7 90.9 172 
 RUS  HZ I        2118 45.20         2.7 0.35                          90.9 172 
 PTB  HZ EP   1   2118 28.22                             134   -0.30 7  141 263 
 PTB  HZ I        2118 30.67         1.9 0.20                           141 263 
 PTB  HN ES   1   2118 49.07                             134   -0.03 7  141 263 
                                                                                
