 2011 1114 2232 21.9 L   6.781 -73.118142.4  RSN  4 0.1 1.5LRSN                1
 GAP=141        0.39       2.6     3.3  3.8  0.5503E+00 -0.2248E+01 -0.9271E-01E
 Epicentro: LOS SANTOS - SANTANDER                                             3
 ACTION:UPD 12-07-13 16:10 OP:ep   STATUS:               ID:20111114223221 L   I
 2011-11-14-2229-17S.COL___179                                                 6
 STAT SP IPHASW D HRMM SECON CODA AMPLIT PERI AZIMU VELO AIN AR TRES W  DIS CAZ7
 BAR2 SZ EP   1   2232 40.87                             171   -0.22 7 22.1 199 
 BAR2 SZ ES   1   2232 56.25                             171    0.18 7 22.1 199 
 BAR2 SZ I        2232 58.23         5.5 0.10                          22.1 199 
 BRR  HZ EP       2232 42.91                             151    0.0210 74.8 299 
 BRR  HN ES       2232 59.25                             151   -0.0210 74.8 299 
 BRR  HZ I        2233  1.60         9.3 0.24                          74.8 299 
 PAM  SZ EP       2232 43.71                             150   -0.0210 77.1  37 
 PAM  SN ES   1   2233  0.78                             150    0.01 7 77.1  37 
 RUS  HZ EP   1   2232 45.41                             144    0.26 7 98.4 178 
 RUS  HN ES   1   2233  3.12                             144   -0.18 7 98.4 178 
 RUS  HZ I        2233  5.66         3.8 0.32                          98.4 178 
                                                                                
