 2014  114 2213 54.1 L   6.801 -73.135143.0  RSN  8 0.4 1.9LRSN                1
 GAP=138        0.86       3.3     4.7  7.5  0.4366E+01  0.9953E+01  0.1606E+01E
 Epicentro: LOS SANTOS - SANTANDER                                             3
 ACTION:UPD 14-03-13 09:55 OP:ep   STATUS:               ID:20140114221354 L   I
 OLDACT:REG 14-01-14 21:19 OP:jn   STATUS:               ID:20140114221000     3
 2014-01-14-2210-00M.COL___285                                                 6
 STAT SP IPHASW D HRMM SECON CODA AMPLIT PERI AZIMU VELO AIN AR TRES W  DIS CAZ7
 BRR  HZ EP       2214 15.71                             152    0.6810 72.2 298 
 BRR  HN ES   2   2214 31.97                             152    0.63 5 72.2 298 
 PAM  SN ES   1   2214 32.60                             150   -0.46 7 76.5  39 
 PAM  SZ I        2214 35.84         7.3 0.54            158           76.5  39 
 RUS  HZ EP       2214 17.83                             143    0.2210  101 177 
 RUS  HN ES       2214 35.90                             143   -0.0310  101 177 
 RUS  HZ I        2214 38.86         8.3 0.52            146            101 177 
 PTB  HZ EP       2214 20.38                             131   -0.60 9  149 259 
 PTB  HN ES       2214 41.69                             131   -0.23 9  149 259 
 PTB  HZ I        2214 48.91        13.2 0.54            133            149 259 
 ZAR  HZ EP       2214 26.77                             121    0.27 9  205 292 
 ZAR  HE ES       2214 51.94                             121    0.19 9  205 292 
 ZAR  HZ I        2214 57.74        13.5 0.30            125            205 292 
 NOR  HN ES   2   2214 57.34                             118   -0.30 4  236 235 
 SML  HN ES       2214 58.70                             117   -0.42 8  244 335 
 CHI  HZ EP       2214 31.69                             116   -0.03 8  249 195 
 CHI  HN ES   1   2215  0.89                             116   -0.15 6  249 195 
 CHI  HZ I        2215  6.91         4.2 0.26            120            249 195 
                                                                                
