 2013  114 2259 57.6 L   6.729 -73.224135.8  RSN  6 0.3 1.9LRSN                1
 GAP=215        0.68       4.7     4.5  4.9  0.1347E+02  0.6111E+01  0.5661E+01E
 Epicentro: VILLANUEVA - SANTANDER                                             3
 ACTION:UPD 13-02-15 09:14 OP:ep   STATUS:               ID:20130114225957 L   I
 2013-01-14-2258-50M.COL___175                                                 6
 STAT SP IPHASW D HRMM SECON CODA AMPLIT PERI AZIMU VELO AIN AR TRES W  DIS CAZ7
 BAR2 SZ EP       23 0 15.68                             173   -0.2610 15.8 163 
 BAR2 SZ ES       23 0 30.02                             173   -0.1810 15.8 163 
 BAR2 SZ I        23 0 31.97        29.8 0.16            159           15.8 163 
 BRR  HZ EP       23 0 17.55                             152    0.0010 68.2 308 
 BRR  HN ES       23 0 33.56                             152    0.4910 68.2 308 
 BRR  HN I        23 0 38.15        28.3 0.18            143           68.2 308 
 RUS  HZ EP       23 0 19.87                             144   -0.0510 93.8 170 
 RUS  HN ES       23 0 37.33                             144    0.0310 93.8 170 
 RUS  HN I        23 0 40.65         4.4 0.46            128           93.8 170 
 PTB  HZ EP       23 0 22.72                             132   -0.18 9  138 261 
 PTB  HN ES       23 0 42.43                             132   -0.17 9  138 261 
 PTB  HN I        23 0 48.71        12.4 0.46            119            138 261 
 ZAR  HE ES       23 0 53.29                             121   -0.09 9  199 295 
 ZAR  HE I        23 0 59.68        14.6 0.18            112            199 295 
 CHI  HZ EP       23 0 34.29                             116    0.55 8  239 194 
 CHI  HN I        23 1  9.78         5.1 0.28            107            239 194 
                                                                                
