 2016  314 2108 50.8 L   6.808 -73.128141.7  RSN  7 0.5 2.1LRSN                1
 GAP=127        1.08       5.1     4.3  7.1 -0.6741E+01  0.7235E+01 -0.4414E+01E
 Epicentro: LOS SANTOS - SANTANDER                                             3
 ACTION:UPD 16-05-13 21:24 OP:cam  STATUS:               ID:20160314210850 L   I
 OLDACT:REG 16-03-15 04:34 OP:ar   STATUS:               ID:20160314210746     3
 2016-03-14-2107-46M.COL___307                                                 6
 STAT SP IPHASW D HRMM SECON CODA AMPLIT PERI AZIMU VELO AIN AR TRES W  DIS CAZ7
 BAR2 EZ EP       21 9  9.98                             170    0.0110 24.6 194 
 BAR2 EZ ES       21 9 24.50                             170   -0.4210 24.6 194 
 BAR2 EZ I        21 9 25.96        25.6 0.16            172           24.6 194 
 PAM  EZ EP     C 21 9 12.87                             150    0.4010 75.4  39 
 PAM  EN ES       21 9 29.74                             150    0.3710 75.4  39 
 PAM  EZ I        21 9 32.03        32.9 0.62            151           75.4  39 
 RUS  HZ EP       21 9 14.66                             143    0.4410  101 177 
 RUS  HN ES       21 9 32.48                             143    0.0010  101 177 
 RUS  HZ I        21 9 33.43        16.1 0.32            146            101 177 
 PTB  HZ EP       21 9 16.85                             131   -0.79 9  150 259 
 PTB  HN ES       21 9 37.96                             131   -0.61 9  150 259 
 PTB  HZ I        21 9 40.09        13.5 0.34            131            150 259 
 ZAR  HN ES       21 9 48.83                             121    0.47 8  206 292 
 ZAR  HZ I        21 9 54.76        14.0 0.30            121            206 292 
 NOR  HZ EP       21 9 26.70                             117    0.17 8  237 235 
 NOR  HN ES       21 9 54.86                             117    0.46 8  237 235 
 NOR  HZ I        21 9 57.38         8.7 0.14            118            237 235 
 SDV  BZ EP       21 9 39.74                             108   -0.71 6  358  50 
 SDV  BN ES   2   2110 18.63                             108   -0.54 3  358  50 
 SDV  BZ I        2110 21.28         3.3 0.40            108            358  50 
                                                                                
