 2012  714 2237 51.4 L   7.408 -73.115 16.0  RSN  4 0.4 1.5LRSN                1
 GAP=113        1.01       4.3     3.4  8.2  0.5156E+00  0.3312E+01  0.1832E+02E
 Epicentro: EL PLAYON - SANTANDER                                              3
 ACTION:UPD 12-08-14 11:44 OP:ep   STATUS:               ID:20120714223751 L   I
 2012-07-14-2230-00M.COL___197                                                 6
 STAT SP IPHASW D HRMM SECON CODA AMPLIT PERI AZIMU VELO AIN AR TRES W  DIS CAZ7
 PAM  SZ EP   1   2238  0.03                             107     0.2 7   47  99 
 PAM  SZ I        2238  0.26        22.6 0.09            105             47  99 
 PAM  SE ES   1   2238  6.07                             107    -0.3 7   47  99 
 BRR  HZ EP   1   2238  3.68                             100     0.4 7   74 243 
 BRR  HN ES   1   2238 12.26                             100    -0.3 7   74 243 
 BRR  HZ I        2238 13.67        21.4 0.12             98             74 243 
 OCA  HE ES   1   2238 18.25                              98    -0.2 7   95 346 
 RUS  HZ EP   1   2238 17.92                              56     0.8 7  168 179 
 RUS  HN ES   1   2238 36.61                              56    -0.6 7  168 179 
 RUS  HZ I        2238 38.95         4.5 0.21             56            168 179 
