 2016 1114 2025  9.4 L   6.845 -73.108146.4  RSN 12 0.4 2.0LRSN                1
 GAP=156        0.90       3.1     4.1  4.7 -0.3145E+01  0.2968E+01  0.3304E+01E
 Epicentro: LOS SANTOS - SANTANDER                                             3
 ACTION:UPD 17-10-26 21:08 OP:lp   STATUS:               ID:20161114202509 L   I
 OLDACT:UP  16-11-15 04:07 OP:and  STATUS:               ID:20161114201745     3
 OLDACT:UP  16-11-15 04:04 OP:and  STATUS:               ID:20161114201745     3
 OLDACT:UP  16-11-15 03:57 OP:and  STATUS:               ID:20161114201745     3
 OLDACT:REG 16-11-15 03:09 OP:y    STATUS:               ID:20161114201745     3
 2016-11-14-2018-00M.COL___341                                                 6
 STAT SP IPHASW D HRMM SECON CODA AMPLIT PERI AZIMU VELO AIN AR TRES W  DIS CAZ7
 BAR2 EZ EP       2025 28.89                             168   -0.3210 29.1 196 
 BAR2 EZ ES       2025 44.11                             168   -0.5810 29.1 196 
 BAR2 EZ I        2025 46.67        34.0 0.30            166           29.1 196 
 PAM  EZ EP       2025 31.61                             153    0.3210 71.0  40 
 PAM  EN ES       2025 48.75                             153    0.3610 71.0  40 
 PAM  EZ I        2025 51.02        21.5 0.46            156           71.0  40 
 BRR  HZ EP       2025 30.75                             152    0.0710 72.7 294 
 BRR  HN ES       2025 47.33                             152    0.0310 72.7 294 
 BRR  HZ I        2025 51.65        17.5 0.28            152           72.7 294 
 PTB  HZ EP   9   2025 35.63                             131   -1.23 0  153 257 
 PTB  HN ES       2025 56.74                                   -0.33 9  153 257 
 PTB  HZ I        2025 57.67        10.2 0.18            131            153 257 
 ZAR  HZ EP       2025 42.49                             122    0.42 8  206 290 
 ZAR  HN ES       2026  7.49                             122   -0.09 8  206 290 
 ZAR  HZ I        2026  9.05         6.9 0.10            123            206 290 
 NOR  HZ EP       2025 46.14                             118    0.33 8  241 234 
 NOR  HN ES       2026 14.19                             118   -0.04 8  241 234 
 NOR  HZ I        2026 20.81         9.7 0.14            118            241 234 
 CHI  HZ EP       2025 47.14                             116   -0.60 8  254 196 
 CHI  HE ES       2026 17.16                             116   -0.51 8  254 196 
 CHI  HZ I        2026 22.63         5.4 0.36            117            254 196 
 ROSC BZ EP       2025 48.88                             116    0.66 8  259 211 
 ROSC BE ES       2026 19.09                             116    0.57 8  259 211 
 ROSC BZ I        2026 26.82         9.1 0.45            116            259 211 
 LL6C HZ EP   9   2025 34.95                             110   -19.6 0  320 357 
 LL6C HN ES       2026 10.08                                   -0.12 7  320 357 
 ORTC HZ EP       2026  4.16                             106    0.09 6  402 216 
 ORTC HN ES       2026 46.75                             106    0.03 6  402 216 
 ORTC HZ I        2026 52.94         3.6 0.41            107            402 216 
 SJC  HZ EP       2026  3.74                             106   -1.00 6  407 326 
 SJC  HN ES   4   2026 44.19                             106   -3.74 0  407 326 
 SJC  HZ I        2026 51.66         1.9 0.30            107            407 326 
 CRJC HN ES       2026 59.26                             103   -0.31 5  462   3 
                                                                                
