 2013  414 2342 50.2 L   6.774 -73.151146.4  RSN  7 0.5 1.6LRSN                1
 GAP=137        0.93       5.3     6.5  8.7 -0.4796E+01  0.1993E+02 -0.4930E+01E
 Epicentro: LOS SANTOS - SANTANDER                                             3
 ACTION:UPD 13-05-22 14:38 OP:EP   STATUS:               ID:20130414234250 L   I
 2013-04-14-2340-00M.COL___244                                                 6
 STAT SP IPHASW D HRMM SECON CODA AMPLIT PERI AZIMU VELO AIN AR TRES W  DIS CAZ7
 BAR2 SZ ES   1   2343 24.52                             172   -0.64 7 20.4 190 
 BAR2 SZ I        2343 25.90        17.1 0.20            173           20.4 190 
 BRR  HZ EP   1   2343 11.78                             152    0.33 7 72.0 301 
 BRR  HE ES   1   2343 28.98                             152    0.94 7 72.0 301 
 BRR  HZ I        2343 29.79         5.8 0.60            146           72.0 301 
 PAM  SN ES   1   2343 29.73                             150   -0.40 7 80.0  39 
 RUS  HZ EP   1   2343 14.25                             145    0.45 7 97.8 176 
 RUS  HN ES   1   2343 32.49                             145    0.27 7 97.8 176 
 RUS  HZ I        2343 33.24         4.4 0.22            146           97.8 176 
 PTB  HZ EP   1   2343 16.49                             132   -0.61 7  147 260 
 PTB  HN ES   1   2343 37.73                             132   -0.37 7  147 260 
 PTB  HZ I        2343 40.83         3.6 0.18            129            147 260 
 NOR  HN ES   1   2343 53.34                             119   -0.10 6  233 235 
 NOR  HZ I        2343 58.06         2.7 0.20            117            233 235 
 SML  HZ EP   1   2343 27.11                             117    0.01 6  246 336 
 SML  HN ES   2   2343 55.80                             117   -0.09 4  246 336 
 SML  HZ I        2344  7.32         2.5 0.10            114            246 336 
                                                                                
