 2013  514 2113  1.7 L   6.058 -73.698114.5  RSN 10 0.3 1.9LRSN                1
 GAP= 76        0.61       2.4     2.8  5.5 -0.2695E+01  0.4830E+01 -0.1947E+01E
 Epicentro: BOLIVAR - SANTANDER                                                3
 ACTION:UPD 13-06-20 09:50 OP:ep   STATUS:               ID:20130514211301 L   I
 2013-05-14-2110-00M.COL___256                                                 6
 STAT SP IPHASW D HRMM SECON CODA AMPLIT PERI AZIMU VELO AIN AR TRES W  DIS CAZ7
 RUS  HZ EP   1   2113 20.12                             146   -0.07 7 70.5 105 
 RUS  HN ES   1   2113 34.08                             146   -0.56 7 70.5 105 
 RUS  HZ I        2113 35.71        14.5 0.28            150           70.5 105 
 BAR2 SZ EP       2113 20.75                             142    0.0910 82.1  44 
 BAR2 SZ ES       2113 35.86                             142    0.3810 82.1  44 
 BAR2 SZ I        2113 37.09        51.5 0.33            144           82.1  44 
 PTB  HZ EP   4   2113 20.60                             136   -1.13 0 99.4 302 
 PTB  HN ES   4   2113 36.03                             136   -1.36 0 99.4 302 
 PTB  HZ I        2113 38.21        17.2 0.30            137           99.4 302 
 BRR  HZ EP       2113 22.94                             131   -0.2510  116 359 
 BRR  HN ES   4   2113 42.13                             131    2.16 0  116 359 
 BRR  HZ I        2113 45.21        14.4 0.14            133            116 359 
 GIR2 SZ EP       2113 24.42                             129    0.1210  126  26 
 NOR  HZ EP   1   2113 25.42                             125   -0.21 7  141 247 
 NOR  HN ES       2113 44.31                             125   -0.01 9  141 247 
 NOR  HZ I        2113 45.91        12.7 0.20            127            141 247 
 CHI  HZ EP   2   2113 27.40                             122   -0.45 5  158 181 
 CHI  HZ I        2113 27.88         5.4 0.20            125            158 181 
 CHI  HE ES   1   2113 48.30                             122    0.02 7  158 181 
 PAM  SZ EP       2113 30.33                             118    0.09 9  180  38 
 ZAR  HE ES   1   2113 55.99                             114   -0.17 6  204 321 
 PRA  HZ EP   2   2113 42.16                             106   -0.10 4  291 207 
 PRA  HN ES   1   2114 14.67                             106    0.74 5  291 207 
 PRA  HZ I        2114 18.86         5.3 0.24            108            291 207 
                                                                                
