 2017  214 2052 40.0 L   6.810 -73.384124.6  RSN  4 0.3 1.3LRSN                1
 GAP=185        0.89       6.4     5.7  8.0  0.1616E+02  0.1199E+02  0.7028E+01E
 Epicentro: SAN VICENTE DE CHUCURI - SANTANDER                                 3
 ACTION:UPD 17-05-24 15:36 OP:jn   STATUS:               ID:20170214205240 L   I
 OLDACT:REG 17-02-15 03:49 OP:ar   STATUS:               ID:20170214204745     3
 2017-02-14-2048-00M.COL___357                                                 6
 STAT SP IPHASW D HRMM SECON CODA AMPLIT PERI AZIMU VELO AIN AR TRES W  DIS CAZ7
 BAR2 EZ EP       2052 57.31                             164   -0.0410 32.8 137 
 BAR2 EZ ES       2053 10.26                             164   -0.6310 32.8 137 
 BAR2 EZ I        2053 13.89         8.2 0.54            164           32.8 137 
 BRR  HZ EP       2052 57.76                             157    0.1210 49.0 312 
 BRR  HN ES       2053 11.85                             157    0.4310 49.0 312 
 RUS  HZ EP   2   2053  2.41                             137    0.19 5  107 162 
 RUS  HN ES       2053 20.01                             137    0.4410  107 162 
 RUS  HZ I        2053 20.92         3.5 0.28            138            107 162 
 PTB  HZ EP       2053  2.62                             132   -0.3010  122 256 
 PTB  HN ES       2053 20.73                             132   -0.0810  122 256 
 PTB  HZ I        2053 20.91         2.7 0.26            135            122 256 
                                                                                
