 2012  814 2137 25.0 L   6.725 -73.182148.0  RSN  5 0.2 1.8LRSN                1
 GAP=227        0.53       5.5     5.0  5.7  0.1695E+02  0.4313E+01  0.3048E+00E
 Epicentro: VILLANUEVA - SANTANDER                                             3
 ACTION:UPD 12-09-10 11:56 OP:ep   STATUS:               ID:20120814213725 L   I
 2012-08-14-2130-00M.COL___217                                                 6
 STAT SP IPHASW D HRMM SECON CODA AMPLIT PERI AZIMU VELO AIN AR TRES W  DIS CAZ7
 BAR2 SZ EP   1   2137 44.56                             174   -0.16 7 14.6 180 
 BAR2 SZ ES   1   2137 59.67                             174   -0.46 7 14.6 180 
 BAR2 SZ I        2138  1.20        30.3 0.23                          14.6 180 
 BRR  HZ EP   1   2137 46.53                             153    0.11 7 72.3 306 
 BRR  HE ES   1   2138  3.49                             153    0.35 7 72.3 306 
 BRR  HZ I        2138  7.41        19.8 0.35                          72.3 306 
 RUS  HZ EP   1   2137 48.44                             147    0.06 7 92.6 173 
 RUS  HN ES   1   2138  6.99                             147    0.34 7 92.6 173 
 RUS  HZ I        2138  8.48         8.5 0.27                          92.6 173 
 PTB  HZ EP   1   2137 51.49                             134   -0.15 7  142 262 
 PTB  HN ES   1   2138 12.28                             134   -0.17 7  142 262 
 PTB  HZ I        2138 14.28         4.2 0.14                           142 262 
 ZAR  HN ES   1   2138 22.97                             123    0.05 6  204 295 
                                                                                
