 2012  914 2341 48.6 L   6.780 -73.146147.4  RSN  7 0.4 2.0LRSN                1
 GAP=137        0.90       5.8     5.8  7.8 -0.5531E+01  0.3735E+01  0.9672E+01E
 Epicentro: LOS SANTOS - SANTANDER                                             3
 ACTION:UPD 12-10-22 14:18 OP:ep   STATUS:               ID:20120914234148 L   I
 2012-09-14-2340-00M.COL___227                                                 6
 STAT SP IPHASW D HRMM SECON CODA AMPLIT PERI AZIMU VELO AIN AR TRES W  DIS CAZ7
 BAR2 SZ EP       2342  8.44                             171    0.0710 21.2 191 
 BAR2 SZ ES   3   2342 23.73                             171   -0.08 2 21.2 191 
 BAR2 SZ I        2342 25.28        22.7 0.44                          21.2 191 
 GIR2 SZ EP       2342  8.50                             167   -0.0110 33.4 351 
 GIR2 SZ ES   1   2342 23.56                             167   -0.50 7 33.4 351 
 BRR  HZ EP       2342 10.39                             152    0.4210 72.2 300 
 BRR  HN ES   1   2342 27.65                             152    1.00 7 72.2 300 
 BRR  HN I        2342 29.07        49.0 0.16                          72.2 300 
 PAM  SZ EP       2342 11.13                             151    0.0510 79.1  39 
 PAM  SN ES   1   2342 28.14                             151   -0.48 7 79.1  39 
 PAM  SN I        2342 29.51         8.9 0.20                          79.1  39 
 RUS  HZ EP   1   2342 12.67                             145    0.33 7 98.4 176 
 RUS  HN ES   1   2342 30.89                             145    0.01 7 98.4 176 
 RUS  HZ I        2342 33.91         5.1 0.40                          98.4 176 
 PTB  HZ EP       2342 15.02                             132   -0.62 9  147 260 
 PTB  HN ES   1   2342 36.29                             132   -0.46 7  147 260 
 CHI  HZ EP   2   2342 26.34                             118    0.19 4  247 195 
 CHI  HN ES   3   2342 55.75                             118    0.31 2  247 195 
 CHI  HN I        2343  0.02         9.7 0.28                           247 195 
                                                                                
