 2013  414 2001 55.0 L   6.791 -73.169155.1  RSN  5 0.4 1.6LRSN                1
 GAP=199        0.74       5.3     7.3  7.5  0.1671E+02 -0.1677E+01 -0.1079E+02E
 Epicentro: LOS SANTOS - SANTANDER                                             3
 ACTION:UPD 13-05-22 14:38 OP:EP   STATUS:               ID:20130414200155 L   I
 2013-04-14-2000-00M.COL___244                                                 6
 STAT SP IPHASW D HRMM SECON CODA AMPLIT PERI AZIMU VELO AIN AR TRES W  DIS CAZ7
 BAR2 SZ EP   1   20 2 15.46                             172   -0.22 7 22.0 184 
 BAR2 SZ ES   1   20 2 31.29                             172   -0.55 7 22.0 184 
 BAR2 SZ I        20 2 33.09        10.0 0.48            179           22.0 184 
 BRR  HZ IP     D 20 2 17.40                             154    0.3810 69.4 300 
 BRR  HN ES   1   20 2 34.88                             154    0.64 7 69.4 300 
 RUS  HZ EP   1   20 2 19.68                             146    0.10 7 99.8 175 
 RUS  HE ES   1   20 2 38.81                             146    0.03 7 99.8 175 
 RUS  HZ I        20 2 40.16         2.0 0.26            152           99.8 175 
 PTB  HZ EP   1   20 2 22.29                             134   -0.17 7  145 259 
 PTB  HN ES   1   20 2 43.65                             134   -0.26 7  145 259 
 PTB  HZ I        20 2 45.39         5.9 0.14            137            145 259 
 SML  HZ EP   2   20 2 32.24                             119    0.14 4  244 336 
 SML  HN ES   1   20 3  0.56                             119   -0.52 6  244 336 
 SML  HZ I        20 3 11.91         6.9 0.22            119            244 336 
                                                                                
