 2015  914 2110 41.4 L   6.809 -73.141144.2  RSN 11 0.5 2.1LRSN                1
 GAP=137        1.27       3.6     4.9  6.6 -0.1620E+01  0.9517E+01  0.1381E+01E
 Epicentro: LOS SANTOS - SANTANDER                                             3
 ACTION:UPD 15-10-28 16:26 OP:cam  STATUS:               ID:20150914211041 L   I
 OLDACT:REG 15-09-15 03:56 OP:stll STATUS:               ID:20150914210750     3
 2015-09-14-2107-50M.COL___341                                                 6
 STAT SP IPHASW D HRMM SECON CODA AMPLIT PERI AZIMU VELO AIN AR TRES W  DIS CAZ7
 BAR2 EZ IP     C 2111  1.08                             170    0.2510 24.4 191 
 BAR2 EZ ES       2111 15.97                             170   -0.0410 24.4 191 
 BAR2 EZ I        2111 17.40        28.2 0.20            169           24.4 191 
 BRR  HZ EP       2111  2.72                             152    0.3810 71.2 298 
 BRR  HN ES       2111 19.58                             152    0.8710 71.2 298 
 BRR  HZ I        2111 20.59        30.0 0.32            150           71.2 298 
 PAM  EZ EP     C 2111  3.76                             151    0.4110 76.3  40 
 PAM  EE ES       2111 20.60                             151    0.1010 76.3  40 
 PAM  EZ I        2111 21.51        19.0 0.18            154           76.3  40 
 RUS  HZ EP     C 2111  5.07                             143    0.0410  102 176 
 RUS  HZ I        2111  5.74        14.1 0.32            145            102 176 
 RUS  HN ES       2111 22.85                             143   -0.6410  102 176 
 PTB  HZ EP       2111  7.70                             131   -0.57 9  148 259 
 PTB  HN ES       2111 28.50                             131   -0.75 9  148 259 
 PTB  HZ I        2111 34.68        13.1 0.16            131            148 259 
 SPBC HZ EP       2111 10.11                             128    0.27 9  164 219 
 SPBC HN ES       2111 32.35                             128    0.29 9  164 219 
 SPBC HZ I        2111 35.43        21.2 0.12            129            164 219 
 ZAR  HZ EP     C 2111 13.89                             122    0.17 9  204 292 
 ZAR  HN ES       2111 38.85                             122   -0.10 9  204 292 
 ZAR  HZ I        2111 44.89        18.1 0.16            122            204 292 
 NOR  HZ EP       2111 17.37                             118    0.27 8  236 234 
 NOR  HN ES       2111 44.92                             118   -0.07 8  236 234 
 NOR  HZ I        2111 51.09        12.1 0.16            118            236 234 
 SML  HZ EP       2111 17.76                             117   -0.07 8  243 335 
 SML  HN ES       2111 44.97                             117   -1.30 8  243 335 
 SML  HZ I        2111 50.91        17.0 0.24            118            243 335 
 CHI  HZ EP       2111 18.41                             117   -0.68 8  250 195 
 CHI  HN ES       2111 47.94                             117   -0.58 8  250 195 
 CHI  HZ I        2111 53.89         5.4 0.32            118            250 195 
 GUY2CHZ EP       2111 25.69                             112    0.68 7  302 235 
 GUY2CHN ES       2111 59.92                             112    0.87 7  302 235 
 GUY2CHZ I        2112  7.54         5.8 0.74                           302 235 
                                                                                
