 2011  514 2008 30.9 L   6.726 -72.817147.4  RSN  6 0.5 1.8LRSN                1
 GAP=187        1.21       6.9    14.3 14.0 -0.3612E+02 -0.4948E+02  0.1710E+02E
 Epicentro: MOLAGAVITA - SANTANDER                                             3
 ACTION:UP  11-06-29 08:53 OP:tino STATUS:               ID:20110514200830 L   I
 2011-05-14-2008-20S.COL___141                                                 6
 STAT SP IPHASW D HRMM SECON CODA AMPLIT PERI AZIMU VELO SNR AR TRES W  DIS CAZ7
 BTL  SZ EP   1   20 8 51.00                             159    -0.7 7   54 293 
 PAM  SZ EP   1   20 8 53.27                             154     0.5 7   69  11 
 PAM  SZ I        20 8 53.97         7.6 0.18                            69  11 
 PAM  SN ES   1   20 9 10.51                             154     0.7 7   69  11 
 RUS  HZ EP   1   20 8 54.50                             145     0.0 7   97 198 
 RUS  HN ES   1   20 9 12.76                             145    -0.2 7   97 198 
 RUS  HZ I        20 9 14.20         8.3 0.31                            97 198 
 BRR  HN ES   1   20 9 13.48                             142     0.4 7  108 293 
 BRR  HZ I        20 9 14.36        22.9 0.17                           108 293 
 BRI  SZ EP   1   20 8 55.44                             141     0.5 7  110   1 
 BRI  SZ ES   1   20 9 12.85                             141    -0.9 7  110   1 
 BRI  SZ I        20 9 19.10         8.0 0.28                           110   1 
 GRA  SZ EP   1   20 8 56.30                             137    -0.1 7  128   1 
 GRA  SZ ES   1   20 9 16.26                             137    -0.1 7  128   1 
 GRA  SZ I        20 9 18.26         7.2 0.38                           128   1 
                                                                                
