 2013  114 2346 51.7 L   6.456 -73.790 71.0  RSN  4 0.2 1.6LRSN                1
 GAP=200        0.55       3.6     2.1  7.1  0.2805E+00  0.2763E+01  0.1875E+01E
 Epicentro: SANTA HELENA DEL OPON - SANTANDER                                  3
 ACTION:UP  13-02-15 09:14 OP:ep   STATUS:               ID:20130114234652 L   I
 2013-01-14-2340-00M.COL___241                                                 6
 STAT SP IPHASW D HRMM SECON CODA AMPLIT PERI AZIMU VELO AIN AR TRES W  DIS CAZ7
 BAR2 SZ EP       2347  5.64                             131    0.0210 68.9  77 
 BAR2 SZ ES   1   2347 16.79                             131    0.28 7 68.9  77 
 BRR  HZ EP   1   2347  5.20                             129   -0.44 7 72.6   7 
 BRR  HN ES       2347 16.46                             129   -0.0910 72.6   7 
 BRR  HN I        2347 17.87        18.7 0.42            138           72.6   7 
 PTB  HZ EP       2347  5.82                             128   -0.0110 74.2 277 
 PTB  HN ES       2347 16.79                             128   -0.0810 74.2 277 
 PTB  HN I        2347 24.69         8.6 0.20            131           74.2 277 
 ZAR  HE ES       2347 34.95                             107    0.30 9  165 314 
 ZAR  HE I        2347 39.13        10.8 0.42            112            165 314 
                                                                                
