 2013  114 2356  3.6 L   6.793 -73.134140.0  RSN 11 0.5 2.7LRSN 3.1WRSN        1
 SPEC AVERAGE  MO 13.8 ST  4.8 OM  2.4 f0 3.51 R0.4359 AL 2.54 WI 21.0 MW  3.1 3
 SPEC SD       MO  0.2 ST  3.2 OM  0.4 f00.662 R0.0921 AL      WI      MW  0.1 3
 GAP=184        1.16       3.4     5.1  6.1  0.2482E+01  0.6907E+01  0.4241E+01E
 Epicentro: LOS SANTOS - SANTANDER                                             3
 SPEC PTB HH N MO 13.6 ST  3.9 OM  1.9 f0 4.12 R0.3568 AL 2.39 WI 19.1 MW  3.0 3
 SPEC PTB HH N T235648 K 0.000 GD  204 VS 4.20 DE 3.20 Q0300.0 QA 0.60 VS 4.20 3
 SPEC RUS HH N MO 13.5 ST0.657 OM  1.9 f0 2.41 R0.6100 AL 1.86 WI 21.9 MW  3.0 3
 SPEC RUS HH N T235642 K 0.000 GD  171 VS 4.20 DE 3.20 Q0300.0 QA 0.60 VS 4.20 3
 SPEC HEL HH E MO 13.9 ST  3.8 OM  2.0 f0 3.29 R0.4468 AL 2.39 WI 23.4 MW  3.2 3
 SPEC HEL HH E T235713 K 0.000 GD  306 VS 4.20 DE 3.20 Q0300.0 QA 0.60 VS 4.20 3
 SPEC OCA HH N MO 14.1 ST 10.4 OM  2.4 f0 3.84 R0.3828 AL 2.71 WI 18.5 MW  3.4 3
 SPEC OCA HH N T235652 K 0.000 GD  213 VS 4.20 DE 3.20 Q0300.0 QA 0.60 VS 4.20 3
 SPEC CHI HH E MO 13.8 ST  2.8 OM  2.0 f0 3.06 R0.4804 AL 3.07 WI 20.4 MW  3.2 3
 SPEC CHI HH E T2357 9 K 0.000 GD  284 VS 4.20 DE 3.20 Q0300.0 QA 0.60 VS 4.20 3
 SPEC BRR HH N MO 13.8 ST  7.0 OM  2.2 f0 4.34 R0.3387 AL 2.82 WI 22.6 MW  3.1 3
 SPEC BRR HH N T235638 K 0.000 GD  157 VS 4.20 DE 3.20 Q0300.0 QA 0.60 VS 4.20 3
 ACTION:UPD 13-02-15 09:14 OP:ep   STATUS:               ID:20130114235603 L   I
 2013-01-14-2350-00M.COL___241                                                 6
 STAT SP IPHASW D HRMM SECON CODA AMPLIT PERI AZIMU VELO AIN AR TRES W  DIS CAZ7
 BAR2 SZ EP       2356 22.49                             170    0.0010 22.8 193 
 BAR2 SZ ES       2356 37.34                             170    0.0910 22.8 193 
 BAR2 SZ I        2356 39.76       187.4 0.26            165           22.8 193 
 BRR  HZ EP       2356 24.42                             151    0.2410 72.7 299 
 BRR  HN ES       2356 40.88                             151    0.6210 72.7 299 
 BRR  HN I        2356 41.69       216.2 0.26            146           72.7 299 
 RUS  HZ EP       2356 26.44                             143   -0.2410 99.7 177 
 RUS  HN ES       2356 44.77                             143    0.0510 99.7 177 
 RUS  HN I        2356 47.72        34.7 0.50            137           99.7 177 
 PTB  HZ EP       2356 29.12                             130   -1.05 9  149 259 
 PTB  HN ES       2356 50.08                             130   -0.83 9  149 259 
 PTB  HZ I        2356 51.24        36.4 0.14            124            149 259 
 OCA  HZ EP       2356 31.02                             128   -0.50 9  161 353 
 OCA  HN ES       2356 53.46                             128    0.13 9  161 353 
 OCA  HN I        2356 55.68       282.3 0.24            124            161 353 
 ZAR  HZ EP       2356 36.36                             121    0.57 8  206 292 
 ZAR  HN ES       2357  0.80                             121   -0.13 8  206 292 
 ZAR  HN I        2357  8.29        53.4 0.36            116            206 292 
 CHI  HZ EP       2356 40.61                             116   -0.29 8  248 195 
 CHI  HN ES       2357  9.71                             116   -0.31 8  248 195 
 CHI  HN I        2357 15.53        56.2 0.80            111            248 195 
 HEL  HZ EP       2356 44.04                             114    0.44 8  273 256 
 HEL  HE ES       2357 14.68                             114   -0.15 8  273 256 
 HEL  HE I        2357 21.30        22.9 0.36            109            273 256 
 VIL  SZ EP       2356 46.25                             111   -0.41 7  303 192 
 VIL  SN ES       2357 20.80                             111    0.53 7  303 192 
 RREF HZ EP       2356 50.33                             110    0.82 7  322 230 
 RREF HN ES       2357 25.97                             110    0.62 7  322 230 
 RREF HZ I        2357 34.06        20.3 0.30            106            322 230 
 TOL  SZ EP       2356 52.41                             108    0.78 7  344 225 
 TOL  SZ I        2357 35.84        10.9 0.30            104            344 225 
                                                                                
