 2014  614 2006 22.2 L   6.560 -73.451118.9  RSN 15 0.4 2.3LRSN                1
 GAP= 63        1.02       2.4     2.5  4.7 -0.1198E+01  0.2242E+01 -0.5149E+00E
 Epicentro: EL CARMEN DE CHUCURI - SANTANDER                                   3
 ACTION:UPD 14-07-01 22:54 OP:nd   STATUS:               ID:20140614200622 L   I
 OLDACT:DUP 14-06-15 05:54 OP:stll STATUS:               ID:20140614195819d    3
 2014-06-14-1958-18M.COL___265                                                 6
 STAT SP IPHASW D HRMM SECON CODA AMPLIT PERI AZIMU VELO AIN AR TRES W  DIS CAZ7
 BAR2 SZ EP       20 6 39.15                             165    0.3210 29.9  83 
 BAR2 SZ ES       20 6 51.54                             165   -0.2310 29.9  83 
 BAR2 SZ I        20 6 53.85        67.4 0.24            169           29.9  83 
 BRR  HZ EP       20 6 40.53                             149    0.2510 67.1 335 
 BRR  HZ I        20 6 40.84        43.0 0.40            148           67.1 335 
 BRR  HE ES       20 6 54.69                             149    0.3310 67.1 335 
 RUS  HZ EP       20 6 42.53                             143    0.3610 84.2 151 
 RUS  HN ES       20 6 57.87                             143    0.1510 84.2 151 
 RUS  HZ I        20 6 59.49        27.3 0.26            146           84.2 151 
 PTB  HZ IP     D 20 6 43.03                             134   -0.6810  111 269 
 PTB  HN ES       20 6 59.90                             134   -0.5610  111 269 
 PTB  HZ I        20 7  3.56        38.4 0.18            134            111 269 
 SPBC HZ EP       20 6 45.02                             131    0.2710  122 214 
 SPBC HN ES       20 7  2.48                             131    0.1710  122 214 
 SPBC HZ I        20 7  8.90        37.4 0.22            132            122 214 
 TAM  HZ EP       20 6 51.00                             119    0.04 9  184  94 
 TAM  HZ I        20 6 51.29        37.7 0.30            122            184  94 
 TAM  HE ES       20 7 12.89                             119   -0.48 9  184  94 
 OCA  HZ EP       20 6 52.02                             118    0.68 9  186   4 
 OCA  HN ES       20 7 14.14                             118    0.10 9  186   4 
 OCA  HZ I        20 7 21.98        16.7 0.32            120            186   4 
 ZAR  HZ EP       20 6 51.80                             118    0.61 9  187 304 
 ZAR  HE ES       20 7 14.05                             118    0.28 9  187 304 
 ZAR  HZ I        20 7 19.34        25.4 0.28            119            187 304 
 NOR  HZ EP       20 6 51.76                             117   -0.05 9  192 235 
 NOR  HN ES       20 7 14.41                             117   -0.47 9  192 235 
 NOR  HZ I        20 7 20.21        15.7 0.18            119            192 235 
 HEL  HZ EP       20 6 57.01                             112    0.18 8  234 260 
 HEL  HN ES       20 7 23.34                             112   -0.47 8  234 260 
 HEL  HZ I        20 7 30.19        11.1 0.24            113            234 260 
 SML  HZ EP       20 6 58.31                             110   -0.74 8  257 345 
 SML  HN ES       20 7 27.51                             110   -0.24 8  257 345 
 SML  HZ I        20 7 33.47        23.5 0.24            111            257 345 
 GUY2CHZ EP   4   20 7  1.27                             110    1.48 0  258 235 
 GUY2CHN ES       20 7 29.11                             110    0.04 8  258 235 
 GUY2CHZ I        20 7 39.54        11.1 0.78                           258 235 
 RREF HZ EP       20 7  3.10                             108    0.75 7  279 229 
 RREF HN ES       20 7 33.62                             108   -0.02 7  279 229 
 RREF HZ I        20 7 43.91         6.1 0.50            110            279 229 
 TOL  SZ EP       20 7  4.02                             107   -0.53 7  301 224 
 TOL  SN ES       20 7 37.77                             107    0.23 7  301 224 
 SOCV BZ EP       20 7  8.24                             104   -1.00 7  344  56 
 SOCV BN ES   4   20 7 41.41                             104   -4.49 0  344  56 
                                                                                
