 2016  714 2032 48.8 L   6.756 -73.062141.6  RSN 15 0.5 2.2LRSN                1
 GAP=128        1.06       3.4     4.4  5.4 -0.1604E+01  0.5861E+01  0.5316E+01E
 Epicentro: LOS SANTOS - SANTANDER                                             3
 ACTION:UPD 17-03-29 16:51 OP:lp   STATUS:               ID:20160714203248 L   I
 OLDACT:DUP 16-07-15 03:45 OP:edw  STATUS:               ID:20160714202760d    3
 OLDACT:REG 16-07-15 02:51 OP:edw  STATUS:               ID:20160714202759     3
 2016-07-14-2027-59S.COL___331                                                 6
 STAT SP IPHASW D HRMM SECON CODA AMPLIT PERI AZIMU VELO AIN AR TRES W  DIS CAZ7
 BAR2 EZ EP       2033  7.78                             171   -0.1110 22.5 216 
 BAR2 EZ ES       2033 22.73                             171   -0.0710 22.5 216 
 BAR2 EZ I        2033 24.49        31.6 0.20            167           22.5 216 
 PAM  EZ EP       2033 10.77                             150    0.3010 75.9  32 
 PAM  EN ES       2033 27.65                             150    0.2710 75.9  32 
 PAM  EZ I        2033 29.97        43.5 0.52            154           75.9  32 
 BRR  HZ EP       2033  9.64                             148   -0.4710 81.6 298 
 BRR  HE ES       2033 26.08                             148   -0.6810 81.6 298 
 RUS  HZ EP       2033 11.75                             144   -0.0110 95.5 181 
 RUS  HN ES       2033 30.52                             144    0.8410 95.5 181 
 PTB  HZ EP   4   2033 14.54                             129   -1.64 0  156 261 
 PTB  HN ES   4   2033 34.99                             129   -2.56 0  156 261 
 PTB  HZ I        2033 42.77        21.0 0.46            128            156 261 
 SPBC HZ EP       2033 16.90                             128   -0.29 9  166 223 
 SPBC HN ES       2033 39.04                             128   -0.31 9  166 223 
 SPBC HZ I        2033 47.53        18.1 0.74            128            166 223 
 ZAR  HZ EP       2033 22.61                             120    0.57 8  214 292 
 ZAR  HN ES   4   2033 46.40                             120   -1.59 0  214 292 
 ZAR  HZ I        2033 51.86        20.9 0.32            120            214 292 
 NOR  HZ EP       2033 23.97                             117   -0.83 8  240 237 
 NOR  HE ES       2033 52.99                             117    0.10 8  240 237 
 NOR  HZ I        2033 56.52         7.4 0.16            117            240 237 
 CHI  HZ EP       2033 26.30                             116    0.28 8  247 198 
 CHI  HN ES       2033 55.07                             116   -0.01 8  247 198 
 CHI  HZ I        2033 57.81         8.1 0.34            118            247 198 
 URE  HZ EP       2033 31.63                             112    0.81 7  294 292 
 URE  HN ES   4   2034  6.45                             112    2.84 0  294 292 
 URE  HZ I        2034  9.64        12.8 0.20            112            294 292 
 SOCV BZ EP   4   2033 30.31                             112   -0.77 0  296  55 
 SOCV BN ES   4   2034  2.35                             112   -1.73 0  296  55 
 PTGC HZ EP       2033 30.94                             111   -0.63 7  301 160 
 PTGC HE ES       2034  4.38                             111   -0.56 7  301 160 
 GUY2CHZ EP       2033 33.40                             111    0.65 7  306 237 
 GUY2CHE ES       2034  7.23                             111    0.18 7  306 237 
 GUY2CHZ I        2034 12.99         4.0 0.26                           306 237 
 ANIL HZ EP   4   2033 48.81                             107   10.02 0  360 226 
 ANIL HE ES   4   2034 18.37                             107    0.57 0  360 226 
 PRA  HZ EP   2   2033 42.83                             106    0.62 3  392 211 
 PRA  HE ES       2034 24.46                             106    0.57 6  392 211 
 PRA  HZ I        2034 28.77         9.0 0.52            107            392 211 
 ORTC HZ EP       2033 42.33                             105   -0.42 6  397 218 
 ORTC HE ES       2034 24.78                             105   -0.07 6  397 218 
 ORTC HZ I        2034 29.29         5.4 0.60            107            397 218 
 SJC  HZ EP   4   2033 42.08                             105   -3.20 0  418 326 
 SJC  HN ES   4   2034 24.21                             105   -5.14 0  418 326 
 SJC  HZ I        2034 33.24         2.5 0.60            106            418 326 
 CRJC HZ EP   4   2033 48.19                             102   -3.49 0  472   2 
 CRJC HE ES   4   2034 37.32                             102   -3.43 0  472   2 
                                                                                
