 2013  714 2212 56.8 L   6.780 -73.189150.3  RSN  5 0.3 1.4LRSN                1
 GAP=174        0.73       4.6     5.8  8.4  0.7456E+01 -0.1217E+02 -0.6963E+01E
 Epicentro: LOS SANTOS - SANTANDER                                             3
 ACTION:UPD 13-08-12 10:37 OP:ep   STATUS:               ID:20130714221256 L   I
 OLDACT:REG 13-07-14 21:24 OP:jn   STATUS:               ID:20130714220959     3
 2013-07-14-2209-59M.COL___267                                                 6
 STAT SP IPHASW D HRMM SECON CODA AMPLIT PERI AZIMU VELO AIN AR TRES W  DIS CAZ7
 GIR2 SZ EP       2213 17.00                             167   -0.0710 33.0 359 
 BRR  HZ EP       2213 18.72                             154    0.4310 68.2 302 
 BRR  HN ES       2213 35.25                             154    0.2110 68.2 302 
 BRR  HZ I        2213 38.68         7.3 0.42            155           68.2 302 
 RUS  HZ EP   1   2213 21.13                             145    0.24 7 98.9 173 
 RUS  HN ES   1   2213 39.23                             145   -0.44 7 98.9 173 
 RUS  HZ I        2213 41.65         1.7 0.46            147           98.9 173 
 PTB  HZ EP   1   2213 23.60                             134   -0.11 7  143 259 
 PTB  HN ES       2213 44.51                             134   -0.17 9  143 259 
 PTB  HZ I        2213 48.83         4.2 0.50            135            143 259 
 SML  HN ES   1   2214  1.81                             118   -0.66 6  244 337 
                                                                                
