 2015 1214 2140  7.9 L   6.936 -73.380115.2  RSN 11 0.5 2.2LRSN                1
 GAP= 91        1.27       3.8     4.4  7.6 -0.1905E+01  0.1392E+02 -0.1478E+00E
 Epicentro: SAN VICENTE DE CHUCURI - SANTANDER                                 3
 ACTION:UPD 16-02-04 15:04 OP:cam  STATUS:               ID:20151214214007 L   I
 OLDACT:UP  15-12-15 04:29 OP:mh   STATUS:               ID:20151214213745     3
 OLDACT:UP  15-12-15 04:28 OP:mh   STATUS:               ID:20151214213745     3
 OLDACT:REG 15-12-15 04:09 OP:y    STATUS:               ID:20151214213745     3
 2015-12-14-2137-45M.COL___334                                                 6
 STAT SP IPHASW D HRMM SECON CODA AMPLIT PERI AZIMU VELO AIN AR TRES W  DIS CAZ7
 BRR  HZ EP       2140 24.33                             159    0.1610 41.3 297 
 BRR  HN ES       2140 36.96                             159    0.1210 41.3 297 
 BRR  HZ I        2140 37.45        49.8 0.14            153           41.3 297 
 BAR2 EZ EP     C 2140 25.11                             158    0.4710 43.9 150 
 BAR2 EZ ES       2140 37.56                             158   -0.1110 43.9 150 
 BAR2 EZ I        2140 38.50        60.4 0.30            154           43.9 150 
 PAM  EZ EP       2140 28.40                             141    0.6610 87.3  59 
 PAM  EN ES       2140 43.22                             141    0.0310 87.3  59 
 PAM  EZ I        2140 45.95        30.9 0.38            130           87.3  59 
 RUS  HZ EP       2140 30.63                             131    0.0910  120 164 
 RUS  HN ES       2140 47.81                             131   -0.3610  120 164 
 RUS  HZ I        2140 51.04        16.6 0.21            125            120 164 
 PTB  HZ EP       2140 29.50                             129   -1.0410  127 250 
 PTB  HN ES   4   2140 45.83                             129   -2.35 0  127 250 
 OCA  HZ EP       2140 32.34                             125   -0.08 9  144   3 
 OCA  HN ES       2140 50.67                             125   -0.86 9  144   3 
 OCA  HZ I        2140 53.65        48.4 0.42            116            144   3 
 ZAR  HZ EP   1   2140 35.89                             119    0.52 7  174 291 
 ZAR  HN ES       2140 57.74                             119    0.97 9  174 291 
 ZAR  HZ I        2140 58.94        24.2 0.32            113            174 291 
 SML  HZ EP   1   2140 39.84                             113   -0.50 6  220 340 
 SML  HZ I        2141 11.26        20.2 0.09            107            220 340 
 NOR  HZ EP       2140 41.00                             112    0.11 8  224 227 
 NOR  HE ES       2141  6.84                             112    0.25 8  224 227 
 NOR  HZ I        2141  9.60        10.9 0.40            108            224 227 
 HEL  HZ EP       2140 44.66                             110    0.25 8  252 251 
 HEL  HE ES       2141 12.07                             110   -0.80 8  252 251 
 HEL  HZ I        2141 19.02         7.0 0.42            106            252 251 
 URE  HZ EP   4   2140 42.94                             109   -1.34 0  254 291 
 URE  HN ES   4   2141 10.63                             109   -2.00 0  254 291 
 URE  HZ I        2141 12.38        16.2 0.14            105            254 291 
                                                                                
