 2014  614 2239 39.0 L   6.321 -73.879 51.9  RSN  4 0.2 1.4LRSN                1
 GAP=138        0.49       2.0     1.4  6.3 -0.5026E+00  0.1533E+01 -0.2830E+00E
 Epicentro: CIMITARRA - SANTANDER                                              3
 ACTION:UPD 14-07-01 22:54 OP:nd   STATUS:               ID:20140614223939 L   I
 OLDACT:REG 14-06-15 05:25 OP:stll STATUS:               ID:20140614223817     3
 2014-06-14-2238-17M.COL___262                                                 6
 STAT SP IPHASW D HRMM SECON CODA AMPLIT PERI AZIMU VELO AIN AR TRES W  DIS CAZ7
 PTB  HZ EP       2239 51.27                             118    0.0810 68.3 291 
 PTB  HN ES       2240  0.79                             118    0.0610 68.3 291 
 PTB  HZ I        2240  1.47        12.3 0.12            107           68.3 291 
 SPBC HZ EP       2239 52.17                             115   -0.0810 77.0 196 
 SPBC HN ES       2240  2.68                             115    0.0610 77.0 196 
 SPBC HZ I        2240  4.13        12.8 0.36            106           77.0 196 
 BAR2 SZ EP       2239 53.33                             113    0.2510 82.7  69 
 BAR2 SZ ES       2240  3.85                             113   -0.2410 82.7  69 
 BAR2 SZ I        2240  5.93        12.4 0.28            105           82.7  69 
 HEL  HZ EP       2240  5.41                              97    0.10 9  183 266 
 HEL  HE ES       2240 25.59                              97   -0.27 9  183 266 
 HEL  HZ I        2240 32.58         3.3 0.76             56            183 266 
                                                                                
