 2011 1214 2343 16.9 L   6.814 -73.137140.6  RSN 11 0.4 2.8LRSN                1
 GAP=137        0.60       3.4     4.7  5.9 -0.4905E+01  0.8504E+01  0.5763E+01E
 Epicentro: LOS SANTOS - SANTANDER                                             3
 ACTION:UPD 12-07-13 16:16 OP:ep   STATUS:               ID:20111214234316 L   I
 2011-12-14-2340-00M.COL___185                                                 6
 STAT SP IPHASW D HRMM SECON CODA AMPLIT PERI AZIMU VELO AIN AR TRES W  DIS CAZ7
 BAR2 SZ EP   1   2343 35.64                             169   -0.26 7 25.1 192 
 BAR2 SZ I        2343 52.04       157.8 0.25                          25.1 192 
 GIR2 SZ EP   1   2343 35.55                             167   -0.32 7 29.9 348 
 GIR2 SZ ES   2   2343 50.68                             167   -0.02 5 29.9 348 
 BRR  HZ EP       2343 37.33                             151   -0.1210 71.3 297 
 BRR  HN ES   2   2343 53.63                             151    0.12 5 71.3 297 
 BRR  HZ I        2343 57.70       209.9 0.16                          71.3 297 
 PAM  SZ EP   1   2343 38.28                             150   -0.13 7 75.5  40 
 PAM  SN ES   2   2343 55.09                             150   -0.13 5 75.5  40 
 PAM  SZ I        2343 57.15        94.7 0.36                          75.5  40 
 RUS  HZ EP   1   2343 40.23                             142    0.02 7  102 177 
 RUS  HN ES   2   2343 59.16                             142    0.73 5  102 177 
 RUS  HZ I        2344  1.64        37.8 0.25                           102 177 
 OCA  SZ EP   1   2343 45.49                             129    0.86 7  159 353 
 NOR  SZ EP   1   2343 51.99                             117   -0.48 6  236 234 
 NOR  SN ES   2   2344 19.43                             117   -0.82 4  236 234 
 CHI  HZ EP   1   2343 54.35                             116   -0.11 6  250 195 
 CHI  HN ES   2   2344 24.02                             116    0.22 4  250 195 
 CHI  HZ I        2344 28.31        15.1 0.31                           250 195 
 HEL  HZ EP   1   2343 57.01                             113    0.06 6  273 256 
 HEL  HN ES   2   2344 28.56                             113    0.33 4  273 256 
 HEL  HZ I        2344 34.80        28.8 0.33                           273 256 
 GUY  SZ EP   1   2344  0.61                             111   -0.07 5  305 235 
 GUY  SN ES   2   2344 35.44                             111    0.57 4  305 235 
 GUY  SZ I        2344 43.04        44.8 0.39                           305 235 
 PRA  HZ EP   1   2344 10.82                             105    0.40 4  394 210 
 PRA  HN ES       2344 52.31                             105    0.12 6  394 210 
 PRA  HZ I        2344 57.72        50.2 0.20                           394 210 
                                                                                
