 2016  514 2025 19.4 L   6.383 -73.663103.7  RSN 11 0.4 2.2LRSN                1
 GAP= 64        1.09       2.5     2.8  6.1 -0.1352E+01  0.3922E+01 -0.8689E+00E
 Epicentro: SANTA HELENA DEL OPON - SANTANDER                                  3
 ACTION:UPD 16-08-18 17:45 OP:cam  STATUS:               ID:20160514202519 L   I
 OLDACT:REG 16-05-15 02:45 OP:ar   STATUS:               ID:20160514201743     3
 2016-05-14-2017-43M.COL___309                                                 6
 STAT SP IPHASW D HRMM SECON CODA AMPLIT PERI AZIMU VELO AIN AR TRES W  DIS CAZ7
 BAR2 EZ EP       2025 35.75                             149    0.0910 57.9  66 
 BAR2 EZ ES       2025 48.55                             149    0.2310 57.9  66 
 BAR2 EZ I        2025 49.57       122.2 0.14            149           57.9  66 
 BRR  HZ EP       2025 36.76                             139   -0.1710 80.2 356 
 BRR  HN ES       2025 51.18                             139    0.6010 80.2 356 
 BRR  HZ I        2025 51.81        25.8 0.12            138           80.2 356 
 RUS  HZ EP       2025 37.64                             138   -0.2710 84.0 130 
 RUS  HE ES       2025 52.35                             138    0.0210 84.0 130 
 PTB  HZ EP       2025 36.77                             136   -0.9410 89.5 281 
 PTB  HN ES       2025 51.09                             136   -0.8810 89.5 281 
 PTB  HZ I        2025 53.23        33.5 0.44            135           89.5 281 
 SPBC HZ EP       2025 37.91                             135   -0.1810 92.7 209 
 SPBC HE ES       2025 52.57                             135   -0.0810 92.7 209 
 SPBC HZ I        2025 54.76        56.5 0.32            135           92.7 209 
 PAM  EZ EP       2025 44.25                             120    0.04 9  150  45 
 PAM  EN ES       2026  3.24                             120   -0.29 9  150  45 
 PAM  EZ I        2026  7.99        11.5 0.18            120            150  45 
 NOR  HZ EP       2025 45.20                             118    0.34 9  161 236 
 NOR  HN ES       2026  4.98                             118    0.28 9  161 236 
 NOR  HZ I        2026  7.37        20.9 0.16            118            161 236 
 ZAR  HZ EP       2025 47.16                             115    0.30 9  180 313 
 ZAR  HN ES       2026  8.89                             115    0.63 9  180 313 
 ZAR  HZ I        2026 12.81        22.4 0.42            114            180 313 
 CHI  HZ EP       2025 48.68                             113   -0.24 9  194 182 
 CHI  HN ES       2026 12.69                             113    0.76 9  194 182 
 CHI  HZ I        2026 15.43         9.8 0.24            113            194 182 
 HEL  HZ EP       2025 50.29                             111   -0.10 8  208 264 
 HEL  HN ES       2026 14.89                             111    0.34 8  208 264 
 HEL  HZ I        2026 18.35        11.6 0.34            111            208 264 
 OCA  HZ EP       2025 50.09                             111   -0.16 8  209  10 
 OCA  HE ES       2026 14.43                             111    0.14 8  209  10 
 OCA  HZ I        2026 20.61        39.9 0.32            110            209  10 
                                                                                
