 2013 1214 2251  1.4 L   6.721 -73.386120.1  RSN  5 0.5 1.3LRSN                1
 GAP=162        1.30       7.3     7.0 11.1  0.1346E+02  0.2903E+02  0.2393E+02E
 Epicentro: EL CARMEN DE CHUCURI - SANTANDER                                   3
 ACTION:UPD 14-01-13 10:18 OP:ep   STATUS:               ID:20131214225101 L   I
 OLDACT:UP  13-12-16 03:55 OP:stll STATUS:               ID:20131214225101 L   3
 OLDACT:DUP 13-12-15 00:43 OP:stll STATUS:               ID:20131214224812d    3
 2013-12-14-2248-11M.COL___247                                                 6
 STAT SP IPHASW D HRMM SECON CODA AMPLIT PERI AZIMU VELO AIN AR TRES W  DIS CAZ7
 BAR2 SZ EP       2251 18.34                             167    0.3310 26.6 122 
 BAR2 SZ ES       2251 31.36                             167    0.3710 26.6 122 
 BAR2 SZ I        2251 32.24        18.5 0.28            166           26.6 122 
 BRR  HZ EP       2251 19.17                             153    0.2910 55.9 320 
 BRR  HN ES       2251 32.36                             153   -0.1810 55.9 320 
 RUS  HZ EP       2251 22.77                             139    0.3310 97.5 160 
 RUS  HN ES       2251 38.18                             139   -0.7010 97.5 160 
 RUS  HZ I        2251 40.43         1.1 0.64            138           97.5 160 
 PTB  HZ EP       2251 22.75                             132   -0.9810  120 260 
 PTB  HE ES   1   2251 41.15                             132   -0.02 7  120 260 
 NOR  HN ES       2251 57.97                             116    0.67 8  208 232 
 NOR  HZ I        2252  4.29         2.1 0.18            115            208 232 
                                                                                
