 2016  914 2027 37.3 L   6.766 -73.164141.0  RSN  8 0.3 1.8LRSN                1
 GAP=136        0.73       3.2     3.2  5.4 -0.2371E+01  0.6331E+01 -0.8438E+00E
 Epicentro: LOS SANTOS - SANTANDER                                             3
 ACTION:UPD 17-08-17 21:11 OP:lp   STATUS:               ID:20160914202737 L   I
 OLDACT:REG 16-09-15 19:28 OP:lv   STATUS:               ID:20160914201736     3
 2016-09-14-2018-00M.COL___330                                                 6
 STAT SP IPHASW D HRMM SECON CODA AMPLIT PERI AZIMU VELO AIN AR TRES W  DIS CAZ7
 BAR2 EZ EP       2027 56.15                             172   -0.1310 19.3 186 
 BAR2 EZ ES       2028 10.83                             172   -0.2510 19.3 186 
 BAR2 EZ I        2028 12.20        22.6 0.16            173           19.3 186 
 BRR  HZ EP   2   2027 58.37                             152    0.43 5 71.3 302 
 BRR  HZ I        2028 16.82         7.7 0.12            145           71.3 302 
 PAM  EZ EP       2027 59.30                             149    0.0310 81.6  39 
 PAM  EN ES       2028 16.58                             149    0.1710 81.6  39 
 PAM  EZ I        2028 19.25         5.9 0.42            146           81.6  39 
 RUS  HZ EP       2028  0.20                             144   -0.1210 97.0 175 
 RUS  HN ES       2028 18.43                             144    0.1510 97.0 175 
 RUS  HZ I        2028 19.56        16.0 0.32            147           97.0 175 
 PTB  HZ EP       2028  3.19                             131   -0.44 9  145 260 
 PTB  HE ES       2028 23.75                             131   -0.42 9  145 260 
 PTB  HZ I        2028 29.01        10.2 0.18            128            145 260 
 SPBC HZ EP       2028  4.96                             129   -0.07 9  159 219 
 SPBC HE ES       2028 27.28                             129    0.62 9  159 219 
 SPBC HZ I        2028 30.67         8.1 0.44            128            159 219 
 ZAR  HZ EP   2   2028  9.47                             121    0.08 4  204 293 
 ZAR  HN ES       2028 34.88                             121    0.46 9  204 293 
 ZAR  HZ I        2028 41.47        10.3 0.26            118            204 293 
 NOR  HZ EP   2   2028 12.81                             118    0.48 4  231 235 
 NOR  HN ES       2028 39.51                             118   -0.15 8  231 235 
 NOR  HZ I        2028 46.80         7.0 0.18            116            231 235 
                                                                                
