 2011  214 2145 51.7 L   6.814 -73.275115.1  RSN  7 0.4 1.7LRSN                1
 GAP=134        0.90       4.5     9.0  9.0 -0.2164E+02  0.2994E+02 -0.6832E+01E
 Epicentro: ZAPATOCA - SANTANDER                                               3
 ACTION:UP  11-03-28 15:08 OP:jfem STATUS:               ID:20110214214551 L   I
 2011-02-14-2140-40S.COL___136                                                 6
 STAT SP IPHASW D HRMM SECON CODA AMPLIT PERI AZIMU VELO SNR AR TRES W  DIS CAZ7
 BTL  SZ IP       2146  8.01                             174     0.610   12   4 
 BAR2 SZ EP       2146  7.48                             166    -0.210   27 158 
 BAR2 SZ ES   1   2146 20.13                             166    -0.1 7   27 158 
 GIR2 SZ EP       2146  7.07                             164    -0.610   31  17 
 RUS  HZ EP       2146 12.86                             135     0.010  104 168 
 RUS  HE ES   1   2146 29.66                             135     0.3 7  104 168 
 RUS  HZ I        2146 31.17         5.4 0.20                           104 168 
 GRA  SZ EP       2146 14.85                             128     0.210  129  24 
 GRA  SZ ES   1   2146 32.60                             128    -0.1 7  129  24 
 GRA  SZ I        2146 34.78        11.5 0.27                           129  24 
 NOR  SZ EP   2   2146 25.45                             112     0.8 4  224 232 
 NOR  SN ES   1   2146 50.17                             112    -0.2 6  224 232 
 CHI  HZ EP   1   2146 27.39                             110    -0.3 6  247 192 
 CHI  HZ I        2146 27.94         4.2 0.16                           247 192 
 CHI  HE ES   2   2146 55.48                             110    -0.2 4  247 192 
                                                                                
