 2014 1214 2020  3.0 L   6.786 -73.146147.8  RSN  8 0.4 1.9LRSN                1
 GAP=137        0.97       3.1     4.7  6.1 -0.2464E+01  0.4649E+01 -0.1878E+01E
 Epicentro: LOS SANTOS - SANTANDER                                             3
 ACTION:UPD 15-02-10 17:03 OP:nd   STATUS:               ID:20141214202003 L   I
 OLDACT:REG 14-12-15 05:47 OP:carl STATUS:               ID:20141214201742     3
 2014-12-14-2017-42M.COL___288                                                 6
 STAT SP IPHASW D HRMM SECON CODA AMPLIT PERI AZIMU VELO AIN AR TRES W  DIS CAZ7
 BAR2 EZ EP       2020 22.90                             171    0.0210 21.8 191 
 BAR2 EZ ES       2020 38.15                             171   -0.2110 21.8 191 
 BAR2 EZ I        2020 40.51        19.2 0.26            173           21.8 191 
 BRR  HZ EP       2020 24.79                             153    0.3510 71.9 300 
 BRR  HN ES       2020 42.03                             153    0.8910 71.9 300 
 BRR  HZ I        2020 45.87        15.0 0.32            153           71.9 300 
 PAM  SZ EP       2020 25.76                             151    0.2210 78.6  39 
 PAM  SN ES       2020 42.70                             151   -0.4010 78.6  39 
 PAM  SZ I        2020 46.78         8.8 0.52            153           78.6  39 
 RUS  HZ EP       2020 26.83                             145   -0.0510 99.0 176 
 RUS  HN ES       2020 45.38                             145   -0.1010 99.0 176 
 RUS  HZ I        2020 46.23         5.4 0.54            149           99.0 176 
 PTB  HZ EP       2020 29.66                             132   -0.47 9  147 259 
 PTB  HN ES       2020 50.88                             132   -0.40 9  147 259 
 PTB  HZ I        2020 53.14         8.9 0.10            135            147 259 
 SPBC HZ EP       2020 31.81                             130    0.24 9  162 219 
 SPBC HN ES       2020 53.83                             130   -0.00 9  162 219 
 SPBC HZ I        2020 55.18        14.5 0.26            133            162 219 
 OCA  HZ EP       2020 32.02                             130    0.38 9  162 353 
 OCA  HN ES       2020 53.80                             130   -0.16 9  162 353 
 OCA  HZ I        2020 56.35        10.9 0.18            132            162 353 
 SML  HN ES       2021  8.15                             118   -0.55 8  245 335 
                                                                                
