 2010  514 2052 55.0 L   6.792 -72.951135.2  RSN  4 0.2 1.7LRSN                1
 GAP=187        0.45       4.3     8.5  8.1  0.2116E+02 -0.4426E+02 -0.1961E+02E
 Epicentro: CEPITA - SANTANDER                                                 3
 ACTION:UP  10-08-24 10:05 OP:vdl  STATUS:               ID:20100514205255 L   I
 2010-05-14-2050-42S.COL___108                                                 6
 STAT SP IPHASW D HRMM SECON CODA AMPLIT PERI AZIMU VELO AIN AR TRES W  DIS CAZ7
 BAR2 SZ EP   2   2053 13.76                             165     0.1 5   34 229 
 BAR2 SZ ES   2   2053 28.40                             165     0.2 5   34 229 
 BRR  HZ EP   1   2053 16.19                             144    -0.2 7   91 293 
 BRR  HZ I        2053 19.06        19.6 0.41                            91 293 
 BRR  HN ES   1   2053 33.04                             144     0.1 7   91 293 
 RUS  HZ EP   1   2053 18.01                             141     0.3 7  100 188 
 RUS  HN ES   1   2053 35.21                             141    -0.2 7  100 188 
 RUS  HZ I        2053 38.07         5.4 0.18                           100 188 
 GUE  SZ EP   1   2053 18.55                             137    -0.1 7  115   1 
                                                                                
