 2017  714 2339 52.7 L   6.751 -73.166153.2  RSN  4 0.3 1.1LRSN                1
 GAP=231        0.86       7.0     6.6  6.9  0.2270E+02  0.3410E+01  0.2065E+00E
 Epicentro: LOS SANTOS - SANTANDER                                             3
 ACTION:UPD 17-08-30 15:33 OP:rebc STATUS:               ID:20170714233952 L   I
 OLDACT:REG 17-07-15 03:52 OP:osc  STATUS:               ID:20170714233741     3
 2017-07-14-2338-00M.COL___383                                                 6
 STAT SP IPHASW D HRMM SECON CODA AMPLIT PERI AZIMU VELO AIN AR TRES W  DIS CAZ7
 BAR2 EZ EP       2340 12.42                             173   -0.6910 17.6 186 
 BAR2 EZ ES       2340 28.92                             173   -0.1110 17.6 186 
 BRR  HZ EP       2340 14.88                             153    0.2010 72.1 303 
 BRR  HE ES       2340 32.12                             153    0.2810 72.1 303 
 RUS  HZ EP       2340 17.23                             147    0.4210 95.3 174 
 RUS  HN ES       2340 35.71                             147    0.0810 95.3 174 
 RUS  HZ I        2340 37.20         1.8 0.28            146           95.3 174 
 PTB  HZ EP       2340 19.96                             134   -0.02 9  145 261 
 PTB  HE ES       2340 41.09                             134   -0.19 9  145 261 
 PTB  HZ I        2340 41.82         1.4 0.16            134            145 261 
                                                                                
