 2015  214 2010  0.6 L   7.214 -73.005165.8  RSN  4 0.3 2.0LRSN                1
 GAP=128        0.68       4.2     6.5  8.0 -0.8858E+01  0.3486E+02 -0.1528E+02E
 Epicentro: TONA - SANTANDER                                                   3
 ACTION:UPD 15-04-30 21:26 OP:nd   STATUS:               ID:20150214201000 L   I
 OLDACT:REG 15-02-15 03:55 OP:cam  STATUS:               ID:20150214195749     3
 2015-02-14-1957-49M.COL___302                                                 6
 STAT SP IPHASW D HRMM SECON CODA AMPLIT PERI AZIMU VELO AIN AR TRES W  DIS CAZ7
 PAM  SN ES       2010 41.31                             167    0.3110 36.5  68 
 PAM  SN I        2010 41.70        14.6 0.20            170           36.5  68 
 BAR2 EZ ES       2010 42.36                             156   -0.4210 71.5 196 
 BAR2 EZ I        2010 43.79        18.6 0.26            156           71.5 196 
 PTB  HZ EP       2010 31.99                             131    0.17 9  177 245 
 PTB  HN ES       2010 56.42                             131    0.23 9  177 245 
 PTB  HZ I        2010 58.62         8.1 0.18            131            177 245 
 SML  HZ EP       2010 34.91                             125   -0.17 8  211 326 
 SML  HN ES       2011  1.88                             125   -0.12 8  211 326 
                                                                                
