 2017  314 2241 26.4 L   6.360 -73.623110.1  RSN  9 0.4 1.5LRSN                1
 GAP= 82        0.61       2.6     2.6  5.1  0.2000E+01  0.5579E+01  0.3506E+01E
 Epicentro: SANTA HELENA DEL OPON - SANTANDER                                  3
 ACTION:UPD 17-05-25 18:40 OP:jn   STATUS:               ID:20170314224126 L   I
 OLDACT:UP  17-03-15 04:32 OP:and  STATUS:               ID:20170314223740     3
 OLDACT:UP  17-03-15 04:32 OP:and  STATUS:               ID:20170314223740     3
 OLDACT:UP  17-03-15 04:32 OP:and  STATUS:               ID:20170314223740     3
 OLDACT:UP  17-03-15 04:31 OP:and  STATUS:               ID:20170314223740     3
 OLDACT:UP  17-03-15 04:30 OP:and  STATUS:               ID:20170314223740     3
 OLDACT:UP  17-03-15 04:30 OP:and  STATUS:               ID:20170314223740     3
 OLDACT:REG 17-03-15 02:53 OP:and  STATUS:               ID:20170314223740     3
 2017-03-14-2238-00M.COL___376                                                 6
 STAT SP IPHASW D HRMM SECON CODA AMPLIT PERI AZIMU VELO AIN AR TRES W  DIS CAZ7
 BAR2 EZ ES       2241 56.20                             151    0.0110 55.1  62 
 BAR2 EZ I        2241 57.58        26.3 0.22            154           55.1  62 
 RUS  HZ EP       2241 45.26                             142    0.1610 79.0 131 
 RUS  HN ES       2241 59.54                             142   -0.1410 79.0 131 
 RUS  HZ I        2242  1.21         2.3 0.28            144           79.0 131 
 BRR  HZ EP       2241 44.44                             140   -0.2910 83.2 353 
 BRR  HE ES       2241 59.42                             140    0.3910 83.2 353 
 SPBC HZ EP       2241 45.70                             137    0.0710 92.8 212 
 SPBC HN ES   2   2242  0.03                             137   -0.60 5 92.8 212 
 SPBC HZ I        2242  2.25         8.8 0.15            137           92.8 212 
 PTB  HZ IP   3 C 2241 44.47                             136   -1.19 2 94.3 282 
 PTB  HN ES       2242  0.60                             136   -0.0810 94.3 282 
 PTB  HZ I        2242  1.26         9.1 0.10            136           94.3 282 
 PAM  EZ EP   2   2241 51.64                             122    0.18 5  149  43 
 NOR  HZ EP       2241 52.55                             119    0.09 9  164 238 
 NOR  HN ES   3   2242 13.30                             119    0.53 2  164 238 
 NOR  HZ I        2242 14.72         3.8 0.24            120            164 238 
 ZAR  HN ES       2242 16.67                             116   -0.14 9  185 313 
 ZAR  HZ I        2242 20.78         6.5 0.34            117            185 313 
 GUY2CHN ES   3   2242 28.66                             110    1.80 2  230 237 
 GUY2CHZ  IAML    2242 32.75         1.7 0.42                           230 237 
                                                                                
