 2014 1014 2047 39.8 L   6.827 -73.189138.3  RSN  5 0.3 1.5LRSN                1
 GAP=146        0.73       4.0     4.1  6.2 -0.7231E+01  0.7352E+01 -0.2695E+01E
 Epicentro: ZAPATOCA - SANTANDER                                               3
 ACTION:UPD 14-11-29 23:49 OP:nd   STATUS:               ID:20141014204739 L   I
 OLDACT:DUP 14-10-15 05:52 OP:stll STATUS:               ID:20141014203747d    3
 2014-10-14-2037-46M.COL___288                                                 6
 STAT SP IPHASW D HRMM SECON CODA AMPLIT PERI AZIMU VELO AIN AR TRES W  DIS CAZ7
 BAR2 SZ EP       2047 58.64                             169    0.0610 26.0 178 
 BAR2 SZ ES       2048 13.33                             169    0.0910 26.0 178 
 BAR2 SZ I        2048 14.35        10.5 0.34            156           26.0 178 
 PAM  SZ I        2048  1.55         7.4 0.22            158           78.3  44 
 PAM  SZ EP       2048  1.57                             149    0.3010 78.3  44 
 PAM  SN ES       2048 17.98                             149   -0.0510 78.3  44 
 RUS  HZ EP       2048  2.79                             141   -0.2810  104 174 
 RUS  HN ES       2048 20.97                             141   -0.2710  104 174 
 RUS  HZ I        2048 22.93         3.2 0.40            132            104 174 
 PTB  HZ EP       2048  5.65                             131   -0.13 9  144 257 
 PTB  HN ES       2048 25.80                             131   -0.26 9  144 257 
 PTB  HZ I        2048 32.61         2.6 0.42            123            144 257 
 SPBC HN ES       2048 30.02                             127    0.60 9  163 217 
 SPBC HZ I        2048 32.24         3.9 0.14            119            163 217 
                                                                                
