 2010  814 2123 17.2 L   6.766 -73.078145.7  RSN  9 0.3 2.3LRSN                1
 GAP=167        0.69       2.9     5.8  4.9 -0.4041E+01 -0.3103E+01  0.2218E+01E
 Epicentro: LOS SANTOS - SANTANDER                                             3
 ACTION:UP  10-09-07 10:54 OP:vdl  STATUS:               ID:20100814212316 L   I
 2010-08-14-2119-22S.COL___110                                                 6
 STAT SP IPHASW D HRMM SECON CODA AMPLIT PERI AZIMU VELO SNR AR TRES W  DIS CAZ7
 BAR2 SZ EP       2123 36.81                             171     0.010   23 211 
 GIR2 SZ EP   1   2123 37.07                             165     0.0 7   37 340 
 GIR2 SZ ES       2123 52.26                             165    -0.310   37 340 
 BRR  HZ EP   1   2123 38.96                             150     0.1 7   80 298 
 BRR  HE ES       2123 55.80                             150     0.010   80 298 
 RUS  HZ EP   1   2123 40.68                             145     0.0 7   97 180 
 RUS  HZ I        2123 41.87        13.6 0.18                            97 180 
 RUS  HN ES   1   2123 59.19                             145     0.2 7   97 180 
 GUE  SZ EP   1   2123 41.99                             139    -0.1 7  119   8 
 GRA  SZ IP     C 2123 42.96                             137     0.310  127  14 
 GRA  SZ I        2123 44.35        38.3 0.34                           127  14 
 GRA  SZ ES       2124  2.53                             137     0.110  127  14 
 OCA  SZ EP   1   2123 45.61                             129    -0.4 7  165 351 
 OCA  SZ ES       2124  8.21                             129    -0.2 9  165 351 
 OCA  SZ I        2124 12.45        34.4 0.27                           165 351 
 HEL  HZ EP   1   2123 59.01                             115     0.8 6  278 257 
 HEL  HZ I        2124 35.52        11.1 0.33                           278 257 
 PRA  HZ EP   1   2124 10.46                             107    -0.4 4  393 211 
 PRA  HE ES   2   2124 51.53                             107    -1.1 3  393 211 
 PRA  HZ I        2124 57.04         8.9 0.77                           393 211 
                                                                                
