 2016 1014 2246 28.4 L   6.966 -73.159130.4  RSN  6 0.2 1.3LRSN                1
 GAP=125        0.55       2.5     2.3  4.1  0.8087E-02  0.1787E+01  0.1246E+01E
 Epicentro: GIRON - SANTANDER                                                  3
 ACTION:UPD 16-11-09 19:19 OP:rebc STATUS:               ID:20161014224628 L   I
 OLDACT:UP  16-10-15 09:24 OP:dani STATUS:               ID:20161014223734d    3
 OLDACT:DUP 16-10-15 09:20 OP:dani STATUS:               ID:20161014223734d    3
 OLDACT:UP  16-10-15 09:19 OP:dani STATUS:               ID:20161014223733     3
 OLDACT:REG 16-10-15 08:04 OP:dani STATUS:               ID:20161014223733     3
 2016-10-14-2238-00M.COL___374                                                 6
 STAT SP IPHASW D HRMM SECON CODA AMPLIT PERI AZIMU VELO AIN AR TRES W  DIS CAZ7
 BRR  HZ EP       2246 47.17                             152   -0.2910 63.0 284 
 BRR  HN ES       2247  2.28                             152   -0.0210 63.0 284 
 BRR  HZ I        2247  5.35         5.8 0.45            152           63.0 284 
 PAM  EZ EP       2246 48.50                             151    0.1910 65.5  51 
 PAM  EN ES       2247  3.91                             151    0.1010 65.5  51 
 PAM  EZ I        2247  6.50         2.9 0.15            154           65.5  51 
 RUS  HZ EP       2246 52.15                             135   -0.0610  119 176 
 RUS  HE ES       2247 10.61                             135   -0.1510  119 176 
 RUS  HZ I        2247 12.52         1.4 0.28            138            119 176 
 PTB  HZ EP   9   2246 53.47                             127   -1.03 0  151 252 
 PTB  HE ES       2247 13.41                             127   -0.39 9  151 252 
 PTB  HZ I        2247 16.05         4.3 0.29            129            151 252 
 ZAR  HZ EP       2246 59.11                             119   -0.00 9  196 287 
 ZAR  HE ES       2247 23.05                             119    0.00 9  196 287 
 ZAR  HZ I        2247 28.13         3.2 0.16            121            196 287 
 NOR  HE ES       2247 32.82                             114    0.33 8  245 231 
                                                                                
