 2012  714 2100  5.5 L   6.765 -73.203127.6  RSN  4 0.2 1.2LRSN                1
 GAP=228        0.47       4.6     4.9  8.0  0.1184E+02 -0.9526E+01 -0.1889E+01E
 Epicentro: VILLANUEVA - SANTANDER                                             3
 ACTION:UPD 12-08-14 11:44 OP:ep   STATUS:               ID:20120714210005 L   I
 2012-07-14-2100-00M.COL___197                                                 6
 STAT SP IPHASW D HRMM SECON CODA AMPLIT PERI AZIMU VELO AIN AR TRES W  DIS CAZ7
 BAR2 SZ EP   1   21 0 22.85                             171     0.0 7   19 173 
 BAR2 SZ I        21 0 23.18         5.5 0.23            168             19 173 
 BRR  HZ EP   1   21 0 24.74                             150     0.3 7   68 304 
 BRR  HN ES   1   21 0 39.16                             150    -0.1 7   68 304 
 RUS  HZ EP   1   21 0 26.98                             141    -0.3 7   97 172 
 RUS  HN ES   1   21 0 44.36                             141     0.1 7   97 172 
 RUS  HZ I        21 0 47.18         2.5 0.27            141             97 172 
 PTB  HE ES   1   21 0 49.77                             129     0.0 7  141 260 
