 2012 1114 2146 52.6 L   6.808 -73.164147.4  RSN  8 0.4 1.8LRSN                1
 GAP=134        0.72       3.2     4.1  5.7  0.9015E+00  0.3564E+01 -0.1307E+00E
 Epicentro: LOS SANTOS - SANTANDER                                             3
 ACTION:UPD 12-12-05 15:33 OP:}ep  STATUS:               ID:20121114214652 L   I
 2012-11-14-2140-00M.COL___229                                                 6
 STAT SP IPHASW D HRMM SECON CODA AMPLIT PERI AZIMU VELO AIN AR TRES W  DIS CAZ7
 BAR2 SZ ES   1   2147 27.83                             170   -0.08 7 23.9 185 
 BAR2 SZ I        2147 30.17        19.5 0.28                          23.9 185 
 BRR  HZ EP   1   2147 14.50                             154    0.69 7 69.0 299 
 BRR  HE ES   1   2147 30.59                             154    0.25 7 69.0 299 
 PAM  SZ EP       2147 15.20                             151    0.1710 78.0  41 
 PAM  SN ES   1   2147 32.51                             151   -0.01 7 78.0  41 
 PAM  SZ I        2147 34.68         6.9 0.48                          78.0  41 
 RUS  HZ EP   1   2147 16.30                             144   -0.28 7  102 175 
 RUS  HN ES   1   2147 35.00                             144   -0.29 7  102 175 
 RUS  HZ I        2147 36.17         4.0 0.20                           102 175 
 PTB  HZ EP   1   2147 19.33                             133   -0.21 7  146 258 
 PTB  HN ES   1   2147 39.97                             133   -0.58 7  146 258 
 PTB  HZ I        2147 46.31         8.0 0.24                           146 258 
 ZAR  HE ES   1   2147 50.63                             123    0.49 6  202 292 
 ZAR  HZ I        2147 56.73         6.1 0.32                           202 292 
 SML  HZ EP   1   2147 28.59                             118   -0.56 6  242 336 
 SML  HN ES   1   2147 57.23                             118   -0.42 6  242 336 
 SML  HZ I        2148  1.06        14.2 0.10                           242 336 
 CHI  HZ EP   1   2147 30.59                             117    0.17 6  249 195 
 CHI  HE ES   1   2148  0.33                             117    0.41 6  249 195 
 CHI  HZ I        2148  9.78         1.9 0.38                           249 195 
                                                                                
