 2010 1014 2151  4.4 L   6.784 -73.109142.2  RSN  5 0.5 1.9LRSN                1
 GAP=228        1.40      10.0    19.9 14.4  0.1010E+03 -0.7032E+02  0.3980E+01E
 Epicentro: LOS SANTOS - SANTANDER                                             3
 ACTION:UP  11-02-18 11:09 OP:tino STATUS:               ID:20101014215104 L   I
 2010-10-14-2146-16S.COL___128                                                 6
 STAT SP IPHASW D HRMM SECON CODA AMPLIT PERI AZIMU VELO SNR AR TRES W  DIS CAZ7
 BAR2 SZ EP       2151 23.30                             171    -0.310   23 201 
 BAR2 SZ ES   1   2151 38.02                             171    -0.5 7   23 201 
 BAR2 SZ I        2151 40.60        16.7 0.17                            23 201 
 BTL  SZ EP       2151 24.54                             171     1.010   23 310 
 BRR  HZ EP       2151 24.90                             151    -0.510   76 298 
 BRR  HZ I        2151 25.24        31.6 0.21                            76 298 
 BRR  HN ES       2151 41.94                             151     0.110   76 298 
 RUS  HZ EP       2151 27.45                             144    -0.210   99 178 
 RUS  HN ES   1   2151 46.08                             144     0.3 7   99 178 
 RUS  HZ I        2151 47.60         6.4 0.66                            99 178 
 CHI  HN ES   1   2152 11.23                             116     0.2 6  248 196 
 CHI  HZ I        2152 13.36         4.5 0.43                           248 196 
                                                                                
