 2012 1114 2010 14.0 L   6.665 -74.154 69.5  RSN 10 0.3 2.0LRSN                1
 GAP= 69        0.71       2.2     2.0  5.3  0.8458E-01 -0.9909E+00  0.1259E+01E
 Epicentro: PUERTO PARRA - SANTANDER                                           3
 ACTION:UPD 12-12-05 15:33 OP:}ep  STATUS:               ID:20121114201014 L   I
 2012-11-14-2010-00M.COL___229                                                 6
 STAT SP IPHASW D HRMM SECON CODA AMPLIT PERI AZIMU VELO AIN AR TRES W  DIS CAZ7
 PTB  HZ IP     D 2010 24.52                             149   -0.4110 36.2 247 
 PTB  HN ES   1   2010 33.14                             149   -0.31 7 36.2 247 
 PTB  HZ I        2010 34.54        37.8 0.24                          36.2 247 
 BRR  HZ IP       2010 27.41                             130   -0.1410 69.1  45 
 BRR  HN ES   1   2010 38.51                             130    0.40 7 69.1  45 
 BRR  HN I        2010 39.09        90.8 0.18                          69.1  45 
 BAR2 SZ IP       2010 32.06                             117    0.1910  108  94 
 BAR2 SZ ES   1   2010 45.99                             117    0.20 7  108  94 
 BAR2 SZ I        2010 47.11        61.3 0.40                           108  94 
 ZAR  HZ EP       2010 32.85                             113   -0.1010  120 320 
 ZAR  HE ES   1   2010 48.21                             113    0.50 7  120 320 
 ZAR  HZ I        2010 49.07        40.4 0.42                           120 320 
 RUS  HZ EP       2010 36.37                             109   -0.18 9  146 126 
 RUS  HN ES   1   2010 53.82                             109   -0.31 7  146 126 
 RUS  HZ I        2010 55.93         6.7 0.24                           146 126 
 HEL  HZ EP   1   2010 37.72                             107   -0.41 7  161 251 
 HEL  HN ES   1   2010 57.70                             107    0.76 7  161 251 
 HEL  HZ I        2011  0.01        10.0 0.30                           161 251 
 PAM  SZ EP   2   2010 39.92                             105   -0.30 4  177  65 
 PAM  SN ES   1   2011  0.96                             105    0.31 7  177  65 
 PAM  SZ I        2011  2.60        14.7 0.36                           177  65 
 CHI  HZ EP   1   2010 46.68                             101    0.21 6  230 168 
 CHI  HN ES   1   2011 12.14                             101    0.35 6  230 168 
 CHI  HN I        2011 21.79         7.9 0.22                           230 168 
 SML  HZ EP   1   2010 46.21                             100   -0.53 6  236   2 
 SML  HN ES   1   2011 12.23                             100   -0.04 6  236   2 
 SML  HZ I        2011 17.23        20.3 0.10                           236   2 
 PRA  HN ES   1   2011 34.47                              97    0.38 5  336 194 
                                                                                
