 2011  115 0217 12.9 L   6.745 -73.119147.9  RSN  5 0.3 1.6LRSN                1
 GAP=162        0.70       3.4    18.4  7.3 -0.1495E+02  0.1649E+02 -0.7088E+01E
 Epicentro: JORDAN - SANTANDER                                                 3
 ACTION:UP  11-02-08 08:40 OP:pat  STATUS:               ID:20110115021712 L   I
 2011-01-15-0213-47S.COL___135                                                 6
 STAT SP IPHASW D HRMM SECON CODA AMPLIT PERI AZIMU VELO SNR AR TRES W  DIS CAZ7
 BAR2 SZ EP   2    217 32.50                             173    -0.2 6   18 203 
 BAR2 SZ ES   1    217 47.87                             173    -0.3 8   18 203 
 RUS  HZ EP   1    217 36.66                             146     0.2 8   94 178 
 RUS  HN ES   1    217 54.94                             146     0.1 8   94 178 
 RUS  HZ I         217 56.56         5.3 0.36                            94 178 
 GRA  SZ EP   1    217 38.88                             136     0.1 8  131  15 
 OCA  SZ EP        217 41.60                             129    -0.410  167 352 
 OCA  SZ ES   1    218  5.31                             129     0.6 7  167 352 
 OCA  SZ I         218  7.96         6.3 0.30                           167 352 
 CHI  HZ EP   2    217 50.51                             118     0.3 4  244 196 
 CHI  HE ES   1    218 19.31                             118     0.0 7  244 196 
 CHI  HZ I         218 24.10         2.6 0.48                           244 196 
                                                                                
