 2012  115 0722 56.5 L   6.811 -73.178153.7  RSN  5 0.3 1.4LRSN                1
 GAP=177        0.75       7.2     9.6  9.8  0.2175E+02  0.1038E+02 -0.6112E+01E
 Epicentro: LOS SANTOS - SANTANDER                                             3
 ACTION:UP  12-02-03 08:17 OP:REBC STATUS:               ID:20120115072256 L   I
 2012-01-15-0720-00M.COL___187                                                 6
 STAT SP IPHASW D HRMM SECON CODA AMPLIT PERI AZIMU VELO SNR AR TRES W  DIS CAZ7
 BAR2 SZ ES   1    723 32.89                             170    -0.2 7   24 181 
 BAR2 SZ I         723 34.31         3.5 0.27                            24 181 
 GIR2 SZ EP   1    723 16.77                             169    -0.3 7   30 357 
 GIR2 SZ ES   1    723 32.81                             169    -0.3 7   30 357 
 BRR  HZ EP   1    723 18.49                             155     0.2 7   67 299 
 BRR  HZ I         723 18.78         5.7 0.17                            67 299 
 BRR  HE ES   1    723 35.86                             155     0.6 7   67 299 
 RUS  HN ES   1    723 40.55                             145     0.2 7  102 174 
 PTB  HN ES   2    723 44.59                             134    -0.5 5  145 258 
                                                                                
