 2016 1215 0244 21.7 L   6.772 -73.175150.1  RSN  6 0.3 1.2LRSN                1
 GAP=134        0.70       3.6     3.2  5.2  0.9092E+00  0.3377E+01 -0.2875E-01E
 Epicentro: LOS SANTOS - SANTANDER                                             3
 ACTION:UPD 17-01-11 20:15 OP:rebc STATUS:               ID:20161215024421 L   I
 OLDACT:REG 16-12-15 12:27 OP:and  STATUS:               ID:20161215023748     3
 2016-12-15-0238-00M.COL___375                                                 6
 STAT SP IPHASW D HRMM SECON CODA AMPLIT PERI AZIMU VELO AIN AR TRES W  DIS CAZ7
 BAR2 EZ ES        244 57.29                             172   -0.1310 19.9 182 
 BRR  HZ EP        244 43.43                             154    0.2210 70.0 302 
 BRR  HN ES        245  0.52                             154    0.5010 70.0 302 
 PAM  EZ IP     D  244 44.48                             150   -0.1210 81.9  40 
 PAM  EE ES        245  2.28                             150   -0.2210 81.9  40 
 RUS  HZ EP        244 45.61                             145   -0.0310 97.7 174 
 RUS  HN ES        245  4.46                             145    0.1110 97.7 174 
 RUS  HZ I         245  5.29         2.3 0.68            146           97.7 174 
 PTB  HZ EP        244 48.85                             134    0.20 9  144 260 
 PTB  HN ES        245  9.25                             134   -0.45 9  144 260 
 PTB  HZ I         245 12.22         1.4 0.16            132            144 260 
 ZAR  HN ES        245 19.42                             124   -0.17 9  202 293 
 ZAR  HZ I         245 24.69         2.2 0.36            123            202 293 
                                                                                
