 2017  315 0144 37.0 L   6.811 -73.184142.1  RSN  4 0.3 1.2LRSN                1
 GAP=144        0.77       5.0     4.8  7.5 -0.3240E+01  0.1486E+02  0.3685E+01E
 Epicentro: ZAPATOCA - SANTANDER                                               3
 ACTION:UPD 17-05-25 18:40 OP:jn   STATUS:               ID:20170315014437 L   I
 OLDACT:DUP 17-03-15 14:02 OP:cog  STATUS:               ID:20170315013744d    3
 2017-03-15-0138-00M.COL___382                                                 6
 STAT SP IPHASW D HRMM SECON CODA AMPLIT PERI AZIMU VELO AIN AR TRES W  DIS CAZ7
 BAR2 EZ EP   3    144 56.15                             170   -0.04 2 24.2 179 
 BAR2 EZ ES        145 10.64                             170   -0.5310 24.2 179 
 PAM  EN ES        145 16.29                             149    0.2510 79.3  42 
 RUS  HZ EP        145  0.37                             143   -0.1210  102 174 
 RUS  HN ES        145 19.17                             143    0.3410  102 174 
 RUS  HZ I         145 20.35         2.5 0.24            144            102 174 
 PTB  HZ EP        145  3.12                             132   -0.18 9  144 258 
 PTB  HN ES        145 24.07                             132    0.25 9  144 258 
 PTB  HZ I         145 29.93         2.7 0.44            131            144 258 
                                                                                
