 2016  715 0159 42.0 L   6.791 -73.167140.2  RSN 15 0.3 1.8LRSN                1
 GAP=134        0.80       2.9     3.1  4.7 -0.4534E+00  0.5752E+01  0.1088E+01E
 Epicentro: LOS SANTOS - SANTANDER                                             3
 ACTION:UPD 17-03-29 16:51 OP:lp   STATUS:               ID:20160715015942 L   I
 OLDACT:REG 16-07-15 12:21 OP:lv   STATUS:               ID:20160715015759     3
 2016-07-15-0157-59S.COL___328                                                 6
 STAT SP IPHASW D HRMM SECON CODA AMPLIT PERI AZIMU VELO AIN AR TRES W  DIS CAZ7
 BAR2 EZ EP        2 0  0.83                             171   -0.0710 22.0 184 
 BAR2 EZ ES        2 0 15.05                             171   -0.6110 22.0 184 
 BAR2 EZ I         2 0 17.36        17.4 0.16            167           22.0 184 
 BRR  HZ IP     D  2 0  2.57                             152    0.1510 69.6 300 
 BRR  HN ES   4    2 0 19.64                             152    1.26 0 69.6 300 
 BRR  HZ I         2 0 22.14        13.6 0.18            153           69.6 300 
 PAM  EZ EP        2 0  3.79                             149    0.0610 79.7  40 
 PAM  EN ES        2 0 21.13                             149    0.4210 79.7  40 
 PAM  EZ I         2 0 22.71         5.3 0.20            148           79.7  40 
 RUS  HZ EP        2 0  4.94                             143   -0.1710 99.7 175 
 RUS  HN ES        2 0 23.28                             143    0.1210 99.7 175 
 RUS  HZ I         2 0 24.53         5.5 0.18            139           99.7 175 
 PTB  HZ EP        2 0  7.52                             131   -0.73 9  145 259 
 PTB  HN ES        2 0 28.82                             131    0.07 9  145 259 
 PTB  HZ I         2 0 31.49         8.2 0.13            130            145 259 
 SPBC HZ EP        2 0  9.70                             128   -0.12 9  161 219 
 SPBC HN ES        2 0 32.00                             128    0.45 9  161 219 
 SPBC HZ I         2 0 34.57        11.9 0.15            126            161 219 
 ZAR  HZ EP        2 0 14.31                             121    0.45 9  202 293 
 ZAR  HE ES        2 0 38.62                             121   -0.13 9  202 293 
 ZAR  HZ I         2 0 45.22         6.4 0.16            120            202 293 
 NOR  HZ EP        2 0 16.89                             117   -0.21 8  232 234 
 NOR  HN ES   4    2 0 45.80                             117    1.29 0  232 234 
 NOR  HZ I         2 0 47.27         5.7 0.14            116            232 234 
 CHI  HZ EP        2 0 19.05                             116   -0.13 8  247 195 
 CHI  HE ES   2    2 0 48.97                             116    0.76 4  247 195 
 CHI  HZ I         2 0 51.48         2.7 0.23            114            247 195 
 HEL  HN ES        2 0 52.62                             114    0.08 8  270 256 
 HEL  HZ I         2 0 59.41         4.5 0.56            112            270 256 
 URE  HZ EP        2 0 22.81                             112    0.25 7  282 292 
 URE  HE ES   4    2 0 52.30                             112   -1.93 0  282 292 
 GUY2CHZ EP   4    2 0 26.15                             111    1.12 0  299 235 
 GUY2CHN ES   4    2 1  1.56                             111    2.94 0  299 235 
 GUY2CHZ I         2 1  5.96         2.7 0.24                           299 235 
 PTGC HZ EP   4    2 0 24.08                             110   -1.48 0  309 158 
 PTGC HN ES   4    2 0 57.83                             110   -1.74 0  309 158 
 PTGC HZ I         2 1 23.78         9.8 0.44            108            309 158 
 PRA  HZ EP        2 0 34.76                             106   -0.29 6  390 209 
 PRA  HE ES        2 1 17.00                             106    0.54 6  390 209 
 PRA  HZ I         2 1 20.77         2.9 0.26            104            390 209 
 SJC  HZ EP   9    2 0 34.90                             105   -2.40 0  409 327 
 SJC  HN ES        2 1 17.76                                   -0.30 6  409 327 
 SJC  HZ I         2 1 23.46         1.5 0.38            104            409 327 
                                                                                
