 2016 1015 0007 43.7 L   6.808 -73.136144.4  RSN 25 0.5 2.9LRSN                1
 GAP= 54        1.11       2.6     3.1  4.8 -0.1773E+01  0.1571E+01  0.2377E+01E
 Epicentro: LOS SANTOS - SANTANDER                                             3
 ACTION:UPD 16-11-09 19:19 OP:rebc STATUS:               ID:20161015000743 L   I
 OLDACT:UP  16-10-15 13:36 OP:ar   STATUS:               ID:20161014235944     3
 OLDACT:UP  16-10-15 13:31 OP:ar   STATUS:               ID:20161014235944     3
 OLDACT:REG 16-10-15 12:33 OP:ar   STATUS:               ID:20161014235944     3
 2016-10-15-0000-15M.COL___353                                                 6
 STAT SP IPHASW D HRMM SECON CODA AMPLIT PERI AZIMU VELO AIN AR TRES W  DIS CAZ7
 BAR2 EZ IP     C  0 8  3.28                             170    0.0610 24.4 192 
 BAR2 EZ ES        0 8 18.42                             170    0.0010 24.4 192 
 BAR2 EZ I         0 8 21.11       188.4 0.48            168           24.4 192 
 BRR  HZ IP     C  0 8  5.03                             152    0.2610 71.8 298 
 BRR  HE ES        0 8 21.98                             152    0.8110 71.8 298 
 BRR  HZ I         0 8 25.94       125.6 0.48            152           71.8 298 
 PAM  EZ EP        0 8  6.16                             151    0.4410 76.0  39 
 PAM  EN ES        0 8 23.29                             151    0.4210 76.0  39 
 PAM  EZ I         0 8 25.51       175.4 0.46            155           76.0  39 
 RUS  HZ EP        0 8  7.51                             143    0.1110  101 177 
 RUS  HN ES        0 8 25.62                             143   -0.2510  101 177 
 RUS  HZ I         0 8 27.03       114.5 0.36            144            101 177 
 PTB  HZ EP        0 8  9.99                             132   -0.71 9  149 259 
 PTB  HN ES        0 8 31.06                             132   -0.68 9  149 259 
 PTB  HZ I         0 8 36.65        64.6 0.10            132            149 259 
 TAM  HZ IP     C  0 8 11.73                             130    0.51 9  154 105 
 TAM  HN ES   4    0 8 33.52                             130    0.86 0  154 105 
 TAM  HZ I         0 8 34.60        30.5 0.54            133            154 105 
 OCA  HZ EP        0 8 11.64                             129   -0.23 9  160 353 
 OCA  HN ES        0 8 33.16                             129   -0.66 9  160 353 
 OCA  HZ I         0 8 37.19       215.9 0.18            132            160 353 
 SPBC HZ EP        0 8 12.23                             129   -0.02 9  165 219 
 SPBC HN ES        0 8 34.11                             129   -0.39 9  165 219 
 SPBC HZ I         0 8 36.72       165.7 0.38            129            165 219 
 ZAR  HZ EP        0 8 16.26                             122    0.10 9  205 292 
 ZAR  HN ES        0 8 40.82                             122   -0.64 9  205 292 
 ZAR  HZ I         0 8 46.98        88.1 0.24            123            205 292 
 NOR  HZ EP        0 8 19.45                             118   -0.08 8  236 234 
 NOR  HN ES        0 8 47.09                             118   -0.36 8  236 234 
 NOR  HZ I         0 8 52.86        63.2 0.18            119            236 234 
 CHI  HZ IP     C  0 8 21.58                             117    0.11 8  250 195 
 CHI  HN ES        0 8 50.80                             117   -0.11 8  250 195 
 CHI  HZ I         0 8 57.01        37.9 0.30            118            250 195 
 ROSC BZ EP   4    0 8 23.16                             116    1.24 0  254 211 
 ROSC BN ES        0 8 52.04                             116    0.34 8  254 211 
 ROSC BZ I         0 8 57.96        90.5 0.40            117            254 211 
 HEL  HZ EP        0 8 24.92                             114    0.90 8  273 256 
 HEL  HN ES        0 8 55.13                             114   -0.31 8  273 256 
 HEL  HZ I         0 9  3.48        25.0 0.42            115            273 256 
 SOCV BZ IP     C  0 8 26.16                             112   -0.40 7  300  57 
 SOCV BN ES   4    0 8 58.26                             112   -1.71 0  300  57 
 GUY2CHZ EP        0 8 28.35                             112    0.92 7  303 235 
 GUY2CHN ES        0 9  1.37                             112   -0.15 7  303 235 
 GUY2CHZ I         0 9 13.36        39.3 0.46                           303 235 
 VIL  EZ EP        0 8 27.12                             112   -0.09 7  304 192 
 VIL  EN ES        0 9  0.61                             112   -0.50 7  304 192 
 VIL  EZ I         0 9  6.09        44.3 0.42            113            304 192 
 PTGC HZ EP        0 8 26.48                             111   -1.09 7  309 159 
 PTGC HE ES   4    0 8 59.87                             111   -1.89 0  309 159 
 PTGC HZ I         0 9  4.71        55.2 0.28            113            309 159 
 ELA  HZ EP   4    0 8 33.74                             110    3.06 0  331 229 
 ELA  HN ES        0 9  7.63                             110    0.33 7  331 229 
 ELA  HZ I         0 9 18.19        21.6 0.36            111            331 229 
 CBOC HZ EP   2    0 8 31.14                             110    0.40 3  335 252 
 CBOC HN ES   2    0 9  7.94                             110    0.53 3  335 252 
 ARGC HZ EP   4    0 8 34.30                             108    1.01 0  359 340 
 ARGC HE ES        0 9 12.06                             108    0.12 6  359 340 
 ARGC HZ I         0 9 13.08        17.3 0.30            109            359 340 
 ANIL HZ EP   4    0 8 34.52                             108    0.88 0  359 225 
 ANIL HN ES        0 9 14.19                             108    1.62 6  359 225 
 ANIL HZ I         0 9 19.39        86.7 0.32            109            359 225 
 PRA  HZ EP        0 8 36.99                             106   -0.36 6  393 210 
 PRA  HN ES        0 9 19.23                             106    0.05 6  393 210 
 PRA  HZ I         0 9 25.49        38.9 0.36            107            393 210 
 PAL  HZ EP        0 8 38.83                             106   -0.18 6  407 239 
 PAL  HN ES   4    0 9 21.10                             106   -1.02 0  407 239 
 PAL  HZ I         0 9 24.96         9.3 0.18            106            407 239 
 SJC  HZ EP   4    0 8 36.92                             105   -2.32 0  409 327 
 SJC  HN ES   4    0 9 18.53                             105   -4.00 0  409 327 
 SJC  HZ I         0 9 19.32        10.6 0.32            107            409 327 
 CRJC HZ EP   4    0 8 43.56                             103   -2.53 0  467   3 
 CRJC HN ES   4    0 9 30.41                             103   -4.31 0  467   3 
 CRJC HZ I         0 9 40.96        15.1 0.38            104            467   3 
                                                                                
