 2011  415 0846  4.5 L   6.795 -73.111143.7  RSN 11 0.4 2.4LRSN                1
 GAP=117        0.80       4.7     6.0  7.4 -0.3196E+01  0.3548E+01  0.1000E+02E
 Epicentro: LOS SANTOS - SANTANDER                                             3
 ACTION:UP  11-06-22 15:31 OP:REBC STATUS:               ID:20110415084604 L   I
 2011-04-15-0840-33S.COL___139                                                 6
 STAT SP IPHASW D HRMM SECON CODA AMPLIT PERI AZIMU VELO SNR AR TRES W  DIS CAZ7
 BTL  SZ IP   1    846 23.99                             169     0.1 7   22 308 
 BAR2 SZ EP   1    846 23.77                             171    -0.1 7   24 199 
 BAR2 SZ ES   2    846 38.28                             171    -0.8 5   24 199 
 BAR2 SZ I         846 39.72        53.2 0.15                            24 199 
 GIR2 SZ EP   1    846 24.93                             165     0.9 7   33 344 
 PAM  SZ EP   1    846 26.48                             150     0.1 7   75  37 
 PAM  SZ I         846 26.98        22.7 0.20                            75  37 
 PAM  SN ES   2    846 43.14                             150    -0.3 5   75  37 
 BRR  HZ EP   1    846 25.70                             149     0.0 7   75 297 
 BRR  HN ES   1    846 42.50                             149     0.4 7   75 297 
 BRR  HZ I         846 46.64        57.7 0.11                            75 297 
 GRA  SZ EP   1    846 29.67                             135     0.1 7  125  16 
 GRA  SZ ES   1    846 48.85                             135    -0.2 7  125  16 
 GRA  SZ I         846 50.31        36.3 0.35                           125  16 
 OCA  SZ EP   1    846 32.08                                    -0.7 7  161 352 
 OCA  SZ ES   3    846 54.20                                    -0.6 2  161 352 
 OCA  SZ I         846 58.54        51.3 0.29                           161 352 
 YOP  SZ EP   1    846 34.48                             126     0.3 7  177 154 
 YOP  SN ES   2    846 57.10                             126    -0.2 4  177 154 
 NOR  SZ EP   1    846 40.23                             117    -0.2 6  238 235 
 HEL  HZ EP   1    846 44.67                             113    -0.4 6  276 256 
 GUY  SZ EP   3    846 49.23                                     0.6 2  306 236 
 GUY  SN ES   3    847 22.29                                    -0.7 2  306 236 
                                                                                
