 2016  515 0644 52.2 L   6.302 -72.773  3.1  RSN 18 0.5 2.4LRSN                1
 GAP=135        1.13       2.9     2.4  5.8 -0.1341E+01  0.1642E+01 -0.1173E+01E
 Epicentro: ONZAGA - SANTANDER                                                 3
 ACTION:UPD 16-08-18 17:46 OP:cam  STATUS:               ID:20160515064452 L   I
 OLDACT:UP  16-05-17 15:41 OP:cam  STATUS:               ID:20160515064452 L   3
 OLDACT:UP  16-05-17 15:40 OP:cam  STATUS:               ID:20160515064452 L   3
 OLDACT:UP  16-05-17 15:39 OP:cam  STATUS:               ID:20160515064452 L   3
 OLDACT:UP  16-05-17 10:20 OP:ak   STATUS:               ID:20160515064452 L   3
 OLDACT:UP  16-05-15 14:46 OP:drio STATUS:               ID:20160515063747     3
 OLDACT:UP  16-05-15 14:45 OP:drio STATUS:               ID:20160515063747     3
 OLDACT:UP  16-05-15 14:44 OP:drio STATUS:               ID:20160515063747     3
 OLDACT:UP  16-05-15 14:44 OP:drio STATUS:               ID:20160515063747     3
 OLDACT:UP  16-05-15 14:43 OP:drio STATUS:               ID:20160515063747     3
 OLDACT:UP  16-05-15 14:40 OP:drio STATUS:               ID:20160515063747     3
 OLDACT:UP  16-05-15 14:38 OP:drio STATUS:               ID:20160515063747     3
 OLDACT:REG 16-05-15 12:32 OP:drio STATUS:               ID:20160515063747     3
 2016-05-15-0637-47M.COL___291                                                 6
 STAT SP IPHASW D HRMM SECON CODA AMPLIT PERI AZIMU VELO AIN AR TRES W  DIS CAZ7
 BAR2 EZ EPg  4    644 59.63                              95   -4.19 0 55.5 305 
 BAR2 EZ EP   1    645  0.64                              47   -0.95 7 55.5 305 
 BAR2 EZ ES   4    645  5.80                              47   -3.10 0 55.5 305 
 BAR2 EZ I         645 10.82        96.5 0.38             47           55.5 305 
 RUS  HZ EP        645  1.36                              47   -0.6910 56.8 217 
 RUS  HN ES        645  9.35                              47   -0.3810 56.8 217 
 RUS  HZ I         645 10.39       154.9 0.26             47           56.8 217 
 TAM  HZ EP        645  9.99                              47    0.4110  110  82 
 TAM  HE ES        645 22.96                              47   -0.1610  110  82 
 TAM  HZ I         645 37.89        41.5 0.54             47            110  82 
 BRR  HZ EP     D  645 13.44                              47   -0.21 9  137 311 
 BRR  HE ES        645 29.95                              47   -0.43 9  137 311 
 BRR  HZ I         645 35.07        64.1 0.30             47            137 311 
 SPBC HZ EP        645 17.75                              47    0.36 9  161 244 
 SPBC HE ES        645 37.28                              47    0.24 9  161 244 
 SPBC HZ I         645 41.32        92.0 0.18             37            161 244 
 PTB  HZ EP        645 21.70                              37    0.56 9  188 278 
 PTB  HE ES   4    645 44.79                              37    1.08 0  188 278 
 CHI  HZ EP   4    645 27.44                              37    2.66 0  213 210 
 CHI  HE ES   4    645 54.92                              37    4.74 0  213 210 
 CHI  HZ I         646  2.10        27.8 0.28             37            213 210 
 OCA  HZ EP        645 25.86                              37    0.24 8  223 344 
 OCA  HE ES        645 51.52                              37   -0.15 8  223 344 
 OCA  HZ I         645 57.26        60.1 0.36             37            223 344 
 ROSC BZ EP   4    645 31.92                              37    4.38 0  236 227 
 ROSC BN ES   4    645 56.76                              37    1.66 0  236 227 
 ROSC BZ I         646 15.74        16.7 0.40             37            236 227 
 PTGC HZ EP   4    645 29.48                              37    1.47 0  243 163 
 PTGC HE ES   4    646  0.64                              37    4.72 0  243 163 
 PTGC HZ I         646  4.46        34.0 0.20             37            243 163 
 NOR  HZ EP   4    645 29.85                              37    1.41 0  246 251 
 NOR  HN ES   4    646  0.47                              37    3.77 0  246 251 
 NOR  HZ I         646  1.58        30.5 0.46             37            246 251 
 ZAR  HZ EP        645 31.23                              37    0.43 8  265 300 
 ZAR  HN ES   4    646  1.66                              37    0.76 0  265 300 
 ZAR  HZ I         646  3.35        18.3 0.28             37            265 300 
 HEL  HZ EP        645 36.81                              36    0.61 7  305 268 
 HEL  HE ES        646 11.29                              36    0.79 7  305 268 
 HEL  HZ I         646 17.90        14.4 0.56             36            305 268 
 ELA  HZ EP   4    645 42.63                              36    2.95 0  332 241 
 ELA  HZ I         646 28.63        11.3 0.28             36            332 241 
 ANIL HZ EP   4    645 44.22                              36    2.14 0  354 236 
 ANIL HZ I         646 36.44        21.3 0.30             36            354 236 
 CBOC HZ EP   4    645 45.88                              36    2.93 0  362 262 
 CBOC HZ I         646 36.04         9.0 0.42             36            362 262 
 PRA  HZ EP   4    645 46.98                              36    3.20 0  370 219 
 PRA  HZ I         646 46.77        10.6 0.58             36            370 219 
 ORTC HZ EP   4    645 47.64                              36    2.48 0  381 226 
 ORTC HZ I         646 45.46         9.1 0.74             36            381 226 
                                                                                
