 2011  715 0308  0.0 L   6.764 -73.095141.2  RSN  9 0.3 1.8LRSN                1
 GAP=162        0.53       2.3     4.3  4.2 -0.3204E+01  0.6583E+00  0.3201E-01E
 Epicentro: LOS SANTOS - SANTANDER                                             3
 ACTION:UPD 12-07-25 14:00 OP:epov STATUS:               ID:20110715030800 L   I
 2011-07-15-0300-00M.COL___133                                                 6
 STAT SP IPHASW D HRMM SECON CODA AMPLIT PERI AZIMU VELO AIN AR TRES W  DIS CAZ7
 BAR2 SZ EP   1    3 8 19.09                             171    0.03 7 21.3 207 
 BAR2 SZ I         3 8 19.27        12.1 0.12                          21.3 207 
 BAR2 SZ ES   1    3 8 33.71                             171   -0.19 7 21.3 207 
 GIR2 SZ EP   1    3 8 19.66                             165    0.36 7 36.5 343 
 BRR  HZ EP   1    3 8 20.85                             149   -0.23 7 78.0 299 
 BRR  HE ES   1    3 8 37.77                             149    0.26 7 78.0 299 
 BRR  HZ I         3 8 38.81        29.4 0.12                          78.0 299 
 RUS  HZ EP   1    3 8 23.16                             144    0.15 7 96.4 179 
 RUS  HZ I         3 8 24.32         7.0 0.08                          96.4 179 
 RUS  HN ES   1    3 8 40.89                             144   -0.06 7 96.4 179 
 BRI  SZ EP   1    3 8 23.80                             140    0.18 7  110  17 
 GRA  SZ EP   1    3 8 24.81                             135   -0.24 7  128  15 
 GRA  SZ ES   1    3 8 44.26                             135   -0.31 7  128  15 
 GRA  SZ I         3 8 45.56         8.8 0.25                           128  15 
 OCA  SZ EP   1    3 8 28.10                             128   -0.33 7  165 351 
 OCA  SZ ES   1    3 8 50.98                             128    0.40 7  165 351 
 OCA  SZ I         3 8 54.25        12.1 0.31                           165 351 
 NOR  SZ EP   1    3 8 35.51                             117   -0.23 6  237 236 
 NOR  SN ES   1    3 9  3.36                             117   -0.24 6  237 236 
 CHI  HZ EP   1    3 8 37.64                             116    0.42 6  246 197 
 CHI  HZ I         3 9  9.53         3.1 0.30                           246 197 
                                                                                
