 2012  815 0905 55.4 L   6.801 -73.177144.0  RSN  5 0.3 1.7LRSN                1
 GAP=178        0.62       6.1     6.0  7.4  0.1114E+02  0.2079E+01  0.1387E+02E
 Epicentro: LOS SANTOS - SANTANDER                                             3
 ACTION:UPD 12-09-10 11:56 OP:ep   STATUS:               ID:20120815090555 L   I
 2012-08-15-0900-00M.COL___217                                                 6
 STAT SP IPHASW D HRMM SECON CODA AMPLIT PERI AZIMU VELO AIN AR TRES W  DIS CAZ7
 BAR2 SZ EP        9 6 15.00                             170    0.1610 23.1 182 
 BAR2 SZ I         9 6 30.71        14.9 0.26                          23.1 182 
 GIR2 SZ EP        9 6 14.75                             168   -0.1310 30.7 357 
 GIR2 SZ ES   2    9 6 29.28                             168   -0.77 5 30.7 357 
 BRR  HZ EP        9 6 16.31                             154    0.0910 68.1 300 
 BRR  HN ES   1    9 6 32.95                             154    0.52 7 68.1 300 
 BRR  HZ I         9 6 34.16        15.7 0.46                          68.1 300 
 RUS  HZ EP        9 6 19.00                             144   -0.0410  101 174 
 RUS  HN ES   2    9 6 37.76                             144    0.30 5  101 174 
 RUS  HZ I         9 6 39.62         5.1 0.30                           101 174 
 PTB  HZ EP        9 6 21.74                             133   -0.21 9  144 259 
 PTB  HN ES   2    9 6 42.30                             133   -0.34 5  144 259 
 PTB  HZ I         9 6 44.80         5.1 0.38                           144 259 
                                                                                
