 2015  615 0459 17.0 L   6.819 -73.098150.8  RSN 11 0.4 2.0LRSN                1
 GAP=188        0.90       2.5     4.4  4.9 -0.8924E+00  0.6327E+01  0.2135E+00E
 Epicentro: LOS SANTOS - SANTANDER                                             3
 ACTION:UPD 15-09-10 22:12 OP:cam  STATUS:               ID:20150615045917 L   I
 OLDACT:REG 15-06-15 13:24 OP:drio STATUS:               ID:20150615045748     3
 2015-06-15-0457-48M.COL___315                                                 6
 STAT SP IPHASW D HRMM SECON CODA AMPLIT PERI AZIMU VELO AIN AR TRES W  DIS CAZ7
 BAR2 EZ EP        459 37.44                             169    0.1010 26.8 200 
 BAR2 EZ ES        459 52.68                             169   -0.5010 26.8 200 
 BAR2 EZ I         459 53.54        11.0 0.28            169           26.8 200 
 BRR  HZ EP        459 39.38                             152    0.4510 74.9 295 
 BRR  HE ES        459 56.75                             152    0.7310 74.9 295 
 BRR  HZ I         459 59.67        12.2 0.32            152           74.9 295 
 RUS  HZ EP        459 41.40                             144   -0.0110  102 179 
 RUS  HE ES        5 0  0.50                             144    0.0710  102 179 
 RUS  HZ I         5 0  2.67         4.4 0.54            146            102 179 
 OCA  HZ EP        459 45.59                             131   -0.02 9  159 351 
 OCA  HE ES        5 0  7.80                             131   -0.10 9  159 351 
 OCA  HZ I         5 0 12.34        21.9 0.42            132            159 351 
 SPBC HZ EP        459 46.51                             129    0.12 9  168 220 
 SPBC HN ES        5 0  8.85                             129   -0.43 9  168 220 
 SPBC HZ I         5 0 14.17        14.8 0.24            130            168 220 
 ZAR  HZ EP        459 51.05                             123    0.82 8  208 291 
 ZAR  HE ES        5 0 15.58                             123   -0.54 8  208 291 
 SML  HZ EP        459 53.47                             118   -0.51 8  244 334 
 SML  HN ES        5 0 22.42                             118   -0.38 8  244 334 
 SML  HZ I         5 0 25.58        18.7 0.10            120            244 334 
 HEL  HZ EP        459 57.88                             115   -0.24 7  278 256 
 HEL  HN ES        5 0 30.01                             115   -0.16 7  278 256 
 GUY2CHZ EP        5 0  1.55                             113    0.06 7  307 235 
 GUY2CHN ES        5 0 36.63                             113    0.45 7  307 235 
 GUY2CHZ I         5 0 44.07         3.5 0.50                           307 235 
 TOL  SZ EP        5 0  6.25                             110    0.16 6  349 225 
 TOL  SN ES        5 0 44.31                             110   -0.04 6  349 225 
 TOL  SZ I         5 0 49.64         3.7 0.44            111            349 225 
 PRA  HZ EP        5 0 10.91                             107   -0.33 6  396 210 
 PRA  HN ES        5 0 53.28                             107   -0.25 6  396 210 
 PRA  HZ I         5 0 56.20         3.1 0.74            108            396 210 
 SJC  HZ EP   4    5 0 11.70                             106   -1.19 0  410 326 
 SJC  HN ES   4    5 0 53.14                             106   -3.33 0  410 326 
                                                                                
