 2016 1215 0744 56.8 L   6.742 -73.158152.2  RSN  5 0.0 1.0LRSN                1
 GAP=137        0.27       2.0     1.7  2.3  0.4471E+00 -0.5278E-01 -0.1408E+01E
 Epicentro: LOS SANTOS - SANTANDER                                             3
 ACTION:UPD 17-01-11 20:15 OP:rebc STATUS:               ID:20161215074456 L   I
 OLDACT:REG 16-12-15 12:44 OP:and  STATUS:               ID:20161215073742     3
 2016-12-15-0738-00M.COL___375                                                 6
 STAT SP IPHASW D HRMM SECON CODA AMPLIT PERI AZIMU VELO AIN AR TRES W  DIS CAZ7
 BAR2 EZ IP     D  745 17.20                             173    0.0610 16.8 189 
 BAR2 EZ ES        745 32.96                             173   -0.0110 16.8 189 
 BRR  HZ EP        745 18.85                             153    0.0410 73.3 303 
 BRR  HN ES        745 35.96                             153    0.0210 73.3 303 
 PAM  HZ EP     C  745 20.03                             150   -0.0610 83.3  37 
 RUS  HN ES        745 39.49                             147   -0.0010 94.3 175 
 RUS  HZ I         745 41.16         1.5 0.22            145           94.3 175 
 PTB  HZ EP        745 24.11                             134   -0.01 9  145 261 
 PTB  HN ES        745 45.37                             134   -0.04 9  145 261 
 PTB  HZ I         745 47.05         1.3 0.12            133            145 261 
                                                                                
