 2014  815 0146 22.2 L   6.803 -73.137149.4  RSN  8 0.4 1.6LRSN                1
 GAP=153        1.01       4.3     5.5  7.3 -0.1104E+02  0.6043E+01  0.2079E+01E
 Epicentro: LOS SANTOS - SANTANDER                                             3
 ACTION:UPD 14-09-15 21:49 OP:nd   STATUS:               ID:20140815014622 L   I
 OLDACT:REG 14-08-15 12:49 OP:spq  STATUS:               ID:20140815013816     3
 2014-08-15-0138-16M.COL___275                                                 6
 STAT SP IPHASW D HRMM SECON CODA AMPLIT PERI AZIMU VELO AIN AR TRES W  DIS CAZ7
 BAR2 SZ EP        146 42.07                             170   -0.1910 23.9 192 
 BAR2 SZ ES   1    146 57.45                             170   -0.47 7 23.9 192 
 BAR2 SZ I         146 58.22        11.6 0.30            170           23.9 192 
 BRR  HZ IP     C  146 44.24                             153    0.4710 71.9 298 
 BRR  HE ES        147  1.36                             153    0.7710 71.9 298 
 BRR  HZ I         147  3.51         5.9 0.23            149           71.9 298 
 PAM  SZ EP        146 45.27                             152    0.5310 76.5  39 
 PAM  SN ES        147  2.17                             152   -0.1510 76.5  39 
 PAM  SZ I         147  2.87         3.2 0.34            153           76.5  39 
 PTB  HZ EP        146 49.15                             133   -0.39 9  149 259 
 PTB  HE ES        147 10.47                             133   -0.41 9  149 259 
 PTB  HZ I         147 13.23         3.5 0.08            131            149 259 
 OCA  HN ES        147 12.43                             130   -0.61 9  160 353 
 OCA  HZ I         147 14.74         3.5 0.58            130            160 353 
 SPBC HZ EP        146 51.05                             130   -0.00 9  164 219 
 SPBC HE ES        147 13.49                             130   -0.07 9  164 219 
 SPBC HZ I         147 18.55         3.9 0.42            130            164 219 
 NOR  HN ES        147 26.55                             119    0.20 8  236 235 
 NOR  HZ I         147 28.15         2.4 0.22            119            236 235 
 SML  HZ EP   1    146 58.78                             118   -0.25 6  244 335 
 SML  HN ES   1    147 27.92                             118    0.16 6  244 335 
 SML  HZ I         147 35.45         6.6 0.24            118            244 335 
                                                                                
