 2013  715 0332 38.3 L   6.816 -73.119153.3  RSN 13 0.4 2.0LRSN                1
 GAP=139        0.98       2.8     5.2  6.3 -0.3284E+01  0.1216E+02  0.2235E+00E
 Epicentro: LOS SANTOS - SANTANDER                                             3
 ACTION:UPD 13-08-12 10:37 OP:ep   STATUS:               ID:20130715033238 L   I
 OLDACT:REG 13-07-15 08:58 OP:nd   STATUS:               ID:20130715032959     3
 2013-07-15-0329-59M.COL___267                                                 6
 STAT SP IPHASW D HRMM SECON CODA AMPLIT PERI AZIMU VELO AIN AR TRES W  DIS CAZ7
 GIR2 SZ EP        332 58.92                             168    0.0910 30.2 344 
 GIR2 SZ ES        333 15.37                             168    0.5110 30.2 344 
 GIR2 SZ I         333 18.20         8.1 0.10            164           30.2 344 
 BRR  HZ EP        333  0.76                             153    0.4010 73.1 296 
 BRR  HZ I         333 22.02        13.2 0.12            149           73.1 296 
 PAM  SZ EP        333  1.82                             153    0.6910 74.1  39 
 PAM  SN ES        333 18.77                             153   -0.1710 74.1  39 
 PAM  SZ I         333 21.13        20.5 0.52            153           74.1  39 
 RUS  HZ EP        333  2.86                             145   -0.0410  102 178 
 RUS  HN ES        333 21.92                             145   -0.1710  102 178 
 RUS  HZ I         333 24.37        11.0 0.42            146            102 178 
 PTB  HZ EP        333  5.75                             133   -0.42 9  151 258 
 PTB  HN ES   2    333 27.45                             133   -0.47 5  151 258 
 PTB  HZ I         333 29.18        12.8 0.14            131            151 258 
 OCA  HZ EP        333  6.31                             132   -0.76 9  159 352 
 OCA  HN ES        333 28.99                             132   -0.53 9  159 352 
 OCA  HZ I         333 33.83        14.0 0.28            130            159 352 
 SPBC HZ EP        333  7.86                             130    0.18 9  166 219 
 SPBC HN ES        333 30.23                             130   -0.37 9  166 219 
 SML  HZ EP        333 15.32                             119    0.00 8  243 334 
 SML  HN ES        333 44.30                             119    0.10 8  243 334 
 SML  HZ I         333 55.43        15.1 0.24            117            243 334 
 CHI  HZ EP        333 17.19                             118    0.51 8  251 196 
 CHI  HN ES        333 46.06                             118   -0.57 8  251 196 
 CHI  HZ I         333 51.75         4.6 0.30            118            251 196 
 HEL  HZ EP   3    333 20.01                             116    0.75 2  275 256 
 HEL  HN ES        333 51.83                             116    0.61 7  275 256 
 HEL  HZ I         333 57.19         5.4 0.30            115            275 256 
 GUY2CHZ EP   4    333 24.18                             113    1.54 0  305 235 
 GUY2CHN ES   4    333 59.16                             113    1.92 0  305 235 
 GUY2CHZ I         334  4.26         5.8 0.28                           305 235 
 ORTC HZ EP   2    333 32.30                             107   -0.55 3  399 216 
 ORTC HN ES   2    334 16.08                             107    0.68 3  399 216 
 ORTC HZ I         334 22.71         3.4 0.40            107            399 216 
 SJC  HZ EP   4    333 33.10                             107   -1.03 0  409 326 
 SJC  HN ES   4    334 13.19                             107   -4.50 0  409 326 
 SJC  HZ I         334 19.63         2.2 0.52            106            409 326 
                                                                                
