 2010  415 0808  3.7 L   6.801 -73.083140.3  RSN 11 0.6 2.4LRSN                1
 GAP=182        1.36       6.3    12.2 10.4 -0.4101E+02  0.3488E+02  0.8107E+01E
 Epicentro: LOS SANTOS - SANTANDER                                             3
 ACTION:UPD 10-08-24 09:59 OP:vdl  STATUS:               ID:20100415080809 L   I
 2010-04-15-0806-50S.COL___104                                                 6
 STAT SP IPHASW D HRMM SECON CODA AMPLIT PERI AZIMU VELO AIN AR TRES W  DIS CAZ7
 BAR2 SZ IP        8 8 22.72                             169     0.010   26 206 
 BAR2 SZ ES   1    8 8 37.32                             169    -0.3 7   26 206 
 BRR  HZ IP     D  8 8 24.89                             149     0.210   77 296 
 BRR  HZ I         8 8 25.05        72.1 0.17                            77 296 
 BRR  HN ES   2    8 8 41.56                             149     0.6 5   77 296 
 GUE  SZ EP        8 8 28.64                             138     0.810  115   9 
 GRA  SZ EP        8 8 28.38                             136     0.110  124  14 
 GRA  SZ ES   1    8 8 47.07                             136    -0.4 7  124  14 
 OCA  SZ EP        8 8 31.04                             128    -0.7 9  161 351 
 OCA  SZ ES   2    8 8 53.52                             128     0.0 5  161 351 
 OCA  SZ I         8 8 55.82        49.1 0.09                           161 351 
 CHI  HZ EP        8 8 40.63                             116    -0.7 8  251 197 
 CHI  HE ES   2    8 9 10.04                             116    -0.7 4  251 197 
 CHI  HZ I         8 9 21.48         7.9 0.54                           251 197 
 ROSC BZ EP        8 8 42.94                             115     1.0 8  257 212 
 ROSC BE ES   2    8 9 11.55                             115    -0.3 4  257 212 
 ROSC BZ I         8 9 16.09        14.1 0.46                           257 212 
 HEL  HZ EP        8 8 44.16                             113    -0.3 7  279 256 
 HEL  HZ I         8 9 21.18         7.7 0.73                           279 256 
 RREF HZ EP        8 8 51.31                             109     1.0 7  327 230 
 RREF HN ES   2    8 9 27.46                             109     0.9 3  327 230 
 RREF HZ I         8 9 30.13         9.1 0.20                           327 230 
 DBB  SZ EP        8 8 50.64                             108    -1.2 6  346 274 
 PRA  HZ EP        8 8 57.38                             105    -0.1 6  396 210 
 PRA  HN ES   1    8 9 38.94                             105    -0.5 4  396 210 
 PRA  HZ I         8 9 43.42         9.7 0.27                           396 210 
                                                                                
