 2015  615 0726  9.9 L   6.761 -73.089145.4  RSN  4 0.3 1.2LRSN                1
 GAP=240        0.91       5.5     8.3  7.3  0.9560E+01  0.3216E+01  0.4766E+01E
 Epicentro: LOS SANTOS - SANTANDER                                             3
 ACTION:UPD 15-09-10 22:12 OP:cam  STATUS:               ID:20150615072609 L   I
 OLDACT:REG 15-06-15 13:34 OP:drio STATUS:               ID:20150615071747     3
 2015-06-15-0717-47M.COL___315                                                 6
 STAT SP IPHASW D HRMM SECON CODA AMPLIT PERI AZIMU VELO AIN AR TRES W  DIS CAZ7
 BAR2 EZ EP        726 29.36                             171   -0.0510 21.3 209 
 BAR2 EZ ES        726 44.06                             171   -0.6010 21.3 209 
 BAR2 EZ I         726 46.05         3.4 0.28            164           21.3 209 
 BRR  HZ EP        726 31.20                             150   -0.2110 78.7 299 
 BRR  HE ES        726 48.72                             150    0.4910 78.7 299 
 BRR  HZ I         726 49.94         4.0 0.12            146           78.7 299 
 RUS  HZ EP        726 33.41                             145    0.1510 96.1 180 
 RUS  HZ I         726 34.32         1.0 0.18            142           96.1 180 
 RUS  HN ES        726 51.95                             145    0.4510 96.1 180 
 SPBC HZ EP        726 38.38                             129   -0.02 9  164 222 
 SPBC HE ES        727  0.41                             129   -0.26 9  164 222 
 SPBC HZ I         727  7.26         3.6 0.28            126            164 222 
                                                                                
