 2010  615 0622 21.9 L   6.786 -73.168142.2  RSN  8 0.5 1.6LRSN                1
 GAP=159        1.11       4.8    20.2  9.3 -0.6193E+02  0.5704E+02 -0.5469E+01E
 Epicentro: LOS SANTOS - SANTANDER                                             3
 ACTION:UP  10-08-24 10:10 OP:vdl  STATUS:               ID:20100615062221 L   I
 2010-06-15-0620-41S.COL___114                                                 6
 STAT SP IPHASW D HRMM SECON CODA AMPLIT PERI AZIMU VELO SNR AR TRES W  DIS CAZ7
 BAR2 SZ EP        622 40.91                             171    -0.110   22 185 
 BAR2 SZ ES   1    622 56.15                             171     0.1 7   22 185 
 GIR2 SZ EP   1    622 42.00                             166     0.8 7   33 355 
 RUS  HZ EP   1    622 45.09                             143    -0.1 7   99 175 
 RUS  HN ES   1    623  3.19                             143    -0.2 7   99 175 
 RUS  HZ I         623  4.75         6.2 0.13                            99 175 
 BRI  SZ EP        622 45.45                             140    -0.210  111  22 
 BRI  SZ ES   1    623  3.58                             140    -0.6 7  111  22 
 GUE  SZ EP   1    622 45.91                             138    -0.5 7  119  13 
 GUE  SZ ES   1    623  4.88                             138    -0.7 7  119  13 
 GRA  SZ IP        622 47.72                             136     0.710  128  18 
 GRA  SZ ES   1    623  7.48                             136     0.9 7  128  18 
 OCA  SZ EP   1    622 49.50                             128    -0.5 7  162 354 
 OCA  SZ ES   1    623 12.12                             128     0.1 7  162 354 
 OCA  SZ I         623 18.09         7.3 0.35                           162 354 
 CHI  HZ EP        622 59.12                             116     0.0 8  246 195 
 CHI  HE ES   1    623 28.33                             116     0.1 6  246 195 
 CHI  HZ I         623 36.02         2.3 0.31                           246 195 
                                                                                
