 2014  915 0403 10.6 L   6.813 -73.151141.9  RSN 13 0.5 1.9LRSN                1
 GAP=135        1.13       2.9     4.2  5.9 -0.2149E+01  0.7776E+01  0.5818E+00E
 Epicentro: LOS SANTOS - SANTANDER                                             3
 ACTION:UPD 14-10-03 23:05 OP:nd   STATUS:               ID:20140915040310 L   I
 OLDACT:REG 14-09-15 12:35 OP:carl STATUS:               ID:20140915035809     3
 2014-09-15-0358-09M.COL___293                                                 6
 STAT SP IPHASW D HRMM SECON CODA AMPLIT PERI AZIMU VELO AIN AR TRES W  DIS CAZ7
 BAR2 SZ EP        4 3 29.89                             170    0.0910 24.6 188 
 BAR2 SZ ES        4 3 44.39                             170   -0.3810 24.6 188 
 BAR2 SZ I         4 3 45.99        38.3 0.20            169           24.6 188 
 BRR  HZ EP        4 3 31.71                             152    0.4410 70.0 298 
 BRR  HN ES        4 3 47.87                             152    0.4810 70.0 298 
 BRR  HZ I         4 3 50.40        10.5 0.14            150           70.0 298 
 PAM  SZ EP        4 3 32.64                             150    0.2710 76.7  41 
 PAM  SN ES        4 3 49.90                             150    0.5610 76.7  41 
 RUS  HZ EP        4 3 33.95                             143   -0.1410  102 176 
 RUS  HN ES        4 3 52.58                             143    0.1810  102 176 
 RUS  HZ I         4 3 53.27        11.4 0.20            144            102 176 
 PTB  HZ EP        4 3 36.42                             131   -0.82 9  147 258 
 PTB  HN ES        4 3 57.28                             131   -0.72 9  147 258 
 PTB  HZ I         4 3 59.83        12.1 0.30            130            147 258 
 OCA  HZ EP        4 3 37.82                             129   -0.66 9  159 353 
 OCA  HN ES        4 3 59.91                             129   -0.31 9  159 353 
 OCA  HZ I         4 4  3.89         6.5 0.18            130            159 353 
 SPBC HZ EP        4 3 38.63                             128   -0.25 9  164 219 
 SPBC HN ES        4 4  0.69                             128   -0.25 9  164 219 
 SPBC HZ I         4 4  5.02        12.5 0.24            128            164 219 
 ZAR  HN ES        4 4  8.19                             122    0.48 9  203 292 
 SML  HZ EP        4 3 47.23                             117    0.38 8  242 335 
 SML  HE ES        4 4 14.40                             117   -0.72 8  242 335 
 SML  HZ I         4 4 20.22         8.2 0.22            117            242 335 
 CHI  HN ES        4 4 16.93                             116   -0.64 8  250 195 
 CHI  HZ I         4 4 21.50         2.6 0.22            117            250 195 
 HEL  HZ EP        4 3 51.22                             114    0.62 8  272 255 
 HEL  HN ES        4 4 22.14                             114    0.35 8  272 255 
 HEL  HZ I         4 4 29.41         5.6 0.38            114            272 255 
 GUY2CHZ EP        4 3 54.48                             111    0.40 7  302 234 
 GUY2CHN ES        4 4 28.49                             111    0.51 7  302 234 
 GUY2CHZ I         4 4 36.27         2.9 0.30                           302 234 
 ORTC HZ EP        4 4  4.99                             106    0.50 6  396 216 
 ORTC HN ES        4 4 47.02                             106    0.50 6  396 216 
 ORTC HZ I         4 4 51.93         2.2 0.40            106            396 216 
                                                                                
