 2013  815 0055 19.5 L   6.802 -73.147143.7  RSN 10 0.5 2.6LRSN                1
 GAP=150        1.22       4.7     5.1  7.0 -0.1097E+02  0.3732E+01  0.6681E+01E
 Epicentro: LOS SANTOS - SANTANDER                                             3
 ACTION:UPD 14-01-14 09:03 OP:ep   STATUS:               ID:20130815005519 L   I
 OLDACT:UP  13-08-20 13:36 OP:ep   STATUS:               ID:20130815005519 L   3
 OLDACT:UP  13-08-16 16:41 OP:ep   STATUS:               ID:20130815005519 L   3
 OLDACT:REG 13-08-15 08:58 OP:stll STATUS:               ID:20130815004838     3
 2013-08-15-0048-38M.COL___226                                                 6
 STAT SP IPHASW D HRMM SECON CODA AMPLIT PERI AZIMU VELO AIN AR TRES W  DIS CAZ7
 BAR2 SZ EP        055 38.89                             170    0.0210 23.5 190 
 BAR2 SZ ES        055 54.18                             170    0.1910 23.5 190 
 BAR2 SZ I         055 55.21        68.6 0.16            170           23.5 190 
 BRR  HZ EP        055 40.74                             152    0.3410 70.9 298 
 BRR  HE ES        055 57.68                             152    0.9710 70.9 298 
 BRR  HE I         055 58.48        72.4 0.18            151           70.9 298 
 PAM  SZ EP        055 41.60                             151    0.1210 77.3  40 
 PAM  SN ES        055 58.10                             151   -0.5310 77.3  40 
 PAM  SN I         055 59.77        78.1 0.48            152           77.3  40 
 PTB  HZ EP        055 45.53                             132   -0.75 9  148 259 
 PTB  HN ES        056  6.37                             132   -0.80 9  148 259 
 PTB  HN I         056  9.29        53.9 0.12            131            148 259 
 CAPV BZ EP        055 46.57                             132   -0.14 9  149  38 
 OCA  HZ EP        055 47.49                             129   -0.12 9  160 353 
 OCA  HN ES        056  9.40                             129   -0.15 9  160 353 
 OCA  HN I         056 15.82       113.2 0.28            129            160 353 
 CHI  HZ EP        055 56.96                             117   -0.13 8  249 195 
 CHI  HN ES        056 26.53                             117    0.11 8  249 195 
 CHI  HN I         056 32.09        32.9 0.46            117            249 195 
 HEL  HZ EP   4    056  1.67                             114    2.09 0  272 256 
 HEL  HN ES        056 30.93                             114    0.07 8  272 256 
 HEL  HN I         056 38.00        12.9 0.34            114            272 256 
 GUY2CHZ EP        056  4.27                             112    1.27 7  301 235 
 GUY2CHN ES        056 36.50                             112   -0.44 7  301 235 
 GUY2CHN I         056 48.23        21.3 0.48                           301 235 
 CBOC HZ EP   1    056  7.09                             110    0.78 5  334 252 
 CBOC HE ES   1    056 42.56                             110   -0.27 5  334 252 
                                                                                
