 2016  515 0328 56.8 L   6.735 -73.156140.0  RSN  5 0.5 1.5LRSN                1
 GAP=247        1.17       6.9     7.6  8.6  0.7986E+01  0.1496E+02  0.2694E+01E
 Epicentro: LOS SANTOS - SANTANDER                                             3
 ACTION:UPD 16-08-18 17:46 OP:cam  STATUS:               ID:20160515032856 L   I
 OLDACT:REG 16-05-15 12:26 OP:drio STATUS:               ID:20160515032745     3
 2016-05-15-0327-45M.COL___294                                                 6
 STAT SP IPHASW D HRMM SECON CODA AMPLIT PERI AZIMU VELO AIN AR TRES W  DIS CAZ7
 BAR2 EZ EP        329 15.36                             173   -0.2910 16.0 191 
 BAR2 EZ ES        329 30.20                             173   -0.1210 16.0 191 
 BAR2 EZ I         329 30.98         5.3 0.28            165           16.0 191 
 BRR  HZ EP        329 17.14                             151   -0.3910 74.0 304 
 BRR  HE ES        329 34.40                             151    0.7310 74.0 304 
 BRR  HZ I         329 38.20         4.0 0.12            147           74.0 304 
 PTB  HZ EP        329 22.88                             131   -0.25 9  145 262 
 PTB  HN ES        329 42.84                             131   -0.80 9  145 262 
 PTB  HZ I         329 46.04         4.6 0.42            128            145 262 
 SPBC HZ EP        329 24.54                             129    0.23 9  157 220 
 SPBC HN ES        329 46.24                             129    0.51 9  157 220 
 SPBC HZ I         329 56.51         3.9 0.24            127            157 220 
 ZAR  HZ EP        329 29.70                             121    0.59 8  206 294 
 ZAR  HE ES        329 54.18                             121   -0.09 8  206 294 
 ZAR  HZ I         330  1.98         3.3 0.24            121            206 294 
                                                                                
