 2014  215 0806 54.4 L   6.806 -73.171147.1  RSN 10 0.2 1.9LRSN                1
 GAP=133        0.54       1.4     2.2  3.2 -0.3882E+00  0.2495E+01 -0.1074E+00E
 Epicentro: LOS SANTOS - SANTANDER                                             3
 ACTION:UPD 14-03-10 08:10 OP:ep   STATUS:               ID:20140215080654 L   I
 OLDACT:REG 14-02-15 09:05 OP:carl STATUS:               ID:20140215080000     3
 2014-02-15-0800-00M.COL___206                                                 6
 STAT SP IPHASW D HRMM SECON CODA AMPLIT PERI AZIMU VELO AIN AR TRES W  DIS CAZ7
 BAR2 SZ EP        8 7 14.28                             170    0.1110 23.7 183 
 BAR2 SZ ES        8 7 29.28                             170   -0.3310 23.7 183 
 BAR2 SZ I         8 7 31.02        23.4 0.42            170           23.7 183 
 PAM  SZ EP        8 7 16.70                             151   -0.1010 78.6  41 
 PAM  SN ES        8 7 34.52                             151    0.2310 78.6  41 
 PAM  SZ I         8 7 36.36         5.1 0.60            155           78.6  41 
 RUS  HZ EP        8 7 18.35                             144    0.0310  102 175 
 RUS  HN ES        8 7 36.80                             144   -0.2010  102 175 
 RUS  HZ I         8 7 37.80         7.3 0.24            147            102 175 
 PTB  HZ EP        8 7 20.92                             133   -0.30 9  145 258 
 PTB  HN ES        8 7 42.19                             133    0.04 9  145 258 
 PTB  HZ I         8 7 46.77         9.9 0.28            132            145 258 
 OCA  HN ES        8 7 45.13                             130    0.35 9  159 354 
 OCA  HZ I         8 7 50.22         6.8 0.30            132            159 354 
 SPBC HZ EP        8 7 23.05                             129    0.19 9  162 218 
 SPBC HE ES        8 7 45.41                             129    0.33 9  162 218 
 SPBC HZ I         8 7 50.44        10.4 0.52            130            162 218 
 ZAR  HZ EP        8 7 26.67                             123    0.06 9  201 292 
 ZAR  HN ES        8 7 51.88                             123    0.12 9  201 292 
 ZAR  HZ I         8 7 58.44        34.6 0.94            123            201 292 
 NOR  HZ EP        8 7 29.99                             119    0.01 8  233 234 
 NOR  HN ES        8 7 57.64                             119   -0.12 8  233 234 
 NOR  HZ I         8 8  5.76         5.0 0.54            120            233 234 
 SML  HZ EP        8 7 30.61                             118   -0.27 8  242 336 
 SML  HN ES        8 7 59.01                             118   -0.34 8  242 336 
 SML  HZ I         8 8  3.88         9.9 0.22            119            242 336 
 CHI  HZ EP        8 7 32.28                             117    0.14 8  249 195 
 CHI  HN ES        8 8  1.60                             117    0.00 8  249 195 
 CHI  HZ I         8 8  7.46         3.3 0.26            119            249 195 
                                                                                
