 2015 1215 0432  9.2 L   6.816 -73.173144.9  RSN 22 0.4 2.7LRSN                1
 GAP=132        0.99       2.1     3.3  4.9 -0.1393E+01  0.6592E+01 -0.6666E+00E
 Epicentro: LOS SANTOS - SANTANDER                                             3
 ACTION:UPD 16-02-04 15:05 OP:cam  STATUS:               ID:20151215043209 L   I
 OLDACT:UP  15-12-15 16:32 OP:cara STATUS:               ID:20151215042745     3
 OLDACT:REG 15-12-15 13:08 OP:cara STATUS:               ID:20151215042745     3
 2015-12-15-0427-45M.COL___328                                                 6
 STAT SP IPHASW D HRMM SECON CODA AMPLIT PERI AZIMU VELO AIN AR TRES W  DIS CAZ7
 BAR2 EZ IP        432 28.77                             170    0.0610 24.7 182 
 BAR2 EZ ES        432 43.95                             170   -0.0110 24.7 182 
 BAR2 EZ I         432 45.27       142.8 0.32            170           24.7 182 
 BRR  HZ IP     C  432 30.56                             154    0.5410 67.7 298 
 BRR  HN ES   4    432 47.63                             154    1.34 0 67.7 298 
 BRR  HZ I         432 51.56        83.0 0.36            149           67.7 298 
 PAM  EZ EP        432 31.61                             150    0.2910 78.0  42 
 PAM  EN ES        432 49.15                             150    0.5410 78.0  42 
 PAM  EZ I         432 51.07        29.6 0.30            153           78.0  42 
 RUS  HZ EP        432 32.56                             143   -0.4110  103 174 
 RUS  HN ES        432 51.03                             143   -0.5110  103 174 
 RUS  HZ I         432 52.81        58.8 0.24            147            103 174 
 PTB  HZ EP        432 35.45                             132   -0.37 9  145 258 
 PTB  HN ES        432 56.10                             132   -0.51 9  145 258 
 PTB  HZ I         433  2.09        50.3 0.18            131            145 258 
 OCA  HZ EP        432 36.55                             130   -0.66 9  158 354 
 OCA  HN ES        432 59.08                             130   -0.01 9  158 354 
 OCA  HZ I         433  2.62       118.8 0.20            130            158 354 
 SPBC HZ EP        432 37.90                             129    0.36 9  163 218 
 SPBC HN ES        432 59.46                             129   -0.22 9  163 218 
 SPBC HZ I         433  1.54        76.6 0.12            130            163 218 
 ZAR  HZ EP        432 40.99                             123   -0.21 9  201 292 
 ZAR  HN ES        433  6.97                             123    0.79 9  201 292 
 ZAR  HZ I         433 11.94        54.6 0.24            122            201 292 
 NOR  HZ EP        432 44.89                             118    0.20 8  233 234 
 NOR  HN ES        433 11.72                             118   -0.67 8  233 234 
 NOR  HZ I         433 20.60        22.8 0.20            119            233 234 
 SML  HZ EP        432 44.87                             118   -0.56 8  241 336 
 SML  HN ES        433 13.86                             118    0.14 8  241 336 
 SML  HZ I         433 17.57        66.9 0.28            118            241 336 
 HEL  HZ EP   4    432 50.85                             115    1.80 0  270 255 
 HEL  HN ES        433 20.74                             115    0.57 8  270 255 
 HEL  HZ I         433 28.93        17.8 0.24            115            270 255 
 URE  HZ EP        432 49.15                             114   -0.65 7  280 292 
 URE  HE ES   4    433 20.24                             114   -1.26 0  280 292 
 URE  HZ I         433 30.16        36.6 0.24            114            280 292 
 GUY2CHZ EP   4    432 54.42                             112    1.85 0  300 234 
 GUY2CHE ES        433 26.71                             112    0.29 7  300 234 
 GUY2CHZ I         433 38.94        18.2 0.46                           300 234 
 VIL  SZ EP        432 52.42                             112   -0.24 7  304 191 
 VIL  SN ES        433 26.85                             112    0.26 7  304 191 
 LL6C HZ EP   4    432 53.43                             110   -1.19 0  323 358 
 LL6C HE ES   4    433 28.54                             110   -1.53 0  323 358 
 LL6C HZ I         433 42.62        12.3 0.46            111            323 358 
 CBOC HZ EP        432 56.21                             110    0.44 7  331 252 
 CBOC HN ES        433 31.62                             110   -0.51 7  331 252 
 CBOC HZ I         433 43.74         6.1 0.48            110            331 252 
 DBB  SZ EP        432 56.56                             109    0.32 7  336 274 
 DBB  SZ ES        433 32.72                             109   -0.24 7  336 274 
 DBB  SZ I         433 36.60        35.5 0.28            110            336 274 
 ANIL HZ EP   4    433  0.63                             108    1.80 0  356 224 
 ANIL HE ES        433 38.64                             108    1.07 6  356 224 
 ANIL HZ I         433 44.99        45.2 0.36            109            356 224 
 ARGC HZ EP        432 58.88                             108    0.40 6  357 341 
 ARGC HE ES        433 37.02                             108    0.07 6  357 341 
 ARGC HZ I         433 46.05         8.5 0.46            109            357 341 
 PRA  HZ EP        433  2.62                             106   -0.04 6  392 209 
 PRA  HN ES        433 44.65                             106    0.27 6  392 209 
 PRA  HZ I         433 51.04        25.2 0.40            108            392 209 
 ORTC HZ EP        433  3.43                             106    0.42 6  395 216 
 ORTC HN ES        433 45.39                             106    0.38 6  395 216 
 ORTC HZ I         433 52.40        12.7 0.54            107            395 216 
 SJC  HZ EP   4    433  2.89                             106   -1.44 0  406 327 
 SJC  HE ES        433 46.64                             106   -0.73 6  406 327 
 SJC  HZ I         433 58.75         8.5 0.30            106            406 327 
                                                                                
