 2010  115 0436 33.1 L   6.881 -73.300117.8  RSN 10 0.4 2.1LRSN                1
 GAP=105        0.77       3.1     4.0  6.0 -0.4415E+01  0.7506E+01 -0.4659E+01E
 Epicentro: BETULIA - SANTANDER                                                3
 ACTION:UP  10-08-24 09:44 OP:vdl  STATUS:               ID:20100115043633 L   I
 2010-01-15-0432-15S.COL___095                                                 6
 STAT SP IPHASW D HRMM SECON CODA AMPLIT PERI AZIMU VELO SNR AR TRES W  DIS CAZ7
 BAR2 SZ IP        436 49.78                             163     0.010   34 158 
 BAR2 SZ ES   1    437  2.77                             163     0.1 7   34 158 
 RUS  BZ IP        436 54.84                             134    -0.410  112 168 
 RUS  BZ I         436 55.61        10.5 0.20                           112 168 
 RUS  BN ES   1    437 12.71                             134     0.3 7  112 168 
 OCA  SZ IP        436 58.01                             124    -0.4 9  150 359 
 OCA  SZ ES   1    437 18.01                             124    -0.1 7  150 359 
 OCA  SZ I         437 24.82        48.7 0.33                           150 359 
 CHI  HZ EP   1    437  9.68                             110    -0.3 6  253 191 
 CHI  HE ES   2    437 39.23                             110     0.5 4  253 191 
 CHI  HZ I         437 50.61         5.2 0.39                           253 191 
 HEL  HZ EP   1    437 10.11                             110    -0.4 6  258 253 
 HEL  HE ES   1    437 40.17                             110     0.6 6  258 253 
 HEL  HZ I         437 43.71        14.3 0.18                           258 253 
 RREF BZ EP   2    437 18.40                             105     1.0 3  315 226 
 RREF BE ES   2    437 51.78                             105    -0.2 3  315 226 
 RREF BZ I         437 59.55        10.7 0.33                           315 226 
 DBB  SZ IP        437 18.01                             105     0.5 7  322 273 
 TOL  SZ EP   1    437 19.65                             104    -0.2 5  338 222 
 SDV  BZ IP        437 23.37                             102     0.2 6  368  53 
 SDV  BZ I         437 27.02         1.8 0.10                           368  53 
 SDV  BN ES        438  2.90                             102     0.7 6  368  53 
 PRA  HZ EP   2    437 25.23                             101    -0.6 3  392 207 
 PRA  HN ES   2    438  6.57                             101    -0.3 3  392 207 
 PRA  HZ I         438 14.05         8.9 0.28                           392 207 
                                                                                
