 2010  915 0134 47.8 L   6.751 -73.129142.6  RSN  8 0.5 1.9LRSN                1
 GAP=161        1.12       5.0    11.4  9.0 -0.8861E+01 -0.1339E+01 -0.3972E+01E
 Epicentro: LOS SANTOS - SANTANDER                                             3
 ACTION:UP  11-02-18 11:02 OP:tino STATUS:               ID:20100915013447 L   I
 2010-09-15-0130-45S.COL___119                                                 6
 STAT SP IPHASW D HRMM SECON CODA AMPLIT PERI AZIMU VELO SNR AR TRES W  DIS CAZ7
 BAR2 SZ EP        135  6.86                             172    -0.110   19 199 
 BAR2 SZ ES   1    135 21.36                             172    -0.6 7   19 199 
 BAR2 SZ I         135 23.46        34.7 0.15                            19 199 
 BTL  SZ EP        135  6.62                             170    -0.510   24 320 
 BRR  HZ EP        135  8.85                             151     0.010   76 301 
 BRR  HE ES   1    135 25.79                             151     0.5 7   76 301 
 BRR  HZ I         135 28.05        16.4 0.21                            76 301 
 RUS  HZ EP        135 10.90                             145     0.010   95 177 
 RUS  HN ES   1    135 29.36                             145     0.5 7   95 177 
 RUS  HZ I         135 30.73         8.1 0.27                            95 177 
 GRA  SZ EP        135 13.71                             135     0.510  130  16 
 GRA  SZ ES   1    135 33.35                             135     0.4 7  130  16 
 GRA  SZ I         135 34.94         9.6 0.56                           130  16 
 OCA  SZ EP        135 15.80                             128    -0.6 9  166 353 
 OCA  SZ ES   3    135 38.19                             128    -0.5 2  166 353 
 OCA  SZ I         135 42.38         8.0 0.30                           166 353 
 CHI  HZ EP   2    135 24.80                             117     0.0 4  244 196 
 CHI  HE ES   2    135 53.07                             117    -0.6 4  244 196 
 CHI  HZ I         135 57.89         4.5 0.75                           244 196 
 RREF HZ EP   1    135 34.40                             110     0.8 5  320 230 
 RREF HZ I         136 18.35         6.5 0.42                           320 230 
                                                                                
