 2015 1215 0746 36.4 L   6.789 -74.018 82.0  RSN  5 0.3 1.4LRSN                1
 GAP=139        0.83       2.4     3.9  5.9 -0.5425E+00  0.1566E+01 -0.2337E+01E
 Epicentro: PUERTO PARRA - SANTANDER                                           3
 ACTION:UPD 16-02-04 15:05 OP:cam  STATUS:               ID:20151215074636 L   I
 OLDACT:REG 15-12-15 13:27 OP:cara STATUS:               ID:20151215073744     3
 2015-12-15-0737-44M.COL___327                                                 6
 STAT SP IPHASW D HRMM SECON CODA AMPLIT PERI AZIMU VELO AIN AR TRES W  DIS CAZ7
 BRR  HZ IP     C  746 49.47                             146    0.0010 48.8  44 
 BRR  HN ES        746 59.69                             146    0.0710 48.8  44 
 BRR  HZ I         747  0.25         9.5 0.44            147           48.8  44 
 PTB  HZ IP        746 49.99                             143   -0.0010 55.8 240 
 PTB  HN ES        747  0.18                             143   -0.3710 55.8 240 
 PTB  HZ I         747  2.12         5.4 0.20            141           55.8 240 
 ZAR  HZ EP        746 55.72                             119   -0.4510  121 310 
 ZAR  HE ES        747 12.13                             119    0.5810  121 310 
 ZAR  HZ I         747 16.36         6.9 0.30            118            121 310 
 SPBC HZ IP     C  746 57.24                             118    0.4410  126 183 
 SPBC HE ES        747 12.67                             118   -0.0110  126 183 
 SPBC HZ I         747 12.95         7.5 0.20            120            126 183 
 SML  HZ EP        747  7.47                             105   -0.37 8  223 358 
 SML  HN ES        747 32.38                             105    0.05 8  223 358 
 SML  HZ I         747 36.41         3.1 0.24            105            223 358 
                                                                                
