 2011  215 0049 20.0 L   6.646 -73.543  8.9  RSN 10 0.3 3.2LRSN                1
 GAP=136        0.65       1.8     4.1  7.2 -0.2646E+01  0.2587E+02 -0.3707E+01E
 Epicentro: EL CARMEN DE CHUCURI - SANTANDER                                   3
 ACTION:UP  11-03-28 15:08 OP:jfem STATUS:               ID:20110215004919 L   I
 2011-02-15-0046-08S.COL___136                                                 6
 STAT SP IPHASW D HRMM SECON CODA AMPLIT PERI AZIMU VELO SNR AR TRES W  DIS CAZ7
 BAR2 SZ IP        049 26.95                              98     0.010   40  99 
 BAR2 SZ I         049 27.31      1798.1 0.36                            40  99 
 BAR2 SZ ES   1    049 32.71                              98     0.3 7   40  99 
 GIR2 SZ EP   1    049 29.73                              95    -0.3 7   61  39 
 RUS  HZ IP     D  049 35.82                              93    -0.110   98 149 
 RUS  HN ES   1    049 48.01                              93    -0.3 7   98 149 
 RUS  HZ I         049 48.99       360.3 0.26                            98 149 
 GUE  SZ EP   1    049 43.30                              92     0.0 7  148  28 
 GRA  SZ EP        049 44.89                              92     0.0 9  159  31 
 GRA  SZ ES   1    050  4.47                              92     0.2 7  159  31 
 GRA  SZ I         050  7.05      1124.7 0.30                           159  31 
 OCA  SZ EP   1    049 47.06                              56    -0.1 7  178   8 
 OCA  SZ ES   1    050  8.33                              56    -0.1 7  178   8 
 OCA  SZ I         050 10.27       366.4 0.24                           178   8 
 NOR  SZ EP   1    049 48.48                              56    -0.1 7  190 231 
 NOR  SN ES   1    050 10.25                              56    -0.6 7  190 231 
 GUY  SZ EP   1    049 57.72                              56     0.4 6  256 232 
 GUY  SN ES   1    050 27.33                              56     0.8 6  256 232 
 GUY  SZ I         050 34.92       107.0 0.36                           256 232 
 RREF HZ EP   1    050  0.29                              56     0.0 6  278 226 
 RREF HZ I         050 41.42        67.2 0.41                           278 226 
 TOL  SZ EP   1    050  3.07                              55     0.3 5  301 221 
                                                                                
