 2012 1015 0401 51.6 L   6.762 -73.135135.9  RSN  4 0.3 1.4LRSN                1
 GAP=140        0.60       3.8     5.0  5.8  0.1412E+01 -0.5150E+01 -0.3649E+00E
 Epicentro: LOS SANTOS - SANTANDER                                             3
 ACTION:UPD 12-11-22 17:03 OP:ep   STATUS:               ID:20121015040151 L   I
 2012-10-15-0400-00M.COL___230                                                 6
 STAT SP IPHASW D HRMM SECON CODA AMPLIT PERI AZIMU VELO AIN AR TRES W  DIS CAZ7
 BAR2 SZ EP   1    4 2 10.22                             171    0.22 7 19.5 196 
 BAR2 SZ ES   1    4 2 23.77                             171   -0.55 7 19.5 196 
 BAR2 SZ I         4 2 26.47         8.2 0.25                          19.5 196 
 BRR  HZ EP        4 2 11.81                             150   -0.1010 74.3 301 
 BRR  HN ES        4 2 27.86                             150    0.1410 74.3 301 
 BRR  HZ I         4 2 33.13         6.1 0.14                          74.3 301 
 PAM  SZ EP        4 2 12.95                             148   -0.0210 80.0  37 
 PAM  SZ I         4 2 13.23         8.2 0.11                          80.0  37 
 PAM  SN ES   1    4 2 29.76                             148    0.15 7 80.0  37 
 RUS  HZ EP   1    4 2 13.88                             143   -0.22 7 96.3 177 
 RUS  HZ I         4 2 15.38         2.7 0.11                          96.3 177 
 RUS  HN ES   1    4 2 32.01                             143    0.38 7 96.3 177 
                                                                                
