 2017  115 0738 49.5 L   6.481 -73.610112.4  RSN  4 0.3 0.8LRSN                1
 GAP=136        0.70       4.3     3.5  6.5  0.6193E+01  0.5953E+01  0.6783E+01E
 Epicentro: SANTA HELENA DEL OPON - SANTANDER                                  3
 ACTION:UPD 17-05-22 15:59 OP:jn   STATUS:               ID:20170115073849 L   I
 OLDACT:REG 17-01-15 12:54 OP:and  STATUS:               ID:20170115073750     3
 2017-01-15-0738-00M.COL___329                                                 6
 STAT SP IPHASW D HRMM SECON CODA AMPLIT PERI AZIMU VELO AIN AR TRES W  DIS CAZ7
 BAR2 EZ EP        739  6.04                             155   -0.0610 48.9  75 
 BAR2 EZ ES        739 18.61                             155   -0.4710 48.9  75 
 BAR2 EZ I         739 19.66         3.0 0.16            157           48.9  75 
 BRR  HZ EP        739  6.98                             146   -0.0710 70.1 351 
 BRR  HN ES        739 21.19                             146    0.4310 70.1 351 
 RUS  HZ EP        739  9.13                             140    0.1110 87.4 138 
 RUS  HE ES        739 24.54                             140    0.2710 87.4 138 
 RUS  HZ I         739 26.02         0.6 0.20            140           87.4 138 
 PTB  HZ EP        739  8.77                             137   -0.1110 93.8 274 
 PTB  HN ES        739 23.93                             137   -0.0910 93.8 274 
 PTB  HZ I         739 25.06         1.9 0.08            138           93.8 274 
                                                                                
