 2013 1215 0701 30.4 L   6.793 -73.175146.0  RSN  8 0.5 1.4LRSN                1
 GAP=133        1.11       4.4     5.9  8.0 -0.2542E+01  0.7193E+01 -0.9214E+01E
 Epicentro: LOS SANTOS - SANTANDER                                             3
 ACTION:UPD 14-01-13 10:18 OP:ep   STATUS:               ID:20131215070130 L   I
 OLDACT:REG 13-12-15 07:19 OP:jn   STATUS:               ID:20131215070000     3
 2013-12-15-0700-00M.COL___285                                                 6
 STAT SP IPHASW D HRMM SECON CODA AMPLIT PERI AZIMU VELO AIN AR TRES W  DIS CAZ7
 BAR2 SZ EP        7 1 49.99                             171    0.0010 22.2 182 
 BAR2 SZ ES        7 2  4.57                             171   -0.7410 22.2 182 
 BAR2 SZ I         7 2  5.89         9.0 0.40            170           22.2 182 
 BRR  HZ EP        7 1 51.70                             153    0.3110 68.8 300 
 BRR  HN ES        7 2  8.85                             153    1.0510 68.8 300 
 BRR  HZ I         7 2 12.70         4.6 0.28            151           68.8 300 
 PAM  SZ EP   1    7 1 52.91                             150    0.15 7 80.1  41 
 PAM  SN ES   1    7 2 10.17                             150   -0.06 7 80.1  41 
 RUS  HZ EP   1    7 1 54.40                             144    0.31 7  100 174 
 RUS  HN ES        7 2 12.72                             144    0.1210  100 174 
 RUS  HZ I         7 2 14.00         3.5 0.26            147            100 174 
 PTB  HZ EP   1    7 1 57.25                             133    0.21 7  144 259 
 PTB  HN ES        7 2 17.35                             133   -0.50 9  144 259 
 PTB  HZ I         7 2 24.12         2.4 0.36            132            144 259 
 OCA  HN ES   2    7 2 20.35                             129   -0.50 5  161 354 
 SPBC HN ES        7 2 20.46                             130   -0.21 9  161 218 
 SML  HZ EP        7 2  6.77                             117   -0.15 8  243 336 
 SML  HN ES   1    7 2 34.76                             117   -0.69 6  243 336 
                                                                                
