 2010  515 0239 40.4 L   7.080 -72.990148.0  RSN  9 0.5 2.3LRSN                1
 GAP=132        1.06       4.6     7.4  7.7 -0.1021E+02 -0.7912E+01  0.1087E+01E
 Epicentro: PIEDECUESTA - SANTANDER                                            3
 ACTION:UP  10-08-24 10:05 OP:vdl  STATUS:               ID:20100515023940 L   I
 2010-05-15-0238-10S.COL___100                                                 6
 STAT SP IPHASW D HRMM SECON CODA AMPLIT PERI AZIMU VELO AIN AR TRES W  DIS CAZ7
 BAR2 SZ EP        240  1.61                             158     0.210   58 202 
 BAR2 SZ ES   1    240 17.16                             158    -0.7 7   58 202 
 BRR  HZ IP     C  240  2.81                             150     0.510   80 272 
 BRR  HZ I         240  3.06       100.6 0.15                            80 272 
 BRR  HN ES   1    240 19.66                             150     0.3 7   80 272 
 GUE  SZ EP        240  3.50                             149     0.510   83   5 
 RUS  HZ EP        240  6.93                             137     0.110  132 184 
 RUS  HN ES   1    240 27.44                             137     0.1 7  132 184 
 RUS  HZ I         240 28.75        17.3 0.38                           132 184 
 OCA  SZ EP        240  6.08                             136    -0.410  133 344 
 OCA  SZ ES   1    240 26.16                             136    -0.6 7  133 344 
 OCA  SZ I         240 33.49        13.9 0.43                           133 344 
 HEL  HZ EP        240 23.51                             113     0.0 7  297 251 
 HEL  HZ I         241  1.72         7.8 0.69                           297 251 
 SDV  BZ EP        240 26.79                             111     0.0 7  328  52 
 SDV  BE ES   2    241  2.03                             111    -0.9 3  328  52 
 SDV  BZ I         241  5.07         7.6 0.37                           328  52 
 RREF HZ EP        240 29.91                             109    -0.5 6  355 227 
 RREF HE ES   2    241  8.27                             109    -1.2 3  355 227 
 RREF HZ I         241 17.55         5.3 0.15                           355 227 
 PRA  HZ EP        240 37.83                             105    -0.3 5  427 210 
 PRA  HN ES   2    241 23.48                             105     0.3 3  427 210 
 PRA  HZ I         241 26.79         4.2 0.51                           427 210 
                                                                                
