 2014 1215 0635 59.4 L   6.381 -73.443118.9  RSN  9 0.5 1.3LRSN                1
 GAP= 93        1.12       3.6     4.3  7.7 -0.3725E+01  0.1521E+02 -0.5469E+01E
 Epicentro: CHIMA - SANTANDER                                                  3
 ACTION:UPD 15-02-10 17:03 OP:nd   STATUS:               ID:20141215063559 L   I
 OLDACT:DUP 14-12-15 15:40 OP:fm   STATUS:               ID:20141215062743d    3
 OLDACT:REG 14-12-15 13:06 OP:fm   STATUS:               ID:20141215062742     3
 2014-12-15-0627-42M.COL___288                                                 6
 STAT SP IPHASW D HRMM SECON CODA AMPLIT PERI AZIMU VELO AIN AR TRES W  DIS CAZ7
 BAR2 EZ EP        636 16.39                             162    0.1510 37.1  51 
 BAR2 EZ ES   1    636 29.94                             162    0.56 7 37.1  51 
 BAR2 EZ I         636 31.46         8.7 0.22            161           37.1  51 
 RUS  HZ EP        636 18.11                             149   -0.0310 67.1 144 
 RUS  HE ES        636 32.39                             149   -0.3810 67.1 144 
 RUS  HZ I         636 34.39         2.4 0.26            145           67.1 144 
 BRR  HZ EP        636 19.16                             142    0.4210 85.7 340 
 BRR  HE ES        636 34.38                             142    0.5510 85.7 340 
 BRR  HZ I         636 35.61         6.1 0.42            136           85.7 340 
 SPBC HZ EP        636 20.04                             135   -0.5110  106 221 
 SPBC HN ES        636 37.15                             135    0.0910  106 221 
 SPBC HZ I         636 40.25         4.4 0.10            128            106 221 
 PAM  SZ EP        636 23.66                             128    0.0510  134  38 
 PAM  SN ES        636 42.18                             128   -0.3210  134  38 
 PAM  SZ I         636 46.74         1.8 0.24            124            134  38 
 ZAR  HZ EP        636 29.87                             116    0.20 9  199 308 
 ZAR  HN ES        636 52.47                             116   -0.82 9  199 308 
 ZAR  HZ I         636 58.08         1.9 0.14            111            199 308 
 OCA  HN ES        636 54.51                             116   -0.49 8  206   4 
 OCA  HZ I         636 57.83         3.1 0.44            111            206   4 
 HEL  HZ EP   1    636 34.11                             113    0.33 6  232 265 
 HEL  HZ I         637  1.65         1.1 0.28            107            232 265 
 CBOC HZ EP        636 41.30                             107    1.08 7  290 259 
 CBOC HE ES        637 11.59                             107   -0.48 7  290 259 
 CBOC HZ I         637 14.75         0.7 0.48            102            290 259 
                                                                                
