 2010  915 0214 14.6 L   6.746 -73.120146.6  RSN  5 0.4 1.6LRSN                1
 GAP=162        1.08       6.5    13.0 11.3  0.2523E+01 -0.2496E+02 -0.1198E+02E
 Epicentro: JORDAN - SANTANDER                                                 3
 ACTION:UP  11-02-18 11:02 OP:tino STATUS:               ID:20100915021414 L   I
 2010-09-15-0211-37S.COL___119                                                 6
 STAT SP IPHASW D HRMM SECON CODA AMPLIT PERI AZIMU VELO SNR AR TRES W  DIS CAZ7
 BAR2 SZ EP        214 34.19                             173     0.010   18 202 
 BAR2 SZ ES   1    214 49.17                             173    -0.4 7   18 202 
 BAR2 SZ I         214 51.25        10.8 0.36                            18 202 
 BTL  SZ EP        214 33.63                             170    -0.710   25 320 
 BRR  HZ EP        214 36.11                             151     0.010   77 301 
 BRR  HE ES   1    214 53.43                             151     0.5 7   77 301 
 RUS  HZ EP   1    214 38.14                             146     0.2 7   94 177 
 RUS  HN ES   1    214 56.73                             146     0.5 7   94 177 
 RUS  HZ I         214 58.55         5.5 0.10                            94 177 
 GRA  SZ EP   1    214 40.99                             136     0.7 7  131  16 
 GRA  SZ ES   1    215  0.43                             136     0.0 7  131  16 
 GRA  SZ I         215  1.79         7.1 0.34                           131  16 
                                                                                
