 2016  815 0650 20.1 L   5.865 -73.679122.0  RSN  4 0.3 1.0LRSN                1
 GAP=207        0.60       4.9     4.3  6.8 -0.8633E+01  0.3446E+01 -0.1120E+02E
 Epicentro: PUENTE NACIONAL - SANTANDER                                        3
 ACTION:UPD 16-10-29 15:35 OP:rebc STATUS:               ID:20160815065020 L   I
 OLDACT:REG 16-08-15 12:33 OP:ak   STATUS:               ID:20160815064739     3
 2016-08-15-0648-00M.COL___370                                                 6
 STAT SP IPHASW D HRMM SECON CODA AMPLIT PERI AZIMU VELO AIN AR TRES W  DIS CAZ7
 SPBC HZ EP   2    650 37.65                             157   -0.02 5 49.5 242 
 SPBC HE ES        650 51.47                             157    0.1410 49.5 242 
 SPBC HZ I         650 55.38         2.2 0.24                          49.5 242 
 BAR2 EZ EP   2    650 41.26                             139    0.23 5 97.4  34 
 BAR2 EZ ES        650 57.14                             139   -0.1910 97.4  34 
 BAR2 EZ I         651  2.15         1.3 0.09                          97.4  34 
 PTB  HZ EP        650 41.86                             134   -0.2510  114 311 
 PTB  HN ES        650 59.17                             134   -0.0710  114 311 
 PTB  HZ I         651  0.93         1.2 0.48                           114 311 
 BRR  HZ EP   2    650 44.71                             128    0.45 5  137 358 
 BRR  HN ES   2    651  3.97                             128    0.90 5  137 358 
 BRR  HZ I         651  5.75         2.8 0.42                           137 358 
                                                                                
