 2010 1015 0514 25.6 L   6.812 -73.070141.8  RSN 10 0.4 2.0LRSN                1
 GAP=167        0.94       4.7     8.2  7.3 -0.1521E+02  0.8187E+01  0.3250E+00E
 Epicentro: LOS SANTOS - SANTANDER                                             3
 ACTION:UP  11-02-18 11:09 OP:tino STATUS:               ID:20101015051425 L   I
 2010-10-15-0511-14S.COL___128                                                 6
 STAT SP IPHASW D HRMM SECON CODA AMPLIT PERI AZIMU VELO SNR AR TRES W  DIS CAZ7
 BTL  SZ EP        514 45.26                             170     0.410   25 298 
 BAR2 SZ EP        514 45.01                             168     0.110   27 207 
 BAR2 SZ ES   1    514 59.33                             168    -0.6 7   27 207 
 BAR2 SZ I         515  0.90        19.8 0.40                            27 207 
 BRR  HZ IP     C  514 46.92                             149     0.210   78 295 
 BRR  HE ES   1    515  3.45                             149     0.2 7   78 295 
 BRR  HZ I         515  5.18        20.6 0.16                            78 295 
 RUS  HZ EP   2    514 48.94                             142    -0.1 5  102 181 
 RUS  HN ES   1    515  7.76                             142     0.4 7  102 181 
 RUS  HZ I         515  8.99         7.3 0.24                           102 181 
 GUE  SZ EP   1    514 50.45                             139     0.7 7  114   8 
 GRA  SZ IP        514 49.92                             137    -0.310  122  14 
 GRA  SZ ES   1    515  8.65                             137    -0.8 7  122  14 
 GRA  SZ I         515 10.68        19.4 0.39                           122  14 
 NOR  SZ EP        515  1.59                             117    -0.4 8  242 235 
 NOR  SN ES   2    515 30.13                             117    -0.2 4  242 235 
 CHI  HZ EP   2    515  3.05                             116    -0.5 4  252 197 
 CHI  HN ES   2    515 32.85                             116    -0.2 4  252 197 
 CHI  HZ I         515 38.44         4.4 0.36                           252 197 
 HEL  HZ EP   2    515  6.57                             113     0.0 4  280 256 
 HEL  HZ I         515 44.89         6.7 0.66                           280 256 
 PRA  HZ EP   1    515 19.50                             105    -0.1 4  397 211 
 PRA  HZ I         516  5.85        11.4 0.22                           397 211 
                                                                                
