 2015  415 0243 42.8 L   6.776 -73.143145.6  RSN  8 0.5 2.0LRSN                1
 GAP=138        1.20       4.4     5.1  7.6 -0.4799E+00  0.9565E+01 -0.7782E+01E
 Epicentro: LOS SANTOS - SANTANDER                                             3
 ACTION:UPD 15-06-03 16:54 OP:cam  STATUS:               ID:20150415024342 L   I
 OLDACT:DUP 15-04-15 14:10 OP:carl STATUS:               ID:20150415023751d    3
 2015-04-15-0237-50M.COL___281                                                 6
 STAT SP IPHASW D HRMM SECON CODA AMPLIT PERI AZIMU VELO AIN AR TRES W  DIS CAZ7
 BAR2 EZ EP        244  2.34                             172   -0.0110 20.8 192 
 BAR2 EZ ES        244 17.22                             172   -0.3910 20.8 192 
 BAR2 EZ I         244 18.25        36.1 0.18            173           20.8 192 
 BRR  HZ EP        244  4.53                             152    0.5210 72.8 300 
 BRR  HN ES        244 21.31                             152    0.7410 72.8 300 
 BRR  HZ I         244 26.06        17.2 0.14            151           72.8 300 
 PAM  SZ EP        244  5.40                             150    0.3010 79.2  38 
 PAM  SN ES        244 22.37                             150   -0.1310 79.2  38 
 PAM  SZ I         244 24.78         9.1 0.20            152           79.2  38 
 RUS  HZ EP        244  6.36                             144    0.0310 97.9 176 
 RUS  HN ES        244 24.58                             144   -0.1110 97.9 176 
 RUS  HZ I         244 25.32        11.4 0.38            149           97.9 176 
 PTB  HZ EP        244  9.80                             132    0.07 9  148 260 
 PTB  HN ES        244 29.79                             132   -0.95 9  148 260 
 PTB  HZ I         244 35.30        11.1 0.36            133            148 260 
 SPBC HZ EP   4    244 11.35                             129    0.25 0  161 220 
 SPBC HN ES        244 33.23                             129    0.05 9  161 220 
 ZAR  HZ EP        244 15.79                             122    0.43 8  205 293 
 ZAR  HN ES        244 41.32                             122    0.55 8  205 293 
 SML  HZ EP        244 18.86                             117   -0.82 8  246 335 
 SML  HN ES        244 47.78                             117   -0.68 8  246 335 
 SML  HZ I         244 52.35        18.7 0.10            119            246 335 
                                                                                
