 2012  515 0502 33.9 L   6.796 -73.000148.0  RSN  4 0.2 1.6LRSN                1
 GAP=198        0.39       4.4     9.0  5.8  0.2446E+02 -0.2005E+02 -0.8155E+01E
 Epicentro: CEPITA - SANTANDER                                                 3
 ACTION:UP  12-07-05 12:05 OP:pat  STATUS:               ID:20120515050233 L   I
 2012-05-15-0500-00M.COL___195                                                 6
 STAT SP IPHASW D HRMM SECON CODA AMPLIT PERI AZIMU VELO SNR AR TRES W  DIS CAZ7
 BAR2 SZ EP   1    5 2 53.71                             168    -0.2 7   30 222 
 BAR2 SZ ES   1    5 3  9.69                             168     0.1 7   30 222 
 BAR2 SZ I         5 3 10.91         6.0 0.60                            30 222 
 BRR  HZ EP   1    5 2 56.22                             148     0.1 7   86 294 
 BRR  HZ I         5 2 56.34         7.8 0.14                            86 294 
 BRR  HN ES   1    5 3 13.49                             148     0.0 7   86 294 
 RUS  HZ EP   2    5 2 58.15                             144     0.3 5  100 185 
 RUS  HN ES   2    5 3 16.38                             144    -0.1 5  100 185 
 OCA  HN ES   2    5 3 25.14                             130     0.0 5  163 348 
                                                                                
