 2011  315 0631 18.7 L   6.784 -73.130143.8  RSN  6 0.3 1.8LRSN                1
 GAP=161        0.56       2.6     5.8  7.4 -0.6300E+01  0.2200E+02 -0.2668E+01E
 Epicentro: LOS SANTOS - SANTANDER                                             3
 ACTION:UP  11-06-16 14:33 OP:jfem STATUS:               ID:20110315063118 L   I
 2011-03-15-0629-45S.COL___137                                                 6
 STAT SP IPHASW D HRMM SECON CODA AMPLIT PERI AZIMU VELO SNR AR TRES W  DIS CAZ7
 RUS  HZ EP   1    631 41.88                             144    -0.3 7   99 177 
 RUS  HN ES   1    632  0.29                             144    -0.1 7   99 177 
 RUS  HZ I         632  2.33        11.1 0.28                            99 177 
 GRA  SZ EP   1    631 43.79                             136    -0.1 7  127  16 
 GRA  SZ ES   1    632  3.92                             136     0.4 7  127  16 
 GRA  SZ I         632  7.88         6.1 0.30                           127  16 
 OCA  SZ EP   1    631 46.91                             129    -0.2 7  162 353 
 OCA  SZ ES   2    632  8.79                             129    -0.4 5  162 353 
 OCA  SZ I         632 12.74        10.9 0.35                           162 353 
 NOR  SZ EP   1    631 54.58                             118     0.2 6  235 235 
 NOR  SN ES   2    632 22.15                             118    -0.1 4  235 235 
 NOR  SZ I         632 27.12         1.3 0.35                           235 235 
 CHI  HZ EP   1    631 55.95                             117    -0.2 6  247 196 
 CHI  HN ES   1    632 25.75                             117     0.4 6  247 196 
 CHI  HZ I         632 27.86         5.9 0.41                           247 196 
 HEL  HZ EP   1    631 59.31                             114     0.3 6  273 256 
 HEL  HN ES   2    632 30.10                             114    -0.3 4  273 256 
 HEL  HZ I         632 38.42         6.3 0.41                           273 256 
                                                                                
