 2013  215 0847 59.3 L   6.205 -73.698110.0  RSN  6 0.5 1.7LRSN                1
 GAP=177        1.13       9.3     5.6  9.0  0.3328E+02  0.1526E+02  0.4147E+01E
 Epicentro: LANDAZURI - SANTANDER                                              3
 ACTION:UPD 13-03-12 09:33 OP:ep   STATUS:               ID:20130215084759 L   I
 2013-02-15-0840-00M.COL___241                                                 6
 STAT SP IPHASW D HRMM SECON CODA AMPLIT PERI AZIMU VELO AIN AR TRES W  DIS CAZ7
 BAR2 SZ EP        848 17.21                             145    0.1210 71.4  53 
 BAR2 SZ ES        848 30.56                             145   -0.4010 71.4  53 
 BAR2 SZ I         848 31.87        46.1 0.38            127           71.4  53 
 RUS  HZ EP        848 18.18                             143    0.3710 76.3 117 
 RUS  HN ES   1    848 32.25                             143    0.02 7 76.3 117 
 RUS  HN I         848 33.84         3.9 0.28            124           76.3 117 
 PTB  HZ EP        848 18.26                             137   -0.0910 91.7 294 
 PTB  HN ES   1    848 32.97                             137   -0.22 7 91.7 294 
 PTB  HN I         848 35.51         7.2 0.16            126           91.7 294 
 ZAR  HZ EP        848 28.85                             115    0.52 9  192 318 
 ZAR  HE ES        848 51.84                             115    0.88 9  192 318 
 ZAR  HE I         848 52.90        11.3 0.36            105            192 318 
 TAM  HZ EP        848 30.58                             112   -0.14 8  213  83 
 TAM  HN I         848 55.13         3.5 0.20            102            213  83 
 URE  HZ EP        848 35.70                             107   -1.04 8  265 310 
 URE  HE ES   1    849  5.24                             107   -0.70 6  265 310 
 URE  HE I         849  7.18         4.1 0.14            100            265 310 
                                                                                
