 2013  215 0115 12.5 L   6.800 -73.145147.7  RSN  6 0.4 1.8LRSN                1
 GAP=137        1.02       4.5     5.3  6.8 -0.2535E+01  0.3675E+01  0.8054E+01E
 Epicentro: LOS SANTOS - SANTANDER                                             3
 ACTION:UPD 13-03-12 09:33 OP:ep   STATUS:               ID:20130215011512 L   I
 2013-02-15-0110-00M.COL___241                                                 6
 STAT SP IPHASW D HRMM SECON CODA AMPLIT PERI AZIMU VELO AIN AR TRES W  DIS CAZ7
 BAR2 SZ EP        115 32.30                             171   -0.0910 23.4 190 
 BAR2 SZ ES        115 48.22                             171    0.3410 23.4 190 
 BAR2 SZ I         115 49.74        20.7 0.28            168           23.4 190 
 BRR  HN E         112 35.48                                           71.3 298 
 BRR  HZ EP        115 34.05                             153    0.1610 71.3 298 
 BRR  HN ES        115 51.19                             153    0.6410 71.3 298 
 PAM  SZ EP        115 35.01                             151    0.0710 77.3  39 
 PAM  SN ES        115 52.10                             151   -0.3210 77.3  39 
 PAM  SN I         115 53.20         8.7 0.24            154           77.3  39 
 RUS  HZ EP        115 36.48                             144    0.0110  101 176 
 RUS  HN ES        115 54.63                             144   -0.5210  101 176 
 RUS  HN I         115 56.55        10.7 0.30            143            101 176 
 PTB  HZ EP        115 39.49                             132   -0.18 9  148 259 
 PTB  HN ES        116  0.10                             132   -0.73 9  148 259 
 PTB  HN I         116  3.33         6.2 0.10            133            148 259 
 CHI  HZ EP        115 50.47                             117    0.13 8  249 195 
 CHI  HN ES        116 20.51                             117    0.67 8  249 195 
 CHI  HN I         116 25.55         4.0 0.42            118            249 195 
                                                                                
