 2012 1115 0452 49.6 L   6.819 -73.166147.2  RSN  9 0.4 2.1LRSN                1
 GAP= 69        0.68       2.8     3.1  5.5  0.7643E+00  0.3295E+01 -0.8677E+00E
 Epicentro: LOS SANTOS - SANTANDER                                             3
 ACTION:UPD 12-12-05 15:33 OP:}ep  STATUS:               ID:20121115045249 L   I
 2012-11-15-0450-00M.COL___230                                                 6
 STAT SP IPHASW D HRMM SECON CODA AMPLIT PERI AZIMU VELO AIN AR TRES W  DIS CAZ7
 BAR2 SZ EP   1    453  9.55                             170    0.09 7 25.1 184 
 BAR2 SZ ES   1    453 24.78                             170   -0.15 7 25.1 184 
 PAM  SZ EP   1    453 12.32                             151    0.34 7 77.3  42 
 PAM  SN ES   1    453 29.63                             151    0.21 7 77.3  42 
 PAM  SZ I         453 31.40        26.7 0.58                          77.3  42 
 RUS  HZ EP   1    453 13.48                             143   -0.19 7  103 175 
 RUS  HE ES   1    453 32.37                             143   -0.06 7  103 175 
 RUS  HZ I         453 34.90         7.5 0.28                           103 175 
 PTB  HZ EP   1    453 16.04                             133   -0.50 7  146 258 
 PTB  HN ES   1    453 37.48                             133   -0.06 7  146 258 
 PTB  HZ I         453 43.27        25.1 0.34                           146 258 
 OCA  HZ EP   1    453 18.05                             130    0.22 7  158 354 
 OCA  HN ES   1    453 39.52                             130   -0.31 7  158 354 
 TAM  HZ EP   1    453 17.73                             130    0.07 7  158 105 
 TAM  HZ I         453 17.98        11.0 0.38                           158 105 
 TAM  HE ES   1    453 39.54                             130    0.01 7  158 105 
 ZAR  HN ES   1    453 47.97                             123    0.95 6  201 292 
 ZAR  HZ I         453 53.67        19.2 0.36                           201 292 
 SML  HZ EP   1    453 25.69                             118   -0.33 6  241 336 
 SML  HN ES   1    453 53.86                             118   -0.56 6  241 336 
 PRA  HZ EP   1    453 44.08                             107    0.81 4  393 209 
 PRA  HZ I         453 45.94         2.5 0.12                           393 209 
 PRA  HN ES   1    454 24.71                             107   -0.41 4  393 209 
                                                                                
