 2010  915 0141  8.2 L   6.742 -73.134145.7  RSN  5 0.4 1.5LRSN                1
 GAP=161        1.10       7.2    13.0 11.9 -0.3597E+01 -0.2723E+02 -0.2774E+02E
 Epicentro: JORDAN - SANTANDER                                                 3
 ACTION:UP  11-02-18 11:02 OP:tino STATUS:               ID:20100915014108 L   I
 2010-09-15-0138-53S.COL___119                                                 6
 STAT SP IPHASW D HRMM SECON CODA AMPLIT PERI AZIMU VELO SNR AR TRES W  DIS CAZ7
 BAR2 SZ EP        141 27.56                             173    -0.110   18 198 
 BAR2 SZ ES   1    141 42.78                             173    -0.1 7   18 198 
 BAR2 SZ I         141 44.15        11.0 0.21                            18 198 
 BTL  SZ EP        141 27.07                             170    -0.710   24 323 
 BRR  HZ EP        141 29.54                             151     0.010   76 302 
 BRR  HE ES   1    141 46.64                             151     0.4 7   76 302 
 BRR  HZ I         141 49.12         4.9 0.18                            76 302 
 RUS  HZ EP   3    141 31.84                             146     0.4 2   94 177 
 RUS  HN ES   1    141 50.00                             146     0.4 7   94 177 
 RUS  HZ I         141 52.04         4.7 0.36                            94 177 
 GRA  SZ EP        141 34.47                             136     0.610  131  16 
 GRA  SZ ES   1    141 53.84                             136    -0.1 7  131  16 
 GRA  SZ I         141 55.26         4.9 0.29                           131  16 
                                                                                
