 2017  515 0439 11.1 L   6.765 -73.143142.0  RSN  5 0.3 1.3LRSN                1
 GAP=198        0.75       6.6     4.1  8.0 -0.1428E+02 -0.2684E+00  0.1991E+02E
 Epicentro: LOS SANTOS - SANTANDER                                             3
 ACTION:UPD 17-06-16 13:36 OP:jn   STATUS:               ID:20170515043911 L   I
 OLDACT:REG 17-05-15 12:32 OP:dnl  STATUS:               ID:20170515043634     3
 2017-05-15-0438-00M.COL___359                                                 6
 STAT SP IPHASW D HRMM SECON CODA AMPLIT PERI AZIMU VELO AIN AR TRES W  DIS CAZ7
 BRR  HZ EP        439 32.00                             152    0.0410 73.4 301 
 BRR  HN ES        439 48.81                             152    0.5710 73.4 301 
 BRR  HZ I         439 49.60         4.5 0.28            152           73.4 301 
 PAM  EZ EP        439 32.99                             150   -0.1010 80.2  38 
 PAM  EN ES        439 50.10                             150   -0.1410 80.2  38 
 PAM  EZ I         439 51.65         3.2 0.16            154           80.2  38 
 PTB  HZ EP   2    439 37.21                             132   -0.51 5  147 260 
 PTB  HN ES        439 58.04                             132   -0.45 9  147 260 
 PTB  HZ I         440  1.76         2.1 0.54            131            147 260 
 ZAR  HZ EP   2    439 44.08                             122    0.60 4  206 293 
 ZAR  HE ES        440  8.49                             122   -0.25 8  206 293 
 ZAR  HZ I         440 13.22         2.0 0.16            122            206 293 
 NOR  HZ EP   2    439 46.77                             118    0.38 4  233 235 
 NOR  HN ES        440 14.13                             118    0.21 8  233 235 
 NOR  HZ I         440 21.45         1.7 0.18            118            233 235 
                                                                                
