 2012  415 0645 16.8 L   6.745 -73.097142.4  RSN  6 0.3 1.9LRSN                1
 GAP=145        0.67       3.5     3.7  5.1 -0.4330E+00  0.4038E+01  0.1144E+01E
 Epicentro: JORDAN - SANTANDER                                                 3
 ACTION:UPD 12-07-05 11:53 OP:tino STATUS:               ID:20120415064516 L   I
 2012-04-15-0639-39M.COL___159                                                 6
 STAT SP IPHASW D HRMM SECON CODA AMPLIT PERI AZIMU VELO AIN AR TRES W  DIS CAZ7
 BAR2 SZ EP        645 36.14                             172     0.210   19 209 
 BAR2 SZ ES        645 50.76                             172    -0.110   19 209 
 BAR2 SZ I         645 52.46        29.2 0.23                            19 209 
 BRR  HZ EP        645 37.96                             149    -0.110   79 301 
 BRR  HE ES        645 54.92                             149     0.310   79 301 
 BRR  HZ I         645 56.89        20.3 0.06                            79 301 
 PAM  SZ EP        645 38.84                             150     0.110   79  34 
 PAM  SN ES        645 55.79                             150    -0.110   79  34 
 RUS  HZ EP        645 39.74                             145     0.010   94 179 
 RUS  HE ES   1    645 57.33                             145    -0.3 7   94 179 
 RUS  HZ I         645 59.54         6.9 0.39                            94 179 
 ZAR  HZ EP   1    645 49.66                             121    -0.1 6  211 293 
 ZAR  HE ES   1    646 14.89                             121    -0.6 6  211 293 
 ZAR  HZ I         646 20.33         8.4 0.44                           211 293 
 NOR  SN ES   1    646 20.67                             118     0.4 6  236 236 
                                                                                
