 2013  215 0326 10.3 L   6.771 -73.132148.5  RSN 10 0.5 2.2LRSN                1
 GAP=140        1.22       3.6     5.4  7.3  0.1318E+01  0.9839E+01  0.1293E+01E
 Epicentro: LOS SANTOS - SANTANDER                                             3
 ACTION:UPD 13-03-12 09:33 OP:ep   STATUS:               ID:20130215032610 L   I
 2013-02-15-0320-00M.COL___241                                                 6
 STAT SP IPHASW D HRMM SECON CODA AMPLIT PERI AZIMU VELO AIN AR TRES W  DIS CAZ7
 BAR2 SZ EP        326 30.18                             172   -0.0810 20.5 196 
 BAR2 SZ ES        326 45.50                             172   -0.2910 20.5 196 
 BAR2 SZ I         326 46.95        29.2 0.44            169           20.5 196 
 BRR  HZ IP     C  326 32.09                             152    0.1310 74.1 300 
 BRR  HN ES        326 49.57                             152    0.7610 74.1 300 
 BRR  HN I         326 53.68        42.9 0.20            150           74.1 300 
 PAM  SZ EP        326 32.97                             151    0.0210 79.0  37 
 PAM  SN ES        326 50.32                             151   -0.2610 79.0  37 
 PAM  SN I         326 51.51        11.0 0.46            155           79.0  37 
 RUS  HZ EP        326 34.09                             145   -0.0510 97.3 177 
 RUS  HN ES        326 52.77                             145    0.0710 97.3 177 
 RUS  HE I         326 55.56        15.3 0.58            147           97.3 177 
 PTB  HZ EP        326 36.81                             132   -0.81 9  149 260 
 PTB  HN ES   1    326 58.35                             132   -0.54 7  149 260 
 PTB  HN I         327  3.83        15.6 0.32            131            149 260 
 OCA  HN ES        327  1.62                             130   -0.06 9  164 353 
 OCA  HN I         327  4.23        43.4 0.24            131            164 353 
 ZAR  HN ES        327  8.05                             123   -0.85 8  207 293 
 CHI  HZ EP        326 48.25                             118    0.34 8  246 196 
 CHI  HN ES        327 17.80                             118    0.59 8  246 196 
 CHI  HN I         327 22.43        10.5 0.26            119            246 196 
 SML  HZ EP        326 47.14                             118   -0.37 8  247 335 
 SML  HN ES        327 17.65                             118    1.15 8  247 335 
 SML  HN I         327 23.26        18.6 0.10            118            247 335 
 HEL  HN ES   1    327 23.09                             115    0.78 6  273 257 
 HEL  HN I         327 28.68         3.5 0.34            115            273 257 
                                                                                
