 2011 1015 0232 47.9 L   6.853 -73.121136.4  RSN  5 0.4 1.6LRSN                1
 GAP=137        0.71       6.6     6.0  9.1  0.4568E+01 -0.5995E+01 -0.7977E+01E
 Epicentro: LOS SANTOS - SANTANDER                                             3
 ACTION:UPD 12-07-13 16:03 OP:ep   STATUS:               ID:20111015023247 L   I
 2011-10-15-0229-40S.COL___168                                                 6
 STAT SP IPHASW D HRMM SECON CODA AMPLIT PERI AZIMU VELO AIN AR TRES W  DIS CAZ7
 BAR2 SZ ES   2    233 20.19                             167   -0.89 5 29.6 193 
 BRR  HZ EP        233  8.28                             151    0.2610 71.1 293 
 BRR  HE ES   1    233 23.80                             151    0.08 7 71.1 293 
 BRR  HZ I         233 33.49        10.0 0.46                          71.1 293 
 PAM  SZ EP        233  8.60                             151   -0.1210 71.2  41 
 PAM  SE ES   2    233 25.25                             151    0.27 5 71.2  41 
 RUS  HZ EP   2    233 10.55                             140   -0.60 5  106 178 
 RUS  HE ES   2    233 30.01                             140    0.70 5  106 178 
 ZAR  HN ES   2    233 44.37                             120   -0.29 4  204 290 
 ZAR  HZ I         233 49.43         2.4 0.44                           204 290 
                                                                                
