 2010  815 0926 24.7 L   6.233 -73.314145.0  RSN 11 0.3 1.9LRSN                1
 GAP=126        0.77       3.1     6.0  5.8 -0.7299E+01  0.5900E+01  0.2657E+01E
 Epicentro: OIBA - SANTANDER                                                   3
 ACTION:UP  10-09-07 10:55 OP:vdl  STATUS:               ID:20100815092624 L   I
 2010-08-15-0924-08S.COL___111                                                 6
 STAT SP IPHASW D HRMM SECON CODA AMPLIT PERI AZIMU VELO SNR AR TRES W  DIS CAZ7
 BAR2 SZ EP        926 44.90                             163     0.110   42  20 
 BAR2 SZ ES   1    927  0.30                             163    -0.1 7   42  20 
 BAR2 SZ I         927  1.82        18.1 0.12                            42  20 
 RUS  HZ EP        926 45.40                             162     0.110   46 146 
 RUS  HN ES   2    927  1.44                             162     0.1 5   46 146 
 RUS  HZ I         927  4.75         6.0 0.30                            46 146 
 GIR2 SZ EP   1    926 47.92                             145     0.4 7   94   8 
 BRR  HZ EP        926 48.03                             142    -0.110  106 336 
 BRR  HE ES        927  6.48                             142     0.110  106 336 
 BRR  HZ I         927  7.49        17.9 0.25                           106 336 
 GUE  SZ EP        926 55.67                             126     0.4 9  182  14 
 GUE  SZ I         927 24.23         4.1 0.18                           182  14 
 CHI  HZ EP   1    926 55.76                             126     0.2 7  183 195 
 CHI  HE ES   2    927 19.07                             126    -0.5 4  183 195 
 CHI  HZ I         927 25.28         6.0 0.18                           183 195 
 GRA  SZ EP   1    926 55.25                             124    -0.7 7  191  17 
 GRA  SZ ES   1    927 19.70                             124    -0.7 7  191  17 
 GRA  SZ I         927 25.97         5.9 0.29                           191  17 
 OCA  SZ EP   1    926 59.08                             120    -0.1 6  222 360 
 OCA  SZ ES   1    927 26.16                             120     0.1 6  222 360 
 OCA  SZ I         927 34.24        13.9 0.53                           222 360 
 HEL  HZ EP   2    927  1.36                             117    -0.6 4  245 269 
 HEL  HZ I         927 34.96         4.4 0.34                           245 269 
 RREF HZ EP        927  4.96                             115     0.0 8  269 237 
 RREF HN ES   2    927 36.54                             115     0.3 4  269 237 
 RREF HZ I         927 41.32         6.5 0.25                           269 237 
 PRA  HZ EP   1    927 11.10                             110     0.2 5  329 212 
 PRA  HE ES   1    927 46.37                             110    -0.5 5  329 212 
 PRA  HZ I         927 50.43        11.3 0.43                           329 212 
                                                                                
