 2015 1215 0655 31.7 L   6.809 -73.115146.6  RSN 12 0.4 1.8LRSN                1
 GAP=140        0.97       2.8     3.9  5.5 -0.2586E+01  0.8499E+01 -0.1877E+01E
 Epicentro: LOS SANTOS - SANTANDER                                             3
 ACTION:UPD 16-02-04 15:05 OP:cam  STATUS:               ID:20151215065531 L   I
 OLDACT:DUP 15-12-15 17:52 OP:cara STATUS:               ID:20151215064751d    3
 2015-12-15-0647-50M.COL___328                                                 6
 STAT SP IPHASW D HRMM SECON CODA AMPLIT PERI AZIMU VELO AIN AR TRES W  DIS CAZ7
 BAR2 EZ EP        655 51.34                             170   -0.1710 25.1 197 
 BAR2 EZ ES        656  6.82                             170   -0.1110 25.1 197 
 BAR2 EZ I         656  7.24         8.8 0.12            169           25.1 197 
 BRR  HZ EP        655 53.28                             152    0.1510 73.8 297 
 BRR  HN ES        656 10.26                             152    0.4510 73.8 297 
 BRR  HZ I         656 15.62        14.8 0.14            149           73.8 297 
 PAM  EZ IP     C  655 54.49                             152    0.6110 74.4  38 
 PAM  EN ES        656 11.40                             152    0.2610 74.4  38 
 PAM  EZ I         656 13.60        10.1 0.48            155           74.4  38 
 RUS  HZ EP        655 55.88                             144    0.2410  101 178 
 RUS  HN ES        656 13.77                             144   -0.5010  101 178 
 RUS  HZ I         656 14.65         3.2 0.46            147            101 178 
 PTB  HZ EP        655 58.60                             131   -0.51 9  151 259 
 PTB  HN ES   4    656 19.19                             131   -1.26 0  151 259 
 PTB  HZ I         656 22.28        11.4 0.16            132            151 259 
 OCA  HZ EP        656  0.35                             130    0.28 9  160 352 
 OCA  HN ES        656 21.73                             130   -0.43 9  160 352 
 SPBC HZ EP        656  0.65                             129    0.06 9  166 220 
 SPBC HN ES        656 22.73                             129   -0.35 9  166 220 
 SPBC HZ I         656 29.40         7.0 0.20            130            166 220 
 ZAR  HZ EP        656  3.76                             122   -0.78 8  207 292 
 ZAR  HE ES        656 30.42                             122    0.31 8  207 292 
 ZAR  HZ I         656 34.43         7.4 0.30            123            207 292 
 NOR  HN ES        656 36.05                             118   -0.03 8  238 235 
 NOR  HZ I         656 37.32         4.2 0.14            120            238 235 
 SML  HZ EP        656  8.47                             118   -0.01 8  244 334 
 SML  HE ES        656 36.52                             118   -0.61 8  244 334 
 SML  HZ I         656 43.72         9.7 0.26            119            244 334 
 HEL  HZ EP        656 12.70                             115    0.30 7  276 256 
 HEL  HE ES        656 44.33                             115    0.22 7  276 256 
 HEL  HZ I         656 51.96         2.9 0.34            116            276 256 
 GUY2CHZ EP   4    656 17.89                             112    2.11 0  305 235 
 GUY2CHN ES        656 50.77                             112    0.65 7  305 235 
 GUY2CHZ I         656 56.84         3.3 0.24                           305 235 
                                                                                
