 2014  215 0520 47.0 L   6.820 -73.179146.9  RSN 10 0.4 1.8LRSN                1
 GAP=131        0.84       2.4     3.4  4.9 -0.8296E+00  0.5780E+01  0.7220E-01E
 Epicentro: LOS SANTOS - SANTANDER                                             3
 ACTION:UPD 14-03-10 08:10 OP:ep   STATUS:               ID:20140215052047 L   I
 OLDACT:REG 14-02-15 09:03 OP:carl STATUS:               ID:20140215052000     3
 2014-02-15-0520-00M.COL___206                                                 6
 STAT SP IPHASW D HRMM SECON CODA AMPLIT PERI AZIMU VELO AIN AR TRES W  DIS CAZ7
 BAR2 SZ EP        521  6.85                             170    0.0110 25.2 181 
 BAR2 SZ ES        521 22.25                             170   -0.0510 25.2 181 
 BAR2 SZ I         521 23.24        20.5 0.20            169           25.2 181 
 PAM  SZ EP        521  9.77                             151    0.3510 78.1  43 
 PAM  SN ES        521 26.82                             151   -0.0610 78.1  43 
 PAM  SZ I         521 28.51         6.2 0.70            154           78.1  43 
 RUS  HZ EP        521 10.85                             143   -0.2310  103 174 
 RUS  HN ES        521 29.94                             143    0.1010  103 174 
 RUS  HZ I         521 30.56         6.8 0.22            147            103 174 
 PTB  HZ EP        521 13.34                             133   -0.48 9  145 258 
 PTB  HN ES        521 34.45                             133   -0.25 9  145 258 
 PTB  HZ I         521 39.58         7.1 0.26            131            145 258 
 SPBC HZ EP        521 15.67                             129    0.10 9  163 217 
 SPBC HE ES        521 38.00                             129    0.17 9  163 217 
 SPBC HZ I         521 44.81         8.4 0.40            130            163 217 
 ZAR  HZ EP        521 18.51                             123   -0.61 9  200 292 
 ZAR  HN ES        521 44.90                             123    0.74 9  200 292 
 ZAR  HZ I         521 54.79         5.4 0.28            122            200 292 
 NOR  HZ EP        521 23.10                             119    0.45 8  233 233 
 NOR  HE ES        521 50.64                             119    0.21 8  233 233 
 NOR  HZ I         521 55.65         5.1 0.34            119            233 233 
 SML  HZ EP        521 23.40                             118    0.05 8  240 336 
 SML  HN ES        521 51.35                             118   -0.32 8  240 336 
 SML  HZ I         522  3.88         7.2 0.26            118            240 336 
 CHI  HZ EP        521 25.16                             117    0.23 8  250 194 
 CHI  HN ES        521 54.24                             117   -0.24 8  250 194 
 CHI  HZ I         521 57.68         2.9 0.38            119            250 194 
 PRA  HZ EP        521 41.29                             107    0.68 6  392 209 
 PRA  HN ES        522 21.55                             107   -0.85 6  392 209 
 PRA  HZ I         522 29.55         2.4 0.68            108            392 209 
                                                                                
