 2017  715 0050 55.3 L   6.893 -73.238124.8  RSN  4 0.1 1.1LRSN                1
 GAP=235        0.37       2.8     2.7  3.6  0.3561E+01  0.1093E+01  0.3831E+00E
 Epicentro: BETULIA - SANTANDER                                                3
 ACTION:UPD 17-08-30 15:33 OP:rebc STATUS:               ID:20170715005055 L   I
 OLDACT:REG 17-07-15 12:19 OP:dnl  STATUS:               ID:20170715004744     3
 2017-07-15-0048-00M.COL___383                                                 6
 STAT SP IPHASW D HRMM SECON CODA AMPLIT PERI AZIMU VELO AIN AR TRES W  DIS CAZ7
 BAR2 EZ EP        051 12.90                             164    0.1810 33.8 169 
 BAR2 EZ ES        051 26.37                             164    0.0710 33.8 169 
 BRR  HZ EP        051 13.31                             154   -0.1010 57.4 294 
 BRR  HN ES        051 27.44                             154   -0.0910 57.4 294 
 BRR  HZ I         051 28.31         6.6 0.28            155           57.4 294 
 RUS  HZ EP   2    051 18.03                             136    0.03 5  112 171 
 RUS  HN ES        051 35.56                             136   -0.1410  112 171 
 RUS  HZ I         051 38.10         2.0 0.30            135            112 171 
 PTB  HZ EP   2    051 19.80                             128   -0.12 5  140 254 
 PTB  HE ES        051 39.21                             128    0.10 9  140 254 
 PTB  HZ I         051 39.98         1.3 0.16            128            140 254 
                                                                                
