 2017  215 0043 34.7 L   6.817 -73.142144.9  RSN  9 0.5 1.7LRSN                1
 GAP=119        1.14       4.5     4.7  8.4 -0.4938E+00  0.7737E+01  0.1496E+02E
 Epicentro: LOS SANTOS - SANTANDER                                             3
 ACTION:UPD 17-05-24 15:36 OP:jn   STATUS:               ID:20170215003744 L   I
 OLDACT:UP  17-02-15 13:50 OP:dani STATUS:               ID:20170215003744 L   3
 OLDACT:UP  17-02-15 13:48 OP:dani STATUS:               ID:20170215003744 L   3
 OLDACT:UP  17-02-15 13:48 OP:dani STATUS:               ID:20170215003744 L   3
 OLDACT:UP  17-02-15 13:48 OP:dani STATUS:               ID:20170215003744 L   3
 OLDACT:UPD 17-02-15 12:31 OP:edw  STATUS:               ID:20170215003744 L   3
 2017-02-15-0038-00M.COL___364                                                 6
 STAT SP IPHASW D HRMM SECON CODA AMPLIT PERI AZIMU VELO AIN AR TRES W  DIS CAZ7
 BRR  HZ EP        043 56.22                             152    0.4910 70.7 297 
 BRR  HN ES        044 12.88                             152    0.7510 70.7 297 
 BRR  HZ I         044 17.24         9.3 0.15            152           70.7 297 
 PAM  EZ EP        043 57.17                             151    0.4410 75.7  40 
 PAM  EE ES        044 13.48                             151   -0.4310 75.7  40 
 PAM  EZ I         044 16.97         3.2 0.16            158           75.7  40 
 RUS  HZ EP        043 58.04                             143   -0.4710  102 176 
 RUS  HN ES        044 16.88                             143   -0.1910  102 176 
 RUS  HZ I         044 17.90         5.3 0.26            145            102 176 
 PTB  HZ EP        044  1.05                             132   -0.62 9  149 258 
 PTB  HN ES        044 22.13                             132   -0.58 9  149 258 
 PTB  HZ I         044 29.19         6.6 0.23            132            149 258 
 ZAR  HZ EP   4    044  5.14                             122   -1.92 0  204 292 
 ZAR  HE ES        044 32.38                             122    0.08 9  204 292 
 ZAR  HZ I         044 37.74        10.5 0.36            124            204 292 
 NOR  HZ EP        044 10.61                             118    0.07 8  236 234 
 NOR  HN ES        044 38.02                             118   -0.47 8  236 234 
 NOR  HZ I         044 43.66         3.5 0.17            120            236 234 
 CHI  HZ EP        044 12.60                             117    0.03 8  251 195 
 CHI  HE ES        044 42.96                             117    0.86 8  251 195 
 CHI  HZ I         044 51.79         2.4 0.31            119            251 195 
 PTGC HZ EP   3    044 17.30                             111   -1.41 2  310 159 
 PRA  HZ EP   3    044 29.39                             106    0.98 1  394 209 
 PRA  HN ES        045 10.68                             106    0.38 6  394 209 
 PRA  HZ I         045 16.85         2.9 0.32            108            394 209 
                                                                                
