 2012  215 0703 16.1 L   6.721 -73.203156.0  RSN  5 0.2 1.4LRSN                1
 GAP=224        0.41       6.0     5.3  7.3  0.1764E+02 -0.2270E+01 -0.5170E+01E
 ACTION:UP  12-03-07 16:30 OP:epov STATUS:               ID:20120215070316 L   I
 2012-02-15-0700-00M.COL___188                                                 6
 STAT SP IPHASW D HRMM SECON CODA AMPLIT PERI AZIMU VELO AIN AR TRES W  DIS CAZ7
 BAR2 SZ EP   1    7 3 36.49                             174   -0.36 7 14.5 171 
 BAR2 SZ I         7 3 37.05         2.3 0.20                          14.5 171 
 BRR  HZ EP   1    7 3 38.55                             154    0.20 7 70.6 307 
 BRR  HE ES   2    7 3 55.78                             154    0.09 5 70.6 307 
 BRR  HZ I         7 3 59.40         6.0 0.16                          70.6 307 
 RUS  HZ EP   2    7 3 40.56                             148    0.20 5 92.6 172 
 RUS  HE ES   2    7 3 59.40                             148    0.13 5 92.6 172 
 PTB  HZ EP   1    7 3 43.37                             136    0.09 7  140 262 
 PTB  HN ES   2    7 4  4.22                             136   -0.24 5  140 262 
 ZAR  HE ES   2    7 4 14.66                             125   -0.02 4  202 295 
 ZAR  HZ I         7 4 20.20         3.4 0.41                           202 295 
                                                                                
