 2012 1215 0654 14.3 L   6.771 -73.138147.6  RSN  6 0.4 1.4LRSN                1
 GAP=139        0.81       5.7     5.6  7.3 -0.4516E+01  0.2664E+01  0.6911E+01E
 Epicentro: LOS SANTOS - SANTANDER                                             3
 ACTION:UPD 13-01-04 14:28 OP:ep   STATUS:               ID:20121215065414 L   I
 2012-12-15-0649-55M.COL___204                                                 6
 STAT SP IPHASW D HRMM SECON CODA AMPLIT PERI AZIMU VELO AIN AR TRES W  DIS CAZ7
 BAR2 SZ EP   1    654 34.32                             172    0.19 7 20.4 194 
 BAR2 SZ ES   1    654 49.26                             172   -0.31 7 20.4 194 
 BAR2 SZ I         654 50.90        16.7 0.18                          20.4 194 
 GIR2 SZ EP   1    654 33.97                             166   -0.35 7 34.5 350 
 GIR2 SZ ES   1    654 50.35                             166    0.45 7 34.5 350 
 GIR2 SZ I         654 52.10         2.5 0.24                          34.5 350 
 BRR  HN ES   1    654 53.11                             152    0.55 7 73.5 300 
 BRR  HZ I         654 56.74         6.3 0.46                          73.5 300 
 PAM  SZ EP   1    654 37.30                             150    0.43 7 79.3  38 
 PAM  SN ES   1    654 53.76                             150   -0.67 7 79.3  38 
 RUS  HZ EP   1    654 38.32                             145    0.28 7 97.4 176 
 RUS  HZ I         654 56.47         3.5 0.60                          97.4 176 
 RUS  HN ES   1    654 56.57                             145    0.04 7 97.4 176 
 PTB  HZ EP   1    654 41.13                             132   -0.35 7  148 260 
 PTB  HE ES   1    655  2.29                             132   -0.35 7  148 260 
 PTB  HZ I         655  5.06         2.7 0.13                           148 260 
                                                                                
