 2012  715 0117 35.4 L   7.269 -73.159137.6  RSN  9 0.3 2.5LRSN                1
 GAP= 91        0.78       4.2     3.2  4.8  0.7504E+00  0.2165E+01 -0.1274E+01E
 Epicentro: RIONEGRO - SANTANDER                                               3
 ACTION:UPD 12-08-14 11:44 OP:ep   STATUS:               ID:20120715011735 L   I
 2012-07-15-0110-00M.COL___197                                                 6
 STAT SP IPHASW D HRMM SECON CODA AMPLIT PERI AZIMU VELO AIN AR TRES W  DIS CAZ7
 PAM  SZ EP        117 55.35                             159     0.010   51  81 
 PAM  SN ES        118 10.77                             159    -0.110   51  81 
 BRR  HZ EP        117 55.37                             154     0.110   64 254 
 BRR  HZ I         117 56.96        91.9 0.14            140             64 254 
 BRR  HN ES        118 10.91                             154     0.210   64 254 
 BAR2 SZ EP        117 56.40                             150     0.210   75 182 
 BAR2 SZ ES        118 12.59                             150     0.110   75 182 
 BAR2 SZ I         118 15.01        84.2 0.30            147             75 182 
 OCA  HZ EP   1    117 57.76                             139    -0.7 7  109 351 
 OCA  HZ I         118 19.99        79.6 0.27            121            109 351 
 RUS  HZ EP        118  2.72                             129    -0.1 9  152 177 
 RUS  HZ I         118  3.67        13.3 0.24            121            152 177 
 RUS  HN ES   1    118 23.56                             129    -0.6 7  152 177 
 PTB  HZ EP        118  3.39                             127     0.1 9  164 241 
 PTB  HN ES   1    118 24.57                             127    -0.5 7  164 241 
 PTB  HZ I         118 28.43        36.0 0.16            115            164 241 
 TAM  HZ EP        118  4.87                             125     0.3 9  177 121 
 ZAR  HZ EP        118  5.91                             123     0.2 9  189 278 
 ZAR  HN ES   1    118 29.54                             123     0.1 7  189 278 
 ZAR  HZ I         118 34.33        44.4 0.45            110            189 278 
 HEL  HZ EP   1    118 16.84                             112    -0.1 5  288 246 
 HEL  HZ I         118 58.89        14.4 0.28            104            288 246 
