 2013  515 0602 50.5 L   6.734 -73.396123.8  RSN  6 0.4 1.5LRSN                1
 GAP=100        0.77       3.5     4.4  6.3  0.3641E+01  0.4765E+01 -0.4996E+01E
 Epicentro: EL CARMEN DE CHUCURI - SANTANDER                                   3
 ACTION:UPD 13-06-20 09:50 OP:ep   STATUS:               ID:20130515060250 L   I
 2013-05-15-0600-00M.COL___256                                                 6
 STAT SP IPHASW D HRMM SECON CODA AMPLIT PERI AZIMU VELO AIN AR TRES W  DIS CAZ7
 BAR2 SZ EP   1    6 3  7.74                             166    0.16 7 28.3 124 
 BAR2 SZ ES   1    6 3 20.30                             166   -0.64 7 28.3 124 
 BAR2 SZ I         6 3 21.61         9.0 0.24            167           28.3 124 
 GIR2 SZ EP   1    6 3  7.85                             159   -0.17 7 44.2  30 
 GIR2 SZ ES   1    6 3 21.33                             159   -0.38 7 44.2  30 
 BRR  HZ EP   1    6 3  8.40                             155    0.12 7 54.1 320 
 BRR  HN ES   1    6 3 22.84                             155    0.66 7 54.1 320 
 BRR  HZ I         6 3 23.23         4.8 0.12            153           54.1 320 
 RUS  HZ EP   1    6 3 12.20                             139    0.19 7 99.3 160 
 RUS  HN ES        6 3 29.16                             139    0.3410 99.3 160 
 PTB  HZ EP   1    6 3 12.54                             133   -0.51 7  119 260 
 PTB  HE ES        6 3 30.57                             133   -0.1010  119 260 
 SML  HZ EP   1    6 3 25.36                             113   -0.22 6  240 342 
 SML  HN ES        6 3 53.21                             113    0.23 8  240 342 
 SML  HZ I         6 3 56.93         2.9 0.10            112            240 342 
                                                                                
