 2010  615 0908 19.7 L   6.768 -73.026141.4  RSN 11 0.7 2.3LRSN                1
 GAP=135        1.70       7.1    16.4 12.5 -0.6962E+02  0.2633E+02 -0.5581E+01E
 Epicentro: CEPITA - SANTANDER                                                 3
 ACTION:UP  10-08-24 10:10 OP:vdl  STATUS:               ID:20100615090819 L   I
 2010-06-15-0906-02S.COL___114                                                 6
 STAT SP IPHASW D HRMM SECON CODA AMPLIT PERI AZIMU VELO SNR AR TRES W  DIS CAZ7
 BAR2 SZ EP        9 8 38.65                             169    -0.210   26 222 
 BAR2 SZ ES   1    9 8 53.39                             169    -0.4 7   26 222 
 RUS  HZ EP   1    9 8 42.61                             144    -0.1 7   97 184 
 RUS  HE ES   1    9 9  0.44                             144    -0.3 7   97 184 
 RUS  HZ I         9 9  2.48        38.3 0.23                            97 184 
 BRI  SZ EP        9 8 42.30                             140    -0.810  108  14 
 GUE  SZ EP   2    9 8 44.20                             138     0.1 5  118   5 
 GRA  SZ IP        9 8 45.57                             136     1.010  126  11 
 GRA  SZ ES   1    9 9  5.73                             136     1.8 7  126  11 
 OCA  SZ EP   1    9 8 47.55                             127    -0.6 7  166 349 
 OCA  SZ ES   1    9 9  9.35                             127    -1.1 7  166 349 
 OCA  SZ I         9 9 15.83        23.2 0.39                           166 349 
 CHI  HZ EP   1    9 8 56.77                             116    -0.4 6  249 198 
 CHI  HN ES   1    9 9 26.56                             116     0.1 6  249 198 
 CHI  HZ I         9 9 31.25        10.4 0.52                           249 198 
 ROSC BZ EP   1    9 8 59.06                             115     1.0 6  257 214 
 ROSC BN ES   1    9 9 28.58                             115     0.7 6  257 214 
 ROSC BZ I         9 9 31.92        15.1 0.36                           257 214 
 HEL  HZ EP   1    9 9  0.66                             113    -0.4 6  284 257 
 HEL  HZ I         9 9 36.63        11.8 0.36                           284 257 
 TOL  SZ EP        9 9  8.85                             108     0.3 6  351 227 
 SDV  BZ EP        9 9  8.15                             108    -0.5 6  353  48 
 SDV  BZ I         9 9 47.38         3.4 0.41                           353  48 
                                                                                
