 2017  415 0142 12.7 L   6.729 -73.075134.3  RSN  6 0.2 0.9LRSN                1
 GAP=149        0.63       3.5     4.3  4.8 -0.2131E+01  0.8159E+01 -0.3549E+01E
 Epicentro: JORDAN - SANTANDER                                                 3
 ACTION:UPD 17-05-30 21:12 OP:jn   STATUS:               ID:20170415014212 L   I
 OLDACT:UP  17-04-15 14:12 OP:edw  STATUS:               ID:20170415013742d    3
 OLDACT:UP  17-04-15 14:11 OP:edw  STATUS:               ID:20170415013742d    3
 OLDACT:DUP 17-04-15 14:07 OP:edw  STATUS:               ID:20170415013742d    3
 OLDACT:UP  17-04-15 14:04 OP:edw  STATUS:               ID:20170415013741d    3
 OLDACT:UP  17-04-15 14:03 OP:edw  STATUS:               ID:20170415013741d    3
 OLDACT:DUP 17-04-15 14:00 OP:edw  STATUS:               ID:20170415013741d    3
 OLDACT:DUP 17-04-15 13:57 OP:edw  STATUS:               ID:20170415013740d    3
 2017-04-15-0138-00M.COL___364                                                 6
 STAT SP IPHASW D HRMM SECON CODA AMPLIT PERI AZIMU VELO AIN AR TRES W  DIS CAZ7
 BAR2 EZ ES        142 45.15                             171    0.1410 19.2 218 
 PAM  EZ EP     D  142 34.23                             148    0.4310 79.2  32 
 PAM  EN ES        142 49.92                             148   -0.3510 79.2  32 
 PAM  EZ I         142 55.62         1.8 0.42            146           79.2  32 
 BRR  HZ EP        142 33.13                             147   -0.1410 81.8 301 
 BRR  HN ES        142 49.48                             147    0.1510 81.8 301 
 BRR  HZ I         142 51.40         1.6 0.50            148           81.8 301 
 RUS  HN ES        142 51.84                             144   -0.0710 92.5 181 
 PTB  HZ EP        142 39.16                             128   -0.18 9  154 262 
 PTB  HN ES   4    142 57.47                             128   -2.67 0  154 262 
 PTB  HZ I         143  0.12         0.6 0.46            131            154 262 
 ZAR  HZ EP        142 45.47                             118   -0.01 8  214 293 
 ZAR  HE ES   4    143  8.91                             118   -2.17 0  214 293 
 ZAR  HZ I         143 11.40         0.8 0.58            120            214 293 
                                                                                
