 2011  915 0915 21.9 L   6.781 -73.152143.4  RSN  5 0.2 1.6LRSN                1
 GAP=183        0.42       5.8     6.9  5.3  0.2655E+02  0.8094E+01  0.1259E+01E
 Epicentro: LOS SANTOS - SANTANDER                                             3
 ACTION:UPD 12-07-13 15:57 OP:ep   STATUS:               ID:20110915091521 L   I
 2011-09-15-0900-00M.COL___171                                                 6
 STAT SP IPHASW D HRMM SECON CODA AMPLIT PERI AZIMU VELO AIN AR TRES W  DIS CAZ7
 BAR2 SZ EP   1    915 41.11                             171   -0.13 7 21.1 189 
 BAR2 SZ ES   2    915 56.12                             171   -0.18 5 21.1 189 
 BAR2 SZ I         915 57.29        12.2 0.27                          21.1 189 
 GIR2 SZ EP   2    915 41.21                             166   -0.18 5 33.3 352 
 GIR2 SZ ES   2    915 57.00                             166    0.44 5 33.3 352 
 BRR  HZ IP     C  915 42.90                             152    0.0410 71.6 300 
 BRR  HZ I         915 43.13        15.7 0.16                          71.6 300 
 BRR  HN ES   2    915 58.85                             152   -0.32 5 71.6 300 
 RUS  HZ EP   2    915 45.11                             144   -0.20 5 98.5 176 
 RUS  HE ES   2    916  3.85                             144    0.31 5 98.5 176 
 RUS  HZ I         916  4.93         3.8 0.44                          98.5 176 
 ZAR  HZ EP   2    915 54.68                             122    0.43 4  204 293 
 ZAR  HE ES   2    916 19.38                             122   -0.07 4  204 293 
 ZAR  HZ I         916 24.94         3.2 0.52                           204 293 
                                                                                
