 2011 1215 0747 16.1 L   6.761 -73.105147.9  RSN  4 0.2 1.4LRSN                1
 GAP=144        0.49       3.7     5.3  6.8 -0.5951E+00 -0.1329E+01  0.7500E+00E
 Epicentro: LOS SANTOS - SANTANDER                                             3
 ACTION:UPD 12-07-13 16:16 OP:ep   STATUS:               ID:20111215074716 L   I
 2011-12-15-0740-00M.COL___183                                                 6
 STAT SP IPHASW D HRMM SECON CODA AMPLIT PERI AZIMU VELO AIN AR TRES W  DIS CAZ7
 BAR2 SZ EP   2    747 36.03                             172    0.08 5 20.5 205 
 BAR2 SZ I         747 53.88        13.0 1.02                          20.5 205 
 BRR  HZ EP   1    747 37.81                             151   -0.04 7 77.3 300 
 BRR  HE ES   1    747 54.78                             151   -0.02 7 77.3 300 
 PAM  SZ EP   1    747 38.90                             151    0.30 7 78.1  35 
 PAM  SN ES   1    747 55.94                             151   -0.20 7 78.1  35 
 RUS  HZ EP   2    747 39.18                             145   -0.58 5 96.0 179 
 RUS  HN ES   1    747 58.39                             145    0.19 7 96.0 179 
 RUS  HZ I         747 59.83         2.0 0.40                          96.0 179 
                                                                                
