 2016  515 0712 10.2 L   6.820 -73.167143.7  RSN 19 0.4 2.2LRSN                1
 GAP= 64        0.92       2.4     2.6  4.5 -0.1048E+01  0.3133E+01  0.1040E+01E
 Epicentro: LOS SANTOS - SANTANDER                                             3
 ACTION:UPD 16-08-18 17:46 OP:cam  STATUS:               ID:20160515071210 L   I
 OLDACT:UP  16-05-17 10:20 OP:ak   STATUS:               ID:20160515071210 L   3
 OLDACT:UP  16-05-15 14:59 OP:drio STATUS:               ID:20160515070741     3
 OLDACT:UP  16-05-15 14:58 OP:drio STATUS:               ID:20160515070741     3
 OLDACT:REG 16-05-15 12:32 OP:drio STATUS:               ID:20160515070741     3
 2016-05-15-0707-41M.COL___291                                                 6
 STAT SP IPHASW D HRMM SECON CODA AMPLIT PERI AZIMU VELO AIN AR TRES W  DIS CAZ7
 BAR2 EZ EP        712 29.61                             170   -0.0610 25.2 184 
 BAR2 EZ ES        712 44.86                             170    0.0410 25.2 184 
 BAR2 EZ I         712 46.14        48.8 0.26            170           25.2 184 
 BRR  HZ EP        712 31.41                             153    0.4210 68.1 298 
 BRR  HE ES   4    712 48.57                             153    1.39 0 68.1 298 
 BRR  HZ I         712 50.92        29.0 0.34            149           68.1 298 
 PAM  EZ EP        712 32.54                             151    0.3110 77.3  42 
 PAM  EN ES        712 49.75                             151    0.3610 77.3  42 
 PAM  EZ I         712 51.99        22.2 0.32            152           77.3  42 
 RUS  HZ EP        712 33.59                             143   -0.3710  103 175 
 RUS  HE ES        712 52.52                             143    0.0510  103 175 
 RUS  HZ I         712 53.33        14.3 0.68            145            103 175 
 PTB  HZ EP        712 36.29                             132   -0.58 9  146 258 
 PTB  HN ES        712 57.25                             132   -0.39 9  146 258 
 PTB  HZ I         712 59.99        14.8 0.12            130            146 258 
 TAM  HZ EP        712 38.00                             130   -0.02 9  158 106 
 TAM  HE ES        712 59.71                             130    0.01 9  158 106 
 OCA  HZ EP        712 37.55                             130   -0.61 9  158 354 
 OCA  HN ES        712 59.54                             130   -0.40 9  158 354 
 OCA  HZ I         713  3.15        32.9 0.20            129            158 354 
 SPBC HZ EP        712 38.58                             129   -0.02 9  163 218 
 SPBC HE ES        713  0.53                             129   -0.20 9  163 218 
 SPBC HZ I         713  8.50        28.6 0.22            128            163 218 
 ZAR  HZ EP        712 43.11                             122    0.87 9  201 292 
 ZAR  HN ES        713  7.47                             122    0.27 9  201 292 
 ZAR  HZ I         713 12.72        22.8 0.34            121            201 292 
 NOR  HZ EP        712 45.54                             118   -0.24 8  234 234 
 NOR  HE ES        713 13.52                             118    0.02 8  234 234 
 NOR  HZ I         713 22.99        10.0 0.36            118            234 234 
 CHI  HZ EP        712 48.21                             117    0.22 8  250 195 
 CHI  HN ES        713 17.44                             117    0.01 8  250 195 
 CHI  HZ I         713 20.90        15.5 0.60            117            250 195 
 ROSC BZ EP   9    712 49.84                             116    1.52 0  253 210 
 ROSC BN ES        713 20.36                             116    0.82 8  253 210 
 HEL  HZ EP   9    712 51.53                             115    1.37 0  270 255 
 HEL  HE ES        713 22.90                             115    0.24 8  270 255 
 PTGC HZ EP   9    712 52.78                             111   -1.55 0  312 158 
 PTGC HN ES        713 26.31                             111   -0.86 7  312 158 
 PTGC HZ I         713 28.84         7.3 0.28            112            312 158 
 LL6C HZ EP   9    712 54.10                             110   -1.50 0  323 358 
 LL6C HE ES        713 29.68                             110    0.20 7  323 358 
 LL6C HZ I         713 48.85         5.6 0.54            110            323 358 
 CBOC HZ EP        712 57.54                             110    0.65 7  332 252 
 CBOC HE ES        713 33.07                             110   -0.21 7  332 252 
 CBOC HZ I         713 42.46         3.0 0.48            109            332 252 
 PRA  HZ EP        713  3.58                             106   -0.20 6  393 209 
 PRA  HN ES        713 45.55                             106    0.02 6  393 209 
 PRA  HZ I         713 51.68        13.0 0.70            106            393 209 
 ORTC HZ EP        713  3.72                             106   -0.41 6  396 216 
 ORTC HE ES        713 47.09                             106    0.92 6  396 216 
 ORTC HZ I         713 50.98         7.7 0.24            106            396 216 
 PAL  HZ EP        713  5.26                             106    0.03 6  405 239 
 PAL  HE ES   4    713 47.02                             106   -1.09 0  405 239 
 PAL  HZ I         713 53.23         2.7 0.64            105            405 239 
                                                                                
