 2011 1015 0040 53.0 L   6.761 -73.140144.0  RSN  4 0.2 1.8LRSN                1
 GAP=139        0.36       2.9     4.8  5.4 -0.2543E+01  0.8596E+01  0.1906E+01E
 Epicentro: LOS SANTOS - SANTANDER                                             3
 ACTION:UPD 12-07-13 16:03 OP:ep   STATUS:               ID:20111015004053 L   I
 2011-10-15-0037-42S.COL___168                                                 6
 STAT SP IPHASW D HRMM SECON CODA AMPLIT PERI AZIMU VELO AIN AR TRES W  DIS CAZ7
 BAR2 SZ ES   3    041 26.76                             172   -0.68 2 19.2 194 
 BRR  HZ EP        041 14.10                             151   -0.0310 74.0 301 
 BRR  HZ I         041 23.05        11.1 0.42                          74.0 301 
 BRR  HN ES   3    041 31.18                             151    0.58 2 74.0 301 
 PAM  SZ EP        041 15.18                             150   -0.0410 80.4  37 
 PAM  SN ES   1    041 32.62                             150    0.07 7 80.4  37 
 RUS  HZ EP        041 16.31                             145    0.0310 96.2 176 
 RUS  HN ES   2    041 34.47                             145    0.05 5 96.2 176 
                                                                                
