 2012  415 0003 38.9 L   6.798 -73.130141.6  RSN  7 0.1 1.9LRSN                1
 GAP=139        0.40       1.7     2.1  2.7  0.7636E-01  0.1467E+01 -0.1635E+00E
 Epicentro: LOS SANTOS - SANTANDER                                             3
 ACTION:UPD 12-07-05 11:53 OP:tino STATUS:               ID:20120415000338 L   I
 2012-04-15-0000-48M.COL___172                                                 6
 STAT SP IPHASW D HRMM SECON CODA AMPLIT PERI AZIMU VELO AIN AR TRES W  DIS CAZ7
 BAR2 SZ EP        0 3 57.82                             170    -0.210   23 194 
 BAR2 SZ ES        0 4 13.09                             170     0.110   23 194 
 BAR2 SZ I         0 4 15.77        14.7 0.28                            23 194 
 BRR  HZ EP        0 3 59.74                             151     0.010   73 298 
 BRR  HE ES        0 4 16.03                             151     0.110   73 298 
 BRR  HZ I         0 4 20.76        16.7 0.12                            73 298 
 PAM  SZ EP        0 4  0.77                             150     0.110   77  38 
 PAM  SE ES        0 4 17.53                             150    -0.110   77  38 
 RUS  HZ EP   1    0 4  2.12                             143    -0.1 7  100 177 
 RUS  HN ES   1    0 4 20.41                             143     0.0 7  100 177 
 OCA  SZ EP        0 4  6.97                             129     0.0 9  161 353 
 OCA  SZ ES        0 4 28.77                             129    -0.1 9  161 353 
 ZAR  HZ EP   1    0 4 11.58                             121     0.3 6  206 292 
 ZAR  HN ES        0 4 36.30                             121    -0.2 8  206 292 
 ZAR  HZ I         0 4 42.52         8.1 0.21                           206 292 
 NOR  SZ EP        0 4 14.63                             117     0.1 8  236 235 
                                                                                
