 2013  715 0417  2.6 L   6.813 -73.144142.0  RSN  6 0.3 1.3LRSN                1
 GAP=201        0.63       2.7     4.0  4.8  0.1396E+01  0.2755E+01 -0.4205E+01E
 Epicentro: LOS SANTOS - SANTANDER                                             3
 ACTION:UPD 13-08-12 10:37 OP:ep   STATUS:               ID:20130715041702 L   I
 OLDACT:REG 13-07-15 09:02 OP:nd   STATUS:               ID:20130715040959     3
 2013-07-15-0409-59M.COL___267                                                 6
 STAT SP IPHASW D HRMM SECON CODA AMPLIT PERI AZIMU VELO AIN AR TRES W  DIS CAZ7
 BAR2 SZ EP        417 21.96                             170    0.1010 24.8 190 
 BAR2 SZ ES        417 36.74                             170   -0.1010 24.8 190 
 BAR2 SZ I         417 39.87         3.0 0.30            169           24.8 190 
 BRR  HZ EP        417 23.84                             152    0.4810 70.7 297 
 BRR  HN ES   2    417 39.95                             152    0.43 5 70.7 297 
 BRR  HZ I         417 43.10         1.8 0.14            150           70.7 297 
 RUS  HZ EP        417 26.34                             142    0.2110  102 176 
 RUS  HN ES        417 44.13                             142   -0.3210  102 176 
 RUS  HZ I         417 46.12         3.2 0.40            147            102 176 
 PTB  HZ EP        417 29.41                             131    0.06 9  148 258 
 PTB  HN ES        417 50.07                             131   -0.11 9  148 258 
 PTB  HZ I         417 57.38         3.6 0.60            132            148 258 
 SPBC HZ EP        417 30.75                             128   -0.23 9  164 219 
 SPBC HN ES        417 53.18                             128    0.11 9  164 219 
 SML  HZ EP        417 38.75                             117   -0.18 8  242 335 
 SML  HN ES        418  6.88                             117   -0.35 8  242 335 
 SML  HZ I         418  9.04         2.3 0.10            119            242 335 
                                                                                
