 2017  315 0141 51.9 L   6.757 -73.167151.0  RSN  5 0.4 1.2LRSN                1
 GAP=136        1.03       5.8     5.5  8.1 -0.3908E+01  0.4400E+01  0.4254E+01E
 Epicentro: LOS SANTOS - SANTANDER                                             3
 ACTION:UPD 17-05-25 18:40 OP:jn   STATUS:               ID:20170315014151 L   I
 OLDACT:UP  17-03-15 14:03 OP:cog  STATUS:               ID:20170315013743     3
 OLDACT:REG 17-03-15 12:33 OP:cog  STATUS:               ID:20170315013743     3
 2017-03-15-0138-00M.COL___382                                                 6
 STAT SP IPHASW D HRMM SECON CODA AMPLIT PERI AZIMU VELO AIN AR TRES W  DIS CAZ7
 BAR2 EZ ES        142 27.33                             173   -0.4910 18.3 185 
 BAR2 EZ I         142 36.94         3.6 0.50            172           18.3 185 
 BRR  HN ES        142 31.36                             153    0.7510 71.6 303 
 PAM  EZ EP        142 14.81                             150   -0.1910 82.6  39 
 PAM  EN ES        142 32.89                             150   -0.1110 82.6  39 
 PAM  EZ I         142 34.24         1.6 0.30            155           82.6  39 
 RUS  HZ EP        142 16.12                             146    0.2510 96.0 174 
 RUS  HN ES        142 34.79                             146    0.2410 96.0 174 
 RUS  HZ I         142 36.11         2.1 0.56            149           96.0 174 
 PTB  HZ EP        142 19.03                             134    0.00 9  145 261 
 PTB  HN ES        142 39.66                             134   -0.52 9  145 261 
 PTB  HZ I         142 42.15         2.5 0.34            138            145 261 
                                                                                
