 2012  115 0646 16.6 L   6.002 -73.650113.6  RSN  5 0.4 1.4LRSN                1
 GAP=203        0.92       7.6     6.4 13.5  0.1177E+02  0.3040E+02 -0.2004E+01E
 Epicentro: VELEZ - SANTANDER                                                  3
 ACTION:UP  12-02-03 08:17 OP:REBC STATUS:               ID:20120115064616 L   I
 2012-01-15-0640-00M.COL___187                                                 6
 STAT SP IPHASW D HRMM SECON CODA AMPLIT PERI AZIMU VELO SNR AR TRES W  DIS CAZ7
 RUS  HZ EP   1    646 35.09                             149     0.5 7   64 101 
 RUS  HZ I         646 35.74         2.2 0.34                            64 101 
 RUS  HN ES   1    646 48.37                             149    -0.3 7   64 101 
 BAR2 SZ ES   2    646 50.40                             141     0.0 5   83  38 
 BAR2 SZ I         646 52.12        15.2 0.44                            83  38 
 PTB  HZ EP   1    646 36.47                             133    -0.8 7  107 304 
 PTB  HN ES   1    646 53.80                             133     0.4 7  107 304 
 BRR  HZ EP   1    646 38.96                             129     0.3 7  122 357 
 BRR  HN ES   2    646 55.74                             129    -0.1 5  122 357 
 BRR  HZ I         646 59.64         6.8 0.17                           122 357 
 GIR2 SZ ES   1    646 57.24                             128    -0.1 7  129  23 
                                                                                
