 2013  215 0733 55.9 L   6.784 -73.162145.4  RSN 13 0.6 2.3LRSN                1
 GAP= 71        1.31       4.0     4.2  7.4  0.3960E+00  0.1010E+02 -0.2441E+01E
 Epicentro: LOS SANTOS - SANTANDER                                             3
 ACTION:UPD 13-03-12 09:33 OP:ep   STATUS:               ID:20130215073355 L   I
 2013-02-15-0729-39M.COL___176                                                 6
 STAT SP IPHASW D HRMM SECON CODA AMPLIT PERI AZIMU VELO AIN AR TRES W  DIS CAZ7
 BAR2 SZ EP        734 15.45                             171    0.0510 21.3 186 
 BAR2 SZ ES        734 30.63                             171   -0.0110 21.3 186 
 BAR2 SZ I         734 31.40        34.2 0.20            171           21.3 186 
 BRR  HZ IP     C  734 17.54                             153    0.6210 70.4 300 
 BRR  HN ES   4    734 34.82                             153    1.47 0 70.4 300 
 BRR  HN I         734 35.02        62.8 0.20            146           70.4 300 
 PAM  SZ IP     D  734 18.54                             150    0.3610 79.9  40 
 PAM  SN I         734 19.27        27.1 0.18            147           79.9  40 
 PAM  SN ES        734 35.75                             150    0.1610 79.9  40 
 RUS  HZ EP        734 19.15                             144   -0.3010 99.0 175 
 RUS  HE ES        734 37.53                             144   -0.3310 99.0 175 
 RUS  HE I         734 38.53        37.9 0.48            142           99.0 175 
 PTB  HZ EP        734 22.03                             132   -0.56 9  146 259 
 PTB  HE ES   1    734 42.37                             132   -1.08 7  146 259 
 PTB  HE I         734 46.31        19.8 0.18            127            146 259 
 TAM  HZ IP     C  734 23.70                             130    0.08 9  156 104 
 TAM  HN ES        734 45.14                             130   -0.15 9  156 104 
 TAM  HN I         734 45.86        19.7 0.42            128            156 104 
 OCA  HZ EP        734 23.78                             129   -0.50 9  162 354 
 OCA  HN ES        734 46.25                             129   -0.20 9  162 354 
 OCA  HN I         734 48.63        66.1 0.26            124            162 354 
 ZAR  HZ EP        734 28.56                             122    0.40 9  203 293 
 ZAR  HN ES        734 54.50                             122    1.13 9  203 293 
 ZAR  HN I         735  2.30        23.7 0.14            117            203 293 
 SML  HZ EP        734 32.50                             117   -0.05 8  245 336 
 CHI  HZ EP        734 33.25                             117   -0.04 8  246 195 
 CHI  HE ES        735  3.16                             117    0.66 8  246 195 
 CHI  HN I         735  6.89         5.8 0.68            114            246 195 
 HEL  HZ EP   1    734 37.57                             115    1.77 6  270 256 
 HEL  HN ES        735  6.19                             115   -0.77 8  270 256 
 HEL  HN I         735 13.21         5.9 0.24            111            270 256 
 URE  HZ EP   1    734 36.41                             113   -0.37 6  283 292 
 SJC  HN EP        734 50.23                             106   -1.23 6  410 327 
 SJC  HN I         735 35.33         4.2 0.48            103            410 327 
                                                                                
