 2017  315 0948 38.4 L   6.762 -73.157147.3  RSN  6 0.5 1.6LRSN                1
 GAP=137        1.20       6.1     5.4  8.8  0.2927E+01  0.8890E+01  0.5366E+00E
 Epicentro: LOS SANTOS - SANTANDER                                             3
 ACTION:UPD 17-05-25 18:40 OP:jn   STATUS:               ID:20170315094838 L   I
 OLDACT:REG 17-03-15 13:27 OP:cog  STATUS:               ID:20170315094743     3
 2017-03-15-0948-00M.COL___375                                                 6
 STAT SP IPHASW D HRMM SECON CODA AMPLIT PERI AZIMU VELO AIN AR TRES W  DIS CAZ7
 BAR2 EZ EP        948 58.11                             172   -0.0810 19.0 189 
 BAR2 EZ ES        949 13.09                             172   -0.5010 19.0 189 
 BAR2 EZ I         949 15.49        10.2 0.28            170           19.0 189 
 BRR  HZ EP        949  0.06                             152    0.2410 72.2 302 
 BRR  HE ES        949 17.29                             152    0.7910 72.2 302 
 BRR  HZ I         949 48.43        15.1 0.36            148           72.2 302 
 PAM  EZ EP        949  1.09                             150    0.0210 81.4  38 
 PAM  EN ES        949 18.31                             150   -0.4010 81.4  38 
 PAM  EZ I         949 20.12         7.1 0.52            153           81.4  38 
 RUS  HZ EP        949  2.34                             145    0.2710 96.5 175 
 RUS  HE ES        949 20.98                             145    0.4910 96.5 175 
 RUS  HZ I         949 21.68         4.1 0.28            159           96.5 175 
 PTB  HZ EP        949  4.86                             133   -0.51 9  146 260 
 PTB  HN ES        949 25.62                             133   -0.75 9  146 260 
 PTB  HZ I         949 27.92         4.7 0.10            136            146 260 
 ZAR  HN ES        949 36.84                             123    0.37 9  205 293 
                                                                                
