 2014  215 0616 24.8 L   6.847 -73.159141.3  RSN 18 0.5 2.4LRSN                1
 GAP= 69        1.15       2.5     3.1  5.4 -0.1417E+01  0.5804E+01 -0.5052E+00E
 Epicentro: LOS SANTOS - SANTANDER                                             3
 ACTION:UPD 14-03-10 08:10 OP:ep   STATUS:               ID:20140215061624 L   I
 OLDACT:DUP 14-02-15 11:50 OP:carl STATUS:               ID:20140215061001d    3
 2014-02-15-0610-00M.COL___206                                                 6
 STAT SP IPHASW D HRMM SECON CODA AMPLIT PERI AZIMU VELO AIN AR TRES W  DIS CAZ7
 BAR2 SZ EP        616 44.30                             168    0.2510 28.3 185 
 BAR2 SZ ES        616 58.54                             168   -0.4910 28.3 185 
 BAR2 SZ I         617  0.24       170.6 0.30            168           28.3 185 
 PAM  SZ EP        616 47.16                             151    0.7610 74.4  43 
 PAM  SN ES        617  4.26                             151    1.0410 74.4  43 
 PAM  SZ I         617  5.73        23.8 0.32            154           74.4  43 
 RUS  HZ EP        616 48.29                             141   -0.2610  106 175 
 RUS  HN ES        617  6.97                             141   -0.0810  106 175 
 RUS  HZ I         617  8.54        24.3 0.44            144            106 175 
 PTB  HZ EP        616 50.83                             131   -0.59 9  147 257 
 PTB  HN ES        617 11.74                             131   -0.41 9  147 257 
 PTB  HZ I         617 17.53        37.4 0.16            130            147 257 
 OCA  HZ EP        616 52.34                             129    0.04 9  155 353 
 OCA  HE ES        617 13.39                             129   -0.33 9  155 353 
 OCA  HZ I         617 18.94        47.2 0.32            130            155 353 
 TAM  HZ EP        616 52.70                             129    0.27 9  158 107 
 TAM  HN ES        617 13.15                             129   -0.80 9  158 107 
 TAM  HZ I         617 13.32         8.7 0.24            134            158 107 
 SPBC HZ EP        616 53.30                             127   -0.01 9  166 217 
 SPBC HE ES        617 15.38                             127   -0.13 9  166 217 
 SPBC HZ I         617 17.14        46.8 0.76            128            166 217 
 ZAR  HZ EP        616 56.82                             122    0.16 9  201 291 
 ZAR  HN ES        617 21.96                             122    0.48 9  201 291 
 ZAR  HZ I         617 27.56        38.3 0.36            121            201 291 
 NOR  HZ EP        617  0.36                             117   -0.16 8  237 233 
 NOR  HN ES        617 28.19                             117   -0.16 8  237 233 
 NOR  HZ I         617 33.38        22.4 0.20            118            237 233 
 SML  HZ EP        617  0.55                             117   -0.09 8  238 335 
 SML  HN ES        617 28.77                             117    0.21 8  238 335 
 SML  HZ I         617 40.67        48.3 0.10            117            238 335 
 CHI  HZ EP        617  2.50                             116   -0.31 8  253 195 
 CHI  HN ES        617 32.40                             116   -0.02 8  253 195 
 CHI  HZ I         617 36.50        11.0 0.26            117            253 195 
 ROSC BZ EP   4    617  4.34                             115    1.21 0  257 210 
 ROSC BN ES   4    617 35.78                             115    2.78 0  257 210 
 HEL  HZ EP        617  4.95                             114    0.13 8  272 255 
 HEL  HN ES        617 35.98                             114   -0.03 8  272 255 
 HEL  HZ I         617 43.28        14.2 0.60            114            272 255 
 URE  HZ EP   4    617  4.03                             113   -1.30 0  281 291 
 URE  HN ES   4    617 34.89                             113   -2.03 0  281 291 
 RREF BZ EP        617 12.17                             110    1.11 7  324 229 
 RREF BN ES        617 47.61                             110    0.50 7  324 229 
 RREF BZ I         617 54.25        12.8 0.36            111            324 229 
 CBOC HZ EP        617 12.09                             109    0.48 7  334 251 
 CBOC HN ES        617 47.36                             109   -0.72 7  334 251 
 CBOC HZ I         618  3.87         4.5 0.46            109            334 251 
 COD  HZ EP        617 12.54                             108    0.11 7  343 355 
 COD  HN ES        617 48.81                             108   -0.74 7  343 355 
 PRA  HZ EP        617 18.17                             105   -0.49 6  396 209 
 PRA  HN ES        618  0.76                             105    0.12 6  396 209 
 PRA  HZ I         618  5.45         8.7 0.26            107            396 209 
 ORTC HZ EP        617 19.85                             105    0.84 6  399 216 
 ORTC HN ES        618  2.02                             105    0.76 6  399 216 
 ORTC HZ I         618  8.04         7.3 0.54            106            399 216 
 SJC  HZ EP        617 18.12                             105   -1.53 6  404 327 
 SJC  HN ES   4    617 57.97                             105   -4.44 0  404 327 
 SJC  HZ I         618 14.29         5.9 0.58            106            404 327 
                                                                                
