 2016 1015 0409 39.0 L   6.946 -73.436  0.0  RSN  4 0.6 1.1LRSN                1
 GAP=156        1.53       3.9     4.8 11.2  0.4228E+01  0.2262E+01 -0.5973E+01E
 Epicentro: SAN VICENTE DE CHUCURI - SANTANDER                                 3
 ACTION:UPD 16-11-09 19:19 OP:rebc STATUS:               ID:20161015040939 L   I
 OLDACT:UP  16-10-15 15:56 OP:ar   STATUS:               ID:20161015040740     3
 OLDACT:REG 16-10-15 12:53 OP:ar   STATUS:               ID:20161015040740     3
 2016-10-15-0408-00M.COL___365                                                 6
 STAT SP IPHASW D HRMM SECON CODA AMPLIT PERI AZIMU VELO AIN AR TRES W  DIS CAZ7
 PTB  HZ EP        4 9 57.73                              47   -0.8310  121 248 
 PTB  HN ES        410 13.98                              47    0.1610  121 248 
 PTB  HZ I         410 18.83         3.3 0.24            136            121 248 
 RUS  HZ EP        4 9 58.77                              47   -0.5010  123 161 
 RUS  HN ES        410 15.86                              47    0.7610  123 161 
 RUS  HZ I         410 19.71         1.4 0.44            140            123 161 
 OCA  HN ES        410 20.24                              47    0.1710  144   5 
 OCA  HZ I         410 26.72         6.8 0.28            128            144   5 
 ZAR  HZ EP        410  5.03                              47   -0.62 9  168 291 
 ZAR  HE ES        410 27.36                              47    0.91 9  168 291 
 ZAR  HZ I         410 31.36         2.3 0.28            124            168 291 
                                                                                
