 2012  115 0315 40.5 L   6.756 -73.117147.3  RSN  5 0.3 1.4LRSN                1
 GAP=191        0.61       6.5    11.3  6.6  0.4600E+02  0.2400E+01  0.5734E+00E
 Epicentro: LOS SANTOS - SANTANDER                                             3
 ACTION:UP  12-02-03 08:17 OP:REBC STATUS:               ID:20120115031540 L   I
 2012-01-15-0310-00M.COL___187                                                 6
 STAT SP IPHASW D HRMM SECON CODA AMPLIT PERI AZIMU VELO SNR AR TRES W  DIS CAZ7
 BAR2 SZ ES   1    316 15.36                             172    -0.3 7   20 202 
 BAR2 SZ I         316 16.30         6.4 0.11                            20 202 
 GIR2 SZ EP   1    316  0.49                             165     0.0 7   37 347 
 GIR2 SZ ES   2    316 15.84                             165    -0.3 5   37 347 
 BRR  HZ EP   1    316  2.45                             151     0.4 7   76 301 
 BRR  HE ES   1    316 19.15                             151     0.2 7   76 301 
 BRR  HZ I         316 20.49         6.1 0.14                            76 301 
 RUS  HZ EP   1    316  3.97                             146    -0.1 7   96 178 
 RUS  HN ES   1    316 22.56                             146     0.2 7   96 178 
 RUS  HZ I         316 24.38         3.4 0.37                            96 178 
 PTB  HZ EP   2    316  7.09                             132    -0.7 5  150 261 
                                                                                
