 2011  815 0646 57.5 L   6.797 -73.108142.2  RSN  5 0.2 1.7LRSN                1
 GAP=187        0.55       2.8     5.2  4.8 -0.2222E-01  0.3084E+01 -0.1779E+01E
 Epicentro: LOS SANTOS - SANTANDER                                             3
 ACTION:UPD 12-07-13 15:52 OP:ep   STATUS:               ID:20110815064657 L   I
 2011-08-15-0642-57S.COL___150                                                 6
 STAT SP IPHASW D HRMM SECON CODA AMPLIT PERI AZIMU VELO AIN AR TRES W  DIS CAZ7
 BAR2 SZ EP        647 16.91                             170    0.1810 24.1 200 
 BAR2 SZ ES        647 31.43                             170   -0.2810 24.1 200 
 BAR2 SZ I         647 33.58        16.5 0.21                          24.1 200 
 BRR  HZ EP   1    647 18.48                             150   -0.02 7 75.1 297 
 BRR  HN ES   1    647 35.37                             150    0.50 7 75.1 297 
 BRR  HZ I         647 39.92        14.3 0.55                          75.1 297 
 RUS  HZ EP   1    647 20.84                             143   -0.03 7  100 178 
 RUS  HE ES   1    647 39.21                             143    0.12 7  100 178 
 RUS  HZ I         647 40.81         4.9 0.22                           100 178 
 OCA  SZ EP   1    647 25.74                             128    0.11 7  161 352 
 OCA  SZ ES   1    647 47.22                             128   -0.34 7  161 352 
 OCA  SZ I         647 52.38         6.0 0.42                           161 352 
 NOR  SZ EP   2    647 33.34                             117   -0.04 4  238 235 
 NOR  SE ES   1    648  1.06                             117   -0.30 6  238 235 
                                                                                
