 2017  415 0234 55.4 L   7.417 -73.151139.6  RSN  5 0.2 1.1LRSN                1
 GAP=187        0.57       4.9     2.7  4.9 -0.1620E+01  0.4130E+01 -0.3381E+01E
 Epicentro: EL PLAYON - SANTANDER                                              3
 ACTION:UPD 17-05-30 21:12 OP:jn   STATUS:               ID:20170415023455 L   I
 OLDACT:UP  17-04-15 14:56 OP:edw  STATUS:               ID:20170415022640d    3
 OLDACT:UP  17-04-15 14:55 OP:edw  STATUS:               ID:20170415022640d    3
 OLDACT:DUP 17-04-15 14:52 OP:edw  STATUS:               ID:20170415022640d    3
 OLDACT:REG 17-04-15 12:40 OP:edw  STATUS:               ID:20170415022638     3
 2017-04-15-0228-00M.COL___368                                                 6
 STAT SP IPHASW D HRMM SECON CODA AMPLIT PERI AZIMU VELO AIN AR TRES W  DIS CAZ7
 PAM  EZ EP        235 15.59                             159    0.0710 50.6 100 
 PAM  EN ES        235 31.02                             159   -0.2110 50.6 100 
 PAM  EZ I         235 32.52         2.5 0.24            164           50.6 100 
 BRR  HZ EP        235 16.04                             151    0.2110 70.8 241 
 BRR  HN ES        235 32.15                             151    0.3610 70.8 241 
 BAR2 EZ EP        235 17.61                             145    0.1210 91.3 182 
 BAR2 EZ ES        235 34.55                             145   -0.1910 91.3 182 
 PTB  HZ EP        235 24.18                             126   -0.16 9  174 236 
 PTB  HN ES        235 46.93                             126   -0.02 9  174 236 
 PTB  HZ I         235 51.13         1.0 0.38            126            174 236 
 ZAR  HZ EP   4    235 27.43                             123    1.61 0  189 273 
 ZAR  HN ES        235 49.29                             123   -0.29 9  189 273 
 ZAR  HZ I         235 55.08         1.6 0.52            123            189 273 
                                                                                
