 2013  215 0845 31.1 L   6.444 -73.638 99.4  RSN  4 0.3 1.0LRSN                1
 GAP=142        0.84       6.4     4.4 10.5  0.1521E+02  0.2173E+02  0.3203E+02E
 Epicentro: SANTA HELENA DEL OPON - SANTANDER                                  3
 ACTION:UPD 13-03-12 09:33 OP:ep   STATUS:               ID:20130215084531 L   I
 2013-02-15-0840-00M.COL___241                                                 6
 STAT SP IPHASW D HRMM SECON CODA AMPLIT PERI AZIMU VELO AIN AR TRES W  DIS CAZ7
 BAR2 SZ ES        845 58.57                             150   -0.0210 53.0  72 
 BRR  HE ES   1    846  0.62                             141    0.03 7 73.8 354 
 RUS  HZ EP        845 49.85                             137    0.4810 86.5 135 
 RUS  HN ES        846  3.40                             137   -0.2510 86.5 135 
 RUS  HN I         846  5.71         1.4 0.14            141           86.5 135 
 PTB  HZ EP        845 48.64                             134   -0.4810 91.1 277 
 PTB  HN ES        846  3.47                             134    0.2710 91.1 277 
 PTB  HN I         846  8.02         5.2 0.28            136           91.1 277 
                                                                                
