 2016 1115 0350 36.4 L   6.743 -73.114146.9  RSN  8 0.3 1.7LRSN                1
 GAP=169        0.75       4.5     3.8  5.1 -0.2843E+01  0.2955E+01  0.3128E+01E
 Epicentro: LOS SANTOS - SANTANDER                                             3
 ACTION:UPD 17-10-26 21:08 OP:lp   STATUS:               ID:20161115035036 L   I
 OLDACT:UP  16-11-15 15:28 OP:edw  STATUS:               ID:20161115034749     3
 OLDACT:UP  16-11-15 15:27 OP:edw  STATUS:               ID:20161115034749     3
 OLDACT:UP  16-11-15 15:26 OP:edw  STATUS:               ID:20161115034749     3
 OLDACT:REG 16-11-15 12:50 OP:edw  STATUS:               ID:20161115034749     3
 2016-11-15-0348-00M.COL___338                                                 6
 STAT SP IPHASW D HRMM SECON CODA AMPLIT PERI AZIMU VELO AIN AR TRES W  DIS CAZ7
 BAR2 EZ EP        350 56.09                             173    0.0510 18.3 204 
 BAR2 EZ ES        351 11.09                             173   -0.3010 18.3 204 
 BAR2 EZ I         351 11.99        15.6 0.20            174           18.3 204 
 BRR  HZ EP        350 58.16                             150    0.1710 77.3 301 
 BRR  HE ES        351 15.16                             150    0.3010 77.3 301 
 BRR  HZ I         351 18.20         6.5 0.14            148           77.3 301 
 PAM  EZ EP     C  350 59.19                             150    0.3210 80.3  35 
 PAM  EN ES        351 16.19                             150   -0.2510 80.3  35 
 PAM  EZ I         351 18.67         7.1 0.38            149           80.3  35 
 PTB  HZ EP   9    351  2.96                             131   -0.67 0  150 261 
 PTB  HN ES        351 23.79                             133   -0.44 9  150 261 
 PTB  HZ I         351 24.28         6.1 0.54            132            150 261 
 ZAR  HZ EP        351  8.85                             121   -0.61 8  210 293 
 ZAR  HN ES        351 35.40                             121    0.12 8  210 293 
 ZAR  HZ I         351 41.27         6.2 0.26            121            210 293 
 NOR  HN ES   2    351 40.07                             119    0.14 4  234 236 
 PRA  HZ EP   4    351 30.67                             107    1.19 0  388 210 
 PRA  HN ES        352 11.00                             107    0.08 6  388 210 
 ORTC HE ES   4    352 10.60                             106   -1.18 0  392 217 
 SJC  HZ EP   4    351 31.04                             105   -1.76 0  416 327 
 SJC  HN ES   4    352 14.02                             105   -2.80 0  416 327 
 SJC  HZ I         352 17.82         1.3 0.48            106            416 327 
                                                                                
