 2016  115 0628 43.4 L   6.714 -73.188153.1  RSN  5 0.4 1.5LRSN                1
 GAP=196        1.04       4.4     7.5  8.6  0.7922E+01 -0.9185E+01 -0.1075E+02E
 Epicentro: VILLANUEVA - SANTANDER                                             3
 ACTION:UPD 16-03-09 23:25 OP:cam  STATUS:               ID:20160115062843 L   I
 OLDACT:REG 16-01-15 12:17 OP:drio STATUS:               ID:20160115061738     3
 2016-01-15-0617-38M.COL___329                                                 6
 STAT SP IPHASW D HRMM SECON CODA AMPLIT PERI AZIMU VELO AIN AR TRES W  DIS CAZ7
 BRR  HZ EP        629  5.81                             153    0.4010 72.4 307 
 BRR  HE ES        629 23.17                             153    0.5810 72.4 307 
 BRR  HZ I         629 24.23         3.8 0.44            153           72.4 307 
 RUS  HZ EP        629  7.39                             148    0.1110 91.6 173 
 RUS  HE ES        629 25.33                             148   -0.5710 91.6 173 
 RUS  HZ I         629 26.53         2.7 0.50            149           91.6 173 
 PTB  HZ EP        629 10.25                             135   -0.19 9  142 262 
 PTB  HN ES        629 31.18                             135   -0.35 9  142 262 
 PTB  HZ I         629 32.03         3.5 0.20            136            142 262 
 SPBC HZ EP        629 12.15                             133    0.61 9  153 220 
 SPBC HN ES        629 33.41                             133   -0.08 9  153 220 
 SPBC HZ I         629 35.50         5.9 0.24            134            153 220 
 SML  HZ EP        629 20.77                             118   -0.40 8  250 337 
 SML  HE ES        629 50.24                             118   -0.40 8  250 337 
 SML  HZ I         629 52.91         3.2 0.10            119            250 337 
                                                                                
