 2012 1215 0259 21.3 L   6.789 -73.154152.6  RSN  6 0.4 1.4LRSN                1
 GAP=182        0.83       5.1     7.3  8.7  0.6272E+01  0.4542E+00 -0.3021E+01E
 Epicentro: LOS SANTOS - SANTANDER                                             3
 ACTION:UPD 13-01-04 14:27 OP:ep   STATUS:               ID:20121215025921 L   I
 2012-12-15-0257-42M.COL___210                                                 6
 STAT SP IPHASW D HRMM SECON CODA AMPLIT PERI AZIMU VELO AIN AR TRES W  DIS CAZ7
 BAR2 SZ EP   1    259 41.71                             171   -0.02 7 22.0 188 
 BAR2 SZ ES   1    259 57.31                             171   -0.35 7 22.0 188 
 BAR2 SZ I         3 0  2.57         8.4 0.16                          22.0 188 
 GIR2 SZ EP   1    259 42.04                             167    0.23 7 32.3 352 
 GIR2 SZ I         259 59.93         3.6 0.22                          32.3 352 
 BRR  HZ EP   1    259 43.71                             154    0.53 7 71.0 300 
 BRR  HN ES   1    3 0  1.03                             154    0.78 7 71.0 300 
 BRR  HZ I         3 0  5.56         3.3 0.16                          71.0 300 
 RUS  HZ EP   1    259 45.69                             145    0.04 7 99.4 176 
 RUS  HN ES   1    3 0  4.56                             145   -0.08 7 99.4 176 
 RUS  HZ I         3 0  6.64         1.9 0.29                          99.4 176 
 PTB  HZ EP   1    259 48.53                             134   -0.21 7  147 259 
 PTB  HN ES   1    3 0  9.67                             134   -0.47 7  147 259 
 PTB  HZ I         3 0 17.01         6.8 0.24                           147 259 
 OCA  HN ES   1    3 0 12.19                             131   -0.64 7  161 353 
                                                                                
