 2012  515 0756 20.4 L   6.783 -73.122146.4  RSN  7 0.4 1.7LRSN                1
 GAP=140        0.84       4.5     5.9  7.1  0.2377E+01  0.1214E+02 -0.2674E+01E
 Epicentro: LOS SANTOS - SANTANDER                                             3
 ACTION:UP  12-07-05 12:05 OP:pat  STATUS:               ID:20120515075620 L   I
 2012-05-15-0750-00M.COL___195                                                 6
 STAT SP IPHASW D HRMM SECON CODA AMPLIT PERI AZIMU VELO SNR AR TRES W  DIS CAZ7
 BAR2 SZ EP   1    756 40.15                             171     0.0 7   22 198 
 BAR2 SZ ES   1    756 54.78                             171    -0.7 7   22 198 
 BAR2 SZ I         756 56.12        11.5 0.26                            22 198 
 BRR  HZ EP   1    756 42.14                             152     0.3 7   74 299 
 BRR  HE ES   1    756 59.14                             152     0.6 7   74 299 
 BRR  HZ I         756 59.75        10.2 0.14                            74 299 
 PAM  SZ EP   1    756 43.06                             151     0.4 7   77  37 
 PAM  SN ES   1    757  0.34                             151     0.3 7   77  37 
 RUS  HZ EP   1    756 44.00                             144    -0.1 7   99 178 
 RUS  HE ES   1    757  2.52                             144     0.0 7   99 178 
 RUS  HZ I         757  4.26         5.1 0.46                            99 178 
 OCA  HZ EP   1    756 48.49                             129    -0.5 7  162 352 
 OCA  HN ES   1    757 10.96                             129    -0.3 7  162 352 
 ZAR  HZ EP   1    756 52.93                             122    -0.3 6  207 292 
 ZAR  HN ES   1    757 18.59                             122    -0.2 6  207 292 
 ZAR  HZ I         757 25.89         5.1 0.28                           207 292 
 HEL  HZ EP   1    757  1.35                             115     0.4 6  274 256 
                                                                                
