 2015  815 0206  3.9 L   6.813 -73.072147.2  RSN 10 0.4 2.1LRSN                1
 GAP=207        0.99       3.4     5.4  6.4  0.1472E+01  0.8730E+01 -0.8861E+00E
 Epicentro: LOS SANTOS - SANTANDER                                             3
 ACTION:UPD 15-09-15 23:02 OP:cam  STATUS:               ID:20150815020603 L   I
 OLDACT:UP  15-08-15 14:32 OP:ar   STATUS:               ID:20150815015748     3
 OLDACT:REG 15-08-15 13:05 OP:ar   STATUS:               ID:20150815015748     3
 2015-08-15-0157-48M.COL___328                                                 6
 STAT SP IPHASW D HRMM SECON CODA AMPLIT PERI AZIMU VELO AIN AR TRES W  DIS CAZ7
 BAR2 EZ EP        2 6 24.04                             169    0.2010 27.2 206 
 BAR2 EZ ES        2 6 39.21                             169   -0.1410 27.2 206 
 BAR2 EZ I         2 6 40.66        45.5 0.20            166           27.2 206 
 BRR  HZ EP     C  2 6 25.82                             151    0.1810 77.8 295 
 BRR  HN ES        2 6 43.12                             151    0.5610 77.8 295 
 BRR  HZ I         2 6 43.83        13.9 0.42            146           77.8 295 
 RUS  HZ EP        2 6 28.11                             144    0.1810  102 181 
 RUS  HN ES        2 6 46.69                             144    0.0610  102 181 
 RUS  HZ I         2 6 47.74        19.0 0.32            144            102 181 
 SPBC HZ EP        2 6 32.86                             128   -0.29 9  169 221 
 SPBC HN ES        2 6 54.93                             128   -1.01 9  169 221 
 SPBC HZ I         2 6 57.59        25.3 0.34            127            169 221 
 ZAR  HZ EP   4    2 6 39.70                             122    2.49 0  211 291 
 ZAR  HN ES        2 7  2.49                             122   -0.67 8  211 291 
 ZAR  HZ I         2 7  8.31         8.9 0.10            120            211 291 
 NOR  HN ES        2 7  9.72                             118    0.60 8  242 235 
 NOR  HZ I         2 7 13.60         8.4 0.16            117            242 235 
 SML  HZ EP        2 6 40.60                             118   -0.30 8  246 333 
 SML  HN ES        2 7  9.73                             118    0.01 8  246 333 
 SML  HZ I         2 7 16.92        14.4 0.10            116            246 333 
 HEL  HN ES   2    2 7 18.16                             114    0.89 4  280 256 
 HEL  HZ I         2 7 22.60         4.3 0.24            113            280 256 
 GUY2CHZ EP   4    2 6 49.90                             112    1.44 0  309 235 
 GUY2CHN ES   2    2 7 23.23                             112    0.04 4  309 235 
 GUY2CHZ I         2 7 36.14         4.4 0.58                           309 235 
 TOL  SZ EP        2 6 53.15                             109    0.12 6  350 225 
 TOL  SN ES        2 7 31.55                             109    0.23 6  350 225 
 TOL  SZ I         2 7 38.52         3.9 0.40            108            350 225 
                                                                                
