 2015  915 0147 53.7 L   6.762 -73.112144.8  RSN 12 0.5 2.0LRSN                1
 GAP=143        1.17       3.4     4.6  7.1 -0.1653E+01  0.7873E+01  0.1380E+01E
 Epicentro: LOS SANTOS - SANTANDER                                             3
 ACTION:UPD 15-10-28 16:26 OP:cam  STATUS:               ID:20150915014753 L   I
 OLDACT:DUP 15-09-15 13:55 OP:mh   STATUS:               ID:20150915013740d    3
 OLDACT:DUP 15-09-15 13:44 OP:mh   STATUS:               ID:20150915013739d    3
 2015-09-15-0137-38M.COL___342                                                 6
 STAT SP IPHASW D HRMM SECON CODA AMPLIT PERI AZIMU VELO AIN AR TRES W  DIS CAZ7
 BAR2 EZ EP        148 13.29                             172    0.0910 20.3 202 
 BAR2 EZ I         148 29.29        11.2 0.30            172           20.3 202 
 BRR  HZ EP        148 15.34                             151    0.2410 76.5 300 
 BRR  HN ES        148 32.40                             151    0.6510 76.5 300 
 BRR  HZ I         148 36.91        17.4 0.16            151           76.5 300 
 PAM  EZ EP        148 16.36                             150    0.4410 78.5  36 
 PAM  EE ES        148 33.04                             150   -0.1810 78.5  36 
 PAM  EZ I         148 35.68        12.1 0.44            153           78.5  36 
 RUS  HZ EP        148 16.91                             145   -0.1810 96.2 178 
 RUS  HN ES        148 35.39                             145    0.0910 96.2 178 
 RUS  HZ I         148 36.44        11.7 0.34            147           96.2 178 
 PTB  HZ EP        148 20.57                             131   -0.33 9  151 261 
 PTB  HN ES        148 41.25                             131   -0.83 9  151 261 
 PTB  HZ I         148 46.86         8.9 0.44            132            151 261 
 SPBC HZ EP        148 22.09                             129   -0.00 9  162 221 
 SPBC HN ES        148 43.92                             129   -0.28 9  162 221 
 SPBC HZ I         148 46.28        14.6 0.24            131            162 221 
 ZAR  HZ EP        148 26.37                             121   -0.28 8  209 293 
 ZAR  HE ES        148 53.04                             121    0.73 8  209 293 
 ZAR  HZ I         148 58.11        14.9 0.28            123            209 293 
 NOR  HE ES        148 57.10                             118   -0.27 8  235 236 
 NOR  HZ I         149  3.35         8.0 0.44            120            235 236 
 CHI  HZ EP        148 31.88                             117    0.82 8  246 196 
 CHI  HN ES        148 59.38                             117   -0.79 8  246 196 
 SML  HZ EP        148 30.23                             117   -0.67 8  249 335 
 SML  HN ES        148 59.17                             117   -0.71 8  249 335 
 HEL  HZ EP        148 34.80                             114    0.60 8  275 257 
 HEL  HN ES   4    149  8.48                             114    2.73 0  275 257 
 HEL  HZ I         149 12.03         5.1 0.42            116            275 257 
 GUY2CHZ EP   1    148 37.72                             112    0.34 5  302 236 
 GUY2CHN ES        149 12.09                             112    0.67 7  302 236 
 GUY2CHZ I         149 19.17         4.8 0.66                           302 236 
                                                                                
