 2016 1015 0503 22.7 L   6.770 -73.142151.1  RSN  7 0.5 1.7LRSN                1
 GAP=236        1.18       5.8     6.2  8.0  0.9078E+01  0.1043E+02 -0.6655E+00E
 Epicentro: LOS SANTOS - SANTANDER                                             3
 ACTION:UPD 16-11-09 19:19 OP:rebc STATUS:               ID:20161015050322 L   I
 OLDACT:DUP 16-10-15 16:27 OP:ar   STATUS:               ID:20161015045639d    3
 2016-10-15-0457-00M.COL___365                                                 6
 STAT SP IPHASW D HRMM SECON CODA AMPLIT PERI AZIMU VELO AIN AR TRES W  DIS CAZ7
 BAR2 EZ EP        5 3 42.85                             172   -0.0810 20.2 193 
 BAR2 EZ ES        5 3 58.07                             172   -0.6310 20.2 193 
 BAR2 EZ I         5 3 59.39         8.2 0.40            169           20.2 193 
 BRR  HZ EP        5 3 44.92                             153    0.3710 73.2 301 
 BRR  HE ES        5 4  2.50                             153    0.9210 73.2 301 
 BRR  HZ I         5 4  9.44         6.0 0.34            151           73.2 301 
 RUS  HZ EP        5 3 46.78                             146    0.0110 97.3 176 
 RUS  HE ES        5 4  5.27                             146   -0.2510 97.3 176 
 RUS  HZ I         5 4  8.24         5.2 0.46            149           97.3 176 
 PTB  HZ EP        5 3 49.67                             133   -0.44 9  148 260 
 PTB  HN ES        5 4 11.17                             133   -0.30 9  148 260 
 PTB  HZ I         5 4 15.61         7.6 0.26            133            148 260 
 SPBC HZ EP        5 3 52.00                             131    0.58 9  161 220 
 SPBC HN ES        5 4 14.37                             131    0.57 9  161 220 
 SPBC HZ I         5 4 19.33         8.6 0.46            132            161 220 
 ZAR  HZ EP        5 3 55.47                             123   -0.21 8  206 293 
 ZAR  HE ES        5 4 20.87                             123   -0.52 8  206 293 
 ZAR  HZ I         5 4 27.80         7.4 0.36            124            206 293 
 NOR  HN ES        5 4 26.39                             120   -0.19 8  233 235 
 NOR  HZ I         5 4 31.29         5.3 0.16            121            233 235 
                                                                                
