 2014  815 0503 14.4 L   6.575 -73.438  0.2  RSN  4 0.3 1.2LRSN                1
 GAP=128        0.69       2.3     1.8  5.2 -0.7435E-01  0.2249E+01  0.2499E+00E
 Epicentro: HATO - SANTANDER                                                   3
 ACTION:UPD 14-09-15 21:50 OP:nd   STATUS:               ID:20140815050314 L   I
 OLDACT:DUP 14-08-15 15:38 OP:fm   STATUS:               ID:20140815045808d    3
 2014-08-15-0458-07M.COL___269                                                 6
 STAT SP IPHASW D HRMM SECON CODA AMPLIT PERI AZIMU VELO AIN AR TRES W  DIS CAZ7
 BAR2 SZ EP        5 3 19.98                              47   -0.1110 28.3  86 
 BAR2 SZ ES   1    5 3 24.38                              47   -0.14 7 28.3  86 
 BAR2 SZ I         5 3 25.59        22.5 0.40             47           28.3  86 
 BRR  HZ EP        5 3 25.73                              47    0.1510 66.2 333 
 BRR  HN ES        5 3 34.47                              47    0.1910 66.2 333 
 BRR  HZ I         5 3 35.20        16.3 0.10             47           66.2 333 
 PTB  HZ EP        5 3 32.59                              47   -0.0510  113 268 
 PTB  HN ES        5 3 46.42                              47   -0.4310  113 268 
 PTB  HZ I         5 3 47.46         6.0 0.40             47            113 268 
 SPBC HN ES   1    5 3 50.58                              47    0.58 7  124 215 
                                                                                
