 2012  915 0613 25.1 L   6.813 -73.096147.0  RSN  5 0.3 1.7LRSN                1
 GAP=199        0.59       5.8     7.0  6.0  0.2600E+02  0.4674E+01  0.2400E+01E
 Epicentro: LOS SANTOS - SANTANDER                                             3
 ACTION:UPD 12-10-22 14:18 OP:ep   STATUS:               ID:20120915061325 L   I
 2012-09-15-0610-00M.COL___227                                                 6
 STAT SP IPHASW D HRMM SECON CODA AMPLIT PERI AZIMU VELO AIN AR TRES W  DIS CAZ7
 BAR2 SZ EP   1    613 44.97                             169    0.03 7 26.2 201 
 BAR2 SZ ES   1    614  0.62                             169    0.20 7 26.2 201 
 BAR2 SZ I         614  1.38        10.1 0.18                          26.2 201 
 GIR2 SZ EP   1    613 44.96                             167    0.04 7 31.4 340 
 GIR2 SZ ES   1    613 59.92                             167   -0.47 7 31.4 340 
 BRR  HZ EP   1    613 46.82                             151    0.19 7 75.5 296 
 BRR  HN ES   1    614  3.90                             151    0.48 7 75.5 296 
 BRR  HN I         614  4.48        24.2 0.18                          75.5 296 
 RUS  HZ EP   1    613 49.04                             144   -0.02 7  102 179 
 RUS  HN ES   1    614  7.58                             144   -0.16 7  102 179 
 RUS  HZ I         614  8.83         2.6 0.32                           102 179 
 ZAR  HN ES   1    614 23.43                             122   -0.41 6  209 291 
 ZAR  HZ I         614 29.47         4.1 0.36                           209 291 
                                                                                
