 2012  415 0909 11.0 L   6.777 -73.123139.3  RSN  7 0.2 2.0LRSN                1
 GAP=140        0.57       3.3     4.1  4.7 -0.4448E+01  0.5787E+01 -0.1254E+01E
 Epicentro: LOS SANTOS - SANTANDER                                             3
 ACTION:UPD 12-07-05 11:53 OP:tino STATUS:               ID:20120415090911 L   I
 2012-04-15-0904-39M.COL___163                                                 6
 STAT SP IPHASW D HRMM SECON CODA AMPLIT PERI AZIMU VELO AIN AR TRES W  DIS CAZ7
 BAR2 SZ EP        9 9 29.94                             171     0.110   21 198 
 BAR2 SZ ES   1    9 9 44.29                             171    -0.2 7   21 198 
 BAR2 SZ I         9 9 46.48        26.0 0.25                            21 198 
 BRR  HZ EP        9 9 31.63                             150     0.010   75 299 
 BRR  HN ES   1    9 9 48.04                             150     0.3 7   75 299 
 BRR  HZ I         9 9 54.49        21.4 0.10                            75 299 
 PAM  SZ EP        9 9 32.73                             149     0.210   78  37 
 PAM  SE ES   1    9 9 49.15                             149    -0.2 7   78  37 
 RUS  HZ EP   1    9 9 34.03                             143     0.1 7   98 177 
 RUS  HN ES   1    9 9 51.94                             143     0.1 7   98 177 
 RUS  HZ I         9 9 54.24        14.1 0.43                            98 177 
 OCA  SZ EP   1    9 9 38.94                             128    -0.2 7  163 352 
 NOR  SZ EP   1    9 9 45.86                             117    -0.6 6  235 235 
 NOR  SN ES   1    910 13.89                             117    -0.2 6  235 235 
 HEL  HZ EP   1    9 9 51.58                             113     0.5 6  274 256 
 HEL  HZ I         910 28.04         6.5 0.26                           274 256 
                                                                                
