 2016 1215 0632 12.1 L   7.415 -73.199127.2  RSN  6 0.2 1.6LRSN                1
 GAP=186        0.53       3.0     2.2  3.8  0.9504E+00  0.2285E+01 -0.3481E+00E
 Epicentro: EL PLAYON - SANTANDER                                              3
 ACTION:UPD 17-01-11 20:15 OP:rebc STATUS:               ID:20161215063212 L   I
 OLDACT:UP  16-12-15 16:41 OP:and  STATUS:               ID:20161215062743     3
 OLDACT:REG 16-12-15 12:40 OP:and  STATUS:               ID:20161215062743     3
 2016-12-15-0628-00M.COL___378                                                 6
 STAT SP IPHASW D HRMM SECON CODA AMPLIT PERI AZIMU VELO AIN AR TRES W  DIS CAZ7
 PAM  EZ EP        632 31.19                             155    0.0710 55.8  99 
 PAM  EN ES        632 45.91                             155   -0.0310 55.8  99 
 PAM  EZ I         632 49.39         6.1 0.18            156           55.8  99 
 BRR  HZ EP        632 30.83                             151   -0.1510 66.0 239 
 BRR  HN ES        632 45.53                             151   -0.1610 66.0 239 
 BRR  HZ I         632 46.72        13.1 0.13            150           66.0 239 
 BAR2 EZ EP        632 33.06                             142    0.0610 91.0 179 
 BAR2 EZ ES        632 49.34                             142    0.0510 91.0 179 
 BAR2 EZ I         632 50.43        14.3 0.14            142           91.0 179 
 PTB  HZ EP        632 39.48                             123   -0.31 9  169 235 
 PTB  HN ES        633  1.22                             123   -0.15 9  169 235 
 PTB  HZ I         633  3.87         4.2 0.21            124            169 235 
 RUS  HZ EP        632 40.16                             124   -0.21 9  169 176 
 RUS  HN ES        633  2.74                             124    0.35 9  169 176 
 RUS  HZ I         633  9.48         2.1 0.28            124            169 176 
 ZAR  HZ EP        632 41.48                             121    0.25 9  183 273 
 ZAR  HN ES        633  4.21                             121    0.29 9  183 273 
 ZAR  HZ I         633  7.80         5.5 0.07            122            183 273 
                                                                                
