 2015  315 0557  3.4 L   7.471 -73.234135.3  RSN  4 0.2 1.1LRSN                1
 GAP=136        0.55       3.7     3.3  5.4 -0.1878E+01  0.5744E+01 -0.6159E+01E
 Epicentro: EL PLAYON - SANTANDER                                              3
 ACTION:UPD 15-04-30 16:26 OP:nd   STATUS:               ID:20150315055703 L   I
 OLDACT:DUP 15-03-15 17:22 OP:spq  STATUS:               ID:20150315054750d    3
 2015-03-15-0547-49M.COL___257                                                 6
 STAT SP IPHASW D HRMM SECON CODA AMPLIT PERI AZIMU VELO AIN AR TRES W  DIS CAZ7
 PAM  SZ EP        557 23.71                             155    0.1210 60.8 104 
 PAM  SE ES        557 39.12                             155   -0.1910 60.8 104 
 PAM  SZ I         557 39.71         2.3 0.16            161           60.8 104 
 BRR  HZ EP        557 23.38                             152    0.1910 66.4 233 
 BRR  HN ES        557 38.77                             152    0.1810 66.4 233 
 BRR  HZ I         557 44.21         4.5 0.48            152           66.4 233 
 PTB  HZ EP   1    557 31.26                             125   -0.46 7  170 233 
 PTB  HE ES   1    557 53.61                             125   -0.17 7  170 233 
 PTB  HZ I         557 55.91         1.2 0.22            127            170 233 
 SML  HZ EP   1    557 32.30                             125    0.23 7  174 328 
 SML  HN ES   1    557 54.14                             125   -0.26 7  174 328 
                                                                                
