 2013 1015 0359  5.2 L   6.795 -73.174150.5  RSN  7 0.4 1.4LRSN                1
 GAP=180        0.93       3.1     6.3  7.4  0.7318E+00 -0.3812E+01 -0.1622E+01E
 Epicentro: LOS SANTOS - SANTANDER                                             3
 ACTION:UPD 13-11-25 09:21 OP:ep   STATUS:               ID:20131015035905 L   I
 OLDACT:REG 13-10-15 09:00 OP:jn   STATUS:               ID:20131015035736     3
 2013-10-15-0357-36M.COL___226                                                 6
 STAT SP IPHASW D HRMM SECON CODA AMPLIT PERI AZIMU VELO AIN AR TRES W  DIS CAZ7
 BRR  HZ EP        359 27.32                             154    0.6010 68.8 300 
 BRR  HN ES        359 43.85                             154    0.3410 68.8 300 
 BRR  HZ I         359 47.58         4.4 0.12            152           68.8 300 
 RUS  HZ EP        359 29.32                             145   -0.0710  100 174 
 RUS  HN ES        359 47.78                             145   -0.4910  100 174 
 RUS  HZ I         359 48.90         2.7 0.26            148            100 174 
 PTB  HZ EP        359 32.09                             134   -0.18 9  145 259 
 PTB  HN ES        359 52.88                             134   -0.51 9  145 259 
 PTB  HZ I         359 54.60         3.1 0.32            134            145 259 
 OCA  HE ES        359 56.33                             131    0.06 9  160 354 
 SPBC HZ EP        359 34.01                             130    0.17 9  161 218 
 SPBC HN ES        359 56.62                             130    0.44 9  161 218 
 SPBC HZ I         4 0  1.16         3.4 0.40            132            161 218 
 SML  HZ EP        359 41.92                             118   -0.07 8  243 336 
 SML  HN ES   1    4 0  9.90                             118   -0.80 6  243 336 
 SML  HZ I         4 0 18.60         3.1 0.10            119            243 336 
 CHI  HN ES   1    4 0 12.49                             118   -0.03 6  247 195 
                                                                                
