 2017  815 0621  8.5 L   6.818 -73.120142.0  RSN 16 0.5 1.8LRSN                1
 GAP=114        0.92       3.1     3.3  4.8 -0.8653E-01  0.5018E+01  0.4004E+01E
 Epicentro: LOS SANTOS - SANTANDER                                             3
 ACTION:UPD 17-09-04 20:20 OP:rebc STATUS:               ID:20170815062108 L   I
 OLDACT:UP  17-08-15 16:00 OP:and  STATUS:               ID:20170815061738     3
 OLDACT:UP  17-08-15 15:59 OP:and  STATUS:               ID:20170815061738     3
 OLDACT:UP  17-08-15 13:36 OP:mg   STATUS:               ID:20170815061738     3
 OLDACT:UP  17-08-15 13:35 OP:mg   STATUS:               ID:20170815061738     3
 OLDACT:REG 17-08-15 12:29 OP:mg   STATUS:               ID:20170815061738     3
 2017-08-15-0618-00M.COL___410                                                 6
 STAT SP IPHASW D HRMM SECON CODA AMPLIT PERI AZIMU VELO AIN AR TRES W  DIS CAZ7
 BAR2 EZ EP        621 27.52                             169   -0.2310 26.0 196 
 BAR2 EZ ES        621 42.30                             169   -0.4510 26.0 196 
 BAR2 EZ I         621 44.88         8.3 0.28            165           26.0 196 
 BRR  HZ EP     C  621 29.33                             151   -0.0210 72.8 296 
 BRR  HN ES        621 46.00                             151    0.3910 72.8 296 
 BRR  HZ I         621 49.91        15.4 0.38            153           72.8 296 
 PAM  EZ EP        621 30.41                             151    0.2810 74.0  39 
 PAM  EN ES        621 47.44                             151    0.4610 74.0  39 
 PAM  EZ I         621 49.56         7.3 0.24            148           74.0  39 
 PAM  EZ I         621 52.17         8.6 0.36                          74.0  39 
 RUS  HZ EP        621 32.05                             142    0.0210  102 178 
 RUS  HN ES        621 50.22                             142   -0.1610  102 178 
 RUS  HZ I         621 52.01         6.4 0.18            137            102 178 
 SPBC HZ EP        621 36.85                             127   -0.20 9  167 219 
 SPBC HN ES        621 59.57                             127    0.25 9  167 219 
 SPBC HZ I         622  4.61         9.6 0.10            124            167 219 
 YPLC HZ EP        621 38.00                             125   -0.08 9  177 152 
 YPLC HZ I         622  7.52         4.6 0.36            121            177 152 
 ZAR  HZ EP        621 40.76                             121   -0.16 8  206 291 
 ZAR  HN ES        622  5.69                             121   -0.50 8  206 291 
 ZAR  HZ I         622 10.92         9.4 0.40            119            206 291 
 NOR  HZ EP        621 44.04                             117   -0.37 8  238 234 
 NOR  HN ES        622 12.23                             117   -0.18 8  238 234 
 NOR  HZ I         622 15.59         4.7 0.22            114            238 234 
 CHI  HZ EP        621 46.10                             116   -0.20 8  251 196 
 CHI  HN ES        622 15.78                             116   -0.00 8  251 196 
 CHI  HZ I         622 22.39         3.4 0.44            113            251 196 
 HEL  HZ EP        621 49.52                             114    0.62 7  275 256 
 HEL  HN ES        622 19.86                             114   -0.55 7  275 256 
 HEL  HZ I         622 26.60         4.1 0.40            111            275 256 
 GUY2CHZ EP   2    621 52.80                             111    0.45 4  305 235 
 GUY2CHE ES   3    622 29.16                             111    2.62 2  305 235 
 GUY2CHZ I         622 31.99         2.5 0.26                           305 235 
 PTGC HZ EP   3    621 50.89                             111   -1.41 2  310 159 
 LL6C HZ EP   9    621 52.90                             110   -0.93 0  323 357 
 LL6C HN ES   1    622 28.26                             110    0.01 5  323 357 
 CBOC HZ EP        621 56.32                             109    0.66 7  337 252 
 CBOC HN ES        622 31.84                             109   -0.60 7  337 252 
 CBOC HZ I         622 40.73         1.1 0.60            107            337 252 
 PRA  HZ EP        622  2.45                             106    0.17 6  395 210 
 PRA  HN ES        622 45.76                             106    1.54 6  395 210 
 PRA  HZ I         622 50.08         4.1 0.30            103            395 210 
 SJC  HZ EP   3    622  1.91                             105   -2.03 1  409 326 
 SJC  HN ES   4    622 44.77                             105   -2.40 0  409 326 
 SJC  HZ I         622 46.42         1.8 0.44            103            409 326 
                                                                                
