 2016  215 0208 27.8 L   6.753 -73.170152.0  RSN  6 0.3 1.1LRSN                1
 GAP=231        0.77       4.5     5.0  5.2  0.5103E+01  0.2312E+01  0.4403E+01E
 Epicentro: LOS SANTOS - SANTANDER                                             3
 ACTION:UPD 16-03-04 21:26 OP:rebc STATUS:               ID:20160215020827 L   I
 OLDACT:DUP 16-02-15 15:08 OP:drio STATUS:               ID:20160215020748d    3
 OLDACT:UP  16-02-15 15:05 OP:drio STATUS:               ID:20160215020747     3
 OLDACT:REG 16-02-15 12:08 OP:drio STATUS:               ID:20160215020747     3
 2016-02-15-0207-47M.COL___299                                                 6
 STAT SP IPHASW D HRMM SECON CODA AMPLIT PERI AZIMU VELO AIN AR TRES W  DIS CAZ7
 BAR2 EZ EP        2 8 47.70                             173   -0.4110 17.8 184 
 BAR2 EZ ES        2 9  3.60                             173   -0.3310 17.8 184 
 BAR2 EZ I         2 9  4.45         3.4 0.16            177           17.8 184 
 BRR  HZ EP        2 8 49.91                             153    0.2510 71.5 303 
 BRR  HZ I         2 9  6.98         3.6 0.58            145           71.5 303 
 BRR  HE ES        2 9  7.07                             153    0.3710 71.5 303 
 RUS  HZ EP        2 8 51.62                             146   -0.2310 95.7 174 
 RUS  HN ES        2 9 11.04                             146    0.4510 95.7 174 
 RUS  HZ I         2 9 11.74         0.8 0.48            151           95.7 174 
 PTB  HZ EP        2 8 54.88                             134   -0.10 9  144 261 
 PTB  HN ES        2 9 16.00                             134   -0.17 9  144 261 
 PTB  HZ I         2 9 21.04         2.2 0.18            131            144 261 
 SPBC HZ EP        2 8 56.36                             132    0.09 9  157 219 
 SPBC HN ES        2 9 18.29                             132   -0.18 9  157 219 
 CHI  HZ EP        2 9  5.61                             119    0.35 8  243 195 
 CHI  HN ES   4    2 9 36.12                             119    1.66 0  243 195 
                                                                                
