 2012 1115 0022 18.8 L   6.812 -73.183136.1  RSN  5 0.2 1.1LRSN                1
 GAP=131        0.41       3.1     3.2  5.1 -0.2719E+01  0.3426E+01 -0.2110E+01E
 Epicentro: ZAPATOCA - SANTANDER                                               3
 ACTION:UPD 12-12-05 15:33 OP:}ep  STATUS:               ID:20121115002218 L   I
 2012-11-15-0020-00M.COL___230                                                 6
 STAT SP IPHASW D HRMM SECON CODA AMPLIT PERI AZIMU VELO AIN AR TRES W  DIS CAZ7
 BAR2 SZ ES   1    022 51.85                             169    0.11 7 24.3 180 
 BRR  HZ EP   1    022 39.01                             152    0.32 7 67.0 299 
 BRR  HZ I         022 57.11         5.4 0.46                          67.0 299 
 PAM  SZ EP   1    022 40.10                             148   -0.03 7 79.0  42 
 PAM  SN ES   1    022 56.60                             148   -0.14 7 79.0  42 
 PAM  SZ I         022 59.33         3.1 0.36                          79.0  42 
 RUS  HZ EP   1    022 41.64                             141   -0.13 7  102 174 
 RUS  HN ES   1    022 59.71                             141    0.05 7  102 174 
 RUS  HZ I         023  1.58         1.1 0.31                           102 174 
 PTB  HN ES   1    023  4.64                             130   -0.20 7  144 258 
                                                                                
