 2016  715 0813 34.7 L   6.819 -73.160147.1  RSN 24 0.5 2.9LRSN                1
 GAP= 70        1.08       3.2     2.7  4.5 -0.1877E+01  0.2758E+01  0.1621E+01E
 Epicentro: LOS SANTOS - SANTANDER                                             3
 ACTION:UPD 17-03-29 16:51 OP:lp   STATUS:               ID:20160715081334 L   I
 OLDACT:REG 16-07-15 13:47 OP:lv   STATUS:               ID:20160715080759     3
 2016-07-15-0807-59S.COL___319                                                 6
 STAT SP IPHASW D HRMM SECON CODA AMPLIT PERI AZIMU VELO AIN AR TRES W  DIS CAZ7
 BAR2 EZ EP     D  813 54.57                             170    0.0710 25.2 186 
 BAR2 EZ ES        814  9.75                             170   -0.2210 25.2 186 
 BAR2 EZ I         814 12.36       218.7 0.28            169           25.2 186 
 BRR  HZ IP     C  813 56.33                             153    0.5010 68.8 298 
 BRR  HE ES        814 13.43                             153    1.0910 68.8 298 
 BRR  HZ I         814 15.46       125.2 0.14            152           68.8 298 
 PAM  EZ IP     C  813 57.38                             151    0.3910 76.8  41 
 PAM  EN ES        814 14.30                             151   -0.1010 76.8  41 
 PAM  EZ I         814 17.65       116.7 0.34            151           76.8  41 
 RUS  HZ IP     D  813 58.43                             144   -0.2910  103 175 
 RUS  HE ES        814 17.15                             144   -0.3210  103 175 
 RUS  HZ I         814 18.45       100.2 0.38            143            103 175 
 PTB  HZ EP        814  1.07                             133   -0.58 9  147 258 
 PTB  HN ES        814 21.90                             133   -0.79 9  147 258 
 PTB  HZ I         814 29.34        82.8 0.42            131            147 258 
 TAM  HZ IP     C  814  2.96                             130    0.31 9  157 106 
 TAM  HZ I         814 23.95        34.9 0.32            130            157 106 
 TAM  HN ES        814 24.62                             130    0.16 9  157 106 
 SPBC HZ EP        814  3.44                             129    0.10 9  164 218 
 SPBC HN ES        814 25.35                             129   -0.35 9  164 218 
 SPBC HZ I         814 31.35       126.0 0.26            128            164 218 
 ZAR  HZ EP        814  6.81                             123   -0.17 9  202 292 
 ZAR  HN ES        814 32.06                             123   -0.11 9  202 292 
 ZAR  HZ I         814 37.87        73.6 0.34            122            202 292 
 NOR  HZ EP        814 10.65                             119    0.17 8  235 234 
 NOR  HE ES        814 38.09                             119   -0.32 8  235 234 
 NOR  HZ I         814 44.18        57.5 0.16            118            235 234 
 CHI  HZ EP        814 12.83                             117    0.20 8  250 195 
 CHI  HN ES        814 41.65                             117   -0.58 8  250 195 
 CHI  HZ I         814 48.28        33.8 0.36            116            250 195 
 ROSC BZ EP   9    814 14.40                             117    1.42 0  254 210 
 ROSC BN ES        814 44.75                                    0.47 8  254 210 
 ROSC BZ I         814 49.24       105.5 0.45            116            254 210 
 HEL  HZ EP        814 15.12                             115    0.27 8  271 255 
 HEL  HN ES        814 46.36                             115    0.18 8  271 255 
 HEL  HZ I         814 54.82        42.7 0.38            114            271 255 
 URE  HZ EP   4    814 14.36                             114   -1.20 0  282 292 
 URE  HN ES   4    814 44.72                             114   -2.73 0  282 292 
 URE  HZ I         814 58.27        32.6 0.16            113            282 292 
 SOCV BZ EP     C  814 17.39                             112   -0.41 7  301  57 
 SOCV BE ES   4    814 48.68                             112   -2.75 0  301  57 
 GUY2CHZ EP        814 18.99                             113    0.65 7  301 234 
 GUY2CHN ES        814 51.74                             113   -0.66 7  301 234 
 GUY2CHZ I         815  4.78        45.6 0.48                           301 234 
 PTGC HZ EP   4 D  814 17.68                             112   -1.20 0  311 159 
 PTGC HN ES   4    814 51.06                             112   -2.30 0  311 159 
 PTGC HZ I         814 56.06        33.4 0.28            111            311 159 
 CBOC HZ EP        814 22.39                             110    0.84 7  333 252 
 CBOC HN ES        814 58.44                             110    0.33 7  333 252 
 CBOC HZ I         815  9.53        13.6 0.48            109            333 252 
 DBB  EZ EP        814 21.84                             110   -0.17 7  338 274 
 DBB  EZ ES   3    814 57.88                             110   -1.05 2  338 274 
 DBB  EZ I         815  2.17        20.0 0.48            109            338 274 
 ANIL HZ EP        814 25.02                             109    0.44 6  358 224 
 ANIL HN ES   4    815  5.47                             109    1.96 0  358 224 
 PRA  HZ EP        814 28.28                             107   -0.09 6  393 209 
 PRA  HN ES        815 11.02                             107    0.77 6  393 209 
 PRA  HZ I         815 16.80        49.1 0.48            106            393 209 
 ORTC HZ EP        814 28.79                             106    0.06 6  396 216 
 ORTC HN ES        815 11.35                             106    0.45 6  396 216 
 ORTC HZ I         815 18.44        25.8 0.32            106            396 216 
 PAL  HZ EP        814 29.98                             106    0.13 6  405 239 
 PAL  HN ES        815 12.25                             106   -0.64 6  405 239 
 PAL  HZ I         815 18.09        13.1 0.24            105            405 239 
 SJC  HZ EP   4    814 28.28                             106   -1.69 0  407 327 
 SJC  HN ES   4    815  9.63                             106   -3.47 0  407 327 
 SJC  HZ I         815 13.91        12.9 0.36            105            407 327 
 CRJC HZ EP        814 34.94                             104   -2.03 5  466   4 
 CRJC HE IS   4    815 22.33                             104   -3.23 0  466   4 
 CRJC HZ I         815 29.44        18.0 0.18            103            466   4 
                                                                                
