 2012  515 0611 32.3 L   6.786 -73.112139.8  RSN  7 0.4 2.0LRSN                1
 GAP=142        0.91       4.6     7.6  8.0  0.2107E+01  0.5966E+01 -0.1551E+01E
 Epicentro: LOS SANTOS - SANTANDER                                             3
 ACTION:UP  12-07-05 12:05 OP:pat  STATUS:               ID:20120515061132 L   I
 2012-05-15-0610-00M.COL___195                                                 6
 STAT SP IPHASW D HRMM SECON CODA AMPLIT PERI AZIMU VELO SNR AR TRES W  DIS CAZ7
 BAR2 SZ EP   1    611 51.17                             170    -0.1 7   23 200 
 BAR2 SZ ES   1    612  5.39                             170    -0.6 7   23 200 
 BAR2 SZ I         612  7.30        19.4 0.22                            23 200 
 BRR  HZ EP   1    611 53.03                             150    -0.1 7   75 298 
 BRR  HN ES   1    612 10.00                             150     0.7 7   75 298 
 BRR  HZ I         612 14.50        31.3 0.12                            75 298 
 PAM  SZ EP   1    611 54.16                             150     0.3 7   76  37 
 PAM  SE ES   1    612 10.95                             150     0.3 7   76  37 
 RUS  HZ EP   1    611 55.18                             143    -0.2 7   99 178 
 RUS  HE ES   1    612 13.44                             143     0.1 7   99 178 
 RUS  HZ I         612 15.02        10.6 0.30                            99 178 
 OCA  HZ EP   1    612  0.70                             128     0.3 7  162 352 
 OCA  HE ES   1    612 21.44                             128    -0.8 7  162 352 
 ZAR  HN ES   2    612 29.89                             120    -0.3 4  208 292 
 ZAR  HZ I         612 35.13         8.9 0.34                           208 292 
 PRA  HZ EP   1    612 25.78                             105     0.1 4  393 210 
                                                                                
