 2010  415 0831 29.2 L   6.786 -73.100152.0  RSN  6 0.6 1.9LRSN                1
 GAP=212        1.17       8.5    11.7 12.1 -0.2891E+02 -0.1897E+02  0.3398E+02E
 Epicentro: LOS SANTOS - SANTANDER                                             3
 ACTION:UP  10-08-24 09:59 OP:vdl  STATUS:               ID:20100415083140 L   I
 2010-04-15-0829-57S.COL___100                                                 6
 STAT SP IPHASW D HRMM SECON CODA AMPLIT PERI AZIMU VELO AIN AR TRES W  DIS CAZ7
 BAR2 SZ EP        831 49.30                             171    -0.210   23 203 
 BAR2 SZ ES   2    832  5.04                             171    -0.4 5   23 203 
 BRR  HZ IP     C  831 51.61                             152     0.310   76 298 
 BRR  HZ I         831 52.08        22.6 0.17                            76 298 
 BRR  HN ES        832  9.10                             152     0.610   76 298 
 OCA  SZ EP   1    831 57.89                             131    -0.3 7  162 351 
 OCA  SZ ES   1    832 20.31                             131    -0.5 7  162 351 
 OCA  SZ I         832 23.40         9.8 0.73                           162 351 
 HEL  HN ES   1    832 41.04                             116    -1.2 6  277 256 
 HEL  HZ I         832 47.71         2.9 0.16                           277 256 
 RREF BZ EP   2    832 17.08                             112     1.2 3  325 230 
 RREF BZ I         833  1.14         2.8 0.59                           325 230 
 PRA  HZ EP   1    832 23.37                             108     0.3 4  393 210 
 PRA  HN ES   2    833  4.81                             108    -0.3 3  393 210 
 PRA  HZ I         833 11.09         2.6 0.89                           393 210 
                                                                                
