 2016 1115 0027 17.2 L   6.849 -73.209150.0  RSN 10 0.5 1.9LRSN                1
 GAP=128        1.12       4.9     5.1  6.1 -0.4058E+00  0.5528E+01  0.5197E+01E
 Epicentro: ZAPATOCA - SANTANDER                                               3
 ACTION:UPD 17-10-26 21:08 OP:lp   STATUS:               ID:20161115002717 L   I
 OLDACT:UP  16-11-15 14:13 OP:edw  STATUS:               ID:20161115001748d    3
 OLDACT:UP  16-11-15 14:12 OP:edw  STATUS:               ID:20161115001748d    3
 OLDACT:DUP 16-11-15 14:08 OP:edw  STATUS:               ID:20161115001748d    3
 OLDACT:UP  16-11-15 14:08 OP:edw  STATUS:               ID:20161115001747d    3
 OLDACT:DUP 16-11-15 14:02 OP:edw  STATUS:               ID:20161115001747d    3
 OLDACT:UP  16-11-15 14:00 OP:edw  STATUS:               ID:20161115001746     3
 OLDACT:REG 16-11-15 12:30 OP:edw  STATUS:               ID:20161115001746     3
 2016-11-15-0018-00M.COL___335                                                 6
 STAT SP IPHASW D HRMM SECON CODA AMPLIT PERI AZIMU VELO AIN AR TRES W  DIS CAZ7
 BAR2 EZ EP        027 37.06                             169   -0.4210 28.5 174 
 BAR2 EZ ES        027 52.63                             169   -0.6510 28.5 174 
 BAR2 EZ I         027 53.38        14.3 0.09            166           28.5 174 
 BRR  HZ EP        027 39.00                             156    0.6210 62.5 297 
 BRR  HN ES        027 55.65                             156    0.7710 62.5 297 
 BRR  HZ I         027 59.08        13.8 0.18            150           62.5 297 
 PAM  EZ EP        027 40.08                             151    0.1410 78.2  46 
 PAM  EN ES        027 57.35                             151   -0.3110 78.2  46 
 PAM  EZ I         027 59.45        19.1 0.50            157           78.2  46 
 PTB  HZ EP   9    027 44.38                             134    0.34 0  142 256 
 PTB  HN ES        028  4.75                             133   -0.54 9  142 256 
 PTB  HZ I         028  8.68         9.3 0.14            130            142 256 
 ZAR  HZ EP   9    027 50.68                             124    1.59 0  196 291 
 ZAR  HN ES        028 15.20                             124   -0.33 9  196 291 
 ZAR  HZ I         028 21.11         7.9 0.32            122            196 291 
 NOR  HZ EP        027 52.68                             119   -0.27 8  232 232 
 NOR  HN ES   2    028 20.39                             119   -0.43 4  232 232 
 NOR  HZ I         028 29.08         7.5 0.22            118            232 232 
 CHI  HZ EP        027 55.55                             117    0.00 8  252 193 
 CHI  HN ES        028 25.98                             117    0.55 8  252 193 
 CHI  HZ I         028 30.38         5.3 0.28            117            252 193 
 ROSC BZ EP   4    027 57.28                             117    1.57 0  254 209 
 ROSC BN ES   4    028 28.29                             117    2.56 0  254 209 
 ROSC BZ I         028 31.95         7.7 0.40            116            254 209 
 URE  HZ EP        027 57.84                             115    0.28 7  275 291 
 URE  HN ES        028 28.44                             115   -0.58 7  275 291 
 URE  HZ I         028 40.19         4.8 0.56            114            275 291 
 LL6C HZ EP   4    027 43.47                             111   -19.0 0  319 359 
 LL6C HN ES   4    028 19.65                             111   -18.1 0  319 359 
 SJC  HZ EP        028 11.78                             106   -0.18 6  401 327 
 SJC  HN ES   4    028 51.69                             106   -2.95 0  401 327 
                                                                                
