 2016  815 0325 17.9 L   6.799 -73.153150.0  RSN 13 0.4 1.8LRSN                1
 GAP=136        0.88       2.7     3.6  5.0 -0.1093E+01  0.2699E+01  0.2008E+00E
 Epicentro: LOS SANTOS - SANTANDER                                             3
 ACTION:UPD 16-10-29 15:35 OP:rebc STATUS:               ID:20160815032517 L   I
 OLDACT:REG 16-08-15 12:19 OP:ak   STATUS:               ID:20160815031738     3
 2016-08-15-0318-00M.COL___380                                                 6
 STAT SP IPHASW D HRMM SECON CODA AMPLIT PERI AZIMU VELO AIN AR TRES W  DIS CAZ7
 BAR2 EZ EP        325 37.56                             171   -0.4910 23.1 188 
 BAR2 EZ ES        325 53.63                             171   -0.1310 23.1 188 
 BAR2 EZ I         325 55.32        13.2 0.24                          23.1 188 
 BRR  HZ EP        325 39.76                             153    0.2710 70.6 299 
 BRR  HN ES        325 57.25                             153    0.9310 70.6 299 
 BRR  HZ I         326  2.09         9.9 0.12                          70.6 299 
 PAM  EZ EP        325 40.73                             151    0.1110 78.0  40 
 PAM  EN ES        325 58.18                             151   -0.1510 78.0  40 
 PAM  EZ I         326  0.08        10.7 0.56                          78.0  40 
 RUS  HZ EP        325 41.96                             145   -0.1210  100 176 
 RUS  HN ES        326  0.80                             145   -0.1310  100 176 
 RUS  HZ I         326  2.16         5.3 0.38                           100 176 
 PTB  HZ EP        325 44.79                             133   -0.37 9  147 259 
 PTB  HN ES        326  5.82                             133   -0.59 9  147 259 
 PTB  HZ I         326  9.34         9.3 0.12                           147 259 
 OCA  HZ EP        325 46.62                             131    0.05 9  160 353 
 OCA  HE ES        326  8.96                             131    0.05 9  160 353 
 OCA  HZ I         326 13.78        20.8 0.38                           160 353 
 SPBC HZ EP        325 46.84                             130    0.15 9  163 219 
 SPBC HN ES        326  9.26                             130    0.13 9  163 219 
 SPBC HZ I         326 11.10        16.9 0.74                           163 219 
 ZAR  HZ EP        325 50.46                             123   -0.11 9  203 292 
 ZAR  HN ES        326 15.81                             123   -0.24 9  203 292 
 ZAR  HZ I         326 21.58         6.4 0.36                           203 292 
 CHI  HZ EP   2    325 56.08                             118    0.26 4  248 195 
 CHI  HE ES        326 25.94                             118    0.56 8  248 195 
 CHI  HZ I         326 29.16         2.5 0.18                           248 195 
 HEL  HZ EP   9    325 59.71                             116    1.45 0  271 256 
 HEL  HE ES        326 31.19                                    0.01 8  271 256 
 HEL  HZ I         326 36.68         3.7 0.26                           271 256 
 URE  HZ EP   4    326  2.82                             115    3.70 0  283 292 
 URE  HN ES   4    326 29.39                             115   -1.87 0  283 292 
 URE  HZ I         326 39.86         4.1 0.24                           283 292 
 GUY2CHZ EP   2    326  2.40                             113    0.76 4  300 235 
 GUY2CHN ES   4    326 37.04                             113    1.29 0  300 235 
 GUY2CHZ I         326 45.05         3.5 0.56                           300 235 
 SJC  HZ EP   4    326 12.56                             106   -1.03 0  409 327 
 SJC  HN ES   4    326 53.01                             106   -4.00 0  409 327 
 SJC  HZ I         326 57.85         1.6 0.48                           409 327 
                                                                                
