 2017  815 0400 42.9 L   6.766 -73.130145.6  RSN  8 0.4 1.4LRSN                1
 GAP=140        0.78       3.8     4.4  5.3 -0.4588E+01  0.1686E+01  0.3523E+01E
 Epicentro: LOS SANTOS - SANTANDER                                             3
 ACTION:UPD 17-09-04 20:20 OP:rebc STATUS:               ID:20170815040042 L   I
 OLDACT:UP  17-08-15 14:11 OP:and  STATUS:               ID:20170815035738     3
 OLDACT:UP  17-08-15 14:11 OP:and  STATUS:               ID:20170815035738     3
 OLDACT:UP  17-08-15 14:10 OP:and  STATUS:               ID:20170815035738     3
 OLDACT:REG 17-08-15 12:23 OP:and  STATUS:               ID:20170815035738     3
 2017-08-15-0358-00M.COL___410                                                 6
 STAT SP IPHASW D HRMM SECON CODA AMPLIT PERI AZIMU VELO AIN AR TRES W  DIS CAZ7
 BAR2 EZ EP        4 1  2.26                             172   -0.2310 20.0 197 
 BAR2 EZ ES        4 1 17.38                             172   -0.3510 20.0 197 
 BAR2 EZ I         4 1 20.02         7.4 0.48            174           20.0 197 
 BRR  HZ EP        4 1  4.04                             151   -0.2310 74.6 300 
 BRR  HN ES        4 1 21.15                             151    0.2510 74.6 300 
 BRR  HZ I         4 1 25.02         5.1 0.36            154           74.6 300 
 PAM  EZ IP     C  4 1  5.27                             150    0.0210 79.3  37 
 PAM  EN ES   4    4 1 28.20                             150    5.55 0 79.3  37 
 PAM  EZ I         4 1 31.85         6.1 0.24            152           79.3  37 
 RUS  HZ EP        4 1  6.40                             145    0.0010 96.7 177 
 RUS  HN ES        4 1 25.07                             145    0.3810 96.7 177 
 RUS  HZ I         4 1 26.16         5.1 0.32            149           96.7 177 
 SPBC HZ IP     C  4 1 11.56                             129    0.30 9  161 220 
 SPBC HN ES        4 1 33.09                             129   -0.25 9  161 220 
 SPBC HZ I         4 1 39.47         4.4 0.20            133            161 220 
 NOR  HE ES        4 1 46.87                             118    0.49 8  234 235 
 NOR  HZ I         4 1 48.53         1.7 0.22            122            234 235 
 CHI  HZ EP        4 1 20.58                             117    0.29 8  245 196 
 CHI  HN ES   2    4 1 48.32                             117   -1.09 4  245 196 
 CHI  HZ I         4 1 53.24         0.9 0.37            121            245 196 
 GUY2CHN ES        4 1 59.98                             112   -0.43 7  300 236 
 GUY2CHZ I         4 2  9.12         1.0 0.25                           300 236 
                                                                                
