 2013 1115 0545 48.7 L   6.775 -73.160154.1  RSN  6 0.4 1.3LRSN                1
 GAP=211        1.02       4.8     7.9  7.3 -0.3941E+01  0.3624E+01 -0.6106E+01E
 Epicentro: LOS SANTOS - SANTANDER                                             3
 ACTION:UPD 14-01-09 16:28 OP:ep   STATUS:               ID:20131115054548 L   I
 OLDACT:REG 13-11-15 08:51 OP:nd   STATUS:               ID:20131115054000     3
 2013-11-15-0540-00M.COL___279                                                 6
 STAT SP IPHASW D HRMM SECON CODA AMPLIT PERI AZIMU VELO AIN AR TRES W  DIS CAZ7
 BAR2 SZ EP        546  9.00                             172   -0.3110 20.3 187 
 BAR2 SZ ES        546 25.03                             172   -0.3310 20.3 187 
 BAR2 SZ I         546 27.20         3.9 0.18            170           20.3 187 
 BRR  HZ EP        546 11.02                             154    0.2310 71.2 301 
 BRR  HN ES        546 28.57                             154    0.5910 71.2 301 
 BRR  HZ I         546 39.25         3.8 0.46            151           71.2 301 
 RUS  HZ EP   4    546 13.04                             146   -0.09 0 97.9 175 
 RUS  HN ES   4    546 31.34                             146   -0.81 0 97.9 175 
 RUS  HZ I         546 33.59         1.0 0.28            152           97.9 175 
 PTB  HZ EP        546 15.95                             134   -0.26 9  146 260 
 PTB  HN ES        546 36.92                             134   -0.71 9  146 260 
 PTB  HZ I         546 42.90         2.8 0.24            135            146 260 
 SPBC HZ EP        546 18.00                             131    0.41 9  160 219 
 SPBC HN ES        546 40.53                             131    0.44 9  160 219 
 SPBC HZ I         546 45.04         2.9 0.14            135            160 219 
 SML  HZ EP        546 25.86                             119   -0.18 8  246 336 
 SML  HN ES        546 55.24                             119    0.10 8  246 336 
 SML  HZ I         546 57.58         3.1 0.24            122            246 336 
                                                                                
