 2013 1215 0426 35.4 L   6.810 -73.134149.6  RSN  4 0.4 1.1LRSN                1
 GAP=240        0.90       8.3     9.8 10.9  0.4770E+02 -0.8548E+01 -0.6629E+01E
 Epicentro: LOS SANTOS - SANTANDER                                             3
 ACTION:UPD 14-01-13 10:18 OP:ep   STATUS:               ID:20131215042635 L   I
 OLDACT:REG 13-12-15 07:17 OP:jn   STATUS:               ID:20131215042001d    3
 2013-12-15-0420-00M.COL___285                                                 6
 STAT SP IPHASW D HRMM SECON CODA AMPLIT PERI AZIMU VELO AIN AR TRES W  DIS CAZ7
 BRR  HZ EP   1    426 56.26                             153   -0.76 8 71.8 297 
 BRR  HN ES   1    427 14.39                             153    0.52 8 71.8 297 
 BRR  HZ I         427 17.26         2.7 0.40            154           71.8 297 
 RUS  HZ EP        427  0.07                             144    0.4410  102 177 
 RUS  HN ES        427 18.20                             144   -0.3110  102 177 
 RUS  HZ I         427 19.63         1.8 0.20            149            102 177 
 PTB  HZ EP   1    427  2.97                             132    0.13 7  149 258 
 PTB  HN ES   1    427 24.02                             132   -0.20 7  149 258 
 PTB  HZ I         427 25.77         1.7 0.12            135            149 258 
 CHI  HE ES   2    427 43.44                             118    0.25 4  250 195 
                                                                                
