 2017  115 0140 53.4 L   6.788 -73.156151.4  RSN  4 0.4 0.8LRSN                1
 GAP=136        0.68       4.3     6.5  7.2  0.7346E+01 -0.1144E+02 -0.3054E+01E
 Epicentro: LOS SANTOS - SANTANDER                                             3
 ACTION:UPD 17-05-22 15:59 OP:jn   STATUS:               ID:20170115014053 L   I
 OLDACT:UP  17-01-15 13:22 OP:e    STATUS:               ID:20170115013748     3
 OLDACT:UP  17-01-15 13:22 OP:e    STATUS:               ID:20170115013748     3
 OLDACT:REG 17-01-15 12:23 OP:and  STATUS:               ID:20170115013748     3
 2017-01-15-0138-00M.COL___338                                                 6
 STAT SP IPHASW D HRMM SECON CODA AMPLIT PERI AZIMU VELO AIN AR TRES W  DIS CAZ7
 BRR  HZ EP        141 15.41                             154    0.2910 70.8 300 
 BRR  HN ES        141 32.06                             154   -0.0210 70.8 300 
 PAM  EZ EP        141 16.44                             151    0.1410 79.1  40 
 PAM  EN ES   2    141 33.58                             151   -0.60 5 79.1  40 
 PAM  EZ I         141 35.43         1.5 0.28            152           79.1  40 
 RUS  HZ EP        141 17.51                             145   -0.1010 99.4 175 
 RUS  HN ES        141 36.57                             145    0.0610 99.4 175 
 RUS  HZ I         141 39.43         0.6 0.23            146           99.4 175 
 PTB  HZ EP   2    141 19.71                             133   -0.99 5  146 259 
                                                                                
