 2016  915 0138 17.4 L   6.770 -73.159144.0  RSN 11 0.3 1.8LRSN                1
 GAP=234        0.86       3.9     3.9  5.5  0.2216E+01  0.7478E+01  0.9641E+00E
 Epicentro: LOS SANTOS - SANTANDER                                             3
 ACTION:UPD 17-08-17 21:12 OP:lp   STATUS:               ID:20160915013817 L   I
 OLDACT:DUP 16-09-15 21:54 OP:lv   STATUS:               ID:20160915012741d    3
 2016-09-15-0128-00M.COL___330                                                 6
 STAT SP IPHASW D HRMM SECON CODA AMPLIT PERI AZIMU VELO AIN AR TRES W  DIS CAZ7
 BAR2 EZ EP        138 36.46                             172   -0.3410 19.8 188 
 BAR2 EZ ES        138 51.71                             172   -0.1810 19.8 188 
 BAR2 EZ I         138 52.48        15.6 0.10            169           19.8 188 
 BRR  HZ EP        138 38.45                             152    0.0210 71.6 301 
 BRR  HN ES        138 55.38                             152    0.5810 71.6 301 
 BRR  HZ I         138 56.18        12.4 0.13            150           71.6 301 
 RUS  HZ EP        138 40.96                             144    0.1710 97.3 175 
 RUS  HN ES        138 59.03                             144    0.0310 97.3 175 
 RUS  HZ I         139  0.22         5.8 0.32            145           97.3 175 
 PTB  HZ EP        138 43.46                             132   -0.63 9  146 260 
 PTB  HE ES        139  4.57                             132   -0.30 9  146 260 
 PTB  HZ I         139  7.41         7.0 0.08            131            146 260 
 SPBC HZ EP        138 45.95                             129    0.47 9  160 219 
 SPBC HN ES        139  7.21                             129   -0.13 9  160 219 
 SPBC HZ I         139 11.24         9.5 0.10            129            160 219 
 ZAR  HZ EP        138 49.54                             122   -0.24 9  204 293 
 ZAR  HN ES        139 14.95                             122   -0.04 9  204 293 
 ZAR  HZ I         139 20.49         8.8 0.21            122            204 293 
 NOR  HN ES        139 20.69                             118    0.42 8  232 235 
 NOR  HZ I         139 22.07         4.3 0.17            118            232 235 
 HEL  HZ EP        138 57.94                             115    0.61 8  270 256 
 HEL  HN ES        139 28.42                             115   -0.01 8  270 256 
 HEL  HZ I         139 35.65         4.3 0.35            115            270 256 
 URE  HN ES   4    139 29.11                             113   -1.28 0  284 293 
 URE  HZ I         139 33.82         4.1 0.18            113            284 293 
 GUY2CHN ES        139 33.97                             112   -0.33 7  298 235 
 GUY2CHZ I         139 41.70         2.9 0.32                           298 235 
 SJC  HZ EP   4    139 11.17                             105   -2.02 0  411 327 
 SJC  HN ES   4    139 52.84                             105   -3.83 0  411 327 
 SJC  HZ I         139 55.95         1.1 0.19            106            411 327 
                                                                                
