 2017  415 0512 44.0 L   6.768 -73.095141.5  RSN  5 0.3 1.0LRSN                1
 GAP=267        0.87       5.3     6.0  6.1  0.6264E+01  0.1601E+01 -0.5978E+00E
 Epicentro: LOS SANTOS - SANTANDER                                             3
 ACTION:UPD 17-05-30 21:12 OP:jn   STATUS:               ID:20170415051244 L   I
 OLDACT:DUP 17-04-15 16:44 OP:edw  STATUS:               ID:20170415050658d    3
 OLDACT:UP  17-04-15 16:43 OP:edw  STATUS:               ID:20170415050657d    3
 OLDACT:DUP 17-04-15 16:40 OP:edw  STATUS:               ID:20170415050657d    3
 OLDACT:DUP 17-04-15 16:37 OP:edw  STATUS:               ID:20170415050656d    3
 OLDACT:UP  17-04-15 16:34 OP:edw  STATUS:               ID:20170415050654     3
 OLDACT:REG 17-04-15 13:07 OP:edw  STATUS:               ID:20170415050654     3
 2017-04-15-0508-00M.COL___368                                                 6
 STAT SP IPHASW D HRMM SECON CODA AMPLIT PERI AZIMU VELO AIN AR TRES W  DIS CAZ7
 BAR2 EZ EP        513  2.95                             171   -0.1410 21.7 206 
 BAR2 EZ ES        513 18.12                             171    0.1510 21.7 206 
 BRR  HZ EP        513  4.90                             149   -0.1910 77.8 299 
 BRR  HN ES        513 21.45                             149   -0.0810 77.8 299 
 BRR  HZ I         513 25.11         2.2 0.34            144           77.8 299 
 PTB  HZ EP   9    513 10.01                             130   -1.06 0  153 261 
 PTB  HN ES        513 30.54                             132   -0.58 9  153 261 
 PTB  HZ I         513 35.69         1.1 0.46            127            153 261 
 SPBC HZ EP        513 12.85                             128    0.59 9  164 221 
 SPBC HN ES        513 33.91                             128   -0.39 9  164 221 
 ZAR  HZ EP        513 16.61                             120   -0.24 8  211 292 
 ZAR  HN ES        513 42.85                             120    0.38 8  211 292 
 ZAR  HZ I         513 49.46         0.9 0.40            118            211 292 
                                                                                
