 2012  315 0325 36.2 L   6.476 -73.625 92.0  RSN  5 0.2 1.7LRSN                1
 GAP= 91        0.52       4.2     3.1  7.7  0.1724E+01  0.1216E+02  0.2342E+01E
 ACTION:UP  12-03-31 23:19 OP:EP   STATUS:               ID:20120315032536 L   I
 2012-03-15-0320-00M.COL___202                                                 6
 STAT SP IPHASW D HRMM SECON CODA AMPLIT PERI AZIMU VELO SNR AR TRES W  DIS CAZ7
 BAR2 SZ EP   1    325 50.87                             149     0.1 7   51  75 
 BAR2 SZ ES   1    326  2.37                             149     0.3 7   51  75 
 BAR2 SZ I         326  4.42        25.4 0.41                            51  75 
 BRR  HZ EP   1    325 51.67                             140    -0.2 7   71 352 
 RUS  HN ES   1    326  7.66                             134    -0.2 7   88 137 
 PTB  HZ EP   1    325 53.71                             131    -0.1 7   92 274 
 PTB  HN ES   1    326  7.40                             131     0.0 7   92 274 
 PTB  HZ I         326  9.50         3.3 0.11                            92 274 
 YOT  HZ I         326 52.05         5.4 0.08                           408 228 
 YOT  HN ES   1    327 13.37                              99     0.5 4  408 228 
                                                                                
