 2010  315 0048  6.9 L   6.809 -73.067151.7  RSN 14 0.4 3.8LRSN                1
 GAP=132        0.94       3.9     5.6  5.8 -0.7740E+01  0.3590E+01  0.5066E+00E
 Epicentro: LOS SANTOS - SANTANDER                                             3
 ACTION:UP  10-08-24 09:54 OP:vdl  STATUS:               ID:20100315004806 L   I
 2010-03-15-0046-25S.COL___095                                                 6
 STAT SP IPHASW D HRMM SECON CODA AMPLIT PERI AZIMU VELO SNR AR TRES W  DIS CAZ7
 BAR2 SZ IP        048 27.39                             169     0.110   27 208 
 BAR2 SZ ES   1    048 42.88                             169    -0.4 7   27 208 
 BRR  HZ IP        048 29.29                             151     0.210   79 295 
 BRR  HZ I         048 29.58      2456.6 0.16                            79 295 
 BRR  HE ES   1    048 46.82                             151     0.4 7   79 295 
 RUS  HZ IP        048 31.20                             145    -0.110  101 181 
 RUS  HE ES   1    048 50.16                             145    -0.1 7  101 181 
 RUS  HZ I         048 51.28       397.4 0.27                           101 181 
 OCA  SZ IP        048 35.72                             131     0.1 9  161 350 
 OCA  SZ ES   2    048 57.85                             131    -0.3 5  161 350 
 OCA  SZ I         049  7.64      1070.0 0.28                           161 350 
 CHI  HZ EP   1    048 45.20                             118    -0.1 6  252 197 
 CHI  HE ES   1    049 14.77                             118    -0.5 6  252 197 
 CHI  HZ I         049 20.45       215.6 0.45                           252 197 
 ROSC BZ EP        048 46.75                             117     0.8 8  258 213 
 ROSC BZ I         049 21.74       268.4 0.49                           258 213 
 HEL  HZ EP   1    048 47.24                             115    -1.1 6  281 256 
 HEL  HZ I         049 25.73       417.8 0.32                           281 256 
 GUY  HZ EP        048 51.67                             113     0.0 7  309 236 
 GUY  HN ES   1    049 26.99                             113     0.4 5  309 236 
 RREF BZ EP        048 53.58                             111    -0.5 7  329 230 
 RREF BZ I         049 39.11       393.8 0.32                           329 230 
 DBB  SZ IP        048 55.04                             110    -0.5 6  348 274 
 TOL  SZ EP   1    048 57.01                             110     0.8 5  350 226 
 SDV  BZ IP        048 56.54                             110     0.2 6  353  49 
 SDV  BZ I         048 57.62       145.4 0.27                           353  49 
 SDV  B1 ES   1    049 34.60                             110    -0.3 5  353  49 
 ANIL BZ EP   2    048 57.52                             109    -0.2 3  364 225 
 ANIL BZ I         049 43.76       579.5 0.41                           364 225 
 PRA  HZ EP   1    049  0.58                             107    -0.6 4  397 211 
 PRA  HN ES   1    049 44.04                             107     0.4 4  397 211 
 PRA  HZ I         049 48.47       277.5 0.42                           397 211 
                                                                                
