 2010  315 0950 56.6 L   7.253 -73.420 20.0  RSN  5 0.3 2.1LRSN                1
 GAP=154        0.72       1.9     3.3  4.0 -0.3432E+00 -0.5138E+01  0.2213E+01E
 Epicentro: SABANA DE TORRES - SANTANDER                                       3
 ACTION:UP  10-08-24 09:54 OP:vdl  STATUS:               ID:20100315095056 L   I
 2010-03-15-0948-28S.COL___095                                                 6
 STAT SP IPHASW D HRMM SECON CODA AMPLIT PERI AZIMU VELO SNR AR TRES W  DIS CAZ7
 BRR  HZ IP        951  3.04                             115    -0.210   36 244 
 BRR  HE ES   1    951  8.72                             115     0.4 7   36 244 
 BRR  HZ I         951  9.14       139.3 0.08                            36 244 
 BAR2 SZ IP        951  9.50                             102     0.110   78 160 
 BAR2 SZ ES   1    951 19.02                             102    -0.5 7   78 160 
 OCA  SZ IP        951 14.11                              98     0.010  110   6 
 OCA  SZ ES   1    951 27.77                              98     0.0 7  110   6 
 RUS  HZ EP   1    951 20.90                              56     0.5 7  155 166 
 RUS  HE ES        951 39.19                              56     0.2 9  155 166 
 RUS  HZ I         951 40.66        41.9 0.27                           155 166 
 HEL  HZ EP   3    951 33.40                              56    -0.1 2  261 243 
 HEL  HN ES   2    952  1.31                              56    -1.1 4  261 243 
 HEL  HZ I         952 11.37         6.1 0.24                           261 243 
                                                                                
