 2010  615 0708 40.6 L   6.794 -73.380124.6  RSN  5 0.2 1.2LRSN                1
 GAP=201        0.53       3.1    16.1 11.9 -0.2156E+02  0.7914E+02 -0.1372E+02E
 Epicentro: ZAPATOCA - SANTANDER                                               3
 ACTION:UP  10-08-24 10:10 OP:vdl  STATUS:               ID:20100615070840 L   I
 2010-06-15-0706-38S.COL___114                                                 6
 STAT SP IPHASW D HRMM SECON CODA AMPLIT PERI AZIMU VELO SNR AR TRES W  DIS CAZ7
 BAR2 SZ EP        7 8 58.25                             166     0.310   31 136 
 GIR2 SZ EP   2    7 8 57.85                             163    -0.1 5   38  33 
 RUS  HZ EP   1    7 9  2.43                             138    -0.3 7  105 162 
 RUS  HN ES   1    7 9 19.74                             138    -0.2 7  105 162 
 RUS  HZ I         7 9 22.07         2.7 0.40                           105 162 
 GRA  SZ EP   1    7 9  5.07                             129     0.0 7  136  28 
 GRA  SZ ES   1    7 9 24.07                             129     0.0 7  136  28 
 OCA  SZ ES   2    7 9 27.90                             124    -0.3 5  160   2 
                                                                                
