 2012  915 0630  3.9 L   6.755 -73.133146.0  RSN  6 0.4 1.7LRSN                1
 GAP=187        0.70       6.4     6.8  7.6  0.1968E+02  0.1196E+02 -0.4167E+01E
 Epicentro: LOS SANTOS - SANTANDER                                             3
 ACTION:UPD 12-10-22 14:18 OP:ep   STATUS:               ID:20120915063003 L   I
 2012-09-15-0630-00M.COL___227                                                 6
 STAT SP IPHASW D HRMM SECON CODA AMPLIT PERI AZIMU VELO AIN AR TRES W  DIS CAZ7
 BAR2 SZ EP   1    630 23.41                             172   -0.10 7 18.8 197 
 BAR2 SZ ES   1    630 38.83                             172    0.06 7 18.8 197 
 BAR2 SZ I         630 40.38        10.7 0.29                          18.8 197 
 GIR2 SZ EP   1    630 23.82                             165    0.04 7 36.4 349 
 GIR2 SZ ES   1    630 38.60                             165   -0.66 7 36.4 349 
 BRR  HZ EP   1    630 25.46                             151    0.14 7 74.9 301 
 BRR  HN ES   1    630 42.65                             151    0.65 7 74.9 301 
 BRR  HN I         630 43.22        18.4 0.14                          74.9 301 
 RUS  HN ES   1    630 45.75                             145    0.14 7 95.5 177 
 RUS  HZ I         630 46.30         5.0 0.38                          95.5 177 
 PTB  HN ES   2    630 51.28                             132   -0.77 5  148 261 
 ZAR  HZ EP   2    630 36.71                             122   -0.01 4  207 293 
 ZAR  HN ES   1    631  2.34                             122    0.04 6  207 293 
 ZAR  HZ I         631  5.34         2.6 0.11                           207 293 
                                                                                
