 2015 1115 0707 41.9 L   6.804 -73.131145.6  RSN  8 0.5 1.8LRSN                1
 GAP=138        1.17       4.4     6.4  7.7 -0.2699E+01  0.5778E+01 -0.6497E+01E
 Epicentro: LOS SANTOS - SANTANDER                                             3
 ACTION:UPD 15-12-28 16:11 OP:cam  STATUS:               ID:20151115070741 L   I
 OLDACT:DUP 15-11-19 06:52 OP:CARA STATUS:               ID:20151115070741 L   3
 OLDACT:UP  15-11-15 16:21 OP:dnl  STATUS:               ID:20151115065739d    3
 OLDACT:DUP 15-11-15 16:10 OP:dnl  STATUS:               ID:20151115065739d    3
 OLDACT:UP  15-11-15 16:08 OP:dnl  STATUS:               ID:20151115065738     3
 OLDACT:UP  15-11-15 15:52 OP:dnl  STATUS:               ID:20151115065738     3
 OLDACT:UP  15-11-15 15:45 OP:dnl  STATUS:               ID:20151115065738     3
 OLDACT:REG 15-11-15 12:01 OP:dnl  STATUS:               ID:20151115065738     3
 2015-11-15-0657-38M.COL___319                                                 6
 STAT SP IPHASW D HRMM SECON CODA AMPLIT PERI AZIMU VELO AIN AR TRES W  DIS CAZ7
 BAR2 EZ EP        7 8  1.50                             170   -0.0010 24.1 194 
 BAR2 EZ ES        7 8 16.36                             170   -0.4510 24.1 194 
 BAR2 EZ I         7 8 17.71         7.5 0.14            171           24.1 194 
 BRR  HE ES        7 8 20.62                             152    1.0010 72.4 298 
 BRR  HZ I         7 8 24.58         8.6 0.24            151           72.4 298 
 PAM  EZ EP        7 8  4.39                             151    0.3910 76.0  39 
 PAM  EE ES   2    7 8 21.86                             151    0.61 5 76.0  39 
 PAM  EZ I         7 8 23.74        11.1 0.46            154           76.0  39 
 RUS  HZ EP   2    7 8  6.13                             144    0.49 5  101 177 
 RUS  HE ES   2    7 8 23.35                             144   -0.82 5  101 177 
 RUS  HZ I         7 8 25.62         8.1 0.28            147            101 177 
 OCA  HZ EP        7 8 10.30                             130    0.14 9  160 353 
 OCA  HN ES        7 8 31.46                             130   -0.76 9  160 353 
 OCA  HZ I         7 8 33.45        11.7 0.32            131            160 353 
 SPBC HZ EP        7 8 10.87                             129    0.38 9  165 219 
 SPBC HE ES        7 8 32.20                             129   -0.61 9  165 219 
 SPBC HZ I         7 8 34.31         9.5 0.14            131            165 219 
 ZAR  HZ EP        7 8 14.47                             122    0.02 8  205 292 
 ZAR  HN ES        7 8 39.91                             122    0.05 8  205 292 
 ZAR  HZ I         7 8 45.25         5.0 0.26            123            205 292 
 SML  HZ EP        7 8 18.18                             117   -0.35 8  244 335 
 SML  HE ES   2    7 8 46.32                             117   -0.80 4  244 335 
 SML  HZ I         7 8 49.93        10.4 0.10            119            244 335 
                                                                                
