 2012 1215 0543 52.4 L   6.787 -73.152149.3  RSN  9 0.4 1.7LRSN                1
 GAP=136        0.73       3.1     4.3  5.4 -0.2377E+00  0.3490E+01  0.2127E+01E
 Epicentro: LOS SANTOS - SANTANDER                                             3
 ACTION:UPD 13-01-04 14:27 OP:ep   STATUS:               ID:20121215054352 L   I
 2012-12-15-0539-48M.COL___204                                                 6
 STAT SP IPHASW D HRMM SECON CODA AMPLIT PERI AZIMU VELO AIN AR TRES W  DIS CAZ7
 BAR2 SZ EP   1    544 12.48                             171    0.10 7 21.8 189 
 BAR2 SZ ES   1    544 27.79                             171   -0.20 7 21.8 189 
 BAR2 SZ I         544 29.17        21.2 0.38                          21.8 189 
 GIR2 SZ EP   1    544 12.26                             167   -0.22 7 32.6 352 
 GIR2 SZ ES   1    544 28.32                             167    0.14 7 32.6 352 
 GIR2 SZ I         544 29.93         6.3 0.36                          32.6 352 
 BRR  HZ IP     C  544 14.28                             153    0.3910 71.3 300 
 BRR  HE ES   1    544 31.46                             153    0.77 7 71.3 300 
 BRR  HZ I         544 33.85         5.8 0.10                          71.3 300 
 PAM  SZ EP   1    544 15.35                             151    0.31 7 79.0  39 
 PAM  SE ES   1    544 32.61                             151   -0.12 7 79.0  39 
 PAM  SZ I         544 34.67         6.2 0.52                          79.0  39 
 RUS  HZ EP   1    544 16.33                             145   -0.03 7 99.2 176 
 RUS  HN ES   1    544 34.95                             145   -0.12 7 99.2 176 
 RUS  HZ I         544 36.28         5.1 0.26                          99.2 176 
 PTB  HZ EP   1    544 19.21                             133   -0.32 7  147 259 
 PTB  HN ES   1    544 40.24                             133   -0.48 7  147 259 
 PTB  HZ I         544 47.71        11.2 0.34                           147 259 
 OCA  HZ EP   1    544 20.93                             130   -0.14 7  162 353 
 OCA  HE ES   1    544 42.71                             130   -0.76 7  162 353 
 OCA  HZ I         544 47.74         8.0 0.45                           162 353 
 ZAR  HE ES   1    544 50.59                             123    0.08 6  204 293 
 ZAR  HZ I         544 57.54         7.5 0.34                           204 293 
 CHI  HZ EP   1    544 30.53                             118    0.45 6  247 195 
 CHI  HN ES   1    544 59.16                             118   -0.34 6  247 195 
 CHI  HZ I         545  3.70         1.5 0.28                           247 195 
                                                                                
