 2010  615 0126 53.2 L   6.810 -73.169132.0  RSN  4 0.2 1.5LRSN                1
 GAP=181        0.46       2.7     6.4  9.1 -0.7758E+00  0.2613E+02 -0.7356E+01E
 Epicentro: LOS SANTOS - SANTANDER                                             3
 ACTION:UP  10-08-24 10:10 OP:vdl  STATUS:               ID:20100615012653 L   I
 2010-06-15-0120-00S.COL___110                                                 6
 STAT SP IPHASW D HRMM SECON CODA AMPLIT PERI AZIMU VELO SNR AR TRES W  DIS CAZ7
 BAR2 SZ EP   2    127 11.21                             169     0.0 5   24 184 
 RUS  HZ EP   1    127 15.53                             141    -0.2 7  102 175 
 RUS  HE ES   1    127 33.38                             141     0.1 7  102 175 
 RUS  HZ I         127 34.33         4.3 0.16                           102 175 
 OCA  SZ EP   1    127 20.21                             127    -0.1 7  159 354 
 OCA  SZ ES   1    127 41.56                             127     0.1 7  159 354 
 OCA  SZ I         127 45.58         5.6 0.20                           159 354 
 HEL  HZ EP   2    127 33.10                             112     0.6 4  270 255 
 HEL  HZ I         127 50.77         1.7 0.39                           270 255 
 HEL  HE ES   2    128  2.77                             112    -0.4 4  270 255 
                                                                                
