 2015  415 0039  2.2 L   6.219 -73.754 99.0  RSN  6 0.5 1.5LRSN                1
 GAP=124        1.21       4.7     4.0 10.5  0.2157E+01  0.1694E+02  0.7329E+01E
 Epicentro: LANDAZURI - SANTANDER                                              3
 ACTION:UPD 15-06-03 16:54 OP:cam  STATUS:               ID:20150415003902 L   I
 OLDACT:DUP 15-04-15 14:02 OP:carl STATUS:               ID:20150415003745d    3
 2015-04-15-0037-44M.COL___281                                                 6
 STAT SP IPHASW D HRMM SECON CODA AMPLIT PERI AZIMU VELO AIN AR TRES W  DIS CAZ7
 BAR2 EZ EP        039 18.38                             140   -0.8610 75.5  57 
 BAR2 EZ ES        039 33.30                             140    0.7810 75.5  57 
 BAR2 EZ I         039 33.40        16.7 0.12            142           75.5  57 
 RUS  HZ EP        039 20.50                             138    0.3410 82.6 116 
 RUS  HE ES        039 33.74                             138   -0.4210 82.6 116 
 RUS  HZ I         039 35.57         2.1 0.12            140           82.6 116 
 PTB  HZ EP        039 19.44                             136   -0.3010 85.4 295 
 PTB  HN ES        039 32.99                             136   -0.4210 85.4 295 
 PTB  HZ I         039 34.10         7.4 0.16            135           85.4 295 
 BRR  HN ES        039 35.57                             132    0.1610 98.3   3 
 NOR  HZ EP        039 25.54                             121    0.12 9  143 240 
 NOR  HN ES        039 43.94                             121    0.43 9  143 240 
 NOR  HZ I         039 48.04         8.6 0.14            120            143 240 
 ZAR  HZ EP        039 30.49                             114    0.39 9  186 319 
 ZAR  HN ES        039 51.77                             114   -0.08 9  186 319 
 ZAR  HZ I         039 57.37         5.4 0.40            113            186 319 
                                                                                
