 2012  215 0730 55.8 L   6.761 -73.109148.0  RSN 14 0.5 2.0LRSN                1
 GAP=143        0.70       3.5     4.4  5.6 -0.2093E+01  0.4824E+01  0.5065E+01E
 ACTION:UP  12-03-07 16:30 OP:epov STATUS:               ID:20120215073055 L   I
 2012-02-15-0730-00M.COL___188                                                 6
 STAT SP IPHASW D HRMM SECON CODA AMPLIT PERI AZIMU VELO AIN AR TRES W  DIS CAZ7
 BAR2 SZ EP   1    731 15.48                             172   -0.11 7 20.3 204 
 BAR2 SZ ES   2    731 30.38                             172   -0.69 5 20.3 204 
 BAR2 SZ I         731 32.27        21.3 0.22                          20.3 204 
 GIR2 SZ EP   2    731 15.96                             166    0.13 5 36.4 345 
 GIR2 SZ ES   2    731 31.29                             166   -0.21 5 36.4 345 
 BRR  HZ EP        731 17.39                             151   -0.0810 76.9 300 
 BRR  HE ES   1    731 35.00                             151    0.60 7 76.9 300 
 BRR  HZ I         731 37.73        24.4 0.27                          76.9 300 
 PAM  SZ EP   1    731 18.49                             151    0.23 7 78.3  35 
 PAM  SN ES   2    731 35.79                             151   -0.03 5 78.3  35 
 RUS  HZ EP   1    731 19.47                             146    0.07 7 96.1 178 
 RUS  HE ES   2    731 37.80                             146   -0.05 5 96.1 178 
 RUS  HZ I         731 39.85        10.8 0.50                          96.1 178 
 PTB  HZ EP   1    731 22.03                             132   -1.16 7  151 261 
 PTB  HE ES   2    731 44.51                             132   -0.09 5  151 261 
 OCA  SZ ES   2    731 48.05                             129    0.79 5  165 352 
 ZAR  HZ EP   2    731 28.15                             122   -0.75 4  209 293 
 ZAR  HN ES   2    731 54.26                             122   -0.50 4  209 293 
 ZAR  HZ I         732  0.57        13.7 0.31                           209 293 
 NOR  SZ EP   2    731 31.58                             119   -0.12 4  236 236 
 NOR  SE ES   2    732  0.13                             119    0.38 4  236 236 
 CHI  HZ EP   1    731 33.59                             118    0.35 6  246 196 
 CHI  HN ES   2    732  2.45                             118   -0.04 4  246 196 
 CHI  HZ I         732  8.72         4.7 0.47                           246 196 
 HEL  HZ EP   1    731 37.13                             115    0.73 6  275 257 
 HEL  HN ES   2    732  8.69                             115    0.58 4  275 257 
 HEL  HZ I         732 12.88         5.0 0.27                           275 257 
 RREF HZ EP   2    731 41.98                             111   -0.05 3  322 230 
 RREF HE ES   2    732 18.39                             111    0.27 3  322 230 
 RREF HZ I         732 26.70         5.6 0.44                           322 230 
 COD  HZ EP   2    731 44.53                             109   -0.23 3  353 354 
 COD  HN ES   2    732 22.48                             109   -0.50 3  353 354 
 PRA  HZ EP   1    731 49.61                             107    0.46 4  390 210 
 PRA  HN ES   2    732 30.54                             107   -0.26 3  390 210 
                                                                                
