 2016  715 0053 18.6 L   7.586 -73.530106.1  RSN  7 0.4 1.4LRSN                1
 GAP=142        1.06       5.2     3.6  8.0  0.3346E+01  0.3841E+01 -0.1116E+02E
 Epicentro: SABANA DE TORRES - SANTANDER                                       3
 ACTION:UPD 17-03-29 16:51 OP:lp   STATUS:               ID:20160715005318 L   I
 OLDACT:REG 16-07-15 12:14 OP:lv   STATUS:               ID:20160715004759     3
 2016-07-15-0047-59S.COL___328                                                 6
 STAT SP IPHASW D HRMM SECON CODA AMPLIT PERI AZIMU VELO AIN AR TRES W  DIS CAZ7
 BRR  HZ EP        053 34.31                             150   -0.3210 56.7 201 
 BRR  HN ES        053 47.17                             150    0.0210 56.7 201 
 BRR  HZ I         053 47.90         8.4 0.08            148           56.7 201 
 PAM  EZ IP     D  053 38.21                             135   -0.0310 95.6 107 
 PAM  EN ES        053 53.56                             135   -0.0110 95.6 107 
 PAM  EZ I         053 55.13         4.5 0.20            136           95.6 107 
 BAR2 EZ EP        053 39.81                             129    0.0210  116 161 
 BAR2 EZ ES        053 56.30                             129   -0.0410  116 161 
 ZAR  HZ EP        053 43.15                             121    0.60 9  147 266 
 ZAR  HE ES        054  1.85                             121    0.60 9  147 266 
 ZAR  HZ I         054  6.04         4.9 0.18            121            147 266 
 PTB  HZ EP        053 42.96                             120   -0.40 9  155 222 
 PTB  HN ES        054  1.97                             120   -0.72 9  155 222 
 PTB  HZ I         054  5.42         3.8 0.28            119            155 222 
 RUS  HZ EP        053 49.00                             114    0.76 9  194 165 
 RUS  HE ES        054 11.44                             114    0.07 9  194 165 
 RUS  HZ I         054 16.62         1.5 0.18            114            194 165 
 SJC  HZ EP        054  0.88                             102   -0.74 7  313 325 
 SJC  HE ES   4    054 32.68                             102   -2.52 0  313 325 
                                                                                
