 2011  815 0818 34.4 L   6.800 -72.981130.6  RSN  5 0.3 1.9LRSN                1
 GAP=159        0.58       4.1     6.3  6.5  0.5306E+01 -0.1495E+02 -0.9761E+01E
 Epicentro: CEPITA - SANTANDER                                                 3
 ACTION:UPD 12-07-13 15:52 OP:ep   STATUS:               ID:20110815081834 L   I
 2011-08-15-0815-53S.COL___150                                                 6
 STAT SP IPHASW D HRMM SECON CODA AMPLIT PERI AZIMU VELO AIN AR TRES W  DIS CAZ7
 BAR2 SZ EP   1    818 52.67                             165    0.21 7 32.0 224 
 BAR2 SZ ES   1    819  5.96                             165   -0.57 7 32.0 224 
 BAR2 SZ I         819  8.46        19.9 0.24                          32.0 224 
 PAM  SZ EP   2    818 54.15                             151   -0.27 5 67.2  28 
 PAM  SZ I         818 56.08        14.8 0.32                          67.2  28 
 PAM  SN ES   2    819 10.47                             151    0.46 5 67.2  28 
 BRR  HZ EP   2    818 54.69                             143   -0.36 5 87.6 293 
 BRR  HN ES        819 11.31                             143    0.1810 87.6 293 
 BRR  HZ I         819 12.85        41.3 0.32                          87.6 293 
 RUS  HZ EP   2    818 56.81                             140    0.07 5  101 186 
 RUS  HE ES   2    819 14.37                             140    0.21 5  101 186 
 RUS  HZ I         819 17.13         4.4 0.30                           101 186 
 OCA  SZ EP        819  2.03                             125    0.12 9  163 347 
 OCA  SZ ES   2    819 22.83                             125   -0.51 5  163 347 
 OCA  SZ I         819 26.65        21.4 0.38                           163 347 
                                                                                
