 2012 1215 0515 15.8 L   6.762 -73.142148.9  RSN  8 0.4 1.8LRSN                1
 GAP=139        0.78       3.6     5.4  6.1 -0.2103E+01  0.4127E+01  0.4968E+01E
 Epicentro: LOS SANTOS - SANTANDER                                             3
 ACTION:UPD 13-01-04 14:27 OP:ep   STATUS:               ID:20121215051515 L   I
 2012-12-15-0509-51M.COL___204                                                 6
 STAT SP IPHASW D HRMM SECON CODA AMPLIT PERI AZIMU VELO AIN AR TRES W  DIS CAZ7
 BAR2 SZ EP   1    515 35.86                             172    0.08 7 19.3 193 
 BAR2 SZ ES   1    515 50.77                             172   -0.56 7 19.3 193 
 BAR2 SZ I         515 52.75        28.5 0.26                          19.3 193 
 GIR2 SZ EP   1    515 35.79                             166   -0.22 7 35.4 351 
 GIR2 SZ ES   1    515 52.08                             166    0.35 7 35.4 351 
 GIR2 SZ I         515 53.14        13.4 0.36                          35.4 351 
 BRR  HZ EP     C  515 37.67                             152    0.2010 73.6 301 
 BRR  HE ES   1    515 55.16                             152    0.83 7 73.6 301 
 BRR  HZ I         515 58.20        10.4 0.32                          73.6 301 
 PAM  SZ EP   1    515 38.58                             150    0.00 7 80.4  37 
 PAM  SN ES   1    515 56.12                             150   -0.18 7 80.4  37 
 PAM  SZ I         515 58.35        12.5 0.64                          80.4  37 
 RUS  HZ EP   1    515 39.65                             146    0.04 7 96.4 176 
 RUS  HN ES   1    515 58.22                             146    0.07 7 96.4 176 
 RUS  HZ I         515 59.67         7.5 0.24                          96.4 176 
 PTB  HZ EP   1    515 42.53                             133   -0.51 7  147 260 
 PTB  HN ES   1    516  3.80                             133   -0.44 7  147 260 
 PTB  HZ I         516 11.11        14.9 0.40                           147 260 
 OCA  HE ES   1    516  7.04                             130   -0.33 7  164 353 
 CHI  HZ EP   1    515 54.01                             118    0.71 6  245 196 
 CHI  HN ES   1    516 22.33                             118   -0.18 6  245 196 
 CHI  HZ I         516 30.91         2.4 0.58                           245 196 
 MON  HN ES   4    516 40.07                             109   -3.81 0  357 309 
                                                                                
