 2013  915 0551 48.7 L   6.802 -73.144144.0  RSN  8 0.4 1.8LRSN                1
 GAP=137        1.05       3.9     4.6  6.6 -0.5470E+00  0.5337E+01 -0.2187E+01E
 Epicentro: LOS SANTOS - SANTANDER                                             3
 ACTION:UPD 13-10-22 09:22 OP:ep   STATUS:               ID:20130915055148 L   I
 OLDACT:REG 13-09-15 10:27 OP:carl STATUS:               ID:20130915054959     3
 2013-09-15-0549-59M.COL___269                                                 6
 STAT SP IPHASW D HRMM SECON CODA AMPLIT PERI AZIMU VELO AIN AR TRES W  DIS CAZ7
 BAR2 SZ EP        552  8.15                             170    0.0410 23.6 190 
 BAR2 SZ ES        552 22.94                             170   -0.3210 23.6 190 
 BAR2 SZ I         552 23.92        16.4 0.22            172           23.6 190 
 BRR  HZ EP        552 10.06                             152    0.4110 71.2 298 
 BRR  HN ES        552 26.42                             152    0.4310 71.2 298 
 BRR  HZ I         552 31.17        11.1 0.12            151           71.2 298 
 PAM  SZ EP        552 11.18                             150    0.4810 77.1  40 
 PAM  SN ES   1    552 27.80                             150   -0.06 7 77.1  40 
 PAM  SZ I         552 30.34        18.0 0.56            153           77.1  40 
 RUS  HZ EP        552 12.68                             143    0.4010  101 176 
 RUS  HN ES        552 30.61                             143   -0.0710  101 176 
 RUS  HZ I         552 32.28         4.1 0.30            147            101 176 
 PTB  HZ EP        552 14.79                             132   -0.74 9  148 259 
 PTB  HE ES        552 36.06                             132   -0.41 9  148 259 
 PTB  HZ I         552 38.63        11.0 0.14            133            148 259 
 OCA  HZ EP   1    552 15.84                             129   -1.00 7  160 353 
 OCA  HN ES   1    552 38.29                             129   -0.51 7  160 353 
 OCA  HZ I         552 41.56         9.8 0.24            131            160 353 
 SPBC HZ EP        552 16.76                             129   -0.32 9  163 219 
 SPBC HE ES        552 39.35                             129    0.13 9  163 219 
 SPBC HZ I         552 41.74         3.6 0.30            131            163 219 
 ZAR  HZ EP        552 21.47                             122    0.44 9  204 292 
 ZAR  HN ES        552 46.53                             122    0.28 9  204 292 
 ZAR  HZ I         552 52.17         7.5 0.34            123            204 292 
                                                                                
