 2011  215 0942 54.5 L   6.777 -73.187139.2  RSN  4 0.3 1.3LRSN                1
 GAP=176        0.44       7.7    29.4  7.0 -0.1489E+03 -0.4769E+02 -0.1485E+02E
 Epicentro: LOS SANTOS - SANTANDER                                             3
 ACTION:UP  11-03-28 15:08 OP:jfem STATUS:               ID:20110215094254 L   I
 2011-02-15-0940-00M.COL___139                                                 6
 STAT SP IPHASW D HRMM SECON CODA AMPLIT PERI AZIMU VELO SNR AR TRES W  DIS CAZ7
 BAR2 SZ EP        943 13.33                             171     0.110   20 179 
 BAR2 SZ ES   1    943 27.65                             171    -0.2 7   20 179 
 BAR2 SZ I         943 29.00         6.7 0.42                            20 179 
 GIR2 SZ EP   3    943 13.89                             165     0.5 2   33 359 
 GIR2 SZ ES   3    943 28.79                             165     0.6 2   33 359 
 GRA  SZ EP        943 19.41                             134     0.010  130  19 
 GRA  SZ ES   3    943 39.13                             134     0.2 2  130  19 
 GRA  SZ I         943 41.11         2.3 0.25                           130  19 
 OCA  SZ ES   3    943 43.83                             127    -0.5 2  162 355 
 OCA  SZ I         943 44.92         2.6 0.11                           162 355 
                                                                                
