 2012 1115 0113 43.4 L   6.821 -73.731 95.4  RSN  4 0.3 1.3LRSN                1
 GAP=115        0.70       6.1     4.2  8.9  0.8887E+01  0.7945E+01  0.2605E+02E
 Epicentro: EL CARMEN DE CHUCURI - SANTANDER                                   3
 ACTION:UPD 12-12-05 15:33 OP:}ep  STATUS:               ID:20121115011343 L   I
 2012-11-15-0110-00M.COL___230                                                 6
 STAT SP IPHASW D HRMM SECON CODA AMPLIT PERI AZIMU VELO AIN AR TRES W  DIS CAZ7
 BRR  HZ EP   1    113 56.51                             160   -0.42 7 31.8   4 
 BRR  HN ES   1    114  7.65                             160    0.14 7 31.8   4 
 BRR  HZ I         114  9.34         8.0 0.16                          31.8   4 
 BAR2 SZ ES   1    114 11.84                             143    0.15 7 65.7 113 
 PTB  HZ EP   1    114  0.51                             135   -0.12 7 86.1 249 
 PTB  HN ES   1    114 14.21                             135    0.12 7 86.1 249 
 PTB  HZ I         114 15.88         5.1 0.19                          86.1 249 
 RUS  HZ EP   1    114  5.63                             124    0.61 7  125 145 
 RUS  HE ES   1    114 21.44                             124   -0.46 7  125 145 
                                                                                
