 2011  315 0446 30.4 L   6.789 -73.138148.9  RSN  8 0.4 1.5LRSN                1
 GAP=160        0.53       2.7     5.6  5.6 -0.7271E+01  0.1311E+02 -0.3519E+01E
 Epicentro: LOS SANTOS - SANTANDER                                             3
 ACTION:UP  11-06-16 14:33 OP:jfem STATUS:               ID:20110315044630 L   I
 2011-03-15-0444-34S.COL___138                                                 6
 STAT SP IPHASW D HRMM SECON CODA AMPLIT PERI AZIMU VELO SNR AR TRES W  DIS CAZ7
 BAR2 SZ EP   1    446 50.20                             171    -0.2 7   22 193 
 BAR2 SZ I         446 50.36         8.6 0.21                            22 193 
 BAR2 SZ ES   1    447  6.07                             171     0.0 7   22 193 
 RUS  HZ EP   1    446 54.33                             145    -0.1 7   99 177 
 RUS  HZ I         446 54.79         2.2 0.24                            99 177 
 RUS  HN ES   1    447 13.24                             145     0.1 7   99 177 
 GRA  SZ EP   1    446 56.51                             137     0.5 7  127  17 
 GRA  SZ ES   1    447 16.05                             137     0.0 7  127  17 
 GRA  SZ I         447 17.09         6.5 0.55                           127  17 
 OCA  SZ EP   1    446 58.87                             130    -0.3 7  162 353 
 OCA  SZ ES   1    447 21.34                             130    -0.2 7  162 353 
 NOR  SZ EP   1    447  6.34                             119     0.0 6  235 235 
 NOR  SE ES   1    447 34.37                             119     0.0 6  235 235 
 CHI  HZ EP   3    447  8.20                             118     0.0 2  248 195 
 CHI  HN ES   3    447 36.42                             118    -1.3 2  248 195 
 CHI  HZ I         447 45.94         1.7 0.17                           248 195 
 HEL  HZ EP   3    447 11.77                             115     0.9 2  273 256 
 HEL  HZ I         447 49.65         2.6 0.39                           273 256 
 GUY  SZ EP   3    447 15.32                             113     1.1 2  301 235 
 GUY  SE ES   3    447 49.70                             113     1.3 2  301 235 
                                                                                
