 2017  315 0449 55.1 L   6.772 -73.112142.9  RSN  4 0.1 0.7LRSN                1
 GAP=142        0.59       3.9     7.5  6.1 -0.1507E+02 -0.1069E+02  0.3110E+01E
 Epicentro: LOS SANTOS - SANTANDER                                             3
 ACTION:UPD 17-05-25 18:40 OP:jn   STATUS:               ID:20170315044955 L   I
 OLDACT:UP  17-03-20 11:41 OP:and  STATUS:               ID:20170315044955 L   3
 OLDACT:UP  17-03-15 16:59 OP:cog  STATUS:               ID:20170315043739     3
 OLDACT:REG 17-03-15 12:58 OP:cog  STATUS:               ID:20170315043739     3
 2017-03-15-0438-00M.COL___382                                                 6
 STAT SP IPHASW D HRMM SECON CODA AMPLIT PERI AZIMU VELO AIN AR TRES W  DIS CAZ7
 PAM  EZ EP        450 16.91                             150   -0.1010 77.6  36 
 PAM  EN ES        450 34.15                             150    0.0410 77.6  36 
 PAM  EZ I         450 37.22         1.1 0.46            153           77.6  36 
 RUS  HZ EP        450 18.39                             144    0.0710 97.3 178 
 RUS  HE ES        450 36.41                             144   -0.0210 97.3 178 
 RUS  HZ I         450 39.29         0.6 0.22            146           97.3 178 
 PTB  HZ EP   9    450 21.01                             131   -1.09 0  151 260 
 PTB  HN ES        450 41.56                             130   -0.52 9  151 260 
 PTB  HZ I         450 46.03         1.0 0.44            132            151 260 
 ZAR  HE ES   3    450 53.60                             121    0.24 2  209 293 
                                                                                
