 2017  315 0549 47.1 L   6.802 -73.127146.1  RSN  5 0.2 1.3LRSN                1
 GAP=139        0.47       2.4     2.6  4.2 -0.1848E+00  0.1958E+01  0.8337E+00E
 Epicentro: LOS SANTOS - SANTANDER                                             3
 ACTION:UPD 17-05-25 18:40 OP:jn   STATUS:               ID:20170315054947 L   I
 OLDACT:UP  17-03-15 14:45 OP:cog  STATUS:               ID:20170315054744     3
 OLDACT:REG 17-03-15 13:02 OP:cog  STATUS:               ID:20170315054744     3
 2017-03-15-0548-00M.COL___382                                                 6
 STAT SP IPHASW D HRMM SECON CODA AMPLIT PERI AZIMU VELO AIN AR TRES W  DIS CAZ7
 PAM  EZ EP        550  9.57                             151    0.3010 75.9  38 
 PAM  EE ES        550 26.42                             151   -0.1310 75.9  38 
 PAM  EZ I         550 28.15         5.5 0.16            154           75.9  38 
 RUS  HZ EP        550 10.88                             144   -0.0210  101 177 
 RUS  HN ES        550 29.40                             144   -0.0510  101 177 
 RUS  HZ I         550 31.68         1.8 0.22            145            101 177 
 PTB  HZ EP   9    550 13.56                             131   -0.73 0  150 259 
 PTB  HE ES        550 34.74                             132   -0.02 9  150 259 
 PTB  HZ I         550 37.38         3.7 0.19            133            150 259 
 SPBC HZ EP        550 15.65                             129   -0.12 9  165 220 
 SPBC HN ES   3    550 39.16                             129    1.03 2  165 220 
 ZAR  HN ES        550 45.17                             122   -0.07 8  206 292 
                                                                                
