 2011  715 0719 51.5 L   6.797 -73.021144.3  RSN  5 0.1 1.1LRSN                1
 GAP=215        0.36       4.7     8.8  3.9  0.3097E+02 -0.5192E+01  0.8016E-02E
 Epicentro: CEPITA - SANTANDER                                                 3
 ACTION:UPD 12-07-25 14:00 OP:epov STATUS:               ID:20110715071535 L   I
 2011-07-15-0715-35S.COL___132                                                 6
 STAT SP IPHASW D HRMM SECON CODA AMPLIT PERI AZIMU VELO AIN AR TRES W  DIS CAZ7
 BAR2 SZ EP   1    720 11.10                             168    0.03 7 28.8 218 
 BAR2 SZ ES   1    720 26.03                             168   -0.31 7 28.8 218 
 BAR2 SZ I         720 27.26         4.5 0.27                          28.8 218 
 BTL  SZ ES   1    720 26.56                             167    0.15 7 30.4 296 
 GIR2 SZ ES   2    720 26.56                             165    0.09 5 36.5 329 
 BRR  HZ EP   1    720 13.17                             148   -0.07 7 83.7 294 
 BRR  HN ES   1    720 30.24                             148    0.04 7 83.7 294 
 RUS  HZ EP   1    720 15.08                             144    0.00 7  100 184 
 RUS  HN ES   1    720 33.59                             144    0.12 7  100 184 
 RUS  HZ I         720 34.33         1.3 0.32                           100 184 
                                                                                
