 2014  915 0720 23.9 L   6.824 -73.137143.9  RSN 16 0.5 2.2LRSN                1
 GAP=136        1.22       3.0     4.2  5.8 -0.2249E+01  0.7824E+01  0.1400E+01E
 Epicentro: LOS SANTOS - SANTANDER                                             3
 ACTION:UPD 14-10-03 23:05 OP:nd   STATUS:               ID:20140915072023 L   I
 OLDACT:REG 14-09-15 12:39 OP:carl STATUS:               ID:20140915071820     3
 2014-09-15-0718-20M.COL___290                                                 6
 STAT SP IPHASW D HRMM SECON CODA AMPLIT PERI AZIMU VELO AIN AR TRES W  DIS CAZ7
 BAR2 SZ EP        720 43.30                             169   -0.0310 26.1 191 
 BAR2 SZ ES        720 57.87                             169   -0.6410 26.1 191 
 BAR2 SZ I         720 59.25        37.1 0.26            166           26.1 191 
 BRR  HZ EP        720 45.27                             152    0.4910 70.8 296 
 BRR  HN ES        721  2.12                             152    1.0210 70.8 296 
 BRR  HZ I         721  2.99        21.1 0.14            147           70.8 296 
 PAM  SZ EP        720 46.22                             151    0.5010 74.7  40 
 PAM  SN ES        721  3.24                             151    0.4710 74.7  40 
 RUS  HZ EP        720 47.41                             143   -0.2110  103 177 
 RUS  HN ES        721  6.35                             143    0.2010  103 177 
 RUS  HZ I         721  7.77        20.9 0.28            143            103 177 
 PTB  HZ EP        720 50.08                             131   -0.73 9  149 258 
 PTB  HN ES        721 11.23                             131   -0.59 9  149 258 
 PTB  HZ I         721 14.69        19.9 0.42            128            149 258 
 OCA  HZ EP        720 51.57                             130   -0.21 9  158 353 
 OCA  HN ES        721 13.17                             130   -0.39 9  158 353 
 OCA  HZ I         721 16.63        16.9 0.34            130            158 353 
 SPBC HZ EP        720 52.28                             128   -0.19 9  166 219 
 SPBC HN ES        721 14.42                             128   -0.37 9  166 219 
 SPBC HZ I         721 17.06        24.9 0.20            127            166 219 
 ZAR  HZ EP        720 56.49                             122    0.32 9  204 291 
 ZAR  HN ES        721 21.39                             122    0.02 9  204 291 
 ZAR  HZ I         721 29.40         9.7 0.30            120            204 291 
 NOR  HZ EP        720 59.83                             118    0.10 8  237 234 
 NOR  HN ES        721 26.99                             118   -0.72 8  237 234 
 NOR  HZ I         721 29.05        13.5 0.42            117            237 234 
 SML  HZ EP        720 59.51                             117   -0.65 8  242 335 
 SML  HN ES        721 27.62                             117   -0.85 8  242 335 
 SML  HZ I         721 33.36        18.3 0.40            117            242 335 
 CHI  HZ EP        721  1.66                             116   -0.10 8  251 195 
 CHI  HN ES        721 30.94                             116   -0.39 8  251 195 
 CHI  HZ I         721 34.82         8.1 0.64            116            251 195 
 ROSC BZ EP   4    721  3.33                             116    1.15 0  256 211 
 ROSC BN ES   4    721 33.95                             116    1.88 0  256 211 
 ROSC BZ I         721 37.98        14.2 0.45            116            256 211 
 HEL  HZ EP        721  5.23                             114    1.08 8  274 255 
 HEL  HN ES        721 36.07                             114    0.50 8  274 255 
 HEL  HZ I         721 42.49         9.2 0.56            113            274 255 
 GUY2CHZ EP        721  7.69                             112    0.05 7  303 234 
 GUY2CHN ES        721 42.63                             112    0.84 7  303 234 
 GUY2CHZ I         721 51.22         8.5 0.62                           303 234 
 CBOC HZ EP        721 11.32                             109    0.43 7  335 252 
 CBOC HN ES        721 47.59                             109    0.01 7  335 252 
 CBOC HZ I         722 11.81         2.5 0.28            109            335 252 
 PRA  HZ EP        721 18.17                             106    0.53 6  395 209 
 PRA  HN ES        721 59.56                             106   -0.03 6  395 209 
 PRA  HZ I         722  5.57         8.9 0.26            106            395 209 
                                                                                
