 2013  215 0408 28.1 L   6.790 -73.141145.4  RSN 10 0.4 2.4LRSN                1
 GAP= 72        0.95       3.2     3.9  5.3  0.9353E+00  0.1848E+00 -0.9223E+00E
 Epicentro: LOS SANTOS - SANTANDER                                             3
 ACTION:UPD 13-03-12 09:33 OP:ep   STATUS:               ID:20130215040828 L   I
 2013-02-15-0400-00M.COL___241                                                 6
 STAT SP IPHASW D HRMM SECON CODA AMPLIT PERI AZIMU VELO AIN AR TRES W  DIS CAZ7
 BAR2 SZ EP        4 8 47.69                             171    0.0210 22.3 192 
 BAR2 SZ ES        4 9  2.56                             171   -0.3810 22.3 192 
 BAR2 SZ I         4 9  3.94        21.9 0.58            160           22.3 192 
 BRR  HZ EP        4 8 49.48                             152    0.2110 72.1 299 
 BRR  HN ES        4 9  6.43                             152    0.6510 72.1 299 
 BRR  HN I         4 9  7.04        66.6 0.26            148           72.1 299 
 PAM  SZ EP        4 8 50.53                             151    0.2210 77.9  39 
 PAM  SN ES        4 9  7.52                             151   -0.1210 77.9  39 
 PAM  SN I         4 9  8.65        44.4 0.42            147           77.9  39 
 RUS  HZ EP        4 8 51.78                             144    0.0410 99.5 176 
 RUS  HN ES        4 9 10.05                             144   -0.1210 99.5 176 
 RUS  HN I         4 9 12.16        22.9 0.44            131           99.5 176 
 PTB  HZ EP        4 8 54.43                             132   -0.63 9  148 259 
 PTB  HN ES        4 9 15.97                             132   -0.13 9  148 259 
 PTB  HN I         4 9 16.88        25.2 0.30            123            148 259 
 TAM  HZ EP     C  4 8 56.11                             131    0.43 9  154 105 
 OCA  HZ EP        4 8 56.37                             129   -0.12 9  161 353 
 OCA  HN ES        4 9 18.25                             129   -0.39 9  161 353 
 OCA  HN I         4 9 20.73        58.5 0.30            124            161 353 
 ZAR  HN ES   1    4 9 26.22                             122    0.25 6  205 292 
 ZAR  HN I         4 9 26.93        22.4 0.56            115            205 292 
 SML  HZ EP        4 9  4.11                             117   -0.72 8  245 335 
 SML  HN ES   1    4 9 34.31                             117    0.82 6  245 335 
 SML  HN I         4 9 35.20        39.3 0.10            111            245 335 
 CHI  HZ EP        4 9  6.07                             117    0.39 8  248 195 
 CHI  HN I         4 9 41.32         9.8 0.52            108            248 195 
                                                                                
