 2017  315 0028  3.7 L   6.788 -73.126144.9  RSN 13 0.5 2.0LRSN                1
 GAP=121        1.02       3.6     4.0  5.2 -0.2778E+01  0.2397E+01  0.6837E+01E
 Epicentro: LOS SANTOS - SANTANDER                                             3
 ACTION:UPD 17-05-25 18:40 OP:jn   STATUS:               ID:20170315002803 L   I
 OLDACT:UP  17-03-15 13:34 OP:cog  STATUS:               ID:20170315002740     3
 OLDACT:REG 17-03-15 12:28 OP:cog  STATUS:               ID:20170315002740     3
 2017-03-15-0028-00M.COL___381                                                 6
 STAT SP IPHASW D HRMM SECON CODA AMPLIT PERI AZIMU VELO AIN AR TRES W  DIS CAZ7
 BAR2 EZ EP        028 23.18                             171    0.0110 22.5 196 
 BAR2 EZ ES        028 38.02                             171   -0.3710 22.5 196 
 BRR  HZ EP        028 25.05                             151    0.1910 73.7 299 
 BRR  HN ES        028 41.75                             151    0.3510 73.7 299 
 BRR  HZ I         028 46.13        22.9 0.30            153           73.7 299 
 PAM  EZ EP        028 26.05                             151    0.2810 77.1  38 
 PAM  EN ES        028 43.07                             151    0.0610 77.1  38 
 PAM  EZ I         028 45.48        13.3 0.50            154           77.1  38 
 RUS  HZ EP        028 27.19                             144   -0.0310 99.1 177 
 RUS  HN ES        028 45.58                             144   -0.0210 99.1 177 
 RUS  HZ I         028 47.32         7.3 0.34            146           99.1 177 
 PTB  HZ EP   9    028 30.17                             131   -0.56 0  150 260 
 PTB  HE ES        028 51.21                             131   -0.07 9  150 260 
 PTB  HZ I         028 54.03         9.5 0.32            133            150 260 
 SPBC HZ EP        028 32.17                             129    0.05 9  163 220 
 SPBC HN ES        028 54.46                             129    0.14 9  163 220 
 SPBC HZ I         028 59.09        23.6 0.24            131            163 220 
 ZAR  HZ EP   4    028 38.81                             122    2.50 0  207 292 
 ZAR  HN ES        029  0.71                             122   -1.06 8  207 292 
 NOR  HZ EP        028 39.52                             118    0.08 8  236 235 
 NOR  HN ES        029  7.25                             118   -0.10 8  236 235 
 CHI  HZ EP        028 41.24                             117    0.01 8  248 196 
 CHI  HN ES        029 10.66                             117    0.12 8  248 196 
 CHI  HZ I         029 14.54         6.8 0.52            119            248 196 
 GUY2CHZ EP        028 48.68                             112    1.34 7  302 235 
 GUY2CHE ES        029 22.07                             112    0.66 7  302 235 
 PTGC HZ EP        028 46.36                             111   -0.89 7  307 159 
 PTGC HE ES   4    029 17.49                             111   -3.76 0  307 159 
 PRA  HZ EP        028 57.00                             106   -0.14 6  392 210 
 PRA  HN ES        029 39.01                             106    0.16 6  392 210 
 ORTC HZ EP        028 56.77                             106   -0.80 6  396 217 
 ORTC HN ES        029 38.91                             106   -0.71 6  396 217 
                                                                                
