 2015  815 0317 29.1 L   6.477 -73.667104.0  RSN  9 0.3 1.5LRSN                1
 GAP= 71        0.60       2.1     2.6  5.2 -0.5299E+00  0.7268E+01 -0.1036E+01E
 Epicentro: SANTA HELENA DEL OPON - SANTANDER                                  3
 ACTION:UPD 15-09-15 23:02 OP:cam  STATUS:               ID:20150815031729 L   I
 OLDACT:UP  15-08-15 14:49 OP:ar   STATUS:               ID:20150815030748     3
 OLDACT:REG 15-08-15 13:35 OP:ar   STATUS:               ID:20150815030748     3
 2015-08-15-0307-48M.COL___328                                                 6
 STAT SP IPHASW D HRMM SECON CODA AMPLIT PERI AZIMU VELO AIN AR TRES W  DIS CAZ7
 BAR2 EZ EP        317 45.50                             150    0.3010 55.1  77 
 BAR2 EZ ES        317 57.88                             150    0.1310 55.1  77 
 BAR2 EZ I         317 59.45        27.7 0.24            157           55.1  77 
 BRR  HZ EP        317 45.46                             143   -0.3910 69.8 356 
 BRR  HN ES        317 58.84                             143   -0.0610 69.8 356 
 BRR  HZ I         318  4.00         5.0 0.18            147           69.8 356 
 RUS  HZ EP   2    317 48.53                             136    0.28 5 91.4 135 
 RUS  HE ES   2    318  3.09                             136   -0.08 5 91.4 135 
 RUS  HZ I         318  6.61         3.7 0.20            144           91.4 135 
 SPBC HZ EP        317 48.15                             132   -0.4610  102 206 
 SPBC HN ES        318  3.84                             132    0.0410  102 206 
 SPBC HZ I         318  5.49        11.0 0.10            138            102 206 
 ZAR  HZ EP        317 55.86                             116    0.10 9  173 311 
 ZAR  HN ES        318 16.57                             116    0.02 9  173 311 
 ZAR  HZ I         318 21.35         5.5 0.28            121            173 311 
 OCA  HN ES   2    318 22.12                             112    0.17 4  199  11 
 HEL  HN ES        318 24.56                             111    0.13 8  208 261 
 HEL  HZ I         318 28.37         2.5 0.36            116            208 261 
 GUY2CHN ES   2    318 30.73                             108    0.91 4  234 234 
 GUY2CHZ I         318 37.39         2.1 0.60                           234 234 
 SML  HZ EP   2    318  5.61                             106   -0.19 4  261 350 
 SML  HE ES   2    318 34.68                             106    0.28 4  261 350 
                                                                                
