 2010 1015 0635  5.8 L   6.762 -73.073142.6  RSN 10 0.4 1.9LRSN                1
 GAP=142        0.88       4.1     5.9  8.3 -0.6488E+01  0.1293E+01  0.6088E+01E
 Epicentro: LOS SANTOS - SANTANDER                                             3
 ACTION:UP  11-02-18 11:09 OP:tino STATUS:               ID:20101015063505 L   I
 2010-10-15-0633-32S.COL___128                                                 6
 STAT SP IPHASW D HRMM SECON CODA AMPLIT PERI AZIMU VELO SNR AR TRES W  DIS CAZ7
 BTL  SZ EP   1    635 25.34                             169     0.1 8   28 309 
 BRR  HZ EP   1    635 27.00                             149    -0.2 8   80 298 
 BRR  HN ES   1    635 44.56                             149     0.7 8   80 298 
 BRR  HZ I         635 47.87        18.4 0.14                            80 298 
 RUS  HZ EP   1    635 28.98                             144     0.0 8   96 181 
 RUS  HN ES   1    635 46.73                             144    -0.3 8   96 181 
 RUS  HZ I         635 52.99         3.6 0.39                            96 181 
 GRA  SZ EP        635 30.92                             136     0.010  128  13 
 GRA  SZ ES   1    635 50.15                             136    -0.4 7  128  13 
 GRA  SZ I         635 52.82         9.5 0.19                           128  13 
 OCA  SZ EP   2    635 34.04                             128    -0.4 5  166 351 
 OCA  SZ I         636  0.45        10.4 0.32                           166 351 
 YOP  SZ EP   1    635 35.62                             127     0.7 7  172 155 
 NOR  SZ EP   1    635 41.30                             117    -0.6 6  239 237 
 NOR  SE ES   1    636  9.75                             118    -0.2 6  239 237 
 CHI  HZ EP   2    635 43.41                             117     0.2 4  247 197 
 CHI  HN ES   2    636 11.51                             117    -0.8 4  247 197 
 CHI  HZ I         636 20.26         3.4 0.32                           247 197 
 HEL  HZ EP   1    635 47.41                             114     0.8 6  279 257 
 HEL  HN ES   2    636 17.87                             114    -0.6 4  279 257 
 HEL  HZ I         636 24.81         5.1 0.31                           279 257 
 PRA  HZ EP   2    635 59.55                             106     0.2 3  392 211 
 PRA  HZ I         636 47.23         9.2 0.16                           392 211 
                                                                                
