 2016  615 0137 15.3 L   6.791 -73.099146.0  RSN 13 0.5 1.9LRSN                1
 GAP=143        1.04       3.2     4.7  5.8 -0.5498E+01  0.4524E+01  0.4222E+01E
 Epicentro: LOS SANTOS - SANTANDER                                             3
 ACTION:UPD 16-07-21 22:18 OP:rebc STATUS:               ID:20160615013715 L   I
 OLDACT:UP  16-06-15 15:47 OP:dani STATUS:               ID:20160615012750d    3
 OLDACT:UP  16-06-15 15:36 OP:dani STATUS:               ID:20160615012750d    3
 OLDACT:UP  16-06-15 15:35 OP:dani STATUS:               ID:20160615012750d    3
 OLDACT:DUP 16-06-15 15:33 OP:dani STATUS:               ID:20160615012750d    3
 2016-06-15-0127-49M.COL___322                                                 6
 STAT SP IPHASW D HRMM SECON CODA AMPLIT PERI AZIMU VELO AIN AR TRES W  DIS CAZ7
 BAR2 EZ EP     C  137 34.76                             170   -0.2110 23.9 203 
 BAR2 EZ I         137 51.86        12.9 0.16                          23.9 203 
 PAM  EZ EP        137 37.55                             152    0.1510 75.0  36 
 PAM  EE ES        137 55.12                             152    0.4810 75.0  36 
 PAM  EZ I         137 59.15         6.3 0.36                          75.0  36 
 BRR  HZ EP        137 36.65                             151   -0.1210 76.2 297 
 BRR  HE ES        137 54.19                             151    0.6810 76.2 297 
 BRR  HZ I         138  1.20        15.1 0.38                          76.2 297 
 RUS  HZ EP        137 38.85                             144   -0.1410 99.4 179 
 RUS  HN ES        137 57.58                             144    0.1110 99.4 179 
 RUS  HZ I         138  0.05         8.3 0.46                          99.4 179 
 PTB  HZ EP   9    137 41.37                             131   -1.37 0  153 260 
 PTB  HN ES        138  2.87                             131    0.10 9  153 260 
 PTB  HZ I         138  7.37        13.2 0.28                           153 260 
 OCA  HZ EP        137 43.59                             130   -0.20 9  162 351 
 OCA  HE ES        138  5.21                             130   -0.79 9  162 351 
 OCA  HZ I         138 10.75        20.8 0.20                           162 351 
 SPBC HZ EP        137 43.77                             129   -0.29 9  166 221 
 SPBC HE ES        138  6.49                             129   -0.01 9  166 221 
 SPBC HZ I         138 16.00        13.2 0.14                           166 221 
 NOR  HZ EP        137 50.90                             118   -0.54 8  238 235 
 NOR  HN ES        138 19.09                             118   -0.54 8  238 235 
 NOR  HZ I         138 23.05         8.2 0.20                           238 235 
 CHI  HZ EP   2    137 52.85                             117   -0.22 4  249 196 
 CHI  HN ES        138 21.68                             117   -0.84 8  249 196 
 CHI  HZ I         138 31.52         4.4 0.72                           249 196 
 HEL  HZ EP        137 56.78                             115    0.72 7  277 256 
 HEL  HN ES        138 27.62                             115   -0.23 7  277 256 
 HEL  HZ I         138 33.06         4.9 0.32                           277 256 
 GUY2CHZ EP        138  0.05                             112    0.71 7  305 235 
 GUY2CHN ES   4    138 36.29                             112    2.60 0  305 235 
 GUY2CHZ I         138 40.58         3.8 0.56                           305 235 
 PRA  HZ EP        138  9.49                             107    0.45 6  394 210 
 PRA  HN ES        138 51.30                             107    0.35 6  394 210 
 PRA  HZ I         138 54.16         4.0 0.56                           394 210 
 ORTC HZ EP        138 10.02                             106    0.52 6  398 217 
 ORTC HE ES        138 52.65                             106    0.88 6  398 217 
 ORTC HZ I         138 56.15         1.8 0.18                           398 217 
                                                                                
