 2014  315 0235  7.7 L   6.762 -73.173142.3  RSN 11 0.5 1.9LRSN                1
 GAP=135        0.96       3.7     4.0  6.6 -0.2717E+01  0.9019E+01  0.3774E+00E
 Epicentro: LOS SANTOS - SANTANDER                                             3
 OLDACT:DUP 14-03-15 10:21 OP:fm   STATUS:               ID:20140315022807d    3
 ACTION:UPD 14-04-09 23:17 OP:nd   STATUS:               ID:20140315023507 L   I
 OLDACT:UP  14-03-15 10:28 OP:fm   STATUS:               ID:20140315022807d    3
 2014-03-15-0228-06M.COL___248                                                 6
 STAT SP IPHASW D HRMM SECON CODA AMPLIT PERI AZIMU VELO AIN AR TRES W  DIS CAZ7
 BAR2 SZ EP        235 26.81                             172   -0.0110 18.8 183 
 BAR2 SZ ES   1    235 42.41                             172    0.67 7 18.8 183 
 BAR2 SZ I         235 42.88        27.0 0.20            171           18.8 183 
 PAM  SZ EP     D  235 29.96                             148    0.1010 82.6  39 
 PAM  SE ES        235 47.15                             148   -0.0010 82.6  39 
 PAM  SZ I         235 49.83         9.3 0.46            149           82.6  39 
 RUS  HZ EP        235 30.62                             144   -0.2010 96.6 174 
 RUS  HN ES        235 48.78                             144   -0.0710 96.6 174 
 RUS  SZ I         235 49.97        12.6 0.60            143           96.6 174 
 PTB  HZ EP        235 33.46                             132   -0.58 9  144 260 
 PTB  HN ES        235 53.72                             132   -0.87 9  144 260 
 PTB  SZ I         235 55.58        10.1 0.12            129            144 260 
 SPBC HZ EP        235 35.46                             129    0.02 9  158 219 
 SPBC HN ES        235 57.13                             129    0.06 9  158 219 
 SPBC SZ I         236  2.14         8.7 0.34            127            158 219 
 ZAR  HZ EP   2    235 39.81                             122    0.01 4  203 294 
 ZAR  HN ES        236  5.44                             122    0.60 9  203 294 
 ZAR  SZ I         236 10.25         9.2 0.26            120            203 294 
 NOR  HZ EP        235 43.01                             118    0.31 8  230 235 
 NOR  HN ES        236 10.45                             118    0.45 8  230 235 
 NOR  SZ I         236 12.33         4.8 0.28            117            230 235 
 CHI  HZ EP   1    235 44.88                             117    0.20 6  244 195 
 CHI  HE ES   2    236 12.59                             117   -0.93 4  244 195 
 CHI  SZ I         236 28.90         4.7 2.68            116            244 195 
 SML  HZ EP   2    235 43.77                             116   -0.65 4  246 336 
 SML  HN ES   2    236 12.63                             116   -0.43 4  246 336 
 SML  SZ I         236 23.43         8.6 0.08            115            246 336 
 HEL  HZ EP   4    235 49.08                             114    1.78 0  268 257 
 HEL  HN ES   4    236 20.48                             114    2.30 0  268 257 
 HEL  SZ I         236 25.99         4.1 0.32            113            268 257 
 GUY2CHZ EP   1    235 51.69                             112    1.10 5  296 235 
 GUY2CHN ES   4    236 26.27                             112    2.22 0  296 235 
 GUY2CSZ I         236 30.73         3.2 0.68                           296 235 
                                                                                
