 2016  415 0259 46.3 L   6.750 -73.139139.7  RSN  6 0.4 1.5LRSN                1
 GAP=140        0.95       4.2     4.3  7.1 -0.2886E+01  0.1163E+02 -0.4686E+01E
 Epicentro: LOS SANTOS - SANTANDER                                             3
 ACTION:UPD 16-05-05 14:21 OP:rebc STATUS:               ID:20160415025946 L   I
 OLDACT:UP  16-04-15 17:03 OP:mh   STATUS:               ID:20160415025743     3
 OLDACT:UP  16-04-15 16:31 OP:mh   STATUS:               ID:20160415025743     3
 OLDACT:REG 16-04-15 13:45 OP:mh   STATUS:               ID:20160415025743     3
 2016-04-15-0257-43M.COL___320                                                 6
 STAT SP IPHASW D HRMM SECON CODA AMPLIT PERI AZIMU VELO AIN AR TRES W  DIS CAZ7
 BAR2 EZ EP        3 0  5.35                             172    0.2710 18.1 195 
 BAR2 EZ ES        3 0 20.23                             172    0.4810 18.1 195 
 BAR2 EZ I         3 0 21.36         7.0 0.16            172           18.1 195 
 PAM  EZ EP        3 0  8.15                             148    0.0610 81.3  37 
 PAM  EN ES        3 0 24.85                             148   -0.2610 81.3  37 
 PAM  EZ I         3 0 27.65         4.4 0.63            151           81.3  37 
 RUS  HN EP        3 0  9.03                             144    0.0010 95.0 176 
 RUS  HE ES        3 0 26.33                             144   -0.4510 95.0 176 
 RUS  HN I         3 0 29.19         5.1 0.32            146           95.0 176 
 PTB  HZ EP        3 0 11.94                             131   -0.79 9  148 261 
 PTB  HN ES        3 0 33.25                             131   -0.12 9  148 261 
 PTB  HZ I         3 0 35.00         3.2 0.35            132            148 261 
 SPBC HZ EP   1    3 0 14.46                             128    0.51 7  159 220 
 SPBC HN ES        3 0 35.73                             128    0.19 9  159 220 
 SPBC HZ I         3 0 39.82        14.7 0.05            130            159 220 
 ZAR  HZ EP        3 0 19.11                             121    0.49 8  207 293 
 ZAR  HN ES        3 0 43.75                             121   -0.11 8  207 293 
 ZAR  HZ I         3 0 46.12         3.0 0.22            122            207 293 
                                                                                
