 2015 1215 0757 31.1 L   6.833 -73.151142.9  RSN 19 0.4 2.6LRSN                1
 GAP=134        0.93       2.4     3.4  4.8 -0.2596E+01  0.7439E+01 -0.6883E+00E
 Epicentro: LOS SANTOS - SANTANDER                                             3
 ACTION:UPD 16-02-04 15:05 OP:cam  STATUS:               ID:20151215075731 L   I
 OLDACT:REG 15-12-15 13:28 OP:cara STATUS:               ID:20151215074745     3
 2015-12-15-0747-45M.COL___327                                                 6
 STAT SP IPHASW D HRMM SECON CODA AMPLIT PERI AZIMU VELO AIN AR TRES W  DIS CAZ7
 BAR2 EZ EP        757 50.46                             169   -0.0210 26.9 187 
 BAR2 EZ ES        758  4.95                             169   -0.6310 26.9 187 
 BAR2 EZ I         758  6.53        64.9 0.32            166           26.9 187 
 BRR  HZ EP     C  757 52.25                             153    0.4210 69.0 296 
 BRR  HE ES   4    758  9.56                             153    1.58 0 69.0 296 
 BRR  HZ I         758 11.83        45.5 0.20            147           69.0 296 
 PAM  EZ EP        757 53.39                             151    0.5110 75.0  42 
 PAM  EN ES        758 10.25                             151    0.3910 75.0  42 
 PAM  EZ I         758 12.63       114.5 0.48            156           75.0  42 
 RUS  HZ EP        757 54.50                             142   -0.3610  104 176 
 RUS  HN ES        758 13.22                             142   -0.1610  104 176 
 RUS  HZ I         758 14.21        59.3 0.26            146            104 176 
 PTB  HZ EP   9    757 56.84                             131   -1.02 0  148 257 
 PTB  HN ES        758 17.90                                    0.20 9  148 257 
 PTB  HZ I         758 25.20        49.1 0.40            130            148 257 
 OCA  HZ EP        757 59.42                             130    0.57 9  157 353 
 OCA  HN ES        758 20.26                             130   -0.22 9  157 353 
 OCA  HZ I         758 25.31        81.9 0.50            131            157 353 
 SPBC HZ EP        757 59.42                             128   -0.22 9  166 218 
 SPBC HE ES        758 22.24                             128    0.36 9  166 218 
 SPBC HZ I         758 24.06        88.7 0.32            128            166 218 
 ZAR  HZ EP        758  3.01                             122   -0.16 9  202 291 
 ZAR  HN ES        758 28.44                             122    0.26 9  202 291 
 ZAR  HZ I         758 33.76        32.2 0.42            121            202 291 
 NOR  HZ EP        758  6.40                             118   -0.46 8  236 234 
 NOR  HE ES        758 34.16                             118   -0.58 8  236 234 
 NOR  HZ I         758 42.36        38.0 0.14            118            236 234 
 SML  HZ EP        758  6.72                             117   -0.47 8  240 335 
 SML  HN ES        758 35.05                             117   -0.27 8  240 335 
 SML  HZ I         758 38.83        46.5 0.26            118            240 335 
 HEL  HZ EP   4    758 12.50                             114    1.28 0  272 255 
 HEL  HN ES        758 42.78                             114    0.28 8  272 255 
 HEL  HZ I         758 48.04        21.6 0.34            115            272 255 
 URE  HZ EP        758 10.96                             113   -0.87 7  282 291 
 URE  HN ES   4    758 42.53                             113   -1.06 0  282 291 
 URE  HZ I         758 55.08        17.7 0.16            114            282 291 
 GUY2CHZ EP        758 15.16                             112    0.38 7  303 234 
 GUY2CHN ES        758 49.34                             112    0.50 7  303 234 
 GUY2CHZ I         759  0.68        22.9 0.50                           303 234 
 ELA  HZ EP   4    758 19.21                             110    1.14 0  331 229 
 ELA  HN ES   4    758 56.07                             110    1.38 0  331 229 
 ELA  HZ I         759  9.90        15.0 0.44            111            331 229 
 CBOC HZ EP        758 18.46                             109    0.48 7  334 251 
 CBOC HN ES        758 54.36                             109   -0.17 7  334 251 
 CBOC HZ I         759 10.14         7.2 0.44            110            334 251 
 ANIL HZ EP        758 21.06                             108   -0.01 6  360 224 
 ANIL HN ES        759  0.65                             108    0.62 6  360 224 
 ORTC HZ EP        758 24.76                             106   -0.49 6  398 216 
 ORTC HN ES        759  8.06                             106    0.59 6  398 216 
 ORTC HZ I         759 11.83        14.5 0.34            107            398 216 
 SJC  HZ EP   4    758 22.65                             105   -3.53 0  406 327 
 SJC  HE ES   4    759  5.72                             105   -3.41 0  406 327 
 SJC  HZ I         759 13.34         7.4 0.38            107            406 327 
 PAL  HZ EP        758 26.16                             105   -0.18 6  407 239 
 PAL  HN ES        759  9.48                             105    0.06 6  407 239 
 PAL  HZ I         759 14.47         9.7 0.74            107            407 239 
                                                                                
