 2013 1015 0644 54.2 L   6.866 -73.181144.2  RSN  7 0.5 1.4LRSN                1
 GAP=199        1.08       5.4     7.5  9.8  0.7044E+01  0.2140E+02 -0.6845E+01E
 Epicentro: ZAPATOCA - SANTANDER                                               3
 ACTION:UPD 13-11-25 09:21 OP:ep   STATUS:               ID:20131015064454 L   I
 OLDACT:REG 13-10-15 08:09 OP:jn   STATUS:               ID:20131015063959     3
 2013-10-15-0639-59M.COL___274                                                 6
 STAT SP IPHASW D HRMM SECON CODA AMPLIT PERI AZIMU VELO AIN AR TRES W  DIS CAZ7
 BAR2 SZ EP   1    645 13.51                             168   -0.25 7 30.3 180 
 BAR2 SZ ES        645 28.71                             168   -0.3510 30.3 180 
 BAR2 SZ I         645 37.74         5.4 0.72            166           30.3 180 
 BRR  HZ EP        645 14.93                             155    0.1610 64.5 294 
 BRR  HN ES        645 31.05                             155    0.2010 64.5 294 
 RUS  HE ES   1    645 37.67                             141    0.50 7  108 174 
 PTB  HZ EP        645 20.41                             132   -0.39 9  146 256 
 PTB  HN ES        645 40.80                             132   -0.78 9  146 256 
 PTB  HZ I         645 42.97         3.8 0.50            137            146 256 
 SPBC HE ES        645 45.80                             128    0.55 9  167 216 
 SPBC HZ I         645 49.97         2.1 0.36            132            167 216 
 ZAR  HN ES   1    645 51.47                             123    0.89 6  198 291 
 SML  HN ES   1    645 57.77                             118    0.16 6  235 335 
                                                                                
