 2011 1115 0758 42.6 L   6.781 -73.126154.0  RSN  4 0.4 1.1LRSN                1
 GAP=140        0.83       6.1     6.5 10.7  0.8499E+01  0.8748E+01  0.5073E+01E
 Epicentro: LOS SANTOS - SANTANDER                                             3
 ACTION:UPD 12-07-13 16:10 OP:ep   STATUS:               ID:20111115075842 L   I
 2011-11-15-0757-36S.COL___179                                                 6
 STAT SP IPHASW D HRMM SECON CODA AMPLIT PERI AZIMU VELO AIN AR TRES W  DIS CAZ7
 BRR  HZ EP   1    759  5.33                             153    0.55 7 74.1 299 
 BRR  HN ES   1    759 22.55                             153    0.45 7 74.1 299 
 BRR  HZ I         759 25.59         3.8 0.17                          74.1 299 
 PAM  SZ EP   1    759  5.95                             152    0.26 7 77.7  37 
 PAM  SN ES   1    759 23.31                             152   -0.41 7 77.7  37 
 RUS  HZ EP   1    759  6.59                             146   -0.41 7 98.4 177 
 RUS  HN ES   1    759 26.06                             146    0.01 7 98.4 177 
 RUS  HZ I         759 27.56         1.4 0.26                          98.4 177 
 ZAR  HN ES   1    759 41.20                             124   -0.62 6  207 292 
                                                                                
