 2010  615 0227 52.9 L   6.789 -73.100138.8  RSN 10 0.4 2.0LRSN                1
 GAP=129        0.78       3.0     7.2  5.7 -0.8769E+01  0.2437E+01 -0.4796E+00E
 Epicentro: LOS SANTOS - SANTANDER                                             3
 ACTION:UP  10-08-24 10:10 OP:vdl  STATUS:               ID:20100615022752 L   I
 2010-06-15-0226-33S.COL___114                                                 6
 STAT SP IPHASW D HRMM SECON CODA AMPLIT PERI AZIMU VELO SNR AR TRES W  DIS CAZ7
 BAR2 SZ IP        228 11.75                             170     0.110   24 203 
 BAR2 SZ ES   1    228 26.20                             170    -0.2 7   24 203 
 GIR2 SZ EP   1    228 11.93                             166     0.1 7   34 342 
 RUS  HZ EP        228 15.69                             143    -0.210   99 179 
 RUS  HE ES   1    228 33.99                             143     0.2 7   99 179 
 RUS  HZ I         228 35.94        20.1 0.44                            99 179 
 BRI  SZ EP   1    228 16.52                             140     0.4 7  108  18 
 BRI  SZ ES   1    228 34.16                             140     0.0 7  108  18 
 GUE  SZ EP        228 17.06                             138     0.110  117  10 
 GUE  SZ ES   1    228 35.95                             138     0.2 7  117  10 
 GRA  SZ EP        228 17.80                             135     0.310  125  15 
 GRA  SZ ES   1    228 36.87                             135     0.2 7  125  15 
 OCA  SZ EP        228 20.84                             128     0.0 9  162 351 
 OCA  SZ ES   1    228 41.71                             128    -1.0 7  162 351 
 OCA  SZ I         228 48.63        14.3 0.40                           162 351 
 CHI  HZ EP   1    228 30.42                             116     0.2 6  249 196 
 CHI  HE ES   2    228 58.46                             116    -0.9 4  249 196 
 CHI  HZ I         229  2.28         4.7 0.80                           249 196 
 HEL  HZ EP   2    228 34.10                             113     0.8 4  277 256 
 HEL  HE ES   2    229  4.69                             113    -0.1 4  277 256 
 HEL  HZ I         229 10.75         6.5 0.24                           277 256 
 SDV  BZ EP        228 41.67                             107    -0.7 6  357  50 
 SDV  BZ I         229 23.72         3.5 0.66                           357  50 
                                                                                
