 2010 1215 0156 56.5 L   6.828 -72.836139.8  RSN  5 0.2 1.6LRSN                1
 GAP=193        0.37       3.2    19.7  9.3  0.3098E+02 -0.1313E+03 -0.1850E+02E
 Epicentro: SAN ANDRES - SANTANDER                                             3
 ACTION:UP  11-01-14 15:24 OP:pat  STATUS:               ID:20101215015656 L   I
 2010-12-15-0156-41S.COL___137                                                 6
 STAT SP IPHASW D HRMM SECON CODA AMPLIT PERI AZIMU VELO SNR AR TRES W  DIS CAZ7
 BAR2 SZ EP   1    157 16.01                             161    -0.1 7   46 236 
 BAR2 SZ ES   2    157 31.12                             161    -0.3 5   46 236 
 BAR2 SZ I         157 32.76         8.9 0.40                            46 236 
 BTL  SZ EP        157 16.26                             160     0.110   49 282 
 RUS  HZ EP   1    157 20.12                             141     0.0 7  107 195 
 RUS  HN ES   1    157 38.70                             141     0.1 7  107 195 
 RUS  HZ I         157 39.92         4.2 0.39                           107 195 
 GRA  SZ EP   2    157 20.46                             138     0.0 5  117   2 
 OCA  SZ EP   2    157 24.55                             127    -0.2 5  165 341 
 OCA  SZ ES   2    157 47.10                             127     0.2 5  165 341 
 OCA  SZ I         157 52.92         6.2 0.47                           165 341 
                                                                                
