 2015  115 0448 41.2 L   6.752 -73.108147.5  RSN  8 0.4 1.4LRSN                1
 GAP=144        1.10       4.5     5.1  7.1 -0.2956E+01  0.1234E+02  0.3333E+00E
 Epicentro: LOS SANTOS - SANTANDER                                             3
 ACTION:UPD 15-03-02 15:39 OP:nd   STATUS:               ID:20150115044841 L   I
 OLDACT:REG 15-01-15 13:05 OP:carl STATUS:               ID:20150115044745     3
 2015-01-15-0447-45M.COL___250                                                 6
 STAT SP IPHASW D HRMM SECON CODA AMPLIT PERI AZIMU VELO AIN AR TRES W  DIS CAZ7
 BAR2 EZ EP        449  0.66                             172   -0.3210 19.5 205 
 BAR2 EZ ES        449 15.86                             172   -0.5410 19.5 205 
 BAR2 EZ I         449 17.81         4.7 0.36            172           19.5 205 
 BRR  HZ EP        449  2.99                             151    0.0810 77.5 300 
 BRR  HN ES        449 20.18                             151    0.3410 77.5 300 
 BRR  HZ I         449 21.34         5.7 0.44            152           77.5 300 
 PAM  SZ EP        449  3.86                             151    0.1410 79.1  35 
 PAM  SN ES        449 21.22                             151   -0.0510 79.1  35 
 PAM  SZ I         449 23.35         3.4 0.46            153           79.1  35 
 RUS  HZ EP        449  4.87                             146    0.1210 95.1 178 
 RUS  HN ES        449 23.64                             146    0.5310 95.1 178 
 RUS  HZ I         449 24.51         2.1 0.28            147           95.1 178 
 PTB  HZ EP        449  7.60                             132   -1.01 9  151 261 
 SPBC HZ EP        449  9.59                             130   -0.13 9  162 221 
 SPBC HN ES        449 32.09                             130    0.14 9  162 221 
 SPBC HZ I         449 34.86         5.2 0.20            131            162 221 
 ZAR  HZ EP        449 15.24                             122    0.86 8  210 293 
 ZAR  HN ES        449 40.21                             122   -0.04 8  210 293 
 ZAR  HZ I         449 41.97         3.1 0.14            123            210 293 
 NOR  HN ES        449 45.05                             119   -0.02 8  235 236 
                                                                                
