 2012  115 0834 53.1 L   7.145 -74.044 73.1  RSN  5 0.1 0.9LRSN                1
 GAP=161        0.33       2.6     1.8  3.9  0.1258E+00 -0.3721E+00  0.3481E+01E
 Epicentro: BARRANCABERMEJA - SANTANDER                                        3
 ACTION:UP  12-02-03 08:17 OP:REBC STATUS:               ID:20120115083453 L   I
 2012-01-15-0830-00M.COL___187                                                 6
 STAT SP IPHASW D HRMM SECON CODA AMPLIT PERI AZIMU VELO SNR AR TRES W  DIS CAZ7
 BRR  HZ EP   1    835  4.42                             150     0.0 7   37  96 
 BRR  HE ES   1    835 13.28                             150     0.0 7   37  96 
 BRR  HZ I         835 18.43         7.9 0.60                            37  96 
 PTB  HZ EP   1    835  7.92                             127    -0.2 7   81 214 
 PTB  HZ I         835  8.03         1.9 0.12                            81 214 
 PTB  HN ES   1    835 19.77                             127     0.0 7   81 214 
 GIR2 SZ EP   2    835  9.42                             123    -0.2 5   94  94 
 ZAR  HE ES   2    835 22.91                             121     0.1 5   98 293 
 RUS  HZ EP   1    835 19.28                             107     0.2 7  175 142 
 RUS  HN ES   1    835 39.45                             107     0.0 7  175 142 
 RUS  HZ I         835 40.95         0.9 0.28                           175 142 
                                                                                
