 2010  915 0225 22.3 L   6.743 -73.159147.1  RSN  5 0.4 1.7LRSN                1
 GAP=158        1.12       6.2    13.1 11.0  0.1694E+01 -0.3282E+02 -0.1020E+02E
 Epicentro: VILLANUEVA - SANTANDER                                             3
 ACTION:UP  11-02-18 11:02 OP:tino STATUS:               ID:20100915022522 L   I
 2010-09-15-0224-35S.COL___119                                                 6
 STAT SP IPHASW D HRMM SECON CODA AMPLIT PERI AZIMU VELO SNR AR TRES W  DIS CAZ7
 BAR2 SZ EP        225 41.89                             173    -0.110   17 189 
 BAR2 SZ ES   1    225 57.10                             173    -0.2 7   17 189 
 BAR2 SZ I         225 58.60        20.6 0.18                            17 189 
 BTL  SZ EP        225 41.24                             171    -0.810   23 328 
 BRR  HZ EP        225 43.63                             152    -0.110   73 303 
 BRR  HE ES   1    226  0.82                             152     0.4 7   73 303 
 BRR  HZ I         226  2.98         8.6 0.18                            73 303 
 RUS  HZ EP        225 45.97                             146     0.210   94 175 
 RUS  HN ES   1    226  4.27                             146     0.3 7   94 175 
 RUS  HZ I         226  5.71         4.5 0.38                            94 175 
 GRA  SZ EP        225 48.64                             136     0.510  132  17 
 GRA  SZ I         225 49.71         6.1 0.49                           132  17 
 GRA  SZ ES   1    226  8.35                             136     0.0 7  132  17 
                                                                                
