 2014  115 0921 44.6 L   6.814 -73.155146.5  RSN  9 0.3 1.8LRSN                1
 GAP=135        0.77       2.0     3.2  5.4 -0.1217E+01  0.5098E+01 -0.6636E+00E
 Epicentro: LOS SANTOS - SANTANDER                                             3
 ACTION:UPD 14-03-13 09:55 OP:ep   STATUS:               ID:20140115092144 L   I
 OLDACT:REG 14-01-15 08:07 OP:cam  STATUS:               ID:20140115092000     3
 2014-01-15-0920-00M.COL___285                                                 6
 STAT SP IPHASW D HRMM SECON CODA AMPLIT PERI AZIMU VELO AIN AR TRES W  DIS CAZ7
 PAM  SZ EP        922  7.21                             151    0.3110 76.8  41 
 PAM  SN ES        922 24.55                             151    0.2910 76.8  41 
 PAM  SZ I         922 26.52        14.6 0.36            155           76.8  41 
 RUS  HZ EP        922  8.21                             143   -0.3710  102 176 
 RUS  HE ES        922 27.01                             143   -0.2410  102 176 
 RUS  HZ I         922 27.99         6.5 0.38            148            102 176 
 PTB  HZ EP        922 11.13                             132   -0.48 9  147 258 
 PTB  HN ES        922 32.22                             132   -0.42 9  147 258 
 PTB  HZ I         922 39.19         8.0 0.40            133            147 258 
 OCA  HZ EP        922 12.78                             130   -0.07 9  159 353 
 OCA  HE ES        922 34.91                             130    0.05 9  159 353 
 OCA  HZ I         922 40.51         6.0 0.20            132            159 353 
 SPBC HZ EP        922 13.42                             129    0.17 9  164 218 
 SPBC HN ES        922 35.75                             129    0.19 9  164 218 
 SPBC HZ I         922 39.80         9.3 0.46            132            164 218 
 ZAR  HZ EP        922 17.18                             123    0.20 9  203 292 
 ZAR  HE ES        922 42.36                             123    0.15 9  203 292 
 ZAR  HZ I         922 47.44         7.6 0.26            124            203 292 
 NOR  HZ EP        922 21.05                             119    0.63 8  235 234 
 NOR  HN ES        922 48.82                             119    0.49 8  235 234 
 NOR  HZ I         922 52.70         3.7 0.16            121            235 234 
 SML  HZ EP        922 20.74                             118   -0.37 8  242 335 
 SML  HN ES        922 49.33                             118   -0.23 8  242 335 
 SML  HZ I         922 58.32         9.0 0.26            120            242 335 
 CHI  HZ EP   1    922 22.53                             117    0.02 6  250 195 
 CHI  HN ES        922 51.90                             117   -0.15 8  250 195 
 CHI  HZ I         922 55.10         2.9 0.42            121            250 195 
 SJC  HZ EP   4    922 38.40                             106   -1.61 0  407 327 
 SJC  HE ES   4    923 20.18                             106   -3.02 0  407 327 
                                                                                
