 2014  515 0517 12.9 L   6.745 -73.190153.4  RSN  5 0.3 1.4LRSN                1
 GAP=228        0.70       4.2     5.3  6.7  0.8407E+01 -0.1987E+01  0.1498E+01E
 Epicentro: VILLANUEVA - SANTANDER                                             3
 OLDACT:REG 14-05-15 17:40 OP:fm   STATUS:               ID:20140515050817     3
 OLDACT:DUP 14-05-15 18:20 OP:fm   STATUS:               ID:20140515050818d    3
 OLDACT:UP  14-05-15 18:19 OP:fm   STATUS:               ID:20140515050817     3
 ACTION:UPD 15-03-16 16:57 OP:nd   STATUS:               ID:20140515051712 L   I
 OLDACT:UP  14-05-15 18:23 OP:fm   STATUS:               ID:20140515050818d    3
 2014-05-15-0508-17M.COL___251                                                 6
 STAT SP IPHASW D HRMM SECON CODA AMPLIT PERI AZIMU VELO AIN AR TRES W  DIS CAZ7
 BRR  HZ EP        517 35.12                             154    0.2810 70.2 305 
 BRR  HN ES        517 52.13                             154    0.1810 70.2 305 
 BRR  HZ I         517 57.26         4.0 1.12            161           70.2 305 
 RUS  HZ EP   1    517 36.58                             147   -0.47 7 95.0 173 
 RUS  HN ES   1    517 55.62                             147   -0.25 7 95.0 173 
 RUS  HZ I         518  2.01         3.0 1.18            149           95.0 173 
 PTB  HZ EP        517 39.80                             135   -0.20 9  142 261 
 PTB  HN ES        518  0.85                             135   -0.28 9  142 261 
 PTB  HZ I         518  2.55         3.5 0.50            142            142 261 
 SPBC HZ EP        517 41.66                             132    0.36 9  155 219 
 SPBC HN ES        518  3.71                             132    0.27 9  155 219 
 SPBC HZ I         518  9.22         3.4 0.34            138            155 219 
 ZAR  HN ES        518 10.97                             124   -0.22 9  202 294 
                                                                                
