 2017  615 0636 25.5 L   6.795 -73.260150.4  RSN  4 0.3 1.6LRSN                1
 GAP=271        0.69       5.6     9.5  8.0 -0.2107E+02 -0.3258E+02  0.1898E+02E
 Epicentro: ZAPATOCA - SANTANDER                                               3
 ACTION:UPD 17-09-14 16:52 OP:jn   STATUS:               ID:20170615063625 L   I
 OLDACT:UP  17-06-15 17:29 OP:dani STATUS:               ID:20170615062735     3
 OLDACT:UP  17-06-15 17:29 OP:dani STATUS:               ID:20170615062735     3
 OLDACT:UP  17-06-15 17:28 OP:dani STATUS:               ID:20170615062735     3
 OLDACT:UP  17-06-15 17:28 OP:dani STATUS:               ID:20170615062735     3
 OLDACT:UP  17-06-15 17:27 OP:dani STATUS:               ID:20170615062735     3
 OLDACT:UP  17-06-15 17:27 OP:dani STATUS:               ID:20170615062735     3
 OLDACT:REG 17-06-15 13:17 OP:dani STATUS:               ID:20170615062735     3
 2017-06-15-0628-00M.COL___368                                                 6
 STAT SP IPHASW D HRMM SECON CODA AMPLIT PERI AZIMU VELO AIN AR TRES W  DIS CAZ7
 BRR  HZ EP        636 46.44                             159   -0.1910 60.7 305 
 BRR  HE ES        637  3.35                             159    0.2510 60.7 305 
 BRR  HZ I         637  6.47         7.1 0.38            166           60.7 305 
 PTB  HZ EP        636 51.72                             137   -0.06 9  135 258 
 PTB  HE ES        637 11.83                             137   -0.44 9  135 258 
 PTB  HZ I         637 15.03         3.9 0.18            142            135 258 
 SPBC HZ EP        636 53.69                             133    0.06 9  155 215 
 SPBC HE ES        637 15.91                             133    0.35 9  155 215 
 SPBC HZ I         637 22.80         5.2 0.18            135            155 215 
 ZAR  HN ES   3    637 22.81                             127    1.04 2  193 294 
                                                                                
