 2016  415 0205 29.5 L   6.852 -73.450107.2  RSN  6 0.4 1.4LRSN                1
 GAP=122        1.06       4.3     4.4  8.7 -0.3169E+01  0.1471E+02 -0.2803E+01E
 Epicentro: SAN VICENTE DE CHUCURI - SANTANDER                                 3
 ACTION:UPD 16-05-05 14:21 OP:rebc STATUS:               ID:20160415020529 L   I
 OLDACT:DUP 16-04-15 16:02 OP:mh   STATUS:               ID:20160415015744d    3
 OLDACT:UP  16-04-15 15:56 OP:mh   STATUS:               ID:20160415015742     3
 OLDACT:REG 16-04-15 12:19 OP:mh   STATUS:               ID:20160415015742     3
 2016-04-15-0157-42M.COL___323                                                 6
 STAT SP IPHASW D HRMM SECON CODA AMPLIT PERI AZIMU VELO AIN AR TRES W  DIS CAZ7
 BAR2 EZ EP     D  2 5 45.53                             158    0.3510 41.2 134 
 BAR2 EZ ES        2 5 57.89                             158    0.4710 41.2 134 
 BAR2 EZ I         2 5 59.98        10.8 0.31            164           41.2 134 
 PAM  EZ EP        2 5 49.08                             134   -0.4610 98.9  57 
 PAM  EN ES        2 6  5.11                             134   -0.0610 98.9  57 
 PAM  EZ I         2 6  7.17         2.5 0.30            142           98.9  57 
 RUS  HN EP        2 5 51.01                             130    0.1310  114 159 
 RUS  HE ES        2 6  7.12                             130   -0.4410  114 159 
 RUS  HN I         2 6 11.01         3.8 0.52            137            114 159 
 PTB  HZ EP     C  2 5 50.02                             129   -0.5010  117 253 
 PTB  HN ES        2 6  6.59                             129   -0.3210  117 253 
 PTB  HZ I         2 6 11.65        11.8 0.84            132            117 253 
 ZAR  HZ EP        2 5 56.80                             117    0.71 9  171 295 
 ZAR  HN ES   4    2 6 18.89                             117    2.06 0  171 295 
 ZAR  HZ I         2 6 21.45         5.4 0.40            121            171 295 
 CHI  HN ES        2 6 33.53                             108    0.33 8  248 187 
                                                                                
