 2014  115 0453 27.1 L   6.799 -73.144149.3  RSN 15 0.5 2.1LRSN                1
 GAP= 71        1.09       3.1     3.3  6.5 -0.1304E+00  0.3135E+01  0.2863E+01E
 Epicentro: LOS SANTOS - SANTANDER                                             3
 ACTION:UPD 14-03-13 09:55 OP:ep   STATUS:               ID:20140115045327 L   I
 OLDACT:UP  14-01-15 09:51 OP:cam  STATUS:               ID:20140115045000     3
 OLDACT:UP  14-01-15 09:50 OP:cam  STATUS:               ID:20140115045000     3
 OLDACT:UP  14-01-15 09:50 OP:cam  STATUS:               ID:20140115045000     3
 OLDACT:REG 14-01-15 07:53 OP:cam  STATUS:               ID:20140115045000     3
 2014-01-15-0450-00M.COL___285                                                 6
 STAT SP IPHASW D HRMM SECON CODA AMPLIT PERI AZIMU VELO AIN AR TRES W  DIS CAZ7
 BRR  HZ EP        453 48.94                             153    0.3510 71.4 299 
 BRR  HE ES        454  6.46                             153    1.0610 71.4 299 
 BRR  HZ I         454 10.52        17.2 0.14            144           71.4 299 
 PAM  SZ EP        453 49.81                             151    0.1710 77.3  39 
 PAM  SN ES        454  7.14                             151   -0.1210 77.3  39 
 PAM  SZ I         454  9.34        15.9 0.66            143           77.3  39 
 RUS  HZ EP        453 50.83                             145   -0.3110  100 176 
 RUS  HE ES        454  9.57                             145   -0.3610  100 176 
 RUS  HZ I         454 12.36        10.6 0.26            136            100 176 
 PTB  HZ EP        453 53.85                             133   -0.47 9  148 259 
 PTB  HN ES        454 14.98                             133   -0.62 9  148 259 
 PTB  HZ I         454 17.76        18.3 0.16            122            148 259 
 TAM  HZ EP     D  453 55.15                             131    0.16 9  155 105 
 TAM  HZ I         454 15.92        10.4 0.34            122            155 105 
 TAM  HE ES        454 16.95                             131    0.17 9  155 105 
 OCA  HZ EP   1    453 56.36                             130    0.71 7  160 353 
 OCA  HE ES        454 17.29                             130   -0.66 9  160 353 
 OCA  HZ I         454 22.59        20.3 0.28            120            160 353 
 SPBC HZ EP        453 55.83                             130    0.00 9  163 219 
 SPBC HN ES        454 18.02                             130   -0.25 9  163 219 
 SPBC HZ I         454 23.03        37.7 0.78            120            163 219 
 ZAR  HZ EP        453 59.62                             123   -0.13 9  204 292 
 ZAR  HN ES        454 25.73                             123    0.47 9  204 292 
 ZAR  HZ I         454 35.51        11.6 0.50            113            204 292 
 NOR  HZ EP   1    454  3.00                             119    0.00 6  235 235 
 NOR  HN ES   1    454 30.83                             119   -0.21 6  235 235 
 NOR  HZ I         454 34.54        12.2 0.22            110            235 235 
 SML  HZ EP   2    454  3.32                             118   -0.57 4  244 335 
 SML  HN ES   1    454 31.99                             118   -0.64 6  244 335 
 SML  HZ I         454 35.68        20.9 0.10            109            244 335 
 CHI  HZ EP        454  4.90                             118   -0.04 8  249 195 
 CHI  HN ES        454 34.43                             118   -0.07 8  249 195 
 CHI  HZ I         454 39.84         4.8 0.24            109            249 195 
 ROSC BZ EP   2    454  6.97                             117    1.60 4  253 211 
 HEL  HZ EP   1    454  8.31                             115    0.85 6  272 256 
 HEL  HZ I         454 47.45         7.0 0.30            107            272 256 
 GUY2CHZ EP   4    454 11.87                             113    1.03 0  301 235 
 GUY2CHN ES   4    454 46.39                             113    1.40 0  301 235 
 GUY2CHZ I         454 53.41         7.8 0.56                           301 235 
 PTGC HZ EP   4    454  9.87                             112   -1.18 0  309 159 
 PTGC HE ES   4    454 43.13                             112   -2.23 0  309 159 
 RREF HZ EP   4    454 15.11                             111    1.75 0  322 229 
 CBOC HZ EP   4    454 14.55                             110    0.42 0  334 252 
 CBOC HE ES   4    454 48.79                             110   -2.06 0  334 252 
 CBOC HZ I         454 58.95         2.0 0.44            103            334 252 
 SJC  HZ EP   4    454 21.24                             106   -1.51 0  409 327 
 SJC  HE ES   4    455  1.86                             106   -4.34 0  409 327 
                                                                                
