 2016 1215 0759 32.2 L   5.925 -73.784113.3  RSN  7 0.2 1.1LRSN                1
 GAP= 85        0.67       2.0     2.3  5.4  0.3290E+00  0.2792E+01  0.8216E-02E
 Epicentro: SUCRE - SANTANDER                                                  3
 ACTION:UPD 17-01-11 20:15 OP:rebc STATUS:               ID:20161215075932 L   I
 OLDACT:UP  16-12-15 18:13 OP:and  STATUS:               ID:20161215075744     3
 OLDACT:REG 16-12-15 12:46 OP:and  STATUS:               ID:20161215075744     3
 2016-12-15-0758-00M.COL___375                                                 6
 STAT SP IPHASW D HRMM SECON CODA AMPLIT PERI AZIMU VELO AIN AR TRES W  DIS CAZ7
 RUS  HZ EP        759 51.31                             143    0.2310 77.7  93 
 RUS  HN ES        8 0  5.61                             143   -0.2210 77.7  93 
 RUS  HZ I         8 0  8.41         1.4 0.32            147           77.7  93 
 BAR2 EZ EP        759 52.85                             136    0.4010 99.4  42 
 BAR2 EZ ES        8 0  8.28                             136    0.0210 99.4  42 
 PTB  HZ EP        759 52.09                             135   -0.1610  101 312 
 PTB  HN ES        8 0  7.82                             135   -0.1010  101 312 
 PTB  HZ I         8 0  9.09         1.8 0.20            139            101 312 
 NOR  HN ES        8 0 12.42                             128    0.2110  127 252 
 NOR  HZ I         8 0 14.74         3.6 0.16            131            127 252 
 BRR  HZ EP        759 55.11                             127    0.0910  131   3 
 BRR  HN ES        8 0 12.70                             127   -0.1410  131   3 
 BRR  HZ I         8 0 15.82         3.6 0.15            131            131   3 
 CHI  HZ EP        759 56.18                             125   -0.61 9  143 178 
 CHI  HN ES        8 0 16.23                             125    0.24 9  143 178 
 CHI  HZ I         8 0 22.26         1.2 0.32            127            143 178 
 ZAR  HZ EP        8 0  3.39                             113   -0.02 8  210 326 
 ZAR  HE ES        8 0 27.79                             113    0.02 8  210 326 
 ZAR  HZ I         8 0 28.53         1.2 0.30            117            210 326 
                                                                                
