 2017  715 0647 33.5 L   6.770 -73.116138.8  RSN  9 0.5 1.5LRSN                1
 GAP=142        1.27       5.0     5.0  7.5 -0.3153E+01  0.1400E+02  0.3135E+01E
 Epicentro: LOS SANTOS - SANTANDER                                             3
 ACTION:UPD 17-08-30 15:33 OP:rebc STATUS:               ID:20170715064733 L   I
 OLDACT:DUP 17-07-15 16:38 OP:dnl  STATUS:               ID:20170715063740d    3
 OLDACT:REG 17-07-15 12:36 OP:dnl  STATUS:               ID:20170715063739     3
 2017-07-15-0638-00M.COL___374                                                 6
 STAT SP IPHASW D HRMM SECON CODA AMPLIT PERI AZIMU VELO AIN AR TRES W  DIS CAZ7
 BAR2 EZ IP     C  647 52.10                             171   -0.1410 21.0 200 
 BAR2 EZ ES        648  6.57                             171   -0.2910 21.0 200 
 BAR2 EZ I         648  7.92         8.2 0.20            171           21.0 200 
 BRR  HZ IP     C  647 54.02                             150   -0.1410 75.7 300 
 BRR  HN ES        648 10.80                             150    0.5210 75.7 300 
 BRR  HZ I         648 15.07         7.5 0.12            149           75.7 300 
 PAM  EZ EP        647 55.15                             149    0.1410 78.0  36 
 PAM  EN ES        648 11.80                             149    0.0110 78.0  36 
 PAM  EZ I         648 13.47         5.9 0.24            152           78.0  36 
 RUS  HZ EP        647 56.06                             143   -0.2410 97.1 178 
 RUS  HE ES        648 14.52                             143    0.4210 97.1 178 
 RUS  HZ I         648 15.35         2.9 0.22            146           97.1 178 
 PTB  HZ EP        647 58.87                             130   -1.27 9  150 260 
 PTB  HE ES        648 20.55                             130   -0.38 9  150 260 
 PTB  HZ I         648 22.09         3.9 0.10            131            150 260 
 SPBC HZ EP        648  1.06                             128   -0.36 9  163 221 
 SPBC HE ES        648 23.40                             128    0.20 9  163 221 
 SPBC HZ I         648 27.57         5.1 0.24            129            163 221 
 ZAR  HZ EP        648  6.55                             120    0.61 8  208 293 
 ZAR  HE ES        648 31.46                             120    0.21 8  208 293 
 ZAR  HZ I         648 36.81         3.3 0.26            121            208 293 
 GUY2CHZ EP        648 18.03                             111    1.16 7  302 236 
 GUY2CHE ES        648 51.54                             111    0.83 7  302 236 
 GUY2CHZ I         648 57.33         1.9 0.30                           302 236 
 CBOC HZ EP   2    648 20.63                             109    0.26 3  336 253 
 CBOC HE ES        648 56.16                             109   -0.77 7  336 253 
 CBOC HZ I         648 59.87         0.8 0.24            110            336 253 
                                                                                
