 2011  815 0828 21.6 L   6.765 -73.120146.6  RSN 12 0.4 2.8LRSN                1
 GAP=141        0.84       3.4     5.8  5.4 -0.5398E+01  0.8648E+01  0.1703E+01E
 Epicentro: LOS SANTOS - SANTANDER                                             3
 ACTION:UPD 12-07-13 15:52 OP:ep   STATUS:               ID:20110815082821 L   I
 2011-08-15-0826-47S.COL___150                                                 6
 STAT SP IPHASW D HRMM SECON CODA AMPLIT PERI AZIMU VELO AIN AR TRES W  DIS CAZ7
 BAR2 SZ EP        828 41.45                             172    0.1510 20.3 200 
 BAR2 SZ ES        828 56.64                             172    0.0010 20.3 200 
 BAR2 SZ I         828 58.22       250.5 0.18                          20.3 200 
 GIR2 SZ EP        828 41.93                             166    0.4110 35.7 347 
 BRR  HZ EP        828 43.17                             151    0.0510 75.6 300 
 BRR  HZ I         828 43.69       342.3 0.10                          75.6 300 
 BRR  HN ES   1    829  0.61                             151    0.73 7 75.6 300 
 PAM  SZ EP        828 44.24                             150    0.2310 78.7  36 
 PAM  SZ I         828 44.53        69.3 0.13                          78.7  36 
 PAM  SN ES   1    829  1.18                             150   -0.28 7 78.7  36 
 RUS  HZ EP        828 45.37                             145    0.2010 96.5 178 
 RUS  HE ES   1    829  2.88                             145   -0.66 7 96.5 178 
 RUS  HZ I         829  5.38        73.3 0.26                          96.5 178 
 OCA  SZ EP        828 49.96                             129   -0.44 9  164 352 
 OCA  SZ ES   1    829 12.07                             129   -0.77 7  164 352 
 OCA  SZ I         829 18.43        63.8 0.21                           164 352 
 NOR  SZ EP   1    828 56.93                             119   -0.49 6  235 236 
 NOR  SN ES   1    829 24.64                             119   -0.69 6  235 236 
 CHI  HZ EP   1    828 59.29                             118    0.24 6  246 196 
 CHI  HZ I         829  2.14        22.8 0.46                           246 196 
 DBB  SZ EP   1    829  9.75                             109    0.25 5  343 275 
 TOL  SZ EP   1    829 10.70                             109    0.87 5  343 225 
 PRA  HZ EP   1    829 14.46                             107   -0.49 4  390 210 
 PRA  HN ES   1    829 56.71                             107    0.17 4  390 210 
 SJA  SZ EP   2    829 15.73                             106   -0.12 3  397 193 
 SJA  SZ ES   2    829 57.63                             106   -0.50 3  397 193 
                                                                                
