 2010 1115 0146 44.4 L   5.872 -73.717118.1  RSN  5 0.4 1.6LRSN                1
 GAP=167        0.73       5.4     4.4 10.2 -0.8908E+01  0.2174E+02 -0.5468E+01E
 Epicentro: PUENTE NACIONAL - SANTANDER                                        3
 ACTION:UP  10-12-17 16:52 OP:REBC STATUS:               ID:20101115014644 L   I
 2010-11-15-0141-46S.COL___127                                                 6
 STAT SP IPHASW D HRMM SECON CODA AMPLIT PERI AZIMU VELO SNR AR TRES W  DIS CAZ7
 RUS  HZ EP   1    147  3.46                             148     0.2 7   70  88 
 RUS  HE ES   1    147 17.56                             148    -0.4 7   70  88 
 BAR2 SZ EP   2    147  4.69                             137    -0.4 5   99  37 
 BAR2 SZ ES   1    147 21.84                             137     0.6 7   99  37 
 BAR2 SZ I         147 24.54         8.8 0.38                            99  37 
 NOR  SZ EP   1    147  7.86                             128     0.0 7  132 255 
 NOR  SE ES   1    147 26.27                             128     0.2 7  132 255 
 BRR  HZ EP   1    147  8.05                             127    -0.1 7  137   0 
 BRR  HE ES   1    147 26.42                             127    -0.3 7  137   0 
 BRR  HZ I         147 29.41         6.0 0.59                           137   0 
 HEL  HZ EP   2    147 15.95                             116     0.3 4  204 280 
 HEL  HE ES   2    147 39.43                             116    -0.6 4  204 280 
 HEL  HZ I         147 39.80         2.8 0.36                           204 280 
                                                                                
