 2013 1215 0547 40.9 L   6.792 -73.141150.4  RSN  9 0.4 1.8LRSN                1
 GAP=183        0.90       2.9     5.3  5.7  0.2788E+01  0.1560E+01 -0.9048E+00E
 Epicentro: LOS SANTOS - SANTANDER                                             3
 ACTION:UPD 14-01-13 10:18 OP:ep   STATUS:               ID:20131215054740 L   I
 OLDACT:REG 13-12-15 07:18 OP:jn   STATUS:               ID:20131215054000     3
 2013-12-15-0540-00M.COL___285                                                 6
 STAT SP IPHASW D HRMM SECON CODA AMPLIT PERI AZIMU VELO AIN AR TRES W  DIS CAZ7
 BAR2 SZ EP        548  1.08                             171    0.0210 22.5 192 
 BAR2 SZ ES        548 16.66                             171   -0.1410 22.5 192 
 BAR2 SZ I         548 18.98        22.6 0.38            171           22.5 192 
 BRR  HZ EP        548  2.96                             153    0.3710 72.1 299 
 BRR  HN ES        548 20.37                             153    0.8510 72.1 299 
 BRR  HZ I         548 25.63         8.4 0.12            154           72.1 299 
 RUS  HZ EP   1    548  4.81                             145   -0.22 7 99.6 176 
 RUS  HN ES        548 23.59                             145   -0.2810 99.6 176 
 RUS  HZ I         548 26.50         4.8 0.38            147           99.6 176 
 PTB  HZ EP   1    548  8.52                             133    0.25 7  148 259 
 PTB  HN ES        548 29.11                             133   -0.52 9  148 259 
 PTB  HZ I         548 31.31         9.4 0.14            135            148 259 
 OCA  HN ES   1    548 31.83                             130   -0.26 7  161 353 
 OCA  HZ I         548 35.74         6.5 0.44            133            161 353 
 SPBC HZ EP   1    548 10.01                             130    0.30 7  163 219 
 SPBC HN ES        548 32.14                             130   -0.05 9  163 219 
 SPBC HZ I         548 37.66        11.7 0.38            132            163 219 
 ZAR  HE ES   1    548 39.24                             123   -0.10 6  205 292 
 SML  HZ EP        548 17.61                             118   -0.28 8  245 335 
 SML  HE ES        548 46.26                             118   -0.49 8  245 335 
 CHI  HZ EP        548 19.27                             118    0.50 8  248 195 
 CHI  HN ES        548 48.09                             118   -0.22 8  248 195 
 CHI  HZ I         548 53.94         2.3 0.26            120            248 195 
                                                                                
