 2017  215 0920 29.6 L   6.749 -73.204144.2  RSN  5 0.4 1.2LRSN                1
 GAP=227        0.94       7.0     6.5  6.9  0.2838E+02  0.6893E+01 -0.2940E+01E
 Epicentro: VILLANUEVA - SANTANDER                                             3
 ACTION:UPD 17-05-24 15:36 OP:jn   STATUS:               ID:20170215092029 L   I
 OLDACT:DUP 17-02-15 18:25 OP:dani STATUS:               ID:20170215091746d    3
 OLDACT:DUP 17-02-15 18:23 OP:dani STATUS:               ID:20170215091745d    3
 OLDACT:UP  17-02-15 18:22 OP:dani STATUS:               ID:20170215091744     3
 OLDACT:UP  17-02-15 18:22 OP:dani STATUS:               ID:20170215091744     3
 OLDACT:UP  17-02-15 18:22 OP:dani STATUS:               ID:20170215091744     3
 OLDACT:REG 17-02-15 13:13 OP:dani STATUS:               ID:20170215091744     3
 2017-02-15-0918-00M.COL___349                                                 6
 STAT SP IPHASW D HRMM SECON CODA AMPLIT PERI AZIMU VELO AIN AR TRES W  DIS CAZ7
 BAR2 EZ EP        920 48.56                             173   -0.3310 17.5 172 
 BAR2 EZ ES        921  3.42                             173   -0.5610 17.5 172 
 BAR2 EZ I         921  5.74         2.8 0.20            168           17.5 172 
 BRR  HZ EP        920 50.35                             153   -0.0410 68.7 305 
 BRR  HN ES        921  7.17                             153    0.5210 68.7 305 
 BRR  HZ I         921  8.56         4.7 0.44            150           68.7 305 
 RUS  HZ EP        920 53.28                             145    0.4810 95.7 172 
 RUS  HN ES        921 11.24                             145    0.3010 95.7 172 
 RUS  HZ I         921 13.17         1.3 0.18            144           95.7 172 
 PTB  HZ EP        920 55.49                             133   -0.24 9  140 261 
 PTB  HN ES        921 15.86                             133   -0.29 9  140 261 
 PTB  HZ I         921 21.86         2.1 0.21            131            140 261 
 ZAR  HZ EP        921  1.37                             123   -0.14 9  200 294 
 ZAR  HN ES        921 26.73                             123    0.29 9  200 294 
 ZAR  HZ I         921 32.39         2.6 0.08            122            200 294 
                                                                                
