 2013  815 0140 43.4 L   6.801 -73.172140.7  RSN  5 0.5 1.5LRSN                1
 GAP=235        0.86       6.6     7.5  7.2  0.2424E+02  0.2146E+02  0.1036E+02E
 Epicentro: LOS SANTOS - SANTANDER                                             3
 ACTION:UPD 14-01-14 09:03 OP:ep   STATUS:               ID:20130815014042 L   I
 OLDACT:UP  13-08-16 16:41 OP:ep   STATUS:               ID:20130815014042 L   3
 OLDACT:REG 13-08-15 08:59 OP:stll STATUS:               ID:20130815013850     3
 2013-08-15-0138-50M.COL___226                                                 6
 STAT SP IPHASW D HRMM SECON CODA AMPLIT PERI AZIMU VELO AIN AR TRES W  DIS CAZ7
 BAR2 SZ EP   3    140 59.94                             171   -2.51 2 23.1 183 
 BAR2 SZ ES        141 17.06                             171   -0.2210 23.1 183 
 BAR2 SZ I         141 20.36         4.0 0.26            174           23.1 183 
 BRR  HZ EP        141  4.36                             153    0.4710 68.6 300 
 BRR  HN ES        141 19.93                             153    0.0910 68.6 300 
 BRR  HN I         141 24.83        10.1 0.18            155           68.6 300 
 RUS  HN ES        141 25.10                             143    0.2310  101 174 
 RUS  HN I         141 26.92         5.5 0.32            147            101 174 
 PTB  HZ EP        141  9.49                             132   -0.24 9  145 259 
 PTB  HN ES        141 30.06                             132   -0.19 9  145 259 
 SPBC HZ EP        141 11.33                             128   -0.05 9  161 218 
                                                                                
