 2017  715 0040 12.2 L   6.791 -73.139139.5  RSN 15 0.5 2.2LRSN                1
 GAP=113        1.22       4.3     3.8  6.4  0.1676E+01  0.7806E+01  0.5370E+01E
 Epicentro: LOS SANTOS - SANTANDER                                             3
 ACTION:UPD 17-08-30 15:33 OP:rebc STATUS:               ID:20170715004012 L   I
 OLDACT:UP  17-07-15 14:36 OP:dnl  STATUS:               ID:20170715003740     3
 OLDACT:UP  17-07-15 14:35 OP:dnl  STATUS:               ID:20170715003740     3
 OLDACT:REG 17-07-15 12:18 OP:dnl  STATUS:               ID:20170715003740     3
 2017-07-15-0038-00M.COL___383                                                 6
 STAT SP IPHASW D HRMM SECON CODA AMPLIT PERI AZIMU VELO AIN AR TRES W  DIS CAZ7
 BAR2 EZ IP     C  040 30.82                             170   -0.2710 22.5 192 
 BAR2 EZ ES        040 45.35                             170   -0.4510 22.5 192 
 BAR2 EZ I         040 47.94        47.9 0.24            165           22.5 192 
 BRR  HZ IP     C  040 32.63                             151   -0.1310 72.3 299 
 BRR  HE ES        040 49.53                             151    0.7410 72.3 299 
 BRR  HZ I         040 50.53        38.6 0.14            148           72.3 299 
 PAM  EZ EP        040 33.64                             150   -0.1610 77.7  39 
 PAM  EN ES        040 50.53                             150   -0.1010 77.7  39 
 PAM  EZ I         040 52.98        27.9 0.48            150           77.7  39 
 RUS  HZ EP        040 34.86                             143   -0.4310 99.6 176 
 RUS  HE ES        040 53.60                             143    0.3210 99.6 176 
 RUS  HZ I         040 55.17        18.5 0.18            137           99.6 176 
 PTB  HZ EP        040 37.63                             131   -1.11 9  148 259 
 PTB  HN ES        040 59.47                             131    0.06 9  148 259 
 PTB  HZ I         041  3.78        13.1 0.20            126            148 259 
 SPBC HZ EP        040 39.81                             128   -0.41 9  163 219 
 SPBC HN ES        041  1.93                             128   -0.13 9  163 219 
 SPBC HZ I         041  8.56        27.6 0.10            122            163 219 
 YPLC HZ EP        040 41.32                             125   -0.13 9  176 151 
 YPLC HN ES        041  5.33                             125    1.08 9  176 151 
 YPLC HZ I         041  7.99        20.7 0.24            121            176 151 
 ZAR  HZ EP        040 45.09                             121    0.71 9  205 292 
 ZAR  HE ES        041  9.69                             121    0.24 9  205 292 
 ZAR  HZ I         041 15.53        25.4 0.32            117            205 292 
 NOR  HZ EP        040 47.02                             117   -0.58 8  235 235 
 NOR  HE ES        041 14.95                             117   -0.24 8  235 235 
 NOR  HZ I         041 18.63        16.7 0.46            113            235 235 
 ROSC BZ EP   2    040 49.52                             115   -0.44 4  252 211 
 ROSC BE ES   4    041 23.42                             115    4.03 0  252 211 
 ROSC BZ I         041 26.20        14.7 0.55            111            252 211 
 HEL  HZ EP        040 53.04                             114    0.86 8  273 256 
 HEL  HN ES        041 23.33                             114   -0.01 8  273 256 
 HEL  HZ I         041 29.29         9.3 0.46            110            273 256 
 GUY2CHZ EP        040 56.43                             111    0.88 7  301 235 
 GUY2CHE ES   4    041 33.51                             111    4.16 0  301 235 
 GUY2CHZ I         041 37.22        11.7 0.42                           301 235 
 CBOC HZ EP   2    040 59.37                             109    0.44 3  334 252 
 CBOC HN ES        041 35.25                             109   -0.11 7  334 252 
 CBOC HZ I         041 42.55         2.9 0.38            106            334 252 
 ORTC HZ EP   2    041  6.63                             105    0.74 3  395 216 
 ORTC HZ I         041 56.32         5.9 0.68            102            395 216 
 PAL  HZ EP   4    041  6.22                             105   -0.98 0  406 239 
 PAL  HN ES   4    041 47.89                             105   -2.18 0  406 239 
 PAL  HZ I         041 54.85         4.5 0.24            102            406 239 
                                                                                
