 2017  115 0706 58.9 L   6.775 -73.113150.5  RSN  7 0.2 1.3LRSN                1
 GAP=142        0.52       2.6     2.5  4.5  0.4883E+00  0.3761E+01  0.2116E+01E
 Epicentro: LOS SANTOS - SANTANDER                                             3
 ACTION:UPD 17-05-22 15:59 OP:jn   STATUS:               ID:20170115070658 L   I
 OLDACT:UP  17-01-15 16:16 OP:e    STATUS:               ID:20170115070640     3
 OLDACT:REG 17-01-15 12:52 OP:and  STATUS:               ID:20170115070640     3
 2017-01-15-0707-00M.COL___335                                                 6
 STAT SP IPHASW D HRMM SECON CODA AMPLIT PERI AZIMU VELO AIN AR TRES W  DIS CAZ7
 BAR2 EZ EP        7 7 18.90                             171   -0.1210 21.6 201 
 BAR2 EZ ES        7 7 34.70                             171   -0.0510 21.6 201 
 BAR2 EZ I         7 7 40.49         2.9 0.42            168           21.6 201 
 BRR  HZ EP        7 7 20.80                             152    0.0310 75.7 299 
 BRR  HN ES        7 7 38.21                             152    0.3510 75.7 299 
 BRR  HZ I         7 7 42.45         3.4 0.29            152           75.7 299 
 PAM  EN ES        7 7 39.22                             152   -0.0810 77.4  36 
 PAM  EZ I         7 7 41.33         3.0 0.28            159           77.4  36 
 RUS  HZ EP        7 7 22.99                             146    0.1210 97.6 178 
 RUS  HN ES        7 7 41.57                             146   -0.0310 97.6 178 
 RUS  HZ I         7 7 44.99         1.4 0.40            148           97.6 178 
 PTB  HN ES        7 7 47.66                             132   -0.37 9  151 260 
 PTB  HZ I         7 7 54.25         2.8 0.38            134            151 260 
 ZAR  HN ES        7 7 57.89                             123   -0.07 8  208 292 
 ZAR  HZ I         7 8  2.60         3.5 0.32            125            208 292 
 NOR  HN ES        7 8  3.42                             119    0.22 8  236 236 
 NOR  HZ I         7 8 10.83         1.6 0.26            122            236 236 
                                                                                
