 2013  515 0008  2.0 L   6.343 -73.669106.0  RSN  5 0.4 1.5LRSN                1
 GAP=110        0.91       6.5     4.3 10.3 -0.1643E+01  0.1259E+02  0.3371E+01E
 Epicentro: SANTA HELENA DEL OPON - SANTANDER                                  3
 ACTION:UPD 13-06-20 09:50 OP:ep   STATUS:               ID:20130515000802 L   I
 2013-05-15-0000-00M.COL___256                                                 6
 STAT SP IPHASW D HRMM SECON CODA AMPLIT PERI AZIMU VELO AIN AR TRES W  DIS CAZ7
 BAR2 SZ EP   1    0 8 18.82                             148    0.16 7 60.4  63 
 BAR2 SZ ES   1    0 8 32.09                             148    0.46 7 60.4  63 
 BAR2 SZ I         0 8 33.23        20.4 0.20            154           60.4  63 
 RUS  HZ EP        0 8 20.13                             140   -0.4210 81.7 127 
 RUS  HN ES        0 8 34.93                             140   -0.0610 81.7 127 
 RUS  HZ I         0 8 36.23         2.7 0.30            143           81.7 127 
 PTB  HN ES   1    0 8 34.34                             136   -0.65 7 89.8 284 
 GIR2 SZ EP   1    0 8 21.59                             134    0.26 7 96.9  33 
 NOR  HZ EP   1    0 8 27.17                             119   -0.11 7  158 237 
 NOR  HN ES   1    0 8 47.81                             119    0.85 7  158 237 
 NOR  HZ I         0 8 51.35         4.7 0.16            121            158 237 
                                                                                
