 2010  615 0022 44.1 L   6.778 -73.044144.0  RSN  9 0.5 1.7LRSN                1
 GAP=170        1.14       4.6    16.7 10.0 -0.3493E+02  0.6479E+02 -0.5253E+01E
 Epicentro: LOS SANTOS - SANTANDER                                             3
 ACTION:UP  10-08-24 10:10 OP:vdl  STATUS:               ID:20100615002244 L   I
 2010-06-15-0020-42S.COL___114                                                 6
 STAT SP IPHASW D HRMM SECON CODA AMPLIT PERI AZIMU VELO SNR AR TRES W  DIS CAZ7
 BAR2 SZ IP        023  3.39                             169    -0.110   26 217 
 BAR2 SZ ES   1    023 18.51                             169    -0.2 7   26 217 
 GIR2 SZ EP   1    023  4.42                             165     0.7 7   37 334 
 RUS  HZ EP        023  7.27                             144    -0.210   98 183 
 RUS  HE ES   1    023 25.74                             144     0.0 7   98 183 
 RUS  HZ I         023 27.41         5.1 0.21                            98 183 
 GUE  SZ EP   1    023  8.60                             139     0.0 7  117   6 
 GUE  SZ ES   1    023 27.78                             139     0.0 7  117   6 
 GRA  SZ EP   1    023  9.22                             137     0.1 7  125  12 
 GRA  SZ ES   1    023 28.97                             137     0.4 7  125  12 
 OCA  SZ EP        023 11.83                             129    -0.8 9  164 349 
 OCA  SZ ES   1    023 35.25                             129     0.4 7  164 349 
 OCA  SZ I         023 39.82         9.9 0.19                           164 349 
 CHI  HZ EP   2    023 21.21                             117    -0.5 4  250 198 
 CHI  HE ES   1    023 50.87                             117    -0.3 6  250 198 
 CHI  HZ I         023 59.21         3.4 0.32                           250 198 
 ROSC BZ EP   1    023 24.19                             116     1.7 6  257 213 
 HEL  HZ EP   1    023 24.91                             114    -0.4 6  282 257 
 HEL  HZ I         024  4.52         2.4 0.28                           282 257 
                                                                                
