 2014  215 0736 22.4 L   6.850 -73.175140.7  RSN  6 0.4 1.5LRSN                1
 GAP=148        0.95       4.5     5.2  6.7 -0.9105E+01  0.7919E+01  0.4056E+01E
 Epicentro: ZAPATOCA - SANTANDER                                               3
 ACTION:UPD 14-03-10 08:10 OP:ep   STATUS:               ID:20140215073622 L   I
 OLDACT:REG 14-02-15 09:05 OP:carl STATUS:               ID:20140215073000     3
 2014-02-15-0730-00M.COL___206                                                 6
 STAT SP IPHASW D HRMM SECON CODA AMPLIT PERI AZIMU VELO AIN AR TRES W  DIS CAZ7
 BAR2 SZ EP        736 41.80                             168    0.3010 28.5 182 
 BAR2 SZ ES        736 56.39                             168   -0.0410 28.5 182 
 BAR2 SZ I         736 59.33        12.0 0.48            167           28.5 182 
 PAM  SZ EP        736 44.64                             150    0.7210 75.4  44 
 PAM  SN ES        737  0.35                             150   -0.3810 75.4  44 
 RUS  HZ EP        736 45.73                             141   -0.3210  106 174 
 RUS  HN ES        737  4.44                             141   -0.0910  106 174 
 PTB  HZ EP        736 48.33                             131   -0.40 9  146 256 
 PTB  HN ES        737  9.20                             131   -0.10 9  146 256 
 PTB  HZ I         737 15.25         3.7 0.24            131            146 256 
 SPBC HZ EP        736 50.90                             127    0.20 9  166 217 
 SPBC HN ES        737 13.24                             127    0.43 9  166 217 
 SPBC HZ I         737 16.31         3.1 0.12            128            166 217 
 CHI  HZ EP        736 59.64                             115   -0.64 8  253 194 
 CHI  HN ES        737 30.04                             115    0.18 8  253 194 
 CHI  HZ I         737 32.66         1.2 0.36            117            253 194 
                                                                                
