 2014 1215 0525 27.0 L   6.857 -73.149140.0  RSN 18 0.5 2.1LRSN                1
 GAP= 69        1.15       2.7     3.4  5.6 -0.8296E+00  0.6239E+01  0.2746E+01E
 Epicentro: LOS SANTOS - SANTANDER                                             3
 ACTION:UPD 15-02-10 17:03 OP:nd   STATUS:               ID:20141215052527 L   I
 OLDACT:REG 14-12-15 13:03 OP:fm   STATUS:               ID:20141215051739     3
 2014-12-15-0517-39M.COL___288                                                 6
 STAT SP IPHASW D HRMM SECON CODA AMPLIT PERI AZIMU VELO AIN AR TRES W  DIS CAZ7
 BAR2 EZ EP        525 46.30                             168    0.2110 29.5 187 
 BAR2 EZ ES        526  0.34                             168   -0.6310 29.5 187 
 BAR2 EZ I         526  2.87        14.5 0.34            166           29.5 187 
 BRR  HZ IP     D  525 48.08                             153    0.7310 68.0 294 
 BRR  HE ES        526  3.84                             153    0.6210 68.0 294 
 BRR  HZ I         526  9.29        17.1 0.14            148           68.0 294 
 PAM  SZ EP        525 49.05                             151    0.7110 72.9  43 
 PAM  SN ES        526  5.46                             151    0.4810 72.9  43 
 PAM  SZ I         526  7.94        16.9 0.26            153           72.9  43 
 RUS  HZ EP        525 50.54                             141   -0.1310  107 176 
 RUS  HE ES        526  9.22                             141    0.0910  107 176 
 RUS  HZ I         526 11.63         5.2 0.36            140            107 176 
 PTB  HZ EP     D  525 53.06                             130   -0.54 9  149 256 
 PTB  HN ES        526 13.81                             130   -0.52 9  149 256 
 PTB  HZ I         526 21.50        13.5 0.42            127            149 256 
 OCA  HZ EP        525 53.68                             129   -0.59 9  154 353 
 OCA  HE ES        526 15.17                             129   -0.37 9  154 353 
 OCA  HZ I         526 21.09        17.4 0.32            128            154 353 
 TAM  HE ES        526 15.46                             129   -0.37 9  157 107 
 TAM  HN I         526 17.53        24.8 0.60            130            157 107 
 SPBC HZ EP        525 55.57                             127    0.05 9  168 218 
 SPBC HE ES        526 17.98                             127    0.21 9  168 218 
 SPBC HZ I         526 25.11        20.3 0.26            124            168 218 
 ZAR  HZ EP        525 59.17                             121    0.37 9  201 291 
 ZAR  HN ES        526 23.34                             121   -0.26 9  201 291 
 ZAR  HZ I         526 29.47        17.9 0.38            119            201 291 
 SML  HE ES        526 29.86                             117   -0.63 8  238 335 
 SML  HZ I         526 37.86        15.7 0.10            115            238 335 
 NOR  HZ EP        526  2.05                             117   -0.72 8  238 233 
 NOR  HN ES        526 30.40                             117   -0.27 8  238 233 
 NOR  HZ I         526 35.77         8.3 0.30            115            238 233 
 CHI  HZ EP        526  4.87                             115   -0.18 8  255 195 
 CHI  HN ES        526 33.92                             115   -0.80 8  255 195 
 CHI  HZ I         526 40.27         5.2 0.26            114            255 195 
 ROSC BE ES        526 35.51                             115    0.18 8  258 210 
 HEL  HZ EP        526  7.31                             113    0.24 8  273 254 
 HEL  HE ES        526 38.87                             113    0.56 8  273 254 
 HEL  HZ I         526 45.22         8.1 0.30            111            273 254 
 RREF HZ EP        526 13.68                             109    0.34 7  326 228 
 RREF HN ES   4    526 52.77                             109    3.28 0  326 228 
 RREF HZ I         526 59.10         6.0 0.36            108            326 228 
 TOL  SZ EP        526 16.38                             108    0.85 6  348 224 
 TOL  SN ES        526 53.52                             108    0.15 6  348 224 
 TOL  SZ I         527  0.88         9.8 0.46            106            348 224 
 MON  HZ EP   4    526 12.68                             108   -2.62 0  349 308 
 MON  HE ES   4    526 49.82                             108   -3.15 0  349 308 
 MON  HZ I         526 58.91         1.7 0.30            106            349 308 
 ORTC HZ EP        526 21.00                             105   -0.31 6  400 216 
 ORTC HE ES        527  4.48                             105    0.82 6  400 216 
 ORTC HZ I         527 12.44         4.5 0.48            104            400 216 
                                                                                
