 2012  115 0045 13.3 L   6.775 -73.152154.0  RSN  8 0.4 1.6LRSN                1
 GAP=137        0.90       5.9     5.8  7.3 -0.3586E+00  0.5567E+01  0.1016E+02E
 Epicentro: LOS SANTOS - SANTANDER                                             3
 ACTION:UP  12-02-03 08:17 OP:REBC STATUS:               ID:20120115004513 L   I
 2012-01-15-0040-00M.COL___182                                                 6
 STAT SP IPHASW D HRMM SECON CODA AMPLIT PERI AZIMU VELO SNR AR TRES W  DIS CAZ7
 BAR2 SZ EP   1    045 33.75                             172    -0.1 7   21 189 
 BAR2 SZ I         045 34.09         8.8 0.12                            21 189 
 BAR2 SZ ES   1    045 50.08                             172     0.2 7   21 189 
 GIR2 SZ EP   1    045 33.92                             167    -0.1 7   34 352 
 GIR2 SZ ES   1    045 50.60                             167     0.5 7   34 352 
 BRR  HZ EP   1    045 35.65                             154     0.3 7   72 301 
 BRR  HZ I         045 35.92        14.9 0.15                            72 301 
 BRR  HE ES   1    045 53.01                             154     0.5 7   72 301 
 PAM  SZ EP   1    045 36.59                             151     0.1 7   80  39 
 PAM  SZ I         045 36.81         5.1 0.20                            80  39 
 PAM  SN ES   1    045 53.85                             151    -0.8 7   80  39 
 RUS  HZ EP   1    045 37.63                             146     0.0 7   98 176 
 RUS  HE ES   1    045 56.57                             146    -0.1 7   98 176 
 RUS  HZ I         045 57.35         4.4 0.50                            98 176 
 PTB  HZ EP   1    045 40.62                             134    -0.2 7  147 260 
 PTB  HN ES   1    046  1.48                             134    -0.8 7  147 260 
 ZAR  HE ES   2    046 12.22                             124     0.2 4  204 293 
 ZAR  HZ I         046 18.84         4.5 0.11                           204 293 
 CHI  HZ EP   1    045 51.48                             119     0.4 6  246 195 
 CHI  HZ I         046 24.42         2.0 0.56                           246 195 
                                                                                
