 2013  615 0337 36.8 L   6.839 -73.392121.2  RSN  6 0.4 1.7LRSN                1
 GAP=100        1.01       4.1     5.5  8.9  0.2399E+01  0.2629E+01 -0.7306E+00E
 Epicentro: SAN VICENTE DE CHUCURI - SANTANDER                                 3
 ACTION:UPD 14-01-08 09:54 OP:ep   STATUS:               ID:20130615033736 L   I
 OLDACT:REG 13-06-15 07:24 OP:mh   STATUS:               ID:20130615032959     3
 2013-06-15-0329-59M.COL___261                                                 6
 STAT SP IPHASW D HRMM SECON CODA AMPLIT PERI AZIMU VELO AIN AR TRES W  DIS CAZ7
 GIR2 SZ EP   1    337 53.76                             163    0.11 7 34.4  40 
 BAR2 SZ EP   1    337 54.27                             163    0.43 7 35.8 140 
 BAR2 SZ ES   1    338  7.12                             163   -0.03 7 35.8 140 
 BAR2 SZ I         338  8.52        11.9 0.30            165           35.8 140 
 BRR  HZ EP        337 54.64                             158    0.7210 46.2 310 
 BRR  HN ES        338  7.62                             158    0.3310 46.2 310 
 BRR  HN I         338  9.05        19.2 0.16            157           46.2 310 
 RUS  HZ EP   1    337 58.77                             135   -0.23 7  110 162 
 RUS  HN ES        338 16.04                             135   -0.2910  110 162 
 RUS  HN I         338 18.98         2.8 0.32            138            110 162 
 PTB  HZ EP        337 59.47                             132    0.0410  122 254 
 PTB  HN ES        338 16.66                             132   -0.4410  122 254 
 PTB  HN I         338 21.50         7.4 0.62            132            122 254 
 OCA  HN ES        338 22.39                             124   -0.66 9  155   3 
 OCA  HN I         338 27.47        17.5 0.34            126            155   3 
                                                                                
