 2011  115 0838  4.1 L   6.787 -73.137146.1  RSN 10 0.3 1.9LRSN                1
 GAP=160        0.60       2.6     4.4  4.7 -0.5128E+01  0.5609E+01 -0.7521E+00E
 Epicentro: LOS SANTOS - SANTANDER                                             3
 ACTION:UP  11-02-08 08:40 OP:pat  STATUS:               ID:20110115083804 L   I
 2011-01-15-0837-54S.COL___135                                                 6
 STAT SP IPHASW D HRMM SECON CODA AMPLIT PERI AZIMU VELO SNR AR TRES W  DIS CAZ7
 BTL  SZ EP        838 23.87                             172     0.210   20 315 
 BTL  SZ ES   1    838 39.16                             172     0.2 7   20 315 
 BAR2 SZ IP        838 23.63                             171    -0.110   22 193 
 BAR2 SZ ES   1    838 38.44                             171    -0.6 7   22 193 
 BAR2 SZ I         838 40.42        19.1 0.24                            22 193 
 GIR2 SZ EP   1    838 23.75                             167    -0.1 7   33 349 
 RUS  HZ EP   1    838 27.48                             144    -0.3 7   99 177 
 RUS  HN ES   1    838 46.57                             144     0.3 7   99 177 
 RUS  HZ I         838 47.90         3.8 0.27                            99 177 
 GRA  SZ IP        838 29.44                             137     0.010  127  17 
 GRA  SZ ES   1    838 49.41                             137     0.2 7  127  17 
 GRA  SZ I         838 50.71        15.4 0.28                           127  17 
 OCA  SZ EP   1    838 32.32                             129    -0.2 7  162 353 
 OCA  SZ ES   1    838 55.02                             129     0.2 7  162 353 
 OCA  SZ I         838 58.82        16.0 0.36                           162 353 
 NOR  SZ EP   1    838 39.69                             118    -0.1 6  235 235 
 NOR  SN ES   1    839  7.77                             118     0.0 6  235 235 
 CHI  HZ EP   1    838 41.78                             117     0.1 6  248 195 
 CHI  HE ES   2    839 11.54                             117     0.5 4  248 195 
 CHI  HZ I         839 19.16         4.1 0.39                           248 195 
 HEL  HN ES   1    839 15.64                             115    -0.2 6  273 256 
 HEL  HZ I         839 22.65         3.6 0.37                           273 256 
 RREF HE ES   2    839 26.66                             111     0.5 3  322 230 
 RREF HZ I         839 36.16         7.1 0.33                           322 230 
                                                                                
