 2012 1015 0655 21.1 L   6.755 -73.093143.2  RSN  4 0.1 1.4LRSN                1
 GAP=145        0.33       2.2     3.3  3.2  0.3443E+00 -0.9355E-01  0.5432E+00E
 Epicentro: LOS SANTOS - SANTANDER                                             3
 ACTION:UPD 12-11-22 17:04 OP:ep   STATUS:               ID:20121015065521 L   I
 2012-10-15-0650-00M.COL___230                                                 6
 STAT SP IPHASW D HRMM SECON CODA AMPLIT PERI AZIMU VELO AIN AR TRES W  DIS CAZ7
 BAR2 SZ EP        655 40.35                             171   -0.0510 20.6 209 
 BAR2 SZ ES   1    655 55.32                             171   -0.11 7 20.6 209 
 BAR2 SZ I         655 56.82        13.1 0.24                          20.6 209 
 PAM  SZ EP   1    655 43.27                             150    0.16 7 77.8  34 
 PAM  SZ I         655 43.60         4.2 0.21                          77.8  34 
 PAM  SN ES   1    656  0.19                             150   -0.05 7 77.8  34 
 BRR  HZ EP        655 42.37                             150   -0.0910 78.7 300 
 BRR  HN ES   1    655 59.22                             150    0.14 7 78.7 300 
 BRR  HZ I         656  3.50         4.2 0.09                          78.7 300 
 RUS  HZ EP        655 44.27                             145    0.0110 95.4 179 
 RUS  HZ I         655 45.30         2.1 0.12                          95.4 179 
 RUS  HE ES   1    656  2.40                             145    0.10 7 95.4 179 
                                                                                
