 2012  215 0544 38.5 L   7.455 -73.163124.0  RSN 10 0.5 2.2LRSN                1
 GAP=193        0.75       6.1     5.0  7.1  0.1041E+01  0.8435E+01  0.4835E+01E
 ACTION:UP  12-03-07 16:30 OP:epov STATUS:               ID:20120215054438 L   I
 2012-02-15-0540-00M.COL___186                                                 6
 STAT SP IPHASW D HRMM SECON CODA AMPLIT PERI AZIMU VELO AIN AR TRES W  DIS CAZ7
 PAM  SZ EP   1    544 57.34                             156    0.38 7 52.8 104 
 PAM  SN ES   2    545 11.76                             156    0.38 5 52.8 104 
 BRR  HZ EP   1    544 57.18                             148   -0.16 7 71.7 238 
 BRR  HN ES   1    545 12.58                             148    0.51 7 71.7 238 
 BRR  HZ I         545 13.33        54.0 0.37                          71.7 238 
 BAR2 SZ EP   1    544 59.02                             140   -0.36 7 95.4 181 
 BAR2 SZ ES   2    545 15.07                             140   -0.62 5 95.4 181 
 BAR2 SZ I         545 16.65        40.8 0.35                          95.4 181 
 RUS  HZ EP   2    545  6.38                             123   -0.54 4  173 177 
 RUS  HE ES   2    545 28.79                             123   -0.33 4  173 177 
 PTB  HZ EP   1    545  5.75                             122   -0.77 7  175 235 
 PTB  HE ES   2    545 28.34                             122   -0.06 4  175 235 
 ZAR  HZ EP   1    545  7.39                             120   -0.38 7  187 271 
 ZAR  HN ES   2    545 30.64                             120    0.01 4  187 271 
 ZAR  HZ I         545 33.78        31.1 0.34                           187 271 
 NOR  SZ EP   2    545 19.36                             109    0.99 4  282 222 
 NOR  SE ES   2    545 50.30                             109    0.80 4  282 222 
 HEL  HZ EP   2    545 21.43                             108    0.95 4  296 242 
 HEL  HZ I         545 59.08         4.9 0.19                           296 242 
 CHI  HZ EP   1    545 23.47                             107    0.35 5  319 191 
 CHI  HN ES   2    545 58.70                             107    0.75 3  319 191 
 CHI  HZ I         546  3.99         2.4 0.47                           319 191 
 RREF HE ES   2    546  9.50                             104   -0.05 3  372 221 
 RREF HZ I         546 16.87         4.7 0.36                           372 221 
                                                                                
