 2015 1115 0443  6.2 L   6.778 -73.143140.0  RSN 15 0.6 2.1LRSN                1
 GAP=111        1.37       4.0     4.2  7.7  0.3867E+00  0.7720E+01 -0.4671E+00E
 Epicentro: LOS SANTOS - SANTANDER                                             3
 ACTION:UP  16-04-29 20:03 OP:cam  STATUS:               ID:20151115044306 L   I
 OLDACT:UPD 16-03-10 17:11 OP:cam  STATUS:               ID:20151115044306 L   3
 OLDACT:UP  15-11-19 06:51 OP:CARA STATUS:               ID:20151115044306 L   3
 OLDACT:REG 15-11-15 11:50 OP:dnl  STATUS:               ID:20151115043750     3
 2015-11-15-0437-50M.COL___322                                                 6
 STAT SP IPHASW D HRMM SECON CODA AMPLIT PERI AZIMU VELO AIN AR TRES W  DIS CAZ7
 BAR2 EZ EP        443 24.85                             171   -0.2210 21.0 192 
 BAR2 EZ ES        443 40.18                             171    0.3710 21.0 192 
 BAR2 EZ I         443 40.97        18.7 0.22            171           21.0 192 
 BRR  HZ IP     C  443 27.05                             151    0.2610 72.6 300 
 BRR  HN ES   1    443 43.31                             151    0.44 7 72.6 300 
 BRR  HZ I         443 44.98        23.6 0.18            145           72.6 300 
 RUS  HZ EP        443 28.74                             143   -0.4510 98.2 176 
 RUS  HN ES        443 46.83                             143   -0.3110 98.2 176 
 RUS  HZ I         443 48.26        13.2 0.30            146           98.2 176 
 TAM  HZ EP        443 33.06                             129   -0.27 9  154 104 
 TAM  HE ES        443 54.90                             129    0.40 9  154 104 
 TAM  HZ I         443 55.41        10.0 0.44            132            154 104 
 SPBC HZ EP        443 33.80                             128   -0.28 9  161 220 
 SPBC HN ES        443 55.50                             128   -0.34 9  161 220 
 SPBC HZ I         443 58.08        17.3 0.20            127            161 220 
 OCA  HE ES        443 55.85                             128   -0.35 9  163 353 
 OCA  HZ I         444  5.80        27.6 0.50            125            163 353 
 ZAR  HZ EP        443 38.14                             121   -0.24 9  205 293 
 ZAR  HE ES        444  4.08                             121    0.59 9  205 293 
 ZAR  HZ I         444  9.09        22.5 0.26            118            205 293 
 NOR  HZ EP        443 41.06                             117   -0.39 8  234 235 
 NOR  HE ES        444  8.64                             117   -0.33 8  234 235 
 NOR  HZ I         444 10.51         9.2 0.36            116            234 235 
 SML  HZ EP        443 41.75                             116   -0.99 8  246 335 
 SML  HN ES   1    444 11.39                             116    0.13 6  246 335 
 SML  HZ I         444 14.37        18.0 0.10            114            246 335 
 CHI  HZ EP        443 44.89                             116    1.57 8  246 195 
 CHI  HN ES   2    444 12.22                             116   -0.07 4  246 195 
 HEL  HZ EP        443 47.85                             114    1.78 8  272 256 
 HEL  HE ES        444 17.03                             114   -0.15 8  272 256 
 HEL  HZ I         444 23.75         5.8 0.26            112            272 256 
 URE  HZ EP   9    443 45.92                             112   -1.19 0  285 292 
 URE  HN ES   1    444 17.63                             112   -0.21 6  285 292 
 URE  HZ I         444 29.86         8.3 0.18            110            285 292 
 GUY2CHZ EP   4    443 50.54                             111    1.14 0  300 235 
 GUY2CHE ES        444 22.52                             111   -0.58 7  300 235 
 GUY2CHZ I         444 31.37         6.9 0.50                           300 235 
 CBOC HE ES   4    444 27.85                             109   -1.32 0  333 252 
 CBOC HZ I         444 45.49         2.7 0.42            108            333 252 
 MON  HZ EP   4    443 52.59                             107   -2.57 0  355 309 
 MON  HE ES   4    444 31.33                             107   -2.04 0  355 309 
 MON  HZ I         444 50.25         2.8 0.38            106            355 309 
                                                                                
