 2011  915 0038 43.0 L   6.790 -73.082148.0  RSN 13 0.2 2.3LRSN                1
 GAP=145        0.36       1.7     2.7  3.0 -0.8081E+00  0.2361E+01  0.7862E+00E
 Epicentro: LOS SANTOS - SANTANDER                                             3
 ACTION:UPD 12-07-13 15:57 OP:ep   STATUS:               ID:20110915003843 L   I
 2011-09-15-0037-10S.COL___169                                                 6
 STAT SP IPHASW D HRMM SECON CODA AMPLIT PERI AZIMU VELO AIN AR TRES W  DIS CAZ7
 BAR2 SZ IP        039  3.00                             170    0.0610 24.5 207 
 BAR2 SZ I         039  3.37        58.3 0.17                          24.5 207 
 BAR2 SZ ES   2    039 17.90                             170   -0.59 5 24.5 207 
 GIR2 SZ EP   1    039  3.14                             166    0.10 7 34.3 339 
 GIR2 SZ ES   2    039 19.14                             166    0.48 5 34.3 339 
 PAM  SZ EP   2    039  5.12                             152   -0.16 5 74.0  35 
 PAM  SN ES   2    039 22.75                             152    0.10 5 74.0  35 
 BRR  HZ EP   1    039  4.90                             151    0.10 7 78.0 297 
 BRR  HE ES   2    039 22.03                             151    0.24 5 78.0 297 
 BRR  HZ I         039 25.41        46.6 0.28                          78.0 297 
 RUS  HZ EP   1    039  6.82                             145   -0.08 7 99.2 180 
 RUS  HN ES   2    039 25.13                             145   -0.39 5 99.2 180 
 RUS  HZ I         039 26.63        14.2 0.24                          99.2 180 
 OCA  SZ EP   1    039 11.74                             130    0.04 7  162 351 
 OCA  SZ ES   2    039 34.07                             130   -0.01 5  162 351 
 OCA  SZ I         039 39.88        17.8 0.38                           162 351 
 ZAR  HZ EP   2    039 16.04                             122   -0.29 4  211 292 
 ZAR  HE ES   2    039 42.28                             122   -0.03 4  211 292 
 ZAR  HZ I         039 47.89        23.2 0.34                           211 292 
 NOR  SZ EP   1    039 19.43                             118    0.00 6  240 236 
 NOR  SN ES   2    039 47.72                             118   -0.11 4  240 236 
 CHI  HZ EP   1    039 20.86                             117   -0.07 6  249 197 
 CHI  HN ES   2    039 50.94                             117    0.43 4  249 197 
 CHI  HZ I         039 59.87         9.1 0.61                           249 197 
 HEL  HZ EP   2    039 23.76                             115   -0.31 4  279 256 
 HEL  HN ES   2    039 55.73                             115   -0.36 4  279 256 
 HEL  HZ I         040  0.09        10.9 0.32                           279 256 
 RREF HZ EP   2    039 29.78                             111   -0.01 3  326 230 
 RREF HN ES   2    040  6.57                             111    0.30 3  326 230 
 RREF HZ I         040 15.51        12.2 0.40                           326 230 
 COD  HZ EP   2    039 31.59                             109   -0.11 3  350 353 
 COD  HN ES   2    040  9.23                             109   -0.44 3  350 353 
 COD  HZ I         040 18.24        14.5 0.76                           350 353 
 PRA  HZ EP   1    039 37.33                             107    0.41 4  395 211 
 PRA  HE ES   2    040 19.08                             107    0.13 3  395 211 
                                                                                
