 2010  915 0725 36.4 L   6.829 -73.038136.7  RSN  5 0.3 1.6LRSN                1
 GAP=170        0.68       6.0    10.5 11.0  0.2525E+01 -0.4711E+02 -0.1529E+02E
 Epicentro: CEPITA - SANTANDER                                                 3
 ACTION:UP  11-02-18 11:02 OP:tino STATUS:               ID:20100915072536 L   I
 2010-09-15-0722-13S.COL___119                                                 6
 STAT SP IPHASW D HRMM SECON CODA AMPLIT PERI AZIMU VELO SNR AR TRES W  DIS CAZ7
 BTL  SZ EP        725 54.83                             169    -0.210   27 291 
 BAR2 SZ EP        725 55.02                             168    -0.110   31 212 
 BAR2 SZ ES   2    726  9.67                             168     0.0 5   31 212 
 BAR2 SZ I         726 11.27         9.2 0.27                            31 212 
 BRR  HZ EP        725 56.81                             149    -0.310   81 293 
 BRR  HZ I         725 57.04        16.5 0.20                            81 293 
 BRR  HN ES   2    726 13.78                             149     0.5 5   81 293 
 RUS  HZ EP   1    725 59.76                             141     0.3 7  104 183 
 RUS  HN ES   3    726 17.37                             141    -0.1 2  104 183 
 RUS  HZ I         726 19.15         3.7 0.28                           104 183 
 GRA  SZ EP        726  0.63                             136     0.310  120  12 
 GRA  SZ ES   3    726 18.27                             136    -0.7 2  120  12 
 GRA  SZ I         726 21.78         4.5 0.25                           120  12 
                                                                                
