 2012  715 0659 17.3 L   6.801 -73.154144.3  RSN 13 0.4 2.7LRSN                1
 GAP= 65        0.97       3.4     3.7  5.6  0.6362E+00  0.2080E+01  0.3654E+01E
 Epicentro: LOS SANTOS - SANTANDER                                             3
 ACTION:UPD 12-08-14 11:44 OP:ep   STATUS:               ID:20120715065917 L   I
 2012-07-15-0654-36M.COL___199                                                 6
 STAT SP IPHASW D HRMM SECON CODA AMPLIT PERI AZIMU VELO AIN AR TRES W  DIS CAZ7
 BAR2 SZ IP        659 36.89                             170     0.110   23 188 
 BAR2 SZ ES   1    659 51.71                             170    -0.2 7   23 188 
 BAR2 SZ I         659 53.06       129.9 0.30            165             23 188 
 BRR  HZ IP     C  659 38.69                             153     0.410   70 299 
 BRR  HN ES        659 55.09                             153     0.510   70 299 
 BRR  HZ I         659 59.01       157.1 0.27            142             70 299 
 PAM  SZ EP        659 39.50                             150     0.110   78  40 
 PAM  SE ES        659 56.73                             150     0.110   78  40 
 RUS  HZ EP        659 40.90                             143     0.010  101 176 
 RUS  HN ES        659 58.87                             143    -0.510  101 176 
 RUS  HZ I         7 0  1.45        64.2 0.36            138            101 176 
 PTB  HZ EP        659 43.51                             132    -0.6 9  147 259 
 PTB  HN ES   1    7 0  4.58                             132    -0.4 7  147 259 
 PTB  HZ I         7 0  8.20        67.3 0.27            123            147 259 
 TAM  HZ EP        659 45.10                             130     0.2 9  156 105 
 OCA  HZ EP   1    659 44.79                             129    -0.7 7  160 353 
 OCA  HN ES   1    7 0  6.89                             129    -0.6 7  160 353 
 OCA  HZ I         7 0 13.32        71.6 0.34            123            160 353 
 YOP  SZ EP        659 47.47                             126     0.2 9  179 153 
 YOP  SN ES   2    7 0 10.45                             126    -0.2 4  179 153 
 YOP  SZ I         7 0 14.94        30.2 0.31            121            179 153 
 ZAR  HZ EP   1    659 48.98                             122    -0.6 6  203 292 
 ZAR  HN ES   1    7 0 14.97                             122     0.3 6  203 292 
 ZAR  HZ I         7 0 20.79       116.7 0.30            114            203 292 
 NOR  SZ EP   1    659 52.65                             118    -0.2 6  234 234 
 NOR  SN ES   1    7 0 20.65                             118     0.0 6  234 234 
 CHI  HZ EP   1    659 55.11                             117     0.2 6  248 195 
 CHI  HN ES   1    7 0 24.60                             117     0.4 6  248 195 
 CHI  HZ I         7 0 29.95        23.2 0.30            111            248 195 
 HEL  HZ EP   1    659 58.31                             115     1.0 6  271 256 
 HEL  HZ I         7 0 35.78        31.3 0.40            108            271 256 
 DBB  SZ EP   2    7 0  4.45                             109    -0.2 3  339 274 
