 2014 1015 0617 20.6 L   6.767 -73.158137.4  RSN  5 0.3 1.5LRSN                1
 GAP=149        0.70       4.5     4.3  7.3 -0.6750E+01  0.1496E+02 -0.9104E+01E
 Epicentro: LOS SANTOS - SANTANDER                                             3
 ACTION:UPD 14-11-29 23:50 OP:nd   STATUS:               ID:20141015061720 L   I
 OLDACT:UP  14-10-15 17:15 OP:mh   STATUS:               ID:20141015060742d    3
 OLDACT:DUP 14-10-15 16:57 OP:mh   STATUS:               ID:20141015060742d    3
 2014-10-15-0607-41M.COL___292                                                 6
 STAT SP IPHASW D HRMM SECON CODA AMPLIT PERI AZIMU VELO AIN AR TRES W  DIS CAZ7
 BAR2 SZ EP   1    617 39.47                             172    0.29 8 19.5 188 
 BAR2 SZ ES   1    617 53.24                             172   -0.41 8 19.5 188 
 BAR2 SZ I         617 55.83         8.9 0.12            175           19.5 188 
 PAM  SZ EP   1    617 42.49                             148    0.29 8 81.1  39 
 PAM  SN ES   1    617 59.05                             148    0.03 8 81.1  39 
 PAM  SZ I         618  2.30         5.3 0.63            149           81.1  39 
 PTB  HZ EP        617 46.73                             130   -0.0210  146 260 
 PTB  HN ES   1    618  7.03                             130   -0.08 7  146 260 
 SPBC HN ES        618  9.75                             128    0.1510  159 219 
 ZAR  HZ EP        617 51.96                             120   -0.60 9  204 293 
 ZAR  HN ES        618 17.83                             120    0.36 9  204 293 
 ZAR  HZ I         618 24.13         3.9 0.30            122            204 293 
                                                                                
