 2015 1015 0928 25.3 L   6.818 -73.153137.2  RSN  8 0.4 1.7LRSN                1
 GAP= 82        1.01       4.5     3.8  6.0 -0.3374E+01  0.5303E+01  0.3774E+01E
 Epicentro: LOS SANTOS - SANTANDER                                             3
 ACTION:UPD 15-12-22 20:40 OP:cam  STATUS:               ID:20151015092825 L   I
 OLDACT:REG 15-10-15 14:40 OP:ak   STATUS:               ID:20151015091741     3
 2015-10-15-0917-41M.COL___337                                                 6
 STAT SP IPHASW D HRMM SECON CODA AMPLIT PERI AZIMU VELO AIN AR TRES W  DIS CAZ7
 BAR2 EZ EP        928 43.73                             169   -0.2110 25.2 187 
 BAR2 EZ ES        928 58.31                             169   -0.1710 25.2 187 
 BAR2 EZ I         928 59.46        12.1 0.18            172           25.2 187 
 BRR  HZ IP     D  928 45.76                             152    0.3310 69.5 297 
 BRR  HZ I         928 45.86        11.3 0.26            148           69.5 297 
 BRR  HN ES        929  1.47                             152    0.3410 69.5 297 
 PAM  EZ IP     C  928 46.80                             150    0.2610 76.4  41 
 PAM  EZ I         928 46.94        11.8 0.16            149           76.4  41 
 PAM  EN ES        929  3.42                             150    0.3110 76.4  41 
 TAM  HZ EP        928 52.06                             128   -0.37 9  156 106 
 TAM  HZ I         928 52.80         6.1 0.48            130            156 106 
 OCA  HZ EP        928 52.66                             128   -0.09 9  158 353 
 OCA  HN ES        929 13.47                             128   -0.69 9  158 353 
 OCA  HZ I         929 21.86        11.6 0.32            126            158 353 
 ZAR  HZ EP        928 56.86                             121   -0.18 9  203 292 
 ZAR  HN ES        929 21.90                             121    0.10 9  203 292 
 ZAR  HZ I         929 26.25         3.1 0.40            119            203 292 
 HEL  HZ EP        929  6.12                             113    1.07 8  272 255 
 HEL  HN ES        929 35.45                             113   -0.61 8  272 255 
 HEL  HZ I         929 42.70         2.6 0.28            113            272 255 
 GUY2CHZ EP   1    929  9.05                             111    0.47 5  302 234 
 GUY2CHN ES        929 41.89                             111   -0.45 7  302 234 
 GUY2CHZ I         929 49.09         2.2 0.24                           302 234 
                                                                                
