 2015  315 0147  1.8 L   6.825 -73.152144.2  RSN 20 0.5 2.2LRSN                1
 GAP= 70        1.08       3.1     3.3  5.7 -0.1836E+01  0.3690E+01  0.1926E+01E
 Epicentro: LOS SANTOS - SANTANDER                                             3
 ACTION:UPD 15-04-30 16:25 OP:nd   STATUS:               ID:20150315014701 L   I
 OLDACT:DUP 15-03-15 14:49 OP:spq  STATUS:               ID:20150315013746d    3
 2015-03-15-0137-45M.COL___257                                                 6
 STAT SP IPHASW D HRMM SECON CODA AMPLIT PERI AZIMU VELO AIN AR TRES W  DIS CAZ7
 BAR2 EZ EP     C  147 21.26                             169    0.0010 25.9 187 
 BAR2 EZ ES   1    147 36.00                             169   -0.47 7 25.9 187 
 BAR2 EZ I         147 38.06        38.1 0.38            167           25.9 187 
 BRR  HZ IP     C  147 22.97                             153    0.3410 69.3 297 
 BRR  HN ES        147 39.89                             153    0.9810 69.3 297 
 BRR  HZ I         147 43.69        37.9 0.78            150           69.3 297 
 PAM  SZ EP     C  147 23.88                             151    0.1710 75.8  41 
 PAM  SN ES        147 41.01                             151    0.1710 75.8  41 
 PAM  SZ I         147 43.00        41.9 0.50            156           75.8  41 
 RUS  HZ EP        147 25.31                             143   -0.2510  103 176 
 RUS  HE ES        147 43.61                             143   -0.5210  103 176 
 RUS  HZ I         147 45.41        17.1 0.30            143            103 176 
 PTB  HZ EP        147 27.91                             132   -0.67 9  148 258 
 PTB  HN ES   1    147 48.92                             132   -0.59 7  148 258 
 PTB  HZ I         147 53.44        21.8 0.16            130            148 258 
 OCA  HE ES        147 51.38                             130   -0.08 9  157 353 
 OCA  HZ I         147 58.42        23.7 0.20            132            157 353 
 TAM  HZ EP     D  147 29.71                             130    0.26 9  157 106 
 TAM  HZ I         147 50.25        12.0 0.42            134            157 106 
 TAM  HE ES        147 51.26                             130    0.21 9  157 106 
 OCA  HZ EP        147 29.28                             130   -0.40 9  157 353 
 SPBC HZ EP        147 30.28                             128   -0.02 9  165 218 
 SPBC HN ES   1    147 51.93                             128   -0.63 7  165 218 
 SPBC HZ I         148  0.28        26.5 0.22            128            165 218 
 NOR  HZ EP        147 38.21                             118    0.70 8  236 234 
 NOR  HE ES        148  5.09                             118   -0.30 8  236 234 
 NOR  HZ I         148  9.35        12.0 0.36            118            236 234 
 SML  HZ EP   1    147 37.58                             117   -0.41 6  241 335 
 SML  HN ES   1    148  5.65                             117   -0.60 6  241 335 
 ROSC BZ EP   4    147 42.10                             116    2.09 0  255 211 
 ROSC BN ES   4    148 12.70                             116    2.85 0  255 211 
 ROSC BZ I         148 16.92        20.4 0.45            117            255 211 
 HEL  HZ EP   4    147 43.11                             114    1.22 0  272 255 
 HEL  HN ES   1    148 13.95                             114    0.76 6  272 255 
 HEL  HZ I         148 20.39         5.1 0.58            115            272 255 
 GUY2CHZ EP   4    147 47.90                             112    2.49 0  302 234 
 GUY2CHE ES   4    148 20.85                             112    1.39 0  302 234 
 GUY2CHZ I         148 28.73         6.8 0.32                           302 234 
 PTGC HZ EP   4    147 44.81                             111   -1.06 0  312 159 
 RREF HZ EP   4    147 50.16                             110    2.18 0  323 229 
 RREF HE ES   4    148 26.02                             110    2.00 0  323 229 
 RREF HZ I         148 33.25         8.0 0.24            111            323 229 
 CBOC HZ EP   1    147 49.28                             110    0.65 5  334 252 
 CBOC HN ES   1    148 24.69                             110   -0.49 5  334 252 
 CBOC HZ I         148 35.32         2.5 0.26            110            334 252 
 TOL  SZ EP   4    147 51.43                             109    1.31 0  345 224 
 TOL  SN ES   4    148 30.11                             109    2.27 0  345 224 
 TOL  SZ I         148 32.30         3.7 0.30            109            345 224 
 MON  HZ EP   4    147 48.45                             108   -1.98 0  351 308 
 MON  HN ES   4    148 26.72                             108   -1.68 0  351 308 
 MON  HZ I         148 27.33         2.7 0.58            109            351 308 
 SDV  BZ EP   1    147 50.61                             108   -0.99 5  359  51 
 SDV  BE ES   4    148 28.20                             108   -2.28 0  359  51 
 SDV  BZ I         148 29.82         4.0 0.40            110            359  51 
 PRA  HZ EP   1    147 56.14                             106    0.67 4  394 209 
 PRA  HN ES        148 38.11                             106    0.75 6  394 209 
 PRA  HZ I         148 45.24        10.1 0.36            107            394 209 
 ORTC HZ EP        147 56.49                             106    0.65 6  397 216 
 ORTC HN ES   4    148 40.04                             106    2.02 0  397 216 
 ORTC HZ I         148 43.49         6.1 0.46            107            397 216 
                                                                                
