 2016  115 0304  0.9 L   6.809 -73.153147.4  RSN 19 0.4 2.1LRSN                1
 GAP= 70        0.97       2.3     3.3  4.6 -0.1551E+01  0.1822E+01  0.6709E+00E
 Epicentro: LOS SANTOS - SANTANDER                                             3
 ACTION:UPD 16-03-09 23:25 OP:cam  STATUS:               ID:20160115030400 L   I
 OLDACT:UP  16-02-25 14:33 OP:cam  STATUS:               ID:20160115030400 L   3
 OLDACT:UP  16-02-23 20:52 OP:AR   STATUS:               ID:20160115030400 L   3
 OLDACT:UP  16-01-15 13:36 OP:drio STATUS:               ID:20160115025747     3
 OLDACT:REG 16-01-15 12:11 OP:drio STATUS:               ID:20160115025747     3
 2016-01-15-0257-47M.COL___336                                                 6
 STAT SP IPHASW D HRMM SECON CODA AMPLIT PERI AZIMU VELO AIN AR TRES W  DIS CAZ7
 BAR2 EZ EP        3 4 20.69                             170   -0.0910 24.1 188 
 BAR2 EZ ES        3 4 35.69                             170   -0.5610 24.1 188 
 BAR2 EZ I         3 4 36.87        28.1 0.24            168           24.1 188 
 BRR  HZ EP        3 4 22.34                             153    0.1410 70.0 298 
 BRR  HN ES        3 4 39.69                             153    0.9110 70.0 298 
 BRR  HZ I         3 4 42.72        21.4 0.28            149           70.0 298 
 PAM  EZ EP        3 4 23.62                             151    0.3010 77.2  40 
 PAM  EN ES        3 4 40.75                             151   -0.0210 77.2  40 
 PAM  EZ I         3 4 41.29        10.7 0.22            155           77.2  40 
 RUS  HZ EP        3 4 24.73                             144   -0.1910  102 176 
 RUS  HN ES        3 4 43.62                             144   -0.0110  102 176 
 RUS  HZ I         3 4 45.83         9.8 0.70            145            102 176 
 PTB  HZ EP        3 4 27.32                             132   -0.66 9  147 258 
 PTB  HN ES        3 4 48.57                             132   -0.50 9  147 258 
 PTB  HZ I         3 4 53.53        13.1 0.48            130            147 258 
 TAM  HZ EP        3 4 29.05                             131    0.21 9  156 105 
 TAM  HN ES   4    3 4 48.05                             131   -2.56 0  156 105 
 OCA  HZ EP        3 4 29.68                             130    0.40 9  159 353 
 OCA  HE ES        3 4 51.18                             130   -0.20 9  159 353 
 OCA  HZ I         3 4 59.10        26.7 0.28            130            159 353 
 SPBC HZ EP        3 4 29.65                             129    0.07 9  163 219 
 SPBC HE ES        3 4 51.62                             129   -0.30 9  163 219 
 SPBC HZ I         3 4 56.68        21.0 0.14            128            163 219 
 ZAR  HZ EP   4    3 4 34.92                             123    1.55 0  203 292 
 ZAR  HN ES        3 4 58.21                             123   -0.46 9  203 292 
 ZAR  HZ I         3 5  4.90        14.3 0.32            121            203 292 
 NOR  HZ EP        3 4 36.65                             119   -0.10 8  235 234 
 NOR  HN ES        3 5  5.19                             119    0.51 8  235 234 
 NOR  HZ I         3 5 11.94         7.9 0.16            118            235 234 
 SML  HZ EP        3 4 37.23                             118   -0.30 8  242 335 
 SML  HE ES        3 5  6.52                             118    0.46 8  242 335 
 SML  HZ I         3 5 10.82        14.8 0.10            118            242 335 
 CHI  HZ EP        3 4 38.87                             117    0.07 8  249 195 
 CHI  HN ES        3 5  8.37                             117    0.03 8  249 195 
 CHI  HZ I         3 5 13.32         8.1 0.38            118            249 195 
 ROSC BZ EP   4    3 4 40.83                             117    1.64 0  253 211 
 ROSC BE ES        3 5  9.61                             117    0.59 8  253 211 
 ROSC BZ I         3 5 15.38        21.3 0.40            117            253 211 
 HEL  HZ EP   4    3 4 42.26                             115    1.09 0  271 256 
 HEL  HN ES   4    3 5 11.07                             115   -1.48 0  271 256 
 HEL  HZ I         3 5 19.26         5.2 0.24            114            271 256 
 GUY2CHZ EP        3 4 45.11                             113    0.50 7  301 235 
 GUY2CHN ES   4    3 5 21.27                             113    2.60 0  301 235 
 GUY2CHZ I         3 5 27.11         5.9 0.58                           301 235 
 LL6C HZ EP        3 4 45.98                             111   -0.62 7  324 358 
 LL6C HN ES   4    3 5 20.64                             111   -1.57 0  324 358 
 ELA  HZ EP   4    3 4 51.26                             111    3.40 0  329 229 
 ELA  HN ES        3 5 24.66                             111    0.21 7  329 229 
 ELA  HZ I         3 5 32.50         4.8 0.36            110            329 229 
 PRA  HZ EP        3 4 54.11                             107   -0.45 6  392 209 
 PRA  HE ES   4    3 5 35.97                             107   -0.42 0  392 209 
 PRA  HZ I         3 5 43.19         6.9 0.22            107            392 209 
 SJC  HZ EP   4    3 4 54.35                             106   -2.06 0  408 327 
 SJC  HN ES   4    3 5 33.88                             106   -5.79 0  408 327 
 SJC  HZ I         3 5 45.42         2.1 0.56            106            408 327 
                                                                                
