 2012  215 0229 50.1 L   6.748 -73.161148.6  RSN  4 0.4 1.1LRSN                1
 GAP=180        0.64       7.8     8.8 10.1  0.1676E+02  0.9159E+01  0.9345E+01E
 ACTION:UP  12-03-07 16:30 OP:epov STATUS:               ID:20120215022950 L   I
 2012-02-15-0230-00M.COL___188                                                 6
 STAT SP IPHASW D HRMM SECON CODA AMPLIT PERI AZIMU VELO AIN AR TRES W  DIS CAZ7
 GIR2 SZ EP   2    230 10.70                             165    0.42 5 36.8 354 
 GIR2 SZ ES   2    230 25.22                             165   -0.79 5 36.8 354 
 BRR  HZ EP   1    230 11.65                             152    0.00 7 72.7 303 
 BRR  HN ES   2    230 29.18                             152    0.72 5 72.7 303 
 RUS  HZ EP   2    230 13.44                             146   -0.31 5 94.9 175 
 RUS  HE ES   2    230 32.52                             146    0.33 5 94.9 175 
 RUS  HZ I         230 32.97         2.2 0.26                          94.9 175 
 PTB  HZ EP   2    230 17.00                             133   -0.07 5  145 261 
 PTB  HN ES   2    230 37.75                             133   -0.35 5  145 261 
                                                                                
