 2010  815 0341 20.6 L   6.887 -73.330118.9  RSN  4 0.1 1.1LRSN                1
 GAP=147        0.33       4.5     6.1  7.7 -0.1010E+02 -0.3188E+02  0.1479E+02E
 Epicentro: BETULIA - SANTANDER                                                3
 ACTION:UP  10-09-07 10:55 OP:vdl  STATUS:               ID:20100815034120 L   I
 2010-08-15-0339-11S.COL___111                                                 6
 STAT SP IPHASW D HRMM SECON CODA AMPLIT PERI AZIMU VELO SNR AR TRES W  DIS CAZ7
 BTL  SZ EP        341 36.90                             176     0.110    8  63 
 BAR2 SZ EP   1    341 37.36                             162    -0.1 7   36 154 
 BAR2 SZ I         341 51.50         4.0 0.37                            36 154 
 BRR  HZ EP   1    341 37.62                             156     0.0 7   49 300 
 BRR  HZ I         341 47.71         2.6 0.46                            49 300 
 BRR  HE ES   1    341 50.91                             156     0.0 7   49 300 
 GUE  SZ EP   2    341 42.73                             133     0.0 5  114  23 
 GUE  SZ ES   2    341 59.91                             133    -0.1 5  114  23 
                                                                                
