 2012 1215 0721 13.3 L   6.704 -73.214148.7  RSN  4 0.3 0.8LRSN                1
 GAP=215        0.58       6.3     6.4  7.5  0.2136E+02  0.3441E+01  0.3044E+01E
 Epicentro: VILLANUEVA - SANTANDER                                             3
 ACTION:UPD 13-01-04 14:28 OP:ep   STATUS:               ID:20121215072113 L   I
 2012-12-15-0719-48M.COL___204                                                 6
 STAT SP IPHASW D HRMM SECON CODA AMPLIT PERI AZIMU VELO AIN AR TRES W  DIS CAZ7
 BAR2 SZ ES   1    721 48.16                             175   -0.40 7 12.8 164 
 BRR  HZ EP   1    721 34.86                             153    0.13 7 70.8 309 
 BRR  HE ES   1    721 51.70                             153    0.25 7 70.8 309 
 RUS  HZ EP   1    721 36.46                             147   -0.20 7 90.9 171 
 RUS  HN ES   1    721 55.26                             147    0.37 7 90.9 171 
 RUS  HZ I         721 56.61         0.9 0.56                          90.9 171 
 PTB  HN ES   1    722  0.11                             135   -0.16 7  139 263 
 PTB  HZ I         722  2.56         0.9 0.16                           139 263 
                                                                                
