 2016  515 0742 47.9 L   6.783 -73.084147.9  RSN  8 0.4 1.7LRSN                1
 GAP=216        0.92       3.8     6.4  6.2 -0.3194E+01  0.9374E+01  0.4213E+01E
 Epicentro: LOS SANTOS - SANTANDER                                             3
 ACTION:UPD 16-08-18 17:46 OP:cam  STATUS:               ID:20160515074247 L   I
 OLDACT:UP  16-05-15 15:30 OP:drio STATUS:               ID:20160515073743     3
 OLDACT:REG 16-05-15 12:34 OP:drio STATUS:               ID:20160515073743     3
 2016-05-15-0737-43M.COL___291                                                 6
 STAT SP IPHASW D HRMM SECON CODA AMPLIT PERI AZIMU VELO AIN AR TRES W  DIS CAZ7
 BAR2 EZ EP        743  8.07                             170    0.3110 23.7 207 
 BAR2 EZ ES        743 22.98                             170   -0.3010 23.7 207 
 BAR2 EZ I         743 24.29         9.4 0.14            167           23.7 207 
 BRR  HZ EP        743 10.00                             151    0.3510 78.1 297 
 BRR  HE ES        743 27.21                             151    0.5810 78.1 297 
 BRR  HZ I         743 27.60         6.8 0.28            146           78.1 297 
 PTB  HZ EP        743 15.02                             131   -0.57 9  154 260 
 PTB  HN ES   4    743 35.80                             131   -1.41 0  154 260 
 PTB  HZ I         743 41.64         4.6 0.30            129            154 260 
 OCA  HZ EP   4    743 19.27                             130    2.66 0  163 351 
 OCA  HE ES        743 38.56                             130   -0.46 9  163 351 
 OCA  HZ I         743 43.99         6.2 0.28            129            163 351 
 SPBC HZ EP        743 16.95                             129    0.14 9  166 221 
 SPBC HN ES        743 38.95                             129   -0.43 9  166 221 
 SPBC HZ I         743 42.23         6.9 0.10            128            166 221 
 ZAR  HZ EP        743 21.35                             122    0.17 8  211 292 
 ZAR  HE ES        743 46.91                             122   -0.25 8  211 292 
 ZAR  HZ I         743 51.96         4.9 0.44            121            211 292 
 NOR  HZ EP        743 24.57                             118    0.37 8  239 236 
 NOR  HN ES        743 52.73                             118    0.18 8  239 236 
 NOR  HZ I         743 58.31         4.5 0.18            118            239 236 
 PRA  HZ EP        743 41.28                             107   -0.39 6  394 211 
 PRA  HN ES   4    744 25.01                             107    1.37 0  394 211 
 PRA  HZ I         744 27.30         1.6 0.50            107            394 211 
                                                                                
