 2010  615 0152 56.3 L   6.765 -73.095151.9  RSN  5 0.4 1.4LRSN                1
 GAP=165        0.71       5.4    31.3 12.7  0.2436E+02 -0.1907E+03 -0.3911E+02E
 Epicentro: LOS SANTOS - SANTANDER                                             3
 ACTION:UP  10-08-24 10:10 OP:vdl  STATUS:               ID:20100615015256 L   I
 2010-06-15-0149-20S.COL___114                                                 6
 STAT SP IPHASW D HRMM SECON CODA AMPLIT PERI AZIMU VELO SNR AR TRES W  DIS CAZ7
 BAR2 SZ EP   1    153 16.29                             172    -0.4 8   22 207 
 BAR2 SZ ES   2    153 33.25                             172     0.7 5   22 207 
 RUS  HZ EP   1    153 20.70                             146     0.3 8   96 179 
 RUS  HN ES   1    153 38.87                             146    -0.3 8   96 179 
 RUS  HZ I         153 41.66         3.7 0.35                            96 179 
 GUE  SZ EP   1    153 22.04                             140     0.2 8  119   9 
 GRA  SZ EP        153 22.27                             138     0.010  128  15 
 OCA  SZ EP   2    153 25.96                             130     0.4 5  165 351 
 OCA  SZ ES   2    153 47.86                             130    -0.5 5  165 351 
 OCA  SZ I         153 58.00         3.3 0.32                           165 351 
                                                                                
