 2015  715 0535 19.0 L   6.807 -73.182146.9  RSN  4 0.3 1.5LRSN                1
 GAP=179        0.63       2.8     4.8  7.3  0.4728E+01  0.4612E+01 -0.6681E+01E
 Epicentro: ZAPATOCA - SANTANDER                                               3
 ACTION:UPD 15-09-08 21:49 OP:cam  STATUS:               ID:20150715053519 L   I
 OLDACT:UP  15-07-15 17:25 OP:ak   STATUS:               ID:20150715052751d    3
 OLDACT:DUP 15-07-15 17:22 OP:ak   STATUS:               ID:20150715052751d    3
 2015-07-15-0527-50M.COL___337                                                 6
 STAT SP IPHASW D HRMM SECON CODA AMPLIT PERI AZIMU VELO AIN AR TRES W  DIS CAZ7
 RUS  HZ EP        535 43.21                             144    0.2410  102 174 
 RUS  HE ES        536  1.60                             144   -0.0510  102 174 
 RUS  HZ I         536  2.91         1.5 0.26            151            102 174 
 OCA  HZ EP        535 46.89                             130   -0.41 9  159 355 
 OCA  HN ES        536  9.29                             130   -0.08 9  159 355 
 OCA  HZ I         536 15.44         5.8 0.19            134            159 355 
 ZAR  HZ EP        535 50.87                             123   -0.26 9  200 292 
 ZAR  HE ES        536 16.13                             123   -0.04 9  200 292 
 ZAR  HZ I         536 22.46         3.2 0.21            127            200 292 
 SML  HZ EP        535 55.74                             118    0.29 8  241 336 
 SML  HE ES        536 24.25                             118    0.38 8  241 336 
 SML  HZ I         536 27.83         4.2 0.13            122            241 336 
                                                                                
