 2017  615 0025 45.4 L   6.806 -73.186156.9  RSN 12 0.5 2.0LRSN                1
 GAP=137        0.94       3.7     3.9  6.7  0.3970E+01 -0.8965E+01 -0.5400E+00E
 Epicentro: ZAPATOCA - SANTANDER                                               3
 ACTION:UPD 17-09-14 16:52 OP:jn   STATUS:               ID:20170615002545 L   I
 OLDACT:UP  17-06-15 13:49 OP:dani STATUS:               ID:20170615001741     3
 OLDACT:UP  17-06-15 13:49 OP:dani STATUS:               ID:20170615001741     3
 OLDACT:UP  17-06-15 13:48 OP:dani STATUS:               ID:20170615001741     3
 OLDACT:UP  17-06-15 13:46 OP:dani STATUS:               ID:20170615001741     3
 OLDACT:REG 17-06-15 12:32 OP:dani STATUS:               ID:20170615001741     3
 2017-06-15-0018-00M.COL___365                                                 6
 STAT SP IPHASW D HRMM SECON CODA AMPLIT PERI AZIMU VELO AIN AR TRES W  DIS CAZ7
 BRR  HZ EP     C  026  7.79                             155    0.2010 66.9 300 
 BRR  HE ES        026 25.03                             155    0.1610 66.9 300 
 BRR  HZ I         026 28.92        17.4 0.14            151           66.9 300 
 PTB  HZ EP        026 12.72                             135   -0.26 9  144 258 
 PTB  HN ES        026 33.81                             135   -0.64 9  144 258 
 PTB  HZ I         026 38.94         7.2 0.12            128            144 258 
 TAM  HZ EP        026 14.37                             132   -0.06 9  160 105 
 SPBC HZ EP        026 14.97                             132    0.35 9  161 218 
 SPBC HN ES        026 36.84                             132   -0.54 9  161 218 
 SPBC HZ I         026 39.62        20.5 0.30            124            161 218 
 YPLC HZ EP        026 16.61                             129    0.27 9  180 150 
 YPLC HN ES        026 40.41                             129   -0.03 9  180 150 
 YPLC HZ I         026 41.29        16.0 0.34            123            180 150 
 ZAR  HZ EP   1    026 18.79                             125    0.59 6  200 292 
 ZAR  HN ES        026 44.24                             125    0.49 9  200 292 
 ZAR  HZ I         026 49.18         9.2 0.40            120            200 292 
 NOR  HZ EP        026 22.10                             121    0.59 8  231 234 
 NOR  HE ES        026 49.52                             121   -0.12 8  231 234 
 NOR  HZ I         026 55.59         7.3 0.15            115            231 234 
 CHI  HZ EP        026 23.94                             119    0.20 8  248 194 
 CHI  HN ES        026 53.84                             119    0.23 8  248 194 
 CHI  HZ I         027  3.55         3.4 0.19            114            248 194 
 ROSC BZ EP   9    026 26.80                             119    2.78 0  251 210 
 ROSC BN ES        026 57.11                                    0.22 8  251 210 
 ROSC BZ I         027  3.66         9.3 0.36            113            251 210 
 HEL  HN ES   4    027  0.13                             117    2.86 0  268 255 
 HEL  HZ I         027  6.52         5.0 0.47            112            268 255 
 PTGC HZ EP        026 29.13                             113   -0.95 7  311 158 
 PTGC HZ I         027  4.76         9.1 0.34            109            311 158 
 SJC  HZ EP        026 40.36                             107   -0.68 6  406 327 
 SJC  HN ES   3    027 22.12                             107   -2.29 1  406 327 
 SJC  HZ I         027 25.51         1.9 0.48            104            406 327 
                                                                                
