 2015  815 0331 24.9 L   6.774 -73.133140.6  RSN  6 0.4 1.7LRSN                1
 GAP=202        1.04       6.1     8.6 10.1  0.1201E+02  0.1591E+02 -0.1702E+02E
 Epicentro: LOS SANTOS - SANTANDER                                             3
 ACTION:UPD 15-09-15 23:02 OP:cam  STATUS:               ID:20150815033124 L   I
 OLDACT:REG 15-08-15 13:37 OP:ar   STATUS:               ID:20150815032749     3
 2015-08-15-0327-49M.COL___328                                                 6
 STAT SP IPHASW D HRMM SECON CODA AMPLIT PERI AZIMU VELO AIN AR TRES W  DIS CAZ7
 BAR2 EZ EP        331 43.82                             172   -0.0710 20.8 195 
 BAR2 EZ ES        331 58.42                             172   -0.2610 20.8 195 
 BAR2 EZ I         332  0.23         6.6 0.22            171           20.8 195 
 BRR  HZ EP        331 45.66                             151   -0.0210 73.8 300 
 BRR  HN ES        332  2.66                             151    0.8010 73.8 300 
 BRR  HZ I         332  8.40         8.7 0.42            149           73.8 300 
 OCA  HN ES        332 14.85                             128   -0.29 9  163 353 
 OCA  HZ I         332 18.13         6.0 0.14            130            163 353 
 ZAR  HE ES        332 21.85                             121   -0.69 8  206 293 
 ZAR  HZ I         332 26.58         4.5 0.22            123            206 293 
 SML  HN ES        332 30.61                             116    0.37 8  247 335 
 SML  HZ I         332 32.64         5.7 0.24            119            247 335 
 URE  HN ES   4    332 39.28                             113    1.20 0  286 292 
 GUY2CHZ EP   2    332  8.78                             112    0.53 4  301 235 
 GUY2CHN ES   4    332 45.04                             112    3.00 0  301 235 
 GUY2CHZ I         332 50.01         2.8 0.76                           301 235 
                                                                                
