 2013 1215 0436 33.5 L   6.658 -73.255151.6  RSN  6 0.5 1.4LRSN                1
 GAP=178        1.27       9.1     9.1 10.6  0.3854E+02  0.2281E+02  0.8829E+01E
 Epicentro: BARICHARA - SANTANDER                                              3
 ACTION:UPD 14-01-13 10:18 OP:ep   STATUS:               ID:20131215043633 L   I
 OLDACT:REG 13-12-15 07:17 OP:jn   STATUS:               ID:20131215043000     3
 2013-12-15-0430-00M.COL___285                                                 6
 STAT SP IPHASW D HRMM SECON CODA AMPLIT PERI AZIMU VELO AIN AR TRES W  DIS CAZ7
 BAR2 SZ ES        437  8.81                             176   -0.5810 10.8 132 
 BAR2 SZ I         437  9.53        10.8 0.24            178           10.8 132 
 BRR  HZ EP        436 55.37                             154    0.0910 70.9 315 
 BRR  HN ES        437 12.65                             154    0.4010 70.9 315 
 BRR  HZ I         437 17.33         4.1 0.16            153           70.9 315 
 RUS  HZ EP        436 56.22                             149   -0.7010 86.7 167 
 RUS  HE ES        437 15.92                             149    0.7410 86.7 167 
 RUS  HZ I         437 17.08         2.6 0.52            152           86.7 167 
 PTB  HZ EP        437  0.31                             136    0.5810  134 264 
 PTB  HN ES        437 19.69                             136   -0.4910  134 264 
 PTB  HZ I         437 22.17         3.3 0.12            138            134 264 
 SPBC HE ES   2    437 21.84                             134   -0.03 5  143 219 
 ZAR  HE ES   2    437 31.04                             124   -0.13 4  200 298 
                                                                                
