 2010  715 0308 11.9 L   6.867 -73.341125.6  RSN  7 0.5 1.6LRSN                1
 GAP=115        1.02       6.5    13.4 11.0  0.2704E+02 -0.4046E+02 -0.2638E+02E
 Epicentro: BETULIA - SANTANDER                                                3
 ACTION:UPD 10-12-01 15:17 OP:pat  STATUS:               ID:20100715030811 L   I
 2010-07-15-0304-07S.COL___120                                                 6
 STAT SP IPHASW D HRMM SECON CODA AMPLIT PERI AZIMU VELO AIN AR TRES W  DIS CAZ7
 GIR2 SZ EP   1    3 8 29.82                             166     0.7 7   29  35 
 BAR2 SZ EP   1    3 8 29.28                             164    -0.2 7   35 150 
 BAR2 SZ ES   1    3 8 42.57                             164    -0.6 7   35 150 
 BAR2 SZ I         3 8 43.70        27.3 0.20                            35 150 
 BRR  HZ IP     D  3 8 29.69                             157     0.010   49 303 
 BRR  HZ I         3 8 40.92         9.7 0.33                            49 303 
 BRR  HE ES   1    3 8 43.87                             157     0.4 7   49 303 
 RUS  HZ EP   2    3 8 34.62                             136     0.0 5  111 165 
 RUS  HN ES   2    3 8 52.02                             136    -0.3 5  111 165 
 GUE  SZ EP   1    3 8 35.29                             135     0.5 7  116  23 
 GUE  SZ I         3 8 39.95         4.1 0.10                           116  23 
 OCA  SZ EP   1    3 8 37.69                             126    -0.2 7  152   1 
 OCA  SZ ES   1    3 8 57.39                             126    -0.7 7  152   1 
 OCA  SZ I         3 9  0.39         8.0 0.46                           152   1 
 HEL  HZ EP   3    3 8 47.79                             112    -1.2 2  253 253 
 HEL  HZ I         3 8 48.48         2.1 0.30                           253 253 
                                                                                
