 2010  115 0536 42.3 L   6.822 -73.039147.7  RSN  6 0.1 1.6LRSN                1
 GAP=194        0.37       1.6     8.8  4.0 -0.2643E+01  0.1059E+02  0.3611E+00E
 Epicentro: CEPITA - SANTANDER                                                 3
 ACTION:UP  10-08-24 09:44 OP:vdl  STATUS:               ID:20100115053642 L   I
 2010-01-15-0520-00S.COL___094                                                 6
 STAT SP IPHASW D HRMM SECON CODA AMPLIT PERI AZIMU VELO SNR AR TRES W  DIS CAZ7
 BAR2 SZ IP        537  2.28                             168    -0.110   30 212 
 BAR2 SZ ES   1    537 17.97                             168     0.0 7   30 212 
 GIR2 SZ EP   2    537  2.33                             167     0.0 5   33 329 
 RUS  BZ EP   2    537  6.83                             144     0.4 5  103 183 
 RUS  BE ES   2    537 25.26                             144     0.0 5  103 183 
 RUS  BZ I         537 26.61         2.3 0.32                           103 183 
 OCA  SZ EP   1    537 10.54                             130    -0.2 7  160 349 
 OCA  SZ ES        537 32.97                             130     0.1 9  160 349 
 OCA  SZ I         537 41.22        11.9 0.26                           160 349 
 CHI  HZ EP   1    537 20.89                             117     0.1 6  254 198 
 CHI  HE ES        537 50.62                             117    -0.1 8  254 198 
 CHI  HZ I         537 54.53         2.5 0.27                           254 198 
 HEL  HZ EP   2    537 24.17                             114     0.2 4  284 256 
 HEL  HZ I         538  1.09         1.9 0.56                           284 256 
                                                                                
