 2010  815 0557 21.1 L   6.806 -73.074146.7  RSN  6 0.1 1.7LRSN                1
 GAP=190        0.37       3.7     6.9  3.9  0.1368E+02 -0.8369E+01 -0.3275E+01E
 Epicentro: LOS SANTOS - SANTANDER                                             3
 ACTION:UP  10-09-07 10:55 OP:vdl  STATUS:               ID:20100815055721 L   I
 2010-08-15-0553-46S.COL___111                                                 6
 STAT SP IPHASW D HRMM SECON CODA AMPLIT PERI AZIMU VELO SNR AR TRES W  DIS CAZ7
 BTL  SZ EP        557 41.05                             170     0.210   25 300 
 BTL  SZ ES   1    557 56.46                             170     0.1 7   25 300 
 BAR2 SZ EP        557 40.95                             169     0.010   27 207 
 BAR2 SZ ES   1    557 56.15                             169    -0.2 7   27 207 
 BAR2 SZ I         557 56.94        12.2 0.34                            27 207 
 GIR2 SZ EP   1    557 40.94                             167     0.0 7   33 336 
 BRR  HZ EP        557 42.65                             150    -0.110   78 295 
 BRR  HZ I         557 42.91        22.5 0.17                            78 295 
 BRR  HN ES   1    557 59.72                             150     0.1 7   78 295 
 RUS  HZ EP   2    557 44.99                             144     0.0 5  101 181 
 RUS  HN ES   2    558  3.66                             144     0.0 5  101 181 
 RUS  HZ I         558  5.98         3.0 0.47                           101 181 
 OCA  SZ ES   2    558 11.61                             130    -0.1 5  161 350 
 OCA  SZ I         558 22.71         4.1 0.47                           161 350 
                                                                                
