 2016 1115 0500 52.6 L   5.927 -73.685110.4  RSN  4 0.1 1.2LRSN                1
 GAP=271        0.30       3.6     1.7  4.1 -0.1345E+00  0.8914E+00  0.6894E+01E
 Epicentro: GUAVATA - SANTANDER                                                3
 ACTION:UPD 17-10-26 21:08 OP:lp   STATUS:               ID:20161115050052 L   I
 OLDACT:UP  16-11-15 16:29 OP:edw  STATUS:               ID:20161115045645d    3
 OLDACT:DUP 16-11-15 16:27 OP:edw  STATUS:               ID:20161115045645d    3
 OLDACT:UP  16-11-15 16:25 OP:edw  STATUS:               ID:20161115045644     3
 OLDACT:REG 16-11-15 12:57 OP:edw  STATUS:               ID:20161115045644     3
 2016-11-15-0457-00M.COL___344                                                 6
 STAT SP IPHASW D HRMM SECON CODA AMPLIT PERI AZIMU VELO AIN AR TRES W  DIS CAZ7
 BAR2 EZ EP        5 1 12.18                             137    0.1210 92.2  37 
 BAR2 EZ ES        5 1 27.13                             137   -0.0710 92.2  37 
 BAR2 EZ I         5 1 28.70        10.0 0.19            144           92.2  37 
 PTB  HZ EP        5 1 13.14                             132   -0.0810  109 308 
 PTB  HN ES        5 1 29.31                             132    0.0410  109 308 
 PTB  HZ I         5 1 31.94         2.3 0.07            136            109 308 
 BRR  HZ EP        5 1 15.19                             126   -0.0510  131 359 
 BRR  HN ES        5 1 32.89                             126    0.0310  131 359 
 BRR  HZ I         5 1 33.10         1.6 0.10            132            131 359 
 ZAR  HZ EP   2    5 1 24.47                             112    0.02 4  216 323 
 ZAR  HN ES   2    5 1 49.23                             112   -0.02 4  216 323 
                                                                                
