 2010  615 0731 36.2 L   6.757 -73.098142.3  RSN  7 0.5 1.5LRSN                1
 GAP=162        0.95       4.6    21.1 10.0 -0.3966E+02  0.5374E+02 -0.8468E+01E
 Epicentro: LOS SANTOS - SANTANDER                                             3
 ACTION:UP  10-08-24 10:10 OP:vdl  STATUS:               ID:20100615073136 L   I
 2010-06-15-0728-11S.COL___114                                                 6
 STAT SP IPHASW D HRMM SECON CODA AMPLIT PERI AZIMU VELO SNR AR TRES W  DIS CAZ7
 BAR2 SZ EP        731 55.21                             171    -0.210   21 207 
 BAR2 SZ ES   1    732  9.77                             171    -0.6 7   21 207 
 RUS  HZ EP   1    731 59.24                             144     0.0 7   96 179 
 RUS  HN ES   1    732 17.95                             144     0.7 7   96 179 
 RUS  HZ I         732 20.88         5.1 0.53                            96 179 
 BRI  SZ ES   1    732 18.12                             140    -0.4 7  111  17 
 GUE  SZ EP   2    732  0.56                             138    -0.4 5  120   9 
 GRA  SZ EP   2    732  2.05                             135     0.6 5  129  15 
 GRA  SZ ES   1    732 21.39                             135     0.3 7  129  15 
 OCA  SZ EP   1    732  4.37                             128    -0.4 7  166 352 
 OCA  SZ ES   1    732 27.79                             128     0.7 7  166 352 
 OCA  SZ I         732 29.95         5.0 0.30                           166 352 
 CHI  HZ EP   2    732 13.29                             117    -0.1 4  245 197 
 CHI  HZ I         732 48.71         2.0 1.14                           245 197 
                                                                                
