 2014  115 0806 40.1 L   6.811 -73.158139.9  RSN 11 0.5 1.6LRSN                1
 GAP= 70        0.99       4.4     4.9 16.0  0.4647E+01  0.1314E+02  0.1949E+02E
 Epicentro: LOS SANTOS - SANTANDER                                             3
 ACTION:UPD 14-03-13 09:55 OP:ep   STATUS:               ID:20140115080640 L   I
 OLDACT:UP  14-01-15 11:13 OP:cam  STATUS:               ID:20140115080000     3
 OLDACT:REG 14-01-15 07:59 OP:cam  STATUS:               ID:20140115080000     3
 2014-01-15-0800-00M.COL___285                                                 6
 STAT SP IPHASW D HRMM SECON CODA AMPLIT PERI AZIMU VELO AIN AR TRES W  DIS CAZ7
 PAM  SZ IP     D  8 7  2.08                             150    0.4110 77.3  41 
 PAM  SZ I         8 7  2.26        17.2 0.20            150           77.3  41 
 RUS  HZ EP     D  8 7  3.07                             142   -0.2910  102 175 
 RUS  HZ I         8 7  3.88         3.4 0.14            142            102 175 
 PTB  HZ EP        8 7  5.78                             131   -0.70 9  147 258 
 PTB  HZ I         8 7  7.11         4.9 0.16            131            147 258 
 TAM  HZ EP        8 7  7.50                             129    0.05 9  157 105 
 TAM  HZ I         8 7  7.63         5.1 0.18            129            157 105 
 SPBC HZ EP   1    8 7  8.17                             128    0.02 7  163 218 
 SPBC HZ I         8 7  8.49         6.1 0.08            128            163 218 
 ZAR  HZ EP        8 7 11.71                             121   -0.26 9  202 292 
 ZAR  HZ I         8 7 13.16         2.0 0.36            121            202 292 
 ZAR  HE ES        8 7 37.40                             121    0.55 9  202 292 
 SML  HZ EP        8 7 15.91                             116   -0.29 8  242 335 
 SML  HN ES   1    8 7 44.03                             116   -0.34 6  242 335 
 CHI  HZ EP   1    8 7 17.40                             116   -0.16 6  249 195 
 CHI  HZ I         8 7 17.95         2.6 0.42            116            249 195 
 CHI  HN ES   1    8 7 46.26                             116   -0.53 6  249 195 
 ROSC BZ EP        8 7 18.88                             115    0.95 8  253 211 
 HEL  HZ EP   1    8 7 19.70                             114   -0.19 6  271 255 
 GUY2CHZ EP        8 7 23.90                             111    0.51 7  301 234 
 SJC  HZ EP   4    8 7 32.57                             105   -2.68 0  407 327 
                                                                                
