 2016 1115 0540 27.0 L   6.763 -73.138143.1  RSN 15 0.5 2.3LRSN                1
 GAP=121        0.81       4.8     4.1  5.4 -0.5019E+01  0.5134E+01  0.6286E+01E
 Epicentro: LOS SANTOS - SANTANDER                                             3
 ACTION:UPD 17-10-26 21:08 OP:lp   STATUS:               ID:20161115054027 L   I
 OLDACT:UP  16-11-15 16:37 OP:edw  STATUS:               ID:20161115053747     3
 OLDACT:UP  16-11-15 16:36 OP:edw  STATUS:               ID:20161115053747     3
 OLDACT:REG 16-11-15 13:30 OP:edw  STATUS:               ID:20161115053747     3
 2016-11-15-0538-00M.COL___344                                                 6
 STAT SP IPHASW D HRMM SECON CODA AMPLIT PERI AZIMU VELO AIN AR TRES W  DIS CAZ7
 BAR2 EZ IP     C  540 46.36                             172    0.1410 19.5 195 
 BAR2 EZ ES        541  1.12                             172   -0.1010 19.5 195 
 BAR2 EZ I         541  2.79        66.6 0.20            164           19.5 195 
 BRR  HZ IP     C  540 48.18                             151    0.1810 74.0 301 
 BRR  HN ES   3    541  5.43                             151    1.03 2 74.0 301 
 BRR  HZ I         541  6.18        30.4 0.14            149           74.0 301 
 PAM  EZ EP        540 49.25                             149    0.1810 80.0  37 
 PAM  EN ES        541  6.20                             149   -0.1110 80.0  37 
 PAM  EZ I         541  6.91        24.5 0.20            158           80.0  37 
 PTB  HZ EP        540 53.06                             131   -0.68 9  148 260 
 PTB  HN ES        541 14.25                             131   -0.37 9  148 260 
 PTB  HZ I         541 17.47        25.9 0.26            129            148 260 
 ZAR  HZ EP        540 59.99                             121    0.49 8  206 293 
 ZAR  HN ES   4    541 23.58                             121   -1.29 0  206 293 
 ZAR  HZ I         541 30.71        15.7 0.18            121            206 293 
 NOR  HZ EP     C  541  2.82                             118    0.44 8  233 235 
 NOR  HN ES   4    541 31.31                             118    1.32 0  233 235 
 NOR  HZ I         541 35.51        19.6 0.16            117            233 235 
 CHI  HZ EP   2    541  4.62                             117    0.49 4  245 196 
 CHI  HN ES   2    541 33.73                             117    0.63 4  245 196 
 CHI  HZ I         541 41.03        10.8 0.54            116            245 196 
 ROSC BZ EP   4    541  6.66                             116    2.04 0  250 212 
 ROSC BN ES   4    541 37.15                             116    3.16 0  250 212 
 ROSC BZ I         541 40.37        16.6 0.45            115            250 212 
 URE  HZ EP   4    541  9.24                             113    1.05 0  286 293 
 URE  HN ES   4    541 37.31                             113   -3.02 0  286 293 
 URE  HZ I         541 39.52        10.2 0.10            113            286 293 
 PTGC HZ IP     D  541  9.64                             111   -0.61 7  305 159 
 PTGC HN ES   4    541 42.90                             111   -1.10 0  305 159 
 PTGC HZ I         541 44.18         4.6 0.22            112            305 159 
 LL6C HZ EP   4    540 51.56                             109   -21.5 0  329 357 
 LL6C HN ES   4    541 26.55                             109   -22.4 0  329 357 
 CBOC HZ EP   4    541 14.76                             109    1.02 0  333 253 
 CBOC HE ES   2    541 49.89                             109   -0.32 3  333 253 
 CBOC HZ I         542  3.05         3.6 0.54            109            333 253 
 ARGC HZ EP   2    541 16.48                             107   -0.54 3  363 340 
 ARGC HN ES   4    541 58.06                             107    2.01 0  363 340 
 PRA  HZ EP   2    541 21.01                             106    0.97 3  389 210 
 PRA  HN ES   4    542  2.93                             106    1.50 0  389 210 
 PRA  HZ I         542  8.93        11.2 0.62            106            389 210 
 ORTC HZ EP   2    541 21.21                             106    0.73 3  393 217 
 ORTC HN ES   4    542  4.79                             106    2.57 0  393 217 
 ORTC HZ I         542 10.93         5.5 0.22            106            393 217 
 SJC  HZ EP   4    541 20.96                             105   -1.95 0  413 327 
 SJC  HN ES   4    542  1.96                             105   -4.59 0  413 327 
 SJC  HZ I         542  6.16         3.9 0.48            106            413 327 
                                                                                
