 2011 1015 0123 37.7 L   6.325 -73.702101.3  RSN  4 0.1 1.3LRSN                1
 GAP=190        0.33       4.3     7.3  7.2  0.2674E+02  0.4220E+02  0.2288E+02E
 Epicentro: SANTA HELENA DEL OPON - SANTANDER                                  3
 ACTION:UPD 12-07-13 16:03 OP:ep   STATUS:               ID:20111015012338 L   I
 2011-10-15-0118-58S.COL___168                                                 6
 STAT SP IPHASW D HRMM SECON CODA AMPLIT PERI AZIMU VELO AIN AR TRES W  DIS CAZ7
 BAR2 SZ EP        123 54.09                             145   -0.0710 64.6  63 
 BAR2 SZ ES   1    124  7.02                             145    0.05 7 64.6  63 
 BAR2 SZ I         124  8.17         8.5 0.52                          64.6  63 
 RUS  HZ EP        123 55.94                             138   -0.0210 83.5 125 
 RUS  HN ES   1    124 10.20                             138    0.02 7 83.5 125 
 BRR  HZ EP   2    123 55.87                             136    0.35 5 86.5 359 
 BRR  HN ES   1    124  9.33                             136   -0.07 7 86.5 359 
 BRR  HZ I         124  9.86         5.3 0.40                          86.5 359 
 ZAR  HZ EP   2    124  5.17                             114   -0.02 4  182 315 
 ZAR  HZ I         124  6.80         1.3 0.10                           182 315 
                                                                                
