 2012 1215 0939 11.3 L   7.352 -73.114 10.3  RSN  6 0.5 1.1LRSN                1
 GAP=177        0.92       4.7     3.0  6.1 -0.2118E+01  0.8632E+01  0.4599E+00E
 Epicentro: RIONEGRO - SANTANDER                                               3
 ACTION:UPD 13-01-04 14:28 OP:ep   STATUS:               ID:20121215093911 L   I
 2012-12-15-0937-40M.COL___195                                                 6
 STAT SP IPHASW D HRMM SECON CODA AMPLIT PERI AZIMU VELO AIN AR TRES W  DIS CAZ7
 PAM  SZ EP   1    939 19.57                              99    0.11 7 45.8  92 
 PAM  SN ES   1    939 25.41                              99   -0.38 7 45.8  92 
 PAM  SZ I         939 26.96        11.8 0.27                          45.8  92 
 BRR  HE ES   1    939 32.03                              95    0.30 7 71.4 248 
 BAR2 SZ ES   1    939 35.27                              95   -0.39 7 84.3 185 
 RUS  HZ EP   1    939 37.93                              56    1.09 7  161 179 
 RUS  HN ES   1    939 56.84                              56    0.13 7  161 179 
 RUS  HZ I         939 58.32         2.0 0.50                           161 179 
 PTB  HZ EP   1    939 37.82                              56    0.05 7  173 239 
 PTB  HN ES   1    939 57.63                              56   -0.74 7  173 239 
 PTB  HZ I         939 59.18         3.0 0.30                           173 239 
 ZAR  HE ES   1    940  2.60                              56   -0.15 7  193 275 
                                                                                
