 2014  315 0639 54.6 L   6.797 -73.133145.0  RSN 12 0.4 1.9LRSN                1
 GAP=138        1.05       2.9     4.6  7.1 -0.9695E+00  0.9930E+01 -0.3051E+00E
 Epicentro: LOS SANTOS - SANTANDER                                             3
 OLDACT:DUP 14-03-15 12:34 OP:fm   STATUS:               ID:20140315063816d    3
 ACTION:UPD 14-04-09 23:17 OP:nd   STATUS:               ID:20140315063954 L   I
 OLDACT:UP  14-03-15 12:46 OP:fm   STATUS:               ID:20140315063816d    3
 2014-03-15-0638-15M.COL___248                                                 6
 STAT SP IPHASW D HRMM SECON CODA AMPLIT PERI AZIMU VELO AIN AR TRES W  DIS CAZ7
 BAR2 SZ EP        640 14.09                             170   -0.0810 23.3 194 
 BAR2 SZ ES   1    640 29.47                             170    0.06 7 23.3 194 
 BAR2 SZ I         640 29.89        23.2 0.30            163           23.3 194 
 PAM  SZ EP        640 16.79                             151    0.0610 76.7  39 
 PAM  SN ES        640 33.57                             151   -0.3910 76.7  39 
 PAM  SZ I         640 35.68        16.4 0.48            147           76.7  39 
 RUS  HZ EP        640 18.49                             144    0.2110  100 177 
 RUS  HN ES        640 36.61                             144   -0.1110  100 177 
 RUS  SZ I         640 38.68         3.4 0.18            134            100 177 
 PTB  HZ EP        640 20.93                             131   -0.73 9  149 259 
 PTB  HE ES        640 42.20                             131   -0.54 9  149 259 
 PTB  SZ I         640 46.84         9.6 0.20            122            149 259 
 OCA  HN ES        640 45.66                             129    0.66 9  161 353 
 SPBC HE ES        640 45.58                             129    0.22 9  164 219 
 ZAR  HE ES        640 52.98                             122    0.42 8  205 292 
 SML  HZ EP        640 30.39                             117   -0.92 8  245 335 
 SML  HE ES        641  0.43                             117    0.51 8  245 335 
 SML  SZ I         641  4.07        12.3 0.10            110            245 335 
 CHI  HZ EP        640 32.83                             117    0.53 8  249 196 
 CHI  HN ES        641  2.15                             117    0.48 8  249 196 
 CHI  SZ I         641 13.46         4.4 2.34            109            249 196 
 HEL  HZ EP   2    640 35.03                             114    0.08 4  273 256 
 HEL  SZ I         641 12.39         3.2 0.40            107            273 256 
 GUY2CHZ EP   1    640 38.11                             112   -0.21 5  302 235 
 GUY2CHN ES   4    641 14.78                             112    2.39 0  302 235 
 GUY2CSZ I         641 17.48         3.3 1.02                           302 235 
 SJC  HZ EP   4    640 47.99                             105   -2.30 0  410 327 
 SJC  HN ES   4    641 30.83                             105   -2.87 0  410 327 
 SJC  SZ I         641 31.44         9.0 3.44             99            410 327 
                                                                                
