 2016  215 0028 24.5 L   6.818 -73.179145.9  RSN  6 0.3 1.3LRSN                1
 GAP=132        0.64       2.1     3.5  5.1 -0.2495E+01  0.3428E+01  0.7232E+00E
 Epicentro: ZAPATOCA - SANTANDER                                               3
 ACTION:UPD 16-03-04 21:26 OP:rebc STATUS:               ID:20160215002824 L   I
 OLDACT:DUP 16-02-15 13:25 OP:drio STATUS:               ID:20160215002750d    3
 2016-02-15-0027-49M.COL___296                                                 6
 STAT SP IPHASW D HRMM SECON CODA AMPLIT PERI AZIMU VELO AIN AR TRES W  DIS CAZ7
 PAM  EZ EP        028 46.93                             151    0.1810 78.3  43 
 PAM  EE ES        029  4.06                             151   -0.0710 78.3  43 
 PAM  EZ I         029  6.11         7.5 0.56            155           78.3  43 
 RUS  HZ EP        028 48.34                             143   -0.0510  103 174 
 RUS  HE ES        029  7.10                             143    0.0410  103 174 
 RUS  HZ I         029 10.52         1.1 0.36            145            103 174 
 PTB  HZ EP        028 51.46                             133    0.31 9  145 258 
 PTB  HN ES        029 11.67                             133   -0.30 9  145 258 
 PTB  HZ I         029 13.21         2.4 0.16            135            145 258 
 OCA  HZ EP        028 52.22                             130   -0.34 9  158 354 
 OCA  HE ES        029 14.58                             130    0.10 9  158 354 
 SPBC HZ EP        028 52.91                             129    0.01 9  162 218 
 SPBC HE ES        029 15.48                             129    0.39 9  162 218 
 SPBC HZ I         029 21.33         4.0 0.32            132            162 218 
 CHI  HZ EP        029  2.40                             117    0.13 8  250 194 
 CHI  HE ES        029 31.25                             117   -0.52 8  250 194 
                                                                                
