 2013  215 0837 14.6 L   6.790 -73.128144.1  RSN 12 0.6 2.3LRSN                1
 GAP= 72        1.41       4.1     5.2  7.5  0.1822E+01  0.6179E+01  0.1822E+01E
 Epicentro: LOS SANTOS - SANTANDER                                             3
 ACTION:UPD 13-03-12 09:33 OP:ep   STATUS:               ID:20130215083714 L   I
 2013-02-15-0830-00M.COL___241                                                 6
 STAT SP IPHASW D HRMM SECON CODA AMPLIT PERI AZIMU VELO AIN AR TRES W  DIS CAZ7
 BAR2 SZ EP        837 34.08                             171    0.0810 22.6 195 
 BAR2 SZ ES        837 48.73                             171   -0.4210 22.6 195 
 BAR2 SZ I         837 52.54        22.6 0.40            169           22.6 195 
 BRR  HZ IP     C  837 35.94                             152    0.2610 73.4 299 
 BRR  HE ES        837 53.46                             152    1.3210 73.4 299 
 BRR  HE I         837 54.23        36.6 0.22            150           73.4 299 
 PAM  SZ EP        837 36.85                             151    0.2410 77.1  38 
 PAM  SN ES        837 54.17                             151    0.3910 77.1  38 
 PAM  SN I         837 55.35        31.9 0.44            155           77.1  38 
 RUS  HZ EP        837 37.94                             144   -0.1410 99.3 177 
 RUS  HN ES        837 56.16                             144   -0.2510 99.3 177 
 RUS  HN I         837 58.31        38.4 0.40            145           99.3 177 
 PTB  HZ EP        837 40.67                             131   -0.90 9  149 259 
 PTB  HN ES        838  1.77                             131   -0.85 9  149 259 
 PTB  HN I         838  7.04        28.9 0.32            131            149 259 
 TAM  HN EP        837 42.07                             131    0.14 9  153 105 
 OCA  HN ES        838  4.00                             129   -0.98 9  162 353 
 OCA  HN I         838  7.56        56.9 0.32            131            162 353 
 ZAR  HZ EP   1    837 47.92                             122    0.77 6  206 292 
 ZAR  HE ES        838 12.49                             122   -0.06 8  206 292 
 ZAR  HE I         838 17.94        36.5 0.42            122            206 292 
 SML  HZ EP        837 51.01                             117   -0.31 8  246 335 
 SML  HN ES        838 19.74                             117   -0.23 8  246 335 
 SML  HN I         838 21.19        27.7 0.10            118            246 335 
 CHI  HZ EP        837 52.25                             117    0.12 8  248 196 
 CHI  HN ES        838 21.58                             117    0.17 8  248 196 
 CHI  HN I         838 24.11         8.1 0.54            118            248 196 
 HEL  HZ EP        837 55.73                             114    0.84 8  274 256 
 HEL  HN ES   2    838 27.38                             114    1.05 4  274 256 
 HEL  HN I         838 33.61         6.4 0.30            115            274 256 
 COD  HN E      C  835  9.63                                            350 354 
                                                                                
