 2015  315 0612 16.0 L   6.784 -73.112140.0  RSN  5 0.3 0.9LRSN                1
 GAP=142        0.60       4.1     3.7  5.5 -0.3779E+01  0.2972E+01 -0.6031E+00E
 Epicentro: LOS SANTOS - SANTANDER                                             3
 ACTION:UPD 15-04-30 16:26 OP:nd   STATUS:               ID:20150315061216 L   I
 OLDACT:REG 15-03-15 13:01 OP:spq  STATUS:               ID:20150315060746     3
 2015-03-15-0607-46M.COL___260                                                 6
 STAT SP IPHASW D HRMM SECON CODA AMPLIT PERI AZIMU VELO AIN AR TRES W  DIS CAZ7
 BAR2 EZ EP   1    612 35.57                             170    0.68 7 22.5 200 
 BAR2 EZ ES   1    612 49.48                             170   -0.17 7 22.5 200 
 BAR2 EZ I         612 52.01         2.1 0.28            169           22.5 200 
 BRR  HZ EP        612 36.45                             150   -0.2910 75.3 298 
 BRR  HN ES        612 53.07                             150    0.1310 75.3 298 
 BRR  HZ I         612 54.81         1.9 0.26            150           75.3 298 
 PAM  SZ EP        612 37.39                             150   -0.1310 76.5  37 
 PAM  SN ES        612 54.40                             150    0.0710 76.5  37 
 PAM  SZ I         612 56.49         2.0 0.58            154           76.5  37 
 RUS  HE ES   1    612 56.89                             143   -0.09 7 98.6 178 
 RUS  HZ I         612 58.48         0.6 0.36            145           98.6 178 
 PTB  HZ EP   1    612 42.71                             130   -0.07 7  151 260 
 PTB  HN ES   1    613  3.74                             130    0.05 7  151 260 
 PTB  HZ I         613  8.39         0.9 0.26            131            151 260 
                                                                                
