 2017  115 0620 38.5 L   6.784 -73.130143.8  RSN  5 0.3 0.9LRSN                1
 GAP=139        0.62       3.3     4.2  4.9 -0.4603E+00  0.3402E+01  0.1502E+01E
 Epicentro: LOS SANTOS - SANTANDER                                             3
 ACTION:UPD 17-05-22 15:59 OP:jn   STATUS:               ID:20170115062038 L   I
 OLDACT:UP  17-03-29 15:06 OP:nlst STATUS:               ID:20170115062038 L   3
 OLDACT:UP  17-01-15 15:50 OP:e    STATUS:               ID:20170115061746     3
 OLDACT:REG 17-01-15 12:47 OP:and  STATUS:               ID:20170115061746     3
 2017-01-15-0618-00M.COL___335                                                 6
 STAT SP IPHASW D HRMM SECON CODA AMPLIT PERI AZIMU VELO AIN AR TRES W  DIS CAZ7
 BAR2 EZ EP        620 57.73                             170   -0.1810 21.9 195 
 BAR2 EZ ES   1    621 12.83                             170   -0.19 7 21.9 195 
 BRR  HZ EP        620 59.61                             151   -0.0110 73.6 299 
 BRR  HN ES        621 16.48                             151    0.4210 73.6 299 
 PAM  EZ EP        621  0.54                             151   -0.0310 77.7  38 
 PAM  EN ES        621 17.46                             151   -0.3010 77.7  38 
 PAM  EZ I         621 19.72         2.6 0.52            151           77.7  38 
 RUS  HZ EP        621  2.16                             144    0.1910 98.7 177 
 RUS  HN ES        621 20.39                             144    0.1610 98.7 177 
 RUS  HZ I         621 21.41         0.8 0.30            145           98.7 177 
 PTB  HZ EP        621  5.40                             131   -0.08 9  149 260 
 PTB  HN ES   3    621 25.19                             131   -1.30 2  149 260 
                                                                                
