 2016 1115 0418 21.1 L   6.030 -73.295172.0  RSN 11 0.3 1.8LRSN                1
 GAP=173        0.80       3.1     3.5  5.9 -0.2958E+01  0.5325E+00  0.5356E+01E
 Epicentro: GAMBITA - SANTANDER                                                3
 ACTION:UPD 17-10-26 21:08 OP:lp   STATUS:               ID:20161115041821 L   I
 OLDACT:UP  16-11-15 15:45 OP:edw  STATUS:               ID:20161115041742     3
 OLDACT:UP  16-11-15 15:45 OP:edw  STATUS:               ID:20161115041742     3
 OLDACT:REG 16-11-15 12:51 OP:edw  STATUS:               ID:20161115041742     3
 2016-11-15-0418-00M.COL___338                                                 6
 STAT SP IPHASW D HRMM SECON CODA AMPLIT PERI AZIMU VELO AIN AR TRES W  DIS CAZ7
 BAR2 EZ EP        418 45.06                             159   -0.1210 63.4  11 
 BAR2 EZ ES        419  3.81                             159   -0.1110 63.4  11 
 BAR2 EZ I         419  4.98         9.2 0.20            161           63.4  11 
 BRR  HZ EP        418 48.93                             142    0.1710  128 339 
 BRR  HN ES        419 10.78                             142    0.4910  128 339 
 BRR  HZ I         419 13.54         6.4 0.18            143            128 339 
 PTB  HZ EP        418 49.55                             139   -0.21 9  140 294 
 PTB  HN ES        419 12.47                             139    0.39 9  140 294 
 PTB  HZ I         419 14.03         5.9 0.10            139            140 294 
 PAM  EZ EP        418 52.21                             135    0.24 9  159  24 
 PAM  EN ES        419 15.58                             135   -0.44 9  159  24 
 PAM  EZ I         419 16.62         7.3 0.78            139            159  24 
 CHI  HZ EP        418 52.31                             135    0.17 9  162 197 
 CHI  HN ES        419 16.27                             135   -0.04 9  162 197 
 CHI  HZ I         419 18.39         6.1 0.19            136            162 197 
 ROSC BZ EP   4    418 49.74                             133   -3.39 0  174 221 
 ROSC BN ES   4    419 20.71                             133    2.63 0  174 221 
 ROSC BZ I         419 24.17         8.6 0.40            134            174 221 
 NOR  HZ EP        418 53.92                             131    0.52 9  182 254 
 NOR  HN ES        419 18.02                             131   -0.53 9  182 254 
 NOR  HZ I         419 24.81         8.3 0.32            132            182 254 
 ZAR  HZ EP   2    418 57.95                             123   -0.72 4  237 313 
 ZAR  HN ES        419 27.49                             123   -0.44 8  237 313 
 ZAR  HZ I         419 33.51         4.1 0.09            125            237 313 
 CBOC HZ EP   4    419  6.71                             117    0.99 0  301 267 
 CBOC HN ES        419 40.51                             117    0.02 7  301 267 
 CBOC HZ I         419 42.51         1.6 0.18            118            301 267 
 PRA  HZ EP        419  6.42                             116   -0.18 7  311 215 
 PRA  HN ES   4    419 40.97                             116   -1.09 0  311 215 
 SJC  HZ EP   4    419 23.66                             107   -1.69 0  475 334 
 SJC  HN ES   4    420 12.09                             107   -3.34 0  475 334 
 SJC  HZ I         420 16.40         2.0 0.62            108            475 334 
                                                                                
