 2017  815 0337  8.1 L   6.817 -73.149142.4  RSN 27 0.6 2.6LRSN                1
 GAP= 65        0.91       2.5     2.5  4.3 -0.4075E+00  0.3887E+01  0.1853E+01E
 Epicentro: LOS SANTOS - SANTANDER                                             3
 ACTION:UPD 17-09-04 20:20 OP:rebc STATUS:               ID:20170815033708 L   I
 OLDACT:UP  17-08-15 13:56 OP:and  STATUS:               ID:20170815032742d    3
 OLDACT:UP  17-08-15 13:55 OP:and  STATUS:               ID:20170815032742d    3
 OLDACT:UP  17-08-15 13:55 OP:and  STATUS:               ID:20170815032742d    3
 OLDACT:UP  17-08-15 13:52 OP:and  STATUS:               ID:20170815032742d    3
 OLDACT:UP  17-08-15 13:51 OP:and  STATUS:               ID:20170815032742d    3
 OLDACT:UP  17-08-15 13:51 OP:and  STATUS:               ID:20170815032742d    3
 OLDACT:UP  17-08-15 13:49 OP:and  STATUS:               ID:20170815032742d    3
 OLDACT:UP  17-08-15 13:48 OP:and  STATUS:               ID:20170815032742d    3
 OLDACT:DUP 17-08-15 13:39 OP:and  STATUS:               ID:20170815032742d    3
 OLDACT:UP  17-08-15 13:39 OP:and  STATUS:               ID:20170815032741     3
 OLDACT:REG 17-08-15 12:21 OP:and  STATUS:               ID:20170815032741     3
 2017-08-15-0328-00M.COL___410                                                 6
 STAT SP IPHASW D HRMM SECON CODA AMPLIT PERI AZIMU VELO AIN AR TRES W  DIS CAZ7
 BAR2 EZ IP     C  337 27.08                             170   -0.3010 25.1 188 
 BAR2 EZ ES        337 42.22                             170   -0.1910 25.1 188 
 BAR2 EZ I         337 43.05       160.1 0.30            167           25.1 188 
 BRR  HZ IP     D  337 28.80                             152   -0.0310 70.0 297 
 BRR  HN ES   2    337 45.79                             152    0.80 5 70.0 297 
 BRR  HZ I         337 49.07        76.8 0.38            150           70.0 297 
 PAM  EZ IP     C  337 30.03                             150    0.1310 76.2  41 
 PAM  EN ES        337 46.85                             150   -0.0510 76.2  41 
 PAM  EZ I         337 49.37        58.6 0.58            156           76.2  41 
 RUS  HZ IP   9 C  337 31.06                             142   -0.61 0  102 176 
 RUS  HN ES        337 49.65                             143    0.2110  102 176 
 RUS  HZ I         337 51.85        57.8 0.30            143            102 176 
 TAM  HZ IP     C  337 35.54                             129   -0.07 9  156 106 
 TAM  HN ES        337 57.22                             129    0.17 9  156 106 
 SPBC HZ EP        337 35.84                             128   -0.63 9  164 218 
 SPBC HN ES        337 58.33                             128   -0.26 9  164 218 
 SPBC HZ I         338  0.86        45.4 0.10            128            164 218 
 YPLC HZ IP     C  337 37.61                             125   -0.24 9  179 152 
 YPLC HN ES   2    338  1.70                             125    0.66 4  179 152 
 YPLC HZ I         338  4.42        39.9 0.26            128            179 152 
 ZAR  HZ EP        337 40.53                             122    0.30 9  203 292 
 ZAR  HN ES        338  5.33                             122    0.04 9  203 292 
 ZAR  HZ I         338 10.52        51.5 0.26            122            203 292 
 TABC EZ IP     D  337 44.74                             118    0.92 8  231 210 
 TABC EZ ES   3    338 13.34                             118    1.68 2  231 210 
 TABC EZ I         338 20.31        26.0 0.42            119            231 210 
 NOR  HZ EP        337 43.08                             117   -0.65 8  235 234 
 NOR  HN ES        338 10.87                             117   -0.65 8  235 234 
 NOR  HZ I         338 16.31        27.1 0.26            118            235 234 
 CHI  HZ IP     C  337 45.44                             116   -0.37 8  250 195 
 CHI  HN ES        338 14.96                             116   -0.26 8  250 195 
 CHI  HZ I         338 17.90        15.6 0.30            117            250 195 
 ROSC BZ EP        337 46.88                             116    0.68 8  254 211 
 ROSC BN ES   3    338 17.08                             116    1.16 2  254 211 
 ROSC BZ I         338 23.41        27.9 0.40            116            254 211 
 HEL  HZ EP        337 48.81                             114    0.64 8  272 255 
 HEL  HN ES   2    338 18.58                             114   -0.83 4  272 255 
 HEL  HZ I         338 26.33        36.8 0.42            114            272 255 
 URE  HZ EP   3    337 47.56                             113   -1.34 2  283 292 
 URE  HN ES   4    338 18.09                             113   -2.63 0  283 292 
 URE  HZ I         338 27.33        25.8 0.26            113            283 292 
 GUY2CHZ EP        337 51.75                             111    0.10 7  302 234 
 GUY2CHE ES   4    338 28.30                             111    2.69 0  302 234 
 GUY2CHZ I         338 35.47        23.6 0.52                           302 234 
 VIL  EZ EP   2    337 50.79                             111   -0.79 4  305 191 
 VIL  EN ES        338 25.68                             111    0.20 7  305 191 
 VIL  EZ I         338 34.33        25.3 0.44            112            305 191 
 PTGC HZ IP   3 D  337 50.44                             111   -1.59 2  311 159 
 PTGC HN ES   4    338 23.75                             111   -2.54 0  311 159 
 PTGC HZ I         338 26.87        15.6 0.36            112            311 159 
 LL6C HZ EP   3    337 52.10                             110   -1.36 2  323 358 
 LL6C HN ES   4    338 26.65                             110   -2.18 0  323 358 
 LL6C HZ I         338 34.43        11.4 0.48            111            323 358 
 ELA  HZ EP   3    337 56.96                             109    2.03 2  330 229 
 ELA  HN ES        338 32.28                             109    0.84 7  330 229 
 ELA  HZ I         338 39.96        10.4 0.28            110            330 229 
 CBOC HZ EP        337 55.60                             109    0.69 7  334 252 
 CBOC HN ES        338 31.76                             109    0.34 7  334 252 
 CBOC HZ I         338 43.02         7.5 0.68            110            334 252 
 DBB  EZ EP        337 55.53                             109    0.14 7  339 274 
 DBB  EN ES        338 31.46                             109   -0.81 7  339 274 
 DBB  EZ I         338 38.27        10.1 0.28            109            339 274 
 ARGC HN ES        338 36.07                             108    0.18 6  357 340 
 ARGC HZ I         338 39.73        10.3 0.38            109            357 340 
 ANIL HZ EP        337 58.78                             108    0.87 6  358 224 
 ANIL HN ES        338 36.53                             108   -0.23 6  358 224 
 ANIL HZ I         338 44.31        30.7 0.46            108            358 224 
 PRA  HZ EP        338  1.09                             106   -0.60 6  393 209 
 PRA  HN ES        338 43.39                             106   -0.08 6  393 209 
 PRA  HZ I         338 51.15        14.7 0.26            107            393 209 
 ORTC HZ EP        338  2.09                             106    0.02 6  397 216 
 ORTC HN ES   4    338 47.21                             106    3.06 0  397 216 
 ORTC HZ I         338 51.04        14.0 0.58            106            397 216 
 PAL  HZ EP        338  3.00                             105   -0.24 6  406 239 
 SJC  HZ EP   4    338  1.25                             105   -2.11 0  407 327 
 SJC  HN ES   4    338 42.16                             105   -4.29 0  407 327 
 SJC  HZ I         338 47.99         9.2 0.28            106            407 327 
                                                                                
