 2011  515 0259 39.6 L   6.805 -73.160143.5  RSN 13 0.5 1.9LRSN                1
 GAP=135        0.97       4.2     6.0  6.4 -0.1119E+02  0.8326E+01 -0.1633E+00E
 Epicentro: LOS SANTOS - SANTANDER                                             3
 ACTION:UP  11-06-29 08:53 OP:tino STATUS:               ID:20110515025939 L   I
 2011-05-15-0256-06S.COL___141                                                 6
 STAT SP IPHASW D HRMM SECON CODA AMPLIT PERI AZIMU VELO SNR AR TRES W  DIS CAZ7
 BTL  SZ IP        259 59.07                             173     0.210   17 316 
 BAR2 SZ IP        259 58.84                             170    -0.110   24 186 
 BAR2 SZ ES   1    3 0 14.25                             170     0.2 7   24 186 
 BAR2 SZ I         3 0 15.44        16.2 0.28                            24 186 
 GIR2 SZ EP        259 58.92                             167    -0.110   30 353 
 GIR2 SZ ES   1    3 0 13.19                             167    -0.9 7   30 353 
 BRR  HZ IP     D  3 0  0.65                             152     0.210   70 299 
 BRR  HN ES   1    3 0 17.61                             152     1.0 7   70 299 
 BRR  HZ I         3 0 20.96        19.3 0.05                            70 299 
 PAM  SZ EP        3 0  1.86                             150     0.210   78  41 
 PAM  SN ES   1    3 0 18.93                             150     0.1 7   78  41 
 RUS  HZ IP     D  3 0  2.85                             143    -0.310  101 175 
 RUS  HN ES   1    3 0 21.68                             143     0.1 7  101 175 
 RUS  HZ I         3 0 23.78         7.4 0.32                           101 175 
 BRI  SZ EP   3    3 0  4.28                             141     1.0 2  108  22 
 BRI  SZ ES   2    3 0 21.99                             141     0.2 5  108  22 
 GRA  SZ EP        3 0  4.70                             136     0.110  126  18 
 GRA  SZ ES   1    3 0 23.57                             136    -0.6 7  126  18 
 GRA  SZ I         3 0 28.83         7.0 0.23                           126  18 
 OCA  SZ EP        3 0  7.71                             129     0.0 9  160 354 
 OCA  SZ ES   2    3 0 28.54                             129    -1.0 5  160 354 
 OCA  SZ I         3 0 33.97        10.2 0.39                           160 354 
 NOR  SZ EP        3 0 15.46                             118     0.4 8  234 234 
 NOR  SN ES   1    3 0 42.54                             118    -0.3 6  234 234 
 HEL  HN ES   2    3 0 50.19                             114    -0.5 4  271 256 
 HEL  HZ I         3 0 59.06         6.7 0.43                           271 256 
 GUY  SN ES   2    3 0 56.65                             112    -0.7 4  303 235 
 GUY  SZ I         3 1  5.19         9.9 0.37                           303 235 
 SJC  HZ EP   3    3 0 33.10                             105    -1.8 1  408 327 
                                                                                
