 2012  115 0924 55.6 L   6.436 -73.581101.1  RSN  4 0.3 1.8LRSN                1
 GAP=208        0.78       8.4     4.2  9.5 -0.1772E+01  0.1802E+02 -0.4244E+01E
 Epicentro: SANTA HELENA DEL OPON - SANTANDER                                  3
 ACTION:UP  12-02-03 08:17 OP:REBC STATUS:               ID:20120115092455 L   I
 2012-01-15-0920-00M.COL___187                                                 6
 STAT SP IPHASW D HRMM SECON CODA AMPLIT PERI AZIMU VELO SNR AR TRES W  DIS CAZ7
 BAR2 SZ EP        925 11.27                             153     0.310   47  69 
 BAR2 SZ ES   1    925 23.22                             153     0.3 7   47  69 
 BAR2 SZ I         925 25.15        32.5 0.22                            47  69 
 GIR2 SZ EP   1    925 12.90                             137    -0.4 7   83  31 
 GIR2 SZ ES   1    925 26.78                             137    -0.3 7   83  31 
 PTB  HZ EP   1    925 14.06                             132    -0.4 7   98 277 
 PTB  HN ES   1    925 28.82                             132    -0.2 7   98 277 
 ZAR  HZ EP   1    925 23.50                             113     0.2 7  183 310 
 ZAR  HE ES   1    925 45.29                             113     0.4 7  183 310 
 ZAR  HZ I         925 48.13         5.7 0.35                           183 310 
                                                                                
