 2011  815 0721 37.4 L   6.750 -73.893120.8  RSN  4 0.3 1.3LRSN                1
 GAP=161        0.56       3.7    11.9 13.3 -0.1786E+01  0.1300E+03 -0.5044E+01E
 Epicentro: PUERTO PARRA - SANTANDER                                           3
 ACTION:UPD 12-07-13 15:52 OP:ep   STATUS:               ID:20110815072137 L   I
 2011-08-15-0720-44S.COL___149                                                 6
 STAT SP IPHASW D HRMM SECON CODA AMPLIT PERI AZIMU VELO AIN AR TRES W  DIS CAZ7
 BAR2 SZ EP   1    721 57.51                             144    0.57 7 80.5 102 
 BAR2 SZ ES        722 12.15                             144    0.0010 80.5 102 
 BAR2 SZ I         722 13.64         4.9 0.27                          80.5 102 
 RUS  HZ EP   1    722  1.24                             130   -0.23 7  130 137 
 RUS  HE ES   2    722 19.82                             130   -0.39 5  130 137 
 RUS  HZ I         722 21.32         2.4 0.19                           130 137 
 NOR  SZ EP   2    722  4.73                             121   -0.08 5  170 220 
 OCA  SZ EP   2    722  5.54                             120   -0.08 4  176  21 
 OCA  SZ ES   1    722 27.42                             120   -0.18 7  176  21 
 OCA  SZ I         722 35.59         3.6 0.40                           176  21 
                                                                                
