 2011  815 0358 18.9 L   6.812 -73.027135.0  RSN  4 0.2 1.6LRSN                1
 GAP=195        0.47       3.1     8.4  6.6  0.1442E+02 -0.2662E+02 -0.9390E+01E
 Epicentro: CEPITA - SANTANDER                                                 3
 ACTION:UPD 12-07-13 15:52 OP:ep   STATUS:               ID:20110815035818 L   I
 2011-08-15-0355-43S.COL___150                                                 6
 STAT SP IPHASW D HRMM SECON CODA AMPLIT PERI AZIMU VELO AIN AR TRES W  DIS CAZ7
 BAR2 SZ EP   1    358 37.57                             167    0.18 7 29.7 215 
 BAR2 SZ ES   2    358 52.11                             167    0.29 5 29.7 215 
 BAR2 SZ I         358 53.44         9.1 0.24                          29.7 215 
 BRR  HZ EP        358 39.48                             147   -0.1310 82.4 293 
 BRR  HN ES   1    358 55.87                             147    0.11 7 82.4 293 
 BRR  HZ I         359  0.37        10.2 0.10                          82.4 293 
 RUS  HZ EP   1    358 41.98                             141    0.28 7  102 184 
 RUS  HZ I         358 42.98         4.0 0.18                           102 184 
 RUS  HN ES   1    358 59.12                             141   -0.37 7  102 184 
 OCA  SZ EP   1    358 46.47                             127    0.00 7  161 348 
 OCA  SZ ES   1    359  7.87                             127   -0.11 7  161 348 
 OCA  SZ I         359 12.44         7.4 0.29                           161 348 
                                                                                
