 2013  115 0904 54.1 L   6.806 -73.181140.3  RSN  8 0.3 2.1LRSN                1
 GAP=179        0.63       3.1     4.7  6.0  0.4096E+01  0.9339E+01  0.1184E+01E
 Epicentro: LOS SANTOS - SANTANDER                                             3
 ACTION:UPD 13-02-15 09:14 OP:ep   STATUS:               ID:20130115090454 L   I
 2013-01-15-0900-00M.COL___241                                                 6
 STAT SP IPHASW D HRMM SECON CODA AMPLIT PERI AZIMU VELO AIN AR TRES W  DIS CAZ7
 BAR2 SZ EP   1    9 5 13.08                             170    0.00 7 23.6 180 
 BAR2 SZ ES   1    9 5 27.86                             170   -0.03 7 23.6 180 
 BAR2 SZ I         9 5 29.03        67.8 0.30            163           23.6 180 
 BRR  HZ EP     D  9 5 14.81                             153    0.3610 67.5 300 
 BRR  HN ES   4    9 5 31.82                             153    1.50 0 67.5 300 
 BRR  HZ I         9 5 33.04        21.8 0.14            138           67.5 300 
 RUS  HZ EP   1    9 5 17.24                             142   -0.15 7  102 174 
 RUS  HN ES   1    9 5 35.71                             142    0.15 7  102 174 
 RUS  HZ I         9 5 37.33        13.6 0.58            131            102 174 
 PTB  HZ EP   1    9 5 19.70                             131   -0.59 7  144 258 
 PTB  HN ES   1    9 5 40.48                             131   -0.23 7  144 258 
 PTB  HZ I         9 5 44.00        15.5 0.20            117            144 258 
 OCA  HN ES   1    9 5 43.39                             128   -0.19 7  159 355 
 OCA  HZ I         9 5 47.69        16.8 0.18            117            159 355 
 ZAR  HZ EP   1    9 5 25.45                             122   -0.35 6  200 292 
 ZAR  HN ES   1    9 5 50.72                             122    0.21 6  200 292 
 ZAR  HZ I         9 5 56.59        11.0 0.12            109            200 292 
 CTAB SZ EP   4    9 5 31.50                             118    2.12 0  228 210 
 CHI  HZ EP   1    9 5 31.38                             116   -0.08 6  248 194 
 CHI  HN ES   1    9 6  0.52                             116   -0.08 6  248 194 
 CHI  HZ I         9 6  5.30         6.6 0.26            105            248 194 
 HEL  HZ EP   1    9 5 34.45                             114    0.81 6  268 255 
 HEL  HZ I         9 6 11.28         6.7 0.44            103            268 255 
                                                                                
