 2011  915 0142 22.9 L   6.794 -73.147149.6  RSN  5 0.2 1.7LRSN                1
 GAP=185        0.37       5.5     6.6  5.9  0.2573E+02 -0.7768E+01 -0.7053E+01E
 Epicentro: LOS SANTOS - SANTANDER                                             3
 ACTION:UPD 12-07-13 15:57 OP:ep   STATUS:               ID:20110915014222 L   I
 2011-09-15-0141-04S.COL___169                                                 6
 STAT SP IPHASW D HRMM SECON CODA AMPLIT PERI AZIMU VELO AIN AR TRES W  DIS CAZ7
 BAR2 SZ EP   1    142 42.78                             171   -0.17 7 22.7 190 
 BAR2 SZ ES   2    142 58.60                             171   -0.01 5 22.7 190 
 BAR2 SZ I         142 59.34        11.0 0.34                          22.7 190 
 GIR2 SZ EP   1    142 42.92                             167   -0.09 7 31.9 351 
 BRR  HZ EP   1    142 44.54                             153    0.10 7 71.4 299 
 BRR  HZ I         142 44.95        10.1 0.20                          71.4 299 
 BRR  HE ES   2    143  1.52                             153    0.25 5 71.4 299 
 RUS  HZ EP   1    142 47.18                             145    0.22 7100.0 176 
 RUS  HN ES   2    143  5.55                             145   -0.20 5100.0 176 
 RUS  HZ I         143  6.76         5.7 0.27                         100.0 176 
 ZAR  HE ES   2    143 20.87                             123   -0.22 4  204 292 
 ZAR  HZ I         143 27.47         5.6 0.20                           204 292 
                                                                                
