 2010 1215 0746  7.6 L   6.789 -73.105142.8  RSN  7 0.3 1.5LRSN                1
 GAP=163        0.54       4.9    13.7 11.1 -0.3834E+02  0.1037E+03 -0.1410E+02E
 Epicentro: LOS SANTOS - SANTANDER                                             3
 ACTION:UP  11-01-14 15:25 OP:pat  STATUS:               ID:20101215074607 L   I
 2010-12-15-0740-00M.COL___137                                                 6
 STAT SP IPHASW D HRMM SECON CODA AMPLIT PERI AZIMU VELO SNR AR TRES W  DIS CAZ7
 BTL  SZ IP        746 27.14                             170     0.210   23 309 
 BAR2 SZ EP   2    746 26.78                             170    -0.1 5   24 202 
 BAR2 SZ I         746 27.49         7.7 0.17                            24 202 
 GIR2 SZ EP   2    746 26.98                             166     0.0 5   33 343 
 RUS  HZ EP   1    746 31.08                             143     0.1 7   99 179 
 RUS  HE ES   2    746 49.06                             143    -0.2 5   99 179 
 RUS  HZ I         746 51.21         2.7 0.49                            99 179 
 GRA  SZ EP   1    746 32.71                             136     0.1 7  126  15 
 GRA  SZ ES   2    746 51.51                             136    -0.6 5  126  15 
 GRA  SZ I         746 54.87         4.0 0.29                           126  15 
 RREF HZ EP        746 53.91                             110    -0.1 7  324 230 
 RREF HZ I         747 11.83         1.9 0.13                           324 230 
 PRA  HZ EP   2    747  0.37                             106    -0.8 3  393 210 
                                                                                
