 2015  915 0734 55.8 L   6.789 -73.132150.4  RSN  4 0.2 1.6LRSN                1
 GAP=255        0.55       3.7     5.2  5.9  0.5540E+01 -0.1277E+01  0.3260E+01E
 Epicentro: LOS SANTOS - SANTANDER                                             3
 ACTION:UPD 15-10-28 16:26 OP:cam  STATUS:               ID:20150915073455 L   I
 OLDACT:REG 15-09-15 12:43 OP:mh   STATUS:               ID:20150915072736     3
 2015-09-15-0727-36M.COL___350                                                 6
 STAT SP IPHASW D HRMM SECON CODA AMPLIT PERI AZIMU VELO AIN AR TRES W  DIS CAZ7
 BAR2 EZ EP        735 15.75                             171   -0.2510 22.5 194 
 BRR  HN ES        735 34.75                             153    0.2010 73.1 299 
 BRR  HZ I         735 35.39         5.8 0.08            148           73.1 299 
 SPBC HZ EP        735 24.87                             130    0.19 9  163 220 
 SPBC HN ES        735 47.14                             130   -0.05 9  163 220 
 SPBC HZ I         735 55.26         4.3 0.26            126            163 220 
 ZAR  HZ EP        735 28.95                             123    0.19 8  206 292 
 ZAR  HN ES        735 54.18                             123   -0.28 8  206 292 
 ZAR  HZ I         735 58.89         3.4 0.28            121            206 292 
                                                                                
