 2012 1215 0254 42.8 L   6.041 -73.739111.9  RSN  4 0.1 0.8LRSN                1
 GAP=202        0.32       3.1     2.5  5.8  0.4049E+01  0.5369E+01  0.4833E+01E
 Epicentro: BOLIVAR - SANTANDER                                                3
 ACTION:UPD 13-01-04 14:27 OP:ep   STATUS:               ID:20121215025442 L   I
 2012-12-15-0250-03M.COL___210                                                 6
 STAT SP IPHASW D HRMM SECON CODA AMPLIT PERI AZIMU VELO AIN AR TRES W  DIS CAZ7
 RUS  HZ EP   1    255  1.43                             144    0.10 7 74.4 103 
 RUS  HN ES   1    255 15.72                             144   -0.07 7 74.4 103 
 RUS  HZ I         255 17.14         1.0 0.26                          74.4 103 
 BAR2 SZ ES   2    255 16.82                             140    0.04 5 86.6  45 
 PTB  HZ EP   1    255  2.31                             136   -0.09 7 96.6 305 
 PTB  HN ES   1    255 17.76                             136    0.06 7 96.6 305 
 PTB  HZ I         255 19.93         2.7 0.36                          96.6 305 
 BRR  HN ES   1    255 21.02                             130   -0.02 7  118   1 
                                                                                
