 2011 1215 0243  4.4 L   6.764 -73.103145.6  RSN 17 0.4 2.6LRSN                1
 GAP=119        0.73       2.6     3.9  4.7 -0.3867E+01  0.3315E+01  0.2835E+01E
 Epicentro: LOS SANTOS - SANTANDER                                             3
 ACTION:UPD 12-07-13 16:16 OP:ep   STATUS:               ID:20111215024304 L   I
 2011-12-15-0240-00M.COL___183                                                 6
 STAT SP IPHASW D HRMM SECON CODA AMPLIT PERI AZIMU VELO AIN AR TRES W  DIS CAZ7
 BAR2 SZ EP   1    243 24.03                             171    0.11 7 21.0 205 
 BAR2 SZ ES   1    243 39.23                             171    0.05 7 21.0 205 
 BAR2 SZ I         243 40.69       143.8 0.34                          21.0 205 
 GIR2 SZ EP        243 24.13                             165   -0.0210 36.2 344 
 BRR  HZ IP     D  243 25.92                             151    0.0810 77.2 299 
 BRR  HN ES   1    243 43.05                             151    0.46 7 77.2 299 
 BRR  HZ I         243 48.23       128.2 0.11                          77.2 299 
 PAM  SZ EP        243 26.83                             151    0.2610 77.7  35 
 PAM  SE ES   1    243 43.51                             151   -0.38 7 77.7  35 
 RUS  HZ EP        243 27.92                             145    0.1310 96.4 179 
 RUS  HN ES   1    243 45.78                             145   -0.30 7 96.4 179 
 RUS  HZ I         243 47.82        59.5 0.24                          96.4 179 
 BRI  SZ EP   1    243 28.41                             141    0.02 7  111  18 
 OCA  SZ EP        243 32.69                             129   -0.39 9  165 352 
 OCA  SZ ES   1    243 55.56                             129    0.08 7  165 352 
 OCA  SZ I         244  0.79        97.3 0.36                           165 352 
 YOP  SZ EP   1    243 34.36                             127    0.53 7  173 154 
 YOP  SZ I         244  4.96        20.5 0.18                           173 154 
 NOR  SZ EP   1    243 39.22                             118   -1.03 6  236 236 
 NOR  SE ES        244  7.51                             118   -0.73 8  236 236 
 CHI  HZ EP   1    243 41.69                             117   -0.08 6  246 196 
 CHI  HN ES   1    244 10.76                             117   -0.20 6  246 196 
 CHI  HZ I         244 19.94        21.4 0.40                           246 196 
 CVER SZ EP   1    243 45.04                             115    0.54 6  270 203 
 HEL  HZ EP   1    243 45.14                             114    0.18 6  276 257 
 HEL  HZ I         244 22.63        25.0 0.36                           276 257 
 VIL  SZ EP   1    243 47.08                             112   -0.36 5  301 193 
 VIL  SZ I         244 32.30        16.3 0.54                           301 193 
 GUY  SZ EP   1    243 48.81                             112    0.40 5  305 236 
 GUY  SE ES   1    244 23.35                             112    0.58 5  305 236 
 RREF HN ES   1    244 27.35                             111    0.66 5  323 230 
 TOL  SZ EP   1    243 52.79                             109    0.12 5  344 226 
 PRA  HZ EP   1    243 57.25                             106   -0.49 4  391 210 
 PRA  HE ES        244 39.54                             106    0.15 6  391 210 
                                                                                
