 2012 1015 0547 14.2 L   6.767 -73.110146.9  RSN  4 0.2 1.5LRSN                1
 GAP=143        0.47       3.1     4.2  4.4  0.9618E+00 -0.3512E+01  0.1044E+01E
 Epicentro: LOS SANTOS - SANTANDER                                             3
 ACTION:UPD 12-11-22 17:04 OP:ep   STATUS:               ID:20121015054714 L   I
 2012-10-15-0540-00M.COL___230                                                 6
 STAT SP IPHASW D HRMM SECON CODA AMPLIT PERI AZIMU VELO AIN AR TRES W  DIS CAZ7
 BAR2 SZ EP        547 33.87                             172   -0.0710 20.9 203 
 BAR2 SZ I         547 34.43        11.1 0.16                          20.9 203 
 BAR2 SZ ES   1    547 49.68                             172    0.35 7 20.9 203 
 BRR  HZ EP        547 35.70                             151   -0.1010 76.4 300 
 BRR  HZ I         547 36.19         7.5 0.10                          76.4 300 
 BRR  HE ES        547 52.60                             151   -0.0210 76.4 300 
 PAM  SZ EP        547 36.80                             151    0.2110 77.9  36 
 PAM  SE ES   1    547 53.77                             151   -0.27 7 77.9  36 
 PAM  SZ I         547 56.57         3.5 0.23                          77.9  36 
 RUS  HZ EP        547 37.85                             145    0.0410 96.7 178 
 RUS  HN ES   1    547 56.02                             145   -0.19 7 96.7 178 
                                                                                
