 2011 1215 0533 23.2 L   6.796 -73.113141.6  RSN  7 0.4 1.8LRSN                1
 GAP=141        0.72       2.9     7.1  6.1 -0.3356E+01  0.2838E+01  0.2541E+01E
 Epicentro: LOS SANTOS - SANTANDER                                             3
 ACTION:UPD 12-07-13 16:16 OP:ep   STATUS:               ID:20111215053323 L   I
 2011-12-15-0530-00M.COL___184                                                 6
 STAT SP IPHASW D HRMM SECON CODA AMPLIT PERI AZIMU VELO AIN AR TRES W  DIS CAZ7
 BAR2 SZ EP        533 42.36                             170    0.0010 23.8 199 
 BAR2 SZ ES   1    533 56.99                             170   -0.30 7 23.8 199 
 BAR2 SZ I         533 57.94        20.0 0.45                          23.8 199 
 GIR2 SZ EP   1    533 42.49                             166    0.06 7 32.5 344 
 BRR  HZ EP   1    533 44.29                             151    0.18 7 74.6 297 
 BRR  HN ES   1    534  0.95                             151    0.53 7 74.6 297 
 BRR  HZ I         534  2.41        16.4 0.14                          74.6 297 
 PAM  SZ EP   1    533 45.35                             151    0.48 7 75.5  37 
 PAM  SN ES   1    534  1.98                             151    0.21 7 75.5  37 
 RUS  HZ EP   1    533 46.35                             143   -0.16 7100.0 178 
 RUS  HN ES   1    534  4.63                             143   -0.06 7100.0 178 
 RUS  HZ I         534  6.66         6.6 0.22                         100.0 178 
 OCA  SZ EP   1    533 50.94                             129   -0.35 7  161 352 
 OCA  SZ ES   1    534 12.45                             129   -0.74 7  161 352 
 OCA  SZ I         534 17.83        12.9 0.45                           161 352 
 CHI  HZ EP   1    534  1.27                             116    0.53 6  249 196 
 CHI  HN ES        534 29.69                             116   -0.33 8  249 196 
 CHI  HZ I         534 33.94         2.4 0.33                           249 196 
                                                                                
