 2012 1015 0213 57.6 L   6.745 -73.119141.9  RSN  9 0.2 2.2LRSN                1
 GAP= 94        0.50       2.4     2.2  3.7 -0.6674E+00  0.1509E+01  0.3066E+01E
 Epicentro: JORDAN - SANTANDER                                                 3
 ACTION:UPD 12-11-22 17:03 OP:ep   STATUS:               ID:20121015021357 L   I
 2012-10-15-0210-00M.COL___230                                                 6
 STAT SP IPHASW D HRMM SECON CODA AMPLIT PERI AZIMU VELO AIN AR TRES W  DIS CAZ7
 BAR2 SZ EP        214 16.52                             172   -0.2010 18.3 203 
 BAR2 SZ ES   1    214 31.50                             172   -0.10 7 18.3 203 
 BAR2 SZ I         214 34.40        51.0 0.17                          18.3 203 
 BRR  HZ EP        214 18.71                             150   -0.0110 76.8 301 
 BRR  HE ES   1    214 35.39                             150    0.24 7 76.8 301 
 BRR  HZ I         214 39.51        34.8 0.16                          76.8 301 
 PAM  SZ EP        214 19.57                             149   -0.0710 80.5  35 
 PAM  SN ES        214 36.73                             149   -0.0710 80.5  35 
 PAM  SZ I         214 39.06        28.4 0.18                          80.5  35 
 RUS  HZ EP        214 20.56                             145   -0.0110 94.3 178 
 RUS  HE ES   1    214 38.74                             145    0.29 7 94.3 178 
 TAM  HZ EP   1    214 24.58                             131   -0.04 7  151 103 
 TAM  HE ES   1    214 45.71                             131    0.06 7  151 103 
 TAM  HZ I         214 45.77        24.1 0.40                           151 103 
 YOP  SZ EP   1    214 27.26                             127    0.52 7  172 153 
 CHI  HZ EP   1    214 34.07                             117   -0.51 6  244 196 
 CHI  HZ I         214 37.43         6.9 0.28                           244 196 
 CHI  HN ES   1    215  3.14                             117   -0.25 6  244 196 
 HEL  HZ EP   1    214 37.86                             114    0.03 6  274 257 
 HEL  HN ES   1    215  9.33                             114    0.16 6  274 257 
 HEL  HZ I         215 16.01         8.2 0.38                           274 257 
 GUY  SZ EP   1    214 41.82                             111    0.59 5  303 236 
 GUY  SN ES   1    215 14.92                             111   -0.31 5  303 236 
                                                                                
