 2010  215 0817 54.1 L   6.822 -73.156148.8  RSN  8 0.5 1.9LRSN                1
 GAP=136        0.72       4.6     6.9  8.4 -0.5593E+01  0.7045E+01 -0.9150E+01E
 Epicentro: LOS SANTOS - SANTANDER                                             3
 ACTION:UP  10-08-24 09:49 OP:vdl  STATUS:               ID:20100215081754 L   I
 2010-02-15-0800-00S.COL___092                                                 6
 STAT SP IPHASW D HRMM SECON CODA AMPLIT PERI AZIMU VELO SNR AR TRES W  DIS CAZ7
 BAR2 SZ EP        818 14.33                             170     0.210   26 187 
 BAR2 SZ ES   2    818 29.55                             170    -0.2 5   26 187 
 OCA  SZ EP   1    818 22.86                             130     0.5 7  158 353 
 OCA  SZ I         818 51.13        15.8 0.30                           158 353 
 CHI  HZ EP        818 32.23                             117     0.0 8  251 195 
 CHI  HZ I         818 32.44         2.2 0.53                           251 195 
 CHI  HE ES   2    819  0.86                             117    -1.1 4  251 195 
 HEL  HE ES   3    819  5.58                             115    -0.3 2  272 255 
 RREF BE ES   3    819 17.36                             111     0.7 2  323 229 
 RREF BZ I         819 22.80         2.9 0.32                           323 229 
 MON  HZ EP        818 42.96                             109     0.1 6  350 308 
 MON  HN ES   2    819 20.08                             109    -0.9 3  350 308 
 MON  HZ I         819 36.79         2.8 0.84                           350 308 
 SDV  BZ EP        818 43.72                             108    -0.5 6  360  51 
 PRA  HZ EP   3    818 46.99                             107    -0.9 1  394 209 
 PRA  HN ES   2    819 30.63                             107     0.7 3  394 209 
 PRA  HZ I         819 35.59         2.1 0.30                           394 209 
                                                                                
