 2017  415 0258 27.6 L   6.775 -73.114148.1  RSN  7 0.4 1.3LRSN                1
 GAP=239        0.73       4.0     5.3  5.2  0.4176E+01 -0.3326E+01  0.1201E+01E
 Epicentro: LOS SANTOS - SANTANDER                                             3
 ACTION:UPD 17-05-30 21:12 OP:jn   STATUS:               ID:20170415025827 L   I
 OLDACT:UP  17-04-15 15:39 OP:edw  STATUS:               ID:20170415025736     3
 OLDACT:UP  17-04-15 15:39 OP:edw  STATUS:               ID:20170415025736     3
 OLDACT:UP  17-04-15 15:38 OP:edw  STATUS:               ID:20170415025736     3
 OLDACT:REG 17-04-15 12:42 OP:edw  STATUS:               ID:20170415025736     3
 2017-04-15-0258-00M.COL___368                                                 6
 STAT SP IPHASW D HRMM SECON CODA AMPLIT PERI AZIMU VELO AIN AR TRES W  DIS CAZ7
 BAR2 EZ EP        258 47.45                             172   -0.0310 21.6 201 
 BAR2 EZ ES        259  2.90                             172   -0.0810 21.6 201 
 BAR2 EZ I         259  3.40         4.1 0.70            171           21.6 201 
 BRR  HZ EP     D  258 49.30                             151    0.0410 75.6 299 
 BRR  HN ES        259  6.40                             151    0.2610 75.6 299 
 BRR  HZ I         259  9.47         4.2 0.24            150           75.6 299 
 RUS  HZ EP        258 51.43                             145    0.0510 97.6 178 
 RUS  HN ES        259  9.80                             145   -0.1210 97.6 178 
 RUS  HZ I         259 12.12         1.7 0.28            146           97.6 178 
 PTB  HZ EP   9    258 53.91                             132   -1.12 0  151 260 
 PTB  HN ES        259 15.46                             134    0.16 9  151 260 
 PTB  HZ I         259 16.25         3.0 0.14            131            151 260 
 SPBC HZ EP        258 56.42                             130    0.12 9  163 221 
 SPBC HN ES        259 18.15                             130   -0.53 9  163 221 
 SPBC HZ I         259 21.08         3.4 0.30            130            163 221 
 ZAR  HZ EP   4    258 56.87                             122   -3.78 0  208 292 
 ZAR  HN ES   2    259 26.23                             122   -0.19 4  208 292 
 ZAR  HZ I         259 30.20         1.8 0.24            122            208 292 
 CHI  HE ES   2    259 36.21                             118    1.60 4  247 196 
                                                                                
