 2014  515 0220 24.2 L   6.824 -73.148147.8  RSN 15 0.5 2.0LRSN                1
 GAP=135        1.06       3.0     3.9  6.0 -0.2801E+01  0.4247E+01  0.4040E+01E
 Epicentro: LOS SANTOS - SANTANDER                                             3
 ACTION:UPD 15-03-16 16:57 OP:nd   STATUS:               ID:20140515022024 L   I
 OLDACT:REG 14-05-15 13:26 OP:spq  STATUS:               ID:20140515021816     3
 2014-05-15-0218-16M.COL___251                                                 6
 STAT SP IPHASW D HRMM SECON CODA AMPLIT PERI AZIMU VELO AIN AR TRES W  DIS CAZ7
 BRR  HZ IPg    D  220 45.81                             153    0.3610 69.7 297 
 BRR  HE ESg       221  3.02                             153    0.9610 69.7 297 
 BRR  HZ I         221  8.22        12.9 0.16            152           69.7 297 
 PAM  SZ EPg       220 46.50                             152    0.0110 75.5  41 
 PAM  SN ESg       221  4.18                             152    0.2810 75.5  41 
 PAM  SZ I         221  6.13        24.1 0.56            157           75.5  41 
 RUS  HZ EP        220 48.36                             144    0.0510  103 176 
 RUS  HN ES   1    221  6.25                             144   -0.89 7  103 176 
 RUS  HZ I         221  9.43        10.4 0.40            147            103 176 
 PTB  HZ EP        220 50.65                             132   -0.67 9  148 258 
 PTB  HE ES        221 11.81                             132   -0.70 9  148 258 
 PTB  HZ I         221 14.26        11.1 0.14            133            148 258 
 OCA  HZ EP   1    220 53.12                             131    0.73 7  158 353 
 OCA  HN ES        221 14.03                             131   -0.37 9  158 353 
 OCA  HZ I         221 19.77        11.1 0.22            133            158 353 
 SPBC HZ EP        220 52.85                             129   -0.15 9  165 218 
 SPBC HN ES        221 15.19                             129   -0.30 9  165 218 
 SPBC HZ I         221 19.14        19.1 0.20            131            165 218 
 ZAR  HZ EP        220 56.47                             123   -0.15 9  203 291 
 ZAR  HN ES        221 21.41                             123   -0.52 9  203 291 
 ZAR  HZ I         221 30.53         9.7 0.32            124            203 291 
 NOR  HN ES        221 28.75                             119    0.52 8  236 234 
 NOR  HZ I         221 32.25         9.4 0.18            121            236 234 
 SML  HZ EP        221  0.58                             118   -0.05 8  241 335 
 SML  HN ES   1    221 28.70                             118   -0.38 6  241 335 
 SML  HZ I         221 32.18        17.4 0.10            120            241 335 
 CHI  HZ EP        221  2.27                             117    0.03 8  251 195 
 CHI  HN ES   1    221 31.30                             117   -0.64 6  251 195 
 CHI  HZ I         221 36.87         4.0 0.29            120            251 195 
 HEL  HZ EP        221  4.40                             115   -0.12 8  272 255 
 HEL  HE ES   1    221 36.51                             115    0.50 6  272 255 
 HEL  HZ I         221 42.24         5.4 0.30            117            272 255 
 GUY2CHZ EP        221  8.61                             113    0.60 7  303 234 
 GUY2CHN ES   1    221 42.88                             113    0.66 5  303 234 
 GUY2CHZ I         221 49.48         4.8 0.29                           303 234 
 RREF HZ EP        221 10.63                             111    0.06 7  323 229 
 RREF HN ES   1    221 47.69                             111    0.93 5  323 229 
 RREF HZ I         221 54.94         7.2 0.26            113            323 229 
 CBOC HZ EP   4    221 12.57                             110    1.34 0  334 252 
 CBOC HE ES        221 47.67                             110   -0.27 7  334 252 
 CBOC HZ I         221 54.38         2.3 0.42            112            334 252 
 PRA  HZ EP        221 18.27                             107    0.26 6  394 209 
 PRA  HN ES        222  0.16                             107    0.16 6  394 209 
 PRA  HZ I         222  5.37         3.4 0.21            109            394 209 
                                                                                
