 2016  315 0518  6.8 L   6.856 -73.162136.0  RSN  7 0.5 1.4LRSN                1
 GAP=132        1.03       4.6     5.2  9.1 -0.6751E+01  0.1372E+02  0.5835E+01E
 Epicentro: ZAPATOCA - SANTANDER                                               3
 ACTION:UPD 16-05-13 21:24 OP:cam  STATUS:               ID:20160315051806 L   I
 OLDACT:REG 16-03-15 13:27 OP:dnl  STATUS:               ID:20160315050749     3
 2016-03-15-0507-49M.COL___301                                                 6
 STAT SP IPHASW D HRMM SECON CODA AMPLIT PERI AZIMU VELO AIN AR TRES W  DIS CAZ7
 BAR2 EZ EP   2    518 25.72                             167    0.30 5 29.3 184 
 BAR2 EZ ES   2    518 40.66                             167    0.74 5 29.3 184 
 BAR2 EZ I         518 42.55        10.0 0.26            169           29.3 184 
 PAM  EZ EP        518 28.62                             149    0.8410 73.9  44 
 PAM  EN ES        518 43.35                             149   -0.7910 73.9  44 
 PAM  EZ I         518 49.07         2.9 0.30            154           73.9  44 
 RUS  HZ EP        518 29.95                             139   -0.1610  107 175 
 RUS  HN ES        518 48.42                             139    0.1410  107 175 
 RUS  HZ I         518 50.07         3.0 0.22            145            107 175 
 PTB  HZ EP        518 33.09                             129    0.12 9  147 256 
 PTB  HN ES        518 53.03                             129   -0.33 9  147 256 
 PTB  HZ I         518 56.37         2.9 0.14            132            147 256 
 SPBC HZ EP        518 34.95                             125   -0.01 9  167 217 
 SPBC HN ES        518 57.11                             125    0.20 9  167 217 
 SPBC HZ I         519  1.95         5.4 0.18            129            167 217 
 ZAR  HN ES   2    519  3.04                             120    0.31 4  200 291 
 ZAR  HZ I         519  9.21         3.5 0.30            123            200 291 
 CHI  HZ EP   2    518 43.79                             114   -0.82 4  254 194 
 CHI  HN ES        519 13.75                             114   -0.34 8  254 194 
 CHI  HZ I         519 16.97         1.9 0.64            118            254 194 
                                                                                
