 2013  515 0252 22.2 L   6.397 -73.712 96.5  RSN  6 0.4 1.4LRSN                1
 GAP= 79        0.89       3.6     3.6  9.4  0.5090E+00  0.1382E+02  0.1404E+02E
 Epicentro: SANTA HELENA DEL OPON - SANTANDER                                  3
 ACTION:UPD 13-06-20 09:50 OP:ep   STATUS:               ID:20130515025222 L   I
 2013-05-15-0250-00M.COL___256                                                 6
 STAT SP IPHASW D HRMM SECON CODA AMPLIT PERI AZIMU VELO AIN AR TRES W  DIS CAZ7
 BAR2 SZ EP   1    252 38.08                             145    0.09 7 62.5  70 
 BAR2 SZ ES   1    252 51.08                             145    0.76 7 62.5  70 
 BAR2 SZ I         252 52.39        23.5 0.34            146           62.5  70 
 BRR  HZ IP        252 39.09                             138    0.1910 78.6   0 
 BRR  HE ES        252 52.00                             138    0.0710 78.6   0 
 PTB  HZ EP        252 38.83                             136   -0.5310 83.8 281 
 PTB  HN ES   1    252 52.48                             136   -0.27 7 83.8 281 
 PTB  HZ I         252 52.95         7.7 0.30            138           83.8 281 
 RUS  HZ EP   1    252 40.00                             135   -0.48 7 89.2 129 
 RUS  HN ES        252 54.41                             135   -0.3410 89.2 129 
 RUS  HZ I         252 57.28         2.5 0.48            133           89.2 129 
 NOR  HZ EP   1    252 47.10                             117    0.28 7  158 234 
 NOR  HN ES        253  6.22                             117    0.19 9  158 234 
 NOR  HZ I         253  8.28         3.0 0.24            117            158 234 
 PRA  HN ES        253 41.17                             103    0.58 7  324 204 
 PRA  HZ I         253 46.13         1.5 0.28            100            324 204 
                                                                                
