 2011  815 0345 19.9 L   6.781 -73.118149.8  RSN 13 0.4 3.4LRSN                1
 GAP=141        0.64       2.2     4.3  4.0 -0.2090E+01  0.5277E+01  0.1552E+01E
 Epicentro: LOS SANTOS - SANTANDER                                             3
 ACTION:UPD 12-07-13 15:52 OP:ep   STATUS:               ID:20110815034519 L   I
 2011-08-15-0343-46S.COL___150                                                 6
 STAT SP IPHASW D HRMM SECON CODA AMPLIT PERI AZIMU VELO AIN AR TRES W  DIS CAZ7
 BAR2 SZ IP     C  345 40.04                             171    0.0310 22.0 199 
 BAR2 SZ ES   1    345 55.09                             171   -0.59 7 22.0 199 
 BAR2 SZ I         345 58.62       529.8 0.66                          22.0 199 
 BRR  HZ IP        345 41.91                             152    0.1910 74.9 299 
 BRR  HE ES   1    345 59.24                             152    0.53 7 74.9 299 
 BRR  HZ I         346  2.46       422.0 0.31                          74.9 299 
 PAM  SZ IP        345 42.78                             151    0.2210 77.2  37 
 PAM  SN ES   1    345 59.98                             151   -0.23 7 77.2  37 
 RUS  HZ IP     C  345 43.98                             145    0.0710 98.3 178 
 RUS  HE ES   1    346  2.77                             145    0.15 7 98.3 178 
 RUS  HZ I         346  4.41       322.1 0.45                          98.3 178 
 OCA  SZ EP        345 48.68                             130   -0.10 9  163 352 
 OCA  SZ ES   1    346 11.22                             130   -0.07 7  163 352 
 OCA  SZ I         346 15.30       265.0 0.21                           163 352 
 NOR  SZ EP        345 55.69                             119   -0.34 8  236 235 
 NOR  SN ES   1    346 23.44                             119   -0.75 6  236 235 
 CHI  HZ EP        345 57.93                             118    0.21 8  247 196 
 CHI  HE ES   1    346 27.09                             118   -0.11 6  247 196 
 CHI  HZ I         346 35.51       129.2 0.62                           247 196 
 VIL  SZ EP   1    346  3.50                             113    0.13 5  302 192 
 VIL  SN ES   2    346 37.53                             113    0.28 4  302 192 
 VIL  SZ I         346 43.10        73.4 0.41                           302 192 
 DBB  SZ EP        346  8.19                             110    0.25 7  343 275 
 TOL  SZ EP        346  9.01                             110    0.59 7  344 225 
 COD  HZ EP   2    346  7.77                             109   -0.97 3  351 354 
 COD  HN ES   2    346 46.26                             109   -0.55 3  351 354 
 COD  HZ I         346 53.77       140.1 0.44                           351 354 
 PRA  HZ EP        346 13.41                             107   -0.14 6  392 210 
 PRA  HN ES   2    346 55.44                             107    0.06 3  392 210 
 SJA  SZ EP   1    346 13.68                             107   -0.78 4  399 193 
 SJA  SZ ES   2    346 57.04                             107    0.04 3  399 193 
 SJA  SZ I         347  6.93       130.5 0.43                           399 193 
                                                                                
