 2012  815 0702 47.3 L   6.711 -73.196146.0  RSN  4 0.2 1.4LRSN                1
 GAP=224        0.37       8.8    10.1  8.2  0.6175E+02 -0.3690E+02 -0.7440E+01E
 Epicentro: VILLANUEVA - SANTANDER                                             3
 ACTION:UPD 12-09-10 11:56 OP:ep   STATUS:               ID:20120815070247 L   I
 2012-08-15-0700-00M.COL___217                                                 6
 STAT SP IPHASW D HRMM SECON CODA AMPLIT PERI AZIMU VELO AIN AR TRES W  DIS CAZ7
 BAR2 SZ EP        7 3  6.66                             174   -0.1110 13.2 173 
 BAR2 SZ I         7 3  7.03         5.8 0.28                          13.2 173 
 BRR  HZ EP        7 3  8.55                             152    0.0610 71.9 308 
 BRR  HN ES   1    7 3 25.04                             152    0.01 7 71.9 308 
 RUS  HZ EP   3    7 3 11.11                             146    0.71 2 91.3 172 
 RUS  HN ES   3    7 3 28.66                             146    0.22 2 91.3 172 
 PTB  HN ES   3    7 3 33.89                             133   -0.28 2  141 262 
                                                                                
