 2011  615 0526 28.3 L   6.808 -73.031144.0  RSN  5 0.3 1.3LRSN                1
 GAP=171        0.79       6.0    11.1  9.6  0.6048E+01 -0.4220E+02 -0.8771E+01E
 Epicentro: CEPITA - SANTANDER                                                 3
 ACTION:UP  11-07-14 19:05 OP:ep   STATUS:               ID:20110615052628 L   I
 2011-06-15-0520-00M.COL___125                                                 6
 STAT SP IPHASW D HRMM SECON CODA AMPLIT PERI AZIMU VELO SNR AR TRES W  DIS CAZ7
 BTL  SZ EP        526 48.45                             168     0.610   29 295 
 BAR2 SZ EP   1    526 47.70                             168    -0.2 7   29 215 
 BAR2 SZ ES   1    527  3.02                             168    -0.1 7   29 215 
 BAR2 SZ I         527  4.44         8.7 0.25                            29 215 
 BRR  HZ EP   1    526 49.57                             149    -0.4 7   82 294 
 BRR  HE ES   1    527  6.76                             149     0.0 7   82 294 
 BRR  HZ I         527 10.02         4.6 0.21                            82 294 
 RUS  HZ EP   1    526 51.66                             143    -0.3 7  101 183 
 RUS  HE ES   2    527 10.56                             143     0.2 5  101 183 
 RUS  HZ I         527 11.59         2.0 0.37                           101 183 
 GRA  SZ EP   1    526 53.11                             137     0.0 7  122  12 
 GRA  SZ ES   2    527 12.07                             137    -0.3 5  122  12 
 GRA  SZ I         527 14.97         1.8 0.23                           122  12 
                                                                                
