 2013 1015 0533 50.1 L   6.819 -73.149147.4  RSN 13 0.5 1.9LRSN                1
 GAP=135        1.20       3.5     5.2  7.5 -0.6709E+01  0.2858E+01  0.7306E+01E
 Epicentro: LOS SANTOS - SANTANDER                                             3
 ACTION:UPD 13-11-25 09:21 OP:ep   STATUS:               ID:20131015053350 L   I
 OLDACT:REG 13-10-15 08:06 OP:jn   STATUS:               ID:20131015052959     3
 2013-10-15-0529-59M.COL___274                                                 6
 STAT SP IPHASW D HRMM SECON CODA AMPLIT PERI AZIMU VELO AIN AR TRES W  DIS CAZ7
 BRR  HZ EP        534 11.97                             153    0.6010 69.9 297 
 BRR  HN ES        534 28.49                             153    0.5410 69.9 297 
 BRR  HZ I         534 29.56        15.6 0.12            159           69.9 297 
 PAM  SZ EP        534 13.02                             151    0.5910 76.0  41 
 PAM  SN ES        534 29.96                             151    0.1310 76.0  41 
 PAM  SZ I         534 32.23        21.6 0.48            151           76.0  41 
 RUS  HZ EP   1    534 14.11                             143   -0.07 7  103 176 
 RUS  HZ I         534 33.85         8.6 0.28            140            103 176 
 PTB  HZ EP        534 16.12                             132   -1.10 9  148 258 
 PTB  HE ES        534 37.86                             132   -0.51 9  148 258 
 PTB  HZ I         534 40.79         7.3 0.14            135            148 258 
 OCA  HZ EP        534 18.05                             130   -0.31 9  158 353 
 OCA  HN ES        534 39.64                             130   -0.75 9  158 353 
 OCA  HZ I         534 43.47         6.4 0.16            133            158 353 
 SPBC HZ EP        534 19.13                             129    0.26 9  165 218 
 SPBC HN ES        534 40.89                             129   -0.41 9  165 218 
 SPBC HZ I         534 43.67        13.8 0.34            129            165 218 
 SML  HZ EP        534 26.40                             118   -0.21 8  242 335 
 SML  HE ES        534 55.03                             118   -0.05 8  242 335 
 CHI  HZ EP        534 28.07                             117   -0.04 8  251 195 
 CHI  HN ES        534 57.27                             117   -0.48 8  251 195 
 CHI  HZ I         535  1.09         4.8 0.50            117            251 195 
 ROSC BN ES   1    534 58.84                             117    0.40 6  254 211 
 HEL  HZ EP   4    534 32.24                             115    1.81 0  272 255 
 HEL  HN ES        535  2.59                             115    0.72 8  272 255 
 HEL  HZ I         535  7.71         2.8 0.56            116            272 255 
 GUY2CHZ EP   1    534 35.04                             113    1.14 5  302 234 
 GUY2CHN ES   1    535  8.31                             113    0.25 5  302 234 
 GUY2CHZ I         535 16.38         3.2 0.32                           302 234 
 CBOC HZ EP        534 38.04                             110    0.91 7  334 252 
 CBOC HN ES   1    535 13.55                             110   -0.25 5  334 252 
 PRA  HZ EP        534 43.70                             107   -0.18 6  394 209 
 PRA  HN ES        535 25.45                             107   -0.37 6  394 209 
 PRA  HZ I         535 32.02         3.2 0.34            107            394 209 
                                                                                
