 2013  315 0824 43.7 L   6.810 -73.137145.7  RSN 16 0.5 2.9LRSN                1
 GAP= 71        0.96       2.9     3.5  5.2  0.2157E+00  0.3956E+01  0.1045E+01E
 Epicentro: LOS SANTOS - SANTANDER                                             3
 ACTION:UPD 13-04-09 14:02 OP:ep   STATUS:               ID:20130315082443 L   I
 2013-03-15-0820-00M.COL___244                                                 6
 STAT SP IPHASW D HRMM SECON CODA AMPLIT PERI AZIMU VELO AIN AR TRES W  DIS CAZ7
 BAR2 SZ EP     D  825  3.29                             170   -0.0110 24.6 192 
 BAR2 SZ ES        825 17.65                             170   -0.9810 24.6 192 
 BAR2 SZ I         825 21.17       269.0 0.21            163           24.6 192 
 BRR  HZ IP     C  825  5.09                             152    0.2710 71.5 297 
 BRR  HN ES   1    825 21.86                             152    0.54 7 71.5 297 
 BRR  HZ I         825 25.80       133.5 0.12            148           71.5 297 
 PAM  SZ EP     C  825  6.00                             151    0.2210 76.0  40 
 PAM  SN ES        825 23.21                             151    0.1810 76.0  40 
 PAM  SZ I         825 25.12        78.1 0.46            146           76.0  40 
 RUS  HZ IP     C  825  7.20                             143   -0.2810  102 177 
 RUS  HN ES   1    825 26.08                             143    0.03 7  102 177 
 RUS  HZ I         825 29.43        54.8 0.28            133            102 177 
 PTB  HZ EP   1    825  9.89                             131   -0.83 7  149 258 
 PTB  HN ES   1    825 31.62                             131   -0.21 7  149 258 
 PTB  HZ I         825 33.66       134.3 0.15            124            149 258 
 TAM  HZ IP        825 11.44                             130    0.17 9  154 105 
 TAM  HZ I         825 32.11        80.2 0.36            121            154 105 
 TAM  HN ES   1    825 33.55                             130    0.74 7  154 105 
 OCA  HZ EP   1    825 11.73                             129   -0.14 7  159 353 
 OCA  HN ES   1    825 33.85                             129   -0.03 7  159 353 
 OCA  HZ I         825 40.20        75.5 0.18            123            159 353 
 ZAR  HZ EP        825 15.92                             122   -0.22 9  205 292 
 ZAR  HN ES   1    825 41.58                             122    0.10 6  205 292 
 ZAR  HZ I         825 48.04       105.9 0.38            115            205 292 
 SML  HZ EP   1    825 19.60                             117   -0.61 6  243 335 
 SML  HN ES   1    825 49.41                             117    0.68 6  243 335 
 SML  HZ I         825 51.80       103.8 0.09            111            243 335 
 CHI  HZ EP   1    825 21.32                             117   -0.17 6  250 195 
 CHI  HN ES   1    825 50.78                             117   -0.22 6  250 195 
 CHI  HZ I         826  0.49        33.4 0.26            109            250 195 
 ROSC BZ EP   1    825 22.96                             116    1.03 6  254 211 
 ROSC BN ES   4    825 53.72                             116    1.94 0  254 211 
 ROSC BZ I         826  1.07        94.6 0.40            109            254 211 
 HEL  HZ EP   1    825 24.66                             114    0.66 6  273 256 
 HEL  HN ES   1    825 56.20                             114    0.74 6  273 256 
 HEL  HZ I         826  2.36        61.7 0.34            108            273 256 
 URE  HZ EP   4    825 23.23                             113   -1.54 0  284 292 
 URE  HN ES   4    825 54.51                             113   -2.33 0  284 292 
 URE  HZ I         826  7.35        71.2 0.24            107            284 292 
 VIL  SZ EP   1    825 27.21                             112    0.00 5  305 192 
 VIL  SZ I         826  6.67        41.2 0.36            105            305 192 
 COD  HZ EP   1    825 31.31                             109   -0.61 5  347 354 
 COD  HN ES   1    826  9.00                             109   -0.56 5  347 354 
 COD  HZ I         826 15.76        11.0 0.46            103            347 354 
 PRA  HZ EP   1    825 36.84                             106   -0.50 4  393 210 
 PRA  HN ES   1    826 20.07                             106    0.86 4  393 210 
 PRA  HZ I         826 25.69        25.6 0.34            100            393 210 
                                                                                
