 2015  215 0404 47.8 L   6.812 -73.176137.9  RSN 23 0.5 2.6LRSN                1
 GAP= 53        1.49       3.2     3.9  6.4 -0.2157E+01  0.7381E+01  0.3785E+01E
 Epicentro: LOS SANTOS - SANTANDER                                             3
 ACTION:UPD 15-04-30 21:26 OP:nd   STATUS:               ID:20150215040447 L   I
 OLDACT:REG 15-02-15 12:48 OP:stll STATUS:               ID:20150215035750     3
 2015-02-15-0357-50M.COL___299                                                 6
 STAT SP IPHASW D HRMM SECON CODA AMPLIT PERI AZIMU VELO AIN AR TRES W  DIS CAZ7
 BAR2 EZ EP        4 5  6.76                             169    0.2110 24.3 182 
 BAR2 EZ ES        4 5 21.19                             169    0.0510 24.3 182 
 BAR2 EZ I         4 5 22.94        82.5 0.24            169           24.3 182 
 BRR  HZ IP     D  4 5  8.56                             152    0.6210 67.6 299 
 BRR  HE ES        4 5 24.05                             152    0.4410 67.6 299 
 BRR  HN ES        4 5 25.02                                           67.6 299 
 BRR  HZ I         4 5 29.80        57.7 0.18            150           67.6 299 
 PAM  SZ EP        4 5  9.63                             149    0.3310 78.6  42 
 PAM  SE ES        4 5 26.36                             149    0.3210 78.6  42 
 PAM  SZ I         4 5 28.82       123.5 0.48            154           78.6  42 
 RUS  HZ EP        4 5 10.68                             142   -0.2710  102 174 
 RUS  HN ES        4 5 28.74                             142   -0.2310  102 174 
 RUS  HZ I         4 5 30.62        49.8 0.30            144            102 174 
 PTB  HZ EP        4 5 13.61                             131   -0.29 9  145 258 
 PTB  HN ES        4 5 34.23                             131    0.01 9  145 258 
 PTB  HZ I         4 5 41.66        25.7 0.24            130            145 258 
 TAM  HZ IP     D  4 5 15.19                             128   -0.06 9  159 105 
 TAM  HZ I         4 5 15.37        74.0 0.38            133            159 105 
 TAM  HN ES        4 5 36.70                             128    0.07 9  159 105 
 OCA  HZ EP        4 5 14.85                             128   -0.54 9  159 354 
 OCA  HN ES        4 5 36.72                             128   -0.15 9  159 354 
 OCA  HZ I         4 5 40.12        34.1 0.20            130            159 354 
 SPBC HZ EP        4 5 15.51                             127   -0.14 9  162 218 
 SPBC HN ES        4 5 37.20                             127   -0.13 9  162 218 
 SPBC HZ I         4 5 40.28        69.6 0.36            128            162 218 
 ZAR  HZ EP        4 5 19.47                             121    0.06 9  200 292 
 ZAR  HN ES        4 5 43.53                             121   -0.50 9  200 292 
 ZAR  HZ I         4 5 50.95        30.1 0.56            121            200 292 
 NOR  HZ EP        4 5 21.95                             117   -0.96 8  233 234 
 NOR  HN ES        4 5 49.99                             117   -0.28 8  233 234 
 NOR  HZ I         4 5 53.31        24.5 0.20            118            233 234 
 SML  HZ EP        4 5 22.64                             116   -1.11 8  241 336 
 SML  HN ES        4 5 51.89                             116    0.13 8  241 336 
 SML  HZ I         4 5 55.11        48.4 0.28            117            241 336 
 CHI  HZ EP        4 5 25.01                             115   -0.15 8  249 194 
 CHI  HN ES        4 5 54.09                             115   -0.19 8  249 194 
 CHI  HZ I         4 5 57.66        29.1 0.46            117            249 194 
 ROSC BZ EP        4 5 26.54                             115    1.06 8  252 210 
 ROSC BN ES        4 5 54.52                             115   -0.32 8  252 210 
 ROSC BZ I         4 6  0.23        48.6 0.35            116            252 210 
 GUY2CHZ EP        4 5 31.78                             111    0.91 7  299 234 
 GUY2CHE ES        4 6  5.06                             111    0.62 7  299 234 
 GUY2CHZ I         4 6 10.92        16.3 0.36                           299 234 
 SOCV BZ EP   9    4 5 29.33                             110   -1.45 0  303  57 
 SOCV BN ES        4 5 59.65                                   -3.17 7  303  57 
 PTGC HZ IP   9 C  4 5 30.02                             110   -1.62 0  311 158 
 PTGC HE ES        4 6  2.41                                   -1.77 7  311 158 
 RREF HZ EP        4 5 34.47                             109    1.01 7  320 229 
 RREF HE ES        4 6  8.21                             109   -0.84 7  320 229 
 RREF HZ I         4 6 18.89        22.2 0.44            111            320 229 
 CBOC HZ EP        4 5 34.07                             108   -0.05 7  331 252 
 CBOC HE ES        4 6 10.03                             108   -0.18 7  331 252 
 CBOC HZ I         4 6 27.47         5.7 0.74            110            331 252 
 TOL  SZ EP        4 5 36.12                             108    0.49 7  342 224 
 TOL  SN ES        4 6 13.13                             108    0.23 7  342 224 
 TOL  SZ I         4 6 20.59        17.8 0.40            109            342 224 
 ANIL HZ EP     D  4 5 37.97                             107    0.78 6  356 224 
 ANIL HN ES        4 6 15.40                             107   -0.28 6  356 224 
 ANIL HZ I         4 6 21.32         5.3 0.40            108            356 224 
 PRA  HZ EP        4 5 40.70                             105   -0.34 6  392 209 
 PRA  HN ES        4 6 22.47                             105   -0.07 6  392 209 
 PRA  HZ I         4 6 28.52        18.3 0.26            107            392 209 
 ORTC HZ EP        4 5 41.26                             105   -0.14 6  395 216 
 ORTC HN ES        4 6 23.15                             105   -0.02 6  395 216 
 ORTC HZ I         4 6 28.10        14.7 0.30            106            395 216 
 CRJC HZ EP   9    4 5 47.07                             102   -2.93 0  467   4 
 CRJC HN ES        4 6 34.36                                   -1.19 5  467   4 
 CRJC HZ I         4 6 42.05        10.8 0.20            104            467   4 
                                                                                
