 2011 1215 0058 55.6 L   6.510 -73.537114.4  RSN  7 0.3 1.8LRSN                1
 GAP=109        0.66       3.5     4.2  6.4 -0.3500E+01  0.5629E+01 -0.3191E+01E
 Epicentro: EL CARMEN DE CHUCURI - SANTANDER                                   3
 ACTION:UPD 12-07-13 16:16 OP:ep   STATUS:               ID:20111215005855 L   I
 2011-12-15-0057-35S.COL___148                                                 6
 STAT SP IPHASW D HRMM SECON CODA AMPLIT PERI AZIMU VELO AIN AR TRES W  DIS CAZ7
 BAR2 SZ IP        059 12.45                             159    0.4010 40.2  77 
 BAR2 SZ ES   1    059 24.88                             159    0.00 7 40.2  77 
 BAR2 SZ I         059 26.31        69.6 0.47                          40.2  77 
 BRR  HZ EP   1    059 13.44                             147    0.15 7 68.8 344 
 BRR  HN ES   1    059 27.21                             147    0.12 7 68.8 344 
 BRR  HZ I         059 34.28        13.7 0.38                          68.8 344 
 GIR2 SZ EP   1    059 13.97                             145    0.16 7 73.4  31 
 RUS  HZ EP   1    059 15.34                             141    0.20 7 84.8 144 
 RUS  HE ES   1    059 30.26                             141   -0.12 7 84.8 144 
 RUS  HZ I         059 31.40         2.4 0.15                          84.8 144 
 PAM  SZ EP   1    059 18.76                             128   -0.35 7  130  45 
 PAM  SN ES   1    059 36.81                             128   -0.63 7  130  45 
 NOR  SN ES   1    059 45.18                             118   -0.50 7  181 235 
 OCA  SZ EP   1    059 25.23                             116    0.09 7  193   7 
 OCA  SZ I         1 0  0.78        11.6 0.34                           193   7 
                                                                                
