 2015  615 0707  4.4 L   6.806 -72.998146.1  RSN  5 0.4 1.4LRSN                1
 GAP=198        1.03       3.9     9.3  7.7  0.1212E+00 -0.8811E+01 -0.3269E+01E
 Epicentro: CEPITA - SANTANDER                                                 3
 ACTION:UPD 15-09-10 22:12 OP:cam  STATUS:               ID:20150615070704 L   I
 OLDACT:REG 15-06-15 13:33 OP:drio STATUS:               ID:20150615065748     3
 2015-06-15-0657-48M.COL___315                                                 6
 STAT SP IPHASW D HRMM SECON CODA AMPLIT PERI AZIMU VELO AIN AR TRES W  DIS CAZ7
 BAR2 EZ EP        7 7 24.73                             167    0.5010 31.2 221 
 BAR2 EZ ES        7 7 39.22                             167   -0.5010 31.2 221 
 BAR2 EZ I         7 7 41.62         3.7 0.32            169           31.2 221 
 BRR  HZ EP        7 7 26.75                             148    0.3110 85.6 293 
 BRR  HN ES        7 7 44.24                             148    0.5910 85.6 293 
 BRR  HZ I         7 7 47.06         3.5 0.42            148           85.6 293 
 RUS  HZ EP        7 7 28.24                             144    0.0110  101 185 
 RUS  HN ES        7 7 47.01                             144    0.1810  101 185 
 RUS  HZ I         7 7 48.57         2.2 0.24            147            101 185 
 OCA  HZ EP        7 7 32.85                             129   -0.06 9  162 347 
 OCA  HE ES        7 7 54.63                             129   -0.54 9  162 347 
 OCA  HZ I         7 8  0.65         6.8 0.22            130            162 347 
 SPBC HZ EP        7 7 33.69                             127   -0.29 9  174 223 
 SPBC HE ES        7 7 56.61                             127   -0.46 9  174 223 
 SPBC HZ I         7 7 58.55         4.3 0.26            130            174 223 
                                                                                
