 2012  315 0956  0.9 L   6.768 -73.151137.1  RSN 11 0.3 2.1LRSN                1
 GAP=137        0.58       3.1     3.3  5.1 -0.7382E+00  0.5769E+01  0.4955E+01E
 ACTION:UP  12-03-31 23:20 OP:EP   STATUS:               ID:20120315095600 L   I
 2012-03-15-0950-00M.COL___202                                                 6
 STAT SP IPHASW D HRMM SECON CODA AMPLIT PERI AZIMU VELO SNR AR TRES W  DIS CAZ7
 BAR2 SZ EP   1    956 19.50                             171     0.1 7   20 190 
 BAR2 SZ ES   1    956 34.13                             171     0.3 7   20 190 
 BAR2 SZ I         956 35.69        37.4 0.22                            20 190 
 BRR  HZ EP   2    956 21.36                             151     0.2 5   72 301 
 BRR  HN ES   2    956 37.62                             151     0.6 5   72 301 
 BRR  HZ I         956 42.28        42.2 0.14                            72 301 
 PAM  SZ EP   1    956 22.08                             148    -0.3 7   81  38 
 PAM  SN ES   1    956 39.07                             148    -0.1 7   81  38 
 RUS  HZ EP   1    956 23.66                             143     0.1 7   97 176 
 RUS  HN ES   2    956 41.01                             143    -0.2 5   97 176 
 RUS  HZ I         956 43.71        14.4 0.28                            97 176 
 PTB  HZ EP   1    956 26.55                             130    -0.5 7  146 260 
 PTB  HN ES   2    956 46.63                             130    -0.8 5  146 260 
 ZAR  HZ EP   2    956 33.22                             120     0.3 4  205 293 
 ZAR  HN ES   1    956 57.86                             120     0.0 6  205 293 
 ZAR  HZ I         957  3.42        15.3 0.33                           205 293 
 NOR  SN ES   1    957  3.56                             117     0.4 6  232 235 
 CHI  HZ EP   1    956 37.94                             116     0.2 6  245 195 
 CHI  HN ES   1    957  6.22                             116    -0.2 6  245 195 
 CHI  HZ I         957 11.44         4.8 0.50                           245 195 
 HEL  HZ EP   2    956 40.75                             113     0.2 4  271 257 
 HEL  HN ES   2    957 11.28                             113    -0.1 4  271 257 
 HEL  HZ I         957 19.67         4.3 0.53                           271 257 
 RREF HZ EP   2    956 46.71                             109     0.3 3  319 230 
 RREF HN ES   2    957 21.44                             109    -0.4 3  319 230 
 RREF HZ I         957 31.14         5.3 0.21                           319 230 
 PRA  HZ EP   1    956 53.83                             105     0.1 4  389 210 
 PRA  HN ES   2    957 35.12                             105     0.2 3  389 210 
                                                                                
