 2012  115 0102  5.0 L   6.782 -73.179134.0  RSN  8 0.3 1.7LRSN                1
 GAP=133        0.74       4.4     4.3  7.0 -0.5484E-01  0.1102E+02  0.1339E+01E
 Epicentro: LOS SANTOS - SANTANDER                                             3
 ACTION:UP  12-02-03 08:17 OP:REBC STATUS:               ID:20120115010205 L   I
 2012-01-15-0100-00M.COL___187                                                 6
 STAT SP IPHASW D HRMM SECON CODA AMPLIT PERI AZIMU VELO SNR AR TRES W  DIS CAZ7
 BAR2 SZ EP   1    1 2 23.23                             171     0.0 7   21 181 
 BAR2 SZ ES   1    1 2 37.67                             171     0.3 7   21 181 
 BAR2 SZ I         1 2 40.92         9.6 0.30                            21 181 
 BRR  HZ EP   1    1 2 24.95                             151     0.2 7   69 301 
 BRR  HZ I         1 2 45.83        18.5 0.18                            69 301 
 PAM  SZ EP   1    1 2 26.04                             147    -0.2 7   81  41 
 PAM  SZ I         1 2 26.24         8.5 0.15                            81  41 
 PAM  SE ES   1    1 2 42.72                             147    -0.1 7   81  41 
 RUS  HZ EP   1    1 2 27.47                             142     0.0 7   99 174 
 RUS  HN ES   1    1 2 45.10                             142     0.0 7   99 174 
 RUS  HZ I         1 2 47.45         4.6 0.28                            99 174 
 PTB  HZ EP   1    1 2 29.92                             130    -0.8 7  144 259 
 PTB  HN ES   1    1 2 50.41                             130    -0.3 7  144 259 
 ZAR  HZ EP   2    1 2 37.26                             120     0.8 4  201 293 
 ZAR  HN ES   1    1 3  1.33                             120     0.4 6  201 293 
 ZAR  HZ I         1 3  6.74         7.1 0.29                           201 293 
 CHI  HZ EP   1    1 2 42.06                             115     0.3 6  246 194 
 CHI  HZ I         1 3 17.26         4.0 0.55                           246 194 
 RREF HE ES   2    1 3 25.63                             109     0.2 3  318 229 
                                                                                
