 2010  615 0325 10.6 L   6.828 -73.283145.1  RSN  5 0.2 0.9LRSN                1
 GAP=212        0.51       6.5    34.2 10.8 -0.1120E+03  0.1615E+02 -0.4513E+02E
 Epicentro: ZAPATOCA - SANTANDER                                               3
 ACTION:UP  10-08-24 10:10 OP:vdl  STATUS:               ID:20100615032510 L   I
 2010-06-15-0324-28S.COL___114                                                 6
 STAT SP IPHASW D HRMM SECON CODA AMPLIT PERI AZIMU VELO SNR AR TRES W  DIS CAZ7
 BAR2 SZ EP   1    325 30.30                             168     0.0 8   28 157 
 BAR2 SZ ES   2    325 45.77                             168     0.2 5   28 157 
 RUS  HZ EP   2    325 34.98                             142     0.3 5  106 168 
 RUS  HN ES   2    325 53.04                             142    -0.4 5  106 168 
 RUS  HZ I         325 53.72         1.4 0.36                           106 168 
 BRI  SZ EP        325 34.86                             140     0.210  112  29 
 GUE  SZ EP        325 35.06                             139    -0.310  118  20 
 GRA  SZ EP   1    325 36.04                             136     0.1 7  128  24 
                                                                                
