 2016  215 0133 16.4 L   6.843 -73.147142.8  RSN 12 0.3 2.0LRSN                1
 GAP= 70        0.71       2.1     2.1  4.0 -0.6943E+00  0.2183E+01  0.8962E+00E
 Epicentro: LOS SANTOS - SANTANDER                                             3
 ACTION:UPD 16-03-04 21:26 OP:rebc STATUS:               ID:20160215013316 L   I
 OLDACT:UP  16-02-15 14:31 OP:drio STATUS:               ID:20160215012747     3
 OLDACT:UP  16-02-15 14:31 OP:drio STATUS:               ID:20160215012747     3
 OLDACT:REG 16-02-15 12:07 OP:drio STATUS:               ID:20160215012747     3
 2016-02-15-0127-47M.COL___296                                                 6
 STAT SP IPHASW D HRMM SECON CODA AMPLIT PERI AZIMU VELO AIN AR TRES W  DIS CAZ7
 BAR2 EZ EP        133 35.71                             168   -0.0410 28.0 188 
 BAR2 EZ ES        133 50.79                             168   -0.0710 28.0 188 
 BAR2 EZ I         133 52.17        16.9 0.22            167           28.0 188 
 PAM  EZ EP     C  133 38.30                             151    0.2410 73.9  42 
 PAM  EE ES        133 55.44                             151    0.4610 73.9  42 
 PAM  EZ I         133 56.07        17.2 0.20            154           73.9  42 
 RUS  HZ EP        133 40.02                             142   -0.1610  105 176 
 RUS  HN ES        133 58.60                             142   -0.1510  105 176 
 RUS  HZ I         133 59.78         5.4 0.40            142            105 176 
 PTB  HZ EP   4    133 42.22                             131   -0.96 0  149 257 
 PTB  HN ES        134  3.55                             131   -0.53 9  149 257 
 PTB  HZ I         134  6.20         9.4 0.56            129            149 257 
 TAM  HZ EP        133 43.89                             129   -0.05 9  156 107 
 TAM  HE ES        134  5.66                             129    0.21 9  156 107 
 TAM  HZ I         134  7.02         9.2 0.50            132            156 107 
 OCA  HZ EP        133 43.60                             130   -0.41 9  156 353 
 OCA  HN ES        134  5.27                             130   -0.29 9  156 353 
 OCA  HZ I         134 10.88        22.5 0.40            129            156 353 
 SPBC HZ EP        133 44.81                             128   -0.18 9  167 218 
 SPBC HN ES        134  7.33                             128    0.02 9  167 218 
 SPBC HZ I         134 14.12        14.9 0.20            126            167 218 
 ZAR  HZ EP   4    133 49.88                             122    1.45 0  202 291 
 ZAR  HE ES        134 13.73                             122    0.29 9  202 291 
 ZAR  HZ I         134 19.21        12.4 0.50            120            202 291 
 NOR  HZ EP        133 52.15                             117   -0.07 8  237 234 
 NOR  HE ES        134 20.62                             117    0.44 8  237 234 
 NOR  HZ I         134 23.36         7.0 0.60            116            237 234 
 CHI  HZ EP        133 54.13                             116   -0.27 8  253 195 
 CHI  HN ES        134 24.02                             116   -0.04 8  253 195 
 CHI  HZ I         134 30.61         5.1 0.46            116            253 195 
 GUY2CHZ EP        134  0.80                             111    0.66 7  304 234 
 GUY2CHN ES   4    134 35.39                             111    1.11 0  304 234 
 GUY2CHZ I         134 43.81         6.5 0.62                           304 234 
 CBOC HZ EP        134  3.60                             109    0.28 7  335 251 
 CBOC HE ES        134 40.06                             109    0.12 7  335 251 
 CBOC HZ I         135  6.24         2.4 0.52            108            335 251 
                                                                                
