 2012  915 0944 31.4 L   6.778 -73.153144.5  RSN  9 0.4 2.2LRSN                1
 GAP=137        0.71       4.8     4.0  6.1 -0.6041E+00  0.5609E+01  0.4022E+01E
 Epicentro: LOS SANTOS - SANTANDER                                             3
 ACTION:UPD 12-10-22 14:19 OP:ep   STATUS:               ID:20120915094431 L   I
 2012-09-15-0940-00M.COL___227                                                 6
 STAT SP IPHASW D HRMM SECON CODA AMPLIT PERI AZIMU VELO AIN AR TRES W  DIS CAZ7
 BAR2 SZ EP   1    944 50.81                             171    0.00 7 20.8 189 
 BAR2 SZ ES   1    945  5.45                             171   -0.51 7 20.8 189 
 BAR2 SZ I         945  7.10        36.2 0.13                          20.8 189 
 GIR2 SZ EP   1    944 50.80                             166   -0.16 7 33.6 352 
 BRR  HZ EP   1    944 52.61                             152    0.19 7 71.7 301 
 BRR  HZ I         944 53.04        20.3 0.10                          71.7 301 
 BRR  HN ES   1    945  9.46                             152    0.63 7 71.7 301 
 PAM  SZ EP   1    944 53.80                             150    0.20 7 79.8  39 
 PAM  SN ES   1    945 10.80                             150   -0.14 7 79.8  39 
 PAM  SN I         945 11.72        29.0 0.50                          79.8  39 
 RUS  HZ EP   1    944 54.88                             144    0.05 7 98.2 175 
 RUS  HN ES   2    945 13.69                             144    0.56 5 98.2 175 
 RUS  HZ I         945 15.13        11.6 0.32                          98.2 175 
 PTB  HZ EP   1    944 57.51                             132   -0.62 7  147 260 
 PTB  HN ES   1    945 18.66                             132   -0.33 7  147 260 
 PTB  HN I         945 23.53        16.9 0.22                           147 260 
 ZAR  HZ EP   1    945  4.17                             122    0.41 6  204 293 
 ZAR  HN ES   1    945 28.72                             122   -0.30 6  204 293 
 ZAR  HZ I         945 35.01        14.8 0.34                           204 293 
 NOR  SN ES   2    945 35.30                             118    0.85 4  233 235 
 PRA  HZ EP   1    945 24.49                             106   -0.07 4  389 210 
 PRA  HE I         946 10.72         8.7 0.30                           389 210 
                                                                                
