 2010  315 0557 54.4 L   6.811 -73.033148.1  RSN  8 0.3 1.9LRSN                1
 GAP=134        0.57       3.1     5.1  4.5 -0.4286E+00 -0.4954E+01 -0.2431E+01E
 Epicentro: CEPITA - SANTANDER                                                 3
 ACTION:UP  10-08-24 09:54 OP:vdl  STATUS:               ID:20100315055754 L   I
 2010-03-15-0556-31S.COL___095                                                 6
 STAT SP IPHASW D HRMM SECON CODA AMPLIT PERI AZIMU VELO SNR AR TRES W  DIS CAZ7
 BAR2 SZ IP        558 14.46                             168     0.010   29 214 
 BAR2 SZ ES   1    558 30.01                             168    -0.1 7   29 214 
 BRR  HZ EP        558 16.33                             150    -0.110   82 294 
 BRR  HN ES   1    558 33.89                             150     0.2 7   82 294 
 BRR  HZ I         558 36.88        17.6 0.16                            82 294 
 RUS  HZ EP        558 18.34                             144    -0.210  102 183 
 RUS  HN ES   1    558 37.33                             144     0.1 7  102 183 
 RUS  HZ I         558 38.22         8.7 0.28                           102 183 
 OCA  SZ EP        558 22.96                             130     0.0 9  161 349 
 CHI  HZ EP   2    558 32.43                             117    -0.3 4  253 198 
 CHI  HN ES   2    559  3.72                             117     1.0 4  253 198 
 CHI  HZ I         559 10.25         4.7 0.44                           253 198 
 HEL  HZ EP   1    558 36.28                             114     0.1 6  284 256 
 HEL  HZ I         559 12.75         4.3 0.21                           284 256 
 SDV  B2 EP        558 43.82                             109     0.4 6  350  49 
 PRA  HZ EP   1    558 48.43                             107    -0.5 4  399 211 
 PRA  HN ES   2    559 31.49                             107     0.1 3  399 211 
                                                                                
