 2017  315 0120 31.5 L   6.293 -73.730108.8  RSN  5 0.3 1.1LRSN                1
 GAP=104        0.74       3.5     2.8  6.9  0.2245E+01  0.2974E+01 -0.3697E+01E
 Epicentro: LANDAZURI - SANTANDER                                              3
 ACTION:UPD 17-05-25 18:40 OP:jn   STATUS:               ID:20170315012031 L   I
 OLDACT:REG 17-03-15 12:31 OP:cog  STATUS:               ID:20170315011745     3
 2017-03-15-0118-00M.COL___382                                                 6
 STAT SP IPHASW D HRMM SECON CODA AMPLIT PERI AZIMU VELO AIN AR TRES W  DIS CAZ7
 BAR2 EZ EP        120 49.11                             145    0.1310 69.0  61 
 BAR2 EZ ES        121  2.31                             145   -0.3110 69.0  61 
 BAR2 EZ I         121  3.69         8.6 0.16            147           69.0  61 
 SPBC HZ EP        120 49.15                             141   -0.4610 80.4 208 
 SPBC HN ES        121  3.97                             141    0.2410 80.4 208 
 RUS  HZ EP        120 50.43                             140   -0.0410 84.2 122 
 RUS  HN ES        121  5.59                             140    0.3310 84.2 122 
 RUS  HZ I         121  6.52         1.4 0.30            143           84.2 122 
 PTB  HZ EP        120 49.87                             139    0.0110 84.8 289 
 PTB  HN ES        121  3.96                             139   -0.2110 84.8 289 
 PTB  HZ I         121  6.07         2.6 0.20            141           84.8 289 
 ZAR  HE ES        121 21.54                             116    0.39 9  182 317 
                                                                                
