 2012 1215 0926 43.9 L   6.762 -73.164153.9  RSN  5 0.4 1.3LRSN                1
 GAP=180        0.84       7.8     8.0  8.4  0.2255E+02  0.1595E+02  0.1551E+02E
 Epicentro: LOS SANTOS - SANTANDER                                             3
 ACTION:UPD 13-01-04 14:28 OP:ep   STATUS:               ID:20121215092643 L   I
 2012-12-15-0919-55M.COL___195                                                 6
 STAT SP IPHASW D HRMM SECON CODA AMPLIT PERI AZIMU VELO AIN AR TRES W  DIS CAZ7
 BAR2 SZ EP   1    927  4.17                             173   -0.25 7 18.9 186 
 BAR2 SZ ES   1    927 20.48                             173    0.05 7 18.9 186 
 BAR2 SZ I         927 21.52         5.0 0.19                          18.9 186 
 GIR2 SZ ES   1    927 20.28                             166   -0.54 7 35.2 355 
 GIR2 SZ I         927 22.16         3.7 0.35                          35.2 355 
 BRR  HZ EP   1    927  6.32                             154    0.37 7 71.6 302 
 BRR  HN ES   1    927 23.71                             154    0.56 7 71.6 302 
 RUS  HZ EP   1    927  8.71                             146    0.54 7 96.5 175 
 RUS  HN ES   1    927 27.01                             146   -0.10 7 96.5 175 
 RUS  HZ I         927 28.04         2.0 0.30                          96.5 175 
 PTB  HZ EP   1    927 10.60                             134   -0.69 7  145 260 
 PTB  HN ES   1    927 32.63                             134   -0.04 7  145 260 
 PTB  HZ I         927 34.58         4.3 0.12                           145 260 
                                                                                
