 2011  515 0328 31.3 L   6.819 -73.091142.6  RSN  9 0.3 1.4LRSN                1
 GAP=143        0.75       4.3     6.7  5.7 -0.8888E+01 -0.6368E+01  0.8707E+00E
 Epicentro: LOS SANTOS - SANTANDER                                             3
 ACTION:UP  11-06-29 08:53 OP:tino STATUS:               ID:20110515032831 L   I
 2011-05-15-0326-57S.COL___141                                                 6
 STAT SP IPHASW D HRMM SECON CODA AMPLIT PERI AZIMU VELO SNR AR TRES W  DIS CAZ7
 BTL  SZ EP        328 50.74                             171     0.210   22 299 
 BTL  SZ ES   1    329  5.67                             171     0.1 7   22 299 
 BAR2 SZ EP        328 50.49                             169    -0.210   27 202 
 BAR2 SZ ES   2    329  4.93                             169    -0.8 5   27 202 
 BAR2 SZ I         329  6.60         8.1 0.22                            27 202 
 GIR2 SZ EP        328 50.45                             167    -0.210   31 339 
 PAM  SZ IP        328 53.19                             152     0.310   72  37 
 PAM  SN ES   1    329 10.10                             152     0.4 7   72  37 
 BRR  HZ EP        328 52.30                             151    -0.110   76 295 
 BRR  HZ I         328 52.52         6.3 0.13                            76 295 
 BRR  HN ES   1    329  9.25                             151     0.4 7   76 295 
 RUS  HZ EP        328 55.03                             143     0.110  102 179 
 RUS  HN ES   3    329 13.05                             143    -0.3 2  102 179 
 RUS  HZ I         329 14.55         2.6 0.45                           102 179 
 BRI  SZ EP        328 54.85                             142     0.210  104  18 
 GRA  SZ EP        328 56.05                             137     0.010  122  15 
 GRA  SZ I         328 57.47         4.6 0.29                           122  15 
 GRA  SZ ES   1    329 14.65                             137    -0.6 7  122  15 
 OCA  SZ EP        328 58.97                             129    -0.3 9  159 351 
                                                                                
