 2012  915 0258 39.8 L   6.780 -73.141152.7  RSN  6 0.2 1.8LRSN                1
 GAP=186        0.46       4.1     4.0  4.6  0.6559E+01  0.1699E+01  0.1511E+00E
 Epicentro: LOS SANTOS - SANTANDER                                             3
 ACTION:UPD 12-10-22 14:18 OP:ep   STATUS:               ID:20120915025839 L   I
 2012-09-15-0256-36M.COL___212                                                 6
 STAT SP IPHASW D HRMM SECON CODA AMPLIT PERI AZIMU VELO AIN AR TRES W  DIS CAZ7
 BAR2 SZ EP   1    259  0.03                             172   -0.24 7 21.2 192 
 BAR2 SZ ES   1    259 16.15                             172   -0.06 7 21.2 192 
 BAR2 SZ I         259 18.26        18.9 0.18                          21.2 192 
 GIR2 SZ EP   1    259  0.40                             167    0.00 7 33.6 350 
 GIR2 SZ ES   2    259 15.99                             167   -0.45 5 33.6 350 
 BRR  HZ EP   1    259  2.05                             153    0.22 7 72.7 300 
 BRR  HZ I         259  3.52        14.3 0.12                          72.7 300 
 BRR  HN ES   1    259 19.32                             153    0.34 7 72.7 300 
 RUS  HZ EP   1    259  4.37                             146    0.24 7 98.3 176 
 RUS  HE ES   1    259 23.11                             146    0.04 7 98.3 176 
 RUS  HZ I         259 25.32         4.6 0.46                          98.3 176 
 PTB  HZ EP   1    259  7.09                             134   -0.30 7  148 260 
 PTB  HN ES   1    259 28.83                             134   -0.05 7  148 260 
 ZAR  HE ES   2    259 38.56                             124   -0.10 4  205 293 
 ZAR  HZ I         259 44.96         9.3 0.44                           205 293 
                                                                                
