 2013  115 0648 31.1 L   6.783 -73.153146.6  RSN 12 0.4 2.4LRSN                1
 GAP= 71        0.83       3.4     3.9  5.5  0.8204E+00  0.2236E+01  0.2715E+01E
 Epicentro: LOS SANTOS - SANTANDER                                             3
 ACTION:UPD 13-02-15 09:14 OP:ep   STATUS:               ID:20130115064831 L   I
 2013-01-15-0646-45M.COL___178                                                 6
 STAT SP IPHASW D HRMM SECON CODA AMPLIT PERI AZIMU VELO AIN AR TRES W  DIS CAZ7
 BAR2 SZ EP   1    648 50.69                             171   -0.07 7 21.3 189 
 BAR2 SZ ES   1    649  5.89                             171   -0.22 7 21.3 189 
 BAR2 SZ I         649  8.45       102.5 0.28            154           21.3 189 
 BRR  HZ EP     C  648 52.59                             153    0.2710 71.4 300 
 BRR  HN ES   1    649  9.90                             153    1.01 7 71.4 300 
 BRR  HZ I         649 14.06        33.4 0.10            130           71.4 300 
 PAM  SZ EP   1    648 53.48                             150   -0.01 7 79.4  39 
 PAM  SN ES   1    649 10.78                             150   -0.20 7 79.4  39 
 PAM  SZ I         649 12.90        39.6 0.20            131           79.4  39 
 RUS  HZ EP   1    648 54.59                             144   -0.18 7 98.7 175 
 RUS  HN ES   1    649 13.22                             144   -0.03 7 98.7 175 
 RUS  HZ I         649 14.55        21.9 0.40            118           98.7 175 
 PTB  HZ EP   1    648 57.31                             132   -0.69 7  147 259 
 PTB  HN ES   1    649 18.20                             132   -0.80 7  147 259 
 PTB  HZ I         649 24.58        43.8 0.27            108            147 259 
 TAM  HZ EP        648 58.85                             131    0.01 9  155 104 
 TAM  HZ I         649 19.71        24.7 0.38            108            155 104 
 OCA  HZ EP   1    649  0.10                             129    0.49 7  162 354 
 OCA  HN ES   1    649 21.37                             129   -0.50 7  162 354 
 OCA  HZ I         649 26.47        38.2 0.48            108            162 354 
 ZAR  HZ EP   1    649  3.26                             123   -0.30 6  204 293 
 ZAR  HN ES   1    649 29.16                             123    0.25 6  204 293 
 ZAR  HZ I         649 35.17        30.4 0.32            103            204 293 
 CHI  HZ EP   1    649  8.65                             117    0.06 6  247 195 
 CHI  HN ES   1    649 38.24                             117    0.38 6  247 195 
 CHI  HZ I         649 46.61        11.5 0.58            100            247 195 
 HEL  HZ EP   1    649 11.82                             115    0.64 6  271 256 
 HEL  HZ I         649 48.90        11.3 0.26             99            271 256 
 VIL  SZ EP   1    649 14.55                             112    0.25 5  301 191 
 VIL  SZ I         649 59.07        18.8 0.64             98            301 191 
 DBB  SZ EP   1    649 18.03                             110   -0.47 5  339 275 
 DBB  SZ I         649 57.32        15.2 0.46             97            339 275 
                                                                                
