 2011  815 0648 49.1 L   6.238 -73.687107.0  RSN 10 0.3 2.4LRSN                1
 GAP= 71        0.53       2.1     3.1  4.9 -0.2686E+01  0.8867E+01 -0.1463E+01E
 Epicentro: LANDAZURI - SANTANDER                                              3
 ACTION:UPD 12-07-13 15:52 OP:ep   STATUS:               ID:20110815064849 L   I
 2011-08-15-0645-24S.COL___149                                                 6
 STAT SP IPHASW D HRMM SECON CODA AMPLIT PERI AZIMU VELO AIN AR TRES W  DIS CAZ7
 BAR2 SZ IP        649  6.61                             145    0.2810 68.1  55 
 BAR2 SZ ES        649 19.92                             145    0.1410 68.1  55 
 BAR2 SZ I         649 21.45       222.8 0.45                          68.1  55 
 RUS  HZ EP        649  7.39                             142    0.0610 76.9 120 
 RUS  HN ES   1    649 21.35                             142   -0.20 7 76.9 120 
 RUS  HZ I         649 23.00        57.4 0.28                          76.9 120 
 BRR  HZ EP        649  7.85                             135   -0.3610 96.1 358 
 BRR  HZ I         649 18.38        52.7 0.05                          96.1 358 
 NOR  SZ EP   1    649 13.07                             121   -0.51 7  151 240 
 NOR  SN ES   1    649 32.79                             121    0.12 7  151 240 
 PAM  SZ EP   2    649 15.32                             119   -0.17 5  164  42 
 PAM  SZ I         649 17.94        12.7 0.23                           164  42 
 PAM  SE ES   2    649 35.79                             119   -0.30 5  164  42 
 CHI  HZ EP   1    649 16.74                             116   -0.22 7  178 182 
 CHI  HZ I         649 19.21        15.8 0.08                           178 182 
 OCA  SZ EP        649 22.04                             110    0.13 8  225  10 
 OCA  SZ ES   1    649 47.60                             110    0.10 6  225  10 
 OCA  SZ I         649 54.94        29.6 0.15                           225  10 
 DBB  SZ EP   1    649 30.07                             104    0.42 5  292 287 
 PRA  HZ EP   1    649 31.48                             103   -0.16 5  309 206 
 PRA  HE ES   1    650  5.03                             103    0.21 5  309 206 
 SJA  SZ EP   2    649 34.77                             102    0.67 3  329 185 
 SJA  SZ ES   2    650  9.52                             102    0.30 3  329 185 
 SJA  SZ I         650 15.74        36.0 0.62                           329 185 
                                                                                
