 2014 1215 0930 31.3 L   6.803 -73.194145.0  RSN  8 0.5 1.4LRSN                1
 GAP=130        1.29       4.6     5.3  8.2 -0.1485E+00  0.1049E+02 -0.8675E+01E
 Epicentro: ZAPATOCA - SANTANDER                                               3
 ACTION:UPD 15-02-10 17:04 OP:nd   STATUS:               ID:20141215093031 L   I
 OLDACT:REG 14-12-15 13:13 OP:fm   STATUS:               ID:20141215092747     3
 2014-12-15-0927-47M.COL___288                                                 6
 STAT SP IPHASW D HRMM SECON CODA AMPLIT PERI AZIMU VELO AIN AR TRES W  DIS CAZ7
 BAR2 EZ EP        930 50.91                             170    0.0510 23.3 177 
 BAR2 EZ ES        931  5.77                             170   -0.3210 23.3 177 
 BAR2 EZ I         931  8.33         4.2 0.20            172           23.3 177 
 BRR  HZ EP        930 52.91                             154    0.7910 66.4 301 
 BRR  HN ES        931  8.91                             154    0.5710 66.4 301 
 BRR  HZ I         931 13.84         3.4 0.28            153           66.4 301 
 PAM  SZ EP        930 53.96                             149    0.3010 80.7  43 
 PAM  SN ES        931 10.84                             149   -0.2410 80.7  43 
 PAM  SZ I         931 13.06         4.9 0.50            153           80.7  43 
 RUS  HZ EP        930 55.88                             143    0.8210  101 173 
 RUS  HE ES        931 12.99                             143   -0.5710  101 173 
 RUS  HZ I         931 15.65         4.0 0.30            148            101 173 
 PTB  HZ EP        930 57.47                             133   -0.29 9  143 258 
 PTB  HE ES        931 18.64                             133    0.27 9  143 258 
 PTB  HZ I         931 21.86         3.7 0.18            134            143 258 
 SPBC HN ES        931 20.86                             129   -0.56 9  160 217 
 ZAR  HZ EP        931  2.61                             123   -0.59 9  199 293 
 ZAR  HN ES        931 28.36                             123    0.30 9  199 293 
 ZAR  HZ I         931 35.60         2.3 0.30            125            199 293 
 SML  HZ EP        931  7.38                             117   -0.26 8  241 336 
 SML  HE ES        931 35.14                             117   -0.83 8  241 336 
 SML  HZ I         931 37.73         2.6 0.10            120            241 336 
                                                                                
