 2010  615 0858 43.8 L   6.757 -73.049140.6  RSN  7 0.5 1.8LRSN                1
 GAP=170        1.25       5.7    21.9 11.5 -0.4792E+02  0.3993E+02 -0.1248E+02E
 Epicentro: LOS SANTOS - SANTANDER                                             3
 ACTION:UP  10-08-24 10:10 OP:vdl  STATUS:               ID:20100615085843 L   I
 2010-06-15-0853-51S.COL___114                                                 6
 STAT SP IPHASW D HRMM SECON CODA AMPLIT PERI AZIMU VELO SNR AR TRES W  DIS CAZ7
 BAR2 SZ EP        859  2.63                             170    -0.210   24 219 
 BAR2 SZ ES   1    859 17.22                             170    -0.5 7   24 219 
 RUS  HZ EP   1    859  6.67                             144    -0.1 7   96 182 
 RUS  HE ES   1    859 25.26                             144     0.7 7   96 182 
 RUS  HZ I         859 26.68         8.4 0.18                            96 182 
 GUE  SZ EP   1    859  7.61                             137    -0.7 7  119   7 
 GUE  SZ ES   1    859 26.68                             137    -0.7 7  119   7 
 GRA  SZ EP        859  9.43                             135     0.610  128  12 
 GRA  SZ ES   1    859 28.47                             135     0.2 7  128  12 
 OCA  SZ EP   1    859 11.83                             127    -0.5 7  167 350 
 OCA  SZ ES   1    859 35.54                             127     0.9 7  167 350 
 OCA  SZ I         859 37.51        14.2 0.32                           167 350 
 CHI  HZ EP   2    859 21.07                             116     0.0 4  247 198 
 CHI  HZ I         859 57.50         3.4 0.41                           247 198 
 HEL  HZ EP   2    859 24.99                             113     0.1 4  281 257 
 HEL  HZ I         9 0  1.74         3.6 0.29                           281 257 
                                                                                
