 2014  615 0953 16.2 L   6.824 -73.139141.3  RSN  7 0.4 1.8LRSN                1
 GAP=184        1.06       4.0     5.3  8.1 -0.9779E+00  0.9592E+01 -0.6394E+01E
 Epicentro: LOS SANTOS - SANTANDER                                             3
 ACTION:UPD 14-07-01 22:54 OP:nd   STATUS:               ID:20140615095316 L   I
 OLDACT:REG 14-06-15 13:58 OP:mh   STATUS:               ID:20140615094806     3
 2014-06-15-0948-06M.COL___244                                                 6
 STAT SP IPHASW D HRMM SECON CODA AMPLIT PERI AZIMU VELO AIN AR TRES W  DIS CAZ7
 BAR2 SZ EP        953 35.90                             169    0.5410 26.0 191 
 BAR2 SZ ES        953 50.13                             169   -0.1710 26.0 191 
 BAR2 SZ I         953 53.95         8.8 0.15            170           26.0 191 
 RUS  HZ EP        953 39.76                             142    0.0510  103 177 
 RUS  HN ES   1    953 57.73                             142   -0.31 7  103 177 
 RUS  HZ I         954  0.62         5.7 0.22            147            103 177 
 PTB  HZ EP        953 42.24                             131   -0.69 9  149 258 
 PTB  HN ES        954  3.62                             131   -0.15 9  149 258 
 PTB  HZ I         954  6.16        14.3 0.20            133            149 258 
 OCA  HZ EP        953 44.52                             129    0.58 9  158 353 
 OCA  HN ES        954  5.23                             129   -0.34 9  158 353 
 OCA  HZ I         954 11.29         5.4 0.08            133            158 353 
 SPBC HZ EP        953 44.60                             127   -0.01 9  166 219 
 SPBC HN ES        954  7.19                             127    0.43 9  166 219 
 SPBC HZ I         954 14.34         9.3 0.26            131            166 219 
 ZAR  HZ EP        953 47.61                             121   -0.73 9  204 291 
 ZAR  HN ES        954 14.00                             121    0.60 9  204 291 
 ZAR  HZ I         954 20.31         7.0 0.30            124            204 291 
 SML  HN ES   4    954 18.41                             117   -2.15 0  242 335 
 HEL  HN ES   1    954 27.71                             114    0.05 6  273 255 
                                                                                
