 2016  315 0411  8.0 L   6.888 -73.387119.5  RSN  8 0.4 1.4LRSN                1
 GAP= 89        0.72       3.6     3.5  6.7  0.1592E+01  0.8040E+01 -0.1181E+01E
 Epicentro: SAN VICENTE DE CHUCURI - SANTANDER                                 3
 ACTION:UPD 16-05-13 21:24 OP:cam  STATUS:               ID:20160315041108 L   I
 OLDACT:REG 16-03-15 13:22 OP:dnl  STATUS:               ID:20160315040747     3
 2016-03-15-0407-47M.COL___307                                                 6
 STAT SP IPHASW D HRMM SECON CODA AMPLIT PERI AZIMU VELO AIN AR TRES W  DIS CAZ7
 BAR2 EZ EP        411 25.27                             160    0.2010 39.8 145 
 BAR2 EZ ES        411 38.69                             160    0.3410 39.8 145 
 BAR2 EZ I         411 39.66         9.5 0.36            161           39.8 145 
 PAM  EE ES   2    411 44.03                             140   -0.48 5 90.8  57 
 PAM  EZ I         411 47.05         5.5 0.42            143           90.8  57 
 RUS  HZ EP   2    411 30.20                             133   -0.36 5  115 163 
 RUS  HE ES   2    411 47.64                             133   -0.48 5  115 163 
 RUS  HZ I         411 48.88         2.0 0.18            133            115 163 
 PTB  HZ EP        411 30.61                             131   -0.1510  124 252 
 PTB  HN ES        411 48.01                             131   -0.4710  124 252 
 PTB  HZ I         411 52.40         3.5 0.12            129            124 252 
 OCA  HZ EP   2    411 32.66                             125   -0.71 5  150   3 
 OCA  HN ES   2    411 53.20                             125    0.07 5  150   3 
 OCA  HZ I         411 54.48        11.5 0.32            126            150   3 
 SPBC HZ EP   2    411 33.86                             124   -0.11 5  156 209 
 SPBC HN ES   2    411 54.34                             124    0.14 5  156 209 
 SPBC HZ I         411 58.98         4.6 0.10            123            156 209 
 ZAR  HZ EP   2    411 37.06                             120    1.18 4  176 292 
 ZAR  HE ES        411 57.71                             120    0.13 9  176 292 
 ZAR  HZ I         412  3.67         2.2 0.16            120            176 292 
 CHI  HZ EP   2    411 45.27                             111    0.38 4  253 189 
 CHI  HN ES   2    412 14.22                             111    0.59 4  253 189 
 CHI  HZ I         412 19.90         0.9 0.62            111            253 189 
                                                                                
