 2012  815 0325 54.3 L   6.765 -73.195152.9  RSN  5 0.2 1.4LRSN                1
 GAP=229        0.44       6.8     4.6  7.2  0.7769E+01 -0.5094E+01  0.2687E+02E
 Epicentro: VILLANUEVA - SANTANDER                                             3
 ACTION:UPD 12-09-10 11:56 OP:ep   STATUS:               ID:20120815032554 L   I
 2012-08-15-0320-00M.COL___217                                                 6
 STAT SP IPHASW D HRMM SECON CODA AMPLIT PERI AZIMU VELO AIN AR TRES W  DIS CAZ7
 BAR2 SZ EP   1    326 14.43                             172   -0.31 7 19.1 176 
 BRR  HZ EP   1    326 16.14                             155    0.04 7 68.5 304 
 BRR  HN ES        326 33.12                             155    0.0310 68.5 304 
 BRR  HZ I         326 36.54         7.7 0.29                          68.5 304 
 RUS  HZ EP   1    326 18.87                             146    0.32 7 97.3 173 
 PTB  HZ EP   1    326 21.24                             135   -0.11 7  142 260 
 PTB  HZ I         326 23.20         2.0 0.14                           142 260 
 PTB  HN ES   1    326 42.33                             135   -0.10 7  142 260 
 ZAR  HN ES   2    326 52.53                             124    0.24 4  201 294 
                                                                                
