 2015  615 0937 44.5 L   6.533 -73.717 90.5  RSN  8 0.4 1.6LRSN                1
 GAP= 83        1.02       3.0     3.4  8.1  0.6812E+00  0.1677E+02  0.4962E+01E
 Epicentro: SANTA HELENA DEL OPON - SANTANDER                                  3
 ACTION:UPD 15-09-10 22:12 OP:cam  STATUS:               ID:20150615093744 L   I
 OLDACT:DUP 15-06-15 18:49 OP:drio STATUS:               ID:20150615092750d    3
 2015-06-15-0927-49M.COL___303                                                 6
 STAT SP IPHASW D HRMM SECON CODA AMPLIT PERI AZIMU VELO AIN AR TRES W  DIS CAZ7
 BAR2 EZ EP        937 59.54                             144    0.1210 59.4  84 
 BAR2 EZ ES        938 11.48                             144    0.3810 59.4  84 
 BAR2 EZ I         938 13.12        23.0 0.52            150           59.4  84 
 BRR  HZ EP        937 58.98                             142   -0.4110 63.5   0 
 BRR  HE ES        938 11.09                             142    0.0510 63.5   0 
 RUS  HZ EP        938  3.46                             129    0.2610 99.6 135 
 RUS  HN ES        938 17.38                             129   -0.4410 99.6 135 
 RUS  HZ I         938 19.00         3.9 0.18            133           99.6 135 
 SPBC HZ EP        938  3.22                             127    0.0310  105 202 
 SPBC HN ES        938 17.94                             127    0.1310  105 202 
 SPBC HZ I         938 20.04         8.6 0.10            130            105 202 
 ZAR  HZ EP        938  9.05                             114   -0.43 9  165 310 
 ZAR  HE ES        938 29.18                             114    0.17 9  165 310 
 ZAR  HZ I         938 32.38         6.6 0.34            116            165 310 
 NOR  HZ EP        938  9.48                             114   -0.26 9  167 230 
 NOR  HE ES        938 28.54                             114   -0.93 9  167 230 
 NOR  HZ I         938 32.27         7.3 0.18            116            167 230 
 HEL  HZ EP        938 14.48                             109    0.04 9  204 259 
 HEL  HN ES        938 38.02                             109    0.19 9  204 259 
 HEL  HZ I         938 39.93         3.8 0.44            111            204 259 
 GUY2CHZ EP        938 18.60                             107    0.64 8  233 232 
 GUY2CHN ES        938 44.86                             107    0.76 8  233 232 
 GUY2CHZ I         938 55.59         2.4 0.56                           233 232 
                                                                                
