 2016 1015 0625 42.2 L   6.749 -73.135154.9  RSN  4 0.4 1.1LRSN                1
 GAP=140        0.87       5.3     4.9  8.0 -0.5033E+01  0.6010E+01 -0.3027E+00E
 Epicentro: LOS SANTOS - SANTANDER                                             3
 ACTION:UPD 16-11-09 19:19 OP:rebc STATUS:               ID:20161015062542 L   I
 OLDACT:DUP 16-10-15 16:56 OP:ar   STATUS:               ID:20161015061748d    3
 2016-10-15-0618-00M.COL___365                                                 6
 STAT SP IPHASW D HRMM SECON CODA AMPLIT PERI AZIMU VELO AIN AR TRES W  DIS CAZ7
 BRR  HZ EP        626  5.06                             153    0.5210 75.0 302 
 BRR  HN ES        626 22.17                             153    0.1910 75.0 302 
 BRR  HZ I         626 22.33         2.1 0.50            152           75.0 302 
 PAM  EZ EP        626  5.63                             151    0.0310 81.1  36 
 PAM  EN ES        626 23.47                             151   -0.3910 81.1  36 
 PAM  EZ I         626 24.86         2.6 0.38            152           81.1  36 
 RUS  HZ EP   2    626  5.70                             147   -0.76 5 94.9 177 
 RUS  HN ES        626 25.68                             147    0.2810 94.9 177 
 PTB  HZ EP        626  9.84                             134   -0.09 9  148 261 
 PTB  HN ES        626 31.15                             134   -0.42 9  148 261 
 PTB  HZ I         626 33.99         1.3 0.28            134            148 261 
                                                                                
