 2010  815 0437  1.5 L   6.829 -73.057145.5  RSN  7 0.3 1.6LRSN                1
 GAP=168        0.74       3.8     7.6  7.4 -0.2084E-01 -0.2242E+02 -0.5665E+01E
 Epicentro: LOS SANTOS - SANTANDER                                             3
 ACTION:UP  10-09-07 10:55 OP:vdl  STATUS:               ID:20100815043701 L   I
 2010-08-15-0435-31S.COL___111                                                 6
 STAT SP IPHASW D HRMM SECON CODA AMPLIT PERI AZIMU VELO SNR AR TRES W  DIS CAZ7
 BTL  SZ EP        437 21.36                             169     0.210   25 293 
 BAR2 SZ EP   1    437 21.21                             168    -0.1 7   30 208 
 BAR2 SZ ES   1    437 36.15                             168    -0.5 7   30 208 
 BAR2 SZ I         437 37.56        14.5 0.06                            30 208 
 BRR  HZ EP        437 23.08                             150     0.010   79 293 
 BRR  HZ I         437 24.49         9.0 0.14                            79 293 
 BRR  HE ES        437 40.11                             150     0.210   79 293 
 RUS  HZ EP   1    437 25.50                             143     0.0 7  104 182 
 RUS  HE ES   1    437 44.30                             143     0.1 7  104 182 
 RUS  HZ I         437 44.85         5.8 0.28                           104 182 
 GUE  SZ EP   1    437 26.24                             141     0.4 7  112   8 
 GRA  SZ EP        437 26.10                             138    -0.210  120  13 
 GRA  SZ ES   1    437 45.93                             138     0.3 7  120  13 
 GRA  SZ I         437 46.61         4.0 0.45                           120  13 
 OCA  SZ EP   2    437 29.17                             130    -0.5 5  159 350 
 OCA  SZ ES   2    437 50.80                             130    -0.8 5  159 350 
 OCA  SZ I         437 56.40         4.5 0.22                           159 350 
                                                                                
