 2012  915 0833 12.0 L   6.645 -73.195148.5  RSN  4 0.1 1.3LRSN                1
 GAP=215        0.35       6.4     4.4  4.5  0.1244E+02  0.6522E+01  0.6424E+01E
 Epicentro: BARICHARA - SANTANDER                                              3
 ACTION:UPD 12-10-22 14:18 OP:ep   STATUS:               ID:20120915083312 L   I
 2012-09-15-0830-00M.COL___227                                                 6
 STAT SP IPHASW D HRMM SECON CODA AMPLIT PERI AZIMU VELO AIN AR TRES W  DIS CAZ7
 BAR2 SZ EP   1    833 31.98                             178    0.21 7 6.02 166 
 BAR2 SZ I         833 32.52         5.2 0.12                          6.02 166 
 BAR2 SZ ES   1    833 47.06                             178   -0.11 7 6.02 166 
 BRR  HZ EP   1    833 33.76                             151   -0.02 7 76.6 312 
 BRR  HZ I         833 34.01         3.8 0.15                          76.6 312 
 BRR  HN ES   1    833 50.74                             151   -0.01 7 76.6 312 
 PTB  HZ EP   1    833 38.35                             134   -0.18 7  140 265 
 PTB  HN ES   2    833 59.37                             134    0.17 5  140 265 
 ZAR  HN ES   2    834 10.57                             123    0.07 4  206 297 
 ZAR  HZ I         834 11.89         1.3 0.24                           206 297 
                                                                                
