 2017  115 0234 32.6 L   6.804 -73.172135.9  RSN  6 0.1 1.2LRSN                1
 GAP=133        0.42       2.4     2.4  4.7 -0.1483E+01  0.4029E+01 -0.8849E+00E
 Epicentro: LOS SANTOS - SANTANDER                                             3
 ACTION:UPD 17-05-22 15:59 OP:jn   STATUS:               ID:20170115023432 L   I
 OLDACT:UP  17-01-15 14:02 OP:e    STATUS:               ID:20170115022745d    3
 OLDACT:DUP 17-01-15 13:56 OP:e    STATUS:               ID:20170115022745d    3
 OLDACT:UP  17-01-15 13:55 OP:e    STATUS:               ID:20170115022744     3
 OLDACT:UP  17-01-15 13:55 OP:e    STATUS:               ID:20170115022744     3
 OLDACT:UP  17-01-15 13:55 OP:e    STATUS:               ID:20170115022744     3
 OLDACT:REG 17-01-15 12:26 OP:and  STATUS:               ID:20170115022744     3
 2017-01-15-0228-00M.COL___332                                                 6
 STAT SP IPHASW D HRMM SECON CODA AMPLIT PERI AZIMU VELO AIN AR TRES W  DIS CAZ7
 BRR  HZ EP        234 52.69                             152    0.1910 68.4 299 
 BRR  HN ES   4    235  9.70                             152    1.66 0 68.4 299 
 PAM  EZ EP        234 53.82                             148   -0.0210 78.9  41 
 PAM  EN ES        235 10.37                             148   -0.0610 78.9  41 
 PAM  EZ I         235 43.83         4.4 0.28            148           78.9  41 
 RUS  HZ EP        234 55.23                             141   -0.1910  101 174 
 RUS  HN ES        235 13.36                             141    0.1210  101 174 
 RUS  HZ I         235 14.61         1.8 0.32            170            101 174 
 PTB  HZ EP        234 58.56                             130    0.07 9  145 258 
 PTB  HN ES        235 18.58                             130   -0.13 9  145 258 
 PTB  HZ I         235 24.75         1.3 0.15            145            145 258 
 ZAR  HN ES   4    235 30.26                             120    1.58 0  201 292 
 ZAR  HZ I         235 35.90         2.3 0.33            132            201 292 
 NOR  HZ EP   4    235 10.30                             117    2.78 0  233 234 
 NOR  HN ES   4    235 35.89                             117    1.11 0  233 234 
 NOR  HZ I         235 39.10         1.2 0.14            136            233 234 
                                                                                
