 2013  415 0826 44.5 L   6.864 -73.151139.5  RSN  6 0.4 1.6LRSN                1
 GAP=194        0.82       4.5     7.1  6.6 -0.3393E+01  0.2922E+00 -0.5688E+01E
 Epicentro: LOS SANTOS - SANTANDER                                             3
 ACTION:UPD 13-05-22 14:38 OP:EP   STATUS:               ID:20130415082644 L   I
 2013-04-15-0820-00M.COL___244                                                 6
 STAT SP IPHASW D HRMM SECON CODA AMPLIT PERI AZIMU VELO AIN AR TRES W  DIS CAZ7
 BAR2 SZ EP        827  3.16                             167   -0.3510 30.2 187 
 BAR2 SZ ES   1    827 18.22                             167   -0.15 7 30.2 187 
 BAR2 SZ I         827 19.80        21.8 0.20            151           30.2 187 
 BRR  HZ EP        827  5.47                             152    0.7310 67.6 293 
 BRR  HN ES   1    827 20.93                             152    0.38 7 67.6 293 
 BRR  HZ I         827 25.51         5.3 0.16            149           67.6 293 
 PTB  HZ EP        827 11.06                             130    0.04 9  149 256 
 PTB  HN ES   1    827 31.20                             130   -0.54 7  149 256 
 PTB  HZ I         827 34.40         2.9 0.20            120            149 256 
 OCA  HZ EP        827 11.54                             129   -0.09 9  153 353 
 OCA  HN ES   2    827 32.50                             129   -0.31 5  153 353 
 OCA  HZ I         827 38.83         4.1 0.30            125            153 353 
 SML  HZ EP        827 19.82                             117   -0.21 8  237 335 
 SML  HE ES   1    827 47.56                             117   -0.20 6  237 335 
 SML  HZ I         827 51.73         2.4 0.10            111            237 335 
 PRA  HZ EP        827 38.66                             105    0.19 6  398 209 
 PRA  HZ I         828 26.06         1.5 0.30             97            398 209 
                                                                                
