 2015 1215 0714 48.6 L   6.788 -73.155138.0  RSN 14 0.4 2.1LRSN                1
 GAP=136        0.95       2.7     3.4  5.6 -0.2518E+01  0.9529E+01 -0.1682E+01E
 Epicentro: LOS SANTOS - SANTANDER                                             3
 ACTION:UPD 16-02-04 15:05 OP:cam  STATUS:               ID:20151215071448 L   I
 OLDACT:REG 15-12-15 13:25 OP:cara STATUS:               ID:20151215070743     3
 2015-12-15-0707-43M.COL___328                                                 6
 STAT SP IPHASW D HRMM SECON CODA AMPLIT PERI AZIMU VELO AIN AR TRES W  DIS CAZ7
 BAR2 EZ EP        715  7.25                             171   -0.0310 21.9 188 
 BAR2 EZ ES        715 21.57                             171   -0.2710 21.9 188 
 BAR2 EZ I         715 23.45        29.4 0.22            170           21.9 188 
 BRR  HZ IP     D  715  9.12                             151    0.2010 71.0 300 
 BRR  HN ES   4    715 26.20                             151    1.45 0 71.0 300 
 BRR  HZ I         715 29.87        16.6 0.12            149           71.0 300 
 PAM  EZ EP        715 10.09                             149   -0.0210 79.0  39 
 PAM  EN ES        715 27.45                             149    0.5710 79.0  39 
 PAM  EZ I         715 29.50        19.3 0.64            153           79.0  39 
 RUS  HZ EP        715 11.18                             143   -0.3410 99.4 175 
 RUS  HN ES        715 29.69                             143    0.3010 99.4 175 
 RUS  HZ I         715 30.18        12.2 0.26            147           99.4 175 
 PTB  HZ EP        715 14.55                             130   -0.30 9  147 259 
 PTB  HN ES        715 34.88                             130   -0.43 9  147 259 
 PTB  HZ I         715 37.68        14.1 0.12            131            147 259 
 OCA  HZ EP        715 16.56                             128    0.11 9  161 354 
 OCA  HN ES        715 37.58                             128   -0.58 9  161 354 
 OCA  HZ I         715 42.65        27.0 0.16            130            161 354 
 SPBC HZ EP        715 16.16                             128   -0.21 9  162 219 
 SPBC HN ES        715 38.20                             128    0.18 9  162 219 
 SPBC HZ I         715 40.55        21.2 0.22            130            162 219 
 ZAR  HZ EP        715 21.06                             121    0.54 9  204 293 
 ZAR  HE ES        715 46.00                             121    0.59 9  204 293 
 ZAR  HZ I         715 51.38        15.6 0.28            122            204 293 
 NOR  HZ EP        715 23.16                             117   -0.58 8  233 235 
 NOR  HN ES        715 50.49                             117   -0.64 8  233 235 
 NOR  HZ I         715 57.84        14.0 0.18            119            233 235 
 SML  HZ EP   4    715 23.75                             116   -1.15 0  244 336 
 SML  HN ES        715 52.83                             116   -0.38 8  244 336 
 SML  HZ I         715 54.91        13.6 0.26            118            244 336 
 HEL  HZ EP        715 28.22                             113   -0.08 8  271 256 
 HEL  HN ES        716  0.10                             113    0.84 8  271 256 
 HEL  HZ I         716  6.70         4.9 0.22            115            271 256 
 GUY2CHZ EP        715 32.09                             111    0.39 7  300 235 
 GUY2CHE ES        716  5.72                             111    0.42 7  300 235 
 GUY2CHZ I         716 13.84         7.0 0.38                           300 235 
 CBOC HZ EP        715 35.47                             109    0.40 7  332 252 
 CBOC HE ES        716 11.08                             109   -0.21 7  332 252 
 CBOC HZ I         716 20.00         2.0 0.40            111            332 252 
 DBB  SZ ES        716 12.21                             108   -0.19 7  339 274 
                                                                                
