 2013  415 0010 12.7 L   6.525 -73.435124.4  RSN  4 0.5 1.2LRSN                1
 GAP=166        0.92       6.4     7.3 10.6  0.2207E+02 -0.1078E+00 -0.8441E+01E
 Epicentro: SIMACOTA - SANTANDER                                               3
 ACTION:UPD 13-05-22 14:38 OP:EP   STATUS:               ID:20130415001012 L   I
 2013-04-15-0010-00M.COL___244                                                 6
 STAT SP IPHASW D HRMM SECON CODA AMPLIT PERI AZIMU VELO AIN AR TRES W  DIS CAZ7
 BRR  HZ IP     C  010 32.04                             148    0.4210 71.3 335 
 BRR  HN ES   1    010 46.48                             148    0.13 7 71.3 335 
 BRR  HZ I         010 51.39         4.8 0.38            151           71.3 335 
 RUS  HZ EP     C  010 33.19                             145    0.2810 80.0 151 
 RUS  HE ES   1    010 48.10                             145   -0.55 7 80.0 151 
 RUS  HZ I         010 50.44         1.7 0.28            153           80.0 151 
 PTB  HZ EP        010 34.96                             135    0.1310  113 271 
 PTB  HN ES   1    010 51.56                             135   -0.50 7  113 271 
 PTB  HZ I         010 56.12         4.0 0.16            139            113 271 
 SML  HZ EP   2    010 48.95                             110   -1.30 4  261 344 
 SML  HN ES   2    011 18.62                             110   -0.89 4  261 344 
                                                                                
