 2016  615 0407 43.8 L   6.837 -73.133157.1  RSN  6 0.4 1.6LRSN                1
 GAP=151        0.97       5.9     4.8  7.9 -0.8229E+01  0.3043E+01  0.1102E+02E
 Epicentro: LOS SANTOS - SANTANDER                                             3
 ACTION:UPD 16-07-21 22:19 OP:rebc STATUS:               ID:20160615040743 L   I
 OLDACT:DUP 16-06-15 16:35 OP:dani STATUS:               ID:20160615035741d    3
 2016-06-15-0357-40M.COL___319                                                 6
 STAT SP IPHASW D HRMM SECON CODA AMPLIT PERI AZIMU VELO AIN AR TRES W  DIS CAZ7
 BAR2 EZ EP        4 8  4.76                             170   -0.1710 27.5 191 
 BAR2 EZ I         4 8 21.21        10.3 0.20                          27.5 191 
 BRR  HZ EP        4 8  6.77                             154    0.5710 70.6 295 
 BRR  HN ES        4 8 23.83                             154    0.1910 70.6 295 
 BRR  HZ I         4 8 26.42         3.7 0.14                          70.6 295 
 PAM  EZ EP        4 8  7.55                             154    0.4810 73.4  41 
 PAM  EN ES        4 8 24.70                             154   -0.4810 73.4  41 
 PAM  EZ I         4 8 27.01         5.1 0.46                          73.4  41 
 PTB  HZ EP        4 8 11.67                             134   -0.28 9  150 257 
 PTB  HE ES        4 8 33.74                             134   -0.14 9  150 257 
 PTB  HZ I         4 8 40.00         5.9 0.38                           150 257 
 SPBC HZ EP        4 8 13.79                             131    0.18 9  167 218 
 SPBC HE ES        4 8 36.82                             131   -0.00 9  167 218 
 SPBC HZ I         4 8 42.33         7.7 0.28                           167 218 
 ZAR  HZ EP        4 8 16.28                             125   -0.76 9  204 291 
 ZAR  HN ES        4 8 43.17                             125    0.25 9  204 291 
 ZAR  HZ I         4 8 50.90         4.8 0.50                           204 291 
                                                                                
