 2013  915 0810 32.1 L   6.816 -73.155142.3  RSN 11 0.5 2.0LRSN                1
 GAP=182        1.23       3.4     5.9  6.9  0.7727E+00  0.2266E+01  0.1055E+01E
 Epicentro: LOS SANTOS - SANTANDER                                             3
 ACTION:UPD 13-10-22 09:22 OP:ep   STATUS:               ID:20130915081032 L   I
 OLDACT:REG 13-09-15 10:30 OP:carl STATUS:               ID:20130915080959     3
 2013-09-15-0809-59M.COL___269                                                 6
 STAT SP IPHASW D HRMM SECON CODA AMPLIT PERI AZIMU VELO AIN AR TRES W  DIS CAZ7
 BAR2 SZ EP        810 51.38                             170    0.0610 25.0 187 
 BAR2 SZ ES        811  6.12                             170   -0.2110 25.0 187 
 BAR2 SZ I         811  7.42        21.8 0.14            168           25.0 187 
 BRR  HZ EP        810 53.28                             153    0.5310 69.4 298 
 BRR  HN ES        811  9.72                             153    0.8510 69.4 298 
 BRR  HZ I         811 15.30        17.4 0.12            149           69.4 298 
 RUS  HZ EP        810 55.58                             143   -0.0510  102 176 
 RUS  HN ES   1    811 13.37                             143   -0.62 7  102 176 
 RUS  HZ I         811 14.90        12.4 0.32            145            102 176 
 PTB  HZ EP        810 58.50                             131   -0.20 9  147 258 
 PTB  HN ES        811 18.67                             131   -0.80 9  147 258 
 PTB  HZ I         811 22.47         9.5 0.48            130            147 258 
 OCA  HZ EP        811  0.72                             129    0.78 9  158 353 
 OCA  HN ES   1    811 21.35                             129   -0.32 7  158 353 
 OCA  HZ I         811 24.89        11.1 0.50            130            158 353 
 SPBC HZ EP        811  0.56                             128    0.18 9  164 218 
 SPBC HN ES   1    811 22.45                             128   -0.01 7  164 218 
 SPBC HZ I         811 26.21         9.9 0.14            128            164 218 
 ZAR  HZ EP   1    811  4.24                             122    0.11 6  202 292 
 ZAR  HN ES        811 29.86                             122    0.74 9  202 292 
 ZAR  HZ I         811 36.22        10.6 0.16            121            202 292 
 NOR  HE ES        811 35.12                             118   -0.24 8  235 234 
 NOR  HE I         811 40.10        17.6 0.18            118            235 234 
 SML  HZ EP        811  7.80                             117   -0.48 8  242 335 
 SML  HN ES        811 35.18                             117   -1.34 8  242 335 
 SML  HZ I         811 42.79        12.6 0.10            118            242 335 
 CHI  HZ EP        811  9.73                             116   -0.02 8  250 195 
 CHI  HN ES        811 39.31                             116    0.18 8  250 195 
 CHI  HZ I         811 43.62         1.9 0.24            117            250 195 
 PRA  HZ EP        811 25.32                             106   -0.28 6  393 209 
 PRA  HE ES        812  7.68                             106    0.33 6  393 209 
 PRA  HZ I         812 14.40         2.8 0.42            107            393 209 
                                                                                
