 2015  115 0523  4.2 L   6.821 -73.182137.0  RSN  7 0.5 1.5LRSN                1
 GAP=131        1.21       3.7     5.3 10.1 -0.2542E+01  0.1993E+02 -0.5733E+01E
 Epicentro: ZAPATOCA - SANTANDER                                               3
 ACTION:UPD 15-03-02 15:39 OP:nd   STATUS:               ID:20150115052304 L   I
 OLDACT:REG 15-01-15 13:06 OP:carl STATUS:               ID:20150115051750     3
 2015-01-15-0517-50M.COL___253                                                 6
 STAT SP IPHASW D HRMM SECON CODA AMPLIT PERI AZIMU VELO AIN AR TRES W  DIS CAZ7
 PAM  SZ IP     C  523 25.78                             149    0.2210 78.3  43 
 PAM  SN ES        523 42.66                             149    0.4510 78.3  43 
 PAM  SZ I         523 44.89         8.0 0.62            153           78.3  43 
 RUS  HZ EP        523 27.19                             141   -0.1210  103 174 
 RUS  HN ES        523 45.40                             141    0.0810  103 174 
 RUS  HZ I         523 46.24         3.4 0.38            146            103 174 
 PTB  HZ EP        523 30.43                             131    0.28 9  144 258 
 PTB  HN ES        523 50.01                             131   -0.37 9  144 258 
 PTB  HZ I         523 53.80         4.0 0.14            132            144 258 
 OCA  HN ES        523 52.32                             128   -0.63 9  158 354 
 SPBC HZ EP        523 32.03                             127    0.05 9  162 217 
 SPBC HN ES        523 52.98                             127   -0.66 9  162 217 
 SPBC HZ I         523 57.53         4.9 0.20            130            162 217 
 ZAR  HZ EP        523 36.16                             121    0.55 9  199 292 
 ZAR  HN ES        524  1.17                             121    1.06 9  199 292 
 ZAR  HZ I         524  6.82         3.6 0.30            123            199 292 
 SML  HZ EP        523 39.51                             116   -0.44 8  240 336 
 SML  HE ES        524  7.14                             116   -0.68 8  240 336 
 SML  HZ I         524 10.81         3.1 0.22            119            240 336 
                                                                                
