 2014  815 0348 52.1 L   6.782 -73.062145.3  RSN  5 0.4 1.5LRSN                1
 GAP=261        0.87       5.6     7.3  8.4 -0.4188E+01 -0.6500E+01  0.1537E+02E
 Epicentro: LOS SANTOS - SANTANDER                                             3
 ACTION:UPD 14-09-15 21:50 OP:nd   STATUS:               ID:20140815034852 L   I
 OLDACT:DUP 14-08-15 18:01 OP:spq  STATUS:               ID:20140815034814d    3
 2014-08-15-0348-13M.COL___269                                                 6
 STAT SP IPHASW D HRMM SECON CODA AMPLIT PERI AZIMU VELO AIN AR TRES W  DIS CAZ7
 BAR2 SZ EP        349 11.88                             170    0.1910 24.9 212 
 BAR2 SZ ES   1    349 26.37                             170   -0.61 7 24.9 212 
 BAR2 SZ I         349 28.10         7.1 0.26            169           24.9 212 
 BRR  HZ EP        349 13.71                             150   -0.0110 80.3 297 
 BRR  HE ES        349 30.99                             150    0.3910 80.3 297 
 BRR  HZ I         349 34.27         6.2 0.27            150           80.3 297 
 PTB  HZ EP   1    349 19.11                             130   -0.71 7  157 260 
 PTB  HE ES        349 41.09                             130   -0.36 9  157 260 
 PTB  HZ I         349 42.29         2.6 0.14            131            157 260 
 SPBC HZ EP        349 21.18                             128    0.20 9  168 222 
 SPBC HN ES        349 43.93                             128    0.41 9  168 222 
 SPBC HZ I         349 47.08         3.2 0.34            130            168 222 
 CHI  HN ES   1    349 59.07                             117   -0.21 6  249 197 
                                                                                
