 2012  215 0306 21.8 L   6.763 -73.119143.2  RSN  7 0.4 1.6LRSN                1
 GAP=142        0.64       5.8     5.2  6.4 -0.1686E+01  0.9206E+01 -0.4983E+01E
 ACTION:UP  12-03-07 16:30 OP:epov STATUS:               ID:20120215030621 L   I
 2012-02-15-0300-00M.COL___188                                                 6
 STAT SP IPHASW D HRMM SECON CODA AMPLIT PERI AZIMU VELO AIN AR TRES W  DIS CAZ7
 BAR2 SZ ES   1    3 6 55.65                             172   -0.42 7 20.2 200 
 BAR2 SZ I         3 6 58.29         8.9 0.22                          20.2 200 
 GIR2 SZ EP   1    3 6 41.30                             165    0.02 7 35.8 347 
 GIR2 SZ ES   2    3 6 56.24                             165   -0.25 5 35.8 347 
 BRR  HZ EP        3 6 42.97                             150    0.0510 75.7 300 
 BRR  HZ I         3 6 43.99        11.6 0.11                          75.7 300 
 BRR  HN ES   2    3 7  0.01                             150    0.60 5 75.7 300 
 PAM  SZ EP   1    3 6 44.05                             150    0.25 7 78.8  36 
 PAM  SN ES   2    3 7  0.94                             150   -0.05 5 78.8  36 
 RUS  HZ EP   2    3 6 45.41                             145    0.44 5 96.4 178 
 RUS  HN ES   2    3 7  3.37                             145    0.30 5 96.4 178 
 RUS  HZ I         3 7  6.11         2.6 0.39                          96.4 178 
 PTB  HZ EP   1    3 6 47.93                             131   -0.80 7  150 261 
 PTB  HE ES   2    3 7 10.15                             131    0.38 5  150 261 
 ZAR  HZ EP   2    3 6 54.82                             121    0.32 4  208 293 
 ZAR  HE ES   2    3 7 20.14                             121    0.12 4  208 293 
 ZAR  HZ I         3 7 26.02         4.3 0.34                           208 293 
                                                                                
