 2017  115 0345  3.9 L   6.802 -73.139148.2  RSN 20 0.5 2.0LRSN                1
 GAP= 66        1.12       4.1     3.2  5.8 -0.7145E+00  0.3155E+01  0.6821E+01E
 Epicentro: LOS SANTOS - SANTANDER                                             3
 ACTION:UPD 17-05-22 15:59 OP:jn   STATUS:               ID:20170115034503 L   I
 OLDACT:UP  17-01-15 14:35 OP:e    STATUS:               ID:20170115033751     3
 OLDACT:UP  17-01-15 14:33 OP:e    STATUS:               ID:20170115033751     3
 OLDACT:UP  17-01-15 14:33 OP:e    STATUS:               ID:20170115033751     3
 OLDACT:UP  17-01-15 14:30 OP:e    STATUS:               ID:20170115033751     3
 OLDACT:UP  17-01-15 14:27 OP:e    STATUS:               ID:20170115033751     3
 OLDACT:REG 17-01-15 12:33 OP:and  STATUS:               ID:20170115033751     3
 2017-01-15-0338-00M.COL___335                                                 6
 STAT SP IPHASW D HRMM SECON CODA AMPLIT PERI AZIMU VELO AIN AR TRES W  DIS CAZ7
 BAR2 EZ EP        345 23.74                             171   -0.1110 23.7 192 
 BAR2 EZ ES        345 39.04                             171   -0.3610 23.7 192 
 BAR2 EZ I         345 40.02        29.6 0.24            175           23.7 192 
 BRR  HZ EP        345 25.50                             153    0.1410 71.7 298 
 BRR  HE ES        345 42.89                             153    0.8010 71.7 298 
 BRR  HZ I         345 46.89        17.4 0.11            143           71.7 298 
 PAM  EZ IP     D  345 26.66                             151    0.3010 76.8  39 
 PAM  EN ES        345 43.51                             151   -0.3610 76.8  39 
 PAM  EZ I         345 45.96        31.1 0.52            138           76.8  39 
 RUS  HZ EP        345 27.76                             144   -0.1710  101 176 
 RUS  HN ES        345 46.59                             144   -0.0610  101 176 
 RUS  HZ I         345 47.54        13.0 0.26            139            101 176 
 PTB  HZ EP        345 30.51                             132   -0.64 9  148 259 
 PTB  HN ES        345 51.42                             132   -0.97 9  148 259 
 PTB  HZ I         345 54.45         9.2 0.16            124            148 259 
 TAM  HZ IP        345 32.17                             131    0.43 9  154 105 
 TAM  HN ES        345 53.85                             131    0.42 9  154 105 
 TAM  HZ I         346 12.62         3.6 0.19            121            154 105 
 ZAR  HZ EP   4    345 39.28                             123    2.69 0  205 292 
 ZAR  HN ES        346  1.96                             123   -0.10 9  205 292 
 ZAR  HZ I         346  4.25         7.8 0.27            113            205 292 
 NOR  HZ EP        345 40.04                             119    0.17 8  235 235 
 NOR  HN ES        346  8.19                             119    0.29 8  235 235 
 NOR  HZ I         346 10.41         7.3 0.30            111            235 235 
 CHI  HZ EP        345 41.92                             117    0.12 8  249 195 
 CHI  HN ES        346 11.27                             117   -0.07 8  249 195 
 CHI  HZ I         346 14.77         7.5 0.50            110            249 195 
 ROSC BZ EP   9    345 43.92                             117    1.69 0  253 211 
 ROSC BN ES        346 14.12                                    0.32 8  253 211 
 ROSC BZ I         346 17.57        13.4 0.45            110            253 211 
 URE  HZ EP   4    345 43.93                             114   -1.25 0  284 292 
 URE  HZ I         346 26.45         6.2 0.26            106            284 292 
 GUY2CHZ EP        345 48.57                             113    0.85 7  302 235 
 GUY2CHN ES   3    346 24.00                             113    2.12 2  302 235 
 GUY2CHZ I         346 30.05         5.5 0.34                           302 235 
 PTGC HZ EP        345 46.92                             112   -0.96 7  309 159 
 PTGC HN ES   4    346 20.37                             112   -1.80 0  309 159 
 PTGC HZ I         346 23.01        10.1 0.40            105            309 159 
 LL6C HZ EP   9    345 29.81                             111   -19.9 0  325 357 
 LL6C HN ES   3    346  7.08                                    1.56 2  325 357 
 ELA  HZ EP   4    345 53.73                             111    2.78 0  330 230 
 ELA  HN ES        346 28.13                             111    0.50 7  330 230 
 ELA  HZ I         346 36.54         4.2 0.62            104            330 230 
 CBOC HZ EP        345 50.25                             110   -0.77 7  334 252 
 CBOC HN ES        346 28.49                             110    0.73 7  334 252 
 CBOC HZ I         346 33.96         1.7 0.42            103            334 252 
 ORTC HZ EP   4    345 56.00                             107   -1.99 0  396 216 
 ORTC HN ES   4    346 41.77                             107    1.60 0  396 216 
 ORTC HZ I         346 45.16         4.2 0.20            100            396 216 
 PAL  HZ EP   4    346  1.76                             106    2.51 0  406 239 
 PAL  HN ES   4    346 43.70                             106    1.30 0  406 239 
 PAL  HZ I         346 45.36         1.8 0.22             99            406 239 
 SJC  HZ EP   4    345 57.97                             106   -1.62 0  409 327 
 SJC  HN ES   4    346 39.26                             106   -3.75 0  409 327 
 SJC  HZ I         346 51.43         2.0 0.40             98            409 327 
 CRJC HZ EP   9    346  4.05                             104   -2.41 0  467   3 
 CRJC HN ES        346 52.87                             104    0.04 5  467   3 
                                                                                
