 2016  915 0421 46.2 L   6.275 -73.711103.5  RSN  6 0.4 1.2LRSN                1
 GAP=121        0.94       3.5     3.5  7.3  0.2219E+01  0.6920E+01 -0.3766E+01E
 Epicentro: LANDAZURI - SANTANDER                                              3
 ACTION:UPD 17-08-17 21:12 OP:lp   STATUS:               ID:20160915042146 L   I
 OLDACT:REG 16-09-15 20:16 OP:lv   STATUS:               ID:20160915041734     3
 2016-09-15-0418-00M.COL___330                                                 6
 STAT SP IPHASW D HRMM SECON CODA AMPLIT PERI AZIMU VELO AIN AR TRES W  DIS CAZ7
 SPBC HZ EP        422  3.96                             139    0.2310 79.7 210 
 SPBC HN ES        422 17.82                             139    0.3910 79.7 210 
 SPBC HZ I         422 19.88         4.8 0.12            144           79.7 210 
 RUS  HZ EP        422  4.34                             139   -0.0810 81.4 121 
 RUS  HN ES        422 18.35                             139   -0.3110 81.4 121 
 RUS  HZ I         422 20.84         1.3 0.18            145           81.4 121 
 PTB  HZ EP        422  3.53                             136   -0.7410 87.5 290 
 PTB  HN ES        422 17.98                             136   -0.4110 87.5 290 
 PTB  HZ I         422 20.82         2.8 0.28            140           87.5 290 
 BRR  HZ EP        422  4.92                             135    0.2910 92.0 360 
 BRR  HN ES        422 19.47                             135    0.4410 92.0 360 
 BRR  HZ I         422 22.84         3.5 0.36            139           92.0 360 
 ZAR  HZ EP        422 13.91                             114   -0.20 9  185 317 
 ZAR  HN ES        422 35.90                             114   -0.01 9  185 317 
 ZAR  HZ I         422 37.52         4.0 0.46            118            185 317 
 HEL  HZ EP        422 16.78                             112    0.36 9  201 267 
 HEL  HN ES        422 40.14                             112    0.12 9  201 267 
 HEL  HZ I         422 41.87         2.2 0.28            116            201 267 
                                                                                
