 2012  215 0215  2.8 L   7.192 -72.991156.1  RSN  9 0.5 1.9LRSN                1
 GAP=121        0.76       6.0     6.5  7.9  0.9584E+00  0.4496E+01  0.7126E+01E
 ACTION:UP  12-03-07 16:30 OP:epov STATUS:               ID:20120215021502 L   I
 2012-02-15-0210-00M.COL___188                                                 6
 STAT SP IPHASW D HRMM SECON CODA AMPLIT PERI AZIMU VELO AIN AR TRES W  DIS CAZ7
 GIR2 SZ EP   1    215 23.51                             170   -0.09 7 25.6 241 
 GIR2 SZ ES   2    215 39.08                             170   -0.73 5 25.6 241 
 PAM  SZ EP   1    215 24.55                             167    0.17 7 36.1  63 
 PAM  SN ES   2    215 40.74                             167   -0.45 5 36.1  63 
 BAR2 SZ ES   2    215 42.73                             155   -0.22 5 69.6 198 
 BRR  HZ EP   1    215 25.32                             151   -0.29 7 80.2 263 
 BRR  HZ I         215 25.92        15.4 0.17                          80.2 263 
 BRR  HN ES   1    215 44.25                             151    0.87 7 80.2 263 
 OCA  SZ ES   2    215 49.05                             140    0.24 5  121 343 
 RUS  HZ EP   1    215 31.51                             135    0.52 7  144 184 
 RUS  HE ES   2    215 52.73                             135   -0.22 5  144 184 
 PTB  HZ EP   2    215 32.68                             129   -0.68 4  177 246 
 ZAR  HZ EP   2    215 36.38                             124   -0.07 4  209 279 
 ZAR  HE ES   2    216  1.90                             124   -0.78 4  209 279 
 ZAR  HZ I         216  6.66         5.9 0.30                           209 279 
 NOR  SE ES   2    216 15.22                             116    0.00 4  275 229 
                                                                                
