 2015 1115 0137 48.6 L   6.815 -73.141146.0  RSN 15 0.6 2.0LRSN                1
 GAP=136        1.20       3.0     4.9  6.1 -0.3392E+01  0.1193E+02  0.6149E+00E
 Epicentro: LOS SANTOS - SANTANDER                                             3
 ACTION:UPD 15-12-28 16:10 OP:cam  STATUS:               ID:20151115013748 L   I
 OLDACT:REG 15-11-15 11:41 OP:dnl  STATUS:               ID:20151115012749     3
 2015-11-15-0127-49M.COL___319                                                 6
 STAT SP IPHASW D HRMM SECON CODA AMPLIT PERI AZIMU VELO AIN AR TRES W  DIS CAZ7
 BAR2 EZ EP        138  8.06                             170   -0.2810 25.0 190 
 BAR2 EZ ES        138 23.04                             170   -0.6610 25.0 190 
 BAR2 EZ I         138 24.44        22.5 0.22            169           25.0 190 
 BRR  HZ EP        138  9.79                             153   -0.0110 70.9 297 
 BRR  HE ES        138 27.22                             153    0.9210 70.9 297 
 BRR  HZ I         138 34.17        15.7 0.32            147           70.9 297 
 PAM  EZ EP        138 11.13                             151    0.3410 75.8  40 
 PAM  EN ES        138 28.50                             151    0.4310 75.8  40 
 PAM  EZ I         138 30.36        10.2 0.58            153           75.8  40 
 RUS  HE ES        138 31.15                             144   -0.0210  102 176 
 RUS  HZ I         138 32.59        15.3 0.42            145            102 176 
 OCA  HZ EP        138 17.04                             130    0.21 9  159 353 
 OCA  HN ES        138 38.83                             130    0.02 9  159 353 
 OCA  HZ I         138 44.86        17.5 0.42            129            159 353 
 SPBC HZ EP        138 17.11                             129   -0.20 9  165 219 
 SPBC HE ES        138 39.48                             129   -0.19 9  165 219 
 SPBC HZ I         138 41.73        20.9 0.30            128            165 219 
 ZAR  HZ EP   4    138 22.66                             123    1.57 0  204 292 
 ZAR  HN ES        138 46.20                             123   -0.19 9  204 292 
 ZAR  HZ I         138 50.88        17.6 0.28            120            204 292 
 NOR  HZ EP        138 24.35                             118   -0.18 8  236 234 
 NOR  HE ES        138 52.22                             118   -0.30 8  236 234 
 NOR  HZ I         138 55.53         8.5 0.24            117            236 234 
 SML  HZ EP        138 24.48                             118   -0.67 8  242 335 
 SML  HE ES        138 53.00                             118   -0.62 8  242 335 
 SML  HZ I         138 56.38        13.1 0.10            117            242 335 
 CHI  HZ EP        138 26.24                             117   -0.30 8  250 195 
 CHI  HE ES        138 55.98                             117   -0.12 8  250 195 
 CHI  HZ I         138 58.05         5.1 0.30            117            250 195 
 HEL  HZ EP   2    138 30.37                             115    1.41 4  273 255 
 HEL  HE ES   2    138 59.06                             115   -1.35 4  273 255 
 HEL  HZ I         139  7.15         5.2 0.28            114            273 255 
 URE  HZ EP        138 28.69                             114   -1.02 7  284 292 
 URE  HN ES   4    138 59.03                             114   -2.71 0  284 292 
 URE  HZ I         139  9.59         5.3 0.18            112            284 292 
 GUY2CHZ EP        138 33.75                             112    1.34 7  303 235 
 GUY2CHE ES        139  6.93                             112    0.38 7  303 235 
 GUY2CHZ I         139 14.08         5.3 0.32                           303 235 
 CBOC HZ EP        138 36.66                             110    0.98 7  335 252 
 CBOC HZ I         139  5.78         2.4 0.10            109            335 252 
 CBOC HE ES        139 12.87                             110    0.51 7  335 252 
 ORTC HZ EP        138 42.27                             106   -0.49 6  397 216 
 ORTC HN ES        139 25.30                             106    0.33 6  397 216 
 ORTC HZ I         139 31.72         3.0 0.62            106            397 216 
 SJC  HZ EP   4    138 42.37                             106   -1.72 0  408 327 
 SJC  HE ES   4    139 24.86                             106   -2.47 0  408 327 
                                                                                
