 2015 1215 0817 23.8 L   6.804 -73.099151.2  RSN  7 0.3 1.4LRSN                1
 GAP=205        0.80       3.5     4.3  5.5  0.3868E+01  0.2681E+01 -0.5137E+01E
 Epicentro: LOS SANTOS - SANTANDER                                             3
 ACTION:UPD 16-02-04 15:05 OP:cam  STATUS:               ID:20151215081723 L   I
 OLDACT:REG 15-12-15 13:29 OP:cara STATUS:               ID:20151215080746     3
 2015-12-15-0807-46M.COL___327                                                 6
 STAT SP IPHASW D HRMM SECON CODA AMPLIT PERI AZIMU VELO AIN AR TRES W  DIS CAZ7
 BAR2 EZ EP        817 43.90                             170   -0.2010 25.2 201 
 BAR2 EZ ES        817 59.45                             170   -0.5010 25.2 201 
 BAR2 EZ I         818  2.11         3.5 0.38            166           25.2 201 
 BRR  HZ EP        817 46.17                             152    0.4110 75.5 296 
 BRR  HN ES        818  3.46                             152    0.5510 75.5 296 
 BRR  HZ I         818  4.95         2.2 0.14            148           75.5 296 
 RUS  HZ EP        817 48.20                             145    0.1110  101 179 
 RUS  HN ES        818  7.17                             145    0.1210  101 179 
 RUS  HZ I         818  9.93         2.1 0.86            146            101 179 
 PTB  HZ EP        817 51.48                             132   -0.18 9  153 259 
 PTB  HE ES        818 13.21                             132   -0.19 9  153 259 
 PTB  HZ I         818 19.63         5.6 0.46            131            153 259 
 ZAR  HZ EP        817 56.95                             123   -0.11 8  209 291 
 ZAR  HN ES        818 22.57                             123   -0.44 8  209 291 
 ZAR  HZ I         818 33.26         2.9 0.32            123            209 291 
 NOR  HE ES        818 29.12                             119    0.32 8  239 235 
 NOR  HZ I         818 32.64         2.4 0.38            119            239 235 
 SML  HZ EP        818  0.79                             118   -0.12 8  245 334 
 SML  HE ES        818 30.01                             118    0.14 8  245 334 
 SML  HZ I         818 32.52         3.2 0.22            119            245 334 
                                                                                
