 2011 1015 0038 36.9 L   6.733 -73.149144.5  RSN  7 0.4 1.8LRSN                1
 GAP=139        0.65       3.7     5.1  5.9  0.1225E+01  0.2818E+01  0.3469E+00E
 Epicentro: JORDAN - SANTANDER                                                 3
 ACTION:UPD 12-07-13 16:03 OP:ep   STATUS:               ID:20111015003836 L   I
 2011-10-15-0037-42S.COL___168                                                 6
 STAT SP IPHASW D HRMM SECON CODA AMPLIT PERI AZIMU VELO AIN AR TRES W  DIS CAZ7
 BAR2 SZ EP        038 55.98                             173   -0.2610 16.0 193 
 BAR2 SZ I         038 56.36        10.3 0.20                          16.0 193 
 BAR2 SZ ES   1    039 11.12                             173   -0.21 7 16.0 193 
 BRR  HZ EP        038 58.30                             151    0.2010 74.7 304 
 BRR  HN ES   1    039 15.21                             151    0.56 7 74.7 304 
 BRR  HZ I         039 16.40        10.9 0.14                          74.7 304 
 PAM  SZ EP        038 59.43                             149    0.0810 83.5  36 
 PAM  SN ES   1    039 16.38                             149   -0.48 7 83.5  36 
 RUS  HZ EP        039  0.04                             146    0.0510 93.2 176 
 RUS  HN ES   1    039 18.35                             146    0.34 7 93.2 176 
 OCA  SZ EP   3    039  6.67                             128    0.87 2  168 354 
 ZAR  HZ EP   2    039  9.18                             122   -0.34 4  207 294 
 ZAR  HE ES   2    039 34.39                             122   -0.58 4  207 294 
 ZAR  HZ I         039 41.32         7.2 0.30                           207 294 
 CHI  HN ES   2    039 42.09                             118   -0.37 4  241 196 
                                                                                
