 2015 1015 0403  0.3 L   6.804 -73.131144.0  RSN 14 0.5 1.8LRSN                1
 GAP=138        1.06       2.6     4.1  5.3 -0.2169E+01  0.7769E+01  0.1111E+01E
 Epicentro: LOS SANTOS - SANTANDER                                             3
 ACTION:UPD 15-12-22 20:40 OP:cam  STATUS:               ID:20151015040300 L   I
 OLDACT:REG 15-10-15 14:18 OP:ak   STATUS:               ID:20151015035745     3
 2015-10-15-0357-45M.COL___340                                                 6
 STAT SP IPHASW D HRMM SECON CODA AMPLIT PERI AZIMU VELO AIN AR TRES W  DIS CAZ7
 BAR2 EZ IP     D  4 3 19.86                             170    0.1510 24.1 194 
 BAR2 EZ ES        4 3 34.63                             170   -0.2410 24.1 194 
 BAR2 EZ I         4 3 37.65         8.8 0.12            168           24.1 194 
 BRR  HZ EP        4 3 21.75                             152    0.4410 72.5 298 
 BRR  HN ES        4 3 38.57                             152    0.8510 72.5 298 
 BRR  HZ I         4 3 42.53         8.8 0.13            151           72.5 298 
 PAM  EZ EP        4 3 22.71                             151    0.4810 76.0  39 
 PAM  EN ES        4 3 38.89                             151   -0.4510 76.0  39 
 PAM  EZ I         4 3 41.97         6.9 0.56            157           76.0  39 
 RUS  HZ EP        4 3 23.67                             143   -0.2110  101 177 
 RUS  HN ES        4 3 42.53                             143    0.2510  101 177 
 RUS  HZ I         4 3 45.68         4.4 0.31            145            101 177 
 OCA  HZ EP        4 3 28.37                             129   -0.07 9  160 353 
 OCA  HE ES        4 3 50.43                             129    0.03 9  160 353 
 OCA  HZ I         4 3 53.96        16.6 0.25            133            160 353 
 SPBC HZ EP        4 3 28.79                             128    0.02 9  165 219 
 SPBC HN ES        4 3 50.59                             128   -0.41 9  165 219 
 SPBC HZ I         4 3 58.41         9.5 0.10            130            165 219 
 ZAR  HZ EP        4 3 32.63                             122   -0.13 8  205 292 
 ZAR  HN ES        4 3 58.12                             122    0.03 8  205 292 
 ZAR  HZ I         4 4  3.96        11.4 0.23            124            205 292 
 NOR  HZ EP        4 3 35.47                             118   -0.61 8  236 235 
 NOR  HE ES        4 4  3.29                             118   -0.71 8  236 235 
 NOR  HZ I         4 4  7.64         6.7 0.18            120            236 235 
 SML  HZ EP        4 3 36.26                             117   -0.58 8  244 335 
 SML  HE ES        4 4  4.95                             117   -0.41 8  244 335 
 SML  HZ I         4 4  7.49        11.1 0.08            120            244 335 
 CHI  HZ EP        4 3 37.77                             117   -0.20 8  249 196 
 CHI  HN ES        4 4  6.77                             117   -0.60 8  249 196 
 CHI  HZ I         4 4 17.13         2.6 0.38            119            249 196 
 HEL  HZ EP   1    4 3 40.68                             114    0.09 6  274 256 
 HEL  HN ES        4 4 11.29                             114   -0.75 8  274 256 
 HEL  HZ I         4 4 18.87         5.4 0.36            116            274 256 
 GUY2CHZ EP        4 3 44.78                             112    0.79 7  303 235 
 GUY2CHN ES        4 4 18.62                             112    0.54 7  303 235 
 GUY2CHZ I         4 4 25.31         3.7 0.26                           303 235 
 ELA  HZ EP        4 3 47.73                             110    0.50 7  331 230 
 ELA  HN ES        4 4 24.22                             110    0.37 7  331 230 
 ELA  HZ I         4 4 35.14         2.3 0.56            112            331 230 
 ORTC HZ EP        4 3 54.72                             106    0.43 6  397 216 
 ORTC HN ES        4 4 37.36                             106    0.94 6  397 216 
 SJC  HZ EP   4    4 3 54.12                             105   -1.73 0  410 327 
 SJC  HN ES   4    4 4 30.93                             105   -8.27 0  410 327 
                                                                                
