 2016 1115 0714 14.9 L   6.592 -73.204142.2  RSN  6 0.2 1.4LRSN                1
 GAP=122        0.54       4.5     2.5  5.3 -0.2376E+01  0.3273E+00  0.9470E+01E
 Epicentro: CABRERA - SANTANDER                                                3
 ACTION:UPD 17-10-26 21:08 OP:lp   STATUS:               ID:20161115071414 L   I
 OLDACT:UP  16-11-15 17:51 OP:edw  STATUS:               ID:20161115070644     3
 OLDACT:UP  16-11-15 17:50 OP:edw  STATUS:               ID:20161115070644     3
 OLDACT:UP  16-11-15 17:29 OP:edw  STATUS:               ID:20161115070644     3
 OLDACT:REG 16-11-15 13:35 OP:edw  STATUS:               ID:20161115070644     3
 2016-11-15-0707-00M.COL___344                                                 6
 STAT SP IPHASW D HRMM SECON CODA AMPLIT PERI AZIMU VELO AIN AR TRES W  DIS CAZ7
 BRR  HZ EP        714 36.44                             149    0.2010 80.0 315 
 BRR  HN ES        714 53.17                             149    0.3210 80.0 315 
 BRR  HZ I         714 53.87         3.7 0.16            146           80.0 315 
 PAM  EZ EP        714 38.37                             143    0.1010 99.6  34 
 PAM  EN ES        714 56.18                             143   -0.2910 99.6  34 
 PAM  EZ I         714 57.60         3.5 0.44            143           99.6  34 
 PTB  HZ EP        714 40.75                             133   -0.05 9  139 268 
 PTB  HN ES        715  0.72                             133   -0.25 9  139 268 
 PTB  HZ I         715  3.18         5.2 0.16            131            139 268 
 ZAR  HZ EP        714 47.55                             121   -0.03 8  208 299 
 ZAR  HN ES        715 12.97                             121   -0.07 8  208 299 
 ZAR  HZ I         715 18.48         2.7 0.18            119            208 299 
 PTGC HZ EP   4    714 55.44                             112   -1.08 0  290 156 
 PTGC HN ES   2    715 29.09                             112    0.13 4  290 156 
 CBOC HZ EP   4    715  2.49                             110    2.22 0  321 256 
 CBOC HN ES   4    715 37.50                             110    1.87 0  321 256 
 CBOC HZ I         715 40.68         0.8 0.26            109            321 256 
                                                                                
