 2014  315 0632 31.2 L   6.754 -73.141151.1  RSN  4 0.1 1.4LRSN                1
 GAP=139        0.41       3.7     3.2  4.7 -0.4018E+00  0.1761E+01 -0.7882E+01E
 Epicentro: LOS SANTOS - SANTANDER                                             3
 OLDACT:DUP 14-03-15 12:30 OP:fm   STATUS:               ID:20140315062821d    3
 ACTION:UPD 14-04-09 23:17 OP:nd   STATUS:               ID:20140315063231 L   I
 OLDACT:UP  14-03-15 12:34 OP:fm   STATUS:               ID:20140315062821d    3
 2014-03-15-0628-20M.COL___248                                                 6
 STAT SP IPHASW D HRMM SECON CODA AMPLIT PERI AZIMU VELO AIN AR TRES W  DIS CAZ7
 BAR2 SZ ES   1    633  7.28                             173    0.16 7 18.4 194 
 BAR2 SZ I         633  8.42        11.0 0.60            172           18.4 194 
 PAM  SZ EP        632 54.10                             151   -0.0910 81.1  37 
 PAM  SZ I         633 13.12         3.2 1.92            129           81.1  37 
 RUS  HZ EP        632 55.29                             146    0.1810 95.4 176 
 RUS  HE ES        633 13.60                             146   -0.1710 95.4 176 
 RUS  SZ I         633 14.67         3.5 1.20            146           95.4 176 
 PTB  HZ EP        632 58.55                             133   -0.01 9  147 261 
 PTB  SZ I         633 18.45         3.2 1.14            121            147 261 
 PTB  HE ES   1    633 19.88                             133   -0.03 7  147 261 
                                                                                
