 2013  315 0042  8.1 L   6.786 -73.140150.2  RSN 10 0.5 1.9LRSN                1
 GAP=138        0.96       3.6     5.2  7.0 -0.2723E+00  0.1037E+02  0.1463E+01E
 Epicentro: LOS SANTOS - SANTANDER                                             3
 ACTION:UPD 13-04-09 14:02 OP:ep   STATUS:               ID:20130315004208 L   I
 2013-03-15-0040-00M.COL___244                                                 6
 STAT SP IPHASW D HRMM SECON CODA AMPLIT PERI AZIMU VELO AIN AR TRES W  DIS CAZ7
 BAR2 SZ EP        042 28.21                             171   -0.0110 21.9 192 
 BAR2 SZ ES   1    042 43.04                             171   -0.89 7 21.9 192 
 BAR2 SZ I         042 46.16        22.0 0.38            169           21.9 192 
 BRR  HZ EP        042 30.21                             153    0.4210 72.5 299 
 BRR  HN ES   1    042 47.61                             153    0.89 7 72.5 299 
 BRR  HZ I         042 50.03         9.4 0.14            151           72.5 299 
 PAM  SZ EP   1    042 30.99                             151    0.16 7 78.2  38 
 PAM  SN ES   1    042 48.63                             151    0.07 7 78.2  38 
 PAM  SZ I         042 50.48         4.7 0.54            155           78.2  38 
 RUS  HZ EP   1    042 32.53                             145    0.37 7 98.9 176 
 RUS  HN ES   1    042 51.29                             145    0.35 7 98.9 176 
 RUS  HZ I         042 51.82         8.5 0.28            146           98.9 176 
 PTB  HZ EP        042 34.85                             133   -0.60 9  148 259 
 PTB  HN ES   1    042 56.11                             133   -0.68 7  148 259 
 PTB  HZ I         042 58.30        12.6 0.32            132            148 259 
 OCA  HN ES   1    042 58.91                             130   -0.46 7  162 353 
 ZAR  HZ EP   1    042 40.88                             123   -0.07 6  205 292 
 ZAR  HN ES   1    043  7.32                             123    0.74 6  205 292 
 ZAR  HZ I         043 13.18         9.0 0.20            123            205 292 
 NOR  HZ EP   1    042 44.20                             119    0.17 6  234 235 
 NOR  HN ES   1    043 12.32                             119    0.25 6  234 235 
 NOR  HZ I         043 16.48         9.1 0.18            120            234 235 
 SML  HZ EP   1    042 44.92                             118   -0.23 6  245 335 
 SML  HN ES   1    043 13.67                             118   -0.39 6  245 335 
 SML  HZ I         043 17.93        12.0 0.08            119            245 335 
 CHI  HZ EP   1    042 46.15                             118    0.26 6  247 195 
 CHI  HN ES   1    043 14.88                             118   -0.49 6  247 195 
 CHI  HZ I         043 23.42         3.8 0.62            119            247 195 
                                                                                
