 2017  415 0400 57.0 L   6.310 -73.591114.0  RSN  9 0.3 1.4LRSN                1
 GAP= 74        0.90       2.8     2.8  5.8 -0.1555E+01  0.4018E+01 -0.1815E+01E
 Epicentro: SANTA HELENA DEL OPON - SANTANDER                                  3
 ACTION:UPD 17-05-30 21:12 OP:jn   STATUS:               ID:20170415040057 L   I
 OLDACT:UP  17-04-15 16:10 OP:edw  STATUS:               ID:20170415035743d    3
 OLDACT:UP  17-04-15 16:10 OP:edw  STATUS:               ID:20170415035743d    3
 OLDACT:DUP 17-04-15 16:03 OP:edw  STATUS:               ID:20170415035743d    3
 2017-04-15-0358-00M.COL___368                                                 6
 STAT SP IPHASW D HRMM SECON CODA AMPLIT PERI AZIMU VELO AIN AR TRES W  DIS CAZ7
 BAR2 EZ EP        4 1 14.49                             153    0.3310 54.9  55 
 BAR2 EZ ES        4 1 27.88                             153    0.3510 54.9  55 
 BAR2 EZ I         4 1 29.07        19.2 0.40            157           54.9  55 
 RUS  HZ EP        4 1 15.54                             146   -0.1110 72.8 129 
 RUS  HN ES        4 1 30.03                             146   -0.1510 72.8 129 
 RUS  HZ I         4 1 31.60         2.6 0.16            149           72.8 129 
 BRR  HZ EP        4 1 16.12                             139   -0.0610 89.1 351 
 BRR  HN ES        4 1 30.57                             139   -0.5510 89.1 351 
 SPBC HZ EP        4 1 16.67                             139    0.2810 90.2 216 
 SPBC HN ES        4 1 31.68                             139    0.1910 90.2 216 
 SPBC HZ I         4 1 37.55         5.2 0.18            141           90.2 216 
 PTB  HZ EP        4 1 16.48                             136   -0.5310 99.0 285 
 PTB  HN ES        4 1 33.06                             136    0.4510 99.0 285 
 PTB  HZ I         4 1 34.51         5.3 0.18            138           99.0 285 
 PAM  EZ EP        4 1 22.53                             123    0.02 9  151  41 
 PAM  EN ES        4 1 42.18                             123   -0.22 9  151  41 
 PAM  EZ I         4 1 44.21         1.9 0.24            127            151  41 
 NOR  HZ EP        4 1 23.40                             121    0.08 9  164 240 
 NOR  HN ES        4 1 43.10                             121   -0.73 9  164 240 
 NOR  HZ I         4 1 46.37         3.2 0.14            123            164 240 
 CHI  HE ES   2    4 1 49.27                             117    0.30 4  187 185 
 ZAR  HZ EP        4 1 26.42                             116    0.19 9  192 313 
 ZAR  HN ES        4 1 49.42                             116    0.40 9  192 313 
 ZAR  HZ I         4 1 53.11         3.2 0.24            119            192 313 
                                                                                
