 2017  415 0306 39.5 L   6.872 -73.136133.3  RSN  6 0.4 1.1LRSN                1
 GAP=245        0.96       5.2     6.2  6.5  0.1385E+02  0.2845E+01 -0.3653E+01E
 Epicentro: LOS SANTOS - SANTANDER                                             3
 ACTION:UPD 17-05-30 21:12 OP:jn   STATUS:               ID:20170415030639 L   I
 OLDACT:DUP 17-04-15 15:39 OP:edw  STATUS:               ID:20170415025737d    3
 OLDACT:UP  17-04-15 15:39 OP:edw  STATUS:               ID:20170415025736     3
 OLDACT:UP  17-04-15 15:39 OP:edw  STATUS:               ID:20170415025736     3
 OLDACT:UP  17-04-15 15:38 OP:edw  STATUS:               ID:20170415025736     3
 OLDACT:REG 17-04-15 12:42 OP:edw  STATUS:               ID:20170415025736     3
 2017-04-15-0258-00M.COL___368                                                 6
 STAT SP IPHASW D HRMM SECON CODA AMPLIT PERI AZIMU VELO AIN AR TRES W  DIS CAZ7
 BAR2 EZ EP        3 6 57.67                             166   -0.1310 31.4 189 
 BAR2 EZ ES        3 7 12.20                             166    0.1010 31.4 189 
 BRR  HZ EP     C  3 6 59.28                             151    0.1610 68.8 292 
 BRR  HN ES        3 7 14.84                             151    0.3810 68.8 292 
 BRR  HZ I         3 7 18.87         2.8 0.32            148           68.8 292 
 RUS  HZ EP   2    3 7  3.35                             139    0.73 5  109 177 
 RUS  HN ES        3 7 20.08                             139   -0.6110  109 177 
 RUS  HZ I         3 7 21.24         1.9 0.34            139            109 177 
 PTB  HZ EP   9    3 7  4.54                             128   -1.17 0  151 256 
 PTB  HN ES        3 7 24.79                             134   -0.22 9  151 256 
 PTB  HZ I         3 7 27.06         1.5 0.62            127            151 256 
 SPBC HZ EP        3 7  8.33                             125    0.61 9  170 218 
 SPBC HE ES        3 7 29.83                             125    0.06 9  170 218 
 SPBC HZ I         3 7 35.38         3.5 0.38            124            170 218 
 ZAR  HZ EP        3 7 10.28                             120   -0.65 9  202 290 
 ZAR  HN ES        3 7 35.24                             120   -0.23 9  202 290 
 ZAR  HZ I         3 7 39.04         1.0 0.24            120            202 290 
                                                                                
