 2012  515 0211 37.5 L   6.656 -73.205152.0  RSN  4 0.2 1.4LRSN                1
 GAP=209        0.48       7.9     9.6  6.7  0.6517E+02  0.8446E+01  0.2556E+01E
 Epicentro: BARICHARA - SANTANDER                                              3
 ACTION:UP  12-07-05 12:05 OP:pat  STATUS:               ID:20120515021137 L   I
 2012-05-15-0210-00M.COL___195                                                 6
 STAT SP IPHASW D HRMM SECON CODA AMPLIT PERI AZIMU VELO SNR AR TRES W  DIS CAZ7
 BAR2 SZ ES   2    212 12.96                             177    -0.4 5    8 161 
 BAR2 SZ I         212 13.35         6.6 0.51                             8 161 
 BRR  HZ EP   1    211 59.47                             152    -0.1 7   75 312 
 BRR  HZ I         212  1.42         5.8 0.11                            75 312 
 BRR  HN ES   1    212 16.96                             152     0.2 7   75 312 
 RUS  HZ EP   1    212  0.91                             149     0.1 7   86 171 
 RUS  HN ES   1    212 19.14                             149     0.1 7   86 171 
 RUS  HZ I         212 21.25         2.0 0.44                            86 171 
 ZAR  HE ES   1    212 35.96                             124    -0.1 6  205 297 
                                                                                
