 2017  715 0450  9.4 L   6.381 -73.701 96.0  RSN  8 0.4 1.5LRSN                1
 GAP= 79        1.00       3.8     3.2  8.5  0.4780E-02  0.7855E+01 -0.8434E+01E
 Epicentro: SANTA HELENA DEL OPON - SANTANDER                                  3
 ACTION:UPD 17-08-30 15:33 OP:rebc STATUS:               ID:20170715045009 L   I
 OLDACT:UP  17-07-15 16:15 OP:dnl  STATUS:               ID:20170715044741     3
 OLDACT:REG 17-07-15 12:27 OP:dnl  STATUS:               ID:20170715044741     3
 2017-07-15-0448-00M.COL___377                                                 6
 STAT SP IPHASW D HRMM SECON CODA AMPLIT PERI AZIMU VELO AIN AR TRES W  DIS CAZ7
 BAR2 EZ IP     C  450 25.06                             146   -0.0110 61.9  68 
 BAR2 EZ ES        450 37.95                             146    0.6410 61.9  68 
 BAR2 EZ I         450 39.46        34.4 0.28            147           61.9  68 
 BRR  HZ IP     C  450 26.06                             138   -0.1010 80.3 359 
 BRR  HN ES   4    450 40.32                             138    1.06 0 80.3 359 
 BRR  HZ I         450 45.19         5.6 0.32            138           80.3 359 
 PTB  HZ EP   4    450 25.54                             136   -1.07 0 85.3 282 
 PTB  HN ES        450 39.43                             136   -0.6410 85.3 282 
 PTB  HZ I         450 39.73         4.8 0.44            138           85.3 282 
 RUS  HZ EP        450 26.79                             136   -0.6410 87.2 128 
 RUS  HN ES        450 41.41                             136   -0.1110 87.2 128 
 RUS  HZ I         450 43.87         9.0 0.74            141           87.2 128 
 SPBC HZ EP   4    450 30.32                             134    3.15 0 90.5 207 
 SPBC HE ES        450 41.24                             134    0.1810 90.5 207 
 SPBC HZ I         450 42.73         8.5 0.20            139           90.5 207 
 NOR  HZ EP   2    450 34.61                             118    0.65 5  158 235 
 NOR  HE ES        450 53.57                             118    0.42 9  158 235 
 NOR  HZ I         450 54.75         5.5 0.32            121            158 235 
 ZAR  HZ EP        450 35.91                             115   -0.17 9  177 314 
 ZAR  HN ES        450 57.27                             115    0.36 9  177 314 
 ZAR  HZ I         451  2.54         6.4 0.20            116            177 314 
 GUY2CHZ EP   2    450 42.26                             109    0.19 4  224 235 
 GUY2CHE ES   4    451  9.80                             109    2.21 0  224 235 
 GUY2CHZ I         451 14.36         1.8 0.44                           224 235 
                                                                                
