 2012 1215 0722 47.1 L   6.717 -73.174152.4  RSN  4 0.2 0.8LRSN                1
 GAP=228        0.53       5.7     5.4  5.7  0.1506E+02  0.2922E+01  0.5407E+00E
 Epicentro: VILLANUEVA - SANTANDER                                             3
 ACTION:UPD 13-01-04 14:28 OP:ep   STATUS:               ID:20121215072247 L   I
 2012-12-15-0719-48M.COL___204                                                 6
 STAT SP IPHASW D HRMM SECON CODA AMPLIT PERI AZIMU VELO AIN AR TRES W  DIS CAZ7
 BAR2 SZ EP   1    723  7.26                             175   -0.15 7 13.8 184 
 BAR2 SZ ES   1    723 22.89                             175   -0.34 7 13.8 184 
 BRR  HZ EP   1    723  9.28                             153    0.16 7 73.5 306 
 BRR  HE ES   1    723 26.52                             153    0.24 7 73.5 306 
 RUS  HZ EP   1    723 11.23                             148    0.29 7 91.7 174 
 RUS  HN ES   1    723 29.60                             148    0.10 7 91.7 174 
 RUS  HZ I         723 30.61         0.7 0.40                          91.7 174 
 PTB  HZ EP   1    723 13.83                             134   -0.41 7  143 262 
 PTB  HN ES   1    723 35.45                             134    0.07 7  143 262 
 PTB  HZ I         723 38.51         1.1 0.19                           143 262 
                                                                                
