 2012  315 0007 30.2 L   6.838 -73.930 28.5  RSN  5 0.3 1.0LRSN                1
 GAP=102        0.64       2.8     2.2  3.4 -0.1043E+01 -0.9068E+00  0.2843E+01E
 ACTION:UP  12-03-31 23:19 OP:EP   STATUS:               ID:20120315000730 L   I
 2012-03-15-0000-00M.COL___199                                                 6
 STAT SP IPHASW D HRMM SECON CODA AMPLIT PERI AZIMU VELO SNR AR TRES W  DIS CAZ7
 BRR  HZ EP   1    0 7 38.04                             120     0.3 7   38  39 
 BRR  HN ES   1    0 7 43.47                             120    -0.2 7   38  39 
 BRR  HZ I         0 7 43.99         9.4 0.10                            38  39 
 PTB  HN ES   1    0 7 50.22                             103    -0.2 7   67 240 
 ZAR  HN ES   1    0 8  3.93                              61     0.0 7  125 305 
 RUS  HZ EP   1    0 7 52.14                              61     0.5 7  140 138 
 RUS  HN ES   1    0 8  8.03                              61    -0.2 7  140 138 
 RUS  HZ I         0 8 11.01         2.5 0.24                           140 138 
 PAM  SN ES   1    0 8  9.45                              61    -0.2 7  147  68 
                                                                                
