 2012  415 0843 46.6 L   6.777 -73.117141.0  RSN  5 0.1 1.6LRSN                1
 GAP=141        0.34       2.1     2.5  3.2 -0.1270E+01  0.4897E+00  0.5980E+00E
 Epicentro: LOS SANTOS - SANTANDER                                             3
 ACTION:UPD 12-07-05 11:53 OP:tino STATUS:               ID:20120415084346 L   I
 2012-04-15-0839-39M.COL___163                                                 6
 STAT SP IPHASW D HRMM SECON CODA AMPLIT PERI AZIMU VELO AIN AR TRES W  DIS CAZ7
 BAR2 SZ EP        844  5.66                             171     0.010   22 199 
 BAR2 SZ ES   1    844 20.55                             171     0.1 7   22 199 
 BAR2 SZ I         844 24.08        10.8 0.86                            22 199 
 BRR  HZ EP        844  7.41                             150    -0.110   75 299 
 BRR  HN ES   1    844 23.85                             150     0.1 7   75 299 
 BRR  HZ I         844 27.33        11.1 0.12                            75 299 
 PAM  SZ EP        844  8.41                             150     0.110   77  37 
 PAM  SN ES   1    844 25.05                             150    -0.2 7   77  37 
 RUS  HZ EP        844  9.72                             144     0.010   98 178 
 RUS  HE ES   1    844 27.64                             144    -0.1 7   98 178 
 RUS  HZ I         844 30.28         4.9 0.22                            98 178 
 NOR  SN ES   1    844 49.81                             117    -0.1 6  236 235 
                                                                                
