 2017  915 0532 34.4 L   6.762 -73.173150.0  RSN  4 0.2 1.3LRSN                1
 GAP=231        0.59       3.6     5.5  5.5  0.3666E+01 -0.1960E+01  0.1677E+01E
 Epicentro: LOS SANTOS - SANTANDER                                             3
 ACTION:UPD 17-10-05 19:12 OP:rebc STATUS:               ID:20170915053234 L   I
 OLDACT:REG 17-09-15 13:18 OP:mg   STATUS:               ID:20170915052742     3
 2017-09-15-0528-00M.COL___420                                                 6
 STAT SP IPHASW D HRMM SECON CODA AMPLIT PERI AZIMU VELO AIN AR TRES W  DIS CAZ7
 BAR2 EZ EP        532 54.21                             173   -0.2210 18.8 183 
 BAR2 EZ ES   2    533  9.71                             173   -0.36 5 18.8 183 
 BAR2 EZ I         533 10.62         4.5 0.16            171           18.8 183 
 BRR  HZ EP     D  532 55.71                             154   -0.2410 70.8 303 
 BRR  HN ES        533 13.08                             154    0.2910 70.8 303 
 BRR  HZ I         533 14.15         2.8 0.48            153           70.8 303 
 RUS  HZ EP        532 58.38                             146    0.1210 96.6 174 
 RUS  HN ES        533 17.05                             146    0.1510 96.6 174 
 RUS  HZ I         533 18.05         3.6 0.30            146           96.6 174 
 SPBC HZ EP        533  2.92                             131    0.21 9  158 219 
 SPBC HN ES        533 24.59                             131   -0.23 9  158 219 
 SPBC HZ I         533 26.83         3.1 0.18            131            158 219 
                                                                                
