 2013  615 0017  0.8 L   6.727 -73.168151.3  RSN  9 0.3 1.9LRSN                1
 GAP=178        0.55       4.0     3.8  4.9  0.2510E+01  0.2119E+01 -0.3292E+01E
 Epicentro: VILLANUEVA - SANTANDER                                             3
 ACTION:UPD 14-01-08 09:54 OP:ep   STATUS:               ID:20130615001700 L   I
 OLDACT:REG 13-06-15 07:18 OP:mh   STATUS:               ID:20130615000959     3
 2013-06-15-0009-59M.COL___261                                                 6
 STAT SP IPHASW D HRMM SECON CODA AMPLIT PERI AZIMU VELO AIN AR TRES W  DIS CAZ7
 BAR2 SZ EP   1    017 20.81                             174   -0.15 7 15.0 186 
 BAR2 SZ ES   1    017 36.62                             174   -0.06 7 15.0 186 
 BAR2 SZ I         017 37.11         8.6 0.26            171           15.0 186 
 GIR2 SZ EP   1    017 21.48                             165    0.13 7 39.0 356 
 GIR2 SZ I         017 42.39         3.6 0.22            159           39.0 356 
 BRR  HZ EP   1    017 22.96                             153    0.30 7 73.4 305 
 BRR  HN ES   1    017 39.74                             153    0.02 7 73.4 305 
 BRR  HZ I         017 41.28        13.8 0.46            152           73.4 305 
 RUS  HZ EP   1    017 24.67                             147    0.11 7 92.8 174 
 RUS  HN ES   2    017 43.09                             147   -0.01 5 92.8 174 
 RUS  HN I         017 45.16        16.0 0.24            141           92.8 174 
 PTB  HZ EP   1    017 27.59                             134   -0.30 7  144 262 
 PTB  HN ES   1    017 49.04                             134    0.02 7  144 262 
 PTB  HN I         017 50.19        18.6 0.22            132            144 262 
 ZAR  HZ EP   1    017 34.21                             123    0.51 6  205 294 
 ZAR  HN ES   1    017 59.35                             123   -0.02 6  205 294 
 ZAR  HN I         018  1.99        12.7 0.24            119            205 294 
 NOR  HN ES   2    018  2.93                             120   -0.81 4  228 236 
 NOR  HN I         018 10.99        11.0 0.44            116            228 236 
 SML  HZ EP   1    017 37.84                             118   -0.58 6  250 337 
 SML  HN ES   4    018  5.39                             118   -2.37 0  250 337 
 SML  HN I         018  9.74        13.5 0.10            113            250 337 
 GUY2CHE ES   2    018 18.22                             114    0.65 4  295 236 
 GUY2CHE I         018 28.22         3.0 0.30                           295 236 
                                                                                
