 2017  215 0456 18.8 L   6.591 -73.445121.7  RSN 19 0.5 2.7LRSN                1
 GAP= 56        0.97       2.8     2.9  5.0  0.5785E+00  0.6178E+01  0.1115E+01E
 Epicentro: EL CARMEN - SANTANDER                                              3
 ACTION:UPD 17-05-24 15:36 OP:jn   STATUS:               ID:20170215045618 L   I
 OLDACT:UP  17-02-15 16:20 OP:dani STATUS:               ID:20170215044743     3
 OLDACT:UP  17-02-15 16:19 OP:dani STATUS:               ID:20170215044743     3
 OLDACT:UP  17-02-15 16:13 OP:dani STATUS:               ID:20170215044743     3
 OLDACT:UP  17-02-15 16:12 OP:dani STATUS:               ID:20170215044743     3
 OLDACT:UP  17-02-15 16:10 OP:dani STATUS:               ID:20170215044743     3
 OLDACT:UP  17-02-15 16:09 OP:dani STATUS:               ID:20170215044743     3
 OLDACT:UP  17-02-15 16:09 OP:dani STATUS:               ID:20170215044743     3
 OLDACT:REG 17-02-15 12:52 OP:dani STATUS:               ID:20170215044743     3
 2017-02-15-0448-00M.COL___361                                                 6
 STAT SP IPHASW D HRMM SECON CODA AMPLIT PERI AZIMU VELO AIN AR TRES W  DIS CAZ7
 BAR2 EZ IP     D  456 35.61                             166   -0.0810 29.0  90 
 BAR2 EZ ES        456 48.83                             166   -0.0410 29.0  90 
 BAR2 EZ I         456 50.64       162.5 0.36            169           29.0  90 
 BRR  HZ EP     D  456 36.88                             150   -0.0810 64.3 333 
 BRR  HE ES        456 51.00                             150   -0.1310 64.3 333 
 BRR  HZ I         456 52.20       213.1 0.14            153           64.3 333 
 RUS  HZ IP     D  456 38.86                             142   -0.3410 87.0 153 
 RUS  HN ES        456 54.71                             142   -0.4110 87.0 153 
 RUS  HZ I         456 57.36       109.5 0.19            142           87.0 153 
 PTB  HZ EP        456 40.67                             134    0.1010  112 267 
 PTB  HN ES   3    456 56.37                             134   -1.19 2  112 267 
 PAM  HZ EP        456 41.60                             134   -0.0310  117  45 
 PAM  EN ES        456 59.69                             134    0.2410  117  45 
 PAM  HZ I         457  2.81        61.4 0.34            138            117  45 
 TAM  HZ EP        456 47.52                             119   -0.12 9  184  95 
 TAM  HE ES   4    457  7.77                             119   -2.38 0  184  95 
 TAM  HZ I         457  8.91        50.1 0.16            122            184  95 
 ZAR  HZ EP        456 48.06                             119    0.29 9  185 303 
 ZAR  HE ES        457 11.08                             119    0.72 9  185 303 
 ZAR  HZ I         457 14.56        73.9 0.33            120            185 303 
 NOR  HZ EP        456 49.53                             118    0.73 9  194 234 
 NOR  HN ES        457 12.16                             118   -0.05 9  194 234 
 NOR  HZ I         457 16.12        40.9 0.32            118            194 234 
 ROSC BN ES   3    457 19.34                             115    2.05 2  217 207 
 ROSC BZ I         457 28.32        21.3 0.42            115            217 207 
 CHI  HZ EP        456 52.44                             115    0.46 8  219 188 
 CHI  HN ES        457 17.96                             115    0.09 8  219 188 
 CHI  HZ I         457 24.90        16.9 0.38            115            219 188 
 URE  HZ EP        456 55.56                             110   -0.96 8  264 299 
 URE  HN ES   3    457 24.10                             110   -1.84 2  264 299 
 URE  HZ I         457 26.38        37.1 0.06            111            264 299 
 CBOC HZ EP        457  1.07                             108    0.73 7  295 254 
 CBOC HN ES   3    457 32.18                             108   -0.56 2  295 254 
 CBOC HZ I         457 41.79        12.0 0.44            108            295 254 
 PTGC HZ EP   3    456 59.69                             107   -1.19 2  302 151 
 PTGC HN ES   4    457 32.01                             107   -1.70 0  302 151 
 PTGC HZ I         457 35.52        25.6 0.32            108            302 151 
 DBB  EZ EP        457  1.92                             107    0.06 7  309 279 
 DBB  EN ES        457 34.93                             107   -0.51 7  309 279 
 DBB  EZ I         457 38.96        12.5 0.18            107            309 279 
 ANIL HZ EP   9    457  6.10                             106    2.98 0  318 223 
 ANIL HN ES        457 41.39                             106    0.72 7  318 223 
 ANIL HZ I         457 44.01        35.3 0.36            106            318 223 
 LL6C HN EP   9    456 48.71                             104   -17.6 0  348   3 
 LL6C HN ES        457 27.01                                    1.22 6  348   3 
 PRA  HZ EP   4    457 11.18                             104    3.87 0  356 207 
 APAC HZ EP        457  9.44                             103   -0.10 6  375 293 
 APAC HN ES        457 48.56                             103   -0.56 6  375 293 
 APAC HZ I         457 52.64        16.0 0.36            104            375 293 
 SJC  HZ EP   3    457 12.19                             101   -1.87 1  413 333 
 SJC  HN ES   4    457 54.49                             101   -2.68 0  413 333 
 SJC  HZ I         457 56.81        13.5 0.38            102            413 333 
 CRJC HZ EP        457 23.79                              98   -0.07 4  494   7 
 CRJC HN ES   4    458 12.21                              98   -2.40 0  494   7 
 CRJC HZ I         458 19.13        18.7 0.18            100            494   7 
                                                                                
