 2011 1115 0250 42.2 L   6.774 -73.074142.8  RSN  9 0.5 1.9LRSN                1
 GAP=147        0.88       3.7     5.1  7.3 -0.2405E+01  0.1368E+02 -0.3597E+00E
 Epicentro: LOS SANTOS - SANTANDER                                             3
 ACTION:UPD 12-07-13 16:10 OP:ep   STATUS:               ID:20111115025042 L   I
 2011-11-15-0249-09S.COL___179                                                 6
 STAT SP IPHASW D HRMM SECON CODA AMPLIT PERI AZIMU VELO AIN AR TRES W  DIS CAZ7
 BAR2 SZ EP   1    251  1.72                             170    0.27 7 23.4 211 
 BAR2 SZ ES   1    251 16.17                             170   -0.31 7 23.4 211 
 BAR2 SZ I         251 19.00        16.2 0.25                          23.4 211 
 PAM  SZ EP   1    251  4.66                             151    0.73 7 75.0  33 
 PAM  SN ES   1    251 20.92                             151    0.02 7 75.0  33 
 BRR  HZ EP   1    251  3.58                             149    0.07 7 79.6 298 
 BRR  HN ES   1    251 20.41                             149    0.27 7 79.6 298 
 BRR  HZ I         251 21.39        20.1 0.09                          79.6 298 
 RUS  HZ EP   1    251  4.59                             144   -0.82 7 97.5 181 
 RUS  HN ES   1    251 23.69                             144    0.16 7 97.5 181 
 RUS  HZ I         251 26.36         7.1 0.32                          97.5 181 
 OCA  SZ EP   1    251 10.04                             128   -0.60 7  164 351 
 OCA  SZ ES   1    251 32.83                             128   -0.01 7  164 351 
 OCA  SZ I         251 35.86         8.0 0.19                           164 351 
 ZAR  HZ EP   1    251 15.00                             121   -0.31 6  213 292 
 ZAR  HE ES   1    251 40.78                             121   -0.38 6  213 292 
 ZAR  HZ I         251 47.68         7.7 0.30                           213 292 
 NOR  SN ES   1    251 45.76                             117   -0.65 6  240 236 
 CHI  HN ES   1    251 49.15                             116    0.27 6  248 197 
 HEL  HZ EP   1    251 23.92                             113    0.89 6  279 257 
 HEL  HN ES   1    251 55.51                             113    0.62 6  279 257 
 HEL  HZ I         251 59.75         3.6 0.57                           279 257 
                                                                                
