 2010  815 0901 37.5 L   6.826 -73.010146.6  RSN  8 0.4 2.0LRSN                1
 GAP=173        0.89       3.2     7.5  6.2 -0.5091E+01 -0.3849E+00  0.1428E+01E
 Epicentro: CEPITA - SANTANDER                                                 3
 ACTION:UP  10-09-07 10:55 OP:vdl  STATUS:               ID:20100815090137 L   I
 2010-08-15-0900-39S.COL___111                                                 6
 STAT SP IPHASW D HRMM SECON CODA AMPLIT PERI AZIMU VELO SNR AR TRES W  DIS CAZ7
 BAR2 SZ EP        9 1 57.56                             167     0.110   32 217 
 BAR2 SZ ES   1    9 2 13.44                             167     0.5 7   32 217 
 BAR2 SZ I         9 2 14.33        12.9 0.32                            32 217 
 BRR  HZ IP     C  9 1 59.38                             149    -0.110   84 292 
 BRR  HZ I         9 1 59.68        31.4 0.19                            84 292 
 BRR  HE ES        9 2 16.48                             149    -0.110   84 292 
 RUS  HZ EP        9 2  1.23                             143    -0.310  103 184 
 RUS  HN ES        9 2 20.32                             143     0.010  103 184 
 GUE  SZ EP        9 2  2.46                             141     0.610  111   5 
 GRA  SZ ES        9 2 21.13                             139    -0.510  119  11 
 GRA  SZ I         9 2 24.27        10.3 0.46                           119  11 
 OCA  SZ EP        9 2  5.85                             130     0.0 9  160 348 
 OCA  SZ ES   1    9 2 28.01                             130     0.1 7  160 348 
 OCA  SZ I         9 2 32.81        10.4 0.57                           160 348 
 RREF HZ EP   1    9 2 25.92                             110     0.7 5  335 231 
 RREF HN ES   3    9 3  2.80                                     0.4 2  335 231 
 RREF HZ I         9 3  9.73         4.2 0.32                           335 231 
 PRA  HZ EP        9 2 31.88                             106    -0.3 6  402 211 
 PRA  HN ES   1    9 3 14.29                             106    -0.6 4  402 211 
 PRA  HZ I         9 3 17.40         3.5 0.36                           402 211 
                                                                                
