 2011 1115 0842 47.8 L   7.429 -73.393103.8  RSN  5 0.3 1.3LRSN                1
 GAP= 93        0.70       4.4     3.6  7.7 -0.8818E+00  0.6779E+01 -0.5000E+00E
 Epicentro: SABANA DE TORRES - SANTANDER                                       3
 ACTION:UPD 12-07-13 16:10 OP:ep   STATUS:               ID:20111115084247 L   I
 2011-11-15-0841-11S.COL___179                                                 6
 STAT SP IPHASW D HRMM SECON CODA AMPLIT PERI AZIMU VELO AIN AR TRES W  DIS CAZ7
 BRR  HZ EP   1    843  2.98                             152   -0.23 7 50.1 225 
 BRR  HZ I         843  3.42         8.3 0.14                          50.1 225 
 BRR  HN ES   1    843 14.99                             152   -0.25 7 50.1 225 
 PAM  SZ EP   1    843  6.06                             141    0.33 7 77.1  97 
 PAM  SN ES   1    843 20.21                             141    0.48 7 77.1  97 
 PAM  SZ I         843 22.87         2.5 0.23                          77.1  97 
 OCA  SZ EP   1    843  6.10                             136   -0.20 7 89.9   5 
 OCA  SZ ES   1    843 20.50                             136   -0.25 7 89.9   5 
 OCA  SZ I         843 24.10         4.9 0.31                          89.9   5 
 BAR2 SZ EP   1    843  6.48                             134   -0.41 7 95.4 166 
 BAR2 SZ I         843 20.48         6.1 0.45                          95.4 166 
 ZAR  HZ EP   1    843 13.28                             118    0.07 7  162 273 
 ZAR  HN ES   1    843 33.63                             118    0.58 7  162 273 
 ZAR  HZ I         843 35.83         3.1 0.18                           162 273 
                                                                                
