 2012  615 0659 21.9 L   6.803 -73.146150.6  RSN 18 0.4 4.1LRSN 4.0WRSN        1
 SPEC AVERAGE  MO 15.1 ST 13.1 OM  2.8 f0 3.63 R0.7950 AL 1.51 WI 31.1 MW  4.0 3
 SPEC SD       MO  0.1 ST  4.5 OM  0.3 f00.565 R0.1261 AL      WI      MW  0.1 3
 GAP=126        0.69       2.3     2.9  4.2 -0.1639E+01  0.4026E+01  0.3356E+00E
 Epicentro: LOS SANTOS - SANTANDER                                             3
 SPEC YOT HH Z MO 15.1 ST  6.4 OM  2.3 f0 2.87 R0.9798 AL 1.19 WI 54.4 MW  4.0 3
 SPEC YOT HH Z T 7 022 K 0.000 GD  495 VP 7.60 DE 3.00 Q0230.0 QA 0.60 VS 4.20 3
 SPEC ZAR HH Z MO 15.1 ST  6.9 OM  2.6 f0 2.92 R0.9630 AL 0.49 WI 27.0 MW  4.0 3
 SPEC ZAR HH Z T 65954 K 0.000 GD  253 VP 7.60 DE 3.00 Q0230.0 QA 0.60 VS 4.20 3
 SPEC PTB HH Z MO 15.2 ST 18.9 OM  2.7 f0 4.03 R0.6978 AL 2.07 WI 21.6 MW  4.1 3
 SPEC PTB HH Z T 65948 K 0.000 GD  211 VP 7.60 DE 3.00 Q0230.0 QA 0.60 VS 4.20 3
 SPEC RUS HH Z MO 14.9 ST 14.6 OM  2.5 f0 4.54 R0.6194 AL 2.27 WI 16.9 MW  3.9 3
 SPEC RUS HH Z T 65945 K 0.000 GD  181 VP 7.60 DE 3.00 Q0230.0 QA 0.60 VS 4.20 3
 SPEC COD HH Z MO 15.0 ST 13.1 OM  2.3 f0 3.99 R0.7048 AL 1.14 WI 36.9 MW  4.0 3
 SPEC COD HH Z T 7 0 9 K 0.000 GD  379 VP 7.60 DE 3.00 Q0230.0 QA 0.60 VS 4.20 3
 SPEC HEL HH Z MO 15.3 ST 17.5 OM  2.7 f0 3.45 R0.8151 AL 1.76 WI 32.0 MW  4.2 3
 SPEC HEL HH Z T 7 0 1 K 0.000 GD  310 VP 7.60 DE 3.00 Q0230.0 QA 0.60 VS 4.20 3
 SPEC CHI HH Z MO 15.2 ST 14.5 OM  2.6 f0 3.58 R0.7855 AL 1.68 WI 28.7 MW  4.1 3
 SPEC CHI HH Z T 65959 K 0.000 GD  291 VP 7.60 DE 3.00 Q0230.0 QA 0.60 VS 4.20 3
 ACTION:UPD 12-08-06 17:49 OP:ep   STATUS:               ID:20120615065921 L   I
 2012-06-15-0656-43M.COL___169                                                 6
 STAT SP IPHASW D HRMM SECON CODA AMPLIT PERI AZIMU VELO AIN AR TRES W  DIS CAZ7
 BAR2 SZ IP        659 42.26                             171    0.1710 23.7 190 
 BAR2 SZ ES   1    659 57.90                             171    0.05 7 23.7 190 
 BAR2 SZ I         659 59.43      3736.9 0.44                          23.7 190 
 PAM  SZ IP        659 45.12                             152    0.5310 77.2  40 
 PAM  SN ES   1    7 0  2.46                             152    0.16 7 77.2  40 
 RUS  HZ IP     C  659 46.08                             145   -0.0410  101 176 
 RUS  HN ES   1    7 0  4.85                             145   -0.19 7  101 176 
 RUS  HZ I         7 0  6.66      1960.1 0.38                           101 176 
 PTB  HZ IP     C  659 48.73                             133   -0.50 9  148 259 
 PTB  HN ES   1    7 0 10.31                             133   -0.27 7  148 259 
 PTB  HZ I         7 0 12.59      1729.4 0.39                           148 259 
 OCA  HZ EP   1    659 50.34                             131   -0.18 7  160 353 
 OCA  HE ES   1    7 0 12.67                             131   -0.20 7  160 353 
 OCA  HZ I         7 0 18.31      2017.0 0.34                           160 353 
 ZAR  HZ EP        659 54.45                             123   -0.16 9  204 292 
 ZAR  HN ES   1    7 0 20.34                             123    0.19 6  204 292 
 ZAR  HZ I         7 0 27.45      2680.0 0.32                           204 292 
 NOR  SZ EP        659 57.89                             119   -0.01 8  235 234 
 NOR  SE ES   1    7 0 25.76                             119   -0.24 6  235 234 
 CHI  HZ IP     C  659 59.97                             118    0.09 8  249 195 
 CHI  HN ES   1    7 0 29.35                             118   -0.17 6  249 195 
 CHI  HZ I         7 0 35.57       752.2 0.33                           249 195 
 HEL  HZ EP        7 0  2.15                             116   -0.18 8  272 256 
 HEL  HN ES   1    7 0 34.21                             116    0.32 6  272 256 
 HEL  HZ I         7 0 40.49       755.3 0.21                           272 256 
 GUY  SZ EP   1    7 0  6.99                             113    1.01 5  304 235 
 GUY  SN ES   1    7 0 40.58                             113    0.19 5  304 235 
 GUY  SZ I         7 0 47.82      1460.1 0.50                           304 235 
 DBB  SZ EP        7 0 10.41                             110    0.88 7  339 274 
 DBB  SZ ES   1    7 0 46.64                             110   -0.07 5  339 274 
 TOL  SZ EP   1    7 0 11.00                             110    0.65 5  344 225 
 TOL  SZ ES   2    7 0 48.00                             110   -0.16 3  344 225 
 COD  HZ EP   1    7 0  9.67                             110   -0.73 5  348 355 
 COD  HN ES   1    7 0 47.90                             110   -0.35 5  348 355 
 COD  HZ I         7 0 55.32       373.5 0.48                           348 355 
 ANIL HZ EP   1    7 0 12.56                             109    0.67 5  358 224 
 ANIL HE ES   1    7 0 50.07                             109   -0.83 5  358 224 
 SDV  BZ EP   1    7 0 11.48                             109   -0.60 5  360  50 
 SDV  BZ I         7 0 51.27       204.2 0.60                           360  50 
 PRA  HZ EP        7 0 15.42                             107   -0.17 6  392 210 
 PRA  HN ES   1    7 0 57.54                             107    0.05 4  392 210 
 YOT  HZ EP        7 0 24.58                             104   -0.49 5  472 229 
 YOT  HZ I         7 0 28.01       129.4 0.50                           472 229 
 YOT  HE ES   2    7 1 13.71                             104   -0.66 2  472 229 
 FLO2 HZ EP   1    7 0 44.36                              99   -0.76 2  641 206 
 FLO2 HZ I         7 2 24.95        90.9 0.74                           641 206 
                                                                                
