 2016  415 0515 42.6 L   6.811 -73.111148.6  RSN  8 0.4 1.7LRSN                1
 GAP=140        1.07       3.8     4.6  7.1 -0.4679E+01  0.1398E+02 -0.4819E+01E
 Epicentro: LOS SANTOS - SANTANDER                                             3
 ACTION:UPD 16-05-05 14:21 OP:rebc STATUS:               ID:20160415051542 L   I
 OLDACT:UP  16-04-15 18:45 OP:mh   STATUS:               ID:20160415050743     3
 OLDACT:REG 16-04-15 13:53 OP:mh   STATUS:               ID:20160415050743     3
 2016-04-15-0507-43M.COL___310                                                 6
 STAT SP IPHASW D HRMM SECON CODA AMPLIT PERI AZIMU VELO AIN AR TRES W  DIS CAZ7
 BAR2 EZ EP        516  2.78                             170    0.2110 25.5 198 
 BAR2 EZ ES        516 18.00                             170   -0.1810 25.5 198 
 BAR2 EZ I         516 21.09         6.4 0.29            171           25.5 198 
 PAM  EZ EP        516  5.53                             152    0.6510 74.0  38 
 PAM  EN ES        516 22.45                             152    0.1610 74.0  38 
 PAM  EZ I         516 24.88         5.3 0.46            155           74.0  38 
 RUS  HZ EP   1    516  6.66                             144    0.00 7  102 178 
 RUS  HN ES        516 25.15                             144   -0.3110  102 178 
 PTB  HZ EP        516  9.70                             132   -0.42 9  152 259 
 PTB  HN ES        516 30.90                             132   -0.72 9  152 259 
 PTB  HZ I         516 35.85         5.7 0.32            133            152 259 
 OCA  HZ EP        516 10.46                             130   -0.56 9  160 352 
 OCA  HN ES        516 33.31                             130    0.09 9  160 352 
 OCA  HZ I         516 39.08        12.0 0.30            132            160 352 
 SPBC HZ EP        516 11.72                             129    0.13 9  167 220 
 SPBC HN ES        516 34.65                             129    0.41 9  167 220 
 SPBC HZ I         516 37.42         9.3 0.24            132            167 220 
 ZAR  HZ EP        516 14.87                             122   -0.64 8  207 291 
 ZAR  HN ES        516 41.63                             122    0.42 8  207 291 
 ZAR  HZ I         516 47.45         5.2 0.12            124            207 291 
 HEL  HZ EP        516 23.49                             115    0.13 7  276 256 
 HEL  HN ES        516 56.03                             115    0.84 7  276 256 
                                                                                
