 2010  415 0132  9.2 L   6.774 -72.984144.8  RSN  7 0.3 2.2LRSN                1
 GAP=151        0.63       3.7     6.5  5.6 -0.8361E+01 -0.1443E+02  0.3915E+01E
 Epicentro: CEPITA - SANTANDER                                                 3
 ACTION:UP  10-08-24 09:59 OP:vdl  STATUS:               ID:20100415013209 L   I
 2010-04-15-0128-00S.COL___100                                                 6
 STAT SP IPHASW D HRMM SECON CODA AMPLIT PERI AZIMU VELO AIN AR TRES W  DIS CAZ7
 BAR2 SZ EP        132 28.93                             168     0.110   30 228 
 BAR2 SZ ES   1    132 44.10                             168    -0.1 7   30 228 
 BRR  HZ IP     D  132 31.20                             147    -0.110   89 295 
 BRR  HE ES   1    132 48.72                             147     0.2 7   89 295 
 OCA  SZ EP        132 37.45                             129    -0.5 9  166 347 
 OCA  SZ ES   1    133  0.71                             129     0.3 7  166 347 
 CHI  HZ EP   2    132 47.05                             117     0.0 4  251 199 
 CHI  HE ES   3    133 15.98                             117    -0.7 2  251 199 
 CHI  HZ I         133 20.15         5.1 0.69                           251 199 
 RREF BN ES   2    133 34.14                             110     0.5 3  334 232 
 RREF BZ I         133 37.53         7.8 0.74                           334 232 
 SDV  BZ EP        132 58.28                             109     0.5 6  349  48 
 SDV  BZ I         132 58.42         7.7 0.11                           349  48 
 PRA  HZ EP        133  3.25                             106    -0.2 6  399 212 
 PRA  HE ES   2    133 46.31                             106     0.6 3  399 212 
 PRA  HZ I         133 50.35         7.5 0.42                           399 212 
                                                                                
