 2011 1015 0041 27.4 L   6.791 -73.089151.2  RSN 12 0.4 2.7LRSN                1
 GAP=130        0.75       3.0     4.6  4.9 -0.3243E+01  0.5458E+01  0.1928E+01E
 Epicentro: LOS SANTOS - SANTANDER                                             3
 ACTION:UPD 12-07-13 16:03 OP:ep   STATUS:               ID:20111015004127 L   I
 2011-10-15-0037-42S.COL___168                                                 6
 STAT SP IPHASW D HRMM SECON CODA AMPLIT PERI AZIMU VELO AIN AR TRES W  DIS CAZ7
 BAR2 SZ IP        041 47.59                             170   -0.1010 24.2 205 
 BAR2 SZ ES   2    042  3.45                             170   -0.08 5 24.2 205 
 BAR2 SZ I         042  6.12        66.9 0.82                          24.2 205 
 PAM  SZ IP        041 50.34                             153    0.3210 74.4  35 
 PAM  SN ES   1    042  7.71                             153    0.05 7 74.4  35 
 BRR  HZ IP     C  041 49.55                             152    0.0910 77.2 297 
 BRR  HZ I         041 49.73       153.1 0.14                          77.2 297 
 BRR  HE ES   1    042  6.67                             152   -0.01 7 77.2 297 
 RUS  HZ EP        041 51.73                             145    0.1410 99.3 180 
 RUS  HE ES   1    042 10.43                             145   -0.04 7 99.3 180 
 OCA  SZ EP        041 56.46                             131    0.16 9  162 351 
 OCA  SZ ES   1    042 18.60                             131   -0.25 7  162 351 
 OCA  SZ I         042 22.96        83.7 0.30                           162 351 
 ZAR  HZ EP        042  0.09                             123   -0.73 8  210 292 
 ZAR  HZ I         042 31.23        52.9 0.36                           210 292 
 NOR  SZ EP        042  3.72                             119   -0.20 8  239 236 
 CHI  HZ EP        042  5.57                             118    0.10 8  249 197 
 CHI  HE ES   2    042 34.67                             118   -0.51 4  249 197 
 HEL  HZ EP        042  9.52                             115    1.00 7  278 256 
 HEL  HZ I         042 47.14        30.2 0.30                           278 256 
 RREF HZ EP   2    042 14.35                             112    0.12 3  326 230 
 RREF HE ES   2    042 50.01                             112   -0.76 3  326 230 
 RREF HZ I         042 57.05        27.2 0.38                           326 230 
 SDV  BZ EP        042 16.52                             109   -0.65 6  356  49 
 SDV  BZ I         042 17.67        10.2 0.20                           356  49 
 PRA  HZ EP        042 21.37                             107    0.01 6  394 210 
 PRA  HE ES   1    043  3.39                             107   -0.07 4  394 210 
                                                                                
