 2014 1215 0630  9.9 L   6.783 -73.139150.1  RSN 11 0.5 1.5LRSN                1
 GAP=138        1.28       3.9     5.0  7.6 -0.4144E+00  0.1377E+02  0.1254E+01E
 Epicentro: LOS SANTOS - SANTANDER                                             3
 ACTION:UPD 15-02-10 17:03 OP:nd   STATUS:               ID:20141215063009 L   I
 OLDACT:REG 14-12-15 13:06 OP:fm   STATUS:               ID:20141215062742     3
 2014-12-15-0627-42M.COL___288                                                 6
 STAT SP IPHASW D HRMM SECON CODA AMPLIT PERI AZIMU VELO AIN AR TRES W  DIS CAZ7
 BAR2 EZ EP        630 30.03                             171    0.0310 21.7 193 
 BAR2 EZ ES        630 45.06                             171   -0.6310 21.7 193 
 BAR2 EZ I         630 49.65         4.4 0.22            174           21.7 193 
 BRR  HZ EP        630 32.43                             153    0.8510 72.8 300 
 BRR  HE ES        630 49.30                             153    0.7910 72.8 300 
 BRR  HZ I         630 54.37         4.3 0.12            149           72.8 300 
 PAM  SZ EP        630 32.92                             151    0.3110 78.3  38 
 PAM  SN ES        630 49.68                             151   -0.6610 78.3  38 
 PAM  SZ I         630 52.63         5.0 0.56            147           78.3  38 
 RUS  HZ EP        630 34.21                             145    0.2910 98.7 176 
 RUS  HN ES        630 52.56                             145   -0.1210 98.7 176 
 RUS  HZ I         630 54.60         1.9 0.18            145           98.7 176 
 PTB  HZ EP        630 37.05                             133   -0.19 9  148 260 
 PTB  HE ES        630 58.62                             133    0.04 9  148 260 
 PTB  HZ I         631  5.82         7.1 0.44            130            148 260 
 SPBC HZ EP        630 39.07                             130    0.45 9  162 220 
 SPBC HN ES        631  0.67                             130   -0.37 9  162 220 
 SPBC HZ I         631  4.84         7.6 0.10            128            162 220 
 OCA  HE ES        631  1.11                             130   -0.08 9  162 353 
 OCA  HZ I         631  5.53         5.2 0.42            126            162 353 
 ZAR  HZ EP        630 42.19                             123   -0.56 8  205 293 
 ZAR  HN ES        631  9.11                             123    0.72 8  205 293 
 ZAR  HZ I         631 14.19         3.2 0.26            120            205 293 
 CHI  HN ES        631 17.47                             118    0.36 8  247 195 
 CHI  HZ I         631 23.03         1.4 0.24            116            247 195 
 HEL  HZ EP        630 49.53                             115   -0.82 8  272 256 
 HEL  HE ES        631 21.51                             115   -0.40 8  272 256 
 HEL  HZ I         631 30.10         1.9 0.24            113            272 256 
 MON  HE ES        631 36.84                             109   -0.92 6  355 309 
 MON  HZ I         631 38.49         0.7 0.42            106            355 309 
                                                                                
