 2013 1215 0202 56.9 L   6.771 -73.172143.3  RSN  5 0.3 1.4LRSN                1
 GAP=232        0.69       5.1     5.2  7.3  0.3811E+01  0.4501E+01 -0.5666E+01E
 Epicentro: LOS SANTOS - SANTANDER                                             3
 ACTION:UPD 14-01-13 10:18 OP:ep   STATUS:               ID:20131215020256 L   I
 OLDACT:REG 13-12-15 07:13 OP:jn   STATUS:               ID:20131215020000     3
 2013-12-15-0200-00M.COL___285                                                 6
 STAT SP IPHASW D HRMM SECON CODA AMPLIT PERI AZIMU VELO AIN AR TRES W  DIS CAZ7
 BAR2 SZ EP   1    2 3 16.15                             172    0.03 7 19.8 183 
 BAR2 SZ ES   1    2 3 30.66                             172   -0.49 7 19.8 183 
 BRR  HZ EP   1    2 3 18.11                             152    0.42 7 70.3 302 
 BRR  HZ I         2 3 33.85         7.5 0.34            142           70.3 302 
 BRR  HE ES   2    2 3 34.61                             152    0.67 5 70.3 302 
 RUS  HZ EP        2 3 20.09                             144   -0.0610 97.6 174 
 RUS  HN ES        2 3 38.42                             144    0.1010 97.6 174 
 RUS  HZ I         2 3 40.50         2.2 0.34            150           97.6 174 
 PTB  HZ EP   1    2 3 22.83                             132   -0.48 7  144 260 
 PTB  HN ES   1    2 3 43.65                             132   -0.30 7  144 260 
 PTB  HZ I         2 3 49.08         3.4 0.16            128            144 260 
 SPBC HN ES        2 3 46.74                             129    0.23 9  159 219 
                                                                                
