 2016 1015 0500 49.8 L   6.752 -73.184155.8  RSN  6 0.6 1.2LRSN                1
 GAP=229        1.23       7.5     8.1 10.3  0.1270E+02  0.1699E+02 -0.7596E+01E
 Epicentro: VILLANUEVA - SANTANDER                                             3
 ACTION:UPD 16-11-09 19:19 OP:rebc STATUS:               ID:20161015050049 L   I
 OLDACT:DUP 16-10-15 16:39 OP:ar   STATUS:               ID:20161015045640d    3
 OLDACT:DUP 16-10-15 16:27 OP:ar   STATUS:               ID:20161015045639d    3
 2016-10-15-0457-00M.COL___365                                                 6
 STAT SP IPHASW D HRMM SECON CODA AMPLIT PERI AZIMU VELO AIN AR TRES W  DIS CAZ7
 BAR2 EZ EP        5 1 10.45                             173   -0.0710 17.6 180 
 BAR2 EZ ES        5 1 26.22                             173   -0.4710 17.6 180 
 BRR  HZ EP        5 1 12.19                             155    0.2210 70.4 304 
 BRR  HN ES        5 1 29.06                             155   -0.2310 70.4 304 
 BRR  HZ I         5 1 32.85         3.8 0.32            152           70.4 304 
 RUS  HZ EP   2    5 1 14.88                             147    0.69 5 95.6 173 
 RUS  HN ES        5 1 34.05                             147    0.8210 95.6 173 
 RUS  HZ I         5 1 34.59         2.0 0.36            150           95.6 173 
 PTB  HZ EP        5 1 16.43                             135   -0.71 9  143 261 
 PTB  HN ES        5 1 38.46                             135   -0.02 9  143 261 
 PTB  HZ I         5 1 42.10         1.9 0.24            135            143 261 
 SPBC HN ES        5 1 40.52                             132   -0.28 9  156 219 
 ZAR  HZ EP   2    5 1 23.19                             125    0.47 4  202 294 
 ZAR  HN ES   2    5 1 50.32                             125    1.91 4  202 294 
 ZAR  HZ I         5 1 53.62         1.5 0.24            125            202 294 
                                                                                
