 2010 1015 0952 24.9 L   6.762 -73.129142.1  RSN 10 0.5 1.8LRSN                1
 GAP=161        0.92       4.3     7.2  7.5 -0.1262E+02  0.1175E+01  0.4654E+01E
 Epicentro: LOS SANTOS - SANTANDER                                             3
 ACTION:UP  11-02-18 11:09 OP:tino STATUS:               ID:20101015095224 L   I
 2010-10-15-0950-07S.COL___128                                                 6
 STAT SP IPHASW D HRMM SECON CODA AMPLIT PERI AZIMU VELO SNR AR TRES W  DIS CAZ7
 BAR2 SZ EP        952 43.91                             172    -0.110   20 198 
 BAR2 SZ ES   1    952 58.54                             172    -0.4 7   20 198 
 BAR2 SZ I         953  0.68        26.8 0.37                            20 198 
 BTL  SZ EP        952 44.14                             170     0.010   23 318 
 BRR  HZ IP     C  952 45.78                             150    -0.110   75 301 
 BRR  HZ I         952 46.03        16.3 0.14                            75 301 
 BRR  HN ES   1    953  3.16                             150     0.9 7   75 301 
 RUS  HZ EP        952 47.79                             145    -0.210   96 177 
 RUS  HE ES   2    953  6.35                             145     0.4 5   96 177 
 RUS  HZ I         953  7.74         4.6 0.24                            96 177 
 GUE  SZ EP   1    952 49.79                             137     0.2 7  120  11 
 GRA  SZ IP        952 50.72                             135     0.610  129  16 
 GRA  SZ I         952 51.86         8.5 0.23                           129  16 
 GRA  SZ ES   1    953  9.31                             135    -0.5 7  129  16 
 OCA  SZ EP   3    952 52.55                             128    -0.8 2  165 353 
 OCA  SZ I         952 57.36         7.8 0.77                           165 353 
 OCA  SZ ES   2    953 14.61                             128    -0.9 5  165 353 
 NOR  SZ EP        953  0.37                             118     0.0 8  234 236 
 NOR  SN ES   1    953 27.61                             118    -0.4 6  234 236 
 CHI  HZ EP   2    953  1.45                             117    -0.6 4  245 196 
 CHI  HE ES   2    953 30.69                             117    -0.3 4  245 196 
 CHI  HZ I         953 40.87         4.2 0.48                           245 196 
 PRA  HZ EP   2    953 18.73                             106     0.7 3  389 210 
 PRA  HE ES   3    953 59.40                             106     0.0 1  389 210 
                                                                                
