 2015  615 0934 18.2 L   6.789 -73.067146.0  RSN 11 0.4 1.7LRSN                1
 GAP=147        1.05       3.6     5.0  5.8 -0.7107E+01  0.1150E+02 -0.6864E-02E
 Epicentro: LOS SANTOS - SANTANDER                                             3
 ACTION:UPD 15-09-10 22:12 OP:cam  STATUS:               ID:20150615093418 L   I
 OLDACT:REG 15-06-15 13:40 OP:drio STATUS:               ID:20150615092749     3
 2015-06-15-0927-49M.COL___303                                                 6
 STAT SP IPHASW D HRMM SECON CODA AMPLIT PERI AZIMU VELO AIN AR TRES W  DIS CAZ7
 BAR2 EZ I         934 37.64         7.0 0.42            167           25.2 210 
 BAR2 EZ EP        934 37.76                             170   -0.1510 25.2 210 
 BAR2 EZ ES        934 53.94                             170    0.6710 25.2 210 
 PAM  SZ EP        934 40.46                             152    0.2510 73.1  34 
 PAM  SN ES        934 56.66                             152   -0.7010 73.1  34 
 BRR  HZ EP        934 39.75                             150   -0.1210 79.4 296 
 BRR  HZ I         934 39.83        11.3 0.28            142           79.4 296 
 BRR  HN ES        934 57.26                             150    0.5010 79.4 296 
 RUS  HZ EP        934 41.73                             144   -0.1610 99.2 181 
 RUS  HN ES        935  0.56                             144    0.2110 99.2 181 
 RUS  HZ I         935  3.21         5.7 0.38            139           99.2 181 
 OCA  HZ EP        934 46.89                             129    0.12 9  163 350 
 OCA  HN ES        935  8.62                             129   -0.42 9  163 350 
 OCA  HZ I         935 13.55        11.4 0.24            122            163 350 
 SPBC HZ EP        934 46.98                             128   -0.20 9  168 222 
 SPBC HN ES        935  9.50                             128   -0.27 9  168 222 
 SPBC HZ I         935 14.48         7.1 0.20            122            168 222 
 ZAR  HZ EP        934 52.28                             121    0.73 8  213 292 
 ZAR  HE ES   4    935 15.95                             121   -1.61 0  213 292 
 ZAR  HZ I         935 22.23         4.9 0.48            114            213 292 
 NOR  HZ EP        934 54.12                             118   -0.53 8  241 236 
 NOR  HN ES        935 22.30                             118   -0.77 8  241 236 
 NOR  HZ I         935 24.32         3.7 0.34            112            241 236 
 HEL  HZ EP        934 59.93                             114    0.59 7  280 256 
 HEL  HN ES        935 30.90                             114   -0.52 7  280 256 
 HEL  HZ I         935 36.57         2.8 0.44            108            280 256 
 GUY2CHZ EP        935  3.22                             112    0.66 7  308 236 
 GUY2CHN ES        935 37.12                             112   -0.03 7  308 236 
 GUY2CHZ I         935 44.21         2.6 0.28                           308 236 
 TOL  SZ EP        935  7.25                             109    0.16 6  349 226 
 TOL  SE ES        935 45.27                             109    0.06 6  349 226 
 TOL  SZ I         935 49.88         2.3 0.34            104            349 226 
                                                                                
