 2010 1115 0557  1.2 L   6.719 -73.255161.6  RSN  4 0.4 1.7LRSN                1
 GAP=171        0.64       5.9    12.0  9.6  0.4070E+02 -0.4992E+01 -0.2122E+02E
 Epicentro: BARICHARA - SANTANDER                                              3
 ACTION:UP  10-12-17 16:52 OP:REBC STATUS:               ID:20101115055701 L   I
 2010-11-15-0552-41S.COL___127                                                 6
 STAT SP IPHASW D HRMM SECON CODA AMPLIT PERI AZIMU VELO SNR AR TRES W  DIS CAZ7
 BRR  HZ EP   2    557 23.58                             156    -0.3 5   66 310 
 BRR  HZ I         557 24.55        13.6 0.11                            66 310 
 BRR  HN ES   2    557 41.93                             156     0.4 5   66 310 
 RUS  HZ EP   1    557 26.28                             149     0.2 7   93 168 
 RUS  HE ES   1    557 45.24                             149    -0.2 7   93 168 
 OCA  SZ EP   1    557 31.34                             131    -0.2 7  168 358 
 OCA  SZ ES   2    557 55.22                             131     0.1 5  168 358 
 OCA  SZ I         557 59.19         3.9 0.35                           168 358 
 MON  HZ EP   2    557 51.40                             111     1.0 3  349 311 
 MON  HE ES   2    558 27.95                             111    -0.9 3  349 311 
 MON  HZ I         558 44.29         1.4 0.45                           349 311 
                                                                                
