 2010  915 0253 30.0 L   6.691 -73.170138.6  RSN 12 0.6 3.1LRSN                1
 GAP=154        1.33       5.0    10.0  9.9 -0.1427E+02  0.1213E+02  0.7826E+01E
 Epicentro: VILLANUEVA - SANTANDER                                             3
 ACTION:UP  11-02-18 11:02 OP:tino STATUS:               ID:20100915025330 L   I
 2010-09-15-0250-47S.COL___119                                                 6
 STAT SP IPHASW D HRMM SECON CODA AMPLIT PERI AZIMU VELO SNR AR TRES W  DIS CAZ7
 BAR2 SZ IP        253 48.32                             175    -0.210   11 188 
 BAR2 SZ I         254  4.01       270.6 0.38                            11 188 
 BTL  SZ IP        253 47.87                             168    -1.010   27 337 
 GIR2 SZ ES   1    254  3.33                             162    -0.9 7   43 356 
 BRR  HZ IP     D  253 50.59                             149     0.010   76 308 
 BRR  HN ES   1    254  7.65                             149     0.9 7   76 308 
 BRR  HZ I         254  9.21       376.4 0.15                            76 308 
 RUS  HZ IP     D  253 52.01                             146    -0.210   89 174 
 RUS  HN ES   1    254  9.94                             146     0.4 7   89 174 
 RUS  HZ I         254 11.64       128.9 0.35                            89 174 
 BRI  SZ EP        253 54.86                             136     0.710  121  20 
 GRA  SZ EP        253 56.13                             132     0.4 9  138  17 
 GRA  SZ ES   1    254 16.34                             132     0.6 7  138  17 
 GRA  SZ I         254 18.23       190.7 0.33                           138  17 
 OCA  SZ IP   2    253 57.76                             125    -1.1 4  172 354 
 OCA  SZ ES   2    254 20.93                             125    -0.5 4  172 354 
 OCA  SZ I         254 23.60       126.1 0.30                           172 354 
 CHI  HZ EP        254  6.01                             117     0.1 8  236 195 
 CHI  HE ES   1    254 34.25                             117     0.2 6  236 195 
 CVER SZ EP   2    254  8.26                             114    -0.4 4  260 203 
 DBB  SZ EP        254 17.08                             108     0.1 7  338 276 
 ANIL HZ EP   3    254 18.97                             108     0.7 2  347 226 
 ANIL HN ES   1    254 56.36                             108     0.3 5  347 226 
 ANIL HZ I         255  0.92        58.5 0.39                           347 226 
                                                                                
