 2011 1015 0831 44.2 L   6.812 -73.093146.0  RSN  7 0.4 1.9LRSN                1
 GAP=119        0.72       3.7     4.9  6.2  0.5926E+01  0.2811E+01  0.6972E+00E
 Epicentro: LOS SANTOS - SANTANDER                                             3
 ACTION:UPD 12-07-13 16:03 OP:ep   STATUS:               ID:20111015083144 L   I
 2011-10-15-0830-14S.COL___168                                                 6
 STAT SP IPHASW D HRMM SECON CODA AMPLIT PERI AZIMU VELO AIN AR TRES W  DIS CAZ7
 BAR2 SZ IP        832  3.60                             169   -0.3010 26.3 202 
 BAR2 SZ I         832  3.89        16.9 0.36                          26.3 202 
 PAM  SZ EP        832  6.41                             152    0.2710 72.7  37 
 PAM  SE ES   1    832 23.44                             152    0.16 7 72.7  37 
 BRR  HZ IP     C  832  5.32                             151   -0.2910 75.8 296 
 BRR  HZ I         832  5.48        23.8 0.16                          75.8 296 
 BRR  HN ES   1    832 22.22                             151   -0.12 7 75.8 296 
 RUS  HZ EP        832  7.99                             143   -0.0410  102 179 
 RUS  HN ES   1    832 26.46                             143   -0.18 7  102 179 
 OCA  SZ EP        832 12.29                             129   -0.16 9  160 351 
 OCA  SZ I         832 35.34         6.2 0.33                           160 351 
 YOP  SZ EP        832 14.51                             126    0.41 9  178 155 
 YOP  SE ES   2    832 37.39                             126   -0.06 4  178 155 
 ZAR  HZ EP        832 17.16                             122    0.01 8  209 291 
 ZAR  HN ES   2    832 44.29                             122    1.43 4  209 291 
 ZAR  HZ I         832 47.06         5.1 0.28                           209 291 
                                                                                
