 2013 1115 0740 54.5 L   6.743 -73.200151.8  RSN  7 0.3 1.4LRSN                1
 GAP=227        0.81       4.8     5.1  6.0  0.4875E+01  0.3772E+01  0.2582E+01E
 Epicentro: VILLANUEVA - SANTANDER                                             3
 ACTION:UPD 14-01-09 16:28 OP:ep   STATUS:               ID:20131115074054 L   I
 OLDACT:REG 13-11-15 09:01 OP:nd   STATUS:               ID:20131115074000     3
 2013-11-15-0740-00M.COL___279                                                 6
 STAT SP IPHASW D HRMM SECON CODA AMPLIT PERI AZIMU VELO AIN AR TRES W  DIS CAZ7
 BAR2 SZ EP        741 14.30                             173   -0.4410 16.8 173 
 BAR2 SZ ES        741 30.18                             173   -0.3610 16.8 173 
 BAR2 SZ I         741 32.53         6.3 0.40            170           16.8 173 
 BRR  HZ EP        741 16.28                             154    0.0710 69.5 305 
 BRR  HN ES        741 33.64                             154    0.5010 69.5 305 
 BRR  HZ I         741 37.83         3.7 0.28            147           69.5 305 
 RUS  HZ EP        741 18.53                             147    0.0710 94.9 172 
 RUS  HN ES        741 37.44                             147    0.2910 94.9 172 
 RUS  HZ I         741 38.62         1.2 0.40            150           94.9 172 
 PTB  HZ EP        741 21.20                             135   -0.15 9  141 261 
 PTB  HN ES        741 42.02                             135   -0.27 9  141 261 
 PTB  HZ I         741 44.43         3.3 0.14            131            141 261 
 SPBC HZ EP        741 23.05                             132    0.38 9  155 219 
 SPBC HN ES        741 44.55                             132   -0.09 9  155 219 
 SPBC HZ I         741 52.74         3.4 0.36            131            155 219 
 ZAR  HZ EP   4    741 31.61                             124    4.57 0  201 294 
 ZAR  HN ES   4    741 55.60                             124    3.18 0  201 294 
 ZAR  HZ I         742  5.78         2.4 0.32            122            201 294 
 SML  HZ EP   4    741 30.58                             118   -1.25 0  247 337 
 SML  HN ES   4    741 57.86                             118   -3.09 0  247 337 
 SML  HZ I         742  6.61         6.3 0.10            118            247 337 
                                                                                
