 2012  115 0415 10.8 L   6.560 -73.589104.7  RSN 11 0.4 2.2LRSN                1
 GAP= 57        0.95       4.0     4.0  7.8 -0.3484E+01  0.1290E+02  0.4402E+01E
 Epicentro: EL CARMEN DE CHUCURI - SANTANDER                                   3
 ACTION:UP  12-02-03 08:17 OP:REBC STATUS:               ID:20120115041510 L   I
 2012-01-15-0410-00M.COL___187                                                 6
 STAT SP IPHASW D HRMM SECON CODA AMPLIT PERI AZIMU VELO SNR AR TRES W  DIS CAZ7
 BAR2 SZ IP     C  415 26.46                             155     0.010   45  85 
 BAR2 SZ ES   1    415 38.94                             155     0.3 7   45  85 
 BAR2 SZ I         415 40.34       197.9 0.27                            45  85 
 BRR  HZ EP   1    415 27.28                             147     0.2 7   62 347 
 BRR  HZ I         415 47.07        61.4 0.13                            62 347 
 GIR2 SZ EP   1    415 27.90                             143    -0.1 7   72  37 
 GIR2 SZ ES   1    415 42.03                             143     0.6 7   72  37 
 RUS  HZ EP   1    415 29.52                             135    -0.6 7   93 143 
 RUS  HE ES   1    415 45.16                             135     0.0 7   93 143 
 RUS  HZ I         415 46.53        21.6 0.35                            93 143 
 PTB  HZ EP        415 29.28                             134    -0.510   96 269 
 PTB  HN ES   1    415 44.18                             134    -0.4 7   96 269 
 PAM  SZ EP   1    415 33.71                             125     0.0 7  131  49 
 PAM  SN ES   1    415 50.94                             125    -0.6 7  131  49 
 PAM  SZ I         415 52.06        17.3 0.19                           131  49 
 ZAR  HZ EP   1    415 38.20                             116     0.6 7  174 306 
 ZAR  HZ I         416  4.88        38.1 0.35                           174 306 
 NOR  SZ EP   1    415 38.27                             115     0.0 7  180 232 
 NOR  SN ES   1    415 59.53                             115    -0.2 7  180 232 
 CHI  HZ EP   1    415 42.69                             111     0.0 6  214 184 
 CHI  HE ES   1    416  7.97                             111     0.5 6  214 184 
 CHI  HZ I         416 10.32         6.3 0.27                           214 184 
 HEL  HZ EP   1    415 43.74                             110     0.6 6  218 259 
 HEL  HZ I         416 13.83        13.4 0.30                           218 259 
 RREF HZ EP   1    415 49.47                             105     0.3 6  268 227 
 RREF HZ I         416 24.12        12.1 0.22                           268 227 
                                                                                
