 2012  915 0602 42.8 L   6.637 -73.155142.0  RSN  4 0.2 1.4LRSN                1
 GAP=217        0.46       8.8     6.0  7.0  0.7326E+01  0.6177E+01  0.2573E+02E
 Epicentro: VILLANUEVA - SANTANDER                                             3
 ACTION:UPD 12-10-22 14:18 OP:ep   STATUS:               ID:20120915060242 L   I
 2012-09-15-0600-00M.COL___227                                                 6
 STAT SP IPHASW D HRMM SECON CODA AMPLIT PERI AZIMU VELO AIN AR TRES W  DIS CAZ7
 BAR2 SZ EP   1    6 3  2.04                             177    0.25 7 5.85 211 
 BAR2 SZ ES   2    6 3 16.45                             177   -0.12 5 5.85 211 
 BAR2 SZ I         6 3 18.13         3.8 0.16                          5.85 211 
 GIR2 SZ ES   2    6 3 17.76                             160   -0.40 5 49.0 355 
 BRR  HZ EP   1    6 3  3.98                             149   -0.17 7 80.6 310 
 BRR  HN ES   1    6 3 21.05                             149    0.27 7 80.6 310 
 BRR  HN I         6 3 21.62        14.9 0.16                          80.6 310 
 PTB  HZ EP   2    6 3  9.05                             132   -0.15 5  144 266 
 PTB  HN ES   2    6 3 29.60                             132   -0.15 5  144 266 
 PTB  HN I         6 3 32.08         2.1 0.18                           144 266 
                                                                                
