 2013  915 0152 44.4 L   6.790 -73.159149.6  RSN  9 0.4 2.1LRSN                1
 GAP=135        1.00       3.9     4.5  6.0  0.1672E+01  0.9121E+01  0.6254E+01E
 Epicentro: LOS SANTOS - SANTANDER                                             3
 ACTION:UPD 13-10-22 09:22 OP:ep   STATUS:               ID:20130915015244 L   I
 OLDACT:REG 13-09-15 10:21 OP:carl STATUS:               ID:20130915014959     3
 2013-09-15-0149-59M.COL___269                                                 6
 STAT SP IPHASW D HRMM SECON CODA AMPLIT PERI AZIMU VELO AIN AR TRES W  DIS CAZ7
 BAR2 SZ EP        153  4.60                             171    0.0910 22.0 187 
 BAR2 SZ ES        153 19.73                             171   -0.4410 22.0 187 
 BAR2 SZ I         153 20.94        20.7 0.22            166           22.0 187 
 BRR  HZ EP        153  6.32                             153    0.3510 70.4 300 
 BRR  HN ES        153 23.48                             153    0.7210 70.4 300 
 BRR  HZ I         153 28.61        16.4 0.16            150           70.4 300 
 PAM  SN ES        153 24.55                             151   -0.3610 79.2  40 
 RUS  HZ EP        153  8.59                             145    0.0910 99.6 175 
 RUS  HN ES        153 27.33                             145    0.0610 99.6 175 
 RUS  HZ I         153 28.12        11.1 0.36            146           99.6 175 
 PTB  HZ EP        153 11.07                             133   -0.51 9  146 259 
 PTB  HN ES        153 32.39                             133   -0.35 9  146 259 
 PTB  HZ I         153 39.72        22.4 0.44            132            146 259 
 SPBC HZ EP        153 13.46                             130    0.39 9  161 219 
 SPBC HN ES   1    153 35.76                             130    0.36 7  161 219 
 SPBC HZ I         153 42.85        17.5 0.16            130            161 219 
 ZAR  HZ EP        153 16.94                             123   -0.10 9  203 293 
 ZAR  HN ES        153 42.70                             123    0.23 9  203 293 
 ZAR  HZ I         153 48.08        10.3 0.18            124            203 293 
 NOR  HZ EP        153 19.36                             119   -0.84 8  233 234 
 NOR  HN ES        153 47.74                             119   -0.35 8  233 234 
 NOR  HZ I         153 54.03        11.4 0.48            120            233 234 
 CHI  HZ EP        153 22.73                             118    0.53 8  247 195 
 CHI  HN ES        153 51.81                             118    0.16 8  247 195 
 CHI  HZ I         153 56.21         5.6 0.68            120            247 195 
                                                                                
