 2017  215 0437 17.4 L   6.707 -73.207148.9  RSN  4 0.2 1.2LRSN                1
 GAP=223        0.58       4.7     4.7  5.2  0.1489E+02 -0.6226E+00 -0.3844E+01E
 Epicentro: VILLANUEVA - SANTANDER                                             3
 ACTION:UPD 17-05-24 15:36 OP:jn   STATUS:               ID:20170215043717 L   I
 OLDACT:REG 17-02-15 12:51 OP:dani STATUS:               ID:20170215042742     3
 2017-02-15-0428-00M.COL___361                                                 6
 STAT SP IPHASW D HRMM SECON CODA AMPLIT PERI AZIMU VELO AIN AR TRES W  DIS CAZ7
 BRR  HZ EP        437 38.56                             153   -0.3710 71.1 308 
 BRR  HE ES        437 55.89                             153    0.2010 71.1 308 
 BRR  HZ I         437 57.25         3.2 0.11            149           71.1 308 
 RUS  HZ EP        437 40.79                             147   -0.0710 91.2 171 
 RUS  HN ES        437 59.17                             147    0.0510 91.2 171 
 RUS  HZ I         438  0.10         1.6 0.40            146           91.2 171 
 PTB  HZ EP        437 44.20                             134    0.28 9  139 262 
 PTB  HN ES        438  4.41                             134   -0.17 9  139 262 
 PTB  HZ I         438 10.32         1.4 0.20            131            139 262 
 ZAR  HZ EP        437 50.12                             123    0.24 9  202 296 
 ZAR  HN ES        438 15.07                             123   -0.11 9  202 296 
 ZAR  HZ I         438 21.62         2.7 0.42            122            202 296 
                                                                                
