 2011  615 0244 34.9 L   6.416 -73.447147.6  RSN  7 0.4 1.8LRSN                1
 GAP=100        0.80       6.9     9.4 15.8 -0.2306E+02  0.1875E+02 -0.1390E+02E
 Epicentro: CHIMA - SANTANDER                                                  3
 ACTION:UP  11-07-14 19:05 OP:ep   STATUS:               ID:20110615024434 L   I
 2011-06-15-0242-22S.COL___138                                                 6
 STAT SP IPHASW D HRMM SECON CODA AMPLIT PERI AZIMU VELO SNR AR TRES W  DIS CAZ7
 BAR2 SZ EP   2    244 54.42                             166    -0.6 5   35  56 
 BAR2 SZ I         245  9.63        34.2 0.48                            35  56 
 BTL  SZ EP        244 56.37                             157     0.410   59  20 
 RUS  HZ EP   2    244 57.40                             153     0.5 5   71 145 
 RUS  HN ES   2    245 13.82                             153    -0.3 5   71 145 
 BRR  HZ EP   1    244 56.52                             149    -0.4 7   82 339 
 BRR  HE ES   2    245 14.46                             149     0.4 5   82 339 
 BRR  HZ I         245 17.06         8.3 0.13                            82 339 
 BRI  SZ ES   2    245 25.51                             130    -0.2 5  161  27 
 BRI  SZ I         245 27.88         5.5 0.57                           161  27 
 GRA  SZ ES   2    245 27.90                             127    -0.5 4  177  24 
 GRA  SZ I         245 30.41         4.2 0.32                           177  24 
 NOR  SE ES   2    245 28.98                             126    -0.3 4  183 239 
                                                                                
