 2016 1015 0325  9.2 L   6.719 -73.210146.7  RSN  7 0.5 1.8LRSN                1
 GAP=220        1.15       6.0     7.3  7.7  0.2353E+02  0.1430E+02  0.9044E+01E
 Epicentro: VILLANUEVA - SANTANDER                                             3
 ACTION:UPD 16-11-09 19:19 OP:rebc STATUS:               ID:20161015032509 L   I
 OLDACT:UP  16-10-15 15:43 OP:ar   STATUS:               ID:20161015032200     3
 OLDACT:REG 16-10-15 15:39 OP:ar   STATUS:               ID:20161015032200     3
 2016-10-15-0321-59S.COL___231                                                 6
 STAT SP IPHASW D HRMM SECON CODA AMPLIT PERI AZIMU VELO AIN AR TRES W  DIS CAZ7
 BAR2 EZ EP        325 28.49                             174   -0.3210 14.4 168 
 BAR2 EZ ES        325 43.51                             174   -0.5910 14.4 168 
 BAR2 EZ I         325 44.80        32.6 0.22            171           14.4 168 
 BRR  HZ EP        325 30.30                             153   -0.1110 70.1 308 
 BRR  HN ES        325 47.44                             153    0.5110 70.1 308 
 BRR  HZ I         325 52.53        11.8 0.14            151           70.1 308 
 RUS  HZ EP        325 33.01                             146    0.5210 92.5 171 
 RUS  HN ES        325 50.98                             146    0.3310 92.5 171 
 RUS  HZ I         325 52.11        10.7 0.20            147           92.5 171 
 PTB  HZ EP        325 35.08                             134   -0.42 9  139 262 
 PTB  HN ES        325 56.33                             134    0.32 9  139 262 
 PTB  HZ I         325 58.07         8.2 0.18            132            139 262 
 ZAR  HZ EP        325 42.20                             123    0.78 9  201 295 
 ZAR  HN ES        326  5.88                             123   -0.66 9  201 295 
 ZAR  HZ I         326 13.25         7.9 0.32            123            201 295 
 CHI  HZ EP        325 45.53                             118   -0.31 8  238 194 
 CHI  HN ES        326 14.21                             118   -0.20 8  238 194 
 CHI  HZ I         326 21.10         2.4 0.32            119            238 194 
 GUY2CHZ EP   4    325 54.50                             113    2.86 0  290 235 
 GUY2CHN ES   4    326 29.59                             113    4.86 0  290 235 
 GUY2CHZ I         326 32.90         1.8 0.60                           290 235 
                                                                                
