 2016  915 0757  4.5 L   7.430 -73.120128.6  RSN  7 0.4 1.3LRSN                1
 GAP=192        0.92       3.4     5.8  6.7  0.1283E+01  0.5124E+01  0.3248E+01E
 Epicentro: EL PLAYON - SANTANDER                                              3
 ACTION:UPD 17-08-17 21:12 OP:lp   STATUS:               ID:20160915075704 L   I
 OLDACT:UP  16-09-16 07:54 OP:dani STATUS:               ID:20160915074744d    3
 OLDACT:DUP 16-09-16 07:49 OP:dani STATUS:               ID:20160915074744d    3
 OLDACT:REG 16-09-15 20:24 OP:lv   STATUS:               ID:20160915074743     3
 2016-09-15-0748-00M.COL___327                                                 6
 STAT SP IPHASW D HRMM SECON CODA AMPLIT PERI AZIMU VELO AIN AR TRES W  DIS CAZ7
 BRR  HZ EP        757 23.67                             148   -0.3210 74.4 241 
 BRR  HE ES        757 39.17                             148   -0.0510 74.4 241 
 BRR  HZ I         757 45.57         3.2 0.28            151           74.4 241 
 OCA  HZ EP        757 25.59                             142    0.1510 92.1 346 
 OCA  HE ES        757 41.96                             142    0.1510 92.1 346 
 OCA  HZ I         757 44.37         6.3 0.26            152           92.1 346 
 BAR2 EZ EP        757 25.57                             142   -0.0510 92.9 184 
 BAR2 EZ ES        757 42.03                             142   -0.0910 92.9 184 
 BAR2 EZ I         757 53.01         9.2 0.22            145           92.9 184 
 RUS  HZ EP   2    757 32.78                             124   -0.14 5  170 179 
 RUS  HN ES   2    757 55.25                             124    0.13 5  170 179 
 RUS  HZ I         757 56.59         0.7 0.18            129            170 179 
 PTB  HZ EP        757 32.39                             122   -0.66 9  177 236 
 ZAR  HZ EP        757 35.33                             120    0.77 9  192 272 
 ZAR  HN ES        757 57.71                             120   -0.32 9  192 272 
 ZAR  HZ I         757 59.96         2.6 0.31            127            192 272 
 SPBC HZ EP        757 37.81                             116   -0.20 8  223 208 
 SPBC HE ES        758  4.97                             116    0.79 8  223 208 
 SPBC HZ I         758 11.67         2.0 0.21            121            223 208 
                                                                                
