 2013  115 0021 24.4 L   6.610 -73.651 40.1  RSN  5 0.2 1.0LRSN                1
 GAP=123        0.41       3.7     2.4  7.2  0.4336E+01  0.7392E+00 -0.6494E+01E
 Epicentro: EL CARMEN DE CHUCURI - SANTANDER                                   3
 ACTION:UPD 13-02-15 09:14 OP:ep   STATUS:               ID:20130115002124 L   I
 2013-01-15-0020-00M.COL___241                                                 6
 STAT SP IPHASW D HRMM SECON CODA AMPLIT PERI AZIMU VELO AIN AR TRES W  DIS CAZ7
 BAR2 SZ EP   1    021 38.98                             149   -0.13 7 51.9  92 
 BAR2 SZ ES   2    021 50.24                             149   -0.34 5 51.9  92 
 BAR2 SZ I         021 52.45        13.8 0.16            145           51.9  92 
 BRR  HZ EP   1    021 39.29                             147    0.29 7 55.4 353 
 BRR  HZ I         021 52.39         7.9 0.28            134           55.4 353 
 PTB  HZ EP   1    021 41.78                             133   -0.01 7 89.4 265 
 PTB  HN ES   1    021 55.32                             133   -0.05 7 89.4 265 
 PTB  HZ I         022  2.45         2.1 0.12            127           89.4 265 
 RUS  HZ EP   2    021 43.33                             129   -0.22 5  101 142 
 RUS  HN ES   1    021 58.67                             129    0.18 7  101 142 
 RUS  HZ I         022  0.26         2.0 0.48            131            101 142 
 ZAR  HN ES   2    022  9.42                             115   -0.10 5  165 306 
                                                                                
