 2010  615 0750 35.9 L   6.808 -73.095136.0  RSN  5 0.5 1.3LRSN                1
 GAP=164        0.84       7.0    20.4 10.8  0.7950E+01  0.2518E+02 -0.1294E+02E
 Epicentro: LOS SANTOS - SANTANDER                                             3
 ACTION:UP  10-08-24 10:10 OP:vdl  STATUS:               ID:20100615075035 L   I
 2010-06-15-0747-45S.COL___114                                                 6
 STAT SP IPHASW D HRMM SECON CODA AMPLIT PERI AZIMU VELO SNR AR TRES W  DIS CAZ7
 BAR2 SZ EP        750 54.29                             169    -0.110   26 202 
 BAR2 SZ ES   1    751  9.31                             169     0.5 7   26 202 
 RUS  HZ EP   1    750 58.39                             142    -0.4 7  101 179 
 RUS  HZ I         750 59.51         3.1 0.17                           101 179 
 RUS  HE ES   2    751 16.42                             142    -0.1 5  101 179 
 GRA  SZ EP   2    751  0.96                             136     0.9 5  123  15 
 OCA  SZ ES   2    751 24.17                             128    -0.8 5  160 351 
 HEL  HZ EP   2    751 16.62                             113     0.4 4  278 256 
 HEL  HZ I         751 52.64         1.3 0.28                           278 256 
                                                                                
