 2017  715 0937  9.3 L   6.792 -73.121148.9  RSN  8 0.4 1.4LRSN                1
 GAP=140        0.84       3.8     4.0  5.9 -0.1670E+01  0.8034E+00 -0.2556E+01E
 Epicentro: LOS SANTOS - SANTANDER                                             3
 ACTION:UPD 17-08-30 15:33 OP:rebc STATUS:               ID:20170715093709 L   I
 OLDACT:UP  17-07-15 18:24 OP:dnl  STATUS:               ID:20170715092740     3
 OLDACT:REG 17-07-15 13:29 OP:dnl  STATUS:               ID:20170715092740     3
 2017-07-15-0928-00M.COL___368                                                 6
 STAT SP IPHASW D HRMM SECON CODA AMPLIT PERI AZIMU VELO AIN AR TRES W  DIS CAZ7
 BAR2 EZ EP        937 29.25                             171   -0.1010 23.1 197 
 BAR2 EZ ES        937 45.20                             171    0.2510 23.1 197 
 BAR2 EZ I         937 45.37         5.3 0.36            169           23.1 197 
 BRR  HZ EP        937 31.13                             152    0.1310 74.1 298 
 BRR  HN ES        937 48.36                             152    0.4810 74.1 298 
 BRR  HZ I         937 49.14         7.7 0.32            147           74.1 298 
 PAM  EZ EP        937 32.14                             152    0.3110 76.3  38 
 PAM  EN ES        937 49.14                             152   -0.2410 76.3  38 
 PAM  EZ I         937 51.34         2.7 0.60            153           76.3  38 
 RUS  HZ EP   2    937 33.60                             145    0.27 5 99.5 178 
 RUS  HN ES        937 51.38                             145   -0.6610 99.5 178 
 RUS  HZ I         937 52.86         1.9 0.38            145           99.5 178 
 PTB  HZ EP   9    937 36.10                             132   -0.70 0  150 259 
 PTB  HN ES        937 57.89                                    0.38 9  150 259 
 PTB  HZ I         938  2.68         1.5 0.16            129            150 259 
 SPBC HZ EP   2    937 38.72                             130    0.53 5  164 220 
 SPBC HN ES        938  0.77                             130    0.08 9  164 220 
 SPBC HZ I         938  5.27         7.0 0.38            128            164 220 
 ZAR  HZ EP   2    937 42.05                             123   -0.24 4  207 292 
 ZAR  HE ES        938  7.48                             123   -0.51 8  207 292 
 ZAR  HZ I         938 16.08         3.4 0.28            120            207 292 
 GUY2CHZ EP   9    937 55.18                             113    1.88 0  303 235 
 GUY2CHN ES        938 29.57                             112    0.11 7  303 235 
 GUY2CHZ I         938 34.16         1.3 0.34                           303 235 
                                                                                
