 2012  215 0032 16.9 L   6.787 -73.127148.6  RSN  6 0.3 1.5LRSN                1
 GAP=139        0.57       5.2     4.6  7.3  0.7255E-01  0.4117E+01  0.7459E+01E
 ACTION:UP  12-03-07 16:30 OP:epov STATUS:               ID:20120215003216 L   I
 2012-02-15-0030-00M.COL___188                                                 6
 STAT SP IPHASW D HRMM SECON CODA AMPLIT PERI AZIMU VELO AIN AR TRES W  DIS CAZ7
 GIR2 SZ EP   1    032 36.94                             167   -0.04 7 33.0 347 
 GIR2 SZ ES   2    032 52.78                             167    0.15 5 33.0 347 
 BRR  HZ EP   1    032 38.64                             152    0.12 7 73.7 299 
 BRR  HZ I         032 39.02        11.0 0.10                          73.7 299 
 BRR  HN ES   2    032 55.84                             152    0.48 5 73.7 299 
 PAM  SZ EP   1    032 39.57                             151    0.14 7 77.2  38 
 PAM  SN ES   2    032 56.29                             151   -0.69 5 77.2  38 
 RUS  HZ EP   1    032 41.20                             145    0.36 7 99.1 177 
 RUS  HE ES   2    032 59.39                             145   -0.12 5 99.1 177 
 RUS  HZ I         033  0.04         2.3 0.31                          99.1 177 
 PTB  HZ EP   1    032 43.80                             132   -0.48 7  150 260 
 PTB  HE ES   2    033  5.19                             132   -0.43 5  150 260 
 ZAR  HE ES   2    033 15.67                             123    0.22 4  206 292 
                                                                                
