 2017  415 0144 16.2 L   6.808 -73.070143.2  RSN  6 0.3 1.1LRSN                1
 GAP=146        0.86       4.9     4.4  6.1  0.2420E+01  0.3298E+01 -0.7183E+01E
 Epicentro: LOS SANTOS - SANTANDER                                             3
 ACTION:UPD 17-05-30 21:12 OP:jn   STATUS:               ID:20170415014416 L   I
 OLDACT:UP  17-04-15 14:04 OP:edw  STATUS:               ID:20170415013741d    3
 OLDACT:UP  17-04-15 14:03 OP:edw  STATUS:               ID:20170415013741d    3
 OLDACT:DUP 17-04-15 14:00 OP:edw  STATUS:               ID:20170415013741d    3
 OLDACT:DUP 17-04-15 13:57 OP:edw  STATUS:               ID:20170415013740d    3
 2017-04-15-0138-00M.COL___364                                                 6
 STAT SP IPHASW D HRMM SECON CODA AMPLIT PERI AZIMU VELO AIN AR TRES W  DIS CAZ7
 BAR2 EZ EP        144 35.75                             169    0.1410 26.9 207 
 BAR2 EZ ES        144 51.25                             169    0.5110 26.9 207 
 BAR2 EZ I         144 52.81         3.3 0.54            170           26.9 207 
 PAM  EZ EP        144 37.63                             152   -0.1810 71.7  35 
 PAM  EN ES        144 54.44                             152   -0.2310 71.7  35 
 PAM  EZ I         144 58.10         2.6 0.78            153           71.7  35 
 BRR  HZ EP        144 38.01                             150    0.5110 78.3 295 
 BRR  HN ES        144 54.10                             150   -0.0110 78.3 295 
 RUS  HN ES        144 57.67                             143   -0.4510  101 181 
 RUS  HZ I         144 59.69         1.4 0.46            146            101 181 
 PTB  HZ EP   9    144 41.99                             130   -1.75 0  156 259 
 PTB  HN ES        145  3.43                             131   -0.04 9  156 259 
 PTB  HZ I         145  5.74         1.3 0.26            131            156 259 
 ZAR  HZ EP        144 49.32                             121    0.06 8  211 291 
 ZAR  HN ES        145 14.56                             121   -0.48 8  211 291 
 ZAR  HZ I         145 19.61         1.4 0.42            122            211 291 
                                                                                
