 2017  815 0909 39.1 L   6.754 -73.142136.0  RSN  7 0.3 1.3LRSN                1
 GAP=139        0.51       3.1     3.8  4.7 -0.1356E+01  0.8971E+01 -0.1257E+01E
 Epicentro: LOS SANTOS - SANTANDER                                             3
 ACTION:UPD 17-09-04 20:20 OP:rebc STATUS:               ID:20170815090939 L   I
 OLDACT:UP  17-08-15 15:55 OP:and  STATUS:               ID:20170815090743     3
 OLDACT:UP  17-08-15 15:54 OP:and  STATUS:               ID:20170815090743     3
 OLDACT:UP  17-08-15 15:54 OP:and  STATUS:               ID:20170815090743     3
 OLDACT:UP  17-08-15 15:51 OP:and  STATUS:               ID:20170815090743     3
 OLDACT:UP  17-08-15 15:51 OP:and  STATUS:               ID:20170815090743     3
 OLDACT:UP  17-08-15 15:51 OP:and  STATUS:               ID:20170815090743     3
 OLDACT:UP  17-08-15 15:49 OP:and  STATUS:               ID:20170815090743     3
 OLDACT:UP  17-08-15 15:48 OP:and  STATUS:               ID:20170815090743     3
 OLDACT:UP  17-08-15 15:48 OP:and  STATUS:               ID:20170815090743     3
 OLDACT:UP  17-08-15 15:48 OP:and  STATUS:               ID:20170815090743     3
 OLDACT:UP  17-08-15 15:48 OP:and  STATUS:               ID:20170815090743     3
 OLDACT:REG 17-08-15 13:06 OP:mg   STATUS:               ID:20170815090743     3
 2017-08-15-0908-00M.COL___407                                                 6
 STAT SP IPHASW D HRMM SECON CODA AMPLIT PERI AZIMU VELO AIN AR TRES W  DIS CAZ7
 BAR2 EZ EP        9 9 57.29                             172   -0.2110 18.5 194 
 BAR2 EZ ES        910 11.93                             172    0.1110 18.5 194 
 BAR2 EZ I         910 13.01         5.3 0.32            168           18.5 194 
 BRR  HZ EP     C  9 9 59.35                             150   -0.0710 74.1 302 
 BRR  HE ES   4    910 17.28                             150    2.05 0 74.1 302 
 PAM  EN ES   2    910 17.06                             148   -0.20 5 81.0  37 
 PAM  EZ I         910 19.82         5.7 0.62            152           81.0  37 
 RUS  HZ EP        910  1.49                             143   -0.0810 95.5 176 
 RUS  HN ES        910 19.30                             143    0.2410 95.5 176 
 RUS  HZ I         910 21.09         2.0 0.24            149           95.5 176 
 SPBC HZ EP        910  6.57                             128    0.01 9  160 220 
 SPBC HN ES   2    910 27.64                             128   -0.30 5  160 220 
 SPBC HZ I         910 33.32         2.8 0.13            130            160 220 
 ZAR  HZ EP   2    910 12.08                             120    0.86 4  206 293 
 ZAR  HN ES   2    910 36.63                             120    0.39 4  206 293 
 ZAR  HZ I         910 45.69         2.2 0.48            120            206 293 
 NOR  HE ES        910 41.09                             117   -0.18 8  232 236 
 NOR  HZ I         910 43.32         1.8 0.16            119            232 236 
                                                                                
