 2011  615 0923  3.2 L   6.728 -73.117147.1  RSN  6 0.3 1.6LRSN                1
 GAP=160        0.81       4.6     6.9  7.1 -0.9596E+01  0.1390E+01 -0.5712E+01E
 Epicentro: JORDAN - SANTANDER                                                 3
 ACTION:UP  11-07-14 19:05 OP:ep   STATUS:               ID:20110615092303 L   I
 2011-06-15-0920-00M.COL___125                                                 6
 STAT SP IPHASW D HRMM SECON CODA AMPLIT PERI AZIMU VELO SNR AR TRES W  DIS CAZ7
 BAR2 SZ EP        923 22.78                             173    -0.110   17 206 
 BAR2 SZ ES        923 38.09                             173    -0.110   17 206 
 BAR2 SZ I         923 39.88        11.5 0.26                            17 206 
 BRR  HZ EP        923 24.95                             151     0.110   78 303 
 BRR  HZ I         923 25.46        17.0 0.10                            78 303 
 BRR  HN ES   1    923 42.23                             151     0.5 7   78 303 
 RUS  HZ EP   1    923 26.52                             146     0.0 7   93 178 
 RUS  HN ES   1    923 44.84                             146     0.2 7   93 178 
 RUS  HZ I         923 46.60         5.9 0.31                            93 178 
 BRI  SZ EP   1    923 28.00                             140     0.3 7  115  18 
 BRI  SZ I         923 48.46         4.5 0.50                           115  18 
 GRA  SZ EP   1    923 29.18                             136     0.1 7  132  15 
 GRA  SZ ES   1    923 48.65                             136    -0.7 7  132  15 
 GRA  SZ I         923 49.68         3.6 0.51                           132  15 
 NOR  SN ES   1    924  5.94                             119    -0.6 6  233 236 
                                                                                
