 2011 1115 0703 40.9 L   6.767 -73.109139.1  RSN  5 0.5 1.3LRSN                1
 GAP=143        0.89       8.2     6.5  9.3  0.9740E+01  0.1169E+02  0.1249E+02E
 Epicentro: LOS SANTOS - SANTANDER                                             3
 ACTION:UPD 12-07-13 16:10 OP:ep   STATUS:               ID:20111115070340 L   I
 2011-11-15-0702-34S.COL___179                                                 6
 STAT SP IPHASW D HRMM SECON CODA AMPLIT PERI AZIMU VELO AIN AR TRES W  DIS CAZ7
 BAR2 SZ EP   1    7 3 59.04                             171   -0.60 7 20.9 203 
 BAR2 SZ ES   1    7 4 13.85                             171   -0.44 7 20.9 203 
 BAR2 SZ I         7 4 19.28         5.6 0.43                          20.9 203 
 BRR  HZ EP   1    7 4  1.98                             149    0.36 7 76.5 300 
 BRR  HN ES   1    7 4 18.53                             149    0.73 7 76.5 300 
 BRR  HZ I         7 4 21.62         3.9 0.11                          76.5 300 
 PAM  SZ EP   1    7 4  2.55                             149    0.15 7 77.8  36 
 PAM  SN ES   1    7 4 19.06                             149   -0.14 7 77.8  36 
 RUS  HZ EP   1    7 4  4.14                             143    0.46 7 96.7 178 
 ZAR  HZ EP   2    7 4 13.07                             120   -0.36 4  209 293 
 ZAR  HN ES   1    7 4 38.26                             120   -0.56 6  209 293 
                                                                                
