 2011 1215 0308 36.4 L   6.779 -73.157143.1  RSN 12 0.5 2.2LRSN                1
 GAP=136        0.91       3.7     5.6  6.7 -0.7706E+01  0.1168E+02  0.3351E+01E
 Epicentro: LOS SANTOS - SANTANDER                                             3
 ACTION:UPD 12-07-13 16:16 OP:ep   STATUS:               ID:20111215030836 L   I
 2011-12-15-0306-42S.COL___143                                                 6
 STAT SP IPHASW D HRMM SECON CODA AMPLIT PERI AZIMU VELO AIN AR TRES W  DIS CAZ7
 BAR2 SZ IP        3 8 55.71                             171    0.0710 20.9 188 
 BAR2 SZ ES   1    3 9 10.07                             171   -0.59 7 20.9 188 
 BAR2 SZ I         3 9 13.01        26.4 0.34                          20.9 188 
 GIR2 SZ EP   1    3 8 55.82                             166    0.03 7 33.3 353 
 BRR  HZ IP     D  3 8 57.63                             152    0.3910 71.2 301 
 BRR  HN ES   1    3 9 14.19                             152    0.68 7 71.2 301 
 BRR  HZ I         3 9 15.92        37.8 0.14                          71.2 301 
 PAM  SZ EP        3 8 58.57                             149    0.1110 79.9  39 
 PAM  SN ES   1    3 9 15.51                             149   -0.18 7 79.9  39 
 RUS  HZ EP   1    3 8 59.64                             144   -0.07 7 98.4 175 
 RUS  HN ES   1    3 9 18.13                             144    0.22 7 98.4 175 
 RUS  HZ I         3 9 19.87        20.3 0.40                          98.4 175 
 OCA  SZ EP   1    3 9  4.37                             129   -0.31 7  162 354 
 OCA  SZ ES   1    3 9 25.88                             129   -0.88 7  162 354 
 OCA  SZ I         3 9 30.88        14.0 0.32                           162 354 
 NOR  SN ES   1    3 9 39.21                             118   -0.04 6  232 235 
 CHI  HZ EP   1    3 9 13.42                             117   -0.23 6  246 195 
 CHI  HN ES   1    3 9 43.16                             117    0.43 6  246 195 
 CHI  HZ I         3 9 46.19         6.5 0.30                           246 195 
 HEL  HZ EP   1    3 9 17.28                             114    1.03 6  270 256 
 HEL  HZ I         3 9 54.38         8.7 0.20                           270 256 
 GUY  SZ EP   1    3 9 20.52                             112    0.66 5  301 235 
 GUY  SN ES   1    3 9 53.11                             112   -0.67 5  301 235 
 GUY  SZ I         310  2.08        11.8 0.19                           301 235 
 RREF HN ES   1    3 9 56.71                             110   -1.10 5  319 230 
 RREF HZ I         310  8.76        10.1 0.33                           319 230 
 PRA  HZ EP   1    3 9 28.83                             106   -0.67 4  389 210 
 PRA  HE ES   1    310 10.78                             106   -0.15 4  389 210 
                                                                                
