 2014  815 0317  5.7 L   6.743 -73.129148.5  RSN  5 0.2 1.1LRSN                1
 GAP=164        0.47       4.3     3.6  4.5 -0.8718E+01 -0.3630E+00  0.1652E+01E
 Epicentro: LOS SANTOS - SANTANDER                                             3
 ACTION:UPD 14-09-15 21:50 OP:nd   STATUS:               ID:20140815031705 L   I
 OLDACT:DUP 14-08-15 17:04 OP:spq  STATUS:               ID:20140815030812d    3
 2014-08-15-0308-08M.COL___269                                                 6
 STAT SP IPHASW D HRMM SECON CODA AMPLIT PERI AZIMU VELO AIN AR TRES W  DIS CAZ7
 BAR2 SZ ES   1    317 41.28                             173    0.24 7 17.7 200 
 BAR2 SZ I         317 42.89         3.7 0.24            165           17.7 200 
 BRR  HZ EP        317 27.41                             151    0.0010 76.0 302 
 BRR  HE ES        317 44.42                             151    0.0810 76.0 302 
 BRR  HZ I         317 48.30         2.5 0.48            154           76.0 302 
 PAM  SZ EP        317 28.61                             150    0.1810 81.2  36 
 PAM  SN ES   1    317 45.75                             150   -0.41 7 81.2  36 
 PAM  SZ I         317 45.94         2.0 0.21            158           81.2  36 
 PTB  HZ EP   1    317 32.83                             132   -0.12 7  149 261 
 PTB  HN ES   1    317 54.15                             132   -0.06 7  149 261 
 PTB  HZ I         317 56.55         0.9 0.11            132            149 261 
 SPBC HE ES   1    317 56.02                             130   -0.17 7  160 221 
 SPBC HZ I         318  5.32         1.2 0.20            129            160 221 
                                                                                
