 2016  215 0310 42.5 L   6.252 -73.829 95.9  RSN  8 0.4 1.4LRSN                1
 GAP= 86        0.98       3.0     2.9  7.2 -0.4913E+00  0.4589E+01 -0.2360E+01E
 Epicentro: LANDAZURI - SANTANDER                                              3
 ACTION:UPD 16-03-04 21:26 OP:rebc STATUS:               ID:20160215031042 L   I
 OLDACT:DUP 16-02-15 16:32 OP:drio STATUS:               ID:20160215030751d    3
 2016-02-15-0307-50M.COL___299                                                 6
 STAT SP IPHASW D HRMM SECON CODA AMPLIT PERI AZIMU VELO AIN AR TRES W  DIS CAZ7
 SPBC HZ EP        310 59.08                             141    0.4110 71.5 202 
 SPBC HE ES        311 11.79                             141    0.4910 71.5 202 
 SPBC HZ I         311 13.45        13.2 0.44            143           71.5 202 
 PTB  HZ EP        310 58.16                             139   -0.7910 76.3 295 
 PTB  HE ES        311 11.31                             139   -0.4910 76.3 295 
 PTB  HZ I         311 14.63         8.4 0.14            140           76.3 295 
 BAR2 EZ EP        310 59.80                             137    0.1710 80.9  62 
 BAR2 EZ ES        311 12.97                             137   -0.0510 80.9  62 
 BAR2 EZ I         311 15.45         4.6 0.32            141           80.9  62 
 RUS  HZ EP        311  0.80                             133   -0.1210 91.6 116 
 RUS  HE ES        311 15.15                             133   -0.1510 91.6 116 
 RUS  HZ I         311 16.89         2.1 0.20            138           91.6 116 
 BRR  HZ EP     C  311  0.48                             132   -0.1210 95.5   8 
 BRR  HE ES        311 14.92                             132    0.1810 95.5   8 
 BRR  HZ I         311 15.22         8.7 0.10            134           95.5   8 
 NOR  HZ EP        311  4.80                             121   -0.12 9  138 237 
 NOR  HE ES        311 22.36                             121   -0.07 9  138 237 
 NOR  HZ I         311 25.25         7.1 0.22            123            138 237 
 ZAR  HZ EP        311  9.38                             114    0.10 9  178 320 
 ZAR  HE ES        311 30.89                             114    0.70 9  178 320 
 ZAR  HZ I         311 34.59         6.8 0.26            115            178 320 
 GUY2CHZ EP   4    311 14.49                             111    1.62 0  205 236 
 GUY2CHE ES   4    311 38.52                             111    1.93 0  205 236 
 GUY2CHZ I         311 41.36         1.7 0.18                           205 236 
                                                                                
