 2010  815 0228 49.5 L   6.839 -73.351116.0  RSN  4 0.1 1.2LRSN                1
 GAP=161        0.42       4.2     6.5  7.7 -0.4804E+01 -0.3164E+02  0.3068E+01E
 Epicentro: ZAPATOCA - SANTANDER                                               3
 ACTION:UP  10-09-07 10:55 OP:vdl  STATUS:               ID:20100815022849 L   I
 2010-08-15-0224-56S.COL___111                                                 6
 STAT SP IPHASW D HRMM SECON CODA AMPLIT PERI AZIMU VELO SNR AR TRES W  DIS CAZ7
 BTL  SZ EP        229  5.45                             173     0.110   13  46 
 BAR2 SZ EP        229  5.88                             163     0.010   33 146 
 BAR2 SZ I         229  6.26         9.8 0.12                            33 146 
 BRR  HZ EP        229  6.13                             155    -0.210   50 307 
 BRR  HZ I         229  6.39         6.8 0.15                            50 307 
 BRR  HN ES   1    229 19.48                             155     0.1 7   50 307 
 GUE  SZ EP        229 12.01                             131     0.110  119  23 
 GUE  SZ ES   2    229 29.11                             131    -0.2 5  119  23 
 GUE  SZ I         229 30.04         0.9 0.20                           119  23 
                                                                                
