 2011  815 0141  2.4 L   6.757 -73.120147.0  RSN 13 0.4 2.6LRSN                1
 GAP=142        0.69       2.6     4.3  4.5 -0.3550E+01  0.6454E+01  0.1894E+01E
 Epicentro: LOS SANTOS - SANTANDER                                             3
 ACTION:UPD 12-07-13 15:52 OP:ep   STATUS:               ID:20110815014102 L   I
 2011-08-15-0139-17S.COL___149                                                 6
 STAT SP IPHASW D HRMM SECON CODA AMPLIT PERI AZIMU VELO AIN AR TRES W  DIS CAZ7
 BAR2 SZ IP        141 22.14                             172    0.0110 19.5 201 
 BAR2 SZ ES   1    141 37.07                             172   -0.44 7 19.5 201 
 BAR2 SZ I         141 38.23        80.4 0.26                          19.5 201 
 BRR  HZ IP     C  141 24.14                             151    0.1610 76.0 301 
 BRR  HN ES   1    141 41.08                             151    0.28 7 76.0 301 
 BRR  HZ I         141 44.06        94.6 0.18                          76.0 301 
 PAM  SZ EP        141 25.13                             150    0.2410 79.4  36 
 PAM  SN ES   1    141 42.01                             150   -0.40 7 79.4  36 
 RUS  HZ EP        141 25.91                             145   -0.0410 95.7 178 
 RUS  HN ES   1    141 44.73                             145    0.42 7 95.7 178 
 RUS  HZ I         141 46.10        39.2 0.24                          95.7 178 
 OCA  SZ EP        141 30.79                             129   -0.51 9  165 352 
 OCA  SZ ES   1    141 54.19                             129    0.36 7  165 352 
 OCA  SZ I         141 56.43        64.3 0.20                           165 352 
 NOR  SZ EP        141 38.37                             119    0.18 8  234 236 
 NOR  SN ES   1    142  5.35                             119   -0.73 6  234 236 
 CHI  HZ EP        141 40.07                             118    0.29 8  245 196 
 CHI  HZ I         141 42.12        12.5 0.12                           245 196 
 CHI  HN ES   1    142  9.06                             118    0.14 6  245 196 
 RREF HZ EP   1    141 48.23                             111   -0.29 5  321 230 
 RREF HN ES   1    142 24.22                             111   -0.26 5  321 230 
 RREF HZ I         142 33.46        24.2 0.31                           321 230 
 TOL  SZ EP   1    141 51.08                             110    0.50 5  342 226 
 DBB  SZ EP        141 50.60                             109    0.28 7  343 275 
 ANIL HZ EP   2    141 52.70                             109    0.58 3  356 225 
 ANIL HN ES   1    142 30.75                             109   -0.14 5  356 225 
 PRA  HZ EP   1    141 54.97                             107   -0.70 4  389 210 
 PRA  HN ES   1    142 37.51                             107    0.30 4  389 210 
 SJA  SZ EP   1    141 55.70                             106   -0.86 4  396 193 
                                                                                
