 2012  315 0118 48.8 L   6.725 -73.147142.6  RSN  6 0.3 1.4LRSN                1
 GAP=140        0.84       5.2     4.8  8.3 -0.1237E+01  0.1167E+02  0.1637E+01E
 ACTION:UP  12-03-31 23:19 OP:EP   STATUS:               ID:20120315011848 L   I
 2012-03-15-0116-40M.COL___178                                                 6
 STAT SP IPHASW D HRMM SECON CODA AMPLIT PERI AZIMU VELO SNR AR TRES W  DIS CAZ7
 BAR2 SZ ES   1    119 23.31                             174     0.5 7   15 195 
 BAR2 SZ I         119 24.68         7.3 0.21                            15 195 
 BRR  HZ EP   1    119 10.15                             150     0.3 7   75 304 
 BRR  HN ES   1    119 26.46                             150     0.2 7   75 304 
 BRR  HZ I         119 30.09         9.7 0.27                            75 304 
 PAM  SZ EP   1    119 10.89                             148    -0.2 7   84  36 
 PAM  SZ I         119 11.45         5.6 0.20                            84  36 
 PAM  SN ES        119 28.31                             148    -0.210   84  36 
 RUS  HZ EP   1    119 12.17                             145     0.5 7   92 176 
 RUS  HN ES   1    119 28.95                             145    -0.5 7   92 176 
 RUS  HZ I         119 31.62         2.6 0.31                            92 176 
 PTB  HZ EP   1    119 15.31                             131    -0.1 7  146 262 
 PTB  HN ES   1    119 35.88                             131    -0.2 7  146 262 
 PTB  HZ I         119 42.12         2.2 0.10                           146 262 
 ZAR  HE ES   1    119 46.63                             121    -0.1 6  207 294 
 ZAR  HZ I         119 51.86         2.8 0.14                           207 294 
                                                                                
