 2011  715 0857 49.5 L   6.769 -73.098151.0  RSN  7 0.2 2.0LRSN                1
 GAP=144        0.45       2.4     3.6  3.7 -0.4537E+01  0.1855E+01  0.3449E+00E
 Epicentro: LOS SANTOS - SANTANDER                                             3
 ACTION:UPD 12-07-25 14:00 OP:epov STATUS:               ID:20110715084000 L   I
 2011-07-15-0840-00M.COL___133                                                 6
 STAT SP IPHASW D HRMM SECON CODA AMPLIT PERI AZIMU VELO AIN AR TRES W  DIS CAZ7
 BAR2 SZ EP   1    858  9.64                             171   -0.13 7 21.7 205 
 BAR2 SZ ES   1    858 25.58                             171    0.04 7 21.7 205 
 BAR2 SZ I         858 25.89        19.3 0.35                          21.7 205 
 PAM  SZ EP   1    858 12.41                             152    0.12 7 76.9  35 
 PAM  SN ES   1    858 29.84                             152   -0.19 7 76.9  35 
 BRR  HZ EP   1    858 11.52                             151   -0.09 7 77.5 299 
 BRR  HZ I         858 11.79        49.6 0.15                          77.5 299 
 BRR  HE ES   1    858 28.99                             151    0.17 7 77.5 299 
 RUS  HZ EP   1    858 13.47                             146   -0.09 7 96.9 179 
 RUS  HN ES   1    858 32.37                             146    0.08 7 96.9 179 
 RUS  HZ I         858 33.48         7.7 0.24                          96.9 179 
 BRI  SZ EP   1    858 14.15                             142    0.11 7  110  18 
 BRI  SZ ES   1    858 33.54                             142    0.39 7  110  18 
 BRI  SZ I         858 37.63         9.3 0.33                           110  18 
 GRA  SZ EP   1    858 15.40                             138    0.00 7  128  15 
 GRA  SZ ES   1    858 35.14                             138   -0.43 7  128  15 
 GRA  SZ I         858 37.97        12.0 0.28                           128  15 
 NOR  SZ EP   1    858 26.13                             119    0.30 6  237 236 
 NOR  SE ES   1    858 53.85                             119   -0.29 6  237 236 
                                                                                
