 2012  215 0317 35.6 L   6.814 -73.110141.4  RSN 15 0.4 2.5LRSN                1
 GAP=117        0.61       2.7     3.5  4.6 -0.1179E+01  0.4571E+01  0.3261E+01E
 ACTION:UP  12-03-07 16:30 OP:epov STATUS:               ID:20120215031735 L   I
 2012-02-15-0310-00M.COL___188                                                 6
 STAT SP IPHASW D HRMM SECON CODA AMPLIT PERI AZIMU VELO AIN AR TRES W  DIS CAZ7
 BAR2 SZ IP        317 54.77                             169    0.0110 25.8 198 
 BAR2 SZ I         317 54.95        60.1 0.12                          25.8 198 
 BAR2 SZ ES   2    318  9.77                             169    0.06 5 25.8 198 
 GIR2 SZ EP   1    317 54.80                             167    0.06 7 30.7 343 
 GIR2 SZ ES   1    318  9.28                             167   -0.39 7 30.7 343 
 PAM  SZ EP        317 57.56                             151    0.4310 73.7  38 
 PAM  SN ES   2    318 13.92                             151   -0.01 5 73.7  38 
 BRR  HZ IP     C  317 56.59                             151    0.1510 74.0 296 
 BRR  HN ES   2    318 13.28                             151    0.58 5 74.0 296 
 BRR  HZ I         318 17.68       111.4 0.14                          74.0 296 
 RUS  HZ EP   1    317 58.85                             142   -0.17 7  102 178 
 RUS  HN ES   2    318 17.23                             142   -0.07 5  102 178 
 RUS  HZ I         318 19.17        51.5 0.32                           102 178 
 PTB  HZ EP   1    318  1.67                             130   -0.93 7  152 259 
 PTB  HE ES   2    318 23.27                             130   -0.39 5  152 259 
 OCA  SZ EP   1    318  3.35                             129   -0.13 7  159 352 
 OCA  SZ ES   2    318 24.63                             129   -0.59 5  159 352 
 YOP  SE ES   2    318 28.72                             125    0.25 4  179 155 
 ZAR  HZ EP   2    318  8.12                             121    0.04 4  207 291 
 ZAR  HN ES   2    318 33.48                             121    0.06 4  207 291 
 ZAR  HZ I         318 38.93        55.3 0.55                           207 291 
 NOR  SZ EP   1    318 11.71                             117    0.19 6  239 235 
 NOR  SN ES   2    318 39.62                             117    0.08 4  239 235 
 CHI  HZ EP   1    318 13.17                             116   -0.17 6  251 196 
 CHI  HN ES   2    318 42.32                             116   -0.45 4  251 196 
 CHI  HZ I         318 45.84         9.6 0.28                           251 196 
 ROSC BZ EP   2    318 14.50                             115    0.65 4  256 212 
 ROSC BN ES   2    318 43.92                             115    0.23 4  256 212 
 HEL  HZ EP   1    318 16.76                             113    0.70 6  276 256 
 HEL  HE ES   2    318 47.82                             113    0.21 4  276 256 
 HEL  HZ I         318 55.12        19.5 0.54                           276 256 
 RREF HZ EP   2    318 22.12                             110    0.11 3  326 230 
 RREF HN ES   2    318 58.12                             110   -0.09 3  326 230 
 RREF HZ I         319  3.96        19.3 0.33                           326 230 
 PRA  HZ EP   1    318 28.50                             105   -0.85 4  395 210 
 PRA  HN ES   2    319 11.49                             105    0.20 3  395 210 
                                                                                
