 2012  915 0355  1.3 L   6.785 -73.162151.9  RSN  9 0.4 2.3LRSN                1
 GAP=135        0.73       3.9     4.6  5.7  0.3277E+01  0.9423E+01  0.7897E+01E
 Epicentro: LOS SANTOS - SANTANDER                                             3
 ACTION:UPD 12-10-22 14:18 OP:ep   STATUS:               ID:20120915035501 L   I
 2012-09-15-0350-00M.COL___227                                                 6
 STAT SP IPHASW D HRMM SECON CODA AMPLIT PERI AZIMU VELO AIN AR TRES W  DIS CAZ7
 BAR2 SZ EP   1    355 21.59                             172   -0.07 7 21.4 186 
 BAR2 SZ ES   1    355 37.39                             172   -0.13 7 21.4 186 
 BAR2 SZ I         355 38.48        62.6 0.38                          21.4 186 
 GIR2 SZ EP   1    355 21.63                             167   -0.14 7 32.7 354 
 GIR2 SZ ES   1    355 38.08                             167    0.37 7 32.7 354 
 BRR  HZ EP   1    355 23.44                             154    0.33 7 70.4 300 
 BRR  HZ I         355 23.77        61.1 0.26                          70.4 300 
 BRR  HE ES   1    355 40.92                             154    0.84 7 70.4 300 
 PAM  SN ES   1    355 41.81                             151   -0.48 7 79.8  40 
 PAM  SZ I         355 42.85        16.8 0.22                          79.8  40 
 RUS  HZ EP   1    355 25.77                             145    0.19 7 99.0 175 
 RUS  HN ES   1    355 44.26                             145   -0.24 7 99.0 175 
 RUS  HZ I         355 45.90        16.0 0.38                          99.0 175 
 PTB  HZ EP   1    355 28.27                             134   -0.35 7  146 259 
 PTB  HN ES   1    355 49.57                             134   -0.33 7  146 259 
 PTB  HN I         355 52.65        25.1 0.30                           146 259 
 ZAR  HZ EP   1    355 34.15                             124    0.07 6  203 293 
 ZAR  HN ES   1    355 59.02                             124   -0.60 6  203 293 
 ZAR  HZ I         356  6.52        25.2 0.38                           203 293 
 CHI  HZ EP   1    355 39.17                             119    0.02 6  247 195 
 CHI  HN ES   1    356  8.59                             119   -0.06 6  247 195 
 CHI  HN I         356 13.30        13.7 0.32                           247 195 
 PRA  HZ EP   1    355 55.73                             108    0.93 4  390 209 
 PRA  HN ES   2    356 36.64                             108    0.14 3  390 209 
 PRA  HZ I         356 41.52         5.2 0.54                           390 209 
                                                                                
