 2017  715 0858 10.0 L   6.777 -73.195150.0  RSN  6 0.4 0.9LRSN                1
 GAP=230        1.00       7.0     6.5  8.0  0.2505E+02  0.6858E+01 -0.4638E-01E
 Epicentro: ZAPATOCA - SANTANDER                                               3
 ACTION:UPD 17-08-30 15:33 OP:rebc STATUS:               ID:20170715085810 L   I
 OLDACT:UP  17-07-15 18:04 OP:dnl  STATUS:               ID:20170715084737d    3
 OLDACT:DUP 17-07-15 18:01 OP:dnl  STATUS:               ID:20170715084737d    3
 OLDACT:REG 17-07-15 12:42 OP:dnl  STATUS:               ID:20170715084736     3
 2017-07-15-0848-00M.COL___359                                                 6
 STAT SP IPHASW D HRMM SECON CODA AMPLIT PERI AZIMU VELO AIN AR TRES W  DIS CAZ7
 BAR2 EZ EP        858 29.86                             172   -0.2310 20.5 176 
 BAR2 EZ ES        858 45.28                             172   -0.4710 20.5 176 
 BAR2 EZ I         858 45.95         2.2 0.40            169           20.5 176 
 BRR  HZ EP        858 31.65                             154    0.2210 67.8 303 
 BRR  HN ES        858 48.42                             154    0.2810 67.8 303 
 RUS  HZ EP        858 34.25                             145    0.2210 98.6 173 
 RUS  HN ES        858 53.18                             145    0.4110 98.6 173 
 RUS  HZ I         858 54.52         1.6 0.36            144           98.6 173 
 PTB  HZ EP        858 36.35                             134   -0.46 9  142 259 
 PTB  HN ES        858 57.12                             134   -0.59 9  142 259 
 PTB  HZ I         859  0.23         0.7 0.16            133            142 259 
 SPBC HN ES   2    859  1.05                             131    0.62 5  158 218 
 ZAR  HE ES        859  8.02                             124    0.50 9  200 293 
                                                                                
