 2017  515 0418 58.6 L   6.808 -73.136155.2  RSN  4 0.2 1.6LRSN                1
 GAP=297        0.50       4.7     5.6  6.2 -0.5502E+01 -0.2250E+01  0.1260E+02E
 Epicentro: LOS SANTOS - SANTANDER                                             3
 ACTION:UPD 17-06-16 13:36 OP:jn   STATUS:               ID:20170515041858 L   I
 OLDACT:DUP 17-05-15 14:07 OP:dnl  STATUS:               ID:20170515040743d    3
 OLDACT:UP  17-05-15 14:03 OP:dnl  STATUS:               ID:20170515040742d    3
 OLDACT:DUP 17-05-15 14:01 OP:dnl  STATUS:               ID:20170515040742d    3
 2017-05-15-0408-00M.COL___359                                                 6
 STAT SP IPHASW D HRMM SECON CODA AMPLIT PERI AZIMU VELO AIN AR TRES W  DIS CAZ7
 BRR  HZ EP        419 20.98                             154    0.2010 71.7 298 
 BRR  HN ES        419 38.05                             154   -0.0510 71.7 298 
 BRR  HZ I         419 41.99         7.8 0.28            151           71.7 298 
 PTB  HZ EP        419 26.07                             134   -0.36 9  149 259 
 PTB  HN ES   4    419 46.58                             134   -1.58 0  149 259 
 PTB  HZ I         419 48.64         3.6 0.38            133            149 259 
 ZAR  HZ EP   2    419 31.84                             124    0.12 4  205 292 
 ZAR  HN ES        419 57.61                             124    0.04 9  205 292 
 ZAR  HZ I         420  2.39         4.0 0.26            125            205 292 
 NOR  HZ EP   2    419 35.39                             120    0.38 4  236 234 
 NOR  HE ES        420  3.50                             120    0.07 8  236 234 
 NOR  HZ I         420 11.05         3.6 0.18            121            236 234 
                                                                                
