 2011  215 0122 40.1 L   6.757 -73.115144.1  RSN  6 0.4 1.4LRSN                1
 GAP=163        0.79       4.8    12.7  8.6 -0.3780E+02  0.2791E+02 -0.7274E+01E
 Epicentro: LOS SANTOS - SANTANDER                                             3
 ACTION:UP  11-03-28 15:08 OP:jfem STATUS:               ID:20110215012240 L   I
 2011-02-15-0118-34S.COL___136                                                 6
 STAT SP IPHASW D HRMM SECON CODA AMPLIT PERI AZIMU VELO SNR AR TRES W  DIS CAZ7
 BAR2 SZ ES   1    123 14.28                             172    -0.2 7   20 203 
 BAR2 SZ I         123 16.01         6.0 0.24                            20 203 
 RUS  HZ EP   1    123  3.68                             145     0.4 7   96 178 
 RUS  HN ES   1    123 21.72                             145     0.3 7   96 178 
 RUS  HZ I         123 23.69         2.9 0.25                            96 178 
 GRA  SZ EP   1    123  5.24                             136    -0.2 7  129  15 
 GRA  SZ ES   1    123 25.29                             136     0.0 7  129  15 
 GRA  SZ I         123 26.15         3.2 0.33                           129  15 
 OCA  SZ EP   2    123  8.76                             128     0.0 5  165 352 
 OCA  SZ I         123 38.23         3.5 0.07                           165 352 
 NOR  SN ES   2    123 44.03                             118     0.5 4  235 236 
 CHI  HZ EP   2    123 17.46                             117     0.2 4  245 196 
 CHI  HE ES   1    123 45.47                             117    -0.8 6  245 196 
 CHI  HZ I         123 53.14         1.8 0.30                           245 196 
                                                                                
