 2016  715 0750 58.5 L   6.778 -73.111140.5  RSN  5 0.4 1.1LRSN                1
 GAP=142        0.93       4.0     4.7  8.6 -0.4872E+00  0.7809E+01  0.2562E+01E
 Epicentro: LOS SANTOS - SANTANDER                                             3
 ACTION:UPD 17-03-29 16:51 OP:lp   STATUS:               ID:20160715075058 L   I
 OLDACT:REG 16-07-15 13:46 OP:lv   STATUS:               ID:20160715074759     3
 2016-07-15-0747-59S.COL___319                                                 6
 STAT SP IPHASW D HRMM SECON CODA AMPLIT PERI AZIMU VELO AIN AR TRES W  DIS CAZ7
 BRR  HZ EP        751 19.44                             150    0.0410 75.7 299 
 BRR  HE ES        751 36.04                             150    0.3810 75.7 299 
 PAM  EZ EP        751 20.35                             150    0.1710 76.9  36 
 PAM  EN ES        751 37.06                             150    0.0110 76.9  36 
 PAM  EZ I         751 39.22         2.7 0.54            158           76.9  36 
 RUS  HZ EP        751 21.64                             143    0.0510 98.0 178 
 RUS  HE ES        751 38.95                             143   -0.6210 98.0 178 
 RUS  HZ I         751 46.02         0.8 0.20            144           98.0 178 
 SPBC HZ EP   2    751 26.97                             128    0.26 5  164 221 
 SPBC HE ES        751 49.23                             128    0.56 9  164 221 
 SPBC HZ I         751 56.60         2.7 0.28            129            164 221 
 ZAR  HZ EP   2    751 30.84                             121   -0.28 4  209 292 
 ZAR  HN ES        751 55.84                             121   -0.69 8  209 292 
 ZAR  HZ I         752  1.24         1.8 0.18            124            209 292 
                                                                                
