 2015  915 0932 46.1 L   6.781 -73.131153.4  RSN  5 0.4 1.8LRSN                1
 GAP=220        1.10       7.2     7.5  8.3  0.8512E+01  0.5003E+01 -0.2048E+02E
 Epicentro: LOS SANTOS - SANTANDER                                             3
 ACTION:UPD 15-10-28 16:26 OP:cam  STATUS:               ID:20150915093246 L   I
 OLDACT:REG 15-09-15 12:50 OP:mh   STATUS:               ID:20150915092735     3
 2015-09-15-0927-35M.COL___350                                                 6
 STAT SP IPHASW D HRMM SECON CODA AMPLIT PERI AZIMU VELO AIN AR TRES W  DIS CAZ7
 BAR2 EZ EP        933  6.99                             172    0.4010 21.6 195 
 BAR2 EZ ES        933 22.08                             172   -0.5110 21.6 195 
 BAR2 EZ I         933 23.60         7.7 0.32            174           21.6 195 
 BRR  HZ EP        933  8.25                             153    0.0610 73.6 299 
 BRR  HN ES        933 26.11                             153    0.6810 73.6 299 
 BRR  HZ I         933 28.87         8.2 0.35            150           73.6 299 
 PTB  HZ EP        933 13.80                             133    0.02 9  149 260 
 PTB  HN ES        933 34.86                             133   -0.53 9  149 260 
 PTB  HZ I         933 36.80         6.8 0.16            134            149 260 
 ZAR  HZ EP        933 19.00                             124   -0.26 8  206 293 
 ZAR  HN ES        933 45.62                             124    0.48 8  206 293 
 ZAR  HZ I         933 51.41         8.5 0.34            124            206 293 
 SML  HZ EP        933 23.58                             119    0.16 8  246 335 
 SML  HN ES        933 51.82                             119   -0.72 8  246 335 
 SML  HZ I         933 57.96         6.0 0.24            119            246 335 
                                                                                
