 2011  415 0124 32.1 L   6.773 -73.130140.6  RSN  5 0.4 1.7LRSN                1
 GAP=159        0.70       8.5     8.8  9.4 -0.4819E+02  0.4223E+01  0.1040E+02E
 Epicentro: LOS SANTOS - SANTANDER                                             3
 ACTION:UP  11-06-22 15:31 OP:REBC STATUS:               ID:20110415012432 L   I
 2011-04-15-0123-04S.COL___139                                                 6
 STAT SP IPHASW D HRMM SECON CODA AMPLIT PERI AZIMU VELO SNR AR TRES W  DIS CAZ7
 BAR2 SZ EP   1    124 51.32                             171     0.2 7   21 196 
 BAR2 SZ ES   2    125  5.19                             171    -0.7 5   21 196 
 BAR2 SZ I         125  8.07        15.2 0.40                            21 196 
 BRR  HZ EP   1    124 52.86                             150     0.0 7   74 300 
 BRR  HN ES   2    125  9.46                             150     0.4 5   74 300 
 BRR  HZ I         125 13.45        19.3 0.23                            74 300 
 PAM  SZ EP   1    124 54.25                             149     0.4 7   79  37 
 PAM  SN ES   2    125 10.96                             149     0.1 5   79  37 
 PAM  SZ I         125 13.41         4.1 0.40                            79  37 
 GRA  SZ EP   2    124 56.77                             135    -0.3 5  128  16 
 GRA  SZ ES   2    125 16.06                             135    -0.5 5  128  16 
 GRA  SZ I         125 17.85         9.3 0.27                           128  16 
 NOR  SZ EP   2    125  6.81                             117    -0.7 4  234 235 
 NOR  SN ES   2    125 35.37                             117     0.2 4  234 235 
                                                                                
