 2013 1115 0654 42.8 L   7.293 -73.437111.4  RSN  6 0.5 1.3LRSN                1
 GAP=153        1.17       3.8     5.4  8.7 -0.1823E+01  0.1032E+02 -0.9421E+01E
 Epicentro: SABANA DE TORRES - SANTANDER                                       3
 ACTION:UPD 14-01-09 16:28 OP:ep   STATUS:               ID:20131115065442 L   I
 OLDACT:DUP 13-11-15 10:58 OP:nd   STATUS:               ID:20131115065001d    3
 2013-11-15-0650-00M.COL___279                                                 6
 STAT SP IPHASW D HRMM SECON CODA AMPLIT PERI AZIMU VELO AIN AR TRES W  DIS CAZ7
 BRR  HZ EP        654 58.37                             160   -0.0510 36.7 236 
 BRR  HN ES        655 10.01                             160   -0.5910 36.7 236 
 BRR  HZ I         655 10.79         5.9 0.10            161           36.7 236 
 BAR2 SZ EP        655  1.79                             141    0.2610 82.4 160 
 BAR2 SZ ES        655 16.68                             141    0.5410 82.4 160 
 BAR2 SZ I         655 17.57         7.3 0.34            143           82.4 160 
 OCA  HZ EP        655  3.34                             133    0.0110  105   7 
 OCA  HN ES        655 19.33                             133   -0.0010  105   7 
 OCA  HZ I         655 20.61         3.9 0.25            134            105   7 
 PTB  HZ EP        655  5.70                             124   -0.75 9  140 234 
 PTB  HN ES        655 24.56                             124   -0.33 9  140 234 
 PTB  HZ I         655 25.50         2.1 0.10            125            140 234 
 ZAR  HZ EP        655  8.74                             121    0.42 9  158 278 
 ZAR  HN ES        655 29.14                             121    0.92 9  158 278 
 ZAR  HZ I         655 30.70         3.0 0.26            121            158 278 
 SML  HZ EP        655 10.32                             117   -0.38 9  181 337 
 SML  HN ES        655 32.43                             117   -0.03 9  181 337 
 SML  HZ I         655 36.57         4.4 0.10            117            181 337 
                                                                                
