 2016  515 0347 16.9 L   6.804 -73.160146.0  RSN 14 0.4 2.0LRSN                1
 GAP=134        1.08       3.3     4.3  5.9 -0.3230E+01  0.5277E+01  0.2893E+01E
 Epicentro: LOS SANTOS - SANTANDER                                             3
 ACTION:UPD 16-08-18 17:46 OP:cam  STATUS:               ID:20160515034716 L   I
 OLDACT:UP  16-05-17 10:20 OP:ak   STATUS:               ID:20160515034716 L   3
 OLDACT:UP  16-05-15 14:01 OP:drio STATUS:               ID:20160515033748d    3
 OLDACT:UP  16-05-15 14:01 OP:drio STATUS:               ID:20160515033748d    3
 OLDACT:DUP 16-05-15 13:51 OP:drio STATUS:               ID:20160515033748d    3
 2016-05-15-0337-47M.COL___294                                                 6
 STAT SP IPHASW D HRMM SECON CODA AMPLIT PERI AZIMU VELO AIN AR TRES W  DIS CAZ7
 BAR2 EZ EP        347 36.43                             170   -0.1210 23.6 186 
 BAR2 EZ ES        347 51.40                             170   -0.4810 23.6 186 
 BAR2 EZ I         347 52.64        25.7 0.34            168           23.6 186 
 BRR  HZ EP        347 38.41                             153    0.4510 69.5 299 
 BRR  HE ES        347 55.42                             153    1.0110 69.5 299 
 BRR  HZ I         347 58.60        20.0 0.36            151           69.5 299 
 PAM  EZ EP        347 39.56                             151    0.4010 78.1  41 
 PAM  EE ES        347 56.81                             151    0.2710 78.1  41 
 PAM  EZ I         347 58.59        28.5 0.52            153           78.1  41 
 RUS  HZ EP        347 40.45                             144   -0.2510  101 175 
 RUS  HE ES        347 59.28                             144    0.0010  101 175 
 RUS  HZ I         348  0.21         6.5 0.28            143            101 175 
 PTB  HZ EP        347 43.39                             132   -0.34 9  146 259 
 PTB  HN ES        348  4.41                             132   -0.27 9  146 259 
 PTB  HZ I         348 11.43        12.0 0.44            131            146 259 
 OCA  HZ EP        347 44.70                             130   -0.45 9  160 354 
 OCA  HN ES        348  6.45                             130   -0.75 9  160 354 
 OCA  HZ I         348 11.68        17.1 0.18            130            160 354 
 SPBC HZ EP        347 45.25                             129   -0.09 9  163 218 
 SPBC HN ES        348  7.46                             129   -0.07 9  163 218 
 SPBC HZ I         348 13.31        10.3 0.10            128            163 218 
 ZAR  HZ EP   4    347 51.57                             123    2.40 0  202 292 
 ZAR  HE ES        348 14.23                             123   -0.12 9  202 292 
 ZAR  HZ I         348 20.50        12.6 0.28            122            202 292 
 NOR  HZ EP        347 53.18                             119    0.67 8  234 234 
 NOR  HE ES        348 20.21                             119   -0.10 8  234 234 
 NOR  HZ I         348 26.34         4.0 0.24            118            234 234 
 HEL  HZ EP   4    347 58.71                             115    1.76 0  271 256 
 HEL  HN ES   4    348 31.60                             115    3.41 0  271 256 
 HEL  HZ I         348 35.99         2.7 0.46            114            271 256 
 PTGC HZ EP   4    347 59.52                             112   -1.35 0  310 158 
 PTGC HE ES   4    348 32.88                             112   -2.29 0  310 158 
 PTGC HZ I         348 50.05         9.2 0.54            111            310 158 
 PRA  HZ EP        348 10.45                             107    0.08 6  392 209 
 PRA  HE ES        348 51.67                             107   -0.41 6  392 209 
 ORTC HZ EP        348 11.39                             106    0.65 6  395 216 
 ORTC HN ES   4    348 54.26                             106    1.51 0  395 216 
 ORTC HZ I         348 55.94         2.2 0.26            106            395 216 
 SJC  HZ EP   4    348 10.72                             106   -1.58 0  408 327 
 SJC  HN ES   4    348 51.88                             106   -3.65 0  408 327 
 SJC  HZ I         348 58.15         1.4 0.66            106            408 327 
                                                                                
