 2010  615 0515 10.0 L   6.802 -73.262139.3  RSN  8 0.2 1.8LRSN                1
 GAP=133        0.57       2.1     6.1  5.0 -0.5962E+01  0.9824E+01 -0.1814E+01E
 Epicentro: ZAPATOCA - SANTANDER                                               3
 ACTION:UP  10-08-24 10:10 OP:vdl  STATUS:               ID:20100615051510 L   I
 2010-06-15-0513-14S.COL___114                                                 6
 STAT SP IPHASW D HRMM SECON CODA AMPLIT PERI AZIMU VELO SNR AR TRES W  DIS CAZ7
 BAR2 SZ EP        515 29.18                             169     0.310   25 160 
 BAR2 SZ ES   1    515 44.03                             169     0.4 7   25 160 
 RUS  HZ EP        515 33.14                             142    -0.110  102 169 
 RUS  HN ES   1    515 51.17                             142    -0.3 7  102 169 
 RUS  HZ I         515 52.49         8.6 0.25                           102 169 
 BRI  SZ EP        515 33.84                             139     0.110  113  27 
 BRI  SZ ES   1    515 52.30                             139     0.1 7  113  27 
 GUE  SZ EP        515 34.30                             137    -0.110  120  18 
 GUE  SZ ES   1    515 53.16                             137    -0.3 7  120  18 
 GRA  SZ IP        515 35.09                             135     0.010  130  23 
 GRA  SZ ES   1    515 54.36                             135    -0.2 7  130  23 
 OCA  SZ EP        515 37.82                             128     0.1 9  159 358 
 OCA  SZ ES   1    515 59.12                             128    -0.2 7  159 358 
 OCA  SZ I         516  2.98        14.2 0.16                           159 358 
 CHI  HZ EP   2    515 47.67                             116     0.6 4  246 192 
 CHI  HE ES   1    516 15.51                             116    -0.4 6  246 192 
 CHI  HZ I         516 19.88         2.2 0.39                           246 192 
 HEL  HN ES   2    516 18.56                             115     0.0 4  260 255 
 HEL  HZ I         516 29.02         4.3 0.58                           260 255 
                                                                                
