 2017  715 0810 13.0 L   6.767 -73.143153.1  RSN  5 0.4 1.2LRSN                1
 GAP=235        0.93       7.4     6.7  7.4  0.3106E+02  0.4889E+01 -0.1636E+01E
 Epicentro: LOS SANTOS - SANTANDER                                             3
 ACTION:UPD 17-08-30 15:33 OP:rebc STATUS:               ID:20170715081013 L   I
 OLDACT:UP  17-07-15 17:53 OP:dnl  STATUS:               ID:20170715080737     3
 OLDACT:REG 17-07-15 12:39 OP:dnl  STATUS:               ID:20170715080737     3
 2017-07-15-0808-00M.COL___368                                                 6
 STAT SP IPHASW D HRMM SECON CODA AMPLIT PERI AZIMU VELO AIN AR TRES W  DIS CAZ7
 BAR2 EZ EP        810 33.08                             172   -0.3210 19.8 193 
 BAR2 EZ ES        810 49.06                             172   -0.2910 19.8 193 
 BAR2 EZ I         810 49.31         3.4 0.72            164           19.8 193 
 BRR  HZ EP        810 34.99                             153   -0.0210 73.3 301 
 BRR  HN ES        810 52.33                             153    0.1110 73.3 301 
 RUS  HZ EP        810 37.44                             146    0.2610 96.9 176 
 RUS  HN ES        810 56.51                             146    0.4310 96.9 176 
 PTB  HZ EP        810 40.20                             134   -0.30 9  147 260 
 PTB  HN ES        811  1.52                             134   -0.46 9  147 260 
 PTB  HZ I         811  8.45         1.6 0.48            129            147 260 
 ZAR  HE ES        811 12.57                             124    0.69 8  206 293 
 ZAR  HZ I         811 14.99         1.6 0.36            122            206 293 
                                                                                
