 2012  215 1722 52.5 L   6.086 -73.811 95.8  RSN  7 0.2 1.5LRSN                1
 GAP=139        0.51       2.8     2.1  6.9  0.3343E+00  0.1886E+01 -0.6069E+00E
 ACTION:UP  12-03-07 16:30 OP:epov STATUS:               ID:20120215172252 L   I
 2012-02-15-1720-00M.COL___188                                                 6
 STAT SP IPHASW D HRMM SECON CODA AMPLIT PERI AZIMU VELO AIN AR TRES W  DIS CAZ7
 RUS  HZ EP   1   1723 10.18                             136   -0.02 7 83.4 105 
 RUS  HN ES   1   1723 24.25                             136    0.22 7 83.4 105 
 RUS  HZ I        1723 28.41         3.8 0.61                          83.4 105 
 PTB  HZ EP   1   1723  9.49                             135   -0.40 7 87.2 305 
 PTB  HN ES   1   1723 23.32                             135   -0.14 7 87.2 305 
 BAR2 SZ EP       1723 10.34                             134   -0.0310 89.3  51 
 BAR2 SZ ES   1   1723 23.99                             134   -0.34 7 89.3  51 
 BAR2 SZ I        1723 25.64        12.1 0.17                          89.3  51 
 BRR  HN ES   1   1723 28.16                             126    0.34 7  113   6 
 GIR2 SZ EP   2   1723 14.38                             123    0.25 5  129  32 
 NOR  SN ES   1   1723 31.23                             122    0.17 7  131 244 
 ZAR  HN ES   1   1723 43.57                             112    0.20 6  194 323 
 ZAR  HZ I        1723 46.13         4.6 0.25                           194 323 
                                                                                
