 2016  915 1028  8.2 L   6.773 -73.125149.6  RSN  7 0.4 1.8LRSN                1
 GAP=258        0.99       5.7     6.3  7.7 -0.2108E+01  0.1264E+02 -0.1535E+01E
 Epicentro: LOS SANTOS - SANTANDER                                             3
 ACTION:UPD 17-08-17 21:12 OP:lp   STATUS:               ID:20160915102808 L   I
 OLDACT:REG 16-09-15 22:17 OP:lv   STATUS:               ID:20160915101401     3
 2016-09-15-1018-00M.COL___327                                                 6
 STAT SP IPHASW D HRMM SECON CODA AMPLIT PERI AZIMU VELO AIN AR TRES W  DIS CAZ7
 BAR2 EZ IP     C 1028 28.39                             172    0.0910 20.9 198 
 BAR2 EZ ES       1028 43.48                             172   -0.4610 20.9 198 
 BAR2 EZ I        1028 44.70        11.5 0.14            167           20.9 198 
 BRR  HZ EP       1028 30.26                             152    0.2510 74.7 300 
 BRR  HN ES       1028 47.65                             152    0.6610 74.7 300 
 BRR  HZ I        1028 49.82         6.7 0.36            148           74.7 300 
 PTB  HZ EP       1028 35.40                             133   -0.29 9  149 260 
 PTB  HN ES       1028 56.34                             133   -0.75 9  149 260 
 PTB  HZ I        1029  2.14         6.8 0.16            130            149 260 
 SPBC HZ EP   2   1028 37.34                             130    0.37 5  162 220 
 SPBC HN ES       1028 59.59                             130    0.22 9  162 220 
 SPBC HZ I        1029  2.72         8.6 0.10            129            162 220 
 ZAR  HZ EP       1028 41.03                             123   -0.26 8  207 293 
 ZAR  HN ES       1029  7.12                             123    0.07 8  207 293 
 ZAR  HZ I        1029 12.54         9.1 0.44            122            207 293 
 NOR  HZ EP   4   1028 42.42                             119   -1.80 0  235 235 
 NOR  HN ES       1029 12.64                             119    0.36 8  235 235 
 NOR  HZ I        1029 17.84         4.4 0.38            119            235 235 
 GUY2CHZ EP   4   1028 53.53                             113    1.47 0  301 235 
 GUY2CHN ES   4   1029 27.67                             113    1.45 0  301 235 
 GUY2CHZ I        1029 34.97         4.4 0.48                           301 235 
                                                                                
