 2010  615 1209 53.7 L   6.830 -73.107145.3  RSN  4 0.2 1.6LRSN                1
 GAP=173        0.39       4.6    19.8  5.7 -0.6602E+02  0.3126E+02 -0.6325E+01E
 Epicentro: LOS SANTOS - SANTANDER                                             3
 ACTION:UP  10-08-24 10:10 OP:vdl  STATUS:               ID:20100615120953 L   I
 2010-06-15-1208-15S.COL___114                                                 6
 STAT SP IPHASW D HRMM SECON CODA AMPLIT PERI AZIMU VELO SNR AR TRES W  DIS CAZ7
 BAR2 SZ EP   1   1210 13.20                             169    -0.1 7   28 198 
 BAR2 SZ ES   2   1210 28.84                             169     0.2 5   28 198 
 RUS  HZ EP   1   1210 17.82                             143     0.2 7  104 179 
 RUS  HZ I        1210 18.57         5.5 0.16                           104 179 
 RUS  HN ES   2   1210 36.00                             143    -0.3 5  104 179 
 GUE  SZ EP   1   1210 17.99                             140     0.0 7  112  10 
 CHI  HZ EP   1   1210 31.76                             116    -0.1 6  253 196 
 CHI  HE ES   2   1211  1.59                             116     0.0 4  253 196 
 CHI  HZ I        1211  8.46         3.1 0.67                           253 196 
                                                                                
