 2016 1215 1211 57.3 L   6.798 -73.160146.3  RSN 10 0.3 2.1LRSN                1
 GAP=135        0.90       3.7     4.3  5.8 -0.2718E+01  0.6200E+00  0.6994E+01E
 Epicentro: LOS SANTOS - SANTANDER                                             3
 ACTION:UPD 17-01-11 20:15 OP:rebc STATUS:               ID:20161215121157 L   I
 OLDACT:UP  16-12-16 00:10 OP:ar   STATUS:               ID:20161215120742     3
 OLDACT:UP  16-12-16 00:09 OP:ar   STATUS:               ID:20161215120742     3
 OLDACT:REG 16-12-15 21:54 OP:ar   STATUS:               ID:20161215120742     3
 2016-12-15-1208-00M.COL___343                                                 6
 STAT SP IPHASW D HRMM SECON CODA AMPLIT PERI AZIMU VELO AIN AR TRES W  DIS CAZ7
 BAR2 EZ EP       1212 16.89                             171   -0.1110 22.9 186 
 BAR2 EZ ES       1212 32.01                             171   -0.3410 22.9 186 
 BAR2 EZ I        1212 32.87        26.3 0.32            170           22.9 186 
 BRR  HZ EP       1212 18.74                             153    0.2910 69.9 299 
 BRR  HN ES       1212 35.68                             153    0.7510 69.9 299 
 BRR  HZ I        1212 37.30        17.0 0.14            149           69.9 299 
 PAM  EZ EP       1212 19.75                             151    0.1010 78.5  40 
 PAM  EN ES       1212 36.93                             151   -0.1510 78.5  40 
 PAM  EZ I        1212 39.10        34.2 0.50            152           78.5  40 
 RUS  HZ EP       1212 20.93                             144   -0.1810  101 175 
 RUS  HN ES       1212 39.72                             144    0.0510  101 175 
 RUS  HZ I        1212 40.61        10.0 0.22            144            101 175 
 PTB  HZ EP       1212 23.70                             132   -0.48 9  146 259 
 PTB  HN ES       1212 44.68                             132   -0.45 9  146 259 
 PTB  HZ I        1212 46.58         8.8 0.38            130            146 259 
 ZAR  HZ EP   9   1212 28.77                             123   -0.88 0  203 292 
 ZAR  HN ES       1212 53.58                             122   -0.41 9  203 292 
 ZAR  HZ I        1213  3.62        13.9 0.36            120            203 292 
 CHI  HZ EP       1212 35.09                             117    0.11 8  248 195 
 CHI  HN ES       1213  4.38                             117    0.03 8  248 195 
 CHI  HZ I        1213  7.78         9.5 0.38            117            248 195 
 ROSC BZ EP   4   1212 40.41                             117    5.06 0  252 211 
 ROSC BN ES       1213  5.54                             117    0.51 8  252 211 
 ROSC BZ I        1213 11.34        12.7 0.50            116            252 211 
 GUY2CHZ EP   4   1212 42.27                             112    1.48 0  300 235 
 GUY2CHN ES   4   1213 17.32                             112    2.62 0  300 235 
 GUY2CHZ I        1213 20.94         4.6 0.32                           300 235 
 PTGC HZ EP   4   1212 40.04                             112   -1.20 0  309 158 
 PTGC HN ES   4   1213 12.54                             112   -2.96 0  309 158 
 PTGC HZ I        1213 15.54        16.8 0.70            111            309 158 
                                                                                
