 2014  715 1305 42.8 L   6.807 -73.099146.7  RSN 21 0.6 2.6LRSN                1
 GAP=123        1.20       2.8     4.0  4.9 -0.3228E+01  0.4306E+01  0.1830E+01E
 Epicentro: LOS SANTOS - SANTANDER                                             3
 ACTION:UPD 15-03-16 20:44 OP:nd   STATUS:               ID:20140715130542 L   I
 OLDACT:REG 14-07-15 21:28 OP:stll STATUS:               ID:20140715125818     3
 2014-07-15-1258-18M.COL___256                                                 6
 STAT SP IPHASW D HRMM SECON CODA AMPLIT PERI AZIMU VELO AIN AR TRES W  DIS CAZ7
 BAR2 SZ IP     C 13 6  2.78                             170    0.1710 25.5 201 
 BAR2 SZ I        13 6  3.21        63.4 0.20            169           25.5 201 
 BAR2 SZ ES       13 6 17.63                             170   -0.4110 25.5 201 
 PAM  SZ EP     D 13 6  5.60                             152    0.6810 73.6  37 
 PAM  SN ES       13 6 22.24                             152    0.0910 73.6  37 
 PAM  SZ I        13 6 24.91        48.6 0.50            155           73.6  37 
 BRR  HZ IP     D 13 6  4.67                             151    0.3510 75.4 296 
 BRR  HZ I        13 6  6.16        38.6 0.10            150           75.4 296 
 BRR  HN ES       13 6 21.60                             151    0.5210 75.4 296 
 RUS  HZ EP     D 13 6  6.60                             144   -0.1110  101 179 
 RUS  HZ I        13 6  7.54        25.8 0.42            146            101 179 
 RUS  HN ES       13 6 25.25                             144   -0.0910  101 179 
 PTB  HZ EP   9   13 6  9.39                             131   -0.96 0  153 259 
 PTB  HN ES       13 6 30.40                                   -0.45 9  153 259 
 PTB  HZ I        13 6 36.68        63.8 0.38            131            153 259 
 OCA  HZ EP       13 6 11.79                             130    0.59 9  160 351 
 OCA  HE ES       13 6 33.29                             130   -0.04 9  160 351 
 OCA  HZ I        13 6 38.75        28.2 0.24            131            160 351 
 SPBC HZ EP       13 6 11.64                             128   -0.13 9  167 220 
 SPBC HE ES       13 6 34.25                             128   -0.09 9  167 220 
 SPBC HZ I        13 6 40.75        73.8 0.24            129            167 220 
 ZAR  HZ EP       13 6 15.20                             122   -0.60 8  209 291 
 ZAR  HE ES       13 6 40.91                             122   -0.60 8  209 291 
 ZAR  HZ I        13 6 47.20        55.1 0.34            122            209 291 
 NOR  HZ EP       13 6 18.70                             118   -0.41 8  239 235 
 NOR  HN ES       13 6 47.32                             118   -0.09 8  239 235 
 NOR  HZ I        13 6 50.48        28.2 0.20            119            239 235 
 SML  HZ EP       13 6 19.13                             117   -0.54 8  245 334 
 SML  HN ES       13 6 47.48                             117   -0.92 8  245 334 
 SML  HZ I        13 6 52.45        56.8 0.10            119            245 334 
 CHI  HZ EP       13 6 20.63                             117   -0.18 8  251 196 
 CHI  HN ES       13 6 49.34                             117   -1.10 8  251 196 
 CHI  HZ I        13 6 54.02        13.2 0.38            119            251 196 
 HEL  HZ EP       13 6 24.16                             114    0.49 7  277 256 
 HEL  HN ES       13 6 55.75                             114    0.23 7  277 256 
 HEL  HZ I        13 7  1.51        20.8 0.34            115            277 256 
 SOCV BZ EP     C 13 6 25.26                             113   -0.12 7  297  56 
 SOCV BN ES   4   13 6 57.06                             113   -1.51 0  297  56 
 GUY2CHZ EP       13 6 27.08                             112    0.07 7  306 235 
 GUY2CHE ES       13 7  3.23                             112    1.76 7  306 235 
 GUY2CHZ I        13 7  9.61        27.6 0.76                           306 235 
 RREF HZ EP       13 6 29.99                             111    0.47 7  326 230 
 RREF HE ES       13 7  6.33                             111    0.40 7  326 230 
 RREF HZ I        13 7 12.57        20.5 0.30            112            326 230 
 CBOC HZ EP       13 6 30.48                             110    0.11 7  339 252 
 CBOC HZ I        13 6 31.48         9.4 0.38            111            339 252 
 DBB  SZ EP       13 6 30.29                             109   -0.64 7  345 274 
 DBB  SZ ES   4   13 7  6.67                             109   -1.78 0  345 274 
 DBB  SZ I        13 7  9.27        37.2 0.52            110            345 274 
 TOL  SZ EP       13 6 31.29                             109   -0.32 6  348 225 
 TOL  SN ES       13 7  9.80                             109    0.15 6  348 225 
 ANIL HZ EP       13 6 34.27                             108    1.12 6  362 225 
 ANIL HN ES       13 7 13.36                             108    0.95 6  362 225 
 PRA  HZ IP       13 6 35.97                             106   -0.79 6  395 210 
 PRA  HZ E        13 6 35.97                                            395 210 
 PRA  HZ EP       13 6 36.96                             106    0.20 6  395 210 
 PRA  HN ES       13 7 17.81                             106   -1.02 6  395 210 
 PRA  HZ I        13 7 23.28        13.2 0.52            108            395 210 
 ORTC HZ EP       13 6 36.96                             106   -0.25 6  399 217 
 ORTC HE ES       13 7 19.20                             106   -0.43 6  399 217 
 ORTC HZ I        13 7 27.43        10.2 0.66            107            399 217 
                                                                                
