 2010 1115 1849 53.4 L   6.756 -73.111147.9  RSN  5 0.4 1.9LRSN                1
 GAP=238        0.86       6.7     9.9  9.4  0.3348E+02  0.4393E+01  0.6546E+01E
 Epicentro: LOS SANTOS - SANTANDER                                             3
 ACTION:UP  10-12-17 16:52 OP:REBC STATUS:               ID:20101115184953 L   I
 2010-11-15-1848-27S.COL___129                                                 6
 STAT SP IPHASW D HRMM SECON CODA AMPLIT PERI AZIMU VELO SNR AR TRES W  DIS CAZ7
 BAR2 SZ ES   2   1850 27.97                             172    -0.7 5   20 204 
 BAR2 SZ I        1850 30.69        20.5 0.35                            20 204 
 BRR  HZ EP       1850 14.83                             151    -0.310   77 300 
 BRR  HN ES       1850 32.35                             151     0.310   77 300 
 BRR  HZ I        1850 34.59        10.5 0.76                            77 300 
 RUS  HZ EP       1850 17.25                             146     0.210   96 178 
 RUS  HN ES       1850 35.47                             146     0.010   96 178 
 RUS  HZ I        1850 37.03         8.2 0.21                            96 178 
 NOR  SN ES   2   1850 56.61                             119    -0.7 4  235 236 
 RREF HN ES   2   1851 16.10                             111     0.4 3  322 230 
 RREF HZ I        1851 19.59         4.0 1.62                           322 230 
                                                                                
