 2017  715 1028 22.7 L   6.784 -73.139133.9  RSN 12 0.4 1.6LRSN                1
 GAP=113        0.80       2.7     2.5  4.4  0.7156E+00  0.3171E+01  0.1803E+01E
 Epicentro: LOS SANTOS - SANTANDER                                             3
 ACTION:UPD 17-08-30 15:33 OP:rebc STATUS:               ID:20170715102822 L   I
 OLDACT:REG 17-07-15 20:09 OP:dhb  STATUS:               ID:20170715102742     3
 2017-07-15-1028-00M.COL___362                                                 6
 STAT SP IPHASW D HRMM SECON CODA AMPLIT PERI AZIMU VELO AIN AR TRES W  DIS CAZ7
 BAR2 EZ IP       1028 40.56                             170   -0.3210 21.7 193 
 BAR2 EZ ES       1028 54.95                             170   -0.1010 21.7 193 
 BAR2 EZ I        1028 56.47         9.7 0.32            171           21.7 193 
 BRR  HZ IP     C 1028 42.59                             150   -0.0910 72.7 300 
 BRR  HN ES       1028 58.32                             150    0.0710 72.7 300 
 BRR  HZ I        1029  2.75         5.3 0.12            149           72.7 300 
 PAM  EZ EP       1028 43.40                             148   -0.3310 78.3  38 
 PAM  EN ES       1029  0.40                             148    0.2710 78.3  38 
 PAM  EZ I        1029  1.61         4.4 0.15            151           78.3  38 
 RUS  HZ IP     C 1028 44.99                             142   -0.1810 98.7 176 
 RUS  HE ES       1029  3.19                             142    0.5010 98.7 176 
 RUS  HZ I        1029  3.95         4.1 0.24            144           98.7 176 
 PTB  HZ EP   3   1028 47.42                             129   -1.35 2  148 260 
 PTB  HN ES       1029  9.29                             129    0.19 9  148 260 
 PTB  HZ I        1029 10.23         3.4 0.25            130            148 260 
 SPBC HE ES       1029 11.11                             126   -0.59 9  162 220 
 YPLC HZ EP       1028 51.32                             124   -0.15 9  175 151 
 YPLC HE ES       1029 14.17                             124    0.26 9  175 151 
 ZAR  HZ EP       1028 55.06                             120    0.51 8  205 293 
 ZAR  HE ES       1029 19.13                             120   -0.26 8  205 293 
 ZAR  HZ I        1029 25.24         7.9 0.25            120            205 293 
 NOR  HZ IP     C 1028 57.16                             116   -0.57 8  234 235 
 NOR  HN ES       1029 25.08                             116    0.04 8  234 235 
 NOR  HZ I        1029 26.78         3.3 0.24            117            234 235 
 HEL  HZ EP   2   1029  2.69                             112    0.32 4  272 256 
 HEL  HN ES       1029 33.50                             112    0.19 8  272 256 
 HEL  HZ I        1029 40.32         2.2 0.22            113            272 256 
 URE  HZ EP   1   1029  4.08                             111    0.70 6  285 292 
 URE  HN ES   4   1029 33.70                             111   -1.41 0  285 292 
 URE  HZ I        1029 34.62         2.3 0.10            112            285 292 
 GUY2CHZ EP       1029  6.17                             110    0.43 7  301 235 
 GUY2CHN ES   2   1029 39.82                             110    0.51 4  301 235 
 GUY2CHZ I        1029 47.28         3.4 0.34                           301 235 
                                                                                
