 2011  615 1949 35.7 L   6.769 -73.125141.5  RSN  6 0.3 2.1LRSN                1
 GAP=141        0.67       4.5     5.1  6.4 -0.7818E+01  0.4980E+01 -0.3956E+01E
 Epicentro: LOS SANTOS - SANTANDER                                             3
 ACTION:UP  11-07-14 19:05 OP:ep   STATUS:               ID:20110615194935 L   I
 2011-06-15-1945-37S.COL___138                                                 6
 STAT SP IPHASW D HRMM SECON CODA AMPLIT PERI AZIMU VELO SNR AR TRES W  DIS CAZ7
 BAR2 SZ EP       1949 54.74                             171    -0.110   21 198 
 BAR2 SZ ES   1   1950  9.19                             171    -0.5 7   21 198 
 BAR2 SZ I        1950 10.44        35.5 0.11                            21 198 
 BRR  HZ EP       1949 56.70                             150     0.110   75 300 
 BRR  HE ES   1   1950 13.33                             150     0.4 7   75 300 
 BRR  HZ I        1950 14.76        23.3 0.12                            75 300 
 PAM  SZ EP   1   1949 57.23                             150    -0.3 7   79  37 
 RUS  HZ EP   2   1949 59.18                             144     0.4 5   97 177 
 RUS  HN ES   1   1950 17.17                             144     0.4 7   97 177 
 RUS  HZ I        1950 18.68        14.1 0.49                            97 177 
 BRI  SZ EP   1   1949 59.54                             140     0.1 7  111  19 
 NOR  SZ EP   1   1950 11.27                             118     0.1 6  235 235 
 NOR  SN ES       1950 38.61                             118    -0.3 8  235 235 
                                                                                
