 2015 1015 1750  1.6 L   6.823 -73.130139.3  RSN  8 0.4 1.7LRSN                1
 GAP=137        1.07       3.7     5.4  8.2 -0.1314E+01  0.1243E+02 -0.9894E+01E
 Epicentro: LOS SANTOS - SANTANDER                                             3
 ACTION:UPD 15-12-22 20:40 OP:cam  STATUS:               ID:20151015175001 L   I
 OLDACT:REG 15-10-15 22:24 OP:stll STATUS:               ID:20151015174748     3
 2015-10-15-1747-48M.COL___339                                                 6
 STAT SP IPHASW D HRMM SECON CODA AMPLIT PERI AZIMU VELO AIN AR TRES W  DIS CAZ7
 BAR2 EZ EP       1750 20.45                             169   -0.0210 26.1 193 
 BAR2 EZ ES       1750 35.17                             169   -0.0610 26.1 193 
 BAR2 EZ I        1750 36.31        12.6 0.18            172           26.1 193 
 BRR  HZ EP       1750 22.46                             151    0.4310 71.6 296 
 BRR  HZ I        1750 22.76        12.8 0.26            150           71.6 296 
 BRR  HN ES       1750 38.28                             151    0.2810 71.6 296 
 PAM  EZ EP       1750 23.60                             150    0.6910 74.3  40 
 PAM  EN ES       1750 39.69                             150    0.1310 74.3  40 
 PAM  EZ I        1750 42.73         6.9 0.48            149           74.3  40 
 RUS  HE ES       1750 42.45                             142   -0.5810  103 177 
 RUS  HZ I        1750 43.76         4.3 0.24            144            103 177 
 OCA  HN ES       1750 50.29                             128   -0.39 9  158 352 
 SPBC HN ES       1750 51.75                             127   -0.19 9  166 219 
 ZAR  HN ES       1750 59.13                             121    0.43 9  205 291 
 SML  HZ EP       1750 37.40                             116   -0.26 8  242 335 
 SML  HE ES       1751  4.99                             116   -0.83 8  242 335 
 SML  HZ I        1751 15.15         4.9 0.22            116            242 335 
                                                                                
