 2010  315 1200 33.3 L   6.821 -72.980144.3  RSN  4 0.3 1.6LRSN                1
 GAP=255        0.60       6.3    11.9  6.9  0.4298E+02 -0.1334E+02 -0.3488E+00E
 Epicentro: CEPITA - SANTANDER                                                 3
 ACTION:UP  10-08-24 09:54 OP:vdl  STATUS:               ID:20100315120033 L   I
 2010-03-15-1156-51S.COL___095                                                 6
 STAT SP IPHASW D HRMM SECON CODA AMPLIT PERI AZIMU VELO SNR AR TRES W  DIS CAZ7
 BAR2 SZ IP       12 0 53.37                             167     0.310   34 222 
 BAR2 SZ ES   1   12 1  8.41                             167     0.0 7   34 222 
 BRR  HZ IP       12 0 55.23                             148     0.010   87 291 
 BRR  HZ I        12 1  7.77        15.6 0.58                            87 291 
 BRR  HN ES   1   12 1 12.18                             148    -0.2 7   87 291 
 RUS  HZ EP   2   12 0 56.56                             143    -0.6 5  103 186 
 RUS  HN ES   2   12 1 15.49                             143    -0.2 5  103 186 
 RUS  HZ I        12 1 17.21         4.1 0.43                           103 186 
 CHI  HZ EP   2   12 1 11.47                             116    -0.3 4  256 199 
 CHI  HN ES   2   12 1 42.05                             116     0.3 4  256 199 
 CHI  HZ I        12 1 49.26         2.0 0.57                           256 199 
                                                                                
