 2013  915 1253 21.8 L   6.756 -73.169153.0  RSN  5 0.3 2.1LRSN                1
 GAP=198        0.81       5.0     6.3  7.1  0.8120E+01  0.1930E+01 -0.1381E+02E
 Epicentro: LOS SANTOS - SANTANDER                                             3
 ACTION:UPD 13-10-22 09:22 OP:ep   STATUS:               ID:20130915125321 L   I
 OLDACT:UP  13-09-15 15:41 OP:cam  STATUS:               ID:20130915124959     3
 OLDACT:REG 13-09-15 14:40 OP:cam  STATUS:               ID:20130915124959     3
 2013-09-15-1249-59M.COL___269                                                 6
 STAT SP IPHASW D HRMM SECON CODA AMPLIT PERI AZIMU VELO AIN AR TRES W  DIS CAZ7
 BAR2 SZ EP       1253 42.05                             173   -0.1210 18.2 185 
 BAR2 SZ ES       1253 57.76                             173   -0.3310 18.2 185 
 BAR2 SZ I        1253 58.22        23.7 0.22            178           18.2 185 
 BRR  HZ EP       1253 44.03                             154    0.3310 71.4 303 
 BRR  HN ES       1254  1.37                             154    0.5510 71.4 303 
 BRR  HZ I        1254  3.70        15.3 0.14            151           71.4 303 
 RUS  HN ES   1   1254  4.83                             147    0.08 7 96.0 174 
 PTB  HZ EP   1   1253 49.02                             134    0.00 7  144 261 
 PTB  HN ES       1254 10.00                             134   -0.28 9  144 261 
 PTB  HZ I        1254 11.09        12.8 0.18            135            144 261 
 SML  HZ EP   1   1253 59.41                             119    0.26 6  247 336 
 SML  HE ES       1254 27.81                             119   -0.51 8  247 336 
 SML  HZ I        1254 36.36        10.9 0.24            118            247 336 
                                                                                
