 2010  615 1934  2.6 L   6.765 -73.030150.8  RSN 10 0.5 2.9LRSN                1
 GAP=170        0.82       4.0     8.5  8.2 -0.1772E+02  0.2246E+02  0.8454E+00E
 Epicentro: CEPITA - SANTANDER                                                 3
 ACTION:UP  10-08-24 10:10 OP:vdl  STATUS:               ID:20100615193402 L   I
 2010-06-15-1931-19S.COL___114                                                 6
 STAT SP IPHASW D HRMM SECON CODA AMPLIT PERI AZIMU VELO SNR AR TRES W  DIS CAZ7
 BAR2 SZ IP     C 1934 22.61                             170    -0.310   26 222 
 BAR2 SZ ES   2   1934 38.17                             170    -0.6 5   26 222 
 RUS  HZ IP       1934 26.48                             146    -0.110   97 184 
 RUS  HZ I        1934 28.16        61.2 0.41                            97 184 
 RUS  HE ES   2   1934 45.49                             146     0.2 5   97 184 
 BRI  SZ EP   1   1934 27.23                             142     0.2 7  108  14 
 BRI  SZ ES   2   1934 46.35                             142     0.3 5  108  14 
 GUE  SZ EP   1   1934 27.65                             140    -0.3 7  118   6 
 GUE  SZ ES   2   1934 49.00                             140     1.3 5  118   6 
 GRA  SZ IP     D 1934 28.45                             138     0.110  126  11 
 GRA  SZ ES   2   1934 48.70                             138     0.2 5  126  11 
 OCA  SZ EP   1   1934 31.56                             130    -0.3 7  166 349 
 OCA  SZ ES   2   1934 54.11                             130    -0.6 5  166 349 
 OCA  SZ I        1934 58.02       151.1 0.39                           166 349 
 CHI  HZ EP   1   1934 40.48                             118    -0.1 6  249 198 
 CHI  HE ES   2   1935  9.72                             118    -0.5 4  249 198 
 CHI  HZ I        1935 14.11        31.7 0.31                           249 198 
 ROSC BZ EP   1   1934 42.20                             117     0.8 6  256 214 
 ROSC BE ES   2   1935 13.04                             117     1.4 4  256 214 
 ROSC BZ I        1935 20.41        60.1 0.45                           256 214 
 HEL  HZ EP   1   1934 44.34                             115     0.0 6  284 257 
 HEL  HE ES   2   1935 16.65                             115    -0.3 4  284 257 
 HEL  HZ I        1935 22.35        48.4 0.24                           284 257 
 TOL  SZ EP   1   1934 52.12                             110     0.3 5  350 227 
 TOL  SZ ES   2   1935 30.29                             110     0.1 3  350 227 
                                                                                
