 2010 1015 1430 23.0 L   6.787 -72.952126.0  RSN  6 0.4 1.5LRSN                1
 GAP=181        1.03       6.6    11.8 16.3 -0.1938E+02 -0.7965E+02  0.3793E+00E
 Epicentro: CEPITA - SANTANDER                                                 3
 ACTION:UP  11-02-18 11:09 OP:tino STATUS:               ID:20101015143023 L   I
 2010-10-15-1426-45S.COL___125                                                 6
 STAT SP IPHASW D HRMM SECON CODA AMPLIT PERI AZIMU VELO SNR AR TRES W  DIS CAZ7
 BAR2 SZ EP       1430 40.67                             165     0.110   34 230 
 BAR2 SZ I        1431  0.30         7.8 0.61                            34 230 
 BTL  SZ EP       1430 41.05                             163     0.310   38 293 
 BRR  HZ EP       1430 42.77                             142    -0.710   91 293 
 BRR  HN ES   1   1430 59.87                             142     0.5 7   91 293 
 BRR  HZ I        1431  3.44        13.3 0.13                            91 293 
 RUS  HZ EP   2   1430 45.14                             140     0.3 5  100 188 
 RUS  HN ES   2   1431  1.33                             140    -0.5 5  100 188 
 RUS  HZ I        1431  4.32         2.9 0.18                           100 188 
 GUE  SZ EP   1   1430 45.72                             135    -0.1 7  115   1 
 GRA  SZ EP       1430 46.55                             133     0.310  122   8 
 GRA  SZ ES   1   1431  4.16                             133    -0.3 7  122   8 
 GRA  SZ I        1431  7.53         7.5 0.39                           122   8 
                                                                                
