 2017  715 1345  0.0 L   6.819 -73.150141.0  RSN 23 0.6 2.5LRSN                1
 GAP= 65        1.19       3.1     2.9  5.2  0.4151E+00  0.4719E+01  0.1428E+01E
 Epicentro: LOS SANTOS - SANTANDER                                             3
 ACTION:UPD 17-08-30 15:33 OP:rebc STATUS:               ID:20170715134500 L   I
 OLDACT:UP  17-07-15 23:31 OP:dhb  STATUS:               ID:20170715133737     3
 OLDACT:REG 17-07-15 20:34 OP:dhb  STATUS:               ID:20170715133737     3
 2017-07-15-1338-00M.COL___377                                                 6
 STAT SP IPHASW D HRMM SECON CODA AMPLIT PERI AZIMU VELO AIN AR TRES W  DIS CAZ7
 BAR2 EZ IP     C 1345 19.01                             170   -0.1210 25.3 188 
 BAR2 EZ ES       1345 33.67                             170   -0.3610 25.3 188 
 BAR2 EZ I        1345 35.17       102.9 0.13            167           25.3 188 
 BRR  HZ IP     C 1345 21.00                             152    0.4110 69.8 297 
 BRR  HN ES       1345 37.87                             152    1.2510 69.8 297 
 BRR  HZ I        1345 42.32        69.7 0.14            150           69.8 297 
 PAM  EZ IP     C 1345 21.87                             150    0.2110 76.1  41 
 PAM  EE ES       1345 39.08                             150    0.5510 76.1  41 
 PAM  EZ I        1345 40.92        75.9 0.48            154           76.1  41 
 RUS  HZ EP       1345 23.10                             142   -0.3810  103 176 
 RUS  HN ES       1345 41.03                             142   -0.7310  103 176 
 RUS  HZ I        1345 42.28        75.3 0.28            142            103 176 
 PTB  HZ EP       1345 25.93                             131   -0.68 9  148 258 
 PTB  HN ES       1345 46.41                             131   -0.93 9  148 258 
 PTB  HZ I        1345 49.96        26.8 0.28            130            148 258 
 TAM  HZ IP     D 1345 27.39                             129   -0.04 9  156 106 
 TAM  HE ES       1345 48.58                             129   -0.22 9  156 106 
 TAM  HZ I        1345 49.52        37.8 0.38            132            156 106 
 YPLC HZ IP     D 1345 29.45                             125   -0.24 9  179 152 
 YPLC HE ES       1345 53.03                             125    0.21 9  179 152 
 YPLC HZ I        1345 55.79        48.0 0.28            127            179 152 
 ZAR  HZ EP       1345 32.21                             121    0.17 9  203 292 
 ZAR  HN ES       1345 57.67                             121    0.66 9  203 292 
 ZAR  HZ I        1346  3.46        55.3 0.38            121            203 292 
 TABC EZ EP   1   1345 36.25                             118    0.58 6  231 210 
 TABC EZ ES   2   1346  3.22                             118   -0.25 4  231 210 
 TABC EZ I        1346  8.29        27.1 0.38            118            231 210 
 NOR  HZ EP       1345 35.75                             117    0.17 8  236 234 
 NOR  HE ES       1346  3.11                             117   -0.20 8  236 234 
 NOR  HZ I        1346  5.81         9.7 0.29            117            236 234 
 ROSC BZ EP       1345 38.07                             116    0.00 8  254 211 
 ROSC BN ES   3   1346  8.91                             116    1.18 2  254 211 
 ROSC BZ I        1346 15.96        30.3 0.35            116            254 211 
 HEL  HZ EP       1345 40.97                             114    0.96 8  272 255 
 HEL  HN ES       1346 10.65                             114   -0.55 8  272 255 
 HEL  HZ I        1346 19.77        11.5 0.34            114            272 255 
 URE  HZ EP       1345 40.57                             113   -0.17 7  283 292 
 URE  HN ES   4   1346 11.21                             113   -1.27 0  283 292 
 URE  HZ I        1346 20.69        24.1 0.29            113            283 292 
 GUY2CHZ EP   3   1345 44.67                             111    1.15 2  302 234 
 GUY2CHE ES       1346 17.44                             111    0.00 7  302 234 
 GUY2CHZ I        1346 24.39         9.6 0.30                           302 234 
 VIL  EZ EP       1345 44.22                             111    0.76 7  305 191 
 VIL  HN ES       1346 17.61                             111    0.28 7  305 191 
 VIL  EZ I        1346 25.52        27.0 0.36            111            305 191 
 PTGC HZ EP   9   1345 42.19                             111   -1.73 0  311 159 
 PTGC HN ES       1346 15.57                                   -0.85 7  311 159 
 PTGC HZ I        1346 23.71        25.4 0.63            111            311 159 
 LL6C HZ EP       1345 44.71                             110   -0.58 7  323 358 
 LL6C HN ES       1346 19.66                             110   -0.93 7  323 358 
 LL6C HZ I        1346 21.05         7.9 0.42            111            323 358 
 CBOC HZ EP       1345 47.29                             109    0.51 7  334 252 
 CBOC HN ES   4   1346 21.51                             109   -1.73 0  334 252 
 CBOC HZ I        1346 27.32         5.9 0.35            109            334 252 
 DBB  EZ EP   3   1345 48.91                             109    1.66 2  339 274 
 DBB  EN ES       1346 23.33                             109   -0.74 7  339 274 
 DBB  EZ I        1346 27.84         8.9 0.28            109            339 274 
 ORTC HZ EP   2   1345 54.37                             105    0.41 3  397 216 
 APAC HZ EP       1345 53.63                             105   -0.30 6  397 288 
 APAC HN ES   2   1346 37.27                             105    1.29 3  397 288 
 APAC HZ I        1346 50.21         9.7 0.50            106            397 288 
 ORTC HN ES       1346 36.80                             105    0.78 6  397 216 
 ORTC HZ I        1346 42.31         9.5 0.28            106            397 216 
 PAL  HZ EP       1345 54.75                             105   -0.37 6  406 239 
 PAL  HN ES       1346 37.68                             105   -0.40 6  406 239 
 PAL  HZ I        1346 42.45         5.3 0.38            105            406 239 
 SJC  HZ IP   4 C 1345 53.97                             105   -1.23 0  407 327 
 SJC  HN ES   4   1346 35.00                             105   -3.23 0  407 327 
 SJC  HZ I        1346 39.07        22.7 0.56            106            407 327 
 CRJC HN ES   4   1346 45.50                             103   -5.11 0  466   4 
                                                                                
