 2014 1015 1506 49.7 L   6.115 -74.017 88.2  RSN 15 0.5 2.1LRSN                1
 GAP= 66        1.07       2.1     2.6  5.7 -0.7158E+00  0.4127E+01  0.1060E+01E
 Epicentro: EL PENON - SANTANDER                                               3
 ACTION:UPD 14-11-29 23:50 OP:nd   STATUS:               ID:20141015150649 L   I
 OLDACT:REG 14-10-15 23:16 OP:fm   STATUS:               ID:20141015145745     3
 2014-10-15-1457-45M.COL___295                                                 6
 STAT SP IPHASW D HRMM SECON CODA AMPLIT PERI AZIMU VELO AIN AR TRES W  DIS CAZ7
 SPBC HZ IP     D 15 7  3.75                             147    0.0710 51.5 187 
 SPBC HN ES       15 7 14.33                             147   -0.2510 51.5 187 
 SPBC HZ I        15 7 17.21        99.0 0.20            145           51.5 187 
 PTB  HZ IP     C 15 7  4.38                             139   -0.3810 67.6 314 
 PTB  HN ES       15 7 16.20                             139   -0.3110 67.6 314 
 PTB  HZ I        15 7 16.72        35.7 0.40            131           67.6 314 
 BAR2 SZ IP     C 15 7  9.07                             125    0.4610  106  60 
 BAR2 SZ ES       15 7 23.86                             125    0.5110  106  60 
 BAR2 SZ I        15 7 25.19        98.4 0.38            122            106  60 
 RUS  HZ EP       15 7  8.64                             126   -0.2910  106 103 
 RUS  HZ I        15 7  9.55        14.2 0.24            123            106 103 
 RUS  HN ES       15 7 23.68                             126   -0.2510  106 103 
 BRR  HZ IP     C 15 7  9.47                             123    0.3210  115  17 
 BRR  HN ES       15 7 24.91                             123    0.5910  115  17 
 BRR  HZ I        15 7 29.56        22.2 0.26            118            115  17 
 CHI  HZ EP       15 7 15.09                             113   -0.32 9  167 169 
 CHI  HZ I        15 7 15.62        10.7 0.32            110            167 169 
 CHI  HN ES       15 7 35.38                             113   -0.08 9  167 169 
 ZAR  HZ EP       15 7 16.32                             111    0.14 9  178 329 
 ZAR  HN ES       15 7 36.92                             111    0.09 9  178 329 
 ZAR  HZ I        15 7 42.25        16.4 0.28            107            178 329 
 GUY2CHZ EP       15 7 16.70                             111   -0.12 9  179 237 
 GUY2CHN ES       15 7 38.23                             111    0.27 9  179 237 
 GUY2CHZ I        15 7 43.37        17.7 0.70                           179 237 
 TOL  SZ EP       15 7 21.66                             107   -0.06 8  222 221 
 TOL  SN ES       15 7 46.57                             107   -0.12 8  222 221 
 CBOC HZ EP       15 7 22.49                             107    0.95 8  223 263 
 CBOC HZ I        15 7 22.85        15.4 0.16            103            223 263 
 CBOC HN ES       15 7 46.42                             107    0.04 8  223 263 
 URE  HZ EP   9   15 7 22.98                             105   -1.22 0  247 317 
 URE  HE ES       15 7 49.56                                   -0.32 8  247 317 
 DBB  SZ EP       15 7 26.36                             104    0.21 8  262 292 
 DBB  SZ I        15 7 58.18        27.5 0.46            101            262 292 
 ORTC HZ EP       15 7 27.99                             103   -0.17 7  279 209 
 ORTC HN ES       15 7 58.61                             103    0.46 7  279 209 
 ORTC HZ I        15 8  5.79         8.9 0.40            100            279 209 
 PRA  HZ EP       15 7 29.13                             103    0.60 7  282 200 
 PRA  HN ES       15 7 58.23                             103   -0.57 7  282 200 
 PRA  HZ I        15 8  3.55         6.1 0.20            100            282 200 
 SML  HZ EP       15 7 29.09                             102   -1.15 7  297 359 
 SML  HE ES       15 8  0.62                             102   -1.23 7  297 359 
                                                                                
