 2012  915 1738 17.3 L   6.739 -73.201145.0  RSN  4 0.1 1.5LRSN                1
 GAP=226        0.30       3.5     4.2  4.1  0.8533E+01 -0.1653E+00 -0.9795E+00E
 Epicentro: VILLANUEVA - SANTANDER                                             3
 ACTION:UPD 12-10-22 14:19 OP:ep   STATUS:               ID:20120915173817 L   I
 2012-09-15-1730-00M.COL___227                                                 6
 STAT SP IPHASW D HRMM SECON CODA AMPLIT PERI AZIMU VELO AIN AR TRES W  DIS CAZ7
 BAR2 SZ EP   1   1738 36.62                             173   -0.14 7 16.4 173 
 BAR2 SZ ES   2   1738 51.94                             173    0.04 5 16.4 173 
 BAR2 SZ I        1738 52.83         8.2 0.11                          16.4 173 
 BRR  HZ EP   1   1738 38.43                             153    0.12 7 69.6 306 
 BRR  HZ I        1738 39.05         9.1 0.12                          69.6 306 
 BRR  HN ES   1   1738 54.65                             153   -0.02 7 69.6 306 
 RUS  HZ EP   2   1738 40.75                             145    0.16 5 94.5 172 
 RUS  HE ES   1   1738 58.71                             145   -0.01 7 94.5 172 
 RUS  HZ I        1739  0.31         3.9 0.25                          94.5 172 
 PTB  HZ EP   2   1738 43.44                             133   -0.16 5  141 261 
 PTB  HE ES   2   1739  4.11                             133    0.04 5  141 261 
 PTB  HZ I        1739  9.57         3.1 0.25                           141 261 
                                                                                
