 2012 1015 1710 20.5 L   6.716 -73.097144.7  RSN  5 0.2 1.8LRSN                1
 GAP=147        0.42       2.8     4.4  4.0 -0.4743E-01 -0.1487E+01  0.9291E+00E
 Epicentro: JORDAN - SANTANDER                                                 3
 ACTION:UPD 12-11-22 17:04 OP:ep   STATUS:               ID:20121015171020 L   I
 2012-10-15-1710-00M.COL___229                                                 6
 STAT SP IPHASW D HRMM SECON CODA AMPLIT PERI AZIMU VELO AIN AR TRES W  DIS CAZ7
 BAR2 SZ EP   1   1710 39.70                             173   -0.18 7 16.6 215 
 BAR2 SZ ES   1   1710 55.00                             173    0.00 7 16.6 215 
 BAR2 SZ I        1710 55.68        22.3 0.24                          16.6 215 
 GIR2 SZ EP   1   1710 40.35                             163   -0.02 7 41.6 345 
 GIR2 SZ ES   1   1710 55.59                             163   -0.27 7 41.6 345 
 BRR  HZ EP   1   1710 42.03                             149   -0.06 7 80.6 303 
 BRR  HZ I        1710 42.33        15.6 0.12                          80.6 303 
 BRR  HE ES   1   1710 59.15                             149    0.21 7 80.6 303 
 PAM  SZ EP   1   1710 43.17                             149    0.30 7 81.8  32 
 PAM  SZ I        1710 43.41         4.7 0.16                          81.8  32 
 PAM  SE ES   1   1711  0.32                             149    0.00 7 81.8  32 
 RUS  HZ EP   1   1710 43.32                             146   -0.15 7 91.0 179 
 RUS  HN ES   1   1711  1.58                             146    0.18 7 91.0 179 
 RUS  HN I        1711  2.00        12.0 0.28                          91.0 179 
                                                                                
