 2016  715 1842 22.9 L   6.124 -73.771 84.0  RSN  4 0.1 1.2LRSN                1
 GAP=193        0.32       2.8     1.4  4.7  0.1903E+01  0.1686E+01  0.4113E+01E
 Epicentro: EL PENON - SANTANDER                                               3
 ACTION:UPD 17-03-29 16:51 OP:lp   STATUS:               ID:20160715184222 L   I
 OLDACT:UP  16-07-16 01:21 OP:dani STATUS:               ID:20160715183759     3
 OLDACT:UP  16-07-16 01:21 OP:dani STATUS:               ID:20160715183759     3
 OLDACT:UP  16-07-16 01:20 OP:dani STATUS:               ID:20160715183759     3
 OLDACT:REG 16-07-15 21:06 OP:dani STATUS:               ID:20160715183759     3
 2016-07-15-1837-59S.COL___331                                                 6
 STAT SP IPHASW D HRMM SECON CODA AMPLIT PERI AZIMU VELO AIN AR TRES W  DIS CAZ7
 RUS  HZ EP       1842 39.37                             133    0.0410 80.3 109 
 RUS  HN ES   4   1842 55.10                             133    2.96 0 80.3 109 
 RUS  HZ I        1842 55.44         1.6 0.36            136           80.3 109 
 BAR2 EZ EP       1842 39.30                             132    0.0510 83.2  51 
 BAR2 EZ ES       1842 51.96                             132   -0.0410 83.2  51 
 BAR2 EZ I        1842 53.39         7.8 0.16            135           83.2  51 
 PTB  HZ EP       1842 39.36                             129   -0.1110 88.7 301 
 PTB  HN ES       1842 52.44                             129    0.0510 88.7 301 
 PTB  HZ I        1842 53.65         4.4 0.28            133           88.7 301 
 ZAR  HZ EP   4   1842 48.99                             108   -1.94 0  193 322 
 ZAR  HN ES       1843 12.82                             108    0.03 9  193 322 
 ZAR  HZ I        1843 16.41         3.9 0.32            111            193 322 
                                                                                
