 2013 1215 1901 40.3 L   6.809 -73.154143.2  RSN 12 0.4 2.9LRSN 3.2WRSN        1
 SPEC AVERAGE  MO 13.9 ST 40.5 OM  2.4 f0 7.01 R0.4289 AL 0.00 WI 21.3 MW  3.2 3
 SPEC SD       MO  0.3 ST 33.1 OM  0.4 f0 3.56 R0.4844 AL      WI      MW  0.2 3
 GAP= 70        0.90       2.5     2.8  4.7 -0.7186E+00  0.2428E+01 -0.9783E+00E
 Epicentro: LOS SANTOS - SANTANDER                                             3
 SPEC SML HH N MO 13.6 ST 51.6 OM  1.8 f0 10.0 R0.1554 AL 0.00 WI 27.6 MW  3.0 3
 SPEC SML HH N T19 244 K 0.000 GD  281 VS 4.20 DE 3.20 Q0300.0 QA 0.60 VS 4.20 3
 SPEC NOR HH N MO 13.6 ST 50.5 OM  1.8 f0 10.0 R0.1554 AL 0.00 WI 20.0 MW  3.0 3
 SPEC NOR HH N T19 244 K 0.000 GD  275 VS 4.20 DE 3.20 Q0300.0 QA 0.60 VS 4.20 3
 SPEC ZAR HH N MO 14.0 ST114.6 OM  2.2 f0 10.0 R0.1554 AL 0.00 WI 21.1 MW  3.3 3
 SPEC ZAR HH N T19 237 K 0.000 GD  248 VS 4.20 DE 3.20 Q0300.0 QA 0.60 VS 4.20 3
 SPEC SPBCHH E MO 13.6 ST 50.2 OM  1.9 f0 10.0 R0.1554 AL 0.00 WI 22.3 MW  3.0 3
 SPEC SPBCHH E T19 229 K 0.000 GD  216 VS 4.20 DE 3.20 Q0300.0 QA 0.60 VS 4.20 3
 SPEC OCA HH E MO 14.1 ST 47.3 OM  2.4 f0 6.71 R0.2316 AL 0.00 WI  8.8 MW  3.4 3
 SPEC OCA HH E T19 232 K 0.000 GD  213 VS 4.20 DE 3.20 Q0300.0 QA 0.60 VS 4.20 3
 SPEC TAM HH N MO 14.5 ST0.268 OM  2.8 f00.883 R1.7599 AL 0.00 WI 34.1 MW  3.6 3
 SPEC TAM HH N T19 228 K 0.000 GD  211 VS 4.20 DE 3.20 Q0300.0 QA 0.60 VS 4.20 3
 SPEC PTB HH N MO 13.7 ST 28.9 OM  2.0 f0 7.85 R0.1980 AL 0.00 WI 20.0 MW  3.1 3
 SPEC PTB HH N T19 226 K 0.000 GD  205 VS 4.20 DE 3.20 Q0300.0 QA 0.60 VS 4.20 3
 SPEC RUS HH E MO 13.8 ST  1.1 OM  2.2 f0 2.38 R0.6529 AL 0.00 WI  9.4 MW  3.2 3
 SPEC RUS HH E T19 222 K 0.000 GD  175 VS 4.20 DE 3.20 Q0300.0 QA 0.60 VS 4.20 3
 SPEC PAM SH N MO 14.2 ST  2.4 OM  2.6 f0 2.32 R0.6698 AL 0.00 WI 17.0 MW  3.4 3
 SPEC PAM SH N T19 219 K 0.000 GD  162 VS 4.20 DE 3.20 Q0300.0 QA 0.60 VS 4.20 3
 SPEC BRR HH N MO 13.7 ST 58.2 OM  2.1 f0 9.99 R0.1556 AL 0.00 WI 32.9 MW  3.1 3
 SPEC BRR HH N T19 217 K 0.000 GD  159 VS 4.20 DE 3.20 Q0300.0 QA 0.60 VS 4.20 3
 ACTION:UPD 14-01-13 10:18 OP:ep   STATUS:               ID:20131215190140 L   I
 OLDACT:UP  13-12-15 19:18 OP:cam  STATUS:               ID:20131215190000     3
 OLDACT:UP  13-12-15 19:18 OP:cam  STATUS:               ID:20131215190000     3
 OLDACT:REG 13-12-15 18:10 OP:cam  STATUS:               ID:20131215190000     3
 2013-12-15-1900-00M.COL___285                                                 6
 STAT SP IPHASW D HRMM SECON CODA AMPLIT PERI AZIMU VELO AIN AR TRES W  DIS CAZ7
 BAR2 SZ EP       19 1 59.29                             170   -0.3710 24.2 188 
 BAR2 SZ ES       19 2 14.22                             170   -0.5210 24.2 188 
 BAR2 SZ I        19 2 15.87       280.0 0.20            170           24.2 188 
 BRR  HZ EP       19 2  0.98                             152   -0.1410 69.9 298 
 BRR  HN ES       19 2 17.97                             152    0.6310 69.9 298 
 BRR  HZ I        19 2 22.65        63.8 0.28            149           69.9 298 
 PAM  SZ EP       19 2  2.60                             150    0.3510 77.2  41 
 PAM  SN ES       19 2 19.65                             150    0.3010 77.2  41 
 PAM  SN I        19 2 20.61       463.2 0.46            153           77.2  41 
 RUS  HZ EP       19 2  3.72                             143   -0.1810  102 176 
 RUS  HE ES       19 2 22.37                             143    0.0810  102 176 
 RUS  HZ I        19 2 22.91        50.3 0.34            146            102 176 
 PTB  HZ EP       19 2  6.59                             132   -0.43 9  147 258 
 PTB  HN ES       19 2 27.34                             132   -0.50 9  147 258 
 PTB  HZ I        19 2 29.59        91.1 0.14            131            147 258 
 TAM  HZ IP     D 19 2  8.05                             130    0.15 9  156 105 
 TAM  HZ I        19 2  8.19       165.0 0.20            134            156 105 
 TAM  HN ES       19 2 29.38                             130   -0.03 9  156 105 
 OCA  HZ EP       19 2  8.05                             129   -0.27 9  159 353 
 OCA  HE ES       19 2 29.91                             129   -0.26 9  159 353 
 OCA  HZ I        19 2 35.20        76.1 0.24            130            159 353 
 SPBC HZ EP       19 2  8.88                             128    0.24 9  163 219 
 SPBC HE ES       19 2 31.01                             128    0.27 9  163 219 
 SPBC HZ I        19 2 35.61        51.8 0.26            129            163 219 
 ZAR  HZ EP       19 2 12.91                             122    0.44 9  203 292 
 ZAR  HN ES   4   19 2 38.77                             122    1.22 0  203 292 
 ZAR  HZ I        19 2 46.52        67.3 0.16            122            203 292 
 NOR  HZ EP       19 2 16.33                             118    0.44 8  235 234 
 NOR  HN ES       19 2 43.77                             118    0.14 8  235 234 
 NOR  HZ I        19 2 51.56        28.1 0.14            119            235 234 
 SML  HZ EP       19 2 16.11                             117   -0.55 8  242 335 
 SML  HN ES       19 2 45.35                             117    0.34 8  242 335 
 SML  HZ I        19 2 52.04        61.7 0.24            117            242 335 
 CHI  HZ EP   4   19 2 18.10                             116    0.14 0  249 195 
 HEL  HZ EP   4   19 2 20.74                             114    0.41 0  271 256 
 URE  HE ES   4   19 2 51.83                             113   -1.13 0  283 292 
 GUY2CHZ EP   4   19 2 25.30                             112    1.51 0  301 235 
 COD  HZ EP   4   19 2 27.82                             108   -0.65 0  347 355 
 SJC  HZ EP   4   19 2 34.66                             105   -0.98 0  408 327 
 SJC  HE ES   4   19 3 15.69                             105   -3.10 0  408 327 
 SJC  HZ I        19 3 19.96        24.0 0.64            106            408 327 
                                                                                
