 2011  215 1222 14.0 L   7.336 -73.706100.0  RSN  4 0.4 1.8LRSN                1
 GAP=274        0.81      12.4    35.2 33.8 -0.3901E+03  0.1087E+04 -0.3619E+03E
 Epicentro: SABANA DE TORRES - SANTANDER                                       3
 ACTION:UP  11-03-28 15:08 OP:jfem STATUS:               ID:20110215122214 L   I
 2011-02-15-1220-22S.COL___137                                                 6
 STAT SP IPHASW D HRMM SECON CODA AMPLIT PERI AZIMU VELO SNR AR TRES W  DIS CAZ7
 GIR2 SZ EP   2   1222 30.61                             154     0.6 5   63 117 
 GIR2 SZ ES   2   1222 42.99                             154     0.4 5   63 117 
 BTL  SZ EP   1   1222 29.71                             152    -0.7 8   67 134 
 BAR2 SZ EP       1222 33.40                             138     0.210  101 145 
 BAR2 SZ ES   1   1222 48.19                             138    -0.1 7  101 145 
 BAR2 SZ I        1222 49.07        15.4 0.45                           101 145 
 GRA  SZ EP       1222 34.81                             132     0.210  117  59 
 GRA  SZ ES   1   1222 50.58                             132    -0.2 7  117  59 
 GRA  SZ I        1222 51.94        11.7 0.12                           117  59 
                                                                                
