 2013  215 1002 18.5 L   6.483 -73.606 11.1  RSN  5 0.3 1.3LRSN                1
 GAP=135        0.67       2.6     2.0  7.1 -0.5122E+00  0.5637E+01 -0.6383E+01E
 Epicentro: SANTA HELENA DEL OPON - SANTANDER                                  3
 ACTION:UPD 13-03-12 09:33 OP:ep   STATUS:               ID:20130215100218 L   I
 2013-02-15-1000-00M.COL___238                                                 6
 STAT SP IPHASW D HRMM SECON CODA AMPLIT PERI AZIMU VELO AIN AR TRES W  DIS CAZ7
 BAR2 SZ EP   1   10 2 27.07                              99    0.28 8 48.4  75 
 RUS  HZ EP   1   10 2 33.31                              95    0.42 8 87.2 138 
 RUS  HN ES   1   10 2 43.69                              95   -0.41 8 87.2 138 
 RUS  HN I        10 2 44.73         6.8 0.32             91           87.2 138 
 PTB  HZ EP   1   10 2 33.60                              94    0.14 8 94.2 274 
 PTB  HN ES   1   10 2 44.88                              94   -0.23 8 94.2 274 
 PTB  HN I        10 2 47.02        10.2 0.18             91           94.2 274 
 PAM  SZ EP   1   10 2 40.96                              93    0.41 7  138  47 
 PAM  SN ES       10 2 57.40                              93   -0.3310  138  47 
 PAM  SN I        10 2 58.58         4.7 0.18             90            138  47 
 ZAR  HN ES   1   10 3  6.34                              56   -0.04 7  178 309 
 ZAR  HN I        10 3  9.28         3.0 0.12             56            178 309 
                                                                                
