 2010  115 1555 29.6 L   6.787 -73.117150.0  RSN  4 0.2 1.8LRSN                1
 GAP=328        0.44       7.2    15.4  6.7 -0.5918E+02  0.4504E+02  0.8415E+00E
 Epicentro: LOS SANTOS - SANTANDER                                             3
 ACTION:UP  10-08-24 09:44 OP:vdl  STATUS:               ID:20100115155529 L   I
 2010-01-15-1553-51S.COL___096                                                 6
 STAT SP IPHASW D HRMM SECON CODA AMPLIT PERI AZIMU VELO SNR AR TRES W  DIS CAZ7
 BAR2 SZ EP   1   1555 49.44                             171    -0.3 7   23 199 
 BAR2 SZ ES   2   1556  5.76                             171     0.3 5   23 199 
 RUS  BZ EP   1   1555 53.77                             145     0.1 7   99 178 
 RUS  BE ES   2   1556 12.29                             145    -0.1 5   99 178 
 RUS  BZ I        1556 13.21         6.0 0.24                            99 178 
 CHI  HZ EP   1   1556  7.69                             118     0.2 6  248 196 
 CHI  HE ES   2   1556 36.79                             118    -0.2 4  248 196 
 PRA  HZ EP   1   1556 23.56                             107     0.2 4  392 210 
 PRA  HE ES   2   1557  4.96                             107    -0.2 3  392 210 
 PRA  HZ I        1557  8.91         3.1 0.39                           392 210 
                                                                                
