 2014  915 1059  9.4 L   6.799 -73.116150.7  RSN  6 0.4 1.4LRSN                1
 GAP=203        0.74       3.8     6.2  7.4  0.6851E+01 -0.6338E+01 -0.7703E+01E
 Epicentro: LOS SANTOS - SANTANDER                                             3
 ACTION:UPD 14-10-03 23:05 OP:nd   STATUS:               ID:20140915105909 L   I
 OLDACT:REG 14-09-15 20:28 OP:spq  STATUS:               ID:20140915105818     3
 2014-09-15-1058-18M.COL___293                                                 6
 STAT SP IPHASW D HRMM SECON CODA AMPLIT PERI AZIMU VELO AIN AR TRES W  DIS CAZ7
 BRR  HZ EP   1   1059 31.09                             152   -0.11 8 74.2 297 
 BRR  HN ES   1   1059 48.68                             152    0.44 8 74.2 297 
 BRR  HZ I        1059 58.02        13.9 0.32            154           74.2 297 
 RUS  HZ EP   1   1059 33.89                             145    0.32 8  100 178 
 RUS  HN ES   1   1059 52.25                             145   -0.20 8  100 178 
 RUS  HZ I        1059 53.86         1.9 0.34            154            100 178 
 PTB  HZ EP       1059 37.02                             132    0.0110  151 259 
 PTB  HE ES   1   1059 58.19                             132   -0.40 7  151 259 
 PTB  HZ I        11 0  1.59         3.1 0.14            138            151 259 
 SPBC HZ EP       1059 38.69                             130    0.2710  165 220 
 SPBC HE ES       11 0  0.77                             130   -0.3210  165 220 
 SPBC HZ I        11 0  3.25         2.7 0.22            137            165 220 
 ZAR  HZ EP   1   1059 43.09                             123    0.65 7  207 292 
 ZAR  HE ES   1   11 0  8.46                             123    0.21 7  207 292 
 ZAR  HZ I        11 0 13.03         2.1 0.32            128            207 292 
 SML  HZ EP   1   1059 45.59                             118   -0.83 6  245 335 
 SML  HE ES   1   11 0 15.13                             118   -0.21 6  245 335 
 SML  HZ I        11 0 16.80         2.2 0.11            124            245 335 
                                                                                
