 2013  715 1756 41.0 L   6.729 -73.177151.5  RSN  4 0.4 1.6LRSN                1
 GAP=228        0.77       7.8     7.7  8.0  0.2804E+02  0.3444E+01 -0.3987E+01E
 Epicentro: VILLANUEVA - SANTANDER                                             3
 ACTION:UPD 13-08-12 10:38 OP:ep   STATUS:               ID:20130715175641 L   I
 OLDACT:UP  13-07-15 17:16 OP:cam  STATUS:               ID:20130715174960d    3
 OLDACT:DUP 13-07-15 17:09 OP:cam  STATUS:               ID:20130715174960d    3
 2013-07-15-1749-59M.COL___267                                                 6
 STAT SP IPHASW D HRMM SECON CODA AMPLIT PERI AZIMU VELO AIN AR TRES W  DIS CAZ7
 BAR2 SZ EP   1   1757  0.98                             174   -0.16 7 15.2 182 
 BAR2 SZ ES   1   1757 16.30                             174   -0.59 7 15.2 182 
 BRR  HZ EP       1757  2.65                             153   -0.1410 72.4 305 
 BRR  HN ES   1   1757 20.52                             153    0.69 7 72.4 305 
 RUS  HZ EP   1   1757  4.95                             147    0.19 7 93.1 174 
 RUS  HN ES   1   1757 23.68                             147    0.34 7 93.1 174 
 RUS  HZ I        1757 24.60         3.6 0.30            142           93.1 174 
 PTB  HZ EP   1   1757  8.04                             134    0.06 7  143 262 
 PTB  HN ES   1   1757 28.78                             134   -0.29 7  143 262 
 PTB  HZ I        1757 36.04         7.5 0.24            128            143 262 
                                                                                
