 2012  915 1357 30.0 L   6.482 -73.601105.5  RSN  7 0.2 1.8LRSN                1
 GAP= 90        0.55       2.9     2.4  4.4  0.2521E+01  0.2847E+01  0.2274E+01E
 Epicentro: SANTA HELENA DEL OPON - SANTANDER                                  3
 ACTION:UPD 12-10-22 14:19 OP:ep   STATUS:               ID:20120915135730 L   I
 2012-09-15-1350-00M.COL___227                                                 6
 STAT SP IPHASW D HRMM SECON CODA AMPLIT PERI AZIMU VELO AIN AR TRES W  DIS CAZ7
 BAR2 SZ EP       1357 45.93                             154    0.1110 47.8  75 
 BAR2 SZ ES       1357 58.19                             154    0.0310 47.8  75 
 BRR  HZ EP       1357 46.78                             144   -0.1110 70.2 350 
 BRR  HN ES   1   1358  0.35                             144    0.28 7 70.2 350 
 BRR  HZ I        1358  7.74        25.5 0.16                          70.2 350 
 GIR2 SZ EP       1357 47.47                             140   -0.3510 79.8  34 
 RUS  HZ EP       1357 48.87                             138    0.0010 86.8 139 
 RUS  HE ES   1   1358  3.72                             138    0.13 7 86.8 139 
 RUS  HZ I        1358  4.99         8.9 0.22                          86.8 139 
 PTB  HZ EP       1357 48.76                             135   -0.1310 94.8 274 
 PTB  HN ES       1358  3.42                             135   -0.2110 94.8 274 
 PTB  HZ I        1358  5.02        12.3 0.14                          94.8 274 
 ZAR  HZ EP   1   1357 57.48                             115    0.18 7  178 309 
 ZAR  HN ES   1   1358 19.11                             115    0.51 7  178 309 
 ZAR  HZ I        1358 22.82        20.2 0.39                           178 309 
 CHI  HZ EP   1   1358  1.15                             112    0.30 6  205 184 
 CHI  HZ I        1358 35.79         4.0 0.61                           205 184 
                                                                                
