 2016  315 1542 45.1 L   6.088 -73.740110.7  RSN  4 0.2 1.3LRSN                1
 GAP=111        0.58       3.7     2.4  5.9  0.5589E+00 -0.3004E+00 -0.6349E+01E
 Epicentro: EL PENON - SANTANDER                                               3
 ACTION:UPD 16-05-13 21:24 OP:cam  STATUS:               ID:20160315154245 L   I
 OLDACT:REG 16-03-15 21:23 OP:cara STATUS:               ID:20160315153748     3
 2016-03-15-1537-48M.COL___298                                                 6
 STAT SP IPHASW D HRMM SECON CODA AMPLIT PERI AZIMU VELO AIN AR TRES W  DIS CAZ7
 SPBC HN ES       1543 15.46                             149    0.2110 60.6 217 
 SPBC HZ I        1543 17.34         5.2 0.18            152           60.6 217 
 RUS  HZ EP       1543  3.71                             143    0.0510 75.9 107 
 RUS  HN ES       1543 17.79                             143   -0.3210 75.9 107 
 RUS  HZ I        1543 19.38         3.4 0.26            147           75.9 107 
 BAR2 EZ IP       1543  4.11                             140    0.2610 83.1  48 
 BAR2 EZ ES       1543 18.55                             140    0.1110 83.1  48 
 BAR2 EZ I        1543 20.08        12.7 0.42            143           83.1  48 
 PTB  HZ EP       1543  4.14                             137   -0.2510 93.6 302 
 PTB  HN ES       1543 19.35                             137   -0.0510 93.6 302 
 PTB  HZ I        1543 21.02         2.2 0.52            139           93.6 302 
                                                                                
