 2014  715 1951 27.8 L   6.842 -73.122142.9  RSN  6 0.6 1.8LRSN                1
 GAP=203        1.45       7.8     9.4 10.7  0.3808E+02  0.7694E+01 -0.1724E+02E
 Epicentro: LOS SANTOS - SANTANDER                                             3
 ACTION:UPD 15-03-16 20:44 OP:nd   STATUS:               ID:20140715195127 L   I
 OLDACT:REG 14-07-15 21:43 OP:stll STATUS:               ID:20140715194815     3
 2014-07-15-1948-15M.COL___259                                                 6
 STAT SP IPHASW D HRMM SECON CODA AMPLIT PERI AZIMU VELO AIN AR TRES W  DIS CAZ7
 BAR2 SZ EP       1951 47.71                             169    0.5310 28.4 194 
 BAR2 SZ ES       1952  1.82                             169   -0.5010 28.4 194 
 BAR2 SZ I        1952  3.81        22.1 0.16            169           28.4 194 
 BRR  HZ EP       1951 49.13                             152    0.4910 71.5 294 
 BRR  HZ I        1951 49.51        14.3 0.28            149           71.5 294 
 BRR  HN ES       1952  5.94                             152    1.0310 71.5 294 
 RUS  HZ EP       1951 51.73                             142    0.1510  105 178 
 RUS  HN ES       1952  9.59                             142   -0.5610  105 178 
 RUS  HZ I        1952 10.99         4.9 0.22            144            105 178 
 PTB  HZ EP       1951 54.49                             131   -0.35 9  151 257 
 PTB  HN ES       1952 15.58                             131   -0.36 9  151 257 
 PTB  HZ I        1952 18.15         6.3 0.16            130            151 257 
 ZAR  HZ EP       1952  0.51                             122    0.40 9  205 291 
 ZAR  HN ES       1952 25.13                             122   -0.21 9  205 291 
 ZAR  HZ I        1952 32.79         4.4 0.28            121            205 291 
 SML  HN ES       1952 31.02                             117   -1.08 8  241 334 
 SML  HZ I        1952 36.56         6.3 0.10            117            241 334 
                                                                                
