 2011  215 1646 45.7 L   6.602 -73.054 40.4  RSN  4 0.2 1.6LRSN                1
 GAP=199        0.42       4.1    29.3 13.3  0.1059E+03 -0.3718E+03 -0.4393E+02E
 Epicentro: CURITI - SANTANDER                                                 3
 ACTION:UP  11-03-28 15:08 OP:jfem STATUS:               ID:20110215164645 L   I
 2011-02-15-1643-57S.COL___136                                                 6
 STAT SP IPHASW D HRMM SECON CODA AMPLIT PERI AZIMU VELO SNR AR TRES W  DIS CAZ7
 BAR2 SZ IP       1646 52.31                             152    -0.210   14 265 
 BAR2 SZ ES   1   1646 57.97                             152     0.1 7   14 265 
 BAR2 SZ I        1646 59.03        55.3 0.28                            14 265 
 BTL  SZ IP       1646 54.74                             122     0.010   42 326 
 GIR2 SZ EP   2   1646 56.32                             112     0.3 5   55 344 
 GIR2 SZ ES   2   1647  3.96                             112    -0.1 5   55 344 
 RUS  HZ EP       1646 59.24                             102     0.010   79 182 
 RUS  HN ES   2   1647  9.87                             102     0.1 5   79 182 
 RUS  HZ I        1647 11.61        14.7 0.21                            79 182 
                                                                                
