 2012  315 1438 45.8 L   6.768 -73.160148.2  RSN  6 0.4 1.9LRSN                1
 GAP=233        0.86       7.4     7.5  8.8  0.1634E+02  0.5720E+01  0.1985E+02E
 ACTION:UP  12-03-31 23:20 OP:EP   STATUS:               ID:20120315143845 L   I
 2012-03-15-1435-38M.COL___181                                                 6
 STAT SP IPHASW D HRMM SECON CODA AMPLIT PERI AZIMU VELO SNR AR TRES W  DIS CAZ7
 BRR  HZ EP   1   1439  7.39                             153     0.1 7   72 302 
 BRR  HN ES   1   1439 24.39                             153     0.4 7   72 302 
 BRR  HZ I        1439 25.63        17.2 0.08                            72 302 
 RUS  HZ EP   1   1439  9.37                             145    -0.2 7   97 175 
 RUS  HN ES   1   1439 27.90                             145    -0.2 7   97 175 
 RUS  HZ I        1439 29.00         6.0 0.26                            97 175 
 PTB  HZ EP   1   1439 12.00                             133    -0.8 7  146 260 
 PTB  HN ES   1   1439 33.54                             133    -0.3 7  146 260 
 PTB  HZ I        1439 35.25         7.1 0.17                           146 260 
 NOR  SZ EP   1   1439 21.46                             119     0.1 6  231 235 
 NOR  SN ES   1   1439 49.30                             119     0.3 6  231 235 
 CHI  HZ EP   1   1439 23.74                             118     0.5 6  245 195 
 CHI  HZ I        1440  0.83         4.0 0.46                           245 195 
 PRA  HZ EP   1   1439 39.44                             107     0.5 4  388 210 
 PRA  HZ I        1440 26.75        10.9 0.21                           388 210 
                                                                                
