 2016 1215 1311 36.4 L   6.779 -73.090146.2  RSN  4 0.2 1.8LRSN                1
 GAP=145        0.60       4.4     7.3  6.0  0.1595E+02 -0.2055E+02 -0.9770E+01E
 Epicentro: LOS SANTOS - SANTANDER                                             3
 ACTION:UPD 17-01-11 20:15 OP:rebc STATUS:               ID:20161215131136 L   I
 OLDACT:REG 16-12-15 21:56 OP:ar   STATUS:               ID:20161215130650     3
 2016-12-15-1307-00M.COL___349                                                 6
 STAT SP IPHASW D HRMM SECON CODA AMPLIT PERI AZIMU VELO AIN AR TRES W  DIS CAZ7
 BAR2 EZ EP       1311 56.03                             171   -0.0210 23.0 206 
 BAR2 EZ ES       1312 11.05                             171   -0.3510 23.0 206 
 BAR2 EZ I        1312 12.41        19.8 0.28            170           23.0 206 
 PAM  EZ EP       1311 58.69                             151    0.1710 75.5  35 
 BRR  HZ EP       1311 57.75                             150   -0.1910 77.7 298 
 BRR  HE ES       1312 15.00                             150    0.2310 77.7 298 
 RUS  HZ EP       1311 59.89                             145   -0.0910 98.0 180 
 RUS  HN ES       1312 18.65                             145    0.2510 98.0 180 
 RUS  HZ I        1312 19.87         7.2 0.26            145           98.0 180 
                                                                                
