 2011  415 1201 18.0 L   6.797 -73.110146.6  RSN  8 0.3 1.8LRSN                1
 GAP=162        0.57       6.4     7.8  9.0 -0.3183E+02 -0.3090E+02  0.2194E+02E
 Epicentro: LOS SANTOS - SANTANDER                                             3
 ACTION:UP  11-06-22 15:31 OP:REBC STATUS:               ID:20110415120117 L   I
 2011-04-15-1157-04S.COL___139                                                 6
 STAT SP IPHASW D HRMM SECON CODA AMPLIT PERI AZIMU VELO SNR AR TRES W  DIS CAZ7
 BTL  SZ EP       12 1 37.77                             171     0.110   22 308 
 BAR2 SZ EP   1   12 1 37.67                             170     0.0 7   24 199 
 GIR2 SZ EP   2   12 1 37.99                             167     0.2 5   32 343 
 BRR  HZ EP   1   12 1 39.29                             151    -0.1 7   75 297 
 BRR  HN ES   1   12 1 56.39                             151     0.3 7   75 297 
 BRR  HZ I        12 1 59.17        19.0 0.37                            75 297 
 PAM  SZ EP   2   12 1 40.01                             152    -0.1 5   75  37 
 PAM  SZ I        12 1 59.42         6.0 0.93                            75  37 
 GRA  SZ EP   1   12 1 43.39                             137     0.2 7  125  16 
 GRA  SZ ES   1   12 2  2.45                             137    -0.4 7  125  16 
 GRA  SZ I        12 2  5.21         9.7 0.32                           125  16 
 OCA  SZ EP   1   12 1 46.42                             130     0.0 7  161 352 
 OCA  SZ I        12 2 13.55        12.3 0.26                           161 352 
 NOR  SN ES   2   12 2 21.48                             118    -0.7 4  238 235 
                                                                                
