 2014  915 1820 40.3 L   6.789 -73.163147.5  RSN  9 0.4 2.1LRSN                1
 GAP=135        0.95       3.7     4.2  5.9 -0.9949E+00  0.6941E+01 -0.6335E+00E
 Epicentro: LOS SANTOS - SANTANDER                                             3
 ACTION:UPD 14-10-03 23:05 OP:nd   STATUS:               ID:20140915182040 L   I
 OLDACT:REG 14-09-15 21:29 OP:spq  STATUS:               ID:20140915181818     3
 2014-09-15-1818-18M.COL___287                                                 6
 STAT SP IPHASW D HRMM SECON CODA AMPLIT PERI AZIMU VELO AIN AR TRES W  DIS CAZ7
 BAR2 SZ EP     D 1821  0.36                             171    0.2210 21.9 186 
 BAR2 SZ ES       1821 15.51                             171   -0.0810 21.9 186 
 BRR  HZ EP       1821  2.05                             153    0.4510 70.1 300 
 BRR  HN ES       1821 18.45                             153    0.2510 70.1 300 
 BRR  HZ I        1821 19.89        27.4 0.32            147           70.1 300 
 PAM  SZ EP       1821  3.11                             150    0.2610 79.5  40 
 PAM  SN ES   1   1821 20.00                             150   -0.42 7 79.5  40 
 RUS  HZ EP       1821  3.99                             144   -0.1910 99.6 175 
 RUS  HN ES       1821 22.98                             144    0.2010 99.6 175 
 PTB  HZ EP       1821  6.92                             133   -0.33 9  146 259 
 PTB  HN ES       1821 27.51                             133   -0.74 9  146 259 
 PTB  HZ I        1821 35.22        12.5 0.30            129            146 259 
 ZAR  HZ EP   1   1821 13.01                             123    0.26 6  203 293 
 ZAR  HN ES   1   1821 38.90                             123    0.86 6  203 293 
 ZAR  HZ I        1821 44.98        11.1 0.56            120            203 293 
 NOR  HZ EP       1821 15.78                             119   -0.14 8  232 234 
 NOR  HN ES   1   1821 44.44                             119    0.76 6  232 234 
 NOR  HZ I        1821 49.99         7.6 0.16            118            232 234 
 SML  HZ EP   1   1821 16.90                             118   -0.18 6  244 336 
 SML  HN ES   1   1821 45.00                             118   -0.75 6  244 336 
 SML  HZ I        1821 51.98         8.4 0.22            117            244 336 
 TOL  SZ EP   4   1821 30.44                             110    2.03 0  341 225 
 TOL  SN ES       1822  5.34                             110   -0.57 7  341 225 
 TOL  SZ I        1822 11.87         7.6 0.22            109            341 225 
                                                                                
