 2016  515 1214 14.9 L   6.805 -73.151145.0  RSN 11 0.4 1.9LRSN                1
 GAP=182        0.96       3.1     5.0  5.9  0.2076E+01  0.6119E+01  0.3348E+01E
 Epicentro: LOS SANTOS - SANTANDER                                             3
 ACTION:UPD 16-08-18 17:46 OP:cam  STATUS:               ID:20160515121414 L   I
 OLDACT:REG 16-05-15 20:24 OP:ak   STATUS:               ID:20160515120743     3
 2016-05-15-1207-43M.COL___302                                                 6
 STAT SP IPHASW D HRMM SECON CODA AMPLIT PERI AZIMU VELO AIN AR TRES W  DIS CAZ7
 BAR2 EZ EP       1214 34.39                             170   -0.0510 23.8 188 
 BAR2 EZ ES       1214 49.45                             170   -0.2310 23.8 188 
 BAR2 EZ I        1214 50.47        11.5 0.18            167           23.8 188 
 BRR  HZ EP       1214 36.14                             153    0.2310 70.4 298 
 BRR  HE ES       1214 52.93                             153    0.6210 70.4 298 
 BRR  HZ I        1214 54.26        12.8 0.26            148           70.4 298 
 RUS  HZ EP       1214 38.30                             143   -0.3110  101 176 
 RUS  HN ES       1214 57.24                             143    0.1310  101 176 
 PTB  HZ EP       1214 41.10                             132   -0.65 9  147 259 
 PTB  HN ES       1215  1.88                             132   -0.82 9  147 259 
 PTB  HZ I        1215  3.99         9.0 0.26            129            147 259 
 OCA  HZ EP   2   1214 42.67                             130   -0.41 5  160 353 
 OCA  HN ES       1215  4.88                             130   -0.19 9  160 353 
 OCA  HZ I        1215  7.50        17.2 0.28            130            160 353 
 SPBC HZ EP       1214 43.44                             129    0.11 9  163 219 
 SPBC HN ES       1215  5.42                             129   -0.10 9  163 219 
 SPBC HZ I        1215 12.50         7.9 0.17            128            163 219 
 ZAR  HZ EP   2   1214 47.23                             122    0.02 4  203 292 
 ZAR  HE ES       1215 12.94                             122    0.53 9  203 292 
 ZAR  HZ I        1215 19.84         9.0 0.24            121            203 292 
 NOR  HZ EP       1214 51.11                             118    0.56 8  235 234 
 NOR  HN ES   4   1215 17.11                             118   -1.26 0  235 234 
 NOR  HZ I        1215 24.20         5.6 0.10            118            235 234 
 CHI  HZ EP   2   1214 53.39                             117    0.81 4  249 195 
 CHI  HN ES       1215 22.58                             117    0.59 8  249 195 
 HEL  HZ EP   2   1214 54.98                             115   -0.03 4  272 256 
 PRA  HZ EP   2   1215  8.61                             106    0.21 3  392 209 
 PRA  HN ES       1215 49.72                             106   -0.42 6  392 209 
 PRA  HZ I        1215 53.14         1.9 0.28            107            392 209 
                                                                                
