 2016  315 1435 50.2 L   6.512 -73.605107.0  RSN  4 0.1 1.4LRSN                1
 GAP=167        0.35       2.6     1.5  3.7  0.7001E+00  0.2354E+01  0.3090E+01E
 Epicentro: SANTA HELENA DEL OPON - SANTANDER                                  3
 ACTION:UPD 16-05-13 21:24 OP:cam  STATUS:               ID:20160315143551dL   I
 OLDACT:REG 16-03-15 21:01 OP:cara STATUS:               ID:20160315142751     3
 2016-03-15-1427-51M.COL___306                                                 6
 STAT SP IPHASW D HRMM SECON CODA AMPLIT PERI AZIMU VELO AIN AR TRES W  DIS CAZ7
 BAR2 EZ IP       1436  6.23                             154    0.0910 47.6  79 
 BAR2 EZ ES       1436 18.66                             154    0.0610 47.6  79 
 BAR2 EZ I        1436 19.82        24.0 0.44            155           47.6  79 
 RUS  HZ EP       1436  9.27                             137   -0.1310 89.6 140 
 RUS  HE ES       1436 24.40                             137   -0.0110 89.6 140 
 RUS  HZ I        1436 26.10         2.7 0.48            138           89.6 140 
 PTB  HZ EP       1436  9.13                             135   -0.0010 94.2 272 
 PTB  HZ I        1436  9.39         5.7 0.26            137           94.2 272 
 PTB  HN ES       1436 23.84                             135   -0.0910 94.2 272 
 GUY2CHZ EP   4   1436 27.25                             108    1.97 0  241 234 
 GUY2CHE ES       1436 52.80                             108    0.13 8  241 234 
 GUY2CHZ I        1437  4.25         1.3 0.50                           241 234 
                                                                                
