 2016  315 1626 45.2 L   6.804 -73.177137.7  RSN  7 0.3 1.8LRSN                1
 GAP=133        0.72       3.0     3.1  5.2 -0.1811E+01  0.6898E+01 -0.1345E+01E
 Epicentro: LOS SANTOS - SANTANDER                                             3
 ACTION:UPD 16-05-13 21:24 OP:cam  STATUS:               ID:20160315162645 L   I
 OLDACT:DUP 16-03-16 00:43 OP:cara STATUS:               ID:20160315161751d    3
 OLDACT:REG 16-03-15 21:26 OP:cara STATUS:               ID:20160315161750     3
 2016-03-15-1617-50M.COL___297                                                 6
 STAT SP IPHASW D HRMM SECON CODA AMPLIT PERI AZIMU VELO AIN AR TRES W  DIS CAZ7
 BAR2 EZ IP       1627  4.01                             170    0.1410 23.4 182 
 BAR2 EZ ES       1627 18.67                             170    0.2410 23.4 182 
 BAR2 EZ I        1627 20.51        15.5 0.26            169           23.4 182 
 PAM  EZ IP       1627  6.94                             149    0.2510 79.3  42 
 PAM  EZ I        1627  7.08        22.4 0.22            154           79.3  42 
 PAM  EN ES       1627 23.09                             149   -0.3610 79.3  42 
 RUS  HZ EP       1627  7.99                             142   -0.2410  101 174 
 RUS  HN ES       1627 26.43                             142    0.2410  101 174 
 RUS  HZ I        1627 28.06         4.4 0.22            145            101 174 
 PTB  HZ EP       1627 11.15                             131   -0.08 9  144 258 
 PTB  HN ES       1627 31.03                             131   -0.49 9  144 258 
 PTB  HZ I        1627 38.98         5.4 0.44            131            144 258 
 SPBC HZ EP       1627 12.93                             127    0.00 9  161 218 
 SPBC HN ES       1627 34.32                             127   -0.23 9  161 218 
 SPBC HZ I        1627 39.83        10.1 0.18            129            161 218 
 ZAR  HZ EP       1627 16.69                             121   -0.11 9  201 292 
 ZAR  HN ES       1627 41.90                             121    0.47 9  201 292 
 ZAR  HZ I        1627 47.17         6.6 0.26            122            201 292 
 GUY2CHZ EP   4   1627 29.52                             111    1.35 0  299 234 
 GUY2CHN ES       1628  1.99                             111    0.31 7  299 234 
 GUY2CHZ I        1628 10.20         3.3 0.38                           299 234 
                                                                                
