 2012  215 1821 18.8 L   6.734 -73.124143.3  RSN  6 0.2 1.6LRSN                1
 GAP=142        0.52       3.9     3.9  6.2  0.1645E+01  0.4176E+01 -0.5316E+01E
 ACTION:UP  12-03-07 16:30 OP:epov STATUS:               ID:20120215182118 L   I
 2012-02-15-1820-00M.COL___188                                                 6
 STAT SP IPHASW D HRMM SECON CODA AMPLIT PERI AZIMU VELO AIN AR TRES W  DIS CAZ7
 BAR2 SZ EP   1   1821 37.82                             173   -0.21 7 16.9 202 
 BAR2 SZ ES   1   1821 52.65                             173   -0.37 7 16.9 202 
 BAR2 SZ I        1821 53.80         8.4 0.17                          16.9 202 
 BRR  HZ EP   1   1821 40.12                             150    0.09 7 77.0 303 
 BRR  HN ES   1   1821 56.72                             150    0.14 7 77.0 303 
 PAM  SZ EP   1   1821 41.04                             149    0.00 7 81.8  35 
 RUS  HE ES   1   1822  0.12                             145    0.41 7 93.1 177 
 RUS  HZ I        1822  1.18         6.1 0.29                          93.1 177 
 ZAR  HE ES   1   1822 17.38                             121    0.17 6  209 294 
 NOR  SN ES   1   1822 21.45                             118   -0.27 6  232 236 
                                                                                
