 2015  615 1152 51.7 L   6.795 -73.102153.0  RSN  6 0.4 1.3LRSN                1
 GAP=142        1.05       4.8     6.0  7.5  0.3912E+01  0.1665E+02  0.4238E+01E
 Epicentro: LOS SANTOS - SANTANDER                                             3
 ACTION:UPD 15-09-10 22:12 OP:cam  STATUS:               ID:20150615115251 L   I
 OLDACT:REG 15-06-15 20:30 OP:stll STATUS:               ID:20150615114749     3
 2015-06-15-1147-49M.COL___309                                                 6
 STAT SP IPHASW D HRMM SECON CODA AMPLIT PERI AZIMU VELO AIN AR TRES W  DIS CAZ7
 BAR2 EZ EP       1153 11.11                             171   -1.1010 24.1 202 
 BAR2 EZ I        1153 12.58         4.4 0.22            166           24.1 202 
 BAR2 EZ ES       1153 28.36                             171    0.1510 24.1 202 
 PAM  SN ES       1153 32.39                             153    0.0310 74.8  36 
 BRR  HZ EP       1153 14.33                             152    0.4510 75.7 297 
 BRR  HN ES       1153 31.23                             152    0.0410 75.7 297 
 BRR  HZ I        1153 31.39         4.9 0.36            153           75.7 297 
 RUS  HZ EP       1153 16.27                             145    0.1710 99.8 179 
 RUS  HN ES       1153 35.36                             145    0.2110 99.8 179 
 RUS  HZ I        1153 45.21         1.3 0.36            144           99.8 179 
 SPBC HZ EP       1153 21.15                             130    0.15 9  166 220 
 SPBC HN ES       1153 43.71                             130   -0.15 9  166 220 
 ZAR  HZ EP       1153 25.42                             123    0.33 8  209 292 
 ZAR  HN ES       1153 50.89                             123   -0.26 8  209 292 
 ZAR  HZ I        1153 57.54         3.4 0.32            125            209 292 
                                                                                
