 2010  915 1609 32.2 L   6.828 -73.099142.9  RSN 14 0.5 3.4LRSN                1
 GAP=163        1.06       4.4     7.7  8.3 -0.1209E+02  0.7019E+01  0.9680E+01E
 Epicentro: LOS SANTOS - SANTANDER                                             3
 ACTION:UP  11-02-18 11:02 OP:tino STATUS:               ID:20100915160932 L   I
 2010-09-15-1605-53S.COL___119                                                 6
 STAT SP IPHASW D HRMM SECON CODA AMPLIT PERI AZIMU VELO SNR AR TRES W  DIS CAZ7
 BTL  SZ EP   1   16 9 50.61                             171    -0.8 7   21 298 
 BAR2 SZ IP       16 9 51.52                             168     0.010   28 200 
 BAR2 SZ I        16 9 52.14       624.0 0.45                            28 200 
 GIR2 SZ IP     D 16 9 51.49                             168     0.010   30 339 
 GIR2 SZ ES   2   1610  6.00                             168    -0.5 5   30 339 
 BRR  HZ EP       16 9 52.99                             151    -0.210   74 295 
 BRR  HE ES   1   1610 10.19                             151     0.6 7   74 295 
 BRR  HZ I        1610 14.66       829.3 0.18                            74 295 
 RUS  HZ EP   1   16 9 55.48                             142    -0.4 7  103 179 
 RUS  HE ES   2   1610 14.38                             142     0.0 5  103 179 
 RUS  HZ I        1610 15.70       314.2 0.35                           103 179 
 GUE  SZ EP   1   16 9 57.24                             140     0.9 7  112  10 
 GRA  SZ IP     C 16 9 57.07                             137     0.310  121  16 
 GRA  SZ ES   2   1610 16.60                             137     0.6 5  121  16 
 OCA  SZ EP       16 9 59.68                             129    -0.4 9  158 351 
 OCA  SZ ES   1   1610 21.38                             129    -0.4 7  158 351 
 OCA  SZ I        1610 23.11       417.5 0.74                           158 351 
 CHI  HZ EP   1   1610  9.82                             116    -0.4 6  253 196 
 CHI  HE ES   2   1610 39.14                             116    -0.7 4  253 196 
 CHI  HZ I        1610 41.65        93.6 0.33                           253 196 
 ROSC BZ EP       1610 11.73                             115     1.0 8  258 212 
 ROSC BN ES   1   1610 41.01                             115     0.2 6  258 212 
 ROSC BZ I        1610 48.57       159.4 0.59                           258 212 
 CVER SZ EP   1   1610 13.04                             114     0.1 6  277 203 
 HEL  HZ EP       1610 12.97                             114     0.1 7  278 255 
 HEL  HE ES   2   1610 44.65                             114     0.0 4  278 255 
 HEL  HZ I        1610 51.63       152.5 0.58                           278 255 
 RREF HZ EP   1   1610 18.60                             110    -0.3 5  328 230 
 RREF HN ES   2   1610 55.69                             110     0.4 3  328 230 
 RREF HZ I        1611  5.07       236.2 0.36                           328 230 
 DBB  SZ EP   1   1610 19.49                             109    -0.6 5  344 274 
 DBB  SZ I        1610 58.05        43.6 0.29                           344 274 
                                                                                
