 2010  715 1405 41.7 L   6.845 -73.172143.8  RSN 18 0.8 3.8LRSN                1
 GAP=151        2.08       6.3     8.6 10.0 -0.1566E+02  0.3146E+02  0.7533E+01E
 Epicentro: ZAPATOCA - SANTANDER                                               3
 ACTION:UPD 10-12-01 15:17 OP:pat  STATUS:               ID:20100715140541 L   I
 2010-07-15-1402-55S.COL___120                                                 6
 STAT SP IPHASW D HRMM SECON CODA AMPLIT PERI AZIMU VELO AIN AR TRES W  DIS CAZ7
 GIR2 SZ IP       14 6  0.04                             169    -1.010   26 355 
 GIR2 SZ ES   1   14 6 15.22                             169    -0.8 7   26 355 
 BAR2 SZ EP       14 6  1.00                             169    -0.210   28 183 
 BAR2 SZ ES       14 6 15.48                             169    -0.910   28 183 
 BAR2 SZ I        14 6 17.10      1906.7 0.36                            28 183 
 BRR  HZ IP     C 14 6  2.76                             154     0.410   66 296 
 BRR  HZ I        14 6  3.07      1516.9 0.27                            66 296 
 BRR  HN ES       14 6 19.77                             154     1.310   66 296 
 BRI  SZ EP       14 6  5.49                             142     0.410  105  23 
 BRI  SZ ES   1   14 6 23.88                             142     0.5 7  105  23 
 BRI  SZ I        14 6 31.46       343.9 0.63                           105  23 
 RUS  HZ EP       14 6  4.92                             142    -0.710  106 175 
 RUS  HN ES   1   14 6 23.44                             142    -0.9 7  106 175 
 RUS  HZ I        14 6 24.93       512.0 0.32                           106 175 
 GUE  SZ EP       14 6  6.84                             140     0.910  112  14 
 GUE  SZ I        14 6 21.11       162.5 0.17                           112  14 
 GRA  SZ IP       14 6  6.80                             137     0.310  122  19 
 GRA  SZ ES   1   14 6 26.32                             137     0.6 7  122  19 
 GRA  SZ I        14 6 30.85       519.5 0.66                           122  19 
 OCA  SZ IP       14 6  9.31                             130    -0.1 9  155 354 
 OCA  SZ ES   2   14 6 31.28                             130     0.3 5  155 354 
 OCA  SZ I        14 6 39.64       864.1 0.58                           155 354 
 ROSC BZ EP       14 6 20.78                             116     0.8 8  256 210 
 HEL  HZ EP       14 6 21.72                             114     0.1 8  271 255 
 HEL  HN ES   1   14 6 53.31                             114     0.5 6  271 255 
 HEL  HZ I        14 6 59.53       339.1 0.26                           271 255 
 CVER SZ EP       14 6 22.47                             114     0.1 7  276 201 
 CVER SZ I        14 6 23.98       425.8 0.38                           276 201 
 GUY  SZ EP       14 6 25.61                             112     0.3 7  302 234 
 GUY  SN ES   2   14 6 58.70                             112    -0.6 4  302 234 
 GUY  SZ I        14 7  6.91       959.0 1.75                           302 234 
 RREF HZ EP   1   14 6 27.53                             110    -0.4 5  323 228 
 RREF HN ES       14 7  5.38                             110     1.5 7  323 228 
 RREF HZ I        14 7 10.94       382.2 0.34                           323 228 
 DBB  SZ IP       14 6 28.81                             109     0.1 7  336 273 
 DBB  SZ ES       14 7  4.65                             109    -0.8 7  336 273 
 DBB  SZ I        14 7  9.00        52.0 0.41                           336 273 
 TOL  SZ EP       14 6 30.78                             109     0.7 7  345 224 
 MON  HZ EP       14 6 27.99                             108    -2.0 6  347 308 
 MON  HN ES       14 7  5.64                             108    -2.0 6  347 308 
 MON  HZ I        14 7 22.50       206.0 0.34                           347 308 
 ANIL HZ EP       14 6 32.11                             108     0.5 6  359 224 
 ANIL HN ES   1   14 7 12.07                             108     1.5 5  359 224 
 ANIL HZ I        14 7 15.61       726.0 0.31                           359 224 
 PRA  HZ EP   1   14 6 34.68                             106    -0.8 4  395 209 
 PRA  HN ES       14 7 16.84                             106    -0.6 6  395 209 
 PRA  HZ I        14 7 21.34       394.1 0.28                           395 209 
                                                                                
