 2016 1215 1543  8.8 L   6.831 -73.200138.9  RSN  5 0.3 1.6LRSN                1
 GAP=148        0.73       4.1     4.2  6.1 -0.5241E+01  0.7094E+01 -0.1122E+01E
 Epicentro: ZAPATOCA - SANTANDER                                               3
 ACTION:UPD 17-01-11 20:15 OP:rebc STATUS:               ID:20161215154308 L   I
 OLDACT:REG 16-12-15 22:30 OP:ar   STATUS:               ID:20161215153858     3
 2016-12-15-1539-10M.COL___352                                                 6
 STAT SP IPHASW D HRMM SECON CODA AMPLIT PERI AZIMU VELO AIN AR TRES W  DIS CAZ7
 BAR2 EZ EP       1543 27.65                             169    0.0210 26.5 176 
 BAR2 EZ ES       1543 42.17                             169   -0.1810 26.5 176 
 BAR2 EZ I        1543 43.50        13.0 0.22            171           26.5 176 
 PAM  EZ EP       1543 30.16                             149   -0.1810 78.9  45 
 PAM  EN ES       1543 47.47                             149    0.3010 78.9  45 
 PAM  EZ I        1543 49.62         6.8 0.46            152           78.9  45 
 RUS  HZ EP       1543 31.70                             141   -0.4410  105 173 
 RUS  HN ES       1543 50.48                             141    0.1010  105 173 
 RUS  HZ I        1543 51.81         4.9 0.44            145            105 173 
 PTB  HZ EP       1543 34.95                             131    0.26 9  143 257 
 PTB  HN ES       1543 54.88                             131   -0.04 9  143 257 
 PTB  HZ I        1544  0.56         6.6 0.38            132            143 257 
 CHI  HN ES   2   1544 16.72                             115    1.17 4  250 194 
                                                                                
