 2013  615 1550 20.6 L   6.808 -73.131145.5  RSN  7 0.4 1.9LRSN                1
 GAP=202        0.68       4.2     4.7  6.6  0.4602E+01  0.8252E+01 -0.1608E+01E
 Epicentro: LOS SANTOS - SANTANDER                                             3
 ACTION:UPD 14-01-08 09:54 OP:ep   STATUS:               ID:20130615155020 L   I
 OLDACT:REG 13-06-15 16:36 OP:mh   STATUS:               ID:20130615154959     3
 2013-06-15-1549-59M.COL___261                                                 6
 STAT SP IPHASW D HRMM SECON CODA AMPLIT PERI AZIMU VELO AIN AR TRES W  DIS CAZ7
 BAR2 SZ EP   1   1550 40.30                             170    0.08 9 24.5 193 
 BAR2 SZ ES   1   1550 55.73                             170    0.21 9 24.5 193 
 BAR2 SZ I        1550 56.21         7.8 0.26            168           24.5 193 
 BRR  HZ EP   1   1550 42.27                             152    0.49 9 72.3 297 
 BRR  HN ES   1   1550 58.36                             152    0.07 9 72.3 297 
 BRR  HN I        1551  1.38        19.9 0.22            149           72.3 297 
 RUS  HZ EP   1   1550 44.45                             144    0.08 9  101 177 
 RUS  HN ES   1   1551  2.59                             144   -0.33 9  101 177 
 RUS  HN I        1551  5.78         7.6 0.64            144            101 177 
 PTB  HZ EP   1   1550 47.07                             132   -0.63 9  150 259 
 PTB  HN ES   1   1551  8.33                             132   -0.52 9  150 259 
 PTB  HZ I        1551 10.22         4.6 0.34            130            150 259 
 ZAR  HZ EP   1   1550 53.25                             122    0.10 8  205 292 
 ZAR  HN ES   1   1551 18.77                             122    0.23 8  205 292 
 ZAR  HN I        1551 25.26         9.9 0.12            121            205 292 
 NOR  HN ES       1551 24.82                             118    0.3010  237 235 
 NOR  HN I        1551 31.41         8.8 0.18            118            237 235 
 SML  HN ES   2   1551 25.05                             117   -0.70 5  244 335 
 SML  HN I        1551 29.57        17.7 0.10            117            244 335 
                                                                                
