 2013  615 1418 30.0 L   6.770 -73.165145.4  RSN  6 0.3 2.2LRSN                1
 GAP=128        0.67       5.1     3.2  5.4  0.5707E+01 -0.3730E+01 -0.5266E+01E
 Epicentro: LOS SANTOS - SANTANDER                                             3
 ACTION:UPD 14-01-08 09:54 OP:ep   STATUS:               ID:20130615141830 L   I
 OLDACT:UP  13-06-15 18:59 OP:mh   STATUS:               ID:20130615141648     3
 OLDACT:REG 13-06-15 18:54 OP:mh   STATUS:               ID:20130615141648     3
 2013-06-15-1416-48M.COL___222                                                 6
 STAT SP IPHASW D HRMM SECON CODA AMPLIT PERI AZIMU VELO AIN AR TRES W  DIS CAZ7
 BAR2 SZ EP       1418 49.66                             172    0.1110 19.8 186 
 BAR2 SZ ES   1   1419  4.48                             172   -0.29 7 19.8 186 
 BAR2 SZ I        1419  5.74        23.1 0.22            172           19.8 186 
 BRR  HZ EP       1418 51.49                             152    0.3710 71.0 302 
 BRR  HN ES       1419  7.80                             152    0.2210 71.0 302 
 BRR  HN I        1419  8.75        94.1 0.26            155           71.0 302 
 RUS  HZ EP   1   1418 53.81                             145    0.29 7 97.5 175 
 RUS  HN ES   1   1419 11.89                             145    0.05 7 97.5 175 
 RUS  HN I        1419 13.15        14.6 0.20            145           97.5 175 
 PTB  HZ EP       1418 56.56                             133   -0.16 9  145 260 
 PTB  HN ES       1419 17.16                             133   -0.38 9  145 260 
 PTB  HN I        1419 19.49        31.1 0.60            135            145 260 
 TAM  HZ EP       1418 57.94                             130    0.15 9  156 104 
 TAM  HN ES   1   1419 19.02                             130   -0.42 7  156 104 
 TAM  HN I        1419 23.66        13.7 0.32            131            156 104 
 SML  HZ EP   1   1419  6.34                             117   -0.52 6  246 336 
 SML  HN ES   4   1419 34.68                             117   -0.91 0  246 336 
                                                                                
