 2017  515 1155  4.1 L   6.742 -73.144146.6  RSN 11 0.4 2.0LRSN                1
 GAP=122        0.89       3.7     3.9  7.4 -0.1456E+01  0.1880E+00  0.1446E+02E
 Epicentro: LOS SANTOS - SANTANDER                                             3
 ACTION:UPD 17-06-16 13:36 OP:jn   STATUS:               ID:20170515115504 L   I
 OLDACT:REG 17-05-15 20:39 OP:lv   STATUS:               ID:20170515114744     3
 2017-05-15-1148-00M.COL___365                                                 6
 STAT SP IPHASW D HRMM SECON CODA AMPLIT PERI AZIMU VELO AIN AR TRES W  DIS CAZ7
 BRR  HZ IP     C 1155 25.63                             152    0.1210 74.6 303 
 BRR  HN ES       1155 42.73                             152    0.5010 74.6 303 
 BRR  HZ I        1155 44.04        15.1 0.06            151           74.6 303 
 PAM  EZ EP       1155 26.79                             149    0.1210 82.3  37 
 PAM  EN ES       1155 44.01                             149   -0.3010 82.3  37 
 PAM  EZ I        1155 46.40        44.7 0.83            157           82.3  37 
 PTB  HZ EP       1155 30.88                             132   -0.14 9  147 261 
 PTB  HN ES   4   1155 50.49                             132   -1.56 0  147 261 
 PTB  HZ I        1155 57.59         8.3 0.52            132            147 261 
 SPBC HZ EP       1155 32.81                             130    0.63 9  158 221 
 SPBC HN ES   1   1155 53.54                             130   -0.57 7  158 221 
 SPBC HZ I        1155 59.63        14.6 0.25            130            158 221 
 ZAR  HZ EP       1155 36.47                             122   -0.37 8  207 294 
 ZAR  HN ES   1   1156  1.72                             122   -0.69 6  207 294 
 ZAR  HZ I        1156  8.58        10.0 0.25            124            207 294 
 TABC EZ EP   4   1155 41.66                             120    2.37 0  225 212 
 NOR  HZ EP   4   1155 40.74                             119    1.27 0  231 236 
 NOR  HN ES       1156  7.03                             119   -0.05 8  231 236 
 NOR  HZ I        1156 15.61         5.8 0.05            120            231 236 
 CHI  HZ EP       1155 41.73                             118    0.58 8  242 196 
 CHI  HN ES   4   1156 11.64                             118    1.57 0  242 196 
 CHI  HZ I        1156 15.24         4.5 0.06            119            242 196 
 ROSC BZ EP   4   1155 44.44                             117    2.79 0  247 212 
 ROSC BN ES       1156 10.85                             117   -0.11 8  247 212 
 ROSC BZ I        1156 18.34         4.7 0.12            119            247 212 
 PTGC HZ EP       1155 47.03                             112   -0.25 7  303 158 
 PTGC HN ES       1156 20.63                             112   -0.35 7  303 158 
 ORTC HN ES   4   1156 40.38                             107    1.34 0  390 217 
 ORTC HZ I        1156 45.35         3.1 0.28            108            390 217 
 SJC  HZ EP   4   1155 58.04                             106   -2.26 0  415 327 
 SJC  HN ES   4   1156 38.20                             106   -5.97 0  415 327 
 SJC  HZ I        1156 46.98         2.6 0.40            108            415 327 
                                                                                
