 2010  915 1048 37.2 L   6.898 -72.854142.4  RSN  4 0.1 1.4LRSN                1
 GAP=269        0.31       6.7    16.0  7.2  0.8120E+02 -0.6047E+02 -0.2925E+02E
 Epicentro: GUACA - SANTANDER                                                  3
 ACTION:UP  11-02-18 11:02 OP:tino STATUS:               ID:20100915104837 L   I
 2010-09-15-1048-06S.COL___119                                                 6
 STAT SP IPHASW D HRMM SECON CODA AMPLIT PERI AZIMU VELO SNR AR TRES W  DIS CAZ7
 BTL  SZ EP   1   1048 57.16                             161     0.1 7   46 273 
 BAR2 SZ EP   1   1048 57.24                             160     0.0 7   50 227 
 BAR2 SZ ES   2   1049 12.80                             160    -0.1 5   50 227 
 BAR2 SZ I        1049 14.57         9.1 0.18                            50 227 
 BRR  HZ EP   1   1048 59.69                             144     0.0 7   98 284 
 RUS  HZ EP   1   1049  1.57                             140    -0.1 7  114 193 
 RUS  HE ES   2   1049 20.78                             140     0.1 5  114 193 
 RUS  HZ I        1049 21.75         2.7 0.26                           114 193 
                                                                                
