 2016  815 1407 25.8 L   6.753 -73.153144.2  RSN  5 0.4 1.4LRSN                1
 GAP=138        1.16       6.1     5.9  8.5 -0.3328E+01  0.6310E+01  0.1868E+01E
 Epicentro: LOS SANTOS - SANTANDER                                             3
 ACTION:UPD 16-10-29 15:35 OP:rebc STATUS:               ID:20160815140725 L   I
 OLDACT:REG 16-08-15 23:30 OP:ar   STATUS:               ID:20160815135759     3
 2016-08-15-1357-59S.COL___346                                                 6
 STAT SP IPHASW D HRMM SECON CODA AMPLIT PERI AZIMU VELO AIN AR TRES W  DIS CAZ7
 BAR2 EZ EP       14 7 45.32                             173    0.1810 18.1 190 
 BAR2 EZ ES       14 7 59.87                             173   -0.3610 18.1 190 
 BAR2 EZ I        14 8  1.86         8.3 0.20                          18.1 190 
 BRR  HZ EP       14 7 46.76                             151   -0.1310 73.1 302 
 BRR  HE ES       14 8  4.31                             151    0.9810 73.1 302 
 BRR  HZ I        14 8 14.11         7.5 0.27                          73.1 302 
 PAM  EZ EP       14 7 48.31                             149    0.1810 82.0  38 
 PAM  EN ES       14 8  5.01                             149   -0.5310 82.0  38 
 PAM  EZ I        14 8  7.44         3.8 0.52                          82.0  38 
 RUS  HZ EP       14 7 49.16                             145    0.1310 95.4 175 
 RUS  HN ES       14 8  7.35                             145    0.2110 95.4 175 
 RUS  HZ I        14 8  9.04         2.6 0.15                          95.4 175 
 PTB  HZ EP       14 7 52.38                             132   -0.10 9  146 261 
 PTB  HN ES       14 8 12.63                             132   -0.66 9  146 261 
 PTB  HZ I        14 8 19.71         4.3 0.34                           146 261 
                                                                                
