 2014 1115 1300 33.8 L   6.792 -73.140147.5  RSN  9 0.4 2.1LRSN                1
 GAP=138        0.96       4.6     4.5  5.7 -0.5492E+01  0.5127E+01  0.8241E+01E
 Epicentro: LOS SANTOS - SANTANDER                                             3
 ACTION:UPD 14-12-19 15:43 OP:nd   STATUS:               ID:20141115130033 L   I
 OLDACT:REG 14-11-15 21:06 OP:cam  STATUS:               ID:20141115125818     3
 2014-11-15-1258-18M.COL___286                                                 6
 STAT SP IPHASW D HRMM SECON CODA AMPLIT PERI AZIMU VELO AIN AR TRES W  DIS CAZ7
 BAR2 SZ EP     D 13 0 53.59                             171   -0.0710 22.6 192 
 BAR2 SZ ES       13 1  8.80                             171   -0.3210 22.6 192 
 BAR2 SZ I        13 1 10.11        44.4 0.18            169           22.6 192 
 BRR  HZ EP       13 0 55.10                             152   -0.1310 72.2 299 
 BRR  HN ES       13 1 12.80                             152    0.8910 72.2 299 
 BRR  HZ I        13 1 15.21        28.0 0.34            150           72.2 299 
 PAM  SZ EP       13 0 56.35                             151    0.1010 77.6  39 
 PAM  SN ES       13 1 13.71                             151   -0.0310 77.6  39 
 PAM  SZ I        13 1 16.03        10.0 0.50            155           77.6  39 
 RUS  HZ EP     C 13 0 57.55                             144   -0.1410 99.7 176 
 RUS  HN ES       13 1 16.36                             144    0.0610 99.7 176 
 RUS  HZ I        13 1 17.88         9.6 0.32            146           99.7 176 
 PTB  HZ EP       13 1  0.38                             132   -0.61 9  148 259 
 PTB  HN ES       13 1 21.54                             132   -0.63 9  148 259 
 PTB  HZ I        13 1 28.77         8.7 0.36            132            148 259 
 SPBC HZ EP       13 1  2.48                             129    0.04 9  163 219 
 NOR  HZ EP       13 1  9.67                             119    0.00 8  235 235 
 NOR  HE ES       13 1 37.60                             119   -0.02 8  235 235 
 NOR  HZ I        13 1 42.88        10.0 0.22            120            235 235 
 CHI  HZ EP       13 1 11.87                             118    0.31 8  248 195 
 TOL  SZ EP       13 1 22.60                             110    0.46 7  343 225 
 TOL  SN ES       13 2  0.53                             110    0.71 7  343 225 
 TOL  SZ I        13 2  5.83        14.2 0.74            111            343 225 
                                                                                
