 2010 1115 1616  8.0 L   6.793 -73.001136.0  RSN  4 0.3 1.7LRSN                1
 GAP=250        0.88      15.5    24.3 16.7  0.3261E+03 -0.2944E+03 -0.1805E+03E
 Epicentro: CEPITA - SANTANDER                                                 3
 ACTION:UP  10-12-17 16:52 OP:REBC STATUS:               ID:20101115161608 L   I
 2010-11-15-1614-56S.COL___129                                                 6
 STAT SP IPHASW D HRMM SECON CODA AMPLIT PERI AZIMU VELO SNR AR TRES W  DIS CAZ7
 BAR2 SZ EP       1616 26.69                             169     0.110   30 222 
 BAR2 SZ I        1616 27.19        15.4 0.45                            30 222 
 BAR2 SZ ES   2   1616 40.57                             169    -0.6 5   30 222 
 BTL  SZ EP       1616 26.94                             167     0.310   33 295 
 BRR  HZ EP       1616 28.54                             148    -0.510   86 294 
 BRR  HZ I        1616 28.82        14.9 0.28                            86 294 
 BRR  HN ES       1616 45.67                             148     0.210   86 294 
 RUS  HN ES   1   1616 48.55                             144     0.1 7  100 185 
 RUS  HZ I        1616 49.96         3.4 0.42                           100 185 
                                                                                
