 2013  315 1733  8.3 L   6.808 -73.157134.7  RSN  5 0.2 1.6LRSN                1
 GAP=135        0.41       2.6     2.9  4.5 -0.2161E+01  0.2267E+01  0.2324E+01E
 Epicentro: LOS SANTOS - SANTANDER                                             3
 ACTION:UPD 13-04-09 14:02 OP:ep   STATUS:               ID:20130315173308 L   I
 2013-03-15-1730-00M.COL___244                                                 6
 STAT SP IPHASW D HRMM SECON CODA AMPLIT PERI AZIMU VELO AIN AR TRES W  DIS CAZ7
 BAR2 SZ EP   1   1733 26.41                             169   -0.18 7 24.0 187 
 BAR2 SZ I        1733 45.07         8.9 0.26            168           24.0 187 
 BRR  HZ IP     D 1733 28.34                             151    0.2010 69.7 298 
 BRR  HN ES   1   1733 43.44                             151   -0.20 7 69.7 298 
 BRR  HZ I        1733 49.17         7.2 0.06            153           69.7 298 
 PAM  SZ EP       1733 29.40                             149    0.0710 77.5  41 
 PAM  SZ I        1733 29.73        12.6 0.20            151           77.5  41 
 PAM  SN ES   1   1733 45.74                             149   -0.01 7 77.5  41 
 RUS  HZ EP   1   1733 30.78                             141   -0.24 7  102 175 
 RUS  HN ES   1   1733 48.93                             141    0.16 7  102 175 
 NOR  HZ EP   1   1733 43.20                             116   -0.12 6  234 234 
 NOR  HN ES   1   1734 10.78                             116    0.11 6  234 234 
 NOR  HZ I        1734 14.52         3.1 0.30            117            234 234 
                                                                                
