 2012  915 1040  6.8 L   6.734 -73.201139.9  RSN  4 0.2 1.4LRSN                1
 GAP=226        0.49       9.1     9.5  5.1  0.6491E+02  0.1926E+02  0.1706E+02E
 Epicentro: VILLANUEVA - SANTANDER                                             3
 ACTION:UPD 12-10-22 14:19 OP:ep   STATUS:               ID:20120915104006 L   I
 2012-09-15-1040-00M.COL___227                                                 6
 STAT SP IPHASW D HRMM SECON CODA AMPLIT PERI AZIMU VELO AIN AR TRES W  DIS CAZ7
 BAR2 SZ EP       1040 25.49                             173   -0.1010 15.8 172 
 BAR2 SZ ES       1040 40.12                             173   -0.1210 15.8 172 
 BAR2 SZ I        1040 41.99        14.5 0.20                          15.8 172 
 BRR  HZ EP       1040 27.21                             152   -0.0310 69.9 306 
 BRR  HZ I        1040 37.42        11.7 0.50                          69.9 306 
 BRR  HE ES   1   1040 43.44                             152    0.26 7 69.9 306 
 RUS  HZ EP   1   1040 29.85                             144    0.36 7 93.9 172 
 RUS  HZ I        1040 49.78         2.0 0.34                          93.9 172 
 PTB  HZ EP   1   1040 32.44                             132   -0.18 7  140 261 
 PTB  HZ I        1040 56.19         1.4 0.14                           140 261 
                                                                                
