 2012  215 1609 23.0 L   6.787 -73.137148.0  RSN 12 0.4 2.9LRSN                1
 GAP=127        0.79       3.5     4.1  5.7 -0.1362E+01  0.3852E+01  0.4819E+01E
 ACTION:UP  12-03-07 16:30 OP:epov STATUS:               ID:20120215160923 L   I
 2012-02-15-1606-49S.COL___170                                                 6
 STAT SP IPHASW D HRMM SECON CODA AMPLIT PERI AZIMU VELO AIN AR TRES W  DIS CAZ7
 GIR2 SZ EP       16 9 43.12                             167    0.0910 32.8 349 
 BRR  HZ EP       16 9 44.79                             152    0.2710 72.7 299 
 BRR  HZ I        16 9 45.06       204.7 0.12                          72.7 299 
 BRR  HE ES       1610  1.70                             152    0.4310 72.7 299 
 PAM  SZ EP   1   16 9 45.95                             151    0.42 7 77.9  38 
 PAM  SN ES   1   1610  2.85                             151   -0.22 7 77.9  38 
 PAM  SZ I        1610  5.72        44.5 0.30                          77.9  38 
 RUS  HZ EP   1   16 9 46.93                             145    0.02 7 99.1 177 
 RUS  HN ES   1   1610  4.96                             145   -0.57 7 99.1 177 
 RUS  HZ I        1610  7.65        60.4 0.28                          99.1 177 
 PTB  HZ EP   1   16 9 49.53                             132   -0.72 7  148 259 
 OCA  SZ EP   1   16 9 51.96                             130    0.29 7  162 353 
 ZAR  HZ EP   1   16 9 55.15                             123   -0.63 6  205 292 
 ZAR  HN ES   1   1610 20.75                             123   -0.56 6  205 292 
 ZAR  HZ I        1610 25.77        66.5 0.30                           205 292 
 NOR  SZ EP       16 9 58.90                             119    0.00 8  235 235 
 CHI  HZ EP   1   1610  1.33                             118    0.58 6  248 195 
 CHI  HN ES   1   1610 29.82                             118   -0.34 6  248 195 
 CHI  HZ I        1610 36.84        47.0 0.60                           248 195 
 HEL  HZ EP   1   1610  3.91                             115    0.48 6  273 256 
 HEL  HN ES   1   1610 34.84                             115   -0.10 6  273 256 
 HEL  HZ I        1610 41.51        54.4 0.32                           273 256 
 SDV  BZ EP   1   1610 12.43                             109   -0.77 5  361  50 
 PRA  HZ EP   1   1610 16.74                             107    0.18 4  391 210 
 PRA  HN ES   1   1610 58.45                             107    0.16 4  391 210 
 PRA  HZ I        1611  7.14       100.3 0.20                           391 210 
                                                                                
