 2017  415 1621 36.4 L   6.753 -73.127146.5  RSN  6 0.3 1.6LRSN                1
 GAP=141        0.77       3.9     3.5  5.2  0.1303E+01  0.4573E+01 -0.9897E+00E
 Epicentro: LOS SANTOS - SANTANDER                                             3
 ACTION:UPD 17-05-30 21:12 OP:jn   STATUS:               ID:20170415162136 L   I
 OLDACT:UP  17-04-15 19:34 OP:cog  STATUS:               ID:20170415161737     3
 OLDACT:REG 17-04-15 18:19 OP:cog  STATUS:               ID:20170415161737     3
 2017-04-15-1618-00M.COL___374                                                 6
 STAT SP IPHASW D HRMM SECON CODA AMPLIT PERI AZIMU VELO AIN AR TRES W  DIS CAZ7
 BAR2 EZ EP       1621 56.14                             172    0.0910 18.8 199 
 BAR2 HN ES       1622 11.42                             172    0.0510 18.8 199 
 BAR2 EZ I        1622 20.33         7.0 0.36            174           18.8 199 
 BRR  HZ EP       1621 58.21                             151    0.3110 75.6 301 
 BRR  HN ES       1622 14.97                             151    0.3110 75.6 301 
 PAM  EZ EP       1621 59.16                             150    0.2810 80.2  36 
 PAM  EN ES       1622 15.94                             150   -0.4610 80.2  36 
 PAM  EZ I        1622 20.64         7.9 0.76            153           80.2  36 
 RUS  HZ EP       1622  0.18                             145    0.3210 95.2 177 
 RUS  HE ES       1622 17.91                             145   -0.2410 95.2 177 
 RUS  HZ I        1622 19.11         3.8 0.48            150           95.2 177 
 PTB  HZ EP       1622  3.10                             132   -0.45 9  149 261 
 PTB  HN ES       1622 24.69                             132   -0.02 9  149 261 
 PTB  HZ I        1622 26.20         7.4 0.16            137            149 261 
 ZAR  HZ EP       1622  8.93                             122   -0.38 8  208 293 
 ZAR  HE ES       1622 35.01                             122    0.03 8  208 293 
                                                                                
