 2015 1015 1515 33.5 L   6.781 -73.126147.2  RSN 11 0.4 2.3LRSN                1
 GAP=140        1.07       3.0     4.6  5.6 -0.2949E+01  0.7961E+01  0.5475E+00E
 Epicentro: LOS SANTOS - SANTANDER                                             3
 ACTION:UPD 15-12-22 20:40 OP:cam  STATUS:               ID:20151015151533 L   I
 OLDACT:DUP 15-10-16 01:08 OP:stll STATUS:               ID:20151015150749d    3
 2015-10-15-1507-48M.COL___340                                                 6
 STAT SP IPHASW D HRMM SECON CODA AMPLIT PERI AZIMU VELO AIN AR TRES W  DIS CAZ7
 BAR2 EZ EP       1515 53.21                             171   -0.0410 21.8 197 
 BAR2 EZ ES       1516  8.50                             171   -0.1710 21.8 197 
 BAR2 EZ I        1516 10.01        22.5 0.32            168           21.8 197 
 BRR  HZ EP       1515 55.11                             152    0.1610 74.1 299 
 BRR  HZ I        1515 55.27        35.0 0.28            150           74.1 299 
 BRR  HN ES       1516 12.14                             152    0.4510 74.1 299 
 PAM  EZ EP       1515 56.02                             151    0.1510 77.7  37 
 PAM  EZ I        1515 56.25        48.6 0.24            155           77.7  37 
 PAM  EN ES       1516 12.92                             151   -0.4110 77.7  37 
 RUS  HZ EP       1515 57.43                             145    0.2110 98.4 177 
 RUS  HN ES       1516 15.48                             145   -0.2510 98.4 177 
 SPBC HZ EP       1516  2.23                             129    0.16 9  163 220 
 SPBC HN ES       1516 23.91                             129   -0.45 9  163 220 
 SPBC HZ I        1516 31.33        20.8 0.10            129            163 220 
 OCA  HZ EP       1516  1.49                             129   -0.63 9  163 352 
 OCA  HN ES       1516 25.41                             129    0.95 9  163 352 
 OCA  HZ I        1516 27.20        45.4 0.20            131            163 352 
 ZAR  HZ EP       1516  6.42                             122    0.11 8  207 292 
 ZAR  HN ES       1516 31.62                             122   -0.29 8  207 292 
 ZAR  HZ I        1516 37.69        19.4 0.24            122            207 292 
 NOR  HZ EP       1516  9.61                             119    0.26 8  235 235 
 NOR  HE ES       1516 37.59                             119    0.26 8  235 235 
 NOR  HZ I        1516 42.39         9.6 0.22            118            235 235 
 CHI  HZ EP       1516 11.50                             117    0.40 8  247 196 
 CHI  HN ES       1516 40.77                             117    0.32 8  247 196 
 CHI  HZ I        1516 50.30         5.5 0.32            118            247 196 
 SML  HZ EP       1516  9.43                             117   -1.06 8  247 335 
 SML  HZ I        1516 41.00        23.4 0.30            118            247 335 
 GUY2CHZ EP       1516 17.65                             112    0.43 7  302 235 
 GUY2CHE ES       1516 50.65                             112   -0.68 7  302 235 
 GUY2CHZ I        1517  1.93         7.0 0.54                           302 235 
                                                                                
