 2010  515 1122 49.5 L   6.800 -73.059141.7  RSN 10 0.4 2.6LRSN                1
 GAP=166        0.76       3.8     7.0  6.9 -0.1278E+02  0.7897E+01  0.1953E+01E
 Epicentro: LOS SANTOS - SANTANDER                                             3
 ACTION:UP  10-08-24 10:05 OP:vdl  STATUS:               ID:20100515112249 L   I
 2010-05-15-1121-16S.COL___108                                                 6
 STAT SP IPHASW D HRMM SECON CODA AMPLIT PERI AZIMU VELO AIN AR TRES W  DIS CAZ7
 BAR2 SZ EP   1   1123  8.35                             169    -0.4 8   27 211 
 BAR2 SZ ES   2   1123 22.95                             169    -0.8 5   27 211 
 BRR  HZ EP   1   1123 11.04                             149     0.3 8   80 295 
 BRR  HE ES   2   1123 27.83                             149     0.5 5   80 295 
 BRR  HZ I        1123 28.98       115.7 0.15                            80 295 
 RUS  HZ EP   1   1123 12.86                             143     0.0 8  100 181 
 RUS  HE ES   2   1123 30.92                             143    -0.1 5  100 181 
 BRI  SZ EP   1   1123 13.06                             141     0.3 8  105  16 
 BRI  SZ ES   2   1123 31.82                             141     0.9 5  105  16 
 GUE  SZ EP   1   1123 13.41                             139    -0.3 8  115   7 
 GUE  SZ ES   2   1123 32.84                             139     0.2 5  115   7 
 GRA  SZ IP       1123 14.34                             137     0.210  123  13 
 GRA  SZ ES   2   1123 33.90                             137     0.5 5  123  13 
 OCA  SZ IP       1123 17.06                             129    -0.6 9  162 350 
 OCA  SZ ES   2   1123 38.86                             129    -0.7 5  162 350 
 ROSC BZ EP   1   1123 28.55                             115     0.6 6  258 213 
 ROSC BN ES   2   1123 57.95                             115     0.0 4  258 213 
 ROSC BZ I        1124  4.82        19.8 0.49                           258 213 
 HEL  HZ EP   1   1123 30.56                             113     0.0 6  281 256 
 HEL  HN ES   2   1124  2.52                             113     0.0 4  281 256 
 HEL  HZ I        1124 11.13        14.5 0.30                           281 256 
 PRA  HZ EP   1   1123 43.48                             106     0.0 4  397 211 
 PRA  HE ES   2   1124 25.94                             106     0.4 3  397 211 
 PRA  HZ I        1124 29.78        12.8 0.80                           397 211 
                                                                                
