 2013  115 1333 56.6 L   6.751 -73.174144.2  RSN  4 0.2 1.5LRSN                1
 GAP=230        0.51       5.9     4.9  5.3  0.1466E+02  0.5038E+01  0.4310E+01E
 Epicentro: VILLANUEVA - SANTANDER                                             3
 ACTION:UPD 13-02-15 09:14 OP:ep   STATUS:               ID:20130115133356 L   I
 2013-01-15-1330-00M.COL___241                                                 6
 STAT SP IPHASW D HRMM SECON CODA AMPLIT PERI AZIMU VELO AIN AR TRES W  DIS CAZ7
 BAR2 SZ EP       1334 15.93                             173    0.0310 17.5 183 
 BAR2 SZ ES   1   1334 30.59                             173   -0.39 7 17.5 183 
 BAR2 SZ I        1334 31.93        16.0 0.18            168           17.5 183 
 BRR  HE ES   1   1334 34.22                             152    0.30 7 71.3 304 
 RUS  HZ EP   1   1334 19.97                             145    0.18 7 95.4 174 
 RUS  HN ES   1   1334 38.06                             145    0.15 7 95.4 174 
 RUS  HZ I        1334 39.13         1.8 0.20            144           95.4 174 
 PTB  HZ EP       1334 22.83                             133   -0.20 9  144 261 
 PTB  HE ES   1   1334 43.70                             133    0.02 7  144 261 
 PTB  HZ I        1334 46.78         7.0 0.12            131            144 261 
                                                                                
