 2015  915 1015 35.9 L   6.806 -73.167144.4  RSN 13 0.4 2.0LRSN                1
 GAP=134        0.90       2.6     3.3  5.1 -0.1252E+01  0.6602E+01 -0.4637E+00E
 Epicentro: LOS SANTOS - SANTANDER                                             3
 ACTION:UPD 15-10-28 16:26 OP:cam  STATUS:               ID:20150915101535 L   I
 OLDACT:REG 15-09-15 20:38 OP:drio STATUS:               ID:20150915100746     3
 2015-09-15-1007-46M.COL___356                                                 6
 STAT SP IPHASW D HRMM SECON CODA AMPLIT PERI AZIMU VELO AIN AR TRES W  DIS CAZ7
 BAR2 EZ EP       1015 55.28                             170   -0.0510 23.7 184 
 BAR2 EZ ES       1016 10.48                             170   -0.0310 23.7 184 
 BAR2 EZ I        1016 11.63        37.3 0.18            170           23.7 184 
 BRR  HZ EP       1015 57.17                             153    0.4510 68.8 299 
 BRR  HN ES   4   1016 14.48                             153    1.49 0 68.8 299 
 PAM  EZ EP       1015 58.18                             150    0.2010 78.4  41 
 PAM  EN ES       1016 14.87                             150   -0.3710 78.4  41 
 PAM  EZ I        1016 17.69        10.3 0.62            154           78.4  41 
 RUS  HZ EP       1015 59.34                             143   -0.1910  101 175 
 RUS  HN ES       1016 18.26                             143    0.2610  101 175 
 RUS  HZ I        1016 19.62        13.6 0.42            146            101 175 
 PTB  HZ EP       1016  1.94                             132   -0.57 9  146 258 
 PTB  HN ES       1016 23.30                             132    0.00 9  146 258 
 PTB  HZ I        1016 25.11        14.8 0.34            132            146 258 
 SPBC HZ EP       1016  4.21                             129    0.05 9  162 218 
 SPBC HN ES       1016 26.40                             129    0.17 9  162 218 
 SPBC HZ I        1016 28.92        28.2 0.16            130            162 218 
 ZAR  HZ EP       1016  7.83                             122   -0.12 9  202 292 
 ZAR  HE ES       1016 32.25                             122   -0.74 9  202 292 
 ZAR  HZ I        1016 43.85         8.5 0.34            123            202 292 
 NOR  HZ EP       1016 11.55                             118    0.21 8  233 234 
 NOR  HE ES       1016 39.78                             118    0.77 8  233 234 
 NOR  HZ I        1016 42.72         9.3 0.14            119            233 234 
 SML  HZ EP       1016 12.04                             117   -0.19 8  242 336 
 SML  HN ES       1016 41.49                             117    0.89 8  242 336 
 SML  HZ I        1016 44.34        11.4 0.10            118            242 336 
 CHI  HZ EP       1016 13.39                             117   -0.09 8  249 195 
 CHI  HN ES       1016 42.49                             117   -0.34 8  249 195 
 CHI  HZ I        1016 47.98         3.6 0.26            118            249 195 
 HEL  HZ EP       1016 16.00                             115    0.24 8  270 256 
 HEL  HN ES       1016 46.36                             115   -0.52 8  270 256 
 HEL  HZ I        1016 54.01         5.4 0.60            115            270 256 
 GUY2CHZ EP   4   1016 21.21                             112    1.99 0  300 234 
 GUY2CHN ES       1016 53.23                             112    0.18 7  300 234 
 GUY2CHZ I        1017  0.23         5.0 0.32                           300 234 
 PRA  HZ EP       1016 29.03                             106   -0.23 6  391 209 
 PRA  HE ES   4   1017  9.74                             106   -1.17 0  391 209 
 PRA  HZ I        1017 17.27         3.6 0.26            107            391 209 
                                                                                
