 2013 1115 1320 13.7 L   6.810 -73.149144.0  RSN 16 0.6 2.1LRSN 2.7WRSN        1
 SPEC AVERAGE  MO 13.1 ST 70.0 OM  1.4 f0 13.7 R0.6807 AL 0.00 WI 20.0 MW  2.7 3
 SPEC SD       MO  0.5 ST149.8 OM  0.5 f0 11.4 R1.3204 AL      WI      MW  0.3 3
 GAP= 71        1.41       3.9     4.1  6.4 -0.4869E+01  0.4329E+01 -0.7300E+00E
 Epicentro: LOS SANTOS - SANTANDER                                             3
 SPEC BAR2SH Z MO 13.0 ST 55.5 OM  1.2 f0 20.2 R0.0952 AL-0.00 WI 20.0 MW  2.6 3
 SPEC BAR2SH Z T132046 K 0.050 GD  146 VS 5.20 DE 3.20 Q0750.0 QA 1.50 VS 5.20 3
 SPEC BRR HH Z MO 13.1 ST 22.5 OM  1.2 f0 14.5 R0.1327 AL-0.00 WI 20.0 MW  2.7 3
 SPEC BRR HH Z T132050 K 0.050 GD  160 VS 5.20 DE 3.20 Q0750.0 QA 1.50 VS 5.20 3
 SPEC PAM SH Z MO 12.8 ST  2.1 OM  0.9 f0 8.28 R0.2324 AL-0.00 WI 20.0 MW  2.5 3
 SPEC PAM SH Z T132052 K 0.050 GD  163 VS 5.20 DE 3.20 Q0750.0 QA 1.50 VS 5.20 3
 SPEC RUS HH Z MO 12.8 ST  2.3 OM  0.9 f0 8.23 R0.2338 AL-0.00 WI 20.0 MW  2.5 3
 SPEC RUS HH Z T132053 K 0.050 GD  176 VS 5.20 DE 3.20 Q0750.0 QA 1.50 VS 5.20 3
 SPEC ZAR HH Z MO 13.1 ST463.7 OM  1.0 f0 40.0 R0.0481 AL-0.00 WI 20.0 MW  2.7 3
 SPEC ZAR HH Z T1321 9 K 0.050 GD  248 VS 5.20 DE 3.20 Q0750.0 QA 1.50 VS 5.20 3
 SPEC NOR HH Z MO 13.0 ST 13.4 OM  0.9 f0 12.8 R0.1503 AL-0.00 WI 20.0 MW  2.6 3
 SPEC NOR HH Z T132115 K 0.050 GD  275 VS 5.20 DE 3.20 Q0750.0 QA 1.50 VS 5.20 3
 SPEC SML HH Z MO 13.0 ST0.792 OM  0.9 f0 4.95 R0.3887 AL-0.00 WI 20.0 MW  2.6 3
 SPEC SML HH Z T132116 K 0.050 GD  282 VS 5.20 DE 3.20 Q0750.0 QA 1.50 VS 5.20 3
 SPEC COD HH Z MO 14.3 ST0.014 OM  2.1 f00.462 R4.1645 AL-0.00 WI 20.0 MW  3.5 3
 SPEC COD HH Z T132139 K 0.050 GD  375 VS 5.20 DE 3.20 Q0750.0 QA 1.50 VS 5.20 3
 OLDACT:REG 13-11-15 16:08 OP:stll STATUS:               ID:20131115131817     3
 ACTION:UPD 14-01-09 16:28 OP:ep   STATUS:               ID:20131115132013 L   I
 OLDACT:UP  13-11-15 17:34 OP:stll STATUS:               ID:20131115131817     3
 2013-11-15-1318-17M.COL___235                                                 6
 STAT SP IPHASW D HRMM SECON CODA AMPLIT PERI AZIMU VELO AIN AR TRES W  DIS CAZ7
 BAR2 SZ IP     C 1320 33.27                             170    0.1310 24.4 189 
 BAR2 SZ ES       1320 47.90                             170   -0.4110 24.4 189 
 BAR2 SZ I        1320 49.21        39.6 0.20            170           24.4 189 
 BRR  HZ IP     D 1320 35.37                             153    0.7610 70.3 298 
 BRR  HN ES       1320 51.53                             153    0.6110 70.3 298 
 BRR  SZ I        1320 53.45        21.4 0.22            149           70.3 298 
 PAM  SZ EP       1320 36.34                             151    0.6410 76.8  40 
 PAM  SN ES       1320 53.55                             151    0.7010 76.8  40 
 PAM  SZ I        1320 55.06        15.8 0.60            152           76.8  40 
 RUS  HZ EP       1320 37.16                             143   -0.2010  102 176 
 RUS  HE ES       1320 55.46                             143   -0.3610  102 176 
 RUS  SZ I        1320 56.09        18.1 0.52            145            102 176 
 PTB  HZ EP       1320 40.11                             132   -0.40 9  148 258 
 PTB  HN ES       1321  0.39                             132   -1.04 9  148 258 
 PTB  SZ I        1321  3.03        12.0 0.16            130            148 258 
 CAPV BZ EP       1320 41.31                             132    0.41 9  149  38 
 CAPV BZ ES       1321  1.25                             132   -0.86 9  149  38 
 TAM  HZ EP       1320 41.51                             130    0.21 9  156 105 
 OCA  HN ES       1321  3.43                             129   -0.23 9  159 353 
 ZAR  HZ EP       1320 45.88                             122   -0.08 9  203 292 
 ZAR  HN ES       1321 11.05                             122   -0.06 9  203 292 
 ZAR  SZ I        1321 20.84        12.2 0.54            121            203 292 
 NOR  HZ EP       1320 49.31                             118   -0.06 8  235 234 
 NOR  HN ES       1321 16.84                             118   -0.34 8  235 234 
 NOR  SZ I        1321 21.80        10.8 0.50            118            235 234 
 SML  HZ EP       1320 50.18                             117    0.08 8  243 335 
 SML  HN ES       1321 18.35                             117   -0.15 8  243 335 
 SML  SZ I        1321 25.85        15.9 0.08            117            243 335 
 SOCV BZ EP       1320 55.89                             112   -0.75 7  301  57 
 GUY2CHZ EP       1320 56.75                             112   -0.52 7  302 235 
 GUY2CHE ES       1321 31.93                             112    0.68 7  302 235 
 GUY2CHZ I        1321 39.38         4.0 0.32                           302 235 
 RREF HZ EP       1320 59.19                             110   -0.63 7  322 229 
 RREF HE ES       1321 37.55                             110    1.76 7  322 229 
 RREF SZ I        1321 44.06         4.4 0.26            111            322 229 
 COD  HZ EP       1321  2.62                             109    0.74 6  347 355 
 SJC  HZ EP       1321  7.96                             105   -1.11 6  408 327 
                                                                                
