 2012  115 1309  9.2 L   6.803 -73.168136.9  RSN  7 0.3 1.9LRSN                1
 GAP=134        0.52       4.1     3.8  4.6 -0.9376E+00  0.5675E+01  0.2737E+01E
 Epicentro: LOS SANTOS - SANTANDER                                             3
 ACTION:UP  12-02-03 08:17 OP:REBC STATUS:               ID:20120115130909 L   I
 2012-01-15-1307-59S.COL___187                                                 6
 STAT SP IPHASW D HRMM SECON CODA AMPLIT PERI AZIMU VELO SNR AR TRES W  DIS CAZ7
 BAR2 SZ EP   1   13 9 27.72                             170     0.0 7   23 184 
 BAR2 SZ ES   1   13 9 42.26                             170     0.1 7   23 184 
 BAR2 SZ I        13 9 43.67        29.4 0.24                            23 184 
 GIR2 SZ EP   1   13 9 27.74                             167     0.0 7   31 355 
 GIR2 SZ ES       13 9 42.08                             167    -0.210   31 355 
 PAM  SZ EP   1   13 9 30.46                             149    -0.1 7   79  41 
 PAM  SN ES   2   13 9 47.64                             149     0.5 5   79  41 
 RUS  HZ EP   1   13 9 31.93                             142    -0.2 7  101 175 
 RUS  HN ES   2   13 9 50.50                             142     0.5 5  101 175 
 RUS  HZ I        13 9 51.10         8.9 0.19                           101 175 
 PTB  HZ EP   2   13 9 34.70                             130    -0.5 5  145 259 
 PTB  HN ES   2   13 9 55.17                             130    -0.3 5  145 259 
 ZAR  HZ EP   2   13 9 41.00                             121     0.2 4  202 292 
 ZAR  HN ES   2   1310  5.98                             121     0.5 4  202 292 
 ZAR  HZ I        1310 14.46         8.8 0.27                           202 292 
 HEL  HZ EP   2   13 9 49.22                             113     0.6 4  270 256 
 HEL  HE ES   2   1310 19.44                             113     0.0 4  270 256 
 HEL  HZ I        1310 26.41         3.6 0.26                           270 256 
                                                                                
