 2015  315 1634 25.2 L   6.814 -73.176146.5  RSN  6 0.2 2.1LRSN                1
 GAP=132        0.60       2.4     3.0  4.4 -0.1952E+01  0.5782E+01 -0.2515E+01E
 Epicentro: ZAPATOCA - SANTANDER                                               3
 ACTION:UPD 15-04-30 16:26 OP:nd   STATUS:               ID:20150315163425 L   I
 OLDACT:UP  15-03-15 23:02 OP:cam  STATUS:               ID:20150315162751d    3
 OLDACT:DUP 15-03-15 22:48 OP:cam  STATUS:               ID:20150315162751d    3
 2015-03-15-1627-50M.COL___260                                                 6
 STAT SP IPHASW D HRMM SECON CODA AMPLIT PERI AZIMU VELO AIN AR TRES W  DIS CAZ7
 BAR2 EZ EP     C 1634 45.01                             170    0.0410 24.6 182 
 BAR2 EZ ES       1635  0.55                             170    0.1810 24.6 182 
 BAR2 EZ I        1635  2.49        32.8 0.28            170           24.6 182 
 PAM  SZ EP       1634 47.69                             151    0.1110 78.4  42 
 PAM  SN ES       1635  4.91                             151   -0.1010 78.4  42 
 PAM  SZ I        1635  7.02        16.6 0.60            155           78.4  42 
 RUS  HZ EP       1634 49.00                             143   -0.1810  102 174 
 RUS  HN ES       1635  7.86                             143   -0.0110  102 174 
 RUS  HZ I        1635  8.59        15.3 0.26            148            102 174 
 PTB  HZ EP       1634 51.52                             133   -0.47 9  145 258 
 PTB  HN ES       1635 12.61                             133   -0.25 9  145 258 
 PTB  HZ I        1635 20.18        17.3 0.40            132            145 258 
 NOR  HZ EP       1635  0.93                             119    0.12 8  233 234 
 NOR  HN ES       1635 29.02                             119    0.46 8  233 234 
 NOR  HZ I        1635 35.02        10.0 0.24            120            233 234 
 SML  HZ EP       1635  1.88                             118    0.29 8  241 336 
 SML  HN ES       1635 29.97                             118    0.02 8  241 336 
 SML  HZ I        1635 36.41         8.7 0.10            119            241 336 
                                                                                
