 2017  515 1730  8.5 L   6.265 -73.892 54.0  RSN 10 0.3 2.0LRSN                1
 GAP=148        0.81       2.2     2.6  7.8 -0.1658E+01 -0.1015E+01 -0.3823E+01E
 Epicentro: CIMITARRA - SANTANDER                                              3
 ACTION:UPD 17-06-16 13:36 OP:jn   STATUS:               ID:20170515173008 L   I
 OLDACT:REG 17-05-15 20:58 OP:lv   STATUS:               ID:20170515171757     3
 2017-05-15-1728-00M.COL___358                                                 6
 STAT SP IPHASW D HRMM SECON CODA AMPLIT PERI AZIMU VELO AIN AR TRES W  DIS CAZ7
 PTB  HZ IP   4 C 1730 20.59                             120   -0.43 0 69.4 296 
 PTB  HN ES       1730 30.30                             120   -0.4610 69.4 296 
 SPBC HZ EP       1730 21.34                             119    0.0910 70.6 196 
 SPBC HN ES       1730 31.24                             119    0.0810 70.6 196 
 SPBC HZ I        1730 33.21        87.2 0.15            105           70.6 196 
 BRR  HZ EP       1730 23.82                             110   -0.0910 95.3  12 
 BRR  HE ES       1730 36.50                             110    0.6110 95.3  12 
 BRR  HZ I        1730 37.75        24.6 0.05            103           95.3  12 
 NOR  HZ EP       1730 28.05                             103   -0.4110  133 234 
 NOR  HZ I        1730 44.30        21.9 0.25             56            133 234 
 ZAR  HZ EP       1730 33.14                              98   -0.07 9  173 322 
 ZAR  HN ES       1730 52.28                              98   -0.17 9  173 322 
 ZAR  HZ I        1730 54.13        26.6 0.43             56            173 322 
 PAM  EZ EP       1730 34.36                              98   -0.03 9  178  48 
 PAM  EN ES   1   1730 54.02                              98   -0.53 7  178  48 
 PAM  EZ I        1730 56.43        12.0 0.13             56            178  48 
 HEL  HZ EP       1730 34.94                              98    0.24 9  181 268 
 HEL  HE ES       1730 55.62                              98    0.52 9  181 268 
 HEL  HZ I        1730 56.21                              56            181 268 
 ELA  HZ EP   9   1730 42.80                              96    2.17 0  228 227 
 ELA  HN ES       1731  7.76                                   -0.07 8  228 227 
 ELA  HZ I        1731  9.48        11.7 0.07             56            228 227 
 CBOC HZ EP   4   1730 44.04                              95    2.52 0  239 259 
 CBOC HN ES   4   1731 12.26                              95    5.02 0  239 259 
 CBOC HZ I        1731 16.56         5.2 0.44             56            239 259 
 ORTC HZ EP   9   1730 50.57                              94    1.61 0  301 210 
 ORTC HN ES       1731 22.36                                    0.26 7  301 210 
                                                                                
