 2015  115 1326  6.6 L   6.853 -73.191139.0  RSN 10 0.3 1.9LRSN                1
 GAP=128        0.77       2.4     3.4  5.0 -0.2658E+00  0.7772E+01 -0.2076E+00E
 Epicentro: ZAPATOCA - SANTANDER                                               3
 ACTION:UPD 15-03-02 15:39 OP:nd   STATUS:               ID:20150115132606 L   I
 OLDACT:UP  15-01-16 00:15 OP:mh   STATUS:               ID:20150115131750     3
 OLDACT:UP  15-01-16 00:14 OP:mh   STATUS:               ID:20150115131750     3
 OLDACT:REG 15-01-15 20:37 OP:mh   STATUS:               ID:20150115131750     3
 2015-01-15-1317-50M.COL___241                                                 6
 STAT SP IPHASW D HRMM SECON CODA AMPLIT PERI AZIMU VELO AIN AR TRES W  DIS CAZ7
 BAR2 EZ EP       1326 25.34                             168   -0.2010 28.8 178 
 BAR2 EZ ES       1326 40.49                             168    0.1710 28.8 178 
 BAR2 EZ I        1326 41.84        10.9 0.15            166           28.8 178 
 PAM  SZ EP       1326 28.69                             150    0.6510 76.5  45 
 PAM  SN ES       1326 44.65                             150   -0.1110 76.5  45 
 PAM  SZ I        1326 47.14        10.0 0.70            155           76.5  45 
 RUS  HZ EP       1326 29.73                             141   -0.4310  107 174 
 RUS  HN ES       1326 48.46                             141   -0.0810  107 174 
 RUS  HZ I        1326 50.13         5.9 0.26            142            107 174 
 PTB  HZ EP       1326 32.35                             131   -0.33 9  144 256 
 PTB  HN ES   1   1326 53.27                             131    0.24 7  144 256 
 PTB  HZ I        1326 56.07        12.9 0.52            130            144 256 
 ZAR  HZ EP   1   1326 38.60                             122    0.70 6  197 291 
 ZAR  HN ES       1327  2.08                             122   -0.23 9  197 291 
 ZAR  HZ I        1327  9.18        16.2 0.32            122            197 291 
 NOR  HZ EP       1326 41.59                             117   -0.29 8  234 233 
 NOR  HN ES       1327  9.63                             117    0.23 8  234 233 
 NOR  HZ I        1327 15.11         6.1 0.24            117            234 233 
 SML  HZ EP       1326 42.19                             117    0.14 8  236 336 
 SML  HN ES       1327  9.39                             117   -0.30 8  236 336 
 SML  HZ I        1327 12.39         9.0 0.10            118            236 336 
 CHI  HZ EP   1   1326 44.22                             115   -0.19 6  253 194 
 CHI  HN ES       1327 14.06                             115    0.15 8  253 194 
 CHI  HZ I        1327 20.15         2.1 0.24            116            253 194 
 URE  HN ES   4   1327 16.52                             113   -1.24 0  277 291 
 TOL  SZ EP       1326 55.07                             108    0.40 7  344 223 
 TOL  SN ES   4   1327 33.72                             108    1.55 0  344 223 
 TOL  SZ I        1327 41.84         6.2 0.30            109            344 223 
 MON  HZ EP   4   1327  5.41                             108   10.94 0  346 308 
 MON  HN ES   4   1327 30.69                             108   -1.11 0  346 308 
 MON  HZ I        1327 35.81         2.1 0.60            108            346 308 
                                                                                
