 2014  115 1602 43.0 L   6.796 -73.166145.4  RSN  9 0.5 1.9LRSN                1
 GAP=134        1.25       4.7     5.1  8.2 -0.3053E+00  0.1261E+02  0.9100E+00E
 Epicentro: LOS SANTOS - SANTANDER                                             3
 ACTION:UPD 14-03-13 09:55 OP:ep   STATUS:               ID:20140115160243 L   I
 OLDACT:REG 14-01-15 15:18 OP:carl STATUS:               ID:20140115160000     3
 2014-01-15-1600-00M.COL___285                                                 6
 STAT SP IPHASW D HRMM SECON CODA AMPLIT PERI AZIMU VELO AIN AR TRES W  DIS CAZ7
 BAR2 SZ EP       16 3  2.49                             171   -0.0510 22.6 185 
 BAR2 SZ ES       16 3 17.11                             171   -0.7010 22.6 185 
 BAR2 SZ I        16 3 18.39        42.3 0.20            172           22.6 185 
 BRR  HZ EP       16 3  4.58                             153    0.6010 69.4 300 
 BRR  HN ES       16 3 21.35                             153    0.9810 69.4 300 
 PAM  SZ EP       16 3  5.52                             150    0.2610 79.2  41 
 PAM  SN ES       16 3 22.61                             150   -0.0310 79.2  41 
 PAM  SZ I        16 3 24.82         9.9 0.60            150           79.2  41 
 RUS  HZ EP       16 3  6.56                             144   -0.1110  100 175 
 RUS  HN ES       16 3 25.23                             144    0.0810  100 175 
 RUS  HZ I        16 3 26.69         8.4 0.34            145            100 175 
 PTB  HZ EP       16 3  9.39                             132   -0.31 9  145 259 
 PTB  HN ES       16 3 30.06                             132   -0.49 9  145 259 
 PTB  HZ I        16 3 33.04        10.7 0.16            132            145 259 
 ZAR  HE ES       16 3 40.58                             123    0.25 9  202 293 
 ZAR  HZ I        16 3 42.78         7.2 0.22            122            202 293 
 NOR  HZ EP       16 3 18.73                             119    0.28 8  233 234 
 NOR  HN ES       16 3 46.07                             119   -0.06 8  233 234 
 NOR  HZ I        16 3 50.92         3.7 0.16            119            233 234 
 SML  HE ES       16 3 46.98                             117   -1.05 8  243 336 
 SML  HZ I        16 3 56.04         8.1 0.10            117            243 336 
 SML  HZ E        16 4 21.82                                            243 336 
 GUY2CHZ EP   4   16 3 27.95                             112    1.62 0  299 235 
 GUY2CHN ES   4   16 4  2.06                             112    1.92 0  299 235 
 GUY2CHZ I        16 4  7.97         3.1 0.26                           299 235 
                                                                                
