 2012  415 1335 24.2 L   6.777 -73.130141.8  RSN  5 0.2 1.4LRSN                1
 GAP=140        0.57       3.9     4.2  6.0  0.3413E+01  0.3133E+01 -0.3270E+00E
 Epicentro: LOS SANTOS - SANTANDER                                             3
 ACTION:UPD 12-07-05 11:53 OP:tino STATUS:               ID:20120415133524 L   I
 2012-04-15-1329-57M.COL___172                                                 6
 STAT SP IPHASW D HRMM SECON CODA AMPLIT PERI AZIMU VELO AIN AR TRES W  DIS CAZ7
 BAR2 SZ EP   1   1335 43.17                             171    -0.1 7   21 196 
 BAR2 SZ ES   1   1335 58.01                             171    -0.2 7   21 196 
 BAR2 SZ I        1336  0.96         9.0 0.60                            21 196 
 BRR  HZ EP   1   1335 45.17                             151     0.1 7   74 300 
 BRR  HE ES   1   1336  1.85                             151     0.5 7   74 300 
 PAM  SZ EP   1   1335 46.14                             150     0.1 7   78  37 
 PAM  SN ES   1   1336  2.96                             150    -0.1 7   78  37 
 RUS  HZ EP   1   1335 47.51                             144     0.1 7   98 177 
 RUS  HE ES   1   1336  5.42                             144     0.0 7   98 177 
 RUS  HZ I        1336  6.95         1.8 0.30                            98 177 
 ZAR  HN ES   1   1336 21.56                             121    -0.4 6  207 293 
 ZAR  HZ I        1336 27.97         3.8 0.33                           207 293 
                                                                                
