 2015 1115 1012  7.1 L   6.794 -73.147142.4  RSN  8 0.5 1.7LRSN                1
 GAP=137        0.94       3.7     4.7  6.2 -0.2331E+01  0.1008E+02 -0.3765E+01E
 Epicentro: LOS SANTOS - SANTANDER                                             3
 ACTION:UPD 15-12-28 16:11 OP:cam  STATUS:               ID:20151115101207 L   I
 OLDACT:UP  15-11-19 06:52 OP:CARA STATUS:               ID:20151115101207 L   3
 OLDACT:UP  15-11-15 21:26 OP:cara STATUS:               ID:20151115100747d    3
 OLDACT:DUP 15-11-15 21:16 OP:cara STATUS:               ID:20151115100747d    3
 2015-11-15-1007-46M.COL___319                                                 6
 STAT SP IPHASW D HRMM SECON CODA AMPLIT PERI AZIMU VELO AIN AR TRES W  DIS CAZ7
 BAR2 EZ IP       1012 26.59                             171    0.2810 22.6 190 
 BAR2 EZ ES       1012 40.83                             171   -0.4610 22.6 190 
 BAR2 EZ I        1012 43.13         8.0 0.20            172           22.6 190 
 BRR  HZ IP     D 1012 28.34                             152    0.4510 71.4 299 
 BRR  HN ES       1012 44.00                             152   -0.1110 71.4 299 
 BRR  HZ I        1012 49.24         9.0 0.46            152           71.4 299 
 PAM  EZ EP       1012 28.84                             150   -0.1610 78.0  39 
 PAM  EE ES       1012 46.65                             150    0.5810 78.0  39 
 PAM  EZ I        1012 48.62        10.7 0.50            153           78.0  39 
 RUS  HE ES   2   1012 48.57                             143   -0.12 5 99.9 176 
 SPBC HZ EP       1012 35.32                             128    0.04 9  163 219 
 SPBC HN ES       1012 56.97                             128   -0.28 9  163 219 
 SPBC HZ I        1013  0.67         5.1 0.10            131            163 219 
 ZAR  HZ EP       1012 38.94                             122   -0.40 9  204 292 
 ZAR  HE ES       1013  4.51                             122    0.03 9  204 292 
 SML  HZ EP       1012 43.19                             117   -0.41 8  244 335 
 SML  HE ES       1013 11.94                             117   -0.13 8  244 335 
 SML  HZ I        1013 14.84         6.1 0.10            119            244 335 
 GUY2CHN ES   2   1013 26.30                             112    1.97 4  301 235 
                                                                                
