 2013 1115 1204 20.6 L   6.813 -73.165145.3  RSN 11 0.4 2.3LRSN                1
 GAP=134        0.93       2.8     3.8  5.2 -0.3066E+01  0.6781E+01 -0.2277E+00E
 Epicentro: LOS SANTOS - SANTANDER                                             3
 ACTION:UPD 14-01-09 16:28 OP:ep   STATUS:               ID:20131115120420 L   I
 OLDACT:REG 13-11-15 16:05 OP:stll STATUS:               ID:20131115115819     3
 2013-11-15-1158-19M.COL___231                                                 6
 STAT SP IPHASW D HRMM SECON CODA AMPLIT PERI AZIMU VELO AIN AR TRES W  DIS CAZ7
 BAR2 SZ IP     D 12 4 40.41                             170    0.1810 24.5 185 
 BAR2 SZ ES       12 4 55.53                             170    0.0210 24.5 185 
 BRR  HZ IP     C 12 4 42.27                             153    0.6810 68.7 298 
 BRR  HN ES       12 4 58.50                             153    0.5610 68.7 298 
 PAM  SZ IP     C 12 4 43.16                             151    0.3410 77.7  41 
 PAM  SE ES       12 4 59.85                             151   -0.2710 77.7  41 
 RUS  HZ EP       12 4 44.34                             143   -0.1110  102 175 
 RUS  HN ES       12 5  2.73                             143   -0.3010  102 175 
 RUS  HZ I        12 5  4.17        16.2 0.26            144            102 175 
 PTB  HZ EP       12 4 46.92                             132   -0.48 9  146 258 
 PTB  HN ES       12 5  7.96                             132   -0.32 9  146 258 
 OCA  HN ES       12 5 10.22                             130   -0.47 9  159 354 
 SPBC HZ EP       12 4 49.19                             129    0.11 9  163 218 
 SPBC HN ES       12 5 11.52                             129    0.26 9  163 218 
 SPBC HZ I        12 5 15.38        27.7 0.24            129            163 218 
 NOR  HZ EP       12 4 55.92                             118   -0.32 8  234 234 
 NOR  HE ES       12 5 23.62                             118   -0.40 8  234 234 
 SML  HZ EP       12 4 56.69                             118   -0.31 8  242 336 
 SML  HN ES       12 5 25.33                             118   -0.04 8  242 336 
 SML  HZ I        12 5 28.89        36.8 0.24            118            242 336 
 HEL  HE ES       12 5 32.12                             115    0.28 8  270 255 
 HEL  HZ I        12 5 38.83         8.6 0.28            115            270 255 
 GUY2CHZ EP       12 5  4.89                             112    0.77 7  300 234 
 GUY2CHN ES       12 5 37.72                             112   -0.32 7  300 234 
                                                                                
