 2010  315 1228 14.4 L   6.824 -73.042144.7  RSN  5 0.2 1.9LRSN                1
 GAP=194        0.35       2.3     7.6  4.0  0.3693E+01 -0.6677E+01 -0.1509E+01E
 Epicentro: LOS SANTOS - SANTANDER                                             3
 ACTION:UP  10-08-24 09:54 OP:vdl  STATUS:               ID:20100315122814 L   I
 2010-03-15-1225-43S.COL___095                                                 6
 STAT SP IPHASW D HRMM SECON CODA AMPLIT PERI AZIMU VELO SNR AR TRES W  DIS CAZ7
 BAR2 SZ IP       1228 34.18                             168     0.110   30 211 
 BAR2 SZ ES   1   1228 49.46                             168     0.0 7   30 211 
 BRR  HZ EP   2   1228 35.74                             149    -0.3 5   80 293 
 BRR  HE ES   2   1228 52.80                             149     0.0 5   80 293 
 BRR  HZ I        1228 58.88        12.2 0.45                            80 293 
 RUS  HZ EP   2   1228 38.05                             143    -0.2 5  103 183 
 RUS  HN ES   2   1228 56.63                             143    -0.2 5  103 183 
 OCA  SZ EP   1   1228 42.68                             130     0.1 7  159 349 
 OCA  SZ ES   2   1229  4.42                             130    -0.1 5  159 349 
 OCA  SZ I        1229  8.39        20.8 0.15                           159 349 
 CHI  HZ EP   2   1228 52.54                             116    -0.2 4  254 198 
 CHI  HE ES   2   1229 22.81                             116     0.3 4  254 198 
 CHI  HZ I        1229 27.95         2.0 0.59                           254 198 
                                                                                
