 2011  815 1006  0.2 L   6.847 -72.937135.6  RSN  4 0.2 1.5LRSN                1
 GAP=204        0.48       7.5    12.2  8.5  0.7023E+02 -0.7014E+02 -0.4116E+02E
 Epicentro: CEPITA - SANTANDER                                                 3
 ACTION:UPD 12-07-13 15:52 OP:ep   STATUS:               ID:20110815100600 L   I
 2011-08-15-1002-47S.COL___150                                                 6
 STAT SP IPHASW D HRMM SECON CODA AMPLIT PERI AZIMU VELO AIN AR TRES W  DIS CAZ7
 BAR2 SZ EP       10 6 19.24                             163    0.1510 39.1 224 
 BAR2 SZ ES   1   10 6 33.59                             163   -0.21 7 39.1 224 
 BAR2 SZ I        10 6 36.00         6.6 0.34                          39.1 224 
 BRR  HZ EP   1   10 6 21.15                             144   -0.39 7 90.3 289 
 BRR  HN ES   1   10 6 38.39                             144    0.22 7 90.3 289 
 BRR  HZ I        10 6 40.78         7.1 0.22                          90.3 289 
 RUS  HZ EP   2   10 6 23.55                             140    0.08 5  107 189 
 RUS  HN ES   2   10 6 41.68                             140    0.07 5  107 189 
 RUS  HZ I        10 6 43.13         3.1 0.37                           107 189 
 OCA  SZ EP   2   10 6 27.82                             127    0.12 5  160 345 
 OCA  SZ I        10 6 53.92         4.4 0.49                           160 345 
                                                                                
