 2012 1215 1406 29.7 L   6.735 -73.204142.9  RSN  4 0.2 1.8LRSN                1
 GAP=170        0.50       4.5     3.4  5.4  0.3382E+01  0.1281E+01 -0.8663E+01E
 Epicentro: VILLANUEVA - SANTANDER                                             3
 ACTION:UPD 13-01-04 14:28 OP:ep   STATUS:               ID:20121215140629 L   I
 2012-12-15-1400-45M.COL___216                                                 6
 STAT SP IPHASW D HRMM SECON CODA AMPLIT PERI AZIMU VELO AIN AR TRES W  DIS CAZ7
 BAR2 SZ EP       14 6 48.64                             173   -0.2110 16.0 171 
 BAR2 SZ ES   1   14 7  3.96                             173    0.16 7 16.0 171 
 BAR2 SZ I        14 7  5.02        19.1 0.36                          16.0 171 
 GIR2 SZ EP       14 6 49.24                             164    0.0110 38.0   2 
 RUS  HZ EP       14 6 53.01                             145    0.3110 94.1 172 
 RUS  HN ES       14 7 10.49                             145   -0.1610 94.1 172 
 RUS  HN I        14 7 11.70         3.7 0.36                          94.1 172 
 PTB  HZ EP       14 6 55.66                             133   -0.08 9  140 261 
 PTB  HN ES       14 7 16.10                             133    0.04 9  140 261 
 PTB  HN I        14 7 22.00        14.2 0.48                           140 261 
                                                                                
