 2014  615 1937 50.9 L   6.260 -73.728 97.1  RSN 13 0.3 1.7LRSN                1
 GAP= 61        0.78       1.8     2.2  4.8 -0.1004E+01  0.3167E+01 -0.1113E+01E
 Epicentro: LANDAZURI - SANTANDER                                              3
 ACTION:UPD 14-07-01 22:54 OP:nd   STATUS:               ID:20140615193750 L   I
 OLDACT:REG 14-06-15 21:12 OP:spq  STATUS:               ID:20140615192819     3
 2014-06-15-1928-19M.COL___256                                                 6
 STAT SP IPHASW D HRMM SECON CODA AMPLIT PERI AZIMU VELO AIN AR TRES W  DIS CAZ7
 BAR2 SZ EP       1938  7.75                             141    0.4010 70.7  59 
 BAR2 SZ ES       1938 20.26                             141    0.0810 70.7  59 
 BAR2 SZ I        1938 21.89        38.4 0.16            141           70.7  59 
 SPBC HZ EP   1   1938  7.49                             139   -0.18 7 77.2 210 
 SPBC HN ES       1938 21.01                             139    0.2610 77.2 210 
 SPBC HZ I        1938 24.35        13.7 0.22            137           77.2 210 
 RUS  HZ EP   1   1938  8.18                             137   -0.44 7 82.1 120 
 RUS  HE ES   1   1938 22.31                             137   -0.14 7 82.1 120 
 RUS  HZ I        1938 24.13         6.9 0.28            137           82.1 120 
 PTB  HZ IP     C 1938  7.82                             135   -0.5110 86.3 291 
 PTB  HN ES       1938 21.37                             135   -0.5510 86.3 291 
 PTB  HZ I        1938 24.62        10.7 0.10            133           86.3 291 
 BRR  HZ IP     C 1938  9.06                             133    0.1010 93.7   1 
 BRR  HN ES       1938 23.28                             133    0.2210 93.7   1 
 BRR  HZ I        1938 24.78        12.1 0.12            131           93.7   1 
 NOR  HZ EP   1   1938 14.31                             119   -0.18 7  148 239 
 NOR  HE ES       1938 32.72                             119   -0.17 9  148 239 
 NOR  HZ I        1938 36.44        10.5 0.14            118            148 239 
 CHI  HZ EP   1   1938 18.56                             114    0.05 7  180 180 
 CHI  HE ES   1   1938 40.34                             114    0.29 7  180 180 
 CHI  HZ I        1938 44.67         2.8 0.27            113            180 180 
 ZAR  HZ EP       1938 18.69                             113    0.17 9  185 318 
 ZAR  HN ES       1938 40.62                             113    0.55 9  185 318 
 ZAR  HZ I        1938 44.98         8.1 0.19            112            185 318 
 HEL  HZ EP   1   1938 21.43                             112    0.79 6  199 268 
 HEL  HN ES       1938 44.03                             112    0.19 9  199 268 
 HEL  HZ I        1938 47.62         4.9 0.34            111            199 268 
 GUY2CHN ES   1   1938 47.12                             110   -0.03 6  214 238 
 GUY2CHZ I        1938 54.24         4.3 0.27                           214 238 
 OCA  HN ES       1938 48.07                             109   -0.23 8  223  12 
 OCA  HZ I        1938 54.55         6.6 0.42            108            223  12 
 RREF HZ EP   1   1938 25.19                             108    0.21 6  234 230 
 RREF HE ES   1   1938 51.29                             108   -0.27 6  234 230 
 RREF HZ I        1938 58.84         3.7 0.26            108            234 230 
 SML  HZ EP   1   1938 29.37                             105   -0.68 6  284 352 
 SML  HE ES       1939  0.39                             105   -0.21 7  284 352 
 SML  HZ I        1939  9.96         5.5 0.10            104            284 352 
                                                                                
