 2010  915 1725 42.0 L   6.804 -73.099145.1  RSN 10 0.4 2.3LRSN                1
 GAP=164        0.71       3.7     6.8  7.3 -0.6129E+01  0.6133E+01  0.2357E+00E
 Epicentro: LOS SANTOS - SANTANDER                                             3
 ACTION:UP  11-02-18 11:02 OP:tino STATUS:               ID:20100915172542 L   I
 2010-09-15-1722-39S.COL___119                                                 6
 STAT SP IPHASW D HRMM SECON CODA AMPLIT PERI AZIMU VELO SNR AR TRES W  DIS CAZ7
 BTL  SZ EP   1   1726  0.87                             171    -0.7 7   23 304 
 BAR2 SZ IP     D 1726  1.59                             170     0.010   25 202 
 BAR2 SZ ES   2   1726 16.31                             170    -0.6 5   25 202 
 BAR2 SZ I        1726 19.42        36.7 0.39                            25 202 
 GIR2 SZ EP   2   1726  1.64                             167     0.0 5   32 341 
 BRR  HZ EP   1   1726  3.43                             151     0.1 7   76 296 
 BRR  HZ I        1726  3.77        38.6 0.30                            76 296 
 BRR  HE ES   2   1726 20.85                             151     0.9 5   76 296 
 RUS  HZ EP   1   1726  5.94                             143     0.2 7  101 179 
 RUS  HE ES   2   1726 24.48                             143     0.3 5  101 179 
 RUS  HZ I        1726 25.17        24.8 0.23                           101 179 
 GUE  SZ EP   1   1726  6.56                             139     0.0 7  115  10 
 GRA  SZ EP   1   1726  7.18                             137     0.1 7  124  15 
 GRA  SZ ES   2   1726 26.84                             137     0.3 5  124  15 
 GRA  SZ I        1726 40.50        17.9 0.33                           124  15 
 OCA  SZ EP   1   1726 10.30                             129     0.0 7  161 351 
 OCA  SZ ES   2   1726 32.04                             129    -0.3 5  161 351 
 OCA  SZ I        1726 38.91        23.4 0.43                           161 351 
 CHI  HZ EP   1   1726 19.88                             117     0.0 6  250 196 
 CHI  HN ES   2   1726 49.55                             117     0.1 4  250 196 
 CHI  HZ I        1726 59.02        14.2 0.33                           250 196 
 HEL  HZ EP   1   1726 23.19                             114     0.4 6  277 256 
 HEL  HE ES   2   1726 53.79                             114    -0.8 4  277 256 
 HEL  HZ I        1727  0.70        11.8 0.60                           277 256 
                                                                                
