 2016  415 1750 54.3 L   6.914 -73.224137.0  RSN  5 0.3 1.4LRSN                1
 GAP=158        0.71       4.3     3.8  6.2 -0.6957E+01  0.8575E+01 -0.1778E+01E
 Epicentro: BETULIA - SANTANDER                                                3
 ACTION:UPD 16-05-05 14:21 OP:rebc STATUS:               ID:20160415175054 L   I
 OLDACT:DUP 16-04-16 01:14 OP:cara STATUS:               ID:20160415174751d    3
 OLDACT:REG 16-04-16 00:46 OP:ar   STATUS:               ID:20160415174750     3
 2016-04-15-1747-50M.COL___319                                                 6
 STAT SP IPHASW D HRMM SECON CODA AMPLIT PERI AZIMU VELO AIN AR TRES W  DIS CAZ7
 BAR2 EZ EP       1751 12.99                             165   -0.2310 35.9 173 
 BAR2 EZ ES       1751 28.12                             165    0.1510 35.9 173 
 BAR2 EZ  AMP     1751 29.60        11.5 0.16                          35.9 173 
 PAM  EZ EP       1751 15.99                             150    0.5710 74.7  51 
 PAM  EZ I        1751 16.72        10.9 0.16            153           74.7  51 
 PAM  EN ES       1751 31.54                             150   -0.3610 74.7  51 
 RUS  HZ IP       1751 18.15                             138   -0.1010  114 172 
 RUS  HE ES       1751 36.99                             138    0.0610  114 172 
 RUS  HZ I        1751 38.08         1.6 0.38            141            114 172 
 PTB  HZ EP       1751 19.85                             131   -0.22 9  142 253 
 PTB  HN ES       1751 40.32                             131    0.16 9  142 253 
 PTB  HZ I        1751 46.37         2.4 0.44            131            142 253 
 NOR  HZ EP   4   1751 27.65                             116   -1.97 0  235 231 
 NOR  HN ES       1751 57.10                             116   -0.06 8  235 231 
                                                                                
