 2016  215 1714 22.0 L   6.806 -73.182143.4  RSN 15 0.4 2.4LRSN                1
 GAP=132        0.97       3.1     3.4  4.9 -0.1198E+01  0.5318E+01  0.1960E+01E
 Epicentro: ZAPATOCA - SANTANDER                                               3
 ACTION:UPD 16-03-04 21:26 OP:rebc STATUS:               ID:20160215171422 L   I
 OLDACT:REG 16-02-15 21:29 OP:ak   STATUS:               ID:20160215170747     3
 2016-02-15-1707-47M.COL___313                                                 6
 STAT SP IPHASW D HRMM SECON CODA AMPLIT PERI AZIMU VELO AIN AR TRES W  DIS CAZ7
 BAR2 EZ EP     D 1714 41.21                             170   -0.1210 23.6 180 
 BAR2 EZ ES       1714 56.45                             170    0.0310 23.6 180 
 BAR2 EZ I        1714 58.99        66.6 0.28            168           23.6 180 
 BRR  HZ EP       1714 42.95                             153    0.2910 67.4 300 
 BRR  HN ES       1714 59.73                             153    0.9410 67.4 300 
 BRR  HZ I        1715  2.56        38.7 0.22            152           67.4 300 
 PAM  EZ EP       1714 44.09                             150    0.0210 79.5  42 
 PAM  EN ES       1715  1.03                             150   -0.2710 79.5  42 
 PAM  EZ I        1715  4.29        37.0 0.30            156           79.5  42 
 RUS  HZ EP       1714 45.20                             143   -0.3710  102 174 
 RUS  HN ES       1715  3.72                             143   -0.2510  102 174 
 RUS  HZ I        1715  5.09        25.4 0.34            145            102 174 
 PTB  HZ EP       1714 47.80                             132   -0.60 9  144 258 
 PTB  HN ES       1715  8.54                             132   -0.48 9  144 258 
 PTB  HZ I        1715 16.18        24.3 0.18            132            144 258 
 SPBC HZ EP       1714 50.20                             129    0.10 9  161 218 
 SPBC HN ES       1715 12.30                             129    0.26 9  161 218 
 SPBC HZ I        1715 19.21        37.9 0.13            130            161 218 
 ZAR  HZ EP       1714 54.12                             122    0.26 9  200 292 
 ZAR  HN ES       1715 18.56                             122   -0.17 9  200 292 
 ZAR  HZ I        1715 24.54        26.4 0.26            124            200 292 
 NOR  HZ EP       1714 57.01                             118   -0.25 8  232 234 
 NOR  HN ES       1715 24.65                             118   -0.13 8  232 234 
 NOR  HZ I        1715 30.69        18.4 0.24            119            232 234 
 CHI  HZ EP       1714 59.53                             117    0.03 8  248 194 
 CHI  HN ES       1715 28.74                             117   -0.03 8  248 194 
 CHI  HZ I        1715 34.03        14.1 0.28            119            248 194 
 ROSC BZ EP   9   1715  1.41                             116    1.61 0  251 210 
 ROSC BN ES       1715 31.53                                    0.61 8  251 210 
 ROSC BZ I        1715 35.91        40.3 0.40            118            251 210 
 URE  HN ES   4   1715 31.54                             114   -2.55 0  280 292 
 GUY2CHZ EP       1715  5.88                             112    0.73 7  298 234 
 GUY2CHN ES       1715 38.78                             112   -0.04 7  298 234 
 GUY2CHZ I        1715 47.61        14.8 0.60                           298 234 
 DBB  SZ EP       1715  9.24                             109    0.35 7  335 274 
 DBB  SZ ES       1715 44.66                             109   -0.82 7  335 274 
 DBB  SZ I        1715 48.81        42.9 0.48            111            335 274 
 ANIL HZ EP   9   1715 13.42                             108    2.00 0  355 224 
 ANIL HN ES       1715 51.93                                   -0.06 6  355 224 
 ORTC HZ EP   2   1715 16.37                             106    0.77 3  394 216 
 ORTC HN ES       1715 58.42                             106    1.00 6  394 216 
 ORTC HZ I        1716  5.06         8.6 0.34            108            394 216 
 SJC  HZ EP   4   1715 15.42                             106   -1.72 0  407 327 
 SJC  HN ES   4   1715 56.43                             106   -3.74 0  407 327 
 SJC  HZ I        1716  5.25         4.2 0.27            107            407 327 
                                                                                
