 2015  615 1156 54.7 L   6.751 -73.112140.0  RSN  5 0.4 1.4LRSN                1
 GAP=237        0.71       6.0     6.4  6.8 -0.3039E+01  0.4023E+01  0.1050E+02E
 Epicentro: LOS SANTOS - SANTANDER                                             3
 ACTION:UPD 15-09-10 22:12 OP:cam  STATUS:               ID:20150615115654 L   I
 OLDACT:DUP 15-06-15 23:11 OP:stll STATUS:               ID:20150615114750d    3
 OLDACT:REG 15-06-15 20:30 OP:stll STATUS:               ID:20150615114749     3
 2015-06-15-1147-49M.COL___309                                                 6
 STAT SP IPHASW D HRMM SECON CODA AMPLIT PERI AZIMU VELO AIN AR TRES W  DIS CAZ7
 BAR2 EZ EP       1157 13.44                             172   -0.1010 19.2 204 
 BAR2 EZ ES       1157 28.02                             172   -0.2310 19.2 204 
 BAR2 EZ I        1157 31.34         4.0 0.42            162           19.2 204 
 BRR  HZ EP   2   1157 15.72                             149    0.15 5 77.2 301 
 BRR  HN ES   2   1157 32.93                             149    1.07 5 77.2 301 
 RUS  HZ EP       1157 17.56                             144    0.1010 94.9 178 
 SPBC HZ EP       1157 22.69                             128    0.12 9  161 221 
 SPBC HE ES       1157 44.31                             128   -0.02 9  161 221 
 SPBC HZ I        1157 50.41         5.1 0.24            126            161 221 
 ZAR  HN ES   2   1157 51.90                             120   -0.91 4  210 293 
 ZAR  HZ I        1158  2.14         2.3 0.50            117            210 293 
                                                                                
