 2016  415 1205 42.9 L   7.527 -73.592110.9  RSN  4 0.4 1.6LRSN                1
 GAP=193        0.83       5.9     3.0 11.5  0.1212E+00  0.9642E+01 -0.2104E+02E
 Epicentro: SABANA DE TORRES - SANTANDER                                       3
 ACTION:UPD 16-05-05 14:21 OP:rebc STATUS:               ID:20160415120542 L   I
 OLDACT:DUP 16-04-15 22:53 OP:ar   STATUS:               ID:20160415115742d    3
 OLDACT:REG 16-04-15 18:30 OP:ar   STATUS:               ID:20160415115741     3
 2016-04-15-1157-41M.COL___312                                                 6
 STAT SP IPHASW D HRMM SECON CODA AMPLIT PERI AZIMU VELO AIN AR TRES W  DIS CAZ7
 PAM  EZ EP       12 6  3.24                             135   -0.1910  101 102 
 PAM  EN ES       12 6 19.19                             135   -0.2410  101 102 
 PAM  EZ I        12 6 21.89         6.3 0.28            143            101 102 
 BAR2 EZ EP       12 6  4.50                             131    0.3310  113 156 
 BAR2 EZ ES       12 6 21.11                             131    0.3610  113 156 
 BAR2 EZ I        12 6 22.92        14.6 0.38            137            113 156 
 ZAR  HZ EP       12 6  6.71                             124    0.24 9  140 269 
 ZAR  HN ES       12 6 24.99                             124    0.15 9  140 269 
 ZAR  HZ I        12 6 28.61         6.4 0.26            129            140 269 
 PTB  HZ EP   2   12 6  6.07                             123   -0.94 5  145 221 
 PTB  HN ES       12 6 25.37                             123   -0.44 9  145 221 
 PTB  HZ I        12 6 31.73         3.7 0.14            128            145 221 
                                                                                
