 2010  515 1301 37.1 L   6.864 -73.220124.4  RSN  4 0.2 1.9LRSN                1
 GAP=150        0.46       4.2     6.9  6.5 -0.1142E+02 -0.1034E+02 -0.3797E+01E
 Epicentro: ZAPATOCA - SANTANDER                                               3
 ACTION:UP  10-08-24 10:05 OP:vdl  STATUS:               ID:20100515130137 L   I
 2010-05-15-1259-54S.COL___108                                                 6
 STAT SP IPHASW D HRMM SECON CODA AMPLIT PERI AZIMU VELO AIN AR TRES W  DIS CAZ7
 BAR2 SZ IP     D 13 1 54.29                             166    -0.110   30 172 
 BAR2 SZ ES   2   13 2  7.91                             166     0.1 5   30 172 
 BRR  HZ EP   1   13 1 55.40                             152     0.1 7   61 296 
 BRR  HN ES   2   13 2  9.58                             152     0.0 5   61 296 
 BRR  HZ I        13 2 17.52        18.4 0.25                            61 296 
 GUE  SZ IP       13 1 59.27                             135    -0.210  112  17 
 GUE  SZ ES   2   13 2 16.75                             135    -0.2 5  112  17 
 GRA  SZ EP   1   13 2  0.57                             133     0.4 7  122  22 
 GRA  SZ ES   2   13 2 18.30                             133     0.1 5  122  22 
                                                                                
