 2016  315 1025 30.6 L   6.817 -73.195140.9  RSN  7 0.3 1.6LRSN                1
 GAP=130        0.65       2.8     2.7  4.6 -0.1197E+01  0.4224E+01 -0.1829E+01E
 Epicentro: ZAPATOCA - SANTANDER                                               3
 ACTION:UPD 16-05-13 21:24 OP:cam  STATUS:               ID:20160315101750 L   I
 OLDACT:UPD 16-03-15 21:00 OP:AR   STATUS:               ID:20160315101750 L   3
 2016-03-15-1017-50M.COL___297                                                 6
 STAT SP IPHASW D HRMM SECON CODA AMPLIT PERI AZIMU VELO AIN AR TRES W  DIS CAZ7
 BAR2 EZ IP       1025 49.55                             169   -0.0910 24.9 177 
 BAR2 EZ ES       1026  4.39                             169   -0.1310 24.9 177 
 BAR2 EZ I        1026  5.66         9.3 0.34            171           24.9 177 
 PAM  EZ EP       1025 52.25                             149   -0.1410 79.5  43 
 PAM  EN ES       1026  9.59                             149    0.1710 79.5  43 
 PAM  EZ I        1026 11.63        12.4 0.52            152           79.5  43 
 RUS  HZ EP       1025 53.77                             142   -0.2510  103 173 
 RUS  HN ES       1026 12.55                             142    0.2410  103 173 
 RUS  HZ I        1026 13.24         3.7 0.22            145            103 173 
 PTB  HZ EP       1025 56.40                             132   -0.29 9  143 258 
 PTB  HN ES       1026 17.35                             132    0.28 9  143 258 
 PTB  HZ I        1026 19.13         2.7 0.30            132            143 258 
 SPBC HZ EP       1025 58.80                             128    0.28 9  161 217 
 SPBC HN ES       1026 20.13                             128   -0.19 9  161 217 
 SPBC HZ I        1026 25.54         6.6 0.36            130            161 217 
 ZAR  HZ EP       1026  2.59                             122    0.49 9  198 292 
 ZAR  HN ES       1026 26.39                             122   -0.31 9  198 292 
 ZAR  HZ I        1026 34.22         5.3 0.36            123            198 292 
 GUY2CHZ EP   9   1026 15.67                             112    2.09 0  298 234 
 GUY2CHN ES       1026 49.12                                   -0.10 7  298 234 
 GUY2CHZ I        1026 53.66         1.6 0.32                           298 234 
                                                                                
