 2016  415 1026 49.6 L   6.840 -73.172142.3  RSN 10 0.4 2.1LRSN                1
 GAP=131        0.85       3.1     3.4  5.7 -0.3191E+01  0.8862E+01 -0.1809E+01E
 Epicentro: ZAPATOCA - SANTANDER                                               3
 ACTION:UPD 16-05-05 14:21 OP:rebc STATUS:               ID:20160415102649 L   I
 OLDACT:DUP 16-04-15 19:50 OP:ar   STATUS:               ID:20160415101741d    3
 2016-04-15-1017-40M.COL___310                                                 6
 STAT SP IPHASW D HRMM SECON CODA AMPLIT PERI AZIMU VELO AIN AR TRES W  DIS CAZ7
 BAR2 EZ EP       1027  8.88                             169   -0.0210 27.5 182 
 BAR2 EZ ES       1027 23.85                             169   -0.1210 27.5 182 
 BAR2 EZ I        1027 24.78        33.1 0.28            169           27.5 182 
 PAM  EZ EP       1027 11.82                             151    0.4610 75.9  43 
 PAM  EN ES       1027 28.53                             151    0.2010 75.9  43 
 PAM  EZ I        1027 31.08        29.0 0.62            155           75.9  43 
 RUS  HZ EP   2   1027 12.87                             142   -0.49 5  105 175 
 RUS  HN ES   2   1027 31.65                             142   -0.24 5  105 175 
 RUS  HZ I        1027 32.34         8.0 0.22            145            105 175 
 PTB  HZ EP       1027 16.30                             132    0.19 9  146 257 
 PTB  HN ES       1027 36.67                             132   -0.12 9  146 257 
 PTB  HZ I        1027 39.02        13.8 0.16            132            146 257 
 OCA  HZ EP       1027 16.97                             130   -0.22 9  156 354 
 OCA  HN ES       1027 38.47                             130   -0.24 9  156 354 
 OCA  HZ I        1027 42.11        30.9 0.24            132            156 354 
 SPBC HZ EP       1027 17.81                             128   -0.18 9  165 217 
 SPBC HE ES       1027 39.81                             128   -0.34 9  165 217 
 SPBC HZ I        1027 46.89        15.7 0.20            130            165 217 
 ZAR  HZ EP   4   1027 22.88                             122    1.51 0  200 291 
 ZAR  HN ES       1027 46.85                             122    0.70 9  200 291 
 ZAR  HZ I        1027 53.41        19.0 0.46            123            200 291 
 HEL  HZ EP       1027 29.89                             114    0.44 8  270 255 
 HEL  HN ES       1028  0.53                             114   -0.00 8  270 255 
 HEL  HZ I        1028  9.60         3.6 0.46            116            270 255 
 URE  HZ EP       1027 29.27                             113   -0.74 7  279 291 
 URE  HN ES       1028  0.94                             113   -0.59 7  279 291 
 URE  HZ I        1028  4.40         8.3 0.16            115            279 291 
 GUY2CHZ EP   2   1027 33.50                             112    0.43 4  301 234 
 GUY2CHN ES       1028  7.64                             112    0.65 7  301 234 
 GUY2CHZ I        1028 13.95         2.8 0.24                           301 234 
                                                                                
