 2016 1115 1518  6.1 L   6.725 -73.119140.3  RSN  6 0.4 1.9LRSN                1
 GAP=171        0.93       5.8     4.4  6.3 -0.8800E+01  0.7677E+01  0.4888E+01E
 Epicentro: JORDAN - SANTANDER                                                 3
 ACTION:UPD 17-10-26 21:08 OP:lp   STATUS:               ID:20161115151806 L   I
 OLDACT:REG 16-11-15 19:59 OP:and  STATUS:               ID:20161115150744     3
 2016-11-15-1508-00M.COL___347                                                 6
 STAT SP IPHASW D HRMM SECON CODA AMPLIT PERI AZIMU VELO AIN AR TRES W  DIS CAZ7
 BAR2 EZ IP     C 1518 25.12                             173    0.2010 16.3 205 
 BAR2 EZ ES       1518 39.52                             173   -0.1010 16.3 205 
 BAR2 EZ I        1518 41.21        23.8 0.17            172           16.3 205 
 BRR  HZ EP       1518 27.18                             149    0.1410 77.9 303 
 BRR  HN ES       1518 43.86                             149    0.4710 77.9 303 
 BRR  HZ I        1518 48.36        15.5 0.10            146           77.9 303 
 PAM  EZ EP       1518 28.08                             148    0.0610 82.2  34 
 PAM  EN ES       1518 44.91                             148   -0.2210 82.2  34 
 PAM  EZ I        1518 48.81         6.1 0.30            148           82.2  34 
 PTB  HZ EP       1518 32.32                             130   -0.42 9  149 262 
 PTB  HN ES       1518 52.81                             130   -0.73 9  149 262 
 PTB  HZ I        1518 55.13         8.8 0.16            131            149 262 
 ZAR  HZ EP       1518 38.33                             120   -0.46 8  210 294 
 ZAR  HE ES       1519  4.68                             120    0.37 8  210 294 
 ZAR  HZ I        1519 12.17        11.2 0.20            121            210 294 
 NOR  HZ EP       1518 41.71                             118    0.46 8  232 237 
 NOR  HN ES       1519  8.99                             118    0.31 8  232 237 
 NOR  HZ I        1519 11.92         4.8 0.16            119            232 237 
                                                                                
