 2014 1015 1150 23.8 L   6.828 -73.158142.2  RSN 14 0.5 2.3LRSN                1
 GAP=118        1.57       5.1     6.1  7.9 -0.2739E+01  0.1557E+02  0.7441E+01E
 Epicentro: LOS SANTOS - SANTANDER                                             3
 ACTION:UPD 14-11-29 23:50 OP:nd   STATUS:               ID:20141015115023 L   I
 OLDACT:REG 14-10-15 22:55 OP:fm   STATUS:               ID:20141015114748     3
 2014-10-15-1147-48M.COL___288                                                 6
 STAT SP IPHASW D HRMM SECON CODA AMPLIT PERI AZIMU VELO AIN AR TRES W  DIS CAZ7
 BAR2 SZ IP       1150 43.27                             169    0.2310 26.2 186 
 BAR2 SZ I        1150 43.49        56.9 0.32            170           26.2 186 
 BAR2 SZ ES       1150 58.18                             169    0.1210 26.2 186 
 BRR  HZ IP     C 1150 45.05                             153    0.6610 68.6 297 
 BRR  HZ I        1150 45.24        51.0 0.28            134           68.6 297 
 BRR  HN ES       1151  0.81                             153    0.3410 68.6 297 
 PAM  SZ EP       1150 45.90                             151    0.3710 75.9  42 
 PAM  SZ I        1150 46.22        48.9 0.24            134           75.9  42 
 PAM  SE ES       1151  2.69                             151    0.2010 75.9  42 
 RUS  HZ EP       1150 46.87                             142   -0.5410  104 175 
 RUS  HN ES       1151  5.62                             142   -0.2210  104 175 
 PTB  HZ EP       1150 49.76                             131   -0.64 9  147 258 
 PTB  HE ES       1151 10.83                             131   -0.33 9  147 258 
 PTB  HZ I        1151 16.35        19.6 0.26            116            147 258 
 ZAR  HZ EP       1150 55.98                             122    0.23 9  202 291 
 ZAR  HN ES       1151 19.78                             122   -0.90 9  202 291 
 ZAR  HZ I        1151 27.58        25.4 0.34            108            202 291 
 SML  HZ EP       1150 59.31                             117   -0.54 8  240 335 
 SML  HZ I        1151 37.98        20.4 0.10            105            240 335 
 CHI  HZ EP       1151  1.53                             116   -0.04 8  251 195 
 CHI  HN ES       1151 30.44                             116   -0.60 8  251 195 
 CHI  HZ I        1151 40.54         4.2 0.32            106            251 195 
 SOCV BZ EP   9   1151  5.81                             111   -0.79 0  301  57 
 SOCV BN ES       1151 36.56                                   -2.65 7  301  57 
 GUY2CHZ EP       1151  6.79                             111   -0.51 7  302 234 
 GUY2CHN ES       1151 41.78                             111    0.53 7  302 234 
 GUY2CHZ I        1151 49.93         9.5 0.62                           302 234 
 RREF HZ EP   9   1151  6.94                             110   -2.94 0  323 229 
 RREF HN ES       1151 42.65                                   -0.25 7  323 229 
 RREF HZ I        1151 51.60         7.9 0.32            102            323 229 
 CBOC HZ EP       1151 10.58                             109    0.07 7  333 252 
 CBOC HZ I        1151 55.95         3.8 0.10            101            333 252 
 TOL  SZ EP       1151 13.15                             108    1.11 7  345 224 
 TOL  SE ES       1151 51.06                             108    1.38 7  345 224 
 PRA  HZ EP       1151 17.41                             106   -0.01 6  394 209 
 PRA  HN ES       1151 58.71                             106   -0.54 6  394 209 
 PRA  HZ I        1152  5.88         6.5 0.26             99            394 209 
                                                                                
