 2011  115 1847 47.4 L   6.742 -73.083146.4  RSN  4 0.5 1.6LRSN                1
 GAP=226        0.83      10.9    12.7 11.0 -0.2411E+02  0.4448E+02  0.1970E+02E
 Epicentro: JORDAN - SANTANDER                                                 3
 ACTION:UP  11-02-08 08:40 OP:pat  STATUS:               ID:20110115184747 L   I
 2011-01-15-1847-36S.COL___136                                                 6
 STAT SP IPHASW D HRMM SECON CODA AMPLIT PERI AZIMU VELO SNR AR TRES W  DIS CAZ7
 BAR2 SZ EP   1   1848  6.61                             172    -0.4 7   20 214 
 BAR2 SZ ES   2   1848 21.60                             172    -0.8 5   20 214 
 BAR2 SZ I        1848 22.81        14.0 0.21                            20 214 
 BTL  SZ EP   1   1848  7.84                             168     0.6 7   28 314 
 BTL  SZ ES   2   1848 22.81                             168     0.1 5   28 314 
 RUS  HZ EP   1   1848 10.57                             146    -0.2 7   94 180 
 RUS  HZ I        1848 11.20         3.6 0.29                            94 180 
 RUS  HN ES   2   1848 29.60                             146     0.6 5   94 180 
 NOR  SZ EP   1   1848 23.27                             118    -0.1 6  237 237 
 NOR  SE ES   2   1848 51.58                             118     0.1 4  237 237 
                                                                                
