 2011  315 1006 11.8 L   6.859 -73.539 10.7  RSN  5 0.4 1.3LRSN                1
 GAP=117        1.00       3.0    13.2 26.9  0.9585E+01  0.3307E+03  0.2397E+02E
 Epicentro: SAN VICENTE DE CHUCURI - SANTANDER                                 3
 ACTION:UP  11-06-16 14:33 OP:jfem STATUS:               ID:20110315100611 L   I
 2011-03-15-1004-39S.COL___137                                                 6
 STAT SP IPHASW D HRMM SECON CODA AMPLIT PERI AZIMU VELO SNR AR TRES W  DIS CAZ7
 BAR2 SZ EP   1   10 6 19.27                              99    -0.9 8   49 127 
 RUS  HZ EP   2   10 6 31.47                              93     0.6 5  118 155 
 RUS  HZ I        10 6 32.49         4.7 0.22                           118 155 
 RUS  HN ES   1   10 6 46.24                              93     0.5 8  118 155 
 GRA  SZ EP   1   10 6 33.85                              93     0.1 8  139  36 
 GRA  SZ ES   1   10 6 50.69                              93    -0.1 8  139  36 
 GRA  SZ I        10 6 55.33         6.0 0.29                           139  36 
 OCA  SZ EP       10 6 35.86                              93    -0.110  154   9 
 OCA  SZ ES   1   10 6 55.36                              93     0.5 7  154   9 
 OCA  SZ I        10 6 59.64         3.9 0.54                           154   9 
 HEL  HZ EP   1   10 6 45.98                              56     0.0 7  232 252 
 HEL  HN ES   1   10 7 12.49                              56    -0.1 7  232 252 
 HEL  HZ I        10 7 13.02         2.9 0.33                           232 252 
                                                                                
