 2017  115 1358  4.5 L   6.398 -73.645109.6  RSN 20 0.6 2.6LRSN                1
 GAP= 51        1.14       3.0     3.4  6.4 -0.1576E+01  0.1006E+02  0.2239E+01E
 Epicentro: SANTA HELENA DEL OPON - SANTANDER                                  3
 ACTION:UPD 17-05-22 15:59 OP:jn   STATUS:               ID:20170115135804 L   I
 OLDACT:UP  17-01-15 23:18 OP:dani STATUS:               ID:20170115134742     3
 OLDACT:UP  17-01-15 23:16 OP:dani STATUS:               ID:20170115134742     3
 OLDACT:REG 17-01-15 20:21 OP:dani STATUS:               ID:20170115134742     3
 2017-01-15-1348-00M.COL___341                                                 6
 STAT SP IPHASW D HRMM SECON CODA AMPLIT PERI AZIMU VELO AIN AR TRES W  DIS CAZ7
 BAR2 EZ EP       1358 21.46                             151    0.2910 55.5  67 
 BAR2 HE ES       1358 34.77                             151    0.5710 55.5  67 
 BRR  HZ EP     C 1358 22.46                             141    0.0510 78.8 355 
 BRR  HE ES       1358 36.57                             141    0.1710 78.8 355 
 BRR  HZ I        1358 42.68        96.5 0.14            145           78.8 355 
 RUS  HZ EP       1358 23.26                             140   -0.2010 83.6 132 
 RUS  HE ES       1358 37.46                             140   -0.8310 83.6 132 
 RUS  HZ I        1358 39.34        63.4 0.52            146           83.6 132 
 PTB  HZ EP       1358 22.53                             137   -0.8810 91.1 280 
 PTB  HN ES   3   1358 36.61                             137   -1.57 2 91.1 280 
 PTB  HZ I        1358 37.68       126.1 0.40            138           91.1 280 
 PAM  EZ EP     C 1358 29.62                             122    0.26 9  148  45 
 PAM  EE ES       1358 49.19                             122    0.41 9  148  45 
 PAM  EZ I        1358 54.17        44.8 0.42            128            148  45 
 NOR  HZ EP     D 1358 29.76                             119   -0.75 9  164 236 
 NOR  HE ES       1358 50.72                             119   -0.10 9  164 236 
 NOR  HZ I        1358 54.10        81.0 0.14            121            164 236 
 ZAR  HZ EP       1358 32.60                             116    0.35 9  181 312 
 ZAR  HE ES   3   1358 55.21                             116    1.29 2  181 312 
 ZAR  HZ I        1359  0.13       141.8 0.32            119            181 312 
 ROSC BZ EP       1358 34.32                             115    0.79 9  188 203 
 ROSC BN ES   4   1358 58.76                             115    2.56 0  188 203 
 ROSC BZ I        1359  3.91        44.7 0.35            118            188 203 
 CHI  HZ EP       1358 34.26                             114   -0.18 9  196 183 
 CHI  HN ES       1358 57.84                             114    0.02 9  196 183 
 CHI  HZ I        1359  1.26        55.1 0.24            118            196 183 
 TAM  HZ EP       1358 35.36                             113    0.35 9  205  89 
 TAM  HE ES   3   1358 57.64                             113   -1.20 2  205  89 
 TAM  HZ I        1358 58.85        36.1 0.26            118            205  89 
 GUY2CHZ EP       1358 38.49                             110    0.06 8  230 236 
 GUY2CHN ES   4   1359  7.61                             110    2.68 0  230 236 
 GUY2CHZ  IAML    1359 10.17        30.3 0.44                           230 236 
 URE  HZ EP       1358 39.88                             107   -1.00 8  257 306 
 URE  HN ES   3   1359  7.61                             107   -1.68 2  257 306 
 URE  HZ I        1359 16.77        64.1 0.16            110            257 306 
 ELA  HZ EP   3   1358 42.91                             107    1.21 2  258 229 
 ELA  HE ES   4   1359  7.97                             107   -2.78 0  258 229 
 ELA  HZ I        1359 21.26        20.7 0.32            110            258 229 
 CBOC HZ EP       1358 43.39                             106    0.93 8  269 257 
 CBOC HN ES   4   1359  8.78                             106   -3.32 0  269 257 
 CBOC HZ I        1359 17.27        11.3 0.42            109            269 257 
 DBB  EZ EP   4   1358 46.30                             105    1.23 0  292 284 
 DBB  HN ES       1359 17.01                             105    0.27 7  292 284 
 DBB  EZ I        1359 20.64        20.5 0.14            107            292 284 
 ORTC HZ EP       1358 49.17                             102   -0.08 7  327 213 
 ORTC HN ES       1359 24.81                             102    0.63 7  327 213 
 ORTC HZ I        1359 31.31        25.8 0.24            105            327 213 
 PAL  HZ EP       1358 50.05                             102   -0.21 7  336 241 
 LL6C HZ EP   4   1358 36.66                             100   -17.8 0  371   6 
 LL6C HN ES   4   1359 18.39                             100   -15.1 0  371   6 
 LL6C HZ I        1359 26.46        17.9 0.30            103            371   6 
 SJC  HZ EP   3   1358 59.32                              98   -1.34 1  422 336 
 SJC  HN ES   4   1359 41.97                              98   -2.52 0  422 336 
 SJC  HZ I        1359 47.47         9.1 0.36            101            422 336 
 CRJC HZ EP       1359 11.70                              95   -0.60 4  518   9 
 CRJC HN ES       14 0  4.45                              95   -0.77 4  518   9 
                                                                                
