 2011 1115 1101 52.8 L   6.809 -73.162143.1  RSN 17 0.4 3.2LRSN                1
 GAP=112        0.77       2.8     4.1  5.6  0.1035E+01  0.1049E+02  0.4315E+01E
 Epicentro: LOS SANTOS - SANTANDER                                             3
 ACTION:UPD 12-07-13 16:10 OP:ep   STATUS:               ID:20111115110152 L   I
 2011-11-15-1100-18S.COL___179                                                 6
 STAT SP IPHASW D HRMM SECON CODA AMPLIT PERI AZIMU VELO AIN AR TRES W  DIS CAZ7
 BAR2 SZ IP       11 2 12.12                             170   -0.0510 24.1 185 
 BAR2 SZ ES   1   11 2 27.24                             170   -0.01 7 24.1 185 
 BAR2 SZ I        11 2 29.29       358.1 0.37                          24.1 185 
 BRR  HZ EP       11 2 14.02                             153    0.4310 69.1 298 
 BRR  HZ I        11 2 33.19       240.9 0.14                          69.1 298 
 PAM  SZ EP       11 2 14.89                             150    0.0910 77.8  41 
 PAM  SE ES   1   11 2 32.19                             150    0.26 7 77.8  41 
 RUS  HZ EP       11 2 16.04                             143   -0.3810  102 175 
 RUS  HE ES   1   11 2 34.92                             143    0.11 7  102 175 
 RUS  HZ I        11 2 36.56       221.3 0.47                           102 175 
 OCA  SZ EP   1   11 2 20.63                             129   -0.20 7  159 354 
 OCA  SZ ES   1   11 2 42.31                             129   -0.36 7  159 354 
 OCA  SZ I        11 2 47.11       133.9 0.21                           159 354 
 YOP  SZ EP   1   11 2 22.62                             125   -0.25 7  181 153 
 YOP  SE ES   1   11 2 46.38                             125    0.09 7  181 153 
 YOP  SZ I        11 2 48.04        90.2 0.28                           181 153 
 ZAR  HZ EP   1   11 2 24.72                             122   -0.19 6  202 292 
 ZAR  HN ES   1   11 2 49.66                             122   -0.26 6  202 292 
 ZAR  HZ I        11 2 56.61       281.4 0.43                           202 292 
 NOR  SZ EP   1   11 2 27.95                             118   -0.38 6  234 234 
 NOR  SN ES   1   11 2 55.32                             118   -0.69 6  234 234 
 CHI  HZ EP   1   11 2 30.15                             116   -0.30 6  249 195 
 CHI  HZ I        11 3  5.50        89.1 0.42                           249 195 
 ROSC BZ EP   1   11 2 31.76                             116    0.95 6  253 211 
 ROSC BZ I        11 3  5.49       186.4 0.44                           253 211 
 HEL  HZ EP   1   11 2 33.50                             114    0.74 6  271 255 
 HEL  HZ I        11 3 10.69       108.4 0.57                           271 255 
 CVER SZ EP   2   11 2 34.14                             114    1.04 4  272 202 
 GUY  SZ EP   1   11 2 37.04                             112    0.55 5  303 235 
 GUY  SZ I        11 3 17.35       147.6 0.44                           303 235 
 VIL  SZ EP   1   11 2 35.23                             111   -0.98 5  304 191 
 VIL  SZ I        11 3 16.47        52.8 0.36                           304 191 
 RREF HZ EP   1   11 2 39.11                             110    0.32 5  321 229 
 TOL  SZ EP   1   11 2 40.93                             109    0.00 5  343 224 
 PRA  HZ EP   1   11 2 45.93                             106   -0.34 4  392 209 
 PRA  HE ES   1   11 3 28.54                             106    0.59 4  392 209 
                                                                                
