 2015  315 1256 15.9 L   6.780 -73.172143.5  RSN  7 0.5 1.9LRSN                1
 GAP=143        1.22       5.0     6.4  8.7 -0.1206E+02  0.1415E+02 -0.1039E+02E
 Epicentro: LOS SANTOS - SANTANDER                                             3
 ACTION:UPD 15-04-30 16:26 OP:nd   STATUS:               ID:20150315125615 L   I
 OLDACT:REG 15-03-15 20:45 OP:cam  STATUS:               ID:20150315124748     3
 2015-03-15-1247-48M.COL___257                                                 6
 STAT SP IPHASW D HRMM SECON CODA AMPLIT PERI AZIMU VELO AIN AR TRES W  DIS CAZ7
 BAR2 EZ EP     C 1256 35.24                             171    0.0210 20.8 183 
 BAR2 EZ ES       1256 50.09                             171   -0.1910 20.8 183 
 BAR2 EZ I        1256 51.45         7.7 0.26            170           20.8 183 
 BRR  HZ IP     C 1256 37.24                             153    0.5110 69.7 301 
 BRR  HN ES       1256 53.91                             153    0.9410 69.7 301 
 BRR  HN I        1256 58.69        31.3 0.16            151           69.7 301 
 PAM  SZ IP     D 1256 38.34                             149    0.2310 80.9  40 
 PAM  SN ES       1256 54.98                             149   -0.4410 80.9  40 
 PAM  SZ I        1256 56.29         5.2 0.20            154           80.9  40 
 PTB  HZ EP       1256 42.40                             132    0.00 9  144 259 
 PTB  HN ES       1257  2.08                             132   -0.97 9  144 259 
 PTB  HZ I        1257  6.65         6.5 0.16            132            144 259 
 SPBC HN ES       1257  5.92                             129    0.18 9  160 219 
 SPBC HN I        1257 12.40        12.4 0.18            130            160 219 
 OCA  HN ES       1257  5.94                             129   -0.36 9  162 354 
 SML  HZ EP       1256 52.20                             117   -0.30 8  244 336 
 SML  HE ES       1257 21.22                             117    0.19 8  244 336 
 SML  HE I        1257 24.74        12.1 0.10            118            244 336 
                                                                                
