 2014  715 1242 20.0 L   6.705 -73.472120.7  RSN  4 0.2 1.5LRSN                1
 GAP=142        0.66       4.4     3.7  5.6  0.7612E+01  0.5050E+01  0.6032E+01E
 Epicentro: EL CARMEN - SANTANDER                                              3
 ACTION:UPD 15-03-16 20:44 OP:nd   STATUS:               ID:20140715124220 L   I
 OLDACT:REG 14-07-15 21:28 OP:stll STATUS:               ID:20140715123816     3
 2014-07-15-1238-16M.COL___253                                                 6
 STAT SP IPHASW D HRMM SECON CODA AMPLIT PERI AZIMU VELO AIN AR TRES W  DIS CAZ7
 BAR2 SZ EP       1242 36.82                             163   -0.1110 34.4 111 
 BAR2 SZ ES       1242 49.81                             163   -0.3410 34.4 111 
 BAR2 SZ I        1242 50.80        17.8 0.14            166           34.4 111 
 BRR  HZ EP       1242 37.22                             155   -0.1110 51.7 329 
 BRR  HN ES       1242 51.22                             155    0.3610 51.7 329 
 RUS  HZ EP       1242 41.22                             138   -0.0510 99.7 154 
 RUS  HN ES       1242 58.19                             138    0.3010 99.7 154 
 RUS  HZ I        1242 59.35         4.7 0.22            139           99.7 154 
 PTB  HZ EP       1242 41.70                             135    0.1810  110 260 
 PTB  HN ES       1242 58.09                             135   -0.2410  110 260 
 PTB  HZ I        1243  3.75         4.7 0.42            133            110 260 
                                                                                
