 2017  615 1527 17.4 L   6.747 -73.141147.4  RSN  4 0.2 1.8LRSN                1
 GAP=278        0.60       4.8     6.2  6.2  0.3038E+01 -0.8964E+01  0.7262E+01E
 Epicentro: LOS SANTOS - SANTANDER                                             3
 ACTION:UPD 17-09-14 16:52 OP:jn   STATUS:               ID:20170615152717 L   I
 OLDACT:REG 17-06-15 21:00 OP:ar   STATUS:               ID:20170615151632     3
 2017-06-15-1518-00M.COL___368                                                 6
 STAT SP IPHASW D HRMM SECON CODA AMPLIT PERI AZIMU VELO AIN AR TRES W  DIS CAZ7
 BRR  HZ EP       1527 38.92                             152    0.0510 74.6 302 
 BRR  HN ES       1527 55.64                             152   -0.0210 74.6 302 
 PTB  HZ EP       1527 43.87                             132   -0.54 9  147 261 
 PTB  HN ES       1528  5.49                             132   -0.02 9  147 261 
 PTB  HZ I        1528  7.89         5.7 0.20            128            147 261 
 SPBC HZ EP       1527 45.88                             130    0.30 9  159 220 
 SPBC HE ES   2   1528  7.66                             130    0.06 5  159 220 
 ZAR  HZ EP       1527 50.31                             122    0.12 8  207 294 
 ZAR  HN ES       1528 15.96                             122    0.16 8  207 294 
 ZAR  HZ I        1528 20.71         6.0 0.64            119            207 294 
                                                                                
