 2013  215 1543 30.1 L   6.720 -73.612103.9  RSN  5 0.3 1.7LRSN                1
 GAP=119        0.74       4.2     7.0 12.9  0.6591E+01  0.5870E+02 -0.8784E+01E
 Epicentro: EL CARMEN DE CHUCURI - SANTANDER                                   3
 ACTION:UPD 13-03-12 09:33 OP:ep   STATUS:               ID:20130215154330 L   I
 2013-02-15-1540-00M.COL___238                                                 6
 STAT SP IPHASW D HRMM SECON CODA AMPLIT PERI AZIMU VELO AIN AR TRES W  DIS CAZ7
 BAR2 SZ EP   1   1543 46.18                             153    0.35 8 49.6 107 
 BAR2 SZ ES   1   1543 58.20                             153    0.09 8 49.6 107 
 BAR2 SZ I        1544  0.30        17.6 0.26            172           49.6 107 
 PTB  HZ EP   1   1543 49.16                             134    0.27 8 95.4 258 
 PTB  HN I        1544  4.93        11.3 0.16            125           95.4 258 
 RUS  HZ EP   1   1543 50.76                             131    0.03 7  109 147 
 RUS  HN ES       1544  6.29                             131   -0.5610  109 147 
 RUS  HN I   L1   1544  7.32         6.2 0.16            131    0.47 7  109 147 
 NOR  HN ES   2   1544 20.65                             113   -0.11 4  189 227 
 NOR  HN I        1544 26.63         5.2 0.16            111            189 227 
 SML  HN ES   1   1544 29.82                             108   -0.30 6  236 348 
 SML  HN I        1544 38.05        10.5 0.10            107            236 348 
                                                                                
