 2010 1015 1425 57.0 L   6.853 -73.125136.3  RSN  6 0.2 1.6LRSN                1
 GAP=160        0.56       3.8     7.3  8.7 -0.9789E+01 -0.1339E+02 -0.1787E+01E
 Epicentro: LOS SANTOS - SANTANDER                                             3
 ACTION:UP  11-02-18 11:09 OP:tino STATUS:               ID:20101015142557 L   I
 2010-10-15-1423-46S.COL___125                                                 6
 STAT SP IPHASW D HRMM SECON CODA AMPLIT PERI AZIMU VELO SNR AR TRES W  DIS CAZ7
 BTL  SZ EP       1426 15.50                             172     0.110   17 294 
 BAR2 SZ EP       1426 15.99                             167     0.310   30 193 
 BAR2 SZ I        1426 31.56         6.9 0.57                            30 193 
 BRR  HZ EP       1426 17.03                             151    -0.110   71 293 
 BRR  HZ I        1426 19.19        12.1 0.34                            71 293 
 BRR  HN ES   2   1426 32.75                             151     0.0 5   71 293 
 RUS  HZ EP   2   1426 20.13                             140    -0.2 5  106 178 
 RUS  HN ES   2   1426 37.93                             140    -0.5 5  106 178 
 GUE  SZ EP       1426 20.12                             139    -0.210  110  12 
 GRA  SZ EP       1426 20.94                             136     0.110  119  17 
 GRA  SZ ES   1   1426 39.48                             136     0.0 7  119  17 
 GRA  SZ I        1426 42.48         6.6 0.41                           119  17 
                                                                                
