 2013  115 1524 47.6 L   6.857 -73.078144.4  RSN 18 0.5 3.9LRSN 3.8WRSN        1
 SPEC AVERAGE  MO 14.8 ST 84.9 OM  3.2 f0 4.28 R0.3658 AL 1.72 WI 28.6 MW  3.8 3
 SPEC SD       MO  0.2 ST 75.8 OM  0.3 f0 1.18 R0.0829 AL      WI      MW  0.1 3
 GAP=130        1.01       3.0     4.2  5.9 -0.2616E+01 -0.7837E+00  0.2790E+01E
 Epicentro: LOS SANTOS - SANTANDER                                             3
 SPEC VIL SH Z MO 14.9 ST 40.5 OM  3.0 f0 3.25 R0.4523 AL 1.46 WI 32.2 MW  3.9 3
 SPEC VIL SH Z T1526 0 K 0.000 GD  342 VS 4.20 DE 3.20 Q0300.0 QA 0.60 VS 4.20 3
 SPEC ZAR HH Z MO 15.1 ST 74.1 OM  3.3 f0 3.49 R0.4212 AL 1.30 WI 27.8 MW  4.0 3
 SPEC ZAR HH Z T152543 K 0.000 GD  254 VS 4.20 DE 3.20 Q0300.0 QA 0.60 VS 4.20 3
 SPEC RREFHH Z MO 15.0 ST 68.3 OM  3.0 f0 3.80 R0.3868 AL 2.19 WI 23.0 MW  3.9 3
 SPEC RREFHH Z T1526 8 K 0.000 GD  362 VS 4.20 DE 3.20 Q0300.0 QA 0.60 VS 4.20 3
 SPEC ROSCBH Z MO 15.0 ST 44.1 OM  3.1 f0 3.24 R0.4537 AL 2.39 WI 32.5 MW  3.9 3
 SPEC ROSCBH Z T152552 K 0.000 GD  299 VS 4.20 DE 3.20 Q0300.0 QA 0.60 VS 4.20 3
 SPEC PTB HH Z MO 14.7 ST169.2 OM  3.0 f0 6.14 R0.2394 AL 1.24 WI 28.4 MW  3.8 3
 SPEC PTB HH Z T152528 K 0.000 GD  212 VS 4.20 DE 3.20 Q0300.0 QA 0.60 VS 4.20 3
 SPEC RUS HH Z MO 14.4 ST 19.1 OM  2.8 f0 3.66 R0.4016 AL 1.43 WI 21.6 MW  3.6 3
 SPEC RUS HH Z T152527 K 0.000 GD  179 VS 4.20 DE 3.20 Q0300.0 QA 0.60 VS 4.20 3
 SPEC NOR HH Z MO 14.8 ST301.2 OM  3.0 f0 6.76 R0.2175 AL 1.12 WI 30.4 MW  3.8 3
 SPEC NOR HH Z T152549 K 0.000 GD  283 VS 4.20 DE 3.20 Q0300.0 QA 0.60 VS 4.20 3
 SPEC OCA HH Z MO 14.7 ST 75.6 OM  3.0 f0 4.70 R0.3128 AL 1.42 WI 19.0 MW  3.8 3
 SPEC OCA HH Z T152533 K 0.000 GD  211 VS 4.20 DE 3.20 Q0300.0 QA 0.60 VS 4.20 3
 SPEC ANILHH Z MO 14.9 ST 70.5 OM  2.9 f0 4.03 R0.3648 AL 2.66 WI 35.0 MW  3.9 3
 SPEC ANILHH Z T152613 K 0.000 GD  394 VS 4.20 DE 3.20 Q0300.0 QA 0.60 VS 4.20 3
 SPEC HEL HH Z MO 14.8 ST 37.6 OM  2.9 f0 3.52 R0.4176 AL 2.47 WI 44.2 MW  3.8 3
 SPEC HEL HH Z T152550 K 0.000 GD  315 VS 4.20 DE 3.20 Q0300.0 QA 0.60 VS 4.20 3
 SPEC CHI HH Z MO 14.7 ST 21.2 OM  2.8 f0 3.21 R0.4579 AL 1.95 WI 26.7 MW  3.7 3
 SPEC CHI HH Z T152552 K 0.000 GD  294 VS 4.20 DE 3.20 Q0300.0 QA 0.60 VS 4.20 3
 SPEC BRR HH Z MO 14.6 ST 97.3 OM  3.0 f0 5.58 R0.2634 AL 1.01 WI 22.6 MW  3.7 3
 SPEC BRR HH Z T152522 K 0.000 GD  162 VS 4.20 DE 3.20 Q0300.0 QA 0.60 VS 4.20 3
 ACTION:UPD 13-02-15 09:14 OP:ep   STATUS:               ID:20130115152447 L   I
 2013-01-15-1520-00M.COL___241                                                 6
 STAT SP IPHASW D HRMM SECON CODA AMPLIT PERI AZIMU VELO AIN AR TRES W  DIS CAZ7
 BAR2 SZ IP       1525  7.63                             167    0.3510 31.5 201 
 BAR2 SZ ES   1   1525 22.78                             167    0.16 7 31.5 201 
 BAR2 SZ I        1525 24.19      2098.3 0.46            165           31.5 201 
 BRR  HZ IP     C 1525  9.35                             151    0.4910 75.3 292 
 BRR  HN ES   1   1525 25.65                             151    0.22 7 75.3 292 
 BRR  HZ I        1525 30.36      1226.1 0.12            149           75.3 292 
 RUS  HZ EP     D 1525 11.65                             142   -0.0410  107 180 
 RUS  HN ES   1   1525 30.04                             142   -0.42 7  107 180 
 RUS  HZ I        1525 32.24       601.2 0.44            143            107 180 
 OCA  HZ EP       1525 15.53                             130    0.19 9  155 350 
 OCA  HN ES   1   1525 37.03                             130    0.07 7  155 350 
 OCA  HZ I        1525 41.32       631.5 0.44            133            155 350 
 PTB  HZ IP     C 1525 14.17                             130   -1.10 9  156 257 
 PTB  HE ES   1   1525 36.50                             130   -0.34 7  156 257 
 PTB  HZ I        1525 39.02       811.4 0.14            130            156 257 
 ZAR  HZ EP       1525 19.88                             122   -0.58 8  209 290 
 ZAR  HN ES   1   1525 45.70                             122   -0.38 6  209 290 
 ZAR  HZ I        1525 51.88      1161.1 0.24            122            209 290 
 CTAB SZ EP   1   1525 25.28                             118    1.00 6  239 211 
 CTAB SZ ES   1   1525 53.97                             118    1.09 6  239 211 
 SML  HN ES   2   1525 52.27                             117    0.06 4  241 333 
 NOR  HZ EP     D 1525 23.72                             117   -0.60 8  244 234 
 NOR  HE ES   1   1525 52.74                             117   -0.21 6  244 234 
 NOR  HZ I        1525 57.33       682.3 0.36            118            244 234 
 CHI  HZ EP     C 1525 25.79                             116   -0.34 8  257 196 
 CHI  HN ES   1   1525 55.29                             116   -0.88 6  257 196 
 CHI  HZ I        1526  0.75       225.8 0.30            117            257 196 
 ROSC BZ EP     C 1525 27.59                             115    0.91 8  262 212 
 ROSC BN ES   1   1525 57.01                             115   -0.14 6  262 212 
 ROSC BZ I        1526  5.97       446.8 0.35            117            262 212 
 HEL  HZ EP   1   1525 29.16                             114    0.42 6  281 255 
 HEL  HN ES   1   1526  1.33                             114    0.51 6  281 255 
 HEL  HZ I        1526  7.41       362.5 0.26            115            281 255 
 URE  HZ EP   4   1525 27.51                             113   -1.64 0  289 290 
 URE  HN ES   4   1525 58.72                             113   -2.82 0  289 290 
 VIL  SZ EP   1   1525 31.88                             111    0.03 5  311 193 
 VIL  SN ES   1   1526  6.00                             111   -0.36 5  311 193 
 VIL  SZ I        1526 11.30       351.2 0.34            113            311 193 
 RREF HZ EP       1525 34.51                             110   -0.31 7  332 229 
 RREF HN ES   1   1526 12.17                             110    0.53 5  332 229 
 RREF HZ I        1526 18.32       329.6 0.22            111            332 229 
 DBB  SZ EP   4   1525 35.12                             109   -0.73 0  347 273 
 DBB  SZ ES   4   1526 10.96                             109   -2.51 0  347 273 
 DBB  SZ I        1526 14.51       450.8 0.38            110            347 273 
 SDV  BZ EP       1525 36.57                             109    0.10 6  351  50 
 SDV  BN ES   1   1526 14.20                             109   -0.38 5  351  50 
 ANIL HZ EP       1525 39.03                             108    0.53 6  367 225 
 ANIL HN ES   1   1526 18.23                             108    0.04 5  367 225 
 ANIL HZ I        1526 22.44       289.9 0.26            109            367 225 
 SJA  SZ EP   1   1525 43.88                             106    0.83 4  408 194 
 SJA  SZ ES   1   1526 25.66                             106   -0.63 4  408 194 
 SJC  HN ES   4   1526 22.44                             106   -3.77 0  408 326 
 PAL  HZ EP   4   1525 43.52                             105   -0.35 0  415 239 
 PAL  HN ES   4   1526 22.45                             105   -5.29 0  415 239 
 YOT  HZ EP   4   1525 50.43                             103   -1.36 0  482 229 
 SMAR HZ EP   4   1525 52.35                             102   -0.59 0  493 345 
 SMAR HN ES   4   1526 40.29                             102   -3.61 0  493 345 
                                                                                
