 2017  215 1255 36.9 L   6.805 -73.133149.2  RSN  7 0.3 1.9LRSN                1
 GAP=138        0.82       3.4     3.7  5.4  0.1112E+01  0.3654E+01  0.4286E+01E
 Epicentro: LOS SANTOS - SANTANDER                                             3
 ACTION:UPD 17-05-24 15:36 OP:jn   STATUS:               ID:20170215125536 L   I
 OLDACT:REG 17-02-15 20:29 OP:cog  STATUS:               ID:20170215124746     3
 2017-02-15-1248-00M.COL___352                                                 6
 STAT SP IPHASW D HRMM SECON CODA AMPLIT PERI AZIMU VELO AIN AR TRES W  DIS CAZ7
 BAR2 EZ EP       1255 56.63                             170   -0.3010 24.1 193 
 BAR2 EZ ES       1256 12.49                             170   -0.0910 24.1 193 
 BAR2 EZ I        1256 13.31        35.9 0.30            169           24.1 193 
 BRR  HZ EP       1255 58.61                             153    0.1610 72.1 298 
 BRR  HE ES       1256 15.72                             153    0.4410 72.1 298 
 BRR  HZ I        1256 19.58        23.1 0.41            152           72.1 298 
 PAM  EZ EP       1255 59.64                             152    0.2610 76.1  39 
 PAM  EN ES       1256 16.86                             152   -0.0810 76.1  39 
 PAM  EZ I        1256 18.92        17.2 0.50            155           76.1  39 
 RUS  HZ EP       1256  0.69                             144   -0.3110  101 177 
 RUS  HE ES       1256 19.81                             144   -0.0110  101 177 
 RUS  HZ I        1256 20.73         5.1 0.36            146            101 177 
 PTB  HZ EP       1256  3.77                             133   -0.48 9  149 259 
 PTB  HE ES       1256 25.22                             133   -0.39 9  149 259 
 PTB  HZ I        1256 30.92         9.3 0.48            133            149 259 
 ZAR  HZ EP   3   1256 10.69                             123    1.04 2  205 292 
 ZAR  HE ES       1256 35.32                             123    0.10 9  205 292 
 CHI  HZ EP       1256 15.04                             118    0.18 8  250 195 
 CHI  HN ES       1256 45.22                             118    0.73 8  250 195 
 CHI  HZ I        1256 47.99         5.4 0.50            119            250 195 
                                                                                
