 2012  615 1853 29.1 L   6.773 -73.159148.2  RSN  5 0.1 1.7LRSN                1
 GAP=136        0.35       2.6     2.3  4.3 -0.4048E-01  0.1877E+01 -0.1127E+01E
 Epicentro: LOS SANTOS - SANTANDER                                             3
 ACTION:UPD 12-08-06 17:49 OP:ep   STATUS:               ID:20120615185329 L   I
 2012-06-15-1850-00M.COL___198                                                 6
 STAT SP IPHASW D HRMM SECON CODA AMPLIT PERI AZIMU VELO AIN AR TRES W  DIS CAZ7
 BAR2 SZ EP   1   1853 48.92                             172   -0.04 7 20.2 187 
 BAR2 SZ ES   1   1854  4.61                             172    0.16 7 20.2 187 
 BAR2 SZ I        1854  5.77        15.0 0.22                          20.2 187 
 PAM  SZ EP   1   1853 51.89                             150    0.13 7 80.6  39 
 PAM  SE ES   1   1854  9.28                             150   -0.16 7 80.6  39 
 RUS  HZ EP   1   1853 52.82                             145   -0.06 7 97.8 175 
 RUS  HN ES   1   1854 11.48                             145    0.04 7 97.8 175 
 RUS  HZ I        1854 12.88         7.0 0.17                          97.8 175 
 PTB  HN ES   1   1854 16.93                             133   -0.20 7  146 260 
 PTB  HZ I        1854 18.13         4.0 0.17                           146 260 
 ZAR  HN ES   1   1854 27.23                             123    0.14 6  204 293 
 ZAR  HZ I        1854 32.85         5.4 0.27                           204 293 
                                                                                
