 2012  315 1209 22.9 L   6.797 -73.147150.8  RSN  8 0.4 1.9LRSN                1
 GAP=136        0.91       5.0     5.0  9.0 -0.7144E+00  0.7263E+01  0.1499E+02E
 ACTION:UP  12-03-31 23:20 OP:EP   STATUS:               ID:20120315120922 L   I
 2012-03-15-1205-38M.COL___175                                                 6
 STAT SP IPHASW D HRMM SECON CODA AMPLIT PERI AZIMU VELO SNR AR TRES W  DIS CAZ7
 BAR2 SZ EP       12 9 42.97                             171    -0.110   23 190 
 BAR2 SZ I        1210  0.98        15.9 0.17                            23 190 
 BRR  HZ EP   1   12 9 44.95                             153     0.4 7   71 299 
 BRR  HE ES   1   1210  2.32                             153     0.8 7   71 299 
 BRR  HZ I        1210  4.60        19.4 0.15                            71 299 
 PAM  SZ EP   1   12 9 45.84                             152     0.2 7   78  39 
 PAM  SE ES   1   1210  3.16                             152    -0.3 7   78  39 
 RUS  HZ EP   1   12 9 47.35                             145     0.2 7  100 176 
 RUS  HN ES   1   1210  5.53                             145    -0.5 7  100 176 
 RUS  HZ I        1210  6.92         6.5 0.16                           100 176 
 PTB  HZ EP   1   12 9 49.63                             133    -0.6 7  148 259 
 PTB  HN ES   1   1210 11.25                             133    -0.3 7  148 259 
 PTB  HZ I        1210 16.92         9.9 0.29                           148 259 
 ZAR  HE ES   1   1210 20.78                             123    -0.5 6  204 292 
 ZAR  HZ I        1210 27.44        13.6 0.40                           204 292 
 NOR  SZ EP   1   12 9 59.16                             120     0.3 6  234 235 
 NOR  SE ES   1   1210 27.18                             120     0.2 6  234 235 
 CHI  HZ EP   1   1210  0.76                             118    -0.1 6  248 195 
 CHI  HN ES   1   1210 30.90                             118     0.5 6  248 195 
                                                                                
