 2011 1215 1850 17.3 L   6.727 -73.063140.0  RSN  5 0.3 1.8LRSN                1
 GAP=151        0.57       4.2     7.6  7.0 -0.5998E+01 -0.2906E+00  0.8416E+01E
 Epicentro: JORDAN - SANTANDER                                                 3
 ACTION:UPD 12-07-13 16:16 OP:ep   STATUS:               ID:20111215185017 L   I
 2011-12-15-1850-00M.COL___186                                                 6
 STAT SP IPHASW D HRMM SECON CODA AMPLIT PERI AZIMU VELO AIN AR TRES W  DIS CAZ7
 BAR2 SZ EP   1   1850 36.07                             171   -0.13 7 19.9 221 
 BAR2 SZ I        1850 36.53        19.3 0.36                          19.9 221 
 BAR2 SZ ES   2   1850 50.94                             171    0.02 5 19.9 221 
 PAM  SZ EP   1   1850 38.96                             150   -0.06 7 78.8  31 
 PAM  SN ES   2   1850 56.02                             150    0.08 5 78.8  31 
 BRR  HZ EP   1   1850 38.18                             148   -0.42 7 83.1 300 
 BRR  HE ES   2   1850 55.67                             148    0.49 5 83.1 300 
 BRR  HZ I        1850 57.18        26.6 0.15                          83.1 300 
 RUS  HZ EP   1   1850 39.99                             145    0.07 7 92.3 181 
 RUS  HZ I        1850 40.63         3.9 0.22                          92.3 181 
 RUS  HN ES   2   1850 57.68                             145    0.14 5 92.3 181 
 CHI  HZ EP   1   1850 54.79                             116    0.64 6  243 198 
 CHI  HN ES   2   1851 22.21                             116   -0.66 4  243 198 
 CHI  HZ I        1851 27.08         4.5 0.72                           243 198 
                                                                                
