 2017  715 1621 11.1 L   6.799 -73.144142.5  RSN 18 0.6 2.3LRSN                1
 GAP= 72        1.13       3.7     2.8  5.4  0.9342E+00  0.4500E+01  0.2493E+01E
 Epicentro: LOS SANTOS - SANTANDER                                             3
 ACTION:UPD 17-08-30 15:33 OP:rebc STATUS:               ID:20170715162111 L   I
 OLDACT:UP  17-07-16 00:37 OP:dhb  STATUS:               ID:20170715161742     3
 OLDACT:REG 17-07-15 20:51 OP:dhb  STATUS:               ID:20170715161742     3
 2017-07-15-1618-00M.COL___386                                                 6
 STAT SP IPHASW D HRMM SECON CODA AMPLIT PERI AZIMU VELO AIN AR TRES W  DIS CAZ7
 BAR2 EZ IP     C 1621 30.20                             170   -0.1210 23.2 190 
 BAR2 EZ ES       1621 45.51                             170    0.1910 23.2 190 
 BAR2 EZ I        1621 46.93        63.9 0.38            169           23.2 190 
 BRR  HZ IP       1621 32.02                             152    0.1310 71.4 299 
 BRR  HE ES       1621 48.56                             152    0.4410 71.4 299 
 BRR  HZ I        1621 53.54        28.0 0.12            154           71.4 299 
 PAM  EZ IP       1621 32.84                             150   -0.1110 77.4  39 
 PAM  EN ES       1621 50.38                             150    0.3710 77.4  39 
 PAM  EZ I        1621 52.89        22.4 0.22            154           77.4  39 
 RUS  HZ EP       1621 34.44                             143   -0.0710  100 176 
 RUS  HE ES       1621 52.66                             143   -0.1110  100 176 
 RUS  HZ I        1621 54.05        44.6 0.30            144            100 176 
 PTB  HZ EP       1621 36.82                             131   -0.98 9  148 259 
 PTB  HN ES       1621 58.22                             131            148 259 
 PTB  HN IS       1621 58.22                             131   -0.42 9  148 259 
 PTB  HZ I        1622  4.02        22.1 0.30            133            148 259 
 TAM  HZ IP     D 1621 38.30                             130   -0.19 9  155 105 
 TAM  HN ES       1621 59.81                             130   -0.05 9  155 105 
 TAM  HZ I        1622 17.62        11.2 0.42            132            155 105 
 SPBC HZ IP     C 1621 39.56                             128    0.22 9  163 219 
 SPBC HE ES       1622  1.60                             128    0.23 9  163 219 
 SPBC HZ I        1622  8.31        56.0 0.22            130            163 219 
 YPLC HZ IP     D 1621 40.36                             126   -0.27 9  177 151 
 YPLC HE ES       1622  3.66                             126   -0.01 9  177 151 
 YPLC HZ I        1622  8.98        10.8 0.20            128            177 151 
 ZAR  HZ EP       1621 43.26                             122   -0.08 9  204 292 
 ZAR  HE ES       1622  8.01                             122   -0.48 9  204 292 
 ZAR  HZ I        1622 15.26        36.7 0.50            124            204 292 
 TABC EZ EP   2   1621 47.43                             119    0.79 4  230 211 
 TABC EZ ES   2   1622 13.02                             119   -1.35 4  230 211 
 TABC EZ I        1622 20.45        17.4 0.32            120            230 211 
 NOR  HZ EP       1621 46.32                             118   -0.31 8  235 235 
 NOR  HE ES       1622 14.13                             118   -0.23 8  235 235 
 NOR  HZ I        1622 18.80        17.5 0.20            119            235 235 
 HEL  HZ EP       1621 52.30                             114    1.15 8  272 256 
 HEL  HN ES       1622 23.81                             114    1.42 8  272 256 
 HEL  HZ I        1622 28.72        14.2 0.26            116            272 256 
 URE  HZ EP       1621 50.97                             113   -1.05 7  284 292 
 URE  HN ES   4   1622 21.44                             113   -2.50 0  284 292 
 URE  HZ I        1622 31.48        17.8 0.18            115            284 292 
 GUY2CHZ EP   3   1621 56.33                             112    1.78 2  301 235 
 GUY2CHN ES       1622 28.41                             112   -0.04 7  301 235 
 GUY2CHZ I        1622 37.43        10.9 0.44                           301 235 
 CBOC HZ EP   2   1621 58.63                             109    0.75 3  334 252 
 CBOC HN ES   2   1622 33.29                             109   -1.09 3  334 252 
 CBOC HZ I        1622 50.80         4.9 0.54            111            334 252 
 DBB  EZ EP       1621 59.52                             109    1.07 7  340 274 
 DBB  EN ES       1622 35.14                             109   -0.25 7  340 274 
 DBB  EZ I        1622 36.85         5.1 0.21            110            340 274 
 ORTC HZ EP       1622  5.12                             106    0.23 6  395 216 
 ORTC HN ES   2   1622 47.68                             106    0.81 3  395 216 
 ORTC HZ I        1622 51.55         5.2 0.18            107            395 216 
 SJC  HZ IP   9 C 1622  4.40                             105   -2.16 0  409 327 
 SJC  HN ES       1622 47.99                             106    0.32 6  409 327 
 SJC  HZ I        1622 48.69         3.2 0.41            107            409 327 
                                                                                
