 2017  315 1725 50.9 L   6.786 -73.110143.8  RSN  6 0.1 1.4LRSN                1
 GAP=142        0.30       1.7     2.2  3.4  0.1073E+00  0.4142E+01 -0.1030E+01E
 Epicentro: LOS SANTOS - SANTANDER                                             3
 ACTION:UPD 17-05-25 18:40 OP:jn   STATUS:               ID:20170315172550 L   I
 OLDACT:UP  17-03-16 00:32 OP:dnl  STATUS:               ID:20170315171744     3
 OLDACT:REG 17-03-15 21:43 OP:dnl  STATUS:               ID:20170315171744     3
 2017-03-15-1718-00M.COL___406                                                 6
 STAT SP IPHASW D HRMM SECON CODA AMPLIT PERI AZIMU VELO AIN AR TRES W  DIS CAZ7
 BAR2 EZ EP   2   1726 10.05                             171   -0.28 5 22.8 201 
 BAR2 EZ ES       1726 25.39                             171   -0.0610 22.8 201 
 BAR2 EZ I        1726 26.29         5.4 0.18            169           22.8 201 
 BRR  HZ EP       1726 12.12                             151   -0.0110 75.5 298 
 BRR  HE ES   4   1726 30.82                             151    2.16 0 75.5 298 
 BRR  HZ I        1726 37.70         9.4 0.40            147           75.5 298 
 PAM  EZ EP   2   1726 13.05                             151    0.17 5 76.2  36 
 PAM  EN ES       1726 30.00                             151    0.0110 76.2  36 
 PAM  EZ I        1726 32.25         3.4 0.44            154           76.2  36 
 RUS  HZ EP   2   1726 14.41                             144    0.04 5 98.8 178 
 RUS  HE ES       1726 32.71                             144    0.0610 98.8 178 
 RUS  HZ I        1726 33.75         1.5 0.34            152           98.8 178 
 PTB  HZ EP   2   1726 17.98                             131   -0.11 5  151 260 
 PTB  HN ES   4   1726 37.25                             131   -2.00 0  151 260 
 PTB  HZ I        1726 40.53         3.2 0.10            132            151 260 
 ZAR  HZ EP   4   1726 25.32                             121    1.61 0  208 292 
 ZAR  HE ES       1726 49.32                             121    0.06 8  208 292 
 ZAR  HZ I        1726 56.78         2.7 0.38            123            208 292 
                                                                                
