 2016  515 1130 27.3 L   6.731 -73.171144.3  RSN  6 0.4 1.5LRSN                1
 GAP=229        0.73       6.2     6.5  7.4  0.2338E+02  0.1741E+02  0.7757E+01E
 Epicentro: VILLANUEVA - SANTANDER                                             3
 ACTION:UPD 16-08-18 17:46 OP:cam  STATUS:               ID:20160515113027 L   I
 OLDACT:REG 16-05-15 20:21 OP:ak   STATUS:               ID:20160515112743     3
 2016-05-15-1127-43M.COL___302                                                 6
 STAT SP IPHASW D HRMM SECON CODA AMPLIT PERI AZIMU VELO AIN AR TRES W  DIS CAZ7
 BAR2 EZ EP   2   1130 47.12                             173    0.49 5 15.4 185 
 BAR2 EZ ES       1131  1.24                             173   -0.4610 15.4 185 
 BAR2 EZ I        1131  3.41         5.1 0.26            163           15.4 185 
 BRR  HZ EP   2   1130 47.87                             151   -0.52 5 72.8 305 
 BRR  HZ I        1131  4.57         4.8 0.11            138           72.8 305 
 BRR  HE ES       1131  5.13                             151    0.2910 72.8 305 
 RUS  HZ EP   2   1130 50.31                             145   -0.09 5 93.3 174 
 RUS  HN ES       1131  8.61                             145    0.2010 93.3 174 
 RUS  HZ I        1131 10.65         2.9 0.28            124           93.3 174 
 PTB  HZ EP   2   1130 52.95                             132   -0.84 5  144 262 
 PTB  HN ES       1131 14.53                             132    0.09 9  144 262 
 PTB  HZ I        1131 16.25         6.4 0.12            115            144 262 
 SPBC HZ EP   2   1130 54.96                             130   -0.01 5  156 220 
 SPBC HZ I        1131 24.38         5.3 0.51            112            156 220 
 ZAR  HZ EP   2   1131  0.54                             122    0.84 4  204 294 
 ZAR  HE ES   2   1131 24.70                             122   -0.26 4  204 294 
 ZAR  HZ I        1131 30.04         2.9 0.35            107            204 294 
                                                                                
