 2010  315 1625 18.4 L   6.817 -73.052144.2  RSN 14 0.4 3.1LRSN                1
 GAP=133        0.79       3.4     5.4  5.1 -0.4180E+01  0.1777E+01  0.2900E+01E
 Epicentro: LOS SANTOS - SANTANDER                                             3
 ACTION:UP  10-08-24 09:54 OP:vdl  STATUS:               ID:20100315162518 L   I
 2010-03-15-1623-45S.COL___095                                                 6
 STAT SP IPHASW D HRMM SECON CODA AMPLIT PERI AZIMU VELO SNR AR TRES W  DIS CAZ7
 BAR2 SZ IP       1625 38.20                             168     0.210   29 210 
 BAR2 SZ ES   1   1625 53.17                             168     0.0 7   29 210 
 BRR  HZ IP       1625 40.10                             149     0.210   80 294 
 BRR  HE ES   1   1625 56.99                             149     0.4 7   80 294 
 BRR  HZ I        1626  1.15       270.8 0.18                            80 294 
 RUS  HZ IP       1625 42.14                             143     0.010  102 182 
 RUS  HE ES   1   1626  0.19                             143    -0.4 7  102 182 
 RUS  HZ I        1626  1.98       106.5 0.39                           102 182 
 OCA  SZ EP   1   1625 45.77                             129    -0.8 7  160 349 
 OCA  SZ ES   1   1626  8.25                             129    -0.3 7  160 349 
 OCA  SZ I        1626 13.22       326.3 0.32                           160 349 
 CHI  HZ IP       1625 56.33                             116    -0.2 8  253 197 
 CHI  HZ I        1626 31.68        39.1 0.37                           253 197 
 ROSC BZ EP   1   1625 57.80                             116     0.6 6  260 213 
 ROSC BZ I        1626 34.39        42.4 0.53                           260 213 
 HEL  HZ EP   2   1625 59.69                             114     0.0 4  283 256 
 HEL  HZ I        1626 36.56        46.9 0.45                           283 256 
 GUY  HZ EP   2   1626  3.45                             111     0.4 3  311 236 
 GUY  HE ES   2   1626 38.67                             111     0.8 3  311 236 
 RREF BZ EP   1   1626  5.27                             110    -0.2 5  331 230 
 RREF BN ES   2   1626 42.19                             110    -0.1 3  331 230 
 RREF BZ I        1626 48.48        45.0 0.24                           331 230 
 DBB  SZ EP   1   1626  6.49                             109    -0.5 5  350 274 
 SDV  BZ IP       1626  7.87                             108     0.5 6  351  49 
 SDV  BZ I        1626  8.74        89.7 0.09                           351  49 
 TOL  SZ EP   1   1626  7.84                             108     0.3 5  352 226 
 TOL  SZ ES   2   1626 45.66                             108    -0.3 3  352 226 
 ANIL BZ EP   2   1626  9.34                             108     0.2 3  366 225 
 ANIL BE ES   2   1626 49.15                             108     0.4 3  366 225 
 ANIL BZ I        1626 54.91       101.4 0.66                           366 225 
 PRA  HZ IP       1626 11.94                             106    -0.7 6  399 211 
 PRA  HE ES   1   1626 54.52                             106    -0.5 4  399 211 
 PRA  HZ I        1626 59.96        64.6 0.25                           399 211 
                                                                                
