 2013  215 1445 43.6 L   7.383 -73.139136.5  RSN  7 0.4 2.1LRSN                1
 GAP=182        0.73       6.0     4.4  8.2  0.1311E+01  0.1091E+02 -0.1069E+01E
 Epicentro: RIONEGRO - SANTANDER                                               3
 ACTION:UPD 13-03-12 09:33 OP:ep   STATUS:               ID:20130215144543 L   I
 2013-02-15-1438-48M.COL___192                                                 6
 STAT SP IPHASW D HRMM SECON CODA AMPLIT PERI AZIMU VELO AIN AR TRES W  DIS CAZ7
 PAM  SZ EP   1   1446  3.55                             159    0.21 7 48.7  96 
 PAM  SE ES   1   1446 18.84                             159    0.13 7 48.7  96 
 PAM  SE I        1446 22.26         9.2 0.44            164           48.7  96 
 BRR  HZ EP   1   1446  3.47                             151   -0.25 7 70.3 244 
 BRR  HN ES   1   1446 18.91                             151   -0.49 7 70.3 244 
 BRR  HN I        1446 21.35        34.4 0.31            153           70.3 244 
 BAR2 SZ EP   1   1446  5.41                             145    0.23 7 87.6 183 
 BAR2 SZ ES   1   1446 22.17                             145    0.18 7 87.6 183 
 BAR2 SZ I        1446 23.12        16.3 0.46            151           87.6 183 
 RUS  HN ES   1   1446 33.96                             127   -0.42 7  165 178 
 PTB  HZ EP   1   1446 11.95                             125   -0.34 7  173 237 
 PTB  HE ES   1   1446 35.49                             125    0.84 7  173 237 
 PTB  HE I        1446 37.24        14.9 0.22            128            173 237 
 SML  HN ES   4   1446 33.56                             123   -3.67 0  187 327 
 SML  HN I        1446 40.49        24.5 0.10            124            187 327 
 ZAR  HN ES   1   1446 37.68                             122   -0.07 7  190 274 
 ZAR  HN I        1446 42.45        15.2 0.14            124            190 274 
                                                                                
