 2014  115 1102  9.6 L   6.831 -73.175149.8  RSN  7 0.4 1.6LRSN                1
 GAP=131        0.85       3.0     4.4  8.0 -0.3072E+01  0.1327E+02 -0.4033E+01E
 Epicentro: LOS SANTOS - SANTANDER                                             3
 ACTION:UPD 14-03-13 09:55 OP:ep   STATUS:               ID:20140115110209 L   I
 OLDACT:DUP 14-01-15 15:39 OP:carl STATUS:               ID:20140115110001d    3
 2014-01-15-1100-00M.COL___285                                                 6
 STAT SP IPHASW D HRMM SECON CODA AMPLIT PERI AZIMU VELO AIN AR TRES W  DIS CAZ7
 PAM  SZ EP       11 2 32.32                             151    0.1410 77.0  43 
 PAM  SN ES       11 2 50.14                             151    0.3110 77.0  43 
 PAM  SZ I        11 2 50.40         3.8 0.38            156           77.0  43 
 RUS  HZ EP       11 2 33.81                             144   -0.1610  104 174 
 RUS  HN ES       11 2 52.54                             144   -0.4710  104 174 
 RUS  HZ I        11 2 53.21         2.8 0.44            149            104 174 
 PTB  HZ EP       11 2 36.60                             133   -0.04 9  145 257 
 PTB  HN ES       11 2 57.41                             133   -0.35 9  145 257 
 PTB  HZ I        11 3  5.13         7.0 0.34            133            145 257 
 ZAR  HZ EP   4   11 2 43.70                             124    1.86 0  200 292 
 ZAR  HE ES   4   11 3  7.64                             124    0.63 0  200 292 
 ZAR  HZ I        11 3 13.36         4.9 0.32            124            200 292 
 NOR  HN ES       11 3 13.99                             119    0.53 8  234 233 
 SML  HZ EP       11 2 45.50                             119   -0.44 8  239 336 
 SML  HN ES       11 3 14.53                             119    0.21 8  239 336 
 SML  HZ I        11 3 18.18         7.7 0.24            120            239 336 
 CHI  HN ES       11 3 18.06                             118    0.52 8  251 194 
                                                                                
