 2016  315 1144 19.9 L   6.826 -73.218138.0  RSN  7 0.2 1.6LRSN                1
 GAP=126        0.61       2.5     2.5  4.2 -0.2978E+00  0.3939E+01  0.2230E+01E
 Epicentro: ZAPATOCA - SANTANDER                                               3
 ACTION:UPD 16-05-13 21:24 OP:cam  STATUS:               ID:20160315113750dL   I
 OLDACT:DUP 16-03-15 22:35 OP:cara STATUS:               ID:20160315113750dL   3
 2016-03-15-1137-49M.COL___294                                                 6
 STAT SP IPHASW D HRMM SECON CODA AMPLIT PERI AZIMU VELO AIN AR TRES W  DIS CAZ7
 BAR2 EZ IP       1144 38.66                             169   -0.0210 26.1 171 
 BAR2 EZ ES       1144 53.72                             169    0.4110 26.1 171 
 BAR2 EZ I        1144 55.17        10.0 0.28            170           26.1 171 
 PAM  EZ IP       1144 41.62                             148    0.1010 80.7  45 
 PAM  EZ I        1144 41.74        16.1 0.20            151           80.7  45 
 PAM  EN ES       1144 58.15                             148   -0.2210 80.7  45 
 RUS  HZ EP       1144 43.06                             141   -0.1310  104 172 
 RUS  HE ES       1145  1.41                             141    0.0610  104 172 
 RUS  HZ I        1145  2.15         3.0 0.40            143            104 172 
 PTB  HZ EP       1144 45.36                             132   -0.24 9  141 257 
 PTB  HN ES       1145  5.47                             132   -0.16 9  141 257 
 PTB  HZ I        1145  8.41         4.3 0.18            131            141 257 
 ZAR  HE ES       1145 15.27                             122    0.05 9  196 292 
 ZAR  HZ I        1145 21.83         5.9 0.26            122            196 292 
 CHI  HZ IP       1144 57.28                             115   -0.01 8  249 193 
 CHI  HN ES       1145 26.08                             115   -0.35 8  249 193 
 CHI  HZ I        1145 29.90         2.6 0.50            117            249 193 
 GUY2CHZ EP       1145  3.24                             111    0.60 7  296 233 
 GUY2CHN ES       1145 36.03                             111    0.08 7  296 233 
 GUY2CHZ I        1145 46.02         2.1 0.56                           296 233 
                                                                                
