 2016  215 1203 24.6 L   6.779 -73.049146.0  RSN  5 0.3 1.6LRSN                1
 GAP=183        0.68       6.3     5.2  5.5 -0.1813E+02  0.4978E+01  0.6261E+01E
 Epicentro: LOS SANTOS - SANTANDER                                             3
 ACTION:UPD 16-03-04 21:26 OP:rebc STATUS:               ID:20160215120324 L   I
 OLDACT:REG 16-02-15 21:14 OP:ak   STATUS:               ID:20160215115749     3
 2016-02-15-1157-49M.COL___289                                                 6
 STAT SP IPHASW D HRMM SECON CODA AMPLIT PERI AZIMU VELO AIN AR TRES W  DIS CAZ7
 BAR2 EZ EP       12 3 44.06                             170   -0.2110 25.4 215 
 BAR2 EZ ES       12 3 59.64                             170    0.0010 25.4 215 
 BAR2 EZ I        12 4  0.85         4.9 0.27            172           25.4 215 
 PAM  EZ EP       12 3 47.03                             152    0.4810 73.0  32 
 PAM  EN ES       12 4  3.54                             152   -0.1610 73.0  32 
 PAM  EZ I        12 4  6.44         6.1 0.58            152           73.0  32 
 BRR  HZ EP       12 3 46.24                             149   -0.1310 81.7 296 
 BRR  HN ES       12 4  3.49                             149    0.1210 81.7 296 
 BRR  HZ I        12 4  6.05        13.2 0.22            149           81.7 296 
 PTB  HZ EP       12 3 52.14                             130   -0.34 9  158 260 
 PTB  HN ES   4   12 4 11.51                             130   -2.74 0  158 260 
 PTB  HZ I        12 4 14.20         3.2 0.14            132            158 260 
 ZAR  HN ES   4   12 4 21.35                             121   -2.98 0  215 292 
 GUY2CHE ES       12 4 44.07                             112    0.35 7  309 236 
 GUY2CHZ I        12 4 48.52         1.9 0.23                           309 236 
                                                                                
