 2016  515 1059 51.1 L   6.780 -73.126153.5  RSN  5 0.2 1.5LRSN                1
 GAP=238        0.48       4.1     3.8  4.1  0.9491E+01  0.2133E+01 -0.2873E+01E
 Epicentro: LOS SANTOS - SANTANDER                                             3
 ACTION:UPD 16-08-18 17:46 OP:cam  STATUS:               ID:20160515105951 L   I
 OLDACT:REG 16-05-15 20:19 OP:ak   STATUS:               ID:20160515105747     3
 2016-05-15-1057-47M.COL___297                                                 6
 STAT SP IPHASW D HRMM SECON CODA AMPLIT PERI AZIMU VELO AIN AR TRES W  DIS CAZ7
 BAR2 EZ EP       11 0 11.55                             172   -0.1210 21.6 197 
 BAR2 EZ ES       11 0 27.56                             172   -0.1210 21.6 197 
 BAR2 EZ I        11 0 30.11         5.9 0.40            173           21.6 197 
 BRR  HZ EP   2   11 0 12.97                             153   -0.32 5 74.2 299 
 BRR  HN ES       11 0 30.70                             153    0.1310 74.2 299 
 RUS  HZ EP   2   11 0 15.94                             146    0.44 5 98.2 177 
 RUS  HE ES       11 0 34.59                             146    0.1010 98.2 177 
 RUS  HZ I        11 0 35.33         1.9 0.33            149           98.2 177 
 PTB  HZ EP   2   11 0 18.27                             133   -0.63 5  149 260 
 PTB  HE ES       11 0 40.46                             133   -0.09 9  149 260 
 PTB  HZ I        11 0 41.61         3.6 0.16            134            149 260 
 ZAR  HZ EP       11 0 24.60                             124    0.21 8  207 292 
 ZAR  HN ES       11 0 50.39                             124    0.07 8  207 292 
 ZAR  HZ I        11 0 56.90         5.4 0.29            124            207 292 
                                                                                
