 2015 1115 1325 12.4 L   6.796 -73.059146.6  RSN  8 0.5 2.3LRSN                1
 GAP=148        0.99       3.9     6.5 10.3 -0.3513E+01  0.4041E+02 -0.8309E+01E
 Epicentro: LOS SANTOS - SANTANDER                                             3
 ACTION:UPD 15-12-28 16:11 OP:cam  STATUS:               ID:20151115132449 L   I
 OLDACT:UP  15-12-02 20:10 OP:cam  STATUS:               ID:20151115132449 L   3
 OLDACT:UP  15-11-19 06:52 OP:CARA STATUS:               ID:20151115132449 L   3
 OLDACT:DUP 15-11-15 22:48 OP:cara STATUS:               ID:20151115131751d    3
 OLDACT:REG 15-11-15 20:28 OP:cara STATUS:               ID:20151115131750     3
 2015-11-15-1317-50M.COL___322                                                 6
 STAT SP IPHASW D HRMM SECON CODA AMPLIT PERI AZIMU VELO AIN AR TRES W  DIS CAZ7
 BAR2 EZ EP   1   1325 32.21                             169   -0.01 7 26.3 211 
 BAR2 EZ ES       1325 47.33                             169   -0.3310 26.3 211 
 BAR2 EZ I        1325 48.40        17.6 0.24            166           26.3 211 
 PAM  EN ES       1325 51.81                             153    0.2310 72.0  33 
 PAM  EN I        1325 53.41        37.0 0.24            155           72.0  33 
 BRR  HE ES       1325 51.47                             150    0.3310 79.9 296 
 RUS  HN ES       1325 54.90                             144    0.1310100.0 182 
 RUS  HN I        1325 56.75        19.0 0.30            143          100.0 182 
 OCA  HE ES       1326  2.81                             130   -0.42 9  162 350 
 OCA  HE I        1326  3.65        77.5 0.18            129            162 350 
 ZAR  HZ EP   1   1325 46.73                             121    0.87 6  213 291 
 ZAR  HN ES       1326 12.39                             121    0.46 8  213 291 
 ZAR  HN I        1326 19.41        18.8 0.16            120            213 291 
 NOR  HE ES       1326 16.94                             118   -0.62 8  242 236 
 NOR  HE I        1326 22.90        18.2 0.18            116            242 236 
 SML  HE ES   1   1326 17.77                             117   -0.80 6  248 333 
 GUY2CHE ES   4   1326 35.57                             112    3.92 0  309 236 
                                                                                
