 2014  115 1949  6.5 L   6.823 -73.152146.0  RSN 13 0.5 2.3LRSN                1
 GAP=135        1.13       2.9     4.3  5.9 -0.1569E+01  0.7493E+01  0.1576E+01E
 Epicentro: LOS SANTOS - SANTANDER                                             3
 ACTION:UPD 14-03-13 09:55 OP:ep   STATUS:               ID:20140115194906 L   I
 OLDACT:REG 14-01-15 18:19 OP:carl STATUS:               ID:20140115194838     3
 2014-01-15-1948-38M.COL___246                                                 6
 STAT SP IPHASW D HRMM SECON CODA AMPLIT PERI AZIMU VELO AIN AR TRES W  DIS CAZ7
 BAR2 SZ EP       1949 26.06                             170   -0.1110 25.8 187 
 BAR2 SZ ES       1949 41.75                             170    0.2110 25.8 187 
 BAR2 SZ I        1949 42.33        83.6 0.22            168           25.8 187 
 BRR  HZ EP       1949 27.87                             153    0.3410 69.4 297 
 BRR  HN ES       1949 44.73                             153    0.7710 69.4 297 
 BRR  HZ I        1949 45.69        26.8 0.46            150           69.4 297 
 PAM  SZ EP       1949 28.96                             151    0.3510 75.9  41 
 PAM  SN ES       1949 45.92                             151    0.0410 75.9  41 
 PAM  SZ I        1949 46.54        22.9 0.20            154           75.9  41 
 RUS  HZ IP     C 1949 30.04                             143   -0.3810  103 176 
 RUS  HN ES       1949 48.85                             143   -0.2610  103 176 
 RUS  HZ I        1949 49.70        15.2 0.18            143            103 176 
 PTB  HZ EP       1949 32.66                             132   -0.77 9  148 258 
 PTB  HN ES       1949 53.57                             132   -0.89 9  148 258 
 PTB  HZ I        1949 55.68        30.4 0.36            130            148 258 
 OCA  HE ES       1949 55.95                             130   -0.49 9  158 353 
 OCA  HZ I        1950  1.03        15.3 0.44            130            158 353 
 SPBC HZ EP       1949 35.02                             129   -0.10 9  165 218 
 SPBC HE ES       1949 57.83                             129    0.35 9  165 218 
 SPBC HZ I        1950  4.16        28.7 0.40            128            165 218 
 ZAR  HZ EP       1949 38.61                             123   -0.14 9  202 292 
 ZAR  HN ES       1950  4.22                             123    0.28 9  202 292 
 ZAR  HZ I        1950  9.93        25.8 0.54            121            202 292 
 NOR  HZ EP       1949 42.34                             118    0.04 8  236 234 
 NOR  HN ES       1950 10.47                             118    0.21 8  236 234 
 NOR  HZ I        1950 15.17        24.5 0.18            118            236 234 
 SML  HZ EP       1949 43.16                             118    0.35 8  241 335 
 SML  HE ES       1950 10.67                             118   -0.49 8  241 335 
 SML  HZ I        1950 18.29        17.6 0.10            117            241 335 
 CHI  HZ EP       1949 44.38                             117   -0.04 8  251 195 
 CHI  HN ES       1950 13.68                             117   -0.35 8  251 195 
 CHI  HZ I        1950 20.65         8.0 0.54            117            251 195 
 GUY2CHZ EP   4   1949 50.35                             112    0.17 0  302 234 
 GUY2CHN ES   2   1950 24.24                             112   -0.04 4  302 234 
 RREF HZ EP       1949 54.20                             111    1.46 7  323 229 
 RREF HN ES       1950 28.99                             111    0.15 7  323 229 
 RREF HZ I        1950 40.23         8.8 0.34            110            323 229 
                                                                                
