 2012  615 1410 37.6 L   6.639 -73.199144.9  RSN  4 0.2 1.3LRSN                1
 GAP=223        0.53       9.9     6.3 14.4  0.4133E+02 -0.2582E+02 -0.1737E+02E
 Epicentro: BARICHARA - SANTANDER                                              3
 ACTION:UPD 12-08-06 17:49 OP:ep   STATUS:               ID:20120615141037 L   I
 2012-06-15-1410-00M.COL___200                                                 6
 STAT SP IPHASW D HRMM SECON CODA AMPLIT PERI AZIMU VELO AIN AR TRES W  DIS CAZ7
 BAR2 SZ EP   1   1410 56.68                             178   -0.22 8 5.55 160 
 BAR2 SZ I        1411 13.71         5.0 0.30                          5.55 160 
 RUS  HZ EP   1   1411  0.45                             149    0.35 8 83.6 171 
 RUS  HZ I        1411  1.58         2.9 0.21                          83.6 171 
 PTB  HZ EP       1411  3.58                             134   -0.1710  139 266 
 PTB  HN ES   1   1411 24.07                             134   -0.08 7  139 266 
 PTB  HZ I        1411 25.44         2.2 0.06                           139 266 
 ZAR  HE ES   1   1411 35.91                             122    0.29 7  206 297 
 ZAR  HZ I        1411 41.78         3.3 0.09                           206 297 
                                                                                
