 2012  215 1041  9.2 L   6.806 -73.191149.4  RSN  4 0.3 1.0LRSN                1
 GAP=233        0.52       8.8     7.3  8.5  0.3174E+02  0.5451E+01 -0.2584E+02E
 ACTION:UP  12-03-07 16:30 OP:epov STATUS:               ID:20120215104109 L   I
 2012-02-15-1040-00M.COL___188                                                 6
 STAT SP IPHASW D HRMM SECON CODA AMPLIT PERI AZIMU VELO AIN AR TRES W  DIS CAZ7
 BAR2 SZ EP   2   1041 28.91                             171   -0.33 5 23.6 178 
 BAR2 SZ ES   2   1041 44.85                             171   -0.05 5 23.6 178 
 BAR2 SZ I        1041 45.73         3.0 0.34                          23.6 178 
 BRR  HZ EP   2   1041 30.78                             155    0.32 5 66.5 300 
 RUS  HZ EP   1   1041 33.73                             144    0.38 7  102 173 
 RUS  HE ES   1   1041 52.05                             144   -0.17 7  102 173 
 RUS  HZ I        1041 52.81         1.2 0.40                           102 173 
 PTB  HZ EP   1   1041 35.69                             134   -0.31 7  143 258 
 PTB  HE ES   2   1041 57.19                             134    0.25 5  143 258 
                                                                                
