 2015  615 1441 31.0 L   6.761 -73.049140.0  RSN  4 0.4 1.5LRSN                1
 GAP=281        0.83       7.2     8.0  6.9 -0.8534E+01  0.1656E+02  0.8990E+01E
 Epicentro: LOS SANTOS - SANTANDER                                             3
 ACTION:UPD 15-09-10 22:12 OP:cam  STATUS:               ID:20150615144131 L   I
 OLDACT:UP  15-06-18 07:47 OP:AK   STATUS:               ID:20150615144131 L   3
 OLDACT:DUP 15-06-15 23:50 OP:stll STATUS:               ID:20150615143749d    3
 OLDACT:REG 15-06-15 20:35 OP:stll STATUS:               ID:20150615143748     3
 2015-06-15-1437-48M.COL___315                                                 6
 STAT SP IPHASW D HRMM SECON CODA AMPLIT PERI AZIMU VELO AIN AR TRES W  DIS CAZ7
 BAR2 EZ EP       1441 50.06                             170    0.1410 23.8 218 
 BAR2 EZ ES       1442  4.86                             170    0.1610 23.8 218 
 BAR2 EZ I        1442  6.52         5.7 0.18            163           23.8 218 
 BRR  HZ EP       1441 51.59                             148   -0.6210 82.6 298 
 BRR  HN ES       1442  8.90                             148    0.1310 82.6 298 
 ZAR  HZ EP   1   1442  5.00                             120    0.74 6  216 292 
 ZAR  HN ES   4   1442 27.96                             120   -2.27 0  216 292 
 ZAR  HZ I        1442 30.57         3.7 0.20            120            216 292 
 NOR  HZ EP       1442  6.96                             117   -0.11 8  241 237 
 NOR  HE ES       1442 35.17                             117   -0.05 8  241 237 
 NOR  HZ I        1442 40.95         1.9 0.22            116            241 237 
                                                                                
