 2010  815 1415 31.2 L   6.731 -73.123150.6  RSN  4 0.3 1.5LRSN                1
 GAP=215        0.52      12.0    15.0  6.8  0.1435E+03 -0.2908E+02 -0.9884E+01E
 Epicentro: JORDAN - SANTANDER                                                 3
 ACTION:UP  10-09-07 10:55 OP:vdl  STATUS:               ID:20100815141531 L   I
 2010-08-15-1413-54S.COL___111                                                 6
 STAT SP IPHASW D HRMM SECON CODA AMPLIT PERI AZIMU VELO SNR AR TRES W  DIS CAZ7
 BAR2 SZ EP       1415 51.29                             174     0.010   17 204 
 BAR2 SZ I        1415 51.67         7.9 0.09                            17 204 
 BAR2 SZ ES   2   1416  6.36                             174    -0.6 5   17 204 
 BTL  SZ EP       1415 51.38                             170     0.010   26 322 
 BTL  SZ ES   2   1416  7.75                             170     0.5 5   26 322 
 BRR  HZ EP       1415 53.11                             152    -0.110   77 303 
 BRR  HZ I        1415 53.47        10.2 0.06                            77 303 
 BRR  HE ES   1   1416 10.40                             152     0.0 7   77 303 
 RUS  HZ EP   2   1415 55.12                             147     0.3 5   93 177 
 RUS  HN ES   3   1416 13.48                             147     0.1 2   93 177 
 RUS  HZ I        1416 15.14         2.7 0.40                            93 177 
                                                                                
