 2013  315 1027  5.0 L   6.785 -73.145147.9  RSN 12 0.4 2.4LRSN                1
 GAP= 72        0.86       2.9     3.1  4.7  0.2590E+00  0.2678E+01  0.1099E+01E
 Epicentro: LOS SANTOS - SANTANDER                                             3
 ACTION:UPD 13-04-09 14:02 OP:ep   STATUS:               ID:20130315102705 L   I
 2013-03-15-1020-00M.COL___244                                                 6
 STAT SP IPHASW D HRMM SECON CODA AMPLIT PERI AZIMU VELO AIN AR TRES W  DIS CAZ7
 BAR2 SZ IP     C 1027 25.06                             171    0.1610 21.7 191 
 BAR2 SZ ES       1027 40.09                             171   -0.2910 21.7 191 
 BAR2 SZ I        1027 41.79        70.4 0.36            168           21.7 191 
 BRR  HZ IP     C 1027 26.92                             153    0.4510 72.0 300 
 BRR  HN ES       1027 43.52                             153    0.3410 72.0 300 
 BRR  HN I        1027 45.28        80.2 0.30            150           72.0 300 
 PAM  SZ EP       1027 27.80                             151    0.2410 78.7  39 
 PAM  SE ES       1027 44.88                             151   -0.2410 78.7  39 
 PAM  SZ I        1027 47.26        45.7 0.57            155           78.7  39 
 RUS  HZ EP   1   1027 28.42                             145   -0.46 7 98.9 176 
 RUS  HN ES   1   1027 47.15                             145   -0.33 7 98.9 176 
 RUS  HN I        1027 49.41        26.1 0.16            144           98.9 176 
 PTB  HZ EP       1027 31.74                             132   -0.42 9  147 259 
 PTB  HE ES   1   1027 53.22                             132   -0.09 7  147 259 
 PTB  HZ I        1028  0.33        45.2 0.34            131            147 259 
 TAM  HZ EP       1027 33.20                             131    0.35 9  155 104 
 TAM  HZ I        1027 33.35        20.2 0.24            134            155 104 
 TAM  HN ES   1   1027 54.94                             131    0.41 7  155 104 
 OCA  HZ EP   1   1027 33.02                             130   -0.65 7  162 353 
 OCA  HN ES   1   1027 56.23                             130    0.23 7  162 353 
 OCA  HZ I        1027 59.93        22.2 0.35            131            162 353 
 ZAR  HZ EP   1   1027 37.57                             123   -0.12 6  205 293 
 ZAR  HN ES   1   1028  3.19                             123    0.03 6  205 293 
 ZAR  HZ I        1028 10.18        19.4 0.26            122            205 293 
 SML  HZ EP       1027 41.15                             118   -0.80 8  245 335 
 SML  HE ES   1   1028 10.67                             118   -0.07 6  245 335 
 CHI  HZ EP   1   1027 43.10                             118    0.41 6  247 195 
 CHI  HN ES   1   1028 11.78                             118   -0.27 6  247 195 
 CHI  HZ I        1028 22.10         7.9 0.34            118            247 195 
 HEL  HZ EP   1   1027 46.19                             115    0.87 6  272 256 
 HEL  HN ES   1   1028 17.51                             115    0.77 6  272 256 
 HEL  HZ I        1028 23.37        13.1 0.32            115            272 256 
 PRA  HZ EP   1   1027 58.48                             107    0.01 4  391 210 
 PRA  HN ES   1   1028 39.49                             107   -0.65 4  391 210 
 PRA  HZ I        1028 44.52         8.4 0.55            107            391 210 
 SJC  HN EP   4   1027 59.42                             106   -1.42 0  411 327 
                                                                                
