 2016  615 1127 29.7 L   6.749 -73.149142.0  RSN  7 0.4 1.8LRSN                1
 GAP=138        1.04       4.9     4.7  6.7  0.7788E+00  0.9801E+01  0.7575E+00E
 Epicentro: LOS SANTOS - SANTANDER                                             3
 ACTION:UPD 16-07-21 22:19 OP:rebc STATUS:               ID:20160615112729 L   I
 OLDACT:DUP 16-06-15 23:44 OP:dnl  STATUS:               ID:20160615111744d    3
 2016-06-15-1117-43M.COL___323                                                 6
 STAT SP IPHASW D HRMM SECON CODA AMPLIT PERI AZIMU VELO AIN AR TRES W  DIS CAZ7
 BAR2 EZ EP       1127 48.62                             173   -0.1510 17.7 192 
 BAR2 EZ ES       1128  3.63                             173   -0.0210 17.7 192 
 BAR2 EZ I        1128  4.44        17.2 0.16                          17.7 192 
 BRR  HZ EP       1127 50.58                             151   -0.0110 73.8 303 
 BRR  HE ES       1128  7.62                             151    0.7310 73.8 303 
 BRR  HZ I        1128 12.26        17.1 0.12                          73.8 303 
 PAM  EZ EP       1127 51.55                             149   -0.2510 82.0  37 
 PAM  EE ES       1128  8.84                             149   -0.2010 82.0  37 
 PAM  EZ I        1128 11.06        13.7 0.74                          82.0  37 
 RUS  HZ EP   2   1127 52.89                             145    0.21 5 95.0 176 
 RUS  HN ES       1128 10.90                             145    0.3010 95.0 176 
 RUS  HZ I        1128 11.99        10.3 0.30                          95.0 176 
 PTB  HZ EP       1127 55.58                             132   -0.66 9  146 261 
 PTB  HN ES       1128 16.28                             132   -0.66 9  146 261 
 PTB  HZ I        1128 18.19         4.3 0.18                           146 261 
 ZAR  HZ EP       1128  2.90                             121    0.80 8  206 294 
 ZAR  HN ES       1128 27.34                             121   -0.03 8  206 294 
 ZAR  HZ I        1128 33.60        11.5 0.28                           206 294 
 PRA  HZ EP       1128 22.90                             106    0.40 6  387 210 
 PRA  HE ES   2   1129  3.84                             106    0.16 3  387 210 
 PRA  HZ I        1129  7.64         2.1 0.38                           387 210 
                                                                                
