 2012 1015 1406 47.7 L   6.723 -73.057144.9  RSN  4 0.3 1.2LRSN                1
 GAP=152        0.66       4.9     7.7  7.9  0.4104E+01  0.5698E+01  0.5781E+01E
 Epicentro: ARATOCA - SANTANDER                                                3
 ACTION:UPD 12-11-22 17:04 OP:ep   STATUS:               ID:20121015140647 L   I
 2012-10-15-1400-00M.COL___229                                                 6
 STAT SP IPHASW D HRMM SECON CODA AMPLIT PERI AZIMU VELO AIN AR TRES W  DIS CAZ7
 BAR2 SZ EP   1   14 7  7.25                             172    0.13 7 20.0 224 
 BAR2 SZ I        14 7  7.39         3.3 0.15                          20.0 224 
 BAR2 SZ ES   1   14 7 21.71                             172   -0.59 7 20.0 224 
 PAM  SN ES   1   14 7 27.32                             150    0.14 7 78.8  30 
 PAM  SN I        14 7 28.45         2.1 0.20                          78.8  30 
 BRR  HZ EP   1   14 7  9.16                             148   -0.32 7 83.9 300 
 BRR  HZ I        14 7  9.70         4.0 0.15                          83.9 300 
 BRR  HE ES   1   14 7 26.85                             148    0.35 7 83.9 300 
 RUS  HZ EP   1   14 7 10.69                             146   -0.02 7 91.9 182 
 RUS  HN ES   1   14 7 28.99                             146    0.30 7 91.9 182 
 RUS  HN I        14 7 30.43         2.2 0.38                          91.9 182 
                                                                                
