 2013  415 1301 22.6 L   6.781 -73.177134.4  RSN  5 0.3 1.5LRSN                1
 GAP=177        0.86       5.6     5.8  6.5  0.1280E+02  0.1134E+02  0.1063E+02E
 Epicentro: LOS SANTOS - SANTANDER                                             3
 ACTION:UPD 13-05-22 14:38 OP:EP   STATUS:               ID:20130415130122 L   I
 2013-04-15-1258-50M.COL___206                                                 6
 STAT SP IPHASW D HRMM SECON CODA AMPLIT PERI AZIMU VELO AIN AR TRES W  DIS CAZ7
 BAR2 SZ EP       13 1 40.75                             171   -0.1010 20.9 182 
 BAR2 SZ ES       13 1 55.41                             171    0.3510 20.9 182 
 BAR2 SZ I        13 1 56.79        11.0 0.24            170           20.9 182 
 GIR2 SZ ES       13 1 54.78                             165   -0.5710 33.0 357 
 BRR  HZ EP       13 1 42.77                             151    0.3210 69.3 301 
 BRR  HN ES       13 1 58.27                             151    0.3510 69.3 301 
 BRR  HN I        13 2  3.26         9.2 0.18            151           69.3 301 
 RUS  HZ EP       13 1 44.92                             142   -0.2310 98.8 174 
 RUS  HN ES       13 2  2.82                             142    0.1110 98.8 174 
 RUS  HN I        13 2  5.05         2.2 0.42            144           98.8 174 
 PTB  HZ EP       13 1 48.51                             130    0.16 9  144 259 
 PTB  HN ES       13 2  7.99                             130   -0.41 9  144 259 
 PTB  HN I        13 2 11.04         6.7 0.38            131            144 259 
                                                                                
