 2017  715 1734 25.4 L   6.806 -73.148136.7  RSN  9 0.3 1.8LRSN                1
 GAP=136        0.89       3.4     3.5  5.4 -0.1821E+01  0.6430E+01  0.1665E+01E
 Epicentro: LOS SANTOS - SANTANDER                                             3
 ACTION:UPD 17-08-30 15:33 OP:rebc STATUS:               ID:20170715173425 L   I
 OLDACT:REG 17-07-15 20:57 OP:dhb  STATUS:               ID:20170715172741     3
 2017-07-15-1728-00M.COL___386                                                 6
 STAT SP IPHASW D HRMM SECON CODA AMPLIT PERI AZIMU VELO AIN AR TRES W  DIS CAZ7
 BAR2 EZ IP     C 1734 44.03                             170    0.0510 24.0 189 
 BAR2 EZ ES       1734 57.81                             170   -0.6410 24.0 189 
 BAR2 EZ I        1735  1.40        10.8 0.24            169           24.0 189 
 BRR  HZ IP     C 1734 45.82                             151    0.2510 70.6 298 
 BRR  HN ES       1735  1.85                             151    0.5710 70.6 298 
 BRR  HE ES       1735  2.93                             151           70.6 298 
 BRR  HZ I        1735  6.21        10.8 0.10            151           70.6 298 
 PAM  EZ EP       1734 46.85                             149    0.1910 77.0  40 
 PAM  EN ES       1735  3.42                             149    0.1910 77.0  40 
 PAM  EZ I        1735  4.58         7.4 0.18            154           77.0  40 
 RUS  HZ EP       1734 48.23                             142   -0.1210  101 176 
 RUS  HN ES       1735  6.09                             142   -0.1410  101 176 
 RUS  HZ I        1735  8.50        12.6 0.30            145            101 176 
 PTB  HZ EP       1734 51.09                             130   -0.57 9  148 259 
 PTB  HN ES       1735 11.87                             130   -0.25 9  148 259 
 PTB  HZ I        1735 13.51         4.2 0.16            131            148 259 
 SPBC HZ EP       1734 53.50                             127    0.22 9  164 219 
 SPBC HN ES       1735 15.38                             127    0.37 9  164 219 
 SPBC HZ I        1735 20.50         9.6 0.10            129            164 219 
 ZAR  HZ EP       1734 57.19                             120   -0.06 9  204 292 
 ZAR  HE ES       1735 21.57                             120   -0.49 9  204 292 
 ZAR  HZ I        1735 28.19         8.5 0.18            122            204 292 
 NOR  HZ IP     C 1735  0.45                             116   -0.22 8  235 234 
 NOR  HN ES       1735 28.61                             116    0.45 8  235 234 
 NOR  HZ I        1735 32.99         4.6 0.26            119            235 234 
 GUY2CHZ EP   4   1735 10.67                             110    2.01 0  301 235 
 GUY2CHN ES       1735 42.64                             110    0.27 7  301 235 
 GUY2CHZ I        1735 50.76         3.3 0.50                           301 235 
                                                                                
