 2016  415 1754 10.6 L   6.791 -73.167140.7  RSN  9 0.3 2.1LRSN                1
 GAP=134        0.77       2.8     3.1  4.7 -0.1453E+01  0.5583E+01  0.1094E+01E
 Epicentro: LOS SANTOS - SANTANDER                                             3
 ACTION:UPD 16-05-05 14:21 OP:rebc STATUS:               ID:20160415175410 L   I
 OLDACT:REG 16-04-16 00:46 OP:ar   STATUS:               ID:20160415174750     3
 2016-04-15-1747-50M.COL___319                                                 6
 STAT SP IPHASW D HRMM SECON CODA AMPLIT PERI AZIMU VELO AIN AR TRES W  DIS CAZ7
 BAR2 EZ IP     C 1754 29.49                             171   -0.1010 22.0 185 
 BAR2 EZ I        1754 29.62        35.7 0.42            170           22.0 185 
 BAR2 EZ ES       1754 44.82                             171    0.4110 22.0 185 
 PAM  EZ EP     C 1754 32.34                             149   -0.0810 79.7  40 
 PAM  EN ES       1754 49.33                             149   -0.1110 79.7  40 
 PAM  EN I        1754 50.31        47.0 0.24            153           79.7  40 
 RUS  HZ EP       1754 33.54                             143   -0.2510 99.8 175 
 RUS  HN ES       1754 51.86                             143   -0.0310 99.8 175 
 RUS  HZ I        1754 53.06        15.6 0.32            145           99.8 175 
 PTB  HZ EP       1754 36.63                             131   -0.30 9  145 259 
 PTB  HN ES       1754 57.08                             131   -0.39 9  145 259 
 PTB  HZ I        1754 59.44        15.7 0.26            131            145 259 
 SPBC HZ EP       1754 38.80                             128    0.30 9  161 219 
 SPBC HE ES       1755  0.22                             128   -0.04 9  161 219 
 SPBC HZ I        1755  3.77        20.8 0.14            129            161 219 
 ZAR  HZ EP       1754 42.28                             121   -0.25 9  202 293 
 ZAR  HE ES       1755  7.96                             121    0.52 9  202 293 
 ZAR  HZ I        1755 14.16        13.8 0.30            122            202 293 
 NOR  HZ EP       1754 46.41                             118    0.64 8  232 234 
 NOR  HN ES       1755 12.64                             118   -0.56 8  232 234 
 NOR  HZ I        1755 20.46         8.5 0.20            118            232 234 
 CHI  HZ EP       1754 47.75                             116   -0.10 8  247 195 
 CHI  HE ES       1755 17.08                             116    0.18 8  247 195 
 CHI  HZ I        1755 20.21         3.9 0.26            118            247 195 
 GUY2CHZ EP       1754 54.12                             111    0.43 7  299 235 
 GUY2CHE ES       1755 27.35                             111    0.04 7  299 235 
 GUY2CHZ I        1755 36.65         6.3 0.54                           299 235 
                                                                                
