 2017  815 1445  8.0 L   6.965 -73.007163.2  RSN 26 0.5 2.7LRSN                1
 GAP= 74        0.99       2.5     2.6  4.1 -0.2643E-01  0.2942E+01  0.4143E+00E
 Epicentro: PIEDECUESTA - SANTANDER                                            3
 ACTION:UPD 17-09-04 20:20 OP:rebc STATUS:               ID:20170815144508 L   I
 OLDACT:DUP 17-08-15 23:06 OP:lv   STATUS:               ID:20170815143743d    3
 2017-08-15-1438-00M.COL___410                                                 6
 STAT SP IPHASW D HRMM SECON CODA AMPLIT PERI AZIMU VELO AIN AR TRES W  DIS CAZ7
 BAR2 EZ IP     D 1445 30.11                             164   -0.1510 45.5 205 
 BAR2 EZ ES       1445 47.49                             164   -0.1710 45.5 205 
 BAR2 EZ I        1445 48.59        79.0 0.28            160           45.5 205 
 PAM  EZ EP       1445 30.80                             161   -0.1310 53.6  39 
 PAM  EN ES       1445 48.31                             161   -0.5510 53.6  39 
 PAM  EZ I        1445 50.67       269.2 0.42            161           53.6  39 
 BRR  HZ EP       1445 31.68                             153    0.2310 79.4 281 
 BRR  HN ES       1445 50.60                             153    0.8210 79.4 281 
 BRR  HZ I        1445 53.48       109.3 0.14            147           79.4 281 
 RUS  HZ EP       1445 34.90                             142    0.1610  119 184 
 RUS  HN ES       1445 55.63                             142   -0.0110  119 184 
 RUS  HZ I        1445 57.59        25.3 0.27            139            119 184 
 TAM  HZ IP     D 1445 36.34                             136    0.00 9  147 113 
 TAM  HN ES       1445 58.59                             136    0.11 9  147 113 
 YPLC HZ EP       1445 40.13                             129    0.12 9  187 158 
 YPLC HN ES       1446  5.18                             129    0.17 9  187 158 
 YPLC HZ I        1446  7.86        85.3 0.34            126            187 158 
 SPBC HZ EP       1445 40.00                             129   -0.05 9  187 219 
 SPBC HN ES       1446  5.31                             129    0.24 9  187 219 
 SPBC HZ I        1446  6.93        48.4 0.18            124            187 219 
 ZAR  HZ EP       1445 42.00                             125   -0.44 8  213 286 
 ZAR  HN ES       1446  9.48                             125    0.15 8  213 286 
 ZAR  HZ I        1446 11.34       121.2 0.20            120            213 286 
 NOR  HZ EP       1445 47.15                             119   -0.03 8  258 233 
 NOR  HN ES       1446 17.50                             119   -0.27 8  258 233 
 NOR  HZ I        1446 24.49        23.3 0.22            115            258 233 
 CHI  HZ EP       1445 48.66                             118   -0.33 8  270 197 
 CHI  HN ES       1446 20.63                             118   -0.37 8  270 197 
 CHI  HZ I        1446 24.19        11.4 0.34            115            270 197 
 ROSC BZ EP   9   1445 51.34                             118    1.74 0  276 212 
 ROSC BN ES       1446 24.02                                    0.20 7  276 212 
 ROSC BZ I        1446 29.74        27.1 0.35            114            276 212 
 LL1C HZ EP       1445 50.78                             116    0.07 7  291 348 
 LL1C HN ES   4   1446 25.91                             116    1.85 0  291 348 
 HEL  HZ I        1446 31.48        16.9 0.22            112            292 253 
 URE  HZ EP   9   1445 48.99                             116   -1.84 0  292 287 
 URE  HN ES       1446 21.97                                   -0.46 7  292 287 
 HEL  HZ EP       1445 51.47                             116    0.23 7  292 253 
 HEL  HN ES       1446 24.56                             116   -0.44 7  292 253 
 LL6C HZ EP   9   1445 50.76                             115   -1.78 0  308 355 
 LL6C HN ES       1446 25.23                                   -0.30 7  308 355 
 LL6C HZ I        1446 34.84        13.1 0.28            112            308 355 
 GUY2CHZ EP       1445 55.28                             114    0.30 7  324 234 
 GUY2CHN ES       1446 32.04                             114    0.38 7  324 234 
 GUY2CHE ES       1446 32.12                             114            324 234 
 GUY2CHZ I        1446 39.78        20.2 0.36                           324 234 
 VIL  EZ EP   1   1445 54.38                             113   -0.19 5  324 194 
 VIL  EN ES       1446 30.26                             113   -0.67 7  324 194 
 VIL  EZ I        1446 40.42        24.8 0.44            110            324 194 
 ARGC HZ EP       1445 57.63                             112    0.60 6  348 337 
 ARGC HN ES       1446 35.74                             112    0.43 6  348 337 
 ARGC HZ I        1446 37.12        15.4 0.36            109            348 337 
 ELA  HZ EP   4   1446  0.71                             112    2.47 0  353 229 
 ELA  HN ES       1446 38.42                             112    0.96 6  353 229 
 ELA  HZ I        1446 47.25        16.2 0.52            108            353 229 
 CBOC HZ EP       1445 58.29                             111    0.35 6  354 250 
 CBOC HN ES       1446 37.23                             111    0.30 6  354 250 
 DBB  EZ EP       1445 57.41                             111   -0.41 6  354 271 
 DBB  EZ I        1446 37.29        15.0 0.14            108            354 271 
 CBOC HZ I        1446 41.67        10.6 0.38            108            354 250 
 DBB  EN ES       1446 34.97                             111   -1.75 6  354 271 
 DBB  EE ES       1446 35.97                             111            354 271 
 ANIL HZ EP       1446  2.80                             110    1.61 6  381 224 
 ANIL HN ES   4   1446 43.44                             110    0.73 0  381 224 
 ANIL HZ I        1446 48.64        32.7 0.24            107            381 224 
 VALLCHZ EP   4   1445 59.08                             109   -3.13 0  393 356 
 VALLCHN ES   4   1446 42.08                             109   -2.44 0  393 356 
 SJC  HZ EP   4   1446  1.68                             109   -1.73 0  403 324 
 SJC  HN ES   4   1446 43.37                             109   -3.29 0  403 324 
 SJC  HZ I        1446 45.20        14.1 0.22            106            403 324 
 PRA  HZ EP       1446  4.54                             108   -0.29 6  415 210 
 PRA  HN ES       1446 48.62                             108   -0.58 6  415 210 
 PRA  HZ I        1446 52.53        23.8 0.26            105            415 210 
 ORTC HZ EP       1446  5.15                             108   -0.12 5  419 216 
 ORTC HN ES       1446 49.82                             108   -0.15 5  419 216 
 ORTC HZ I        1446 54.79        12.2 0.28            105            419 216 
 SMAR HZ EP       1446 11.76                             105   -0.95 5  483 344 
 SMAR HN ES   4   1446 59.17                             105   -4.04 0  483 344 
                                                                                
