 2011 1215 1435 39.7 L   6.775 -73.093142.0  RSN  5 0.3 1.8LRSN                1
 GAP=145        0.55       5.2     6.6  6.8  0.2174E+01 -0.9695E+01  0.1696E+01E
 Epicentro: LOS SANTOS - SANTANDER                                             3
 ACTION:UPD 12-07-13 16:16 OP:ep   STATUS:               ID:20111215143539 L   I
 2011-12-15-1430-00M.COL___185                                                 6
 STAT SP IPHASW D HRMM SECON CODA AMPLIT PERI AZIMU VELO AIN AR TRES W  DIS CAZ7
 BAR2 SZ EP   1   1435 58.76                             171   -0.10 7 22.5 206 
 BAR2 SZ ES   2   1436 13.16                             171   -0.65 5 22.5 206 
 BAR2 SZ I        1436 17.90        13.3 0.59                          22.5 206 
 GIR2 SZ EP   1   1435 58.82                             165   -0.23 7 35.4 342 
 GIR2 SZ ES   2   1436 13.78                             165   -0.35 5 35.4 342 
 PAM  SZ EP   1   1436  1.65                             151    0.21 7 76.1  35 
 PAM  SN ES   2   1436 18.66                             151    0.27 5 76.1  35 
 BRR  HZ EP   1   1436  0.65                             150   -0.18 7 77.7 298 
 BRR  HN ES   1   1436 17.67                             150    0.36 7 77.7 298 
 BRR  HZ I        1436 20.71        26.9 0.43                          77.7 298 
 RUS  HZ EP   2   1436  2.94                             144    0.08 5 97.6 179 
 RUS  HE ES   2   1436 21.43                             144    0.50 5 97.6 179 
 RUS  HZ I        1436 22.58         4.5 0.17                          97.6 179 
                                                                                
