 2014  915 1147  2.3 L   6.803 -73.099151.1  RSN  5 0.3 1.2LRSN                1
 GAP=205        0.69       5.0     5.3  7.7  0.1230E+02  0.2549E+00 -0.1581E+02E
 Epicentro: LOS SANTOS - SANTANDER                                             3
 ACTION:UPD 14-10-03 23:05 OP:nd   STATUS:               ID:20140915114702 L   I
 OLDACT:REG 14-09-15 20:32 OP:spq  STATUS:               ID:20140915113818     3
 2014-09-15-1138-18M.COL___293                                                 6
 STAT SP IPHASW D HRMM SECON CODA AMPLIT PERI AZIMU VELO AIN AR TRES W  DIS CAZ7
 BAR2 SZ EP       1147 22.78                             170    0.2110 25.0 201 
 BAR2 SZ ES   1   1147 38.08                             170   -0.33 7 25.0 201 
 BAR2 SZ I        1147 39.32         7.8 0.20            170           25.0 201 
 RUS  HZ EP   1   1147 26.74                             145    0.19 7  101 179 
 RUS  HN ES   1   1147 45.60                             145    0.10 7  101 179 
 RUS  HZ I        1147 46.73         1.6 0.44            148            101 179 
 PTB  HZ EP       1147 29.53                             132   -0.60 9  153 259 
 PTB  HE ES   1   1147 52.23                             132    0.37 7  153 259 
 PTB  HZ I        1147 55.84         1.6 0.24            132            153 259 
 ZAR  HN ES       1148  1.58                             123    0.10 8  209 292 
 ZAR  HZ I        1148  5.95         1.3 0.34            123            209 292 
 SML  HZ EP   1   1147 39.72                             118    0.32 6  246 334 
 SML  HN ES   1   1148  8.28                             118   -0.08 6  246 334 
 SML  HZ I        1148 12.64         1.4 0.10            119            246 334 
                                                                                
