 2013  515 1745 25.3 L   6.790 -73.138144.4  RSN 14 0.4 2.5LRSN                1
 GAP= 72        1.03       3.1     3.3  5.0  0.3086E+00  0.2630E+01 -0.2764E-01E
 Epicentro: LOS SANTOS - SANTANDER                                             3
 ACTION:UPD 13-06-20 09:50 OP:ep   STATUS:               ID:20130515174525 L   I
 2013-05-15-1740-00M.COL___256                                                 6
 STAT SP IPHASW D HRMM SECON CODA AMPLIT PERI AZIMU VELO AIN AR TRES W  DIS CAZ7
 BAR2 SZ EP       1745 44.74                             171    0.0410 22.4 193 
 BAR2 SZ ES       1745 59.61                             171   -0.2510 22.4 193 
 BAR2 SZ I        1746  0.63       109.6 0.26            167           22.4 193 
 GIR2 SZ EP       1745 44.80                             167    0.0110 32.5 349 
 GIR2 SZ ES       1745 59.74                             167   -0.2910 32.5 349 
 GIR2 SZ I        1746  1.35        39.9 0.52            164           32.5 349 
 BRR  HZ IP     C 1745 46.59                             152    0.2710 72.5 299 
 BRR  HN ES       1746  3.47                             152    0.7110 72.5 299 
 BRR  HZ I        1746  7.24        40.8 0.12            145           72.5 299 
 PAM  SZ EP     C 1745 47.54                             150    0.2010 77.7  39 
 PAM  SE ES       1746  4.60                             150    0.0410 77.7  39 
 PAM  SZ I        1746  6.73        59.8 0.60            149           77.7  39 
 RUS  HZ EP       1745 48.81                             144    0.0310 99.4 177 
 RUS  HN ES       1746  6.69                             144   -0.4510 99.4 177 
 RUS  HZ I        1746  8.20        33.3 0.26            139           99.4 177 
 PTB  HZ EP       1745 51.68                             132   -0.48 9  148 259 
 PTB  HE ES       1746 12.60                             132   -0.55 9  148 259 
 PTB  HZ I        1746 14.83        34.8 0.14            125            148 259 
 TAM  HZ EP       1745 53.05                             130    0.34 9  154 105 
 TAM  HN ES       1746 14.28                             130    0.14 9  154 105 
 OCA  HN ES       1746 16.23                             129    0.58 9  161 353 
 OCA  HZ I        1746 18.11        45.3 0.20            124            161 353 
 ZAR  HN ES   1   1746 23.54                             122    0.48 6  205 292 
 NOR  HE ES   1   1746 29.37                             118    0.65 6  235 235 
 NOR  HZ I        1746 30.20        32.3 0.16            113            235 235 
 SML  HZ EP       1746  1.21                             117   -0.74 8  245 335 
 SML  HE ES       1746 29.98                             117   -0.59 8  245 335 
 HEL  HZ EP       1746  5.95                             114    0.49 8  273 256 
 HEL  HZ I        1746 45.07        14.4 0.48            110            273 256 
 COD  HZ EP       1746 12.93                             109   -0.78 6  349 354 
 PRA  HN ES       1747  0.73                             106    0.41 6  391 210 
 SJC  HZ EP   4   1746 18.67                             105   -2.26 0  411 327 
 SJC  HN ES   4   1747  0.27                             105   -4.09 0  411 327 
                                                                                
