 2012 1215 1541 59.4 L   6.764 -73.177146.8  RSN  6 0.3 1.9LRSN                1
 GAP=231        0.80       5.2     5.2  6.3  0.1465E+02  0.7898E+01  0.4653E+01E
 Epicentro: LOS SANTOS - SANTANDER                                             3
 ACTION:UPD 13-01-04 14:28 OP:ep   STATUS:               ID:20121215154159 L   I
 2012-12-15-1540-00M.COL___238                                                 6
 STAT SP IPHASW D HRMM SECON CODA AMPLIT PERI AZIMU VELO AIN AR TRES W  DIS CAZ7
 BAR2 SZ EP       1542 18.61                             173   -0.5110 19.0 182 
 BAR2 SZ ES       1542 34.43                             173   -0.0410 19.0 182 
 BAR2 SZ I        1542 35.39        11.2 0.40                          19.0 182 
 BRR  HZ EP       1542 21.23                             153    0.5810 70.2 303 
 BRR  HN ES       1542 37.43                             153    0.2410 70.2 303 
 BRR  HN I        1542 38.08        25.1 0.30                          70.2 303 
 RUS  HZ EP       1542 23.22                             145    0.1810 96.9 174 
 RUS  HN ES       1542 41.42                             145   -0.0310 96.9 174 
 RUS  HN I        1542 43.52         9.9 0.42                          96.9 174 
 PTB  HZ EP       1542 25.87                             133   -0.25 9  144 260 
 PTB  HN ES       1542 46.74                             133   -0.19 9  144 260 
 PTB  HN I        1542 47.90        12.7 0.32                           144 260 
 ZAR  HN ES       1542 56.81                             123   -0.20 9  202 294 
 PRA  HN ES   1   1543 34.22                             107    0.52 4  387 209 
                                                                                
