 2012  215 1051 19.2 L   6.765 -73.129149.9  RSN 10 0.4 2.0LRSN                1
 GAP=140        0.75       4.1     4.1  5.3 -0.1887E+01  0.5499E+01  0.1201E+01E
 ACTION:UP  12-03-07 16:30 OP:epov STATUS:               ID:20120215105119 L   I
 2012-02-15-1050-00M.COL___188                                                 6
 STAT SP IPHASW D HRMM SECON CODA AMPLIT PERI AZIMU VELO AIN AR TRES W  DIS CAZ7
 BAR2 SZ IP       1051 39.32                             172    0.0710 20.0 197 
 BAR2 SZ I        1051 39.60        22.7 0.18                          20.0 197 
 BAR2 SZ ES   1   1051 54.47                             172   -0.43 7 20.0 197 
 GIR2 SZ EP   1   1051 39.55                             166    0.09 7 35.4 348 
 GIR2 SZ ES   1   1051 55.44                             166    0.16 7 35.4 348 
 BRR  HZ EP   1   1051 41.30                             152    0.32 7 74.7 300 
 BRR  HE ES   1   1051 58.62                             152    0.64 7 74.7 300 
 BRR  HZ I        1052  0.98        51.3 0.13                          74.7 300 
 PAM  SZ EP   1   1051 42.17                             151    0.22 7 79.2  37 
 PAM  SE ES   1   1051 59.39                             151   -0.31 7 79.2  37 
 PAM  SZ I        1052  1.52        19.7 0.29                          79.2  37 
 RUS  HZ EP   1   1051 43.22                             146    0.16 7 96.6 177 
 RUS  HN ES   1   1052  1.64                             146   -0.05 7 96.6 177 
 RUS  HZ I        1052  3.01         7.1 0.33                          96.6 177 
 PTB  HZ EP   1   1051 45.88                             133   -0.71 7  149 260 
 PTB  HN ES   1   1052  7.38                             133   -0.59 7  149 260 
 OCA  SZ EP   1   1051 48.17                             130   -0.02 7  164 353 
 ZAR  HZ EP   1   1051 51.48                             123   -0.75 6  207 293 
 ZAR  HN ES   1   1052 18.21                             123    0.21 6  207 293 
 NOR  SZ EP   1   1051 55.54                             119    0.46 6  234 235 
 NOR  SN ES   1   1052 23.53                             119    0.44 6  234 235 
 CHI  HZ EP   2   1051 56.84                             118    0.07 4  245 196 
 CHI  HZ I        1052 36.29         8.0 0.34                           245 196 
                                                                                
