 2014  115 1030 14.0 L   6.801 -73.188140.6  RSN  6 0.4 1.6LRSN                1
 GAP=131        0.91       3.6     5.1  8.0 -0.7373E+00  0.1054E+02 -0.3413E+01E
 Epicentro: ZAPATOCA - SANTANDER                                               3
 ACTION:UPD 14-03-13 09:55 OP:ep   STATUS:               ID:20140115103014 L   I
 OLDACT:DUP 14-01-15 15:32 OP:carl STATUS:               ID:20140115103001d    3
 2014-01-15-1030-00M.COL___285                                                 6
 STAT SP IPHASW D HRMM SECON CODA AMPLIT PERI AZIMU VELO AIN AR TRES W  DIS CAZ7
 PAM  SZ EP       1030 36.24                             149    0.3410 80.4  42 
 PAM  SN ES       1030 53.13                             149    0.1910 80.4  42 
 PAM  SZ I        1030 54.79         6.1 0.72            151           80.4  42 
 RUS  HZ EP       1030 37.34                             142    0.0110  101 173 
 RUS  HN ES       1030 54.89                             142   -0.6010  101 173 
 RUS  HZ I        1030 57.29         4.2 0.26            142            101 173 
 PTB  HZ EP   4   1030 40.18                             132    0.00 0  143 258 
 PTB  HE ES       1031  0.93                             132    0.37 9  143 258 
 PTB  HZ I        1031  3.43         4.8 0.16            131            143 258 
 NOR  HZ EP   4   1030 47.98                             118   -1.10 0  231 234 
 NOR  HE ES   4   1031 18.09                             118    1.69 0  231 234 
 NOR  HE I        1031 25.90         7.5 0.18            117            231 234 
 SML  HZ EP       1030 49.68                             116   -0.48 8  242 336 
 SML  HN ES       1031 18.04                             116   -0.29 8  242 336 
 SML  HZ I        1031 21.54         6.0 0.10            117            242 336 
 CHI  HZ EP       1030 51.70                             116    0.36 8  248 194 
 CHI  HN ES   4   1031 18.31                             116   -2.13 0  248 194 
 CHI  HZ I        1031 28.11         2.0 0.50            116            248 194 
                                                                                
