 2017  915 1236 54.1 L   6.759 -73.144138.0  RSN  5 0.2 1.7LRSN                1
 GAP=234        0.39       2.3     2.8  3.5  0.2676E+01  0.4113E+01  0.7730E+00E
 Epicentro: LOS SANTOS - SANTANDER                                             3
 ACTION:UPD 17-10-05 19:12 OP:rebc STATUS:               ID:20170915123654 L   I
 OLDACT:REG 17-09-15 22:07 OP:dnl  STATUS:               ID:20170915122746     3
 2017-09-15-1228-00M.COL___446                                                 6
 STAT SP IPHASW D HRMM SECON CODA AMPLIT PERI AZIMU VELO AIN AR TRES W  DIS CAZ7
 BAR2 EZ IP     C 1237 12.62                             172   -0.0810 18.9 193 
 BAR2 EZ ES       1237 27.37                             172    0.1610 18.9 193 
 BAR2 EZ I        1237 28.31        16.9 0.36            166           18.9 193 
 BRR  HZ EP       1237 14.46                             150   -0.0910 73.7 302 
 BRR  HN ES       1237 30.60                             150    0.0910 73.7 302 
 BRR  HZ I        1237 34.31        14.5 0.22            147           73.7 302 
 RUS  HZ EP   2   1237 16.37                             144   -0.37 5 96.0 176 
 RUS  HN ES       1237 34.40                             144   -0.0210 96.0 176 
 RUS  HZ I        1237 35.99         2.3 0.38            144           96.0 176 
 ZAR  HZ EP   2   1237 26.49                             121    0.25 4  206 293 
 ZAR  HN ES       1237 51.20                             121   -0.12 8  206 293 
 ZAR  HZ I        1237 56.38         5.9 0.30            120            206 293 
 NOR  HZ EP   2   1237 29.59                             117    0.48 4  232 235 
 NOR  HN ES       1237 56.41                             117   -0.02 8  232 235 
 NOR  HZ I        1238  2.46         3.8 0.16            117            232 235 
                                                                                
