 2014  915 1628 53.8 L   6.771 -73.148149.1  RSN  7 0.5 1.8LRSN                1
 GAP=215        1.07       5.6     8.5  9.9 -0.1407E+02 -0.1958E+02  0.7060E+01E
 Epicentro: LOS SANTOS - SANTANDER                                             3
 ACTION:UPD 14-10-03 23:05 OP:nd   STATUS:               ID:20140915162853 L   I
 OLDACT:UP  14-09-16 02:46 OP:mh   STATUS:               ID:20140915162818     3
 OLDACT:UP  14-09-16 02:46 OP:mh   STATUS:               ID:20140915162818     3
 OLDACT:REG 14-09-15 21:11 OP:spq  STATUS:               ID:20140915162818     3
 2014-09-15-1628-18M.COL___294                                                 6
 STAT SP IPHASW D HRMM SECON CODA AMPLIT PERI AZIMU VELO AIN AR TRES W  DIS CAZ7
 BAR2 SZ EP   1   1629 13.71                             172   -0.03 7 20.1 191 
 BAR2 SZ I        1629 30.25        17.2 0.15            165           20.1 191 
 BRR  HZ EP       1629 15.43                             153    0.0810 72.6 301 
 BRR  HN ES       1629 32.48                             153    0.2910 72.6 301 
 BRR  HZ I        1629 35.82         9.8 0.26            165           72.6 301 
 PTB  HZ EP       1629 20.38                             133   -0.55 9  147 260 
 PTB  HN ES       1629 41.37                             133   -0.76 9  147 260 
 PTB  HZ I        1629 47.28         6.2 0.30            145            147 260 
 ZAR  HN ES       1629 52.45                             123    0.36 9  205 293 
 NOR  HN ES       1629 58.06                             119    0.74 8  233 235 
 SML  HZ EP       1629 31.46                             118    0.58 8  247 336 
 SML  HN ES       1629 59.52                             118   -0.32 8  247 336 
 SML  HZ I        1630  9.66         7.3 0.26            122            247 336 
 GUY2CHZ EP       1629 37.08                             113   -0.22 7  299 235 
 GUY2CHN ES   4   1630 15.18                             113    3.92 0  299 235 
 GUY2CHZ I        1630 20.18         2.9 0.58                           299 235 
                                                                                
