 2015 1015 1137 26.7 L   6.774 -73.136146.0  RSN 12 0.5 2.0LRSN                1
 GAP= 73        1.08       3.1     3.7  5.5 -0.1171E+01  0.5471E+01  0.1084E+01E
 Epicentro: LOS SANTOS - SANTANDER                                             3
 ACTION:UPD 15-12-22 20:40 OP:cam  STATUS:               ID:20151015113726 L   I
 OLDACT:REG 15-10-15 21:59 OP:stll STATUS:               ID:20151015112750     3
 2015-10-15-1127-50M.COL___340                                                 6
 STAT SP IPHASW D HRMM SECON CODA AMPLIT PERI AZIMU VELO AIN AR TRES W  DIS CAZ7
 BAR2 EZ EP       1137 46.32                             172   -0.0310 20.7 194 
 BAR2 EZ ES       1138  1.70                             172    0.0510 20.7 194 
 BAR2 EZ I        1138  3.16        25.4 0.24            170           20.7 194 
 BRR  HZ EP       1137 48.36                             152    0.3110 73.6 300 
 BRR  HN ES       1138  5.37                             152    0.7010 73.6 300 
 BRR  HZ I        1138  8.06        14.1 0.14            150           73.6 300 
 PAM  EZ EP       1137 49.29                             150    0.2210 78.9  38 
 PAM  EZ I        1137 49.54        16.7 0.26            154           78.9  38 
 PAM  EN ES       1138  6.57                             150    0.0710 78.9  38 
 RUS  HZ EP       1137 49.96                             145   -0.3410 97.6 177 
 RUS  HN ES       1138  8.53                             145   -0.1510 97.6 177 
 RUS  HZ I        1138 10.28        14.4 0.26            146           97.6 177 
 TAM  HZ IP     D 1137 54.58                             131    0.31 9  153 104 
 TAM  HZ I        1137 54.71        21.6 0.20            135            153 104 
 SPBC HZ EP       1137 55.04                             129   -0.07 9  162 220 
 SPBC HN ES       1138 16.82                             129   -0.42 9  162 220 
 SPBC HZ I        1138 20.62        13.0 0.36            130            162 220 
 ZAR  HZ EP       1137 59.52                             122    0.11 8  206 293 
 ZAR  HE ES       1138 24.54                             122   -0.37 8  206 293 
 ZAR  HZ I        1138 33.76         8.2 0.46            122            206 293 
 NOR  HZ EP       1138  2.15                             119   -0.25 8  234 235 
 NOR  HN ES       1138 29.72                             119   -0.49 8  234 235 
 NOR  HZ I        1138 35.40         7.6 0.38            119            234 235 
 CHI  HZ EP       1138  4.31                             117    0.13 8  246 196 
 CHI  HN ES       1138 32.69                             117   -0.69 8  246 196 
 CHI  HZ I        1138 36.56         3.1 0.56            119            246 196 
 SML  HZ EP       1138  3.01                             117   -0.70 8  247 335 
 SML  HN ES       1138 31.65                             117   -0.90 8  247 335 
 SML  HZ I        1138 34.78         9.1 0.10            118            247 335 
 HEL  HZ EP       1138  7.80                             115    0.80 8  272 256 
 HEL  HN ES       1138 38.44                             115    0.03 8  272 256 
 HEL  HZ I        1138 45.61         5.7 0.30            115            272 256 
 GUY2CHZ EP       1138 11.06                             112    0.79 7  300 235 
 GUY2CHN ES       1138 45.12                             112    0.89 7  300 235 
 GUY2CHZ I        1138 51.77         3.3 0.40                           300 235 
                                                                                
