 2017  415 1844 60.0 L   6.570 -73.617 13.4  RSN  6 0.4 1.2LRSN                1
 GAP= 90        1.04       2.6     2.3  7.8  0.7494E+00  0.6177E+01  0.7986E+01E
 Epicentro: EL CARMEN - SANTANDER                                              3
 ACTION:UPD 17-05-30 21:12 OP:jn   STATUS:               ID:20170415184460 L   I
 OLDACT:REG 17-04-15 20:04 OP:cog  STATUS:               ID:20170415183737     3
 2017-04-15-1838-00M.COL___374                                                 6
 STAT SP IPHASW D HRMM SECON CODA AMPLIT PERI AZIMU VELO AIN AR TRES W  DIS CAZ7
 BAR2 EZ EP       1845  8.30                             103    0.0310 48.1  87 
 BRR  HZ EP       1845  9.61                              99   -0.2310 60.4 350 
 BRR  HN ES       1845 17.46                              99   -0.0710 60.4 350 
 PTB  HZ EP       1845 14.60                              96   -0.1510 92.9 268 
 PTB  HN ES       1845 26.34                              96    0.0810 92.9 268 
 PTB  HZ I        1845 28.53         8.2 0.28             98           92.9 268 
 RUS  HZ EP       1845 16.22                              96    0.6110 95.4 142 
 RUS  HN ES       1845 27.27                              96   -0.5310 95.4 142 
 RUS  HZ I        1845 28.78         4.2 0.20             98           95.4 142 
 PAM  EZ EP       1845 21.99                              94    0.8010  132  50 
 PAM  EN ES       1845 37.30                              94   -0.4410  132  50 
 PAM  EZ I        1845 38.70         5.2 0.18             96            132  50 
 NOR  HN ES       1845 47.47                              56   -0.10 9  178 231 
                                                                                
