 2016  215 1624 37.4 L   6.792 -73.087153.3  RSN  9 0.4 1.8LRSN                1
 GAP=144        0.97       3.5     4.4  5.7 -0.1994E+01  0.7674E+01  0.3838E+01E
 Epicentro: LOS SANTOS - SANTANDER                                             3
 ACTION:UPD 16-03-04 21:26 OP:rebc STATUS:               ID:20160215162437 L   I
 OLDACT:REG 16-02-15 21:27 OP:ak   STATUS:               ID:20160215161750     3
 2016-02-15-1617-50M.COL___313                                                 6
 STAT SP IPHASW D HRMM SECON CODA AMPLIT PERI AZIMU VELO AIN AR TRES W  DIS CAZ7
 BAR2 EZ EP       1624 58.09                             171    0.0910 24.4 205 
 BAR2 EZ ES       1625 14.10                             171    0.0610 24.4 205 
 BAR2 EZ I        1625 14.83         9.7 0.30            168           24.4 205 
 PAM  EZ EP       1625  0.63                             153    0.3410 74.2  35 
 PAM  EN ES       1625 17.58                             153   -0.5210 74.2  35 
 PAM  EZ I        1625 20.29         7.1 0.22            157           74.2  35 
 BRR  HZ EP       1625  0.05                             152    0.3010 77.3 297 
 BRR  HN ES       1625 17.78                             152    0.6210 77.3 297 
 RUS  HZ EP       1625  1.35                             146   -0.5210 99.5 180 
 RUS  HN ES       1625 20.96                             146    0.0510 99.5 180 
 RUS  HZ I        1625 23.62         3.4 0.32            146           99.5 180 
 SPBC HZ EP       1625  7.09                             130    0.24 9  167 221 
 SPBC HN ES       1625 29.68                             130   -0.11 9  167 221 
 SPBC HZ I        1625 36.25        15.1 0.36            131            167 221 
 ZAR  HZ EP       1625 11.03                             123   -0.00 8  210 292 
 ZAR  HN ES       1625 36.69                             123   -0.54 8  210 292 
 ZAR  HZ I        1625 42.55         9.8 0.22            124            210 292 
 NOR  HZ EP       1625 13.59                             119   -0.54 8  239 236 
 NOR  HN ES       1625 41.99                             119   -0.75 8  239 236 
 NOR  HZ I        1625 45.93         5.1 0.21            120            239 236 
 CHI  HZ EP       1625 15.97                             119    0.30 8  250 197 
 CHI  HE ES       1625 45.61                             119    0.13 8  250 197 
 CHI  HZ I        1625 49.52         2.8 0.38            120            250 197 
 URE  HN ES   4   1625 48.44                             114   -4.02 0  290 292 
 GUY2CHZ EP   1   1625 22.38                             113    0.43 5  306 236 
 GUY2CHN ES       1625 57.28                             113    0.62 7  306 236 
 GUY2CHZ I        1626  5.34         3.9 0.62                           306 236 
                                                                                
