 2013 1115 1924 23.6 L   6.823 -73.157144.7  RSN 10 0.5 2.0LRSN                1
 GAP=134        1.23       3.9     4.8  6.6 -0.7273E+01  0.5679E+01 -0.8642E+00E
 Epicentro: LOS SANTOS - SANTANDER                                             3
 ACTION:UPD 14-01-09 16:28 OP:ep   STATUS:               ID:20131115192423 L   I
 OLDACT:REG 13-11-15 16:22 OP:stll STATUS:               ID:20131115191806     3
 2013-11-15-1918-06M.COL___240                                                 6
 STAT SP IPHASW D HRMM SECON CODA AMPLIT PERI AZIMU VELO AIN AR TRES W  DIS CAZ7
 BAR2 SZ EP       1924 43.42                             169    0.2310 25.6 186 
 BAR2 SZ ES       1924 58.29                             169   -0.1510 25.6 186 
 BAR2 SZ I        1924 59.86        27.3 0.36            169           25.6 186 
 BRR  HZ EP       1924 45.25                             153    0.7010 69.0 297 
 BRR  HN ES       1925  1.53                             153    0.6710 69.0 297 
 BRR  HZ I        1925  2.91        18.3 0.46            148           69.0 297 
 PAM  SZ EP       1924 46.28                             151    0.6110 76.3  41 
 PAM  SZ I        1924 46.49        13.4 0.24            153           76.3  41 
 PAM  SN ES       1925  3.10                             151    0.2410 76.3  41 
 RUS  HZ EP       1924 47.53                             143    0.0610  103 175 
 RUS  HN ES       1925  5.60                             143   -0.4710  103 175 
 RUS  HZ I        1925  7.10         9.4 0.28            145            103 175 
 PTB  HZ EP       1924 49.85                             132   -0.61 9  147 258 
 PTB  HN ES       1925 10.97                             132   -0.41 9  147 258 
 PTB  HZ I        1925 18.68        10.9 0.38            130            147 258 
 CAPV BZ EP       1924 51.32                             132    0.48 9  148  39 
 CAPV BZ ES       1925 10.94                             132   -1.11 9  148  39 
 SPBC HZ EP       1924 52.45                             129    0.28 9  164 218 
 SPBC HN ES       1925 14.30                             129   -0.13 9  164 218 
 SPBC HZ I        1925 17.02        13.9 0.20            128            164 218 
 NOR  HZ EP       1924 59.55                             118    0.19 8  235 234 
 NOR  HN ES       1925 27.29                             118    0.07 8  235 234 
 NOR  HZ I        1925 33.61         8.0 0.32            118            235 234 
 SML  HZ EP       1924 59.60                             117   -0.30 8  241 335 
 SML  HN ES       1925 27.64                             117   -0.55 8  241 335 
 SML  HZ I        1925 38.22        12.4 0.24            117            241 335 
 CHI  HZ EP       1925  1.15                             117   -0.35 8  251 195 
 CHI  HZ I        1925  2.42         4.8 0.50            117            251 195 
                                                                                
