 2011  915 1457 31.3 L   6.822 -73.091142.5  RSN 11 0.5 2.3LRSN                1
 GAP=142        0.91       4.1     5.7  6.5  0.8399E-01  0.7913E+01  0.5526E+01E
 Epicentro: LOS SANTOS - SANTANDER                                             3
 ACTION:UPD 12-07-13 15:57 OP:ep   STATUS:               ID:20110915145731 L   I
 2011-09-15-1455-58S.COL___169                                                 6
 STAT SP IPHASW D HRMM SECON CODA AMPLIT PERI AZIMU VELO AIN AR TRES W  DIS CAZ7
 BAR2 SZ IP       1457 50.54                             169   -0.1310 27.4 202 
 BAR2 SZ I        1457 50.67        47.8 0.38                          27.4 202 
 BAR2 SZ ES   1   1458  5.71                             169   -0.04 7 27.4 202 
 PAM  SZ EP       1457 53.42                             152    0.5410 71.7  37 
 BRR  HZ IP     C 1457 52.33                             151   -0.0610 75.5 295 
 BRR  HZ I        1457 52.61        66.8 0.28                          75.5 295 
 BRR  HN ES   1   1458  9.30                             151    0.49 7 75.5 295 
 RUS  HZ EP       1457 54.62                             143   -0.3210  103 180 
 RUS  HE ES   2   1458 13.19                             143   -0.15 5  103 180 
 RUS  HZ I        1458 14.87        24.3 0.28                           103 180 
 OCA  SZ EP       1457 59.21                             129   -0.04 9  159 351 
 OCA  SZ I        1458 24.98        16.4 0.13                           159 351 
 ZAR  HZ EP   2   1458  3.08                             121   -0.98 4  209 291 
 ZAR  HN ES   1   1458 28.76                             121   -0.83 6  209 291 
 ZAR  HZ I        1458 34.32        27.8 0.36                           209 291 
 NOR  SZ EP       1458  6.98                             117   -0.59 8  241 235 
 CHI  HZ EP       1458  9.60                             116    0.30 8  253 196 
 CHI  HE ES   1   1458 38.22                             116   -0.69 6  253 196 
 CHI  HZ I        1458 46.39         6.5 0.40                           253 196 
 HEL  HZ EP       1458 12.76                             114    0.65 7  279 256 
 RREF HZ EP       1458 18.21                             110    0.16 7  328 230 
 RREF HE ES   2   1458 55.94                             110    1.45 3  328 230 
 RREF HZ I        1459  3.09         5.9 0.26                           328 230 
 PRA  HZ EP       1458 25.52                             106    0.17 6  397 210 
 PRA  HN ES   2   1459  8.12                             106    0.64 3  397 210 
                                                                                
