 2013  415 1500  8.6 L   6.804 -73.165141.6  RSN  9 0.3 2.0LRSN                1
 GAP=134        0.65       2.3     2.8  3.8 -0.1261E+01  0.2471E+01  0.7671E+00E
 Epicentro: LOS SANTOS - SANTANDER                                             3
 ACTION:UPD 13-05-22 14:38 OP:EP   STATUS:               ID:20130415150008 L   I
 2013-04-15-1458-49M.COL___211                                                 6
 STAT SP IPHASW D HRMM SECON CODA AMPLIT PERI AZIMU VELO AIN AR TRES W  DIS CAZ7
 BAR2 SZ EP       15 0 27.61                             170   -0.0810 23.5 185 
 BAR2 SZ ES       15 0 42.59                             170   -0.0210 23.5 185 
 BAR2 SZ I        15 0 43.84        13.3 0.10            170           23.5 185 
 BRR  HZ EP       15 0 29.64                             152    0.5010 69.2 299 
 BRR  HN ES       15 0 45.51                             152    0.3110 69.2 299 
 BRR  HN I        15 0 50.85        27.9 0.18            151           69.2 299 
 PAM  SN ES       15 0 47.33                             150   -0.1010 78.4  41 
 RUS  HZ EP       15 0 32.26                             143    0.3210  101 175 
 RUS  HN ES       15 0 49.99                             143   -0.1910  101 175 
 PTB  HZ EP       15 0 34.58                             131   -0.43 9  146 259 
 PTB  HN ES       15 0 55.44                             131   -0.20 9  146 259 
 PTB  HE I        15 0 58.75         7.9 0.26            132            146 259 
 CAPV BZ EP       15 0 35.50                             131   -0.21 9  150  39 
 NOR  HZ EP       15 0 44.04                             118    0.15 8  233 234 
 NOR  HN ES       15 1 11.37                             118   -0.08 8  233 234 
 SML  HN ES       15 1 12.91                             117   -0.19 8  242 336 
 PRA  HZ EP       15 1  2.09                             106    0.23 6  391 209 
 PRA  HN ES       15 1 43.33                             106   -0.10 6  391 209 
 PRA  HE I        15 1 48.97         4.1 0.28            107            391 209 
                                                                                
