 2017  115 1531 24.2 L   6.767 -73.156143.6  RSN  7 0.4 1.5LRSN                1
 GAP=137        0.74       3.6     3.3  5.2  0.7004E+00  0.3514E+01  0.1781E+01E
 Epicentro: LOS SANTOS - SANTANDER                                             3
 ACTION:UPD 17-05-22 15:59 OP:jn   STATUS:               ID:20170115153124 L   I
 OLDACT:UP  17-01-15 23:39 OP:dani STATUS:               ID:20170115152743     3
 OLDACT:REG 17-01-15 20:29 OP:dani STATUS:               ID:20170115152743     3
 2017-01-15-1528-00M.COL___339                                                 6
 STAT SP IPHASW D HRMM SECON CODA AMPLIT PERI AZIMU VELO AIN AR TRES W  DIS CAZ7
 BAR2 EZ EP       1531 43.43                             172   -0.0810 19.6 189 
 BAR2 EZ ES       1531 58.43                             172   -0.1310 19.6 189 
 BAR2 EZ I        1531 59.64        10.1 0.14            170           19.6 189 
 BRR  HZ EP       1531 45.48                             152    0.3110 72.0 301 
 BRR  HE ES       1532  1.86                             152    0.3410 72.0 301 
 BRR  HZ I        1532  4.54         7.4 0.31            149           72.0 301 
 PAM  EZ EP       1531 46.29                             149   -0.1210 80.9  39 
 PAM  EN ES       1532  3.61                             149   -0.1210 80.9  39 
 PAM  EZ I        1532  5.91         4.6 0.64            153           80.9  39 
 RUS  HZ EP       1531 47.30                             144   -0.1910 97.1 175 
 RUS  HE ES       1532  5.95                             144    0.2910 97.1 175 
 RUS  HZ I        1532  7.28         4.0 0.40            146           97.1 175 
 PTB  HZ EP   3   1531 49.73                             132   -1.11 2  146 260 
 PTB  HN ES       1532 10.97                             132   -0.64 9  146 260 
 PTB  HZ I        1532 16.97         4.1 0.64            131            146 260 
 ZAR  HE ES       1532 21.91                             122    0.13 9  204 293 
 ZAR  HZ I        1532 27.75         5.2 0.28            121            204 293 
 NOR  HZ EP       1531 59.76                             118    0.27 8  232 235 
 NOR  HN ES   3   1532 28.18                             118    1.17 2  232 235 
 NOR  HZ I        1532 33.18         2.8 0.50            118            232 235 
                                                                                
