 2012 1115 1047 12.5 L   6.822 -73.137145.6  RSN 13 0.6 2.0LRSN                1
 GAP= 71        1.34       3.8     4.9  7.0  0.1276E+00  0.5010E+01  0.4236E+01E
 Epicentro: LOS SANTOS - SANTANDER                                             3
 ACTION:UPD 12-12-05 15:33 OP:}ep  STATUS:               ID:20121115104712 L   I
 2012-11-15-1040-00M.COL___230                                                 6
 STAT SP IPHASW D HRMM SECON CODA AMPLIT PERI AZIMU VELO AIN AR TRES W  DIS CAZ7
 BAR2 SZ EP       1047 32.03                             169   -0.1410 25.9 191 
 BAR2 SZ ES       1047 47.22                             169   -0.2810 25.9 191 
 BAR2 SZ I        1047 49.92        20.5 0.38                          25.9 191 
 GIR2 SZ EP       1047 32.12                             168    0.0210 29.1 348 
 BRR  HZ EP       1047 33.91                             153    0.2910 71.0 296 
 BRR  HN ES       1047 51.32                             153    1.2310 71.0 296 
 BRR  HN I        1047 54.83        19.8 0.18                          71.0 296 
 PAM  SZ EP       1047 34.83                             152    0.2810 74.9  40 
 PAM  SZ I        1047 35.02        17.3 0.20                          74.9  40 
 PAM  SN ES       1047 52.31                             152    0.5610 74.9  40 
 RUS  HZ EP       1047 36.56                             143    0.1510  103 177 
 RUS  HN ES       1047 54.38                             143   -0.6710  103 177 
 PTB  HZ EP       1047 39.34                             132   -0.25 9  149 258 
 PTB  HN ES       1047 59.94                             132   -0.77 9  149 258 
 TAM  HZ EP       1047 40.18                             131    0.04 9  155 106 
 TAM  HZ I        1047 40.45        14.9 0.24                           155 106 
 OCA  HN ES       1048  1.63                             130   -0.86 9  158 353 
 ZAR  HE ES       1048 10.29                             122    0.05 9  204 291 
 ZAR  HN I        1048 16.03         8.7 0.30                           204 291 
 SML  HZ EP       1047 48.76                             118   -0.16 8  242 335 
 SML  HN ES       1048 16.75                             118   -0.58 8  242 335 
 CHI  HZ EP       1047 50.18                             117   -0.29 8  251 195 
 CHI  HN ES       1048 19.89                             117   -0.20 8  251 195 
 CHI  HN I        1048 24.87         5.6 0.30                           251 195 
 RREF HZ EP       1048  0.20                             111    1.30 7  324 229 
 RREF HE ES       1048 35.78                             111    0.69 7  324 229 
 RREF HZ I        1048 42.78         4.1 0.24                           324 229 
 PRA  HZ EP       1048  6.13                             106   -0.19 6  395 210 
 PRA  HZ I        1048  7.73         3.5 0.18                           395 210 
                                                                                
