 2011  415 1020  5.2 L   6.773 -73.159144.6  RSN 13 0.3 2.5LRSN                1
 GAP=113        0.64       3.6     4.5  4.5 -0.5589E+01  0.5783E+01  0.2179E+01E
 Epicentro: LOS SANTOS - SANTANDER                                             3
 ACTION:UP  11-06-22 15:31 OP:REBC STATUS:               ID:20110415102005 L   I
 2011-04-15-1015-50S.COL___139                                                 6
 STAT SP IPHASW D HRMM SECON CODA AMPLIT PERI AZIMU VELO SNR AR TRES W  DIS CAZ7
 BTL  SZ IP       1020 24.87                             172     0.210   20 323 
 BAR2 SZ IP       1020 24.48                             172    -0.210   20 187 
 BAR2 SZ ES       1020 39.88                             172     0.110   20 187 
 BAR2 SZ I        1020 40.66        69.4 0.27                            20 187 
 GIR2 SZ EP       1020 24.81                             166     0.010   34 353 
 BRR  HZ EP       1020 26.59                             152     0.310   71 301 
 BRR  HZ I        1020 26.97        69.7 0.09                            71 301 
 BRR  HE ES   1   1020 42.65                             152     0.0 7   71 301 
 PAM  SZ EP   1   1020 27.66                             150     0.1 7   81  39 
 PAM  SN ES   2   1020 44.81                             150    -0.1 5   81  39 
 OCA  SZ EP   1   1020 33.52                             129    -0.2 7  163 354 
 OCA  SZ ES   1   1020 55.53                             129    -0.4 7  163 354 
 OCA  SZ I        1021  3.00        33.7 0.30                           163 354 
 YOP  SZ EP   2   1020 34.77                             126    -0.2 4  177 152 
 YOP  SZ I        1020 59.06        23.7 0.44                           177 152 
 NOR  SZ EP   1   1020 39.84                             118    -0.7 6  232 235 
 NOR  SE ES   1   1021  7.75                             118    -0.4 6  232 235 
 HEL  HZ EP   1   1020 45.87                             115     0.7 6  270 256 
 HEL  HE ES   2   1021 16.37                             115     0.1 4  270 256 
 HEL  HZ I        1021 24.70        18.5 0.65                           270 256 
 GUY  SZ EP   2   1020 48.95                             112     0.2 4  301 235 
 DBB  SZ EP   1   1020 52.47                             109    -0.1 5  338 275 
 TOL  SZ EP       1020 53.35                             109     0.3 7  340 225 
 PRA  HZ EP   1   1020 58.04                             106    -0.3 4  389 210 
                                                                                
