 2010 1015 1523 34.9 L   7.002 -73.117127.1  RSN  5 0.1 1.7LRSN                1
 GAP=159        0.40       3.1     5.7  6.2  0.4692E+00 -0.2051E+02  0.6361E+00E
 Epicentro: FLORIDABLANCA - SANTANDER                                          3
 ACTION:UP  11-02-18 11:09 OP:tino STATUS:               ID:20101015152334 L   I
 2010-10-15-1520-35S.COL___125                                                 6
 STAT SP IPHASW D HRMM SECON CODA AMPLIT PERI AZIMU VELO SNR AR TRES W  DIS CAZ7
 BAR2 SZ EP       1523 53.18                             159     0.110   46 189 
 BAR2 SZ I        1523 53.37        24.3 0.11                            46 189 
 BAR2 SZ ES   2   1524  7.14                             159    -0.1 5   46 189 
 BRR  HZ EP       1523 53.62                             151    -0.210   67 280 
 BRR  HN ES   1   1524  8.54                             151     0.0 7   67 280 
 BRR  HZ I        1524 10.70        15.4 0.20                            67 280 
 GUE  SZ EP       1523 56.19                             141     0.110   94  13 
 GRA  SZ ES   3   1524 13.15                             138    -0.4 2  104  19 
 RUS  HZ EP       1523 58.68                             134     0.010  123 178 
 RUS  HZ I        1523 59.11         3.6 0.14                           123 178 
                                                                                
