 2011  615 1253 58.8 L   6.299 -74.148  4.0  RSN  6 0.7 1.5LRSN                1
 GAP=168        1.52       9.0    13.8 17.0 -0.9053E+02  0.1202E+03 -0.4457E+02E
 Epicentro: CIMITARRA - SANTANDER                                              3
 ACTION:UP  11-07-14 19:05 OP:ep   STATUS:               ID:20110615125358 L   I
 2011-06-15-1250-43S.COL___138                                                 6
 STAT SP IPHASW D HRMM SECON CODA AMPLIT PERI AZIMU VELO SNR AR TRES W  DIS CAZ7
 BRR  HZ EP       1254 14.07                              47    -0.710  102  28 
 BRR  HE ES   1   1254 26.78                              47    -0.4 7  102  28 
 BRR  HZ I        1254 31.49        30.3 0.40                           102  28 
 RUS  HZ EP   1   1254 18.45                              47    -0.5 7  126 111 
 RUS  HZ I        1254 40.11         2.8 0.14                           126 111 
 PAM  SZ EP       1254 29.60                              37     0.3 9  197  54 
 RREF HZ EP   1   1254 30.89                              37     0.6 6  204 221 
 RREF HE ES   1   1254 54.20                              37    -0.6 6  204 221 
 RREF HZ I        1254 58.17         5.8 0.30                           204 221 
 BRI  SZ EP       1254 32.14                              37     0.8 8  216  44 
 GRA  SZ EP   1   1254 33.92                              37     1.0 6  230  40 
                                                                                
