 2014  315 1426 23.8 L   6.810 -73.156147.0  RSN  9 0.3 2.1LRSN                1
 GAP=135        0.65       2.3     2.9  4.5 -0.5763E+00  0.4591E+01 -0.2560E+01E
 Epicentro: LOS SANTOS - SANTANDER                                             3
 ACTION:UPD 14-04-09 23:17 OP:nd   STATUS:               ID:20140315142623 L   I
 OLDACT:REG 14-03-15 15:38 OP:nd   STATUS:               ID:20140315142047     3
 2014-03-15-1420-47M.COL___254                                                 6
 STAT SP IPHASW D HRMM SECON CODA AMPLIT PERI AZIMU VELO AIN AR TRES W  DIS CAZ7
 BAR2 SZ EP       1426 43.50                             170   -0.1210 24.3 187 
 BAR2 SZ ES       1426 59.23                             170    0.1710 24.3 187 
 BAR2 SZ I        1427  0.02        42.7 0.26            169           24.3 187 
 PAM  SZ EP       1426 46.56                             151    0.4010 77.3  41 
 PAM  SN ES       1427  3.54                             151   -0.0510 77.3  41 
 PAM  SZ I        1427  5.96        12.6 0.56            155           77.3  41 
 RUS  HZ EP       1426 47.58                             144   -0.2110  102 175 
 RUS  HN ES       1427  6.32                             144   -0.1510  102 175 
 RUS  HZ I        1427  7.72         8.9 0.30            147            102 175 
 PTB  HZ EP       1426 50.64                             132   -0.17 9  147 258 
 PTB  HN ES       1427 11.58                             132   -0.28 9  147 258 
 PTB  HZ I        1427 19.27        16.5 0.46            131            147 258 
 SPBC HZ EP       1426 52.74                             129    0.31 9  163 218 
 SPBC HN ES       1427 14.77                             129    0.02 9  163 218 
 SPBC HZ I        1427 16.24        14.5 0.24            130            163 218 
 ZAR  HZ EP       1426 56.36                             123    0.16 9  203 292 
 ZAR  HN ES       1427 21.92                             123    0.47 9  203 292 
 ZAR  HZ I        1427 29.01         7.8 0.24            122            203 292 
 SML  HZ EP       1427  0.18                             118   -0.18 8  242 335 
 SML  HN ES       1427 28.45                             118   -0.40 8  242 335 
 SML  HZ I        1427 33.64        13.7 0.10            119            242 335 
 GUY2CHZ EP   4   1427  8.85                             113    1.39 0  301 234 
 GUY2CHN ES   4   1427 45.26                             113    3.77 0  301 234 
 GUY2CHZ I        1427 49.10         4.8 0.46                           301 234 
 RREF HZ EP   4   1427 11.37                             111    1.36 0  322 229 
 RREF HN ES   4   1427 49.16                             111    3.13 0  322 229 
 RREF HZ I        1427 55.76         6.6 0.28            112            322 229 
                                                                                
