 2013  115 1723  1.0 L   6.657 -74.081 32.0  RSN  5 0.3 1.6LRSN                1
 GAP=147        0.63       2.9     4.3  6.6 -0.2440E+01 -0.2521E+02  0.1549E+01E
 Epicentro: PUERTO PARRA - SANTANDER                                           3
 ACTION:UPD 13-02-15 09:14 OP:ep   STATUS:               ID:20130115172301 L   I
 2013-01-15-1720-00M.COL___241                                                 6
 STAT SP IPHASW D HRMM SECON CODA AMPLIT PERI AZIMU VELO AIN AR TRES W  DIS CAZ7
 PTB  HZ EP       1723  9.38                             121   -0.0710 43.4 253 
 PTB  HN ES   1   1723 15.99                             121   -0.03 7 43.4 253 
 PTB  HZ I        1723 16.37        57.6 0.24            128           43.4 253 
 BRR  HZ EP       1723 12.03                              61   -0.0110 64.4  39 
 BRR  HN ES   1   1723 20.85                              61    0.21 7 64.4  39 
 BRR  HZ I        1723 22.70        13.9 0.16            109           64.4  39 
 BAR2 SZ EP       1723 16.64                              61   -0.0910 99.7  94 
 BAR2 SZ ES   1   1723 28.39                              61   -0.60 7 99.7  94 
 BAR2 SZ I        1723 29.38        16.6 0.26             98           99.7  94 
 RUS  HZ EP       1723 22.41                              61    0.45 9  139 127 
 RUS  HN ES   1   1723 38.45                              61    0.15 7  139 127 
 RUS  HZ I        1723 39.51        10.3 0.58             93            139 127 
 NOR  HN ES   2   1723 39.31                              61   -0.28 5  149 216 
                                                                                
