 2015  115 1852 26.3 L   6.784 -73.165145.3  RSN  6 0.4 1.7LRSN                1
 GAP=135        0.85       3.4     5.7  6.8 -0.9299E+00  0.1231E+02 -0.6372E+01E
 Epicentro: LOS SANTOS - SANTANDER                                             3
 ACTION:UPD 15-03-02 15:39 OP:nd   STATUS:               ID:20150115185226 L   I
 OLDACT:REG 15-01-15 21:05 OP:mh   STATUS:               ID:20150115184748     3
 2015-01-15-1847-48M.COL___246                                                 6
 STAT SP IPHASW D HRMM SECON CODA AMPLIT PERI AZIMU VELO AIN AR TRES W  DIS CAZ7
 BAR2 EZ EP   1   1852 46.23                             171    0.38 7 21.3 185 
 BAR2 EZ ES       1853  1.30                             171    0.2210 21.3 185 
 BAR2 EZ I        1853  2.84        10.7 0.18            171           21.3 185 
 PAM  SZ EP       1852 49.05                             150    0.4110 80.1  40 
 PAM  SN ES   1   1853  6.12                             150    0.07 7 80.1  40 
 PAM  SZ I        1853  8.21        11.4 0.60            153           80.1  40 
 RUS  HZ EP       1852 50.12                             144    0.2210 99.0 175 
 RUS  HN ES       1853  7.66                             144   -0.6410 99.0 175 
 RUS  HZ I        1853 11.93         6.8 0.35            146           99.0 175 
 PTB  HZ EP       1852 52.85                             132   -0.17 9  145 259 
 PTB  HN ES   1   1853 14.30                             132    0.45 7  145 259 
 PTB  HZ I        1853 16.77                             134            145 259 
 OCA  HN ES       1853 16.59                             129   -0.30 9  162 354 
 SML  HZ EP       1853  2.62                             117   -0.37 8  244 336 
 SML  HN ES   1   1853 31.44                             117   -0.15 6  244 336 
                                                                                
