 2010  315 1500 38.1 L   6.804 -73.021150.7  RSN  8 0.3 2.3LRSN                1
 GAP=196        0.47       3.2     5.9  4.2  0.2527E+00  0.2739E+01  0.4056E+01E
 Epicentro: CEPITA - SANTANDER                                                 3
 ACTION:UP  10-08-24 09:54 OP:vdl  STATUS:               ID:20100315150038 L   I
 2010-03-15-1457-43S.COL___095                                                 6
 STAT SP IPHASW D HRMM SECON CODA AMPLIT PERI AZIMU VELO SNR AR TRES W  DIS CAZ7
 BAR2 SZ IP       15 0 58.54                             169     0.010   30 218 
 BAR2 SZ ES   1   15 1 14.43                             169     0.0 7   30 218 
 BRR  HZ IP       15 1  0.40                             150    -0.110   83 294 
 BRR  HZ I        15 1  0.72        65.1 0.17                            83 294 
 BRR  HN ES   1   15 1 17.97                             150     0.0 7   83 294 
 RUS  HZ EP   2   15 1  2.28                             145    -0.1 5  101 184 
 RUS  HN ES   2   15 1 21.47                             145     0.1 5  101 184 
 RUS  HZ I        15 1 22.14        10.9 0.30                           101 184 
 OCA  SZ EP   2   15 1  7.60                             130     0.6 5  162 348 
 OCA  SZ I        15 1 19.69        63.5 0.21                           162 348 
 CHI  HZ EP   1   15 1 16.54                             118    -0.1 6  253 198 
 CHI  HZ I        15 1 19.22         7.4 0.38                           253 198 
 CHI  HE ES   2   15 1 46.92                             118     0.3 4  253 198 
 RREF BZ EP   2   15 1 25.63                             111    -0.1 3  333 231 
 RREF BN ES   2   15 2  3.17                             111     0.3 3  333 231 
 RREF BZ I        15 2 10.72        10.1 0.22                           333 231 
 TOL  SZ EP   2   15 1 28.39                             110     0.6 3  354 226 
 PRA  HZ EP   1   15 1 32.09                             107    -0.6 4  399 211 
 PRA  HE ES   1   15 2 15.17                             107    -0.1 4  399 211 
 PRA  HZ I        15 2 18.44         6.3 0.37                           399 211 
                                                                                
