 2013 1115 1908 54.2 L   6.728 -73.201140.6  RSN  5 0.4 1.4LRSN                1
 GAP=225        1.10       6.8     6.3  8.1  0.8837E+01  0.1550E+02  0.1109E+02E
 Epicentro: VILLANUEVA - SANTANDER                                             3
 ACTION:UPD 14-01-09 16:28 OP:ep   STATUS:               ID:20131115190854 L   I
 OLDACT:REG 13-11-15 16:22 OP:stll STATUS:               ID:20131115190818     3
 2013-11-15-1908-18M.COL___239                                                 6
 STAT SP IPHASW D HRMM SECON CODA AMPLIT PERI AZIMU VELO AIN AR TRES W  DIS CAZ7
 BAR2 SZ EP       19 9 12.88                             174   -0.2310 15.1 172 
 BAR2 SZ ES       19 9 27.47                             174   -0.3510 15.1 172 
 BAR2 SZ I        19 9 29.62         9.3 0.20            166           15.1 172 
 BRR  HZ EP       19 9 14.93                             152    0.1510 70.3 307 
 BRR  HN ES       19 9 31.47                             152    0.6710 70.3 307 
 RUS  HZ EP       19 9 17.31                             145    0.3510 93.3 172 
 RUS  HN ES       19 9 34.68                             145   -0.0010 93.3 172 
 RUS  HZ I        19 9 37.41         3.2 0.32            142           93.3 172 
 PTB  HZ EP       19 9 19.36                             132   -0.76 9  140 262 
 PTB  HN ES       19 9 39.80                             132   -0.50 9  140 262 
 PTB  HZ I        19 9 45.53         3.9 0.16            130            140 262 
 NOR  HZ EP       19 9 28.99                             118    0.35 8  225 235 
 NOR  HN ES       19 9 55.90                             118    0.43 8  225 235 
 NOR  HZ I        1910  4.28         1.8 0.18            118            225 235 
                                                                                
