 2016  515 1759 29.6 L   6.780 -73.172151.0  RSN  9 0.3 1.9LRSN                1
 GAP=233        0.74       3.1     3.8  4.9  0.2798E+01  0.4381E+01  0.3664E+01E
 Epicentro: LOS SANTOS - SANTANDER                                             3
 ACTION:UPD 16-08-18 17:46 OP:cam  STATUS:               ID:20160515175929 L   I
 OLDACT:REG 16-05-15 20:44 OP:ak   STATUS:               ID:20160515175745     3
 2016-05-15-1757-45M.COL___289                                                 6
 STAT SP IPHASW D HRMM SECON CODA AMPLIT PERI AZIMU VELO AIN AR TRES W  DIS CAZ7
 BAR2 EZ EP       1759 49.68                             172   -0.1510 20.8 183 
 BAR2 EZ ES       18 0  5.30                             172   -0.3010 20.8 183 
 BAR2 EZ I        18 0  7.62        17.9 0.26            168           20.8 183 
 BRR  HZ EP       1759 51.44                             154    0.1810 69.7 301 
 BRR  HN ES       18 0  8.52                             154    0.3910 69.7 301 
 BRR  HZ I        18 0 12.78         9.2 0.17            151           69.7 301 
 RUS  HZ EP       1759 53.70                             145   -0.0510 98.6 174 
 RUS  HN ES       18 0 12.65                             145    0.0710 98.6 174 
 RUS  HZ I        18 0 13.72         7.9 0.28            146           98.6 174 
 PTB  HZ EP       1759 56.28                             134   -0.45 9  144 259 
 PTB  HN ES       18 0 17.61                             134   -0.26 9  144 259 
 PTB  HZ I        18 0 20.19         6.1 0.14            132            144 259 
 SPBC HZ EP       1759 58.78                             131    0.58 9  160 219 
 SPBC HN ES       18 0 20.59                             131    0.11 9  160 219 
 SPBC HZ I        18 0 25.76        10.1 0.09            130            160 219 
 ZAR  HZ EP   2   18 0  2.49                             124    0.27 4  202 293 
 ZAR  HE ES       18 0 27.74                             124    0.09 9  202 293 
 ZAR  HZ I        18 0 33.03         6.8 0.26            124            202 293 
 NOR  HZ EP   2   18 0  4.32                             120   -0.95 4  231 234 
 NOR  HN ES       18 0 32.73                             120   -0.34 8  231 234 
 NOR  HZ I        18 0 39.48         5.0 0.18            120            231 234 
 CHI  HZ EP   2   18 0  6.79                             118   -0.52 4  246 195 
 CHI  HN ES       18 0 36.71                             118    0.01 8  246 195 
 PRA  HZ EP   2   18 0 23.13                             107    0.19 3  389 209 
 PRA  HN ES       18 1  5.15                             107    0.63 6  389 209 
 PRA  HZ I        18 1 12.07         3.9 0.36            108            389 209 
                                                                                
