 2010  915 1158 31.2 L   6.886 -72.938138.0  RSN  4 0.1 1.4LRSN                1
 GAP=262        0.34       6.8    12.1  7.2  0.6667E+02 -0.5560E+02 -0.2768E+02E
 Epicentro: GUACA - SANTANDER                                                  3
 ACTION:UP  11-02-18 11:02 OP:tino STATUS:               ID:20100915115831 L   I
 2010-09-15-1154-34S.COL___119                                                 6
 STAT SP IPHASW D HRMM SECON CODA AMPLIT PERI AZIMU VELO SNR AR TRES W  DIS CAZ7
 BTL  SZ EP   1   1158 50.25                             165     0.0 7   37 276 
 BAR2 SZ EP   1   1158 50.54                             162     0.1 7   42 220 
 BAR2 SZ ES   2   1159  5.27                             162    -0.2 5   42 220 
 BAR2 SZ I        1159  6.86         8.6 0.40                            42 220 
 BRR  HZ EP   1   1158 52.47                             145    -0.1 7   89 286 
 BRR  HN ES   2   1159  9.52                             145     0.2 5   89 286 
 RUS  HZ EP   1   1158 54.93                             139     0.0 7  111 188 
 RUS  HZ I        1158 55.88         2.4 0.22                           111 188 
 RUS  HN ES   2   1159 13.57                             139     0.0 5  111 188 
                                                                                
