 2016  515 1003  9.6 L   6.773 -73.170136.9  RSN  7 0.2 1.4LRSN                1
 GAP=233        0.61       3.7     3.3  4.5  0.5759E+01  0.4781E+01  0.4674E+00E
 Epicentro: LOS SANTOS - SANTANDER                                             3
 ACTION:UPD 16-08-18 17:46 OP:cam  STATUS:               ID:20160515100309 L   I
 OLDACT:UP  16-05-15 21:07 OP:ak   STATUS:               ID:20160515095744     3
 OLDACT:REG 16-05-15 20:15 OP:ak   STATUS:               ID:20160515095744     3
 2016-05-15-0957-44M.COL___291                                                 6
 STAT SP IPHASW D HRMM SECON CODA AMPLIT PERI AZIMU VELO AIN AR TRES W  DIS CAZ7
 BAR2 EZ EP       10 3 27.82                             171   -0.2610 20.1 184 
 BAR2 EZ ES       10 3 42.32                             171   -0.2010 20.1 184 
 BAR2 EZ I        10 3 43.76         5.9 0.28            172           20.1 184 
 BRR  HZ EP       10 3 29.78                             151    0.0510 70.3 302 
 BRR  HN ES       10 3 45.77                             151    0.3310 70.3 302 
 BRR  HZ I        10 3 50.94         8.8 0.10            149           70.3 302 
 RUS  HZ EP       10 3 32.72                             143    0.4510 97.9 174 
 RUS  HN ES       10 3 49.91                             143   -0.0610 97.9 174 
 RUS  HZ I        10 3 51.21         2.3 0.26            147           97.9 174 
 PTB  HN ES       10 3 55.55                             131   -0.24 9  145 260 
 ZAR  HZ EP       10 3 41.06                             120   -0.26 9  203 293 
 ZAR  HN ES       10 4  6.11                             120    0.04 9  203 293 
 ZAR  HZ I        10 4 12.95         3.3 0.18            121            203 293 
 HEL  HN ES   2   10 4 19.83                             113    0.12 4  269 256 
 CBOC HZ EP   2   10 3 55.40                             108   -0.34 3  330 252 
 CBOC HE ES       10 4 31.90                             108    0.16 7  330 252 
 CBOC HZ I        10 4 35.82         0.7 0.26            110            330 252 
                                                                                
