 2011  515 1058 57.2 L   6.789 -73.106133.3  RSN 11 0.2 2.0LRSN                1
 GAP=142        0.46       2.1     3.5  3.7 -0.3741E+01  0.4685E+01 -0.9545E+00E
 Epicentro: LOS SANTOS - SANTANDER                                             3
 ACTION:UP  11-06-29 08:53 OP:tino STATUS:               ID:20110515105857 L   I
 2011-05-15-1053-56S.COL___139                                                 6
 STAT SP IPHASW D HRMM SECON CODA AMPLIT PERI AZIMU VELO SNR AR TRES W  DIS CAZ7
 BAR2 SZ EP   1   1059 15.40                             169     0.1 8   23 201 
 BAR2 SZ ES   1   1059 29.07                             169    -0.4 8   23 201 
 BAR2 SZ I        1059 31.03        27.9 0.37                            23 201 
 PAM  SZ EP   2   1059 18.21                             149     0.2 5   76  36 
 PAM  SN ES   2   1059 34.34                             149     0.1 5   76  36 
 BRR  HZ EP   1   1059 17.27                             148     0.0 8   76 298 
 BRR  HN ES   2   1059 33.34                             148     0.4 5   76 298 
 BRR  HZ I        1059 38.41        23.1 0.18                            76 298 
 RUS  HZ EP   1   1059 19.65                             141     0.0 8   99 179 
 RUS  HN ES   1   1059 37.32                             141     0.2 8   99 179 
 RUS  HZ I        1059 39.66        15.9 0.27                            99 179 
 BRI  SZ EP   1   1059 20.07                             138     0.2 8  108  18 
 BRI  SZ ES   1   1059 37.47                             138    -0.1 8  108  18 
 BRI  SZ I        1059 40.16        10.8 0.39                           108  18 
 GRA  SZ IP       1059 21.27                             134    -0.110  126  15 
 GRA  SZ ES   2   1059 39.79                             134    -0.4 5  126  15 
 GRA  SZ I        1059 41.93        10.6 0.36                           126  15 
 OCA  SZ EP   2   1059 24.31                             126    -0.4 5  162 352 
 OCA  SZ ES   2   1059 46.49                             126     0.3 5  162 352 
 OCA  SZ I        1059 50.90        11.4 0.21                           162 352 
 NOR  SZ EP   2   1059 32.09                             115    -0.4 4  238 235 
 NOR  SN ES   2   1059 59.79                             115    -0.3 4  238 235 
 HEL  HZ EP   1   1059 37.63                             112     0.4 6  276 256 
 HEL  HN ES   2   11 0  8.57                             112     0.1 4  276 256 
 HEL  HZ I        11 0 14.50         6.3 0.43                           276 256 
 RREF HZ EP   2   1059 43.08                             108     0.0 4  324 230 
 RREF HE ES   2   11 0 18.89                             108     0.0 4  324 230 
 RREF HZ I        11 0 24.05         4.0 0.36                           324 230 
 PRA  HZ EP   2   1059 50.14                             104    -0.3 3  393 210 
 PRA  HN ES   2   11 0 31.80                             104    -0.2 3  393 210 
                                                                                
