 2017  515 1633 42.3 L   6.713 -73.141134.5  RSN  7 0.3 1.6LRSN                1
 GAP=115        0.75       3.8     2.9  7.2  0.2067E-01  0.1624E+01  0.1478E+02E
 Epicentro: JORDAN - SANTANDER                                                 3
 ACTION:UPD 17-06-16 13:36 OP:jn   STATUS:               ID:20170515163342 L   I
 OLDACT:REG 17-05-15 20:54 OP:lv   STATUS:               ID:20170515162558     3
 2017-05-15-1628-00M.COL___356                                                 6
 STAT SP IPHASW D HRMM SECON CODA AMPLIT PERI AZIMU VELO AIN AR TRES W  DIS CAZ7
 BRR  HZ EP       1634  2.34                             148   -0.2810 76.7 305 
 BRR  HN ES       1634 18.68                             148    0.2410 76.7 305 
 BRR  HZ I        1634 21.51         8.0 0.17             47           76.7 305 
 PAM  EZ EP       1634  3.50                             146   -0.3510 84.8  35 
 PAM  EN ES       1634 20.75                             146    0.1210 84.8  35 
 PAM  EZ I        1634 22.93         8.7 0.42             47           84.8  35 
 PTB  HZ EP       1634  8.77                             129    0.46 9  147 263 
 PTB  HN ES       1634 28.31                             129   -0.26 9  147 263 
 PTB  HZ I        1634 34.62         2.4 0.27             47            147 263 
 YPLC HZ EP       1634 10.93                             125    0.46 9  168 150 
 YPLC HN ES       1634 32.20                             125   -0.21 9  168 150 
 YPLC HZ I        1634 36.01         5.9 0.44             47            168 150 
 ZAR  HN ES   4   1634 38.45                             119   -1.19 0  208 295 
 ZAR  HZ I        1634 45.30         4.0 0.18             37            208 295 
 NOR  HZ EP       1634 16.73                             117   -0.15 8  230 236 
 NOR  HN ES       1634 43.82                             117   -0.01 8  230 236 
 NOR  HZ I        1634 52.23         1.9 0.14             37            230 236 
 SJC  HZ EP   4   1634 34.73                             103   -3.81 0  418 328 
 SJC  HZ I        1635 22.82         1.3 0.46             36            418 328 
                                                                                
