 2015 1015 1608 30.7 L   6.795 -73.133141.4  RSN 15 0.6 2.4LRSN                1
 GAP= 72        1.36       3.5     4.0  6.6 -0.2218E+00  0.9327E+01  0.2295E+01E
 Epicentro: LOS SANTOS - SANTANDER                                             3
 ACTION:UPD 15-12-22 20:40 OP:cam  STATUS:               ID:20151015160830 L   I
 OLDACT:DUP 15-10-16 01:21 OP:stll STATUS:               ID:20151015155750d    3
 2015-10-15-1606-18M.COL___334                                                 6
 STAT SP IPHASW D HRMM SECON CODA AMPLIT PERI AZIMU VELO AIN AR TRES W  DIS CAZ7
 BAR2 EZ IP     C 16 8 49.99                             170    0.2110 23.1 194 
 BAR2 EZ I        16 8 50.06        59.4 0.40            166           23.1 194 
 BAR2 EZ ES       16 9  4.64                             170   -0.0410 23.1 194 
 BRR  HZ IP     C 16 8 51.90                             151    0.4610 72.7 298 
 BRR  HZ I        16 8 52.13        47.3 0.24            147           72.7 298 
 BRR  HE ES       16 9  8.44                             151    0.8010 72.7 298 
 PAM  EZ EP     C 16 8 52.84                             150    0.4410 76.9  38 
 PAM  EZ I        16 8 53.17       119.0 0.20            151           76.9  38 
 PAM  EN ES       16 9  9.32                             150   -0.0210 76.9  38 
 RUS  HZ EP       16 8 54.01                             143    0.0510100.0 177 
 RUS  HN ES       16 9 11.78                             143   -0.3410100.0 177 
 RUS  HZ I        16 9 13.47        23.6 0.24            139          100.0 177 
 TAM  HZ IP     C 16 8 58.35                             130    0.48 9  154 105 
 TAM  HZ I        16 8 58.53        30.7 0.20            129            154 105 
 TAM  HN ES       16 9 18.89                             130   -0.19 9  154 105 
 OCA  HZ EP       16 8 58.55                             128   -0.16 9  161 353 
 OCA  HE ES       16 9 20.09                             128   -0.50 9  161 353 
 OCA  HZ I        16 9 21.95        53.3 0.56            127            161 353 
 SPBC HZ EP       16 8 58.92                             128    0.03 9  164 219 
 SPBC HZ I        16 9 24.17        36.2 0.26            124            164 219 
 ZAR  HZ EP       16 9  2.98                             121   -0.01 8  206 292 
 ZAR  HN ES       16 9 28.79                             121    0.58 8  206 292 
 ZAR  HZ I        16 9 36.88        26.4 0.24            118            206 292 
 NOR  HZ EP       16 9  6.07                             117   -0.18 8  236 235 
 NOR  HE ES       16 9 33.25                             117   -0.74 8  236 235 
 NOR  HZ I        16 9 39.75        15.1 0.16            114            236 235 
 SML  HZ EP       16 9  6.15                             116   -1.02 8  245 335 
 SML  HE ES       16 9 34.27                             116   -1.37 8  245 335 
 SML  HZ I        16 9 44.58        33.0 0.22            114            245 335 
 CHI  HZ EP       16 9  8.44                             116    0.32 8  249 196 
 CHI  HN ES       16 9 36.26                             116   -1.07 8  249 196 
 CHI  HZ I        16 9 47.04         4.9 0.48            113            249 196 
 HEL  HZ EP       16 9 12.21                             114    1.40 8  273 256 
 HEL  HN ES       16 9 42.44                             114    0.33 8  273 256 
 URE  HZ EP   4   16 9 10.66                             113   -1.04 0  285 292 
 URE  HN ES   4   16 9 41.36                             113   -2.35 0  285 292 
 GUY2CHZ EP       16 9 14.43                             111    0.25 7  302 235 
 GUY2CHN ES       16 9 47.25                             111   -0.87 7  302 235 
 GUY2CHZ I        16 9 57.33         9.4 0.52                           302 235 
 CBOC HZ EP       16 9 18.09                             109    0.54 7  335 252 
 CBOC HZ I        16 9 23.86         5.4 0.46            106            335 252 
 DBB  SZ EP       16 9 18.07                             109   -0.07 7  341 274 
 DBB  SZ I        16 9 19.27        24.6 0.26            106            341 274 
                                                                                
