 2014  415 1010 11.3 L   6.819 -73.399110.4  RSN  4 0.4 1.0LRSN                1
 GAP=118        0.90       4.2     3.4 10.9  0.2339E+00  0.1045E+02 -0.8193E+01E
 Epicentro: SAN VICENTE DE CHUCURI - SANTANDER                                 3
 ACTION:UPD 14-05-13 23:08 OP:nd   STATUS:               ID:20140415101011 L   I
 OLDACT:REG 14-04-15 20:48 OP:stll STATUS:               ID:20140415100817     3
 2014-04-15-1008-17M.COL___265                                                 6
 STAT SP IPHASW D HRMM SECON CODA AMPLIT PERI AZIMU VELO AIN AR TRES W  DIS CAZ7
 PAM  SZ EP       1010 31.80                             136    0.3610 96.4  53 
 PAM  SN ES       1010 46.98                             136   -0.1410 96.4  53 
 PAM  SZ I        1010 50.14         2.4 0.18            141           96.4  53 
 RUS  HZ EP       1010 32.84                             132    0.3510  108 161 
 RUS  HN ES       1010 48.63                             132   -0.3510  108 161 
 RUS  HZ I        1010 50.71         1.1 0.32            139            108 161 
 PTB  HN ES       1010 50.16                             128    0.2410  121 255 
 ZAR  HZ EP       1010 38.16                             117   -0.66 9  177 295 
 ZAR  HN ES       1011  0.36                             117    0.10 9  177 295 
 ZAR  HZ I        1011  7.11         2.4 0.26            120            177 295 
                                                                                
