 2013 1015 1644  1.5 L   6.819 -73.137146.0  RSN  9 0.5 2.2LRSN                1
 GAP=137        1.14       4.3     6.1  7.4 -0.2099E+01  0.1434E+02 -0.7627E+00E
 Epicentro: LOS SANTOS - SANTANDER                                             3
 ACTION:UPD 13-11-25 09:21 OP:ep   STATUS:               ID:20131015164401 L   I
 OLDACT:UP  13-10-15 16:26 OP:cam  STATUS:               ID:20131015163959     3
 OLDACT:REG 13-10-15 15:18 OP:cam  STATUS:               ID:20131015163959     3
 2013-10-15-1639-59M.COL___274                                                 6
 STAT SP IPHASW D HRMM SECON CODA AMPLIT PERI AZIMU VELO AIN AR TRES W  DIS CAZ7
 BAR2 SZ EP       1644 21.18                             170   -0.0410 25.5 191 
 BAR2 SZ ES       1644 35.96                             170   -0.6310 25.5 191 
 BAR2 SZ I        1644 37.75        50.2 0.40            169           25.5 191 
 BRR  HZ IP     D 1644 22.88                             153    0.2010 71.1 297 
 BRR  HN ES       1644 39.88                             153    0.6910 71.1 297 
 BRR  HZ I        1644 43.67        38.3 0.22            152           71.1 297 
 PAM  SZ EP       1644 23.95                             152    0.3210 75.2  40 
 PAM  SN ES       1644 41.10                             152    0.2310 75.2  40 
 PAM  SZ I        1644 42.85        16.4 0.52            155           75.2  40 
 RUS  HZ EP   1   1644 25.35                             143   -0.08 7  103 177 
 RUS  HN ES   1   1644 43.64                             143   -0.45 7  103 177 
 RUS  HZ I        1644 45.57        15.5 0.18            146            103 177 
 PTB  HZ EP       1644 27.67                             132   -0.95 9  149 258 
 PTB  HN ES   4   1644 48.94                             132   -0.82 0  149 258 
 PTB  HZ I        1644 51.64        23.5 0.12            132            149 258 
 SPBC HZ EP       1644 30.59                             129    0.35 9  165 219 
 SPBC HN ES       1644 52.93                             129    0.29 9  165 219 
 SPBC HZ I        1644 58.22        24.6 0.22            130            165 219 
 ZAR  HN ES   1   1644 59.26                             122   -0.05 6  204 292 
 SML  HZ EP   1   1644 37.82                             118   -0.17 6  242 335 
 SML  HE ES       1645  5.85                             118   -0.60 8  242 335 
 SML  HZ I        1645  9.74        23.4 0.10            120            242 335 
 GUY2CHZ EP   1   1644 46.37                             112    1.02 5  303 235 
 GUY2CHN ES   4   1645 21.45                             112    1.90 0  303 235 
 GUY2CHZ I        1645 29.56         6.6 0.70                           303 235 
                                                                                
