 2012  115 1038 35.7 L   6.727 -73.177148.0  RSN  5 0.2 1.6LRSN                1
 GAP=185        0.39       7.3     3.7  6.8  0.7214E+01  0.5148E+01  0.2182E+02E
 Epicentro: VILLANUEVA - SANTANDER                                             3
 ACTION:UP  12-02-03 08:17 OP:REBC STATUS:               ID:20120115103835 L   I
 2012-01-15-1030-00M.COL___187                                                 6
 STAT SP IPHASW D HRMM SECON CODA AMPLIT PERI AZIMU VELO SNR AR TRES W  DIS CAZ7
 BAR2 SZ EP   1   1038 55.41                             174     0.0 7   15 182 
 GIR2 SZ EP   1   1038 55.80                             164     0.0 7   39 357 
 GIR2 SZ ES   2   1039 11.32                             164    -0.3 5   39 357 
 BRR  HZ EP   1   1038 57.39                             152     0.2 7   73 305 
 BRR  HZ I        1039  3.35         7.8 0.28                            73 305 
 BRR  HE ES   2   1039 14.22                             152     0.3 5   73 305 
 PTB  HZ EP   1   1039  2.33                             133    -0.1 7  143 262 
 PTB  HN ES   2   1039 23.26                             133     0.0 5  143 262 
 ZAR  HN ES   1   1039 33.55                             123    -0.2 6  204 295 
                                                                                
