 2013 1115 1844 27.7 L   6.781 -73.142145.8  RSN 15 0.5 2.2LRSN 2.7WRSN        1
 SPEC AVERAGE  MO 13.1 ST220.0 OM  1.3 f0 22.1 R0.1353 AL 0.00 WI 20.0 MW  2.7 3
 SPEC SD       MO  0.2 ST302.7 OM  0.3 f0 11.7 R0.1099 AL      WI      MW  0.2 3
 GAP= 72        1.27       3.1     4.0  5.9 -0.2766E+01  0.2684E+01  0.1022E+01E
 Epicentro: LOS SANTOS - SANTANDER                                             3
 SPEC BAR2SH Z MO 13.1 ST 92.4 OM  1.3 f0 22.1 R0.0871 AL-0.00 WI 20.0 MW  2.7 3
 SPEC BAR2SH Z T1845 1 K 0.050 GD  147 VS 5.20 DE 3.20 Q0750.0 QA 1.50 VS 5.20 3
 SPEC BRR HH Z MO 13.4 ST 20.5 OM  1.5 f0 11.1 R0.1733 AL-0.00 WI 20.0 MW  2.9 3
 SPEC BRR HH Z T1845 4 K 0.050 GD  162 VS 5.20 DE 3.20 Q0750.0 QA 1.50 VS 5.20 3
 SPEC PAM SH Z MO 12.9 ST  2.3 OM  1.0 f0 7.80 R0.2467 AL-0.00 WI 20.0 MW  2.5 3
 SPEC PAM SH Z T1845 6 K 0.050 GD  165 VS 5.20 DE 3.20 Q0750.0 QA 1.50 VS 5.20 3
 SPEC RUS HH Z MO 12.6 ST 23.8 OM  0.7 f0 21.0 R0.0916 AL-0.00 WI 20.0 MW  2.4 3
 SPEC RUS HH Z T1845 7 K 0.050 GD  175 VS 5.20 DE 3.20 Q0750.0 QA 1.50 VS 5.20 3
 SPEC PTB HH Z MO 13.2 ST0.964 OM  1.2 f0 4.65 R0.4138 AL-0.00 WI 20.0 MW  2.7 3
 SPEC PTB HH Z T184513 K 0.050 GD  207 VS 5.20 DE 3.20 Q0750.0 QA 1.50 VS 5.20 3
 SPEC SPBCHH Z MO 13.2 ST260.8 OM  1.2 f0 29.6 R0.0650 AL-0.00 WI 20.0 MW  2.8 3
 SPEC SPBCHH Z T184515 K 0.050 GD  217 VS 5.20 DE 3.20 Q0750.0 QA 1.50 VS 5.20 3
 SPEC OCA HH Z MO 13.1 ST511.2 OM  1.1 f0 40.0 R0.0481 AL-0.00 WI 20.0 MW  2.7 3
 SPEC OCA HH Z T184516 K 0.050 GD  217 VS 5.20 DE 3.20 Q0750.0 QA 1.50 VS 5.20 3
 SPEC ZAR HH Z MO 13.3 ST244.0 OM  1.2 f0 27.6 R0.0697 AL-0.00 WI 20.0 MW  2.8 3
 SPEC ZAR HH Z T184523 K 0.050 GD  251 VS 5.20 DE 3.20 Q0750.0 QA 1.50 VS 5.20 3
 SPEC NOR HH Z MO 13.1 ST 43.8 OM  1.0 f0 17.6 R0.1093 AL-0.00 WI 20.0 MW  2.7 3
 SPEC NOR HH Z T184529 K 0.050 GD  275 VS 5.20 DE 3.20 Q0750.0 QA 1.50 VS 5.20 3
 SPEC SML HH Z MO 13.5 ST999.9 OM  1.4 f0 40.0 R0.0481 AL-0.00 WI 20.0 MW  3.0 3
 SPEC SML HH Z T184530 K 0.050 GD  285 VS 5.20 DE 3.20 Q0750.0 QA 1.50 VS 5.20 3
 SPECGUY2CHH Z MO 13.3 ST  0.4 OM  1.1 f0 3.12 R 0.616 AL-0.00 WI 20.0 MW  2.8 3
 SPECGUY2CHH Z T184544 K 0.050 GD333.6 VS 5.20 DE 3.20 Q0750.0 QA 1.50 VS 5.20 3
 OLDACT:REG 13-11-15 16:21 OP:stll STATUS:               ID:20131115183818     3
 ACTION:UPD 14-01-09 16:28 OP:ep   STATUS:               ID:20131115184427 L   I
 OLDACT:UP  13-11-15 19:31 OP:stll STATUS:               ID:20131115183818     3
 2013-11-15-1838-18M.COL___240                                                 6
 STAT SP IPHASW D HRMM SECON CODA AMPLIT PERI AZIMU VELO AIN AR TRES W  DIS CAZ7
 BAR2 SZ IP     D 1844 47.53                             171    0.2310 21.4 192 
 BAR2 SZ ES       1845  2.69                             171    0.1110 21.4 192 
 BAR2 SZ I        1845  6.00        25.3 0.32            165           21.4 192 
 BRR  HZ IP     C 1844 49.54                             152    0.6010 72.6 300 
 BRR  HN ES       1845  6.34                             152    0.8510 72.6 300 
 BRR  SZ I        1845  8.49        38.2 0.14            155           72.6 300 
 PAM  SZ IP     C 1844 50.51                             150    0.5010 78.7  38 
 PAM  SN ES       1845  7.57                             150    0.1710 78.7  38 
 PAM  SZ I        1845  9.31        14.0 0.22            146           78.7  38 
 RUS  HZ EP       1844 51.32                             144    0.0110 98.5 176 
 RUS  HN ES       1845  9.15                             144   -0.5710 98.5 176 
 RUS  SZ I        1845 14.10         5.1 0.24            137           98.5 176 
 PTB  HZ EP       1844 54.15                             132   -0.53 9  148 260 
 PTB  HN ES       1845 15.23                             132   -0.48 9  148 260 
 PTB  SZ I        1845 21.09        18.4 0.18            130            148 260 
 TAM  HZ IP     C 1844 55.76                             131    0.46 9  154 104 
 TAM  SZ I        1845 27.43        12.5 0.38            123            154 104 
 SPBC HZ EP       1844 56.35                             129    0.27 9  162 220 
 SPBC HN ES       1845 17.41                             129   -0.80 9  162 220 
 SPBC SZ I        1845 23.18        29.5 0.16            125            162 220 
 OCA  HZ EP       1844 56.67                             129    0.45 9  162 353 
 OCA  HN ES       1845 18.08                             129   -0.37 9  162 353 
 OCA  SZ I        1845 25.54        12.8 0.38            127            162 353 
 ZAR  HZ EP       1845  0.36                             122    0.09 8  205 293 
 ZAR  HN ES       1845 25.41                             122   -0.26 8  205 293 
 ZAR  SZ I        1845 32.66        21.1 0.30            120            205 293 
 NOR  HZ EP       1845  3.59                             119    0.25 8  234 235 
 NOR  HN ES       1845 31.34                             119    0.20 8  234 235 
 NOR  SZ I        1845 38.95        14.5 0.48            115            234 235 
 SML  HZ EP       1845  4.29                             117   -0.27 8  246 335 
 SML  HN ES       1845 32.07                             117   -1.23 8  246 335 
 SML  SZ I        1845 36.56        20.5 0.08            114            246 335 
 CHI  HZ EP       1845  4.46                             117   -0.74 8  247 195 
 CHI  HN ES       1845 33.96                             117   -0.48 8  247 195 
 CHI  SZ I        1845 49.84         4.8 1.14            112            247 195 
 GUY2CHZ EP       1845 11.39                             112    0.17 7  300 235 
 GUY2CHN ES       1845 46.22                             112    1.06 7  300 235 
 GUY2CSZ I        1845 53.49        11.1 0.38                           300 235 
 SOCV BZ EP       1845  9.93                             112   -0.92 7  302  56 
 RREF HZ EP       1845 14.19                             111    0.46 7  321 230 
 RREF HN ES       1845 49.86                             111    0.23 7  321 230 
 RREF SZ I        1845 56.84         9.5 0.26            107            321 230 
                                                                                
