 2013 1015 1521 55.9 L   6.812 -73.166148.2  RSN 12 0.4 2.1LRSN                1
 GAP=133        0.91       2.6     3.5  4.7 -0.1007E+01  0.4274E+01  0.1807E+01E
 Epicentro: LOS SANTOS - SANTANDER                                             3
 ACTION:UPD 13-11-25 09:21 OP:ep   STATUS:               ID:20131015152155 L   I
 OLDACT:UP  13-10-15 16:16 OP:cam  STATUS:               ID:20131015151959     3
 OLDACT:REG 13-10-15 15:15 OP:cam  STATUS:               ID:20131015151959     3
 2013-10-15-1519-59M.COL___274                                                 6
 STAT SP IPHASW D HRMM SECON CODA AMPLIT PERI AZIMU VELO AIN AR TRES W  DIS CAZ7
 BAR2 SZ EP       1522 15.64                             170   -0.2110 24.3 184 
 BAR2 SZ ES       1522 31.02                             170   -0.3810 24.3 184 
 BAR2 SZ I        1522 32.30        32.9 0.20            169           24.3 184 
 BRR  HZ EP       1522 17.57                             154    0.4010 68.6 298 
 BRR  HN ES       1522 34.78                             154    1.0210 68.6 298 
 BRR  HN I        1522 35.10        54.3 0.26            152           68.6 298 
 PAM  SZ EP       1522 18.69                             151    0.2810 77.9  41 
 PAM  SN ES       1522 35.74                             151   -0.2210 77.9  41 
 RUS  HZ EP       1522 20.17                             144    0.1710  102 175 
 RUS  HN ES       1522 38.66                             144   -0.1310  102 175 
 RUS  HZ I        1522 39.48         8.6 0.26            144            102 175 
 PTB  HZ EP       1522 22.56                             133   -0.34 9  146 258 
 PTB  HN ES       1522 43.35                             133   -0.59 9  146 258 
 PTB  HZ I        1522 45.53        12.9 0.16            132            146 258 
 SPBC HZ EP       1522 24.83                             130    0.27 9  163 218 
 SPBC HN ES       1522 46.87                             130   -0.03 9  163 218 
 SPBC HZ I        1522 51.11        16.3 0.20            129            163 218 
 ZAR  HN ES       1522 53.57                             123    0.10 9  201 292 
 ZAR  HZ I        1522 58.87        11.7 0.38            123            201 292 
 NOR  HZ EP       1522 31.68                             119    0.02 8  234 234 
 NOR  HN ES       1522 59.42                             119   -0.13 8  234 234 
 SML  HZ EP       1522 32.31                             118   -0.13 8  242 336 
 SML  HE ES       1523  0.29                             118   -0.64 8  242 336 
 SML  HZ I        1523  5.73         9.7 0.24            118            242 336 
 CHI  HZ EP       1522 33.81                             117   -0.00 8  249 195 
 CHI  HN ES       1523  3.48                             117    0.10 8  249 195 
 CHI  HZ I        1523  8.57         5.6 0.28            118            249 195 
 GUY2CHZ EP       1522 39.40                             113   -0.11 7  300 234 
 GUY2CHE ES       1523 13.91                             113    0.40 7  300 234 
 GUY2CHZ I        1523 22.15         7.9 0.58                           300 234 
 PRA  HZ EP       1522 49.81                             107    0.29 6  392 209 
 PRA  HE ES       1523 30.91                             107   -0.42 6  392 209 
 PRA  HZ I        1523 37.82         6.6 0.72            107            392 209 
                                                                                
