 2013  115 1013 26.1 L   6.834 -73.057145.7  RSN 17 0.5 3.2LRSN 3.4WRSN        1
 SPEC AVERAGE  MO 14.2 ST 18.8 OM  2.7 f0 4.21 R0.3824 AL 1.74 WI 29.5 MW  3.4 3
 SPEC SD       MO  0.2 ST 13.0 OM  0.3 f0 1.27 R0.1121 AL      WI      MW  0.1 3
 GAP=132        1.00       3.2     4.5  5.8 -0.2358E+01 -0.3873E+00  0.2780E+01E
 Epicentro: LOS SANTOS - SANTANDER                                             3
 SPEC VIL SH Z MO 14.5 ST 13.4 OM  2.6 f0 3.06 R0.4804 AL 1.87 WI 40.4 MW  3.6 3
 SPEC VIL SH Z T101437 K 0.000 GD  341 VS 4.20 DE 3.20 Q0300.0 QA 0.60 VS 4.20 3
 SPEC ZAR HH Z MO 14.3 ST 25.2 OM  2.5 f0 4.48 R0.3281 AL 1.21 WI 46.3 MW  3.5 3
 SPEC ZAR HH Z T101419 K 0.000 GD  257 VS 4.20 DE 3.20 Q0300.0 QA 0.60 VS 4.20 3
 SPEC RREFHH Z MO 14.5 ST 12.2 OM  2.5 f0 3.14 R0.4682 AL 1.62 WI 23.5 MW  3.6 3
 SPEC RREFHH Z T101448 K 0.000 GD  362 VS 4.20 DE 3.20 Q0300.0 QA 0.60 VS 4.20 3
 SPEC ROSCBH Z MO 14.4 ST 13.8 OM  2.5 f0 3.49 R0.4212 AL 2.82 WI 59.7 MW  3.5 3
 SPEC ROSCBH Z T101418 K 0.000 GD  298 VS 4.20 DE 3.20 Q0300.0 QA 0.60 VS 4.20 3
 SPEC PTB HH Z MO 13.9 ST 17.4 OM  2.2 f0 5.30 R0.2774 AL 1.45 WI 20.1 MW  3.2 3
 SPEC PTB HH Z T101412 K 0.000 GD  214 VS 4.20 DE 3.20 Q0300.0 QA 0.60 VS 4.20 3
 SPEC RUS HH Z MO 13.8 ST  1.9 OM  2.2 f0 2.71 R0.5424 AL 1.69 WI 10.7 MW  3.2 3
 SPEC RUS HH Z T1014 6 K 0.000 GD  179 VS 4.20 DE 3.20 Q0300.0 QA 0.60 VS 4.20 3
 SPEC OCA HH Z MO 14.2 ST 36.4 OM  2.5 f0 5.38 R0.2732 AL 1.42 WI 29.6 MW  3.4 3
 SPEC OCA HH Z T101414 K 0.000 GD  214 VS 4.20 DE 3.20 Q0300.0 QA 0.60 VS 4.20 3
 SPEC HEL HH Z MO 14.1 ST  9.5 OM  2.2 f0 3.80 R0.3868 AL 1.69 WI 28.4 MW  3.3 3
 SPEC HEL HH Z T101435 K 0.000 GD  318 VS 4.20 DE 3.20 Q0300.0 QA 0.60 VS 4.20 3
 SPEC CHI HH Z MO 14.2 ST  3.9 OM  2.3 f0 2.68 R0.5485 AL 1.76 WI 32.3 MW  3.4 3
 SPEC CHI HH Z T101425 K 0.000 GD  293 VS 4.20 DE 3.20 Q0300.0 QA 0.60 VS 4.20 3
 SPEC BRR HH Z MO 14.1 ST 46.1 OM  2.5 f0 6.35 R0.2315 AL 1.75 WI 18.6 MW  3.4 3
 SPEC BRR HH Z T1014 3 K 0.000 GD  165 VS 4.20 DE 3.20 Q0300.0 QA 0.60 VS 4.20 3
 SPEC BAR2SH Z MO 14.0 ST 26.5 OM  2.4 f0 5.91 R0.2487 AL 1.89 WI 15.3 MW  3.3 3
 SPEC BAR2SH Z T101359 K 0.000 GD  148 VS 4.20 DE 3.20 Q0300.0 QA 0.60 VS 4.20 3
 ACTION:UPD 13-02-15 09:14 OP:ep   STATUS:               ID:20130115101326 L   I
 2013-01-15-1010-00M.COL___241                                                 6
 STAT SP IPHASW D HRMM SECON CODA AMPLIT PERI AZIMU VELO AIN AR TRES W  DIS CAZ7
 BAR2 SZ IP       1013 46.04                             168    0.1310 30.1 207 
 BAR2 SZ ES   1   1014  1.29                             168   -0.05 7 30.1 207 
 BAR2 SZ I        1014  3.83       297.3 0.26            168           30.1 207 
 BRR  HZ IP     D 1013 47.96                             150    0.2710 78.4 293 
 BRR  HN ES   1   1014  4.90                             150    0.38 7 78.4 293 
 BRR  HZ I        1014  7.85       308.5 0.14            146           78.4 293 
 RUS  HZ IP     D 1013 49.88                             143   -0.2510  104 182 
 RUS  HE ES   1   1014  8.76                             143   -0.10 7  104 182 
 RUS  HZ I        1014 11.57       152.3 0.38            138            104 182 
 PTB  HZ IPg      1013 55.04                             130    0.99 9  158 258 
 PTB  HE ES   1   1014 14.98                             130   -0.84 7  158 258 
 PTB  HZ I        1014 19.25       156.6 0.24            125            158 258 
 OCA  HZ EP       1013 54.23                             130    0.01 9  158 349 
 OCA  HN ES   1   1014 16.14                             130    0.00 7  158 349 
 OCA  HZ I        1014 21.11       232.4 0.28            124            158 349 
 ZAR  HZ EP       1013 58.49                             121   -0.89 8  212 290 
 ZAR  HN ES   1   1014 25.04                             121   -0.27 6  212 290 
 ZAR  HZ I        1014 31.18       231.7 0.30            116            212 290 
 CTAB SZ EP       1014  3.45                             118    0.69 8  238 212 
 CTAB SZ ES   2   1014 31.31                             118   -0.03 4  238 212 
 CHI  HZ EP     C 1014  3.81                             116   -0.70 8  255 197 
 CHI  HE ES   1   1014 34.31                             116   -0.14 6  255 197 
 CHI  HZ I        1014 36.82        68.8 0.56            112            255 197 
 ROSC BZ EP     D 1014  6.23                             116    1.07 8  261 212 
 ROSC BN ES   1   1014 35.13                             116   -0.47 6  261 212 
 ROSC BZ I        1014 42.17       141.1 0.55            111            261 212 
 HEL  HZ EP   1   1014  7.33                             114   -0.17 6  283 256 
 HEL  HN ES   1   1014 39.81                             114    0.04 6  283 256 
 HEL  HZ I        1014 46.22        81.6 0.46            109            283 256 
 URE  HZ EP   4   1014  5.94                             113   -2.13 0  292 291 
 URE  HN ES   4   1014 38.05                             113   -2.73 0  292 291 
 VIL  SZ EP       1014  9.50                             112   -0.69 7  309 193 
 VIL  SE ES   2   1014 43.79                             112   -0.78 4  309 193 
 VIL  SZ I        1014 53.18       132.0 0.44            107            309 193 
 RREF HZ EP       1014 13.31                             110   -0.09 7  332 230 
 RREF HN ES   1   1014 50.85                             110    0.58 5  332 230 
 RREF HZ I        1014 57.49       136.4 0.32            106            332 230 
 SDV  BZ EP   1   1014 15.22                             109    0.20 5  350  50 
 SDV  BE ES   1   1014 52.68                             109   -0.47 5  350  50 
 ANIL HZ EP       1014 17.00                             108   -0.04 6  367 225 
 ANIL HN ES   1   1014 56.60                             108   -0.15 5  367 225 
 ANIL HZ I        1015  5.88        58.8 0.38            104            367 225 
 SJA  SZ EP       1014 22.08                             106    0.70 6  406 194 
 SJA  SZ I        1015 10.95        25.2 0.12            102            406 194 
 SJC  HN ES   4   1015  1.06                             106   -4.45 0  412 326 
 PAL  HZ EP   1   1014 21.78                             105   -0.72 4  416 239 
 SMAR HZ EP       1014 31.56                             102   -0.29 4  496 345 
 SMAR HE ES   4   1015 19.21                             102   -3.91 0  496 345 
 SMAR HZ I        1015 24.18        44.6 0.72             99            496 345 
                                                                                
