 2013 1215 1328 24.8 L   6.808 -73.133147.8  RSN  6 0.5 1.7LRSN                1
 GAP=202        1.14       6.0     7.3  8.5  0.2130E+02 -0.2583E+00 -0.1429E+02E
 Epicentro: LOS SANTOS - SANTANDER                                             3
 ACTION:UPD 14-01-13 10:18 OP:ep   STATUS:               ID:20131215132824 L   I
 OLDACT:UP  13-12-15 18:37 OP:cam  STATUS:               ID:20131215132000     3
 OLDACT:REG 13-12-15 14:33 OP:cam  STATUS:               ID:20131215132000     3
 2013-12-15-1320-00M.COL___285                                                 6
 STAT SP IPHASW D HRMM SECON CODA AMPLIT PERI AZIMU VELO AIN AR TRES W  DIS CAZ7
 BAR2 SZ EP       1328 44.90                             170    0.1810 24.5 193 
 BAR2 SZ ES       1328 59.61                             170   -0.6310 24.5 193 
 BAR2 SZ I        1329  1.56        12.8 0.58            168           24.5 193 
 BRR  HZ EP       1328 46.71                             153    0.4710 72.0 297 
 BRR  HN ES       1329  3.72                             153    0.7810 72.0 297 
 BRR  HZ I        1329  4.40         9.6 0.16            150           72.0 297 
 RUS  HZ EP       1328 49.00                             144    0.1710  101 177 
 RUS  HN ES       1329  7.57                             144    0.0110  101 177 
 RUS  HZ I        1329  9.44         3.4 0.38            145            101 177 
 PTB  HZ EP       1328 51.84                             132   -0.26 9  149 259 
 PTB  HN ES       1329 12.76                             132   -0.60 9  149 259 
 ZAR  HZ EP   2   1328 58.00                             123    0.50 4  205 292 
 ZAR  HE ES       1329 23.33                             123    0.35 9  205 292 
 ZAR  HZ I        1329 31.28         6.0 0.50            122            205 292 
 SML  HZ EP   1   1329  1.06                             118   -0.48 6  243 335 
 SML  HE ES       1329 29.53                             118   -0.65 8  243 335 
 SML  HZ I        1329 31.94         7.5 0.10            118            243 335 
                                                                                
