 2017  215 1948 49.8 L   6.130 -73.809101.2  RSN  8 0.4 1.7LRSN                1
 GAP= 69        1.03       2.8     3.2  7.6  0.1538E+01  0.9142E+01  0.2318E+01E
 Epicentro: EL PENON - SANTANDER                                               3
 ACTION:UPD 17-05-24 15:36 OP:jn   STATUS:               ID:20170215194849 L   I
 OLDACT:UP  17-02-16 00:11 OP:cog  STATUS:               ID:20170215194749     3
 OLDACT:REG 17-02-16 00:07 OP:cog  STATUS:               ID:20170215194749     3
 2017-02-15-1948-00M.COL___358                                                 6
 STAT SP IPHASW D HRMM SECON CODA AMPLIT PERI AZIMU VELO AIN AR TRES W  DIS CAZ7
 RUS  HZ EP       1949  7.93                             137   -0.1510 84.6 108 
 RUS  HN ES       1949 21.87                             137   -0.4810 84.6 108 
 RUS  HZ I        1949 23.39         5.8 0.14            143           84.6 108 
 PTB  HZ EP       1949  6.88                             137   -0.5510 84.7 302 
 PTB  HN ES       1949 21.30                             137    0.1010 84.7 302 
 PTB  HZ I        1949 23.69        13.4 0.12            141           84.7 302 
 BAR2 EZ EP       1949  8.02                             136    0.1610 86.1  54 
 BAR2 EZ ES       1949 21.87                             136   -0.0910 86.1  54 
 BAR2 EZ I        1949 23.39        26.5 0.26            142           86.1  54 
 BRR  HZ EP       1949  9.74                             129    0.1910  109   6 
 BRR  HE ES       1949 25.37                             129    0.3910  109   6 
 BRR  HZ I        1949 32.29        12.2 0.42            134            109   6 
 NOR  HZ EP       1949 11.72                             122   -0.3310  133 242 
 NOR  HN ES       1949 29.58                             122    0.1410  133 242 
 NOR  HZ I        1949 32.17        16.0 0.14            127            133 242 
 CHI  HZ EP       1949 16.41                             116    0.37 9  166 177 
 CHI  HE ES       1949 36.89                             116    0.36 9  166 177 
 CHI  HZ I        1949 40.15         4.7 0.50            121            166 177 
 ZAR  HZ EP       1949 18.58                             112    0.40 9  190 322 
 ZAR  HN ES       1949 40.96                             112    0.62 9  190 322 
 URE  HZ EP       1949 26.33                             105   -0.14 8  262 313 
 URE  HE ES       1949 53.97                             105   -1.13 8  262 313 
                                                                                
