 2012  515 1004 29.7 L   6.808 -73.127149.6  RSN 13 0.5 2.6LRSN                1
 GAP=127        1.13       4.2     6.6  7.1 -0.1848E+01  0.3181E+01  0.4280E+01E
 Epicentro: LOS SANTOS - SANTANDER                                             3
 ACTION:UP  12-07-05 12:05 OP:pat  STATUS:               ID:20120515100429 L   I
 2012-05-15-1000-00M.COL___195                                                 6
 STAT SP IPHASW D HRMM SECON CODA AMPLIT PERI AZIMU VELO SNR AR TRES W  DIS CAZ7
 BAR2 SZ IP       10 4 49.97                             170     0.110   25 194 
 BAR2 SZ ES   1   10 5  4.81                             170    -0.7 7   25 194 
 BAR2 SZ I        10 5  6.53       103.1 0.20                            25 194 
 BRR  HZ IP     C 10 4 51.76                             152     0.410   73 297 
 BRR  HN ES   1   10 5  9.07                             152     0.8 7   73 297 
 BRR  HZ I        10 5 12.21        56.2 0.28                            73 297 
 PAM  SZ EP       10 4 52.87                             152     0.610   75  39 
 PAM  SN ES   1   10 5  9.94                             152     0.1 7   75  39 
 RUS  HZ EP       10 4 53.89                             144     0.010  101 177 
 RUS  HN ES   1   10 5 12.14                             144    -0.7 7  101 177 
 RUS  HZ I        10 5 13.72        67.3 0.30                           101 177 
 OCA  HZ EP       10 4 58.11                             130    -0.2 9  160 352 
 OCA  HN ES   1   10 5 19.93                             130    -0.6 7  160 352 
 OCA  HZ I        10 5 23.56        66.0 0.14                           160 352 
 ZAR  HZ EP   3   10 5  2.54                             123    -0.1 2  206 292 
 ZAR  HE ES   1   10 5 27.94                             123    -0.3 6  206 292 
 ZAR  HZ I        10 5 33.12        30.3 0.28                           206 292 
 CHI  HZ IP     C 10 5  8.13                             118     0.3 8  250 196 
 CHI  HZ I        10 5  8.60        23.0 0.38                           250 196 
 CHI  HN ES   1   10 5 37.45                             118    -0.1 6  250 196 
 HEL  HZ EP   1   10 5 10.73                             115     0.3 6  274 256 
 HEL  HZ I        10 5 48.84        14.6 0.26                           274 256 
 URE  HZ EP   2   10 5  9.87                             114    -1.3 4  285 292 
 VIL  SZ EP   1   10 5 13.52                             113     0.0 5  305 192 
 RREF HZ EP   3   10 5 16.48                             111     0.2 2  324 229 
 RREF HZ I        10 6  1.94        19.9 0.30                           324 229 
 SDV  BZ EP       10 5 19.04                             109    -0.6 6  358  50 
 SDV  BZ I        10 5 20.12         1.0 0.20                           358  50 
 PRA  HZ EP       10 5 23.20                             107    -0.4 6  394 210 
 PRA  HZ I        10 5 24.89        60.4 0.16                           394 210 
                                                                                
