 2016 1215 1631 32.9 L   6.781 -73.187142.6  RSN  4 0.1 1.3LRSN                1
 GAP=142        0.41       2.6     4.0  3.7 -0.4760E+01  0.3188E+01 -0.1046E+01E
 Epicentro: LOS SANTOS - SANTANDER                                             3
 ACTION:UPD 17-01-11 20:15 OP:rebc STATUS:               ID:20161215163132 L   I
 OLDACT:REG 16-12-15 22:33 OP:ar   STATUS:               ID:20161215162644     3
 2016-12-15-1627-00M.COL___349                                                 6
 STAT SP IPHASW D HRMM SECON CODA AMPLIT PERI AZIMU VELO AIN AR TRES W  DIS CAZ7
 BAR2 EZ EP       1631 52.12                             171   -0.0110 20.9 179 
 BAR2 EZ ES       1632  7.07                             171   -0.0310 20.9 179 
 BAR2 EZ I        1632  8.83         8.4 0.18            171           20.9 179 
 PAM  EZ EP       1631 55.27                             149    0.1910 81.9  41 
 PAM  EN ES       1632 12.28                             149   -0.0910 81.9  41 
 PAM  EZ I        1632 14.25         5.1 0.50            152           81.9  41 
 RUS  HZ EP       1631 56.01                             144   -0.2310 98.9 173 
 RUS  HN ES       1632 14.58                             144    0.1510 98.9 173 
 RUS  HZ I        1632 15.95         1.7 0.28            147           98.9 173 
 PTB  HZ EP   2   1631 59.34                             132    0.15 5  143 259 
 PTB  HN ES   2   1632 19.64                             132   -0.04 5  143 259 
 PTB  HZ I        1632 24.21         2.0 0.34            132            143 259 
                                                                                
