 2012  115 1925 31.9 L   6.792 -73.163139.3  RSN  7 0.2 1.8LRSN                1
 GAP=135        0.41       2.7     3.2  4.4 -0.8964E+00  0.4176E+01  0.3442E+01E
 Epicentro: LOS SANTOS - SANTANDER                                             3
 ACTION:UP  12-02-03 08:17 OP:REBC STATUS:               ID:20120115192531 L   I
 2012-01-15-1920-00M.COL___187                                                 6
 STAT SP IPHASW D HRMM SECON CODA AMPLIT PERI AZIMU VELO SNR AR TRES W  DIS CAZ7
 BAR2 SZ EP   1   1925 50.59                             170    -0.1 7   22 186 
 BAR2 SZ ES   2   1926  5.33                             170    -0.1 5   22 186 
 BAR2 SZ I        1926  7.57        11.6 0.17                            22 186 
 GIR2 SZ EP   1   1925 50.59                             166    -0.2 7   32 354 
 GIR2 SZ ES   2   1926  5.49                             166    -0.1 5   32 354 
 PAM  SZ EP   1   1925 53.43                             149    -0.1 7   79  40 
 PAM  SN ES   1   1926 10.49                             149     0.1 7   79  40 
 RUS  HZ EP   1   1925 55.10                             143     0.2 7  100 175 
 RUS  HN ES   2   1926 13.40                             143     0.5 5  100 175 
 RUS  HZ I        1926 14.82        12.3 0.26                           100 175 
 PTB  HZ EP   2   1925 58.12                             131     0.0 5  146 259 
 PTB  HN ES   2   1926 18.38                             131    -0.2 5  146 259 
 ZAR  HZ EP   2   1926  4.09                             121     0.3 4  203 293 
 ZAR  HN ES   2   1926 28.99                             121     0.4 4  203 293 
 ZAR  HZ I        1926 34.20         8.0 0.38                           203 293 
 CHI  HZ EP   1   1926  9.10                             116     0.0 6  247 195 
 CHI  HN ES   2   1926 37.70                             116    -0.4 4  247 195 
 CHI  HZ I        1926 41.72         3.9 0.35                           247 195 
                                                                                
