 2016  915 1931 55.1 L   5.876 -74.154  9.5  RSN 16 0.4 2.3LRSN                1
 GAP= 71        1.02       1.9     1.9  5.7 -0.8720E+00  0.2998E+01 -0.4605E+01E
 Epicentro: LA BELLEZA - SANTANDER                                             3
 ACTION:UPD 17-08-17 21:12 OP:lp   STATUS:               ID:20160915193155 L   I
 OLDACT:UP  16-09-16 21:28 OP:lv   STATUS:               ID:20160915192729     3
 OLDACT:REG 16-09-15 22:56 OP:lv   STATUS:               ID:20160915192729     3
 2016-09-15-1928-00M.COL___330                                                 6
 STAT SP IPHASW D HRMM SECON CODA AMPLIT PERI AZIMU VELO AIN AR TRES W  DIS CAZ7
 SPBC HZ IP     D 1931 59.41                              99   -0.4610 26.4 160 
 SPBC HN ES       1932  3.29                              99   -0.3210 26.4 160 
 SPBC HZ I        1932  4.49       309.5 0.13             47           26.4 160 
 PTB  HZ IP     D 1932  7.72                              93   -0.2110 80.6 335 
 PTB  HN ES       1932 17.59                              93   -0.3610 80.6 335 
 PTB  HZ I        1932 17.78       176.9 0.16             47           80.6 335 
 NOR  HZ EP     D 1932  9.33                              93    0.4810 86.4 246 
 NOR  HE ES       1932 20.03                              93    0.4410 86.4 246 
 NOR  HZ I        1932 20.96        85.8 0.12             47           86.4 246 
 RUS  HZ EP       1932 13.87                              92   -0.3010  119  89 
 RUS  HE ES   4   1932 27.43                              92   -1.63 0  119  89 
 RUS  HZ I        1932 28.25        42.4 0.16             47            119  89 
 BAR2 EZ EP       1932 16.61                              92    0.4410  134  54 
 BAR2 EZ ES       1932 32.86                              92    0.2410  134  54 
 BAR2 EZ I        1932 36.55        30.6 0.32             47            134  54 
 BRR  HZ EP       1932 17.83                              91    0.23 9  145  20 
 BRR  HE ES       1932 35.49                              91    0.33 9  145  20 
 BRR  HZ I        1932 38.51        36.3 0.17             47            145  20 
 CHI  HZ EP   9   1932 20.23                              91    2.05 0  146 161 
 CHI  HN ES       1932 38.98                                    0.73 9  146 161 
 CHI  HZ I        1932 50.18        17.0 0.42             47            146 161 
 GUY2CHZ IP   4 D 1932 20.37                              91    1.11 0  152 242 
 GUY2CHN ES       1932 38.59                              91    0.47 9  152 242 
 GUY2CHZ I        1932 45.92        25.5 0.30                           152 242 
 HEL  HZ IP     D 1932 19.59                              91   -0.13 9  156 283 
 HEL  HN ES       1932 38.42                              91   -0.52 9  156 283 
 HEL  HZ I        1932 39.66        68.0 0.24             47            156 283 
 ELA  HZ EP   9   1932 24.75                              56    1.99 0  178 231 
 ELA  HN ES       1932 46.80                                    0.46 9  178 231 
 ELA  HZ I        1932 51.41        14.2 0.30             37            178 231 
 ZAR  HZ EP       1932 24.00                              56   -0.24 9  195 337 
 ZAR  HN ES       1932 46.80                              56   -0.18 9  195 337 
 ZAR  HZ I        1932 48.20        47.5 0.31             37            195 337 
 CBOC HZ EP   9   1932 27.89                              56    2.09 0  206 270 
 CBOC HE ES       1932 52.51                                    0.66 8  206 270 
 CBOC HZ I        1932 53.94        20.3 0.09             37            206 270 
 ANIL HZ EP   4   1932 28.87                              56    2.84 0  206 222 
 ANIL HN ES   4   1932 54.79                              56    4.61 0  206 222 
 ANIL HZ I        1932 59.19        58.0 0.26             37            206 222 
 PAM  EZ EP   4   1932 31.39                              56    2.42 0  228  45 
 PAM  EE ES   4   1932 59.06                              56    3.65 0  228  45 
 PAM  EZ I        1933  0.13        68.4 0.22             37            228  45 
 URE  HZ EP   9   1932 33.82                              56    1.77 0  257 324 
 URE  HE ES       1933  2.98                                    0.32 8  257 324 
 URE  HZ I        1933  6.67        16.7 0.32             37            257 324 
 SJC  HN EP   4   1932 54.27                              55   -2.74 0  459 346 
 SJC  HE ES       1933 45.59                              55    0.26 5  459 346 
 SJC  HN I        1933 47.84         2.5 0.28             36            459 346 
                                                                                
