 2012  715 1452 50.5 L   6.316 -73.700103.6  RSN  4 0.1 1.3LRSN                1
 GAP=162        0.36       3.6     2.5  5.9  0.1488E+00 -0.5973E+00  0.9176E+01E
 Epicentro: SANTA HELENA DEL OPON - SANTANDER                                  3
 ACTION:UPD 12-08-14 11:45 OP:ep   STATUS:               ID:20120715145250 L   I
 2012-07-15-1450-00M.COL___197                                                 6
 STAT SP IPHASW D HRMM SECON CODA AMPLIT PERI AZIMU VELO AIN AR TRES W  DIS CAZ7
 BAR2 SZ ES   2   1453 20.00                             146    -0.1 5   65  62 
 BAR2 SZ I        1453 21.40         9.9 0.15            152             65  62 
 RUS  HZ EP   1   1453  8.92                             139     0.1 7   83 124 
 PTB  HZ EP       1453  8.58                             137     0.010   87 286 
 PTB  HN ES   1   1453 22.61                             137     0.0 7   87 286 
 PTB  HZ I        1453 26.16         2.6 0.39            139             87 286 
 BRR  HZ EP       1453  8.44                             137    -0.110   88 359 
 BRR  HZ I        1453  9.46         5.4 0.24            142             88 359 
 BRR  HN ES   1   1453 22.78                             137     0.1 7   88 359 
