 2015 1015 1335  9.8 L   6.337 -73.554112.0  RSN 18 0.6 2.5LRSN 3.4WRSN        1
 SPEC AVERAGE  MO 14.2 ST0.352 OM  2.6 f0 1.57 R1.6852 AL 0.00 WI 30.0 MW  3.4 3
 SPEC SD       MO  0.7 ST  2.0 OM  0.8 f0 2.53 R1.0279 AL      WI      MW  0.4 3
 GAP= 53        1.28       2.6     3.0  6.0 -0.2649E+01  0.6571E+01 -0.6803E+00E
 Epicentro: SANTA HELENA DEL OPON - SANTANDER                                  3
      30.0      44.0      98.0 15.0  8.0 30.0  0.1  0.2           RSN FPFIT    F
 SPEC PAM EH Z MO 13.7 ST0.205 OM  1.7 f0 1.91 R1.0073 AL-0.00 WI 30.0 MW  3.1 3
 SPEC PAM EH Z T133552 K 0.000 GD  184 VS 5.20 DE 3.50 Q0750.0 QA 1.50 VS 3.50 3
 SPEC ZAR HH Z MO 14.8 ST0.103 OM  2.7 f00.662 R2.9063 AL-0.00 WI 30.0 MW  3.8 3
 SPEC ZAR HH Z T133560 K 0.000 GD  223 VS 5.20 DE 3.50 Q0750.0 QA 1.50 VS 3.50 3
 SPEC OCA HH Z MO 14.4 ST0.327 OM  2.3 f0 1.29 R1.4915 AL-0.00 WI 30.0 MW  3.5 3
 SPEC OCA HH Z T1336 4 K 0.000 GD  239 VS 5.20 DE 3.50 Q0750.0 QA 1.50 VS 3.50 3
 SPECGUY2CHH Z MO 14.1 ST0.075 OM  2.0 f00.969 R1.9856 AL-0.00 WI 30.0 MW  3.4 3
 SPECGUY2CHH Z T133610 K 0.000 GD  260 VS 5.20 DE 3.50 Q0750.0 QA 1.50 Q1 0.00 3
 SPEC ANILHH Z MO 13.7 ST0.994 OM  1.5 f0 3.17 R0.6069 AL-0.00 WI 30.0 MW  3.1 3
 SPEC ANILHH Z T133620 K 0.000 GD  309 VS 5.20 DE 3.50 Q0750.0 QA 1.50 VS 3.50 3
 SPEC DBB SH Z MO 14.6 ST0.131 OM  2.4 f00.797 R2.4141 AL-0.00 WI 30.0 MW  3.7 3
 SPEC DBB SH Z T133621 K 0.000 GD  323 VS 5.20 DE 3.50 Q0750.0 QA 1.50 VS 3.50 3
 OLDACT:REG 15-10-15 22:05 OP:stll STATUS:               ID:20151015132749     3
 ACTION:UPD 15-12-22 20:40 OP:cam  STATUS:               ID:20151015133509 L   I
 OLDACT:UP  15-10-16 00:26 OP:stll STATUS:               ID:20151015132749     3
 2015-10-15-1327-49M.COL___340                                                 6
 STAT SP IPHASW D HRMM SECON CODA AMPLIT PERI AZIMU VELO AIN AR TRES W  DIS CAZ7
 BAR2 EZ IP     C 1335 26.97                             154    0.5110 49.9  56 
 BAR2 EZ ES       1335 39.73                             154    0.2810 49.9  56 
 BAR2 EZ I        1335 41.46       164.7 0.48            155           49.9  56 
 RUS  HZ EP     C 1335 28.24                             145    0.0810 71.7 133 
 RUS  HN ES       1335 42.46                             145   -0.0110 71.7 133 
 RUS  HZ I        1335 43.79        55.0 0.16            149           71.7 133 
 BRR  HZ IP     C 1335 28.53                             139   -0.0710 86.9 348 
 BRR  HN ES       1335 43.62                             139    0.3510 86.9 348 
 BRR  HZ I        1335 51.83        43.2 0.14            136           86.9 348 
 SPBC HZ EP     C 1335 29.01                             137   -0.3810 95.0 217 
 SPBC HN ES       1335 44.34                             137   -0.3210 95.0 217 
 SPBC HZ I        1335 45.77        76.8 0.10            136           95.0 217 
 PAM  EZ EP       1335 35.23                             124    0.56 9  146  40 
 PAM  EE ES       1335 54.26                             124    0.20 9  146  40 
 PAM  EZ I        1335 59.06        22.1 0.30            123            146  40 
 NOR  HZ EP     C 1335 35.47                             119   -1.04 9  169 240 
 NOR  HN ES       1335 56.90                             119   -0.44 9  169 240 
 NOR  HZ I        1335 58.79        58.0 0.14            118            169 240 
 CHI  HZ EP       1335 38.70                             116   -0.55 9  190 186 
 CHI  HE ES       1336  1.49                             116   -0.72 9  190 186 
 CHI  HZ I        1336  6.41        19.4 0.68            116            190 186 
 ZAR  HZ EP       1335 38.49                             115   -0.54 9  193 312 
 ZAR  HE ES       1336  1.67                             115   -0.15 9  193 312 
 ZAR  HZ I        1336  5.51        65.0 0.30            113            193 312 
 TAM  HZ IP     D 1335 39.77                             115    0.39 9  195  87 
 TAM  HZ I        1335 40.01        70.7 0.34            115            195  87 
 TAM  HN ES       1336  1.59                             115   -0.86 9  195  87 
 OCA  HZ EP       1335 42.03                             113    0.66 8  212   7 
 OCA  HE ES       1336  6.17                             113    0.18 8  212   7 
 OCA  HZ I        1336 12.48        73.2 0.52            112            212   7 
 HEL  HZ EP     D 1335 42.61                             112    0.16 8  219 266 
 HEL  HN ES       1336  7.31                             112   -0.60 8  219 266 
 HEL  HZ I        1336 12.12        31.2 0.28            111            219 266 
 GUY2CHZ EP       1335 44.15                             110   -0.27 8  235 239 
 GUY2CHN ES       1336 12.22                             110    0.80 8  235 239 
 GUY2CHZ I        1336 15.91        22.6 0.34                           235 239 
 ELA  HZ EP       1335 48.32                             108    0.79 8  262 232 
 ELA  HE ES       1336 18.10                             108    1.14 8  262 232 
 ELA  HZ I        1336 25.49        15.8 0.30            107            262 232 
 CBOC HZ EP     C 1335 49.02                             107    0.15 7  277 259 
 CBOC HZ I        1335 50.15        10.2 0.38            105            277 259 
 CBOC HN ES   4   1336 17.40                             107   -1.95 0  277 259 
 SML  HZ EP       1335 48.51                             106   -0.31 7  278 348 
 SML  HE ES       1336 18.49                             106   -0.75 7  278 348 
 SML  HZ I        1336 25.60        26.2 0.10            105            278 348 
 ANIL HZ EP       1335 50.90                             106    0.45 7  289 225 
 ANIL HN ES       1336 22.42                             106    0.27 7  289 225 
 ANIL HZ I        1336 29.01        43.5 0.26            105            289 225 
 DBB  SZ EP       1335 51.10                             105   -0.72 7  303 285 
 DBB  SZ I        1336 27.14        27.5 0.36            103            303 285 
 ORTC HZ EP     C 1335 54.89                             103    0.23 7  327 215 
 ORTC HN ES       1336 30.86                             103    1.22 7  327 215 
 ORTC HZ I        1336 35.52        10.2 0.24            103            327 215 
                                                                                
