 2015  515 1229 10.5 L   6.761 -73.141141.0  RSN  7 0.3 1.7LRSN                1
 GAP=139        0.70       2.5     3.4  4.7  0.4663E+00  0.4859E+01 -0.7579E+00E
 Epicentro: LOS SANTOS - SANTANDER                                             3
 ACTION:UPD 15-09-10 22:04 OP:cam  STATUS:               ID:20150515122910 L   I
 OLDACT:REG 15-05-15 20:14 OP:drio STATUS:               ID:20150515122751     3
 2015-05-15-1227-51M.COL___283                                                 6
 STAT SP IPHASW D HRMM SECON CODA AMPLIT PERI AZIMU VELO AIN AR TRES W  DIS CAZ7
 BAR2 EZ EP       1229 29.41                             172   -0.0510 19.2 194 
 BAR2 EZ ES       1229 43.86                             172   -0.4010 19.2 194 
 BAR2 EZ I        1229 46.04         5.9 0.40            169           19.2 194 
 BRR  HZ EP       1229 31.39                             151    0.1210 73.8 301 
 BRR  HN ES       1229 47.76                             151    0.2810 73.8 301 
 PAM  SZ EP       1229 32.31                             149   -0.0710 80.5  37 
 PAM  SN ES       1229 49.43                             149   -0.0310 80.5  37 
 PAM  SZ I        1229 51.61         9.2 0.46            154           80.5  37 
 RUS  HZ EP       1229 33.83                             144    0.3810 96.2 176 
 RUS  HN ES       1229 51.49                             144    0.1310 96.2 176 
 RUS  HZ I        1229 54.93         6.5 0.82            145           96.2 176 
 SPBC HZ EP       1229 38.44                             128    0.11 9  160 220 
 SPBC HN ES       1229 59.82                             128   -0.23 9  160 220 
 SPBC HZ I        1230  7.50        11.9 0.40            129            160 220 
 ZAR  HZ EP       1229 42.19                             121   -0.65 8  206 293 
 ZAR  HN ES       1230  8.35                             121    0.27 8  206 293 
 ZAR  HZ I        1230 13.81         7.6 0.16            122            206 293 
 SML  HN ES       1230 16.05                             116    0.03 8  248 336 
                                                                                
