 2016  115 1555 50.3 L   6.827 -73.263130.2  RSN 12 0.5 2.3LRSN                1
 GAP=102        1.20       3.6     4.0  6.5 -0.2405E+01  0.5557E+01 -0.1499E+01E
 Epicentro: ZAPATOCA - SANTANDER                                               3
 ACTION:UPD 16-03-09 23:25 OP:cam  STATUS:               ID:20160115155550 L   I
 OLDACT:UP  16-01-15 23:28 OP:mh   STATUS:               ID:20160115154749     3
 OLDACT:UP  16-01-15 23:28 OP:mh   STATUS:               ID:20160115154749     3
 OLDACT:UP  16-01-15 23:27 OP:mh   STATUS:               ID:20160115154749     3
 OLDACT:UP  16-01-15 23:27 OP:mh   STATUS:               ID:20160115154749     3
 OLDACT:UP  16-01-15 23:26 OP:mh   STATUS:               ID:20160115154749     3
 OLDACT:REG 16-01-15 20:42 OP:mh   STATUS:               ID:20160115154749     3
 2016-01-15-1547-49M.COL___334                                                 6
 STAT SP IPHASW D HRMM SECON CODA AMPLIT PERI AZIMU VELO AIN AR TRES W  DIS CAZ7
 BAR2 EZ IP     D 1556  8.36                             167    0.2410 27.4 161 
 BAR2 EZ ES       1556 21.90                             167   -0.1510 27.4 161 
 BAR2 EZ I        1556 22.63       150.3 0.38            172           27.4 161 
 BRR  HZ IP       1556  9.10                             154    0.0810 58.5 302 
 BRR  HN ES       1556 23.72                             154    0.0710 58.5 302 
 BRR  HZ I        1556 29.98        23.9 0.09            152           58.5 302 
 PAM  EZ EP       1556 11.51                             145    0.2110 84.2  48 
 PAM  EN ES       1556 28.34                             145    0.6310 84.2  48 
 PAM  EZ I        1556 29.87        41.1 0.22            148           84.2  48 
 RUS  HZ EP       1556 12.77                             139   -0.1010  105 169 
 RUS  HN ES       1556 30.38                             139   -0.1310  105 169 
 RUS  HZ I        1556 32.14        13.8 0.24            144            105 169 
 PTB  HZ EP       1556 13.92                             131   -0.95 9  136 257 
 PTB  HN ES       1556 33.12                             131   -0.95 9  136 257 
 PTB  HZ I        1556 36.68        42.0 0.40            132            136 257 
 SPBC HZ EP       1556 17.44                             126    0.37 9  158 215 
 SPBC HN ES       1556 37.58                             126   -0.41 9  158 215 
 SPBC HZ I        1556 39.88        30.3 0.10            129            158 215 
 ZAR  HZ EP   1   1556 20.15                             121   -0.20 7  191 293 
 ZAR  HN ES       1556 44.19                             121    0.37 9  191 293 
 ZAR  HZ I        1556 50.67        21.4 0.14            122            191 293 
 NOR  HZ EP       1556 24.69                             116    0.50 8  226 232 
 NOR  HE ES       1556 51.46                             116    0.81 8  226 232 
 NOR  HZ I        1556 54.77         9.5 0.40            118            226 232 
 SML  HZ EP   1   1556 25.67                             115    0.48 6  236 338 
 SML  HN ES       1556 52.15                             115   -0.28 8  236 338 
 SML  HZ I        1556 58.90        35.5 0.10            116            236 338 
 GUY2CHZ EP   4   1556 34.66                             110    2.47 0  292 233 
 GUY2CHN ES   1   1557  5.71                             110    0.81 5  292 233 
 SOCV BZ EP       1556 32.86                             108   -0.86 7  311  59 
 SOCV BN ES   4   1557  5.39                             108   -2.23 0  311  59 
 ORTC HZ EP   4   1556 45.33                             104    2.24 0  390 214 
 ORTC HN ES   4   1557 28.22                             104    3.93 0  390 214 
 SJC  HZ EP   4   1556 42.14                             103   -2.09 0  400 328 
 SJC  HN ES   4   1557 22.31                             103   -4.02 0  400 328 
 SJC  HZ I        1557 27.26         4.2 0.32            105            400 328 
                                                                                
