 2013  215 1918  2.8 L   6.727 -73.220157.0  RSN  7 0.6 2.1LRSN                1
 GAP=187        1.02       6.2     7.5 12.9  0.1356E+02  0.5097E+00 -0.9396E+01E
 Epicentro: VILLANUEVA - SANTANDER                                             3
 ACTION:UPD 13-03-12 09:33 OP:ep   STATUS:               ID:20130215191802 L   I
 2013-02-15-1910-00M.COL___238                                                 6
 STAT SP IPHASW D HRMM SECON CODA AMPLIT PERI AZIMU VELO AIN AR TRES W  DIS CAZ7
 BAR2 SZ EP   1   1918 23.61                             174   -0.02 7 15.5 165 
 BAR2 SZ I        1918 40.40        24.8 0.22            172           15.5 165 
 BRR  HZ EP   1   1918 25.38                             155    0.37 7 68.7 308 
 BRR  HN ES   1   1918 42.53                             155    0.17 7 68.7 308 
 BRR  HN I        1918 43.61        24.6 0.38            150           68.7 308 
 RUS  HZ EP   1   1918 27.49                             148    0.32 7 93.5 171 
 RUS  HN ES   1   1918 45.73                             148   -0.48 7 93.5 171 
 RUS  HN I        1918 46.43        15.6 0.36            141           93.5 171 
 PTB  HZ EP   1   1918 30.31                             136    0.44 7  138 261 
 PTB  HN ES   1   1918 51.63                             136    0.63 7  138 261 
 PTB  HN I        1918 56.99        14.8 0.34            129            138 261 
 ZAR  HN ES   1   1919  1.24                             125    0.13 6  200 295 
 ZAR  HN I        1919  8.67        11.5 0.24            118            200 295 
 NOR  HN ES   1   1919  4.38                             122   -1.10 6  223 235 
 NOR  HN I        1919 14.71        14.5 0.16            115            223 235 
 SML  HE ES   1   1919  8.84                             119   -1.06 6  248 338 
                                                                                
