 2011  415 1431 57.8 L   6.775 -73.123144.1  RSN 11 0.4 2.4LRSN                1
 GAP=117        0.76       4.6     5.5  6.0 -0.1182E+02  0.1634E+01  0.8036E+01E
 Epicentro: LOS SANTOS - SANTANDER                                             3
 ACTION:UP  11-06-22 15:31 OP:REBC STATUS:               ID:20110415143157 L   I
 2011-04-15-1420-00M.COL___139                                                 6
 STAT SP IPHASW D HRMM SECON CODA AMPLIT PERI AZIMU VELO SNR AR TRES W  DIS CAZ7
 BAR2 SZ IP       1432 17.13                             171     0.010   21 198 
 BAR2 SZ I        1432 17.41        52.2 0.13                            21 198 
 BAR2 SZ ES   1   1432 32.35                             171     0.1 7   21 198 
 BTL  SZ IP       1432 17.53                             171     0.410   23 315 
 BRR  HZ EP       1432 19.05                             151     0.110   75 300 
 BRR  HE ES   1   1432 35.12                             151    -0.3 7   75 300 
 BRR  HZ I        1432 38.78        64.7 0.12                            75 300 
 PAM  SZ EP   1   1432 19.88                             150     0.0 7   78  37 
 PAM  SE ES   1   1432 36.74                             150    -0.3 7   78  37 
 GRA  SZ EP   1   1432 22.48                             136    -0.5 7  128  16 
 GRA  SZ ES   1   1432 42.45                             136    -0.3 7  128  16 
 GRA  SZ I        1432 43.74        42.9 0.26                           128  16 
 OCA  SZ EP   1   1432 26.96                             129     0.7 7  163 352 
 OCA  SZ I        1432 56.08        27.4 0.37                           163 352 
 YOP  SZ EP   1   1432 27.61                             126     0.3 7  175 154 
 YOP  SZ I        1432 28.93        15.5 0.27                           175 154 
 NOR  SZ EP   1   1432 33.14                             118    -0.3 6  235 235 
 NOR  SN ES   1   1433  1.55                             118     0.3 6  235 235 
 HEL  HZ EP   2   1432 37.69                             114    -0.4 4  274 256 
 HEL  HZ I        1433 15.28        14.0 0.32                           274 256 
 TOL  SZ EP   2   1432 45.02                             109    -0.9 3  343 225 
 PRA  HZ EP   1   1432 50.94                             106    -0.1 4  391 210 
 PRA  HE ES   2   1433 32.09                             106    -0.6 3  391 210 
                                                                                
