 2013  315 1703 41.9 L   6.675 -73.199133.6  RSN  4 0.1 1.5LRSN                1
 GAP=139        0.37       3.7     6.8  7.1  0.1605E+02 -0.2955E+02 -0.1288E+02E
 Epicentro: VILLANUEVA - SANTANDER                                             3
 ACTION:UPD 13-04-09 14:02 OP:ep   STATUS:               ID:20130315170341 L   I
 2013-03-15-1700-00M.COL___244                                                 6
 STAT SP IPHASW D HRMM SECON CODA AMPLIT PERI AZIMU VELO AIN AR TRES W  DIS CAZ7
 BAR2 SZ EP   1   17 3 59.69                             176   -0.18 7 9.30 168 
 BRR  HZ EP   1   17 4  1.84                             149   -0.11 7 74.2 310 
 BRR  HE ES   1   17 4 17.67                             149    0.10 7 74.2 310 
 BRR  HE I        17 4 20.55        12.3 0.30            152           74.2 310 
 RUS  HZ EP   1   17 4  3.72                             145    0.19 7 87.4 172 
 RUS  HE ES   1   17 4 20.34                             145   -0.05 7 87.4 172 
 RUS  HE I        17 4 22.25         4.1 0.22            150           87.4 172 
 PAM  SZ EP   1   17 4  3.90                             144    0.05 7 91.9  37 
                                                                                
