 2012  715 1359 36.7 L   6.779 -73.132150.2  RSN 12 0.4 2.8LRSN                1
 GAP=116        1.11       3.9     4.2  6.1  0.1991E+01  0.6044E+01  0.2685E+01E
 Epicentro: LOS SANTOS - SANTANDER                                             3
 ACTION:UPD 12-08-14 11:45 OP:ep   STATUS:               ID:20120715135936 L   I
 2012-07-15-1354-39M.COL___205                                                 6
 STAT SP IPHASW D HRMM SECON CODA AMPLIT PERI AZIMU VELO AIN AR TRES W  DIS CAZ7
 BAR2 SZ IP     D 1359 56.96                             171     0.210   21 195 
 BAR2 SZ ES       14 0 11.91                             171    -0.610   21 195 
 BAR2 SZ I        14 0 15.19       163.5 0.45            165             21 195 
 BRR  HZ EP       1359 58.91                             152     0.510   74 300 
 BRR  HN ES       14 0 16.33                             152     0.910   74 300 
 BRR  HZ I        14 0 18.71       121.6 0.20            148             74 300 
 PAM  SZ EP       1359 59.44                             151     0.010   78  38 
 PAM  SN ES       14 0 16.95                             151    -0.210   78  38 
 RUS  HZ EP       14 0  0.79                             145     0.110   98 177 
 RUS  HN ES       14 0 19.03                             145    -0.410   98 177 
 RUS  HZ I        14 0 21.04        49.5 0.33            138             98 177 
 PTB  HZ EP       14 0  3.88                             133    -0.2 9  149 260 
 PTB  HN ES   1   14 0 24.90                             133    -0.6 7  149 260 
 PTB  HZ I        14 0 31.05        57.4 0.35            126            149 260 
 OCA  HZ EP       14 0  5.17                             130    -0.4 9  163 353 
 OCA  HE ES   1   14 0 27.65                             130    -0.4 7  163 353 
 OCA  HZ I        14 0 33.07       187.8 0.27            127            163 353 
 YOP  SZ EP       14 0  7.15                             128     0.4 9  176 153 
 YOP  SN ES   1   14 0 30.65                             128     0.4 7  176 153 
 YOP  SZ I        14 0 33.12        31.8 0.45            122            176 153 
 ZAR  HZ EP   1   14 0  9.17                             123    -0.5 6  206 293 
 ZAR  HN ES       14 0 35.52                             123     0.2 8  206 293 
 ZAR  HZ I        14 0 41.62        85.1 0.45            118            206 293 
 NOR  SZ EP   1   14 0 12.80                             119     0.2 6  235 235 
 NOR  SN ES   1   14 0 40.88                             119     0.2 6  235 235 
 CHI  HZ EP   1   14 0 14.15                             118    -0.3 6  247 196 
 CHI  HZ I        14 0 52.79        34.1 0.47            112            247 196 
 HEL  HZ EP   1   14 0 17.38                             115     0.2 6  273 256 
 HEL  HN ES   1   14 0 48.59                             115    -0.2 6  273 256 
 HEL  HZ I        14 0 54.93        26.6 0.45            110            273 256 
 DBB  SZ EP   1   14 0 23.74                             110    -0.8 5  341 275 
