 2014  315 1906 25.6 L   6.791 -73.171142.4  RSN  4 0.2 1.6LRSN                1
 GAP=134        0.45       2.1     2.5  4.6 -0.1014E+01  0.4224E+01 -0.2293E+01E
 Epicentro: LOS SANTOS - SANTANDER                                             3
 ACTION:UPD 14-04-09 23:17 OP:nd   STATUS:               ID:20140315190625 L   I
 OLDACT:REG 14-03-15 16:00 OP:nd   STATUS:               ID:20140315190035     3
 2014-03-15-1900-35M.COL___257                                                 6
 STAT SP IPHASW D HRMM SECON CODA AMPLIT PERI AZIMU VELO AIN AR TRES W  DIS CAZ7
 PAM  SZ EP       19 6 47.81                             149    0.2110 80.0  41 
 PAM  SN ES       19 7  4.71                             149   -0.0710 80.0  41 
 PAM  SZ I        19 7  7.28         7.0 0.66            151           80.0  41 
 RUS  HZ EP       19 6 49.02                             143    0.0710 99.8 174 
 RUS  HN ES       19 7  7.04                             143   -0.1310 99.8 174 
 RUS  HZ I        19 7  8.97         4.3 0.28            149           99.8 174 
 PTB  HZ EP       19 6 52.04                             132    0.03 9  145 259 
 PTB  HN ES       19 7 12.63                             132    0.01 9  145 259 
 PTB  HZ I        19 7 16.09         5.0 0.12            133            145 259 
 SML  HZ EP   1   19 7  1.51                             117   -0.49 6  243 336 
 SML  HN ES   1   19 7 30.55                             117    0.15 6  243 336 
 SML  HZ I        19 7 39.33         5.5 0.18            118            243 336 
                                                                                
