 2015  815 1212  3.0 L   6.838 -73.119145.3  RSN 11 0.5 2.3LRSN                1
 GAP=204        1.08       3.6     5.4  6.2  0.1717E+01  0.1101E+02 -0.5586E+00E
 Epicentro: LOS SANTOS - SANTANDER                                             3
 ACTION:UPD 15-09-15 23:02 OP:cam  STATUS:               ID:20150815121203 L   I
 OLDACT:REG 15-08-15 22:32 OP:mher STATUS:               ID:20150815120749     3
 2015-08-15-1207-49M.COL___340                                                 6
 STAT SP IPHASW D HRMM SECON CODA AMPLIT PERI AZIMU VELO AIN AR TRES W  DIS CAZ7
 BAR2 EZ EP       1212 22.78                             169    0.0610 28.1 194 
 BAR2 EZ ES       1212 37.98                             169   -0.0910 28.1 194 
 BAR2 EZ I        1212 38.61        34.1 0.20            168           28.1 194 
 BRR  HZ EP       1212 24.59                             152    0.4110 71.9 294 
 BRR  HN ES       1212 41.36                             152    0.6910 71.9 294 
 BRR  HZ I        1212 45.52        23.2 0.26            148           71.9 294 
 RUS  HZ EP       1212 27.01                             143   -0.0410  105 178 
 RUS  HN ES       1212 45.79                             143    0.0210  105 178 
 RUS  HZ I        1212 46.37        20.6 0.24            145            105 178 
 SPBC HZ EP       1212 31.66                             128   -0.34 9  168 219 
 SPBC HE ES       1212 53.74                             128   -0.84 9  168 219 
 SPBC HZ I        1212 55.99        26.0 0.38            128            168 219 
 ZAR  HZ EP       1212 35.59                             122    0.01 9  205 291 
 ZAR  HN ES       1213  0.43                             122   -0.52 9  205 291 
 ZAR  HZ I        1213  5.97        12.2 0.42            121            205 291 
 NOR  HZ EP       1212 38.79                             118   -0.48 8  240 234 
 NOR  HN ES       1213  7.22                             118   -0.30 8  240 234 
 NOR  HZ I        1213  9.10        12.0 0.16            118            240 234 
 SML  HZ EP       1212 38.85                             118   -0.51 8  241 334 
 SML  HN ES       1213  7.67                             118   -0.02 8  241 334 
 SML  HZ I        1213 15.95        20.9 0.22            118            241 334 
 ROSC BZ EP   9   1212 43.36                             116    1.66 0  258 211 
 ROSC BN ES   4   1213 13.62                                    0.11 0  258 211 
 ROSC BZ I        1213 16.86        22.2 0.40            117            258 211 
 HEL  HZ EP       1212 44.36                             114    0.70 7  276 255 
 HEL  HN ES       1213 15.21                             114   -0.13 7  276 255 
 HEL  HZ I        1213 20.67        10.6 0.28            114            276 255 
 GUY2CHZ EP   1   1212 47.13                             112   -0.05 5  306 234 
 GUY2CHN ES   4   1213 25.48                             112    3.88 0  306 234 
 GUY2CHZ I        1213 29.01         6.9 0.32                           306 234 
 TOL  SZ EP       1212 52.81                             109    0.95 6  349 224 
 TOL  SN ES       1213 30.91                             109    0.97 6  349 224 
 TOL  SZ I        1213 36.19         6.2 0.62            110            349 224 
                                                                                
