 2010 1115 1843 17.2 L   6.784 -73.083149.3  RSN  9 0.3 2.1LRSN                1
 GAP=166        0.68       3.3     5.6  5.9 -0.4321E+01 -0.7363E+01  0.2932E+01E
 Epicentro: LOS SANTOS - SANTANDER                                             3
 ACTION:UP  10-12-17 16:52 OP:REBC STATUS:               ID:20101115184317 L   I
 2010-11-15-1841-48S.COL___129                                                 6
 STAT SP IPHASW D HRMM SECON CODA AMPLIT PERI AZIMU VELO SNR AR TRES W  DIS CAZ7
 BAR2 SZ EP       1843 37.08                             171    -0.210   24 208 
 BAR2 SZ ES   2   1843 52.58                             171    -0.3 5   24 208 
 BTL  SZ EP   2   1843 37.71                             170     0.4 5   25 306 
 BRR  HZ EP       1843 39.15                             151     0.010   78 297 
 BRR  HN ES       1843 56.44                             151     0.210   78 297 
 BRR  HZ I        1844  0.27        24.9 0.09                            78 297 
 RUS  HZ EP       1843 40.92                             145    -0.210   99 180 
 RUS  HN ES   2   1843 59.55                             145    -0.3 5   99 180 
 RUS  HZ I        1844  1.31        10.9 0.15                            99 180 
 GUE  SZ EP   1   1843 42.48                             140     0.2 7  117   9 
 GRA  SZ EP   1   1843 42.90                             138     0.2 7  126  14 
 GRA  SZ I        1844  3.98        12.3 0.00                           126  14 
 OCA  SZ EP       1843 46.21                             130     0.2 9  163 351 
 OCA  SZ ES   2   1844  8.13                             130    -0.4 5  163 351 
 OCA  SZ I        1844 13.90        21.6 0.03                           163 351 
 NOR  SZ EP       1843 53.25                             119    -0.4 8  239 236 
 NOR  SN ES   1   1844 21.86                             119    -0.2 6  239 236 
 CHI  HZ EP   1   1843 54.94                             118    -0.2 6  249 197 
 CHI  HN ES   2   1844 25.91                             118     1.2 4  249 197 
 CHI  HZ I        1844 28.45         7.4 0.04                           249 197 
                                                                                
