 2017  215 1406 38.7 L   6.264 -73.663115.0  RSN  5 0.2 1.3LRSN                1
 GAP=167        0.47       3.8     2.2  4.2  0.2609E+01  0.2781E+00 -0.2933E+01E
 Epicentro: SANTA HELENA DEL OPON - SANTANDER                                  3
 ACTION:UPD 17-05-24 15:36 OP:jn   STATUS:               ID:20170215140638 L   I
 OLDACT:UP  17-02-15 23:00 OP:cog  STATUS:               ID:20170215135749     3
 OLDACT:REG 17-02-15 20:40 OP:cog  STATUS:               ID:20170215135749     3
 2017-02-15-1358-00M.COL___352                                                 6
 STAT SP IPHASW D HRMM SECON CODA AMPLIT PERI AZIMU VELO AIN AR TRES W  DIS CAZ7
 BAR2 EZ EP       14 6 56.72                             149    0.2410 64.3  56 
 BAR2 EZ ES       14 7 10.37                             149   -0.0010 64.3  56 
 BAR2 EZ I        14 7 11.76        11.5 0.36            154           64.3  56 
 RUS  HZ EP       14 6 57.67                             144    0.0310 76.2 123 
 RUS  HN ES       14 7 12.42                             144   -0.0110 76.2 123 
 RUS  HZ I        14 7 14.36         1.5 0.22            145           76.2 123 
 PTB  HZ EP       14 6 58.35                             138    0.1110 92.9 289 
 PTB  HN ES       14 7 13.32                             138   -0.2010 92.9 289 
 PAM  EZ EP       14 7  4.91                             122   -0.25 9  160  42 
 PAM  EE ES   4   14 7 19.31                             122   -6.51 0  160  42 
 PAM  EZ I        14 7 22.46         3.4 0.16            126            160  42 
 ZAR  HE ES   3   14 7 31.19                             117    0.83 2  189 316 
                                                                                
