 2017  515 1850 13.4 L   6.709 -73.166130.9  RSN  4 0.3 1.5LRSN                1
 GAP=200        0.66       6.9     3.8  8.2 -0.1376E+02  0.8352E+01  0.8829E+01E
 Epicentro: VILLANUEVA - SANTANDER                                             3
 ACTION:UPD 17-06-16 13:36 OP:jn   STATUS:               ID:20170515185013 L   I
 OLDACT:REG 17-05-15 21:03 OP:lv   STATUS:               ID:20170515184738     3
 2017-05-15-1848-00M.COL___358                                                 6
 STAT SP IPHASW D HRMM SECON CODA AMPLIT PERI AZIMU VELO AIN AR TRES W  DIS CAZ7
 PAM  EZ EP       1850 34.78                             144    0.0610 86.7  36 
 PAM  EN ES       1850 51.39                             144    0.0710 86.7  36 
 PAM  EZ I        1850 53.98         6.8 0.54            146           86.7  36 
 PTB  HZ EP       1850 38.80                             129   -0.06 9  144 263 
 PTB  HN ES       1850 58.33                             129   -0.37 9  144 263 
 PTB  HZ I        1851  1.63         1.8 0.06            131            144 263 
 ZAR  HZ EP       1850 45.05                             118   -0.12 8  206 295 
 ZAR  HN ES       1851 10.13                             118    0.21 8  206 295 
 ZAR  HZ I        1851 15.39         5.5 0.27            120            206 295 
 NOR  HN ES   2   1851 15.24                             116    1.15 4  227 236 
                                                                                
