 2011  515 1624 20.6 L   6.765 -73.061147.0  RSN  7 0.3 1.6LRSN                1
 GAP=149        0.54       3.1     6.1  7.0 -0.7095E+01  0.1249E+02 -0.2736E+01E
 Epicentro: LOS SANTOS - SANTANDER                                             3
 ACTION:UP  11-06-29 08:53 OP:tino STATUS:               ID:20110515162420 L   I
 2011-05-15-1619-08S.COL___139                                                 6
 STAT SP IPHASW D HRMM SECON CODA AMPLIT PERI AZIMU VELO SNR AR TRES W  DIS CAZ7
 BAR2 SZ EP   1   1624 40.39                             171     0.0 7   23 215 
 BAR2 SZ I        1624 56.50        10.2 0.50                            23 215 
 PAM  SN ES   2   1624 59.37                             152    -0.7 5   75  32 
 BRR  HZ EP   1   1624 42.26                             149    -0.2 7   81 298 
 BRR  HE ES   2   1624 59.84                             149     0.3 5   81 298 
 BRR  HZ I        1625  7.67        16.4 0.17                            81 298 
 RUS  HZ EP   2   1624 44.21                             145     0.1 5   96 181 
 RUS  HN ES   1   1625  2.71                             145     0.2 7   96 181 
 RUS  HZ I        1625  4.54         3.8 0.26                            96 181 
 GRA  SZ EP   1   1624 46.31                             137     0.3 7  127  13 
 GRA  SZ ES   1   1625  5.85                             137     0.0 7  127  13 
 GRA  SZ I        1625  7.29         4.9 0.42                           127  13 
 OCA  SZ EP   2   1624 49.66                             129     0.2 5  165 350 
 OCA  SZ ES   2   1625 12.16                             129     0.2 5  165 350 
 OCA  SZ I        1625 17.40         5.8 0.49                           165 350 
 NOR  SZ EP   2   1624 56.47                             118    -0.5 4  240 237 
 NOR  SN ES   2   1625 25.12                             118    -0.2 4  240 237 
                                                                                
