 2016  415 1643 34.9 L   6.789 -73.142148.5  RSN 13 0.4 2.4LRSN                1
 GAP= 72        0.79       2.9     3.3  4.8 -0.2689E+01  0.4828E+01  0.2054E+00E
 Epicentro: LOS SANTOS - SANTANDER                                             3
 ACTION:UPD 16-05-05 14:21 OP:rebc STATUS:               ID:20160415164334 L   I
 OLDACT:REG 16-04-15 19:04 OP:ar   STATUS:               ID:20160415163743     3
 2016-04-15-1637-43M.COL___319                                                 6
 STAT SP IPHASW D HRMM SECON CODA AMPLIT PERI AZIMU VELO AIN AR TRES W  DIS CAZ7
 BAR2 EZ EP       1643 54.96                             171    0.0910 22.2 192 
 BAR2 EZ ES       1644 10.08                             171   -0.3410 22.2 192 
 BAR2 EZ I        1644 11.43        84.0 0.20            170           22.2 192 
 PAM  EZ IP     C 1643 57.69                             151    0.2110 78.1  39 
 PAM  EE ES       1644 14.96                             151   -0.1110 78.1  39 
 PAM  EZ I        1644 16.84        22.1 0.76            145           78.1  39 
 RUS  HZ EP       1643 58.77                             145   -0.0910 99.3 176 
 RUS  HN ES       1644 17.87                             145    0.3410 99.3 176 
 RUS  HZ I        1644 18.73        29.3 0.22            139           99.3 176 
 PTB  HZ EP       1644  1.72                             133   -0.41 9  148 259 
 PTB  HN ES       1644 23.49                             133    0.14 9  148 259 
 TAM  HZ EP   2   1644  2.99                             131    0.23 5  154 105 
 TAM  HN ES   2   1644 24.72                             131    0.25 5  154 105 
 TAM  HZ I        1644 31.57        19.9 0.32            124            154 105 
 SPBC HZ EP       1644  3.90                             130    0.33 9  162 219 
 SPBC HN ES   2   1644 26.15                             130    0.24 5  162 219 
 SPBC HZ I        1644 28.72        47.5 0.12            124            162 219 
 OCA  HZ EP       1644  3.10                             130   -0.47 9  162 353 
 OCA  HN ES   2   1644 26.82                             130    0.90 5  162 353 
 OCA  HZ I        1644 35.33        68.5 0.78            124            162 353 
 ZAR  HZ EP   2   1644  7.40                             123   -0.24 4  205 292 
 ZAR  HN ES   2   1644 33.39                             123    0.24 4  205 292 
 ZAR  HZ I        1644 39.32        22.1 0.30            117            205 292 
 NOR  HZ EP       1644 10.92                             119    0.15 8  234 235 
 NOR  HN ES       1644 39.13                             119    0.40 8  234 235 
 NOR  HZ I        1644 43.49        16.4 0.18            114            234 235 
 CHI  HZ EP       1644 12.97                             118    0.31 8  248 195 
 CHI  HZ I        1644 39.92        10.7 0.74            112            248 195 
 CHI  HE ES       1644 41.16                             118   -0.93 8  248 195 
 ROSC BZ EP   4   1644 14.97                             117    1.87 0  252 211 
 ROSC BN ES   4   1644 48.49                             117    5.61 0  252 211 
 HEL  HZ EP   2   1644 15.64                             115    0.35 4  272 256 
 HEL  HN ES   2   1644 46.00                             115   -0.77 4  272 256 
 HEL  HZ I        1644 53.77        11.0 0.28            110            272 256 
 GUY2CHZ EP   4   1644 18.99                             113    0.37 0  301 235 
 GUY2CHN ES   4   1644 55.72                             113    3.02 0  301 235 
 GUY2CHZ I        1645  7.05        16.9 0.60                           301 235 
 SOCV BZ EP   4   1644 17.49                             113   -0.65 0  302  57 
 SJC  HZ EP   4   1644 28.62                             106   -2.11 0  410 327 
 SJC  HN ES   4   1645 10.99                             106   -3.26 0  410 327 
 SJC  HZ I        1645 14.26         3.5 0.36            102            410 327 
                                                                                
