 2015  215 1024 27.0 L   6.815 -73.186134.7  RSN  7 0.4 1.5LRSN                1
 GAP=136        0.91       3.7     4.0  6.1 -0.2746E+01  0.7691E+01 -0.1342E+01E
 Epicentro: ZAPATOCA - SANTANDER                                               3
 ACTION:UPD 15-04-30 21:26 OP:nd   STATUS:               ID:20150215102427 L   I
 OLDACT:REG 15-02-15 22:01 OP:fm   STATUS:               ID:20150215101744     3
 2015-02-15-1017-44M.COL___292                                                 6
 STAT SP IPHASW D HRMM SECON CODA AMPLIT PERI AZIMU VELO AIN AR TRES W  DIS CAZ7
 BAR2 EZ EP       1024 45.27                             169   -0.0810 24.6 179 
 BAR2 EZ ES       1024 59.89                             169    0.2510 24.6 179 
 BAR2 EZ I        1025  2.62         5.4 0.46            170           24.6 179 
 BRR  HZ EP       1024 47.01                             152    0.3010 66.5 299 
 BRR  HN ES       1025  2.27                             152    0.2110 66.5 299 
 BRR  HZ I        1025  6.13         9.5 0.28            150           66.5 299 
 PAM  SZ EP     D 1024 48.19                             148    0.0110 79.1  43 
 PAM  SE ES       1025  4.45                             148   -0.2310 79.1  43 
 PAM  SZ I        1025  7.57         4.7 0.44            152           79.1  43 
 PTB  HZ EP       1024 52.21                             130   -0.52 9  144 258 
 PTB  HN ES       1025 12.27                             130   -0.51 9  144 258 
 PTB  HZ I        1025 17.79         2.6 0.10            131            144 258 
 SPBC HZ EP       1024 54.49                             127   -0.05 9  162 217 
 SPBC HN ES       1025 16.01                             127   -0.00 9  162 217 
 SPBC HZ I        1025 23.26         3.7 0.76            129            162 217 
 ZAR  HZ EP       1024 59.13                             120    0.86 9  199 292 
 ZAR  HE ES       1025 22.85                             120    0.21 9  199 292 
 ZAR  HZ I        1025 29.96         4.8 0.48            121            199 292 
 SML  HE ES       1025 30.01                             115   -0.49 8  240 336 
 SML  HZ I        1025 38.59         3.6 0.28            117            240 336 
                                                                                
