 2011  415 1436 15.9 L   6.753 -73.096143.6  RSN 11 0.3 2.4LRSN                1
 GAP=120        0.52       3.4     4.3  4.1 -0.7499E+01  0.9197E+00  0.2331E+01E
 Epicentro: LOS SANTOS - SANTANDER                                             3
 ACTION:UP  11-06-22 15:31 OP:REBC STATUS:               ID:20110415143615 L   I
 2011-04-15-1420-00M.COL___139                                                 6
 STAT SP IPHASW D HRMM SECON CODA AMPLIT PERI AZIMU VELO SNR AR TRES W  DIS CAZ7
 BAR2 SZ EP       1436 35.36                             171     0.110   20 208 
 BAR2 SZ ES   1   1436 50.25                             171    -0.1 7   20 208 
 BAR2 SZ I        1436 53.31        69.9 0.38                            20 208 
 BTL  SZ EP       1436 35.67                             169     0.310   26 314 
 PAM  SZ EP   1   1436 37.92                             150    -0.1 7   78  34 
 PAM  SN ES   1   1436 55.01                             150    -0.2 7   78  34 
 BRR  HZ EP       1436 37.14                             150    -0.210   79 300 
 BRR  HE ES   1   1436 54.18                             150     0.2 7   79 300 
 BRR  HZ I        1436 58.37        44.7 0.23                            79 300 
 GRA  SZ IP       1436 41.08                             136    -0.210  129  14 
 GRA  SZ I        1436 42.25        34.8 0.29                           129  14 
 GRA  SZ ES   1   1437  1.03                             136     0.0 7  129  14 
 OCA  SZ EP   1   1436 44.82                             128     0.2 7  166 351 
 OCA  SZ I        1437 12.91        27.1 0.43                           166 351 
 YOP  SZ EP   2   1436 45.25                             127     0.1 4  172 154 
 YOP  SZ I        1437 13.29        16.8 0.21                           172 154 
 NOR  SZ EP   2   1436 51.05                             118    -0.7 4  236 236 
 NOR  SE ES   2   1437 19.09                             118    -0.5 4  236 236 
 HEL  HZ EP   2   1436 56.81                             114     0.3 4  276 257 
 HEL  HZ I        1437 34.32        18.1 0.33                           276 257 
 TOL  SZ EP   2   1437  4.83                             109     0.7 3  344 226 
 PRA  HZ EP   2   1437  9.12                             106    -0.1 3  390 211 
 PRA  HN ES   2   1437 50.66                             106    -0.1 3  390 211 
                                                                                
