 2011  915 1547 35.3 L   6.790 -73.084140.4  RSN  5 0.2 1.4LRSN                1
 GAP=201        0.35      10.2    12.4  4.9  0.1128E+03 -0.2929E+02 -0.2312E+02E
 Epicentro: LOS SANTOS - SANTANDER                                             3
 ACTION:UPD 12-07-13 15:57 OP:ep   STATUS:               ID:20110915154735 L   I
 2011-09-15-1540-00M.COL___171                                                 6
 STAT SP IPHASW D HRMM SECON CODA AMPLIT PERI AZIMU VELO AIN AR TRES W  DIS CAZ7
 BAR2 SZ EP       1547 54.33                             169    0.0310 24.4 206 
 BAR2 SZ I        1547 54.46         9.3 0.38                          24.4 206 
 BAR2 SZ ES   1   1548  9.03                             169   -0.09 7 24.4 206 
 GIR2 SZ EP   3   1547 54.04                             166   -0.37 2 34.1 339 
 BRR  HZ EP       1547 56.20                             149   -0.0510 77.7 297 
 BRR  HN ES   1   1548 12.72                             149    0.12 7 77.7 297 
 RUS  HZ EP   2   1547 58.72                             142    0.30 5 99.2 180 
 RUS  HZ I        1547 59.60         3.2 0.14                          99.2 180 
 RUS  HE ES   3   1548 16.07                             142   -0.38 2 99.2 180 
 ZAR  HZ EP   3   1548  7.65                             120   -0.45 2  211 292 
                                                                                
