 2017  415 1627 22.1 L   6.775 -73.164136.0  RSN 14 0.5 2.3LRSN                1
 GAP=111        1.05       3.7     3.3  5.6  0.1932E+01  0.5958E+01  0.6930E+01E
 Epicentro: LOS SANTOS - SANTANDER                                             3
 ACTION:UPD 17-05-30 21:12 OP:jn   STATUS:               ID:20170415162722 L   I
 OLDACT:UP  17-04-15 19:41 OP:cog  STATUS:               ID:20170415161738d    3
 OLDACT:DUP 17-04-15 19:32 OP:cog  STATUS:               ID:20170415161738d    3
 2017-04-15-1618-00M.COL___374                                                 6
 STAT SP IPHASW D HRMM SECON CODA AMPLIT PERI AZIMU VELO AIN AR TRES W  DIS CAZ7
 BAR2 EZ EP       1627 40.33                             171   -0.1910 20.3 186 
 BAR2 EZ ES       1627 54.78                             171   -0.0810 20.3 186 
 BAR2 EZ I        1627 55.97       104.0 0.28            168           20.3 186 
 BRR  HZ EP       1627 42.22                             151    0.0210 70.9 301 
 BRR  HN ES       1627 58.80                             151    0.9410 70.9 301 
 BRR  HZ I        1628  0.61        46.5 0.20            151           70.9 301 
 PAM  EZ EP       1627 43.38                             148   -0.1510 80.8  39 
 PAM  EE ES       1628  0.04                             148   -0.1810 80.8  39 
 PAM  EZ I        1628  2.47        66.9 0.54            152           80.8  39 
 RUS  HZ EP       1627 44.28                             143   -0.4510 97.9 175 
 RUS  HN ES       1628  2.22                             143   -0.1410 97.9 175 
 RUS  HZ I        1628  3.55        25.7 0.26            142           97.9 175 
 PTB  HZ EP   3   1627 47.01                             130   -1.07 2  145 260 
 PTB  HE ES       1628  7.56                             130   -0.76 9  145 260 
 PTB  HZ I        1628 10.29        43.2 0.18            130            145 260 
 YPLC HZ EP       1627 50.76                             125   -0.32 9  175 150 
 YPLC HN ES       1628 14.74                             125    1.08 9  175 150 
 YPLC HZ I        1628 17.24        26.9 0.28            125            175 150 
 ZAR  HZ EP       1627 53.65                             120   -0.22 9  203 293 
 ZAR  HE ES       1628 19.12                             120    0.49 9  203 293 
 ZAR  HZ I        1628 25.06        22.7 0.28            121            203 293 
 NOR  HZ EP       1627 56.40                             117   -0.55 8  231 235 
 NOR  HN ES       1628 24.10                             117   -0.01 8  231 235 
 NOR  HZ I        1628 26.24        20.5 0.16            117            231 235 
 CHI  HZ EP       1627 58.55                             116   -0.39 8  245 195 
 CHI  HN ES   3   1628 29.07                             116    1.41 2  245 195 
 CHI  HZ I        1628 37.37         6.7 0.50            116            245 195 
 HEL  HZ EP   3   1628  2.81                             113    1.25 2  269 256 
 HEL  HE ES       1628 32.17                             113   -0.15 8  269 256 
 HEL  HZ I        1628 39.30        15.9 0.28            113            269 256 
 ELA  HE ES   3   1628 42.80                             109   -1.33 2  326 230 
 CBOC HZ EP       1628  8.94                             108    0.61 7  331 252 
 CBOC HE ES       1628 44.58                             108    0.21 7  331 252 
 CBOC HZ I        1628 49.44         5.6 0.34            109            331 252 
 PRA  HZ EP       1628 15.43                             105    0.51 6  389 210 
 PRA  HE ES   3   1628 58.03                             105    1.93 1  389 210 
 PRA  HZ I        1629  2.88         7.1 0.30            105            389 210 
 ORTC HZ EP       1628 15.80                             105    0.48 6  392 216 
 ORTC HN ES       1628 56.90                             105    0.09 6  392 216 
 ORTC HZ I        1629  1.99         2.8 0.48            105            392 216 
                                                                                
