 2017  415 1357  1.9 L   6.838 -73.332111.6  RSN  8 0.3 1.8LRSN                1
 GAP=203        0.61       2.6     3.2  4.4  0.3089E+01  0.4724E+01  0.1663E+00E
 Epicentro: ZAPATOCA - SANTANDER                                               3
 ACTION:UPD 17-05-30 21:12 OP:jn   STATUS:               ID:20170415135701 L   I
 OLDACT:UP  17-04-15 19:03 OP:cog  STATUS:               ID:20170415134713     3
 OLDACT:REG 17-04-15 17:39 OP:cog  STATUS:               ID:20170415134713     3
 2017-04-15-1348-00M.COL___374                                                 6
 STAT SP IPHASW D HRMM SECON CODA AMPLIT PERI AZIMU VELO AIN AR TRES W  DIS CAZ7
 BAR2 EZ EP       1357 17.65                             163   -0.0510 31.8 149 
 BAR2 EZ ES       1357 30.07                             163    0.0410 31.8 149 
 BAR2 EZ I        1357 32.20        58.8 0.38            163           31.8 149 
 BRR  HZ EP       1357 18.29                             153    0.0410 51.5 305 
 BRR  HN ES   3   1357 32.07                             153    1.08 2 51.5 305 
 RUS  HZ EP       1357 23.00                             133   -0.1410  108 165 
 RUS  HN ES       1357 39.60                             133   -0.1010  108 165 
 RUS  HZ I        1357 42.06         4.7 0.18            134            108 165 
 PTB  HZ EP   9   1357 23.02                             127   -1.40 0  129 255 
 PTB  HN ES       1357 40.48                             128   -0.1010  129 255 
 PTB  HZ I        1357 45.35        14.1 0.40            127            129 255 
 SPBC HN ES       1357 46.61                             121   -0.21 9  155 212 
 ZAR  HZ EP       1357 30.65                             116    0.55 9  183 293 
 ZAR  HN ES       1357 51.75                             116   -0.35 9  183 293 
 NOR  HZ EP       1357 34.18                             111   -0.16 8  221 230 
 NOR  HN ES   3   1358  0.39                             111    0.75 2  221 230 
 NOR  HZ I        1358  3.97         4.1 0.16            113            221 230 
 CHI  HN ES       1358  6.38                             109    0.38 8  248 190 
                                                                                
