 2017  715 1431 39.1 L   6.706 -73.284136.0  RSN  4 0.3 1.3LRSN                1
 GAP=236        0.77       6.5     7.0  7.5 -0.9540E+01  0.2741E+02 -0.1001E+02E
 Epicentro: GALAN - SANTANDER                                                  3
 ACTION:UPD 17-08-30 15:33 OP:rebc STATUS:               ID:20170715143139 L   I
 OLDACT:REG 17-07-15 20:38 OP:dhb  STATUS:               ID:20170715142743     3
 2017-07-15-1428-00M.COL___377                                                 6
 STAT SP IPHASW D HRMM SECON CODA AMPLIT PERI AZIMU VELO AIN AR TRES W  DIS CAZ7
 BAR2 EZ IP     C 1431 57.00                             173   -0.4310 16.9 138 
 BAR2 EZ ES       1432 11.90                             173    0.1710 16.9 138 
 BAR2 EZ I        1432 14.87         5.7 0.24            173           16.9 138 
 RUS  HZ EP       1432  1.18                             144   -0.1410 92.7 166 
 RUS  HE ES       1432 18.85                             144    0.2010 92.7 166 
 RUS  HZ I        1432 20.85         4.2 0.32            154           92.7 166 
 PTB  HZ EP       1432  3.93                             133    0.1810  131 262 
 PTB  HN ES   4   1432 24.63                             133    1.65 0  131 262 
 PTB  HZ I        1432 31.91         1.8 0.44            133            131 262 
 SPBC HZ EP       1432  5.60                             130    0.41 9  146 217 
 SPBC HE ES       1432 25.17                             130   -0.37 9  146 217 
 SPBC HZ I        1432 26.88         5.2 0.27            134            146 217 
                                                                                
