 2011 1115 1725 14.6 L   6.826 -73.104145.2  RSN  4 0.3 1.6LRSN                1
 GAP=141        0.59       4.3     5.6  8.5  0.1204E+01  0.1095E+02  0.2754E+01E
 Epicentro: LOS SANTOS - SANTANDER                                             3
 ACTION:UPD 12-07-13 16:10 OP:ep   STATUS:               ID:20111115172514 L   I
 2011-11-15-1723-43S.COL___179                                                 6
 STAT SP IPHASW D HRMM SECON CODA AMPLIT PERI AZIMU VELO AIN AR TRES W  DIS CAZ7
 PAM  SZ EP   1   1725 36.75                             152    0.33 7 72.2  38 
 PAM  SN ES   1   1725 53.31                             152   -0.15 7 72.2  38 
 BRR  HZ EP   1   1725 35.91                             151    0.09 7 74.1 295 
 BRR  HZ I        1725 38.98        13.8 0.41                          74.1 295 
 BRR  HN ES   2   1725 52.08                             151   -0.31 5 74.1 295 
 RUS  HZ EP   1   1725 37.96                             143   -0.49 7  103 179 
 RUS  HZ I        1725 38.35         3.4 0.29                           103 179 
 RUS  HE ES   1   1725 57.38                             143    0.30 7  103 179 
 ZAR  HN ES   2   1726 13.04                             122    0.19 4  207 291 
                                                                                
