 2016  615 1703 57.0 L   6.754 -73.133147.8  RSN  6 0.5 1.8LRSN                1
 GAP=255        1.05       8.5     7.0  7.9 -0.1482E+02  0.7787E+01  0.1117E+02E
 Epicentro: LOS SANTOS - SANTANDER                                             3
 ACTION:UPD 16-07-21 22:19 OP:rebc STATUS:               ID:20160615170357 L   I
 OLDACT:REG 16-06-15 21:45 OP:dnl  STATUS:               ID:20160615165746     3
 2016-06-15-1657-46M.COL___340                                                 6
 STAT SP IPHASW D HRMM SECON CODA AMPLIT PERI AZIMU VELO AIN AR TRES W  DIS CAZ7
 BAR2 EZ EP       17 4 16.79                             173   -0.0410 18.7 197 
 BAR2 EZ ES       17 4 32.03                             173   -0.2410 18.7 197 
 BAR2 EZ I        17 4 34.57        10.0 0.38                          18.7 197 
 BRR  HZ EP       17 4 18.58                             151   -0.0410 74.9 301 
 BRR  HE ES       17 4 36.15                             151    0.6910 74.9 301 
 BRR  HZ I        17 4 54.97        11.3 0.36                          74.9 301 
 PTB  HZ EP       17 4 23.87                             132   -0.34 9  148 261 
 PTB  HN ES       17 4 44.63                             132   -0.78 9  148 261 
 PTB  HZ I        17 4 52.08        12.4 0.40                           148 261 
 ZAR  HZ EP   2   17 4 29.20                             122   -0.75 4  207 293 
 ZAR  HN ES   2   17 4 55.97                             122    0.35 4  207 293 
 ZAR  HZ I        17 5  0.02         6.3 0.10                           207 293 
 NOR  HZ EP       17 4 33.39                             119    0.70 8  233 236 
 NOR  HN ES       17 5  0.83                             119    0.33 8  233 236 
 NOR  HZ I        17 5  4.66         5.0 0.22                           233 236 
 GUY2CHZ EP   9   17 4 42.19                             113    1.65 0  299 236 
 GUY2CHN ES       17 5 16.09                                   -0.03 7  299 236 
 GUY2CHZ I        17 5 22.11         2.9 0.48                           299 236 
                                                                                
