 2011  615 1538 57.7 L   6.712 -73.197138.0  RSN  4 0.2 1.6LRSN                1
 GAP=135        0.49       4.7     8.3  8.2  0.2408E+02 -0.4075E+02 -0.2275E+02E
 Epicentro: VILLANUEVA - SANTANDER                                             3
 ACTION:UP  11-07-14 19:05 OP:ep   STATUS:               ID:20110615153857 L   I
 2011-06-15-1537-35S.COL___118                                                 6
 STAT SP IPHASW D HRMM SECON CODA AMPLIT PERI AZIMU VELO SNR AR TRES W  DIS CAZ7
 BRR  HZ EP       1539 17.81                             151    -0.210   72 308 
 BRR  HN ES   1   1539 34.07                             151     0.2 7   72 308 
 BRR  HZ I        1539 35.36        23.3 0.13                            72 308 
 PAM  SZ EP   1   1539 19.74                             146    -0.1 7   88  38 
 RUS  HZ EP   1   1539 20.26                             145     0.2 7   92 172 
 RUS  HN ES   1   1539 37.34                             145    -0.1 7   92 172 
 RUS  HZ I        1539 40.15         2.4 0.19                            92 172 
 OCA  SZ EP   1   1539 26.41                             126     0.1 7  169 355 
                                                                                
