 2017  615 1931  3.9 L   6.761 -73.192147.8  RSN  5 0.4 1.8LRSN                1
 GAP=275        1.01       5.5     9.2  9.7 -0.6172E+01 -0.1788E+02  0.8430E+01E
 Epicentro: LOS SANTOS - SANTANDER                                             3
 ACTION:UPD 17-09-14 16:52 OP:jn   STATUS:               ID:20170615193103 L   I
 OLDACT:REG 17-06-15 21:25 OP:ar   STATUS:               ID:20170615192742     3
 2017-06-15-1928-00M.COL___359                                                 6
 STAT SP IPHASW D HRMM SECON CODA AMPLIT PERI AZIMU VELO AIN AR TRES W  DIS CAZ7
 BRR  HZ EP       1931 25.08                             154   -0.0710 69.1 304 
 BRR  HN ES       1931 41.86                             154    0.1310 69.1 304 
 PTB  HZ EP       1931 29.78                             134   -0.74 9  142 260 
 PTB  HN ES       1931 50.68                             134   -0.60 9  142 260 
 PTB  HZ I        1931 52.36         4.4 0.32            131            142 260 
 SPBC HZ EP       1931 31.96                             131    0.02 9  157 219 
 SPBC HE ES       1931 54.25                             131    0.43 9  157 219 
 SPBC HZ I        1931 56.38        11.8 0.30            129            157 219 
 ZAR  HZ EP       1931 36.74                             123    0.57 9  201 294 
 ZAR  HN ES       1932  1.60                             123    0.26 9  201 294 
 ZAR  HZ I        1932  6.61         5.1 0.34            121            201 294 
 NOR  HN ES       1932  6.65                             120    0.20 8  228 235 
                                                                                
