 2014 1215 1342 20.3 L   6.149 -73.763 98.4  RSN  4 0.4 1.5LRSN                1
 GAP=150        0.94       4.8     4.3 10.1  0.8539E+01  0.1616E+02  0.3573E+01E
 Epicentro: LANDAZURI - SANTANDER                                              3
 ACTION:UPD 15-02-10 17:04 OP:nd   STATUS:               ID:20141215134220 L   I
 OLDACT:REG 14-12-15 20:26 OP:mh   STATUS:               ID:20141215133746     3
 2014-12-15-1337-46M.COL___284                                                 6
 STAT SP IPHASW D HRMM SECON CODA AMPLIT PERI AZIMU VELO AIN AR TRES W  DIS CAZ7
 RUS  HZ EP       1342 38.08                             138    0.0510 80.4 111 
 RUS  HN ES       1342 51.96                             138    0.1210 80.4 111 
 RUS  HZ I        1342 53.79         5.5 0.26            143           80.4 111 
 PTB  HZ EP       1342 37.90                             135   -0.1310 88.1 299 
 PTB  HN ES       1342 51.49                             135   -0.3410 88.1 299 
 PTB  HZ I        1342 55.08         4.9 0.32            136           88.1 299 
 ZAR  HZ EP       1342 48.23                             113   -0.56 9  192 321 
 ZAR  HN ES       1343 11.77                             113    0.78 9  192 321 
 ZAR  HZ I        1343 14.09         6.4 0.18            114            192 321 
 TOL  SN ES       1343 22.80                             108    0.22 8  244 225 
 TOL  SZ I        1343 27.32         3.8 0.24            108            244 225 
                                                                                
