 2016  315 1420 51.2 L   6.796 -73.187143.1  RSN  6 0.2 1.9LRSN                1
 GAP=132        0.44       1.9     2.0  3.3  0.4863E-01  0.1842E+01  0.1069E+01E
 Epicentro: ZAPATOCA - SANTANDER                                               3
 ACTION:UPD 16-05-13 21:24 OP:cam  STATUS:               ID:20160315142051 L   I
 OLDACT:REG 16-03-15 21:00 OP:cara STATUS:               ID:20160315141751     3
 2016-03-15-1417-51M.COL___306                                                 6
 STAT SP IPHASW D HRMM SECON CODA AMPLIT PERI AZIMU VELO AIN AR TRES W  DIS CAZ7
 BAR2 EZ IP       1421 10.47                             171    0.0210 22.5 179 
 BAR2 EZ ES       1421 25.60                             171    0.1010 22.5 179 
 BAR2 EZ I        1421 26.90        24.7 0.30            169           22.5 179 
 PAM  EZ IP       1421 13.34                             149    0.0410 80.8  42 
 PAM  EZ EP       1421 13.37                             149           80.8  42 
 PAM  EZ I        1421 13.53        37.9 0.22            153           80.8  42 
 PAM  EN ES       1421 30.49                             149   -0.0810 80.8  42 
 RUS  HZ EP       1421 14.41                             143   -0.2410  101 173 
 RUS  HN ES       1421 33.06                             143    0.1010  101 173 
 RUS  HZ I        1421 34.48         6.8 0.20            145            101 173 
 PTB  HZ EP       1421 17.41                             132   -0.08 9  143 259 
 PTB  HN ES       1421 37.77                             132   -0.26 9  143 259 
 PTB  HZ I        1421 44.28         6.0 0.18            130            143 259 
 ZAR  HN ES       1421 48.12                             122    0.26 9  200 293 
 ZAR  HZ I        1421 56.45         7.9 0.48            121            200 293 
 CHI  HZ EP       1421 28.74                             117    0.20 8  247 194 
 CHI  HN ES       1421 57.74                             117    0.06 8  247 194 
 CHI  HZ I        1422  1.40         4.4 0.66            117            247 194 
                                                                                
