 2014  815 1240 18.6 L   6.800 -73.164136.0  RSN  4 0.2 2.2LRSN                1
 GAP=209        0.98       6.2     7.3  7.3  0.3639E+01  0.8021E+00 -0.1655E+02E
 Epicentro: LOS SANTOS - SANTANDER                                             3
 ACTION:UPD 14-09-15 21:50 OP:nd   STATUS:               ID:20140815124017 L   I
 OLDACT:UP  14-08-19 09:18 OP:SPQ  STATUS:               ID:20140815124017 L   3
 OLDACT:DUP 14-08-15 21:11 OP:cam  STATUS:               ID:20140815124001d    3
 2014-08-15-1240-00M.COL___285                                                 6
 STAT SP IPHASW D HRMM SECON CODA AMPLIT PERI AZIMU VELO AIN AR TRES W  DIS CAZ7
 BAR2 SZ EP       1240 37.22                             170    0.2110 23.1 185 
 BAR2 SZ ES       1240 51.39                             170   -0.0110 23.1 185 
 BAR2 SZ I        1240 53.41        36.8 0.36            176           23.1 185 
 BRR  HZ EP   9   1240 39.48                             151    0.93 0 69.4 299 
 BRR  HE ES       1240 55.96                             152    0.8810 69.4 299 
 BRR  HE I        1240 56.89        60.8 0.26            148           69.4 299 
 PTB  HZ EP       1240 44.64                             130    0.08 9  146 259 
 PTB  HN ES       1241  4.71                             130   -0.14 9  146 259 
 PTB  HZ I        1241  7.42         9.1 0.44            132            146 259 
 SML  HZ EP       1240 54.16                             116   -0.40 8  243 336 
 SML  HE ES       1241 22.80                             116    0.16 8  243 336 
 SML  HE I        1241 32.37        23.1 0.10            116            243 336 
                                                                                
