 2011  315 1027  1.2 L   6.796 -73.143140.6  RSN  5 0.3 1.3LRSN                1
 GAP=159        0.74       4.2    10.4  8.4 -0.2003E+02  0.3159E+02 -0.1225E+02E
 Epicentro: LOS SANTOS - SANTANDER                                             3
 ACTION:UP  11-06-16 14:33 OP:jfem STATUS:               ID:20110315102701 L   I
 2011-03-15-1026-31S.COL___137                                                 6
 STAT SP IPHASW D HRMM SECON CODA AMPLIT PERI AZIMU VELO SNR AR TRES W  DIS CAZ7
 BAR2 SZ EP   1   1027 20.04                             170    -0.2 7   23 191 
 BAR2 SZ ES   1   1027 34.51                             170    -0.5 7   23 191 
 BAR2 SZ I        1027 37.17         5.6 0.37                            23 191 
 RUS  HZ EP   1   1027 24.48                             143     0.1 7  100 176 
 RUS  HN ES   1   1027 42.79                             143     0.3 7  100 176 
 RUS  HZ I        1027 44.18         1.7 0.27                           100 176 
 GRA  SZ EP   1   1027 25.90                             136    -0.1 7  126  17 
 GRA  SZ ES   1   1027 45.95                             136     0.6 7  126  17 
 GRA  SZ I        1027 48.22         2.8 0.27                           126  17 
 OCA  SZ EP   1   1027 28.80                             128    -0.4 7  161 353 
 OCA  SZ ES   2   1027 50.92                             128     0.0 5  161 353 
 OCA  SZ I        1027 53.59         3.5 0.26                           161 353 
 NOR  SZ EP   2   1027 36.78                             117     0.1 4  235 235 
 NOR  SN ES   2   1028  4.91                             117     0.6 4  235 235 
                                                                                
