 2017  115 1058 51.8 L   6.883 -73.372120.0  RSN  5 0.4 1.0LRSN                1
 GAP=112        0.97       5.0     4.5  8.6 -0.5242E+01  0.1130E+02 -0.5183E+01E
 Epicentro: SAN VICENTE DE CHUCURI - SANTANDER                                 3
 ACTION:UPD 17-05-22 15:59 OP:jn   STATUS:               ID:20170115105851 L   I
 OLDACT:UP  17-01-15 21:50 OP:dani STATUS:               ID:20170115105741     3
 OLDACT:UP  17-01-15 21:50 OP:dani STATUS:               ID:20170115105741     3
 OLDACT:UP  17-01-15 21:49 OP:dani STATUS:               ID:20170115105741     3
 OLDACT:REG 17-01-15 20:06 OP:dani STATUS:               ID:20170115105741     3
 2017-01-15-1058-00M.COL___335                                                 6
 STAT SP IPHASW D HRMM SECON CODA AMPLIT PERI AZIMU VELO AIN AR TRES W  DIS CAZ7
 BAR2 EZ EP       1059  8.90                             161    0.0510 38.4 147 
 BAR2 EZ ES       1059 22.14                             161    0.0110 38.4 147 
 BAR2 EZ I        1059 23.31         7.8 0.28            163           38.4 147 
 BRR  HZ EP       1059  9.29                             158    0.5110 45.0 303 
 BRR  HN ES   3   1059 23.57                             158    1.57 2 45.0 303 
 PAM  EZ EP       1059 12.36                             140    0.0810 89.9  56 
 PAM  EE ES       1059 27.81                             140   -0.4310 89.9  56 
 PAM  EZ I        1059 31.00         1.2 0.25            144           89.9  56 
 RUS  HZ EP       1059 14.90                             133    0.6110  114 164 
 RUS  HN ES       1059 31.52                             133   -0.3010  114 164 
 RUS  HZ I        1059 34.13         0.6 0.31            137            114 164 
 PTB  HZ EP       1059 14.23                             130   -0.4710  126 252 
 PTB  HN ES       1059 32.35                             130   -0.1910  126 252 
 PTB  HZ I        1059 36.34         2.2 0.22            132            126 252 
                                                                                
