 2016 1115 1746 37.9 L   6.811 -73.131147.1  RSN  8 0.4 1.9LRSN                1
 GAP=154        0.92       3.9     4.1  5.8 -0.2202E+01  0.4891E+01  0.8646E+01E
 Epicentro: LOS SANTOS - SANTANDER                                             3
 ACTION:UPD 17-10-26 21:08 OP:lp   STATUS:               ID:20161115174637 L   I
 OLDACT:UP  16-11-15 23:03 OP:and  STATUS:               ID:20161115173746d    3
 OLDACT:UP  16-11-15 23:02 OP:and  STATUS:               ID:20161115173746d    3
 OLDACT:UP  16-11-15 23:01 OP:and  STATUS:               ID:20161115173746d    3
 OLDACT:DUP 16-11-15 22:52 OP:and  STATUS:               ID:20161115173746d    3
 2016-11-15-1738-00M.COL___341                                                 6
 STAT SP IPHASW D HRMM SECON CODA AMPLIT PERI AZIMU VELO AIN AR TRES W  DIS CAZ7
 BAR2 EZ EP       1746 57.43                             170   -0.2410 24.8 193 
 BAR2 EZ ES       1747 12.71                             170   -0.4110 24.8 193 
 BAR2 EZ I        1747 15.27        22.5 0.30            168           24.8 193 
 BRR  HZ EP       1746 59.33                             152    0.1410 72.1 297 
 BRR  HN ES       1747 16.42                             152    0.5910 72.1 297 
 PAM  EZ EP       1747  0.22                             152    0.1310 75.4  39 
 PAM  EN ES       1747 17.62                             152    0.1810 75.4  39 
 PAM  EZ I        1747 19.87        12.6 0.68            156           75.4  39 
 PTB  HZ EP       1747  4.65                             132   -0.44 9  150 259 
 PTB  HN ES       1747 25.79                             132   -0.54 9  150 259 
 PTB  HZ I        1747 30.33         7.8 0.12            132            150 259 
 ZAR  HZ EP       1747 10.05                             122   -0.44 9  205 292 
 ZAR  HN ES       1747 36.03                             122    0.09 9  205 292 
 ZAR  HZ I        1747 41.12         5.6 0.21            123            205 292 
 NOR  HZ EP       1747 13.75                             118   -0.12 8  237 234 
 NOR  HN ES       1747 42.64                             118    0.68 8  237 234 
 NOR  HZ I        1747 49.27         5.6 0.20            119            237 234 
 CHI  HZ EP       1747 16.06                             117    0.27 8  250 195 
 CHI  HN ES       1747 45.11                             117   -0.28 8  250 195 
 PRA  HZ EP       1747 31.98                             107    0.35 6  394 210 
 PRA  HN ES       1748 14.29                             107    0.71 6  394 210 
 PRA  HZ I        1748 19.64         3.9 0.52            108            394 210 
 SJC  HZ EP   4   1747 31.69                             106   -1.75 0  409 327 
 SJC  HN ES   4   1748 12.78                             106   -4.02 0  409 327 
                                                                                
