 2017  115 1024 45.8 L   6.365 -73.660101.4  RSN  5 0.5 1.5LRSN                1
 GAP=153        1.13       6.8     4.2  9.5  0.1098E+02  0.5366E+01 -0.1869E+02E
 Epicentro: SANTA HELENA DEL OPON - SANTANDER                                  3
 ACTION:UPD 17-05-22 15:59 OP:jn   STATUS:               ID:20170115102445 L   I
 OLDACT:UP  17-01-15 21:19 OP:dani STATUS:               ID:20170115101742d    3
 OLDACT:UP  17-01-15 21:18 OP:dani STATUS:               ID:20170115101742d    3
 OLDACT:UP  17-01-15 21:18 OP:dani STATUS:               ID:20170115101742d    3
 OLDACT:UP  17-01-15 21:17 OP:dani STATUS:               ID:20170115101742d    3
 OLDACT:UP  17-01-15 21:17 OP:dani STATUS:               ID:20170115101742d    3
 OLDACT:UP  17-01-15 21:17 OP:dani STATUS:               ID:20170115101742d    3
 OLDACT:UP  17-01-15 21:17 OP:dani STATUS:               ID:20170115101742d    3
 OLDACT:UP  17-01-15 21:15 OP:dani STATUS:               ID:20170115101742d    3
 OLDACT:UP  17-01-15 21:15 OP:dani STATUS:               ID:20170115101742d    3
 OLDACT:DUP 17-01-15 21:13 OP:dani STATUS:               ID:20170115101742d    3
 OLDACT:UP  17-01-15 21:12 OP:dani STATUS:               ID:20170115101741     3
 OLDACT:UP  17-01-15 21:12 OP:dani STATUS:               ID:20170115101741     3
 OLDACT:REG 17-01-15 20:00 OP:dani STATUS:               ID:20170115101741     3
 2017-01-15-1018-00M.COL___335                                                 6
 STAT SP IPHASW D HRMM SECON CODA AMPLIT PERI AZIMU VELO AIN AR TRES W  DIS CAZ7
 BAR2 EZ EP     D 1025  2.28                             147    0.5010 58.5  65 
 BAR2 EZ ES       1025 14.61                             147    0.3310 58.5  65 
 BAR2 EZ I        1025 15.69        26.0 0.30            149           58.5  65 
 RUS  HZ EP     C 1025  4.55                             138    0.6510 82.5 129 
 RUS  HN ES       1025 17.31                             138   -0.7510 82.5 129 
 RUS  HZ I        1025 18.79         5.9 0.48            141           82.5 129 
 PTB  HZ EP       1025  3.61                             135   -0.2910 90.2 282 
 PTB  HN ES       1025 18.10                             135    0.0510 90.2 282 
 PTB  HZ I        1025 19.16         7.8 0.32            136           90.2 282 
 PAM  HZ EP       1025 10.42                             119   -0.10 9  151  45 
 PAM  EN ES   2   1025 28.72                             119   -1.13 5  151  45 
 PAM  HZ I        1025 30.77         2.7 0.33            121            151  45 
 ZAR  HZ EP       1025 12.98                             113   -0.28 9  182 313 
 ZAR  HE ES       1025 34.78                             113    0.07 9  182 313 
 ZAR  HZ I        1025 37.50         5.7 0.24            115            182 313 
                                                                                
