 2016  515 1339 32.4 L   6.707 -73.188139.1  RSN  5 0.5 1.6LRSN                1
 GAP=225        1.09       8.2     7.7  9.0  0.3535E+02  0.1279E+02 -0.1252E+02E
 Epicentro: VILLANUEVA - SANTANDER                                             3
 ACTION:UPD 16-08-18 17:46 OP:cam  STATUS:               ID:20160515133932 L   I
 OLDACT:REG 16-05-15 20:30 OP:ak   STATUS:               ID:20160515133746     3
 2016-05-15-1337-46M.COL___290                                                 6
 STAT SP IPHASW D HRMM SECON CODA AMPLIT PERI AZIMU VELO AIN AR TRES W  DIS CAZ7
 BAR2 EZ EP       1339 50.73                             174   -0.2910 12.7 177 
 BAR2 EZ ES       1340  5.40                             174   -0.1710 12.7 177 
 BAR2 EZ I        1340  6.76         9.9 0.18            174           12.7 177 
 BRR  HZ EP       1339 52.39                             151   -0.5110 72.9 307 
 BRR  HN ES       1340  9.16                             151    0.2510 72.9 307 
 BRR  HZ I        1340 13.25         8.2 0.11            150           72.9 307 
 RUS  HZ EP   2   1339 54.80                             145    0.04 5 90.8 173 
 RUS  HE ES       1340 12.74                             145    0.5110 90.8 173 
 RUS  HZ I        1340 14.05         4.3 0.23            149           90.8 173 
 PTB  HZ EP   2   1339 57.25                             132   -0.97 5  141 263 
 PTB  HN ES       1340 17.93                             132   -0.46 9  141 263 
 PTB  HZ I        1340 21.00         4.6 0.12            132            141 263 
 ZAR  HZ EP       1340  5.21                             121    0.84 9  204 295 
 ZAR  HE ES       1340 29.61                             121    0.28 9  204 295 
 ZAR  HZ I        1340 34.71         7.0 0.46            122            204 295 
                                                                                
