 2012  115 1340 12.0 L   6.555 -73.619109.2  RSN  4 0.2 1.5LRSN                1
 GAP=130        0.39       4.2     3.3  6.6  0.1009E+00  0.3690E+01  0.4338E+00E
 Epicentro: EL CARMEN DE CHUCURI - SANTANDER                                   3
 ACTION:UP  12-02-03 08:17 OP:REBC STATUS:               ID:20120115134012 L   I
 2012-01-15-1340-00M.COL___187                                                 6
 STAT SP IPHASW D HRMM SECON CODA AMPLIT PERI AZIMU VELO SNR AR TRES W  DIS CAZ7
 BAR2 SZ EP   1   1340 28.24                             154     0.0 7   48  85 
 BAR2 SZ ES   2   1340 40.60                             154    -0.4 5   48  85 
 BAR2 SZ I        1340 42.51         9.9 0.38                            48  85 
 GIR2 SZ EP   1   1340 29.69                             143    -0.1 7   75  39 
 GIR2 SZ ES   2   1340 44.08                             143     0.4 5   75  39 
 PTB  HZ EP   2   1340 31.03                             137     0.0 5   93 269 
 PTB  HN ES   2   1340 45.93                             137     0.0 5   93 269 
 RUS  HZ EP   2   1340 32.00                             136     0.2 5   94 141 
 RUS  HN ES   2   1340 47.42                             136     0.1 5   94 141 
                                                                                
