 2016  615 1722  0.9 L   6.804 -73.115140.7  RSN  5 0.3 1.6LRSN                1
 GAP=160        0.78       6.1     4.7  8.4 -0.3513E+01  0.1485E+02  0.2209E+02E
 Epicentro: LOS SANTOS - SANTANDER                                             3
 ACTION:UPD 16-07-21 22:19 OP:rebc STATUS:               ID:20160615172200 L   I
 OLDACT:UP  16-06-15 23:33 OP:mh   STATUS:               ID:20160615171748     3
 OLDACT:UP  16-06-15 23:32 OP:mh   STATUS:               ID:20160615171748     3
 OLDACT:UP  16-06-15 23:32 OP:mh   STATUS:               ID:20160615171748     3
 OLDACT:UP  16-06-15 23:32 OP:mh   STATUS:               ID:20160615171748     3
 OLDACT:REG 16-06-15 21:46 OP:dnl  STATUS:               ID:20160615171748     3
 2016-06-15-1717-48M.COL___340                                                 6
 STAT SP IPHASW D HRMM SECON CODA AMPLIT PERI AZIMU VELO AIN AR TRES W  DIS CAZ7
 BAR2 EZ EP       1722 19.91                             170   -0.0310 24.6 198 
 BAR2 EZ I        1722 36.13         8.0 0.20                          24.6 198 
 BRR  HZ EP       1722 21.84                             151    0.1810 74.1 297 
 BRR  HZ I        1722 35.32        15.1 0.34                          74.1 297 
 BRR  HE ES       1722 37.48                             151   -0.3810 74.1 297 
 PAM  EN ES       1722 39.38                             151    0.1710 74.9  38 
 PAM  EZ I        1722 42.35         6.0 0.26                          74.9  38 
 ZAR  HZ EP       1722 32.74                             121   -0.59 8  207 292 
 ZAR  HE ES       1722 59.14                             121    0.51 8  207 292 
 ZAR  HZ I        1723  6.27         3.4 0.34                           207 292 
 NOR  HZ EP   1   1722 36.83                             117    0.17 6  238 235 
 NOR  HE ES       1723  4.63                             117    0.07 8  238 235 
 NOR  HZ I        1723  6.87         2.0 0.23                           238 235 
                                                                                
