 2012  915 1900 48.0 L   6.694 -73.198150.0  RSN  5 0.2 1.8LRSN                1
 GAP=223        0.40       4.6     5.1  4.8  0.1626E+02 -0.2198E+01 -0.4334E+01E
 Epicentro: VILLANUEVA - SANTANDER                                             3
 ACTION:UPD 12-10-22 14:19 OP:ep   STATUS:               ID:20120915190048 L   I
 2012-09-15-1900-00M.COL___227                                                 6
 STAT SP IPHASW D HRMM SECON CODA AMPLIT PERI AZIMU VELO AIN AR TRES W  DIS CAZ7
 BAR2 SZ EP   1   19 1  7.79                             175   -0.17 7 11.4 172 
 BAR2 SZ ES   2   19 1 23.13                             175   -0.41 5 11.4 172 
 BAR2 SZ I        19 1 24.69        11.2 0.22                          11.4 172 
 BRR  HZ EP       19 1  9.84                             153    0.1410 72.9 309 
 BRR  HZ I        19 1 13.02        15.9 0.31                          72.9 309 
 BRR  HE ES   1   19 1 26.78                             153    0.15 7 72.9 309 
 RUS  HZ EP   1   19 1 11.31                             148   -0.11 7 89.5 172 
 RUS  HE ES   1   19 1 29.88                             148    0.20 7 89.5 172 
 PTB  HN ES   2   19 1 35.37                             135   -0.07 5  140 263 
 ZAR  HZ EP   2   19 1 20.61                             123   -0.06 4  204 296 
 ZAR  HE ES   2   19 1 45.92                             123   -0.24 4  204 296 
 ZAR  HZ I        19 1 54.46         5.3 0.48                           204 296 
                                                                                
