 2016 1015 1714 15.0 L   6.799 -73.151150.8  RSN  7 0.4 1.7LRSN                1
 GAP=237        0.79       3.8     5.9  8.1  0.8427E+01  0.1328E+02  0.8037E+01E
 Epicentro: LOS SANTOS - SANTANDER                                             3
 ACTION:UPD 16-11-09 19:19 OP:rebc STATUS:               ID:20161015171415 L   I
 OLDACT:REG 16-10-15 20:35 OP:dnl  STATUS:               ID:20161015170736     3
 2016-10-15-1708-00M.COL___374                                                 6
 STAT SP IPHASW D HRMM SECON CODA AMPLIT PERI AZIMU VELO AIN AR TRES W  DIS CAZ7
 BAR2 EZ EP   3   1714 35.32                             171    0.11 2 23.1 189 
 BAR2 EZ ES   3   1714 50.26                             171   -0.73 2 23.1 189 
 BAR2 EZ I        1714 51.32        10.5 0.26            169           23.1 189 
 BRR  HZ EP       1714 36.96                             154    0.3110 70.8 299 
 BRR  HN ES       1714 54.00                             154    0.4510 70.8 299 
 BRR  HZ I        1714 59.36        13.2 0.38            152           70.8 299 
 RUS  HZ EP   2   1714 39.22                             145    0.00 5  100 176 
 RUS  HN ES       1714 57.76                             145   -0.3710  100 176 
 RUS  HZ I        1714 59.37         4.4 0.44            146            100 176 
 SPBC HZ EP   2   1714 43.92                             130    0.10 5  163 219 
 SPBC HN ES       1715  6.49                             130    0.17 9  163 219 
 SPBC HZ I        1715 10.49         7.2 0.20            131            163 219 
 ZAR  HZ EP   4   1714 49.35                             124    1.65 0  204 292 
 ZAR  HN ES       1715 12.40                             124   -0.83 9  204 292 
 ZAR  HZ I        1715 17.28         3.5 0.26            124            204 292 
 NOR  HZ EP   2   1714 51.06                             120    0.12 4  234 234 
 NOR  HE ES       1715 19.26                             120    0.27 8  234 234 
 NOR  HZ I        1715 21.74         2.3 0.06            120            234 234 
 CHI  HZ EP   2   1714 52.83                             118   -0.09 4  248 195 
 CHI  HN ES       1715 22.37                             118   -0.15 8  248 195 
 CHI  HZ I        1715 27.93         3.1 0.62            120            248 195 
                                                                                
