 2010  915 1020 30.7 L   6.779 -73.142152.0  RSN  9 0.2 2.3LRSN                1
 GAP=159        0.50       2.7     8.7  5.3 -0.6714E+01  0.6669E+01 -0.5963E+00E
 Epicentro: LOS SANTOS - SANTANDER                                             3
 ACTION:UP  11-02-18 11:02 OP:tino STATUS:               ID:20100915102030 L   I
 2010-09-15-1016-02S.COL___119                                                 6
 STAT SP IPHASW D HRMM SECON CODA AMPLIT PERI AZIMU VELO SNR AR TRES W  DIS CAZ7
 BTL  SZ EP   1   1020 50.47                             172    -0.5 7   21 318 
 BAR2 SZ EP   1   1020 51.03                             172     0.0 7   21 192 
 BAR2 SZ ES   2   1021  6.84                             172     0.0 5   21 192 
 BAR2 SZ I        1021  7.53        54.1 0.55                            21 192 
 GIR2 SZ EP   1   1020 51.18                             167     0.0 7   34 350 
 GIR2 SZ ES   2   1021  7.60                             167     0.5 5   34 350 
 BRR  HZ EP       1020 52.56                             153     0.010   73 300 
 RUS  HZ EP   1   1020 54.89                             146     0.0 7   98 176 
 RUS  HN ES   2   1021 13.50                             146    -0.3 5   98 176 
 RUS  HZ I        1021 14.71        25.9 0.37                            98 176 
 GUE  SZ EP   1   1020 56.06                             140    -0.1 7  119  12 
 GRA  SZ EP   1   1020 56.86                             138     0.2 7  128  17 
 GRA  SZ ES   2   1021 17.00                             138     0.1 5  128  17 
 GRA  SZ I        1021 19.16        26.4 0.30                           128  17 
 OCA  SZ EP   1   1020 59.55                             130    -0.1 7  163 353 
 OCA  SZ ES   2   1021 22.40                             130     0.1 5  163 353 
 CHI  HZ EP   1   1021  8.99                             119     0.5 6  246 195 
 CHI  HE ES   2   1021 37.97                             119     0.0 4  246 195 
                                                                                
