 2014 1015 1600 40.0 L   6.096 -73.725111.7  RSN  6 0.4 1.4LRSN                1
 GAP=119        0.91       5.0     3.6 10.6 -0.2474E+00  0.1267E+02  0.1875E+02E
 Epicentro: CHIPATA - SANTANDER                                                3
 ACTION:UPD 14-11-29 23:50 OP:nd   STATUS:               ID:20141015160040 L   I
 OLDACT:REG 14-10-15 23:20 OP:fm   STATUS:               ID:20141015155749     3
 2014-10-15-1557-49M.COL___291                                                 6
 STAT SP IPHASW D HRMM SECON CODA AMPLIT PERI AZIMU VELO AIN AR TRES W  DIS CAZ7
 RUS  HZ EP       16 0 58.35                             144   -0.2210 74.5 108 
 RUS  HN ES   1   16 1 12.47                             144   -0.55 7 74.5 108 
 RUS  HZ I        16 1 14.09         3.4 0.26            149           74.5 108 
 BAR2 SZ EP       16 0 59.16                             141    0.4510 81.3  48 
 BAR2 SZ ES   1   16 1 13.73                             141    0.46 7 81.3  48 
 PTB  HZ EP   1   16 0 58.98                             136   -0.49 7 94.6 301 
 PTB  HE ES       16 1 14.65                             136    0.0210 94.6 301 
 PTB  HZ I        16 1 18.70         4.0 0.10            134           94.6 301 
 ZAR  HE ES   1   16 1 32.68                             114   -0.59 6  199 321 
 ZAR  HZ I        16 1 40.53         3.3 0.38            114            199 321 
 GUY2CHZ EP   1   16 1 11.47                             114    0.16 6  206 242 
 GUY2CHN ES       16 1 36.27                             114    0.57 8  206 242 
 GUY2CHZ I        16 1 40.72         2.3 0.50                           206 242 
 TOL  SN ES   1   16 1 42.53                             109   -0.44 6  243 227 
 TOL  SZ I        16 1 49.38         5.6 0.18            110            243 227 
                                                                                
