 2013  215 1829 35.0 L   6.773 -73.142144.8  RSN  9 0.5 2.6LRSN                1
 GAP=138        0.89       3.7     4.8  7.6  0.2773E+00  0.8439E+01  0.2253E+01E
 Epicentro: LOS SANTOS - SANTANDER                                             3
 ACTION:UPD 13-03-12 09:33 OP:ep   STATUS:               ID:20130215182935 L   I
 2013-02-15-1827-36M.COL___204                                                 6
 STAT SP IPHASW D HRMM SECON CODA AMPLIT PERI AZIMU VELO AIN AR TRES W  DIS CAZ7
 BAR2 SZ EP       1829 54.45                             172    0.0010 20.5 193 
 BAR2 SZ I        1830 10.51        44.1 0.30            170           20.5 193 
 BRR  HZ EP       1829 56.46                             152    0.3310 73.0 300 
 BRR  HN ES   1   1830 13.13                             152    0.50 7 73.0 300 
 BRR  HN I        1830 13.80       110.6 0.22            151           73.0 300 
 PAM  SZ EP   1   1829 57.52                             150    0.30 7 79.4  38 
 PAM  SN ES   1   1830 14.60                             150    0.03 7 79.4  38 
 PAM  SN I        1830 15.21        30.2 0.56            149           79.4  38 
 RUS  HZ EP   1   1829 58.36                             144   -0.07 7 97.6 176 
 RUS  HN ES   1   1830 16.33                             144   -0.38 7 97.6 176 
 RUS  HN I        1830 17.23        28.0 0.26            142           97.6 176 
 PTB  HZ EP   1   1830  1.38                             132   -0.48 7  148 260 
 PTB  HN ES   1   1830 22.34                             132   -0.48 7  148 260 
 PTB  HN I        1830 24.50        36.9 0.24            130            148 260 
 ZAR  HZ EP   1   1830  8.54                             122    1.02 6  206 293 
 ZAR  HE ES   1   1830 33.31                             122    0.41 6  206 293 
 ZAR  HE I        1830 38.45        68.7 0.20            120            206 293 
 NOR  HZ EP   1   1830 10.43                             118   -0.08 6  233 235 
 NOR  HN ES   1   1830 38.16                             118   -0.06 6  233 235 
 NOR  HN I        1830 43.46        51.9 0.18            117            233 235 
 CHI  HZ EP   1   1830 12.52                             117    0.19 6  246 195 
 CHI  HN ES   1   1830 41.40                             117   -0.06 6  246 195 
 CHI  HN I        1830 46.77        13.7 0.38            115            246 195 
 SML  HZ EP   1   1830 11.34                             117   -0.53 6  247 335 
 SML  HE ES   1   1830 39.35                             117   -1.29 6  247 335 
 SML  HN I        1830 43.09        66.0 0.10            116            247 335 
                                                                                
