 2013  915 1854 31.7 L   6.753 -73.204146.4  RSN  4 0.5 1.6LRSN                1
 GAP=227        1.05       8.8     8.3  9.9  0.3878E+02  0.3540E+01  0.7428E+01E
 Epicentro: VILLANUEVA - SANTANDER                                             3
 ACTION:UPD 13-10-22 09:22 OP:ep   STATUS:               ID:20130915185431 L   I
 OLDACT:UP  13-09-15 16:17 OP:cam  STATUS:               ID:20130915185000     3
 OLDACT:REG 13-09-15 14:52 OP:cam  STATUS:               ID:20130915185000     3
 2013-09-15-1850-00M.COL___268                                                 6
 STAT SP IPHASW D HRMM SECON CODA AMPLIT PERI AZIMU VELO AIN AR TRES W  DIS CAZ7
 BAR2 SZ EP   1   1854 50.86                             173   -0.49 7 17.9 172 
 BAR2 SZ ES   1   1855  5.71                             173   -0.94 7 17.9 172 
 BAR2 SZ I        1855  7.49         8.7 0.32            172           17.9 172 
 BRR  HZ EP   1   1854 52.85                             154    0.04 7 68.4 305 
 BRR  HN ES       1855  9.80                             154    0.5610 68.4 305 
 BRR  HZ I        1855 10.94         8.0 0.10            154           68.4 305 
 RUS  HZ EP       1854 55.52                             145    0.2810 96.0 172 
 RUS  HN ES       1855 13.88                             145    0.3210 96.0 172 
 RUS  HZ I        1855 14.56         4.7 0.28            146           96.0 172 
 PTB  HZ EP   1   1854 57.76                             134   -0.35 7  140 260 
 PTB  HN ES       1855 18.44                             134   -0.24 9  140 260 
 PTB  HZ I        1855 20.63         5.7 0.16            134            140 260 
                                                                                
