 2011  715 1305 27.3 L   6.750 -73.100140.0  RSN  6 0.3 1.8LRSN                1
 GAP=145        0.64       2.9     5.8  5.9 -0.4482E+01  0.1224E+01 -0.1400E+01E
 Epicentro: LOS SANTOS - SANTANDER                                             3
 ACTION:UPD 12-07-25 14:00 OP:epov STATUS:               ID:20110715130527 L   I
 2011-07-15-1304-15S.COL___132                                                 6
 STAT SP IPHASW D HRMM SECON CODA AMPLIT PERI AZIMU VELO AIN AR TRES W  DIS CAZ7
 BAR2 SZ EP       13 5 46.16                             172   -0.0510 19.7 208 
 BAR2 SZ ES   1   13 6  0.78                             172   -0.15 7 19.7 208 
 BAR2 SZ I        13 6  2.47        11.6 0.22                          19.7 208 
 BRR  HZ EP       13 5 48.02                             149   -0.2910 78.3 300 
 BRR  HZ I        13 5 48.36        24.5 0.11                          78.3 300 
 BRR  HN ES   1   13 6  5.04                             149    0.39 7 78.3 300 
 PAM  SZ EP   1   13 5 49.34                             149    0.31 7 78.7  34 
 PAM  SN ES   1   13 6  5.93                             149   -0.02 7 78.7  34 
 RUS  HZ EP   1   13 5 50.55                             144    0.43 7 94.9 179 
 RUS  HN ES       13 6  7.77                             144   -0.1110 94.9 179 
 RUS  HZ I        13 6  9.84         3.8 0.34                          94.9 179 
 BRI  SZ EP   1   13 5 50.81                             139   -0.16 7  112  17 
 BRI  SZ ES   1   13 6  9.82                             139    0.42 7  112  17 
 BRI  SZ I        13 6 11.01        10.6 0.26                           112  17 
 GRA  SZ ES   1   13 6 11.51                             135   -0.46 7  130  15 
 GRA  SZ I        13 6 12.62        11.3 0.34                           130  15 
                                                                                
