 2014  215 1157 30.2 L   6.788 -73.156145.2  RSN 17 0.4 2.3LRSN                1
 GAP= 71        0.77       2.6     2.8  5.8 -0.7878E+00  0.5594E+01  0.1950E+01E
 Epicentro: LOS SANTOS - SANTANDER                                             3
 ACTION:UPD 14-03-10 08:10 OP:ep   STATUS:               ID:20140215115730 L   I
 OLDACT:REG 14-02-15 16:32 OP:mh   STATUS:               ID:20140215115648     3
 2014-02-15-1156-48M.COL___215                                                 6
 STAT SP IPHASW D HRMM SECON CODA AMPLIT PERI AZIMU VELO AIN AR TRES W  DIS CAZ7
 BAR2 SZ EP       1157 49.80                             171    0.0910 21.9 188 
 BAR2 SZ ES   1   1158  5.52                             171    0.58 7 21.9 188 
 BAR2 SZ I        1158  6.68       104.3 0.23            165           21.9 188 
 PAM  SZ EP     D 1157 52.78                             150    0.3510 79.1  40 
 PAM  SZ I        1158 12.74        19.8 0.33            136           79.1  40 
 RUS  HZ EP     C 1157 53.54                             144   -0.2410 99.4 175 
 RUS  HZ I        1158 13.76        33.3 0.26            133           99.4 175 
 PTB  HZ EP   1   1157 56.35                             132   -0.62 7  146 259 
 PTB  HN ES   1   1158 17.51                             132   -0.37 7  146 259 
 PTB  HZ I        1158 20.02        23.3 0.42            126            146 259 
 TAM  HZ IP     D 1157 58.00                             130    0.13 9  156 104 
 TAM  HZ I        1158 18.96        14.4 0.37            116            156 104 
 TAM  HN ES       1158 19.27                             130   -0.21 9  156 104 
 SPBC HZ EP   1   1157 58.56                             129    0.09 7  161 219 
 SPBC HZ I        1158 27.53        41.1 0.31            121            161 219 
 OCA  HZ EP   1   1157 59.19                             129    0.64 7  161 354 
 OCA  HN ES   1   1158 20.29                             129   -0.39 7  161 354 
 OCA  HZ I        1158 25.88        15.1 0.20            119            161 354 
 NOR  HZ EP   1   1158  5.47                             119   -0.22 6  233 235 
 NOR  HZ I        1158 40.47        26.7 0.17            111            233 235 
 SML  HZ EP   1   1158  6.71                             117   -0.14 6  244 336 
 SML  HN ES   1   1158 34.92                             117   -0.53 6  244 336 
 SML  HZ I        1158 38.98        15.4 0.14            108            244 336 
 CHI  HZ EP   1   1158  7.62                             117   -0.05 6  247 195 
 CHI  HN ES       1158 36.48                             117   -0.44 8  247 195 
 CHI  HZ I        1158 40.11         7.1 0.23            108            247 195 
 HEL  HZ EP   1   1158  9.59                             115   -0.62 6  271 256 
 HEL  HN ES   1   1158 41.85                             115    0.42 6  271 256 
 URE  HZ EP   4   1158 10.59                             113   -0.57 0  283 292 
 URE  HN ES   4   1158 42.31                             113   -0.81 0  283 292 
 GUY2CHZ EP   1   1158 14.04                             112    0.47 5  300 235 
 GUY2CHN ES   1   1158 47.47                             112    0.05 5  300 235 
 GUY2CHZ I        1158 56.04        16.2 0.32                           300 235 
 CBOC HZ EP   1   1158 17.82                             110    0.92 5  332 252 
 CBOC HN ES   4   1158 51.29                             110   -2.05 0  332 252 
 CBOC HZ I        1159  5.63         5.3 0.30            103            332 252 
 DBB  SZ EP       1158 17.47                             109   -0.04 7  338 274 
 PRA  HZ EP   1   1158 22.90                             106   -0.58 4  390 210 
 PRA  HN ES       1159  4.90                             106   -0.16 6  390 210 
 PRA  HZ I        1159 11.42         7.6 0.34             99            390 210 
 ORTC HZ EP       1158 24.34                             106    0.46 6  394 216 
 ORTC HN ES   1   1159  6.75                             106    0.99 4  394 216 
 ORTC HZ I        1159 12.50         5.3 0.25             99            394 216 
 SJC  HZ EP   4   1158 24.48                             106   -1.30 0  410 327 
 SJC  HN ES   4   1159  4.03                             106   -5.11 0  410 327 
 SJC  HZ I        1159 10.40         3.4 0.37             98            410 327 
                                                                                
