 2011  315 1334 28.0 L   6.796 -73.137149.5  RSN  8 0.4 1.9LRSN                1
 GAP=160        0.56       3.6     6.4  5.1 -0.1073E+02  0.6689E+01 -0.1393E+01E
 Epicentro: LOS SANTOS - SANTANDER                                             3
 ACTION:UP  11-06-16 14:33 OP:jfem STATUS:               ID:20110315133427 L   I
 2011-03-15-1331-45S.COL___138                                                 6
 STAT SP IPHASW D HRMM SECON CODA AMPLIT PERI AZIMU VELO SNR AR TRES W  DIS CAZ7
 BTL  SZ EP   1   1334 48.24                             172     0.3 7   20 313 
 BTL  SZ ES   1   1335  3.69                             172     0.1 7   20 313 
 BAR2 SZ EP   1   1334 48.08                             171     0.0 7   23 193 
 BAR2 SZ ES   1   1335  3.77                             171     0.1 7   23 193 
 BAR2 SZ I        1335  4.93        20.6 0.27                            23 193 
 RUS  HZ EP   1   1334 51.98                             145    -0.1 7  100 177 
 RUS  HN ES   1   1335 10.67                             145    -0.2 7  100 177 
 RUS  HZ I        1335 11.98         4.0 0.21                           100 177 
 GRA  SZ EP   1   1334 53.58                             138     0.0 7  126  17 
 GRA  SZ I        1335 15.88        11.9 0.26                           126  17 
 OCA  SZ EP   2   1334 56.06                             130    -0.6 5  161 353 
 OCA  SZ ES   3   1335 19.41                             130     0.4 2  161 353 
 OCA  SZ I        1335 22.94        15.0 0.49                           161 353 
 NOR  SN ES   1   1335 31.70                             119    -0.4 6  235 235 
 CHI  HZ EP   3   1335  5.02                             118    -0.8 2  248 195 
 CHI  HE ES   2   1335 35.05                             118    -0.4 4  248 195 
 PRA  HZ EP   3   1335 23.15                             107     1.5 1  392 210 
 PRA  HE ES   1   1336  4.31                             107     0.8 4  392 210 
                                                                                
