 2013  215 1431  8.1 L   6.741 -73.157143.6  RSN  5 0.2 2.0LRSN                1
 GAP=153        0.49       3.5     3.7  4.9 -0.2275E+01 -0.1984E+01  0.7452E+01E
 Epicentro: JORDAN - SANTANDER                                                 3
 ACTION:UPD 13-03-12 09:33 OP:ep   STATUS:               ID:20130215143108 L   I
 2013-02-15-1430-00M.COL___238                                                 6
 STAT SP IPHASW D HRMM SECON CODA AMPLIT PERI AZIMU VELO AIN AR TRES W  DIS CAZ7
 BAR2 SZ EP   1   1431 27.55                             173    0.18 7 16.7 190 
 BAR2 SZ ES   1   1431 42.41                             173    0.02 7 16.7 190 
 BAR2 SZ I        1431 50.32        13.0 0.40            168           16.7 190 
 BRR  HZ EP   1   1431 29.33                             151    0.16 7 73.5 303 
 BRR  HN ES       1431 45.77                             151    0.1910 73.5 303 
 BRR  HN I        1431 49.52        28.8 0.18            157           73.5 303 
 PAM  SZ EP   1   1431 30.49                             149    0.03 7 83.2  37 
 PAM  SN ES   2   1431 47.18                             149   -0.71 5 83.2  37 
 PAM  SN I        1431 48.60        15.0 0.74            159           83.2  37 
 PTB  HZ EP   1   1431 34.46                             132   -0.24 7  145 261 
 PTB  HN ES   1   1431 55.14                             132   -0.29 7  145 261 
 PTB  HN I        1432  0.38        17.2 0.36            137            145 261 
 CHI  HZ EP   1   1431 45.10                             117    0.12 6  242 195 
 CHI  HN ES   1   1432 13.69                             117   -0.04 6  242 195 
 CHI  HN I        1432 17.69         6.7 0.28            122            242 195 
                                                                                
