 2013  715 1650 25.1 L   6.768 -73.162150.2  RSN  5 0.4 1.9LRSN                1
 GAP=192        0.97       7.8     8.3  7.7  0.3989E+01  0.8269E+01 -0.1524E+02E
 Epicentro: LOS SANTOS - SANTANDER                                             3
 ACTION:UPD 13-08-12 10:38 OP:ep   STATUS:               ID:20130715165025 L   I
 OLDACT:UP  13-07-15 17:05 OP:cam  STATUS:               ID:20130715164959     3
 OLDACT:REG 13-07-15 16:06 OP:cam  STATUS:               ID:20130715164959     3
 2013-07-15-1649-59M.COL___266                                                 6
 STAT SP IPHASW D HRMM SECON CODA AMPLIT PERI AZIMU VELO AIN AR TRES W  DIS CAZ7
 BAR2 SZ EP   1   1650 45.18                             173   -0.05 7 19.6 186 
 BAR2 SZ ES       1651  0.31                             173   -0.6010 19.6 186 
 BAR2 SZ I        1651  1.77        14.5 0.16            167           19.6 186 
 GIR2 SZ EP       1650 45.56                             166    0.1310 34.5 354 
 GIR2 SZ ES   1   1651  1.21                             166   -0.05 7 34.5 354 
 BRR  HZ EP       1650 47.17                             153    0.3910 71.4 302 
 BRR  HN ES       1651  4.37                             153    0.7110 71.4 302 
 BRR  HZ I        1651  8.21        15.7 0.24            148           71.4 302 
 PTB  HZ EP   1   1650 52.15                             133   -0.10 7  145 260 
 PTB  HN ES   1   1651 12.89                             133   -0.51 7  145 260 
 PTB  HZ I        1651 19.88        10.0 0.42            130            145 260 
 SML  HZ EP   1   1651  1.98                             118   -0.30 6  246 336 
 SML  HN ES   1   1651 30.76                             118   -0.49 6  246 336 
 SML  HZ I        1651 32.15         8.7 0.30            119            246 336 
                                                                                
