 2015  715 1033  0.2 L   6.994 -73.173132.3  RSN  8 0.4 1.9LRSN                1
 GAP=182        0.84       2.8     5.1  7.7  0.1804E+01  0.1336E+02 -0.1228E+01E
 Epicentro: GIRON - SANTANDER                                                  3
 ACTION:UPD 15-09-08 21:49 OP:cam  STATUS:               ID:20150715103300 L   I
 OLDACT:REG 15-07-15 20:08 OP:spq  STATUS:               ID:20150715102750     3
 2015-07-15-1027-50M.COL___337                                                 6
 STAT SP IPHASW D HRMM SECON CODA AMPLIT PERI AZIMU VELO AIN AR TRES W  DIS CAZ7
 BAR2 EZ EP       1033 18.98                             160    0.0610 44.4 181 
 BAR2 EZ ES   1   1033 33.73                             160    0.24 7 44.4 181 
 BAR2 EZ I        1033 35.90        24.0 0.20            161           44.4 181 
 RUS  HZ EP       1033 24.15                             135   -0.3110  122 175 
 RUS  HE ES   1   1033 43.13                             135   -0.22 7  122 175 
 RUS  HZ I        1033 44.34         3.8 0.24            138            122 175 
 OCA  HZ EP       1033 25.87                             131    0.40 9  139 353 
 OCA  HN ES       1033 45.24                             131    0.09 9  139 353 
 OCA  HZ I        1033 47.89        19.6 0.18            133            139 353 
 ZAR  HZ EP   1   1033 31.51                             121    0.72 6  194 287 
 ZAR  HE ES       1033 54.21                             121   -0.41 9  194 287 
 ZAR  HZ I        1033 58.79         8.9 0.30            122            194 287 
 SML  HZ EP       1033 33.17                             117   -0.71 8  223 334 
 SML  HN ES       1034  0.14                             117    0.03 8  223 334 
 SML  HZ I        1034  4.17        12.0 0.10            119            223 334 
 GUY2CHZ EP   1   1033 45.13                             109    0.66 5  312 231 
 GUY2CHE ES   1   1034 18.71                             109   -0.26 5  312 231 
 GUY2CHZ I        1034 29.47         3.2 0.44                           312 231 
 TOL  SN ES   1   1034 28.70                             106    0.64 5  357 222 
 TOL  SZ I        1034 36.18         2.0 0.20            108            357 222 
 SJC  HZ EP   4   1033 51.63                             104   -1.45 0  390 326 
 SJC  HN ES   4   1034 30.24                             104   -4.05 0  390 326 
 SJC  HZ I        1034 33.18         2.3 0.36            106            390 326 
                                                                                
