 2012  115 1021 36.1 L   6.794 -73.104145.5  RSN 18 0.3 2.9LRSN                1
 GAP=142        0.55       2.1     3.0  3.6 -0.1061E+01  0.2159E+01  0.1242E+01E
 Epicentro: LOS SANTOS - SANTANDER                                             3
 ACTION:UP  12-02-03 08:17 OP:REBC STATUS:               ID:20120115102136 L   I
 2012-01-15-1020-00M.COL___187                                                 6
 STAT SP IPHASW D HRMM SECON CODA AMPLIT PERI AZIMU VELO SNR AR TRES W  DIS CAZ7
 BAR2 SZ IP       1021 55.69                             170     0.010   24 201 
 BAR2 SZ ES   2   1022 10.69                             170    -0.3 5   24 201 
 BAR2 SZ I        1022 13.29       172.3 0.38                            24 201 
 GIR2 SZ EP       1021 55.69                             167    -0.110   33 343 
 GIR2 SZ ES   2   1022 11.44                             167     0.3 5   33 343 
 PAM  SZ IP       1021 58.42                             152     0.210   75  36 
 PAM  SE ES   2   1022 14.92                             152    -0.5 5   75  36 
 BRR  HZ IP     D 1021 57.44                             151    -0.110   76 297 
 BRR  HZ I        1021 57.63       278.2 0.14                            76 297 
 BRR  HE ES   1   1022 14.53                             151     0.4 7   76 297 
 RUS  HZ EP       1021 59.72                             144    -0.110  100 179 
 RUS  HN ES   1   1022 18.46                             144     0.2 7  100 179 
 RUS  HZ I        1022 19.85        99.5 0.24                           100 179 
 PTB  HE ES   2   1022 24.50                             131    -0.3 5  152 259 
 OCA  SZ EP       1022  4.49                             129     0.0 9  162 352 
 OCA  SZ ES   2   1022 26.75                             129     0.1 5  162 352 
 OCA  SZ I        1022 31.23       103.3 0.30                           162 352 
 ZAR  HZ EP   2   1022  8.37                             122    -0.6 4  209 292 
 ZAR  HE ES   2   1022 34.47                             122    -0.2 4  209 292 
 ZAR  HZ I        1022 39.61       111.1 0.34                           209 292 
 NOR  SZ EP   1   1022 11.78                             118    -0.4 6  238 235 
 NOR  SN ES   2   1022 39.69                             118    -0.6 4  238 235 
 CHI  HZ EP   1   1022 13.96                             117     0.1 6  249 196 
 CHI  HN ES   2   1022 42.92                             117    -0.4 4  249 196 
 CHI  HZ I        1022 49.65        28.2 0.34                           249 196 
 ROSC BZ EP   2   1022 15.09                             116     0.7 4  255 212 
 ROSC BZ I        1022 50.64        69.7 0.46                           255 212 
 HEL  HZ EP   2   1022 16.52                             114    -0.3 4  276 256 
 HEL  HE ES   2   1022 49.01                             114     0.5 4  276 256 
 HEL  HZ I        1022 54.15        32.0 0.41                           276 256 
 VIL  SZ EP   1   1022 19.75                             112     0.2 5  304 192 
 VIL  SE ES   2   1022 53.47                             112     0.0 4  304 192 
 VIL  SZ I        1022 59.13        31.2 0.69                           304 192 
 GUY  SZ EP   2   1022 20.64                             112     0.3 4  307 236 
 GUY  SE ES   2   1022 55.23                             112     0.4 4  307 236 
 GUY  SZ I        1023  1.87        38.0 0.49                           307 236 
 RREF HZ EP   2   1022 22.76                             111     0.2 3  325 230 
 RREF HN ES   2   1022 58.50                             111    -0.3 3  325 230 
 RREF HZ I        1023  8.41        28.7 0.29                           325 230 
 DBB  SZ EP   1   1022 25.00                             109     0.9 5  344 274 
 COD  HZ EP   2   1022 24.26                             109    -0.4 3  349 354 
 COD  HE ES   2   1023  2.14                             109    -0.3 3  349 354 
 PRA  HZ EP       1022 29.75                             106    -0.1 6  394 210 
 PRA  HN ES   2   1023 11.47                             106    -0.2 3  394 210 
                                                                                
