 2014  915 1517 27.1 L   6.786 -73.117150.3  RSN 26 0.4 2.7LRSN                1
 GAP= 73        0.93       2.4     2.5  4.3 -0.3831E+00  0.2625E+01  0.1741E+01E
 Epicentro: LOS SANTOS - SANTANDER                                             3
 ACTION:UPD 14-10-03 23:05 OP:nd   STATUS:               ID:20140915151727 L   I
 OLDACT:UP  14-09-16 01:35 OP:spq  STATUS:               ID:20140915150819d    3
 OLDACT:UP  14-09-16 01:00 OP:spq  STATUS:               ID:20140915150819d    3
 OLDACT:DUP 14-09-16 00:52 OP:spq  STATUS:               ID:20140915150819d    3
 2014-09-15-1508-18M.COL___287                                                 6
 STAT SP IPHASW D HRMM SECON CODA AMPLIT PERI AZIMU VELO AIN AR TRES W  DIS CAZ7
 BAR2 SZ IP     C 1517 47.03                             171   -0.2410 22.6 199 
 BAR2 SZ ES   1   1518  2.35                             171   -0.65 7 22.6 199 
 BAR2 SZ I        1518  3.75       141.6 0.24            170           22.6 199 
 BRR  HZ EP       1517 48.96                             152    0.0210 74.7 298 
 BRR  HE ES       1518  6.21                             152    0.2310 74.7 298 
 BRR  HZ I        1518 11.22        57.1 0.16            151           74.7 298 
 PAM  SZ EP       1517 49.92                             152    0.1610 76.6  37 
 PAM  SE ES       1518  7.25                             152   -0.1910 76.6  37 
 PAM  SZ I        1518  9.22       125.2 0.58            154           76.6  37 
 RUS  HZ EP       1517 50.93                             145   -0.2610 98.9 178 
 RUS  HE ES       1518  9.95                             145   -0.0210 98.9 178 
 RUS  HZ I        1518 12.55        47.0 0.42            146           98.9 178 
 PTB  HZ EP       1517 53.70                             132   -1.00 9  151 260 
 PTB  HE ES       1518 16.43                             132    0.21 9  151 260 
 PTB  HZ I        1518 22.58        60.7 0.46            132            151 260 
 TAM  HZ IP     D 1517 55.20                             132    0.37 9  152 105 
 TAM  HN ES       1518 16.93                             132    0.47 9  152 105 
 TAM  HZ I        1518 23.54        19.7 0.42            135            152 105 
 OCA  HE ES       1518 18.78                             130    0.33 9  162 352 
 OCA  HZ I        1518 22.83        51.2 0.28            131            162 352 
 SPBC HZ EP       1517 55.81                             130   -0.22 9  164 220 
 SPBC HE ES       1518 19.22                             130    0.62 9  164 220 
 SPBC HZ I        1518 23.10       102.6 0.16            130            164 220 
 ZAR  HZ EP   1   1517 59.62                             123   -0.59 6  208 292 
 ZAR  HE ES       1518 25.71                             123   -0.32 8  208 292 
 ZAR  HZ I        1518 31.55        46.4 0.48            123            208 292 
 NOR  HZ EP       1518  3.13                             119   -0.15 8  236 235 
 NOR  HE ES       1518 31.72                             119    0.22 8  236 235 
 NOR  HZ I        1518 33.69        34.2 0.44            119            236 235 
 SML  HZ EP       1518  3.87                             118   -0.41 8  246 335 
 SML  HN ES   1   1518 33.54                             118    0.26 6  246 335 
 SML  HZ I        1518 36.70        66.2 0.10            119            246 335 
 CHI  HZ EP       1518  5.21                             118    0.22 8  248 196 
 CHI  HN ES       1518 34.19                             118   -0.35 8  248 196 
 CHI  HZ I        1518 38.52        20.6 0.38            119            248 196 
 ROSC BZ EP   4   1518  7.37                             118    1.86 0  253 212 
 ROSC BN ES   4   1518 38.75                             118    3.28 0  253 212 
 ROSC BZ I        1518 41.40        44.4 0.35            118            253 212 
 HEL  HZ EP       1518  8.72                             115    0.87 8  275 256 
 HEL  HE ES       1518 39.83                             115    0.20 8  275 256 
 HEL  HZ I        1518 45.51        24.4 0.48            116            275 256 
 VIL  SN ES   1   1518 43.90                             113   -0.69 5  303 192 
 VIL  SZ I        1518 50.33        31.9 0.50            114            303 192 
 GUY2CHZ EP       1518 11.16                             113    0.04 7  303 235 
 GUY2CHE ES   4   1518 50.08                             113    4.63 0  303 235 
 GUY2CHZ I        1518 53.73        37.8 0.76                           303 235 
 CBOC HZ EP       1518 14.59                             111    0.09 7  336 253 
 CBOC HN ES       1518 52.23                             111    0.76 7  336 253 
 CBOC HZ I        1518 57.54        11.2 0.40            111            336 253 
 DBB  SZ EP   1   1518 16.10                             110    0.96 5  343 274 
 DBB  SZ ES   1   1518 51.73                             110   -0.88 5  343 274 
 TOL  SZ EP       1518 15.76                             110    0.08 7  345 225 
 TOL  SN ES   4   1518 55.78                             110    2.21 0  345 225 
 TOL  SZ I        1518 59.25        55.5 0.40            110            345 225 
 MON  HZ EP   4   1518 14.14                             109   -2.54 0  357 308 
 MON  HE ES   4   1518 53.50                             109   -1.85 0  357 308 
 MON  HZ I        1519  9.68         8.8 0.50            110            357 308 
 ANIL HN ES   4   1518 59.10                             109    2.79 0  358 225 
 ANIL HZ I        1519  0.69         6.5 0.26            110            358 225 
 SDV  BZ EP   1   1518 16.75                             109   -0.40 5  359  50 
 SDV  BE ES   4   1518 54.73                             109   -1.46 0  359  50 
 SDV  BZ I        1518 55.63        10.3 0.40            110            359  50 
 ARGC HN ES   4   1518 57.89                             109    1.57 0  362 340 
 ARGC HZ I        1519  6.59        20.1 0.40            109            362 340 
 PRA  HZ EP       1518 20.83                             107    0.02 6  392 210 
 PRA  HE ES   4   1519  3.97                             107    1.26 0  392 210 
 PRA  HZ I        1519  8.48        22.0 0.27            108            392 210 
 ORTC HZ EP       1518 21.03                             107   -0.23 6  396 217 
 ORTC HE ES   4   1519  6.17                             107    2.67 0  396 217 
 ORTC HZ I        1519 11.76        17.4 0.22            108            396 217 
 SJC  HZ EP   4   1518 20.95                             106   -2.22 0  412 327 
 SJC  HN ES   4   1519  2.66                             106   -4.24 0  412 327 
 SJC  HZ I        1519  7.63        10.4 0.26            107            412 327 
                                                                                
