 2014  615 1106 30.8 L   7.312 -73.374109.9  RSN  5 0.4 1.3LRSN                1
 GAP=162        0.92       3.2     4.7 10.9 -0.1571E+01  0.1647E+02 -0.4671E-01E
 Epicentro: SABANA DE TORRES - SANTANDER                                       3
 ACTION:UPD 14-07-01 22:54 OP:nd   STATUS:               ID:20140615110630 L   I
 OLDACT:REG 14-06-15 20:13 OP:spq  STATUS:               ID:20140615105818     3
 2014-06-15-1058-18M.COL___253                                                 6
 STAT SP IPHASW D HRMM SECON CODA AMPLIT PERI AZIMU VELO AIN AR TRES W  DIS CAZ7
 BAR2 SZ EP       11 6 49.83                             140    0.4210 82.4 165 
 BAR2 SZ ES   1   11 7  3.62                             140   -0.29 7 82.4 165 
 BAR2 SZ I        11 7  5.44         3.5 0.18            146           82.4 165 
 OCA  HZ EP       11 6 51.18                             134    0.1910  103   3 
 OCA  HN ES       11 7  6.64                             134   -0.0710  103   3 
 OCA  HZ I        11 7  9.19         5.4 0.30            137            103   3 
 PTB  HZ EP       11 6 54.24                             122   -0.83 9  147 235 
 PTB  HE ES       11 7 14.12                             122    0.15 9  147 235 
 PTB  HZ I        11 7 15.72         2.5 0.14            126            147 235 
 ZAR  HZ EP       11 6 57.25                             119    0.29 9  165 277 
 ZAR  HN ES       11 7 17.55                             119    0.22 9  165 277 
 ZAR  HZ I        11 7 20.42         2.9 0.12            122            165 277 
 SML  HN ES       11 7 20.26                             116   -0.25 9  182 335 
 SML  HZ I        11 7 24.67         4.2 0.10            120            182 335 
                                                                                
