 2014  115 1111 59.8 L   6.816 -73.154139.8  RSN  6 0.2 1.5LRSN                1
 GAP=182        0.52       1.7     3.7  4.9  0.9940E+00  0.1753E+01 -0.5423E+00E
 Epicentro: LOS SANTOS - SANTANDER                                             3
 ACTION:UPD 14-03-13 09:55 OP:ep   STATUS:               ID:20140115111159 L   I
 OLDACT:DUP 14-01-15 16:13 OP:carl STATUS:               ID:20140115111002d    3
 2014-01-15-1110-00M.COL___285                                                 6
 STAT SP IPHASW D HRMM SECON CODA AMPLIT PERI AZIMU VELO AIN AR TRES W  DIS CAZ7
 RUS  HZ EP       1112 23.04                             142   -0.0210  102 176 
 RUS  HN ES       1112 41.09                             142   -0.1510  102 176 
 RUS  HZ I        1112 42.37         2.4 0.44            142            102 176 
 PTB  HZ EP       1112 26.09                             131   -0.10 9  147 258 
 PTB  HN ES       1112 46.91                             131    0.10 9  147 258 
 PTB  HZ I        1112 48.78         4.7 0.38            130            147 258 
 OCA  HN ES       1112 49.34                             129    0.32 9  158 353 
 SML  HZ EP       1112 36.02                             116    0.18 8  242 335 
 SML  HN ES       1113  3.50                             116   -0.48 8  242 335 
 SML  HZ I        1113  8.62         6.6 0.22            116            242 335 
 CHI  HZ EP       1112 37.20                             116   -0.09 8  250 195 
 CHI  HN ES       1113  6.73                             116    0.17 8  250 195 
 CHI  HZ I        1113 12.02         1.3 0.38            116            250 195 
 GUY2CHZ EP   1   1112 43.27                             111    0.15 5  301 234 
 GUY2CHE ES   4   1113 20.74                             111    3.79 0  301 234 
 GUY2CHZ I        1113 26.29         2.3 0.30                           301 234 
                                                                                
