 2015 1115 1324 52.6 L   6.791 -73.168144.0  RSN 11 0.3 2.1LRSN                1
 GAP=134        0.81       2.2     3.6  4.9 -0.3715E+00  0.7498E+01  0.1979E+01E
 Epicentro: LOS SANTOS - SANTANDER                                             3
 ACTION:UPD 15-12-28 16:11 OP:cam  STATUS:               ID:20151115132452 L   I
 OLDACT:REG 15-11-15 20:28 OP:cara STATUS:               ID:20151115131750     3
 2015-11-15-1317-50M.COL___322                                                 6
 STAT SP IPHASW D HRMM SECON CODA AMPLIT PERI AZIMU VELO AIN AR TRES W  DIS CAZ7
 BAR2 EZ EP       1325 12.00                             171    0.0310 22.1 184 
 BAR2 EZ ES       1325 27.02                             171   -0.0810 22.1 184 
 BAR2 EZ I        1325 28.77        29.5 0.36            170           22.1 184 
 BRR  HZ EP       1325 13.89                             153    0.4410 69.5 300 
 BRR  HE ES       1325 29.82                             153    0.1010 69.5 300 
 BRR  HZ I        1325 34.95        22.7 0.12            151           69.5 300 
 PAM  EZ EP       1325 15.22                             150    0.4710 79.7  40 
 PAM  EN ES       1325 32.00                             150   -0.0410 79.7  40 
 PAM  EZ I        1325 34.50        18.9 0.64            155           79.7  40 
 RUS  HZ EP       1325 15.66                             144   -0.4410 99.8 175 
 RUS  HE ES       1325 34.41                             144   -0.0410 99.8 175 
 RUS  HZ I        1325 36.13        10.4 0.34            146           99.8 175 
 OCA  HN ES       1325 42.41                             129   -0.44 9  161 354 
 ZAR  HZ EP       1325 25.39                             122    0.67 9  202 293 
 ZAR  HN ES       1325 49.67                             122   -0.11 9  202 293 
 ZAR  HZ I        1325 55.79         9.9 0.42            123            202 293 
 NOR  HZ EP       1325 28.06                             118    0.12 8  232 234 
 NOR  HE ES       1325 55.93                             118    0.42 8  232 234 
 NOR  HZ I        1326  1.55        12.9 0.44            120            232 234 
 SML  HE ES       1325 57.07                             117   -0.51 8  244 336 
 CHI  HN ES       1325 59.22                             117    0.01 8  247 195 
 GUY2CHZ EP       1325 35.65                             112   -0.17 7  299 235 
 GUY2CHE ES       1326  9.10                             112   -0.44 7  299 235 
 GUY2CHZ I        1326 18.85         8.2 0.32                           299 235 
 PRA  HZ EP       1325 45.31                             106   -0.49 6  390 209 
 PRA  HN ES       1326 27.16                             106   -0.15 6  390 209 
 PRA  HZ I        1326 35.05         6.5 0.28            108            390 209 
                                                                                
