 2013  215 2203 41.1 L   6.748 -73.110138.2  RSN  4 0.3 1.4LRSN                1
 GAP=143        0.66       4.5     5.4  7.2  0.1734E+01  0.2928E+01  0.6108E+01E
 Epicentro: LOS SANTOS - SANTANDER                                             3
 ACTION:UPD 13-03-12 09:33 OP:ep   STATUS:               ID:20130215220341 L   I
 2013-02-15-2200-00M.COL___238                                                 6
 STAT SP IPHASW D HRMM SECON CODA AMPLIT PERI AZIMU VELO AIN AR TRES W  DIS CAZ7
 BRR  HZ EP       22 4  2.03                             149    0.2110 77.4 301 
 BRR  HZ I        22 4  8.79        11.4 0.39             47           77.4 301 
 BRR  HN ES       22 4 18.07                             149    0.1010 77.4 301 
 PAM  SZ EP   1   22 4  3.05                             149    0.39 7 79.6  35 
 PAM  SZ I        22 4  3.26         3.4 0.07             47           79.6  35 
 PAM  SN ES   1   22 4 19.05                             149   -0.42 7 79.6  35 
 RUS  HZ EP   1   22 4  3.57                             144   -0.11 7 94.7 178 
 RUS  HE ES   1   22 4 21.36                             144    0.07 7 94.7 178 
 RUS  HE I        22 4 23.28         5.3 0.22             47           94.7 178 
 PTB  HZ EP   1   22 4  7.18                             130   -0.55 7  151 261 
 PTB  HZ I        22 4 30.64         2.0 0.08             47            151 261 
                                                                                
