 2011 1115 2220 32.8 L   6.758 -73.092148.3  RSN 10 0.3 2.7LRSN                1
 GAP=120        0.53       2.1     3.5  4.0 -0.2450E+01  0.2938E+01  0.1865E+01E
 Epicentro: LOS SANTOS - SANTANDER                                             3
 ACTION:UPD 12-07-13 16:10 OP:ep   STATUS:               ID:20111115222032 L   I
 2011-11-15-2217-49S.COL___179                                                 6
 STAT SP IPHASW D HRMM SECON CODA AMPLIT PERI AZIMU VELO AIN AR TRES W  DIS CAZ7
 BAR2 SZ EP       2220 52.64                             172   -0.0110 20.8 209 
 BAR2 SZ ES   2   2221  7.90                             172   -0.27 5 20.8 209 
 BAR2 SZ I        2221 10.75       109.6 0.40                          20.8 209 
 PAM  SZ EP       2220 55.50                             151    0.2410 77.6  34 
 PAM  SN ES   1   2221 12.59                             151   -0.22 7 77.6  34 
 BRR  HZ EP       2220 54.58                             151   -0.0410 78.6 299 
 BRR  HN ES   1   2221 12.08                             151    0.42 7 78.6 299 
 BRR  HZ I        2221 17.86        85.5 0.08                          78.6 299 
 RUS  HZ EP   1   2220 56.47                             146    0.05 7 95.7 179 
 RUS  HE ES   1   2221 14.88                             146    0.00 7 95.7 179 
 RUS  HZ I        2221 16.88        45.5 0.33                          95.7 179 
 OCA  SZ EP       2221  1.45                             129   -0.33 9  166 351 
 OCA  SZ ES   1   2221 24.45                             129    0.04 7  166 351 
 OCA  SZ I        2221 29.81        76.8 0.41                           166 351 
 YOP  SZ EP   2   2221  2.67                             128    0.34 4  172 154 
 NOR  SZ EP       2221  8.69                             119   -0.18 8  237 236 
 NOR  SN ES   1   2221 36.48                             119   -0.56 6  237 236 
 CHI  HZ EP       2221 10.49                             118    0.20 8  246 197 
 CHI  HE ES   1   2221 39.34                             118   -0.23 6  246 197 
 CHI  HZ I        2221 45.93        22.6 0.32                           246 197 
 RREF HZ EP   1   2221 19.60                             111    0.41 5  323 231 
 RREF HN ES   1   2221 56.00                             111    0.60 5  323 231 
 RREF HZ I        2222  2.33        38.7 0.26                           323 231 
 PRA  HZ EP   1   2221 25.87                             107   -0.38 4  391 211 
 PRA  HE ES   1   2222  8.03                             107    0.07 4  391 211 
                                                                                
