 2014 1215 2248 48.3 L   6.797 -73.165147.2  RSN  6 0.3 1.7LRSN                1
 GAP=134        0.72       3.1     3.3  5.3  0.3314E+00  0.6056E+01 -0.4785E+01E
 Epicentro: LOS SANTOS - SANTANDER                                             3
 ACTION:UPD 15-02-10 17:04 OP:nd   STATUS:               ID:20141215224848 L   I
 OLDACT:UP  14-12-16 07:17 OP:cam  STATUS:               ID:20141215224817     3
 OLDACT:REG 14-12-16 02:29 OP:cam  STATUS:               ID:20141215224817     3
 2014-12-15-2248-17M.COL___285                                                 6
 STAT SP IPHASW D HRMM SECON CODA AMPLIT PERI AZIMU VELO AIN AR TRES W  DIS CAZ7
 BAR2 EZ EP       2249  8.24                             171    0.1510 22.7 185 
 BAR2 EZ ES       2249 23.50                             171   -0.0210 22.7 185 
 BAR2 EZ I        2249 31.47         7.9 0.32            173           22.7 185 
 PAM  SZ EP       2249 10.92                             150    0.1510 79.0  41 
 PAM  SN ES       2249 28.36                             150    0.0710 79.0  41 
 PAM  SZ I        2249 32.49         4.7 0.40            155           79.0  41 
 RUS  HZ EP       2249 12.20                             144    0.0210  100 175 
 RUS  HN ES       2249 30.63                             144   -0.1710  100 175 
 RUS  HZ I        2249 31.59         5.8 0.44            151            100 175 
 PTB  HZ EP       2249 14.71                             133   -0.48 9  146 259 
 PTB  HN ES       2249 36.24                             133    0.08 9  146 259 
 PTB  HZ I        2249 42.30         5.7 0.44            137            146 259 
 ZAR  HZ EP       2249 21.37                             123    0.72 9  202 292 
 ZAR  HE ES       2249 45.94                             123    0.06 9  202 292 
 SML  HZ EP       2249 24.60                             118   -0.35 8  243 336 
 SML  HN ES       2249 53.20                             118   -0.32 8  243 336 
 SML  HZ I        2249 56.12        11.3 0.28            122            243 336 
                                                                                
