 2010 1215 2331 55.9 L   6.777 -73.147144.8  RSN  6 0.1 2.0LRSN                1
 GAP=159        0.34       1.7     4.5  3.5 -0.2390E+01  0.3246E+01 -0.1709E+01E
 Epicentro: LOS SANTOS - SANTANDER                                             3
 ACTION:UP  11-01-14 15:25 OP:pat  STATUS:               ID:20101215233155 L   I
 2010-12-15-2320-00M.COL___131                                                 6
 STAT SP IPHASW D HRMM SECON CODA AMPLIT PERI AZIMU VELO SNR AR TRES W  DIS CAZ7
 BAR2 SZ IP       2332 15.44                             171     0.110   21 191 
 BAR2 SZ ES   1   2332 30.60                             171     0.1 7   21 191 
 BAR2 SZ I        2332 31.98        42.7 0.15                            21 191 
 RUS  HZ EP   1   2332 19.34                             144     0.0 7   98 176 
 RUS  HE ES   1   2332 37.54                             144    -0.1 7   98 176 
 RUS  HZ I        2332 39.34        18.2 0.41                            98 176 
 GRA  SZ IP       2332 21.24                             136     0.010  128  17 
 GRA  SZ I        2332 41.90         8.8 0.24                           128  17 
 OCA  SZ EP   1   2332 24.51                             129     0.2 7  163 353 
 OCA  SZ ES   1   2332 46.41                             129    -0.1 7  163 353 
 OCA  SZ I        2332 52.71        10.7 0.25                           163 353 
 NOR  SZ EP   2   2332 31.13                             118    -0.3 4  233 235 
 NOR  SN ES   2   2332 59.18                             118     0.1 4  233 235 
 CHI  HZ EP   2   2332 33.09                             117    -0.2 4  246 195 
 CHI  HZ I        2332 34.16         3.4 0.12                           246 195 
 CHI  HE ES   2   2333  2.64                             117     0.2 4  246 195 
                                                                                
