 2012  815 2040 39.5 L   6.321 -73.583115.8  RSN  8 0.3 1.7LRSN                1
 GAP=109        0.68       3.7     3.2  6.6 -0.8164E+00  0.1007E+02 -0.1290E+00E
 Epicentro: SANTA HELENA DEL OPON - SANTANDER                                  3
 ACTION:UPD 12-09-10 11:56 OP:ep   STATUS:               ID:20120815204039 L   I
 2012-08-15-2040-00M.COL___217                                                 6
 STAT SP IPHASW D HRMM SECON CODA AMPLIT PERI AZIMU VELO AIN AR TRES W  DIS CAZ7
 BAR2 SZ IP       2040 57.00                             154    0.2110 53.5  56 
 BAR2 SZ ES   1   2041 10.05                             154   -0.20 7 53.5  56 
 RUS  HZ EP   1   2040 58.27                             146   -0.07 7 72.8 131 
 RUS  HN ES   1   2041 13.07                             146    0.05 7 72.8 131 
 RUS  HZ I        2041 14.13         8.5 0.15                          72.8 131 
 BRR  HZ EP   1   2040 58.66                             140   -0.11 7 88.1 351 
 BRR  HZ I        2040 58.83        17.7 0.15                          88.1 351 
 GIR2 SZ EP   1   2040 59.67                             138    0.21 7 94.2  27 
 GIR2 SZ ES   1   2041 15.09                             138    0.09 7 94.2  27 
 PTB  HZ EP   1   2040 58.73                             136   -1.01 7 99.6 284 
 PTB  HE ES   1   2041 15.60                             136    0.10 7 99.6 284 
 PTB  HZ I        2041 16.77        10.2 0.16                          99.6 284 
 NOR  SZ EP   1   2041  6.37                             121    0.28 7  165 240 
 NOR  SN ES   1   2041 26.88                             121    0.07 7  165 240 
 ZAR  HZ EP   1   2041  8.59                             117   -0.24 7  191 313 
 ZAR  HE ES   1   2041 32.01                             117    0.32 7  191 313 
 HEL  HZ EP   1   2041 12.32                             114    0.33 6  216 266 
 HEL  HZ I        2041 41.95         6.6 0.36                           216 266 
                                                                                
