 2014  315 2203 22.9 L   6.741 -73.149138.7  RSN  5 0.5 1.4LRSN                1
 GAP=139        1.39       7.1     7.0 10.3 -0.4865E+01  0.1142E+02  0.1539E+01E
 Epicentro: JORDAN - SANTANDER                                                 3
 ACTION:UPD 14-04-09 23:17 OP:nd   STATUS:               ID:20140315220322 L   I
 OLDACT:REG 14-03-16 01:01 OP:stll STATUS:               ID:20140315215806     3
 2014-03-15-2158-06M.COL___254                                                 6
 STAT SP IPHASW D HRMM SECON CODA AMPLIT PERI AZIMU VELO AIN AR TRES W  DIS CAZ7
 BAR2 SZ ES       22 3 55.83                             173   -0.3110 16.9 193 
 BAR2 SZ I        22 3 57.40        11.0 0.26            172           16.9 193 
 BRR  HZ EP       22 3 44.59                             150    1.0910 74.2 303 
 BRR  HN ES       22 3 60.00                             150    0.4610 74.2 303 
 PAM  SZ EP       22 3 44.56                             148   -0.1710 82.7  37 
 PAM  SN ES       22 4  1.33                             148   -0.4110 82.7  37 
 PAM  SZ I        22 4  3.44         4.2 0.50            150           82.7  37 
 RUS  HZ EP       22 3 45.63                             144    0.1210 94.1 176 
 RUS  HN ES       22 4  3.41                             144    0.2810 94.1 176 
 RUS  HZ I        22 4  5.87         2.7 0.16            144           94.1 176 
 PTB  HZ EP       22 3 48.41                             131   -0.78 9  146 261 
 PTB  HN ES       22 4  9.24                             131   -0.43 9  146 261 
 PTB  HZ I        22 4 11.41         3.6 0.30            132            146 261 
                                                                                
