 2012  815 2052 15.4 L   6.737 -73.177152.3  RSN  5 0.3 1.6LRSN                1
 GAP=176        0.57       5.1     5.2  5.7  0.8214E+01  0.2587E+01  0.9936E+00E
 Epicentro: VILLANUEVA - SANTANDER                                             3
 ACTION:UPD 12-09-10 11:56 OP:ep   STATUS:               ID:20120815205215 L   I
 2012-08-15-2050-00M.COL___217                                                 6
 STAT SP IPHASW D HRMM SECON CODA AMPLIT PERI AZIMU VELO AIN AR TRES W  DIS CAZ7
 BAR2 SZ EP   1   2052 35.58                             174   -0.09 7 16.0 182 
 BAR2 SZ ES   1   2052 51.45                             174   -0.05 7 16.0 182 
 GIR2 SZ EP   1   2052 35.89                             165   -0.12 7 37.9 357 
 GIR2 SZ ES   2   2052 51.41                             165   -0.70 5 37.9 357 
 BRR  HZ EP   1   2052 37.65                             153    0.37 7 71.9 305 
 BRR  HZ I        2052 38.04        16.8 0.12                          71.9 305 
 BRR  HN ES   1   2052 54.79                             153    0.43 7 71.9 305 
 RUS  HZ EP   1   2052 39.39                             147    0.07 7 93.9 174 
 RUS  HN ES   1   2052 58.15                             147    0.15 7 93.9 174 
 RUS  HZ I        2052 59.02         2.9 0.21                          93.9 174 
 PTB  HZ EP   1   2052 42.27                             134   -0.21 7  143 261 
 PTB  HN ES   1   2053  3.33                             134   -0.29 7  143 261 
 PTB  HZ I        2053  8.12         3.5 0.37                           143 261 
                                                                                
