 2011 1115 2344 20.2 L   6.782 -73.100139.7  RSN  5 0.1 1.8LRSN                1
 GAP=143        0.39       2.5     3.0  3.7  0.1660E+01 -0.3802E+00  0.1025E+01E
 Epicentro: LOS SANTOS - SANTANDER                                             3
 ACTION:UPD 12-07-13 16:10 OP:ep   STATUS:               ID:20111115234420 L   I
 2011-11-15-2339-07S.COL___179                                                 6
 STAT SP IPHASW D HRMM SECON CODA AMPLIT PERI AZIMU VELO AIN AR TRES W  DIS CAZ7
 BAR2 SZ EP       2344 38.97                             170   -0.1010 22.9 203 
 BAR2 SZ ES   1   2344 53.63                             170   -0.18 7 22.9 203 
 BAR2 SZ I        2344 55.09         8.4 0.21                          22.9 203 
 PAM  SZ EP   1   2344 41.94                             150    0.28 7 75.9  36 
 PAM  SN ES   1   2344 58.31                             150   -0.11 7 75.9  36 
 BRR  HZ EP       2344 40.93                             150   -0.0710 76.6 298 
 BRR  HN ES       2344 57.37                             150    0.1310 76.6 298 
 BRR  HN I        2344 58.24        25.6 0.17                          76.6 298 
 RUS  HZ EP       2344 43.15                             143   -0.0310 98.4 179 
 RUS  HE ES   1   2345  1.29                             143    0.17 7 98.4 179 
 ZAR  HN ES   2   2345 18.10                             120   -0.15 4  209 292 
 ZAR  HZ I        2345 22.42         3.8 0.12                           209 292 
                                                                                
