 2010  515 2234 54.7 L   5.884 -73.927 78.0  RSN  5 0.4 1.3LRSN                1
 GAP=281        0.65       7.2    22.0 29.8  0.6987E+01  0.5897E+03 -0.3405E+02E
 Epicentro: LA BELLEZA - SANTANDER                                             3
 ACTION:UP  10-08-24 10:05 OP:vdl  STATUS:               ID:20100515223454 L   I
 2010-05-15-2230-20S.COL___108                                                 6
 STAT SP IPHASW D HRMM SECON CODA AMPLIT PERI AZIMU VELO AIN AR TRES W  DIS CAZ7
 RUS  HZ EP       2235 11.83                             127    -0.110   93  89 
 RUS  HZ I        2235 12.34         3.7 0.09                            93  89 
 RUS  HN ES   1   2235 25.64                             127     0.3 7   93  89 
 BAR2 SZ EP   2   2235 12.94                             120    -0.7 5  114  46 
 BAR2 SZ ES   2   2235 28.01                             120    -0.5 5  114  46 
 BRR  HZ EP   2   2235 16.58                             114     0.6 5  137  10 
 BRR  HZ I        2235 29.07         5.8 0.29                           137  10 
 BRI  SZ EP   2   2235 28.13                             103     0.1 4  238  32 
 GUE  SZ EP   2   2235 28.98                             103     0.2 4  242  27 
 GUE  SZ ES   2   2235 55.56                             103     0.3 4  242  27 
                                                                                
