 2017  715 2011  0.5 L   6.845 -73.168142.5  RSN  8 0.5 1.5LRSN                1
 GAP=131        0.98       4.3     4.1  6.6 -0.4461E+01  0.1121E+02  0.8649E+00E
 Epicentro: ZAPATOCA - SANTANDER                                               3
 ACTION:UPD 17-08-30 15:33 OP:rebc STATUS:               ID:20170715201100 L   I
 OLDACT:REG 17-07-16 02:44 OP:osc  STATUS:               ID:20170715200741     3
 2017-07-15-2008-00M.COL___386                                                 6
 STAT SP IPHASW D HRMM SECON CODA AMPLIT PERI AZIMU VELO AIN AR TRES W  DIS CAZ7
 BAR2 EZ EP       2011 19.63                             169   -0.2610 28.0 183 
 BAR2 EZ ES       2011 34.75                             169   -0.2310 28.0 183 
 BAR2 EZ I        2011 36.21        15.0 0.22            169           28.0 183 
 PAM  EZ EP       2011 22.62                             151    0.3310 75.3  43 
 PAM  EE ES       2011 39.57                             151    0.3210 75.3  43 
 PAM  EZ I        2011 40.77         2.2 0.40            154           75.3  43 
 RUS  HZ EP       2011 24.34                             142   -0.0210  106 175 
 RUS  HE ES       2011 42.50                             142   -0.4310  106 175 
 RUS  HZ I        2011 43.69         4.5 0.42            144            106 175 
 PTB  HZ EP       2011 26.85                             131   -0.27 9  146 257 
 PTB  HE ES       2011 47.90                             131    0.05 9  146 257 
 PTB  HZ I        2011 53.23         3.7 0.14            132            146 257 
 SPBC HZ EP       2011 29.01                             128   -0.01 9  166 217 
 SPBC HE ES       2011 51.17                             128   -0.06 9  166 217 
 SPBC HZ I        2011 53.53         9.7 0.22            129            166 217 
 ZAR  HZ EP   2   2011 29.89                             122   -2.46 4  200 291 
 ZAR  HE ES       2011 57.49                             122    0.33 9  200 291 
 NOR  HZ EP       2011 36.32                             117    0.14 8  236 233 
 NOR  HN ES       2012  4.24                             117    0.26 8  236 233 
 NOR  HZ I        2012  8.90         2.3 0.30            119            236 233 
 GUY2CHZ EP       2011 44.58                             111    0.48 7  302 234 
 GUY2CHE ES       2012 18.52                             111    0.45 7  302 234 
 GUY2CHZ I        2012 26.26         1.5 0.30                           302 234 
                                                                                
