 2012  115 2039  1.2 L   6.765 -73.159140.1  RSN  6 0.4 1.4LRSN                1
 GAP=136        0.72       5.8     6.4 11.4 -0.3469E+01 -0.1048E+02  0.7860E+01E
 Epicentro: LOS SANTOS - SANTANDER                                             3
 ACTION:UP  12-02-03 08:17 OP:REBC STATUS:               ID:20120115203901 L   I
 2012-01-15-2037-59S.COL___187                                                 6
 STAT SP IPHASW D HRMM SECON CODA AMPLIT PERI AZIMU VELO SNR AR TRES W  DIS CAZ7
 BAR2 SZ EP   2   2039 20.24                             172     0.2 5   19 188 
 BAR2 SZ I        2039 20.84         7.8 0.36                            19 188 
 GIR2 SZ EP   2   2039 20.24                             165    -0.1 5   35 354 
 BRR  HZ EP       2039 22.04                             151     0.210   72 302 
 BRR  HE ES   2   2039 38.54                             151     0.7 5   72 302 
 BRR  HZ I        2039 45.77         7.1 0.40                            72 302 
 PAM  SZ EP       2039 22.98                             148    -0.110   81  39 
 PAM  SN ES   2   2039 39.64                             148    -0.5 5   81  39 
 RUS  HZ EP       2039 24.14                             144     0.010   97 175 
 RUS  HZ I        2039 24.74         2.5 0.28                            97 175 
 RUS  HN ES   2   2039 42.14                             144     0.1 5   97 175 
 PTB  HZ EP   3   2039 27.02                             131    -0.5 2  146 260 
 PTB  HN ES   2   2039 47.08                             131    -1.0 5  146 260 
 PTB  HZ I        2039 50.94         3.2 0.10                           146 260 
                                                                                
