 2015 1015 2243  9.5 L   6.794 -73.141151.3  RSN 22 0.3 2.6LRSN                1
 GAP= 72        0.81       2.2     2.3  4.0 -0.3782E+00  0.2256E+01  0.3468E+00E
 Epicentro: LOS SANTOS - SANTANDER                                             3
 ACTION:UPD 15-12-22 20:40 OP:cam  STATUS:               ID:20151015224309 L   I
 OLDACT:UP  15-11-01 03:29 OP:DRIO STATUS:               ID:20151015224309 L   3
 OLDACT:REG 15-10-16 03:48 OP:spq  STATUS:               ID:20151015223748     3
 2015-10-15-2237-48M.COL___339                                                 6
 STAT SP IPHASW D HRMM SECON CODA AMPLIT PERI AZIMU VELO AIN AR TRES W  DIS CAZ7
 BAR2 EZ EP     D 2243 29.54                             171   -0.2210 22.8 191 
 BAR2 EZ ES   1   2243 45.50                             171   -0.07 7 22.8 191 
 BAR2 EZ I        2243 46.42        72.6 0.44            169           22.8 191 
 BRR  HZ EP     C 2243 31.48                             153    0.2210 71.9 299 
 BRR  HE ES       2243 49.04                             153    0.7910 71.9 299 
 BRR  HZ I        2243 51.18        50.0 0.16            152           71.9 299 
 PAM  EZ EP     D 2243 32.34                             152    0.0510 77.6  39 
 PAM  EE ES       2243 49.76                             152   -0.3210 77.6  39 
 PAM  EZ I        2243 51.80        73.8 0.54            155           77.6  39 
 RUS  HZ EP     D 2243 33.36                             145   -0.3610 99.9 176 
 RUS  HN ES       2243 52.34                             145   -0.3010 99.9 176 
 RUS  HZ I        2243 54.05        35.9 0.43            146           99.9 176 
 TAM  HZ EP     D 2243 37.67                             132    0.13 9  154 105 
 TAM  HE ES       2243 59.76                             132    0.34 9  154 105 
 TAM  HZ I        2244  0.26        15.7 0.24            135            154 105 
 OCA  HZ EP   1   2243 38.77                             131    0.49 7  161 353 
 OCA  HE ES       2244  0.40                             131   -0.35 9  161 353 
 OCA  HZ I        2244  5.50       125.4 0.34            132            161 353 
 SPBC HZ EP       2243 38.41                             130    0.03 9  163 219 
 SPBC HE ES       2244  1.14                             130    0.21 9  163 219 
 SPBC HZ I        2244  7.69        92.0 0.24            130            163 219 
 ZAR  HZ EP       2243 42.16                             123   -0.19 9  205 292 
 ZAR  HE ES       2244  7.78                             123   -0.22 9  205 292 
 ZAR  HZ I        2244 14.11        60.9 0.40            124            205 292 
 NOR  HZ EP     D 2243 45.69                             120    0.16 8  235 235 
 NOR  HN ES       2244 13.17                             120   -0.49 8  235 235 
 NOR  HZ I        2244 15.87        33.3 0.28            120            235 235 
 SML  HZ EP       2243 46.47                             118   -0.03 8  244 335 
 SML  HN ES   1   2244 15.57                             118    0.19 6  244 335 
 SML  HZ I        2244 19.32        56.0 0.10            120            244 335 
 CHI  HZ EP       2243 47.46                             118    0.03 8  248 195 
 CHI  HN ES       2244 17.12                             118    0.08 8  248 195 
 CHI  HZ I        2244 20.97        18.3 0.38            119            248 195 
 ROSC BZ EP   4   2243 49.45                             118    1.58 0  252 211 
 ROSC BE ES   4   2244 19.96                             118    2.15 0  252 211 
 ROSC BZ I        2244 22.90        40.1 0.40            118            252 211 
 HEL  HZ EP       2243 50.89                             116    0.88 8  272 256 
 HEL  HE ES       2244 21.21                             116   -0.41 8  272 256 
 HEL  HZ I        2244 28.30        23.4 0.32            116            272 256 
 URE  HN ES   4   2244 20.41                             115   -2.79 0  285 292 
 URE  HZ I        2244 26.24        26.3 0.12            115            285 292 
 GUY2CHZ EP       2243 53.62                             113    0.27 7  301 235 
 GUY2CHN ES   4   2244 28.99                             113    1.43 0  301 235 
 GUY2CHZ I        2244 36.60        26.3 0.38                           301 235 
 PTGC HZ EP   4   2243 52.32                             113   -1.18 0  308 159 
 PTGC HE ES   4   2244 26.10                             113   -1.73 0  308 159 
 PTGC HZ I        2244 29.02        17.6 0.30            114            308 159 
 ELA  HE ES   4   2244 34.90                             111    1.62 0  329 230 
 ELA  HZ I        2244 41.33        17.3 0.44            112            329 230 
 DBB  SZ EP       2243 57.13                             110   -0.11 7  340 274 
 DBB  SZ ES   1   2244 34.06                             110   -0.44 5  340 274 
 MON  HZ EP   4   2243 56.94                             109   -1.85 0  354 308 
 MON  HN ES   4   2244 35.03                             109   -2.22 0  354 308 
 MON  HZ I        2244 38.18        11.6 0.34            110            354 308 
 SDV  BZ EP       2243 59.20                             109   -0.53 6  360  50 
 SDV  BE ES   4   2244 36.60                             109   -2.33 0  360  50 
 SDV  BZ I        2244 38.15         7.9 0.35            111            360  50 
 ORTC HN ES   4   2244 46.97                             107    1.22 0  395 216 
 ORTC HZ I        2244 51.33        11.2 0.47            108            395 216 
 SJC  HZ EP   4   2244  3.63                             106   -1.69 0  410 327 
 SJC  HN ES   4   2244 45.11                             106   -3.76 0  410 327 
 SJC  HZ I        2244 49.49         7.9 0.66            107            410 327 
                                                                                
