 2010  615 2006 52.3 L   6.796 -73.244151.5  RSN  4 0.1 1.4LRSN                1
 GAP=207        0.30       2.9    20.5  4.9 -0.3431E+02  0.3029E+02 -0.5490E+01E
 Epicentro: ZAPATOCA - SANTANDER                                               3
 ACTION:UP  10-08-24 10:10 OP:vdl  STATUS:               ID:20100615200652 L   I
 2010-06-15-2001-56S.COL___114                                                 6
 STAT SP IPHASW D HRMM SECON CODA AMPLIT PERI AZIMU VELO SNR AR TRES W  DIS CAZ7
 BAR2 SZ EP   1   20 7 12.62                             171     0.0 7   24 164 
 BAR2 SZ ES   2   20 7 28.47                             171     0.0 5   24 164 
 RUS  HZ EP   1   20 7 16.58                             145    -0.1 7  102 170 
 RUS  HE ES   1   20 7 35.72                             145     0.0 7  102 170 
 RUS  HZ I        20 7 36.56         3.6 0.33                           102 170 
 BRI  SZ EP   2   20 7 17.16                             141     0.1 5  113  26 
 GUE  SZ EP   2   20 7 17.88                             140     0.1 5  120  17 
 GUE  SZ ES   2   20 7 37.54                             140    -0.1 5  120  17 
                                                                                
