 2016  815 2231 40.5 L   6.779 -73.086146.4  RSN 12 0.3 2.3LRSN                1
 GAP=145        0.74       2.6     2.9  3.9 -0.1263E+01  0.3518E+01  0.1392E+01E
 Epicentro: LOS SANTOS - SANTANDER                                             3
 ACTION:UPD 16-10-29 15:35 OP:rebc STATUS:               ID:20160815223140 L   I
 OLDACT:REG 16-08-16 04:39 OP:cara STATUS:               ID:20160815222759     3
 2016-08-15-2227-59S.COL___349                                                 6
 STAT SP IPHASW D HRMM SECON CODA AMPLIT PERI AZIMU VELO AIN AR TRES W  DIS CAZ7
 BAR2 EZ IP     C 2231 59.99                             171   -0.1710 23.2 207 
 BAR2 HN ES       2232 15.19                             171   -0.3410 23.2 207 
 BAR2 EZ I        2232 18.59        29.0 0.40                          23.2 207 
 PAM  EZ EP       2232  2.94                             151    0.3310 75.3  35 
 PAM  HE ES       2232 19.95                             151    0.0510 75.3  35 
 PAM  EZ I        2232 20.35        26.6 0.32                          75.3  35 
 BRR  HZ IP     C 2232  1.86                             150   -0.2210 78.1 298 
 BRR  HE ES       2232 19.53                             150    0.5910 78.1 298 
 BRR  HZ I        2232 22.42        23.5 0.12                          78.1 298 
 RUS  HZ EP       2232  3.96                             144   -0.1310 98.0 180 
 RUS  HN ES       2232 22.55                             144    0.0310 98.0 180 
 RUS  HZ I        2232 23.50        21.3 0.34                          98.0 180 
 PTB  HZ EP   9   2232  6.69                             131   -1.34 0  154 260 
 PTB  HN ES       2232 27.61                                   -0.59 9  154 260 
 PTB  HZ I        2232 31.21        22.4 0.14                           154 260 
 SPBC HZ IP       2232  9.21                             129   -0.03 9  166 221 
 SPBC HN ES       2232 31.50                             129   -0.19 9  166 221 
 SPBC HZ I        2232 33.58        49.9 0.12                           166 221 
 ZAR  HZ EP       2232 13.41                             121   -0.25 8  211 292 
 ZAR  HN ES       2232 38.97                             121   -0.60 8  211 292 
 ZAR  HZ I        2232 44.69        30.6 0.44                           211 292 
 NOR  HZ IP       2232 16.75                             118    0.09 8  239 236 
 NOR  HN ES       2232 44.82                             118   -0.08 8  239 236 
 NOR  HZ I        2232 50.76        14.1 0.18                           239 236 
 CHI  HZ EP   4   2232 19.45                             117    1.31 0  248 197 
 CHI  HN ES       2232 47.46                             117   -0.08 8  248 197 
 CHI  HZ I        2232 51.07         6.0 0.54                           248 197 
 HEL  HZ EP       2232 21.53                             114    0.18 7  278 257 
 HEL  HN ES       2232 53.53                             114    0.29 7  278 257 
 HEL  HZ I        2232 58.94        10.5 0.34                           278 257 
 GUY2CHZ EP       2232 24.72                             112    0.16 7  305 236 
 GUY2CHN ES       2232 59.37                             112    0.42 7  305 236 
 GUY2CHZ I        2233  5.27        10.7 0.28                           305 236 
 ELA  HZ EP       2232 28.02                             110    0.28 7  333 231 
 ELA  HN ES   4   2233  6.72                             110    2.10 0  333 231 
 ELA  HZ I        2233 12.45         8.3 0.56                           333 231 
                                                                                
