 2010  415 2337 54.0 L   7.418 -73.057121.3  RSN  8 0.4 2.7LRSN                1
 GAP=130        0.72       4.0     5.5  6.0 -0.1032E+02 -0.8834E+01  0.2690E+01E
 Epicentro: SURATA - SANTANDER                                                 3
 ACTION:UPD 10-08-24 09:59 OP:vdl  STATUS:               ID:20100415233746 L   I
 2010-04-15-2336-31S.COL___100                                                 6
 STAT SP IPHASW D HRMM SECON CODA AMPLIT PERI AZIMU VELO AIN AR TRES W  DIS CAZ7
 BRR  HZ IP     D 2338 12.96                             144    -0.210   80 245 
 BRR  HN ES   1   2338 28.04                             144     0.0 7   80 245 
 BRR  HZ I        2338 29.69        84.0 0.11                            80 245 
 BAR2 SZ EP       2338 14.19                             140    -0.210   92 189 
 BAR2 SZ ES   1   2338 30.60                             140     0.3 7   92 189 
 OCA  SZ EP       2338 14.58                             139     0.110   95 342 
 OCA  SZ ES   2   2338 30.34                             139    -0.2 5   95 342 
 OCA  SZ I        2338 32.91       142.6 0.47                            95 342 
 HEL  HZ EP   2   2338 36.67                             107    -0.2 4  305 244 
 HEL  HZ I        2339 15.98        12.0 0.43                           305 244 
 SDV  BZ EP       2338 37.91                             106     0.4 7  313  59 
 SDV  BE ES   2   2339 10.90                             106    -0.6 3  313  59 
 SDV  BZ I        2339 15.86        21.5 0.11                           313  59 
 RREF BZ EP       2338 45.93                             103     0.3 6  376 222 
 RREF BE ES   2   2339 25.80                             103    -0.1 3  376 222 
 RREF BZ I        2339 35.19        19.2 0.38                           376 222 
 TOL  SZ EP       2338 48.91                             101     0.7 6  401 219 
 TOL  SZ ES   3   2339 30.59                             101     0.1 1  401 219 
 PRA  HZ EP       2338 53.49                              99    -1.0 5  457 206 
 PRA  HE ES   2   2339 41.76                              99     0.0 2  457 206 
 PRA  HZ I        2339 52.40        11.3 0.36                           457 206 
                                                                                
