 2010 1115 2239 34.3 L   6.779 -73.087147.8  RSN 13 0.3 2.5LRSN                1
 GAP=165        0.61       2.6     4.5  4.0 -0.3297E+01 -0.1299E+01  0.2000E+01E
 Epicentro: LOS SANTOS - SANTANDER                                             3
 ACTION:UP  10-12-17 16:52 OP:REBC STATUS:               ID:20101115223934 L   I
 2010-11-15-2238-49S.COL___129                                                 6
 STAT SP IPHASW D HRMM SECON CODA AMPLIT PERI AZIMU VELO SNR AR TRES W  DIS CAZ7
 BAR2 SZ EP       2239 54.16                             171     0.010   23 207 
 BAR2 SZ ES   1   2240  9.60                             171    -0.1 7   23 207 
 BAR2 SZ I        2240 10.46       107.1 0.30                            23 207 
 BTL  SZ EP       2239 54.56                             170     0.310   25 308 
 BTL  SZ ES   1   2240  9.96                             170     0.2 7   25 308 
 GIR2 SZ EP   2   2239 54.47                             166     0.1 5   35 340 
 GIR2 SZ ES   2   2240  9.70                             166    -0.3 5   35 340 
 BRR  HZ IP     D 2239 56.22                             151     0.110   78 298 
 BRR  HE ES       2240 13.25                             151     0.210   78 298 
 BRR  HZ I        2240 14.58       112.0 0.10                            78 298 
 RUS  HZ EP       2239 58.25                             145     0.110   98 180 
 RUS  HN ES   2   2240 16.30                             145    -0.3 5   98 180 
 RUS  HZ I        2240 18.66        34.6 0.41                            98 180 
 GUE  SZ EP   2   2239 59.01                             140    -0.3 5  118   9 
 GRA  SZ EP       2239 59.92                             137     0.110  126  14 
 GRA  SZ ES   2   2240 19.22                             137    -0.4 5  126  14 
 GRA  SZ I        2240 20.79        37.1 0.40                           126  14 
 OCA  SZ EP   1   2240  2.65                             130    -0.4 7  163 351 
 OCA  SZ ES   1   2240 25.19                             130    -0.3 7  163 351 
 OCA  SZ I        2240 28.21        47.6 0.27                           163 351 
 NOR  SZ EP   1   2240 10.23                             118    -0.4 6  239 236 
 NOR  SN ES   2   2240 38.38                             118    -0.6 4  239 236 
 CHI  HZ EP   2   2240 12.12                             118     0.0 4  248 197 
 CHI  HN ES   2   2240 40.74                             118    -0.8 4  248 197 
 CHI  HZ I        2240 47.45        11.5 0.35                           248 197 
 ROSC BZ EP   2   2240 13.09                             117     0.4 4  254 213 
 ROSC BE ES   2   2240 42.96                             117     0.3 4  254 213 
 ROSC BZ I        2240 49.67        16.4 0.42                           254 213 
 HEL  HZ EP   2   2240 16.10                             115     0.8 4  278 257 
 HEL  HN ES   2   2240 46.78                             115    -0.4 4  278 257 
 HEL  HZ I        2240 52.83        17.4 0.66                           278 257 
 PRA  HN ES   2   2241  9.81                             107    -0.2 3  393 211 
                                                                                
