 2013  415 2334  0.1 L   6.810 -73.138144.2  RSN  6 0.5 1.4LRSN                1
 GAP=137        1.17       6.1     6.4  8.9 -0.5987E+01  0.5579E+01  0.1169E+02E
 Epicentro: LOS SANTOS - SANTANDER                                             3
 ACTION:UPD 13-05-22 14:38 OP:EP   STATUS:               ID:20130415233400 L   I
 2013-04-15-2328-47M.COL___208                                                 6
 STAT SP IPHASW D HRMM SECON CODA AMPLIT PERI AZIMU VELO AIN AR TRES W  DIS CAZ7
 GIR2 SZ EP       2334 19.45                             167   -0.1110 30.4 348 
 GIR2 SZ ES       2334 34.67                             167   -0.0710 30.4 348 
 GIR2 SZ I        2334 36.80         3.9 0.24            169           30.4 348 
 BRR  HZ IP     C 2334 21.18                             152    0.0910 71.4 297 
 BRR  HE ES       2334 38.11                             152    0.6410 71.4 297 
 BRR  HZ I        2334 39.67         9.0 0.42            154           71.4 297 
 PAM  SZ EP       2334 22.29                             151    0.2210 76.0  40 
 PAM  SN ES   1   2334 38.80                             151   -0.40 7 76.0  40 
 PAM  SZ I        2334 40.26         7.9 0.20            154           76.0  40 
 RUS  HZ EP       2334 24.40                             143    0.6310  102 177 
 RUS  HN ES       2334 41.83                             143   -0.4010  102 177 
 RUS  HZ I        2334 44.39         2.0 0.46            145            102 177 
 PTB  HZ EP       2334 26.19                             131   -0.84 9  149 258 
 PTB  HE ES   1   2334 47.45                             131   -0.59 7  149 258 
 PTB  HZ I        2334 49.74         3.9 0.18            133            149 258 
 NOR  HE ES   1   2335  4.44                             118    0.66 6  236 234 
                                                                                
