 2017  215 2158 30.1 L   5.909 -73.761112.1  RSN  7 0.3 2.0LRSN                1
 GAP=138        0.74       2.4     3.5  7.9  0.9211E+00 -0.8918E+01 -0.3463E+01E
 Epicentro: SUCRE - SANTANDER                                                  3
 ACTION:UPD 17-05-24 15:36 OP:jn   STATUS:               ID:20170215215830 L   I
 OLDACT:UP  17-02-17 15:52 OP:nlst STATUS:               ID:20170215215830 L   3
 OLDACT:UP  17-02-16 03:48 OP:ar   STATUS:               ID:20170215214747     3
 OLDACT:REG 17-02-16 02:47 OP:ar   STATUS:               ID:20170215214747     3
 2017-02-15-2148-00M.COL___358                                                 6
 STAT SP IPHASW D HRMM SECON CODA AMPLIT PERI AZIMU VELO AIN AR TRES W  DIS CAZ7
 BAR2 EZ EP       2158 50.41                             136    0.1410 99.0  40 
 BAR2 EZ ES   2   2159  6.18                             136    0.21 5 99.0  40 
 BAR2 EZ I        2159  7.48        21.7 0.44            138           99.0  40 
 PTB  HZ EP       2158 49.84                             134   -0.5410  104 312 
 PTB  HN ES       2159  6.16                             134   -0.0110  104 312 
 PTB  HZ I        2159  6.54        12.0 0.12            138            104 312 
 NOR  HZ EP       2158 53.07                             127    0.3410  129 253 
 NOR  HN ES       2159 10.77                             127    0.4210  129 253 
 NOR  HZ I        2159 12.34        31.9 0.12            133            129 253 
 BRR  HZ EP       2158 53.00                             126   -0.0510  133   2 
 BRR  HN ES   4   2159 12.69                             126    1.77 0  133   2 
 BRR  HZ I        2159 18.03        21.5 0.32            129            133   2 
 CHI  HZ EP       2158 54.57                             124    0.08 9  142 179 
 CHI  HE ES       2159 13.09                             124   -0.40 9  142 179 
 PAM  EZ EP   1   2159  0.88                             115    0.41 6  197  37 
 ZAR  HZ EP       2159  1.61                             113   -0.03 8  213 325 
 ZAR  HN ES       2159 25.97                             113   -0.24 8  213 325 
 ZAR  HZ I        2159 27.49         8.3 0.26            116            213 325 
                                                                                
