 2015  415 2021  4.1 L   6.074 -73.685116.0  RSN 12 0.5 2.1LRSN                1
 GAP=101        1.19       3.5     3.8  7.6 -0.5288E+01  0.1200E+02 -0.7694E+01E
 Epicentro: CHIPATA - SANTANDER                                                3
 ACTION:UPD 15-06-03 16:55 OP:cam  STATUS:               ID:20150415202104 L   I
 OLDACT:UP  15-04-16 06:12 OP:mh   STATUS:               ID:20150415201750     3
 OLDACT:REG 15-04-16 05:06 OP:mh   STATUS:               ID:20150415201750     3
 2015-04-15-2017-50M.COL___272                                                 6
 STAT SP IPHASW D HRMM SECON CODA AMPLIT PERI AZIMU VELO AIN AR TRES W  DIS CAZ7
 SPBC HZ EP       2021 21.11                             149   -0.6010 63.4 223 
 SPBC HN ES       2021 35.25                             149   -0.2210 63.4 223 
 SPBC HZ I        2021 36.51        31.6 0.16            155           63.4 223 
 RUS  HZ EP   1   2021 22.82                             147    0.14 7 69.6 107 
 RUS  HN ES       2021 36.93                             147   -0.2710 69.6 107 
 RUS  HZ I        2021 40.50        18.4 0.54            152           69.6 107 
 BAR2 EZ EP   1   2021 23.67                             143    0.63 7 79.8  44 
 BAR2 EZ ES       2021 38.60                             143    0.7710 79.8  44 
 PTB  HZ EP       2021 23.46                             136   -0.8310 99.6 301 
 PTB  HN ES   1   2021 40.14                             136    0.08 7 99.6 301 
 PTB  HZ I        2021 41.26        17.4 0.10            136           99.6 301 
 BRR  HN ES       2021 42.82                             132    0.5210  114 359 
 BRR  HZ I        2021 56.26        13.5 0.24            132            114 359 
 NOR  HZ EP   1   2021 28.21                             125   -0.13 7  143 247 
 NOR  HN ES       2021 47.15                             125   -0.12 9  143 247 
 NOR  HZ I        2021 49.10        57.1 0.18            129            143 247 
 ROSC BN ES       2021 50.30                             123    0.30 9  154 207 
 PAM  SZ EP   1   2021 32.95                             119    0.47 7  177  38 
 PAM  SN ES       2021 53.72                             119   -0.92 9  177  38 
 PAM  SZ I        2021 57.18        10.8 0.18            121            177  38 
 ZAR  HZ EP       2021 34.68                             115   -0.02 9  203 320 
 ZAR  HN ES       2021 58.34                             115   -0.26 9  203 320 
 ZAR  HZ I        2022  0.33        14.8 0.30            116            203 320 
 HEL  HZ EP       2021 36.24                             115    0.97 9  204 274 
 HEL  HN ES       2021 59.72                             115    0.11 9  204 274 
 HEL  HZ I        2022  3.35        14.5 0.62            118            204 274 
 GUY2CHZ EP       2021 36.02                             115    0.17 8  208 243 
 GUY2CHN ES   1   2022  0.78                             115    0.14 6  208 243 
 GUY2CHZ I        2022  4.96        14.6 0.28                           208 243 
 SML  HZ EP   4   2021 44.74                             106   -1.53 0  305 352 
 SML  HN ES       2022 18.88                             106   -0.32 7  305 352 
 SML  HZ I        2022 34.11         5.7 0.30            107            305 352 
                                                                                
