 2016  315 2115  1.1 L   6.827 -73.160142.6  RSN 18 0.5 2.7LRSN                1
 GAP= 69        1.14       2.9     3.0  5.8 -0.1032E+01  0.6461E+01  0.1018E+01E
 Epicentro: LOS SANTOS - SANTANDER                                             3
 ACTION:UPD 16-05-13 21:24 OP:cam  STATUS:               ID:20160315211501 L   I
 OLDACT:UP  16-03-16 05:39 OP:ar   STATUS:               ID:20160315210749     3
 OLDACT:UP  16-03-16 05:38 OP:ar   STATUS:               ID:20160315210749     3
 OLDACT:REG 16-03-16 04:56 OP:ar   STATUS:               ID:20160315210749     3
 2016-03-15-2107-49M.COL___298                                                 6
 STAT SP IPHASW D HRMM SECON CODA AMPLIT PERI AZIMU VELO AIN AR TRES W  DIS CAZ7
 BAR2 EZ EP     C 2115 20.22                             169   -0.2110 26.1 186 
 BAR2 EZ ES       2115 35.18                             169   -0.3210 26.1 186 
 PAM  EZ EP     D 2115 23.21                             151    0.2910 76.1  42 
 PAM  EN ES       2115 40.36                             151    0.4310 76.1  42 
 PAM  EZ I        2115 42.39        56.1 0.50            155           76.1  42 
 RUS  HZ EP       2115 24.24                             142   -0.5510  104 175 
 RUS  HN ES       2115 43.03                             142   -0.2310  104 175 
 RUS  HZ I        2115 43.99        43.6 0.22            145            104 175 
 PTB  HZ EP       2115 26.91                             131   -0.84 9  147 258 
 PTB  HN ES       2115 48.09                             131   -0.43 9  147 258 
 PTB  HZ I        2115 49.72        45.4 0.12            131            147 258 
 OCA  HZ EP       2115 28.96                             129    0.07 9  157 354 
 OCA  HN ES       2115 51.28                             129    0.73 9  157 354 
 OCA  HZ I        2115 55.55        85.2 0.34            131            157 354 
 TAM  HZ EP       2115 28.72                             129   -0.04 9  157 106 
 TAM  HE ES       2115 50.35                             129    0.02 9  157 106 
 SPBC HZ EP       2115 29.20                             128   -0.31 9  165 218 
 SPBC HN ES       2115 51.97                             128    0.31 9  165 218 
 SPBC HZ I        2115 57.36        84.3 0.24            129            165 218 
 ZAR  HZ EP       2115 32.67                             122   -0.43 9  202 292 
 ZAR  HE ES       2115 57.87                             122   -0.17 9  202 292 
 ZAR  HZ I        2116  8.47        52.0 0.48            122            202 292 
 NOR  HZ EP       2115 36.31                             118   -0.41 8  235 234 
 NOR  HN ES       2116  4.37                             118   -0.12 8  235 234 
 NOR  HZ I        2116 12.05        41.1 0.18            118            235 234 
 CHI  HZ EP       2115 38.36                             116   -0.56 8  251 195 
 CHI  HE ES       2116  8.30                             116   -0.10 8  251 195 
 CHI  HZ I        2116 11.01        20.1 0.36            118            251 195 
 ROSC BZ EP       2115 40.02                             116    0.75 8  255 210 
 ROSC BN ES       2116  9.56                             116    0.54 8  255 210 
 ROSC BZ I        2116 16.47        35.3 0.40            117            255 210 
 HEL  HZ EP   4   2115 42.32                             114    1.23 0  271 255 
 HEL  HN ES       2116 12.81                             114    0.54 8  271 255 
 HEL  HZ I        2116 19.81        23.2 0.42            115            271 255 
 URE  HZ EP       2115 40.92                             113   -0.83 7  281 291 
 URE  HN ES   4   2116 10.66                             113   -2.79 0  281 291 
 URE  HZ I        2116 24.66        27.4 1.68            114            281 291 
 SOCV BZ EP   4   2115 42.24                             111   -1.75 0  301  57 
 SOCV BN ES   4   2116 13.66                             111   -3.76 0  301  57 
 GUY2CHZ EP       2115 45.60                             112    0.96 7  302 234 
 GUY2CHN ES       2116 19.31                             112    0.73 7  302 234 
 GUY2CHZ I        2116 25.37        20.2 0.58                           302 234 
 VIL  SZ EP   4   2115 46.14                             111    1.45 0  306 191 
 VIL  SN ES       2116 19.61                             111    0.93 7  306 191 
 PTGC HZ EP   4   2115 43.48                             111   -1.74 0  312 159 
 PTGC HN ES   4   2116 16.84                             111   -2.77 0  312 159 
 PTGC HZ I        2116 22.49        32.8 0.30            113            312 159 
 CBOC HZ EP       2115 48.40                             109    0.56 7  333 252 
 CBOC HN ES       2116 23.74                             109   -0.55 7  333 252 
 CBOC HZ I        2116 41.14         9.2 0.54            110            333 252 
 DBB  SZ EP       2115 48.40                             109    0.13 7  338 274 
 DBB  SZ ES       2116 25.54                             109    0.50 7  338 274 
 DBB  SZ I        2116 27.80        51.9 0.72            110            338 274 
                                                                                
