 2011 1115 2053 43.2 L   6.763 -73.107146.4  RSN  6 0.2 2.0LRSN                1
 GAP=143        0.46       2.4     3.9  3.8 -0.2381E+01  0.2584E+01  0.2526E+01E
 Epicentro: LOS SANTOS - SANTANDER                                             3
 ACTION:UPD 12-07-13 16:10 OP:ep   STATUS:               ID:20111115205343 L   I
 2011-11-15-2040-00M.COL___181                                                 6
 STAT SP IPHASW D HRMM SECON CODA AMPLIT PERI AZIMU VELO AIN AR TRES W  DIS CAZ7
 BAR2 SZ EP       2054  2.73                             172   -0.1110 20.6 204 
 BAR2 SZ ES   1   2054 17.83                             172   -0.34 7 20.6 204 
 BAR2 SZ I        2054 20.92        36.7 0.33                          20.6 204 
 BRR  HZ EP       2054  4.73                             151   -0.0110 77.0 300 
 BRR  HE ES   1   2054 21.82                             151    0.27 7 77.0 300 
 PAM  SZ EP       2054  5.64                             151    0.1310 78.1  35 
 PAM  SE ES       2054 22.82                             151   -0.1110 78.1  35 
 RUS  HZ EP       2054  6.74                             145    0.0410 96.2 178 
 RUS  HE ES   1   2054 25.38                             145    0.35 7 96.2 178 
 RUS  HZ I        2054 26.79        10.5 0.28                          96.2 178 
 NOR  SZ EP   1   2054 18.89                             118   -0.19 6  236 236 
 CHI  HZ EP   1   2054 20.74                             117    0.12 6  246 196 
 CHI  HN ES   1   2054 49.61                             117   -0.20 6  246 196 
 CHI  HZ I        2054 53.83         6.8 0.53                           246 196 
                                                                                
