 2010 1115 2038 36.7 L   6.786 -73.091141.2  RSN  5 0.3 1.6LRSN                1
 GAP=165        0.46       3.9     7.3  7.8  0.3144E+01 -0.2493E+02 -0.3851E+01E
 Epicentro: LOS SANTOS - SANTANDER                                             3
 ACTION:UP  10-12-17 16:52 OP:REBC STATUS:               ID:20101115203836 L   I
 2010-11-15-2036-51S.COL___129                                                 6
 STAT SP IPHASW D HRMM SECON CODA AMPLIT PERI AZIMU VELO SNR AR TRES W  DIS CAZ7
 BAR2 SZ EP   2   2038 55.45                             170    -0.3 5   24 205 
 BAR2 SZ ES   2   2039 10.22                             170    -0.4 5   24 205 
 BAR2 SZ I        2039 11.96        11.1 0.13                            24 205 
 BRR  HZ EP   2   2038 57.71                             150     0.0 5   77 297 
 BRR  HN ES   1   2039 14.18                             150     0.1 7   77 297 
 BRR  HZ I        2039 16.68         9.3 0.21                            77 297 
 RUS  HZ EP   2   2038 59.77                             143    -0.1 5   99 180 
 RUS  HN ES   2   2039 18.41                             143     0.5 5   99 180 
 RUS  HZ I        2039 20.05         3.9 0.23                            99 180 
 GUE  SZ EP   3   2039  1.05                             138     0.0 2  117   9 
 GRA  SZ EP   2   2039  1.61                             136     0.1 5  126  15 
 GRA  SZ I        2039 11.00         4.7 0.42                           126  15 
 GRA  SZ ES   2   2039 20.98                             136     0.1 5  126  15 
                                                                                
