 2016  415 2103 43.1 L   6.847 -73.178143.7  RSN 20 0.6 2.6LRSN                1
 GAP= 68        1.13       3.3     3.4  6.0 -0.1099E+01  0.6511E+01  0.2183E+01E
 Epicentro: ZAPATOCA - SANTANDER                                               3
 ACTION:UPD 16-05-05 14:21 OP:rebc STATUS:               ID:20160415210343 L   I
 OLDACT:REG 16-04-16 05:25 OP:dnl  STATUS:               ID:20160415205742     3
 2016-04-15-2057-42M.COL___322                                                 6
 STAT SP IPHASW D HRMM SECON CODA AMPLIT PERI AZIMU VELO AIN AR TRES W  DIS CAZ7
 BAR2 EZ EP       21 4  2.51                             168   -0.1010 28.2 181 
 BAR2 EZ ES       21 4 17.82                             168    0.0210 28.2 181 
 BAR2 EZ I        21 4 20.55        81.1 0.26            168           28.2 181 
 PAM  EZ IP     C 21 4  5.39                             151    0.3710 75.9  44 
 PAM  EN ES       21 4 22.61                             151    0.5010 75.9  44 
 PAM  EZ I        21 4 25.22        40.2 0.29            149           75.9  44 
 RUS  HZ EP       21 4  6.59                             142   -0.4810  106 174 
 RUS  HE ES       21 4 25.64                             142   -0.1110  106 174 
 RUS  HZ I        21 4 28.14        43.7 0.40            140            106 174 
 PTB  HZ EP       21 4  9.28                             132   -0.41 9  145 257 
 PTB  HN ES       21 4 30.32                             132   -0.10 9  145 257 
 PTB  HZ I        21 4 33.01        49.5 0.14            130            145 257 
 OCA  HZ EP   3   21 4 11.29                             130    0.55 2  155 354 
 OCA  HN ES       21 4 32.93                             130    0.64 9  155 354 
 OCA  HZ I        21 4 38.36       124.7 0.20            128            155 354 
 TAM  HZ EP       21 4 10.72                             129   -0.37 9  160 106 
 TAM  HZ I        21 4 32.10        23.7 0.28            127            160 106 
 TAM  HN ES       21 4 32.38                             129   -0.53 9  160 106 
 SPBC HZ EP   2   21 4 11.62                             128   -0.01 5  165 217 
 SPBC HN ES       21 4 33.86                             128   -0.02 9  165 217 
 SPBC HZ I        21 4 39.36        87.6 0.38            126            165 217 
 ZAR  HZ EP       21 4 15.32                             123    0.44 9  199 291 
 ZAR  HN ES       21 4 38.80                             123   -0.86 9  199 291 
 ZAR  HZ I        21 4 47.84        22.5 0.17            121            199 291 
 NOR  HZ EP       21 4 18.47                             118   -0.27 8  235 233 
 NOR  HE ES       21 4 45.88                             118   -0.65 8  235 233 
 NOR  HZ I        21 4 50.44        38.3 0.22            116            235 233 
 CHI  HZ EP       21 4 20.68                             116   -0.47 8  253 194 
 CHI  HN ES       21 4 51.58                             116    0.77 8  253 194 
 CHI  HZ I        21 4 55.70        12.5 0.26            114            253 194 
 ROSC BZ EP       21 4 22.23                             116    0.82 8  255 210 
 ROSC BE ES   4   21 4 53.89                             116    2.61 0  255 210 
 ROSC BZ I        21 4 58.56        38.5 0.40            114            255 210 
 HEL  HZ EP   4   21 4 24.11                             114    1.13 0  270 255 
 HEL  HN ES   2   21 4 54.24                             114    0.16 4  270 255 
 HEL  HZ I        21 5  1.68        25.7 0.36            113            270 255 
 URE  HZ EP       21 4 22.68                             114   -0.82 7  279 291 
 URE  HE ES   4   21 4 53.35                             114   -1.64 0  279 291 
 URE  HZ I        21 5  0.38        16.4 0.16            112            279 291 
 GUY2CHZ EP       21 4 27.67                             112    1.03 7  301 234 
 GUY2CHN ES   4   21 5  2.42                             112    1.83 0  301 234 
 GUY2CHZ I        21 5  8.10        22.1 0.27                           301 234 
 CBOC HZ EP   2   21 4 30.85                             110    1.11 3  332 251 
 CBOC HN ES   3   21 5  5.63                             110   -0.47 2  332 251 
 DBB  SZ EP   3   21 4 29.81                             109   -0.24 2  336 273 
 DBB  SZ ES   4   21 5  4.75                             109   -1.91 0  336 273 
 DBB  SZ I        21 5 10.72        42.4 0.27            108            336 273 
 ANIL HZ EP   2   21 4 33.92                             108    0.94 3  359 224 
 ANIL HN ES       21 5 13.06                             108    1.18 6  359 224 
 ANIL HZ I        21 5 18.79        39.8 0.34            106            359 224 
 SDV  BZ EP   4   21 4 31.72                             108   -1.30 0  360  51 
 SDV  BE ES   4   21 5  9.79                             108   -2.16 0  360  51 
 SDV  BZ I        21 5 11.27         8.2 0.35            106            360  51 
 ORTC HZ EP   2   21 4 37.08                             106   -0.13 3  398 215 
 ORTC HE ES   4   21 5 19.35                             106   -0.06 0  398 215 
 ORTC HZ I        21 5 26.27        10.3 0.58            104            398 215 
 SJC  HZ EP   2   21 4 36.90                             106   -0.97 3  403 327 
 SJC  HN ES   4   21 5 18.10                             106   -2.47 0  403 327 
 SJC  HZ I        21 5 21.61         7.9 0.28            104            403 327 
                                                                                
