 2017  815 2307 35.0 L   6.804 -73.109145.7  RSN  7 0.5 1.7LRSN                1
 GAP=242        1.11       5.1     6.6  8.4  0.1004E+02  0.1133E+02  0.1124E+02E
 Epicentro: LOS SANTOS - SANTANDER                                             3
 ACTION:UPD 17-09-04 20:20 OP:rebc STATUS:               ID:20170815230735 L   I
 OLDACT:UP  17-08-16 07:59 OP:dani STATUS:               ID:20170815225737     3
 OLDACT:UP  17-08-16 07:51 OP:dani STATUS:               ID:20170815225737     3
 OLDACT:REG 17-08-16 06:01 OP:dani STATUS:               ID:20170815225737     3
 2017-08-15-2258-00M.COL___416                                                 6
 STAT SP IPHASW D HRMM SECON CODA AMPLIT PERI AZIMU VELO AIN AR TRES W  DIS CAZ7
 BAR2 EZ EP       23 7 54.64                             170   -0.0310 24.8 199 
 BAR2 EZ ES       23 8 10.14                             170    0.1410 24.8 199 
 BAR2 EZ I        23 8 12.39        14.8 0.36            170           24.8 199 
 BRR  HZ EP       23 7 56.32                             151   -0.0310 74.5 297 
 BRR  HN ES       23 8 13.56                             151    0.5710 74.5 297 
 BRR  HZ I        23 8 17.06         9.3 0.34            153           74.5 297 
 RUS  HZ EP       23 7 58.78                             144   -0.0010  101 178 
 RUS  HN ES       23 8 16.82                             144   -0.5010  101 178 
 RUS  HZ I        23 8 18.45         8.2 0.34            145            101 178 
 SPBC HN ES       23 8 25.45                             129   -0.78 9  166 220 
 ZAR  HE ES       23 8 32.97                             122   -0.45 8  208 292 
 NOR  HN ES       23 8 39.65                             118    0.36 8  238 235 
 CHI  HZ EP       23 8 12.87                             117   -0.01 8  250 196 
 CHI  HN ES       23 8 43.35                             117    0.94 8  250 196 
 CHI  HZ I        23 8 46.21         1.8 0.12            119            250 196 
                                                                                
