 2010 1115 2031  5.7 L   6.927 -73.069136.0  RSN  4 0.4 1.3LRSN                1
 GAP=165        0.86       6.9    12.9 15.7 -0.1006E+02 -0.1065E+03  0.1917E+02E
 Epicentro: PIEDECUESTA - SANTANDER                                            3
 ACTION:UP  10-12-17 16:52 OP:REBC STATUS:               ID:20101115203105 L   I
 2010-11-15-2028-37S.COL___128                                                 6
 STAT SP IPHASW D HRMM SECON CODA AMPLIT PERI AZIMU VELO SNR AR TRES W  DIS CAZ7
 BRR  HZ EP   1   2031 25.23                             151    -0.7 7   74 286 
 BRR  HZ I        2031 26.83         9.2 0.09                            74 286 
 BRR  HE ES   1   2031 42.15                             151     0.4 7   74 286 
 GUE  SZ EP   2   2031 28.62                             142     0.3 5  101   9 
 GRA  SZ EP   2   2031 29.21                             139     0.5 5  110  15 
 GRA  SZ ES   2   2031 46.39                             139    -0.3 5  110  15 
 GRA  SZ I        2031 50.53         5.0 0.54                           110  15 
 RUS  HZ EP   1   2031 29.76                             138     0.2 7  114 181 
 RUS  HN ES   2   2031 48.07                             138    -0.1 5  114 181 
 RUS  HZ I        2031 49.89         1.2 0.19                           114 181 
                                                                                
