 2014  615 2217 25.8 L   6.811 -73.133145.2  RSN 22 0.6 2.8LRSN                1
 GAP= 71        1.23       2.6     2.9  5.0 -0.2022E+01  0.2272E+01  0.2286E+01E
 Epicentro: LOS SANTOS - SANTANDER                                             3
 ACTION:UPD 14-07-01 22:54 OP:nd   STATUS:               ID:20140615221725 L   I
 OLDACT:REG 14-06-16 05:17 OP:stll STATUS:               ID:20140615220818     3
 2014-06-15-2208-18M.COL___259                                                 6
 STAT SP IPHASW D HRMM SECON CODA AMPLIT PERI AZIMU VELO AIN AR TRES W  DIS CAZ7
 BAR2 SZ IP     D 2217 45.73                             170    0.3110 24.8 193 
 BAR2 SZ ES       2218  0.78                             170    0.0810 24.8 193 
 BAR2 SZ I        2218  2.29       182.4 0.16            170           24.8 193 
 BRR  HZ IP     C 2217 47.54                             152    0.5910 71.8 297 
 BRR  HZ I        2217 47.78       110.1 0.28            149           71.8 297 
 BRR  HN ES       2218  3.93                             152    0.5010 71.8 297 
 PAM  SZ EP     C 2217 48.50                             151    0.6310 75.5  39 
 PAM  SZ I        2217 48.85       186.6 0.22            153           75.5  39 
 PAM  SN ES       2218  5.59                             151    0.5210 75.5  39 
 RUS  HZ EP       2217 49.66                             143    0.0510  102 177 
 RUS  HE ES       2218  7.94                             143   -0.2110  102 177 
 RUS  HZ I        2218  9.60        96.7 0.24            145            102 177 
 PTB  HZ EP       2217 52.26                             132   -0.63 9  149 258 
 PTB  HE ES       2218 13.30                             132   -0.71 9  149 258 
 PTB  HZ I        2218 19.16        48.9 0.32            131            149 258 
 TAM  HZ EP       2217 53.84                             131    0.47 9  154 106 
 TAM  HZ I        2217 54.15        57.9 0.18            134            154 106 
 TAM  HN ES       2218 14.52                             131   -0.32 9  154 106 
 OCA  HZ EP       2217 53.79                             130   -0.20 9  159 353 
 OCA  HE ES       2218 15.92                             130   -0.04 9  159 353 
 OCA  HZ I        2218 25.58        34.9 0.32            130            159 353 
 SPBC HZ EP       2217 54.57                             129    0.11 9  165 219 
 SPBC HE ES       2218 16.67                             129   -0.12 9  165 219 
 SPBC HZ I        2218 19.37       100.6 0.30            129            165 219 
 ZAR  HZ EP       2217 58.10                             122   -0.22 9  205 292 
 ZAR  HE ES       2218 23.72                             122    0.06 9  205 292 
 ZAR  HZ I        2218 29.65        37.4 0.30            122            205 292 
 NOR  HZ EP       2218  1.79                             118    0.07 8  237 234 
 NOR  HE ES       2218 29.25                             118   -0.47 8  237 234 
 NOR  HZ I        2218 35.21        34.7 0.18            118            237 234 
 SML  HZ EP       2218  2.00                             117   -0.36 8  243 335 
 SML  HN ES       2218 30.31                             117   -0.55 8  243 335 
 SML  HZ I        2218 39.93        60.7 0.10            117            243 335 
 CHI  HZ EP       2218  3.79                             117    0.13 8  250 195 
 CHI  HZ I        2218  4.19        29.0 0.20            118            250 195 
 CHI  HN ES       2218 32.84                             117   -0.34 8  250 195 
 ROSC BZ EP       2218  4.81                             116    0.70 8  255 211 
 ROSC BN ES       2218 33.86                             116   -0.11 8  255 211 
 ROSC BZ I        2218 41.31        41.7 0.40            117            255 211 
 HEL  HZ EP       2218  6.90                             114    0.71 8  274 256 
 HEL  HN ES       2218 37.12                             114   -0.56 8  274 256 
 HEL  HZ I        2218 44.79        14.7 0.24            115            274 256 
 SOCV BZ EP       2218  7.93                             112   -0.71 7  299  57 
 SOCV BN ES       2218 40.56                             112   -1.47 7  299  57 
 GUY2CHZ EP       2218 10.96                             112    1.34 7  303 235 
 GUY2CHN ES       2218 43.33                             112   -0.45 7  303 235 
 GUY2CHZ I        2218 53.25        18.4 0.66                           303 235 
 VIL  SZ EP       2218  8.97                             112   -0.42 7  305 192 
 VIL  SE ES       2218 43.42                             112    0.05 7  305 192 
 VIL  SZ I        2218 46.05        23.1 0.32            113            305 192 
 RREF HZ EP       2218 13.03                             111    0.87 7  324 229 
 RREF HN ES       2218 47.27                             111   -1.02 7  324 229 
 RREF HZ I        2218 52.80        28.8 0.26            111            324 229 
 TOL  SZ EP       2218 15.14                             109    0.87 6  345 225 
 TOL  SE ES       2218 52.30                             109    0.24 6  345 225 
 ANIL HZ EP       2218 17.13                             108    1.30 6  359 225 
 ANIL HN ES       2218 54.36                             108   -0.46 6  359 225 
 ANIL HZ I        2219  1.94        48.7 0.38            109            359 225 
 PRA  HZ EP       2218 18.99                             106   -0.55 6  394 210 
 PRA  HN ES       2219  0.42                             106   -1.01 6  394 210 
 PRA  HZ I        2219  7.63        24.4 0.42            107            394 210 
 ORTC HZ EP       2218 19.89                             106   -0.05 6  397 216 
 ORTC HE ES       2219  2.38                             106    0.23 6  397 216 
 ORTC HZ I        2219  9.32        16.9 0.64            107            397 216 
                                                                                
