 2017  115 2246 16.1 L   6.822 -73.132148.5  RSN  7 0.4 1.2LRSN                1
 GAP=137        0.94       3.9     4.1  7.4 -0.5199E+00  0.6985E+01  0.8110E+01E
 Epicentro: LOS SANTOS - SANTANDER                                             3
 ACTION:UPD 17-05-22 16:00 OP:jn   STATUS:               ID:20170115224616 L   I
 OLDACT:DUP 17-01-16 06:03 OP:lv   STATUS:               ID:20170115223742d    3
 2017-01-15-2238-00M.COL___338                                                 6
 STAT SP IPHASW D HRMM SECON CODA AMPLIT PERI AZIMU VELO AIN AR TRES W  DIS CAZ7
 BRR  HZ EP       2246 37.70                             153    0.1410 71.5 296 
 BRR  HE ES       2246 54.95                             153    0.6610 71.5 296 
 PAM  EZ EP       2246 38.65                             152    0.2110 74.5  40 
 PAM  EN ES       2246 55.47                             152   -0.4010 74.5  40 
 PAM  EZ I        2246 57.88         4.5 0.29            155           74.5  40 
 RUS  HZ EP       2246 40.43                             144    0.1510  103 177 
 RUS  HE ES       2246 58.92                             144   -0.2310  103 177 
 RUS  HZ I        2247  1.50         1.5 0.31            143            103 177 
 PTB  HZ EP       2246 42.79                             132   -0.68 9  150 258 
 PTB  HN ES       2247  4.50                             132   -0.32 9  150 258 
 ZAR  HE ES       2247 14.30                             123    0.03 9  205 291 
 NOR  HZ EP       2246 52.54                             119    0.27 8  237 234 
 NOR  HE ES       2247 20.24                             119   -0.24 8  237 234 
 NOR  HZ I        2247 26.47         1.8 0.17            120            237 234 
 CHI  HN ES       2247 24.45                             117    0.45 8  251 195 
 CHI  HZ I        2247 27.71         0.7 0.19            118            251 195 
                                                                                
