 2010 1015 2326  2.1 L   6.778 -73.067148.6  RSN  5 0.1 1.8LRSN                1
 GAP=168        0.37       2.2     4.3  4.7 -0.3340E+01 -0.1035E+02  0.4362E+01E
 Epicentro: LOS SANTOS - SANTANDER                                             3
 ACTION:UP  11-02-18 11:09 OP:tino STATUS:               ID:20101015232602 L   I
 2010-10-15-2323-13S.COL___125                                                 6
 STAT SP IPHASW D HRMM SECON CODA AMPLIT PERI AZIMU VELO SNR AR TRES W  DIS CAZ7
 BTL  SZ EP       2326 22.26                             169     0.210   27 305 
 BRR  HZ EP       2326 23.84                             150    -0.210   80 297 
 BRR  HZ I        2326 24.16        23.3 0.11                            80 297 
 BRR  HN ES       2326 41.19                             150     0.010   80 297 
 RUS  HZ EP   1   2326 25.92                             145     0.0 7   98 181 
 RUS  HN ES   2   2326 44.46                             145     0.0 5   98 181 
 RUS  HZ I        2326 47.02         3.9 0.34                            98 181 
 GRA  SZ EP       2326 27.57                             138     0.010  126  13 
 GRA  SZ ES   1   2326 47.34                             138    -0.1 7  126  13 
 GRA  SZ I        2326 49.07         8.8 0.14                           126  13 
 CHI  HZ EP   1   2326 39.98                             118     0.1 6  249 197 
 CHI  HN ES   2   2327  9.29                             118    -0.2 4  249 197 
 CHI  HZ I        2327 18.81         3.6 0.72                           249 197 
                                                                                
