 2016  115 2115 10.6 L   6.845 -73.122144.8  RSN 10 0.5 1.8LRSN                1
 GAP=137        1.12       3.6     4.5  6.7 -0.1469E+00  0.8660E+01  0.3365E+01E
 Epicentro: LOS SANTOS - SANTANDER                                             3
 ACTION:UPD 16-03-09 23:25 OP:cam  STATUS:               ID:20160115211510 L   I
 OLDACT:REG 16-01-16 07:16 OP:ak   STATUS:               ID:20160115210746     3
 2016-01-15-2107-46M.COL___338                                                 6
 STAT SP IPHASW D HRMM SECON CODA AMPLIT PERI AZIMU VELO AIN AR TRES W  DIS CAZ7
 BAR2 EZ EP       2115 30.16                             168   -0.0510 28.8 193 
 BAR2 EZ ES       2115 45.12                             168   -0.4110 28.8 193 
 BAR2 EZ I        2115 54.80        12.2 0.18            168           28.8 193 
 BRR  HZ EP       2115 31.75                             152    0.1310 71.4 294 
 BRR  HN ES       2115 48.73                             152    0.6810 71.4 294 
 BRR  HZ I        2115 52.83        32.6 0.13            155           71.4 294 
 PAM  EZ EP       2115 32.68                             152    0.3210 71.8  40 
 PAM  EN ES       2115 49.74                             152    0.3910 71.8  40 
 PAM  EZ I        2115 50.25         6.6 0.22            158           71.8  40 
 RUS  HZ EP       2115 34.54                             142   -0.0410  105 178 
 RUS  HN ES       2115 53.25                             142   -0.0710  105 178 
 RUS  HZ I        2115 54.95         6.3 0.28            145            105 178 
 PTB  HZ EP   2   2115 37.00                             131   -0.79 5  151 257 
 PTB  HN ES       2115 58.21                             131   -0.82 9  151 257 
 PTB  HZ I        2115 59.85        11.7 0.13            134            151 257 
 ZAR  HZ EP   1   2115 43.28                             122    0.26 6  205 291 
 ZAR  HN ES       2116  8.48                             122    0.15 9  205 291 
 NOR  HZ EP   2   2115 47.50                             118    0.71 4  240 234 
 NOR  HN ES       2116 15.24                             118    0.19 8  240 234 
 NOR  HZ I        2116 21.68         5.9 0.16            121            240 234 
 SML  HZ EP   2   2115 45.96                             118   -0.81 4  240 334 
 SML  HN ES       2116 14.03                             118   -0.98 8  240 334 
 CHI  HZ EP       2115 48.63                             116   -0.19 8  254 195 
 CHI  HN ES       2116 18.07                             116   -0.58 8  254 195 
 GUY2CHZ EP   1   2115 55.55                             112    0.84 5  306 234 
 GUY2CHN ES       2116 30.06                             112    0.92 7  306 234 
 GUY2CHZ I        2116 39.06         3.6 0.62                           306 234 
                                                                                
