 2015 1215 2121 35.9 L   6.764 -73.130140.0  RSN  7 0.5 1.9LRSN                1
 GAP=140        1.19       5.9     5.5  9.3  0.4407E+01  0.1545E+02  0.1045E+02E
 Epicentro: LOS SANTOS - SANTANDER                                             3
 ACTION:UPD 16-02-04 15:05 OP:cam  STATUS:               ID:20151215212135 L   I
 OLDACT:REG 15-12-16 09:20 OP:mh   STATUS:               ID:20151215211748     3
 2015-12-15-2117-48M.COL___319                                                 6
 STAT SP IPHASW D HRMM SECON CODA AMPLIT PERI AZIMU VELO AIN AR TRES W  DIS CAZ7
 BAR2 EZ EP       2121 53.98                             171   -0.8210 19.9 197 
 BAR2 EZ I        2122 11.63        13.4 0.32            173           19.9 197 
 BRR  HZ EP       2121 57.03                             150    0.3610 74.7 301 
 BRR  HE ES       2122 13.40                             150    0.5610 74.7 301 
 BRR  HZ I        2122 17.40        20.1 0.12            150           74.7 301 
 PAM  EZ EP   1   2121 57.86                             149    0.20 7 79.4  37 
 PAM  EN ES       2122 14.40                             149   -0.2110 79.4  37 
 PAM  EZ I        2122 16.56         6.4 0.46            148           79.4  37 
 RUS  HZ EP       2121 58.74                             144   -0.0810 96.5 177 
 RUS  HN ES       2122 17.12                             144    0.4410 96.5 177 
 RUS  HZ I        2122 17.89        10.6 0.26            144           96.5 177 
 PTB  HZ EP       2122  2.08                             131   -0.45 9  149 260 
 PTB  HN ES       2122 22.95                             131   -0.32 9  149 260 
 PTB  HZ I        2122 24.85         8.7 0.18            131            149 260 
 ZAR  HZ EP   1   2122  9.54                             121    1.20 6  207 293 
 ZAR  HN ES       2122 33.23                             121   -0.38 8  207 293 
 ZAR  HZ I        2122 39.44        17.1 0.30            120            207 293 
 GUY2CHZ EP       2122 19.35                             111    0.16 7  300 236 
 GUY2CHN ES   4   2122 53.83                             111    0.91 0  300 236 
 GUY2CHZ I        2123  3.75         3.0 0.60                           300 236 
                                                                                
