 2013  515 2228 42.8 L   6.870 -73.299122.0  RSN  9 0.4 2.1LRSN                1
 GAP=105        0.91       3.4     3.9  5.8 -0.4370E+00  0.6858E+01 -0.1452E+00E
 Epicentro: BETULIA - SANTANDER                                                3
 ACTION:UPD 13-06-20 09:50 OP:ep   STATUS:               ID:20130515222842 L   I
 2013-05-15-2220-00M.COL___256                                                 6
 STAT SP IPHASW D HRMM SECON CODA AMPLIT PERI AZIMU VELO AIN AR TRES W  DIS CAZ7
 GIR2 SZ EP       2228 59.36                             167   -0.1010 25.9  27 
 GIR2 SZ ES   1   2229 12.21                             167   -0.28 7 25.9  27 
 GIR2 SZ I        2229 13.94        46.7 0.34            168           25.9  27 
 BAR2 SZ EP     C 2228 59.74                             164   -0.0910 33.3 157 
 BAR2 SZ ES       2229 13.18                             164    0.0310 33.3 157 
 BAR2 SZ I        2229 14.08        94.1 0.22            165           33.3 157 
 BRR  HZ EP       2229  0.16                             155   -0.1510 52.6 300 
 BRR  HN ES       2229 14.25                             155    0.2510 52.6 300 
 BRR  HZ I        2229 14.89        46.5 0.12            154           52.6 300 
 PAM  SZ EP       2229  3.27                             144    0.2810 84.2  52 
 PAM  SE ES       2229 19.28                             144    0.5210 84.2  52 
 PAM  SZ I        2229 21.96        14.2 0.28            145           84.2  52 
 RUS  HZ EP   1   2229  4.85                             135   -0.25 7  111 168 
 RUS  HN ES   1   2229 22.17                             135   -0.36 7  111 168 
 RUS  HZ I        2229 23.33         9.1 0.24            136            111 168 
 PTB  HZ EP   4   2229  4.99                             129   -1.49 0  133 254 
 PTB  HN ES   4   2229 22.76                             129   -2.23 0  133 254 
 OCA  HZ EP   1   2229  7.91                             125   -0.54 7  151 359 
 OCA  HN ES       2229 28.00                             125   -0.49 9  151 359 
 OCA  HZ I        2229 31.02        11.9 0.16            126            151 359 
 ZAR  HZ EP   1   2229 11.57                             119   -0.20 7  185 292 
 ZAR  HN ES       2229 34.71                             119    0.31 9  185 292 
 ZAR  HZ I        2229 37.26        16.5 0.58            119            185 292 
 NOR  HZ EP   1   2229 17.51                             114    1.25 6  226 230 
 NOR  HN ES   1   2229 41.84                             114   -0.54 6  226 230 
 NOR  HZ I        2229 47.87         9.4 0.18            114            226 230 
 PTLC HZ E        2227 28.64                                            796 192 
                                                                                
