 2012  715 2200 47.4 L   6.803 -73.170144.0  RSN 10 0.4 2.4LRSN                1
 GAP= 64        0.91       3.8     4.5  6.6  0.1637E+01  0.6939E+00  0.3092E+01E
 Epicentro: LOS SANTOS - SANTANDER                                             3
 ACTION:UPD 12-08-14 11:45 OP:ep   STATUS:               ID:20120715220047 L   I
 2012-07-15-2200-00M.COL___197                                                 6
 STAT SP IPHASW D HRMM SECON CODA AMPLIT PERI AZIMU VELO AIN AR TRES W  DIS CAZ7
 BAR2 SZ EP       22 1  6.85                             170     0.110   23 183 
 BAR2 SZ ES   1   22 1 22.05                             170     0.1 7   23 183 
 BAR2 SZ I        22 1 23.56       114.1 0.23            168             23 183 
 BRR  HZ EP       22 1  8.65                             153     0.510   69 299 
 BRR  HN ES   1   22 1 25.04                             153     0.6 7   69 299 
 BRR  HZ I        22 1 27.55        81.9 0.30            153             69 299 
 PAM  SZ EP   1   22 1  9.67                             150     0.2 7   79  41 
 PAM  SN ES   1   22 1 26.54                             150    -0.2 7   79  41 
 RUS  HZ EP   1   22 1 10.82                             143    -0.2 7  101 175 
 RUS  HZ I        22 1 11.52        22.2 0.31            143            101 175 
 RUS  HN ES   1   22 1 29.17                             143    -0.2 7  101 175 
 PTB  HZ EP   1   22 1 13.49                             132    -0.5 7  145 259 
 PTB  HN ES   1   22 1 34.46                             132    -0.2 7  145 259 
 PTB  HZ I        22 1 39.09        16.8 0.26            132            145 259 
 TAM  HZ EP   1   22 1 15.26                             130     0.1 7  158 105 
 TAM  HZ I        22 1 15.53        39.2 0.19            132            158 105 
 OCA  HZ EP   1   22 1 14.97                             129    -0.5 7  160 354 
 OCA  HN ES   1   22 1 36.76                             129    -0.7 7  160 354 
 YOP  SZ EP   1   22 1 17.62                             126     0.2 7  180 153 
 YOP  SZ I        22 1 19.39        13.6 0.22            127            180 153 
 ZAR  HZ EP   1   22 1 19.70                             122     0.3 6  201 292 
 ZAR  HE ES   1   22 1 44.32                             122    -0.1 6  201 292 
 CHI  HZ EP   1   22 1 25.59                             117     0.7 6  248 195 
 CHI  HN ES   1   22 1 53.40                             117    -0.8 6  248 195 
 CHI  HZ I        22 1 58.20        20.0 0.28            117            248 195 
