 2010  615 2321 50.8 L   6.802 -73.082147.7  RSN  5 0.3 1.8LRSN                1
 GAP=163        0.51       3.0     6.1  6.3 -0.4045E+01 -0.1155E+02  0.3081E-01E
 Epicentro: LOS SANTOS - SANTANDER                                             3
 ACTION:UP  10-08-24 10:10 OP:vdl  STATUS:               ID:20100615232150 L   I
 2010-06-15-2318-51S.COL___114                                                 6
 STAT SP IPHASW D HRMM SECON CODA AMPLIT PERI AZIMU VELO SNR AR TRES W  DIS CAZ7
 BAR2 SZ EP   2   2322 10.04                             170    -0.7 5   26 206 
 BRR  HZ EP   1   2322 12.35                             151    -0.2 8   77 296 
 BRR  HN ES   1   2322 29.61                             151     0.1 8   77 296 
 BRR  HZ I        2322 33.25        11.8 0.15                            77 296 
 RUS  HZ EP   1   2322 14.73                             144     0.0 8  101 180 
 RUS  HE ES   1   2322 33.56                             144     0.1 8  101 180 
 BRI  SZ EP   1   2322 15.02                             142     0.3 8  106  17 
 BRI  SZ ES   1   2322 33.14                             142    -0.2 8  106  17 
 GRA  SZ IP       2322 16.15                             138     0.110  124  14 
 GRA  SZ ES   2   2322 35.67                             138    -0.1 5  124  14 
                                                                                
