 2016  615 2109 39.5 L   6.794 -73.135147.7  RSN 10 0.2 2.5LRSN                1
 GAP=138        0.61       2.0     2.5  3.3 -0.1025E+01  0.2258E+01  0.4977E-01E
 Epicentro: LOS SANTOS - SANTANDER                                             3
 ACTION:UPD 16-07-21 22:19 OP:rebc STATUS:               ID:20160615210939 L   I
 OLDACT:REG 16-06-16 03:31 OP:cara STATUS:               ID:20160615210743     3
 2016-06-15-2107-43M.COL___334                                                 6
 STAT SP IPHASW D HRMM SECON CODA AMPLIT PERI AZIMU VELO AIN AR TRES W  DIS CAZ7
 BAR2 EZ IP       21 9 59.38                             171    0.0310 22.9 193 
 BAR2 EZ ES       2110 14.57                             171   -0.2710 22.9 193 
 BAR2 EZ I        2110 17.27        61.4 0.30                          22.9 193 
 BRR  HZ IP       2110  1.27                             152    0.3410 72.5 299 
 BRR  HN ES       2110 17.82                             152    0.1710 72.5 299 
 BRR  HZ I        2110 20.98        42.7 0.14                          72.5 299 
 PAM  EZ EP       2110  2.22                             151    0.3110 77.2  39 
 PAM  EN ES       2110 19.51                             151    0.1210 77.2  39 
 PAM  EZ I        2110 21.54        41.0 0.18                          77.2  39 
 RUS  HZ EP       2110  3.22                             144   -0.1710 99.9 177 
 RUS  HN ES       2110 21.85                             144   -0.1710 99.9 177 
 RUS  HZ I        2110 23.20        22.0 0.26                          99.9 177 
 PTB  HZ EP       2110  6.76                             132    0.04 9  149 259 
 PTB  HE ES       2110 27.72                             132   -0.23 9  149 259 
 PTB  HZ I        2110 30.90        29.0 0.12                           149 259 
 OCA  HZ EP       2110  7.57                             130   -0.47 9  161 353 
 OCA  HN ES       2110 30.29                             130   -0.00 9  161 353 
 OCA  HZ I        2110 39.19        44.5 0.22                           161 353 
 SPBC HZ EP       2110  8.19                             129    0.02 9  163 219 
 SPBC HE ES       2110 30.93                             129    0.40 9  163 219 
 SPBC HZ I        2110 32.60        61.4 0.14                           163 219 
 ZAR  HZ EP       2110 12.01                             123   -0.20 8  205 292 
 ZAR  HE ES       2110 37.68                             123   -0.04 8  205 292 
 ZAR  HZ I        2110 45.27        20.5 0.12                           205 292 
 NOR  HZ EP       2110 15.19                             119   -0.21 8  235 235 
 NOR  HN ES       2110 43.36                             119   -0.05 8  235 235 
 NOR  HZ I        2110 47.43        29.7 0.20                           235 235 
 GUY2CHZ EP       2110 23.63                             113    0.37 7  302 235 
 GUY2CHN ES   4   2110 58.63                             113    1.23 0  302 235 
 GUY2CHZ I        2111  5.98        19.5 0.78                           302 235 
                                                                                
