 2010  215 2144 26.2 L   6.805 -73.055146.1  RSN 11 0.4 2.9LRSN                1
 GAP=148        0.81       4.0     6.1  5.5 -0.8514E+01  0.5346E+01  0.4264E+01E
 Epicentro: LOS SANTOS - SANTANDER                                             3
 ACTION:UP  10-08-24 09:49 OP:vdl  STATUS:               ID:20100215214426 L   I
 2010-02-15-2142-32S.COL___094                                                 6
 STAT SP IPHASW D HRMM SECON CODA AMPLIT PERI AZIMU VELO SNR AR TRES W  DIS CAZ7
 BAR2 SZ EP       2144 46.04                             169     0.110   28 211 
 BAR2 SZ ES   1   2145  1.49                             169     0.1 7   28 211 
 GIR2 SZ EP       2144 46.11                             166     0.210   34 333 
 GIR2 SZ ES   1   2145  1.46                             166     0.1 7   34 333 
 OCA  SZ EP   1   2144 54.59                             130     0.0 7  161 350 
 OCA  SZ ES   1   2145 16.14                             130    -0.6 7  161 350 
 CHI  HZ EP       2145  4.01                             117    -0.2 8  252 197 
 CHI  HN ES   1   2145 33.36                             117    -0.6 6  252 197 
 CHI  HZ I        2145 41.27        20.9 0.49                           252 197 
 HEL  HZ EP   1   2145  7.97                             114     0.5 6  282 256 
 HEL  HN ES   1   2145 40.16                             114     0.4 6  282 256 
 RREF BZ EP   1   2145 13.11                             110    -0.1 5  330 230 
 RREF BZ I        2145 55.53        37.2 0.29                           330 230 
 DBB  SZ IP       2145 14.18                             109    -0.6 6  349 274 
 TOL  SZ EP   1   2145 16.25                             109     0.9 5  351 226 
 SDV  BZ IP       2145 15.64                             109     0.3 6  352  49 
 ANIL BZ EP   1   2145 17.34                             108     0.5 5  365 226 
 ANIL BZ I        2146  1.18        57.5 0.38                           365 226 
 PRA  HZ EP   1   2145 19.38                             106    -1.0 4  398 211 
 PRA  HN ES   2   2146  3.00                             106     0.4 3  398 211 
 PRA  HZ I        2146  8.65        25.4 0.17                           398 211 
                                                                                
