 2010 1115 2126 35.6 L   6.800 -73.069157.2  RSN 19 0.4 3.7LRSN                1
 GAP=132        0.87       3.1     4.5  4.9 -0.5960E+01  0.1491E+01  0.2661E+01E
 Epicentro: LOS SANTOS - SANTANDER                                             3
 ACTION:UP  10-12-17 16:52 OP:REBC STATUS:               ID:20101115212635 L   I
 2010-11-15-2123-19S.COL___129                                                 6
 STAT SP IPHASW D HRMM SECON CODA AMPLIT PERI AZIMU VELO SNR AR TRES W  DIS CAZ7
 BTL  SZ EP       2126 57.31                             170     0.610   26 301 
 BAR2 SZ EP       2126 56.82                             170     0.110   26 209 
 BAR2 SZ ES   1   2127 12.77                             170    -0.4 7   26 209 
 BAR2 SZ I        2127 15.71      1350.0 0.36                            26 209 
 GIR2 SZ EP       2126 56.71                             167     0.010   34 336 
 GIR2 SZ ES   2   2127 12.94                             167    -0.2 5   34 336 
 BRR  HZ IP     C 2126 58.58                             152     0.110   79 296 
 BRR  HZ I        2127  0.25      1585.3 0.12                            79 296 
 BRR  HN ES       2127 16.81                             152     0.610   79 296 
 RUS  HZ EP       2127  0.75                             146     0.210  100 181 
 RUS  HN ES   1   2127 19.40                             146    -0.5 7  100 181 
 RUS  HZ I        2127 22.20       793.4 0.48                           100 181 
 GUE  SZ EP       2127  1.35                             142     0.010  115   8 
 GRA  SZ IP       2127  1.74                             140     0.010  124  14 
 GRA  SZ ES   1   2127 22.03                             140    -0.1 7  124  14 
 GRA  SZ I        2127 25.51      1009.3 0.30                           124  14 
 OCA  SZ EP       2127  4.43                             132    -0.5 9  162 350 
 OCA  SZ ES   2   2127 27.34                             132    -0.5 5  162 350 
 OCA  SZ I        2127 41.88       430.9 0.58                           162 350 
 NOR  SZ EP       2127 12.61                             120    -0.2 8  242 236 
 NOR  SN ES       2127 41.28                             120    -0.5 8  242 236 
 CHI  HZ EP   1   2127 14.32                             119     0.1 6  251 197 
 CHI  HN ES   2   2127 44.38                             119     0.0 4  251 197 
 CHI  HZ I        2127 51.28       159.4 0.33                           251 197 
 ROSC BZ EP   1   2127 15.29                             119     0.4 6  257 213 
 ROSC BE ES   2   2127 45.14                             119    -0.3 4  257 213 
 ROSC BZ I        2127 55.29       322.4 0.55                           257 213 
 HEL  HZ EP   1   2127 17.38                             116     0.0 6  280 256 
 HEL  HN ES   1   2127 49.14                             116    -0.7 6  280 256 
 HEL  HZ I        2127 58.00       311.0 0.31                           280 256 
 VIL  SZ EP   1   2127 19.85                             114     0.3 5  303 191 
 VIL  SN ES   1   2127 53.55                             114    -0.3 5  303 191 
 VIL  SZ I        2127 57.65       146.4 0.58                           303 191 
 GUY  SZ EP   1   2127 21.38                             114     0.8 5  308 236 
 GUY  SE ES   2   2127 55.34                             114    -0.3 4  308 236 
 GUY  SZ I        2128  3.99       413.2 0.43                           308 236 
 RREF HZ EP   1   2127 23.27                             112     0.3 5  328 230 
 RREF HN ES   2   2127 59.90                             112    -0.1 3  328 230 
 RREF HZ I        2128 11.38       381.2 0.38                           328 230 
 DBB  SZ EP       2127 24.23                             111    -0.3 6  348 274 
 TOL  SZ EP   2   2127 25.62                             111     0.6 3  349 226 
 SDV  BZ EP   1   2127 24.32                             111    -1.1 5  354  49 
 SDV  BZ I        2127 25.82        88.3 0.59                           354  49 
 PRA  HZ EP   1   2127 30.26                             108     0.2 4  396 211 
 PRA  HE ES   1   2128 12.26                             108    -0.2 4  396 211 
                                                                                
