 2016  615 2126 54.6 L   6.828 -73.160150.1  RSN  5 0.3 1.7LRSN                1
 GAP=278        0.80       6.8     4.8  7.6 -0.2704E+01  0.1063E+02 -0.7953E+01E
 Epicentro: LOS SANTOS - SANTANDER                                             3
 ACTION:UPD 16-07-21 22:19 OP:rebc STATUS:               ID:20160615212654 L   I
 OLDACT:UP  16-06-16 04:46 OP:cara STATUS:               ID:20160615211746d    3
 OLDACT:DUP 16-06-16 04:34 OP:cara STATUS:               ID:20160615211746d    3
 OLDACT:UP  16-06-16 04:25 OP:cara STATUS:               ID:20160615211744     3
 OLDACT:REG 16-06-16 03:32 OP:cara STATUS:               ID:20160615211744     3
 2016-06-15-2117-44M.COL___334                                                 6
 STAT SP IPHASW D HRMM SECON CODA AMPLIT PERI AZIMU VELO AIN AR TRES W  DIS CAZ7
 BAR2 EZ IP       2127 15.24                             170    0.3910 26.2 185 
 BAR2 EZ ES       2127 30.60                             170   -0.0210 26.2 185 
 BAR2 EZ I        2127 31.44        10.3 0.22                          26.2 185 
 RUS  HZ EP       2127 18.47                             144   -0.5810  104 175 
 RUS  HN ES       2127 38.22                             144    0.1310  104 175 
 RUS  HZ I        2127 39.04         5.7 0.32                           104 175 
 PTB  HZ EP       2127 22.11                             133    0.23 9  147 258 
 PTB  HN ES       2127 42.78                             133   -0.35 9  147 258 
 PTB  HZ I        2127 45.91         4.0 0.14                           147 258 
 SPBC HZ EP   4   2127 25.11                             130    1.50 0  165 218 
 SPBC HN ES       2127 46.26                             130    0.05 9  165 218 
 SPBC HZ I        2127 52.57         8.1 0.24                           165 218 
 NOR  HE ES       2127 59.02                             119    0.23 8  235 234 
 NOR  HZ I        2128  4.80         3.5 0.18                           235 234 
                                                                                
