 2011  815 2248 57.4 L   6.955 -73.137121.9  RSN  4 0.6 1.8LRSN                1
 GAP=185        1.27      10.4    22.3 16.6  0.1584E+03 -0.2270E+03 -0.1032E+03E
 Epicentro: PIEDECUESTA - SANTANDER                                            3
 ACTION:UPD 12-07-13 15:52 OP:ep   STATUS:               ID:20110815224857 L   I
 2011-08-15-2246-09S.COL___149                                                 6
 STAT SP IPHASW D HRMM SECON CODA AMPLIT PERI AZIMU VELO AIN AR TRES W  DIS CAZ7
 BAR2 SZ IP       2249 15.59                             160    0.8610 40.4 187 
 BAR2 SZ ES   1   2249 28.38                             160    0.14 7 40.4 187 
 BAR2 SZ I        2249 29.78        24.9 0.24                          40.4 187 
 BRR  HZ EP       2249 15.98                             149    0.3010 65.7 285 
 BRR  HE ES   1   2249 29.60                             149   -0.33 7 65.7 285 
 BRR  HZ I        2249 30.63        12.1 0.14                          65.7 285 
 RUS  HZ EP       2249 20.28                             133   -0.0610  118 177 
 RUS  HE ES   1   2249 37.30                             133   -0.93 7  118 177 
 OCA  SZ EP       2249 21.73                             127   -0.57 9  143 352 
 OCA  SZ I        2249 45.69         7.1 0.33                           143 352 
                                                                                
