 2015 1115 2344 36.0 L   6.832 -73.167152.0  RSN  9 0.5 1.7LRSN                1
 GAP=132        0.87       3.7     5.3  7.8 -0.2887E+01  0.1960E+02 -0.9312E+01E
 Epicentro: LOS SANTOS - SANTANDER                                             3
 ACTION:UPD 15-12-28 16:11 OP:cam  STATUS:               ID:20151115234436 L   I
 OLDACT:DUP 15-11-16 03:36 OP:ar   STATUS:               ID:20151115233748d    3
 2015-11-15-2337-47M.COL___319                                                 6
 STAT SP IPHASW D HRMM SECON CODA AMPLIT PERI AZIMU VELO AIN AR TRES W  DIS CAZ7
 BAR2 EZ EP       2344 56.20                             170   -0.2610 26.5 184 
 BAR2 EZ ES       2345 11.63                             170   -0.7810 26.5 184 
 BAR2 EZ I        2345 13.82        10.3 0.32            167           26.5 184 
 BRR  HZ EP       2344 58.02                             155    0.3710 67.5 297 
 BRR  HE ES   2   2345 15.48                             155    0.96 5 67.5 297 
 BRR  HZ I        2345 19.92         7.7 0.22            148           67.5 297 
 PAM  EZ EP       2344 59.30                             152    0.4610 76.3  43 
 PAM  EN ES       2345 16.68                             152    0.0410 76.3  43 
 PAM  EZ I        2345 18.37         6.7 0.54            157           76.3  43 
 RUS  HZ EP   2   2345  0.74                             144    0.09 5  104 175 
 RUS  HE ES       2345 19.79                             144   -0.0710  104 175 
 RUS  HZ I        2345 19.97         4.9 0.28            148            104 175 
 ZAR  HN ES   2   2345 33.82                             124   -0.06 4  201 291 
 ZAR  HZ I        2345 39.70         4.8 0.38            123            201 291 
 NOR  HN ES       2345 40.63                             120    0.33 8  235 233 
 NOR  HZ I        2345 48.03         4.1 0.18            120            235 233 
 SML  HZ EP   2   2345 12.72                             119    0.17 4  240 335 
 SML  HN ES       2345 40.95                             119   -0.10 8  240 335 
 SML  HZ I        2345 44.58         8.2 0.26            119            240 335 
 MON  HN ES   2   2346  2.07                             110   -0.79 3  350 308 
 MON  HZ I        2346 17.39         1.4 0.40            110            350 308 
 SJC  HZ EP   2   2345 30.51                             107   -0.79 3  405 327 
 SJC  HN ES   2   2346 13.76                             107   -0.65 3  405 327 
                                                                                
