 2012  615 2057 55.0 L   6.763 -73.210132.3  RSN  8 0.4 1.8LRSN                1
 GAP=129        0.78       3.8     3.9  8.9 -0.1426E+01  0.1580E+02  0.6768E+01E
 Epicentro: VILLANUEVA - SANTANDER                                             3
 ACTION:UPD 12-08-06 17:49 OP:ep   STATUS:               ID:20120615205755 L   I
 2012-06-15-2050-00M.COL___198                                                 6
 STAT SP IPHASW D HRMM SECON CODA AMPLIT PERI AZIMU VELO AIN AR TRES W  DIS CAZ7
 BAR2 SZ EP   1   2058 12.86                             171   -0.04 7 19.2 171 
 BAR2 SZ I        2058 29.89        17.2 0.20                          19.2 171 
 PAM  SZ EP   1   2058 16.35                             146    0.06 7 85.1  41 
 PAM  SZ I        2058 16.57        11.9 0.18                          85.1  41 
 PAM  SN ES       2058 33.09                             146    0.1810 85.1  41 
 RUS  HZ EP   1   2058 17.73                             142    0.55 7 97.3 172 
 RUS  HN ES   1   2058 33.75                             142   -0.74 7 97.3 172 
 RUS  HZ I        2058 38.77        13.6 0.47                          97.3 172 
 PTB  HZ EP   1   2058 20.38                             130    0.23 7  140 260 
 PTB  HN ES   1   2058 40.01                             130    0.22 7  140 260 
 PTB  HZ I        2058 43.17        10.4 0.22                           140 260 
 ZAR  HZ EP   1   2058 25.20                             120   -0.86 6  199 294 
 ZAR  HN ES   1   2058 50.07                             120   -0.23 6  199 294 
 ZAR  HZ I        2058 58.05         9.0 0.31                           199 294 
 NOR  SN ES   1   2058 56.23                             116    0.57 6  227 234 
 CHI  HZ EP   1   2058 31.15                             115   -0.18 6  243 194 
 CHI  HN ES   1   2058 59.73                             115    0.04 6  243 194 
 CHI  HZ I        2059  6.35         4.3 0.35                           243 194 
 HEL  HN ES   1   2059  3.78                             113   -0.04 6  264 256 
                                                                                
