 2011  615 2055  7.4 L   6.148 -73.653111.5  RSN 13 0.3 3.1LRSN                1
 GAP=112        0.53       2.0     3.0  4.4 -0.3383E+01  0.2819E+01  0.8863E+00E
 Epicentro: LA PAZ - SANTANDER                                                 3
 ACTION:UP  11-07-14 19:05 OP:ep   STATUS:               ID:20110615205507 L   I
 2011-06-15-2053-39S.COL___138                                                 6
 STAT SP IPHASW D HRMM SECON CODA AMPLIT PERI AZIMU VELO SNR AR TRES W  DIS CAZ7
 RUS  HZ EP   1   2055 25.65                             146     0.1 7   69 114 
 RUS  HN ES   2   2055 39.55                             146    -0.1 5   69 114 
 RUS  HZ I        2055 40.81       127.0 0.30                            69 114 
 BAR2 SZ IP       2055 25.61                             145     0.310   72  47 
 BAR2 SZ ES   1   2055 39.26                             145    -0.1 7   72  47 
 BAR2 SZ I        2055 40.80       718.3 0.23                            72  47 
 BRR  HZ EP   1   2055 27.70                             133    -0.1 7  106 357 
 BRR  HZ I        2055 28.07       592.6 0.10                           106 357 
 BRR  HN ES   1   2055 43.99                             133     0.3 7  106 357 
 NOR  SZ EP   1   2055 31.55                             122    -0.5 7  149 244 
 NOR  SN ES   1   2055 50.98                             122    -0.3 7  149 244 
 CHI  HZ EP   1   2055 34.54                             119     0.1 7  168 183 
 CHI  HZ I        2055 35.66        84.4 0.26                           168 183 
 CHI  HN ES   2   2055 55.45                             119    -0.1 5  168 183 
 PAM  SZ EP   1   2055 34.62                             119     0.0 7  169  39 
 PAM  SN ES   1   2055 55.54                             119    -0.3 7  169  39 
 BRI  SZ EP   1   2055 37.50                             115     0.1 6  198  29 
 BRI  SZ ES   2   2056  0.93                             115     0.2 4  198  29 
 BRI  SZ I        2056  3.23        69.1 0.35                           198  29 
 GRA  SZ EP   1   2055 39.02                             112    -0.1 6  214  26 
 GRA  SZ ES   1   2056  3.67                             112    -0.2 6  214  26 
 GRA  SZ I        2056  6.65        79.8 0.47                           214  26 
 GUY  SZ EP   1   2055 40.34                             112     0.3 6  218 242 
 OCA  SZ EP   1   2055 41.25                             110    -0.2 6  234   9 
 OCA  SZ ES   2   2056  7.90                             110    -0.1 4  234   9 
 OCA  SZ I        2056 18.71        76.0 0.36                           234   9 
 TOL  SZ EP   1   2055 44.26                             108     0.4 6  253 227 
 PRA  HZ EP   1   2055 49.63                             105     0.4 5  302 207 
 PRA  HN ES   1   2056 21.66                             105    -0.2 5  302 207 
 SJA  SZ EP   1   2055 50.92                             103    -0.5 5  320 186 
 SJA  SZ ES   2   2056 25.86                             103     0.1 3  320 186 
 SJA  SZ I        2056 28.17       134.3 0.44                           320 186 
                                                                                
