 2013  415 2107 59.0 L   6.739 -73.142149.1  RSN  7 0.4 2.0LRSN                1
 GAP=140        0.91       4.4     5.5  6.3  0.2309E+01  0.3757E+01 -0.1182E+01E
 Epicentro: JORDAN - SANTANDER                                                 3
 ACTION:UPD 13-05-22 14:38 OP:EP   STATUS:               ID:20130415210759 L   I
 2013-04-15-2100-00M.COL___245                                                 6
 STAT SP IPHASW D HRMM SECON CODA AMPLIT PERI AZIMU VELO AIN AR TRES W  DIS CAZ7
 BAR2 SZ EP       21 8 18.86                             173   -0.1010 16.8 195 
 BAR2 SZ ES       21 8 33.91                             173   -0.5910 16.8 195 
 BAR2 SZ I        21 8 35.83        41.8 0.44            173           16.8 195 
 GIR2 SZ EP   1   21 8 19.28                             165   -0.02 7 38.0 351 
 GIR2 SZ ES   1   21 8 35.44                             165    0.33 7 38.0 351 
 BRR  HZ EP     C 21 8 20.96                             152    0.2010 75.0 303 
 BRR  HN ES       21 8 38.42                             152    0.7110 75.0 303 
 BRR  HZ I        21 8 42.28        25.9 0.37            151           75.0 303 
 PAM  SZ EP       21 8 21.89                             150   -0.0310 82.5  36 
 PAM  SE ES   1   21 8 39.41                             150   -0.35 7 82.5  36 
 PAM  SZ I        21 8 43.62         6.8 0.36            153           82.5  36 
 RUS  HZ EP       21 8 23.04                             146    0.3910 93.8 176 
 RUS  HN ES       21 8 41.14                             146    0.0710 93.8 176 
 RUS  HZ I        21 8 42.82        10.6 0.26            150           93.8 176 
 PTB  HZ EP       21 8 25.97                             133   -0.24 9  147 261 
 PTB  HE ES   1   21 8 46.84                             133   -0.56 7  147 261 
 PTB  HZ I        21 8 52.80        16.1 0.40            134            147 261 
 SML  HN ES   1   21 9  5.35                             117   -0.43 6  250 336 
                                                                                
