 2016  715 2253 41.9 L   6.659 -73.256146.9  RSN  5 0.3 1.2LRSN                1
 GAP=178        0.84       8.7     9.2  6.3  0.6672E+02  0.8084E+01  0.1122E+01E
 Epicentro: GALAN - SANTANDER                                                  3
 ACTION:UPD 17-03-29 16:51 OP:lp   STATUS:               ID:20160715225341 L   I
 OLDACT:REG 16-07-16 03:14 OP:edw  STATUS:               ID:20160715224759     3
 2016-07-15-2247-59S.COL___331                                                 6
 STAT SP IPHASW D HRMM SECON CODA AMPLIT PERI AZIMU VELO AIN AR TRES W  DIS CAZ7
 BAR2 EZ EP       2254  1.29                             176   -0.2210 11.0 132 
 BAR2 EZ ES       2254 16.50                             176   -0.2810 11.0 132 
 BAR2 EZ I        2254 18.44         5.6 0.18            173           11.0 132 
 BRR  HZ EP       2254  3.19                             153    0.0310 70.6 315 
 BRR  HN ES       2254 20.12                             153    0.3910 70.6 315 
 RUS  HZ EP       2254  5.44                             148    0.5910 86.9 167 
 RUS  HN ES       2254 22.62                             148   -0.1210 86.9 167 
 RUS  HZ I        2254 25.66         1.9 0.18            147           86.9 167 
 ZAR  HZ EP       2254 13.53                             123   -0.45 9  200 298 
 ZAR  HN ES       2254 38.91                             123   -0.07 9  200 298 
 URE  HZ EP   9   2254 20.39                             114   -2.11 0  279 296 
 URE  HN ES       2254 52.40                                    0.36 7  279 296 
                                                                                
