 2013  415 2234 17.4 L   6.792 -73.158150.0  RSN  8 0.4 1.7LRSN                1
 GAP=135        0.87       4.1     5.0  6.8 -0.1828E+01  0.4969E+01 -0.7597E+00E
 Epicentro: LOS SANTOS - SANTANDER                                             3
 ACTION:UPD 13-05-22 14:38 OP:EP   STATUS:               ID:20130415223417 L   I
 2013-04-15-2228-51M.COL___207                                                 6
 STAT SP IPHASW D HRMM SECON CODA AMPLIT PERI AZIMU VELO AIN AR TRES W  DIS CAZ7
 BAR2 SZ EP       2234 37.57                             171    0.0710 22.2 187 
 BAR2 SZ ES   1   2234 53.06                             171   -0.13 7 22.2 187 
 BAR2 SZ I        2234 54.26        21.1 0.48            170           22.2 187 
 GIR2 SZ EP       2234 37.64                             167    0.0710 32.0 353 
 GIR2 SZ ES   1   2234 53.18                             167   -0.15 7 32.0 353 
 GIR2 SZ I        2234 57.07         9.3 0.76            165           32.0 353 
 BRR  HZ EP   1   2234 39.42                             153    0.47 7 70.4 300 
 BRR  HE ES   1   2234 56.67                             153    0.90 7 70.4 300 
 BRR  HZ I        2235  0.95        11.3 0.32            150           70.4 300 
 PAM  SZ EP       2234 40.38                             151    0.2410 78.9  40 
 PAM  SN ES   1   2234 57.71                             151   -0.18 7 78.9  40 
 PAM  SZ I        2234 59.53         5.4 0.48            156           78.9  40 
 RUS  HZ EP       2234 41.58                             145    0.0910 99.8 175 
 RUS  HN ES       2234 59.95                             145   -0.3510 99.8 175 
 RUS  HZ I        2235  1.21         7.2 0.38            148           99.8 175 
 PTB  HZ EP   1   2234 44.04                             133   -0.52 7  146 259 
 PTB  HN ES   1   2235  5.40                             133   -0.36 7  146 259 
 PTB  HZ I        2235 11.40         7.5 0.18            133            146 259 
 NOR  HN ES   1   2235 21.51                             119    0.40 6  233 234 
 NOR  HZ I        2235 26.78         5.3 0.22            121            233 234 
 SML  HE ES   1   2235 22.07                             118   -0.98 6  244 336 
                                                                                
