 2017  315 2332 41.0 L   6.797 -73.157145.6  RSN 14 0.4 1.9LRSN                1
 GAP= 73        0.84       2.9     2.9  4.7 -0.1345E+01  0.4119E+00  0.3550E+01E
 Epicentro: LOS SANTOS - SANTANDER                                             3
 ACTION:UPD 17-05-25 18:40 OP:jn   STATUS:               ID:20170315233241 L   I
 OLDACT:UP  17-03-16 04:57 OP:and  STATUS:               ID:20170315232745     3
 OLDACT:UP  17-03-16 04:54 OP:and  STATUS:               ID:20170315232745     3
 OLDACT:UP  17-03-16 04:54 OP:and  STATUS:               ID:20170315232745     3
 OLDACT:UP  17-03-16 04:54 OP:and  STATUS:               ID:20170315232745     3
 OLDACT:UP  17-03-16 04:52 OP:and  STATUS:               ID:20170315232745     3
 OLDACT:REG 17-03-16 03:11 OP:and  STATUS:               ID:20170315232745     3
 2017-03-15-2328-00M.COL___412                                                 6
 STAT SP IPHASW D HRMM SECON CODA AMPLIT PERI AZIMU VELO AIN AR TRES W  DIS CAZ7
 BAR2 EZ EP       2333  0.44                             171   -0.1110 22.8 187 
 BAR2 EZ ES       2333 15.70                             171   -0.1410 22.8 187 
 BAR2 EZ I        2333 18.29        26.7 0.30            168           22.8 187 
 BRR  HZ EP       2333  2.13                             153    0.1010 70.3 299 
 BRR  HN ES       2333 19.26                             153    0.7910 70.3 299 
 BRR  HZ I        2333 23.26        13.0 0.38            152           70.3 299 
 PAM  EZ IP     C 2333  3.25                             150    0.0410 78.4  40 
 PAM  EN ES       2333 20.45                             150   -0.1210 78.4  40 
 PAM  EZ I        2333 22.62        13.5 0.52            155           78.4  40 
 RUS  HZ EP       2333  4.42                             144   -0.2510  100 175 
 RUS  HN ES       2333 23.15                             144   -0.0210  100 175 
 RUS  HZ I        2333 24.38        22.0 0.32            144            100 175 
 PTB  HZ EP       2333  7.22                             132   -0.57 9  147 259 
 PTB  HN ES       2333 28.07                             132   -0.66 9  147 259 
 PTB  HZ I        2333 33.27         6.9 0.22            132            147 259 
 TAM  HZ IP     C 2333  8.84                             130    0.12 9  156 105 
 SPBC HZ EP   2   2333  9.56                             129    0.22 5  162 219 
 SPBC HN ES       2333 31.17                             129   -0.32 9  162 219 
 SPBC HZ I        2333 36.27        12.0 0.08            129            162 219 
 ZAR  HZ EP   2   2333 13.26                             122   -0.02 4  203 292 
 ZAR  HN ES       2333 38.73                             122    0.23 9  203 292 
 ZAR  HZ I        2333 44.17         5.9 0.27            123            203 292 
 NOR  HE ES       2333 44.30                             119   -0.01 8  234 234 
 NOR  HZ I        2333 50.11         6.1 0.18            119            234 234 
 CHI  HZ EP       2333 18.76                             117    0.18 8  248 195 
 CHI  HN ES       2333 48.53                             117    0.61 8  248 195 
 CHI  HZ I        2333 57.88         3.8 0.40            118            248 195 
 ROSC BZ EP   3   2333 20.49                             117    1.52 2  252 211 
 GUY2CHZ EP   9   2333 27.57                             112    3.15 0  300 235 
 GUY2CHN ES       2334  1.63                             112    0.16 7  300 235 
 GUY2CHZ  IAML    2334  5.72         3.7 0.42                           300 235 
 PTGC HZ EP   4   2333 23.62                             111   -1.20 0  309 158 
 PTGC HN ES   4   2333 56.91                             111   -2.13 0  309 158 
 PRA  HZ EP       2333 34.24                             107   -0.13 6  391 209 
 PRA  HN ES       2334 16.69                             107    0.66 6  391 209 
 PRA  HZ I        2334 22.69         4.7 0.38            107            391 209 
 SJC  HZ EP   9   2333 35.19                             106   -1.27 0  409 327 
 SJC  HN ES   2   2334 17.72                             106   -0.76 3  409 327 
                                                                                
