 2017  615 2215  0.2 L   6.795 -73.114143.5  RSN 15 0.5 2.2LRSN                1
 GAP=215        1.14       5.5     5.2  8.8  0.1541E+02  0.5555E+01  0.1022E+02E
 Epicentro: LOS SANTOS - SANTANDER                                             3
 ACTION:UPD 17-09-14 16:52 OP:jn   STATUS:               ID:20170615221500 L   I
 OLDACT:UP  17-06-16 06:37 OP:edw  STATUS:               ID:20170615220742d    3
 OLDACT:UP  17-06-16 06:36 OP:edw  STATUS:               ID:20170615220742d    3
 OLDACT:UP  17-06-16 06:35 OP:edw  STATUS:               ID:20170615220742d    3
 OLDACT:DUP 17-06-16 06:29 OP:edw  STATUS:               ID:20170615220742d    3
 OLDACT:UP  17-06-16 06:29 OP:edw  STATUS:               ID:20170615220741     3
 OLDACT:UP  17-06-16 06:27 OP:edw  STATUS:               ID:20170615220741     3
 OLDACT:UP  17-06-16 06:27 OP:edw  STATUS:               ID:20170615220741     3
 OLDACT:REG 17-06-16 03:24 OP:edw  STATUS:               ID:20170615220741     3
 2017-06-15-2208-00M.COL___359                                                 6
 STAT SP IPHASW D HRMM SECON CODA AMPLIT PERI AZIMU VELO AIN AR TRES W  DIS CAZ7
 BRR  HZ IP     C 2215 21.51                             150    0.2410 74.6 298 
 BRR  HN ES       2215 37.58                             150   -0.1510 74.6 298 
 BRR  HZ I        2215 41.41        30.9 0.36            148           74.6 298 
 PTB  HZ EP       2215 26.57                             130   -0.69 9  151 259 
 PTB  HE ES       2215 48.37                             130   -0.03 9  151 259 
 PTB  HZ I        2215 49.37        15.1 0.20            128            151 259 
 SPBC HN ES   2   2215 50.52                             128   -0.38 5  165 220 
 YPLC HZ EP       2215 29.99                             126    0.40 9  175 152 
 YPLC HN ES       2215 51.95                             126   -0.58 9  175 152 
 YPLC HZ I        2215 54.87         8.1 0.30            126            175 152 
 ZAR  HZ EP       2215 32.56                             121   -0.27 8  208 292 
 ZAR  HN ES       2215 58.84                             121    0.53 8  208 292 
 ZAR  HZ I        2216  4.09        21.2 0.28            121            208 292 
 TABC EZ EP   4   2215 37.06                             118    1.13 0  231 212 
 TABC EZ ES   4   2216  5.71                             118    1.88 0  231 212 
 TABC EZ I        2216  9.86        23.1 0.42            117            231 212 
 NOR  HE ES   4   2216  2.61                             117   -1.42 0  237 235 
 CHI  HZ EP       2215 38.46                             116    0.67 8  249 196 
 CHI  HN ES       2216  7.82                             116    0.69 8  249 196 
 CHI  HZ I        2216 14.60         5.6 0.48            115            249 196 
 ROSC BN ES   4   2216 12.41                             116    4.34 0  254 212 
 ROSC BZ I        2216 16.40        12.7 0.40            115            254 212 
 HEL  HZ EP   4   2215 42.22                             113    1.58 0  275 256 
 HEL  HN ES       2216 12.58                             113    0.38 7  275 256 
 HEL  HZ I        2216 20.57         7.2 0.22            113            275 256 
 PTGC HZ EP   9   2215 43.45                             111   -0.27 0  307 159 
 PTGC HN ES       2216 16.16                             111   -1.26 7  307 159 
 CBOC HZ EP   2   2215 46.54                             109   -0.82 3  337 252 
 CBOC HN ES       2216 24.04                             109   -0.13 7  337 252 
 CBOC HZ I        2216 35.49         4.4 0.48            109            337 252 
 DBB  EZ EP   2   2215 47.96                             108   -0.01 3  343 274 
 DBB  EN ES       2216 24.25                             108   -1.00 7  343 274 
 DBB  EZ I        2216 26.88         7.9 0.36            109            343 274 
 ORTC HZ EP   4   2215 49.43                             105   -4.78 0  397 217 
 ORTC HN ES   4   2216 38.32                             105    1.96 0  397 217 
 ORTC HZ I        2216 43.15         4.1 0.64            106            397 217 
 PAL  HZ EP       2215 55.83                             105    0.25 6  408 239 
 PAL  HE ES   4   2216 37.39                             105   -1.41 0  408 239 
 PAL  HZ I        2216 43.71         2.8 0.28            105            408 239 
 SJC  HZ EP   4   2215 53.99                             105   -1.95 0  412 327 
 SJC  HN ES   4   2216 35.13                             105   -4.31 0  412 327 
 SJC  HZ I        2216 38.75         2.7 0.44            106            412 327 
                                                                                
