 2014  915 2104  4.4 L   6.583 -73.516118.9  RSN  6 0.4 1.8LRSN                1
 GAP=109        0.99       4.8     4.6  8.1  0.8624E+01  0.9365E+01  0.6315E+01E
 Epicentro: EL CARMEN - SANTANDER                                              3
 ACTION:UPD 14-10-03 23:05 OP:nd   STATUS:               ID:20140915210404 L   I
 OLDACT:REG 14-09-16 03:21 OP:mh   STATUS:               ID:20140915205820     3
 2014-09-15-2058-20M.COL___284                                                 6
 STAT SP IPHASW D HRMM SECON CODA AMPLIT PERI AZIMU VELO AIN AR TRES W  DIS CAZ7
 BAR2 SZ EP     C 21 4 20.89                             162   -0.3110 36.9  88 
 BAR2 SZ I        21 4 35.45        49.3 0.17            157           36.9  88 
 BRR  HZ EP       21 4 21.62                             151   -0.4710 61.8 339 
 BRR  HN ES       21 4 35.94                             151    0.0210 61.8 339 
 BRR  HZ I        21 4 37.00        22.3 0.21            149           61.8 339 
 RUS  HZ EP       21 4 25.09                             141    0.3410 90.2 148 
 RUS  HE ES       21 4 40.90                             141    0.2510 90.2 148 
 RUS  HZ I        21 4 43.09         5.2 0.18            138           90.2 148 
 PTB  HZ EP   1   21 4 24.95                             136   -0.27 7  104 267 
 PTB  HN ES       21 4 41.31                             136   -0.1810  104 267 
 PTB  HZ I        21 4 43.81        10.9 0.14            136            104 267 
 ZAR  HZ EP       21 4 32.27                             119   -0.25 9  179 304 
 ZAR  HN ES       21 4 55.34                             119    0.86 9  179 304 
 ZAR  HZ I        21 4 59.62         6.0 0.30            118            179 304 
 NOR  HZ EP       21 4 33.85                             118    0.38 9  188 233 
 NOR  HN ES   1   21 4 55.56                             118   -0.62 7  188 233 
 NOR  HZ I        21 5  0.15         3.8 0.14            117            188 233 
                                                                                
