 2010  915 2301 28.6 L   6.814 -73.073141.6  RSN  5 0.3 1.6LRSN                1
 GAP=167        0.76       6.0    12.3 12.4  0.2878E+02 -0.9932E+02 -0.4163E+02E
 Epicentro: LOS SANTOS - SANTANDER                                             3
 ACTION:UP  11-02-18 11:03 OP:tino STATUS:               ID:20100915230128 L   I
 2010-09-15-2258-36S.COL___119                                                 6
 STAT SP IPHASW D HRMM SECON CODA AMPLIT PERI AZIMU VELO SNR AR TRES W  DIS CAZ7
 BAR2 SZ ES   2   23 2  2.17                             169    -0.7 5   27 206 
 BAR2 SZ I        23 2  4.04        13.0 0.31                            27 206 
 BRR  HZ EP   1   23 1 49.63                             150    -0.1 8   78 295 
 BRR  HN ES   1   23 2  6.25                             150     0.1 8   78 295 
 BRR  HZ I        23 2 10.31        12.4 0.23                            78 295 
 RUS  HZ EP   1   23 1 51.69                             143    -0.4 8  102 181 
 RUS  HN ES   1   23 2 10.73                             143     0.4 8  102 181 
 RUS  HZ I        23 2 12.51         4.5 0.22                           102 181 
 GUE  SZ EP   1   23 1 52.55                             139    -0.2 8  114   8 
 GRA  SZ EP       23 1 53.42                             137     0.210  122  14 
 GRA  SZ I        23 1 54.51         5.2 0.43                           122  14 
                                                                                
