 2016  715 2100 50.3 L   6.768 -73.188151.9  RSN  7 0.3 1.6LRSN                1
 GAP=133        0.68       3.2     2.9  4.5 -0.3834E+00  0.3632E+01  0.2173E+01E
 Epicentro: LOS SANTOS - SANTANDER                                             3
 ACTION:UPD 17-03-29 16:51 OP:lp   STATUS:               ID:20160715210050 L   I
 OLDACT:UP  16-07-16 03:53 OP:edw  STATUS:               ID:20160715205759     3
 OLDACT:REG 16-07-16 03:02 OP:edw  STATUS:               ID:20160715205759     3
 2016-07-15-2057-59S.COL___331                                                 6
 STAT SP IPHASW D HRMM SECON CODA AMPLIT PERI AZIMU VELO AIN AR TRES W  DIS CAZ7
 BAR2 EZ EP       21 1 10.67                             172    0.0810 19.5 178 
 BAR2 EZ ES       21 1 26.48                             172    0.0510 19.5 178 
 BRR  HZ EP       21 1 11.98                             154   -0.0110 69.0 303 
 BRR  HN ES       21 1 29.26                             154    0.3510 69.0 303 
 BRR  HZ I        21 1 33.52        11.5 0.18            154           69.0 303 
 PAM  EZ EP       21 1 13.47                             150   -0.0310 83.0  40 
 PAM  EN ES       21 1 31.14                             150   -0.4610 83.0  40 
 PAM  EZ I        21 1 32.73         6.9 0.50            152           83.0  40 
 RUS  HZ EP       21 1 14.72                             146    0.2810 97.5 173 
 RUS  HN ES       21 1 33.27                             146   -0.0110 97.5 173 
 RUS  HZ I        21 1 34.45         5.2 0.30            149           97.5 173 
 PTB  HZ EP       21 1 17.70                             134    0.39 9  143 260 
 PTB  HN ES       21 1 38.04                             134   -0.34 9  143 260 
 PTB  HZ I        21 1 40.90         2.5 0.16            136            143 260 
 ZAR  HN ES       21 1 48.25                             124    0.01 9  201 294 
 NOR  HZ EP   4   21 1 20.11                             120   -5.66 0  229 234 
 NOR  HN ES   4   21 1 36.43                             120   -17.0 0  229 234 
 GUY2CHZ EP       21 1 33.17                             114   -0.37 7  295 235 
 GUY2CHN ES       21 2  7.03                             114   -0.24 7  295 235 
                                                                                
