 2012  115 2211 35.2 L   6.766 -73.146146.7  RSN  8 0.4 1.5LRSN                1
 GAP=138        0.70       5.1     5.3  7.3 -0.3934E+01  0.8106E+01  0.8561E+01E
 Epicentro: LOS SANTOS - SANTANDER                                             3
 ACTION:UP  12-02-03 08:17 OP:REBC STATUS:               ID:20120115221135 L   I
 2012-01-15-2210-00M.COL___187                                                 6
 STAT SP IPHASW D HRMM SECON CODA AMPLIT PERI AZIMU VELO SNR AR TRES W  DIS CAZ7
 BAR2 SZ ES   2   2212  9.96                             172    -0.3 5   20 192 
 GIR2 SZ EP   3   2211 54.98                             166    -0.1 2   35 351 
 GIR2 SZ ES   3   2212 10.64                             166     0.0 2   35 351 
 BRR  HZ EP       2211 56.85                             152     0.310   73 301 
 BRR  HZ I        2211 57.11        10.6 0.30                            73 301 
 BRR  HN ES   2   2212 14.05                             152     0.8 5   73 301 
 PAM  SZ EP       2211 57.56                             150    -0.110   80  38 
 PAM  SN ES   1   2212 14.81                             150    -0.4 7   80  38 
 RUS  HZ EP       2211 59.10                             145     0.310   97 176 
 RUS  HN ES   2   2212 17.13                             145     0.0 5   97 176 
 RUS  HZ I        2212 18.65         2.9 0.18                            97 176 
 PTB  HZ EP       2212  1.85                             132    -0.3 9  147 260 
 PTB  HN ES   2   2212 22.82                             132    -0.4 5  147 260 
 PTB  HZ I        2212 28.01         3.8 0.28                           147 260 
 ZAR  HN ES   3   2212 32.88                             122    -0.4 2  206 293 
 ZAR  HZ I        2212 38.07         4.1 0.34                           206 293 
 CHI  HZ EP   2   2212 12.63                             117     0.1 4  245 195 
 CHI  HN ES   3   2212 41.13                             117    -0.6 2  245 195 
 CHI  HZ I        2212 45.80         1.7 0.48                           245 195 
                                                                                
