 2017  915 2013 25.5 L   6.790 -73.130141.8  RSN 10 0.4 2.1LRSN                1
 GAP=114        0.81       2.7     3.1  4.6  0.9978E+00  0.3392E+01  0.3067E+01E
 Epicentro: LOS SANTOS - SANTANDER                                             3
 ACTION:UPD 17-10-05 19:12 OP:rebc STATUS:               ID:20170915201325 L   I
 OLDACT:UP  17-09-16 06:31 OP:dani STATUS:               ID:20170915200741     3
 OLDACT:REG 17-09-16 06:01 OP:dani STATUS:               ID:20170915200741     3
 2017-09-15-2008-00M.COL___456                                                 6
 STAT SP IPHASW D HRMM SECON CODA AMPLIT PERI AZIMU VELO AIN AR TRES W  DIS CAZ7
 BAR2 EZ EP     C 2013 44.44                             170   -0.1710 22.6 195 
 BAR2 EZ ES       2013 59.24                             170   -0.3010 22.6 195 
 BAR2 EZ I        2014  1.56        38.3 0.24            168           22.6 195 
 BRR  HZ EP     C 2013 46.25                             151   -0.0710 73.3 299 
 BRR  HN ES       2014  3.01                             151    0.4310 73.3 299 
 BRR  HZ I        2014  4.14        24.7 0.14            152           73.3 299 
 PAM  EZ EP       2013 47.28                             150    0.0310 77.1  38 
 PAM  EN ES       2014  4.11                             150   -0.1310 77.1  38 
 PAM  EZ I        2014  6.82        23.8 0.48            155           77.1  38 
 RUS  HZ EP       2013 48.48                             143   -0.2610 99.4 177 
 RUS  HN ES       2014  6.76                             143   -0.1410 99.4 177 
 RUS  HZ I        2014  9.21        14.5 0.36            144           99.4 177 
 SPBC HZ EP       2013 53.53                             128   -0.16 9  163 220 
 SPBC HN ES       2014 15.78                             128    0.07 9  163 220 
 SPBC HZ I        2014 22.18        24.1 0.10            129            163 220 
 YPLC HZ EP       2013 54.62                             126   -0.18 9  175 152 
 YPLC HE ES       2014 18.58                             126    0.91 9  175 152 
 YPLC HZ I        2014 21.61        17.7 0.24            128            175 152 
 ZAR  HZ EP       2013 58.18                             121    0.30 8  206 292 
 ZAR  HE ES       2014 23.41                             121    0.26 8  206 292 
 ZAR  HZ I        2014 29.17        21.0 0.32            123            206 292 
 NOR  HZ EP       2014  0.45                             118   -0.61 8  236 235 
 NOR  HE ES       2014 28.65                             118   -0.17 8  236 235 
 NOR  HZ I        2014 32.46        12.7 0.34            119            236 235 
 CHI  HZ EP       2014  3.02                             116    0.13 8  248 196 
 CHI  HN ES       2014 32.17                             116    0.10 8  248 196 
 CHI  HZ I        2014 36.44         4.1 0.25            118            248 196 
 GUY2CHZ EP   3   2014 10.89                             112    1.90 2  302 235 
 GUY2CHE ES   4   2014 45.70                             112    2.76 0  302 235 
 GUY2CHZ I        2014 50.80         7.8 0.44                           302 235 
                                                                                
