 2012  515 2320 33.5 L   6.816 -73.339119.0  RSN  5 0.1 1.4LRSN                1
 GAP=130        0.35       2.2     2.3  4.2  0.1103E+01  0.3348E+01 -0.1768E+00E
 Epicentro: ZAPATOCA - SANTANDER                                               3
 ACTION:UP  12-07-05 12:05 OP:pat  STATUS:               ID:20120515232033 L   I
 2012-05-15-2320-00M.COL___195                                                 6
 STAT SP IPHASW D HRMM SECON CODA AMPLIT PERI AZIMU VELO SNR AR TRES W  DIS CAZ7
 BAR2 SZ ES   2   2321  3.14                             165     0.1 5   30 145 
 BRR  HE ES   2   2321  3.95                             155    -0.2 5   52 308 
 PAM  SZ EP   1   2320 53.93                             140     0.0 7   91  51 
 PAM  SN ES   1   2321  9.96                             140     0.0 7   91  51 
 RUS  HZ EP   1   2320 55.31                             136     0.1 7  106 165 
 RUS  HN ES   1   2321 11.97                             136    -0.1 7  106 165 
 RUS  HZ I        2321 13.63         2.2 0.30                           106 165 
 ZAR  HZ EP   1   2321  1.95                             119    -0.2 7  184 294 
 ZAR  HN ES   1   2321 24.66                             119     0.2 7  184 294 
 ZAR  HZ I        2321 28.62         5.2 0.33                           184 294 
                                                                                
