 2017  115 2331 18.1 L   6.802 -73.162142.8  RSN  5 0.4 1.6LRSN                1
 GAP=134        1.12       5.7     5.0  9.8  0.1971E+01  0.8731E+01  0.6433E+01E
 Epicentro: LOS SANTOS - SANTANDER                                             3
 ACTION:UPD 17-05-22 16:00 OP:jn   STATUS:               ID:20170115233117 L   I
 OLDACT:UP  17-04-20 15:36 OP:nlst STATUS:               ID:20170115233117 L   3
 OLDACT:REG 17-01-16 04:08 OP:lv   STATUS:               ID:20170115232743     3
 2017-01-15-2328-00M.COL___332                                                 6
 STAT SP IPHASW D HRMM SECON CODA AMPLIT PERI AZIMU VELO AIN AR TRES W  DIS CAZ7
 BRR  HZ EP       2331 39.13                             153    0.2610 69.5 299 
 BRR  HN ES       2331 55.74                             153    0.7010 69.5 299 
 BRR  HZ I        2331 58.78         6.3 0.36            154           69.5 299 
 PAM  EZ EP       2331 40.18                             150    0.0810 78.3  41 
 PAM  EE ES       2331 56.63                             150   -0.5910 78.3  41 
 RUS  HZ EP       2331 42.00                             143    0.3710  101 175 
 RUS  HN ES       2331 59.98                             143    0.0310  101 175 
 RUS  HZ I        2332  1.03         6.6 0.60            146            101 175 
 PTB  HZ EP       2331 44.29                             132   -0.43 9  146 259 
 PTB  HN ES       2332  4.78                             132   -0.66 9  146 259 
 ZAR  HE ES       2332 15.37                             122    0.14 9  202 292 
                                                                                
