 2017  915 2129 10.4 L   6.741 -73.141150.0  RSN  4 0.1 1.6LRSN                1
 GAP=233        0.43       2.9     4.4  4.3  0.2736E+01  0.1101E+02  0.2822E+01E
 Epicentro: LOS SANTOS - SANTANDER                                             3
 ACTION:UPD 17-10-05 19:12 OP:rebc STATUS:               ID:20170915212910 L   I
 OLDACT:DUP 17-09-16 06:38 OP:dani STATUS:               ID:20170915212043d    3
 OLDACT:REG 17-09-16 06:06 OP:dani STATUS:               ID:20170915212042     3
 2017-09-15-2128-00M.COL___447                                                 6
 STAT SP IPHASW D HRMM SECON CODA AMPLIT PERI AZIMU VELO AIN AR TRES W  DIS CAZ7
 BAR2 EZ ES       2129 46.04                             173   -0.0510 17.1 195 
 BRR  HZ EP       2129 32.07                             152   -0.1810 74.9 303 
 BRR  HN ES       2129 49.39                             152    0.1310 74.9 303 
 BRR  HZ I        2129 52.30        19.7 0.40            148           74.9 303 
 RUS  HN ES       2129 52.67                             146    0.0210 94.0 176 
 NOR  HZ EP       2129 46.30                             120    0.24 8  231 236 
 NOR  HN ES       2130 13.71                             120   -0.13 8  231 236 
 NOR  HZ I        2130 19.21         1.2 0.34            119            231 236 
                                                                                
