 2016  715 2152 51.6 L   6.800 -73.117148.4  RSN 15 0.5 2.3LRSN                1
 GAP=100        1.08       3.7     3.1  5.3 -0.9092E+00  0.4087E+01  0.4788E+01E
 Epicentro: LOS SANTOS - SANTANDER                                             3
 ACTION:UPD 17-03-29 16:51 OP:lp   STATUS:               ID:20160715215252dL   I
 OLDACT:UP  16-07-16 04:17 OP:edw  STATUS:               ID:20160715214759     3
 OLDACT:UP  16-07-16 04:13 OP:edw  STATUS:               ID:20160715214759     3
 OLDACT:REG 16-07-16 03:10 OP:edw  STATUS:               ID:20160715214759     3
 2016-07-15-2147-59S.COL___325                                                 6
 STAT SP IPHASW D HRMM SECON CODA AMPLIT PERI AZIMU VELO AIN AR TRES W  DIS CAZ7
 BAR2 EZ EP       2153 11.29                             170   -0.2510 24.0 197 
 BAR2 EZ ES       2153 26.34                             170   -0.7710 24.0 197 
 BAR2 EZ I        2153 29.08        25.2 0.14            168           24.0 197 
 BRR  HZ EP       2153 13.30                             152    0.1210 74.0 297 
 BRR  HN ES       2153 30.67                             152    0.6610 74.0 297 
 BRR  HZ I        2153 35.13        27.1 0.26            151           74.0 297 
 PAM  EZ EP       2153 14.14                             152    0.1710 75.5  38 
 PAM  EN ES       2153 31.46                             152    0.0310 75.5  38 
 PAM  EZ I        2153 33.57        26.8 0.48            157           75.5  38 
 RUS  HZ EP       2153 15.20                             144   -0.3810  100 178 
 RUS  HN ES       2153 34.69                             144    0.4010  100 178 
 PTB  HZ EP       2153 18.24                             132   -0.81 9  151 259 
 PTB  HN ES       2153 39.67                             132   -0.79 9  151 259 
 PTB  HZ I        2153 45.22        31.0 0.28            132            151 259 
 TAM  HZ EP       2153 19.39                             132    0.20 9  152 105 
 TAM  HN ES       2153 41.14                             132    0.41 9  152 105 
 SPBC HZ EP       2153 20.31                             129   -0.16 9  165 220 
 SPBC HN ES       2153 43.04                             129    0.04 9  165 220 
 SPBC HZ I        2153 49.48        49.5 0.34            130            165 220 
 ZAR  HZ EP       2153 24.03                             122   -0.47 8  207 292 
 ZAR  HN ES       2153 50.48                             122    0.30 8  207 292 
 ZAR  HZ I        2153 55.82        30.8 0.17            124            207 292 
 NOR  HZ EP       2153 27.54                             119   -0.20 8  237 235 
 NOR  HN ES       2153 56.64                             119    0.70 8  237 235 
 NOR  HZ I        2153 59.09        20.6 0.12            120            237 235 
 CHI  HZ EP       2153 29.69                             118    0.17 8  249 196 
 CHI  HN ES       2153 58.63                             118   -0.47 8  249 196 
 CHI  HZ I        2154  2.77         7.6 0.40            119            249 196 
 HEL  HZ EP       2153 32.57                             115    0.30 8  275 256 
 HEL  HN ES       2154  4.48                             115    0.48 8  275 256 
 HEL  HZ I        2154 11.07         7.9 0.24            116            275 256 
 URE  HZ EP   4   2153 31.92                             114   -1.19 0  287 292 
 URE  HN ES   4   2154  3.62                             114   -1.88 0  287 292 
 SOCV BZ EP   4   2153 33.90                             113   -0.56 0  299  57 
 SOCV BN ES   4   2154  5.92                             113   -1.99 0  299  57 
 GUY2CHZ EP       2153 36.26                             113    0.66 7  304 235 
 GUY2CHN ES   4   2154 13.29                             113    3.36 0  304 235 
 GUY2CHZ I        2154 18.55        12.0 0.62                           304 235 
 ELA  HZ EP       2153 38.74                             111   -0.08 7  331 230 
 ELA  HN ES       2154 16.36                             111    0.70 7  331 230 
 ELA  HZ I        2154 23.15         8.4 0.36            112            331 230 
 PRA  HZ EP       2153 44.88                             107   -0.50 6  394 210 
 PRA  HN ES       2154 27.52                             107    0.19 6  394 210 
 PRA  HZ I        2154 34.80         8.3 0.28            108            394 210 
 SJC  HZ EP   4   2153 45.48                             106   -1.96 0  411 327 
 SJC  HN ES   4   2154 28.05                             106   -2.96 0  411 327 
 SJC  HZ I        2154 31.63         3.2 0.38            108            411 327 
                                                                                
