 2015  915 2029 45.3 L   6.846 -73.162145.3  RSN  6 0.3 1.6LRSN                1
 GAP=108        0.85       4.7     3.3  6.3  0.1050E+01  0.1696E+01 -0.2504E+00E
 Epicentro: LOS SANTOS - SANTANDER                                             3
 ACTION:UPD 15-10-28 16:26 OP:cam  STATUS:               ID:20150915202945 L   I
 OLDACT:REG 15-09-16 03:21 OP:stll STATUS:               ID:20150915202749     3
 2015-09-15-2027-49M.COL___328                                                 6
 STAT SP IPHASW D HRMM SECON CODA AMPLIT PERI AZIMU VELO AIN AR TRES W  DIS CAZ7
 BRR  HZ EP       2030  6.39                             154    0.2310 67.3 295 
 BRR  HN ES       2030 22.68                             154    0.2310 67.3 295 
 PAM  EZ EP       2030  7.17                             152   -0.1110 74.7  43 
 PAM  EN ES       2030 24.25                             152   -0.2010 74.7  43 
 PAM  EZ I        2030 26.13         6.8 0.40            152           74.7  43 
 RUS  HN ES       2030 28.45                             142    0.2910  106 175 
 PTB  HZ EP       2030 11.68                             132   -0.46 9  147 257 
 PTB  HN ES       2030 32.65                             132   -0.45 9  147 257 
 PTB  HZ I        2030 35.08         5.0 0.14            132            147 257 
 TAM  HZ EP       2030 13.08                             130   -0.12 9  158 107 
 ZAR  HZ EP       2030 18.01                             123    0.69 9  201 291 
 ZAR  HN ES       2030 42.26                             123   -0.06 9  201 291 
 ZAR  HZ I        2030 48.06         5.5 0.32            122            201 291 
                                                                                
