 2013  615 2005  0.7 L   6.812 -73.134145.9  RSN 10 0.5 2.2LRSN                1
 GAP=184        1.11       4.4     6.1  7.3 -0.1428E+01  0.8734E+01  0.5517E+01E
 Epicentro: LOS SANTOS - SANTANDER                                             3
 ACTION:UPD 14-01-08 09:54 OP:ep   STATUS:               ID:20130615200500 L   I
 OLDACT:REG 13-06-15 22:01 OP:nd   STATUS:               ID:20130615200348     3
 2013-06-15-2003-48M.COL___222                                                 6
 STAT SP IPHASW D HRMM SECON CODA AMPLIT PERI AZIMU VELO AIN AR TRES W  DIS CAZ7
 BAR2 SZ EP       20 5 20.33                             170   -0.0310 24.9 192 
 BAR2 SZ ES       20 5 35.77                             170    0.0610 24.9 192 
 BAR2 SZ I        20 5 37.89        25.4 0.20            172           24.9 192 
 GIR2 SZ EP       20 5 20.62                             168    0.2810 30.2 348 
 GIR2 SZ I        20 5 40.11         7.2 0.16            163           30.2 348 
 BRR  HZ EP       20 5 22.52                             152    0.6510 71.7 297 
 BRR  HN ES       20 5 38.99                             152    0.5910 71.7 297 
 BRR  HZ I        20 5 44.56        25.3 0.22            148           71.7 297 
 RUS  HZ EP       20 5 24.32                             143   -0.2110  102 177 
 RUS  HN ES       20 5 42.78                             143   -0.3610  102 177 
 RUS  HZ I        20 5 44.47        16.5 0.24            144            102 177 
 PTB  HZ EP       20 5 27.42                             132   -0.37 9  149 258 
 PTB  HN ES       20 5 48.09                             132   -0.85 9  149 258 
 PTB  HZ I        20 5 53.48        20.2 0.22            129            149 258 
 OCA  HZ EP   4   20 5 24.29                             130   -4.60 0  159 353 
 OCA  HN ES       20 5 50.46                             130   -0.44 9  159 353 
 OCA  HZ I        20 5 55.50        22.6 0.54            126            159 353 
 NOR  HZ EP       20 5 36.83                             118    0.23 8  236 234 
 NOR  HN ES       20 6  4.82                             118    0.19 8  236 234 
 NOR  HZ I        20 6 11.41        16.7 0.18            117            236 234 
 HEL  HZ EP   4   20 5 43.51                             115    2.44 0  274 256 
 HEL  HN ES   4   20 6 11.91                             115   -0.66 0  274 256 
 HEL  HZ I        20 6 19.11        15.8 0.36            113            274 256 
 GUY2CHZ EP   4   20 5 44.95                             112    0.46 0  303 235 
 GUY2CHN ES   4   20 6 17.47                             112   -1.20 0  303 235 
 GUY2CHZ I        20 6 24.89         9.1 0.26                           303 235 
 PRA  HZ EP       20 5 54.15                             106   -0.26 6  394 210 
 PRA  HN ES   1   20 6 37.64                             106    1.32 4  394 210 
 PRA  HZ I        20 6 44.32         5.6 0.26            105            394 210 
                                                                                
