 2012  515 2154 35.6 L   7.156 -73.717 91.3  RSN  4 0.5 1.4LRSN                1
 GAP=153        1.03       7.8     6.6 10.2  0.7054E+01  0.2015E+01  0.1173E+02E
 Epicentro: BARRANCABERMEJA - SANTANDER                                        3
 ACTION:UP  12-07-05 12:05 OP:pat  STATUS:               ID:20120515215435 L   I
 2012-05-15-2150-00M.COL___195                                                 6
 STAT SP IPHASW D HRMM SECON CODA AMPLIT PERI AZIMU VELO SNR AR TRES W  DIS CAZ7
 BRR  HZ EP   1   2154 47.31                             176    -0.7 7    5 175 
 BRR  HN ES   1   2154 57.69                             176     0.0 7    5 175 
 BRR  HZ I        2154 58.46        24.3 0.28                             5 175 
 PAM  SZ EP   1   2154 55.86                             125     0.0 7  114  80 
 PAM  SN ES   1   2155 11.80                             125     0.2 7  114  80 
 ZAR  HZ EP   1   2154 57.52                             120     0.5 7  131 287 
 ZAR  HZ I        2155 17.11         4.3 0.15                           131 287 
 RUS  HZ EP   1   2154 59.67                             116    -0.6 7  156 153 
 RUS  HZ I        2155 19.45         2.6 0.48                           156 153 
 RUS  HN ES   1   2155 20.14                             116     0.5 7  156 153 
                                                                                
