 2010  415 2322  8.4 L   6.743 -72.935144.3  RSN  5 0.4 2.0LRSN                1
 GAP=227        0.52       6.5    10.9  7.3 -0.8829E+00 -0.2427E+02  0.4999E+01E
 Epicentro: CEPITA - SANTANDER                                                 3
 ACTION:UPD 10-08-24 09:59 OP:vdl  STATUS:               ID:20100415232220 L   I
 2010-04-15-2319-04S.COL___100                                                 6
 STAT SP IPHASW D HRMM SECON CODA AMPLIT PERI AZIMU VELO AIN AR TRES W  DIS CAZ7
 BAR2 SZ EP   2   2322 28.59                             167     0.5 5   32 239 
 BAR2 SZ ES   2   2322 43.14                             167    -0.3 5   32 239 
 BRR  HZ IP     C 2322 31.13                             145     0.210   95 295 
 BRR  HZ I        2322 31.44        22.6 0.16                            95 295 
 BRR  HN ES   1   2322 48.35                             145    -0.1 7   95 295 
 OCA  SZ EP   2   2322 37.34                             128    -0.3 4  171 346 
 OCA  SZ ES   3   2322 59.72                             128    -0.7 2  171 346 
 RREF BZ EP   3   2322 56.13                             110     0.0 2  336 233 
 RREF BN ES   3   2323 33.69                             110     0.4 2  336 233 
 RREF BZ I        2323 38.07         2.8 0.24                           336 233 
 PRA  HZ EP   2   2323  1.80                             106    -0.9 3  399 213 
 PRA  HE ES   3   2323 44.56                             106    -0.4 1  399 213 
 PRA  HZ I        2323 50.62         3.5 0.72                           399 213 
                                                                                
