 2015  215 2220 37.6 L   6.804 -73.142146.7  RSN 18 0.5 2.6LRSN                1
 GAP= 71        1.20       2.9     3.7  5.4 -0.2606E+01  0.4657E+01  0.2704E+01E
 Epicentro: LOS SANTOS - SANTANDER                                             3
 ACTION:UPD 15-04-30 21:26 OP:nd   STATUS:               ID:20150215222037 L   I
 OLDACT:UP  15-02-16 07:19 OP:cam  STATUS:               ID:20150215221747     3
 OLDACT:REG 15-02-16 05:51 OP:cm   STATUS:               ID:20150215221747     3
 2015-02-15-2217-47M.COL___302                                                 6
 STAT SP IPHASW D HRMM SECON CODA AMPLIT PERI AZIMU VELO AIN AR TRES W  DIS CAZ7
 BAR2 EZ IP     C 2220 57.34                             170    0.0110 23.8 191 
 BAR2 EZ ES       2221 12.06                             170   -0.6810 23.8 191 
 BAR2 EZ I        2221 13.47        70.5 0.18            169           23.8 191 
 BRR  HZ IP     C 2220 59.32                             153    0.4810 71.3 298 
 BRR  HN ES       2221 16.56                             153    1.1410 71.3 298 
 BRR  HZ I        2221 19.94        59.2 0.16            150           71.3 298 
 PAM  SZ IP     D 2221  0.34                             151    0.4810 76.8  40 
 PAM  SN ES       2221 17.46                             151    0.2210 76.8  40 
 PAM  SZ I        2221 21.69        36.0 0.26            147           76.8  40 
 RUS  HZ IP     C 2221  1.07                             144   -0.3810  101 176 
 RUS  HN ES       2221 19.86                             144   -0.2110  101 176 
 RUS  HZ I        2221 20.83        30.4 0.36            139            101 176 
 PTB  HZ EP       2221  3.76                             132   -0.91 9  148 259 
 PTB  HN ES       2221 25.37                             132   -0.42 9  148 259 
 PTB  HZ I        2221 30.79        68.7 0.14            128            148 259 
 TAM  HZ EP     C 2221  5.56                             131    0.25 9  155 105 
 TAM  HZ I        2221 26.28        35.7 0.28            126            155 105 
 TAM  HN ES       2221 27.16                             131    0.22 9  155 105 
 OCA  HZ EP       2221  5.23                             130   -0.70 9  160 353 
 OCA  HN ES       2221 28.17                             130    0.12 9  160 353 
 OCA  HZ I        2221 33.88        34.1 0.40            126            160 353 
 SPBC HZ IP     D 2221  6.23                             129    0.03 9  164 219 
 SPBC HN ES       2221 28.03                             129   -0.50 9  164 219 
 SPBC HZ I        2221 34.81       100.5 0.36            125            164 219 
 NOR  HZ EP       2221 13.35                             119   -0.07 8  235 234 
 NOR  HE ES       2221 41.91                             119    0.53 8  235 234 
 NOR  HZ I        2221 47.48        47.6 0.20            115            235 234 
 SML  HZ EP       2221 14.05                             118   -0.19 8  244 335 
 SML  HN ES       2221 42.02                             118   -0.81 8  244 335 
 SML  HZ I        2221 46.57        27.5 0.10            114            244 335 
 CHI  HZ EP       2221 15.19                             117   -0.19 8  249 195 
 CHI  HN ES       2221 44.17                             117   -0.70 8  249 195 
 CHI  HZ I        2221 51.16        16.5 0.26            113            249 195 
 ROSC BZ EP       2221 16.51                             117    0.70 8  253 211 
 ROSC BE ES       2221 45.55                             117   -0.08 8  253 211 
 ROSC BZ I        2221 54.29        42.2 0.40            113            253 211 
 GUY2CHZ I        2222  3.02        35.5 0.26                           302 235 
 RREF HZ EP       2221 24.25                             111    0.42 7  322 229 
 RREF HN ES       2222  0.42                             111    0.53 7  322 229 
 RREF HZ I        2222  6.27        32.2 0.22            107            322 229 
 TOL  SZ EP       2221 26.19                             109    0.25 7  344 225 
 TOL  SE ES       2222  4.04                             109    0.39 7  344 225 
 TOL  SZ I        2222 10.68        18.9 0.44            106            344 225 
 ANIL HZ EP       2221 28.45                             109    0.97 6  358 225 
 ANIL HE ES       2222  6.88                             109    0.47 6  358 225 
 ANIL HZ I        2222 13.34         6.9 0.38            105            358 225 
 PRA  HZ EP       2221 30.40                             107   -0.80 6  393 210 
 PRA  HN ES       2222 13.14                             107    0.13 6  393 210 
 PRA  HZ I        2222 21.14        22.6 0.38            103            393 210 
 PAL  HZ EP       2221 32.86                             106    0.03 6  406 239 
 PAL  HZ I        2222 20.41         8.7 0.24            103            406 239 
                                                                                
