 2011  715 2343 48.2 L   6.768 -73.095148.1  RSN  9 0.3 1.9LRSN                1
 GAP=145        0.49       2.1     4.0  3.7 -0.3189E+01  0.2126E+01 -0.2132E-02E
 Epicentro: LOS SANTOS - SANTANDER                                             3
 ACTION:UPD 12-07-25 14:01 OP:epov STATUS:               ID:20110715234348 L   I
 2011-07-15-2342-38S.COL___132                                                 6
 STAT SP IPHASW D HRMM SECON CODA AMPLIT PERI AZIMU VELO AIN AR TRES W  DIS CAZ7
 BAR2 SZ EP   1   2344  7.72                             171   -0.32 7 21.7 206 
 BAR2 SZ ES   1   2344 23.40                             171   -0.15 7 21.7 206 
 BAR2 SZ I        2344 25.87        21.7 0.29                          21.7 206 
 PAM  SZ EP   2   2344 10.31                             151   -0.28 5 76.8  35 
 PAM  SN ES   1   2344 28.06                             151   -0.03 7 76.8  35 
 BRR  HZ EP       2344  9.98                             151    0.0410 77.8 299 
 BRR  HZ I        2344 10.33        29.4 0.18                          77.8 299 
 BRR  HN ES   1   2344 26.99                             151    0.06 7 77.8 299 
 RUS  HZ EP   1   2344 12.06                             145    0.18 7 96.9 179 
 RUS  HN ES   1   2344 30.73                             145    0.34 7 96.9 179 
 RUS  HZ I        2344 32.03         4.5 0.26                          96.9 179 
 BRI  SZ EP   1   2344 12.33                             141   -0.06 7  110  17 
 GRA  SZ EP       2344 13.88                             137    0.1210  128  15 
 GRA  SZ ES       2344 33.46                             137   -0.2810  128  15 
 GRA  SZ I        2344 35.91        12.6 0.29                           128  15 
 OCA  SZ EP   1   2344 16.94                             129   -0.11 7  164 351 
 OCA  SZ ES   1   2344 40.14                             129    0.56 7  164 351 
 OCA  SZ I        2344 47.62         9.5 0.16                           164 351 
 NOR  SZ EP   1   2344 24.34                             119    0.04 6  237 236 
 NOR  SN ES   2   2344 51.90                             119   -0.60 4  237 236 
 CHI  HZ EP   2   2344 26.09                             118    0.30 4  247 197 
 CHI  HN ES   2   2344 55.14                             118   -0.01 4  247 197 
 CHI  HZ I        2345  5.04         4.0 0.25                           247 197 
                                                                                
