 2012  815 2153 41.9 L   6.760 -73.111149.3  RSN  9 0.2 2.0LRSN                1
 GAP=143        0.42       2.3     2.6  3.7  0.1180E+00  0.2977E+01  0.6780E+00E
 Epicentro: LOS SANTOS - SANTANDER                                             3
 ACTION:UPD 12-09-10 11:56 OP:ep   STATUS:               ID:20120815215341 L   I
 2012-08-15-2150-00M.COL___217                                                 6
 STAT SP IPHASW D HRMM SECON CODA AMPLIT PERI AZIMU VELO AIN AR TRES W  DIS CAZ7
 BAR2 SZ EP   1   2154  2.00                             172    0.07 7 20.1 203 
 BAR2 SZ ES   1   2154 17.39                             172   -0.14 7 20.1 203 
 BAR2 SZ I        2154 19.96        34.3 0.39                          20.1 203 
 GIR2 SZ EP   1   2154  2.09                             166   -0.08 7 36.4 346 
 GIR2 SZ ES   1   2154 17.87                             166   -0.09 7 36.4 346 
 BRR  HZ EP   1   2154  3.82                             151    0.04 7 76.7 300 
 BRR  HZ I        2154  4.34        18.6 0.13                          76.7 300 
 BRR  HN ES   1   2154 21.06                             151    0.25 7 76.7 300 
 PAM  SZ EP   1   2154  4.79                             151    0.19 7 78.6  35 
 PAM  SZ I        2154  5.02        31.1 0.19                          78.6  35 
 PAM  SN ES   1   2154 22.08                             151   -0.19 7 78.6  35 
 RUS  HZ EP   1   2154  5.86                             146    0.15 7 96.0 178 
 RUS  HN ES   1   2154 24.34                             146    0.08 7 96.0 178 
 RUS  HZ I        2154 25.85         8.1 0.22                          96.0 178 
 PTB  HZ EP   1   2154  8.93                             132   -0.53 7  151 261 
 PTB  HZ I        2154 31.62         9.3 0.33                           151 261 
 OCA  HN ES   1   2154 33.76                             129    0.13 7  165 352 
 ZAR  HN ES   1   2154 40.97                             122   -0.08 6  209 293 
 HEL  HN ES   1   2154 54.54                             115    0.19 6  275 257 
                                                                                
