 2017  215 2322 24.6 L   6.757 -73.149140.2  RSN  8 0.5 1.9LRSN                1
 GAP=138        1.13       4.6     4.6  7.4 -0.1315E+01  0.1123E+02  0.2828E+01E
 Epicentro: LOS SANTOS - SANTANDER                                             3
 ACTION:UPD 17-05-24 15:36 OP:jn   STATUS:               ID:20170215232224 L   I
 OLDACT:REG 17-02-16 02:49 OP:ar   STATUS:               ID:20170215231744     3
 2017-02-15-2318-00M.COL___358                                                 6
 STAT SP IPHASW D HRMM SECON CODA AMPLIT PERI AZIMU VELO AIN AR TRES W  DIS CAZ7
 BAR2 EZ EP       2322 43.35                             172   -0.1010 18.6 191 
 BAR2 EZ ES       2322 57.92                             172   -0.2410 18.6 191 
 BAR2 EZ I        2322 59.15        28.2 0.34            171           18.6 191 
 BRR  HZ EP       2322 45.07                             151   -0.1810 73.3 302 
 BRR  HN ES       2323  2.01                             151    0.6410 73.3 302 
 BRR  HZ I        2323  6.02        21.6 0.26            149           73.3 302 
 PAM  EZ EP     C 2322 46.22                             148   -0.2310 81.3  38 
 PAM  EE ES       2323  3.30                             148   -0.2110 81.3  38 
 PAM  EZ I        2323  5.68        15.4 0.40            152           81.3  38 
 RUS  HZ EP       2322 47.94                             144    0.5010 95.9 176 
 RUS  HE ES       2323  5.51                             144    0.2410 95.9 176 
 RUS  HZ I        2323  6.83         4.0 0.32            145           95.9 176 
 PTB  HZ EP       2322 50.38                             131   -0.61 9  147 261 
 PTB  HN ES       2323 11.01                             131   -0.57 9  147 261 
 PTB  HZ I        2323 13.35        10.3 0.12            131            147 261 
 ZAR  HZ EP       2322 57.73                             121    0.90 8  206 293 
 ZAR  HN ES       2323 21.86                             121   -0.11 8  206 293 
 ZAR  HZ I        2323 27.31         9.4 0.15            121            206 293 
 NOR  HN ES       2323 27.48                             118    0.45 8  232 235 
 NOR  HZ I        2323 33.47         6.1 0.18            118            232 235 
 PRA  HZ EP   4   2323 14.82                             106   -2.59 0  388 210 
 PRA  HN ES       2323 57.90                             106   -0.71 6  388 210 
 PRA  HZ I        2324  4.01         2.9 0.72            107            388 210 
                                                                                
