 2017  615 2209 44.6 L   6.823 -73.111149.8  RSN 18 0.4 2.4LRSN                1
 GAP=218        0.94       3.5     3.8  6.2  0.4943E+01 -0.9754E+00  0.3630E+01E
 Epicentro: LOS SANTOS - SANTANDER                                             3
 ACTION:UPD 17-09-14 16:52 OP:jn   STATUS:               ID:20170615220944 L   I
 OLDACT:UP  17-06-16 06:29 OP:edw  STATUS:               ID:20170615220741     3
 OLDACT:UP  17-06-16 06:27 OP:edw  STATUS:               ID:20170615220741     3
 OLDACT:UP  17-06-16 06:27 OP:edw  STATUS:               ID:20170615220741     3
 OLDACT:REG 17-06-16 03:24 OP:edw  STATUS:               ID:20170615220741     3
 2017-06-15-2208-00M.COL___359                                                 6
 STAT SP IPHASW D HRMM SECON CODA AMPLIT PERI AZIMU VELO AIN AR TRES W  DIS CAZ7
 BRR  HZ IP     C 2210  6.53                             152    0.2410 73.5 295 
 BRR  HN ES       2210 23.62                             152    0.4010 73.5 295 
 BRR  HZ I        2210 29.62        39.1 0.12            151           73.5 295 
 PTB  HZ EP     C 2210 11.66                             132   -0.60 9  152 258 
 PTB  HE ES       2210 33.36                             132   -0.50 9  152 258 
 PTB  HZ I        2210 34.84        20.4 0.18            132            152 258 
 SPBC HN ES   2   2210 36.62                             129    0.02 5  168 219 
 YPLC HZ EP       2210 14.96                             127    0.25 9  177 153 
 YPLC HN ES       2210 37.87                             127   -0.35 9  177 153 
 YPLC HZ I        2210 41.71        25.0 0.28            131            177 153 
 ZAR  HZ EP       2210 17.40                             123   -0.16 8  207 291 
 ZAR  HN ES       2210 43.57                             123    0.29 8  207 291 
 ZAR  HZ I        2210 49.00        36.9 0.22            124            207 291 
 TABC EZ EP       2210 21.77                             120    0.76 8  234 211 
 TABC EZ ES       2210 48.82                             120   -0.61 8  234 211 
 TABC EZ I        2210 54.36        35.5 0.46            121            234 211 
 NOR  HZ EP       2210 20.89                             119   -0.15 8  239 235 
 NOR  HN ES       2210 49.45                             119   -0.03 8  239 235 
 NOR  HZ I        2210 54.83        23.5 0.18            120            239 235 
 CHI  HZ EP       2210 23.15                             118    0.27 8  252 196 
 CHI  HN ES       2210 53.14                             118    0.38 8  252 196 
 CHI  HZ I        2210 59.73        12.9 0.28            119            252 196 
 ROSC BZ EP   4   2210 25.38                             117    2.01 0  257 211 
 ROSC BN ES   4   2210 55.79                             117    2.15 0  257 211 
 ROSC BZ I        2211  1.52        19.5 0.35            119            257 211 
 HEL  HZ EP   4   2210 26.58                             115    1.10 0  276 255 
 HEL  HN ES       2210 57.35                             115   -0.03 7  276 255 
 HEL  HZ I        2211  4.99         9.4 0.50            117            276 255 
 URE  HZ EP       2210 25.51                             114   -0.63 7  286 291 
 URE  HE ES   4   2210 56.40                             114   -2.16 0  286 291 
 URE  HZ I        2211  9.45        21.2 0.38            116            286 291 
 VIL  EZ EP   4   2210 30.96                             112    2.41 0  307 192 
 VIL  EN ES       2211  3.06                             112    0.20 7  307 192 
 VIL  EZ I        2211  6.76        15.9 0.32            114            307 192 
 PTGC HZ IP     C 2210 27.91                             112   -0.82 7  310 159 
 PTGC HN ES   4   2211  1.23                             112   -1.94 0  310 159 
 PTGC HZ I        2211  3.76        12.7 0.48            115            310 159 
 CBOC HZ EP   4   2210 33.06                             110    0.89 0  338 252 
 CBOC HN ES       2211  8.91                             110   -0.39 7  338 252 
 CBOC HZ I        2211 14.19         4.1 0.30            112            338 252 
 DBB  EZ EP       2210 33.34                             110    0.70 7  343 274 
 DBB  EN ES   4   2211  2.89                             110   -7.24 0  343 274 
 DBB  EZ I        2211 16.79         5.9 0.28            112            343 274 
 ARGC HZ EP   4   2210 35.86                             109    1.60 0  358 340 
 ARGC HN ES   4   2211  8.38                             109   -4.63 0  358 340 
 ORTC HZ EP       2210 39.51                             107    0.37 6  400 216 
 ORTC HN ES       2211 22.37                             107    0.66 6  400 216 
 ORTC HZ I        2211 26.09         8.0 0.38            108            400 216 
 SJC  HZ EP   4   2210 38.77                             106   -1.50 0  409 326 
 SJC  HN ES   4   2211 20.23                             106   -3.48 0  409 326 
 SJC  HZ I        2211 24.63         8.7 0.44            109            409 326 
 PAL  HZ EP       2210 40.70                             106    0.29 6  410 239 
 PAL  HE ES   4   2211 22.20                             106   -1.77 0  410 239 
 PAL  HZ I        2211 28.83         4.3 0.68            108            410 239 
                                                                                
