 2014 1015 2117 26.0 L   6.516 -73.736 83.7  RSN  8 0.5 1.6LRSN                1
 GAP= 80        1.33       4.0     3.8  9.6  0.2144E+01  0.1689E+02  0.8555E+01E
 Epicentro: SANTA HELENA DEL OPON - SANTANDER                                  3
 ACTION:UPD 14-11-29 23:50 OP:nd   STATUS:               ID:20141015211726 L   I
 OLDACT:REG 14-10-16 07:08 OP:stll STATUS:               ID:20141015210748     3
 2014-10-15-2107-48M.COL___295                                                 6
 STAT SP IPHASW D HRMM SECON CODA AMPLIT PERI AZIMU VELO AIN AR TRES W  DIS CAZ7
 BAR2 SZ EP       2117 40.63                             141    0.1110 61.8  82 
 BAR2 SZ ES       2117 52.46                             141    0.6410 61.8  82 
 BAR2 SZ I        2117 53.82        43.9 0.44            148           61.8  82 
 BRR  HZ EP       2117 40.24                             139   -0.2410 65.4   2 
 BRR  HN ES       2117 52.34                             139    0.6010 65.4   2 
 PTB  HZ EP       2117 40.89                             133   -0.8610 79.7 272 
 PTB  HN ES       2117 53.12                             133   -0.8810 79.7 272 
 PTB  HZ I        2117 58.07        10.3 0.22            136           79.7 272 
 RUS  HZ EP       2117 44.01                             126   -0.2910 99.8 134 
 RUS  HN ES       2117 57.77                             126   -0.7810 99.8 134 
 RUS  HZ I        2118  1.78         4.5 0.32            131           99.8 134 
 SPBC HZ EP       2117 44.31                             125    0.2610  103 201 
 SPBC HN ES       2117 58.61                             125    0.5210  103 201 
 SPBC HZ I        2118  2.15         9.1 0.28            128            103 201 
 ZAR  HZ EP       2117 50.57                             112   -0.13 9  164 311 
 ZAR  HN ES       2118  9.87                             112   -0.06 9  164 311 
 HEL  HZ EP       2117 55.77                             108    0.29 9  202 260 
 HEL  HN ES       2118 19.07                             108    0.63 9  202 260 
 HEL  HZ I        2118 22.47         6.5 0.24            110            202 260 
 GUY2CHZ EP       2117 59.45                             105    0.46 8  230 232 
 GUY2CHN ES       2118 24.85                             105    0.16 8  230 232 
 GUY2CHZ I        2118 31.30         4.5 0.30                           230 232 
                                                                                
