 2012 1215 2237  9.8 L   6.586 -73.451121.6  RSN 11 0.4 1.8LRSN                1
 GAP= 63        0.88       3.2     3.7  6.8 -0.1198E+01  0.9669E+01  0.3792E+01E
 Epicentro: EL CARMEN DE CHUCURI - SANTANDER                                   3
 ACTION:UPD 13-01-04 14:28 OP:ep   STATUS:               ID:20121215223709 L   I
 2012-12-15-2230-00M.COL___239                                                 6
 STAT SP IPHASW D HRMM SECON CODA AMPLIT PERI AZIMU VELO AIN AR TRES W  DIS CAZ7
 BAR2 SZ EP   1   2237 26.80                             165    0.11 7 29.7  89 
 BAR2 SZ ES   1   2237 39.45                             165   -0.42 7 29.7  89 
 BAR2 SZ I        2237 40.54        32.0 0.16                          29.7  89 
 GIR2 SZ EP     C 2237 28.23                             151    0.2610 61.4  28 
 GIR2 SZ ES   1   2237 42.17                             151    0.01 7 61.4  28 
 GIR2 SZ I        2237 43.68        27.6 0.52                          61.4  28 
 BRR  HZ EP   1   2237 28.25                             150    0.30 7 64.4 333 
 BRR  HN ES   1   2237 42.63                             150    0.52 7 64.4 333 
 BRR  HZ I        2237 43.33        23.6 0.14                          64.4 333 
 RUS  HZ EP   1   2237 30.08                             142   -0.09 7 86.8 152 
 RUS  HN ES   1   2237 45.71                             142   -0.36 7 86.8 152 
 RUS  HZ I        2237 47.15         4.7 0.14                          86.8 152 
 PTB  HZ EP       2237 30.66                             135   -0.8310  111 267 
 PTB  HN ES   2   2237 49.03                             135    0.61 5  111 267 
 PTB  HZ I        2237 51.26        18.4 0.10                           111 267 
 PAM  SZ EP   1   2237 32.98                             133    0.29 7  118  45 
 PAM  SN ES   1   2237 50.48                             133   -0.07 7  118  45 
 PAM  SZ I        2237 53.82         7.0 0.24                           118  45 
 OCA  HN ES   1   2238  1.19                             119   -0.12 7  183   5 
 ZAR  HZ EP   1   2237 38.09                             119   -0.63 7  185 303 
 ZAR  HN ES   1   2238  1.80                             119    0.51 7  185 303 
 ZAR  HZ I        2238  8.14         9.6 0.44                           185 303 
 NOR  HZ EP   1   2237 39.51                             118   -0.18 7  194 234 
 NOR  HE ES   1   2238  2.73                             118   -0.29 7  194 234 
 NOR  HZ I        2238  7.97         5.4 0.16                           194 234 
 CHI  HZ EP   1   2237 43.74                             115    0.84 6  219 188 
 CHI  HN ES   1   2238  9.32                             115    0.60 6  219 188 
 CHI  HZ I        2238 14.09         2.1 0.32                           219 188 
 HEL  HE ES   1   2238 11.63                             113   -0.05 6  234 259 
                                                                                
