 2013 1016 0525 31.3 L   6.796 -73.125153.2  RSN  4 0.4 1.3LRSN                1
 GAP=203        0.94       5.1    10.2 10.4  0.1582E+02 -0.5007E+01 -0.8805E+01E
 Epicentro: LOS SANTOS - SANTANDER                                             3
 ACTION:UPD 13-11-25 09:21 OP:ep   STATUS:               ID:20131016052531 L   I
 OLDACT:REG 13-10-16 08:11 OP:jn   STATUS:               ID:20131016051959     3
 2013-10-16-0519-59M.COL___274                                                 6
 STAT SP IPHASW D HRMM SECON CODA AMPLIT PERI AZIMU VELO AIN AR TRES W  DIS CAZ7
 BRR  HZ EP        525 53.37                             153   -0.0110 73.4 298 
 BRR  HN ES   1    526 11.27                             153    0.67 7 73.4 298 
 RUS  HZ EP     D  525 56.14                             145    0.3910  100 177 
 RUS  HN ES        526 14.39                             145   -0.4310  100 177 
 RUS  HZ I         526 16.17         2.2 0.22            144            100 177 
 SPBC HZ EP        526  0.67                             130    0.19 9  164 220 
 SPBC HN ES        526 22.97                             130   -0.27 9  164 220 
 SPBC HZ I         526 27.85         3.8 0.22            128            164 220 
 SML  HE ES   1    526 36.75                             119   -0.76 6  245 335 
                                                                                
