 2011  816 0323  0.2 L   6.760 -73.129140.2  RSN  7 0.4 2.2LRSN                1
 GAP=140        0.76       3.5     6.4  6.4 -0.4012E+01  0.8265E+01  0.9977E+00E
 Epicentro: LOS SANTOS - SANTANDER                                             3
 ACTION:UPD 12-07-13 15:52 OP:ep   STATUS:               ID:20110816032300 L   I
 2011-08-16-0319-22S.COL___150                                                 6
 STAT SP IPHASW D HRMM SECON CODA AMPLIT PERI AZIMU VELO AIN AR TRES W  DIS CAZ7
 BAR2 SZ EP   1    323 19.24                             172    0.13 7 19.5 197 
 BAR2 SZ ES   1    323 33.66                             172   -0.19 7 19.5 197 
 BAR2 SZ I         323 35.55        66.8 0.19                          19.5 197 
 BRR  HZ EP   1    323 21.08                             150    0.09 7 74.9 301 
 BRR  HZ I         323 21.36        40.8 0.18                          74.9 301 
 BRR  HN ES   1    323 37.88                             150    0.68 7 74.9 301 
 PAM  SZ EP   1    323 22.21                             149    0.22 7 79.7  37 
 PAM  SN ES   1    323 39.09                             149    0.11 7 79.7  37 
 RUS  HZ EP   1    323 23.33                             144    0.23 7 96.1 177 
 RUS  HZ I         323 24.58        12.4 0.15                          96.1 177 
 RUS  HE ES   1    323 40.45                             144   -0.50 7 96.1 177 
 OCA  SZ EP   1    323 27.79                             128   -0.75 7  165 353 
 OCA  SZ ES   1    323 50.25                             128   -0.39 7  165 353 
 OCA  SZ I         323 53.96        18.0 0.19                           165 353 
 NOR  SZ EP   1    323 35.97                             117    0.45 6  234 236 
 NOR  SN ES   2    324  2.17                             117   -0.89 4  234 236 
 CHI  HZ EP   2    323 37.60                             116    0.39 4  245 196 
 CHI  HN ES   2    324  6.19                             116    0.13 4  245 196 
 CHI  HZ I         324 13.89         8.1 0.45                           245 196 
                                                                                
