 2010  116 0343 17.7 L   6.785 -73.040151.7  RSN 10 0.3 2.6LRSN                1
 GAP=194        0.65       2.8     6.4  5.0 -0.5665E+01  0.1634E+02 -0.1217E+01E
 Epicentro: CEPITA - SANTANDER                                                 3
 ACTION:UP  10-08-24 09:44 OP:vdl  STATUS:               ID:20100116034317 L   I
 2010-01-16-0340-18S.COL___096                                                 6
 STAT SP IPHASW D HRMM SECON CODA AMPLIT PERI AZIMU VELO SNR AR TRES W  DIS CAZ7
 BAR2 SZ IP        343 38.10                             170     0.010   27 217 
 BAR2 SZ ES        343 54.10                             170     0.110   27 217 
 RUS  BZ IP        343 41.96                             145     0.110   99 183 
 RUS  BN ES   1    344  0.69                             145    -0.1 7   99 183 
 RUS  BZ I         344  2.02        16.7 0.34                            99 183 
 OCA  SZ IP        343 47.02                             130     0.2 9  164 349 
 OCA  SZ ES   1    344  9.25                             130    -0.2 7  164 349 
 OCA  SZ I         344 14.36        96.4 0.33                           164 349 
 CHI  HZ EP   1    343 56.01                             118     0.1 6  250 198 
 CHI  HE ES   1    344 25.17                             118    -0.6 6  250 198 
 CHI  HZ I         344 33.29        11.9 0.37                           250 198 
 HEL  HZ EP   2    343 59.64                             115     0.2 4  283 257 
 HEL  HZ I         344 37.80        15.8 0.20                           283 257 
 RREF BZ EP   2    344  5.16                             111     0.2 3  330 231 
 RREF BN ES   1    344 41.80                             111    -0.1 5  330 231 
 RREF BZ I         344 46.59        18.5 0.27                           330 231 
 DBB  SZ IP        344  5.97                             110    -0.8 6  351 274 
 TOL  SZ EP   1    344  7.50                             110     0.5 5  351 226 
 TOL  SZ ES   1    344 46.14                             110     0.7 5  351 226 
 ANIL BZ EP   2    344  9.14                             109     0.6 3  365 226 
 ANIL BE ES   2    344 48.64                             109     0.4 3  365 226 
 ANIL BZ I         344 54.76        32.7 0.47                           365 226 
 PRA  HZ IP        344 11.70                             107    -0.2 6  397 211 
 PRA  HE ES   1    344 54.28                             107     0.0 4  397 211 
 PRA  HZ I         344 59.90        14.6 0.68                           397 211 
                                                                                
