 2010  516 0606 30.3 L   6.916 -73.218122.0  RSN  6 0.3 1.2LRSN                1
 GAP=145        0.79       4.4     9.6 10.1  0.2437E+01 -0.5280E+02 -0.7574E+01E
 Epicentro: BETULIA - SANTANDER                                                3
 ACTION:UP  10-08-24 10:05 OP:vdl  STATUS:               ID:20100516060630 L   I
 2010-05-16-0601-40S.COL___108                                                 6
 STAT SP IPHASW D HRMM SECON CODA AMPLIT PERI AZIMU VELO AIN AR TRES W  DIS CAZ7
 BAR2 SZ EP        6 6 47.66                             163     0.210   36 174 
 BAR2 SZ ES   2    6 7  0.41                             163    -0.5 5   36 174 
 BRR  HZ EP        6 6 48.38                             153     0.210   59 291 
 BRR  HN ES   1    6 7  2.25                             153     0.1 7   59 291 
 BRR  HZ I         6 7  3.00         5.6 0.19                            59 291 
 BRI  SZ EP        6 6 51.45                             138     0.110  100  28 
 BRI  SZ ES   3    6 7  7.88                             138     0.1 2  100  28 
 GUE  SZ EP        6 6 52.42                             137     0.410  106  18 
 RUS  HZ EP        6 6 52.72                             135    -0.210  114 172 
 RUS  HZ I         6 6 53.90         1.5 0.13                           114 172 
 OCA  SZ EP        6 6 55.06                             127    -0.5 9  147 356 
 OCA  SZ ES   2    6 7 14.56                             127    -0.7 5  147 356 
 OCA  SZ I         6 7 16.82         3.7 0.35                           147 356 
                                                                                
