 2016 1116 0054  7.4 L   6.924 -73.133149.9  RSN 15 0.6 2.2LRSN                1
 GAP= 80        1.19       4.5     3.8  6.0 -0.1826E+01  0.4728E+01  0.8529E+01E
 Epicentro: PIEDECUESTA - SANTANDER                                            3
 ACTION:UPD 17-10-26 21:08 OP:lp   STATUS:               ID:20161116005407 L   I
 OLDACT:UP  16-11-16 13:35 OP:e    STATUS:               ID:20161116004745     3
 OLDACT:UP  16-11-16 13:31 OP:e    STATUS:               ID:20161116004745     3
 OLDACT:REG 16-11-16 12:12 OP:and  STATUS:               ID:20161116004745     3
 2016-11-16-0048-00M.COL___335                                                 6
 STAT SP IPHASW D HRMM SECON CODA AMPLIT PERI AZIMU VELO AIN AR TRES W  DIS CAZ7
 BAR2 EZ EP     C  054 27.39                             166   -0.4710 37.1 188 
 BAR2 EZ ES        054 43.36                             166   -0.4710 37.1 188 
 BAR2 EZ I         054 44.17        19.7 0.15            162           37.1 188 
 PAM  EZ EP        054 29.75                             155    0.3110 66.4  46 
 PAM  EE ES        054 46.66                             155    0.0210 66.4  46 
 PAM  EZ I         054 47.68        41.7 0.24            160           66.4  46 
 BRR  HZ IP     C  054 28.69                             154   -0.0710 67.1 288 
 BRR  HN ES        054 45.77                             154    0.3410 67.1 288 
 BRR  HZ I         054 47.46        28.6 0.15            151           67.1 288 
 PTB  HZ EP   9    054 33.82                             132   -1.29 0  152 254 
 PTB  HN ES        054 55.19                                   -0.25 9  152 254 
 PTB  HZ I         055  0.05        23.7 0.16            130            152 254 
 TAM  HZ EP        054 35.99                             131    0.34 9  158 110 
 TAM  HN ES        054 58.05                             131    0.35 9  158 110 
 ZAR  HZ EP        054 39.65                             124   -0.10 9  201 288 
 ZAR  HE ES        055  5.36                             124    0.36 9  201 288 
 NOR  HZ EP        054 43.76                             118   -0.60 8  244 232 
 NOR  HN ES        055 13.23                             118    0.04 8  244 232 
 NOR  HZ I         055 17.32        12.7 0.22            117            244 232 
 CHI  HZ EP        054 47.36                             116    0.56 8  262 195 
 CHI  HN ES        055 16.13                             116   -1.40 8  262 195 
 CHI  HZ I         055 23.56         5.3 0.30            116            262 195 
 ROSC BZ EP   4    054 48.61                             116    1.51 0  265 210 
 ROSC BN ES   4    055 18.79                             116    0.71 0  265 210 
 ROSC BZ I         055 27.69         8.9 0.40            115            265 210 
 URE  HZ EP   4    054 51.45                             114    3.18 0  280 289 
 URE  HN ES   4    055 25.25                             114    5.10 0  280 289 
 URE  HZ I         055 27.44        17.2 0.24            114            280 289 
 PTGC HZ EP   4    054 51.78                             111   -1.05 0  321 160 
 PTGC HN ES   4    055 25.73                             111   -2.55 0  321 160 
 CBOC HZ EP        054 55.19                             110    0.05 7  339 250 
 CBOC HN ES   4    055 33.41                             110    1.03 0  339 250 
 ELA  HZ EP        054 55.95                             110    0.38 7  339 228 
 ELA  HN ES        055 34.13                             110    0.98 7  339 228 
 ELA  HZ I         055 44.21         5.8 0.44            110            339 228 
 SJC  HZ EP        055  0.55                             107   -1.29 6  399 326 
 SJC  HN ES   4    055 40.19                             107   -4.12 0  399 326 
 SJC  HZ I         055 49.45         1.9 0.38            107            399 326 
 PRA  HZ EP        055  2.03                             106   -0.50 6  405 209 
 PRA  HN ES        055 45.05                             106   -0.49 6  405 209 
 PRA  HZ I         055 50.03         5.7 0.24            106            405 209 
 ORTC HZ EP        055  3.44                             106    0.59 6  407 215 
 ORTC HE ES        055 47.28                             106    1.17 6  407 215 
 ORTC HZ I         055 52.23         4.0 0.42            106            407 215 
                                                                                
