 2016  316 0448 17.3 L   5.790 -73.945110.8  RSN  5 0.3 0.7LRSN                1
 GAP=111        0.73       3.9     6.9  6.6  0.1883E+02 -0.6532E+01 -0.7547E+01E
 Epicentro: FLORIAN - SANTANDER                                                3
 ACTION:UPD 16-05-13 21:24 OP:cam  STATUS:               ID:20160316044817 L   I
 OLDACT:REG 16-03-16 14:14 OP:dnl  STATUS:               ID:20160316043750     3
 2016-03-16-0437-50M.COL___289                                                 6
 STAT SP IPHASW D HRMM SECON CODA AMPLIT PERI AZIMU VELO AIN AR TRES W  DIS CAZ7
 SPBC HZ EP        448 32.92                             169    0.4510 20.7 223 
 SPBC HE ES        448 44.46                             169    0.1710 20.7 223 
 RUS  HZ EP   2    448 37.52                             137    0.09 5 96.1  83 
 RUS  HE ES   2    448 52.97                             137   -0.16 5 96.1  83 
 RUS  HZ I         449  0.01         0.7 0.22            134           96.1  83 
 PTB  HZ EP        448 37.26                             135    0.1110  100 326 
 PTB  HE ES        448 52.58                             135   -0.0410  100 326 
 PTB  HZ I         448 57.24         1.3 0.08            139            100 326 
 CHI  HZ EP   2    448 40.65                             127    0.18 5  130 170 
 CHI  HE ES        448 58.06                             127   -0.4810  130 170 
 CHI  HZ I         449  2.62         1.2 0.44            131            130 170 
 ZAR  HZ EP   2    448 49.27                             113    0.44 4  214 332 
 ZAR  HN ES        449 12.88                             113   -0.53 8  214 332 
                                                                                
