 2017  716 0733 21.9 L   7.146 -73.359112.0  RSN  6 0.4 1.0LRSN                1
 GAP=150        0.92       4.3     3.2  6.3  0.2026E+01  0.5199E+01  0.5350E+00E
 Epicentro: LEBRIJA - SANTANDER                                                3
 ACTION:UPD 17-08-30 15:33 OP:rebc STATUS:               ID:20170716073321 L   I
 OLDACT:REG 17-07-16 12:34 OP:dhb  STATUS:               ID:20170716072732     3
 2017-07-16-0728-00M.COL___374                                                 6
 STAT SP IPHASW D HRMM SECON CODA AMPLIT PERI AZIMU VELO AIN AR TRES W  DIS CAZ7
 BRR  HZ IP     D  733 37.12                             159   -0.5310 39.2 264 
 BRR  HN ES        733 49.67                             159   -0.3010 39.2 264 
 BRR  HZ I         733 50.42         2.5 0.25            158           39.2 264 
 BAR2 EZ IP     C  733 39.32                             148   -0.0410 64.2 162 
 BAR2 EZ ES        733 53.09                             148    0.0910 64.2 162 
 PAM  EZ EP        733 40.39                             144   -0.1210 75.9  74 
 PAM  EN ES        733 55.31                             144    0.2610 75.9  74 
 PAM  EZ I         733 56.29         2.8 0.15            146           75.9  74 
 PTB  HZ EP        733 44.87                             125   -0.52 9  139 241 
 PTB  HN ES        734  3.79                             125    0.05 9  139 241 
 PTB  HZ I         734  7.44         1.1 0.18            125            139 241 
 RUS  HZ EP        733 46.77                             125    0.42 9  142 168 
 RUS  HN ES        734  5.53                             125    0.09 9  142 168 
 RUS  HZ I         734  8.98         1.7 0.30            125            142 168 
 ZAR  HZ EP        733 48.58                             119   -0.05 9  170 283 
 ZAR  HN ES        734 10.29                             119    0.79 9  170 283 
 ZAR  HZ I         734 12.29         1.7 0.10            119            170 283 
                                                                                
