 2013  316 0819 27.6 L   6.782 -73.068155.4  RSN  6 0.5 1.8LRSN                1
 GAP=148        1.07      11.3     7.3 15.6 -0.2394E+01  0.2780E+02 -0.5295E+02E
 Epicentro: LOS SANTOS - SANTANDER                                             3
 ACTION:UPD 13-04-09 14:02 OP:ep   STATUS:               ID:20130316081927 L   I
 2013-03-16-0818-40M.COL___199                                                 6
 STAT SP IPHASW D HRMM SECON CODA AMPLIT PERI AZIMU VELO AIN AR TRES W  DIS CAZ7
 BAR2 SZ ES   2    820  5.01                             170    0.37 5 24.5 211 
 BAR2 SZ I         820  6.83         9.5 0.24            170           24.5 211 
 PAM  SZ EP        819 50.08                             154   -0.5610 73.9  33 
 PAM  SN ES   2    820  8.90                             154    0.27 5 73.9  33 
 PAM  SN I         820 10.40        11.0 0.44            156           73.9  33 
 BRR  HZ EP        819 51.11                             151    0.8510 79.7 297 
 BRR  HN ES   4    820  9.54                             151    1.59 0 79.7 297 
 BRR  HN I         820 12.94         8.2 0.22            150           79.7 297 
 RUS  HN ES   2    820 10.80                             146   -0.50 5 98.3 181 
 PTB  HZ EP   1    819 56.17                             132    0.10 7  156 260 
 PTB  HN ES   2    820 17.98                             132   -0.32 5  156 260 
 PTB  HN I         820 21.91         6.1 0.18            135            156 260 
 ZAR  HN ES        820 27.64                             123   -0.42 8  213 292 
 ZAR  HN I         820 33.30         6.9 0.38            125            213 292 
                                                                                
