 2011  316 0558 56.9 L   6.179 -73.746100.0  RSN  6 0.2 1.5LRSN                1
 GAP=122        0.44       2.4     2.2  6.4 -0.1901E+01  0.7478E+01 -0.2513E+01E
 Epicentro: LANDAZURI - SANTANDER                                              3
 ACTION:UP  11-06-16 14:33 OP:jfem STATUS:               ID:20110316055857 L   I
 2011-03-16-0554-41S.COL___138                                                 6
 STAT SP IPHASW D HRMM SECON CODA AMPLIT PERI AZIMU VELO SNR AR TRES W  DIS CAZ7
 BAR2 SZ EP        559 13.94                             140    -0.210   77  54 
 BAR2 SZ ES   1    559 27.48                             140    -0.1 7   77  54 
 BAR2 SZ I         559 29.23        35.6 0.26                            77  54 
 RUS  HZ EP   1    559 14.64                             139     0.0 7   80 113 
 RUS  HN ES   1    559 28.92                             139     0.3 7   80 113 
 RUS  HZ I         559 30.67         3.7 0.19                            80 113 
 BTL  SZ EP        559 15.88                             132     0.010   97  33 
 NOR  SZ EP   2    559 20.05                             120     0.1 5  142 242 
 NOR  SN ES   1    559 38.04                             120     0.0 7  142 242 
 CHI  HZ EP   3    559 24.20                             115     0.6 2  171 179 
 CHI  HN ES   1    559 44.30                             115    -0.2 7  171 179 
 CHI  HZ I         559 50.49         2.3 0.33                           171 179 
 HEL  HZ EP   2    559 26.85                             111     0.4 4  197 270 
 HEL  HE ES   1    559 49.62                             111     0.0 6  197 270 
 HEL  HZ I         559 53.70         3.2 0.38                           197 270 
                                                                                
