 2011  716 0733 57.3 L   6.749 -73.092146.5  RSN  9 0.3 2.1LRSN                1
 GAP=146        0.56       2.6     4.0  4.4 -0.3854E+01  0.6418E+01 -0.1318E+00E
 Epicentro: LOS SANTOS - SANTANDER                                             3
 ACTION:UPD 12-07-25 14:01 OP:epov STATUS:               ID:20110716073357 L   I
 2011-07-16-0720-00M.COL___133                                                 6
 STAT SP IPHASW D HRMM SECON CODA AMPLIT PERI AZIMU VELO AIN AR TRES W  DIS CAZ7
 BAR2 SZ IP        734 16.88                             172   -0.0810 20.0 210 
 BAR2 SZ ES   1    734 32.09                             172   -0.20 7 20.0 210 
 BAR2 SZ I         734 33.68        25.4 0.34                          20.0 210 
 PAM  SN ES   1    734 36.98                             151   -0.12 7 78.4  34 
 BRR  HZ EP   1    734 18.87                             150   -0.13 7 79.1 300 
 BRR  HE ES   1    734 36.24                             150    0.32 7 79.1 300 
 BRR  HZ I         734 38.06        30.6 0.18                          79.1 300 
 RUS  HZ EP   1    734 20.78                             146    0.07 7 94.7 179 
 RUS  HE ES   1    734 39.41                             146    0.44 7 94.7 179 
 RUS  HZ I         734 40.84        12.4 0.25                          94.7 179 
 BRI  SZ EP   1    734 21.30                             141   -0.23 7  112  17 
 BRI  SZ ES   1    734 40.08                             141   -0.34 7  112  17 
 BRI  SZ I         734 42.16        15.2 0.25                           112  17 
 OCA  SZ EP   1    734 26.29                             129    0.01 7  167 351 
 OCA  SZ ES   1    734 49.36                             129    0.48 7  167 351 
 OCA  SZ I         734 53.91        16.4 0.24                           167 351 
 NOR  SZ EP   2    734 32.96                             118   -0.30 4  236 236 
 NOR  SN ES   1    735  0.88                             118   -0.41 6  236 236 
 HEL  HZ EP   1    734 38.31                             114    0.26 6  277 257 
 HEL  HN ES   2    735  9.36                             114   -0.46 4  277 257 
 GUY  SZ EP   1    734 41.87                             112    0.47 5  305 237 
                                                                                
