 2017  216 0814 47.6 L   6.813 -73.137149.0  RSN  6 0.4 1.1LRSN                1
 GAP=240        0.94       6.5     9.5  7.3  0.4419E+02  0.2713E+02  0.1841E+02E
 Epicentro: LOS SANTOS - SANTANDER                                             3
 ACTION:UPD 17-05-24 15:36 OP:jn   STATUS:               ID:20170216081447 L   I
 OLDACT:UP  17-04-17 14:54 OP:nlst STATUS:               ID:20170216081447 L   3
 OLDACT:UP  17-02-16 17:50 OP:dani STATUS:               ID:20170216080744     3
 OLDACT:REG 17-02-16 13:38 OP:dani STATUS:               ID:20170216080744     3
 2017-02-16-0808-00M.COL___352                                                 6
 STAT SP IPHASW D HRMM SECON CODA AMPLIT PERI AZIMU VELO AIN AR TRES W  DIS CAZ7
 BAR2 EZ ES        815 22.95                             170   -0.3710 25.0 192 
 BRR  HZ EP        815  9.31                             153    0.1810 71.4 297 
 BRR  HE ES        815 26.55                             153    0.6410 71.4 297 
 BRR  HZ I         815 29.11         3.1 0.24            151           71.4 297 
 RUS  HZ EP        815 11.90                             144    0.1110  102 177 
 RUS  HN ES        815 30.40                             144   -0.2510  102 177 
 RUS  HZ I         815 32.86         1.1 0.30            142            102 177 
 PTB  HZ EP        815 14.42                             132   -0.55 9  149 258 
 ZAR  HN ES        815 45.51                             123   -0.31 9  204 292 
 CHI  HZ EP        815 25.91                             118    0.23 8  250 195 
 CHI  HN ES        815 55.77                             118    0.40 8  250 195 
 CHI  HZ I         816  1.43         1.0 0.29            118            250 195 
                                                                                
