 2011  216 0229 26.8 L   6.712 -72.730168.5  RSN  5 0.3 1.3LRSN                1
 GAP=207        0.58       5.7    29.5  8.8 -0.1123E+03 -0.8507E+02  0.1539E+02E
 Epicentro: MALAGA - SANTANDER                                                 3
 *BAR2-BTL-RUS-GRA                                                             3
 ACTION:UP  11-03-28 15:08 OP:jfem STATUS:               ID:20110216022548 L   I
 2011-02-16-0225-48S.COL___136                                                 6
 STAT SP IPHASW D HRMM SECON CODA AMPLIT PERI AZIMU VELO SNR AR TRES W  DIS CAZ7
 BAR2 SZ EP   2    229 49.47                             162    -0.5 5   52 255 
 BAR2 SZ I         230  6.55         3.5 0.21                            52 255 
 BAR2 SZ ES   2    230  8.42                             162     0.4 5   52 255 
 BTL  SZ EP   1    229 50.30                             158    -0.1 7   64 291 
 RUS  HZ EP   1    229 52.95                             148     0.2 7   99 203 
 RUS  HN ES   1    230 12.78                             148    -0.2 7   99 203 
 RUS  HZ I         230 13.33         1.5 0.26                            99 203 
 GRA  SZ ES   1    230 16.10                             141     0.1 7  130 356 
 GRA  SZ I         230 17.13         2.2 0.27                           130 356 
 CHI  HZ EP   2    230  6.96                             121     0.4 4  256 206 
 CHI  HZ I         230 41.13         1.5 0.34                           256 206 
                                                                                
