 2016  716 0653 26.4 L   6.777 -73.143145.1  RSN 20 0.4 3.0LRSN                1
 GAP= 98        0.93       3.0     2.6  4.4 -0.8059E+00  0.2912E+01  0.2558E+01E
 Epicentro: LOS SANTOS - SANTANDER                                             3
 ACTION:UPD 17-03-29 16:51 OP:lp   STATUS:               ID:20160716065326 L   I
 OLDACT:REG 16-07-16 12:26 OP:lv   STATUS:               ID:20160716064759     3
 2016-07-16-0647-59S.COL___322                                                 6
 STAT SP IPHASW D HRMM SECON CODA AMPLIT PERI AZIMU VELO AIN AR TRES W  DIS CAZ7
 BAR2 EZ IP     C  653 45.75                             171   -0.1410 20.9 192 
 BAR2 EZ ES        654  1.04                             171   -0.0610 20.9 192 
 BAR2 EZ I         654  6.83       122.4 0.36            170           20.9 192 
 BRR  HZ IP     C  653 47.65                             152    0.1010 72.7 300 
 BRR  HN ES        654  4.88                             152    0.8310 72.7 300 
 BRR  HZ I         654  8.74       162.6 0.11            150           72.7 300 
 PAM  EZ EP        653 48.61                             150   -0.0310 79.2  38 
 PAM  EN ES        654  5.59                             150   -0.4010 79.2  38 
 PAM  EZ I         654  6.72       126.8 0.14            150           79.2  38 
 RUS  HZ IP     C  653 49.73                             144   -0.1610 98.0 176 
 RUS  HN ES        654  8.31                             144    0.0910 98.0 176 
 RUS  HZ I         654  9.58        77.9 0.36            142           98.0 176 
 PTB  HZ EP        653 52.42                             132   -0.86 9  148 260 
 PTB  HN ES        654 13.57                             132   -0.69 9  148 260 
 PTB  HZ I         654 17.14       133.7 0.12            130            148 260 
 TAM  HZ IP     C  653 54.11                             131    0.19 9  154 104 
 TAM  HZ I         654 14.71        86.2 0.36            129            154 104 
 TAM  HE ES        654 15.52                             131    0.12 9  154 104 
 SPBC HZ EP        653 54.66                             129   -0.00 9  161 220 
 SPBC HN ES        654 16.64                             129   -0.08 9  161 220 
 SPBC HZ I         654 19.48       198.3 0.12            127            161 220 
 ZAR  HZ EP        653 58.61                             122   -0.31 8  205 293 
 ZAR  HN ES        654 24.99                             122    0.70 8  205 293 
 ZAR  HZ I         654 30.64       131.6 0.21            120            205 293 
 NOR  HZ EP        654  1.85                             119   -0.09 8  233 235 
 NOR  HE ES        654 29.11                             119   -0.57 8  233 235 
 NOR  HZ I         654 36.56        82.6 0.18            117            233 235 
 CHI  HZ EP        654  4.08                             117    0.29 8  246 195 
 CHI  HN ES        654 33.30                             117    0.34 8  246 195 
 CHI  HZ I         654 39.93        27.8 0.26            115            246 195 
 ROSC BZ EP   4    654  5.66                             117    1.41 0  251 211 
 ROSC BN ES        654 34.06                             117    0.28 8  251 211 
 ROSC BZ I         654 43.47        97.1 0.35            115            251 211 
 HEL  HZ EP        654  6.16                             115   -0.37 8  272 256 
 HEL  HN ES        654 38.14                             115    0.30 8  272 256 
 HEL  HZ I         654 44.30        62.1 0.36            113            272 256 
 URE  HN ES   4    654 38.25                             113   -1.43 0  285 292 
 URE  HZ I         654 48.28        50.1 0.22            112            285 292 
 GUY2CHZ EP        654 10.29                             112    0.47 7  300 235 
 GUY2CHN ES   4    654 45.04                             112    1.33 0  300 235 
 GUY2CHZ I         654 52.66        49.3 0.42                           300 235 
 PTGC HZ EP   4    654  8.89                             112   -1.04 0  306 159 
 PTGC HN ES   4    654 42.15                             112   -1.74 0  306 159 
 PTGC HZ I         654 46.23        31.8 0.36            110            306 159 
 CBOC HZ EP        654 13.81                             110    0.60 7  333 253 
 CBOC HN ES   4    654 50.73                             110    0.99 0  333 253 
 CBOC HZ I         655  2.78        16.0 0.33            108            333 253 
 ANIL HZ EP   9    654 18.03                             108    2.05 0  356 225 
 ANIL HN ES        654 57.00                                    0.29 6  356 225 
 ANIL HZ I         655  4.24       108.7 0.32            107            356 225 
 ORTC HZ EP        654 20.13                             106    0.07 6  394 216 
 ORTC HN ES   4    655  3.54                             106    1.61 0  394 216 
 ORTC HZ I         655  8.03        20.1 0.27            105            394 216 
 PAL  HZ EP        654 21.84                             106    0.44 6  405 239 
 PAL  HN ES   4    655  5.93                             106    1.62 0  405 239 
 YOT  HZ EP        654 28.83                             103   -0.41 5  470 229 
 YOT  HN ES        655 18.03                             103   -0.23 5  470 229 
                                                                                
