 2013  916 0906  0.5 L   6.756 -73.193140.1  RSN  4 0.5 1.4LRSN                1
 GAP=232        1.04       7.8     8.9  8.9 -0.1348E+02  0.1813E+02  0.6341E+01E
 Epicentro: VILLANUEVA - SANTANDER                                             3
 ACTION:UPD 13-10-22 09:23 OP:ep   STATUS:               ID:20130916090600 L   I
 OLDACT:REG 13-09-16 08:10 OP:jn   STATUS:               ID:20130916085959     3
 2013-09-16-0859-59M.COL___269                                                 6
 STAT SP IPHASW D HRMM SECON CODA AMPLIT PERI AZIMU VELO AIN AR TRES W  DIS CAZ7
 BAR2 SZ EP        9 6 19.20                             172   -0.1710 18.1 176 
 BAR2 SZ ES        9 6 33.73                             172   -0.3510 18.1 176 
 BAR2 SZ I         9 6 35.31         5.5 0.22            173           18.1 176 
 BRR  HZ EP        9 6 21.12                             152    0.1710 69.3 304 
 BRR  HN ES   1    9 6 37.72                             152    0.83 7 69.3 304 
 BRR  HZ I         9 6 41.99         3.7 0.10            150           69.3 304 
 PTB  HZ EP        9 6 26.02                             132   -0.46 9  142 260 
 PTB  HN ES   1    9 6 46.05                             132   -0.68 7  142 260 
 PTB  HZ I         9 6 49.15         5.2 0.20            132            142 260 
 SPBC HZ EP        9 6 28.34                             129    0.43 9  156 219 
 SPBC HE ES        9 6 49.58                             129    0.30 9  156 219 
 SPBC HZ I         9 6 52.09         2.3 0.58            131            156 219 
                                                                                
