 2014  316 0602 40.6 L   6.774 -73.146148.0  RSN  9 0.5 1.6LRSN                1
 GAP=138        1.01       4.2     4.7  8.9 -0.1432E+01  0.1399E+02 -0.7906E+01E
 Epicentro: LOS SANTOS - SANTANDER                                             3
 OLDACT:REG 14-03-16 07:39 OP:fm   STATUS:               ID:20140316055812     3
 ACTION:UPD 14-04-09 23:17 OP:nd   STATUS:               ID:20140316060240 L   I
 OLDACT:UP  14-03-16 10:04 OP:fm   STATUS:               ID:20140316055812     3
 2014-03-16-0558-12M.COL___242                                                 6
 STAT SP IPHASW D HRMM SECON CODA AMPLIT PERI AZIMU VELO AIN AR TRES W  DIS CAZ7
 BAR2 SZ EP   1    6 3  0.47                             172    0.07 7 20.5 191 
 BAR2 SZ I         6 3 20.91        11.2 0.50            165           20.5 191 
 PAM  SZ EP        6 3  3.21                             151    0.0710 79.6  38 
 PAM  SN ES        6 3 20.70                             151   -0.0610 79.6  38 
 PAM  SZ I         6 3 22.90         2.5 0.20            144           79.6  38 
 RUS  HZ EP        6 3  4.40                             145    0.0710 97.8 176 
 RUS  SZ I         6 3 22.83         3.8 1.88            136           97.8 176 
 RUS  HE ES        6 3 23.21                             145    0.3410 97.8 176 
 PTB  HZ EP        6 3  7.21                             133   -0.44 9  147 260 
 PTB  HN ES        6 3 28.22                             133   -0.56 9  147 260 
 PTB  SZ I         6 3 32.74         5.7 0.20            128            147 260 
 SPBC HZ EP   2    6 3  9.44                             130    0.43 5  161 220 
 SPBC HE ES   2    6 3 30.23                             130   -0.98 5  161 220 
 SPBC SZ I         6 3 32.62         4.2 2.26            123            161 220 
 OCA  HN ES   2    6 3 31.40                             130   -0.32 5  163 353 
 ZAR  HZ EP   1    6 3 14.01                             123    0.76 6  205 293 
 ZAR  HE ES        6 3 39.63                             123    0.88 9  205 293 
 ZAR  SZ I         6 3 44.44         5.9 0.38            118            205 293 
 SML  HZ EP        6 3 16.79                             118   -0.79 8  246 336 
 SML  HE ES   1    6 3 46.70                             118    0.24 6  246 336 
 SML  SZ I         6 3 54.40         4.2 0.24            113            246 336 
 HEL  HN ES   2    6 3 52.52                             115    0.34 4  271 256 
                                                                                
