 2013  516 0240 39.3 L   5.732 -74.016108.1  RSN  4 0.2 1.0LRSN                1
 GAP=179        0.47       3.8     2.1  7.0  0.5397E+00 -0.2546E+00  0.5030E+01E
 Epicentro: FLORIAN - SANTANDER                                                3
 ACTION:UPD 13-06-20 09:50 OP:ep   STATUS:               ID:20130516024039 L   I
 2013-05-16-0240-00M.COL___256                                                 6
 STAT SP IPHASW D HRMM SECON CODA AMPLIT PERI AZIMU VELO AIN AR TRES W  DIS CAZ7
 NOR  HZ EP   1    240 58.27                             135   -0.30 8 96.4 259 
 NOR  HN ES   1    241 13.70                             135    0.07 8 96.4 259 
 NOR  HZ I         241 16.82         2.6 0.22            149           96.4 259 
 PTB  HZ EP        240 59.16                             133    0.1710  102 331 
 PTB  HE ES        241 14.19                             133   -0.1810  102 331 
 PTB  HZ I         241 17.49         2.5 0.17            147            102 331 
 RUS  HZ EP   1    240 59.82                             133   -0.09 7  105  80 
 RUS  HE ES   1    241 16.16                             133    0.15 7  105  80 
 RUS  HZ I         241 17.49         0.9 0.22            140            105  80 
 HEL  HZ I         241 16.10         2.1 0.48            131            175 287 
 HEL  HN ES   1    241 28.56                             117    0.24 7  175 287 
                                                                                
