 2012  516 0828 47.2 L   6.778 -73.182142.9  RSN  5 0.4 1.4LRSN                1
 GAP=179        0.88       6.6     7.9  9.4  0.1705E+02  0.6589E+01 -0.4293E+00E
 Epicentro: LOS SANTOS - SANTANDER                                             3
 ACTION:UP  12-07-05 12:05 OP:pat  STATUS:               ID:20120516082847 L   I
 2012-05-16-0827-59S.COL___205                                                 6
 STAT SP IPHASW D HRMM SECON CODA AMPLIT PERI AZIMU VELO SNR AR TRES W  DIS CAZ7
 BAR2 SZ EP   1    829  6.13                             172    -0.3 7   21 180 
 BAR2 SZ ES   1    829 21.14                             172    -0.3 7   21 180 
 BAR2 SZ I         829 22.51         9.3 0.28                            21 180 
 BRR  HZ EP   1    829  8.46                             153     0.6 7   69 302 
 BRR  HZ I         829  8.85         7.4 0.11                            69 302 
 BRR  HN ES   1    829 24.57                             153     0.5 7   69 302 
 RUS  HZ EP   1    829 10.81                             144     0.3 7   99 174 
 RUS  HN ES   1    829 28.69                             144     0.0 7   99 174 
 RUS  HZ I         829 30.13         2.3 0.34                            99 174 
 PTB  HZ EP   1    829 13.25                             132    -0.3 7  143 259 
 PTB  HN ES   1    829 33.70                             132    -0.4 7  143 259 
 PTB  HZ I         829 37.34         1.7 0.29                           143 259 
 OCA  HN ES   2    829 36.87                             128    -0.6 5  162 355 
                                                                                
