 2017  316 0702 23.8 L   6.819 -73.141141.4  RSN 10 0.3 2.0LRSN                1
 GAP=136        0.70       2.8     2.7  4.2 -0.8542E+00  0.4253E+01  0.6476E+00E
 Epicentro: LOS SANTOS - SANTANDER                                             3
 ACTION:UPD 17-05-25 18:41 OP:jn   STATUS:               ID:20170316070223 L   I
 OLDACT:REG 17-03-16 13:21 OP:cara STATUS:               ID:20170316065742     3
 2017-03-16-0658-00M.COL___381                                                 6
 STAT SP IPHASW D HRMM SECON CODA AMPLIT PERI AZIMU VELO AIN AR TRES W  DIS CAZ7
 BAR2 EZ IP     D  7 2 42.93                             169   -0.0410 25.5 190 
 BAR2 EZ ES        7 2 58.01                             169    0.1110 25.5 190 
 BAR2 EZ I         7 2 59.77        15.0 0.32            168           25.5 190 
 BRR  HZ EP        7 2 44.39                             152   -0.0810 70.7 297 
 BRR  HN ES        7 3  0.90                             152    0.3310 70.7 297 
 BRR  HZ I         7 3  5.52        15.0 0.14            149           70.7 297 
 PAM  EZ EP     D  7 2 45.52                             151    0.0710 75.4  40 
 PAM  EN ES        7 3  2.45                             151    0.1310 75.4  40 
 PAM  EZ I         7 3  4.46        31.4 0.54            155           75.4  40 
 RUS  HZ EP        7 2 47.25                             142   -0.0410  103 176 
 RUS  HN ES        7 3  5.33                             142   -0.2710  103 176 
 PTB  HZ EP        7 2 50.05                             131   -0.47 9  149 258 
 PTB  HN ES        7 3 10.95                             131   -0.39 9  149 258 
 PTB  HZ I         7 3 12.36        10.1 0.38            130            149 258 
 SPBC HZ EP        7 2 52.16                             128   -0.01 9  165 219 
 SPBC HN ES        7 3 14.33                             128    0.04 9  165 219 
 SPBC HZ I         7 3 23.18         8.4 0.20            129            165 219 
 ZAR  HZ EP        7 2 55.78                             121   -0.17 9  204 292 
 ZAR  HN ES        7 3 20.86                             121   -0.16 9  204 292 
 ZAR  HZ I         7 3 27.41        13.5 0.30            122            204 292 
 HEL  HZ EP        7 3  4.45                             114    0.52 8  273 255 
 HEL  HN ES        7 3 35.26                             114    0.05 8  273 255 
 HEL  HZ I         7 3 43.29         3.6 0.40            115            273 255 
 URE  HZ EP   4    7 3  6.13                             113    1.48 0  284 291 
 URE  HN ES   4    7 3 34.30                             113   -2.20 0  284 291 
 URE  HZ I         7 3 45.58         9.3 0.26            114            284 291 
 GUY2CHZ EP   4    7 3  8.96                             111    1.55 0  303 235 
 GUY2CHN ES        7 3 42.23                             111    0.81 7  303 235 
 GUY2CHZ  IAML     7 3 50.96         4.3 0.36                           303 235 
                                                                                
