 2012  616 0015 55.3 L   6.811 -73.151149.4  RSN 16 0.3 2.7LRSN                1
 GAP=135        0.62       1.9     2.8  4.1 -0.1192E+01  0.3807E+01  0.5307E+00E
 Epicentro: LOS SANTOS - SANTANDER                                             3
 ACTION:UPD 12-08-06 17:49 OP:ep   STATUS:               ID:20120616001555 L   I
 2012-06-16-0010-00M.COL___198                                                 6
 STAT SP IPHASW D HRMM SECON CODA AMPLIT PERI AZIMU VELO AIN AR TRES W  DIS CAZ7
 BAR2 SZ IP        016 15.41                             170    0.0510 24.4 188 
 BAR2 SZ ES   1    016 31.46                             170    0.44 7 24.4 188 
 BAR2 SZ I         016 33.61       104.4 0.44                          24.4 188 
 PAM  SZ EP        016 18.21                             152    0.3710 76.8  40 
 PAM  SN ES   1    016 35.58                             152    0.14 7 76.8  40 
 RUS  HZ IP     C  016 19.22                             144   -0.2410  102 176 
 RUS  HE ES   1    016 37.85                             144   -0.49 7  102 176 
 RUS  HZ I         016 39.46        39.7 0.37                           102 176 
 PTB  HZ EP        016 22.04                             133   -0.47 9  147 258 
 PTB  HN ES   1    016 43.36                             133   -0.39 7  147 258 
 PTB  HZ I         016 50.87        44.6 0.34                           147 258 
 OCA  HZ EP   1    016 23.64                             131   -0.11 7  159 353 
 OCA  HE ES   1    016 46.03                             131    0.07 7  159 353 
 OCA  HZ I         016 51.53       152.4 0.31                           159 353 
 ZAR  HZ EP   1    016 27.93                             123    0.08 6  203 292 
 ZAR  HN ES   1    016 52.96                             123   -0.31 6  203 292 
 ZAR  HZ I         016 59.69        69.4 0.35                           203 292 
 NOR  SZ EP   1    016 31.24                             119    0.01 6  235 234 
 NOR  SE ES   1    017  0.01                             119    0.72 6  235 234 
 CHI  HZ EP   1    016 33.36                             118    0.08 6  250 195 
 CHI  HN ES   1    017  2.37                             118   -0.55 6  250 195 
 CHI  HZ I         017 11.22        25.1 0.37                           250 195 
 ROSC BZ EP   1    016 33.64                             117   -0.03 6  253 211 
 ROSC BE ES   1    017  3.96                             117    0.34 6  253 211 
 ROSC BZ I         017 13.35        67.3 0.43                           253 211 
 HEL  HZ EP   1    016 36.14                             115    0.50 6  272 256 
 HEL  HE ES   1    017  7.31                             115    0.18 6  272 256 
 HEL  HZ I         017 15.23        23.9 0.28                           272 256 
 GUY  SZ EP   1    016 40.09                             113    0.76 5  304 235 
 GUY  SN ES   1    017 13.62                             113   -0.08 5  304 235 
 GUY  SZ I         017 25.48        47.0 0.34                           304 235 
 VIL  SZ EP   1    016 38.80                             113   -0.17 5  304 191 
 VIL  SN ES   1    017 13.24                             113    0.18 5  304 191 
 VIL  SZ I         017 23.19        16.5 0.37                           304 191 
 DBB  SZ EP   1    016 42.77                             110   -0.05 5  339 274 
 DBB  SZ ES   2    017 19.70                             110   -0.21 3  339 274 
 TOL  SZ EP   1    016 44.40                             110    0.68 5  344 224 
 TOL  SZ ES   1    017 21.32                             110   -0.20 5  344 224 
 COD  HZ EP   1    016 43.29                             110   -0.36 5  347 355 
 COD  HN ES   1    017 21.09                             110   -0.30 5  347 355 
 COD  HZ I         017 29.15        16.9 0.56                           347 355 
 PRA  HZ EP   1    016 48.83                             107   -0.17 4  393 209 
 PRA  HN ES   1    017 30.68                             107   -0.24 4  393 209 
                                                                                
