 2015  416 0059 12.5 L   6.798 -73.144135.9  RSN  7 0.6 1.5LRSN                1
 GAP=238        1.33       6.9     7.8  9.7  0.1923E+02  0.2815E+02  0.1275E+02E
 Epicentro: LOS SANTOS - SANTANDER                                             3
 ACTION:UPD 15-06-03 16:55 OP:cam  STATUS:               ID:20150416005912 L   I
 OLDACT:REG 15-04-16 12:52 OP:carl STATUS:               ID:20150416005750     3
 2015-04-16-0057-50M.COL___275                                                 6
 STAT SP IPHASW D HRMM SECON CODA AMPLIT PERI AZIMU VELO AIN AR TRES W  DIS CAZ7
 BAR2 EZ ES        059 45.06                             170   -0.3110 23.2 191 
 BRR  HZ EP        059 32.93                             151    0.2810 71.5 299 
 BRR  HN ES        059 48.99                             151    0.6610 71.5 299 
 RUS  HZ EP        059 35.04                             142   -0.2810  100 176 
 RUS  HN ES        059 53.48                             142    0.3910  100 176 
 RUS  HZ I         059 54.69         2.9 0.40            143            100 176 
 PTB  HZ EP        059 37.87                             130   -0.87 9  148 259 
 PTB  HN ES        059 58.34                             130   -0.83 9  148 259 
 PTB  HZ I         1 0  6.35         3.4 0.36            129            148 259 
 SPBC HN ES        1 0  1.79                             127   -0.16 9  163 219 
 ZAR  HN ES        1 0  9.38                             120    0.15 9  204 292 
 ZAR  HZ I         1 0 14.37         4.5 0.56            120            204 292 
 GUY2CHZ EP        059 56.22                             110    0.50 7  301 235 
 GUY2CHN ES        1 0 30.36                             110    0.97 7  301 235 
 GUY2CHZ I         1 0 39.41         1.8 0.52                           301 235 
                                                                                
