 2012  616 0039 20.2 L   6.813 -73.162142.1  RSN 12 0.4 2.6LRSN                1
 GAP=134        0.72       2.7     3.5  5.4 -0.1132E+01  0.6463E+01  0.2096E+01E
 Epicentro: LOS SANTOS - SANTANDER                                             3
 ACTION:UPD 12-08-06 17:49 OP:ep   STATUS:               ID:20120616003920 L   I
 2012-06-16-0036-38M.COL___178                                                 6
 STAT SP IPHASW D HRMM SECON CODA AMPLIT PERI AZIMU VELO AIN AR TRES W  DIS CAZ7
 BAR2 SZ EP        039 39.63                             170    0.1810 24.5 185 
 BAR2 SZ ES   1    039 54.01                             170   -0.43 7 24.5 185 
 BAR2 SZ I         039 55.99        57.6 0.21                          24.5 185 
 PAM  SZ EP   1    039 42.42                             150    0.36 7 77.4  41 
 PAM  SN ES   1    039 59.49                             150    0.40 7 77.4  41 
 RUS  HZ EP        039 43.64                             143   -0.1010  102 175 
 RUS  HN ES   1    040  2.27                             143    0.19 7  102 175 
 RUS  HZ I         040  3.44        36.2 0.28                           102 175 
 PTB  HZ EP        039 46.43                             131   -0.34 9  146 258 
 PTB  HN ES   1    040  7.33                             131   -0.14 7  146 258 
 PTB  HZ I         040 12.39        57.5 0.16                           146 258 
 OCA  HZ EP   1    039 47.44                             129   -0.66 7  159 354 
 OCA  HN ES   1    040  9.60                             129   -0.24 7  159 354 
 OCA  HZ I         040 16.97       123.3 0.15                           159 354 
 ZAR  HZ EP   1    039 52.45                             122    0.24 6  202 292 
 ZAR  HN ES   1    040 17.48                             122    0.33 6  202 292 
 ZAR  HZ I         040 23.65        90.9 0.43                           202 292 
 NOR  SN ES   1    040 23.47                             118    0.13 6  234 234 
 CHI  HZ EP   1    039 57.47                             116   -0.36 6  250 195 
 CHI  HN ES   1    040 26.98                             116   -0.18 6  250 195 
 CHI  HZ I         040 33.12        15.2 0.44                           250 195 
 ROSC BZ EP   1    039 57.68                             116   -0.51 6  253 211 
 ROSC BN ES   1    040 28.37                             116    0.57 6  253 211 
 ROSC BZ I         040 35.67        44.8 0.52                           253 211 
 HEL  HZ EP   1    040  0.84                             114    0.74 6  271 255 
 HEL  HN ES   1    040 31.03                             114   -0.18 6  271 255 
 HEL  HZ I         040 39.17        39.7 0.57                           271 255 
 VIL  SZ EP   1    040  3.36                             111   -0.24 5  304 191 
 VIL  SZ I         040 45.03        12.0 0.57                           304 191 
 TOL  SZ EP   1    040  9.30                             109    0.99 5  343 224 
 TOL  SZ ES   2    040 45.32                             109   -0.50 3  343 224 
                                                                                
