 2011  516 0639 18.9 L   6.940 -73.154130.0  RSN  5 0.4 1.4LRSN                1
 GAP=136        0.86       7.6     9.4 12.3 -0.1324E+02 -0.5046E+02 -0.1411E+02E
 Epicentro: PIEDECUESTA - SANTANDER                                            3
 ACTION:UP  11-06-29 08:53 OP:tino STATUS:               ID:20110516063918 L   I
 2011-05-16-0634-46S.COL___139                                                 6
 STAT SP IPHASW D HRMM SECON CODA AMPLIT PERI AZIMU VELO SNR AR TRES W  DIS CAZ7
 BAR2 SZ EP        639 36.84                             163    -0.210   39 185 
 BAR2 SZ I         639 37.11         8.1 0.17                            39 185 
 BAR2 SZ ES   3    639 50.78                             163    -0.5 2   39 185 
 BRR  HZ EP        639 37.65                             153    -0.310   64 287 
 BRR  HZ I         639 37.99         6.9 0.28                            64 287 
 BRR  HN ES   1    639 53.31                             153     0.5 7   64 287 
 PAM  SZ EP        639 39.05                             152     0.310   67  49 
 GRA  SZ EP        639 41.82                             138     0.310  111  20 
 GRA  SZ ES   2    639 58.79                             138    -0.4 5  111  20 
 GRA  SZ I         640  2.82         5.1 0.47                           111  20 
 OCA  SZ EP        639 44.21                             130    -0.3 9  145 353 
 OCA  SZ ES   3    640  3.45                             130    -1.0 2  145 353 
 OCA  SZ I         640  4.99         2.5 0.16                           145 353 
                                                                                
