 2012  716 0321 56.2 L   6.757 -73.176149.2  RSN  4 0.4 1.4LRSN                1
 GAP=231        0.86      10.5     8.7  9.5  0.3910E+02  0.7490E+01  0.1306E+02E
 Epicentro: VILLANUEVA - SANTANDER                                             3
 ACTION:UPD 12-08-14 11:45 OP:ep   STATUS:               ID:20120716032156 L   I
 2012-07-16-0320-00M.COL___197                                                 6
 STAT SP IPHASW D HRMM SECON CODA AMPLIT PERI AZIMU VELO AIN AR TRES W  DIS CAZ7
 BAR2 SZ EP   1    322 15.96                             173    -0.2 7   18 182 
 BAR2 SZ ES   1    322 31.05                             173    -0.6 7   18 182 
 BRR  HZ EP   1    322 17.73                             153     0.1 7   71 303 
 BRR  HE ES   1    322 35.02                             153     0.6 7   71 303 
 BRR  HZ I         322 38.53         4.3 0.21            151             71 303 
 RUS  HZ EP   1    322 20.23                             146     0.3 7   96 174 
 RUS  HE ES   2    322 39.22                             146     0.7 5   96 174 
 PTB  HZ EP   1    322 22.86                             134    -0.2 7  144 260 
 PTB  HE ES   1    322 43.78                             134    -0.2 7  144 260 
 PTB  HZ I         322 45.15         3.5 0.45            135            144 260 
