 2015  316 0801 23.9 L   6.777 -73.164150.0  RSN  7 0.4 1.5LRSN                1
 GAP=135        1.12       5.0     6.8  7.5  0.7524E+01 -0.4055E+00 -0.9274E+01E
 Epicentro: LOS SANTOS - SANTANDER                                             3
 ACTION:UPD 15-04-30 16:26 OP:nd   STATUS:               ID:20150316080123 L   I
 OLDACT:REG 15-03-16 12:48 OP:stll STATUS:               ID:20150316075742     3
 2015-03-16-0757-42M.COL___251                                                 6
 STAT SP IPHASW D HRMM SECON CODA AMPLIT PERI AZIMU VELO AIN AR TRES W  DIS CAZ7
 BAR2 EZ ES        8 1 59.44                             172   -0.1910 20.6 186 
 BAR2 EZ I         8 2  0.21         4.6 0.24            154           20.6 186 
 BRR  HZ EP        8 1 45.84                             153    0.3910 70.7 301 
 BRR  HN ES        8 2  3.04                             153    0.7510 70.7 301 
 BRR  HZ I         8 2  5.46         3.4 0.40            139           70.7 301 
 PAM  SZ EP        8 1 46.88                             150    0.1510 80.6  39 
 PAM  SZ I         8 1 46.92         8.8 0.22            154           80.6  39 
 RUS  HZ EP        8 1 47.91                             145    0.0310 98.2 175 
 RUS  HN ES        8 2  6.11                             145   -0.4910 98.2 175 
 RUS  HZ I         8 2  7.43         2.1 0.60            129           98.2 175 
 PTB  HZ EP        8 1 51.03                             133    0.06 9  145 260 
 PTB  HN ES        8 2 11.60                             133   -0.51 9  145 260 
 PTB  HZ I         8 2 19.55         4.2 0.28            118            145 260 
 SPBC HZ EP        8 1 52.95                             131    0.55 9  160 219 
 SPBC HZ I         8 2 22.84         9.4 0.14            115            160 219 
 SML  HZ EP        8 2  0.29                             118   -0.61 8  245 336 
 SML  HN ES        8 2 29.26                             118   -0.52 8  245 336 
 SML  HZ I         8 2 32.56         5.4 0.10            109            245 336 
                                                                                
