 2014  816 0456 50.8 L   6.722 -73.199151.5  RSN  5 0.5 1.5LRSN                1
 GAP=195        1.14       5.3     8.5  8.1 -0.5856E+01  0.6052E+01 -0.7397E+01E
 Epicentro: VILLANUEVA - SANTANDER                                             3
 ACTION:UPD 14-09-15 21:50 OP:nd   STATUS:               ID:20140816045650 L   I
 OLDACT:REG 14-08-16 13:00 OP:cam  STATUS:               ID:20140816045000     3
 2014-08-16-0450-00M.COL___285                                                 6
 STAT SP IPHASW D HRMM SECON CODA AMPLIT PERI AZIMU VELO AIN AR TRES W  DIS CAZ7
 BAR2 SZ EP        457 10.89                             174   -0.0610 14.4 173 
 BAR2 SZ ES        457 26.23                             174   -0.4610 14.4 173 
 BAR2 SZ I         457 27.56         7.0 0.26            170           14.4 173 
 BRR  HZ EP        457 12.97                             154    0.4410 70.9 307 
 BRR  HN ES        457 30.26                             154    0.7610 70.9 307 
 BRR  HZ I         457 30.70         5.8 0.30            150           70.9 307 
 PTB  HZ EP        457 17.36                             135   -0.21 9  140 262 
 PTB  HN ES        457 38.23                             135   -0.25 9  140 262 
 PTB  HZ I         457 42.46         4.2 0.18            132            140 262 
 SPBC HZ EP        457 19.42                             132    0.66 9  153 219 
 SPBC HN ES        457 40.21                             132   -0.37 9  153 219 
 SPBC HZ I         457 49.99         3.1 0.28            130            153 219 
 SML  HZ EP        457 27.91                             118   -0.41 8  249 337 
 SML  HN ES        457 57.18                             118   -0.43 8  249 337 
 SML  HZ I         458  0.38         3.8 0.12            118            249 337 
                                                                                
