 2010  216 0150 50.3 L   6.800 -73.039137.2  RSN  7 0.5 2.0LRSN                1
 GAP=209        0.87       5.7    16.7 10.9 -0.4473E+02  0.7784E+02  0.1652E+01E
 Epicentro: CEPITA - SANTANDER                                                 3
 ACTION:UP  10-08-24 09:49 OP:vdl  STATUS:               ID:20100216015050 L   I
 2010-02-16-0140-00S.COL___094                                                 6
 STAT SP IPHASW D HRMM SECON CODA AMPLIT PERI AZIMU VELO SNR AR TRES W  DIS CAZ7
 BAR2 SZ EP        151  9.35                             167     0.310   28 215 
 BAR2 SZ ES   2    151 24.00                             167     0.4 5   28 215 
 GIR2 SZ EP   2    151  8.46                             164    -0.6 5   35 331 
 OCA  SZ EP        151 18.16                             127     0.0 9  162 349 
 OCA  SZ ES   2    151 39.42                             127    -0.5 5  162 349 
 OCA  SZ I         151 44.23        17.1 0.20                           162 349 
 CHI  HZ EP        151 27.30                             115    -0.6 8  252 198 
 CHI  HZ I         151 28.41         3.4 0.14                           252 198 
 CHI  HN ES   2    151 57.02                             115    -0.3 4  252 198 
 RREF BZ EP        151 37.52                             109     0.3 7  331 231 
 RREF BE ES   2    152 12.94                             109    -0.8 3  331 231 
 RREF BZ I         152 16.82         3.8 0.20                           331 231 
 TOL  SZ EP        151 39.85                             107     0.6 6  352 226 
 PRA  HN ES   3    152 25.61                             105    -0.7 1  398 211 
 PRA  HZ I         152 31.55         3.8 0.42                           398 211 
                                                                                
