 2013  316 0129 59.3 L   6.816 -73.145148.0  RSN 17 0.6 3.2LRSN 3.3WRSN        1
 SPEC AVERAGE  MO 14.1 ST 10.9 OM  2.7 f0 3.74 R0.4411 AL 2.45 WI 28.1 MW  3.3 3
 SPEC SD       MO  0.3 ST  7.5 OM  0.5 f0 1.13 R0.1667 AL      WI      MW  0.2 3
 GAP= 71        1.10       3.1     4.1  6.9 -0.1549E+00  0.3614E+01  0.1728E+01E
 Epicentro: LOS SANTOS - SANTANDER                                             3
 SPEC TAM HH N MO 13.9 ST0.659 OM  2.2 f0 1.78 R0.8258 AL 1.84 WI 22.0 MW  3.2 3
 SPEC TAM HH N T 13047 K 0.000 GD  214 VS 4.20 DE 3.20 Q0300.0 QA 0.60 VS 4.20 3
 SPEC RUS HH N MO 14.1 ST  3.1 OM  2.5 f0 2.50 R0.5880 AL 2.18 WI 20.1 MW  3.4 3
 SPEC RUS HH N T 13040 K 0.000 GD  179 VS 4.20 DE 3.20 Q0300.0 QA 0.60 VS 4.20 3
 SPEC PRA HH N MO 14.2 ST 10.2 OM  2.2 f0 3.54 R0.4153 AL 2.29 WI 25.7 MW  3.4 3
 SPEC PRA HH N T 13133 K 0.000 GD  420 VS 4.20 DE 3.20 Q0300.0 QA 0.60 VS 4.20 3
 SPEC HEL HH N MO 14.0 ST 13.6 OM  2.1 f0 4.66 R0.3155 AL 2.77 WI 32.9 MW  3.3 3
 SPEC HEL HH N T 13110 K 0.000 GD  310 VS 4.20 DE 3.20 Q0300.0 QA 0.60 VS 4.20 3
 SPEC OCA HH N MO 14.6 ST 22.7 OM  2.9 f0 3.37 R0.4362 AL 2.32 WI 24.2 MW  3.7 3
 SPEC OCA HH N T 13048 K 0.000 GD  217 VS 4.20 DE 3.20 Q0300.0 QA 0.60 VS 4.20 3
 SPEC PAM SH N MO 13.7 ST  6.8 OM  2.1 f0 4.55 R0.3231 AL 3.40 WI 27.7 MW  3.1 3
 SPEC PAM SH N T 13037 K 0.000 GD  166 VS 4.20 DE 3.20 Q0300.0 QA 0.60 VS 4.20 3
 SPEC COD HH N MO 13.8 ST 11.3 OM  1.8 f0 5.17 R0.2843 AL 2.63 WI 45.9 MW  3.1 3
 SPEC COD HH N T 13123 K 0.000 GD  377 VS 4.20 DE 3.20 Q0300.0 QA 0.60 VS 4.20 3
 SPEC CHI HH N MO 14.3 ST  6.7 OM  2.4 f0 2.99 R0.4916 AL 2.26 WI 26.8 MW  3.5 3
 SPEC CHI HH N T 131 4 K 0.000 GD  290 VS 4.20 DE 3.20 Q0300.0 QA 0.60 VS 4.20 3
 SPEC BRR HH N MO 14.1 ST 23.2 OM  2.5 f0 5.07 R0.2899 AL 2.33 WI 27.2 MW  3.4 3
 SPEC BRR HH N T 13036 K 0.000 GD  163 VS 4.20 DE 3.20 Q0300.0 QA 0.60 VS 4.20 3
 ACTION:UPD 13-04-09 14:02 OP:ep   STATUS:               ID:20130316012959 L   I
 2013-03-16-0130-00M.COL___244                                                 6
 STAT SP IPHASW D HRMM SECON CODA AMPLIT PERI AZIMU VELO AIN AR TRES W  DIS CAZ7
 BAR2 SZ EP        130 19.21                             170   -0.0710 25.1 190 
 BAR2 SZ ES   1    130 34.32                             170   -0.51 7 25.1 190 
 BAR2 SZ I         130 35.77       299.2 0.36            170           25.1 190 
 BRR  HZ IP     C  130 21.10                             153    0.4110 70.5 297 
 BRR  HN ES   2    130 38.08                             153    0.73 5 70.5 297 
 BRR  HN I         130 38.77       536.6 0.30            149           70.5 297 
 PAM  SZ EP     C  130 22.00                             151    0.2910 75.9  40 
 PAM  SN ES   2    130 39.22                             151    0.06 5 75.9  40 
 PAM  SN I         130 42.44        83.4 0.24            150           75.9  40 
 RUS  HZ EP     D  130 23.09                             143   -0.3510  102 176 
 RUS  HN ES   2    130 41.51                             143   -0.72 5  102 176 
 RUS  HN I         130 42.20       187.7 0.36            143            102 176 
 PTB  HZ EP        130 25.64                             132   -0.89 9  148 258 
 PTB  HN ES   1    130 47.05                             132   -0.69 7  148 258 
 PTB  HN I         130 53.12       178.3 0.22            129            148 258 
 TAM  HZ EP     D  130 27.39                             131    0.16 9  155 106 
 TAM  HN ES   2    130 48.77                             131   -0.21 5  155 106 
 TAM  HN I         130 49.66       123.0 0.50            130            155 106 
 OCA  HZ EP   1    130 27.82                             130    0.16 7  159 353 
 OCA  HN ES   2    130 49.84                             130    0.08 5  159 353 
 OCA  HN I         130 53.22       721.8 0.24            127            159 353 
 ZAR  HZ EP   1    130 31.79                             123   -0.09 6  204 292 
 ZAR  HN ES   1    130 57.87                             123    0.62 6  204 292 
 ZAR  HN I         131  2.80       261.8 0.38            120            204 292 
 CTAB SZ EP        130 36.86                             119    1.47 8  231 211 
 SML  HZ EP        130 35.70                             118   -0.23 8  242 335 
 SML  HN ES        131  4.42                             118   -0.04 8  242 335 
 CHI  HZ EP        130 37.06                             117   -0.29 8  250 195 
 CHI  HN ES        131  7.28                             117    0.28 8  250 195 
 CHI  HN I         131 10.88       111.5 0.54            116            250 195 
 ROSC BN ES   2    131  8.44                             117    0.72 4  254 211 
 HEL  HZ EP        130 40.90                             115    1.17 8  273 255 
 HEL  HN ES        131 10.78                             115   -0.45 8  273 255 
 HEL  HN I         131 18.65        32.0 0.40            113            273 255 
 VIL  SZ EP        130 42.92                             112   -0.14 7  305 192 
 VIL  SN ES   2    131 16.46                             112   -0.70 4  305 192 
 VIL  SN I         131 23.79       137.1 0.58            111            305 192 
 COD  HZ EP   1    130 46.64                             109   -0.97 5  347 355 
 COD  HN ES   2    131 25.54                             109    0.29 3  347 355 
 COD  HN I         131 30.00        21.4 0.58            107            347 355 
 PRA  HZ EP   1    130 52.71                             106   -0.42 4  394 209 
 PRA  HN ES        131 34.97                             106   -0.11 6  394 209 
 PRA  HN I         131 40.00        37.9 0.32            105            394 209 
 SJC  HN ES   4    131 33.79                             106   -4.29 0  408 327 
 SMAR HZ EP        131  4.33                             102   -0.74 4  495 346 
 SMAR HN I         131 53.43        17.3 0.34            101            495 346 
                                                                                
