 2012  816 0246 25.0 L   6.758 -73.059146.8  RSN 10 0.3 1.9LRSN                1
 GAP=150        0.64       2.8     3.7  4.8 -0.1173E+01  0.5221E+01  0.3289E+01E
 Epicentro: LOS SANTOS - SANTANDER                                             3
 ACTION:UPD 12-09-10 11:56 OP:ep   STATUS:               ID:20120816024625 L   I
 2012-08-16-0240-00M.COL___217                                                 6
 STAT SP IPHASW D HRMM SECON CODA AMPLIT PERI AZIMU VELO AIN AR TRES W  DIS CAZ7
 BAR2 SZ EP   1    246 44.53                             171   -0.26 7 22.8 217 
 BAR2 SZ ES   1    246 59.99                             171   -0.20 7 22.8 217 
 BAR2 SZ I         247  1.26        33.1 0.18                          22.8 217 
 GIR2 SZ EP   1    246 45.01                             165   -0.04 7 38.4 337 
 PAM  SZ EP   1    246 47.27                             152    0.01 7 75.6  32 
 PAM  SN ES   1    247  4.85                             152    0.26 7 75.6  32 
 PAM  SZ I         247  6.69         9.0 0.22                          75.6  32 
 BRR  HZ EP   1    246 46.42                             149   -0.51 7 81.8 298 
 BRR  HZ I         246 46.67        16.7 0.14                          81.8 298 
 BRR  HN ES        247  3.92                             149   -0.0910 81.8 298 
 RUS  HZ EP   1    246 48.36                             145   -0.20 7 95.7 182 
 RUS  HN ES   1    247  7.39                             145    0.49 7 95.7 182 
 RUS  HZ I         247  8.82         8.0 0.24                          95.7 182 
 OCA  HN ES   2    247 16.73                             129    0.15 5  166 350 
 ZAR  HZ EP   1    246 59.14                             121    0.49 6  215 292 
 ZAR  HZ I         247 28.83        11.2 0.25                           215 292 
 NOR  SZ EP   1    247  1.34                             118   -0.06 6  240 237 
 NOR  SN ES   1    247 29.08                             118   -0.67 6  240 237 
 CHI  HZ EP   1    247  2.33                             117   -0.28 6  247 198 
 CHI  HN ES        247 32.11                             117    0.20 8  247 198 
 CHI  HZ I         247 37.74         4.2 0.26                           247 198 
 HEL  HZ EP   1    247  6.56                             114    0.34 6  280 257 
 HEL  HN ES        247 38.79                             114    0.45 7  280 257 
 HEL  HZ I         247 42.85         4.3 0.34                           280 257 
                                                                                
