 2017  516 0342 46.3 L   6.822 -73.142155.3  RSN  9 0.4 2.0LRSN                1
 GAP=111        0.81       3.2     3.2  6.1  0.6463E+00  0.1633E+01  0.8239E+01E
 Epicentro: LOS SANTOS - SANTANDER                                             3
 ACTION:UPD 17-06-16 13:36 OP:jn   STATUS:               ID:20170516034246 L   I
 OLDACT:UP  17-05-16 15:14 OP:dnl  STATUS:               ID:20170516033737     3
 OLDACT:UP  17-05-16 15:14 OP:dnl  STATUS:               ID:20170516033737     3
 OLDACT:REG 17-05-16 12:27 OP:dnl  STATUS:               ID:20170516033737     3
 2017-05-16-0338-00M.COL___362                                                 6
 STAT SP IPHASW D HRMM SECON CODA AMPLIT PERI AZIMU VELO AIN AR TRES W  DIS CAZ7
 BRR  HZ EP        343  8.88                             154    0.4110 70.5 297 
 BRR  HN ES        343 26.07                             154    0.3210 70.5 297 
 BRR  HZ I         343 28.80        13.7 0.40            155           70.5 297 
 PAM  EZ EP        343  9.53                             153    0.0910 75.3  40 
 PAM  EE ES        343 27.08                             153   -0.4010 75.3  40 
 PAM  EZ I         343 29.12        23.8 0.64            159           75.3  40 
 PTB  HZ EP        343 13.79                             134   -0.37 9  149 258 
 PTB  HN ES   4    343 34.76                             134   -1.12 0  149 258 
 PTB  HZ I         343 41.75         8.8 0.68            135            149 258 
 SPBC HZ EP   2    343 16.21                             131    0.44 5  165 219 
 SPBC HN ES        343 38.53                             131   -0.21 9  165 219 
 SPBC HZ I         343 44.31        17.5 0.34            132            165 219 
 YPLC HZ EP        343 17.40                             128    0.39 9  179 152 
 YPLC HN ES        343 41.16                             128    0.21 9  179 152 
 YPLC HZ I         343 42.32        13.6 0.30            132            179 152 
 ZAR  HZ EP   2    343 18.85                             124   -0.51 4  204 291 
 ZAR  HN ES        343 44.83                             124   -0.29 9  204 291 
 ZAR  HZ I         343 50.53         6.5 0.40            127            204 291 
 NOR  HZ EP        343 23.22                             120    0.41 8  236 234 
 NOR  HE ES        343 51.48                             120    0.21 8  236 234 
 NOR  HZ I         343 53.50         6.4 0.18            122            236 234 
 CHI  HZ EP   2    343 24.84                             119    0.01 4  251 195 
 CHI  HN ES        343 54.42                             119   -0.44 8  251 195 
 CHI  HZ I         343 58.28         8.1 0.52            121            251 195 
 PTGC HZ IP     C  343 30.21                             113   -0.65 7  311 159 
 PTGC HN ES   4    344  3.69                             113   -1.90 0  311 159 
 PTGC HZ I         344  8.42         6.2 0.28            116            311 159 
                                                                                
