 2012  416 0030  2.5 L   6.751 -73.087145.1  RSN  8 0.4 2.4LRSN                1
 GAP=146        0.98       4.8     6.1  7.4  0.1538E+01  0.1357E+02  0.1080E+02E
 Epicentro: LOS SANTOS - SANTANDER                                             3
 ACTION:UPD 12-07-05 11:53 OP:tino STATUS:               ID:20120416003002 L   I
 2012-04-16-0029-46M.COL___172                                                 6
 STAT SP IPHASW D HRMM SECON CODA AMPLIT PERI AZIMU VELO AIN AR TRES W  DIS CAZ7
 BAR2 SZ EP        030 22.19                             172     0.210   20 211 
 BAR2 SZ ES   1    030 36.42                             172    -0.8 7   20 211 
 BAR2 SZ I         030 38.23        38.0 0.19                            20 211 
 PAM  SZ EP   1    030 25.07                             150     0.4 7   78  33 
 PAM  SZ I         030 25.42        47.9 0.23                            78  33 
 PAM  SN ES   1    030 41.48                             150    -0.5 7   78  33 
 BRR  HZ EP        030 24.14                             150     0.010   80 300 
 BRR  HZ I         030 24.55        56.6 0.10                            80 300 
 BRR  HN ES        030 41.34                             150     0.410   80 300 
 RUS  HZ EP   1    030 26.05                             145     0.2 7   95 180 
 RUS  HN ES   1    030 44.42                             145     0.5 7   95 180 
 RUS  HZ I         030 46.03        16.1 0.35                            95 180 
 ZAR  HZ EP   1    030 35.12                             121    -0.6 6  212 293 
 ZAR  HN ES   2    031  1.14                             121    -0.6 4  212 293 
 ZAR  HZ I         031  6.65        20.2 0.24                           212 293 
 CHI  HZ EP   1    030 39.46                             117    -0.3 6  245 197 
 CHI  HN ES   1    031  8.76                             117    -0.1 6  245 197 
 CHI  HZ I         031 15.61         8.3 0.23                           245 197 
 HEL  HZ EP   1    030 43.42                             114     0.2 6  277 257 
 HEL  HN ES   1    031 15.19                             114     0.2 6  277 257 
 HEL  HZ I         031 21.06        16.3 0.38                           277 257 
 PRA  HZ EP   1    030 56.16                             106     0.3 4  391 211 
 PRA  HN ES   1    031 36.69                             106    -0.8 4  391 211 
 PRA  HZ I         031 41.19        18.8 0.40                           391 211 
                                                                                
