 2013 1116 0507 39.2 L   6.714 -73.209145.2  RSN  5 0.3 1.7LRSN                1
 GAP=190        0.80       5.3     5.6  6.6  0.9337E+01  0.2215E+01 -0.1418E+02E
 Epicentro: VILLANUEVA - SANTANDER                                             3
 ACTION:UPD 14-01-09 16:28 OP:ep   STATUS:               ID:20131116050739 L   I
 OLDACT:REG 13-11-16 10:10 OP:nd   STATUS:               ID:20131116050000     3
 2013-11-16-0500-00M.COL___279                                                 6
 STAT SP IPHASW D HRMM SECON CODA AMPLIT PERI AZIMU VELO AIN AR TRES W  DIS CAZ7
 BAR2 SZ EP        5 7 58.58                             175   -0.0710 13.8 168 
 BAR2 SZ ES        5 8 13.91                             175    0.1310 13.8 168 
 BAR2 SZ I         5 8 14.84        20.2 0.28            176           13.8 168 
 BRR  HZ EP        5 8  0.84                             153    0.5510 70.6 308 
 BRR  HN ES   2    5 8 16.99                             153    0.28 5 70.6 308 
 BRR  HZ I         5 8 18.78         7.7 0.44            153           70.6 308 
 RUS  HZ EP        5 8  2.58                             146    0.2510 91.9 171 
 RUS  HN ES        5 8 19.87                             146   -0.4610 91.9 171 
 RUS  HZ I         5 8 22.51         5.3 0.34            149           91.9 171 
 PTB  HZ EP        5 8  5.53                             134    0.12 9  139 262 
 PTB  HN ES        5 8 25.58                             134   -0.23 9  139 262 
 PTB  HZ I         5 8 27.51         6.5 0.12            135            139 262 
 SML  HZ EP        5 8 16.00                             117   -0.48 8  250 338 
 SML  HN ES   2    5 8 45.11                             117   -0.41 4  250 338 
 SML  HZ I         5 8 47.77         5.0 0.28            118            250 338 
                                                                                
