 2011  316 0505  9.8 L   6.814 -73.168148.0  RSN  5 0.1 1.4LRSN                1
 GAP=156        0.37       3.3    14.8  5.6 -0.3287E+02  0.4965E+02 -0.6356E+01E
 Epicentro: LOS SANTOS - SANTANDER                                             3
 ACTION:UP  11-06-16 14:33 OP:jfem STATUS:               ID:20110316050512 L   I
 2011-03-16-0501-24S.COL___138                                                 6
 STAT SP IPHASW D HRMM SECON CODA AMPLIT PERI AZIMU VELO SNR AR TRES W  DIS CAZ7
 BTL  SZ EP        5 5 29.69                             173     0.110   16 316 
 BAR2 SZ EP        5 5 29.58                             170    -0.110   25 184 
 BAR2 SZ ES   2    5 5 45.11                             170    -0.1 5   25 184 
 BAR2 SZ I         5 5 45.97         4.1 0.19                            25 184 
 RUS  HZ EP   3    5 5 33.93                             144     0.1 2  102 175 
 RUS  HN ES   1    5 5 52.77                             144     0.1 7  102 175 
 RUS  HZ I         5 5 53.33         5.3 0.78                           102 175 
 GRA  SZ EP   2    5 5 35.38                             138     0.2 5  125  19 
 GRA  SZ ES   2    5 5 54.80                             138    -0.2 5  125  19 
 GRA  SZ I         5 5 57.96         2.2 0.49                           125  19 
 CHI  HZ EP        5 5 47.58                             117    -0.1 8  250 195 
 CHI  HN ES   2    5 6 17.44                             117     0.2 4  250 195 
 CHI  HZ I         5 6 20.79         1.9 0.57                           250 195 
                                                                                
