 2014  516 0842 52.5 L   6.809 -73.143150.6  RSN  5 0.5 1.2LRSN                1
 GAP=201        1.17       6.3    13.0 12.4 -0.1024E+02 -0.2705E+02 -0.1779E+02E
 Epicentro: LOS SANTOS - SANTANDER                                             3
 ACTION:UPD 15-03-16 16:58 OP:nd   STATUS:               ID:20140516084252 L   I
 OLDACT:DUP 14-05-16 17:12 OP:fm   STATUS:               ID:20140516083808d    3
 2014-05-16-0838-07M.COL___245                                                 6
 STAT SP IPHASW D HRMM SECON CODA AMPLIT PERI AZIMU VELO AIN AR TRES W  DIS CAZ7
 BRR  HZ EP        843 14.97                             155    0.7710 71.0 298 
 BRR  HN ES        843 31.59                             155    0.4910 71.0 298 
 BRR  HZ I         843 37.38         2.7 0.36            153           71.0 298 
 RUS  HE ES   2    843 34.72                             145   -1.07 5  102 176 
 PTB  HZ EP        843 19.73                             134   -0.22 9  148 258 
 PTB  HN ES        843 40.96                             134   -0.37 9  148 258 
 PTB  HZ I         843 43.11         2.2 0.18            138            148 258 
 SPBC HE ES   1    843 44.03                             131   -0.06 7  164 219 
 SML  HZ EP   1    843 29.33                             119   -0.03 6  243 335 
 SML  HE ES        843 57.40                             119   -0.68 8  243 335 
 SML  HZ I         844  7.56         1.1 0.10            121            243 335 
                                                                                
