 2014 1216 0943 26.6 L   6.763 -73.142143.8  RSN  7 0.4 1.2LRSN                1
 GAP= 96        0.84       4.7     3.5  6.0  0.2234E+01  0.9358E+00  0.4574E+01E
 Epicentro: LOS SANTOS - SANTANDER                                             3
 ACTION:UPD 15-02-10 17:04 OP:nd   STATUS:               ID:20141216094326 L   I
 OLDACT:DUP 14-12-16 13:39 OP:spq  STATUS:               ID:20141216093738d    3
 2014-12-16-0937-37M.COL___287                                                 6
 STAT SP IPHASW D HRMM SECON CODA AMPLIT PERI AZIMU VELO AIN AR TRES W  DIS CAZ7
 BAR2 EZ EP        943 45.76                             172   -0.1210 19.4 193 
 BAR2 EZ ES   1    944  0.89                             172   -0.06 7 19.4 193 
 BAR2 EZ I         944  1.75         5.5 0.20            172           19.4 193 
 BRR  HN ES        944  4.49                             151    0.4210 73.6 301 
 BRR  HZ I         944  7.60         4.3 0.56            151           73.6 301 
 PAM  SZ EP        943 48.84                             150    0.0910 80.3  37 
 PAM  SN ES        944  5.72                             150   -0.3310 80.3  37 
 PAM  SZ I         944  7.11         1.9 0.34            151           80.3  37 
 RUS  HZ EP        943 50.01                             144    0.1810 96.5 176 
 RUS  HN ES   1    944  8.04                             144    0.07 7 96.5 176 
 RUS  HZ I         944  9.09         1.2 0.22            147           96.5 176 
 PTB  HZ EP        943 52.61                             132   -0.73 9  147 260 
 PTB  HN ES   1    944 14.27                             132    0.04 7  147 260 
 PTB  HZ I         944 16.02         3.1 0.54            132            147 260 
 TAM  HZ EP        943 54.17                             130    0.22 9  154 104 
 ZAR  HZ EP   1    943 59.87                             122    0.79 6  206 293 
 ZAR  HN ES        944 24.26                             122   -0.19 8  206 293 
 ZAR  HZ I         944 27.09         1.8 0.48            123            206 293 
                                                                                
