 2016  316 0200 26.3 L   6.827 -73.182141.5  RSN  6 0.3 1.3LRSN                1
 GAP=242        0.49       5.2     5.7  8.3  0.1427E+02  0.1544E+02 -0.4168E+01E
 Epicentro: ZAPATOCA - SANTANDER                                               3
 ACTION:UPD 16-05-13 21:24 OP:cam  STATUS:               ID:20160316020026 L   I
 OLDACT:REG 16-03-16 14:06 OP:dnl  STATUS:               ID:20160316015751     3
 2016-03-16-0157-51M.COL___292                                                 6
 STAT SP IPHASW D HRMM SECON CODA AMPLIT PERI AZIMU VELO AIN AR TRES W  DIS CAZ7
 BAR2 EZ EP   2    2 0 45.69                             169    0.22 5 25.9 180 
 BAR2 EZ ES   2    2 0 59.98                             169   -0.44 5 25.9 180 
 BAR2 EZ I         2 1  1.71         5.4 0.24            161           25.9 180 
 RUS  HZ EP   2    2 0 49.75                             142   -0.13 5  104 174 
 RUS  HE ES        2 1  8.40                             142    0.1310  104 174 
 RUS  HZ I         2 1  9.35         1.7 0.26            134            104 174 
 PTB  HZ EP   2    2 0 52.31                             132   -0.31 5  144 257 
 PTB  HE ES   2    2 1 12.70                             132   -0.44 5  144 257 
 PTB  HZ I         2 1 15.71         2.6 0.14            123            144 257 
 SPBC HE ES   2    2 1 16.87                             128    0.45 5  163 217 
 ZAR  HZ EP   3    2 0 57.94                             122   -0.03 2  199 292 
 ZAR  HN ES   2    2 1 23.18                             122    0.52 4  199 292 
 ZAR  HZ I         2 1 29.53         2.2 0.13            115            199 292 
 CHI  HN EP   4    2 1  8.96                             116    4.99 0  250 194 
 CHI  HE ES   2    2 1 32.90                             116   -0.45 4  250 194 
 CHI  HN I         2 1 43.29         2.8 0.14            110            250 194 
                                                                                
