 2015  916 0247 10.9 L   6.820 -73.025173.0  RSN  4 0.3 1.2LRSN                1
 GAP=253        0.83       9.9     9.0 13.9  0.5777E+02 -0.3095E+02 -0.7837E+02E
 Epicentro: CEPITA - SANTANDER                                                 3
 ACTION:UPD 15-10-28 16:26 OP:cam  STATUS:               ID:20150916024723 L   I
 OLDACT:UP  15-10-13 22:11 OP:cam  STATUS:               ID:20150916024723 L   3
 OLDACT:UP  15-10-13 22:08 OP:nlst STATUS:               ID:20150916024723 L   3
 OLDACT:DUP 15-09-16 17:05 OP:mh   STATUS:               ID:20150916023747d    3
 OLDACT:REG 15-09-16 12:42 OP:mh   STATUS:               ID:20150916023746     3
 2015-09-16-0237-46M.COL___346                                                 6
 STAT SP IPHASW D HRMM SECON CODA AMPLIT PERI AZIMU VELO AIN AR TRES W  DIS CAZ7
 RUS  HZ EP        247 37.99                             148    0.4110  103 184 
 RUS  HN ES        247 58.14                             148   -0.2310  103 184 
 RUS  HZ I         248  1.92         0.6 0.28            125            103 184 
 PTB  HZ EP        247 40.84                             135   -0.53 9  161 259 
 PTB  HZ I         248  8.65         1.4 0.36            112            161 259 
 SPBC HN ES        248  7.38                             133    0.16 9  174 222 
 SPBC HZ I         248 11.64         2.3 0.34            110            174 222 
 ZAR  HN ES        248 14.26                             126    0.18 8  216 290 
 ZAR  HZ I         248 21.20         1.9 0.36            106            216 290 
                                                                                
