 2014  816 0754 51.9 L   6.978 -73.187139.7  RSN  5 0.3 1.4LRSN                1
 GAP=205        0.69       3.0     6.0  5.0 -0.1709E+01  0.4671E+01 -0.3244E+01E
 Epicentro: GIRON - SANTANDER                                                  3
 ACTION:UPD 14-09-15 21:50 OP:nd   STATUS:               ID:20140816075451 L   I
 OLDACT:REG 14-08-16 13:08 OP:cam  STATUS:               ID:20140816075000     3
 2014-08-16-0750-00M.COL___285                                                 6
 STAT SP IPHASW D HRMM SECON CODA AMPLIT PERI AZIMU VELO AIN AR TRES W  DIS CAZ7
 BAR2 SZ ES        755 26.21                             162   -0.3110 42.7 179 
 BAR2 SZ I         755 27.44         6.5 0.46            161           42.7 179 
 BRR  HZ EP     C  755 12.14                             155    0.4010 59.7 284 
 BRR  HN ES        755 27.57                             155    0.3410 59.7 284 
 BRR  HZ I         755 28.29         3.5 0.12            152           59.7 284 
 PTB  HZ EP        755 18.34                             130   -0.07 9  148 251 
 PTB  HN ES        755 38.83                             130   -0.28 9  148 251 
 PTB  HZ I         755 40.59         4.9 0.28            128            148 251 
 SPBC HZ EP        755 21.06                             125   -0.14 9  176 214 
 SPBC HN ES        755 44.27                             125    0.20 9  176 214 
 SPBC HZ I         755 51.79         2.3 0.18            124            176 214 
 SML  HZ EP        755 26.06                             118    0.04 8  224 334 
 SML  HE ES        755 52.36                             118   -0.29 8  224 334 
 SML  HZ I         755 59.20         3.3 0.10            117            224 334 
                                                                                
