 2013  916 0504  2.8 L   6.779 -73.143147.4  RSN 10 0.5 1.7LRSN                1
 GAP=183        1.01       3.7     6.4  7.3 -0.6779E+00  0.1037E+02  0.1315E+01E
 Epicentro: LOS SANTOS - SANTANDER                                             3
 ACTION:UPD 13-10-22 09:23 OP:ep   STATUS:               ID:20130916050402 L   I
 OLDACT:REG 13-09-16 07:44 OP:jn   STATUS:               ID:20130916045959     3
 2013-09-16-0459-59M.COL___269                                                 6
 STAT SP IPHASW D HRMM SECON CODA AMPLIT PERI AZIMU VELO AIN AR TRES W  DIS CAZ7
 BAR2 SZ EP        5 4 22.52                             171   -0.0610 21.1 192 
 BAR2 SZ ES        5 4 37.65                             171   -0.3710 21.1 192 
 BAR2 SZ I         5 4 39.07        19.0 0.20            160           21.1 192 
 BRR  HZ EP        5 4 24.47                             152    0.2710 72.6 300 
 BRR  HN ES        5 4 41.50                             152    0.6010 72.6 300 
 BRR  HZ I         5 4 42.73         6.2 0.16            148           72.6 300 
 RUS  HN ES   1    5 4 45.21                             145    0.14 7 98.3 176 
 RUS  HZ I         5 4 46.78         6.0 0.28            129           98.3 176 
 PTB  HZ EP        5 4 29.27                             132   -0.62 9  148 260 
 PTB  HN ES   1    5 4 50.39                             132   -0.63 7  148 260 
 PTB  HZ I         5 4 53.40         5.5 0.20            121            148 260 
 SPBC HZ EP        5 4 31.46                             130    0.19 9  162 220 
 SPBC HN ES        5 4 53.40                             130   -0.08 9  162 220 
 SPBC HZ I         5 5  0.74         8.0 0.28            117            162 220 
 OCA  HN ES        5 4 53.65                             130   -0.15 9  163 353 
 ZAR  HE ES   1    5 5  0.28                             123   -0.67 6  205 293 
 ZAR  HZ I         5 5  5.87         5.1 0.42            113            205 293 
 NOR  HE ES   1    5 5  7.48                             119    1.12 6  234 235 
 NOR  HZ I         5 5  9.95         4.0 0.14            109            234 235 
 SML  HE ES   1    5 5  9.11                             118    0.53 6  246 335 
 CHI  HZ EP   1    5 4 40.46                             118    0.10 6  246 195 
 CHI  HZ I         5 5 15.60         2.3 0.40            107            246 195 
                                                                                
