 2011 1116 0719 26.2 L   6.778 -73.125143.6  RSN 12 0.4 2.6LRSN                1
 GAP=140        0.69       2.8     3.9  4.8 -0.1892E+01  0.6648E+01  0.2380E+01E
 Epicentro: LOS SANTOS - SANTANDER                                             3
 ACTION:UPD 12-07-13 16:10 OP:ep   STATUS:               ID:20111116071926 L   I
 2011-11-16-0717-51S.COL___179                                                 6
 STAT SP IPHASW D HRMM SECON CODA AMPLIT PERI AZIMU VELO AIN AR TRES W  DIS CAZ7
 BAR2 SZ IP        719 45.52                             171   -0.0310 21.5 197 
 BAR2 SZ I         719 45.86        98.9 0.09                          21.5 197 
 BAR2 SZ ES   1    720  0.05                             171   -0.58 7 21.5 197 
 BRR  HZ IP        719 47.48                             151    0.1610 74.4 299 
 BRR  HZ I         719 51.33       147.0 0.09                          74.4 299 
 BRR  HE ES   1    720  4.47                             151    0.69 7 74.4 299 
 PAM  SZ EP        719 48.41                             150    0.1810 77.8  37 
 PAM  SZ I         719 48.68        77.8 0.19                          77.8  37 
 PAM  SE ES   1    720  5.40                             150    0.00 7 77.8  37 
 RUS  HZ EP   1    719 49.45                             144   -0.13 7 98.0 177 
 RUS  HE ES   1    720  8.15                             144    0.36 7 98.0 177 
 RUS  HZ I         720  9.85        41.1 0.47                          98.0 177 
 OCA  SZ EP   1    719 54.49                             129   -0.13 7  163 352 
 OCA  SZ ES   1    720 16.18                             129   -0.59 7  163 352 
 OCA  SZ I         720 19.70        41.9 0.37                           163 352 
 ZAR  HZ EP   1    719 58.90                             121    0.06 6  207 293 
 ZAR  HN ES   1    720 24.19                             121   -0.10 6  207 293 
 NOR  SZ EP   1    720  1.71                             118   -0.17 6  235 235 
 NOR  SE ES   1    720 29.01                             118   -0.68 6  235 235 
 CHI  HZ EP   1    720  3.62                             117    0.01 6  247 196 
 CHI  HZ I         720 36.73        10.8 0.34                           247 196 
 HEL  HZ EP   1    720  6.41                             114   -0.10 6  274 256 
 HEL  HZ I         720 44.17        22.7 0.40                           274 256 
 GUY  SZ EP   1    720 10.30                             112    0.25 5  304 236 
 GUY  SZ I         720 52.48        34.4 0.40                           304 236 
 RREF HZ EP   1    720 12.94                             110    0.65 5  322 230 
 RREF HN ES   1    720 48.79                             110    0.56 5  322 230 
 RREF HZ I         720 59.42        20.7 0.56                           322 230 
 PRA  HZ EP   1    720 19.36                             106   -0.20 4  391 210 
 PRA  HE ES   1    721  0.37                             106   -0.79 4  391 210 
                                                                                
