 2017  416 0938  7.2 L   6.678 -73.210146.7  RSN  4 0.2 1.3LRSN                1
 GAP=211        0.56       6.1     4.0  4.5  0.8687E+01  0.4552E+01 -0.5478E+00E
 Epicentro: VILLANUEVA - SANTANDER                                             3
 ACTION:UPD 17-05-30 21:12 OP:jn   STATUS:               ID:20170416093807 L   I
 OLDACT:UP  17-04-16 18:08 OP:dani STATUS:               ID:20170416092707d    3
 OLDACT:DUP 17-04-16 18:05 OP:dani STATUS:               ID:20170416092707d    3
 2017-04-16-0928-00M.COL___365                                                 6
 STAT SP IPHASW D HRMM SECON CODA AMPLIT PERI AZIMU VELO AIN AR TRES W  DIS CAZ7
 BAR2 EZ EP        938 26.69                             176   -0.0610 9.95 162 
 BAR2 EZ ES        938 42.06                             176    0.0610 9.95 162 
 BRR  HZ EP        938 28.36                             152   -0.1910 73.0 311 
 BRR  HN ES        938 45.28                             152    0.0710 73.0 311 
 BRR  HZ I         938 48.49         3.6 0.33            149           73.0 311 
 PTB  HZ EP        938 33.29                             134   -0.14 9  139 264 
 PTB  HN ES        938 53.96                             134    0.06 9  139 264 
 PTB  HZ I         938 57.96         2.1 0.13            133            139 264 
 ZAR  HZ EP        938 40.11                             123    0.50 9  203 296 
 ZAR  HN ES        939  4.65                             123   -0.24 9  203 296 
 ZAR  HZ I         939 10.31         2.4 0.24            122            203 296 
                                                                                
