 2016 1116 0933 34.0 L   6.848 -73.101160.0  RSN 11 0.4 1.7LRSN                1
 GAP= 73        0.97       4.3     3.7  6.6 -0.2061E+01 -0.1874E+01  0.1095E+02E
 Epicentro: LOS SANTOS - SANTANDER                                             3
 ACTION:UPD 17-10-26 21:08 OP:lp   STATUS:               ID:20161116093334 L   I
 OLDACT:UP  16-11-16 18:55 OP:e    STATUS:               ID:20161116092740     3
 OLDACT:UP  16-11-16 18:54 OP:e    STATUS:               ID:20161116092740     3
 OLDACT:UP  16-11-16 18:53 OP:e    STATUS:               ID:20161116092740     3
 OLDACT:UP  16-11-16 18:51 OP:e    STATUS:               ID:20161116092740     3
 OLDACT:UP  16-11-16 18:48 OP:e    STATUS:               ID:20161116092740     3
 OLDACT:REG 16-11-16 13:00 OP:and  STATUS:               ID:20161116092740     3
 2016-11-16-0928-00M.COL___332                                                 6
 STAT SP IPHASW D HRMM SECON CODA AMPLIT PERI AZIMU VELO AIN AR TRES W  DIS CAZ7
 BAR2 EZ IP     C  933 54.91                             169   -0.5310 29.7 198 
 BAR2 EZ ES   4    934 10.35                             169   -1.84 0 29.7 198 
 BAR2 EZ I         934 11.64         9.5 0.18            168           29.7 198 
 PAM  EZ EP        933 57.54                             155    0.2110 70.2  39 
 PAM  EN ES        934 15.33                             155   -0.2210 70.2  39 
 PAM  EZ I         934 16.91        12.6 0.56            158           70.2  39 
 BRR  HZ EP        933 57.07                             154    0.2910 73.3 293 
 BRR  HN ES        934 14.82                             154    0.2510 73.3 293 
 BRR  HZ I         934 18.66        11.3 0.30            153           73.3 293 
 TAM  HZ IP     C  934  2.99                             134    0.47 9  152 107 
 PTB  HZ EP        934  2.01                             134   -0.63 9  154 257 
 PTB  HN ES        934 25.02                             134    0.01 9  154 257 
 PTB  HZ I         934 26.49         4.2 0.14            133            154 257 
 ZAR  HZ EP        934  7.82                             125    0.18 8  207 290 
 ZAR  HN ES        934 33.73                             125   -0.18 8  207 290 
 ZAR  HZ I         934 38.88         5.0 0.32            125            207 290 
 NOR  HZ EP        934 12.16                             120    0.86 8  242 234 
 NOR  HN ES        934 40.37                             120   -0.05 8  242 234 
 NOR  HZ I         934 44.41         3.9 0.16            121            242 234 
 CHI  HZ EP        934 13.61                             119    0.44 8  255 196 
 CHI  HN ES        934 43.61                             119   -0.14 8  255 196 
 CHI  HZ I         934 49.11         1.8 0.45            120            255 196 
 PTGC HZ EP        934 18.03                             114   -0.82 7  312 160 
 PTGC HN ES   4    934 51.90                             114   -1.97 0  312 160 
 PRA  HZ EP   9    934 27.55                             108   -1.27 0  399 210 
 PRA  HN ES        935 10.30                             108   -0.04 6  399 210 
 PRA  HZ I         935 14.45         1.6 0.70            109            399 210 
 SJC  HZ EP        934 29.26                             108   -0.57 6  407 326 
 SJC  HN ES   4    935 10.99                             108   -2.41 0  407 326 
 SJC  HZ I         935 15.64         1.3 0.36            109            407 326 
                                                                                
