 2011  716 0756 25.6 L   6.446 -73.785 95.1  RSN  4 0.3 1.4LRSN                1
 GAP=238        0.59       3.7     7.2  7.0  0.1179E+02  0.8977E+01  0.4663E-01E
 Epicentro: SANTA HELENA DEL OPON - SANTANDER                                  3
 ACTION:UPD 12-07-25 14:01 OP:epov STATUS:               ID:20110716075625 L   I
 2011-07-16-0740-00M.COL___133                                                 6
 STAT SP IPHASW D HRMM SECON CODA AMPLIT PERI AZIMU VELO AIN AR TRES W  DIS CAZ7
 BAR2 SZ EP   1    756 41.39                             142   -0.26 7 68.6  76 
 BAR2 SZ ES   1    756 53.87                             142   -0.34 7 68.6  76 
 BAR2 SZ I         756 55.53        11.5 0.33                          68.6  76 
 BRR  HZ EP   1    756 41.77                             139    0.07 7 73.5   6 
 BRR  HN ES   1    756 54.42                             139    0.12 7 73.5   6 
 BRR  HZ I         756 55.72         4.4 0.09                          73.5   6 
 RUS  HZ EP   1    756 44.29                             131   -0.31 7 98.9 128 
 RUS  HZ I         756 44.93         6.0 0.10                          98.9 128 
 RUS  HN ES   1    756 59.96                             131    0.50 7 98.9 128 
 GRA  SZ EP   1    756 54.37                             112    0.24 7  192  34 
 GRA  SZ ES   1    757 16.50                             112    0.07 7  192  34 
 GRA  SZ I         757 18.05         2.4 0.31                           192  34 
                                                                                
