 2016  816 0911 10.9 L   6.819 -73.157144.8  RSN  8 0.4 1.8LRSN                1
 GAP=134        1.13       4.3     4.8  7.0  0.3628E+00  0.9530E+01 -0.2150E+01E
 Epicentro: LOS SANTOS - SANTANDER                                             3
 ACTION:UPD 16-10-29 15:36 OP:rebc STATUS:               ID:20160816091110 L   I
 OLDACT:UP  16-08-16 17:37 OP:ar   STATUS:               ID:20160816090759     3
 OLDACT:REG 16-08-16 13:04 OP:ak   STATUS:               ID:20160816090759     3
 2016-08-16-0907-59S.COL___340                                                 6
 STAT SP IPHASW D HRMM SECON CODA AMPLIT PERI AZIMU VELO AIN AR TRES W  DIS CAZ7
 BAR2 EZ EP        911 30.32                             170   -0.1410 25.2 186 
 BAR2 EZ ES        911 45.18                             170   -0.5310 25.2 186 
 BAR2 EZ I         911 46.52        11.2 0.10                          25.2 186 
 BRR  HZ EP        911 32.14                             153    0.3110 69.1 298 
 BRR  HN ES        911 49.10                             153    0.9510 69.1 298 
 BRR  HZ I         911 51.44        12.7 0.20                          69.1 298 
 PAM  EZ EP        911 33.18                             151    0.2110 76.6  41 
 PAM  EN ES        911 49.91                             151   -0.2710 76.6  41 
 PAM  EZ I         911 52.18        10.7 0.50                          76.6  41 
 RUS  HZ EP        911 34.77                             143    0.0510  103 175 
 RUS  HN ES        911 53.45                             143    0.1510  103 175 
 PTB  HZ EP        911 37.14                             132   -0.58 9  147 258 
 PTB  HN ES        911 57.90                             132   -0.73 9  147 258 
 PTB  HZ I         912  1.45         5.4 0.15                           147 258 
 SPBC HZ EP        911 39.51                             129    0.10 9  164 218 
 SPBC HN ES        912  1.86                             129    0.22 9  164 218 
 SPBC HZ I         912  9.25         7.3 0.34                           164 218 
 ZAR  HZ EP        911 43.57                             122    0.49 9  202 292 
 ZAR  HN ES        912  8.20                             122    0.02 9  202 292 
 ZAR  HZ I         912 14.71         6.9 0.42                           202 292 
 SJC  HZ EP   4    912  4.65                             106   -1.49 0  407 327 
 SJC  HN ES        912 48.49                             106   -0.74 6  407 327 
 SJC  HZ I         913  4.02         1.3 0.44                           407 327 
                                                                                
