 2012 1116 0636 58.3 L   6.389 -73.644101.7  RSN 16 0.5 2.2LRSN                1
 GAP= 50        0.99       2.7     2.9  6.5 -0.5932E+00  0.3512E+01  0.3280E+01E
 Epicentro: SANTA HELENA DEL OPON - SANTANDER                                  3
 ACTION:UPD 12-12-05 15:33 OP:}ep  STATUS:               ID:20121116063658 L   I
 2012-11-16-0633-38M.COL___209                                                 6
 STAT SP IPHASW D HRMM SECON CODA AMPLIT PERI AZIMU VELO AIN AR TRES W  DIS CAZ7
 BAR2 SZ EP   1    637 14.52                             149    0.32 7 55.8  66 
 BAR2 SZ ES   1    637 27.29                             149    0.70 7 55.8  66 
 BAR2 SZ I         637 28.41       228.1 0.16                          55.8  66 
 BRR  HZ EP   1    637 15.53                             138   -0.07 7 79.8 355 
 BRR  HN ES   1    637 29.46                             138    0.39 7 79.8 355 
 RUS  HZ EP   1    637 16.44                             138   -0.09 7 82.8 131 
 RUS  HN ES   1    637 30.21                             138   -0.51 7 82.8 131 
 RUS  HZ I         637 34.22        11.5 0.17                          82.8 131 
 GIR2 SZ EP   1    637 17.08                             134    0.34 7 91.1  33 
 PTB  HZ EP   1    637 15.49                             134   -1.10 7 91.4 281 
 PTB  HN ES   1    637 29.83                             134   -1.02 7 91.4 281 
 PTB  HZ I         637 32.33        41.7 0.14                          91.4 281 
 PAM  SZ EP   1    637 22.87                             120    0.09 7  148  45 
 PAM  SN ES   1    637 41.77                             120   -0.08 7  148  45 
 PAM  SZ I         637 46.84        12.6 0.24                           148  45 
 NOR  HZ EP   1    637 23.18                             117   -0.68 7  163 236 
 NOR  HN ES   1    637 43.89                             117    0.11 7  163 236 
 NOR  HZ I         637 45.80        31.3 0.24                           163 236 
 ZAR  HZ EP   1    637 25.76                             114   -0.02 7  181 312 
 ZAR  HE ES   1    637 47.68                             114    0.48 7  181 312 
 CHI  HZ EP   1    637 27.49                             112   -0.31 6  195 183 
 CHI  HN ES   1    637 51.66                             112    0.87 6  195 183 
 CHI  HZ I         637 53.84         6.5 0.20                           195 183 
 TAM  HZ EP   1    637 28.43                             110   -0.07 6  205  88 
 TAM  HZ I         637 51.35        18.3 0.12                           205  88 
 TAM  HN ES   1    637 51.39                             110   -0.64 6  205  88 
 OCA  HZ EP   1    637 30.01                             110    1.06 6  208  10 
 OCA  HN ES   4    637 55.32                             110    2.49 0  208  10 
 HEL  HZ EP   1    637 29.79                             110    0.35 6  210 264 
 HEL  HE ES   1    637 54.22                             110    0.50 6  210 264 
 HEL  HZ I         637 56.28        15.2 0.22                           210 264 
 RREF HZ EP   1    637 34.63                             106    0.14 6  250 229 
 RREF HN ES   4    638  3.22                             106    0.52 0  250 229 
 RREF HZ I         638  8.95        15.2 0.38                           250 229 
 VIL  SZ EP   1    637 33.95                             106   -0.08 6  252 181 
 VIL  SN ES   1    638  2.17                             106    0.28 6  252 181 
 VIL  SZ I         638  5.32        16.4 0.40                           252 181 
 SML  HZ EP   1    637 35.55                             104   -0.57 6  271 350 
 SML  HE ES   1    638  5.49                             104   -0.11 6  271 350 
 PRA  HZ EP   1    637 42.19                             100   -0.58 5  326 205 
 PRA  HN ES   1    638 18.14                             100    0.69 5  326 205 
                                                                                
