 2017  916 0627 24.9 L   6.809 -73.161147.0  RSN 16 0.4 1.9LRSN                1
 GAP=167        0.72       3.1     2.8  4.1  0.2640E+01  0.8315E+00  0.1957E+01E
 Epicentro: LOS SANTOS - SANTANDER                                             3
 ACTION:UPD 17-10-05 19:13 OP:rebc STATUS:               ID:20170916062724 L   I
 OLDACT:UP  17-09-16 18:48 OP:mg   STATUS:               ID:20170916061741     3
 OLDACT:UP  17-09-16 18:47 OP:mg   STATUS:               ID:20170916061741     3
 OLDACT:REG 17-09-16 16:58 OP:mg   STATUS:               ID:20170916061741     3
 2017-09-16-0618-00M.COL___438                                                 6
 STAT SP IPHASW D HRMM SECON CODA AMPLIT PERI AZIMU VELO AIN AR TRES W  DIS CAZ7
 BAR2 EZ EP        627 44.37                             170   -0.3510 24.0 186 
 BAR2 EZ ES        627 59.75                             170   -0.4010 24.0 186 
 BAR2 EZ I         628  2.31        23.1 0.30            161           24.0 186 
 BRR  HZ EP     C  627 46.27                             154    0.1710 69.2 299 
 BRR  HN ES        628  3.32                             154    0.7110 69.2 299 
 BRR  HZ I         628  7.26        14.9 0.28            148           69.2 299 
 RUS  HZ EP        627 48.68                             144   -0.2010  102 175 
 RUS  HN ES        628  7.47                             144   -0.0910  102 175 
 RUS  HZ I         628  8.43        16.4 0.36            139            102 175 
 TAM  HZ IP     D  627 52.92                             131    0.04 9  157 105 
 SPBC HZ EP        627 53.44                             130   -0.05 9  163 218 
 SPBC HN ES        628 15.83                             130    0.06 9  163 218 
 SPBC HZ I         628 21.52        14.8 0.46            125            163 218 
 YPLC HZ EP        627 54.96                             127   -0.01 9  178 151 
 YPLC HN ES        628 19.05                             127    0.64 9  178 151 
 YPLC HZ I         628 19.91        12.0 0.26            126            178 151 
 ZAR  HZ EP   1    627 56.92                             123   -0.34 6  202 292 
 ZAR  HE ES        628 22.33                             123   -0.14 9  202 292 
 ZAR  HZ I         628 32.62         7.3 0.26            120            202 292 
 NOR  HZ EP        628  0.65                             119    0.01 8  234 234 
 NOR  HN ES        628 28.13                             119   -0.37 8  234 234 
 NOR  HZ I         628 36.39         5.6 0.22            116            234 234 
 CHI  HZ EP   1    628  2.70                             117   -0.05 6  249 195 
 CHI  HN ES   2    628 32.46                             117    0.22 4  249 195 
 CHI  HZ I         628 38.33         4.3 0.34            115            249 195 
 ROSC BZ EP   4    628  5.05                             117    1.94 0  253 211 
 ROSC BN ES   4    628 36.86                             117    3.97 0  253 211 
 ROSC BZ I         628 40.84         8.0 0.75            114            253 211 
 GUY2CHZ EP   4    628 10.41                             113    1.91 0  300 234 
 GUY2CHN ES   4    628 45.92                             113    3.43 0  300 234 
 GUY2CHZ I         628 50.53         3.9 0.36                           300 234 
 PTGC HZ EP   9    628  7.73                             112   -1.28 0  310 158 
 PTGC HN ES   4    628 41.24                             112   -0.87 0  310 158 
 PTGC HZ I         628 52.70         5.3 0.50            111            310 158 
 CBOC HZ EP   3    628 12.52                             110    0.78 2  332 252 
 CBOC HN ES   2    628 48.85                             110    0.59 3  332 252 
 CBOC HZ I         629  2.07         1.5 0.38            108            332 252 
 PRA  HZ EP        628 18.15                             107   -0.34 6  392 209 
 PRA  HN ES   2    629  0.79                             107    0.52 3  392 209 
 PRA  HZ I         629  6.87         3.6 0.40            105            392 209 
 ORTC HZ EP   2    628 19.37                             107    0.50 3  395 216 
 ORTC HN ES   3    629  2.30                             107    1.37 1  395 216 
 ORTC HZ I         629  8.58         2.8 0.09            105            395 216 
 SJC  HZ EP   4    628 18.23                             106   -2.10 0  408 327 
 SJC  HN ES   4    628 59.54                             106   -4.00 0  408 327 
 SJC  HZ I         629  3.12         1.0 0.44            106            408 327 
                                                                                
