 2016  316 0631 44.8 L   6.822 -73.125145.1  RSN 20 0.6 2.2LRSN                1
 GAP= 71        1.15       3.1     3.0  5.5 -0.1841E+01  0.5727E+01  0.3759E-01E
 Epicentro: LOS SANTOS - SANTANDER                                             3
 ACTION:UPD 16-05-13 21:24 OP:cam  STATUS:               ID:20160316063144 L   I
 OLDACT:REG 16-03-16 14:27 OP:dnl  STATUS:               ID:20160316062747     3
 2016-03-16-0627-47M.COL___288                                                 6
 STAT SP IPHASW D HRMM SECON CODA AMPLIT PERI AZIMU VELO AIN AR TRES W  DIS CAZ7
 BAR2 EZ IP     D  632  4.59                             169    0.1910 26.1 194 
 BAR2 EZ ES        632 19.47                             169   -0.2310 26.1 194 
 BAR2 EZ I         632 20.70        25.7 0.16            168           26.1 194 
 PAM  EZ IP     D  632  7.39                             152    0.6510 74.1  39 
 PAM  EE ES        632 24.50                             152    0.6310 74.1  39 
 PAM  EZ I         632 25.18        22.8 0.34            154           74.1  39 
 RUS  HZ EP        632  8.58                             143   -0.0610  103 177 
 RUS  HN ES        632 27.16                             143   -0.0910  103 177 
 RUS  HZ I         632 27.99        14.2 0.24            144            103 177 
 PTB  HZ EP        632 11.12                             131   -0.83 9  150 258 
 PTB  HN ES        632 32.68                             131   -0.46 9  150 258 
 PTB  HZ I         632 34.98        16.4 0.18            129            150 258 
 TAM  HZ IP     C  632 12.85                             131    0.58 9  154 106 
 TAM  HE ES        632 33.00                             131   -0.71 9  154 106 
 TAM  HZ I         632 33.30        12.3 0.38            134            154 106 
 OCA  HZ EP        632 12.56                             130   -0.30 9  158 352 
 OCA  HE ES        632 34.59                             130   -0.15 9  158 352 
 OCA  HZ I         632 38.47        24.4 0.19            129            158 352 
 SPBC HZ EP     D  632 13.47                             128   -0.08 9  166 219 
 SPBC HN ES        632 36.26                             128    0.27 9  166 219 
 SPBC HZ I         632 39.81        29.3 0.12            127            166 219 
 ZAR  HZ EP        632 17.39                             122    0.07 8  205 291 
 ZAR  HN ES        632 43.36                             122    0.67 8  205 291 
 ZAR  HZ I         632 49.16        32.1 0.26            121            205 291 
 NOR  HZ EP        632 20.63                             118   -0.20 8  238 234 
 NOR  HN ES        632 48.50                             118   -0.44 8  238 234 
 NOR  HZ I         632 54.89        19.8 0.20            117            238 234 
 CHI  HZ EP        632 22.67                             117   -0.10 8  252 196 
 CHI  HE ES        632 51.71                             117   -0.68 8  252 196 
 CHI  HZ I         632 59.22         3.9 0.22            117            252 196 
 ROSC BZ EP   2    632 24.51                             116    1.28 4  256 211 
 ROSC BN ES   4    632 56.33                             116    3.12 0  256 211 
 ROSC BZ I         633  0.50        12.4 0.30            116            256 211 
 HEL  HZ EP        632 26.08                             114    0.80 8  275 255 
 HEL  HN ES        632 57.29                             114    0.43 8  275 255 
 HEL  HZ I         633  3.49         7.9 0.21            114            275 255 
 URE  HZ EP        632 24.93                             113   -1.04 7  285 291 
 URE  HN ES   4    632 52.14                             113   -5.95 0  285 291 
 URE  HZ I         633  9.43        12.4 0.36            113            285 291 
 GUY2CHZ EP        632 29.21                             112    0.47 7  304 235 
 GUY2CHE ES        633  3.86                             112    0.85 7  304 235 
 GUY2CHZ I         633 11.30        14.9 0.38                           304 235 
 CBOC HZ EP        632 32.62                             109    0.61 7  337 252 
 CBOC HE ES        633  8.02                             109   -0.83 7  337 252 
 CBOC HZ I         633 21.45         4.1 0.62            109            337 252 
 MON  HZ EP   4    632 32.17                             108   -1.63 0  354 308 
 MON  HE ES   1    633 11.07                             108   -0.96 5  354 308 
 MON  HZ I         633 28.09         4.0 0.62            108            354 308 
 SDV  BZ EP        632 34.22                             108   -0.21 6  357  50 
 SDV  BN ES   4    633 10.22                             108   -2.92 0  357  50 
 ORTC HZ EP   2    632 39.26                             106    0.19 3  399 216 
 ORTC HE ES        633 22.04                             106    0.63 6  399 216 
 ORTC HZ I         633 30.45         2.9 0.48            106            399 216 
 SJC  HZ EP   2    632 39.31                             106   -0.93 3  408 327 
 SJC  HN ES   4    633 20.27                             106   -3.23 0  408 327 
 PAL  HZ EP     D  632 40.67                             106    0.37 6  409 239 
 PAL  HN ES        633 23.23                             106   -0.37 6  409 239 
 PAL  HZ I         633 27.61         3.2 0.22            105            409 239 
                                                                                
