 2013  716 0401 19.3 L   5.865 -73.757  4.0  RSN  4 0.3 1.1LRSN                1
 GAP=148        0.75       3.0     2.1  6.3 -0.1338E+01  0.1461E+01  0.2648E+01E
 Epicentro: JESUS MARIA - SANTANDER                                            3
 ACTION:UPD 13-08-12 10:38 OP:ep   STATUS:               ID:20130716040119 L   I
 OLDACT:UP  13-07-16 10:00 OP:mh   STATUS:               ID:20130716040000     3
 OLDACT:UP  13-07-16 09:57 OP:mh   STATUS:               ID:20130716040000     3
 OLDACT:UP  13-07-16 09:53 OP:mh   STATUS:               ID:20130716040000     3
 OLDACT:REG 13-07-16 07:53 OP:mh   STATUS:               ID:20130716040000     3
 2013-07-16-0400-00M.COL___263                                                 6
 STAT SP IPHASW D HRMM SECON CODA AMPLIT PERI AZIMU VELO AIN AR TRES W  DIS CAZ7
 SPBC HZ EP        4 1 26.78                              47    0.4010 42.1 236 
 SPBC HN ES        4 1 31.64                              47   -0.2510 42.1 236 
 RUS  HZ EP   1    4 1 31.95                              47    0.21 7 74.7  88 
 RUS  HN ES   1    4 1 41.02                              47   -0.41 7 74.7  88 
 RUS  HZ I         4 1 41.72         3.7 0.46             90           74.7  88 
 PTB  HZ EP   1    4 1 35.86                              47   -0.35 7  107 314 
 PTB  HN ES   1    4 1 49.23                              47   -0.15 7  107 314 
 PTB  HN I         4 1 49.83         5.8 0.38             90            107 314 
 BRR  HZ EP   1    4 1 41.19                              47    0.46 7  137   2 
 BRR  HN I         4 1 59.25         4.4 0.18             90            137   2 
                                                                                
