 2017  716 0830  7.0 L   6.779 -73.108145.6  RSN  5 0.1 0.7LRSN                1
 GAP=142        0.32       2.1     3.1  4.1  0.1359E+01 -0.4169E+01 -0.1622E+01E
 Epicentro: LOS SANTOS - SANTANDER                                             3
 ACTION:UPD 17-08-30 15:33 OP:rebc STATUS:               ID:20170716083007 L   I
 OLDACT:UP  17-07-16 17:10 OP:dnl  STATUS:               ID:20170716082359     3
 OLDACT:REG 17-07-16 12:38 OP:dhb  STATUS:               ID:20170716082359     3
 2017-07-16-0828-00M.COL___368                                                 6
 STAT SP IPHASW D HRMM SECON CODA AMPLIT PERI AZIMU VELO AIN AR TRES W  DIS CAZ7
 BAR2 EZ EP   2    830 26.41                             171   -0.18 5 22.3 202 
 BRR  HZ EP   2    830 28.37                             151   -0.03 5 76.0 299 
 BRR  HN ES        830 45.12                             151    0.0110 76.0 299 
 BRR  HZ I         830 48.10         2.0 0.52            153           76.0 299 
 PAM  EZ EP        830 29.27                             151    0.1210 76.6  36 
 PAM  EN ES   2    830 46.22                             151   -0.21 5 76.6  36 
 PAM  EZ I         830 48.16         1.4 0.52            153           76.6  36 
 RUS  HZ EP   2    830 30.45                             144   -0.10 5 98.1 178 
 RUS  HE ES        830 48.95                             144    0.0210 98.1 178 
 RUS  HZ I         830 50.34         0.6 0.30            148           98.1 178 
 PTB  HZ EP   2    830 34.17                             131   -0.12 5  151 260 
 PTB  HN ES   4    830 54.03                             131   -1.55 0  151 260 
 PTB  HZ I         830 56.11         0.4 0.28            134            151 260 
                                                                                
