 2016  116 0829 55.6 L   6.813 -73.161138.2  RSN 11 0.4 2.1LRSN                1
 GAP=134        0.98       3.3     3.8  5.9 -0.2502E+01  0.9519E+01  0.8266E+00E
 Epicentro: LOS SANTOS - SANTANDER                                             3
 ACTION:UPD 16-03-09 23:25 OP:cam  STATUS:               ID:20160116082955 L   I
 OLDACT:UP  16-02-23 20:52 OP:AR   STATUS:               ID:20160116082955 L   3
 OLDACT:UP  16-01-16 18:52 OP:mh   STATUS:               ID:20160116081732     3
 OLDACT:UP  16-01-16 18:52 OP:mh   STATUS:               ID:20160116081732     3
 OLDACT:UP  16-01-16 18:52 OP:mh   STATUS:               ID:20160116081732     3
 OLDACT:REG 16-01-16 14:49 OP:mh   STATUS:               ID:20160116081732     3
 2016-1-16-828_082800_840.mseed                                                6
 STAT SP IPHASW D HRMM SECON CODA AMPLIT PERI AZIMU VELO AIN AR TRES W  DIS CAZ7
 BAR2 EZ EP     C  830 14.39                             169    0.0910 24.5 186 
 BAR2 EZ ES        830 29.09                             169    0.1710 24.5 186 
 BAR2 EZ I         830 30.51        40.1 0.13            170           24.5 186 
 PAM  EZ EP        830 17.23                             149    0.2610 77.4  41 
 PAM  EN ES        830 33.98                             149    0.3010 77.4  41 
 PAM  EZ I         830 36.25        16.9 0.48            152           77.4  41 
 RUS  HZ EP   1    830 18.44                             141   -0.24 7  102 175 
 RUS  HN ES        830 36.68                             141   -0.0410  102 175 
 RUS  HZ I         830 38.06        12.6 0.22            144            102 175 
 PTB  HZ EP   1    830 20.86                             130   -0.93 7  146 258 
 PTB  HN ES        830 41.75                             130   -0.50 9  146 258 
 PTB  HZ I         830 43.84        18.2 0.18            130            146 258 
 OCA  HZ EP   1    830 23.01                             128   -0.13 7  159 354 
 OCA  HN ES        830 43.95                             128   -0.70 9  159 354 
 OCA  HZ I         830 48.03        29.1 0.32            129            159 354 
 ZAR  HZ EP        830 27.71                             121    0.41 9  202 292 
 ZAR  HE ES        830 52.38                             121    0.32 9  202 292 
 ZAR  HZ I         830 58.86        14.3 0.48            121            202 292 
 NOR  HZ EP        830 30.70                             117   -0.10 8  234 234 
 NOR  HN ES        830 58.23                             117   -0.06 8  234 234 
 NOR  HZ I         831  4.19         9.5 0.38            118            234 234 
 HEL  HZ EP   1    830 34.90                             113   -0.35 6  271 255 
 HEL  HN ES        831  6.87                             113    0.66 8  271 255 
 HEL  HZ I         831 12.85         6.6 0.50            114            271 255 
 URE  HZ EP   9    830 34.93                             112   -1.10 0  282 292 
 URE  HN ES        831  5.88                             112   -0.62 7  282 292 
 GUY2CHZ EP        830 39.63                             111    0.87 7  301 234 
 GUY2CHN ES   4    831 14.67                             111    2.21 0  301 234 
 GUY2CHZ I         831 20.83         4.7 0.30                           301 234 
 ORTC HZ EP        830 48.55                             105   -0.69 6  396 216 
 ORTC HZ I         830 50.90         4.4 0.12            106            396 216 
 ORTC HN ES        831 31.14                             105    0.02 6  396 216 
 PAL  HZ EP   4    830 50.17                             104   -0.22 0  405 239 
 PAL  HN ES   4    831 32.34                             104   -0.82 0  405 239 
                                                                                
