 2010 1016 0947 11.9 L   6.805 -73.121142.4  RSN 17 0.5 3.2LRSN                1
 GAP=138        1.20       3.5     6.2  7.6 -0.4663E+01  0.1131E+02  0.5396E+01E
 Epicentro: LOS SANTOS - SANTANDER                                             3
 ACTION:UP  11-02-18 11:10 OP:tino STATUS:               ID:20101016094711 L   I
 2010-10-16-0945-17S.COL___124                                                 6
 STAT SP IPHASW D HRMM SECON CODA AMPLIT PERI AZIMU VELO SNR AR TRES W  DIS CAZ7
 BAR2 SZ IP        947 31.02                             170    -0.210   25 196 
 BAR2 SZ ES   2    947 45.39                             170    -0.8 5   25 196 
 BAR2 SZ I         947 48.84       179.9 0.30                            25 196 
 GIR2 SZ IP        947 31.14                             167    -0.110   31 345 
 GIR2 SZ ES   2    947 47.09                             167     0.9 5   31 345 
 BRR  HZ IP     C  947 32.87                             151     0.010   73 297 
 BRR  HE ES   1    947 49.61                             151     0.5 7   73 297 
 BRR  HZ I         947 53.88       400.9 0.17                            73 297 
 RUS  HZ EP   1    947 34.88                             143    -0.5 7  101 178 
 RUS  HN ES   1    947 53.08                             143    -0.6 7  101 178 
 RUS  HZ I         947 54.51       156.7 0.36                           101 178 
 GUE  SZ EP        947 37.09                             139     0.910  115  11 
 GRA  SZ IP        947 36.85                             136     0.110  124  16 
 GRA  SZ ES   1    947 56.00                             136    -0.1 7  124  16 
 GRA  SZ I         947 59.26       311.2 0.42                           124  16 
 OCA  SZ EP        947 39.30                             129    -0.6 9  160 352 
 OCA  SZ ES   1    948  1.60                             129    -0.2 7  160 352 
 OCA  SZ I         948  6.91       326.4 0.14                           160 352 
 YOP  SZ EP        947 41.60                             126    -0.1 9  178 154 
 YOP  SE ES   1    948  5.49                             126     0.6 7  178 154 
 NOR  SZ EP        947 46.84                             117    -0.9 8  237 235 
 NOR  SE ES   1    948 15.69                             117     0.0 6  237 235 
 CHI  HZ EP   1    947 49.09                             116    -0.5 6  250 196 
 CHI  HZ I         947 51.93        62.4 0.27                           250 196 
 CHI  HN ES   1    948 18.32                             116    -0.6 6  250 196 
 ROSC BZ EP        947 50.86                             116     0.8 8  255 212 
 ROSC BN ES   1    948 20.37                             116     0.5 6  255 212 
 ROSC BZ I         948 26.94       124.2 0.27                           255 212 
 CVER SZ EP   1    947 52.45                             114     0.2 6  274 203 
 CVER SZ I         948 31.50       104.2 0.35                           274 203 
 HEL  HZ EP   1    947 52.90                             114     0.6 6  275 256 
 HEL  HZ I         948 30.70        83.2 0.48                           275 256 
 DBB  SZ EP        947 58.78                             109    -0.8 7  342 274 
 TOL  SZ EP        948  0.65                             108     0.3 6  346 225 
 ANIL HZ EP   1    948  2.33                             108     0.5 5  360 225 
 ANIL HN ES   1    948 41.73                             108     0.9 5  360 225 
 PRA  HE ES   1    948 47.46                             106     0.1 4  394 210 
                                                                                
