 2016  516 0546 42.9 L   6.809 -73.095144.0  RSN  9 0.4 1.7LRSN                1
 GAP=188        0.64       2.6     4.3  5.6  0.1085E+01 -0.4826E+00  0.8861E+00E
 Epicentro: LOS SANTOS - SANTANDER                                             3
 ACTION:UPD 16-08-18 17:46 OP:cam  STATUS:               ID:20160516054642 L   I
 OLDACT:REG 16-05-16 12:46 OP:mh   STATUS:               ID:20160516053744     3
 2016-05-16-0537-44M.COL___283                                                 6
 STAT SP IPHASW D HRMM SECON CODA AMPLIT PERI AZIMU VELO AIN AR TRES W  DIS CAZ7
 BAR2 EZ EP        547  2.25                             169   -0.0810 25.9 202 
 BAR2 EZ ES   2    547 17.45                             169   -0.07 5 25.9 202 
 BAR2 EZ I         547 18.87        14.5 0.20            168           25.9 202 
 BRR  HZ IP     C  547  4.26                             151    0.1810 75.7 296 
 BRR  HZ I         547 20.87         4.8 0.14            146           75.7 296 
 BRR  HN ES        547 21.16                             151    0.5310 75.7 296 
 RUS  HZ EP   2    547  6.58                             143    0.09 5  101 179 
 RUS  HE ES        547 24.87                             143   -0.0610  101 179 
 RUS  HZ I         547 27.30         3.6 0.16            143            101 179 
 PTB  HZ EP   2    547  9.19                             131   -1.02 5  153 259 
 PTB  HE ES        547 31.28                             131   -0.26 9  153 259 
 PTB  HZ I         547 37.64         5.4 0.23            127            153 259 
 OCA  HZ EP   2    547 11.37                             130    0.37 5  160 351 
 OCA  HN ES        547 32.62                             130   -0.34 9  160 351 
 OCA  HZ I         547 35.47        11.1 0.26            127            160 351 
 SPBC HZ EP        547 11.52                             128   -0.12 9  168 220 
 SPBC HN ES   2    547 33.90                             128   -0.19 5  168 220 
 SPBC HZ I         547 37.69         6.1 0.24            126            168 220 
 ZAR  HE ES   2    547 41.43                             122    0.13 4  209 291 
 ZAR  HZ I         547 46.64         4.6 0.25            119            209 291 
 CHI  HZ EP   2    547 21.25                             117    0.52 4  251 196 
 CHI  HN ES   2    547 50.74                             117    0.47 4  251 196 
 CBOC HZ EP   3    547 31.04                             109    0.69 2  339 252 
                                                                                
