 2017  516 0206 18.6 L   6.843 -73.124151.3  RSN 16 0.5 2.4LRSN                1
 GAP=112        0.93       3.4     3.1  5.7  0.5380E+00  0.1566E+01  0.6670E+01E
 Epicentro: LOS SANTOS - SANTANDER                                             3
 ACTION:UPD 17-06-16 13:36 OP:jn   STATUS:               ID:20170516020618 L   I
 OLDACT:UP  17-05-16 14:32 OP:dnl  STATUS:               ID:20170516015729     3
 OLDACT:UP  17-05-16 14:29 OP:dnl  STATUS:               ID:20170516015729     3
 OLDACT:UP  17-05-16 14:29 OP:dnl  STATUS:               ID:20170516015729     3
 OLDACT:REG 17-05-16 12:24 OP:dnl  STATUS:               ID:20170516015729     3
 2017-05-16-0158-00M.COL___362                                                 6
 STAT SP IPHASW D HRMM SECON CODA AMPLIT PERI AZIMU VELO AIN AR TRES W  DIS CAZ7
 BRR  HZ IP     D  2 6 40.54                             153    0.1410 71.2 294 
 BRR  HE ES        2 6 57.51                             153    0.1410 71.2 294 
 BRR  HZ I         2 6 59.59        46.9 0.12            152           71.2 294 
 PAM  EZ EP   2    2 6 41.75                             153    0.58 5 72.2  41 
 PAM  EN ES        2 6 58.75                             153    0.0210 72.2  41 
 PAM  EZ I         2 7  1.29        29.5 0.58            165           72.2  41 
 PTB  HZ EP   9    2 6 45.21                             132   -1.16 0  151 257 
 PTB  HN ES        2 7  6.53                             132   -0.30 9  151 257 
 PTB  HZ I         2 7 12.88        36.6 0.30            132            151 257 
 SPBC HZ EP        2 6 48.06                             129   -0.00 9  168 219 
 SPBC HN ES        2 7 10.09                             129   -0.92 9  168 219 
 SPBC HZ I         2 7 16.83        47.6 0.44            129            168 219 
 YPLC HZ IP     D  2 6 49.43                             127    0.28 9  180 153 
 YPLC HN ES        2 7 13.19                             127    0.25 9  180 153 
 YPLC HZ I         2 7 16.10        50.4 0.26            129            180 153 
 ZAR  HZ EP        2 6 51.23                             123   -0.28 9  205 291 
 ZAR  HE ES        2 7 16.69                             123   -0.45 9  205 291 
 ZAR  HZ I         2 7 24.31        34.1 0.48            126            205 291 
 NOR  HZ EP        2 6 55.17                             119   -0.03 8  239 234 
 NOR  HE ES        2 7 24.09                             119    0.37 8  239 234 
 NOR  HZ I         2 7 27.68        26.1 0.28            120            239 234 
 CHI  HZ EP   2    2 6 56.72                             118   -0.50 4  254 195 
 CHI  HN ES        2 7 27.29                             118   -0.02 8  254 195 
 CHI  HZ I         2 7 33.45        15.5 0.50            119            254 195 
 ROSC BZ EP   9    2 6 59.12                             117    1.47 0  258 211 
 ROSC BN ES        2 7 29.65                                    0.11 8  258 211 
 ROSC BZ I         2 7 35.36        20.2 0.45            118            258 211 
 HEL  HZ EP   2    2 7  0.23                             115    0.70 4  276 255 
 HEL  HE ES        2 7 32.28                             115    0.86 7  276 255 
 HEL  HZ I         2 7 37.71        19.1 0.24            117            276 255 
 PTGC HZ EP        2 7  2.24                             112   -0.92 7  312 159 
 PTGC HN ES   4    2 7 35.66                             112   -2.23 0  312 159 
 PTGC HZ I         2 7 41.20        11.2 0.24            115            312 159 
 LL6C HN EP   4    2 6 43.93                             112   -20.1 0  320 357 
 LL6C HE ES   4    2 7 17.52                             112   -22.0 0  320 357 
 LL6C HN I         2 7 23.64         6.9 0.60            116            320 357 
 ELA  HZ EP   4    2 7  7.56                             111    1.26 0  334 229 
 ELA  HN ES   4    2 7 47.80                             111    4.34 0  334 229 
 ELA  HZ I         2 7 52.37        10.0 0.24            112            334 229 
 CBOC HZ EP   2    2 7  6.58                             111    0.36 3  337 251 
 CBOC HE ES        2 7 42.81                             111   -0.52 7  337 251 
 CBOC HZ I         2 8  0.37         5.0 0.48            112            337 251 
 ORTC HZ EP   2    2 7 13.90                             107    0.53 3  401 216 
 ORTC HN ES        2 7 56.98                             107    0.92 6  401 216 
 ORTC HZ I         2 8  1.60         6.6 0.38            108            401 216 
 SJC  HZ EP   9    2 7 12.50                             107   -1.58 0  407 326 
 SJC  HN ES        2 7 56.07                             107    0.33 6  407 326 
 SJC  HZ I         2 8  1.43         4.0 0.68            110            407 326 
                                                                                
