 2012  116 0906 32.5 L   6.789 -73.127153.0  RSN 11 0.3 2.2LRSN                1
 GAP=139        0.74       3.7     4.1  5.2 -0.3146E+01  0.5470E+01  0.3384E+01E
 Epicentro: LOS SANTOS - SANTANDER                                             3
 ACTION:UP  12-02-03 08:17 OP:REBC STATUS:               ID:20120116090632 L   I
 2012-01-16-0900-00M.COL___186                                                 6
 STAT SP IPHASW D HRMM SECON CODA AMPLIT PERI AZIMU VELO SNR AR TRES W  DIS CAZ7
 BAR2 SZ IP     C  9 6 52.93                             171     0.010   23 196 
 BAR2 SZ I         9 6 53.33        25.8 0.12                            23 196 
 BAR2 SZ ES   1    9 7  9.02                             171     0.1 7   23 196 
 GIR2 SZ EP        9 6 52.97                             167    -0.110   33 347 
 BRR  HZ EP        9 6 54.89                             153     0.410   74 299 
 BRR  HZ I         9 6 56.45        40.4 0.15                            74 299 
 BRR  HN ES   1    9 7 12.30                             153     0.5 7   74 299 
 PAM  SZ EP        9 6 55.66                             152     0.210   77  38 
 PAM  SE ES   1    9 7 12.82                             152    -0.5 7   77  38 
 RUS  HZ EP        9 6 56.67                             146    -0.210   99 177 
 RUS  HZ I         9 6 57.45         8.8 0.19                            99 177 
 RUS  HN ES   1    9 7 15.97                             146     0.1 7   99 177 
 PTB  HZ EP        9 6 59.66                             133    -0.5 9  150 259 
 PTB  HE ES   1    9 7 21.48                             133    -0.3 7  150 259 
 ZAR  HZ EP   1    9 7  5.50                             124    -0.1 6  206 292 
 ZAR  HZ I         9 7 37.40        25.2 0.34                           206 292 
 NOR  SZ EP   1    9 7  8.82                             120     0.1 6  236 235 
 NOR  SN ES   1    9 7 37.02                             120     0.0 6  236 235 
 CHI  HZ EP        9 7 10.90                             119     0.4 8  248 196 
 CHI  HN ES   1    9 7 39.94                             119    -0.2 6  248 196 
 CHI  HZ I         9 7 48.17         5.6 0.34                           248 196 
 HEL  HZ EP   1    9 7 13.42                             116     0.2 6  274 256 
 HEL  HZ I         9 7 53.63         8.1 0.00                           274 256 
 RREF HZ EP   1    9 7 19.09                             112     0.1 5  323 230 
 RREF HN ES   2    9 7 55.36                             112     0.0 3  323 230 
 RREF HZ I         9 8  5.18         8.9 0.44                           323 230 
                                                                                
