 2014  316 0949 53.6 L   5.760 -73.977105.9  RSN  4 0.3 1.3LRSN                1
 GAP=156        0.61      17.5     3.3  7.5 -0.3520E+02  0.6665E+01 -0.7593E+02E
 Epicentro: FLORIAN - SANTANDER                                                3
 OLDACT:REG 14-03-16 07:49 OP:fm   STATUS:               ID:20140316094806     3
 ACTION:UPD 14-04-09 23:17 OP:nd   STATUS:               ID:20140316094953 L   I
 OLDACT:UP  14-03-16 11:12 OP:fm   STATUS:               ID:20140316094806     3
 2014-03-16-0948-06M.COL___236                                                 6
 STAT SP IPHASW D HRMM SECON CODA AMPLIT PERI AZIMU VELO AIN AR TRES W  DIS CAZ7
 SPBC HN ES        950 19.06                             171   -0.2710 15.9 222 
 RUS  HZ EP        950 13.58                             133   -0.0410  100  82 
 RUS  HN ES        950 29.42                             133    0.1710  100  82 
 RUS  HZ I         950 33.84         4.5 3.58            134            100  82 
 NOR  HZ EP   2    950 12.74                             132   -0.39 5  101 258 
 NOR  HN ES   1    950 28.86                             132    0.48 7  101 258 
 NOR  HZ I         950 30.37         3.8 2.56            136            101 258 
 HEL  HN ES   2    950 42.90                             116   -0.16 4  178 286 
                                                                                
