 2010  616 0837 46.8 L   6.795 -73.050145.5  RSN 12 0.4 2.2LRSN                1
 GAP=133        0.83       3.5     5.5  5.2 -0.8650E+01 -0.1672E+01  0.1531E+01E
 Epicentro: LOS SANTOS - SANTANDER                                             3
 ACTION:UP  10-08-24 10:10 OP:vdl  STATUS:               ID:20100616083746 L   I
 2010-06-16-0834-08S.COL___114                                                 6
 STAT SP IPHASW D HRMM SECON CODA AMPLIT PERI AZIMU VELO SNR AR TRES W  DIS CAZ7
 BAR2 SZ IP        838  6.30                             169    -0.210   27 213 
 BAR2 SZ ES   1    838 21.67                             169    -0.1 7   27 213 
 GIR2 SZ EP   1    838  7.42                             166     0.9 7   35 333 
 GIR2 SZ ES   1    838 21.38                             166    -0.6 7   35 333 
 BRR  HZ IP     C  838  8.19                             149    -0.310   81 295 
 BRR  HN ES   1    838 25.56                             149     0.1 7   81 295 
 BRR  HZ I         838 27.88        44.5 0.13                            81 295 
 RUS  HZ EP   1    838 10.16                             144    -0.3 7  100 182 
 RUS  HN ES   1    838 29.15                             144     0.2 7  100 182 
 RUS  HZ I         838 30.32        10.0 0.44                           100 182 
 BRI  SZ EP   1    838 10.90                             142     0.5 7  106  15 
 BRI  SZ ES   1    838 29.38                             142     0.5 7  106  15 
 GUE  SZ IP        838 11.36                             140     0.010  115   7 
 GUE  SZ ES   1    838 30.28                             140    -0.3 7  115   7 
 GRA  SZ IP        838 12.09                             137     0.310  123  13 
 GRA  SZ ES   1    838 31.40                             137     0.1 7  123  13 
 OCA  SZ EP   1    838 14.81                             129    -0.5 7  162 349 
 OCA  SZ I         838 41.72        17.6 0.37                           162 349 
 CHI  HZ EP   1    838 24.42                             117    -0.3 6  251 198 
 CHI  HN ES   2    838 54.42                             117     0.1 4  251 198 
 CHI  HZ I         839  2.13         6.8 0.61                           251 198 
 ROSC BN ES   2    838 56.27                             116     0.6 4  258 213 
 ROSC BZ I         839  2.56        15.5 0.34                           258 213 
 HEL  HZ EP   1    838 28.35                             114     0.2 6  282 256 
 HEL  HN ES   1    839  0.29                             114    -0.1 6  282 256 
 HEL  HZ I         839  4.62         9.0 0.34                           282 256 
 SDV  BZ IP        838 35.69                             109    -0.2 6  353  49 
 SDV  BZ I         838 36.64         4.7 0.30                           353  49 
                                                                                
