 2011  616 0623 27.1 L   6.620 -73.584106.7  RSN 12 0.3 1.9LRSN                1
 GAP=115        0.50       2.2     3.4  3.5 -0.2897E+01  0.2994E+01  0.5469E-01E
 Epicentro: EL CARMEN DE CHUCURI - SANTANDER                                   3
 ACTION:UP  11-07-14 19:05 OP:ep   STATUS:               ID:20110616062327 L   I
 2011-06-16-0619-40S.COL___138                                                 6
 STAT SP IPHASW D HRMM SECON CODA AMPLIT PERI AZIMU VELO SNR AR TRES W  DIS CAZ7
 BAR2 SZ EP   1    623 43.10                             155     0.2 7   45  94 
 BAR2 SZ ES   1    623 55.13                             155    -0.1 7   45  94 
 BAR2 SZ I         623 56.70       104.1 0.27                            45  94 
 BTL  SZ EP   1    623 43.26                             154     0.2 7   48  47 
 BTL  SZ ES   2    623 55.69                             154     0.2 5   48  47 
 BRR  HZ EP   1    623 42.85                             150    -0.3 7   56 345 
 BRR  HZ I         623 47.67        30.7 0.10                            56 345 
 BRR  HN ES   1    623 55.53                             150    -0.1 7   56 345 
 GIR2 SZ EP   1    623 44.31                             145     0.2 7   67  40 
 GIR2 SZ ES        623 57.21                             145    -0.110   67  40 
 RUS  HZ EP   1    623 47.16                             134     0.2 7   98 145 
 RUS  HN ES   2    624  2.49                             134     0.0 5   98 145 
 RUS  HZ I         624  4.39        10.1 0.28                            98 145 
 PAM  SZ EP   1    623 49.53                             126    -0.1 7  126  51 
 PAM  SN ES   2    624  7.18                             126     0.0 5  126  51 
 BRI  SZ EP   1    623 51.62                             121     0.1 7  149  36 
 BRI  SZ I         624 13.92        10.8 0.27                           149  36 
 GRA  SZ IP        623 53.08                             118    -0.1 9  164  32 
 GRA  SZ ES   1    624 13.50                             118     0.1 7  164  32 
 GRA  SZ I         624 14.73         9.9 0.21                           164  32 
 OCA  SZ EP   1    623 54.86                             115    -0.1 7  181   9 
 OCA  SZ ES   2    624 17.30                             115     0.5 4  181   9 
 OCA  SZ I         624 23.81        10.8 0.44                           181   9 
 NOR  SZ EP   1    623 54.71                             115    -0.5 7  184 231 
 NOR  SN ES   2    624 17.89                             115     0.8 4  184 231 
 CHI  HN ES   2    624 25.13                             110    -0.1 4  221 184 
 CHI  HZ I         624 34.04         3.4 0.35                           221 184 
 PRA  HN ES   2    624 51.68                             100    -0.3 3  352 204 
                                                                                
