 2016 1116 0449 23.8 L   6.792 -73.142147.0  RSN 26 0.4 2.9LRSN                1
 GAP= 87        0.82       2.5     2.3  3.9 -0.4140E+00  0.2482E+01  0.1754E+01E
 Epicentro: LOS SANTOS - SANTANDER                                             3
 ACTION:UPD 17-10-26 21:08 OP:lp   STATUS:               ID:20161116044923 L   I
 OLDACT:UP  16-11-16 15:44 OP:e    STATUS:               ID:20161116044740     3
 OLDACT:UP  16-11-16 15:42 OP:e    STATUS:               ID:20161116044740     3
 OLDACT:UP  16-11-16 15:39 OP:e    STATUS:               ID:20161116044740     3
 OLDACT:UP  16-11-16 15:39 OP:e    STATUS:               ID:20161116044740     3
 OLDACT:UP  16-11-16 15:38 OP:e    STATUS:               ID:20161116044740     3
 OLDACT:UP  16-11-16 15:34 OP:e    STATUS:               ID:20161116044740     3
 OLDACT:UP  16-11-16 15:33 OP:e    STATUS:               ID:20161116044740     3
 OLDACT:UP  16-11-16 15:33 OP:e    STATUS:               ID:20161116044740     3
 OLDACT:UP  16-11-16 15:31 OP:e    STATUS:               ID:20161116044740     3
 OLDACT:REG 16-11-16 12:33 OP:and  STATUS:               ID:20161116044740     3
 2016-11-16-0448-00M.COL___335                                                 6
 STAT SP IPHASW D HRMM SECON CODA AMPLIT PERI AZIMU VELO AIN AR TRES W  DIS CAZ7
 BAR2 EZ EP        449 43.52                             171   -0.0510 22.5 191 
 BAR2 EZ ES        449 58.71                             171   -0.2810 22.5 191 
 BAR2 EZ I         450  0.04       566.6 0.18            167           22.5 191 
 BRR  HZ IP     D  449 45.32                             152    0.1910 72.0 299 
 BRR  HN ES        450  2.24                             152    0.4710 72.0 299 
 BRR  HZ I         450  6.80       131.4 0.14            152           72.0 299 
 PAM  EZ IP     D  449 46.23                             151    0.0610 77.8  39 
 PAM  EN ES        450  3.38                             151   -0.2510 77.8  39 
 PAM  EZ I         450  5.73       124.1 0.50            151           77.8  39 
 PTB  HZ EP        449 50.02                             132   -0.87 9  148 259 
 PTB  HN ES     D  450 11.70                             132   -0.32 9  148 259 
 PTB  HZ I         450 14.64        86.3 0.15            130            148 259 
 TAM  HZ IP     D  449 51.73                             131    0.21 9  154 105 
 TAM  HZ I         450 12.59        46.3 0.46            128            154 105 
 TAM  HN ES        450 13.43                             131    0.29 9  154 105 
 ZAR  HZ EP        449 55.94                             123   -0.46 9  205 292 
 ZAR  HN ES        450 21.96                             123    0.13 9  205 292 
 ZAR  HZ I         450 27.40        92.5 0.11            121            205 292 
 NOR  HZ EP        449 59.55                             119   -0.03 8  235 235 
 NOR  HN ES        450 27.59                             119    0.09 8  235 235 
 NOR  HZ I         450 31.82        69.3 0.43            116            235 235 
 CHI  HZ EP        450  1.50                             117    0.01 8  248 195 
 CHI  HN ES        450 30.94                             117    0.05 8  248 195 
 CHI  HZ I         450 36.55        46.5 0.32            115            248 195 
 ROSC BZ EP   4    450  3.10                             117    1.17 0  252 211 
 ROSC BN ES   4    450 34.51                             117    2.84 0  252 211 
 ROSC BZ I         450 38.24        95.0 0.60            114            252 211 
 URE  HN ES   4    450 34.29                             114   -2.86 0  285 292 
 URE  HZ I         450 45.06        66.7 0.20            112            285 292 
 LL1C HZ EP   9    450  8.72                             112    1.17 0  307 352 
 LL1C HN ES        450 42.99                             112    0.14 7  307 352 
 PTGC HZ IP   4    450  6.42                             112   -1.18 0  308 159 
 PTGC HN ES   4    450 39.78                             112   -1.99 0  308 159 
 PTGC HZ I         450 46.38        20.4 0.39            109            308 159 
 LL6C HZ EP   9    449 48.64                             111   -21.0 0  326 358 
 LL6C HN ES   4    450 22.84                                   -1.57 0  326 358 
 ELA  HZ EP   9    450 12.96                             111    2.29 0  329 230 
 ELA  HE ES        450 50.38                             111    0.86 7  329 230 
 ELA  HZ I         451  2.74        40.7 0.46            108            329 230 
 CBOC HZ EP        450 10.72                             110   -0.06 7  334 252 
 CBOC HN ES        450 48.06                             110    0.64 7  334 252 
 CBOC HZ I         450 58.35        10.9 0.40            108            334 252 
 DBB  EZ EP        450 11.96                             110    0.58 7  340 274 
 DBB  HN ES   4    450 46.83                             110   -1.66 0  340 274 
 ANIL HZ EP   4    450 14.84                             109    1.23 0  357 225 
 ANIL HN ES   4    450 55.69                             109    3.22 0  357 225 
 ARGC HZ EP        450 13.49                             108   -0.12 6  360 340 
 ARGC HN ES        450 52.95                             108    0.48 6  360 340 
 ARGC HZ I         450 58.71        14.0 0.22            107            360 340 
 PRA  HZ EP   9    450 13.76                             107   -3.54 0  391 210 
 PRA  HN ES        450 55.14                                   -0.35 6  391 210 
 PRA  HZ I         451  2.56        48.2 0.46            105            391 210 
 ORTC HZ EP        450 17.38                             107   -0.33 6  395 216 
 ORTC HN ES        451  0.81                             107    1.05 6  395 216 
 ORTC HZ I         451  6.53        34.9 0.51            105            395 216 
 PAL  HZ EP        450 18.97                             106   -0.02 6  406 239 
 PAL  HN ES        451  1.54                             106   -0.50 6  406 239 
 PAL  HZ I         451 12.72        12.5 0.32            104            406 239 
 SJC  HZ EP   4    450 17.25                             106   -2.26 0  410 327 
 SJC  HN ES   4    450 58.62                             106   -4.35 0  410 327 
 SJC  HZ I         451  2.91        15.3 0.30            104            410 327 
 LCBC HN ES        451  5.45                             105    0.01 5  423 303 
 LCBC HZ I         451  7.33        12.9 0.26            104            423 303 
 CRJC HZ EP   4    450 23.85                             103   -2.58 0  468   3 
 CRJC HN ES   4    451 10.94                             103   -4.35 0  468   3 
 CRJC HZ I         451 17.38        24.0 0.48            102            468   3 
 YOT  HZ EP        450 26.51                             103   -0.34 5  472 229 
 YOT  HN ES   4    451 17.75                             103    1.73 0  472 229 
 URI  HZ EP   4    450 33.84                             101   -3.08 0  557  13 
 URI  HE ES   4    451 29.77                             101   -4.18 0  557  13 
 URI  HZ I         451 32.73         2.8 0.49             99            557  13 
 FLO2 HZ EP        450 46.01                              99   -0.86 2  640 206 
 BBAC HZ EP        450 54.41                              98    0.43 1  697 221 
 BBAC HN ES   4    452  3.09                              98   -1.24 0  697 221 
 BBAC HZ I         452 10.11         1.7 0.34             97            697 221 
                                                                                
