 2011  716 0334 25.6 L   6.791 -73.075147.1  RSN  6 0.2 1.6LRSN                1
 GAP=164        0.50       2.3     5.4  4.6 -0.1929E+01 -0.4181E+01 -0.1145E+01E
 Epicentro: LOS SANTOS - SANTANDER                                             3
 ACTION:UPD 12-07-25 14:01 OP:epov STATUS:               ID:20110716033425 L   I
 2011-07-16-0332-42S.COL___132                                                 6
 STAT SP IPHASW D HRMM SECON CODA AMPLIT PERI AZIMU VELO AIN AR TRES W  DIS CAZ7
 BAR2 SZ EP        334 45.16                             170   -0.2310 24.9 208 
 BAR2 SZ ES   1    335  0.84                             170   -0.01 7 24.9 208 
 BAR2 SZ I         335  3.16         9.0 0.20                          24.9 208 
 BRR  HZ EP   1    334 47.17                             150   -0.12 7 78.6 296 
 BRR  HZ I         334 48.64        13.9 0.12                          78.6 296 
 BRR  HN ES   1    335  4.41                             150    0.18 7 78.6 296 
 RUS  HZ EP   1    334 49.10                             144   -0.26 7 99.3 181 
 RUS  HZ I         334 49.84         3.3 0.18                          99.3 181 
 RUS  HN ES   1    335  8.19                             144    0.27 7 99.3 181 
 BRI  SZ EP   1    334 49.87                             142    0.40 7  107  17 
 BRI  SZ ES   1    335  8.08                             142   -0.04 7  107  17 
 BRI  SZ I         335 11.32         4.4 0.19                           107  17 
 GRA  SZ EP   1    334 51.16                             138    0.32 7  125  14 
 GRA  SZ ES   1    335 10.29                             138   -0.26 7  125  14 
 GRA  SZ I         335 12.87         6.2 0.32                           125  14 
 OCA  SZ EP   1    334 54.23                             129    0.05 7  162 350 
 OCA  SZ ES   1    335 16.40                             129   -0.10 7  162 350 
 OCA  SZ I         335 20.61         6.0 0.37                           162 350 
                                                                                
