 2010  516 0318 13.2 L   6.779 -73.015145.7  RSN  7 0.4 1.8LRSN                1
 GAP=171        0.80       4.3     9.2  7.3 -0.7394E+01 -0.1822E+02 -0.1221E+01E
 Epicentro: CEPITA - SANTANDER                                                 3
 ACTION:UP  10-08-24 10:05 OP:vdl  STATUS:               ID:20100516031813 L   I
 2010-05-16-0315-37S.COL___108                                                 6
 STAT SP IPHASW D HRMM SECON CODA AMPLIT PERI AZIMU VELO AIN AR TRES W  DIS CAZ7
 BAR2 SZ IP     D  318 32.80                             169    -0.110   28 222 
 BAR2 SZ ES   1    318 47.87                             169    -0.5 7   28 222 
 BRR  HZ IP     C  318 35.44                             148     0.210   85 295 
 BRR  HZ I         318 35.80        19.2 0.09                            85 295 
 BRR  HN ES   1    318 52.82                             148     0.5 7   85 295 
 RUS  HZ EP   2    318 37.31                             145     0.5 5   98 184 
 RUS  HE ES   2    318 55.42                             145     0.2 5   98 184 
 RUS  HZ I         318 56.69         4.8 0.38                            98 184 
 BRI  SZ EP        318 37.29                             142     0.310  106  13 
 GUE  SZ EP        318 37.71                             139    -0.210  117   5 
 OCA  SZ EP   1    318 41.43                             129    -0.5 7  165 348 
 OCA  SZ ES   1    319  4.22                             129    -0.2 7  165 348 
 OCA  SZ I         319  8.83         5.6 0.21                           165 348 
 PRA  HZ EP        319  7.43                             106     0.1 6  397 212 
 PRA  HZ I         319  8.40         2.0 0.19                           397 212 
 PRA  HE ES   2    319 48.63                             106    -1.0 3  397 212 
                                                                                
