 2013  216 0743 40.6 L   6.768 -73.182147.8  RSN  4 0.3 1.6LRSN                1
 GAP=231        0.77       6.2     6.0  7.2  0.1843E+02 -0.2340E+01 -0.1688E+01E
 Epicentro: LOS SANTOS - SANTANDER                                             3
 ACTION:UPD 13-03-12 09:33 OP:ep   STATUS:               ID:20130216074340 L   I
 2013-02-16-0740-00M.COL___241                                                 6
 STAT SP IPHASW D HRMM SECON CODA AMPLIT PERI AZIMU VELO AIN AR TRES W  DIS CAZ7
 BAR2 SZ EP        743 59.81                             172   -0.6410 19.4 180 
 BAR2 SZ ES   2    744 15.90                             172    0.00 5 19.4 180 
 BRR  HZ EP        744  2.10                             153    0.1810 69.5 303 
 BRR  HN ES        744 18.70                             153    0.1810 69.5 303 
 BRR  HN I         744 23.50        10.9 0.16            152           69.5 303 
 RUS  HZ EP        744  4.74                             145    0.3710 97.4 174 
 RUS  HN ES        744 22.91                             145    0.0310 97.4 174 
 RUS  HN I         744 24.50         3.1 0.34            148           97.4 174 
 PTB  HZ EP        744  7.40                             133    0.03 9  143 260 
 PTB  HN ES        744 28.05                             133   -0.16 9  143 260 
 PTB  HN I         744 33.45         7.1 0.22            134            143 260 
                                                                                
