 2013  116 0505 16.1 L   6.786 -73.149145.2  RSN  7 0.4 2.0LRSN                1
 GAP=182        0.74       3.4     4.7  6.8  0.1709E+01  0.8085E+01 -0.3581E+00E
 Epicentro: LOS SANTOS - SANTANDER                                             3
 ACTION:UPD 13-02-15 09:14 OP:ep   STATUS:               ID:20130116050516 L   I
 2013-01-16-0500-00M.COL___239                                                 6
 STAT SP IPHASW D HRMM SECON CODA AMPLIT PERI AZIMU VELO AIN AR TRES W  DIS CAZ7
 BAR2 SZ EP   1    5 5 35.60                             171   -0.02 7 21.8 190 
 BAR2 SZ ES   1    5 5 51.02                             171    0.16 7 21.8 190 
 BAR2 SZ I         5 5 52.39        20.4 0.27            169           21.8 190 
 BRR  HN ES   4    5 5 55.28                             152    1.60 0 71.7 300 
 RUS  HZ EP   1    5 5 39.65                             144   -0.03 7 99.1 176 
 RUS  HN ES   1    5 5 58.04                             144   -0.04 7 99.1 176 
 RUS  HZ I         5 5 59.58         8.8 0.38            146           99.1 176 
 PTB  HZ EP   1    5 5 42.44                             132   -0.52 7  147 259 
 PTB  HN ES   1    5 6  3.72                             132   -0.19 7  147 259 
 PTB  HZ I         5 6  7.50        14.2 0.15            130            147 259 
 OCA  HZ EP   1    5 5 44.12                             129   -0.38 7  162 353 
 OCA  HN ES   1    5 6  6.69                             129    0.03 7  162 353 
 OCA  HZ I         5 6 12.20        12.3 0.32            130            162 353 
 ZAR  HE ES   1    5 6 14.53                             122    0.70 6  204 293 
 ZAR  HZ I         5 6 19.70        16.0 0.39            121            204 293 
 CHI  HZ EP   1    5 5 53.66                             117    0.07 6  247 195 
 CHI  HN ES   1    5 6 23.05                             117    0.22 6  247 195 
 CHI  HZ I         5 6 28.78         5.8 0.38            118            247 195 
 HEL  HZ EP   1    5 5 57.16                             115    0.96 6  271 256 
 HEL  HN ES   1    5 6 26.76                             115   -0.72 6  271 256 
 HEL  HZ I         5 6 36.38         5.5 0.30            114            271 256 
                                                                                
