 2013 1216 0832  6.7 L   6.780 -73.131145.4  RSN 16 0.5 2.2LRSN                1
 GAP=121        1.07       2.9     4.7  5.4 -0.2094E+01  0.2745E+01  0.9569E+00E
 Epicentro: LOS SANTOS - SANTANDER                                             3
 ACTION:UPD 14-01-13 10:18 OP:ep   STATUS:               ID:20131216083206 L   I
 OLDACT:DUP 13-12-16 08:18 OP:jn   STATUS:               ID:20131216083001d    3
 2013-12-16-0830-00M.COL___285                                                 6
 STAT SP IPHASW D HRMM SECON CODA AMPLIT PERI AZIMU VELO AIN AR TRES W  DIS CAZ7
 BAR2 SZ EP        832 26.54                             171    0.3310 21.5 195 
 BAR2 SZ ES        832 41.25                             171   -0.2110 21.5 195 
 BAR2 SZ I         832 45.39        34.0 0.62            171           21.5 195 
 BRR  HZ EP        832 28.36                             152    0.4510 73.7 299 
 BRR  HN ES        832 45.29                             152    0.8010 73.7 299 
 BRR  HZ I         832 46.60        20.8 0.14            142           73.7 299 
 PAM  SZ EP   1    832 29.47                             151    0.59 7 78.1  38 
 PAM  SE ES   1    832 45.67                             151   -0.54 7 78.1  38 
 PAM  SZ I         832 48.95        14.4 0.68            143           78.1  38 
 RUS  HZ EP        832 30.23                             144    0.0210 98.3 177 
 RUS  HN ES        832 48.65                             144    0.0710 98.3 177 
 RUS  HZ I         832 50.32        13.7 0.36            139           98.3 177 
 PTB  HZ EP        832 33.26                             132   -0.44 9  149 260 
 PTB  HN ES        832 54.30                             132   -0.50 9  149 260 
 PTB  HZ I         832 57.80        15.8 0.14            123            149 260 
 OCA  HZ EP        832 35.54                             129    0.37 9  163 353 
 OCA  HN ES        832 57.21                             129   -0.19 9  163 353 
 OCA  HZ I         833  1.35        22.4 0.40            120            163 353 
 SPBC HZ EP        832 35.44                             129    0.37 9  163 220 
 SPBC HN ES        832 56.84                             129   -0.38 9  163 220 
 SPBC HZ I         833  4.70        29.8 0.38            121            163 220 
 NOR  HZ EP   1    832 42.74                             118    0.37 6  235 235 
 NOR  HN ES        833 10.28                             118    0.05 8  235 235 
 NOR  HZ I         833 14.12        15.0 0.24            111            235 235 
 SML  HZ EP        832 42.85                             117   -0.70 8  246 335 
 SML  HN ES   1    833 11.31                             117   -1.02 6  246 335 
 CHI  HZ EP        832 44.43                             117    0.28 8  247 196 
 CHI  HN ES        833 12.79                             117   -0.61 8  247 196 
 CHI  HZ I         833 21.68         4.7 0.30            111            247 196 
 ROSC BZ EP   4    832 45.69                             117    1.05 0  252 212 
 ROSC BE ES   2    833 15.10                             117    0.83 4  252 212 
 HEL  HZ EP   1    832 47.85                             115    0.88 6  273 256 
 HEL  HZ I         833 27.02        11.1 0.38            107            273 256 
 URE  HZ EP   2    832 47.03                             113   -0.94 4  286 292 
 GUY2CHZ EP   2    832 50.88                             112    0.62 4  301 235 
 GUY2CHZ I         833 33.28        11.1 0.78                           301 235 
 PTGC HZ EP        832 49.46                             112   -0.74 7  306 159 
 RREF HZ EP   2    832 52.95                             111    0.19 3  322 230 
 SJC  HZ EP   4    833  0.67                             106   -1.86 0  412 327 
                                                                                
