 2016  816 0041 29.3 L   6.862 -73.652106.3  RSN  8 0.5 1.5LRSN                1
 GAP=134        1.09       4.8     5.1  9.9  0.9002E+01  0.3084E+02  0.2498E+02E
 Epicentro: EL CARMEN - SANTANDER                                              3
 ACTION:UPD 16-10-29 15:35 OP:rebc STATUS:               ID:20160816004129 L   I
 OLDACT:REG 16-08-16 12:13 OP:ak   STATUS:               ID:20160816003759     3
 2016-08-16-0037-59S.COL___349                                                 6
 STAT SP IPHASW D HRMM SECON CODA AMPLIT PERI AZIMU VELO AIN AR TRES W  DIS CAZ7
 BRR  HZ EP        041 44.01                             164   -0.0110 27.9 346 
 BRR  HN ES        041 55.16                             164   -0.3310 27.9 346 
 BRR  HZ I         041 56.43        18.0 0.18                          27.9 346 
 BAR2 EZ EP   1    041 46.65                             148    0.70 7 59.9 120 
 BAR2 EZ ES        041 59.23                             148    0.3110 59.9 120 
 BAR2 EZ I         042  3.53        10.5 0.33                          59.9 120 
 PTB  HZ EP   4    041 46.75                             134   -1.63 0 95.8 248 
 PTB  HN ES   4    041 59.82                             134   -3.42 0 95.8 248 
 PTB  HZ I         042  1.17         7.1 0.12                          95.8 248 
 RUS  HZ EP   2    041 50.99                             127   -0.67 5  124 150 
 RUS  HN ES        042  8.71                             127   -0.3710  124 150 
 RUS  HZ I         042  9.47         3.1 0.27                           124 150 
 SPBC HZ EP   1    041 51.95                             122   -0.92 7  142 199 
 SPBC HN ES        042 11.71                             122    0.47 9  142 199 
 SPBC HZ I         042 14.53         7.0 0.19                           142 199 
 ZAR  HN ES        042 12.70                             120    0.04 9  150 298 
 NOR  HZ EP   2    041 57.91                             113   -0.89 4  197 223 
 NOR  HN ES        042 21.25                             113   -0.54 9  197 223 
 NOR  HZ I         042 23.69         4.9 0.11                           197 223 
 GUY2CHZ EP        042  7.51                             106    0.67 8  262 226 
 GUY2CHN ES        042 36.61                             106    0.51 8  262 226 
 GUY2CHZ I         042 42.62         2.1 0.40                           262 226 
                                                                                
