 2010  116 0408 44.9 L   6.807 -73.065147.5  RSN  8 0.3 1.8LRSN                1
 GAP=132        0.61       2.8     7.2  4.4 -0.6263E+01  0.4655E+00 -0.5653E+00E
 Epicentro: LOS SANTOS - SANTANDER                                             3
 ACTION:UP  10-08-24 09:44 OP:vdl  STATUS:               ID:20100116040844 L   I
 2010-01-16-0406-26S.COL___096                                                 6
 STAT SP IPHASW D HRMM SECON CODA AMPLIT PERI AZIMU VELO SNR AR TRES W  DIS CAZ7
 BAR2 SZ EP   1    4 9  4.54                             169    -0.3 8   27 209 
 BAR2 SZ ES   1    4 9 20.05                             169    -0.3 8   27 209 
 GIR2 SZ EP   2    4 9  4.91                             167     0.0 5   33 335 
 GIR2 SZ ES   2    4 9 20.78                             167     0.4 5   33 335 
 RUS  BZ EP        4 9  8.62                             144    -0.310  101 181 
 RUS  BN ES        4 9 27.95                             144     0.410  101 181 
 RUS  BZ I         4 9 28.89         5.5 0.42                           101 181 
 OCA  SZ EP   1    4 9 13.74                             130     0.3 7  161 350 
 OCA  SZ ES   1    4 9 35.63                             130     0.0 7  161 350 
 OCA  SZ I         4 9 40.23        17.4 0.21                           161 350 
 CHI  HZ EP   1    4 9 22.73                             117    -0.3 6  252 197 
 CHI  HN ES   2    4 9 53.02                             117     0.2 4  252 197 
 CHI  HZ I         4 9 57.55         2.9 0.17                           252 197 
 TOL  SZ EP   1    4 9 34.16                             109     0.1 5  350 226 
 SDV  BZ IP        4 9 34.31                             109     0.1 6  353  49 
 SDV  BZ I         4 9 35.17         1.1 0.12                           353  49 
 PRA  HZ EP   1    4 9 39.23                             107     0.1 4  397 211 
 PRA  HE ES   1    410 21.58                             107     0.2 4  397 211 
 PRA  HZ I         410 25.42         3.2 0.29                           397 211 
                                                                                
