 2017  316 0343 21.9 L   6.758 -73.145139.5  RSN 10 0.3 1.7LRSN                1
 GAP=139        0.81       2.8     3.4  4.9 -0.4272E+00  0.3199E+01  0.4272E+01E
 Epicentro: LOS SANTOS - SANTANDER                                             3
 ACTION:UPD 17-05-25 18:40 OP:jn   STATUS:               ID:20170316034321 L   I
 OLDACT:DUP 17-03-16 15:25 OP:cara STATUS:               ID:20170316033743d    3
 OLDACT:UP  17-03-16 15:19 OP:cara STATUS:               ID:20170316033742     3
 OLDACT:REG 17-03-16 12:50 OP:cara STATUS:               ID:20170316033742     3
 2017-03-16-0338-00M.COL___400                                                 6
 STAT SP IPHASW D HRMM SECON CODA AMPLIT PERI AZIMU VELO AIN AR TRES W  DIS CAZ7
 BAR2 HZ IP        343 40.57                             172   -0.0710 18.8 193 
 BAR2 HZ ES        343 54.93                             172   -0.3610 18.8 193 
 BAR2 HZ I         343 57.48        14.0 0.22            171           18.8 193 
 BRR  HZ EP        343 42.43                             151   -0.0310 73.6 302 
 BRR  HE ES        343 59.03                             151    0.4910 73.6 302 
 BRR  HZ I         344  3.29        12.0 0.48            150           73.6 302 
 PAM  EZ IP     C  343 43.58                             148   -0.0510 81.0  37 
 PAM  EN ES        344  0.41                             148   -0.2010 81.0  37 
 PAM  EZ I         344  2.49        15.2 0.54            152           81.0  37 
 RUS  HZ EP        343 45.04                             144    0.3910 95.9 176 
 RUS  HN ES        344  2.55                             144    0.1310 95.9 176 
 RUS  HZ I         344  4.07         5.0 0.30            146           95.9 176 
 PTB  HZ EP        343 48.05                             131   -0.19 9  147 261 
 PTB  HN ES        344  8.45                             131   -0.37 9  147 261 
 SPBC HZ EP        343 49.90                             128    0.37 9  160 220 
 SPBC HN ES        344 11.48                             128    0.36 9  160 220 
 SPBC HZ I         344 14.67         5.8 0.10            129            160 220 
 ZAR  HZ EP   4    343 54.96                             121    0.87 0  206 293 
 ZAR  HN ES        344 19.18                             121   -0.05 8  206 293 
 ZAR  HZ I         344 27.02         5.4 0.14            122            206 293 
 CHI  HZ EP        343 59.09                             116    0.37 8  244 195 
 CHI  HE ES        344 26.96                             116   -0.51 8  244 195 
 CHI  HZ I         344 30.47         1.5 0.32            118            244 195 
 URE  HZ EP   4    344  4.17                             112    1.34 0  286 293 
 URE  HN ES   4    344 32.30                             112   -2.49 0  286 293 
 URE  HZ I         344 34.51         6.1 0.16            113            286 293 
 PRA  HZ EP        344 13.84                             106   -0.85 6  388 210 
 PRA  HN ES        344 55.88                             106   -0.02 6  388 210 
 PRA  HZ I         345  1.22         2.1 0.32            107            388 210 
                                                                                
