 2013  916 0430  4.6 L   6.760 -73.183148.9  RSN  4 0.5 1.2LRSN                1
 GAP=236        1.08       9.4    11.1 12.1 -0.2668E+02 -0.5585E+01  0.3357E+02E
 Epicentro: VILLANUEVA - SANTANDER                                             3
 ACTION:UPD 13-10-22 09:23 OP:ep   STATUS:               ID:20130916043004 L   I
 OLDACT:REG 13-09-16 07:43 OP:jn   STATUS:               ID:20130916042959     3
 2013-09-16-0429-59M.COL___269                                                 6
 STAT SP IPHASW D HRMM SECON CODA AMPLIT PERI AZIMU VELO AIN AR TRES W  DIS CAZ7
 BAR2 SZ EP   1    430 23.74                             172   -0.80 8 18.5 180 
 BAR2 SZ ES   1    430 39.91                             172   -0.17 8 18.5 180 
 BAR2 SZ I         430 41.20         3.1 0.52            164           18.5 180 
 BRR  HZ EP   1    430 26.51                             153    0.48 8 69.9 303 
 BRR  HE ES   1    430 43.24                             153    0.50 8 69.9 303 
 PTB  HN ES   1    430 51.41                             134   -0.89 8  143 260 
 SPBC HZ EP        430 32.90                             131    0.1110  157 219 
 SPBC HN ES        430 55.17                             131    0.4010  157 219 
 SPBC HZ I         431  2.65         2.4 0.20            128            157 219 
                                                                                
