 2011 1216 0410 26.4 L   6.790 -73.109142.9  RSN  5 0.2 1.9LRSN                1
 GAP=142        0.40       2.7     4.2  4.2  0.4403E+00 -0.2069E+01  0.9381E+00E
 Epicentro: LOS SANTOS - SANTANDER                                             3
 ACTION:UPD 12-07-13 16:16 OP:ep   STATUS:               ID:20111216041026 L   I
 2011-12-16-0410-00M.COL___187                                                 6
 STAT SP IPHASW D HRMM SECON CODA AMPLIT PERI AZIMU VELO AIN AR TRES W  DIS CAZ7
 BAR2 SZ ES   2    411  0.68                             170   -0.08 5 23.3 200 
 BRR  HZ EP        410 47.48                             151   -0.0310 75.3 298 
 BRR  HN ES   1    411  3.94                             151   -0.02 7 75.3 298 
 BRR  HN I         411  5.26        28.6 0.18                          75.3 298 
 PAM  SZ EP        410 48.46                             151    0.2110 75.7  37 
 PAM  SN ES   2    411  4.91                             151   -0.35 5 75.7  37 
 RUS  HZ EP   1    410 49.61                             144   -0.20 7 99.3 178 
 RUS  HZ I         410 58.25         7.2 0.70                          99.3 178 
 RUS  HE ES   1    411  8.20                             144    0.15 7 99.3 178 
 CHI  HZ EP   1    411  3.89                             116   -0.09 6  249 196 
 CHI  HZ I         411  5.36         4.8 0.75                           249 196 
                                                                                
