 2017  416 0940 24.0 L   6.271 -73.583119.2  RSN  4 0.3 1.1LRSN                1
 GAP=236        0.72       6.8     3.8  7.7  0.4814E+01  0.9850E+01  0.1151E+02E
 Epicentro: SANTA HELENA DEL OPON - SANTANDER                                  3
 ACTION:UPD 17-05-30 21:12 OP:jn   STATUS:               ID:20170416094024 L   I
 OLDACT:UP  17-04-16 18:11 OP:dani STATUS:               ID:20170416093736     3
 OLDACT:REG 17-04-16 14:41 OP:dani STATUS:               ID:20170416093736     3
 2017-04-16-0938-00M.COL___365                                                 6
 STAT SP IPHASW D HRMM SECON CODA AMPLIT PERI AZIMU VELO AIN AR TRES W  DIS CAZ7
 BAR2 HZ EP        940 42.22                             153    0.4210 56.8  51 
 BAR2 HZ ES        940 55.45                             153   -0.2410 56.8  51 
 BAR2 HZ I         940 57.26         5.5 0.30            147           56.8  51 
 BRR  HZ EP        940 43.99                             139    0.0110 93.6 351 
 BRR  HE ES        940 59.56                             139   -0.0110 93.6 351 
 BRR  HZ I         941  7.43         2.1 0.30            134           93.6 351 
 PTB  HZ EP        940 44.18                             137   -0.4410  101 287 
 PTB  HE ES        941  0.95                             137    0.2410  101 287 
 PTB  HZ I         941  1.39         1.6 0.11            136            101 287 
 ZAR  HN ES        941 17.21                             117    0.00 9  195 314 
                                                                                
