 2014  816 0852 50.4 L   6.804 -73.143151.4  RSN  8 0.4 1.8LRSN                1
 GAP=137        1.06       3.8     4.6  6.6 -0.1798E+00  0.5989E+01 -0.2992E+01E
 Epicentro: LOS SANTOS - SANTANDER                                             3
 ACTION:UPD 14-09-15 21:50 OP:nd   STATUS:               ID:20140816085250 L   I
 OLDACT:UP  14-08-16 17:25 OP:cam  STATUS:               ID:20140816085001d    3
 OLDACT:DUP 14-08-16 17:23 OP:cam  STATUS:               ID:20140816085001d    3
 OLDACT:UP  14-08-16 17:22 OP:cam  STATUS:               ID:20140816085000     3
 OLDACT:REG 14-08-16 13:10 OP:cam  STATUS:               ID:20140816085000     3
 2014-08-16-0850-00M.COL___285                                                 6
 STAT SP IPHASW D HRMM SECON CODA AMPLIT PERI AZIMU VELO AIN AR TRES W  DIS CAZ7
 BAR2 SZ EP        853 10.82                             171    0.0810 23.8 190 
 BAR2 SZ ES        853 26.27                             171   -0.3210 23.8 190 
 BAR2 SZ I         853 27.08        11.0 0.18            169           23.8 190 
 BRR  HZ EP     D  853 12.54                             153    0.3610 71.2 298 
 BRR  HE ES        853 30.09                             153    0.9310 71.2 298 
 BRR  HZ I         853 32.07        10.1 0.26            151           71.2 298 
 PAM  SZ EP        853 13.59                             152    0.3810 76.9  40 
 PAM  SE ES        853 30.48                             152   -0.5110 76.9  40 
 PAM  SZ I         853 32.97         8.3 0.58            156           76.9  40 
 RUS  HZ EP        853 14.82                             145    0.0610  101 176 
 RUS  HN ES        853 33.72                             145   -0.0210  101 176 
 RUS  HZ I         853 35.39         6.5 0.44            146            101 176 
 PTB  HZ EP        853 17.40                             133   -0.48 9  148 259 
 PTB  HN ES        853 38.63                             133   -0.68 9  148 259 
 PTB  HZ I         853 41.31         8.4 0.56            132            148 259 
 SPBC HZ EP        853 19.59                             130    0.19 9  164 219 
 SPBC HN ES        853 42.07                             130    0.06 9  164 219 
 SPBC HZ I         853 49.30        12.4 0.32            130            164 219 
 ZAR  HN ES        853 49.07                             124    0.22 9  204 292 
 ZAR  HZ I         853 57.71         4.1 0.32            123            204 292 
 SML  HZ EP        853 27.19                             119   -0.15 8  243 335 
 SML  HE ES        853 55.77                             119   -0.36 8  243 335 
 SML  HZ I         853 57.83         8.1 0.30            120            243 335 
                                                                                
