 2010  916 0053  7.6 L   6.822 -73.111134.7  RSN  5 0.4 1.3LRSN                1
 GAP=162        1.01       7.7    16.5 20.2  0.5157E+02 -0.1766E+03 -0.8305E+02E
 Epicentro: LOS SANTOS - SANTANDER                                             3
 ACTION:UP  11-02-18 11:03 OP:tino STATUS:               ID:20100916005307 L   I
 2010-09-16-0051-49S.COL___119                                                 6
 STAT SP IPHASW D HRMM SECON CODA AMPLIT PERI AZIMU VELO SNR AR TRES W  DIS CAZ7
 BTL  SZ EP        053 25.09                             171    -0.810   20 302 
 BAR2 SZ EP        053 25.98                             168     0.010   27 198 
 BAR2 SZ I         053 43.87         8.0 0.22                            27 198 
 BRR  HZ EP        053 28.01                             149     0.310   74 295 
 BRR  HE ES   2    053 43.47                             149     0.1 5   74 295 
 RUS  HZ EP        053 30.42                             140     0.010  103 178 
 RUS  HZ I         053 30.81         2.5 0.35                           103 178 
 RUS  HN ES   1    053 48.58                             140     0.3 7  103 178 
 GRA  SZ EP        053 31.89                             135     0.310  122  16 
                                                                                
