 2015  816 0121  6.6 L   6.781 -73.073156.0  RSN  4 0.2 1.5LRSN                1
 GAP=207        0.62       3.3     5.2  8.1  0.6854E+01 -0.5227E+01 -0.1418E+02E
 Epicentro: LOS SANTOS - SANTANDER                                             3
 ACTION:UPD 15-09-15 23:02 OP:cam  STATUS:               ID:20150816012106 L   I
 OLDACT:REG 15-08-16 13:29 OP:mh   STATUS:               ID:20150816011746     3
 2015-08-16-0117-46M.COL___346                                                 6
 STAT SP IPHASW D HRMM SECON CODA AMPLIT PERI AZIMU VELO AIN AR TRES W  DIS CAZ7
 RUS  HZ EP        121 30.84                             147   -0.4110 98.2 181 
 RUS  HN ES        121 50.64                             147    0.1910 98.2 181 
 RUS  HZ I         121 51.05         1.9 0.24            150           98.2 181 
 SPBC HZ EP        121 36.62                             131    0.34 9  167 222 
 SPBC HN ES        121 59.32                             131   -0.07 9  167 222 
 SPBC HZ I         122  3.56         4.4 0.20            133            167 222 
 ZAR  HN ES        122  6.96                             123   -0.15 8  212 292 
 ZAR  HZ I         122 11.09         2.5 0.48            124            212 292 
 SML  HZ EP        121 44.52                             119    0.08 8  249 334 
 SML  HN ES        122 14.01                             119    0.09 8  249 334 
 SML  HZ I         122 20.00         3.0 0.10            120            249 334 
                                                                                
