 2016  816 0721  3.8 L   6.796 -73.153144.0  RSN 10 0.4 1.7LRSN                1
 GAP=136        1.00       3.6     4.2  6.1 -0.8405E+00  0.5846E+01  0.5682E+01E
 Epicentro: LOS SANTOS - SANTANDER                                             3
 ACTION:UPD 16-10-29 15:36 OP:rebc STATUS:               ID:20160816072103 L   I
 OLDACT:REG 16-08-16 12:55 OP:ak   STATUS:               ID:20160816071759     3
 2016-08-16-0717-59S.COL___343                                                 6
 STAT SP IPHASW D HRMM SECON CODA AMPLIT PERI AZIMU VELO AIN AR TRES W  DIS CAZ7
 BAR2 EZ EP        721 23.20                             171   -0.0210 22.8 188 
 BAR2 EZ ES        721 38.46                             171    0.1010 22.8 188 
 BAR2 EZ I         721 39.82        16.6 0.14                          22.8 188 
 BRR  HZ EP        721 24.75                             152    0.0010 70.7 299 
 BRR  HN ES        721 41.79                             152    0.7210 70.7 299 
 BRR  HZ I         721 42.68        11.3 0.06                          70.7 299 
 PAM  EZ EP        721 26.06                             150    0.1610 78.3  40 
 PAM  EN ES        721 42.87                             150   -0.2510 78.3  40 
 PAM  EZ I         721 45.32         8.8 0.54                          78.3  40 
 RUS  HZ EP        721 27.12                             144   -0.2510  100 176 
 RUS  HN ES        721 45.53                             144   -0.2110  100 176 
 RUS  HZ I         721 47.37         2.6 0.13                           100 176 
 PTB  HZ EP   2    721 29.58                             132   -0.98 5  147 259 
 PTB  HN ES        721 50.32                             132   -1.10 9  147 259 
 PTB  HZ I         721 58.08         4.2 0.20                           147 259 
 SPBC HZ EP        721 32.07                             129   -0.03 9  162 219 
 SPBC HN ES        721 54.76                             129    0.60 9  162 219 
 SPBC HZ I         721 59.16         6.2 0.22                           162 219 
 ZAR  HZ EP   2    721 36.20                             122    0.11 4  203 292 
 ZAR  HN ES        722  1.28                             122    0.03 9  203 292 
 ZAR  HZ I         722  6.36         4.6 0.25                           203 292 
 CHI  HZ EP   2    721 41.28                             117   -0.07 4  248 195 
 CHI  HN ES        722 10.71                             117    0.09 8  248 195 
 CHI  HZ I         722 14.31         3.3 0.18                           248 195 
 HEL  HE ES   4    722 17.73                             114    2.68 0  271 256 
 GUY2CHZ EP        721 47.88                             112    0.64 7  300 235 
 GUY2CHN ES   4    722 24.44                             112    3.33 0  300 235 
 GUY2CHZ I         722 29.43         2.3 0.34                           300 235 
 PRA  HZ EP   2    721 57.30                             106    0.12 3  391 209 
 PRA  HN ES        722 38.86                             106    0.05 6  391 209 
 PRA  HZ I         722 44.40         3.0 0.30                           391 209 
                                                                                
