 2014  416 0501 18.5 L   6.879 -73.431100.3  RSN  8 0.7 1.7LRSN                1
 GAP=103        1.70       4.8     6.0 16.8 -0.6101E+01  0.4372E+02 -0.1084E+02E
 Epicentro: SAN VICENTE DE CHUCURI - SANTANDER                                 3
 ACTION:UPD 14-05-13 23:08 OP:nd   STATUS:               ID:20140416050118 L   I
 OLDACT:REG 14-04-16 12:44 OP:nd   STATUS:               ID:20140416050048     3
 2014-04-16-0500-48M.COL___248                                                 6
 STAT SP IPHASW D HRMM SECON CODA AMPLIT PERI AZIMU VELO AIN AR TRES W  DIS CAZ7
 PAM  SZ EP        5 1 37.49                             133   -0.2110 95.5  58 
 PAM  SN ES        5 1 53.64                             133    0.9910 95.5  58 
 PAM  SZ I         5 1 54.69         7.9 0.24            142           95.5  58 
 RUS  HZ EP        5 1 38.79                             127   -0.8010  116 161 
 RUS  HN ES        5 1 55.47                             127   -0.5510  116 161 
 RUS  HZ I         5 1 56.66         4.7 0.28            136            116 161 
 PTB  HZ IP     C  5 1 38.24                             125   -1.1010  119 252 
 PTB  HN ES        5 1 54.92                             125   -0.6410  119 252 
 PTB  HZ I         5 1 59.65        13.0 0.26            130            119 252 
 OCA  HZ EP   4    5 1 43.74                             118    0.97 0  151   5 
 OCA  HN ES        5 2  1.23                             118   -0.44 9  151   5 
 OCA  HZ I         5 2  8.13        10.8 0.26            125            151   5 
 SPBC HZ EP        5 1 44.08                             118    1.15 9  153 208 
 SPBC HN ES        5 2  2.78                             118    0.82 9  153 208 
 SPBC HZ I         5 2  8.38         6.9 0.07            125            153 208 
 ZAR  HZ EP        5 1 45.23                             115    0.39 9  172 293 
 ZAR  HN ES   1    5 2  5.88                             115    0.52 7  172 293 
 ZAR  HZ I         5 2 10.07        14.5 0.34            119            172 293 
 SML  HZ EP   1    5 1 50.10                             108   -0.68 6  224 342 
 SML  HN ES   1    5 2 16.08                             108    0.15 6  224 342 
 SML  HZ I         5 2 20.66        12.5 0.08            113            224 342 
 HEL  HZ EP        5 1 54.18                             106    0.57 8  244 252 
 HEL  HN ES   1    5 2 21.36                             106    0.39 6  244 252 
 HEL  HZ I         5 2 29.83         3.0 0.30            111            244 252 
                                                                                
