 2016 1216 0134 32.4 L   6.779 -73.094144.1  RSN 12 0.6 1.9LRSN                1
 GAP= 97        1.28       4.4     4.9  6.8  0.4230E+01  0.6146E+01  0.8286E+01E
 Epicentro: LOS SANTOS - SANTANDER                                             3
 ACTION:UPD 17-01-11 20:15 OP:rebc STATUS:               ID:20161216013432 L   I
 OLDACT:UP  16-12-16 13:57 OP:e    STATUS:               ID:20161216012741     3
 OLDACT:UP  16-12-16 13:55 OP:e    STATUS:               ID:20161216012741     3
 OLDACT:UP  16-12-16 13:54 OP:e    STATUS:               ID:20161216012741     3
 OLDACT:UP  16-12-16 13:50 OP:e    STATUS:               ID:20161216012741     3
 OLDACT:REG 16-12-16 12:22 OP:and  STATUS:               ID:20161216012741     3
 2016-12-16-0128-00M.COL___386                                                 6
 STAT SP IPHASW D HRMM SECON CODA AMPLIT PERI AZIMU VELO AIN AR TRES W  DIS CAZ7
 BAR2 EZ EP        134 51.61                             171   -0.2010 22.9 205 
 BAR2 EZ ES        135  6.49                             171   -0.4610 22.9 205 
 BAR2 EZ I         135  8.05        30.5 0.23            168           22.9 205 
 PAM  EZ EP        134 54.48                             151    0.1510 75.7  35 
 PAM  EE ES        135 12.00                             151    0.5610 75.7  35 
 PAM  EZ I         135 15.96         5.2 0.36            154           75.7  35 
 BRR  HZ EP        134 53.47                             150   -0.2410 77.3 298 
 BRR  HN ES        135 10.56                             150    0.2210 77.3 298 
 BRR  HZ I         135 16.49        13.4 0.28            148           77.3 298 
 RUS  HZ EP        134 55.61                             144   -0.1910 98.1 179 
 RUS  HN ES        135 13.96                             144   -0.0910 98.1 179 
 RUS  HZ I         135 15.11        17.0 0.20            146           98.1 179 
 TAM  HZ EP        134 59.98                             131    0.61 9  149 105 
 ZAR  HZ EP        135  5.85                             121    0.49 8  210 292 
 ZAR  HE ES        135 30.23                             121   -0.85 8  210 292 
 ZAR  HZ I         135 35.05         7.4 0.17            121            210 292 
 CHI  HZ EP        135  9.87                             117   -0.06 8  248 197 
 CHI  HE ES        135 40.30                             117    1.10 8  248 197 
 CHI  HZ I         135 45.18         2.9 0.33            118            248 197 
 URE  HZ EP        135 13.40                             113   -0.66 7  290 292 
 URE  HN ES   4    135 43.56                             113   -3.01 0  290 292 
 URE  HZ I         135 56.33         5.3 0.18            113            290 292 
 PTGC HZ EP        135 14.85                             112   -0.85 7  305 159 
 PTGC HN ES        135 48.51                             112   -0.97 7  305 159 
 GUY2CHZ EP        135 17.08                             112    0.78 7  305 236 
 GUY2CHE ES        135 50.97                             112    0.42 7  305 236 
 GUY2CHZ I         135 58.30         2.5 0.34                           305 236 
 ELA  HZ EP   4    135 17.56                             110   -1.94 0  332 230 
 ELA  HN ES   4    135 58.18                             110    1.94 0  332 230 
 ELA  HZ I         136  2.33         2.4 0.40            111            332 230 
 SJC  HZ EP   4    135 25.73                             105   -2.76 0  414 326 
 SJC  HN ES   4    136  7.74                             105   -4.50 0  414 326 
 SJC  HZ I         136 11.63         2.6 0.44            106            414 326 
                                                                                
