 2011  316 0228 38.2 L   6.850 -73.524130.0  RSN  5 0.4 1.4LRSN                1
 GAP=209        0.73       6.3    26.0 13.2 -0.1215E+03  0.2880E+03 -0.5376E+02E
 Epicentro: SAN VICENTE DE CHUCURI - SANTANDER                                 3
 ACTION:UP  11-06-16 14:33 OP:jfem STATUS:               ID:20110316022838 L   I
 2011-03-16-0226-16S.COL___138                                                 6
 STAT SP IPHASW D HRMM SECON CODA AMPLIT PERI AZIMU VELO SNR AR TRES W  DIS CAZ7
 GIR2 SZ ES   3    229 12.02                             156     1.3 2   44  55 
 BAR2 SZ EP        228 56.63                             155    -0.110   47 127 
 BAR2 SZ ES        229 10.77                             155    -0.410   47 127 
 BAR2 SZ I         229 14.12        11.4 0.19                            47 127 
 RUS  HZ EP   1    229  1.73                             133     0.0 7  117 155 
 RUS  HN ES   1    229 20.43                             133     0.4 7  117 155 
 RUS  HZ I         229 21.42         2.9 0.27                           117 155 
 GRA  SZ EP   1    229  3.25                             128     0.0 7  139  35 
 GRA  SZ ES   1    229 23.07                             128     0.2 7  139  35 
 GRA  SZ I         229 23.90         3.5 0.33                           139  35 
 CHI  HZ EP   1    229 15.00                             112     0.2 6  247 185 
 CHI  HZ I         229 53.67         1.9 0.65                           247 185 
                                                                                
