 2016  516 0819 46.1 L   6.750 -73.145138.0  RSN  6 0.4 1.5LRSN                1
 GAP=260        0.70       5.8     5.3  8.0 -0.9179E+00  0.1481E+01 -0.1811E+01E
 Epicentro: LOS SANTOS - SANTANDER                                             3
 ACTION:UPD 16-08-18 17:46 OP:cam  STATUS:               ID:20160516081946 L   I
 OLDACT:REG 16-05-16 12:54 OP:mh   STATUS:               ID:20160516081745     3
 2016-05-16-0817-45M.COL___277                                                 6
 STAT SP IPHASW D HRMM SECON CODA AMPLIT PERI AZIMU VELO AIN AR TRES W  DIS CAZ7
 BAR2 EZ EP        820  5.01                             172    0.2810 17.9 193 
 BAR2 EZ ES   2    820 18.65                             172   -0.59 5 17.9 193 
 BAR2 EZ I         820 20.96         2.9 0.26            168           17.9 193 
 PTB  HZ EP        820 11.84                             130   -0.56 9  147 261 
 PTB  HN ES        820 32.95                             130    0.06 9  147 261 
 PTB  HZ I         820 34.76         3.7 0.18            128            147 261 
 SPBC HZ EP        820 13.48                             128   -0.17 9  159 220 
 SPBC HN ES        820 35.58                             128    0.48 9  159 220 
 SPBC HZ I         820 38.00         8.5 0.13            127            159 220 
 ZAR  HZ EP   2    820 18.53                             121    0.21 4  206 294 
 ZAR  HE ES   2    820 43.59                             121    0.16 4  206 294 
 ZAR  HZ I         820 50.63         4.2 0.34            119            206 294 
 HEL  HZ EP   2    820 26.41                             113    0.58 4  271 257 
 HEL  HN ES   2    820 56.64                             113   -0.15 4  271 257 
 HEL  HZ I         821  3.77         1.3 0.46            113            271 257 
 PRA  HZ EP   2    820 38.43                             106   -0.41 3  387 210 
 PRA  HE ES   2    821 19.33                             106   -0.62 3  387 210 
 PRA  HZ I         821 24.74         1.3 0.44            106            387 210 
                                                                                
