 2013  516 0028 51.5 L   6.801 -73.147146.2  RSN 13 0.5 2.5LRSN                1
 GAP= 71        1.18       3.4     3.7  6.2 -0.1681E+01  0.7637E+01  0.2178E+01E
 Epicentro: LOS SANTOS - SANTANDER                                             3
 ACTION:UPD 13-06-20 09:50 OP:ep   STATUS:               ID:20130516002851 L   I
 2013-05-16-0027-50M.COL___225                                                 6
 STAT SP IPHASW D HRMM SECON CODA AMPLIT PERI AZIMU VELO AIN AR TRES W  DIS CAZ7
 BAR2 SZ EP        029 11.14                             170   -0.0510 23.4 190 
 BAR2 SZ ES        029 26.95                             170    0.4110 23.4 190 
 BAR2 SZ I         029 27.30        68.8 0.30            168           23.4 190 
 GIR2 SZ EP        029 11.20                             167   -0.0210 31.2 351 
 GIR2 SZ ES   1    029 27.24                             167    0.64 7 31.2 351 
 GIR2 SZ I         029 28.13        27.9 0.11            169           31.2 351 
 BRR  HZ IP     C  029 13.01                             153    0.3210 71.0 299 
 BRR  HE ES   4    029 30.26                             153    1.05 0 71.0 299 
 BRR  HZ I         029 34.40        45.9 0.24            153           71.0 299 
 PAM  SZ EP     C  029 13.91                             151    0.1510 77.4  40 
 PAM  SN ES        029 31.12                             151   -0.0110 77.4  40 
 PAM  SZ I         029 33.33        26.5 0.46            155           77.4  40 
 RUS  HZ EP     D  029 15.00                             144   -0.3010  101 176 
 RUS  HN ES        029 33.22                             144   -0.6410  101 176 
 RUS  HZ I         029 34.97        40.1 0.40            144            101 176 
 PTB  HZ EP        029 17.80                             132   -0.69 9  148 259 
 PTB  HN ES        029 39.04                             132   -0.51 9  148 259 
 PTB  HZ I         029 46.54        52.7 0.48            133            148 259 
 TAM  HZ IP     D  029 19.29                             131    0.06 9  155 105 
 TAM  HN ES        029 40.90                             131    0.05 9  155 105 
 TAM  HZ I         029 47.39        21.8 0.46            134            155 105 
 OCA  HN ES        029 42.01                             130    0.07 9  160 353 
 NOR  HZ EP        029 26.94                             119   -0.31 8  235 234 
 NOR  HN ES        029 54.90                             119   -0.23 8  235 234 
 NOR  HZ I         030  0.37        36.6 0.18            120            235 234 
 SML  HZ EP        029 28.01                             118   -0.13 8  244 335 
 SML  HE ES        029 55.91                             118   -0.80 8  244 335 
 ROSC BZ EP        029 30.21                             117    0.56 8  253 211 
 ROSC BN ES   1    030  0.42                             117    1.02 6  253 211 
 ROSC BZ I         030  5.63        39.0 0.35            118            253 211 
 HEL  HZ EP        029 33.15                             115    1.43 8  272 256 
 HEL  HN ES        030  3.84                             115    0.74 8  272 256 
 HEL  HZ I         030 11.76        15.7 0.34            116            272 256 
 PRA  HZ EP        029 44.75                             107   -0.29 6  392 210 
 PRA  HE ES        030 26.14                             107   -0.65 6  392 210 
 PRA  HZ I         030 32.63        22.2 0.64            108            392 210 
                                                                                
