 2011 1116 0642 33.4 L   6.853 -73.030138.6  RSN  4 0.3 1.4LRSN                1
 GAP=149        0.58       5.4     7.1  7.0  0.7179E+01 -0.7481E+01  0.3174E+01E
 Epicentro: CEPITA - SANTANDER                                                 3
 ACTION:UPD 12-07-13 16:10 OP:ep   STATUS:               ID:20111116064233 L   I
 2011-11-16-0641-00S.COL___178                                                 6
 STAT SP IPHASW D HRMM SECON CODA AMPLIT PERI AZIMU VELO AIN AR TRES W  DIS CAZ7
 BAR2 SZ EP   1    642 52.44                             166    0.00 7 33.4 210 
 BAR2 SZ ES   1    643  7.09                             166   -0.19 7 33.4 210 
 BAR2 SZ I         643  9.99         6.1 0.44                          33.4 210 
 PAM  SZ EP   2    642 54.84                             154    0.69 5 65.0  34 
 PAM  SN ES   2    643 10.04                             154   -0.28 5 65.0  34 
 BRR  HZ EP   1    642 54.28                             148   -0.08 7 80.4 290 
 BRR  HN ES   1    643 10.81                             148    0.11 7 80.4 290 
 BRR  HZ I         643 12.20        10.4 0.14                          80.4 290 
 RUS  HZ EP   1    642 56.59                             141   -0.31 7  106 183 
 RUS  HZ I         642 57.71         2.3 0.12                           106 183 
 RUS  HN ES   2    643 15.88                             141    0.65 5  106 183 
                                                                                
