 2016 1216 0933 43.5 L   6.741 -73.605108.9  RSN  4 0.3 1.1LRSN                1
 GAP=160        0.71       4.0     2.9  6.6 -0.2552E+01  0.2236E+01 -0.4653E+01E
 Epicentro: EL CARMEN - SANTANDER                                              3
 ACTION:UPD 17-01-11 20:15 OP:rebc STATUS:               ID:20161216093343 L   I
 OLDACT:UP  16-12-16 18:44 OP:e    STATUS:               ID:20161216092743     3
 OLDACT:REG 16-12-16 12:55 OP:and  STATUS:               ID:20161216092743     3
 2016-12-16-0928-00M.COL___332                                                 6
 STAT SP IPHASW D HRMM SECON CODA AMPLIT PERI AZIMU VELO AIN AR TRES W  DIS CAZ7
 BAR2 EZ EP     D  934  0.11                             154    0.2910 49.5 109 
 BAR2 EZ ES        934 12.90                             154    0.3810 49.5 109 
 BAR2 EZ I         934 16.31         2.5 0.19            157           49.5 109 
 PTB  HZ EP     C  934  3.14                             135    0.2510 96.8 257 
 PTB  HN ES        934 17.71                             135   -0.2810 96.8 257 
 PTB  HZ I         934 19.02         2.2 0.13            141           96.8 257 
 RUS  HZ EP        934  4.68                             131   -0.0510  110 148 
 RUS  HN ES        934 20.99                             131   -0.2810  110 148 
 RUS  HZ I         934 21.83         6.2 0.17            137            110 148 
 PAM  EZ EP        934  5.59                             129   -0.0410  120  56 
 PAM  EN ES        934 22.57                             129   -0.3010  120  56 
 PAM  EZ I         934 26.35         2.6 0.50            132            120  56 
                                                                                
