 2016 1116 0303 38.6 L   6.838 -73.159150.9  RSN 17 0.6 2.2LRSN                1
 GAP= 79        1.31       5.3     3.8  6.6 -0.3706E+00  0.5328E+01  0.8064E+01E
 Epicentro: LOS SANTOS - SANTANDER                                             3
 ACTION:UPD 17-10-26 21:08 OP:lp   STATUS:               ID:20161116030338 L   I
 OLDACT:UP  16-11-16 15:01 OP:e    STATUS:               ID:20161116025747     3
 OLDACT:UP  16-11-16 15:00 OP:e    STATUS:               ID:20161116025747     3
 OLDACT:UP  16-11-16 14:57 OP:e    STATUS:               ID:20161116025747     3
 OLDACT:REG 16-11-16 12:23 OP:and  STATUS:               ID:20161116025747     3
 2016-11-16-0258-00M.COL___335                                                 6
 STAT SP IPHASW D HRMM SECON CODA AMPLIT PERI AZIMU VELO AIN AR TRES W  DIS CAZ7
 BAR2 EZ IP     D  3 3 58.72                             169   -0.1810 27.3 186 
 BAR2 EZ ES        3 4 14.25                             169   -0.5110 27.3 186 
 BAR2 EZ I         3 4 16.41        40.7 0.30            161           27.3 186 
 BRR  HZ EP        3 4  0.72                             154    0.6210 68.0 296 
 BRR  HN ES        3 4 17.90                             154    1.0010 68.0 296 
 BRR  HZ I         3 4 21.17        15.9 0.10            150           68.0 296 
 PAM  EZ EP     C  3 4  1.42                             152    0.2210 75.1  42 
 PAM  EN ES        3 4 18.77                             152   -0.0910 75.1  42 
 PAM  EZ I         3 4 19.81        17.1 0.18            157           75.1  42 
 PTB  HZ EP        3 4  5.37                             133   -0.54 9  147 257 
 PTB  HN ES        3 4 26.86                             133   -0.38 9  147 257 
 PTB  HZ I         3 4 31.40        15.0 0.12            128            147 257 
 TAM  HZ EP        3 4  6.96                             131    0.07 9  158 106 
 TAM  HN ES        3 4 28.61                             131   -0.36 9  158 106 
 ZAR  HZ EP        3 4 11.32                             124    0.26 9  201 291 
 ZAR  HN ES        3 4 37.10                             124    0.70 9  201 291 
 ZAR  HZ I         3 4 42.24        14.9 0.38            121            201 291 
 NOR  HZ EP        3 4 14.97                             119    0.23 8  236 233 
 NOR  HN ES        3 4 42.78                             119   -0.18 8  236 233 
 NOR  HZ I         3 4 49.27        14.3 0.14            115            236 233 
 CHI  HZ EP        3 4 16.81                             118   -0.15 8  252 195 
 CHI  HN ES   4    3 4 46.32                             118   -0.58 0  252 195 
 CHI  HZ I         3 4 51.90         6.7 0.22            114            252 195 
 ROSC BZ EP   9    3 4 18.54                             117    1.25 0  256 210 
 ROSC BN ES        3 4 48.91                                    0.17 8  256 210 
 ROSC BZ I         3 4 56.69        24.4 0.35            113            256 210 
 URE  HZ EP        3 4 18.52                             115   -1.05 7  281 291 
 URE  HN ES        3 4 49.80                             115   -1.75 7  281 291 
 URE  HZ I         3 4 55.11         8.7 0.12            112            281 291 
 PTGC HZ EP   4    3 4 21.74                             112   -1.42 0  313 159 
 ELA  HZ EP   9    3 4 29.31                             111    3.48 0  331 229 
 ELA  HN ES        3 5  5.93                                   -0.25 7  331 229 
 ELA  HZ I         3 5 18.55         8.4 0.48            108            331 229 
 CBOC HZ EP        3 4 26.51                             111    0.81 7  334 251 
 PRA  HZ EP        3 4 33.27                             107    0.65 6  395 209 
 PRA  HN ES        3 5 14.96                             107    0.18 6  395 209 
 ORTC HZ EP   9    3 4 34.56                             107    1.59 0  398 216 
 ORTC HN ES        3 5 17.23                             107    0.24 6  398 216 
 ORTC HZ I         3 5 22.70         5.2 0.30            104            398 216 
 SJC  HZ EP   4    3 4 32.54                             107   -1.26 0  405 327 
 SJC  HN ES   4    3 5 13.97                             107   -2.90 0  405 327 
 SJC  HZ I         3 5 17.50         1.9 0.22            105            405 327 
 PAL  HZ EP        3 4 34.80                             107    0.78 6  407 238 
 PAL  HZ I         3 5 28.51         2.7 0.28            104            407 238 
 CRJC HZ EP   9    3 4 39.07                             104   -1.65 0  463   4 
 CRJC HN ES        3 5 27.42                                   -0.13 5  463   4 
 URI  HZ EP   4    3 4 49.27                             101   -1.96 0  553  13 
                                                                                
