 2012 1216 0944 11.3 L   6.803 -73.160143.1  RSN  7 0.4 1.3LRSN                1
 GAP=135        0.86       5.6     5.0  8.0  0.2429E+01  0.8645E+01  0.3254E+01E
 Epicentro: LOS SANTOS - SANTANDER                                             3
 ACTION:UPD 13-01-04 14:28 OP:ep   STATUS:               ID:20121216094411 L   I
 2012-12-16-0940-00M.COL___239                                                 6
 STAT SP IPHASW D HRMM SECON CODA AMPLIT PERI AZIMU VELO AIN AR TRES W  DIS CAZ7
 BAR2 SZ EP   1    944 30.70                             170    0.05 7 23.4 186 
 BAR2 SZ ES   1    944 45.30                             170   -0.42 7 23.4 186 
 BAR2 SZ I         944 46.54         8.6 0.28                          23.4 186 
 GIR2 SZ ES   2    944 46.14                             167    0.37 5 30.7 353 
 BRR  HZ EP   1    944 32.38                             153    0.27 7 69.6 299 
 BRR  HE ES   1    944 49.18                             153    0.86 7 69.6 299 
 BRR  HZ I         944 53.25         4.0 0.20                          69.6 299 
 PAM  SZ EP   1    944 33.55                             150    0.23 7 78.2  41 
 PAM  SN ES   1    944 49.80                             150   -0.67 7 78.2  41 
 PAM  SZ I         944 52.46         2.5 0.52                          78.2  41 
 RUS  HZ EP   1    944 35.16                             143    0.30 7  101 175 
 RUS  HE ES   1    944 53.37                             143    0.16 7  101 175 
 RUS  HZ I         944 55.21         1.8 0.19                           101 175 
 PTB  HZ EP   1    944 37.41                             132   -0.54 7  146 259 
 PTB  HN ES   1    944 58.28                             132   -0.43 7  146 259 
 PTB  HZ I         945  0.76         2.3 0.12                           146 259 
 ZAR  HN ES   1    945  8.35                             122   -0.14 6  202 292 
                                                                                
