 2010  516 0604 16.0 L   6.741 -72.973138.9  RSN  4 0.2 1.1LRSN                1
 GAP=185        0.48       4.1     8.7 10.3  0.1701E+02 -0.6346E+02 -0.1825E+02E
 Epicentro: CEPITA - SANTANDER                                                 3
 ACTION:UP  10-08-24 10:05 OP:vdl  STATUS:               ID:20100516060416 L   I
 2010-05-16-0601-40S.COL___108                                                 6
 STAT SP IPHASW D HRMM SECON CODA AMPLIT PERI AZIMU VELO AIN AR TRES W  DIS CAZ7
 BAR2 SZ EP        6 4 34.84                             168    -0.110   29 235 
 BRR  HZ EP        6 4 37.50                             145    -0.210   91 296 
 BRR  HN ES   1    6 4 54.79                             145     0.2 7   91 296 
 BRR  HZ I         6 4 56.07         4.3 0.29                            91 296 
 RUS  HZ EP        6 4 38.79                             144     0.210   95 187 
 RUS  HE ES   2    6 4 56.02                             144    -0.3 5   95 187 
 RUS  HZ I         6 4 58.71         1.4 0.37                            95 187 
 GUE  SZ EP        6 4 40.44                             137     0.010  121   3 
                                                                                
