 2010  616 0127  6.8 L   6.787 -73.100142.1  RSN 10 0.4 2.0LRSN                1
 GAP=161        0.85       3.2     8.5  6.6 -0.8008E+01  0.2953E+01  0.3981E+01E
 Epicentro: LOS SANTOS - SANTANDER                                             3
 ACTION:UP  10-08-24 10:10 OP:vdl  STATUS:               ID:20100616012706 L   I
 2010-06-16-0125-43S.COL___114                                                 6
 STAT SP IPHASW D HRMM SECON CODA AMPLIT PERI AZIMU VELO SNR AR TRES W  DIS CAZ7
 BAR2 SZ EP        127 26.08                             170     0.110   23 203 
 BAR2 SZ ES   1    127 41.06                             170     0.1 7   23 203 
 GIR2 SZ EP   1    127 26.16                             166     0.0 7   34 342 
 BRR  HZ IP     D  127 27.84                             150     0.010   76 298 
 BRR  HN ES   1    127 44.42                             150     0.1 7   76 298 
 BRR  HZ I         127 48.99        19.3 0.23                            76 298 
 RUS  HZ EP   1    127 30.06                             143     0.0 7   99 179 
 RUS  HE ES   1    127 48.47                             143     0.2 7   99 179 
 RUS  HZ I         127 50.38        19.9 0.49                            99 179 
 BRI  SZ EP   2    127 29.79                             141    -0.6 5  108  18 
 BRI  SZ ES   1    127 48.15                             141    -0.5 7  108  18 
 GUE  SZ EP   1    127 31.10                             138    -0.1 7  117  10 
 GRA  SZ ES   1    127 51.82                             136     0.6 7  126  15 
 OCA  SZ EP   1    127 35.90                             128     0.8 7  162 351 
 OCA  SZ ES   1    127 56.40                             128    -0.7 7  162 351 
 CHI  HZ IP     D  127 44.19                             116    -0.1 8  249 196 
 CHI  HZ I         127 44.92         6.7 0.04                           249 196 
 CHI  HN ES   1    128 13.02                             116    -0.5 6  249 196 
 ROSC BZ EP   1    127 45.29                             116     0.4 6  254 212 
 ROSC BZ I         128 21.26         7.7 0.48                           254 212 
                                                                                
