 2011 1216 0406 20.6 L   6.724 -73.124141.4  RSN 13 0.4 4.0LRSN                1
 GAP=118        0.85       3.2     3.6  5.1 -0.1224E+01  0.6687E+01  0.5408E+01E
 Epicentro: JORDAN - SANTANDER                                                 3
 ACTION:UPD 12-07-13 16:16 OP:ep   STATUS:               ID:20111216040620 L   I
 2011-12-16-0404-00S.MAN___176                                                 6
 STAT SP IPHASW D HRMM SECON CODA AMPLIT PERI AZIMU VELO AIN AR TRES W  DIS CAZ7
 BAR2 SZ IP     D  4 6 39.64                             173    0.0810 15.9 204 
 BAR2 SZ ES   1    4 6 54.76                             173    0.40 7 15.9 204 
 BAR2 SZ I         4 6 56.54      3615.5 0.41                          15.9 204 
 BRR  HZ IP     C  4 6 41.50                             150   -0.1410 77.5 303 
 BRR  HN ES   1    4 6 58.86                             150    0.79 7 77.5 303 
 BRR  HZ I         4 7  1.92      2144.1 0.13                          77.5 303 
 PAM  SZ IP     D  4 6 42.47                             148   -0.2010 82.7  35 
 PAM  SN ES        4 6 59.45                             148   -0.4410 82.7  35 
 RUS  HZ IP     D  4 6 43.48                             145    0.1810 92.1 177 
 RUS  HN ES        4 7  0.88                             145   -0.1410 92.1 177 
 RUS  HZ I         4 7  3.31      1748.1 0.37                          92.1 177 
 YOP  SZ EP        4 6 50.10                             127    0.63 9  170 153 
 YOP  SE ES   1    4 7 11.74                             127   -0.26 7  170 153 
 YOP  SZ I         4 7 18.13       568.0 0.52                           170 153 
 NOR  SZ EP        4 6 55.44                             118   -0.32 8  232 236 
 NOR  SN ES        4 7 22.69                             118   -0.51 8  232 236 
 CHI  HZ IP     D  4 6 57.19                             117   -0.04 8  241 196 
 CHI  HN ES   1    4 7 25.78                             117   -0.04 6  241 196 
 CHI  HZ I         4 7 31.33       334.2 0.30                           241 196 
 HEL  HZ EP        4 7  0.67                             114    0.05 8  272 258 
 HEL  HE ES   1    4 7 31.29                             114   -0.56 6  272 258 
 HEL  HZ I         4 7 38.08       393.9 0.51                           272 258 
 VIL  SZ EP        4 7  2.53                             112   -0.40 7  296 192 
 VIL  SE ES   1    4 7 35.32                             112   -0.64 5  296 192 
 VIL  SZ I         4 7 44.19       328.1 0.45                           296 192 
 GUY  SZ EP        4 7  4.49                             111    0.54 7  301 237 
 GUY  SZ I         4 7 46.42       986.2 0.29                           301 237 
 RREF HZ EP        4 7  6.46                             110    0.33 7  318 231 
 RREF HN ES        4 7 41.60                             110   -0.06 7  318 231 
 RREF HZ I         4 7 52.24       503.3 0.07                           318 231 
 TOL  SZ IP        4 7  8.75                             109    0.57 7  339 226 
 PRA  HZ EP        4 7 12.72                             106   -0.52 6  386 210 
 PRA  HE ES        4 7 55.06                             106    0.74 6  386 210 
                                                                                
