 2014  816 0849 48.2 L   6.795 -73.140153.8  RSN  8 0.4 1.9LRSN                1
 GAP=137        1.07       3.8     4.7  6.4 -0.3660E-01  0.6912E+01 -0.3646E+01E
 Epicentro: LOS SANTOS - SANTANDER                                             3
 ACTION:UPD 14-09-15 21:50 OP:nd   STATUS:               ID:20140816084948 L   I
 OLDACT:UP  14-08-16 17:22 OP:cam  STATUS:               ID:20140816085000     3
 OLDACT:REG 14-08-16 13:10 OP:cam  STATUS:               ID:20140816085000     3
 2014-08-16-0850-00M.COL___285                                                 6
 STAT SP IPHASW D HRMM SECON CODA AMPLIT PERI AZIMU VELO AIN AR TRES W  DIS CAZ7
 BAR2 SZ EP        850  8.71                             171   -0.0810 22.9 192 
 BAR2 SZ ES        850 24.16                             171   -0.6910 22.9 192 
 BAR2 SZ I         850 26.67         9.8 0.22            169           22.9 192 
 BRR  HZ EP     C  850 10.62                             154    0.3610 71.9 299 
 BRR  HE ES        850 28.27                             154    0.8010 71.9 299 
 BRR  HZ I         850 32.94        10.6 0.12            152           71.9 299 
 PAM  SZ EP        850 11.65                             152    0.3710 77.4  39 
 PAM  SE ES        850 29.11                             152   -0.1710 77.4  39 
 PAM  SZ I         850 31.40         8.5 0.58            158           77.4  39 
 RUS  HZ EP        850 13.11                             146    0.4010  100 176 
 RUS  HN ES        850 31.68                             146   -0.1510  100 176 
 RUS  HZ I         850 35.83         4.2 0.54            148            100 176 
 PTB  HZ EP        850 15.54                             134   -0.33 9  148 259 
 PTB  HN ES        850 37.06                             134   -0.40 9  148 259 
 PTB  HZ I         850 44.06        12.7 0.40            134            148 259 
 SPBC HZ EP        850 17.57                             131    0.25 9  163 219 
 SPBC HN ES        850 40.18                             131    0.14 9  163 219 
 SPBC HZ I         850 46.75        13.6 0.28            132            163 219 
 ZAR  HZ EP        850 20.59                             124   -0.66 9  205 292 
 ZAR  HN ES        850 47.44                             124    0.41 9  205 292 
 ZAR  HN I         850 53.21        11.9 0.64            125            205 292 
 SML  HZ EP        850 24.96                             119   -0.40 8  244 335 
 SML  HE ES        850 54.18                             119   -0.17 8  244 335 
 SML  HZ I         850 58.37        13.8 0.10            122            244 335 
 HEL  HZ EP   4    850 30.65                             116    1.77 0  273 256 
 GUY2CHZ EP   4    850 34.77                             114    2.56 0  301 235 
                                                                                
