 2017  816 0934 16.0 L   6.836 -73.047147.6  RSN  4 0.2 1.3LRSN                1
 GAP=250        0.61       7.0     7.9  5.0  0.4583E+02 -0.3994E+01 -0.8102E+01E
 Epicentro: LOS SANTOS - SANTANDER                                             3
 ACTION:UPD 17-09-04 20:20 OP:rebc STATUS:               ID:20170816093416 L   I
 OLDACT:UP  17-08-16 16:58 OP:mg   STATUS:               ID:20170816092742     3
 OLDACT:REG 17-08-16 12:57 OP:mg   STATUS:               ID:20170816092742     3
 2017-08-16-0928-00M.COL___413                                                 6
 STAT SP IPHASW D HRMM SECON CODA AMPLIT PERI AZIMU VELO AIN AR TRES W  DIS CAZ7
 BAR2 EZ EP        934 35.79                             168   -0.2010 30.8 209 
 BAR2 EZ ES        934 51.41                             168   -0.1910 30.8 209 
 BAR2 EZ I         934 52.18         3.2 0.20            164           30.8 209 
 BRR  HZ EP        934 37.71                             150   -0.0810 79.3 292 
 BRR  HN ES        934 55.16                             150    0.3610 79.3 292 
 BRR  HZ I         934 58.19         5.2 0.44            147           79.3 292 
 RUS  HZ EP        934 40.27                             143    0.1010  104 182 
 RUS  HN ES        934 59.12                             143    0.0710  104 182 
 RUS  HZ I         934 59.78         2.6 0.42            143            104 182 
 ZAR  HZ EP        934 49.71                             122    0.28 8  213 290 
 ZAR  HN ES        935 15.17                             122   -0.36 8  213 290 
 ZAR  HZ I         935 19.34         1.5 0.28            121            213 290 
                                                                                
