 2010  816 0632 37.1 L   6.794 -73.018142.8  RSN 12 0.4 2.1LRSN                1
 GAP=173        0.86       3.1     6.1  6.0 -0.7234E+01 -0.5965E+00  0.1916E+01E
 Epicentro: CEPITA - SANTANDER                                                 3
 ACTION:UP  10-09-07 10:55 OP:vdl  STATUS:               ID:20100816063237 L   I
 2010-08-16-0630-18S.COL___111                                                 6
 STAT SP IPHASW D HRMM SECON CODA AMPLIT PERI AZIMU VELO SNR AR TRES W  DIS CAZ7
 BAR2 SZ EP        632 56.53                             168     0.010   29 219 
 BAR2 SZ ES   1    633 11.52                             168    -0.2 7   29 219 
 BAR2 SZ I         633 13.28        48.5 0.59                            29 219 
 GIR2 SZ EP   1    632 56.59                             165     0.0 7   37 328 
 BRR  HZ IP     C  632 58.41                             148    -0.310   84 294 
 BRR  HZ I         632 58.76        31.3 0.09                            84 294 
 BRR  HN ES        633 15.51                             148    -0.110   84 294 
 RUS  HZ EP   1    633  0.77                             143     0.2 7  100 184 
 RUS  HN ES   1    633 18.68                             143    -0.1 7  100 184 
 RUS  HZ I         633 20.34        11.9 1.34                           100 184 
 GUE  SZ EP        633  1.43                             139     0.010  115   5 
 GUE  SZ I         633  2.11         9.4 0.15                           115   5 
 GRA  SZ EP        633  2.30                             137     0.410  123  11 
 GRA  SZ I         633  3.48        27.2 0.31                           123  11 
 GRA  SZ ES   1    633 21.43                             137     0.3 7  123  11 
 OCA  SZ EP        633  4.80                             129    -0.7 9  163 348 
 OCA  SZ ES   1    633 28.11                             129     0.5 7  163 348 
 OCA  SZ I         633 30.80        29.5 0.62                           163 348 
 CHI  HZ EP   1    633 14.76                             116    -0.3 6  252 198 
 CHI  HN ES   1    633 45.02                             116     0.4 6  252 198 
 CHI  HZ I         633 49.79         4.6 0.06                           252 198 
 ROSC BN ES   1    633 46.66                             115     0.6 6  260 214 
 ROSC BZ I         633 54.76        11.6 1.51                           260 214 
 HEL  HZ EP   1    633 18.83                             113     0.1 6  286 257 
 HEL  HN ES   2    633 51.76                             113     0.6 4  286 257 
 HEL  HZ I         633 57.30         6.4 0.38                           286 257 
 RREF HZ EP   1    633 24.69                             110     0.3 5  332 231 
 RREF HN ES   2    634  1.15                             110     0.0 3  332 231 
 RREF HZ I         634  6.04         6.6 0.62                           332 231 
 PRA  HN ES   1    634 12.97                             106    -0.6 4  399 211 
 PRA  HZ I         634 18.13         5.9 1.94                           399 211 
                                                                                
