 2014  916 0939 53.7 L   6.798 -73.179142.6  RSN  6 0.4 1.5LRSN                1
 GAP=198        1.00       5.3     6.3  7.5  0.1157E+02  0.5530E+01 -0.1596E+02E
 Epicentro: LOS SANTOS - SANTANDER                                             3
 ACTION:UPD 14-10-03 23:05 OP:nd   STATUS:               ID:20140916093953 L   I
 OLDACT:REG 14-09-16 13:05 OP:carl STATUS:               ID:20140916093819     3
 2014-09-16-0938-19M.COL___257                                                 6
 STAT SP IPHASW D HRMM SECON CODA AMPLIT PERI AZIMU VELO AIN AR TRES W  DIS CAZ7
 BAR2 SZ EP        940 12.80                             171   -0.1310 22.7 181 
 BAR2 SZ ES        940 27.84                             171   -0.0910 22.7 181 
 BAR2 SZ I         940 28.58         7.9 0.14            175           22.7 181 
 BRR  HZ EP        940 14.89                             153    0.5710 68.1 300 
 BRR  HN ES        940 30.96                             153    0.5410 68.1 300 
 RUS  HN ES        940 35.20                             143   -0.2210  101 174 
 PTB  HZ EP        940 19.98                             132   -0.09 9  144 259 
 PTB  HN ES        940 40.20                             132   -0.45 9  144 259 
 PTB  HZ I         940 43.68         3.2 0.18            133            144 259 
 ZAR  HZ EP        940 26.27                             122    0.68 9  201 293 
 ZAR  HN ES        940 50.34                             122   -0.13 9  201 293 
 SML  HZ EP        940 29.62                             117   -0.38 8  242 336 
 SML  HN ES        940 57.75                             117   -0.57 8  242 336 
 SML  HZ I         941  6.41         2.4 0.22            117            242 336 
                                                                                
