 2014  516 0410 35.0 L   6.805 -73.147144.8  RSN 17 0.4 2.0LRSN                1
 GAP=136        0.91       2.4     3.4  5.5 -0.1212E+01  0.5222E+01  0.1441E+01E
 Epicentro: LOS SANTOS - SANTANDER                                             3
 ACTION:UPD 15-03-16 16:58 OP:nd   STATUS:               ID:20140516041035 L   I
 OLDACT:REG 14-05-16 12:57 OP:spq  STATUS:               ID:20140516040813     3
 2014-05-16-0408-13M.COL___251                                                 6
 STAT SP IPHASW D HRMM SECON CODA AMPLIT PERI AZIMU VELO AIN AR TRES W  DIS CAZ7
 BRR  HZ IP     C  410 56.47                             152    0.4610 70.8 298 
 BRR  HN ES        411 13.03                             152    0.6210 70.8 298 
 BRR  HZ I         411 17.43        19.5 0.10            148           70.8 298 
 PAM  SZ EP        410 57.59                             151    0.5110 77.0  40 
 PAM  SN ES        411 14.16                             151   -0.1510 77.0  40 
 PAM  SZ I         411 16.41        18.2 0.54            154           77.0  40 
 RUS  HZ EP   1    410 58.47                             143   -0.22 7  101 176 
 RUS  HN ES        411 16.93                             143   -0.2510  101 176 
 RUS  HZ I         411 17.83        10.0 0.24            144            101 176 
 PTB  HZ EP        411  1.15                             132   -0.73 9  148 259 
 PTB  HE ES        411 23.01                             132    0.16 9  148 259 
 PTB  HZ I         411 24.82         9.2 0.26            129            148 259 
 OCA  HZ EP   1    411  2.88                             130   -0.29 7  160 353 
 OCA  HN ES        411 24.36                             130   -0.79 9  160 353 
 OCA  HZ I         411 26.85         9.1 0.15            129            160 353 
 SPBC HZ EP        411  3.54                             129    0.09 9  164 219 
 SPBC HN ES        411 25.22                             129   -0.43 9  164 219 
 SPBC HZ I         411 26.67        12.9 0.25            127            164 219 
 ZAR  HZ EP        411  7.89                             122    0.56 9  204 292 
 ZAR  HN ES        411 32.82                             122    0.25 9  204 292 
 ZAR  HZ I         411 39.00        12.6 0.41            121            204 292 
 SML  HZ EP        411 11.24                             117   -0.26 8  243 335 
 SML  HN ES   1    411 40.24                             117    0.27 6  243 335 
 SML  HZ I         411 46.89        11.3 0.09            117            243 335 
 CHI  HZ EP   1    411 13.14                             117    0.45 6  249 195 
 CHI  HE ES   1    411 42.35                             117    0.25 6  249 195 
 CHI  HZ I         411 48.86         3.3 0.29            117            249 195 
 ROSC BN ES   1    411 43.10                             116    0.27 6  253 211 
 ROSC BZ I         411 50.87        10.4 0.50            116            253 211 
 HEL  HN ES   1    411 45.76                             115   -0.72 6  272 256 
 HEL  HZ I         411 53.35         4.2 0.42            114            272 256 
 URE  HN ES        411 47.60                             113   -0.34 7  283 292 
 URE  HZ I         412  0.38         6.1 0.20            113            283 292 
 GUY2CHE ES   1    411 52.81                             112    0.23 5  301 235 
 GUY2CHZ I         411 59.96         5.0 0.22                           301 235 
 RREF HZ EP   1    411 21.32                             111    0.20 5  322 229 
 RREF HN ES   1    411 57.17                             111    0.07 5  322 229 
 RREF HZ I         412  3.80         3.8 0.22            110            322 229 
 CBOC HE ES   2    411 58.44                             110    0.00 3  334 252 
 CBOC HZ I         412  2.37         1.9 0.22            109            334 252 
 PRA  HE ES   1    412  9.76                             106   -0.53 4  392 210 
 PRA  HZ I         412 19.31         4.1 0.40            106            392 210 
 ORTC HZ EP   1    411 29.56                             106    0.64 4  396 216 
 ORTC HN ES        412 10.68                             106   -0.31 6  396 216 
 ORTC HZ I         412 16.40         3.0 0.48            106            396 216 
                                                                                
