 2011  516 0955  8.3 L   6.794 -73.043152.3  RSN  5 0.3 1.6LRSN                1
 GAP=170        0.75       5.8    12.2 12.4  0.8815E+01 -0.7518E+02  0.5028E+01E
 Epicentro: LOS SANTOS - SANTANDER                                             3
 ACTION:UP  11-06-29 08:53 OP:tino STATUS:               ID:20110516095508 L   I
 2011-05-16-0952-19S.COL___139                                                 6
 STAT SP IPHASW D HRMM SECON CODA AMPLIT PERI AZIMU VELO SNR AR TRES W  DIS CAZ7
 BAR2 SZ EP        955 28.35                             169    -0.510   27 215 
 BRR  HZ EP        955 30.85                             150     0.110   82 295 
 BRR  HZ I         955 32.25        10.1 0.13                            82 295 
 BRR  HN ES   1    955 48.31                             150     0.0 7   82 295 
 RUS  HZ EP        955 32.94                             145     0.310  100 183 
 RUS  HZ I         955 52.45         2.7 0.24                           100 183 
 GRA  SZ ES   2    955 54.19                             139     0.2 5  123  12 
 OCA  SZ EP        955 37.35                             130     0.0 9  163 349 
 OCA  SZ I         956  4.29         7.5 0.41                           163 349 
                                                                                
