 2012  216 0644 17.7 L   6.773 -73.128141.0  RSN  7 0.5 1.7LRSN                1
 GAP=189        0.96       6.8     6.3  9.6  0.1098E+02  0.9813E+01 -0.3100E+01E
 ACTION:UP  12-03-07 16:30 OP:epov STATUS:               ID:20120216064417 L   I
 2012-02-16-0640-00M.COL___188                                                 6
 STAT SP IPHASW D HRMM SECON CODA AMPLIT PERI AZIMU VELO AIN AR TRES W  DIS CAZ7
 BAR2 SZ EP        644 36.75                             171    0.1010 20.9 197 
 BAR2 SZ ES   1    644 51.36                             171   -0.12 7 20.9 197 
 BAR2 SZ I         644 52.59         9.5 0.11                          20.9 197 
 GIR2 SZ EP   1    644 36.85                             165    0.00 7 34.5 348 
 BRR  HZ IP     C  644 38.68                             151    0.2210 74.3 300 
 BRR  HZ I         644 39.02        15.1 0.13                          74.3 300 
 BRR  HE ES   1    644 54.86                             151    0.16 7 74.3 300 
 RUS  HZ EP   1    644 40.79                             144    0.08 7 97.5 177 
 RUS  HN ES   1    644 58.75                             144    0.06 7 97.5 177 
 RUS  HZ I         645  1.33         4.5 0.34                          97.5 177 
 PTB  HZ EP   1    644 43.24                             131   -1.11 7  149 260 
 PTB  HN ES   1    645  4.37                             131   -0.81 7  149 260 
 ZAR  HN ES   1    645 15.91                             121    0.52 6  207 293 
 ZAR  HZ I         645 18.98         4.4 0.19                           207 293 
 NOR  SN ES   1    645 21.57                             118    0.84 6  235 235 
                                                                                
