 2017  716 0940  9.7 L   7.402 -73.193131.4  RSN  4 0.2 1.3LRSN                1
 GAP=184        0.49       4.9     2.9  6.3  0.4837E+00  0.8520E+01 -0.1060E+02E
 Epicentro: EL PLAYON - SANTANDER                                              3
 ACTION:UPD 17-08-30 15:33 OP:rebc STATUS:               ID:20170716094009 L   I
 OLDACT:REG 17-07-16 12:42 OP:dhb  STATUS:               ID:20170716093637     3
 2017-07-16-0938-00M.COL___368                                                 6
 STAT SP IPHASW D HRMM SECON CODA AMPLIT PERI AZIMU VELO AIN AR TRES W  DIS CAZ7
 PAM  EZ EP   2    940 29.52                             156    0.40 5 54.9  97 
 PAM  EN ES        940 44.27                             156   -0.0010 54.9  97 
 PAM  EZ I         940 46.83         2.8 0.32            156           54.9  97 
 BRR  HZ EP        940 28.81                             152   -0.1910 65.9 240 
 BRR  HN ES        940 43.91                             152   -0.1510 65.9 240 
 BRR  HZ I         940 44.37         7.5 0.32            151           65.9 240 
 BAR2 EZ ES        940 47.51                             144    0.0910 89.6 179 
 BAR2 EZ I         940 50.90         4.3 0.66            143           89.6 179 
 ZAR  HZ EP   2    940 38.86                             122   -0.29 4  184 273 
 ZAR  HN ES        941  2.38                             122    0.26 9  184 273 
 ZAR  HZ I         941  5.05         2.1 0.32            122            184 273 
                                                                                
