 2013  416 0858 35.9 L   6.801 -73.166149.5  RSN  9 0.5 1.7LRSN                1
 GAP=180        1.11       4.8     7.4  8.3  0.6774E+01  0.8625E+01 -0.8766E+01E
 Epicentro: LOS SANTOS - SANTANDER                                             3
 ACTION:UPD 13-05-22 14:38 OP:EP   STATUS:               ID:20130416085835 L   I
 2013-04-16-0848-50M.COL___202                                                 6
 STAT SP IPHASW D HRMM SECON CODA AMPLIT PERI AZIMU VELO AIN AR TRES W  DIS CAZ7
 BAR2 SZ ES   1    859 10.88                             171   -0.70 7 23.1 184 
 GIR2 SZ EP        858 55.98                             168    0.0310 30.9 354 
 GIR2 SZ I         859 12.59        11.4 0.56            164           30.9 354 
 BRR  HZ IP     C  858 57.56                             154    0.2710 69.2 299 
 BRR  HN ES   1    859 14.69                             154    0.68 7 69.2 299 
 BRR  HZ I         859 17.80        12.3 0.38            153           69.2 299 
 RUS  HZ EP        859  0.34                             144    0.3510  101 175 
 RUS  HN ES   1    859 18.84                             144    0.03 7  101 175 
 RUS  HZ I         859 20.04         2.5 0.56            149            101 175 
 PTB  HZ EP        859  2.35                             133   -0.58 9  146 259 
 PTB  HN ES   1    859 23.43                             133   -0.61 7  146 259 
 PTB  HZ I         859 26.53         5.8 0.12            135            146 259 
 OCA  HN ES        859 26.34                             130   -0.36 9  160 354 
 ZAR  HZ EP        859  8.86                             123    0.54 9  202 292 
 ZAR  HN ES   1    859 34.05                             123    0.40 6  202 292 
 ZAR  HZ I         859 41.90         3.9 0.14            124            202 292 
 SML  HZ EP        859 13.09                             118    0.51 8  243 336 
 SML  HN ES   1    859 41.18                             118   -0.04 6  243 336 
 SML  HZ I         859 49.26         7.1 0.46            118            243 336 
 SJC  HZ EP        859 30.04                             106   -1.34 6  408 327 
                                                                                
