 2011  816 0838 18.5 L   6.808 -73.075140.0  RSN  4 0.3 1.3LRSN                1
 GAP=245        0.66       5.8     7.0  7.8  0.1103E+02  0.7673E+01  0.6296E+01E
 Epicentro: LOS SANTOS - SANTANDER                                             3
 ACTION:UPD 12-07-13 15:52 OP:ep   STATUS:               ID:20110816083818 L   I
 2011-08-16-0834-23S.COL___150                                                 6
 STAT SP IPHASW D HRMM SECON CODA AMPLIT PERI AZIMU VELO AIN AR TRES W  DIS CAZ7
 BAR2 SZ EP   1    838 37.49                             169   -0.05 7 26.6 206 
 BAR2 SZ I         838 37.64         5.4 0.20                          26.6 206 
 BAR2 SZ ES   1    838 51.80                             169   -0.57 7 26.6 206 
 BRR  HZ EP   1    838 39.34                             149   -0.11 7 77.8 295 
 BRR  HZ I         838 39.78         5.4 0.12                          77.8 295 
 BRR  HN ES   1    838 56.19                             149    0.41 7 77.8 295 
 RUS  HZ EP   1    838 41.81                             142    0.05 7  101 181 
 RUS  HZ I         838 42.69         1.7 0.14                           101 181 
 RUS  HE ES   1    839  0.29                             142    0.40 7  101 181 
 NOR  SN ES   1    839 22.68                             116   -0.19 6  242 235 
                                                                                
