 2012  416 0706 39.0 L   6.764 -73.110143.3  RSN  6 0.4 1.6LRSN                1
 GAP=143        0.92       6.6     6.1  9.6 -0.1538E+01  0.2414E+02 -0.1150E+02E
 Epicentro: LOS SANTOS - SANTANDER                                             3
 ACTION:UPD 12-07-05 11:53 OP:tino STATUS:               ID:20120416070639 L   I
 2012-04-16-0659-50M.COL___160                                                 6
 STAT SP IPHASW D HRMM SECON CODA AMPLIT PERI AZIMU VELO AIN AR TRES W  DIS CAZ7
 BAR2 SZ EP   1    7 6 57.83                             171    -0.5 7   21 203 
 BAR2 SZ ES   1    7 7 13.00                             171    -0.4 7   21 203 
 BAR2 SZ I         7 7 15.07        11.1 0.23                            21 203 
 BRR  HZ EP   1    7 7  0.43                             150     0.2 7   77 300 
 BRR  HN ES   1    7 7 17.38                             150     0.6 7   77 300 
 BRR  HZ I         7 7 18.97        11.3 0.12                            77 300 
 PAM  SZ EP   1    7 7  1.52                             150     0.5 7   78  35 
 PAM  SN ES   1    7 7 17.93                             150    -0.3 7   78  35 
 PAM  SZ I         7 7 21.05         2.9 0.29                            78  35 
 RUS  HN ES   1    7 7 20.52                             144     0.2 7   96 178 
 RUS  HZ I         7 7 22.79         4.1 0.37                            96 178 
 ZAR  HZ EP   1    7 7 11.68                             121    -0.2 6  209 293 
 ZAR  HN ES   1    7 7 36.99                             121    -0.5 6  209 293 
 ZAR  HZ I         7 7 43.19         4.2 0.18                           209 293 
 HEL  HE ES   1    7 7 51.11                             114     0.2 6  275 257 
 HEL  HZ I         7 7 58.53         2.3 0.28                           275 257 
                                                                                
