 2012  616 0727 45.0 L   6.760 -73.175132.4  RSN  4 0.5 1.4LRSN                1
 GAP=240        0.74      10.9    11.0 13.8  0.6568E+02  0.6000E+02 -0.2670E+02E
 Epicentro: VILLANUEVA - SANTANDER                                             3
 ACTION:UPD 12-08-06 17:49 OP:ep   STATUS:               ID:20120616072745 L   I
 2012-06-16-0720-00M.COL___198                                                 6
 STAT SP IPHASW D HRMM SECON CODA AMPLIT PERI AZIMU VELO AIN AR TRES W  DIS CAZ7
 BAR2 SZ EP   2    728  2.27                             172   -0.68 5 18.6 182 
 BAR2 SZ ES   1    728 16.91                             172   -0.02 7 18.6 182 
 BAR2 SZ I         728 18.55         7.2 0.28                          18.6 182 
 RUS  HN ES   1    728 24.74                             142    0.29 7 96.5 174 
 RUS  HZ I         728 26.10         3.1 0.27                          96.5 174 
 PTB  HN ES   2    728 29.68                             130   -0.78 5  144 260 
 ZAR  HZ EP   2    728 16.68                             119    0.19 4  203 294 
 ZAR  HE ES   2    728 41.89                             119    0.85 4  203 294 
 ZAR  HZ I         728 47.30         3.6 0.35                           203 294 
                                                                                
