 2013  616 0924  7.3 L   6.765 -73.136148.2  RSN  7 0.4 1.6LRSN                1
 GAP=201        0.98       5.3     6.3  7.1  0.1642E+02 -0.1633E+01 -0.8868E+01E
 Epicentro: LOS SANTOS - SANTANDER                                             3
 ACTION:UPD 14-01-08 09:55 OP:ep   STATUS:               ID:20130616092407 L   I
 OLDACT:REG 13-06-16 07:46 OP:cam  STATUS:               ID:20130616091959     3
 2013-06-16-0919-59M.COL___261                                                 6
 STAT SP IPHASW D HRMM SECON CODA AMPLIT PERI AZIMU VELO AIN AR TRES W  DIS CAZ7
 BAR2 SZ EP        924 27.11                             173   -0.0110 19.8 195 
 BAR2 SZ ES   1    924 42.29                             173   -0.33 7 19.8 195 
 BAR2 SZ I         924 43.33         7.8 0.27            163           19.8 195 
 BRR  HZ EP   1    924 29.21                             153    0.37 7 74.0 301 
 BRR  HN ES        924 46.46                             153    0.7910 74.0 301 
 BRR  HZ I         924 51.00         6.1 0.16            142           74.0 301 
 RUS  HZ EP        924 30.92                             146   -0.0610 96.6 176 
 RUS  HN ES        924 49.59                             146    0.1110 96.6 176 
 RUS  HZ I         924 50.98         4.5 0.30            131           96.6 176 
 PTB  HZ EP        924 34.23                             133   -0.23 9  148 260 
 PTB  HN ES        924 54.88                             133   -0.79 9  148 260 
 PTB  HZ I         924 55.85         5.4 0.12            119            148 260 
 ZAR  HZ EP   2    924 40.68                             123    0.56 4  206 293 
 ZAR  HN ES        925  5.84                             123    0.09 8  206 293 
 ZAR  HZ I         925 11.82         4.0 0.36            111            206 293 
 SML  HZ EP        924 44.12                             118   -0.33 8  248 335 
 SML  HN ES   1    925 13.20                             118   -0.26 6  248 335 
 SML  HZ I         925 21.14         6.4 0.10            107            248 335 
 PRA  HZ EP   1    925  1.39                             107    0.86 4  389 210 
 PRA  HZ I         925 50.48         1.4 0.42             97            389 210 
                                                                                
