 2016  916 0532 31.1 L   6.799 -73.144137.3  RSN  7 0.2 1.1LRSN                1
 GAP=137        0.61       2.5     2.5  3.9 -0.1682E+00  0.2723E+01  0.1913E+00E
 Epicentro: LOS SANTOS - SANTANDER                                             3
 ACTION:UPD 17-08-17 21:12 OP:lp   STATUS:               ID:20160916053231 L   I
 OLDACT:REG 16-09-16 13:08 OP:ar   STATUS:               ID:20160916052732     3
 2016-09-16-0528-00M.COL___348                                                 6
 STAT SP IPHASW D HRMM SECON CODA AMPLIT PERI AZIMU VELO AIN AR TRES W  DIS CAZ7
 BAR2 EZ EP        532 49.52                             170   -0.1510 23.2 190 
 BAR2 EZ ES        533  4.46                             170    0.2710 23.2 190 
 BAR2 EZ I         533  5.48         6.6 0.32            170           23.2 190 
 BRR  HZ IP     C  532 51.21                             151   -0.1010 71.4 299 
 BRR  HE ES        533  7.37                             151    0.2610 71.4 299 
 BRR  HZ I         533 11.50         2.8 0.32            149           71.4 299 
 PAM  EZ EP        532 52.42                             149    0.0410 77.4  39 
 PAM  EN ES        533  8.85                             149   -0.1710 77.4  39 
 PAM  EZ I         533 11.91         1.5 0.21            153           77.4  39 
 RUS  HZ EP        532 53.96                             142   -0.0210  100 176 
 RUS  HN ES        533 11.67                             142   -0.1810  100 176 
 RUS  HZ I         533 13.10         1.8 0.26            146            100 176 
 PTB  HZ EP        532 57.53                             130    0.17 9  148 259 
 PTB  HN ES        533 17.43                             130   -0.45 9  148 259 
 PTB  HZ I         533 24.58         1.7 0.30            131            148 259 
 SPBC HZ EP        532 58.88                             127   -0.04 9  163 219 
 SPBC HN ES        533 20.90                             127    0.25 9  163 219 
 SPBC HZ I         533 23.08         2.0 0.14            129            163 219 
 ZAR  HZ EP        533  3.39                             120    0.40 9  204 292 
 ZAR  HE ES        533 27.65                             120   -0.24 9  204 292 
 ZAR  HZ I         533 33.65         1.6 0.17            122            204 292 
                                                                                
