 2014  316 0730 41.9 L   6.818 -73.196148.6  RSN  5 0.2 1.4LRSN                1
 GAP=130        0.46       2.3     2.6  4.5 -0.1930E+01  0.4155E+01 -0.3329E+01E
 Epicentro: ZAPATOCA - SANTANDER                                               3
 OLDACT:DUP 14-03-16 12:57 OP:fm   STATUS:               ID:20140316072817d    3
 ACTION:UPD 14-04-09 23:17 OP:nd   STATUS:               ID:20140316073041 L   I
 OLDACT:UP  14-03-16 13:02 OP:fm   STATUS:               ID:20140316072817d    3
 2014-03-16-0728-16M.COL___239                                                 6
 STAT SP IPHASW D HRMM SECON CODA AMPLIT PERI AZIMU VELO AIN AR TRES W  DIS CAZ7
 PAM  SZ EP        731  4.90                             151    0.3310 79.6  44 
 PAM  SN ES        731 22.08                             151   -0.1510 79.6  44 
 PAM  SZ I         731 23.84         2.8 0.44            151           79.6  44 
 RUS  HZ EP        731  6.05                             144   -0.0810  103 173 
 RUS  HN ES        731 25.01                             144   -0.0110  103 173 
 RUS  SZ I         731 26.35         3.6 2.00            149            103 173 
 PTB  HZ EP        731  8.48                             134   -0.20 9  143 258 
 PTB  HN ES        731 29.57                             134    0.02 9  143 258 
 SPBC HN ES   1    731 32.95                             130    0.22 7  161 217 
 SML  HZ EP        731 18.17                             118   -0.10 8  240 336 
 SML  HE ES   2    731 46.80                             118    0.18 4  240 336 
 SML  SZ I         731 56.01         3.2 1.14            119            240 336 
                                                                                
