 2013 1116 0254 28.8 L   7.434 -72.946180.4  RSN 10 0.4 2.1LRSN                1
 GAP=210        0.78       3.4     5.1  5.7  0.7941E+00  0.7968E-01  0.9024E+00E
 Epicentro: CALIFORNIA - SANTANDER                                             3
 ACTION:UPD 14-01-09 16:28 OP:ep   STATUS:               ID:20131116025428 L   I
 OLDACT:REG 13-11-16 10:04 OP:nd   STATUS:               ID:20131116025000     3
 2013-11-16-0250-00M.COL___279                                                 6
 STAT SP IPHASW D HRMM SECON CODA AMPLIT PERI AZIMU VELO AIN AR TRES W  DIS CAZ7
 BRR  HZ IP     C  254 55.33                             152    0.4410 92.0 247 
 BRR  HN ES   2    255 15.18                             152   -0.05 5 92.0 247 
 BRR  HZ I         255 22.35        16.2 0.12            149           92.0 247 
 BAR2 SZ EP        254 55.47                             151   -0.0410 96.7 196 
 BAR2 SZ ES        255 16.37                             151    0.0410 96.7 196 
 BAR2 SZ I         255 18.93        25.4 0.46            150           96.7 196 
 OCA  HZ EP        254 55.38                             150   -0.1010 98.1 335 
 OCA  HN ES        255 16.15                             150   -0.1210 98.1 335 
 OCA  HZ I         255 18.41        18.3 0.40            151           98.1 335 
 RUS  HZ EP        255  1.64                             135    0.23 9  171 185 
 RUS  HN ES   2    255 26.85                             135    0.02 4  171 185 
 RUS  HZ I         255 30.02         2.1 0.22            137            171 185 
 PTB  HZ EP        255  2.80                             131   -0.02 9  194 239 
 PTB  HN ES        255 28.72                             131   -0.61 9  194 239 
 PTB  HZ I         255 32.59         7.5 0.16            131            194 239 
 SML  HZ EP        255  2.80                             130   -0.13 9  196 321 
 SML  HN ES   2    255 28.82                             130   -0.72 4  196 321 
 SML  HZ I         255 31.88        43.3 0.10            132            196 321 
 ZAR  HZ EP        255  4.65                             128    0.23 8  211 272 
 ZAR  HN ES        255 32.91                             128    0.72 8  211 272 
 ZAR  HZ I         255 39.79        13.8 0.32            129            211 272 
 COD  HZ EP   4    255 10.51                             120   -1.06 0  282 349 
 COD  HN ES   4    255 42.62                             120   -2.30 0  282 349 
 COD  HZ I         255 44.37         2.8 0.32            123            282 349 
 NOR  HZ EP        255 12.59                             119   -0.62 7  297 226 
 NOR  HN ES   2    255 47.63                             119   -0.21 4  297 226 
 NOR  HZ I         255 53.67         4.4 0.24            120            297 226 
 SJC  HZ EP   4    255 20.15                             113   -0.78 0  367 318 
 SJC  HN ES   4    255 58.53                             113   -3.04 0  367 318 
 SJC  HZ I         256  2.83         6.9 0.54            115            367 318 
                                                                                
