 2013  916 0402 25.5 L   6.821 -73.163147.7  RSN 14 0.4 2.3LRSN                1
 GAP=181        1.01       2.6     5.1  5.3  0.9750E+00  0.5140E+01  0.9002E+00E
 Epicentro: LOS SANTOS - SANTANDER                                             3
 ACTION:UPD 13-10-22 09:23 OP:ep   STATUS:               ID:20130916040225 L   I
 OLDACT:REG 13-09-16 07:38 OP:jn   STATUS:               ID:20130916035959     3
 2013-09-16-0359-59M.COL___269                                                 6
 STAT SP IPHASW D HRMM SECON CODA AMPLIT PERI AZIMU VELO AIN AR TRES W  DIS CAZ7
 BAR2 SZ EP        4 2 45.51                             170    0.0810 25.4 185 
 BAR2 SZ ES        4 3  0.64                             170   -0.3110 25.4 185 
 BAR2 SZ I         4 3  1.66        46.3 0.22            170           25.4 185 
 BRR  HZ EP        4 2 47.28                             154    0.5510 68.4 298 
 BRR  HN ES        4 3  4.40                             154    1.1310 68.4 298 
 BRR  HZ I         4 3  5.33        24.0 0.22            147           68.4 298 
 RUS  HZ EP        4 2 50.02                             144    0.3810  103 175 
 RUS  HN ES        4 3  8.26                             144   -0.1910  103 175 
 RUS  HZ I         4 3  9.21        28.1 0.24            141            103 175 
 PTB  HZ EP        4 2 52.16                             133   -0.37 9  146 258 
 PTB  HN ES   1    4 3 12.88                             133   -0.71 7  146 258 
 OCA  HZ EP        4 2 53.47                             131   -0.28 9  158 354 
 OCA  HN ES        4 3 15.37                             131   -0.40 9  158 354 
 OCA  HZ I         4 3 18.83        18.0 0.18            125            158 354 
 SPBC HZ EP        4 2 54.41                             129    0.18 9  164 218 
 SPBC HE ES   1    4 3 16.12                             129   -0.50 7  164 218 
 SPBC HZ I         4 3 18.89        36.1 0.30            124            164 218 
 ZAR  HZ EP        4 2 58.01                             123    0.18 9  201 292 
 ZAR  HN ES        4 3 22.86                             123   -0.17 9  201 292 
 ZAR  HZ I         4 3 28.73        15.3 0.52            117            201 292 
 NOR  HZ EP        4 3  1.51                             119    0.16 8  235 234 
 NOR  HN ES   1    4 3 28.89                             119   -0.40 6  235 234 
 NOR  HZ I         4 3 37.41        16.6 0.14            114            235 234 
 SML  HZ EP        4 3  1.60                             118   -0.35 8  241 335 
 SML  HE ES        4 3 30.18                             118   -0.18 8  241 335 
 SML  HZ I         4 3 33.82        26.3 0.10            113            241 335 
 CHI  HZ EP        4 3  3.61                             117    0.09 8  250 195 
 CHI  HN ES        4 3 32.63                             117   -0.53 8  250 195 
 CHI  HZ I         4 3 36.47        13.1 0.50            113            250 195 
 GUY2CHZ EP   1    4 3  9.34                             113    0.14 5  301 234 
 GUY2CHZ I         4 3 49.68         8.6 0.36                           301 234 
 PRA  HZ EP        4 3 19.51                             107    0.27 6  393 209 
 PRA  HE ES   1    4 4  1.27                             107    0.13 4  393 209 
 PRA  HZ I         4 4  7.95         6.2 0.18            103            393 209 
 ORTC HN ES   1    4 4  2.84                             107    1.06 4  396 216 
 ORTC HZ I         4 4  6.84         7.0 0.30            103            396 216 
 SJC  HZ EP   4    4 3 19.64                             106   -1.17 0  406 327 
 SJC  HZ I         4 4  8.30         3.4 0.66            102            406 327 
                                                                                
