 2017  116 0600 43.5 L   6.779 -73.145145.1  RSN  5 0.3 1.1LRSN                1
 GAP=138        0.76       5.5     5.8  6.7  0.1864E+02 -0.8595E+01 -0.1130E+02E
 Epicentro: LOS SANTOS - SANTANDER                                             3
 ACTION:UPD 17-05-22 16:00 OP:jn   STATUS:               ID:20170116060043 L   I
 OLDACT:UP  17-01-16 17:35 OP:dani STATUS:               ID:20170116055741     3
 OLDACT:REG 17-01-16 13:18 OP:dani STATUS:               ID:20170116055741     3
 2017-01-16-0558-00M.COL___335                                                 6
 STAT SP IPHASW D HRMM SECON CODA AMPLIT PERI AZIMU VELO AIN AR TRES W  DIS CAZ7
 BAR2 HZ EP        6 1  3.09                             171    0.0510 21.0 191 
 BAR2 HZ ES        6 1 17.76                             171   -0.5010 21.0 191 
 BAR2 HZ I         6 1 20.62         2.9 0.22            169           21.0 191 
 BRR  HZ EP        6 1  4.74                             152    0.0610 72.4 300 
 BRR  HN ES        6 1 21.68                             152    0.5010 72.4 300 
 BRR  HZ I         6 1 23.11         3.2 0.48            150           72.4 300 
 PAM  HZ EP        6 1  5.75                             150   -0.0410 79.2  38 
 RUS  HZ EP        6 1  7.07                             144    0.0210 98.2 176 
 RUS  HE ES        6 1 25.56                             144    0.1610 98.2 176 
 RUS  HZ I         6 1 26.84         1.7 0.32            145           98.2 176 
 PTB  HZ EP   4    6 1  4.16                             132   -6.26 0  147 260 
 ZAR  HN ES        6 1 41.04                             122   -0.35 9  205 293 
 ZAR  HZ I         6 1 46.16         1.1 0.28            122            205 293 
                                                                                
