 2016  916 0959  4.4 L   7.402 -73.199133.8  RSN  7 0.3 1.6LRSN                1
 GAP=105        0.68       3.0     3.9  4.7 -0.1197E+01  0.7534E+01 -0.2276E+01E
 Epicentro: EL PLAYON - SANTANDER                                              3
 ACTION:UPD 17-08-17 21:13 OP:lp   STATUS:               ID:20160916095905dL   I
 OLDACT:DUP 16-09-16 20:38 OP:dnl  STATUS:               ID:20160916095733d    3
 2016-09-16-0958-00M.COL___354                                                 6
 STAT SP IPHASW D HRMM SECON CODA AMPLIT PERI AZIMU VELO AIN AR TRES W  DIS CAZ7
 PAM  EZ EP        959 24.33                             157    0.1710 55.5  97 
 PAM  EN ES        959 39.29                             157   -0.2510 55.5  97 
 PAM  EZ I         959 40.48         7.2 0.14            161           55.5  97 
 BRR  HZ EP        959 24.16                             152    0.2010 65.4 240 
 BRR  HN ES        959 39.54                             152    0.3510 65.4 240 
 BRR  HZ I         959 39.84         6.0 0.38            151           65.4 240 
 BAR2 EZ EP        959 26.03                             144    0.1810 89.5 179 
 BAR2 EZ ES        959 42.25                             144   -0.3110 89.5 179 
 BAR2 EZ I         959 43.58         8.3 0.12            146           89.5 179 
 OCA  HZ EP        959 26.12                             143    0.1010 93.5 352 
 OCA  HN ES        959 42.80                             143   -0.0710 93.5 352 
 OCA  HZ I         959 45.03        11.4 0.28            144           93.5 352 
 PTB  HZ EP        959 32.27                             125   -0.20 9  169 236 
 PTB  HE ES   2    959 53.49                             125   -0.85 5  169 236 
 PTB  HZ I         959 57.24         3.2 0.14            126            169 236 
 ZAR  HZ EP        959 34.24                             123    0.27 9  183 273 
 ZAR  HN ES   3    959 57.14                             123    0.13 2  183 273 
 ZAR  HZ I        10 0  0.75         6.7 0.42            123            183 273 
 SJC  HZ EP        959 52.26                             106   -0.58 6  352 322 
 SJC  HN ES   4   10 0 27.33                             106   -3.27 0  352 322 
 SJC  HZ I        10 0 31.31         1.0 0.38            107            352 322 
                                                                                
