 2014 1016 0634 51.8 L   6.557 -73.565103.1  RSN 11 0.5 2.1LRSN                1
 GAP= 76        0.98       3.2     3.4  6.0 -0.2508E+01  0.4795E+01  0.4288E+01E
 Epicentro: EL CARMEN - SANTANDER                                              3
 ACTION:UPD 14-11-29 23:50 OP:nd   STATUS:               ID:20141016063451 L   I
 OLDACT:UP  14-10-16 16:50 OP:mh   STATUS:               ID:20141016062742     3
 OLDACT:REG 14-10-16 12:34 OP:fm   STATUS:               ID:20141016062742     3
 2014-10-16-0627-42M.COL___297                                                 6
 STAT SP IPHASW D HRMM SECON CODA AMPLIT PERI AZIMU VELO AIN AR TRES W  DIS CAZ7
 BAR2 SZ IP     D  635  7.56                             156    0.4410 42.5  85 
 BAR2 SZ ES        635 19.25                             156    0.2110 42.5  85 
 BRR  HZ EP        635  7.93                             146   -0.0610 62.9 345 
 BRR  HZ I         635 16.03        18.6 0.28            141           62.9 345 
 BRR  HN ES        635 21.00                             146    0.4210 62.9 345 
 RUS  HZ EP     D  635 10.48                             136   -0.3610 90.8 144 
 RUS  HN ES   1    635 25.84                             136    0.18 7 90.8 144 
 RUS  HZ I         635 27.20        18.9 0.40            132           90.8 144 
 PTB  HZ EP   1    635 10.14                             133   -0.72 7 98.5 269 
 PTB  HN ES        635 24.88                             133   -0.8210 98.5 269 
 PTB  HZ I         635 26.25        28.8 0.14            129           98.5 269 
 PAM  SZ EP   1    635 14.16                             124   -0.24 7  129  48 
 PAM  SN ES        635 31.80                             124   -0.2010  129  48 
 PAM  SZ I         635 36.52        12.1 0.40            120            129  48 
 OCA  HZ EP   1    635 19.54                             113   -0.74 7  188   8 
 OCA  HN ES        635 42.90                             113    0.43 9  188   8 
 OCA  HZ I         635 48.55        30.3 0.38            111            188   8 
 HEL  HZ EP   1    635 24.83                             109    0.52 6  221 260 
 HEL  HN ES   1    635 50.39                             109    0.75 6  221 260 
 HEL  HZ I         635 52.04         7.0 0.24            108            221 260 
 GUY2CHZ EP   1    635 28.16                             107    0.59 6  248 234 
 GUY2CHN ES   4    635 57.60                             107    2.17 0  248 234 
 GUY2CHZ I         636  2.18         8.3 0.40                           248 234 
 MON  HZ EP   4    635 35.78                             100   -1.85 0  338 317 
 MON  HN ES   4    636 12.26                             100   -1.08 0  338 317 
 MON  HZ I         636 15.45         4.3 0.28            101            338 317 
 PRA  HZ EP   1    635 38.86                             100    0.07 5  347 205 
 ORTC HN ES   1    636 15.45                             100   -0.01 5  347 213 
 PRA  HN ES        636 15.44                             100    0.02 6  347 205 
 ORTC HZ I         636 23.85         5.7 0.38            101            347 213 
 PRA  HZ I         636 20.11        10.9 0.22            101            347 205 
 ORTC HZ EP   1    635 39.03                             100    0.21 5  347 213 
                                                                                
