 2011  516 0744 21.4 L   6.785 -73.112141.9  RSN  9 0.5 2.6LRSN                1
 GAP=141        1.24       5.6     7.8  9.2 -0.1678E+02  0.1795E+02  0.8761E+00E
 Epicentro: LOS SANTOS - SANTANDER                                             3
 ACTION:UP  11-06-29 08:53 OP:tino STATUS:               ID:20110516074421 L   I
 2011-05-16-0740-17S.COL___139                                                 6
 STAT SP IPHASW D HRMM SECON CODA AMPLIT PERI AZIMU VELO SNR AR TRES W  DIS CAZ7
 BAR2 SZ IP        744 40.40                             170    -0.110   23 200 
 BAR2 SZ ES   2    744 55.18                             170    -0.3 5   23 200 
 BAR2 SZ I         744 56.71        90.2 0.37                            23 200 
 BRR  HZ IP     C  744 42.30                             150     0.010   75 298 
 BRR  HZ I         744 42.58       212.0 0.13                            75 298 
 BRR  HN ES   1    744 59.36                             150     0.7 7   75 298 
 PAM  SZ EP        744 43.08                             151     0.010   76  37 
 PAM  SN ES   1    745  0.30                             151     0.2 7   76  37 
 RUS  HZ EP        744 44.34                             143    -0.310   99 178 
 RUS  HN ES   1    745  2.55                             143    -0.2 7   99 178 
 RUS  HZ I         745  4.29        39.1 0.38                            99 178 
 BRI  SZ IP        744 44.96                             141     0.010  109  19 
 BRI  SZ ES   2    745  3.75                             141     0.5 5  109  19 
 GRA  SZ IP        744 46.20                             136    -0.110  126  16 
 GRA  SZ ES   1    745  5.91                             136     0.1 7  126  16 
 GRA  SZ I         745  6.88        39.6 0.24                           126  16 
 OCA  SZ EP        744 48.84                             128    -0.8 9  162 352 
 ROSC BZ EP        745  0.39                             116     1.1 8  253 212 
 HEL  HZ EP        745  2.61                             114     0.9 8  275 256 
 HEL  HN ES   1    745 31.95                             114    -1.3 6  275 256 
 HEL  HZ I         745 38.80        17.3 0.31                           275 256 
                                                                                
