 2016  616 0256 20.4 L   6.809 -73.130154.5  RSN 20 0.4 2.4LRSN                1
 GAP=102        0.80       2.3     2.7  4.2 -0.1398E+01  0.7915E+00  0.2159E+01E
 Epicentro: LOS SANTOS - SANTANDER                                             3
 ACTION:UPD 16-07-21 22:19 OP:rebc STATUS:               ID:20160616025620 L   I
 OLDACT:UP  16-06-16 15:03 OP:dani STATUS:               ID:20160616024745     3
 OLDACT:REG 16-06-16 12:36 OP:dani STATUS:               ID:20160616024745     3
 2016-06-16-0247-45M.COL___334                                                 6
 STAT SP IPHASW D HRMM SECON CODA AMPLIT PERI AZIMU VELO AIN AR TRES W  DIS CAZ7
 BAR2 EZ EP        256 40.90                             171   -0.1610 24.7 194 
 BAR2 EZ I         256 57.36        81.7 0.16                          24.7 194 
 BRR  HZ IP     C  256 42.76                             154    0.2510 72.3 297 
 BRR  HN ES        257  0.14                             154    0.3510 72.3 297 
 BRR  HZ I         257  1.00        27.4 0.12                          72.3 297 
 PAM  EZ EP        256 43.74                             153    0.3410 75.5  39 
 PAM  EN ES        257  1.52                             153    0.1510 75.5  39 
 PAM  EZ I         257  3.40        23.4 0.52                          75.5  39 
 RUS  HZ EP        256 45.16                             145    0.1210  101 177 
 RUS  HN ES        257  4.02                             145   -0.2610  101 177 
 RUS  HZ I         257  5.35        32.0 0.42                           101 177 
 PTB  HZ EP        256 47.39                             134   -0.83 9  150 259 
 PTB  HN ES   4    257  8.96                             134   -0.98 0  150 259 
 PTB  HZ I         257 10.77        33.1 0.36                           150 259 
 OCA  HZ EP        256 49.50                             132    0.21 9  159 352 
 OCA  HE ES        257 11.42                             132   -0.43 9  159 352 
 OCA  HZ I         257 15.74        48.8 0.32                           159 352 
 SPBC HZ EP        256 49.83                             131    0.12 9  165 219 
 SPBC HE ES        257 12.23                             131   -0.37 9  165 219 
 SPBC HZ I         257 14.71        59.8 0.24                           165 219 
 ZAR  HZ EP        256 53.37                             124   -0.14 8  205 292 
 ZAR  HN ES        257 19.54                             124    0.17 8  205 292 
 ZAR  HZ I         257 29.50        20.8 0.36                           205 292 
 NOR  HZ EP        256 56.74                             120   -0.08 8  237 235 
 NOR  HE ES        257 25.40                             120    0.15 8  237 235 
 NOR  HZ I         257 28.39        22.7 0.16                           237 235 
 CHI  HZ EP        256 58.92                             119    0.21 8  250 195 
 CHI  HN ES        257 28.66                             119    0.04 8  250 195 
 CHI  HZ I         257 36.34         9.5 0.32                           250 195 
 HEL  HZ EP   4    257  2.60                             116    1.36 0  274 256 
 HEL  HE ES        257 32.98                             116   -0.14 8  274 256 
 HEL  HZ I         257 38.97        14.3 0.28                           274 256 
 SOCV BZ EP        257  3.71                             114    0.12 7  299  57 
 SOCV BN ES   4    257 35.53                             114   -1.79 0  299  57 
 GUY2CHZ EP   9    257  6.86                             114    2.26 0  303 235 
 GUY2CHE ES        257 41.35                             113   -0.02 7  303 235 
 GUY2CHZ I         257 48.07         9.6 0.34                           303 235 
 PTGC HZ EP        257  3.87                             113   -0.78 7  309 159 
 PTGC HN ES   4    257 37.27                             113   -1.93 0  309 159 
 PTGC HZ I         257 39.80         8.1 0.21                           309 159 
 ELA  HZ EP   4    257 10.46                             112    2.65 0  331 230 
 ELA  HN ES   4    257 42.25                             112   -2.58 0  331 230 
 ELA  HZ I         257 52.39         8.8 0.42                           331 230 
 CBOC HZ EP   4    257  9.29                             111    1.42 0  336 252 
 CBOC HE ES        257 44.68                             111   -0.25 7  336 252 
 CBOC HZ I         257 46.30         3.5 0.38                           336 252 
 PRA  HZ EP        257 14.45                             108    0.06 6  394 210 
 PRA  HE ES        257 57.57                             108    1.03 6  394 210 
 PRA  HZ I         258  2.99         8.7 0.26                           394 210 
 ORTC HZ EP        257 15.16                             108    0.36 6  397 216 
 ORTC HE ES   4    257 58.64                             108    1.38 0  397 216 
 ORTC HZ I         258  4.01         6.9 0.60                           397 216 
 PAL  HZ EP        257 16.41                             107    0.36 6  408 239 
 PAL  HN ES   4    257 56.93                             107   -2.56 0  408 239 
 PAL  HZ I         258  3.58         4.4 0.22                           408 239 
 SJC  HZ EP   4 D  257 15.05                             107   -1.18 0  409 327 
 SJC  HE ES   4    257 56.32                             107   -3.49 0  409 327 
 SJC  HZ I         258  4.36         3.2 0.34                           409 327 
                                                                                
