 2016  716 0813 59.6 L   6.801 -73.164148.1  RSN 10 0.4 2.0LRSN                1
 GAP=236        0.92       4.3     4.8  5.9  0.5493E+01  0.6327E+01  0.1679E+01E
 Epicentro: LOS SANTOS - SANTANDER                                             3
 ACTION:UPD 17-03-29 16:51 OP:lp   STATUS:               ID:20160716081359 L   I
 OLDACT:REG 16-07-16 12:29 OP:lv   STATUS:               ID:20160716080759     3
 2016-07-16-0807-59S.COL___316                                                 6
 STAT SP IPHASW D HRMM SECON CODA AMPLIT PERI AZIMU VELO AIN AR TRES W  DIS CAZ7
 BAR2 EZ EP        814 19.49                             171   -0.0610 23.2 185 
 BAR2 EZ ES        814 34.67                             171   -0.4110 23.2 185 
 BAR2 EZ I         814 35.85        29.9 0.19            168           23.2 185 
 BRR  HZ IP     C  814 21.32                             154    0.3710 69.4 299 
 BRR  HN ES        814 38.41                             154    0.8510 69.4 299 
 BRR  HZ I         814 43.30        18.5 0.14            151           69.4 299 
 RUS  HZ EP        814 23.70                             144    0.0610  101 175 
 RUS  HE ES        814 42.38                             144    0.0210  101 175 
 RUS  HZ I         814 44.01        11.4 0.54            145            101 175 
 PTB  HZ EP        814 25.93                             133   -0.70 9  146 259 
 PTB  HE ES        814 47.59                             133   -0.08 9  146 259 
 PTB  HZ I         814 49.46        13.0 0.09            132            146 259 
 SPBC HZ EP        814 28.40                             130    0.19 9  162 218 
 SPBC HE ES        814 50.43                             130   -0.06 9  162 218 
 SPBC HZ I         814 56.28        17.2 0.24            130            162 218 
 ZAR  HZ EP        814 32.18                             123    0.13 9  202 292 
 ZAR  HN ES        814 56.60                             123   -0.72 9  202 292 
 ZAR  HZ I         815  2.86        13.6 0.42            123            202 292 
 NOR  HZ EP   2    814 35.42                             119    0.08 4  233 234 
 NOR  HN ES        815  3.21                             119    0.03 8  233 234 
 CHI  HZ EP   2    814 37.53                             118    0.11 4  248 195 
 CHI  HN ES   2    815  6.89                             118   -0.01 4  248 195 
 CHI  HZ I         815  9.46         9.2 0.36            119            248 195 
 HEL  HZ I         815 19.14         4.8 0.34            116            270 256 
 GUY2CHZ EP   2    814 44.11                             113    0.93 4  300 235 
 GUY2CHN ES   3    815 18.10                             113    0.96 2  300 235 
 GUY2CHZ I         815 24.78         3.6 0.22                           300 235 
                                                                                
