 2016 1216 0402 34.5 L   6.751 -73.109148.3  RSN  5 0.3 1.4LRSN                1
 GAP=143        0.76       3.9     3.6  6.7  0.8820E+00  0.4279E+01  0.2193E+01E
 Epicentro: LOS SANTOS - SANTANDER                                             3
 ACTION:UPD 17-01-11 20:15 OP:rebc STATUS:               ID:20161216040234 L   I
 OLDACT:UP  16-12-16 15:20 OP:e    STATUS:               ID:20161216035739     3
 OLDACT:REG 16-12-16 12:33 OP:and  STATUS:               ID:20161216035739     3
 2016-12-16-0358-00M.COL___384                                                 6
 STAT SP IPHASW D HRMM SECON CODA AMPLIT PERI AZIMU VELO AIN AR TRES W  DIS CAZ7
 BRR  HZ EP        4 2 56.26                             151   -0.0210 77.4 301 
 BRR  HE ES        4 3 13.60                             151    0.3310 77.4 301 
 PAM  EZ EP        4 2 57.30                             151    0.2010 79.3  35 
 PAM  EE ES        4 3 14.37                             151   -0.3610 79.3  35 
 PAM  EZ I         4 3 16.46         4.2 0.39            152           79.3  35 
 RUS  HZ EP        4 2 58.42                             146    0.3010 95.0 178 
 RUS  HN ES        4 3 16.55                             146    0.0210 95.0 178 
 RUS  HZ I         4 3 18.02         1.8 0.32            147           95.0 178 
 PTB  HZ EP        4 3  1.49                             132   -0.46 9  151 261 
 PTB  HN ES        4 3 23.05                             132   -0.31 9  151 261 
 PTB  HZ I         4 3 24.26         2.3 0.14            133            151 261 
 ZAR  HE ES        4 3 33.89                             122    0.28 8  210 293 
 ZAR  HN I         4 3 35.41         5.5 0.10            123            210 293 
                                                                                
