 2012  816 0953  5.6 L   6.848 -73.264130.3  RSN  9 0.3 1.9LRSN                1
 GAP=113        0.69       2.8     3.7  5.7  0.8319E+00  0.3536E+01 -0.1350E+01E
 Epicentro: ZAPATOCA - SANTANDER                                               3
 ACTION:UPD 12-09-10 11:56 OP:ep   STATUS:               ID:20120816095305 L   I
 2012-08-16-0950-00M.COL___217                                                 6
 STAT SP IPHASW D HRMM SECON CODA AMPLIT PERI AZIMU VELO AIN AR TRES W  DIS CAZ7
 GIR2 SZ EP   1    953 23.50                             168    0.24 7 26.6  17 
 BAR2 SZ EP   1    953 23.78                             166    0.29 7 29.7 162 
 BAR2 SZ ES   1    953 37.15                             166   -0.33 7 29.7 162 
 BAR2 SZ I         953 38.25        57.3 0.31                          29.7 162 
 BRR  HZ EP   1    953 24.33                             155    0.08 7 57.2 300 
 BRR  HZ I         953 24.62        18.1 0.13                          57.2 300 
 BRR  HN ES        953 38.84                             155    0.0010 57.2 300 
 PAM  SN ES   1    953 43.31                             146    0.47 7 82.7  49 
 RUS  HZ EP   1    953 28.65                             138    0.28 7  108 169 
 RUS  HE ES        953 45.94                             138   -0.2310  108 169 
 RUS  HZ I         953 48.14         4.3 0.37                           108 169 
 PTB  HN ES   1    953 49.67                             131    0.22 7  136 256 
 OCA  HZ EP   1    953 32.06                             127   -0.02 7  154 358 
 OCA  HN ES        953 52.32                             127   -0.45 9  154 358 
 OCA  HZ I         953 53.40        12.4 0.20                           154 358 
 ZAR  HN ES   1    953 59.33                             121    0.39 7  190 292 
 HEL  HZ EP   1    953 43.03                             112   -0.73 6  261 254 
 HEL  HZ I         954 18.37         3.8 0.28                           261 254 
                                                                                
