 2011  816 0952 29.9 L   6.738 -73.102148.6  RSN  5 0.3 1.7LRSN                1
 GAP=187        0.67       4.0     7.9  6.9  0.5622E+01  0.1148E+02  0.2342E+01E
 Epicentro: JORDAN - SANTANDER                                                 3
 ACTION:UPD 12-07-13 15:52 OP:ep   STATUS:               ID:20110816095229 L   I
 2011-08-16-0948-54S.COL___150                                                 6
 STAT SP IPHASW D HRMM SECON CODA AMPLIT PERI AZIMU VELO AIN AR TRES W  DIS CAZ7
 BAR2 SZ EP   1    952 49.64                             173   -0.19 7 18.5 209 
 BAR2 SZ ES   1    953  4.70                             173   -0.64 7 18.5 209 
 BAR2 SZ I         953  6.39        10.5 0.37                          18.5 209 
 BRR  HZ EP   1    952 51.63                             150   -0.21 7 78.8 301 
 BRR  HZ I         952 53.12        10.2 0.12                          78.8 301 
 BRR  HE ES   1    953  9.21                             150    0.29 7 78.8 301 
 RUS  HZ EP   1    952 53.53                             146    0.04 7 93.6 179 
 RUS  HN ES   1    953 12.39                             146    0.54 7 93.6 179 
 RUS  HZ I         953 13.56         4.0 0.22                          93.6 179 
 OCA  SZ ES   1    953 22.22                             129    0.25 7  168 352 
 OCA  SZ I         953 26.08         7.0 0.29                           168 352 
 NOR  SZ EP   1    953  5.82                             119   -0.03 6  235 237 
 NOR  SN ES   2    953 33.78                             119   -0.08 4  235 237 
                                                                                
