 2016  516 0753  2.3 L   6.836 -73.138147.7  RSN  9 0.4 1.6LRSN                1
 GAP=184        0.73       3.1     4.6  5.6 -0.2491E+01  0.3211E+01  0.1578E+01E
 Epicentro: LOS SANTOS - SANTANDER                                             3
 ACTION:UPD 16-08-18 17:46 OP:cam  STATUS:               ID:20160516075302 L   I
 OLDACT:REG 16-05-16 12:54 OP:mh   STATUS:               ID:20160516074740     3
 2016-05-16-0747-40M.COL___283                                                 6
 STAT SP IPHASW D HRMM SECON CODA AMPLIT PERI AZIMU VELO AIN AR TRES W  DIS CAZ7
 BAR2 EZ EP        753 22.41                             169    0.1210 27.4 190 
 BAR2 EZ ES        753 37.76                             169   -0.0910 27.4 190 
 BAR2 EZ I         753 39.09         6.7 0.24            169           27.4 190 
 BRR  HZ EP   2    753 24.33                             153    0.69 5 70.2 295 
 BRR  HE ES        753 40.87                             153    0.6210 70.2 295 
 BRR  HZ I         753 46.67         5.3 0.14            149           70.2 295 
 RUS  HZ EP   2    753 26.49                             143   -0.07 5  104 177 
 RUS  HN ES   2    753 45.28                             143   -0.17 5  104 177 
 RUS  HZ I         753 46.18         3.2 0.18            146            104 177 
 PTB  HZ EP   2    753 29.02                             132   -0.59 5  149 257 
 PTB  HN ES        753 50.53                             132   -0.35 9  149 257 
 PTB  HZ I         753 52.52         3.3 0.13            131            149 257 
 OCA  HZ EP   2    753 30.87                             131    0.43 5  156 353 
 OCA  HE ES        753 51.82                             131   -0.55 9  156 353 
 OCA  HZ I         753 58.12        13.0 0.18            131            156 353 
 SPBC HZ EP        753 31.43                             129    0.11 9  167 218 
 SPBC HE ES        753 53.84                             129   -0.09 9  167 218 
 SPBC HZ I         753 55.61         7.6 0.08            129            167 218 
 ZAR  HZ EP   2    753 35.23                             123    0.39 4  203 291 
 ZAR  HE ES   2    754  0.09                             123   -0.10 4  203 291 
 ZAR  HZ I         754  2.56         2.7 0.08            122            203 291 
 NOR  HZ EP   2    753 38.67                             119    0.17 4  238 234 
 NOR  HE ES   2    754  5.98                             119   -0.72 4  238 234 
 NOR  HZ I         754 13.23         2.9 0.18            119            238 234 
 HEL  HZ EP   4    753 44.47                             115    1.62 0  274 255 
 HEL  HN ES   2    754 14.86                             115    0.42 4  274 255 
 HEL  HZ I         754 20.87         2.0 0.42            115            274 255 
                                                                                
