 2010 1016 0155 51.0 L   6.794 -73.103145.3  RSN 14 0.3 2.2LRSN                1
 GAP=163        0.69       2.9     5.1  4.9 -0.5776E+01  0.3128E+01 -0.2387E+00E
 Epicentro: LOS SANTOS - SANTANDER                                             3
 ACTION:UP  11-02-18 11:10 OP:tino STATUS:               ID:20101016015551 L   I
 2010-10-16-0151-58S.COL___125                                                 6
 STAT SP IPHASW D HRMM SECON CODA AMPLIT PERI AZIMU VELO SNR AR TRES W  DIS CAZ7
 BTL  SZ IP        156 10.87                             171     0.310   23 307 
 BAR2 SZ EP        156 10.55                             170     0.010   24 202 
 BAR2 SZ ES   1    156 25.49                             170    -0.3 7   24 202 
 BAR2 SZ I         156 27.16        85.9 0.24                            24 202 
 GIR2 SZ EP   1    156 10.72                             167     0.1 7   33 342 
 BRR  HZ IP     C  156 12.36                             151     0.010   76 297 
 BRR  HN ES   1    156 29.35                             151     0.4 7   76 297 
 BRR  HZ I         156 31.98        27.8 0.19                            76 297 
 RUS  HZ EP        156 14.42                             144    -0.210  100 179 
 RUS  HE ES   1    156 33.18                             144     0.1 7  100 179 
 RUS  HZ I         156 34.40        17.1 0.21                           100 179 
 GUE  SZ EP        156 15.54                             139    -0.110  116  10 
 GRA  SZ IP        156 16.31                             137     0.210  125  15 
 GRA  SZ ES   2    156 35.84                             137     0.1 5  125  15 
 GRA  SZ I         156 37.40        16.7 0.38                           125  15 
 OCA  SZ EP        156 18.98                             129    -0.4 9  162 352 
 OCA  SZ I         156 45.57        19.5 0.28                           162 352 
 NOR  SZ EP   1    156 26.61                             118    -0.5 6  238 235 
 NOR  SN ES   2    156 54.58                             118    -0.6 4  238 235 
 CHI  HZ EP   1    156 28.60                             117    -0.1 6  249 196 
 CHI  HZ I         156 30.89         5.8 0.17                           249 196 
 CHI  HE ES   2    156 57.91                             117    -0.2 4  249 196 
 ROSC BN ES   2    156 59.59                             116     0.4 4  255 212 
 ROSC BZ I         157  8.33        16.2 0.30                           255 212 
 HEL  HZ EP   2    156 32.56                             114     0.9 4  277 256 
 HEL  HN ES   2    157  2.63                             114    -0.8 4  277 256 
 HEL  HZ I         157  9.22         9.9 0.28                           277 256 
 TOL  SZ EP   1    156 40.02                             109     0.5 5  346 225 
 PRA  HZ EP   1    156 44.48                             106    -0.2 4  394 210 
 PRA  HE ES   1    157 27.20                             106     0.6 4  394 210 
                                                                                
