 2010  516 0437 37.7 L   6.768 -73.173146.0  RSN  5 0.4 1.3LRSN                1
 GAP=161        0.76       7.0    13.5 11.6  0.2528E+02 -0.5315E+02 -0.4824E+02E
 Epicentro: LOS SANTOS - SANTANDER                                             3
 ACTION:UP  10-08-24 10:05 OP:vdl  STATUS:               ID:20100516043737 L   I
 2010-05-16-0437-42S.COL___108                                                 6
 STAT SP IPHASW D HRMM SECON CODA AMPLIT PERI AZIMU VELO AIN AR TRES W  DIS CAZ7
 BAR2 SZ EP        437 57.30                             172     0.010   20 183 
 BAR2 SZ ES   2    438 12.28                             172    -0.3 5   20 183 
 BRR  HZ EP        437 58.62                             153    -0.210   70 302 
 BRR  HE ES   2    438 16.09                             153     0.7 5   70 302 
 BRR  HZ I         438 18.11         4.4 0.10                            70 302 
 RUS  HN ES   2    438 19.42                             145    -0.2 5   97 174 
 RUS  HZ I         438 21.21         3.2 0.33                            97 174 
 GUE  SZ EP        438  3.23                             138     0.410  121  13 
 OCA  SZ EP        438  6.26                             129    -0.1 9  163 354 
 OCA  SZ ES   2    438 28.12                             129    -0.6 5  163 354 
                                                                                
