 2016  216 0805 28.9 L   6.771 -73.117147.1  RSN  7 0.5 1.3LRSN                1
 GAP=141        1.16       4.3     5.3  8.2 -0.9270E+00  0.9133E+01  0.5875E+01E
 Epicentro: LOS SANTOS - SANTANDER                                             3
 ACTION:UPD 16-03-04 21:26 OP:rebc STATUS:               ID:20160216080528 L   I
 OLDACT:REG 16-02-16 12:33 OP:drio STATUS:               ID:20160216075749     3
 2016-02-16-0757-49M.COL___306                                                 6
 STAT SP IPHASW D HRMM SECON CODA AMPLIT PERI AZIMU VELO AIN AR TRES W  DIS CAZ7
 BRR  HZ EP        8 5 50.30                             151   -0.1310 75.5 300 
 BRR  HE ES        8 6  8.05                             151    0.8210 75.5 300 
 BRR  HZ I         8 6 10.14         3.1 0.36            149           75.5 300 
 PAM  EZ EP        8 5 51.20                             151   -0.0810 78.0  36 
 PAM  EE ES        8 6  8.75                             151    0.0010 78.0  36 
 PAM  EZ I         8 6  9.65         1.8 0.18            156           78.0  36 
 RUS  HE ES        8 6 10.41                             145   -0.5710 97.2 178 
 RUS  HZ I         8 6 12.67         2.1 0.46            146           97.2 178 
 PTB  HZ EP        8 5 55.53                             132   -0.67 9  150 260 
 PTB  HN ES        8 6 16.93                             132   -0.56 9  150 260 
 PTB  HZ I         8 6 23.76         4.0 0.38            131            150 260 
 SPBC HZ EP        8 5 57.42                             129   -0.03 9  163 221 
 SPBC HE ES        8 6 20.03                             129    0.30 9  163 221 
 SPBC HZ I         8 6 22.08         4.4 0.18            129            163 221 
 ZAR  HZ EP        8 6  2.46                             122    0.61 8  208 293 
 ZAR  HN ES        8 6 27.22                             122   -0.33 8  208 293 
 ZAR  HZ I         8 6 35.99         1.8 0.32            122            208 293 
 CHI  HZ EP        8 6  6.77                             118    0.34 8  246 196 
 CHI  HE ES        8 6 36.31                             118    0.61 8  246 196 
 CHI  HZ I         8 6 44.28         1.1 0.68            119            246 196 
                                                                                
