 2012  416 0810 32.0 L   6.794 -73.173144.5  RSN  5 0.4 1.6LRSN                1
 GAP=133        0.98       6.8     7.2 10.4  0.1109E+02  0.8696E+01 -0.3078E+00E
 Epicentro: LOS SANTOS - SANTANDER                                             3
 ACTION:UPD 12-07-05 11:53 OP:tino STATUS:               ID:20120416081032 L   I
 2012-04-16-0809-41M.COL___160                                                 6
 STAT SP IPHASW D HRMM SECON CODA AMPLIT PERI AZIMU VELO AIN AR TRES W  DIS CAZ7
 BAR2 SZ EP   1    810 51.25                             171    -0.2 7   22 183 
 BAR2 SZ ES   1    811  6.59                             171     0.0 7   22 183 
 BAR2 SZ I         811  7.84        12.5 0.20                            22 183 
 BRR  HZ EP   1    810 53.29                             153     0.4 7   69 300 
 BRR  HZ I         811  9.83        10.0 0.14                            69 300 
 BRR  HN ES   1    811  9.86                             153     0.7 7   69 300 
 PAM  SZ EP   1    810 54.39                             150     0.2 7   80  41 
 PAM  SN ES   1    811 11.15                             150    -0.4 7   80  41 
 PAM  SZ I         811 13.53         3.0 0.35                            80  41 
 RUS  HZ EP   1    810 55.73                             144     0.2 7  100 174 
 RUS  HN ES   1    811 13.76                             144    -0.2 7  100 174 
 RUS  HZ I         811 15.32         6.6 0.24                           100 174 
 ZAR  HN ES   1    811 28.30                             122    -0.8 6  202 293 
                                                                                
