 2010  816 0219 45.9 L   6.786 -73.021142.9  RSN 10 0.4 1.8LRSN                1
 GAP=173        0.86       3.4     6.2  6.2 -0.7677E+01 -0.2169E+01  0.1118E+01E
 Epicentro: CEPITA - SANTANDER                                                 3
 ACTION:UP  10-09-07 10:55 OP:vdl  STATUS:               ID:20100816021946 L   I
 2010-08-16-0215-06S.COL___111                                                 6
 STAT SP IPHASW D HRMM SECON CODA AMPLIT PERI AZIMU VELO SNR AR TRES W  DIS CAZ7
 BAR2 SZ EP        220  5.24                             168    -0.110   28 220 
 BAR2 SZ I         220  5.68        12.3 0.41                            28 220 
 BAR2 SZ ES   1    220 20.15                             168    -0.3 7   28 220 
 GIR2 SZ ES   3    220 20.22                             165    -0.4 2   38 329 
 BRR  HZ EP        220  7.27                             148    -0.310   84 295 
 BRR  HN ES        220 24.43                             148     0.010   84 295 
 BRR  HZ I         220 26.92        17.6 0.42                            84 295 
 RUS  HZ EP        220  9.22                             143     0.010   99 184 
 RUS  HN ES   1    220 27.74                             143     0.3 7   99 184 
 RUS  HZ I         220 30.97         4.0 0.26                            99 184 
 GUE  SZ EP        220 10.27                             139     0.010  116   5 
 GUE  SZ I         220 33.61         2.8 0.34                           116   5 
 GRA  SZ EP        220 11.02                             137     0.310  124  11 
 GRA  SZ ES   1    220 30.72                             137     0.6 7  124  11 
 GRA  SZ I         220 31.98        10.5 0.38                           124  11 
 OCA  SZ EP        220 13.91                             128    -0.4 9  164 348 
 OCA  SZ ES   1    220 36.45                             128    -0.1 7  164 348 
 OCA  SZ I         220 40.54        10.5 0.22                           164 348 
 CHI  HN ES   3    220 52.57                                    -0.6 2  251 198 
 CHI  HZ I         220 56.79         2.7 0.37                           251 198 
 RREF HZ EP   1    220 33.60                             109     0.6 5  331 231 
 RREF HN ES        221 10.39                             109     0.6 7  331 231 
 RREF HZ I         221 17.78         3.9 0.23                           331 231 
 PRA  HN ES   1    221 21.40                             106    -0.8 4  398 211 
 PRA  HZ I         221 24.84         3.1 1.41                           398 211 
                                                                                
