 2014  316 0613 33.0 L   6.575 -73.891 63.0  RSN  5 0.5 1.1LRSN                1
 GAP=104        1.17       5.0     4.2 16.8  0.9674E+01 -0.3631E+02 -0.4074E+02E
 Epicentro: PUERTO PARRA - SANTANDER                                           3
 OLDACT:DUP 14-03-16 12:26 OP:fm   STATUS:               ID:20140316060818d    3
 ACTION:UPD 14-04-09 23:17 OP:nd   STATUS:               ID:20140316061333 L   I
 OLDACT:UP  14-03-16 12:32 OP:fm   STATUS:               ID:20140316060818d    3
 2014-03-16-0608-16M.COL___242                                                 6
 STAT SP IPHASW D HRMM SECON CODA AMPLIT PERI AZIMU VELO AIN AR TRES W  DIS CAZ7
 PTB  HZ IP     D  613 44.75                             130   -0.6810 62.6 266 
 PTB  HN ES        613 55.19                             130    0.0710 62.6 266 
 PTB  HZ I         613 56.16         6.5 1.38            131           62.6 266 
 SPBC HN ES   1    614  3.98                             114    0.90 7  104 191 
 RUS  HE EP        613 52.13                             112    0.2410  117 130 
 RUS  HN ES        614  6.06                             112   -0.5610  117 130 
 ZAR  HZ EP        613 54.55                             106   -0.28 9  147 314 
 ZAR  HE ES        614 12.19                             106    0.33 9  147 314 
 ZAR  HZ I         614 13.85         1.9 0.10            107            147 314 
 PAM  SN ES        614 15.29                             105    0.42 9  156  57 
                                                                                
