 2012  916 0229 22.1 L   6.552 -73.588105.0  RSN  5 0.2 1.8LRSN                1
 GAP=127        0.58       3.8     4.1  6.2  0.6521E+01  0.5647E+01  0.4245E+01E
 Epicentro: EL CARMEN DE CHUCURI - SANTANDER                                   3
 ACTION:UPD 12-10-22 14:19 OP:ep   STATUS:               ID:20120916022922 L   I
 2012-09-16-0224-35M.COL___215                                                 6
 STAT SP IPHASW D HRMM SECON CODA AMPLIT PERI AZIMU VELO AIN AR TRES W  DIS CAZ7
 BAR2 SZ EP        229 37.85                             155    0.1610 45.0  84 
 BAR2 SZ ES   1    229 49.59                             155   -0.28 7 45.0  84 
 BAR2 SZ I         229 51.47        60.1 0.36                          45.0  84 
 BRR  HZ EP        229 38.37                             147   -0.0310 62.9 347 
 BRR  HZ I         229 38.68        16.0 0.13                          62.9 347 
 BRR  HE ES   1    229 51.57                             147    0.42 7 62.9 347 
 GIR2 SZ EP        229 38.97                             143   -0.3310 72.7  37 
 RUS  HZ EP        229 41.58                             136    0.2710 91.8 143 
 RUS  HE ES   1    229 56.23                             136   -0.10 7 91.8 143 
 RUS  HZ I         229 58.09         7.1 0.27                          91.8 143 
 PTB  HZ EP   1    229 40.93                             134   -0.10 7 96.1 269 
 PTB  HN ES   2    229 55.69                             134   -0.13 5 96.1 269 
                                                                                
