 2015  316 0904 58.3 L   6.807 -73.174142.4  RSN  9 0.4 1.4LRSN                1
 GAP= 69        0.90       2.8     3.2  6.7  0.8776E+00 -0.2996E+01 -0.3902E+01E
 Epicentro: LOS SANTOS - SANTANDER                                             3
 ACTION:UPD 15-04-30 16:26 OP:nd   STATUS:               ID:20150316090458 L   I
 OLDACT:UP  15-03-16 19:15 OP:mh   STATUS:               ID:20150316085748     3
 OLDACT:UP  15-03-16 19:15 OP:mh   STATUS:               ID:20150316085748     3
 OLDACT:REG 15-03-16 12:50 OP:stll STATUS:               ID:20150316085748     3
 2015-03-16-0857-48M.COL___251                                                 6
 STAT SP IPHASW D HRMM SECON CODA AMPLIT PERI AZIMU VELO AIN AR TRES W  DIS CAZ7
 BAR2 EZ EP   1    9 5 17.69                             170    0.18 7 23.7 182 
 BAR2 EZ I         9 5 34.13         6.9 0.17            164           23.7 182 
 BRR  HZ EP        9 5 19.48                             153    0.5910 68.1 299 
 BRR  HN ES        9 5 35.01                             153    0.0410 68.1 299 
 BRR  HZ I         9 5 40.28         3.4 0.12            142           68.1 299 
 PAM  SZ EP        9 5 20.62                             150    0.4010 78.8  42 
 PAM  SN ES   4    9 5 32.39                             150   -4.95 0 78.8  42 
 RUS  HZ EP        9 5 22.04                             143    0.2710  102 174 
 RUS  HN ES        9 5 39.96                             143   -0.1410  102 174 
 RUS  HZ I         9 5 41.10         4.2 0.30            143            102 174 
 PTB  HZ EP        9 5 24.97                             132    0.26 9  145 258 
 PTB  HN ES        9 5 45.01                             132   -0.31 9  145 258 
 PTB  HZ I         9 5 49.18         3.5 0.14            125            145 258 
 TAM  HZ I         9 5 25.86         4.8 0.20            135            158 105 
 TAM  HZ EP        9 5 25.98                             129   -0.01 9  158 105 
 TAM  HN ES        9 5 47.13                             129   -0.47 9  158 105 
 OCA  HZ EP        9 5 26.57                             129    0.35 9  159 354 
 OCA  HN ES        9 5 48.01                             129   -0.01 9  159 354 
 OCA  HZ I         9 5 53.58         4.2 0.30            126            159 354 
 SPBC HZ EP        9 5 25.87                             128   -0.52 9  162 218 
 SPBC HN ES        9 5 48.40                             128    0.08 9  162 218 
 SML  HZ EP        9 5 33.92                             117   -0.58 8  242 336 
 SML  HN ES        9 6  2.17                             117   -0.59 8  242 336 
                                                                                
