 2014  316 0619 34.8 L   6.801 -73.151153.3  RSN  5 0.4 1.5LRSN                1
 GAP=136        0.99       4.4     5.4  9.4 -0.1610E+01  0.1638E+02 -0.1081E+02E
 Epicentro: LOS SANTOS - SANTANDER                                             3
 OLDACT:REG 14-03-16 07:39 OP:fm   STATUS:               ID:20140316061816     3
 ACTION:UPD 14-04-09 23:17 OP:nd   STATUS:               ID:20140316061934 L   I
 OLDACT:UP  14-03-16 12:36 OP:fm   STATUS:               ID:20140316061816     3
 2014-03-16-0618-16M.COL___242                                                 6
 STAT SP IPHASW D HRMM SECON CODA AMPLIT PERI AZIMU VELO AIN AR TRES W  DIS CAZ7
 PAM  SZ EP        619 57.79                             152   -0.0510 77.6  40 
 PAM  SE ES        620 15.35                             152   -0.4610 77.6  40 
 PAM  SZ I         620 17.18         3.7 0.50             47           77.6  40 
 RUS  HZ EP        619 59.37                             145    0.0610  101 176 
 RUS  SZ I         620 18.16         4.2 2.90             47            101 176 
 RUS  HN ES        620 19.00                             145    0.5710  101 176 
 PTB  HZ EP        620  2.02                             134   -0.33 9  147 259 
 PTB  HN ES        620 23.50                             134   -0.34 9  147 259 
 ZAR  HE ES   2    620 33.35                             124    0.00 4  203 292 
 SML  HZ EP        620 11.68                             119   -0.14 8  243 335 
 SML  HN ES        620 41.57                             119    0.87 8  243 335 
 SML  SZ I         620 54.46         3.1 1.88             37            243 335 
                                                                                
