 2015  516 0328 11.2 L   6.806 -73.130148.0  RSN  9 0.3 1.7LRSN                1
 GAP=185        0.72       2.6     4.4  5.4  0.3938E+00  0.6067E+01  0.1082E+01E
 Epicentro: LOS SANTOS - SANTANDER                                             3
 ACTION:UPD 15-09-10 22:04 OP:cam  STATUS:               ID:20150516032811 L   I
 OLDACT:REG 15-05-16 12:38 OP:spq  STATUS:               ID:20150516031743     3
 2015-05-16-0317-43M.COL___274                                                 6
 STAT SP IPHASW D HRMM SECON CODA AMPLIT PERI AZIMU VELO AIN AR TRES W  DIS CAZ7
 BAR2 EZ EP        328 30.98                             170   -0.1610 24.3 194 
 BAR2 EZ ES   1    328 46.24                             170   -0.43 7 24.3 194 
 BAR2 EZ I         328 47.90         7.4 0.14            170           24.3 194 
 BRR  HZ EP   1    328 32.98                             153    0.30 7 72.5 297 
 BRR  HN ES        328 50.07                             153    0.6510 72.5 297 
 BRR  HZ I         328 52.11         6.8 0.14            150           72.5 297 
 RUS  HZ EP   1    328 35.53                             144    0.30 7  101 177 
 RUS  HN ES   1    328 54.00                             144    0.04 7  101 177 
 RUS  HZ I         328 56.38         4.1 0.28            147            101 177 
 OCA  HN ES        329  1.52                             130   -0.33 9  160 352 
 OCA  HZ I         329  6.74        10.4 0.26            131            160 352 
 SPBC HZ EP        328 40.00                             129   -0.04 9  165 219 
 SPBC HE ES        329  2.43                             129   -0.09 9  165 219 
 SPBC HZ I         329  5.94         8.7 0.22            130            165 219 
 ZAR  HZ EP        328 43.91                             123   -0.04 8  205 292 
 ZAR  HE ES        329  9.33                             123   -0.16 8  205 292 
 ZAR  HZ I         329 15.99         4.4 0.34            123            205 292 
 NOR  HZ EP        328 47.60                             119    0.33 8  236 235 
 NOR  HE ES        329 14.99                             119   -0.40 8  236 235 
 NOR  HZ I         329 20.32         4.0 0.46            120            236 235 
 SML  HE ES   1    329 16.59                             118   -0.08 6  244 335 
 SML  HZ I         329 21.61         6.4 0.10            119            244 335 
 GUY2CHZ EP   4    328 57.22                             113    2.08 0  303 235 
 GUY2CHE ES   4    329 32.02                             113    2.63 0  303 235 
 GUY2CHZ I         329 37.47         2.9 0.54                           303 235 
                                                                                
