 2012  216 0753 31.6 L   6.786 -73.155138.6  RSN 14 0.5 2.3LRSN                1
 GAP=136        0.83       3.9     3.9  7.0 -0.7225E+00  0.7864E+01  0.8830E+01E
 ACTION:UP  12-03-07 16:30 OP:epov STATUS:               ID:20120216075331 L   I
 2012-02-16-0750-00M.COL___188                                                 6
 STAT SP IPHASW D HRMM SECON CODA AMPLIT PERI AZIMU VELO AIN AR TRES W  DIS CAZ7
 BAR2 SZ IP     D  753 50.23                             171   -0.0910 21.6 188 
 BAR2 SZ I         754  6.66        41.1 0.18                          21.6 188 
 GIR2 SZ EP   1    753 50.24                             166   -0.21 7 32.7 352 
 BRR  HZ IP     C  753 52.04                             151    0.0810 71.1 300 
 BRR  HN ES   1    754  8.73                             151    0.88 7 71.1 300 
 BRR  HZ I         754 11.39        41.1 0.19                          71.1 300 
 PAM  SZ EP   1    753 52.98                             149   -0.18 7 79.2  39 
 PAM  SN ES   1    754  9.94                             149   -0.05 7 79.2  39 
 RUS  HZ EP   1    753 54.38                             143   -0.15 7 99.1 175 
 RUS  HN ES   1    754 12.29                             143   -0.13 7 99.1 175 
 RUS  HZ I         754 14.42        32.1 0.33                          99.1 175 
 PTB  HZ EP   1    753 57.55                             131   -0.31 7  146 259 
 PTB  HN ES   1    754 17.81                             131   -0.54 7  146 259 
 ZAR  HZ EP   1    754  3.45                             121   -0.09 6  204 293 
 ZAR  HN ES   1    754 28.29                             121   -0.18 6  204 293 
 ZAR  HZ I         754 34.82        27.6 0.31                           204 293 
 NOR  SE ES   1    754 34.09                             117   -0.04 6  233 235 
 CHI  HZ EP   1    754  8.62                             116   -0.08 6  247 195 
 CHI  HN ES   1    754 37.71                             116    0.06 6  247 195 
 CHI  HZ I         754 44.85         7.6 0.43                           247 195 
 ROSC BZ EP   1    754 10.20                             115    1.08 6  251 211 
 ROSC BZ I         754 46.83        14.2 0.31                           251 211 
 HEL  HZ EP   1    754 12.11                             113    0.82 6  271 256 
 HEL  HN ES   1    754 41.38                             113   -0.88 6  271 256 
 GUY  SZ EP   1    754 15.41                             111    0.47 5  302 235 
 RREF HN ES   1    754 53.36                             110    0.54 5  320 229 
 RREF HZ I         755  2.51         7.3 0.27                           320 229 
 PRA  HZ EP   1    754 23.74                             105   -0.91 4  390 210 
                                                                                
