 2012  716 0452 50.8 L   6.690 -73.184159.5  RSN  4 0.1 1.4LRSN                1
 GAP=224        0.31       4.2     3.6  4.7  0.3466E+01 -0.1753E+01  0.1609E+00E
 Epicentro: VILLANUEVA - SANTANDER                                             3
 ACTION:UPD 12-08-14 11:45 OP:ep   STATUS:               ID:20120716045250 L   I
 2012-07-16-0450-00M.COL___197                                                 6
 STAT SP IPHASW D HRMM SECON CODA AMPLIT PERI AZIMU VELO AIN AR TRES W  DIS CAZ7
 BAR2 SZ EP   1    453 11.78                             176    -0.1 7   11 179 
 BAR2 SZ I         453 28.47         3.0 0.21            159             11 179 
 BRR  HZ EP   1    453 13.63                             154     0.1 7   74 308 
 BRR  HZ I         453 13.85         8.8 0.15            162             74 308 
 BRR  HN ES   1    453 31.37                             154     0.0 7   74 308 
 RUS  HN ES   2    453 34.18                             150     0.1 5   89 173 
 PTB  HZ EP   1    453 18.39                             136     0.0 7  142 263 
 PTB  HN ES   1    453 39.86                             136     0.0 7  142 263 
 PTB  HZ I         453 47.00         2.0 0.45            134            142 263 
