 2011 1016 0703 39.4 L   6.737 -73.304121.4  RSN  5 0.3 1.8LRSN                1
 GAP=147        0.68       4.7     8.0  6.9  0.1592E+02 -0.1827E+00 -0.5667E+01E
 Epicentro: ZAPATOCA - SANTANDER                                               3
 ACTION:UPD 12-07-13 16:04 OP:ep   STATUS:               ID:20111016070339 L   I
 2011-10-16-0700-36S.COL___168                                                 6
 STAT SP IPHASW D HRMM SECON CODA AMPLIT PERI AZIMU VELO AIN AR TRES W  DIS CAZ7
 BAR2 SZ EP   1    7 3 56.51                             170    0.43 7 20.8 140 
 BAR2 SZ ES   1    7 4  9.57                             170    0.51 7 20.8 140 
 BAR2 SZ I         7 4 10.62        25.6 0.44                          20.8 140 
 BRR  HZ EP        7 3 57.22                             152   -0.1510 61.0 312 
 BRR  HZ I         7 3 57.47        58.4 0.14                          61.0 312 
 BRR  HN ES   1    7 4 11.20                             152   -0.15 7 61.0 312 
 PAM  SE ES   2    7 4 16.13                             140   -0.56 5 94.3  45 
 RUS  HZ EP   1    7 4  0.48                             139   -0.06 7 96.5 165 
 RUS  HN ES   1    7 4 16.59                             139   -0.41 7 96.5 165 
 RUS  HZ I         7 4 19.64         3.4 0.34                          96.5 165 
 OCA  SZ EP   1    7 4  6.80                             122    0.23 7  166 359 
 OCA  SZ I         7 4 29.28         5.7 0.14                           166 359 
                                                                                
