 2011  616 0839 34.6 L   6.898 -72.838140.0  RSN  3 0.2 1.6LRSN                1
 GAP=270        0.52      10.4    18.1  9.8  0.1677E+03 -0.1381E+03 -0.7435E+02E
 Epicentro: GUACA - SANTANDER                                                  3
 ACTION:UP  11-07-14 19:05 OP:ep   STATUS:               ID:20110616083934 L   I
 2011-06-16-0836-47S.COL___138                                                 6
 STAT SP IPHASW D HRMM SECON CODA AMPLIT PERI AZIMU VELO SNR AR TRES W  DIS CAZ7
 BAR2 SZ EP   1    839 54.34                             159    -0.1 7   51 228 
 BAR2 SZ ES   1    840  9.95                             159     0.0 7   51 228 
 BAR2 SZ I         840 11.72         9.9 0.39                            51 228 
 BRR  HZ EP        839 56.83                             142    -0.210   99 284 
 BRR  HN ES   1    840 14.63                             142     0.2 7   99 284 
 BRR  HZ I         840 15.99         7.8 0.14                            99 284 
 RUS  HZ EP        839 59.08                             139     0.210  114 194 
 RUS  HN ES   1    840 17.56                             139    -0.2 7  114 194 
 RUS  HZ I         840 19.35         4.1 0.44                           114 194 
                                                                                
