 2013  616 0451 48.5 L   6.833 -73.168146.0  RSN  7 0.5 1.8LRSN                1
 GAP=181        1.07       4.6     7.2  7.7  0.2038E+01 -0.4321E+01 -0.3448E+01E
 Epicentro: LOS SANTOS - SANTANDER                                             3
 ACTION:UPD 14-01-08 09:55 OP:ep   STATUS:               ID:20130616045148 L   I
 OLDACT:DUP 13-06-16 09:08 OP:cam  STATUS:               ID:20130616044960d    3
 OLDACT:REG 13-06-16 07:34 OP:cam  STATUS:               ID:20130616044959     3
 2013-06-16-0449-59M.COL___261                                                 6
 STAT SP IPHASW D HRMM SECON CODA AMPLIT PERI AZIMU VELO AIN AR TRES W  DIS CAZ7
 BAR2 SZ EP        452  8.66                             169    0.4210 26.7 183 
 BAR2 SZ ES   1    452 23.44                             169   -0.19 7 26.7 183 
 BAR2 SZ I         452 24.28        13.0 0.60            170           26.7 183 
 BRR  HZ EP        452  9.97                             154    0.4910 67.3 297 
 BRR  HN ES        452 26.57                             154    0.7510 67.3 297 
 BRR  HZ I         452 27.21        10.4 0.32            154           67.3 297 
 RUS  HZ EP        452 12.45                             143   -0.1210  104 175 
 RUS  HN ES   1    452 30.77                             143   -0.56 7  104 175 
 PTB  HZ EP        452 15.22                             132   -0.13 9  146 257 
 PTB  HN ES        452 35.73                             132   -0.56 9  146 257 
 OCA  HZ EP   1    452 16.19                             131   -0.28 7  156 354 
 OCA  HN ES        452 37.82                             131   -0.46 9  156 354 
 SML  HZ EP        452 24.45                             118   -0.23 8  239 335 
 PRA  HZ EP   1    452 43.15                             106    0.87 4  394 209 
                                                                                
