 2010  916 0603 11.9 L   6.762 -73.104136.0  RSN  6 0.5 1.4LRSN                1
 GAP=164        1.25       9.4    19.7 20.8  0.8495E+02 -0.2408E+03 -0.1098E+03E
 Epicentro: LOS SANTOS - SANTANDER                                             3
 ACTION:UP  11-02-18 11:03 OP:tino STATUS:               ID:20100916060311 L   I
 2010-09-16-0600-42S.COL___119                                                 6
 STAT SP IPHASW D HRMM SECON CODA AMPLIT PERI AZIMU VELO SNR AR TRES W  DIS CAZ7
 BTL  SZ EP        6 3 31.37                             169     0.910   25 314 
 BRR  HZ EP        6 3 31.89                             149    -0.510   77 300 
 BRR  HZ I         6 3 32.26         7.6 0.11                            77 300 
 BRR  HE ES   1    6 3 48.48                             149     0.1 7   77 300 
 RUS  HZ EP   1    6 3 34.09                             143    -0.3 7   96 179 
 RUS  HN ES   1    6 3 51.69                             143    -0.3 7   96 179 
 RUS  HZ I         6 3 53.67         2.7 0.34                            96 179 
 GUE  SZ EP        6 3 36.17                             136     0.110  120  10 
 GRA  SZ I         6 3 37.37         3.2 0.36                           128  15 
 GRA  SZ ES   3    6 3 54.71                             134    -1.1 2  128  15 
 OCA  SZ EP   1    6 3 39.63                             127    -0.3 7  165 352 
 OCA  SZ ES   3    6 4  1.57                             127    -0.3 2  165 352 
 OCA  SZ I         6 4  9.11         5.7 0.52                           165 352 
                                                                                
