 2010 1116 0351 22.2 L   6.791 -73.087151.0  RSN 11 0.3 2.1LRSN                1
 GAP=189        0.64       3.1     5.5  5.4 -0.1213E+01  0.5686E+01  0.6276E+00E
 Epicentro: LOS SANTOS - SANTANDER                                             3
 ACTION:UP  10-12-17 16:53 OP:REBC STATUS:               ID:20101116035122 L   I
 2010-11-16-0348-54S.COL___128                                                 6
 STAT SP IPHASW D HRMM SECON CODA AMPLIT PERI AZIMU VELO SNR AR TRES W  DIS CAZ7
 BTL  SZ EP   1    351 41.86                             170    -0.7 7   24 305 
 BAR2 SZ IP        351 42.50                             170     0.010   24 206 
 BAR2 SZ ES   1    351 57.97                             170    -0.4 7   24 206 
 BAR2 SZ I         352  0.53        18.4 0.25                            24 206 
 GIR2 SZ EP   1    351 42.83                             167     0.2 7   34 340 
 BRR  HZ IP     C  351 44.46                             151     0.110   77 297 
 BRR  HZ I         351 44.71        39.0 0.19                            77 297 
 BRR  HE ES   1    352  1.95                             151     0.4 7   77 297 
 RUS  HZ EP   1    351 46.40                             145     0.0 7   99 180 
 RUS  HN ES   1    352  5.50                             145     0.2 7   99 180 
 RUS  HZ I         352  5.95         5.9 0.33                            99 180 
 OCA  SZ EP   1    351 51.37                             130     0.2 7  162 351 
 OCA  SZ ES   1    352 13.59                             130    -0.1 7  162 351 
 OCA  SZ I         352 18.84        21.5 0.24                           162 351 
 NOR  SZ EP   2    351 58.35                             119    -0.5 4  240 236 
 NOR  SE ES   2    352 26.87                             119    -0.5 4  240 236 
 CHI  HZ EP   2    352  0.60                             118     0.3 4  249 197 
 CHI  HZ I         352  3.22         4.6 0.46                           249 197 
 CHI  HN ES   2    352 30.42                             118     0.4 4  249 197 
 HEL  HZ EP   2    352  3.16                             115    -0.2 4  278 256 
 HEL  HN ES   2    352 35.18                             115    -0.3 4  278 256 
 HEL  HZ I         352 42.18         6.8 0.24                           278 256 
 RREF HZ EP   2    352  9.60                             111     0.5 3  326 230 
 RREF HE ES   2    352 45.98                             111     0.3 3  326 230 
 RREF HZ I         352 50.99         6.7 0.17                           326 230 
 PRA  HZ EP   2    352 16.13                             107    -0.1 3  394 210 
 PRA  HZ I         352 19.57        13.8 0.21                           394 210 
                                                                                
