 2017  916 0623 40.0 L   6.646 -73.223137.4  RSN  5 0.1 1.1LRSN                1
 GAP=190        0.31       1.8     2.0  2.7  0.1262E+01  0.2043E+01  0.9589E+00E
 Epicentro: BARICHARA - SANTANDER                                              3
 ACTION:UPD 17-10-05 19:13 OP:rebc STATUS:               ID:20170916062340 L   I
 OLDACT:UP  17-09-16 19:03 OP:mg   STATUS:               ID:20170916061742d    3
 OLDACT:DUP 17-09-16 18:53 OP:mg   STATUS:               ID:20170916061742d    3
 OLDACT:UP  17-09-16 18:48 OP:mg   STATUS:               ID:20170916061741     3
 OLDACT:UP  17-09-16 18:47 OP:mg   STATUS:               ID:20170916061741     3
 OLDACT:REG 17-09-16 16:58 OP:mg   STATUS:               ID:20170916061741     3
 2017-09-16-0618-00M.COL___438                                                 6
 STAT SP IPHASW D HRMM SECON CODA AMPLIT PERI AZIMU VELO AIN AR TRES W  DIS CAZ7
 BAR2 EZ EP        623 58.48                             177    0.0610 7.45 143 
 BAR2 EZ ES        624 12.70                             177   -0.0810 7.45 143 
 BAR2 EZ I         624 13.68         2.8 0.21            176           7.45 143 
 BRR  HZ IP     D  624  0.54                             150    0.0810 74.3 313 
 BRR  HN ES        624 16.38                             150   -0.0310 74.3 313 
 BRR  HZ I         624 17.04         3.9 0.14            151           74.3 313 
 RUS  HZ EP        624  1.80                             147   -0.0310 84.7 169 
 RUS  HE ES        624 18.87                             147    0.0210 84.7 169 
 RUS  HZ I         624 20.23         2.3 0.34            147           84.7 169 
 ZAR  HE ES   1    624 36.70                             120   -0.02 6  203 297 
 NOR  HZ EP   2    624 13.11                             119   -0.37 4  218 237 
 NOR  HN ES        624 39.66                             119    0.08 8  218 237 
 NOR  HZ I         624 40.02         1.0 0.19            119            218 237 
                                                                                
