 2017  116 0825 46.5 L   6.793 -73.150146.9  RSN  7 0.2 1.3LRSN                1
 GAP=136        0.63       2.9     3.6  4.4  0.3370E+01  0.4823E+00  0.1392E+01E
 Epicentro: LOS SANTOS - SANTANDER                                             3
 ACTION:UPD 17-05-22 16:00 OP:jn   STATUS:               ID:20170116082546 L   I
 OLDACT:UP  17-01-16 18:08 OP:dani STATUS:               ID:20170116081739     3
 OLDACT:REG 17-01-16 13:27 OP:dani STATUS:               ID:20170116081739     3
 2017-01-16-0818-00M.COL___335                                                 6
 STAT SP IPHASW D HRMM SECON CODA AMPLIT PERI AZIMU VELO AIN AR TRES W  DIS CAZ7
 BAR2 EZ EP        826  6.19                             171   -0.0410 22.5 189 
 BAR2 EZ ES        826 21.26                             171   -0.3810 22.5 189 
 BAR2 EZ I         826 22.22         7.0 0.26            172           22.5 189 
 BRR  HZ EP        826  7.85                             153    0.1010 71.2 299 
 BRR  HN ES        826 24.81                             153    0.4710 71.2 299 
 BRR  HZ I         826 29.07         3.7 0.23            149           71.2 299 
 PAM  EZ EP        826  8.95                             151    0.0910 78.2  39 
 PAM  EZ I         826 28.19         4.7 0.44            137           78.2  39 
 RUS  HZ EP        826  9.99                             144   -0.3010 99.9 176 
 RUS  HE ES        826 29.00                             144    0.1410 99.9 176 
 RUS  HZ I         826 30.62         1.4 0.28            144           99.9 176 
 PTB  HZ EP   1    826 13.54                             132    0.05 7  147 259 
 PTB  HE ES   1    826 34.42                             132   -0.13 7  147 259 
 PTB  HZ I         826 35.11         2.2 0.27            132            147 259 
 ZAR  HN ES        826 44.02                             123   -0.32 9  204 292 
 ZAR  HZ I         826 49.22         1.6 0.09            118            204 292 
 CHI  HZ EP        826 24.34                             117    0.19 8  248 195 
 CHI  HN ES        826 53.65                             117    0.12 8  248 195 
 CHI  HZ I         826 56.93         1.5 0.53            115            248 195 
                                                                                
