 2013  116 0641 55.7 L   6.733 -73.211154.2  RSN  5 0.4 1.1LRSN                1
 GAP=222        0.73       7.4     6.7  7.6  0.2907E+02  0.4370E+01 -0.3442E+01E
 Epicentro: VILLANUEVA - SANTANDER                                             3
 ACTION:UPD 13-02-15 09:14 OP:ep   STATUS:               ID:20130116064155 L   I
 2013-01-16-0640-00M.COL___239                                                 6
 STAT SP IPHASW D HRMM SECON CODA AMPLIT PERI AZIMU VELO AIN AR TRES W  DIS CAZ7
 BAR2 SZ EP   1    642 15.90                             174   -0.33 7 15.9 169 
 BAR2 SZ ES   1    642 31.66                             174   -0.58 7 15.9 169 
 BAR2 SZ I         642 32.89         4.0 0.18            170           15.9 169 
 BRR  HZ EP        642 17.85                             155    0.1910 69.1 307 
 BRR  HN ES   1    642 35.40                             155    0.61 7 69.1 307 
 RUS  HZ EP   1    642 19.87                             147    0.02 7 94.0 171 
 RUS  HN ES   1    642 38.93                             147    0.25 7 94.0 171 
 RUS  HZ I         642 39.89         1.4 0.60            146           94.0 171 
 PTB  HZ EP   1    642 22.74                             136    0.09 7  139 261 
 PTB  HN ES   1    642 43.62                             136   -0.04 7  139 261 
 PTB  HZ I         642 46.40         1.6 0.15            134            139 261 
 ZAR  HE ES   1    642 53.31                             125   -0.49 6  200 295 
                                                                                
