 2014  316 0103 35.4 L   6.829 -73.135138.0  RSN 14 0.5 1.8LRSN                1
 GAP=136        1.01       3.6     4.2  6.9 -0.1064E+01  0.8897E+01  0.1207E+01E
 Epicentro: LOS SANTOS - SANTANDER                                             3
 OLDACT:REG 14-03-16 07:28 OP:fm   STATUS:               ID:20140316005817     3
 ACTION:UPD 14-04-09 23:17 OP:nd   STATUS:               ID:20140316010335 L   I
 OLDACT:UP  14-03-16 11:27 OP:fm   STATUS:               ID:20140316005817     3
 2014-03-16-0058-17M.COL___251                                                 6
 STAT SP IPHASW D HRMM SECON CODA AMPLIT PERI AZIMU VELO AIN AR TRES W  DIS CAZ7
 BAR2 SZ EP        1 3 54.20                             169   -0.0210 26.7 191 
 BAR2 SZ ES   2    1 4  8.54                             169   -0.33 5 26.7 191 
 BAR2 SZ I         1 4 11.45        18.0 0.76            162           26.7 191 
 BRR  HZ EP        1 3 55.33                             151   -0.4110 70.7 296 
 BRR  HN ES        1 4 12.11                             151    0.5510 70.7 296 
 BRR  SZ I         1 4 16.40         8.7 0.14            143           70.7 296 
 PAM  SZ IP     C  1 3 56.46                             151   -0.1910 74.2  40 
 PAM  SN ES        1 4 13.04                             151   -0.1410 74.2  40 
 PAM  SZ I         1 4 15.12        11.8 0.36            148           74.2  40 
 RUS  HZ EP        1 3 58.37                             141   -0.3110  104 177 
 RUS  HE ES        1 4 17.34                             141    0.5310  104 177 
 RUS  SZ I         1 4 20.16         2.6 1.20            133            104 177 
 PTB  HZ EP   4    1 4  0.53                             130   -1.43 0  150 258 
 PTB  HN ES        1 4 21.83                             130   -0.81 9  150 258 
 PTB  SZ I         1 4 25.16         5.4 0.12            121            150 258 
 OCA  HN ES   2    1 4 24.88                             128    0.62 5  157 353 
 SPBC HN ES   2    1 4 26.28                             127    0.58 5  166 219 
 ZAR  HZ EP        1 4  8.13                             121    0.75 9  204 291 
 ZAR  HE ES   1    1 4 32.86                             121    0.57 6  204 291 
 ZAR  SZ I         1 4 36.10         9.6 0.30            113            204 291 
 NOR  HZ EP   2 C  1 4 11.31                             117    0.27 4  238 234 
 NOR  HE ES        1 4 38.10                             117   -0.71 8  238 234 
 NOR  SZ I         1 4 47.22         3.7 0.56            109            238 234 
 SML  HZ EP   2    1 4 10.66                             116   -0.72 4  241 335 
 SML  HE ES   1    1 4 38.99                             116   -0.42 6  241 335 
 SML  SZ I         1 4 41.39        11.7 0.08            110            241 335 
 CHI  HN ES   2    1 4 43.10                             115    0.62 4  252 195 
 HEL  HZ EP   2    1 4 16.08                             113    0.59 4  274 255 
 HEL  SZ I         1 4 55.81         4.6 1.62            106            274 255 
 URE  HN ES   2    1 4 48.25                             112    0.38 4  284 291 
 GUY2CHZ EP        1 4 19.42                             111    0.39 7  304 234 
 GUY2CHE ES   4    1 4 54.12                             111    1.10 0  304 234 
 GUY2CSZ I         1 4 55.94         2.9 3.98                           304 234 
                                                                                
