 2010 1116 0852 33.2 L   6.767 -73.100144.6  RSN  5 0.4 1.8LRSN                1
 GAP=164        1.14       5.7    13.8 11.0  0.3719E+01 -0.2957E+02 -0.6653E+01E
 Epicentro: LOS SANTOS - SANTANDER                                             3
 ACTION:UP  10-12-17 16:53 OP:REBC STATUS:               ID:20101116085233 L   I
 2010-11-16-0849-58S.COL___128                                                 6
 STAT SP IPHASW D HRMM SECON CODA AMPLIT PERI AZIMU VELO SNR AR TRES W  DIS CAZ7
 BAR2 SZ EP   1    852 52.07                             171    -0.6 7   22 206 
 BAR2 SZ ES   1    853  7.14                             171    -0.7 7   22 206 
 BAR2 SZ I         853  8.77        19.7 0.29                            22 206 
 BRR  HZ IP     C  852 54.63                             150     0.110   77 299 
 BRR  HZ I         852 54.99        17.3 0.08                            77 299 
 BRR  HE ES   1    853 11.44                             150     0.2 7   77 299 
 RUS  HZ IP        852 57.09                             144     0.510   97 179 
 RUS  HE ES   2    853 15.08                             144     0.3 5   97 179 
 RUS  HZ I         853 16.61         5.4 0.23                            97 179 
 GRA  SZ EP   2    852 58.53                             136     0.0 5  128  15 
 GRA  SZ ES   1    853 18.49                             136     0.2 7  128  15 
 GRA  SZ I         853 19.20         8.3 0.47                           128  15 
 OCA  SZ IP        853  1.24                             128    -0.6 9  165 352 
 OCA  SZ ES   1    853 24.66                             128     0.5 7  165 352 
 OCA  SZ I         853 26.92         7.0 0.20                           165 352 
                                                                                
