 2011 1116 0308 11.5 L   6.812 -73.099142.2  RSN  5 0.3 1.4LRSN                1
 GAP=142        0.66       4.5     5.6  7.0  0.2597E+01  0.1754E+01  0.5377E+00E
 Epicentro: LOS SANTOS - SANTANDER                                             3
 ACTION:UPD 12-07-13 16:10 OP:ep   STATUS:               ID:20111116030811 L   I
 2011-11-16-0304-42S.COL___179                                                 6
 STAT SP IPHASW D HRMM SECON CODA AMPLIT PERI AZIMU VELO AIN AR TRES W  DIS CAZ7
 BAR2 SZ EP   1    3 8 30.54                             169   -0.17 7 26.0 201 
 BAR2 SZ I         3 8 30.72         5.2 0.13                          26.0 201 
 BAR2 SZ ES   1    3 8 45.32                             169   -0.42 7 26.0 201 
 PAM  SZ EP   1    3 8 33.50                             152    0.46 7 73.2  37 
 PAM  SN ES   1    3 8 49.70                             152   -0.18 7 73.2  37 
 PAM  SZ I         3 8 52.59         3.1 0.38                          73.2  37 
 BRR  HZ EP   1    3 8 32.37                             150   -0.09 7 75.2 296 
 BRR  HE ES   1    3 8 49.21                             150    0.37 7 75.2 296 
 BRR  HZ I         3 8 50.04         6.0 0.13                          75.2 296 
 RUS  HZ EP   1    3 8 34.65                             143   -0.29 7  102 179 
 RUS  HZ I         3 8 35.27         2.6 0.31                           102 179 
 RUS  HN ES   1    3 8 53.67                             143    0.42 7  102 179 
 ZAR  HN ES   2    3 9  9.27                             121   -0.33 4  208 291 
 ZAR  HZ I         3 9 14.32         3.7 0.12                           208 291 
                                                                                
