 2016  216 0633 16.2 L   6.799 -73.123149.4  RSN 13 0.4 1.8LRSN                1
 GAP= 67        0.98       2.8     2.8  4.8 -0.4534E+00  0.2159E+01  0.2180E+01E
 Epicentro: LOS SANTOS - SANTANDER                                             3
 ACTION:UPD 16-03-04 21:26 OP:rebc STATUS:               ID:20160216063316 L   I
 OLDACT:REG 16-02-16 12:29 OP:drio STATUS:               ID:20160216062739     3
 2016-02-16-0627-39M.COL___309                                                 6
 STAT SP IPHASW D HRMM SECON CODA AMPLIT PERI AZIMU VELO AIN AR TRES W  DIS CAZ7
 BAR2 EZ EP        633 36.08                             171   -0.1610 23.8 196 
 BAR2 EZ ES        633 51.70                             171   -0.2010 23.8 196 
 BAR2 EZ I         633 53.87        10.4 0.28            170           23.8 196 
 BRR  HZ EP        633 38.07                             152    0.2410 73.4 298 
 BRR  HE ES        633 55.29                             152    0.5610 73.4 298 
 BRR  HZ I         634  0.35         8.4 0.12            150           73.4 298 
 PAM  EZ EP        633 38.96                             152    0.2810 75.9  38 
 PAM  EE ES        633 56.20                             152   -0.0410 75.9  38 
 PAM  EZ I         633 58.32        11.1 0.48            150           75.9  38 
 RUS  HZ EP        633 39.90                             145   -0.3610  100 177 
 RUS  HE ES        633 58.82                             145   -0.2310  100 177 
 RUS  HZ I         634  0.21         3.5 0.34            143            100 177 
 PTB  HZ EP        633 43.23                             132   -0.42 9  150 259 
 PTB  HE ES        634  4.59                             132   -0.49 9  150 259 
 PTB  HZ I         634 10.12         9.8 0.56            130            150 259 
 TAM  HZ EP        633 44.29                             132    0.38 9  153 105 
 TAM  HZ I         634  5.19         6.6 0.36            130            153 105 
 TAM  HE ES        634  6.12                             132    0.57 9  153 105 
 OCA  HZ EP        633 44.77                             130   -0.03 9  161 352 
 OCA  HN ES        634  6.40                             130   -0.73 9  161 352 
 OCA  HZ I         634 14.67        11.1 0.24            128            161 352 
 SPBC HZ EP        633 45.08                             130   -0.00 9  165 220 
 SPBC HE ES        634  8.09                             130    0.45 9  165 220 
 SPBC HZ I         634 14.35        14.8 0.38            127            165 220 
 ZAR  HZ EP        633 49.64                             123    0.55 8  206 292 
 ZAR  HE ES        634 14.58                             123   -0.19 8  206 292 
 ZAR  HZ I         634 20.57         9.6 0.24            120            206 292 
 NOR  HZ EP        633 52.36                             119    0.05 8  237 235 
 NOR  HN ES        634 20.62                             119    0.11 8  237 235 
 NOR  HZ I         634 27.33         5.2 0.30            117            237 235 
 CHI  HZ EP        633 54.18                             118    0.06 8  249 196 
 CHI  HN ES        634 23.59                             118   -0.15 8  249 196 
 CHI  HZ I         634 29.58         2.0 0.56            116            249 196 
 PTGC HZ EP        633 58.94                             112   -1.13 7  308 159 
 PTGC HN ES   4    634 30.95                             112   -3.37 0  308 159 
 CBOC HZ EP        634  4.07                             110    0.57 7  336 252 
 CBOC HE ES        634 40.73                             110    0.31 7  336 252 
 CBOC HZ I         635  0.68         1.2 0.60            108            336 252 
                                                                                
