 2013  116 0711 39.2 L   6.769 -73.159142.7  RSN  8 0.4 2.1LRSN                1
 GAP=181        0.85       4.1     6.3  7.0  0.8422E+01  0.1111E+02  0.4060E+01E
 Epicentro: LOS SANTOS - SANTANDER                                             3
 ACTION:UPD 13-02-15 09:14 OP:ep   STATUS:               ID:20130116071139 L   I
 2013-01-16-0710-00M.COL___239                                                 6
 STAT SP IPHASW D HRMM SECON CODA AMPLIT PERI AZIMU VELO AIN AR TRES W  DIS CAZ7
 BAR2 SZ EP   1    711 58.32                             172   -0.11 7 19.7 188 
 BAR2 SZ ES   1    712 12.97                             172   -0.43 7 19.7 188 
 BAR2 SZ I         712 14.64        42.4 0.16            167           19.7 188 
 BRR  HZ EP     D  712  0.20                             152    0.1210 71.7 301 
 BRR  HN ES   1    712 17.08                             152    0.74 7 71.7 301 
 BRR  HZ I         712 19.49        15.7 0.14            137           71.7 301 
 RUS  HZ EP   1    712  2.32                             144   -0.13 7 97.3 175 
 RUS  HN ES   1    712 20.82                             144    0.27 7 97.3 175 
 PTB  HZ EP   1    712  5.00                             132   -0.77 7  146 260 
 PTB  HN ES   1    712 25.81                             132   -0.65 7  146 260 
 PTB  HZ I         712 28.41        20.8 0.16            119            146 260 
 OCA  HE ES   1    712 29.63                             128   -0.13 7  164 354 
 OCA  HZ I         712 35.15        11.9 0.40            117            164 354 
 ZAR  HZ EP   1    712 11.13                             122   -0.36 6  204 293 
 ZAR  HN ES   1    712 37.01                             122    0.37 6  204 293 
 ZAR  HZ I         712 42.39        20.9 0.54            111            204 293 
 CHI  HZ EP   1    712 16.68                             117    0.31 6  245 195 
 CHI  HN ES   1    712 45.54                             117    0.22 6  245 195 
 HEL  HZ EP   1    712 19.82                             114    0.77 6  270 256 
 HEL  HZ I         712 56.96         7.8 0.28            106            270 256 
                                                                                
