 2013  816 0600 32.5 L   6.866 -73.036136.2  RSN  8 0.6 1.7LRSN 2.7WRSN        1
 SPEC AVERAGE  MO 13.1 ST653.5 OM  2.0 f0 35.3 R0.0472 AL 0.00 WI 20.0 MW  2.7 3
 SPEC SD       MO  0.1 ST358.1 OM  0.4 f0 7.59 R0.0138 AL      WI      MW  0.1 3
 GAP=147        1.43       5.2     7.2  9.0 -0.7593E+00  0.5948E+01 -0.4789E+01E
 Epicentro: CEPITA - SANTANDER                                                 3
 SPEC BRR HH Z MO 13.2 ST999.9 OM  1.6 f0 39.8 R0.0390 AL-0.00 WI 20.0 MW  2.7 3
 SPEC BRR HH Z T 6 1 8 K 0.000 GD  157 VS 4.20 DE 3.20 Q0300.0 QA 0.60 VS 4.20 3
 SPEC BAR2SH Z MO 13.2 ST206.5 OM  1.7 f0 21.6 R0.0719 AL-0.00 WI 20.0 MW  2.8 3
 SPEC BAR2SH Z T 6 1 4 K 0.000 GD  140 VS 4.20 DE 3.20 Q0300.0 QA 0.60 VS 4.20 3
 SPECGUY2CHH Z MO      ST      OM  1.5 f0 4.95 R 0.314 AL-0.00 WI 20.0 MW  0.0 3
 SPECGUY2CHH Z T 6 150 K       GD      VS 4.20 DE 3.20 Q0300.0 QA 0.60 VS 4.20 3
 SPEC OCA HH Z MO 13.3 ST999.9 OM  1.6 f0 40.0 R0.0388 AL-0.00 WI 20.0 MW  2.8 3
 SPEC OCA HH Z T 6 118 K 0.000 GD  206 VS 4.20 DE 3.20 Q0300.0 QA 0.60 VS 4.20 3
 SPEC RUS HH Z MO 12.7 ST407.7 OM  1.1 f0 40.0 R0.0388 AL-0.00 WI 20.0 MW  2.4 3
 SPEC RUS HH Z T 6 111 K 0.000 GD  173 VS 4.20 DE 3.20 Q0300.0 QA 0.60 VS 4.20 3
 2013-08-16-0558-38M.COL___231                                                 6
 ACTION:UPD 14-01-14 09:03 OP:ep   STATUS:               ID:20130816060032 L   I
 OLDACT:REG 13-08-16 07:17 OP:stll STATUS:               ID:20130816055838     3
 STAT SP IPHASW D HRMM SECON CODA AMPLIT PERI AZIMU VELO AIN AR TRES W  DIS CAZ7
 BAR2 SZ EP        6 0 51.32                             165    0.0110 34.3 208 
 BAR2 SZ ES        6 1  6.32                             165    0.3710 34.3 208 
 BAR2 HZ I         6 1  7.38        11.2 0.26            103           34.3 208 
 BRR  HZ EP        6 0 53.28                             148    0.1110 79.3 290 
 BRR  HN ES        6 1 10.08                             148    0.8210 79.3 290 
 BRR  HZ I         6 1 13.97         9.3 0.20             56           79.3 290 
 RUS  HZ EP        6 0 55.58                             140   -0.3310  108 183 
 RUS  HN ES        6 1 13.48                             140   -0.6710  108 183 
 RUS  HZ I         6 1 35.99         5.8 1.96             56            108 183 
 CAPV BZ EP        6 0 58.66                             132    0.70 9  136  36 
 OCA  HZ EP        6 0 59.52                             128   -0.10 9  155 348 
 OCA  HN ES        6 1 19.82                             128   -0.92 9  155 348 
 OCA  HZ I         6 1 29.41         5.0 0.32             56            155 348 
 ZAR  HN ES        6 1 30.14                             119   -0.73 8  213 289 
 HEL  HZ EP        6 1 14.93                             112    1.12 7  286 255 
 HEL  HZ I         6 3 32.19         3.8 1.84             55            286 255 
 GUY2CHZ EP        6 1 16.86                             109   -0.47 7  315 235 
 GUY2CHN ES        6 1 52.37                             109    0.09 7  315 235 
                                                                                
