 2012 1216 0719 43.8 L   6.815 -73.171145.4  RSN  5 0.4 1.2LRSN                1
 GAP=133        0.82       5.9     5.6  8.2 -0.4815E+01  0.3906E+01  0.1067E+02E
 Epicentro: LOS SANTOS - SANTANDER                                             3
 ACTION:UPD 13-01-04 14:28 OP:ep   STATUS:               ID:20121216071943 L   I
 2012-12-16-0717-41M.COL___195                                                 6
 STAT SP IPHASW D HRMM SECON CODA AMPLIT PERI AZIMU VELO AIN AR TRES W  DIS CAZ7
 GIR2 SZ EP   1    720  3.31                             168   -0.11 7 29.3 355 
 GIR2 SZ ES   1    720 18.15                             168   -0.53 7 29.3 355 
 GIR2 SZ I         720 20.25         1.8 0.21                          29.3 355 
 BRR  HZ EP   1    720  5.06                             154    0.29 7 68.0 298 
 BRR  HN ES   1    720 21.95                             154    0.86 7 68.0 298 
 BRR  HZ I         720 22.57         2.7 0.22                          68.0 298 
 PAM  SZ EP   1    720  6.16                             151    0.11 7 77.9  42 
 PAM  SE ES   1    720 23.16                             151   -0.21 7 77.9  42 
 PAM  SZ I         720 25.21         3.6 0.52                          77.9  42 
 RUS  HZ EP   1    720  7.98                             143    0.29 7  102 175 
 RUS  HE ES   1    720 26.36                             143    0.06 7  102 175 
 RUS  HZ I         720 27.58         2.7 0.32                           102 175 
 PTB  HZ EP   1    720 10.09                             132   -0.47 7  145 258 
 PTB  HN ES   1    720 31.00                             132   -0.40 7  145 258 
 PTB  HZ I         720 32.47         2.3 0.28                           145 258 
                                                                                
