 2013 1116 0209 48.4 L   6.821 -73.212136.1  RSN  8 0.4 1.9LRSN                1
 GAP=176        1.06       4.1     5.9  8.2 -0.2484E+01  0.1477E+02 -0.1287E+02E
 Epicentro: ZAPATOCA - SANTANDER                                               3
 ACTION:UPD 14-01-09 16:28 OP:ep   STATUS:               ID:20131116020948 L   I
 OLDACT:REG 13-11-16 10:02 OP:nd   STATUS:               ID:20131116021000     3
 2013-11-16-0210-00M.COL___279                                                 6
 STAT SP IPHASW D HRMM SECON CODA AMPLIT PERI AZIMU VELO AIN AR TRES W  DIS CAZ7
 BAR2 SZ EP        210  6.93                             169    0.0410 25.5 173 
 BAR2 SZ ES        210 21.67                             169    0.3510 25.5 173 
 BAR2 SZ I         210 23.17        30.5 0.52            173           25.5 173 
 BRR  HZ EP        210  8.73                             153    0.6810 63.7 300 
 BRR  HN ES   4    210 23.82                             153    0.42 0 63.7 300 
 BRR  HZ I         210 29.52         8.9 0.16            149           63.7 300 
 RUS  HZ EP        210 10.95                             141   -0.4710  104 172 
 RUS  HN ES        210 28.86                             141   -0.5310  104 172 
 RUS  HZ I         210 30.86         9.1 0.22            146            104 172 
 PTB  HZ EP        210 13.99                             131    0.04 9  141 257 
 PTB  HN ES        210 33.92                             131    0.02 9  141 257 
 PTB  HZ I         210 39.92         7.9 0.22            130            141 257 
 OCA  HZ EP        210 16.13                             128    0.48 9  157 356 
 OCA  HN ES   2    210 36.80                             128   -0.13 5  157 356 
 OCA  HZ I         210 41.13         8.2 0.32            127            157 356 
 NOR  HZ EP        210 23.63                             117    0.56 8  230 233 
 NOR  HN ES        210 49.86                             117   -0.27 8  230 233 
 NOR  HZ I         210 53.01         6.8 0.18            118            230 233 
 SML  HZ EP        210 23.61                             116   -0.30 8  239 337 
 SML  HN ES        210 50.83                             116   -0.80 8  239 337 
 SML  HZ I         210 56.63        13.2 0.09            116            239 337 
 SJC  HZ EP   4    210 41.30                             104   -1.63 0  403 328 
 SJC  HZ I         211  5.20         1.2 0.64            105            403 328 
 SJC  HN ES   4    211 22.09                             104   -3.40 0  403 328 
                                                                                
