 2013  916 0720 41.3 L   6.777 -73.141145.3  RSN  7 0.5 1.5LRSN                1
 GAP=183        1.26       6.3     9.0 10.0  0.8132E+01  0.2350E+02  0.3834E+01E
 Epicentro: LOS SANTOS - SANTANDER                                             3
 ACTION:UPD 13-10-22 09:23 OP:ep   STATUS:               ID:20130916072041 L   I
 OLDACT:REG 13-09-16 08:04 OP:jn   STATUS:               ID:20130916071959     3
 2013-09-16-0719-59M.COL___269                                                 6
 STAT SP IPHASW D HRMM SECON CODA AMPLIT PERI AZIMU VELO AIN AR TRES W  DIS CAZ7
 BAR2 SZ EP        721  0.91                             172    0.1210 20.9 193 
 BAR2 SZ ES        721 15.48                             172   -0.5410 20.9 193 
 BAR2 SZ I         721 17.59         6.5 0.26            169           20.9 193 
 BRR  HZ EP        721  2.90                             152    0.4410 72.9 300 
 BRR  HN ES        721 20.04                             152    1.0510 72.9 300 
 BRR  HZ I         721 24.01         4.2 0.44            147           72.9 300 
 RUS  HN ES   1    721 23.06                             144   -0.07 7 98.0 176 
 PTB  HZ EP        721  7.93                             132   -0.26 9  148 260 
 PTB  HN ES   1    721 28.57                             132   -0.63 7  148 260 
 PTB  HZ I         721 34.75         4.4 0.22            131            148 260 
 SPBC HZ EP        721  9.88                             129    0.31 9  161 220 
 SPBC HN ES   1    721 31.38                             129   -0.26 7  161 220 
 SPBC HZ I         721 36.95         5.8 0.18            130            161 220 
 OCA  HN ES   1    721 31.21                             129   -0.83 7  163 353 
 OCA  HZ I         721 36.64         3.9 0.14            130            163 353 
 ZAR  HE ES   1    721 38.64                             122   -0.59 6  205 293 
 ZAR  HZ I         721 45.29         3.1 0.24            122            205 293 
                                                                                
