 2014  316 0211 47.8 L   6.818 -73.140145.9  RSN 15 0.4 2.3LRSN                1
 GAP= 71        0.89       2.7     3.0  5.4 -0.1591E+01  0.4346E+01 -0.1269E+00E
 Epicentro: LOS SANTOS - SANTANDER                                             3
 OLDACT:REG 14-03-16 07:30 OP:fm   STATUS:               ID:20140316020818     3
 ACTION:UPD 14-04-09 23:17 OP:nd   STATUS:               ID:20140316021147 L   I
 OLDACT:UP  14-03-16 08:30 OP:fm   STATUS:               ID:20140316020818     3
 2014-03-16-0208-18M.COL___242                                                 6
 STAT SP IPHASW D HRMM SECON CODA AMPLIT PERI AZIMU VELO AIN AR TRES W  DIS CAZ7
 BAR2 SZ EP     C  212  7.57                             170    0.0510 25.4 191 
 BAR2 SZ ES   1    212 22.88                             170   -0.00 7 25.4 191 
 BAR2 SZ I         212 39.18        85.2 0.04            168           25.4 191 
 PAM  SZ EP        212 10.38                             151    0.4310 75.5  40 
 PAM  SN ES        212 27.59                             151    0.3910 75.5  40 
 PAM  SZ I         212 29.41        37.8 0.58            160           75.5  40 
 RUS  HZ EP     D  212 11.41                             143   -0.3310  103 176 
 RUS  HE ES        212 30.22                             143   -0.1710  103 176 
 RUS  SZ I         212 31.14        12.7 0.32            149            103 176 
 PTB  HZ EP        212 14.07                             132   -0.83 9  149 258 
 PTB  HN ES        212 35.95                             132   -0.06 9  149 258 
 PTB  SZ I         212 42.70        40.1 0.24            135            149 258 
 TAM  HZ EP        212 15.68                             130    0.16 9  155 106 
 TAM  HN ES   2    212 37.70                             130    0.59 5  155 106 
 TAM  SZ I         212 38.12        12.7 2.22            141            155 106 
 OCA  HZ EP        212 15.63                             130   -0.34 9  158 353 
 OCA  HN ES        212 37.36                             130   -0.56 9  158 353 
 OCA  SZ I         212 40.83        12.4 0.14            137            158 353 
 SPBC HZ EP        212 16.50                             129   -0.02 9  165 219 
 SPBC HN ES        212 38.66                             129   -0.24 9  165 219 
 SPBC SZ I         212 47.29        26.5 0.24            133            165 219 
 ZAR  HZ EP        212 20.11                             122   -0.16 9  204 292 
 ZAR  HN ES        212 46.10                             122    0.54 9  204 292 
 ZAR  SZ I         212 52.46        33.2 0.36            127            204 292 
 NOR  HZ EP   2    212 23.16                             118   -0.59 4  236 234 
 NOR  HE ES        212 51.70                             118   -0.06 8  236 234 
 NOR  SZ I         212 59.27        20.6 0.18            123            236 234 
 SML  HZ EP   2    212 23.96                             118   -0.33 4  242 335 
 SML  HE ES   2    212 53.17                             118    0.43 4  242 335 
 SML  SZ I         213  2.50        36.5 0.08            123            242 335 
 CHI  HZ EP   4    212 23.88                             117   -1.89 0  251 195 
 CHI  HE ES   4    212 55.99                             117    0.64 0  251 195 
 CHI  SZ I         213  4.42        10.0 0.38            123            251 195 
 HEL  HZ EP   1    212 28.98                             115    0.81 6  273 255 
 HEL  HN ES   1    213  0.50                             115    0.87 6  273 255 
 HEL  SZ I         213  5.78         9.7 0.44            119            273 255 
 URE  HZ EP   4    212 27.22                             114   -1.67 0  284 291 
 URE  HE ES   4    212 58.55                             114   -2.36 0  284 291 
 URE  SZ I         213 11.05        18.9 0.20            118            284 291 
 GUY2CHZ EP        212 32.08                             112    0.45 7  303 235 
 GUY2CHE ES   4    213  8.20                             112    2.40 0  303 235 
 GUY2CSZ I         213 14.77        10.0 0.52                           303 235 
 ORTC HZ EP   1    212 42.70                             106    0.71 4  397 216 
 ORTC HN ES   1    213 24.54                             106    0.31 4  397 216 
 ORTC SZ I         213 30.34         6.5 0.86            111            397 216 
                                                                                
