 2011  216 0601  4.7 L   7.490 -73.225145.5  RSN  5 0.3 1.5LRSN                1
 GAP=169        0.64       4.6    12.9  7.2 -0.2428E+02  0.1887E+02 -0.1545E+01E
 Epicentro: EL PLAYON - SANTANDER                                              3
 ACTION:UP  11-03-28 15:08 OP:jfem STATUS:               ID:20110216060104 L   I
 2011-02-16-0559-07S.COL___136                                                 6
 STAT SP IPHASW D HRMM SECON CODA AMPLIT PERI AZIMU VELO SNR AR TRES W  DIS CAZ7
 BTL  SZ EP   1    6 1 26.08                             155     0.3 7   63 184 
 BTL  SZ ES   1    6 1 41.73                             155    -0.4 7   63 184 
 GRA  SZ IP        6 1 25.71                             155     0.110   64  47 
 GRA  SZ I         6 1 28.51         7.3 0.27                            64  47 
 GRA  SZ ES   1    6 1 41.90                             155    -0.1 7   64  47 
 OCA  SZ IP   1    6 1 26.63                             148    -0.1 7   84 353 
 OCA  SZ I         6 1 26.87        12.3 0.18                            84 353 
 OCA  SZ ES   2    6 1 44.22                             148     0.2 5   84 353 
 BAR2 SZ IP   1    6 1 27.92                             144    -0.1 7   99 177 
 BAR2 SZ I         6 1 29.48         6.6 0.75                            99 177 
 BAR2 SZ ES   2    6 1 46.76                             144     0.6 5   99 177 
 RUS  HZ EP   2    6 1 34.73                             126    -0.3 4  177 175 
 RUS  HZ I         6 1 34.94         1.1 0.16                           177 175 
                                                                                
