 2017  116 0850 54.5 L   6.777 -73.109144.7  RSN  5 0.2 0.9LRSN                1
 GAP=142        0.63       3.3     3.4  4.6  0.8446E+00  0.3159E+01 -0.2647E+01E
 Epicentro: LOS SANTOS - SANTANDER                                             3
 ACTION:UPD 17-05-22 16:00 OP:jn   STATUS:               ID:20170116085054 L   I
 OLDACT:UP  17-01-16 17:12 OP:edw  STATUS:               ID:20170116084743d    3
 OLDACT:UP  17-01-16 17:11 OP:edw  STATUS:               ID:20170116084743d    3
 OLDACT:DUP 17-01-16 17:07 OP:edw  STATUS:               ID:20170116084743d    3
 OLDACT:UP  17-01-16 17:05 OP:edw  STATUS:               ID:20170116084742     3
 OLDACT:REG 17-01-16 13:29 OP:dani STATUS:               ID:20170116084742     3
 2017-01-16-0848-00M.COL___335                                                 6
 STAT SP IPHASW D HRMM SECON CODA AMPLIT PERI AZIMU VELO AIN AR TRES W  DIS CAZ7
 BAR2 EZ EP        851 13.84                             171   -0.1610 22.0 202 
 BAR2 EZ ES        851 28.87                             171   -0.3210 22.0 202 
 BAR2 EZ I         851 29.66         1.4 0.13            169           22.0 202 
 PAM  EZ EP        851 16.73                             150    0.1410 76.9  36 
 PAM  EN ES        851 33.79                             150   -0.0210 76.9  36 
 PAM  EZ I         851 34.30         1.8 0.18            152           76.9  36 
 RUS  HZ EP        851 17.94                             144   -0.0310 97.8 178 
 RUS  HN ES        851 36.57                             144    0.3110 97.8 178 
 RUS  HZ I         851 37.68         1.1 0.34            145           97.8 178 
 PTB  HZ EP   9    851 20.78                             131   -0.94 0  151 260 
 PTB  HN ES        851 41.60                             132   -0.40 9  151 260 
 PTB  HZ I         851 44.64         1.1 0.21            129            151 260 
 ZAR  HZ EP        851 27.24                             121   -0.15 8  209 292 
 ZAR  HE ES        851 53.29                             121    0.26 8  209 292 
 ZAR  HZ I         851 59.84         1.1 0.21            120            209 292 
                                                                                
