 2011  116 0725 36.4 L   6.804 -73.110137.5  RSN 12 0.5 2.0LRSN                1
 GAP=139        1.03       3.7     7.3  8.9 -0.9538E+01  0.3089E+02 -0.2452E+01E
 Epicentro: LOS SANTOS - SANTANDER                                             3
 ACTION:UP  11-02-08 08:40 OP:pat  STATUS:               ID:20110116072536 L   I
 2011-01-16-0724-04S.COL___135                                                 6
 STAT SP IPHASW D HRMM SECON CODA AMPLIT PERI AZIMU VELO SNR AR TRES W  DIS CAZ7
 BTL  SZ EP        725 55.11                             171     0.110   22 306 
 BAR2 SZ EP        725 55.03                             169     0.010   25 199 
 BAR2 SZ ES   1    726  9.82                             169     0.2 7   25 199 
 BAR2 SZ I         726 11.16        25.4 0.23                            25 199 
 RUS  HZ EP   1    725 59.07                             142    -0.3 7  101 178 
 RUS  HN ES   1    726 16.57                             142    -0.7 7  101 178 
 RUS  HZ I         726 18.64        14.7 0.25                           101 178 
 GRA  SZ EP        726  0.87                             135     0.110  124  16 
 GRA  SZ ES   1    726 20.09                             135     0.3 7  124  16 
 GRA  SZ I         726 26.99         6.8 0.25                           124  16 
 OCA  SZ EP   1    726  3.72                             128    -0.3 7  160 352 
 OCA  SZ ES   1    726 25.38                             128    -0.3 7  160 352 
 OCA  SZ I         726 30.16        15.8 0.41                           160 352 
 YOP  SN ES   2    726 28.88                             124     0.3 4  178 155 
 YOP  SZ I         726 31.79         9.2 0.34                           178 155 
 NOR  SZ EP   1    726 11.37                             116    -0.6 6  238 235 
 CHI  HZ EP   1    726 13.49                             115    -0.3 6  250 196 
 CHI  HN ES   1    726 42.42                             115    -0.5 6  250 196 
 CHI  HZ I         726 48.35         4.1 0.19                           250 196 
 ROSC BZ EP   1    726 15.34                             115     1.0 6  255 212 
 ROSC BN ES   1    726 44.86                             115     0.9 6  255 212 
 ROSC BZ I         726 49.88        10.5 0.41                           255 212 
 HEL  HZ EP   1    726 17.34                             113     0.7 6  276 256 
 HEL  HE ES   1    726 47.61                             113    -0.4 6  276 256 
 HEL  HZ I         726 53.61         8.9 0.45                           276 256 
 RREF HE ES   1    726 58.87                             109     0.3 5  325 230 
 RREF HZ I         727  7.08         5.6 0.37                           325 230 
 DBB  SZ EP   1    726 23.24                             108    -0.7 5  343 274 
                                                                                
