 2011  716 0800 48.6 L   6.775 -73.132151.1  RSN  6 0.3 1.9LRSN                1
 GAP=157        0.57       2.9     4.8  6.5 -0.5402E+01  0.4277E+01  0.3642E+01E
 Epicentro: LOS SANTOS - SANTANDER                                             3
 ACTION:UPD 12-07-25 14:01 OP:epov STATUS:               ID:20110716080048 L   I
 2011-07-16-0759-53S.COL___132                                                 6
 STAT SP IPHASW D HRMM SECON CODA AMPLIT PERI AZIMU VELO AIN AR TRES W  DIS CAZ7
 BRR  HZ EP   1    8 1 10.27                             153   -0.17 7 73.8 300 
 BRR  HZ I         8 1 10.51        27.3 0.12                          73.8 300 
 BRR  HE ES   1    8 1 27.46                             153   -0.04 7 73.8 300 
 RUS  HZ EP   1    8 1 12.47                             146   -0.18 7 97.7 177 
 RUS  HE ES   1    8 1 31.44                             146    0.01 7 97.7 177 
 RUS  HZ I         8 1 32.82        19.8 0.43                          97.7 177 
 BRI  SZ EP   1    8 1 13.48                             142    0.35 7  110  20 
 BRI  SZ ES   1    8 1 32.74                             142    0.46 7  110  20 
 BRI  SZ I         8 1 38.17         4.6 0.46                           110  20 
 GRA  SZ ES   1    8 1 34.15                             138   -0.52 7  128  16 
 GRA  SZ I         8 1 35.40         9.0 0.32                           128  16 
 OCA  SZ ES   1    8 1 40.17                             130   -0.02 7  163 353 
 OCA  SZ I         8 1 43.95         8.4 0.40                           163 353 
 NOR  SZ EP   1    8 1 24.48                             120   -0.09 6  234 235 
 NOR  SN ES   1    8 1 52.89                             120    0.23 6  234 235 
                                                                                
