 2011  216 0412 20.2 L   6.774 -73.022149.1  RSN  6 0.4 1.4LRSN                1
 GAP=195        0.73       4.1    14.7  9.7 -0.1931E+02  0.4469E+02 -0.1285E+02E
 Epicentro: CEPITA - SANTANDER                                                 3
 ACTION:UP  11-03-28 15:08 OP:jfem STATUS:               ID:20110216041220 L   I
 2011-02-16-0409-01S.COL___136                                                 6
 STAT SP IPHASW D HRMM SECON CODA AMPLIT PERI AZIMU VELO SNR AR TRES W  DIS CAZ7
 BAR2 SZ EP   1    412 40.01                             170    -0.3 7   27 222 
 BAR2 SZ ES   2    412 55.27                             170    -0.7 5   27 222 
 BAR2 SZ I         412 58.47         5.7 0.26                            27 222 
 BTL  SZ IP        412 40.67                             168     0.310   32 301 
 RUS  HZ EP   1    412 44.35                             145     0.3 7   98 184 
 RUS  HN ES   1    413  3.00                             145     0.3 7   98 184 
 RUS  HZ I         413  4.15         2.7 0.40                            98 184 
 OCA  SZ EP        412 49.01                             129    -0.2 9  165 349 
 OCA  SZ ES   2    413 12.13                             129     0.2 5  165 349 
 OCA  SZ I         413 22.82         3.1 0.61                           165 349 
 CHI  HZ EP   2    412 58.18                             118     0.0 4  250 198 
 CHI  HN ES   1    413 27.25                             118    -0.6 6  250 198 
 RREF HN ES   2    413 44.82                             111     0.5 3  330 231 
                                                                                
