 2012  716 0234 56.9 L   6.711 -73.212139.3  RSN  6 0.5 1.8LRSN                1
 GAP=217        0.99       7.9     8.4  9.5  0.3742E+02  0.2021E+02  0.3859E+01E
 Epicentro: VILLANUEVA - SANTANDER                                             3
 ACTION:UPD 12-08-14 11:45 OP:ep   STATUS:               ID:20120716023456 L   I
 2012-07-16-0230-00M.COL___197                                                 6
 STAT SP IPHASW D HRMM SECON CODA AMPLIT PERI AZIMU VELO AIN AR TRES W  DIS CAZ7
 BAR2 SZ EP   1    235 15.15                             174    -0.4 7   14 166 
 BAR2 SZ ES   1    235 29.84                             174    -0.3 7   14 166 
 BRR  HZ EP   1    235 17.15                             152    -0.2 7   71 308 
 BRR  HN ES   1    235 33.99                             152     0.7 7   71 308 
 RUS  HZ EP   1    235 19.27                             145    -0.1 7   92 171 
 RUS  HN ES   1    235 37.33                             145     0.4 7   92 171 
 RUS  HZ I         235 39.03         7.6 0.28            145             92 171 
 PTB  HZ EP   1    235 22.19                             133    -0.3 7  139 262 
 PTB  HN ES   1    235 42.07                             133    -0.5 7  139 262 
 PTB  HZ I         235 46.46         6.6 0.22            130            139 262 
 ZAR  HZ EP   1    235 29.51                             121     0.9 6  201 296 
 ZAR  HE ES   1    235 53.18                             121    -0.2 6  201 296 
 ZAR  HZ I         235 58.89        12.3 0.43            121            201 296 
 CHI  HN ES   2    236  1.67                             117     0.5 4  237 194 
