 2012  116 0844  0.7 L   6.780 -73.145144.1  RSN  5 0.3 1.4LRSN                1
 GAP=138        0.66       5.2     5.8  6.1  0.5482E+01  0.5032E+01  0.2190E+00E
 Epicentro: LOS SANTOS - SANTANDER                                             3
 ACTION:UP  12-02-03 08:17 OP:REBC STATUS:               ID:20120116084400 L   I
 2012-01-16-0840-00M.COL___186                                                 6
 STAT SP IPHASW D HRMM SECON CODA AMPLIT PERI AZIMU VELO SNR AR TRES W  DIS CAZ7
 BAR2 SZ EP        844 20.15                             171     0.010   21 191 
 BAR2 SZ ES        844 35.06                             171    -0.210   21 191 
 BAR2 SZ I         844 36.66         5.0 0.21                            21 191 
 BRR  HZ EP   1    844 22.07                             152     0.3 7   72 300 
 BRR  HE ES   1    844 38.58                             152     0.4 7   72 300 
 BRR  HZ I         844 42.98         8.2 0.27                            72 300 
 PAM  SZ EP   2    844 22.94                             150     0.1 5   79  38 
 PAM  SE ES   2    844 39.59                             150    -0.5 5   79  38 
 RUS  HZ EP   1    844 24.23                             144     0.1 7   98 176 
 RUS  HE ES   1    844 42.58                             144     0.2 7   98 176 
 RUS  HZ I         844 43.63         2.1 0.25                            98 176 
 PTB  HZ EP   1    844 27.09                             132    -0.4 7  147 260 
 PTB  HE ES   2    844 47.92                             132    -0.5 5  147 260 
                                                                                
