 2016 1216 0349 18.8 L   6.399 -73.412122.0  RSN  7 0.3 1.3LRSN                1
 GAP= 97        0.71       2.8     4.3  6.3  0.4651E+01  0.1676E+02  0.8286E+01E
 Epicentro: CHIMA - SANTANDER                                                  3
 ACTION:UPD 17-01-11 20:15 OP:rebc STATUS:               ID:20161216034918 L   I
 OLDACT:UP  16-12-16 15:14 OP:e    STATUS:               ID:20161216034744     3
 OLDACT:UP  16-12-16 15:08 OP:e    STATUS:               ID:20161216034744     3
 OLDACT:REG 16-12-16 12:32 OP:and  STATUS:               ID:20161216034744     3
 2016-12-16-0348-00M.COL___384                                                 6
 STAT SP IPHASW D HRMM SECON CODA AMPLIT PERI AZIMU VELO AIN AR TRES W  DIS CAZ7
 BAR2 EZ IP     C  349 36.21                             164    0.3210 33.2  50 
 BAR2 EZ ES        349 49.34                             164    0.1410 33.2  50 
 BAR2 EZ I         349 50.13        16.8 0.24            165           33.2  50 
 RUS  HZ EP        349 37.85                             150   -0.0410 66.8 147 
 RUS  HE ES        349 52.80                             150    0.0410 66.8 147 
 RUS  HZ I         349 56.38         3.5 0.48            150           66.8 147 
 BRR  HZ EP        349 38.05                             143   -0.3710 85.0 337 
 BRR  HN ES        349 53.33                             143   -0.3810 85.0 337 
 PTB  HZ EP   4    349 39.05                             133   -1.97 0  117 278 
 PTB  HN ES   4    349 54.63                             133   -3.71 0  117 278 
 PTB  HZ I         349 58.35         2.3 0.06            136            117 278 
 CHI  HZ EP        349 50.02                             118    0.22 9  199 190 
 CHI  HN ES        350 13.81                             118   -0.15 9  199 190 
 ZAR  HZ IP   4 C  349 47.83                             117   -1.61 0  200 307 
 ZAR  HE ES        350 13.86                             117    0.55 9  200 307 
 GUY2CHZ EP        349 55.52                             111   -0.29 8  252 239 
 GUY2CHN ES        350 24.67                             111    0.01 8  252 239 
 GUY2CHZ I         350 29.16         0.8 0.44                           252 239 
                                                                                
