 2013 1216 0906  4.1 L   6.678 -73.190150.2  RSN  4 0.2 1.0LRSN                1
 GAP=223        0.42       5.5     3.4  5.5  0.7132E+01 -0.2405E+01  0.1729E+01E
 Epicentro: VILLANUEVA - SANTANDER                                             3
 ACTION:UPD 14-01-13 10:18 OP:ep   STATUS:               ID:20131216090604 L   I
 OLDACT:REG 13-12-16 06:41 OP:jn   STATUS:               ID:20131216090000     3
 2013-12-16-0900-00M.COL___285                                                 6
 STAT SP IPHASW D HRMM SECON CODA AMPLIT PERI AZIMU VELO AIN AR TRES W  DIS CAZ7
 BAR2 SZ EP        9 6 23.92                             176   -0.1810 9.49 175 
 BAR2 SZ ES   2    9 6 39.50                             176   -0.18 5 9.49 175 
 BAR2 SZ I         9 6 43.87         3.3 0.26            176           9.49 175 
 BRR  HZ EP   2    9 6 26.44                             152    0.48 5 74.7 310 
 BRR  HN ES   2    9 6 43.09                             152    0.11 5 74.7 310 
 RUS  HZ EP        9 6 27.53                             148    0.0810 87.6 172 
 RUS  HN ES   2    9 6 45.90                             148    0.27 5 87.6 172 
 RUS  HZ I         9 6 48.12         0.9 0.40            152           87.6 172 
 PTB  HZ EP   1    9 6 30.82                             134   -0.04 7  141 264 
 PTB  HN ES        9 6 51.64                             134   -0.06 9  141 264 
 PTB  HZ I         9 6 52.18         2.0 0.16            141            141 264 
                                                                                
