 2013  516 0635 19.6 L   6.791 -73.153147.2  RSN 13 0.4 2.1LRSN                1
 GAP= 71        0.88       2.9     3.4  4.6 -0.1305E+01  0.4063E+01  0.1408E+01E
 Epicentro: LOS SANTOS - SANTANDER                                             3
 ACTION:UPD 13-06-20 09:50 OP:ep   STATUS:               ID:20130516063519 L   I
 2013-05-16-0630-00M.COL___256                                                 6
 STAT SP IPHASW D HRMM SECON CODA AMPLIT PERI AZIMU VELO AIN AR TRES W  DIS CAZ7
 BAR2 SZ EP        635 39.53                             171    0.1010 22.2 188 
 BAR2 SZ ES        635 55.02                             171    0.1610 22.2 188 
 BAR2 SZ I         635 56.23        19.5 0.20            169           22.2 188 
 GIR2 SZ EP        635 39.77                             167    0.2510 32.2 352 
 GIR2 SZ ES        635 54.53                             167   -0.4910 32.2 352 
 GIR2 SZ I         635 56.64        15.4 0.14            167           32.2 352 
 BRR  HZ EP        635 41.44                             153    0.5010 71.0 300 
 BRR  HN ES   1    635 58.54                             153    0.99 7 71.0 300 
 BRR  HZ I         636  3.24        17.2 0.14            152           71.0 300 
 PAM  SZ EP        635 42.40                             151    0.3010 78.7  40 
 PAM  SE ES        635 59.48                             151   -0.1310 78.7  40 
 PAM  SZ I         636  1.63         9.2 0.18            148           78.7  40 
 RUS  HZ EP        635 43.40                             144   -0.0710 99.6 176 
 RUS  HN ES   1    636  1.84                             144   -0.22 7 99.6 176 
 RUS  HZ I         636  3.33         9.6 0.38            141           99.6 176 
 PTB  HZ EP        635 46.28                             133   -0.36 9  147 259 
 PTB  HN ES        636  7.57                             133   -0.13 9  147 259 
 PTB  HZ I         636 13.39        22.9 0.22            131            147 259 
 TAM  HZ EP   1    635 47.26                             131   -0.23 7  156 105 
 TAM  HZ I         636  8.54        11.4 0.32            127            156 105 
 OCA  HZ EP        635 48.22                             130    0.06 9  161 353 
 OCA  HN ES        636 10.34                             130   -0.05 9  161 353 
 OCA  HZ I         636 14.45        28.4 0.32            127            161 353 
 ZAR  HZ EP   1    635 52.17                             123    0.02 6  204 292 
 ZAR  HN ES   1    636 17.41                             123   -0.09 6  204 292 
 ZAR  HZ I         636 23.92        17.3 0.28            121            204 292 
 NOR  HZ EP   1    635 55.11                             119   -0.21 6  233 235 
 NOR  HN ES   1    636 23.00                             119   -0.15 6  233 235 
 SML  HN ES        636 24.17                             118   -0.93 8  244 336 
 HEL  HZ EP        636  0.51                             115    0.69 8  271 256 
 HEL  HE ES   1    636 31.22                             115    0.07 6  271 256 
 HEL  HZ I         636 38.72         9.6 0.26            113            271 256 
 PRA  HZ EP        636 12.92                             107   -0.14 6  391 210 
 PRA  HN ES   1    636 53.92                             107   -0.81 4  391 210 
 PRA  HZ I         637  0.85         7.1 0.32            105            391 210 
                                                                                
