 2011  116 0156  1.5 L   6.786 -73.170141.3  RSN 16 0.5 2.8LRSN                1
 GAP=134        0.94       2.9     4.5  6.9 -0.2933E+01  0.1116E+02  0.2420E+01E
 Epicentro: LOS SANTOS - SANTANDER                                             3
 ACTION:UP  11-02-08 08:40 OP:pat  STATUS:               ID:20110116015601 L   I
 2011-01-16-0154-46S.COL___136                                                 6
 STAT SP IPHASW D HRMM SECON CODA AMPLIT PERI AZIMU VELO SNR AR TRES W  DIS CAZ7
 BTL  SZ IP        156 20.92                             172     0.410   18 324 
 BAR2 SZ IP        156 20.67                             171     0.110   22 184 
 BAR2 SZ ES   1    156 35.88                             171     0.4 7   22 184 
 BAR2 SZ I         156 37.41       246.9 0.18                            22 184 
 GIR2 SZ EP        156 20.80                             166     0.110   32 355 
 RUS  HZ IP     D  156 24.58                             143    -0.210   99 174 
 RUS  HN ES   1    156 42.82                             143     0.0 7   99 174 
 RUS  HZ I         156 44.60        69.5 0.25                            99 174 
 GRA  SZ IP        156 26.49                             135    -0.110  128  18 
 GRA  SZ ES   1    156 46.31                             135     0.2 7  128  18 
 GRA  SZ I         156 47.99        51.6 0.37                           128  18 
 OCA  SZ EP   1    156 29.22                             128    -0.4 7  162 354 
 OCA  SZ ES   1    156 50.88                             128    -0.6 7  162 354 
 OCA  SZ I         156 54.91        63.1 0.16                           162 354 
 YOP  SZ EP        156 31.16                             125    -0.1 9  179 152 
 YOP  SN ES   1    156 53.87                             125    -0.6 7  179 152 
 NOR  SZ EP   1    156 36.57                             118    -0.1 6  232 235 
 NOR  SN ES   1    157  4.07                             118     0.0 6  232 235 
 CHI  HZ EP   1    156 38.37                             116    -0.4 6  246 195 
 CHI  HE ES   1    157  8.34                             116     0.6 6  246 195 
 CHI  HZ I         157 13.49        29.6 0.53                           246 195 
 ROSC BZ EP   1    156 40.19                             116     1.1 6  250 211 
 ROSC BE ES   1    157  8.47                             116     0.0 6  250 211 
 ROSC BZ I         157 15.61        77.8 0.30                           250 211 
 HEL  HZ EP   1    156 41.87                             114     0.7 6  269 256 
 HEL  HN ES   1    157 11.90                             114    -0.2 6  269 256 
 HEL  HZ I         157 20.18        34.9 0.22                           269 256 
 GUY  SZ EP   2    156 45.44                             112     0.8 4  298 235 
 GUY  SN ES   1    157 17.23                             112    -1.0 5  298 235 
 GUY  SZ I         157 27.94        62.2 0.26                           298 235 
 VIL  SZ EP   1    156 44.27                             111    -0.1 5  300 189 
 VIL  SE ES   1    157 16.96                             111    -0.8 5  300 189 
 VIL  SZ I         157 28.58        19.7 0.26                           300 189 
 RREF HZ EP   1    156 47.52                             110     0.4 5  319 229 
 RREF HE ES   1    157 22.01                             110    -0.7 5  319 229 
 RREF HZ I         157 31.26        41.0 0.25                           319 229 
 DBB  SZ EP   1    156 48.25                             109    -0.3 5  337 275 
 TOL  SZ EP   1    156 50.14                             109     0.9 5  341 225 
                                                                                
