 2013  416 0834 29.8 L   6.825 -73.107157.3  RSN 12 0.5 2.0LRSN                1
 GAP=187        0.99       4.1     6.4  9.1 -0.6019E+01  0.2437E+01  0.3219E+01E
 Epicentro: LOS SANTOS - SANTANDER                                             3
 ACTION:UPD 13-05-22 14:38 OP:EP   STATUS:               ID:20130416083429 L   I
 2013-04-16-0828-48M.COL___210                                                 6
 STAT SP IPHASW D HRMM SECON CODA AMPLIT PERI AZIMU VELO AIN AR TRES W  DIS CAZ7
 BAR2 SZ IP        834 50.87                             170   -0.0110 27.1 198 
 BAR2 SZ I         835  7.19        16.1 0.16            168           27.1 198 
 BRR  HZ IP     C  834 52.68                             154    0.3510 73.7 295 
 BRR  HN ES   1    835  9.71                             154   -0.21 7 73.7 295 
 BRR  HZ I         835 10.54        14.0 0.10            159           73.7 295 
 RUS  HZ EP        834 54.86                             145   -0.0110  103 179 
 RUS  HZ I         835 14.69         4.8 0.16            143            103 179 
 PTB  HZ EP        834 57.43                             134   -0.71 9  153 258 
 PTB  HN ES   4    835 18.81                             134   -1.44 0  153 258 
 PTB  HZ I         835 22.10        10.9 0.22            136            153 258 
 OCA  HZ EP        834 58.24                             132   -0.58 9  158 351 
 OCA  HN ES   1    835 22.13                             132    0.67 7  158 351 
 OCA  HZ I         835 26.39         9.7 0.34            133            158 351 
 ZAR  HZ EP        835  3.65                             124    0.34 8  207 291 
 ZAR  HN ES   2    835 29.45                             124    0.00 4  207 291 
 ZAR  HZ I         835 34.64         9.1 0.12            126            207 291 
 NOR  HZ ES        835 35.21                             120   -0.37 8  240 235 
 SML  HZ EP        835  7.38                             120    0.37 8  243 334 
 SML  HN ES   1    835 36.12                             120    0.08 6  243 334 
 SML  HZ I         835 43.09        11.7 0.09            121            243 334 
 HEL  HZ EP        835 12.05                             116    0.91 7  277 255 
 HEL  HN ES   1    835 43.39                             116    0.00 6  277 255 
 HEL  HZ I         835 49.22         5.4 0.40            117            277 255 
 URE  HZ EP   4    835  9.54                             115   -2.23 0  287 291 
 URE  HE ES   4    835 41.96                             115   -2.55 0  287 291 
 URE  HZ I         835 53.84         7.5 0.20            117            287 291 
 PRA  HZ EP   1    835 24.54                             108    0.28 4  397 210 
 PRA  HN ES   1    836  7.19                             108    0.45 4  397 210 
 PRA  HZ I         836 11.38         2.7 0.30            108            397 210 
 SJC  HZ EP        835 24.63                             107   -1.12 6  409 326 
 SJC  HN ES   4    836  6.05                             107   -3.35 0  409 326 
 SJC  HZ I         836 21.07         3.7 0.77            108            409 326 
                                                                                
