 2016  816 0504 45.8 L   6.793 -73.142146.5  RSN 11 0.4 1.5LRSN                1
 GAP=137        0.95       3.5     3.7  6.1 -0.1111E+01  0.7017E+01  0.3371E+01E
 Epicentro: LOS SANTOS - SANTANDER                                             3
 ACTION:UPD 16-10-29 15:36 OP:rebc STATUS:               ID:20160816050445 L   I
 OLDACT:REG 16-08-16 12:45 OP:ak   STATUS:               ID:20160816045759     3
 2016-08-16-0457-59S.COL___346                                                 6
 STAT SP IPHASW D HRMM SECON CODA AMPLIT PERI AZIMU VELO AIN AR TRES W  DIS CAZ7
 BAR2 EZ EP        5 5  5.25                             171   -0.2310 22.6 191 
 BAR2 EZ ES        5 5 21.56                             171    0.7110 22.6 191 
 BAR2 EZ I         5 5 23.28         7.5 0.31                          22.6 191 
 BRR  HZ EP        5 5  7.48                             152    0.4410 71.9 299 
 BRR  HN ES        5 5 23.59                             152   -0.0410 71.9 299 
 BRR  HZ I         5 5 28.81         4.8 0.31                          71.9 299 
 PAM  EZ EP        5 5  8.39                             151    0.3010 77.7  39 
 PAM  EN ES        5 5 25.11                             151   -0.3810 77.7  39 
 PAM  EZ I         5 5 27.40         5.3 0.46                          77.7  39 
 RUS  HZ EP        5 5  9.46                             144   -0.0810 99.8 176 
 RUS  HN ES        5 5 28.09                             144    0.0110 99.8 176 
 RUS  HZ I         5 5 29.51         4.4 0.22                          99.8 176 
 PTB  HZ EP        5 5 12.14                             132   -0.69 9  148 259 
 PTB  HN ES        5 5 33.47                             132   -0.45 9  148 259 
 PTB  HZ I         5 5 38.88                                            148 259 
 SPBC HZ EP   2    5 5 14.30                             129    0.00 5  163 219 
 SPBC HN ES        5 5 35.94                             129   -0.60 9  163 219 
 SPBC HZ I         5 5 43.57         5.4 0.08                           163 219 
 ZAR  HZ EP   2    5 5 18.16                             123   -0.18 4  205 292 
 ZAR  HN ES        5 5 44.03                             123    0.29 9  205 292 
 ZAR  HZ I         5 5 51.62         2.9 0.06                           205 292 
 CHI  HZ EP   2    5 5 22.61                             117   -0.83 4  248 195 
 CHI  HN ES        5 5 53.09                             117    0.27 8  248 195 
 HEL  HZ EP   2    5 5 25.84                             115   -0.21 4  272 256 
 HEL  HN ES        5 5 57.51                             115    0.05 8  272 256 
 HEL  HZ I         5 6  6.11         1.9 0.33                           272 256 
 GUY2CHZ EP   2    5 5 30.00                             113    0.59 4  301 235 
 GUY2CHN ES        5 6  4.19                             113    0.76 7  301 235 
 GUY2CHZ I         5 6 11.80         2.1 0.30                           301 235 
 CBOC HZ EP   2    5 5 33.54                             110    0.80 3  334 252 
                                                                                
