 2013  116 0324 41.5 L   6.763 -73.169143.7  RSN  7 0.4 1.8LRSN                1
 GAP=232        0.85       6.2     7.2  7.4  0.2476E+02  0.1720E+02  0.1298E+02E
 Epicentro: LOS SANTOS - SANTANDER                                             3
 ACTION:UPD 13-02-15 09:14 OP:ep   STATUS:               ID:20130116032441 L   I
 2013-01-16-0320-00M.COL___239                                                 6
 STAT SP IPHASW D HRMM SECON CODA AMPLIT PERI AZIMU VELO AIN AR TRES W  DIS CAZ7
 BAR2 SZ EP   1    325  0.75                             172   -0.08 8 18.9 185 
 BAR2 SZ ES   1    325 15.38                             172   -0.51 8 18.9 185 
 BAR2 SZ I         325 17.06        22.2 0.14            167           18.9 185 
 BRR  HZ EP   1    325  2.61                             152    0.16 8 71.1 302 
 BRR  HN ES   1    325 19.56                             152    0.79 8 71.1 302 
 BRR  HZ I         325 24.25        10.1 0.20            150           71.1 302 
 RUS  HZ EP   1    325  4.78                             144   -0.03 8 96.7 174 
 RUS  HN ES   1    325 22.81                             144   -0.14 8 96.7 174 
 RUS  HZ I         325 24.64         5.7 0.30            145           96.7 174 
 PTB  HZ EP        325  7.70                             132   -0.3410  145 260 
 PTB  HN ES   1    325 28.34                             132   -0.37 7  145 260 
 PTB  HZ I         325 30.92         8.8 0.22            131            145 260 
 ZAR  HN ES   1    325 39.16                             122    0.25 7  203 293 
 ZAR  HZ I         325 44.79         8.3 0.28            122            203 293 
 CHI  HZ EP   1    325 19.36                             117    0.74 6  244 195 
 CHI  HN ES   1    325 48.12                             117    0.58 6  244 195 
 CHI  HZ I         325 54.30         3.4 0.78            118            244 195 
 HEL  HZ EP   1    325 20.66                             115   -0.60 6  269 257 
                                                                                
