 2015  916 0343 46.8 L   6.806 -73.167146.0  RSN 12 0.4 2.0LRSN                1
 GAP=134        1.00       2.8     4.0  5.2 -0.1971E+01  0.5419E+01  0.9536E+00E
 Epicentro: LOS SANTOS - SANTANDER                                             3
 ACTION:UPD 15-10-28 16:26 OP:cam  STATUS:               ID:20150916034346 L   I
 OLDACT:REG 15-09-16 12:46 OP:mh   STATUS:               ID:20150916033746     3
 2015-09-16-0337-46M.COL___346                                                 6
 STAT SP IPHASW D HRMM SECON CODA AMPLIT PERI AZIMU VELO AIN AR TRES W  DIS CAZ7
 BAR2 EZ EP        344  6.62                             170    0.1110 23.7 184 
 BAR2 EZ ES        344 22.01                             170    0.1610 23.7 184 
 BAR2 EZ I         344 22.42        22.2 0.34            169           23.7 184 
 BRR  HZ EP        344  8.40                             153    0.5210 68.8 299 
 BRR  HN ES        344 24.69                             153    0.3910 68.8 299 
 BRR  HZ I         344 26.40        14.4 0.36            150           68.8 299 
 PAM  EN EP        344  9.66                             151    0.5210 78.4  41 
 PAM  EE ES        344 26.35                             151   -0.1810 78.4  41 
 PAM  EN I         344 28.17        20.6 0.46            154           78.4  41 
 RUS  HZ EP        344 10.63                             144   -0.0510  101 175 
 RUS  HN ES        344 29.21                             144   -0.0610  101 175 
 RUS  HZ I         344 30.29         6.8 0.16            145            101 175 
 PTB  HZ EP   1    344 13.32                             132   -0.31 7  146 258 
 PTB  HN ES        344 33.83                             132   -0.70 9  146 258 
 PTB  HZ I         344 40.39         8.5 0.40            131            146 258 
 OCA  HZ EP        344 14.49                             130   -0.59 9  159 354 
 OCA  HN ES        344 36.69                             130   -0.42 9  159 354 
 SPBC HZ EP        344 14.70                             129   -0.57 9  162 218 
 SPBC HN ES        344 37.06                             129   -0.39 9  162 218 
 ZAR  HZ EP        344 18.90                             123   -0.15 9  202 292 
 ZAR  HN ES        344 44.68                             123    0.50 9  202 292 
 ZAR  HZ I         344 49.60        11.1 0.40            122            202 292 
 NOR  HZ EP   1    344 23.32                             119    0.90 6  233 234 
 NOR  HE ES   1    344 49.97                             119   -0.21 6  233 234 
 NOR  HZ I         344 58.58         4.5 0.34            118            233 234 
 SML  HZ EP   1    344 22.78                             118   -0.53 6  242 336 
 SML  HE ES   1    344 52.45                             118    0.70 6  242 336 
 SML  HZ I         344 55.82        13.5 0.26            118            242 336 
 PRA  HZ EP        344 40.06                             107   -0.24 6  391 209 
 PRA  HN ES        345 22.77                             107    0.76 6  391 209 
 PRA  HZ I         345 27.90         5.8 0.26            107            391 209 
 ORTC HZ EP        344 40.99                             106    0.32 6  395 216 
 ORTC HN ES        345 23.08                             106    0.42 6  395 216 
 ORTC HZ I         345 27.63         2.9 0.20            107            395 216 
                                                                                
