 2014 1116 0133 42.4 L   6.801 -73.141142.0  RSN 14 0.5 2.0LRSN                1
 GAP= 71        1.18       3.6     3.7  6.2 -0.3145E+01  0.2333E+01  0.8215E+01E
 Epicentro: LOS SANTOS - SANTANDER                                             3
 ACTION:UPD 14-12-19 15:43 OP:nd   STATUS:               ID:20141116013342 L   I
 OLDACT:ARG 14-11-16 13:31 OP:stll STATUS:               ID:20141116012747     3
 2014-11-16-0127-47M.COL___286                                                 6
 STAT SP IPHASW D HRMM SECON CODA AMPLIT PERI AZIMU VELO AIN AR TRES W  DIS CAZ7
 BAR2 SZ EP        134  1.68                             170    0.1310 23.5 191 
 BAR2 SZ ES        134 16.89                             170    0.3810 23.5 191 
 BAR2 SZ I         134 18.23        36.9 0.20            169           23.5 191 
 BRR  HZ IP     C  134  3.51                             152    0.3810 71.6 298 
 BRR  HZ I         134  3.68        15.3 0.20            147           71.6 298 
 BRR  HN ES        134 19.98                             152    0.6510 71.6 298 
 PAM  SZ EP     C  134  4.40                             150    0.2410 77.0  39 
 PAM  SZ I         134  4.80        34.0 0.24            151           77.0  39 
 PAM  SN ES        134 20.92                             150   -0.2410 77.0  39 
 RUS  HZ EP        134  5.66                             143   -0.1010  101 176 
 RUS  HE ES        134 23.49                             143   -0.5110  101 176 
 RUS  HZ I         134 25.54        19.4 0.30            143            101 176 
 PTB  HZ EP        134  8.52                             131   -0.56 9  148 259 
 PTB  HN ES        134 28.87                             131   -1.04 9  148 259 
 PTB  HZ I         134 35.03         9.0 0.32            128            148 259 
 TAM  HZ IP     C  134  9.96                             130    0.25 9  155 105 
 TAM  HZ I         134 10.36        10.4 0.36            131            155 105 
 TAM  HN ES        134 30.77                             130   -0.27 9  155 105 
 OCA  HN ES        134 32.25                             129    0.01 9  160 353 
 SPBC HZ EP        134 10.47                             128   -0.15 9  164 219 
 SPBC HN ES        134 32.50                             128   -0.15 9  164 219 
 SPBC HZ I         134 35.33        25.3 0.26            126            164 219 
 NOR  HE ES        134 45.74                             118    0.08 8  235 235 
 NOR  HZ I         134 51.25         7.1 0.16            116            235 235 
 CHI  HZ EP        134 19.74                             116   -0.14 8  249 195 
 CHI  HZ I         134 20.49         5.7 0.28            116            249 195 
 CHI  HN ES        134 49.27                             116    0.13 8  249 195 
 TOL  SZ EP        134 30.62                             108    0.10 7  344 225 
 TOL  SN ES        135  9.96                             108    1.88 7  344 225 
 MON  HZ EP   9    134 29.46                             108   -1.80 0  354 308 
 MON  HN ES        135  6.70                                   -0.90 6  354 308 
 MON  HZ I         135 23.63         2.4 0.70            107            354 308 
 PRA  HZ EP        134 35.18                             106   -0.62 6  392 210 
 PRA  HN ES        135 18.07                             106    0.60 6  392 210 
 PRA  HZ I         135 23.60         4.4 0.40            105            392 210 
 ORTC HZ EP        134 35.96                             106   -0.24 6  396 216 
 ORTC HN ES        135 17.94                             106   -0.25 6  396 216 
 ORTC HZ I         135 25.18         3.7 0.62            105            396 216 
                                                                                
