 2014  516 0321 36.9 L   6.779 -73.129148.6  RSN  6 0.4 2.1LRSN                1
 GAP=140        0.77       4.4     4.4  8.9 -0.1474E+01  0.7101E+01 -0.3413E+01E
 Epicentro: LOS SANTOS - SANTANDER                                             3
 ACTION:UPD 15-03-16 16:58 OP:nd   STATUS:               ID:20140516032136 L   I
 OLDACT:DUP 14-05-16 17:06 OP:cam  STATUS:               ID:20140516031819d    3
 OLDACT:UP  14-05-16 17:04 OP:cam  STATUS:               ID:20140516031818     3
 OLDACT:REG 14-05-16 12:51 OP:spq  STATUS:               ID:20140516031818     3
 2014-05-16-0318-18M.COL___251                                                 6
 STAT SP IPHASW D HRMM SECON CODA AMPLIT PERI AZIMU VELO AIN AR TRES W  DIS CAZ7
 BRR  HZ EP   1    321 58.58                             152    0.02 7 74.0 299 
 BRR  HN ES        322 15.81                             152    0.3910 74.0 299 
 BRR  HZ I         322 16.70        25.6 0.20            149           74.0 299 
 PAM  SZ EP        321 59.58                             151    0.0810 78.0  37 
 PAM  SN ES        322 16.80                             151   -0.3010 78.0  37 
 PAM  SZ I         322 19.03        14.4 0.66            153           78.0  37 
 RUS  HN ES        322 19.48                             145    0.0610 98.2 177 
 RUS  HN I         322 21.00        28.3 0.30            145           98.2 177 
 PTB  HN ES   2    322 24.31                             132   -1.28 5  149 260 
 PTB  HN I         322 30.13        28.7 0.30            130            149 260 
 ZAR  HN ES   1    322 35.45                             123   -0.06 6  207 293 
 ZAR  HZ I         322 41.58        10.1 0.68            121            207 293 
 NOR  HN ES   2    322 41.23                             119    0.35 4  235 235 
                                                                                
