 2016  716 0210 12.7 L   7.226 -74.256  4.0  RSN  8 0.2 1.6LRSN                1
 GAP=152        0.70       2.1     1.3  3.3  0.4194E+00 -0.3360E+00  0.1844E+01E
 Epicentro: PUERTO WILCHES - SANTANDER                                         3
 ACTION:UPD 17-03-29 16:51 OP:lp   STATUS:               ID:20160716021012 L   I
 OLDACT:REG 16-07-16 12:02 OP:lv   STATUS:               ID:20160716020759     3
 2016-07-16-0207-59S.COL___331                                                 6
 STAT SP IPHASW D HRMM SECON CODA AMPLIT PERI AZIMU VELO AIN AR TRES W  DIS CAZ7
 BRR  HZ IP     D  210 22.60                              47   -0.0410 61.5 102 
 BRR  HN ES        210 30.59                              47    0.2310 61.5 102 
 BRR  HZ I         210 31.46        38.2 0.20             47           61.5 102 
 ZAR  HZ EP        210 24.47                              47    0.1110 72.7 294 
 ZAR  HN ES        210 33.36                              47   -0.0610 72.7 294 
 PTB  HZ EP        210 25.28                              47   -0.0510 79.1 196 
 PTB  HE ES        210 35.03                              47   -0.1310 79.1 196 
 PTB  HZ I         210 35.18        13.6 0.16             47           79.1 196 
 BAR2 EZ EP        210 34.97                              47    0.52 9  138 121 
 BAR2 EZ ES        210 51.05                              47   -0.34 9  138 121 
 BAR2 EZ I         210 52.82         8.1 0.24             47            138 121 
 PAM  EZ EP        210 40.02                              47    0.08 9  172  86 
 PAM  EE ES        211  0.96                              47   -0.19 9  172  86 
 PAM  EZ I         211  2.70        13.4 0.22             47            172  86 
 HEL  HZ EP        210 41.07                              37   -0.05 9  181 231 
 HEL  HN ES   4    211  1.22                              37   -2.04 0  181 231 
 HEL  HZ I         211  7.50         5.4 0.54             37            181 231 
 RUS  HZ EP        210 42.93                              37   -0.20 9  196 139 
 RUS  HE ES        211  6.89                              37    0.05 9  196 139 
 RUS  HZ I         211  8.17         6.2 0.36             37            196 139 
 GUY2CHZ EP   9    210 52.73                              37    2.52 0  253 209 
 GUY2CHN ES        211 22.76                                    0.80 8  253 209 
 GUY2CHZ I         211 25.00         1.8 0.42                           253 209 
                                                                                
