 2017  916 0148 21.9 L   7.391 -73.209126.0  RSN  7 0.3 1.5LRSN                1
 GAP=182        0.75       3.8     3.1  5.6  0.4032E+00  0.4563E+01  0.3052E+01E
 Epicentro: EL PLAYON - SANTANDER                                              3
 ACTION:UPD 17-10-05 19:12 OP:rebc STATUS:               ID:20170916014821 L   I
 OLDACT:UP  17-09-16 14:16 OP:mg   STATUS:               ID:20170916013739     3
 OLDACT:REG 17-09-16 12:16 OP:mg   STATUS:               ID:20170916013739     3
 2017-09-16-0138-00M.COL___456                                                 6
 STAT SP IPHASW D HRMM SECON CODA AMPLIT PERI AZIMU VELO AIN AR TRES W  DIS CAZ7
 PAM  EZ IP     C  148 40.78                             155   -0.0310 56.5  96 
 PAM  EZ EP        148 41.03                             155    0.2210 56.5  96 
 PAM  EN ES        148 55.57                             155    0.0110 56.5  96 
 PAM  EZ I         148 57.89         9.7 0.25            154           56.5  96 
 BRR  HZ EP        148 40.21                             151   -0.2910 63.8 241 
 BRR  HN ES        148 55.35                             151    0.3410 63.8 241 
 BRR  HZ I         148 56.09         6.8 0.14            146           63.8 241 
 BAR2 EZ EP        148 42.05                             143   -0.4310 88.3 178 
 BAR2 EZ ES   2    148 57.91                             143   -0.61 5 88.3 178 
 BAR2 EZ I         148 59.64         9.3 0.23            137           88.3 178 
 RUS  HZ EP        148 50.46                             124    0.65 9  166 175 
 RUS  HE ES        149 11.45                             124   -0.12 9  166 175 
 RUS  HZ I         149 19.37         2.0 0.26            121            166 175 
 ZAR  HZ EP        148 50.46                             121   -0.38 9  182 274 
 ZAR  HN ES        149 13.59                             121    0.18 9  182 274 
 ZAR  HZ I         149 14.60         6.6 0.16            121            182 274 
 SPBC HZ EP   2    148 55.07                             116    0.66 4  215 206 
 SPBC HN ES   1    149 19.74                             116   -0.01 6  215 206 
 SPBC HZ I         149 27.16         4.5 0.39            115            215 206 
 NOR  HZ EP   2    149  0.64                             110   -0.26 4  273 222 
 NOR  HN ES   1    149 31.27                             110   -0.05 6  273 222 
 NOR  HZ I         149 39.12         1.4 0.32            109            273 222 
                                                                                
