 2017  216 0350 15.3 L   6.810 -73.161148.1  RSN 14 0.5 2.0LRSN                1
 GAP= 70        0.96       3.3     2.9  4.8  0.1843E+00  0.2608E+01  0.3857E+00E
 Epicentro: LOS SANTOS - SANTANDER                                             3
 ACTION:UPD 17-05-24 15:36 OP:jn   STATUS:               ID:20170216035015 L   I
 OLDACT:UP  17-02-16 15:59 OP:dani STATUS:               ID:20170216034742     3
 OLDACT:UP  17-02-16 15:56 OP:dani STATUS:               ID:20170216034742     3
 OLDACT:UP  17-02-16 15:56 OP:dani STATUS:               ID:20170216034742     3
 OLDACT:REG 17-02-16 13:20 OP:dani STATUS:               ID:20170216034742     3
 2017-02-16-0348-00M.COL___364                                                 6
 STAT SP IPHASW D HRMM SECON CODA AMPLIT PERI AZIMU VELO AIN AR TRES W  DIS CAZ7
 BAR2 EZ EP        350 35.18                             170   -0.0510 24.2 185 
 BAR2 EZ ES        350 50.48                             170   -0.3010 24.2 185 
 BAR2 EZ I         350 53.01        41.3 0.28            171           24.2 185 
 BRR  HZ EP        350 36.98                             153    0.3910 69.1 298 
 BRR  HN ES        350 53.56                             153    0.3610 69.1 298 
 BRR  HZ I         350 58.03        21.1 0.30            142           69.1 298 
 PAM  EZ EP        350 37.97                             151    0.1910 77.6  41 
 PAM  EN ES        350 55.23                             151   -0.0910 77.6  41 
 PAM  EZ I         350 58.45        10.0 0.42            142           77.6  41 
 RUS  HZ EP        350 39.14                             144   -0.2310  102 175 
 RUS  HN ES        350 57.72                             144   -0.4310  102 175 
 RUS  HZ I         350 59.08        13.4 0.30            140            102 175 
 PTB  HZ EP        350 41.99                             133   -0.34 9  146 258 
 PTB  HN ES        351  2.96                             133   -0.45 9  146 258 
 PTB  HZ I         351 10.09         8.7 0.18            123            146 258 
 TAM  HZ EP     C  350 43.59                             131    0.24 9  157 105 
 TAM  HN ES        351  5.42                             131    0.20 9  157 105 
 ZAR  HZ EP        350 48.55                             123    0.86 9  202 292 
 ZAR  HN ES        351 13.36                             123    0.40 9  202 292 
 ZAR  HZ I         351 18.52        10.7 0.46            113            202 292 
 NOR  HZ EP        350 51.30                             119    0.21 8  234 234 
 NOR  HE ES        351 19.07                             119    0.07 8  234 234 
 NOR  HZ I         351 24.82         5.3 0.56            111            234 234 
 CHI  HZ EP        350 53.49                             117    0.29 8  249 195 
 CHI  HN ES        351 22.82                             117    0.06 8  249 195 
 CHI  HZ I         351 28.82         4.7 0.32            111            249 195 
 ROSC BZ EP   9    350 56.02                             117    2.46 0  253 211 
 ROSC BE ES        351 26.38                             116    0.52 8  253 211 
 ROSC BZ I         351 29.83        13.8 0.40            110            253 211 
 URE  HZ EP        350 55.59                             114   -0.67 7  282 292 
 URE  HE ES   3    351 26.50                             114   -1.71 2  282 292 
 URE  HZ I         351 38.91         5.7 0.34            106            282 292 
 PRA  HZ EP   9    351  6.89                             107   -2.03 0  392 209 
 PRA  HN ES        351 48.98                             107    0.27 6  392 209 
 PRA  HZ I         351 55.49         7.8 0.37            101            392 209 
 SJC  HZ EP        351  9.37                             106   -1.35 6  407 327 
 SJC  HZ I         352  5.30         2.4 0.50             99            407 327 
 CRJC HZ EP   9    351 14.99                             104   -2.76 0  467   4 
 CRJC HE ES        352  4.07                             104    0.37 5  467   4 
                                                                                
