 2017  116 0432 39.6 L   6.828 -73.146149.2  RSN 17 0.6 2.0LRSN                1
 GAP= 65        1.14       3.6     4.3  6.0 -0.1410E+01  0.5167E+01  0.1282E+01E
 Epicentro: LOS SANTOS - SANTANDER                                             3
 ACTION:UPD 17-05-22 16:00 OP:jn   STATUS:               ID:20170116043239 L   I
 OLDACT:UP  17-01-16 15:53 OP:dani STATUS:               ID:20170116042744     3
 OLDACT:UP  17-01-16 15:52 OP:dani STATUS:               ID:20170116042744     3
 OLDACT:UP  17-01-16 15:52 OP:dani STATUS:               ID:20170116042744     3
 OLDACT:UP  17-01-16 15:50 OP:dani STATUS:               ID:20170116042744     3
 OLDACT:UP  17-01-16 15:49 OP:dani STATUS:               ID:20170116042744     3
 OLDACT:UP  17-01-16 15:48 OP:dani STATUS:               ID:20170116042744     3
 OLDACT:UP  17-01-16 15:48 OP:dani STATUS:               ID:20170116042744     3
 OLDACT:REG 17-01-16 13:13 OP:dani STATUS:               ID:20170116042744     3
 2017-01-16-0428-00M.COL___335                                                 6
 STAT SP IPHASW D HRMM SECON CODA AMPLIT PERI AZIMU VELO AIN AR TRES W  DIS CAZ7
 BAR2 HZ EP     D  432 59.75                             170    0.0110 26.4 189 
 BAR2 HZ ES        433 14.59                             170   -0.8410 26.4 189 
 BAR2 HZ I         433 18.16        23.1 0.64            168           26.4 189 
 BRR  HZ EP        433  1.50                             154    0.4210 69.7 296 
 BRR  HE ES        433 18.74                             154    0.9410 69.7 296 
 BRR  HZ I         433 21.37        14.2 0.14            151           69.7 296 
 PAM  HZ EP        433  2.56                             152    0.4810 75.1  41 
 PAM  HE ES        433 19.81                             152    0.2210 75.1  41 
 PAM  HZ I         433 21.83        27.9 0.48            157           75.1  41 
 RUS  HZ EP        433  3.75                             144   -0.2010  104 176 
 RUS  HE ES        433 22.62                             144   -0.2910  104 176 
 RUS  HZ I         433 23.55        17.0 0.24            145            104 176 
 PTB  HZ EP        433  6.40                             133   -0.54 9  148 258 
 PTB  HN ES   3    433 27.20                             133   -1.03 2  148 258 
 PTB  HZ I         433 31.03        10.8 0.14            132            148 258 
 TAM  HZ EP        433  8.04                             131    0.37 9  156 106 
 ZAR  HZ EP        433 12.19                             123    0.00 9  203 291 
 ZAR  HN ES        433 36.92                             123   -0.65 9  203 291 
 ZAR  HZ I         433 46.73         5.8 0.16            123            203 291 
 NOR  HZ EP        433 16.21                             119    0.45 8  236 234 
 NOR  HE ES        433 44.21                             119    0.28 8  236 234 
 NOR  HZ I         433 48.47         8.5 0.25            119            236 234 
 CHI  HZ EP        433 17.84                             118   -0.01 8  252 195 
 CHI  HN ES        433 46.81                             118   -0.84 8  252 195 
 CHI  HZ I         433 52.79         5.4 0.24            119            252 195 
 ROSC BZ EP   3    433 19.82                             117    1.59 2  255 211 
 ROSC BE ES        433 49.08                             117    0.75 8  255 211 
 ROSC BZ I         433 57.79         7.6 0.45            118            255 211 
 URE  HZ EP        433 20.13                             114   -0.61 7  283 291 
 GUY2CHZ EP   9    433 25.32                             113    1.72 0  303 234 
 GUY2CHN ES        434  0.08                             112    0.47 7  303 234 
 GUY2CHZ I         434  5.63         5.9 0.32                           303 234 
 PTGC HZ EP   3    433 22.85                             112   -1.13 2  312 159 
 PTGC HE ES   4    433 56.24                             112   -2.32 0  312 159 
 PTGC HZ I         433 58.89         9.1 0.37            114            312 159 
 LL6C HZ EP   9    433  6.04                             111   -19.1 0  322 358 
 LL6C HE ES   2    433 40.45                             116   -1.08 3  322 358 
 CBOC HZ EP   3    433 28.05                             110    1.25 2  335 252 
 SJC  HZ EP   3    433 33.64                             106   -1.37 1  407 327 
 SJC  HN ES   4    434 15.22                             106   -2.97 0  407 327 
 SJC  HZ I         434 19.66         2.1 0.71            107            407 327 
 CRJC HZ EP   3    433 40.03                             104   -1.84 1  465   4 
 CRJC HE ES        434 29.77                             104   -0.64 5  465   4 
                                                                                
