 2016 1216 0521 43.8 L   6.764 -73.098138.0  RSN  9 0.3 1.5LRSN                1
 GAP=144        0.67       2.6     3.2  4.2  0.1093E+01  0.1715E+01  0.6193E+00E
 Epicentro: LOS SANTOS - SANTANDER                                             3
 ACTION:UPD 17-01-11 20:15 OP:rebc STATUS:               ID:20161216052143 L   I
 OLDACT:UP  16-12-16 16:08 OP:e    STATUS:               ID:20161216051739d    3
 OLDACT:UP  16-12-16 16:08 OP:e    STATUS:               ID:20161216051739d    3
 OLDACT:UP  16-12-16 16:05 OP:e    STATUS:               ID:20161216051739d    3
 OLDACT:DUP 16-12-16 16:02 OP:e    STATUS:               ID:20161216051739d    3
 2016-12-16-0518-00M.COL___381                                                 6
 STAT SP IPHASW D HRMM SECON CODA AMPLIT PERI AZIMU VELO AIN AR TRES W  DIS CAZ7
 BAR2 EZ EP     C  522  2.27                             171   -0.1910 21.1 206 
 BAR2 EZ ES        522 16.65                             171   -0.3610 21.1 206 
 BAR2 EZ I         522 17.95         8.5 0.32            170           21.1 206 
 PAM  EZ EP        522  5.33                             149    0.1310 77.4  35 
 PAM  EN ES        522 22.05                             149    0.1610 77.4  35 
 PAM  EZ I         522 23.68         5.1 0.18            151           77.4  35 
 BRR  HZ IP     C  522  4.20                             149   -0.3210 77.7 299 
 BRR  HN ES        522 21.02                             149    0.3510 77.7 299 
 BRR  HZ I         522 25.23         8.1 0.12            147           77.7 299 
 RUS  HZ EP        522  6.31                             143   -0.1810 96.4 179 
 RUS  HN ES        522 24.36                             143    0.1810 96.4 179 
 RUS  HZ I         522 25.56         4.2 0.24            146           96.4 179 
 PTB  HZ EP   9    522  9.10                             129   -1.47 0  152 261 
 PTB  HN ES        522 30.31                             129    0.33 9  152 261 
 PTB  HZ I         522 33.71         5.1 0.10            129            152 261 
 ZAR  HZ EP        522 16.72                             120    0.29 8  210 293 
 ZAR  HE ES        522 41.64                             120   -0.23 8  210 293 
 ZAR  HZ I         522 47.07         3.6 0.12            120            210 293 
 CHI  HN ES        522 49.98                             116    0.29 8  246 197 
 GUY2CHZ EP   4    522 28.91                             111    1.61 0  303 236 
 GUY2CHN ES   4    523  3.99                             111    2.77 0  303 236 
 GUY2CHZ I         523  7.68         2.1 0.24                           303 236 
 SJC  HZ EP   9    522 36.17                             104   -3.68 0  415 327 
 SJC  HN ES        523 19.87                                   -0.02 6  415 327 
                                                                                
