 2010  716 0939 12.6 L   6.777 -73.095148.0  RSN  9 0.4 2.3LRSN                1
 GAP=164        0.86       4.4     7.2  7.1 -0.1019E+02  0.1889E+01 -0.2280E+01E
 Epicentro: LOS SANTOS - SANTANDER                                             3
 ACTION:UPD 10-12-01 15:18 OP:pat  STATUS:               ID:20100716093912 L   I
 2010-07-16-0935-18S.COL___120                                                 6
 STAT SP IPHASW D HRMM SECON CODA AMPLIT PERI AZIMU VELO AIN AR TRES W  DIS CAZ7
 BAR2 SZ IP        939 32.32                             171    -0.210   23 206 
 BAR2 SZ ES   1    939 47.81                             171    -0.2 7   23 206 
 BAR2 SZ I         939 48.63        37.1 0.32                            23 206 
 BRR  HZ IP     C  939 34.23                             151    -0.110   77 298 
 BRR  HZ I         939 34.52        80.0 0.14                            77 298 
 BRR  HN ES   1    939 51.80                             151     0.5 7   77 298 
 RUS  HZ EP   1    939 36.24                             145    -0.2 7   98 179 
 RUS  HE ES   2    939 55.53                             145     0.6 5   98 179 
 RUS  HZ I         939 56.59        10.4 0.11                            98 179 
 GUE  SZ EP   1    939 38.35                             140     0.7 7  118   9 
 GUE  SZ I         940  1.28         7.5 0.18                           118   9 
 GRA  SZ IP        939 38.14                             138     0.010  127  15 
 GRA  SZ ES   1    939 58.33                             138     0.3 7  127  15 
 GRA  SZ I         940  0.06        31.5 0.28                           127  15 
 OCA  SZ IP        939 40.87                             130    -0.5 9  164 351 
 OCA  SZ ES   1    940  3.79                             130    -0.1 7  164 351 
 OCA  SZ I         940  8.62        27.7 0.22                           164 351 
 HEL  HZ EP   2    939 54.07                             115     0.6 4  277 257 
 HEL  HN ES   2    940 24.85                             115    -0.5 4  277 257 
 HEL  HZ I         940 31.04        12.8 0.28                           277 257 
 GUY  SZ EP   3    939 57.95                             113     1.2 2  304 236 
 GUY  SZ I         940 40.21        25.7 0.42                           304 236 
 RREF HZ EP   2    939 59.49                             111     0.3 3  324 230 
 RREF HE ES   2    940 35.50                             111     0.0 3  324 230 
 RREF HZ I         940 44.55        12.2 0.42                           324 230 
                                                                                
