 2010 1116 0849 10.6 L   6.789 -73.049148.5  RSN  5 0.2 1.5LRSN                1
 GAP=193        0.39       5.5    10.3  9.1  0.3164E+02 -0.4209E+02 -0.2419E+02E
 Epicentro: LOS SANTOS - SANTANDER                                             3
 ACTION:UP  10-12-17 16:53 OP:REBC STATUS:               ID:20101116084910 L   I
 2010-11-16-0844-32S.COL___128                                                 6
 STAT SP IPHASW D HRMM SECON CODA AMPLIT PERI AZIMU VELO SNR AR TRES W  DIS CAZ7
 BAR2 SZ EP   2    849 30.45                             170    -0.2 5   26 214 
 BAR2 SZ I         849 49.51         6.8 0.52                            26 214 
 BRR  HZ EP   1    849 32.57                             150    -0.1 7   81 296 
 BRR  HN ES   2    849 49.87                             150     0.0 5   81 296 
 BRR  HZ I         849 53.50         5.4 0.11                            81 296 
 RUS  HZ EP   2    849 34.49                             145    -0.1 5   99 182 
 RUS  HE ES   2    849 53.37                             145     0.2 5   99 182 
 RUS  HZ I         849 56.84         1.6 0.36                            99 182 
 OCA  SZ EP   2    849 39.78                             130     0.4 5  163 349 
 OCA  SZ I         850  1.78         5.7 0.48                           163 349 
 RREF HN ES   3    850 34.71                             111     0.2 2  329 231 
 RREF HZ I         850 35.90         2.6 0.24                           329 231 
                                                                                
