 2010  916 0619 58.0 L   6.816 -73.005138.0  RSN  5 0.6 1.6LRSN                1
 GAP=174        1.39       9.0    16.5 20.7 -0.1775E+02 -0.6402E+02 -0.2803E+02E
 Epicentro: CEPITA - SANTANDER                                                 3
 ACTION:UP  11-02-18 11:03 OP:tino STATUS:               ID:20100916061958 L   I
 2010-09-16-0616-53S.COL___119                                                 6
 STAT SP IPHASW D HRMM SECON CODA AMPLIT PERI AZIMU VELO SNR AR TRES W  DIS CAZ7
 BTL  SZ EP        620 17.75                             167     0.910   31 291 
 BAR2 SZ EP   2    620 16.38                             167    -0.5 5   32 219 
 BRR  HZ EP        620 18.37                             147    -0.810   85 292 
 BRR  HZ I         620 18.63        14.6 0.14                            85 292 
 BRR  HN ES   1    620 36.06                             147     0.4 7   85 292 
 RUS  HZ EP   3    620 21.87                             142     0.7 2  103 185 
 RUS  HN ES   1    620 38.94                             142    -0.2 7  103 185 
 RUS  HZ I         620 40.34         2.8 0.29                           103 185 
 GRA  SZ EP   1    620 22.23                             137     0.1 7  120  11 
 GRA  SZ ES   1    620 40.57                             137    -0.3 7  120  11 
 GRA  SZ I         620 42.93         5.9 0.33                           120  11 
                                                                                
