 2013  216 0428  2.5 L   6.783 -73.174152.3  RSN  6 0.6 1.7LRSN                1
 GAP=233        1.29       8.1    10.1  9.5  0.4730E+02  0.1704E+02  0.1379E+02E
 Epicentro: LOS SANTOS - SANTANDER                                             3
 ACTION:UPD 13-03-12 09:33 OP:ep   STATUS:               ID:20130216042802 L   I
 2013-02-16-0420-00M.COL___241                                                 6
 STAT SP IPHASW D HRMM SECON CODA AMPLIT PERI AZIMU VELO AIN AR TRES W  DIS CAZ7
 BAR2 SZ EP        428 22.56                             172   -0.3110 21.1 183 
 BAR2 SZ ES   1    428 38.41                             172   -0.35 7 21.1 183 
 BAR2 SZ I         428 39.21        11.3 0.40            164           21.1 183 
 BRR  HZ EP        428 24.41                             154    0.1510 69.4 301 
 BRR  HN ES        428 41.88                             154    0.6510 69.4 301 
 BRR  HN I         428 43.81        10.8 0.16            147           69.4 301 
 RUS  HZ EP        428 27.25                             146    0.4710 99.0 174 
 RUS  HN ES        428 45.33                             146   -0.3910 99.0 174 
 RUS  HN I         428 45.65         6.5 0.34            143           99.0 174 
 PTB  HZ EP        428 29.52                             134   -0.18 9  144 259 
 PTB  HN ES   1    428 50.11                             134   -0.81 7  144 259 
 PTB  HN I         428 56.66         5.0 0.18            129            144 259 
 ZAR  HZ EP   1    428 33.65                             124   -1.51 6  202 293 
 ZAR  HN ES   1    429  1.34                             124    0.71 6  202 293 
 ZAR  HN I         429  7.42         6.9 0.30            122            202 293 
 CHI  HZ EP        428 40.84                             119    0.55 8  246 195 
 CHI  HE ES   1    429 10.25                             119    0.49 6  246 195 
 CHI  HE I         429 14.22         2.1 0.56            118            246 195 
                                                                                
