 2010 1016 0253 39.7 L   6.782 -73.140149.1  RSN  4 0.1 1.3LRSN                1
 GAP=159        0.32       3.5     6.6  7.3  0.1089E+02 -0.2709E+02 -0.1210E+02E
 Epicentro: LOS SANTOS - SANTANDER                                             3
 ACTION:UP  11-02-18 11:10 OP:tino STATUS:               ID:20101016025339 L   I
 2010-10-16-0251-01S.COL___125                                                 6
 STAT SP IPHASW D HRMM SECON CODA AMPLIT PERI AZIMU VELO SNR AR TRES W  DIS CAZ7
 BAR2 SZ EP   1    253 59.61                             171    -0.1 7   22 193 
 BAR2 SZ I         254 15.65         7.2 0.22                            22 193 
 BRR  HZ IP     D  254  1.33                             152     0.010   73 300 
 BRR  HN ES   2    254 18.05                             152    -0.1 5   73 300 
 BRR  HZ I         254 21.63         5.5 0.57                            73 300 
 RUS  HZ EP   1    254  3.59                             145     0.0 7   99 176 
 RUS  HE ES   2    254 22.38                             145     0.1 5   99 176 
 RUS  HZ I         254 23.42         1.7 0.31                            99 176 
 GRA  SZ EP   1    254  5.38                             137     0.0 7  127  17 
 GRA  SZ I         254 29.63         2.1 0.47                           127  17 
                                                                                
