 2017  316 0415 57.0 L   6.352 -73.624110.4  RSN  5 0.3 1.3LRSN                1
 GAP=120        0.91       4.9     3.6  7.5 -0.2362E+01  0.2294E+01 -0.7936E+01E
 Epicentro: SANTA HELENA DEL OPON - SANTANDER                                  3
 ACTION:UPD 17-05-25 18:41 OP:jn   STATUS:               ID:20170316041557 L   I
 OLDACT:REG 17-03-16 12:52 OP:cara STATUS:               ID:20170316040744     3
 2017-03-16-0408-00M.COL___400                                                 6
 STAT SP IPHASW D HRMM SECON CODA AMPLIT PERI AZIMU VELO AIN AR TRES W  DIS CAZ7
 BAR2 EZ IP     D  416 14.22                             151    0.4510 55.6  61 
 BAR2 EZ ES        416 27.04                             151    0.1810 55.6  61 
 BAR2 EZ I         416 28.62        11.0 0.46             47           55.6  61 
 RUS  HZ EP        416 15.47                             142   -0.1910 78.5 130 
 RUS  HN ES        416 29.70                             142   -0.5310 78.5 130 
 RUS  HZ I         416 32.28         2.5 0.30             47           78.5 130 
 SPBC HZ EP        416 16.18                             137    0.0210 91.9 213 
 SPBC HN ES        416 31.67                             137    0.5510 91.9 213 
 SPBC HZ I         416 33.74         7.4 0.10             47           91.9 213 
 PTB  HZ EP        416 15.94                             136   -0.3210 94.4 283 
 PTB  HN ES        416 31.05                             136   -0.2510 94.4 283 
 PTB  HZ I         416 34.02         3.0 0.22             47           94.4 283 
 PAM  EZ EP        416 22.24                             122    0.11 9  150  43 
 PAM  EZ I         416 45.47         2.1 0.34             47            150  43 
                                                                                
