 2012 1116 0600 41.9 L   6.804 -73.126148.0  RSN 12 0.4 1.5LRSN                1
 GAP=139        0.70       3.0     4.2  6.1  0.1202E+01  0.8833E+01  0.1464E+01E
 Epicentro: LOS SANTOS - SANTANDER                                             3
 ACTION:UPD 12-12-05 15:33 OP:}ep  STATUS:               ID:20121116060041 L   I
 2012-11-16-0600-00M.COL___233                                                 6
 STAT SP IPHASW D HRMM SECON CODA AMPLIT PERI AZIMU VELO AIN AR TRES W  DIS CAZ7
 BAR2 SZ EP   1    6 1  1.66                             170   -0.12 7 24.2 195 
 BAR2 SZ I         6 1 19.11        12.1 0.23                          24.2 195 
 GIR2 SZ EP   1    6 1  1.75                             167   -0.06 7 31.3 346 
 GIR2 SZ ES   1    6 1 17.17                             167   -0.19 7 31.3 346 
 BRR  HZ EP   1    6 1  3.60                             152    0.25 7 72.9 297 
 BRR  HN ES   1    6 1 20.57                             152    0.46 7 72.9 297 
 BRR  HZ I         6 1 21.37         5.5 0.14                          72.9 297 
 PAM  SZ EP   1    6 1  4.52                             152    0.30 7 75.7  38 
 PAM  SN ES   1    6 1 21.42                             152   -0.24 7 75.7  38 
 PAM  SZ I         6 1 22.10         2.4 0.21                          75.7  38 
 PAM  SN I         6 1 22.62         9.4 0.48                          75.7  38 
 RUS  HZ EP   1    6 1  5.63                             144   -0.23 7  101 177 
 RUS  HN ES   1    6 1 24.21                             144   -0.36 7  101 177 
 RUS  HZ I         6 1 25.72         2.5 0.29                           101 177 
 RUS  HN I         6 1 25.77         8.5 0.28                           101 177 
 PTB  HZ EP   1    6 1  9.41                             132    0.19 7  150 259 
 PTB  HN ES   4    6 1 29.12                             132   -1.43 0  150 259 
 PTB  HZ I         6 1 34.09         4.6 0.12                           150 259 
 OCA  HN ES   2    6 1 32.06                             130   -0.48 5  160 352 
 ZAR  HN ES   1    6 1 40.26                             122    0.05 6  206 292 
 SML  HZ EP   1    6 1 18.50                             118   -0.17 6  244 335 
 SML  HE ES   1    6 1 48.03                             118    0.65 6  244 335 
 SML  HZ I         6 1 49.46         4.8 0.10                           244 335 
 CHI  HN ES   1    6 1 50.01                             117    0.63 6  250 196 
 HEL  HN ES   1    6 1 53.70                             115   -0.38 6  274 256 
 MON  HN ES   2    6 2  7.87                             109   -1.67 3  355 308 
                                                                                
