 2017  316 0108 50.6 L   6.746 -73.139145.7  RSN  7 0.3 1.4LRSN                1
 GAP=140        0.78       3.3     3.9  5.1 -0.1558E+00  0.6353E+01  0.1790E+00E
 Epicentro: LOS SANTOS - SANTANDER                                             3
 ACTION:UPD 17-05-25 18:40 OP:jn   STATUS:               ID:20170316010850 L   I
 OLDACT:REG 17-03-16 12:39 OP:cara STATUS:               ID:20170316010743     3
 2017-03-16-0108-00M.COL___406                                                 6
 STAT SP IPHASW D HRMM SECON CODA AMPLIT PERI AZIMU VELO AIN AR TRES W  DIS CAZ7
 BAR2 EZ IP     D  1 9 10.23                             173    0.1010 17.7 196 
 BAR2 EZ ES        1 9 25.20                             173   -0.1510 17.7 196 
 BAR2 EZ I         1 9 26.38         6.4 0.20            168           17.7 196 
 BRR  HZ EP        1 9 12.53                             151    0.5610 74.9 302 
 BRR  HN ES        1 9 28.81                             151    0.1910 74.9 302 
 BRR  HZ I         1 9 30.45         5.0 0.12            145           74.9 302 
 PAM  EZ EP        1 9 13.35                             149    0.2710 81.6  36 
 PAM  EE ES        1 9 30.28                             149   -0.3110 81.6  36 
 PAM  EZ I         1 9 32.50         4.3 0.70            149           81.6  36 
 RUS  HZ EP        1 9 14.04                             145    0.1110 94.6 176 
 RUS  HN ES        1 9 31.97                             145   -0.1510 94.6 176 
 RUS  HZ I         1 9 33.97         2.5 0.38            142           94.6 176 
 PTB  HZ EP        1 9 17.17                             132   -0.38 9  148 261 
 PTB  HZ I         1 9 39.00         3.4 0.54            126            148 261 
 SPBC HZ EP        1 9 18.30                             130   -0.42 9  159 221 
 SPBC HN ES        1 9 41.03                             130    0.39 9  159 221 
 SPBC HZ I         1 9 45.97         4.3 0.26            124            159 221 
 ZAR  HZ EP        1 9 23.20                             122   -0.17 8  207 294 
 ZAR  HN ES        1 9 48.72                             122   -0.19 8  207 294 
 ZAR  HZ I         1 9 54.36         3.9 0.26            117            207 294 
                                                                                
