 2010  716 0431 25.2 L   6.747 -73.135147.4  RSN  6 0.5 1.5LRSN                1
 GAP=160        1.15       8.0    14.7 12.7  0.9954E+01 -0.6298E+02 -0.3345E+02E
 Epicentro: LOS SANTOS - SANTANDER                                             3
 ACTION:UPD 10-12-01 15:18 OP:pat  STATUS:               ID:20100716043125 L   I
 2010-07-16-0428-34S.COL___120                                                 6
 STAT SP IPHASW D HRMM SECON CODA AMPLIT PERI AZIMU VELO AIN AR TRES W  DIS CAZ7
 BAR2 SZ IP        431 44.83                             173    -0.110   18 197 
 BAR2 SZ ES   1    431 59.56                             173    -0.8 7   18 197 
 BAR2 SZ I         432  0.71        10.7 0.36                            18 197 
 BRR  HZ IP     C  431 46.60                             151    -0.210   75 302 
 BRR  HZ I         431 46.97        14.8 0.07                            75 302 
 BRR  HN ES   1    432  3.85                             151     0.3 7   75 302 
 RUS  HZ EP   2    431 49.30                             145     0.6 5   95 177 
 RUS  HN ES   2    432  7.54                             145     0.5 5   95 177 
 RUS  HZ I         432  8.27         2.8 0.15                            95 177 
 GUE  SZ EP   2    431 49.80                             138    -0.7 5  122  11 
 GUE  SZ I         431 50.96         1.3 0.16                           122  11 
 GRA  SZ IP        431 51.68                             135     0.610  131  16 
 GRA  SZ ES   2    432 11.25                             135     0.1 5  131  16 
 GRA  SZ I         432 12.18         4.0 0.41                           131  16 
 OCA  SZ EP   2    431 53.22                             128    -1.0 5  166 353 
 OCA  SZ ES   2    432 17.30                             128     0.5 5  166 353 
 OCA  SZ I         432 19.29         4.0 0.13                           166 353 
                                                                                
