 2013  316 0123 38.3 L   6.527 -73.513114.7  RSN  5 0.2 1.8LRSN                1
 GAP=195        0.53       2.7     4.5  5.2  0.2777E+01  0.8418E+01 -0.2922E+01E
 Epicentro: EL CARMEN DE CHUCURI - SANTANDER                                   3
 ACTION:UPD 13-04-09 14:02 OP:ep   STATUS:               ID:20130316012338 L   I
 2013-03-16-0120-00M.COL___244                                                 6
 STAT SP IPHASW D HRMM SECON CODA AMPLIT PERI AZIMU VELO AIN AR TRES W  DIS CAZ7
 BAR2 SZ EP        123 54.92                             161    0.3010 37.3  79 
 BAR2 SZ ES   1    124  7.55                             161    0.16 7 37.3  79 
 BAR2 SZ I         124  8.86        27.5 0.52            162           37.3  79 
 BRR  HZ EP        123 55.87                             147   -0.0510 67.9 341 
 BRR  HN ES   1    124  9.77                             147    0.08 7 67.9 341 
 BRR  HN I         124 10.18        15.2 0.48            145           67.9 341 
 RUS  HZ EP   1    123 58.08                             141    0.26 7 84.7 146 
 RUS  HN ES        124 12.73                             141   -0.3510 84.7 146 
 RUS  HN I         124 13.55         4.6 0.14            143           84.7 146 
 PAM  SN ES        124 19.49                             129   -0.1210  127  45 
 PAM  SN I         124 19.95         9.8 0.20            129            127  45 
 SML  HZ EP        124 15.04                             109   -0.06 8  259 346 
 SML  HN ES   2    124 43.58                             109   -0.26 4  259 346 
 SML  HN I         124 49.64        13.6 0.10            108            259 346 
                                                                                
