 2012 1216 0351 49.4 L   6.805 -73.162141.0  RSN  8 0.3 1.6LRSN                1
 GAP=134        0.64       3.4     3.9  6.0 -0.4402E+00  0.7360E+01 -0.3325E+00E
 Epicentro: LOS SANTOS - SANTANDER                                             3
 ACTION:UPD 13-01-04 14:28 OP:ep   STATUS:               ID:20121216035149 L   I
 2012-12-16-0350-00M.COL___239                                                 6
 STAT SP IPHASW D HRMM SECON CODA AMPLIT PERI AZIMU VELO AIN AR TRES W  DIS CAZ7
 BAR2 SZ EP   1    352  8.42                             170   -0.02 7 23.7 186 
 BAR2 SZ ES   1    352 23.14                             170   -0.18 7 23.7 186 
 BAR2 SZ I         352 24.74        21.7 0.24                          23.7 186 
 GIR2 SZ EP   1    352  8.37                             167   -0.09 7 30.4 353 
 GIR2 SZ ES   1    352 23.40                             167    0.05 7 30.4 353 
 GIR2 SZ I         352 25.45         4.4 0.36                          30.4 353 
 BRR  HZ EP   1    352 10.34                             152    0.43 7 69.4 299 
 BRR  HN ES   4    352 27.15                             152    1.23 0 69.4 299 
 BRR  HZ I         352 30.22         9.7 0.24                          69.4 299 
 PAM  SZ EP   1    352 11.35                             150    0.22 7 78.1  41 
 PAM  SE ES   1    352 27.96                             150   -0.14 7 78.1  41 
 PAM  SZ I         352 30.73         5.2 0.48                          78.1  41 
 RUS  HZ EP   1    352 12.64                             143   -0.08 7  101 175 
 RUS  HN ES   1    352 31.29                             143    0.37 7  101 175 
 RUS  HZ I         352 32.45         5.2 0.28                           101 175 
 PTB  HZ EP   1    352 15.24                             131   -0.57 7  146 258 
 PTB  HN ES   1    352 36.04                             131   -0.39 7  146 258 
 PTB  HZ I         352 39.48         5.7 0.15                           146 258 
 OCA  HN ES   1    352 38.76                             129   -0.23 7  159 354 
 ZAR  HN ES   1    352 46.89                             121    0.65 6  202 292 
                                                                                
