 2012  116 0225 26.9 L   6.835 -73.104143.3  RSN  5 0.2 1.4LRSN                1
 GAP=140        0.52       3.1     5.2  4.9 -0.2926E+01  0.9374E-01  0.4663E+01E
 Epicentro: LOS SANTOS - SANTANDER                                             3
 ACTION:UP  12-02-03 08:17 OP:REBC STATUS:               ID:20120116022526 L   I
 2012-01-16-0220-00M.COL___187                                                 6
 STAT SP IPHASW D HRMM SECON CODA AMPLIT PERI AZIMU VELO SNR AR TRES W  DIS CAZ7
 BAR2 SZ EP        225 46.28                             168    -0.110   28 198 
 BAR2 SZ ES   1    226  1.36                             168    -0.1 7   28 198 
 BAR2 SZ I         226  5.04         4.8 0.57                            28 198 
 PAM  SZ EP   1    225 48.96                             152     0.5 7   71  39 
 PAM  SN ES   1    226  5.16                             152    -0.2 7   71  39 
 BRR  HZ EP   1    225 47.72                             151    -0.2 7   74 294 
 BRR  HE ES   1    226  4.47                             151     0.2 7   74 294 
 BRR  HE I         226  9.10        11.3 0.21                            74 294 
 RUS  HZ EP   1    225 50.57                             142    -0.1 7  104 179 
 RUS  HE ES   1    226  9.31                             142     0.1 7  104 179 
 CHI  HZ EP   1    226  4.73                             116    -0.3 6  254 196 
 CHI  HN ES   1    226 34.92                             116     0.2 6  254 196 
 CHI  HZ I         226 41.91         1.1 0.50                           254 196 
                                                                                
