 2013  316 0824 21.3 L   6.531 -73.575114.4  RSN  6 0.3 1.8LRSN                1
 GAP=128        0.65       4.1     6.7 11.6 -0.4569E+01  0.4247E+02 -0.1274E+02E
 Epicentro: EL CARMEN DE CHUCURI - SANTANDER                                   3
 ACTION:UPD 13-04-09 14:02 OP:ep   STATUS:               ID:20130316082421 L   I
 2013-03-16-0820-00M.COL___244                                                 6
 STAT SP IPHASW D HRMM SECON CODA AMPLIT PERI AZIMU VELO AIN AR TRES W  DIS CAZ7
 BAR2 SZ EP        824 38.20                             158    0.2710 43.9  81 
 BAR2 SZ ES   2    824 50.64                             158   -0.25 5 43.9  81 
 BAR2 SZ I         824 51.65        63.2 0.46            171           43.9  81 
 BRR  HZ EP        824 39.06                             148    0.2710 65.4 347 
 BRR  HN ES   2    824 52.84                             148    0.42 5 65.4 347 
 BRR  HN I         825  2.02         9.5 0.18            142           65.4 347 
 RUS  HE ES   2    824 56.35                             140   -0.35 5 89.2 142 
 RUS  HN I         824 57.89         5.6 0.16            147           89.2 142 
 PTB  HZ EP        824 40.96                             137   -0.2510 97.5 271 
 PTB  HN I         824 56.57        14.3 0.28            127           97.5 271 
 ZAR  HN ES   4    825 13.65                             119    3.07 0  177 307 
 ZAR  HN I         825 17.67         6.2 0.60            117            177 307 
 OCA  HN ES        825 13.24                             117   -0.32 9  191   8 
                                                                                
