 2010 1016 0913 36.6 L   6.678 -73.188141.0  RSN  4 0.1 1.5LRSN                1
 GAP=177        0.36       5.8    11.8  8.8  0.5449E+02 -0.6757E+02 -0.3519E+02E
 Epicentro: VILLANUEVA - SANTANDER                                             3
 ACTION:UP  11-02-18 11:10 OP:tino STATUS:               ID:20101016091336 L   I
 2010-10-16-0912-04S.COL___124                                                 6
 STAT SP IPHASW D HRMM SECON CODA AMPLIT PERI AZIMU VELO SNR AR TRES W  DIS CAZ7
 BAR2 SZ EP   1    913 55.34                             176    -0.2 7   10 177 
 BAR2 SZ I         914 12.54         8.9 0.18                            10 177 
 BRR  HZ IP     D  913 57.54                             150     0.010   75 309 
 BRR  HZ I         913 59.23         9.7 0.03                            75 309 
 BRR  HN ES   2    914 13.68                             150    -0.1 5   75 309 
 RUS  HZ EP   1    913 58.98                             146     0.0 7   88 172 
 RUS  HN ES   2    914 16.64                             146     0.2 5   88 172 
 RUS  HZ I         914 18.53         4.1 0.28                            88 172 
 OCA  SZ EP   1    914  5.91                             126     0.1 7  173 355 
 OCA  SZ I         914 31.01         3.1 0.05                           173 355 
                                                                                
