 2012  616 0837 43.5 L   7.216 -73.339124.8  RSN  5 0.5 1.2LRSN                1
 GAP=165        0.92       5.0     6.8 14.7  0.7194E+01  0.4190E+02  0.4938E+01E
 Epicentro: LEBRIJA - SANTANDER                                                3
 ACTION:UPD 12-08-06 17:49 OP:ep   STATUS:               ID:20120616083743 L   I
 2012-06-16-0830-00M.COL___198                                                 6
 STAT SP IPHASW D HRMM SECON CODA AMPLIT PERI AZIMU VELO AIN AR TRES W  DIS CAZ7
 BAR2 SZ EP   1    838  3.39                             149    0.59 7 71.1 166 
 BAR2 SZ ES   1    838 18.26                             149    0.43 7 71.1 166 
 BAR2 SZ I         838 20.02         4.8 0.19                          71.1 166 
 OCA  HN ES   1    838 22.85                             135   -0.44 7  113   1 
 PTB  HZ EP   1    838  8.10                             127   -0.46 7  144 239 
 PTB  HN ES   1    838 27.51                             127   -0.56 7  144 239 
 PTB  HZ I         838 30.01         1.6 0.42                           144 239 
 RUS  HE ES   1    838 29.59                             127   -0.42 7  149 169 
 ZAR  HZ EP   2    838 11.62                             122    0.46 4  170 280 
 ZAR  HN ES   1    838 33.30                             122    0.60 7  170 280 
 ZAR  HZ I         838 39.67         2.3 0.25                           170 280 
                                                                                
