 2013  516 0133 40.3 L   6.792 -73.232143.9  RSN  5 0.3 1.1LRSN                1
 GAP=158        0.64       5.1     5.7  7.1  0.7953E+01  0.2250E+01  0.8133E+01E
 Epicentro: ZAPATOCA - SANTANDER                                               3
 ACTION:UPD 13-06-20 09:50 OP:ep   STATUS:               ID:20130516013340 L   I
 2013-05-16-0130-00M.COL___256                                                 6
 STAT SP IPHASW D HRMM SECON CODA AMPLIT PERI AZIMU VELO AIN AR TRES W  DIS CAZ7
 BAR2 SZ ES   1    134 14.20                             170   -0.57 8 22.8 166 
 BAR2 SZ I         134 16.15         4.7 0.48            169           22.8 166 
 GIR2 SZ EP   1    133 59.82                             167    0.10 8 32.0   8 
 GIR2 SZ ES   1    134 14.93                             167    0.02 8 32.0   8 
 BRR  HE ES   2    134 17.29                             155    0.51 5 63.4 303 
 RUS  HZ EP        134  3.73                             143   -0.1110  101 171 
 RUS  HN ES        134 22.53                             143    0.2910  101 171 
 RUS  HZ I         134 23.13         1.3 0.31            143            101 171 
 PTB  HE ES   1    134 26.35                             133   -0.10 7  138 258 
 PTB  HZ I         134 30.07         2.2 0.20            132            138 258 
                                                                                
