 2014 1216 0857 27.9 L   6.758 -73.138142.1  RSN  5 0.4 0.9LRSN                1
 GAP=139        0.90       5.6     4.4  8.8  0.5011E+00  0.6619E+01 -0.1432E+01E
 Epicentro: LOS SANTOS - SANTANDER                                             3
 ACTION:UPD 15-02-10 17:04 OP:nd   STATUS:               ID:20141216085727 L   I
 OLDACT:REG 14-12-16 13:23 OP:spq  STATUS:               ID:20141216084747     3
 2014-12-16-0847-47M.COL___287                                                 6
 STAT SP IPHASW D HRMM SECON CODA AMPLIT PERI AZIMU VELO AIN AR TRES W  DIS CAZ7
 BRR  HZ EP        857 49.12                             151    0.2910 74.2 301 
 BRR  HN ES   1    858  5.79                             151    0.64 7 74.2 301 
 BRR  HZ I         858 11.82         1.7 0.22            151           74.2 301 
 PAM  SZ EP        857 49.95                             149    0.0310 80.5  37 
 PAM  SN ES   1    858  6.61                             149   -0.48 7 80.5  37 
 PAM  SZ I         858  9.17         1.8 0.50            154           80.5  37 
 RUS  HZ EP   1    857 51.47                             144    0.51 7 95.9 176 
 RUS  HN ES   1    858  8.88                             144   -0.06 7 95.9 176 
 RUS  HZ I         858 10.92         0.7 0.36            151           95.9 176 
 PTB  HZ EP        857 53.93                             131   -0.64 9  148 261 
 PTB  HN ES        858 15.14                             131   -0.23 9  148 261 
 PTB  HZ I         858 18.50         0.8 0.16            135            148 261 
 ZAR  HZ EP   1    858  0.84                             121    0.47 6  207 293 
 ZAR  HN ES        858 25.56                             121   -0.14 8  207 293 
 ZAR  HZ I         858 31.56         1.1 0.33            125            207 293 
                                                                                
