 2014  116 0104 58.8 L   6.806 -73.134142.8  RSN 10 0.5 1.8LRSN                1
 GAP=138        1.16       3.2     5.2  6.4 -0.1344E+01  0.8567E+01 -0.4950E+00E
 Epicentro: LOS SANTOS - SANTANDER                                             3
 ACTION:UPD 14-03-13 09:55 OP:ep   STATUS:               ID:20140116010458 L   I
 OLDACT:REG 14-01-16 07:23 OP:carl STATUS:               ID:20140116010000     3
 2014-01-16-0100-00M.COL___285                                                 6
 STAT SP IPHASW D HRMM SECON CODA AMPLIT PERI AZIMU VELO AIN AR TRES W  DIS CAZ7
 BAR2 SZ EP        1 5 18.30                             170    0.2010 24.2 193 
 BAR2 SZ ES        1 5 32.67                             170   -0.4810 24.2 193 
 BAR2 SZ I         1 5 34.18        16.7 0.16            170           24.2 193 
 BRR  HZ EP        1 5 20.23                             152    0.5510 72.0 298 
 BRR  HN ES        1 5 36.72                             152    0.7510 72.0 298 
 BRR  HZ I         1 5 41.29        10.8 0.12            149           72.0 298 
 PAM  SZ IP     C  1 5 21.21                             151    0.5810 76.1  39 
 PAM  SN ES        1 5 37.90                             151    0.2510 76.1  39 
 PAM  SZ I         1 5 40.31        18.1 0.62            153           76.1  39 
 RUS  HZ EP        1 5 22.63                             143    0.3310  101 177 
 RUS  HN ES        1 5 40.17                             143   -0.4710  101 177 
 RUS  HZ I         1 5 41.82         5.5 0.30            146            101 177 
 PTB  HZ EP        1 5 25.26                             131   -0.39 9  149 259 
 PTB  HN ES        1 5 46.52                             131   -0.08 9  149 259 
 OCA  HZ EP        1 5 26.60                             129   -0.24 9  160 353 
 OCA  HN ES        1 5 47.94                             129   -0.77 9  160 353 
 OCA  HZ I         1 5 51.85        10.3 0.36            130            160 353 
 ZAR  HZ EP        1 5 31.70                             122    0.55 9  205 292 
 ZAR  HN ES   2    1 5 56.69                             122    0.30 4  205 292 
 ZAR  HZ I         1 6  2.37         8.1 0.20            122            205 292 
 SML  HZ EP        1 5 34.77                             117   -0.49 8  244 335 
 SML  HE ES        1 6  3.06                             117   -0.64 8  244 335 
 SML  HZ I         1 6 11.49        10.7 0.26            118            244 335 
 CHI  HZ EP        1 5 36.52                             116    0.08 8  250 195 
 CHI  HN ES        1 6  5.22                             116   -0.58 8  250 195 
 CHI  HZ I         1 6  9.85         2.0 0.28            118            250 195 
 RREF HN ES        1 6 21.21                             110    0.22 7  323 229 
                                                                                
