 2014 1116 0725 26.3 L   6.756 -73.176144.2  RSN  7 0.4 1.5LRSN                1
 GAP=135        0.97       3.7     4.9  7.8 -0.4055E+01  0.3752E+00 -0.2478E+00E
 Epicentro: LOS SANTOS - SANTANDER                                             3
 ACTION:UPD 14-12-19 15:43 OP:nd   STATUS:               ID:20141116072526 L   I
 OLDACT:ARG 14-11-16 13:31 OP:stll STATUS:               ID:20141116071742     3
 2014-11-16-0717-42M.COL___280                                                 6
 STAT SP IPHASW D HRMM SECON CODA AMPLIT PERI AZIMU VELO AIN AR TRES W  DIS CAZ7
 BAR2 SZ EP        725 45.60                             172   -0.0210 18.1 182 
 BAR2 SZ ES        726  0.73                             172    0.0210 18.1 182 
 BAR2 SZ I         726  1.41         7.0 0.24            174           18.1 182 
 BRR  HZ EP        725 47.23                             152    0.0010 70.8 303 
 BRR  HZ I         725 47.57         4.9 0.24            153           70.8 303 
 BRR  HN ES        726  3.96                             152    0.3910 70.8 303 
 PAM  SZ EP        725 48.14                             149   -0.5410 83.3  39 
 PAM  SZ I         725 48.63         9.3 0.24            149           83.3  39 
 PAM  SN ES        726  6.07                             149   -0.0910 83.3  39 
 RUS  HZ EP        725 50.09                             145    0.5510 96.0 174 
 RUS  HN ES        726  7.42                             145   -0.2710 96.0 174 
 RUS  HZ I         726  8.86         2.9 0.28            146           96.0 174 
 PTB  HN ES        726 12.69                             132   -0.68 9  144 260 
 SPBC HN ES        726 16.15                             130    0.36 9  157 219 
 OCA  HN ES        726 17.50                             128    0.30 9  165 355 
 OCA  HZ I         726 20.08         3.7 0.18            129            165 355 
                                                                                
