 2010  816 0252  2.9 L   6.811 -73.070146.3  RSN 17 0.5 3.0LRSN                1
 GAP=131        1.17       3.8     6.3  5.5 -0.1136E+02  0.1816E+01  0.5408E+01E
 Epicentro: LOS SANTOS - SANTANDER                                             3
 ACTION:UP  10-09-07 10:55 OP:vdl  STATUS:               ID:20100816025203 L   I
 2010-08-16-0248-47S.COL___111                                                 6
 STAT SP IPHASW D HRMM SECON CODA AMPLIT PERI AZIMU VELO SNR AR TRES W  DIS CAZ7
 BTL  SZ ES        252 37.99                             171     0.010   25 299 
 BAR2 SZ IP        252 22.72                             169     0.010   27 207 
 BAR2 SZ ES   1    252 37.75                             169    -0.4 7   27 207 
 BAR2 SZ I         252 39.52       538.2 0.26                            27 207 
 GIR2 SZ EP        252 22.82                             168     0.210   33 335 
 GIR2 SZ ES   1    252 37.66                             168    -0.4 7   33 335 
 BRR  HZ IP     C  252 24.60                             151     0.110   78 295 
 BRR  HN ES        252 41.88                             151     0.510   78 295 
 BRR  HZ I         252 43.96       145.7 0.36                            78 295 
 RUS  HZ EP        252 26.54                             143    -0.210  102 181 
 RUS  HN ES   1    252 44.85                                    -0.5 7  102 181 
 RUS  HZ I         252 46.69       131.3 0.62                           102 181 
 GUE  SZ EP        252 27.57                             141     0.110  114   8 
 GUE  SZ ES   2    252 46.76                             141     0.2 5  114   8 
 GRA  SZ IP        252 28.54                             138     0.610  122  14 
 GRA  SZ ES   1    252 47.05                             138    -0.3 7  122  14 
 GRA  SZ I         252 49.76       107.8 0.59                           122  14 
 OCA  SZ EP        252 30.97                             130    -0.3 9  160 350 
 OCA  SZ ES   1    252 53.07                             130    -0.3 7  160 350 
 OCA  SZ I         252 56.66       111.8 0.08                           160 350 
 CHI  HZ EP        252 40.58                             117    -0.4 8  252 197 
 CHI  HN ES   1    253 11.05                             117     0.3 6  252 197 
 CHI  HZ I         253 15.61        50.6 0.15                           252 197 
 ROSC BZ EP        252 42.34                             116     0.7 8  258 212 
 ROSC BN ES        253 13.05                             116     1.2 8  258 212 
 ROSC BZ I         253 18.23        91.7 0.47                           258 212 
 HEL  HZ EP   1    252 43.92                             114    -0.1 6  280 256 
 HEL  HN ES   1    253 15.08                             114    -1.1 6  280 256 
 HEL  HZ I         253 20.57        35.1 0.13                           280 256 
 RREF HZ EP        252 49.56                             111    -0.3 7  329 230 
 RREF HN ES        253 25.99                             111    -0.5 7  329 230 
 RREF HZ I         253 33.61        70.8 0.22                           329 230 
 DBB  SZ EP   1    252 50.78                             109    -0.6 5  348 274 
 DBB  SZ I         253 30.83         9.3 0.32                           348 274 
 TOL  SZ EP        252 52.16                             109     0.2 6  350 225 
 TOL  SZ ES   2    253 30.68                                     0.5 3  350 225 
 SDV  BZ EP   1    252 51.86                             109    -0.3 5  353  49 
 SDV  BZ I         252 53.06        30.9 0.39                           353  49 
 ANIL HZ EP   1    252 54.55                             108     1.0 5  364 225 
 ANIL HN ES   2    253 33.50                             108     0.5 3  364 225 
 PRA  HZ EP        252 56.10                             106    -0.9 6  397 211 
 PRA  HE ES   1    253 38.17                                    -1.1 4  397 211 
 PRA  HZ I         253 44.56        90.4 0.72                           397 211 
                                                                                
