 2016  816 0652 16.5 L   6.781 -73.132144.4  RSN 10 0.5 1.5LRSN                1
 GAP=238        0.90       4.7     5.1  6.6  0.2022E+01  0.1596E+02  0.6891E+01E
 Epicentro: LOS SANTOS - SANTANDER                                             3
 ACTION:UPD 16-10-29 15:36 OP:rebc STATUS:               ID:20160816065216 L   I
 OLDACT:REG 16-08-16 12:52 OP:ak   STATUS:               ID:20160816064759     3
 2016-08-16-0647-59S.COL___343                                                 6
 STAT SP IPHASW D HRMM SECON CODA AMPLIT PERI AZIMU VELO AIN AR TRES W  DIS CAZ7
 BAR2 EZ EP   2    652 35.03                             171   -0.85 5 21.7 195 
 BAR2 EZ ES        652 50.71                             171   -0.3310 21.7 195 
 BAR2 EZ I         652 52.13         8.3 0.23                          21.7 195 
 BRR  HZ EP        652 37.88                             151    0.2910 73.5 299 
 BRR  HN ES        652 54.81                             151    0.7410 73.5 299 
 BRR  HZ I         652 55.78         6.0 0.36                          73.5 299 
 RUS  HZ EP   2    652 40.42                             144    0.51 5 98.4 177 
 RUS  HN ES        652 58.28                             144    0.0710 98.4 177 
 RUS  HZ I         652 59.63         3.1 0.32                          98.4 177 
 PTB  HZ EP        652 43.22                             131   -0.19 9  149 260 
 PTB  HN ES        653  3.92                             131   -0.52 9  149 260 
 PTB  HZ I         653  6.55         6.3 0.16                           149 260 
 SPBC HZ EP   1    652 44.21                             129   -0.58 7  163 220 
 SPBC HN ES        653  6.71                             129   -0.18 9  163 220 
 SPBC HZ I         653 13.15         4.6 0.13                           163 220 
 NOR  HN ES        653 20.17                             118    0.25 8  235 235 
 HEL  HZ EP   2    652 55.97                             114   -0.74 4  273 256 
 HEL  HN ES        653 27.79                             114   -0.31 8  273 256 
 HEL  HZ I         653 34.53         1.7 0.24                           273 256 
 GUY2CHZ EP   2    653  0.70                             112    0.69 4  301 235 
 GUY2CHN ES   2    653 35.07                             112    1.09 4  301 235 
 GUY2CHZ I         653 42.66         1.3 0.64                           301 235 
 CBOC HN ES        653 40.15                             110    0.12 7  334 253 
 PRA  HZ EP   2    653 10.58                             106    0.77 3  391 210 
 PRA  HN ES        653 51.78                             106    0.36 6  391 210 
                                                                                
