 2012 1016 0708 33.3 L   6.783 -73.145141.7  RSN 11 0.3 2.8LRSN                1
 GAP= 66        0.77       2.7     2.6  4.2  0.4250E+00  0.2318E+01  0.2786E+01E
 Epicentro: LOS SANTOS - SANTANDER                                             3
 ACTION:UPD 12-11-22 17:04 OP:ep   STATUS:               ID:20121016070833 L   I
 2012-10-16-0700-00M.COL___231                                                 6
 STAT SP IPHASW D HRMM SECON CODA AMPLIT PERI AZIMU VELO AIN AR TRES W  DIS CAZ7
 BAR2 SZ IP        7 8 52.51                             171    0.0710 21.5 191 
 BAR2 SZ I         7 8 53.03       211.4 0.17                          21.5 191 
 BAR2 SZ ES        7 9  7.26                             171   -0.0810 21.5 191 
 GIR2 SZ EP        7 8 52.52                             166   -0.0510 33.1 351 
 BRR  HZ IP     C  7 8 54.32                             151    0.2210 72.1 300 
 BRR  HN ES        7 9 10.96                             151    0.6710 72.1 300 
 BRR  HN I         7 9 11.84       388.3 0.19                          72.1 300 
 BRR  HZ I         7 9 15.42       158.9 0.20                          72.1 300 
 PAM  SZ EP        7 8 55.33                             150    0.1310 78.8  39 
 PAM  SE ES        7 9 11.97                             150   -0.2910 78.8  39 
 PAM  SZ I         7 9 13.18        92.8 0.21                          78.8  39 
 PAM  SN I         7 9 13.29       188.0 0.24                          78.8  39 
 RUS  HZ IP     C  7 8 56.54                             143   -0.0110 98.7 176 
 RUS  HZ I         7 8 57.69        58.0 0.19                          98.7 176 
 RUS  HN ES        7 9 14.21                             143   -0.4510 98.7 176 
 TAM  HZ EP        7 9  0.65                             130    0.01 9  155 104 
 TAM  HZ I         7 9 21.48        60.0 0.36                           155 104 
 YOP  SZ EP        7 9  3.18                             126    0.26 9  177 153 
 YOP  SZ I         7 9  4.11        47.7 0.16                           177 153 
 YOP  SN ES   2    7 9 26.04                             126    0.05 4  177 153 
 ZAR  HZ EP        7 9  5.21                             121   -0.38 9  205 293 
 ZAR  HN ES        7 9 30.44                             121   -0.31 9  205 293 
 ZAR  HZ I         7 9 36.68        95.4 0.56                           205 293 
 NOR  SZ EP        7 9  8.71                             118    0.00 8  234 235 
 NOR  SN ES        7 9 36.89                             118    0.58 8  234 235 
 NOR  SZ I         7 9 42.72        45.4 0.28                           234 235 
 CHI  HZ EP        7 9 10.72                             116    0.11 8  247 195 
 CHI  HN ES        7 9 39.70                             116    0.01 8  247 195 
 CHI  HZ I         7 9 47.26        32.4 0.48                           247 195 
 HEL  HZ EP        7 9 13.27                             114   -0.02 8  272 256 
 HEL  HN ES        7 9 43.79                             114   -0.67 8  272 256 
 HEL  HN I         7 9 50.49        43.9 0.38                           272 256 
 HEL  HZ I         7 9 50.91        36.8 0.41                           272 256 
                                                                                
