 2016  616 0559 45.0 L   7.144 -73.388112.0  RSN 18 0.5 2.0LRSN                1
 GAP= 85        1.09       3.2     3.3  5.7 -0.2766E+01  0.1134E+01  0.8561E+00E
 Epicentro: LEBRIJA - SANTANDER                                                3
 ACTION:UPD 16-07-21 22:19 OP:rebc STATUS:               ID:20160616055945 L   I
 OLDACT:UP  16-06-16 16:34 OP:dani STATUS:               ID:20160616055743     3
 OLDACT:UP  16-06-16 16:32 OP:dani STATUS:               ID:20160616055743     3
 OLDACT:UP  16-06-16 16:25 OP:dani STATUS:               ID:20160616055743     3
 OLDACT:REG 16-06-16 12:54 OP:dani STATUS:               ID:20160616055743     3
 2016-06-16-0557-43M.COL___334                                                 6
 STAT SP IPHASW D HRMM SECON CODA AMPLIT PERI AZIMU VELO AIN AR TRES W  DIS CAZ7
 BRR  HZ IP     D  6 0  0.25                             161   -0.3910 36.0 263 
 BRR  HN ES        6 0 12.81                             161   -0.0410 36.0 263 
 BRR  HZ I         6 0 18.42        18.6 0.10                          36.0 263 
 BAR2 EZ EP        6 0  2.35                             148   -0.1910 65.2 160 
 BAR2 EZ I         6 0 17.57        53.7 0.16                          65.2 160 
 PAM  EZ EP        6 0  3.98                             143    0.1210 79.0  74 
 PAM  EN ES        6 0 18.96                             143    0.3810 79.0  74 
 PAM  EZ I         6 0 22.59        12.9 0.66                          79.0  74 
 OCA  HZ EP        6 0  6.69                             130   -0.3210  121   4 
 OCA  HN ES        6 0 24.36                             130    0.1810  121   4 
 OCA  HZ I         6 0 25.44        46.1 0.16                           121   4 
 PTB  HZ EP   9    6 0  6.48                             126   -1.74 0  136 241 
 PTB  HN ES        6 0 25.12                             125    0.52 9  136 241 
 PTB  HZ I         6 0 28.64         7.9 0.20                           136 241 
 RUS  HZ EP        6 0  8.94                             125   -0.59 9  142 166 
 RUS  HE ES   4    6 0 26.99                             125   -1.68 0  142 166 
 RUS  HZ I         6 0 29.17         6.7 0.26                           142 166 
 ZAR  HZ EP        6 0 11.34                             120   -0.08 9  167 283 
 ZAR  HN ES        6 0 32.65                             120    0.62 9  167 283 
 ZAR  HZ I         6 0 38.47        12.1 0.18                           167 283 
 SPBC HZ EP        6 0 14.24                             117    1.13 9  182 205 
 SPBC HN ES   4    6 0 36.70                             117    1.66 0  182 205 
 SPBC HZ I         6 0 41.36        10.9 0.42                           182 205 
 NOR  HN ES        6 0 46.06                             110   -0.48 8  240 223 
 URE  HE ES   4    6 0 46.21                             110   -1.57 0  246 286 
 HEL  HZ EP   4    6 0 23.41                             109    1.20 0  259 246 
 HEL  HZ I         6 0 57.46         3.4 0.48                           259 246 
 CHI  HZ EP        6 0 24.43                             107   -0.35 7  281 188 
 LL6C HZ EP        6 0 24.46                             106   -0.53 7  287   3 
 LL6C HZ I         6 0 56.91         7.3 0.58                           287   3 
 SOCV BN ES        6 1  0.57                             105    0.22 7  306  66 
 CBOC HZ EP   4    6 0 30.73                             104    1.27 0  323 244 
 CBOC HN ES        6 1  4.11                             104   -0.04 7  323 244 
 SJC  HZ EP   4    6 0 32.54                             102   -1.52 0  363 327 
 SJC  HN ES        6 1 11.46                             102   -0.88 6  363 327 
 SJC  HZ I         6 1 27.85         3.3 0.56                           363 327 
 ORTC HZ EP        6 0 40.85                              99    0.80 6  413 210 
 ORTC HE ES   4    6 1 24.70                              99    1.71 0  413 210 
 ORTC HZ I         6 1 31.98         1.9 0.20                           413 210 
 PRA  HZ EP   4    6 0 42.06                              99    1.85 0  414 204 
 PRA  HN ES   4    6 1 26.79                              99    3.51 0  414 204 
 PRA  HZ I         6 1 31.60         2.7 0.24                           414 204 
 CRJC HZ EP        6 0 42.68                              99    0.22 5  432   7 
 CRJC HN ES        6 1 27.93                              99    0.64 5  432   7 
 CRJC HZ I         6 1 36.76         6.0 0.44                           432   7 
                                                                                
