 2012  216 0824 20.3 L   6.773 -73.155146.0  RSN 11 0.3 1.9LRSN                1
 GAP=137        0.62       2.8     3.2  4.7 -0.9949E+00  0.1534E+01  0.1723E+01E
 ACTION:UP  12-03-07 16:31 OP:epov STATUS:               ID:20120216082420 L   I
 2012-02-16-0820-00M.COL___188                                                 6
 STAT SP IPHASW D HRMM SECON CODA AMPLIT PERI AZIMU VELO AIN AR TRES W  DIS CAZ7
 BAR2 SZ EP        824 39.89                             172   -0.0110 20.2 189 
 BAR2 SZ ES   1    824 55.24                             172    0.05 7 20.2 189 
 BAR2 SZ I         824 56.64        39.3 0.31                          20.2 189 
 GIR2 SZ EP   1    824 40.00                             166   -0.08 7 34.1 353 
 BRR  HZ EP        824 41.77                             152    0.2610 71.8 301 
 BRR  HE ES   1    824 58.79                             152    0.73 7 71.8 301 
 BRR  HZ I         825  0.03        13.2 0.10                          71.8 301 
 PAM  SZ EP        824 42.84                             150    0.1210 80.4  39 
 PAM  SE ES   1    824 59.70                             150   -0.51 7 80.4  39 
 RUS  HZ EP        824 43.79                             145   -0.0710 97.6 175 
 RUS  HN ES   1    825  2.23                             145   -0.01 7 97.6 175 
 RUS  HZ I         825  3.71         6.9 0.29                          97.6 175 
 PTB  HZ EP   1    824 46.94                             132   -0.21 7  146 260 
 PTB  HN ES   1    825  7.81                             132   -0.28 7  146 260 
 OCA  SZ EP   1    824 48.64                             129   -0.26 7  163 354 
 ZAR  HE ES   1    825 17.95                             122   -0.18 6  204 293 
 ZAR  HZ I         825 23.82         7.7 0.33                           204 293 
 NOR  SN ES   1    825 22.93                             119   -0.50 6  232 235 
 CHI  HZ EP   1    824 57.98                             117    0.31 6  245 195 
 CHI  HN ES   1    825 26.83                             117    0.02 6  245 195 
 CHI  HZ I         825 30.72         4.3 0.19                           245 195 
 PRA  HZ EP   1    825 14.02                             107    0.56 4  389 210 
                                                                                
