 2012 1216 0841 47.6 L   6.349 -73.688100.0  RSN  6 0.4 1.3LRSN                1
 GAP=157        0.78       4.6     3.5  8.4  0.3953E+01  0.2161E+01 -0.4104E+01E
 Epicentro: SANTA HELENA DEL OPON - SANTANDER                                  3
 ACTION:UPD 13-01-04 14:28 OP:ep   STATUS:               ID:20121216084147 L   I
 2012-12-16-0840-00M.COL___239                                                 6
 STAT SP IPHASW D HRMM SECON CODA AMPLIT PERI AZIMU VELO AIN AR TRES W  DIS CAZ7
 BAR2 SZ EP   1    842  3.80                             146    0.06 7 62.0  64 
 BAR2 SZ ES   1    842 16.35                             146    0.04 7 62.0  64 
 BAR2 SZ I         842 17.83        27.5 0.14                          62.0  64 
 RUS  HZ EP   1    842  5.62                             137   -0.14 7 83.8 127 
 RUS  HN ES   1    842 20.22                             137    0.31 7 83.8 127 
 RUS  HZ I         842 23.35         2.5 0.34                          83.8 127 
 BRR  HZ EP   1    842  4.86                             137   -0.22 7 83.9 358 
 BRR  HN ES   1    842 19.00                             137    0.30 7 83.9 358 
 BRR  HZ I         842 19.41         3.0 0.26                          83.9 358 
 PTB  HZ EP   1    842  4.98                             135   -0.44 7 87.6 284 
 PTB  HN ES   1    842 19.09                             135   -0.21 7 87.6 284 
 PTB  HZ I         842 22.90         3.7 0.10                          87.6 284 
 PAM  SZ EP   1    842 13.33                             118    0.66 7  155  45 
 PAM  SN ES   1    842 31.44                             118   -0.78 7  155  45 
 PAM  SZ I         842 36.60         2.4 0.42                           155  45 
 ZAR  HE ES   1    842 36.74                             113    0.50 7  181 314 
                                                                                
