 2010  816 0548 42.3 L   6.565 -73.676104.6  RSN  5 0.3 1.3LRSN                1
 GAP=269        0.74       8.0    13.3 14.1 -0.4049E+02 -0.7774E+02  0.1386E+02E
 Epicentro: EL CARMEN DE CHUCURI - SANTANDER                                   3
 ACTION:UP  10-09-07 10:55 OP:vdl  STATUS:               ID:20100816054842 L   I
 2010-08-16-0545-53S.COL___111                                                 6
 STAT SP IPHASW D HRMM SECON CODA AMPLIT PERI AZIMU VELO SNR AR TRES W  DIS CAZ7
 BAR2 SZ EP   1    548 58.39                             151    -0.1 7   55  87 
 BAR2 SZ I         548 59.02         7.1 0.45                            55  87 
 BRR  HZ EP   1    548 58.19                             148    -0.3 7   60 356 
 BRR  HZ I         548 58.49         4.2 0.09                            60 356 
 BTL  SZ EP        548 58.86                             149     0.110   60  49 
 BRR  HN ES   2    549 11.35                             148     0.3 5   60 356 
 GUE  SZ EP        549  8.53                             118     0.2 9  163  31 
 GUE  SZ ES   1    549 27.99                             118    -0.6 7  163  31 
 GUE  SZ I         549 30.26         2.4 0.41                           163  31 
 GRA  SZ ES   2    549 31.11                             116     0.6 4  175  33 
 GRA  SZ I         549 33.15         2.5 0.10                           175  33 
                                                                                
