 2011 1116 0156 24.2 L   6.848 -73.195143.6  RSN  5 0.4 1.5LRSN                1
 GAP=128        0.68       5.0     8.7  8.9 -0.8473E+00 -0.7872E+01 -0.6342E+01E
 Epicentro: ZAPATOCA - SANTANDER                                               3
 ACTION:UPD 12-07-13 16:10 OP:ep   STATUS:               ID:20111116015624 L   I
 2011-11-16-0155-12S.COL___179                                                 6
 STAT SP IPHASW D HRMM SECON CODA AMPLIT PERI AZIMU VELO AIN AR TRES W  DIS CAZ7
 BAR2 SZ EP   1    156 43.51                             168   -0.19 7 28.3 177 
 BAR2 SZ I         156 43.97         4.7 0.21                          28.3 177 
 BAR2 SZ ES   2    156 59.27                             168    0.37 5 28.3 177 
 BRR  HZ EP   1    156 45.32                             155    0.58 7 63.9 297 
 BRR  HN ES   2    157  0.02                             155   -0.71 5 63.9 297 
 BRR  HZ I         157  2.26        15.4 0.37                          63.9 297 
 PAM  SZ EP        156 46.32                             150    0.1310 77.1  45 
 PAM  SN ES   2    157  3.21                             150   -0.12 5 77.1  45 
 RUS  HZ EP   1    156 47.73                             142   -0.46 7  106 173 
 RUS  HZ I         157  6.89         3.3 0.58                           106 173 
 RUS  HE ES   1    157  6.98                             142    0.10 7  106 173 
 OCA  SZ ES   3    157 12.82                             130   -0.52 2  154 355 
 OCA  SZ I         157 19.24         3.2 0.38                           154 355 
                                                                                
