 2011  616 0241 58.1 L   6.804 -73.068141.9  RSN  6 0.3 1.2LRSN                1
 GAP=167        0.73       6.7    12.2  9.9  0.2606E+02 -0.6221E+02 -0.1560E+02E
 Epicentro: LOS SANTOS - SANTANDER                                             3
 ACTION:UP  11-07-14 19:05 OP:ep   STATUS:               ID:20110616024158 L   I
 2011-06-16-0240-13S.COL___138                                                 6
 STAT SP IPHASW D HRMM SECON CODA AMPLIT PERI AZIMU VELO SNR AR TRES W  DIS CAZ7
 BTL  SZ EP   1    242 17.65                             169     0.4 7   25 300 
 BAR2 SZ ES   2    242 31.83                             169    -0.5 5   27 208 
 BAR2 SZ I         242 33.25         5.4 0.21                            27 208 
 GIR2 SZ EP   1    242 16.87                             166    -0.5 7   33 335 
 GIR2 SZ ES   2    242 32.28                             166    -0.1 5   33 335 
 BRR  HZ EP   1    242 18.88                             149    -0.4 7   79 295 
 BRR  HZ I         242 19.13         4.9 0.13                            79 295 
 BRR  HE ES   1    242 36.04                             149     0.3 7   79 295 
 RUS  HZ EP   1    242 21.48                             143     0.0 7  101 181 
 RUS  HZ I         242 21.95         1.3 0.50                           101 181 
 RUS  HE ES   2    242 40.02                             143     0.3 5  101 181 
 GRA  SZ EP   1    242 23.01                             137     0.3 7  123  14 
 GRA  SZ I         242 47.76         1.9 0.33                           123  14 
                                                                                
