 2012  916 0935 49.6 L   6.637 -73.178140.8  RSN  4 0.1 1.3LRSN                1
 GAP=221        0.31       4.6     2.9  3.2  0.4032E+01  0.2214E+01  0.3221E+01E
 Epicentro: BARICHARA - SANTANDER                                              3
 ACTION:UPD 12-10-22 14:19 OP:ep   STATUS:               ID:20120916093549 L   I
 2012-09-16-0930-00M.COL___227                                                 6
 STAT SP IPHASW D HRMM SECON CODA AMPLIT PERI AZIMU VELO AIN AR TRES W  DIS CAZ7
 BAR2 SZ EP        936  8.39                             178   -0.0210 4.93 186 
 BAR2 SZ ES        936 23.03                             178   -0.0410 4.93 186 
 BAR2 SZ I         936 24.58         8.0 0.33                          4.93 186 
 BRR  HZ EP   1    936 10.61                             149   -0.06 7 78.7 311 
 BRR  HN ES   1    936 27.21                             149    0.10 7 78.7 311 
 BRR  HZ I         936 28.34         6.0 0.16                          78.7 311 
 RUS  HZ EP   2    936 11.85                             148    0.20 5 82.9 173 
 PTB  HZ EP   1    936 15.63                             132    0.00 7  142 266 
 PTB  HN ES   1    936 35.89                             132   -0.03 7  142 266 
 PTB  HZ I         936 38.45         1.4 0.11                           142 266 
                                                                                
