 2014 1216 0511  0.5 L   6.761 -73.145147.9  RSN  4 0.3 0.8LRSN                1
 GAP=138        0.73       5.5     5.5  8.0  0.3541E+01 -0.1010E+02 -0.2495E+01E
 Epicentro: LOS SANTOS - SANTANDER                                             3
 ACTION:UPD 15-02-10 17:04 OP:nd   STATUS:               ID:20141216051100 L   I
 OLDACT:DUP 14-12-16 17:37 OP:spq  STATUS:               ID:20141216050747d    3
 2014-12-16-0507-46M.COL___287                                                 6
 STAT SP IPHASW D HRMM SECON CODA AMPLIT PERI AZIMU VELO AIN AR TRES W  DIS CAZ7
 BRR  HZ EP        511 22.13                             152    0.0810 73.4 301 
 BRR  HN ES        511 38.79                             152   -0.0310 73.4 301 
 BRR  HZ I         511 39.94         1.7 0.50            150           73.4 301 
 PAM  SZ EP        511 23.18                             150   -0.0110 80.7  38 
 RUS  HZ EP   1    511 24.76                             145    0.56 7 96.3 176 
 RUS  HN ES   1    511 42.37                             145   -0.28 7 96.3 176 
 RUS  HZ I         511 44.05         0.5 0.16            144           96.3 176 
 PTB  HZ EP        511 27.16                             133   -0.46 9  147 260 
 PTB  HN ES   1    511 49.15                             133    0.41 7  147 260 
 PTB  HZ I         511 54.31         0.8 0.54            130            147 260 
                                                                                
