 2016  516 0015 12.6 L   6.763 -73.105144.1  RSN  8 0.4 1.6LRSN                1
 GAP=143        1.13       4.6     5.6  7.6 -0.4034E+01  0.1001E+02  0.3772E+00E
 Epicentro: LOS SANTOS - SANTANDER                                             3
 ACTION:UPD 16-08-18 17:46 OP:cam  STATUS:               ID:20160516001512 L   I
 OLDACT:UP  16-05-16 14:31 OP:mh   STATUS:               ID:20160516000751d    3
 OLDACT:UP  16-05-16 14:31 OP:mh   STATUS:               ID:20160516000751d    3
 OLDACT:DUP 16-05-16 14:12 OP:mh   STATUS:               ID:20160516000751d    3
 OLDACT:REG 16-05-16 12:34 OP:mh   STATUS:               ID:20160516000749     3
 2016-05-16-0007-49M.COL___295                                                 6
 STAT SP IPHASW D HRMM SECON CODA AMPLIT PERI AZIMU VELO AIN AR TRES W  DIS CAZ7
 BAR2 EZ EP        015 32.16                             171    0.1810 20.8 204 
 BAR2 EZ ES        015 46.62                             171   -0.4810 20.8 204 
 BRR  HZ EP        015 33.38                             150   -0.5310 77.1 300 
 BRR  HN ES        015 50.99                             150    0.4510 77.1 300 
 BRR  HZ I         015 52.59         9.3 0.35            148           77.1 300 
 PAM  EZ EP        015 34.06                             150   -0.6010 77.9  35 
 PAM  EN ES        015 52.42                             150    0.5410 77.9  35 
 PAM  EZ I         015 54.73         8.3 0.51            145           77.9  35 
 RUS  HZ EP        015 36.54                             145    0.6610 96.3 179 
 RUS  HZ I         015 55.89         4.3 0.28            133           96.3 179 
 PTB  HZ EP        015 39.57                             131   -0.19 9  151 261 
 PTB  HZ I         015 54.08         4.9 0.14            123            151 261 
 SPBC HN ES        016  2.82                             129   -0.24 9  163 221 
 SPBC HZ I         016  6.09         4.3 0.13            119            163 221 
 OCA  HZ EP   1    015 41.62                             128    0.41 7  165 352 
 OCA  HN ES        016  3.07                             128   -0.47 9  165 352 
 OCA  HZ I         016  5.95         6.4 0.55            123            165 352 
 ZAR  HZ EP        015 45.71                             121    0.19 8  210 293 
 ZAR  HN ES        016 11.48                             121    0.28 8  210 293 
 ZAR  HZ I         016 17.51         2.6 0.48            115            210 293 
                                                                                
