 2012  616 0300 52.7 L   6.802 -73.164145.0  RSN 12 0.4 2.3LRSN                1
 GAP=134        0.64       2.5     3.3  5.0 -0.1546E+01  0.6030E+01  0.9711E+00E
 Epicentro: LOS SANTOS - SANTANDER                                             3
 ACTION:UP  12-08-06 17:49 OP:ep   STATUS:               ID:20120616030052 L   I
 2012-06-16-0300-00M.COL___198                                                 6
 STAT SP IPHASW D HRMM SECON CODA AMPLIT PERI AZIMU VELO AIN AR TRES W  DIS CAZ7
 BAR2 SZ EP   1    3 1 11.53                             170   -0.70 7 23.3 185 
 BAR2 SZ ES   1    3 1 27.18                             170   -0.29 7 23.3 185 
 PAM  SZ EP   1    3 1 15.07                             150    0.18 7 78.5  41 
 PAM  SN ES   1    3 1 32.72                             150    0.52 7 78.5  41 
 RUS  HZ EP   1    3 1 16.27                             144   -0.13 7  101 175 
 RUS  HN ES   1    3 1 35.22                             144    0.33 7  101 175 
 RUS  HZ I         3 1 36.70        21.5 0.34                           101 175 
 PTB  HZ EP   1    3 1 18.68                             132   -0.74 7  146 259 
 PTB  HN ES   1    3 1 40.52                             132    0.24 7  146 259 
 PTB  HZ I         3 1 43.00        18.3 0.18                           146 259 
 OCA  HZ EP   1    3 1 21.07                             130    0.17 7  160 354 
 OCA  HE ES   1    3 1 42.59                             130   -0.31 7  160 354 
 OCA  HZ I         3 1 47.58        48.6 0.44                           160 354 
 ZAR  HZ EP   2    3 1 24.63                             122   -0.26 4  202 292 
 ZAR  HN ES   1    3 1 50.21                             122    0.21 6  202 292 
 ZAR  HZ I         3 1 56.02        19.6 0.17                           202 292 
 NOR  SZ EP   1    3 1 28.26                             118    0.04 6  233 234 
 NOR  SN ES   1    3 1 55.90                             118   -0.03 6  233 234 
 CHI  HZ EP   1    3 1 30.16                             117   -0.16 6  248 195 
 CHI  HN ES   1    3 1 59.61                             117   -0.06 6  248 195 
 CHI  HZ I         3 2  7.76        11.6 0.43                           248 195 
 HEL  HZ EP   1    3 1 33.25                             115    0.59 6  270 256 
 HEL  HN ES   1    3 2  3.76                             115   -0.07 6  270 256 
 HEL  HZ I         3 2 10.80        11.6 0.49                           270 256 
 GUY  SZ EP   2    3 1 36.94                             112    0.58 4  302 235 
 GUY  SN ES   2    3 2 10.82                             112    0.40 4  302 235 
 GUY  SZ I         3 2 17.83        17.2 0.42                           302 235 
 COD  HN ES   2    3 2 18.59                             109   -0.07 3  348 355 
 PRA  HZ EP   1    3 1 46.67                             106    0.57 4  391 209 
 PRA  HN ES   1    3 2 27.70                             106   -0.05 4  391 209 
                                                                                
