 2014  816 0823 40.7 L   6.773 -73.158148.1  RSN  5 0.3 1.4LRSN                1
 GAP=247        0.82       5.3     6.2  9.2  0.1448E+01 -0.1283E+02  0.1198E+02E
 Epicentro: LOS SANTOS - SANTANDER                                             3
 ACTION:UPD 14-09-15 21:50 OP:nd   STATUS:               ID:20140816082340 L   I
 OLDACT:DUP 14-08-16 17:08 OP:cam  STATUS:               ID:20140816082001d    3
 OLDACT:UP  14-08-16 17:07 OP:cam  STATUS:               ID:20140816082000     3
 OLDACT:REG 14-08-16 13:09 OP:cam  STATUS:               ID:20140816082000     3
 2014-08-16-0820-00M.COL___285                                                 6
 STAT SP IPHASW D HRMM SECON CODA AMPLIT PERI AZIMU VELO AIN AR TRES W  DIS CAZ7
 BAR2 SZ EP     C  824  0.37                             172   -0.1810 20.1 188 
 BAR2 SZ I         824  0.44         6.1 0.40            169           20.1 188 
 BRR  HZ EP     D  824  2.20                             153    0.0810 71.5 301 
 BRR  HN ES        824 18.95                             153    0.1210 71.5 301 
 BRR  HZ I         824 24.18         2.8 0.32            156           71.5 301 
 PTB  HZ EP        824  7.33                             133   -0.36 9  146 260 
 PTB  HN ES        824 28.16                             133   -0.58 9  146 260 
 PTB  HZ I         824 35.74         3.5 0.50            137            146 260 
 SPBC HZ EP        824  9.36                             130    0.28 9  160 219 
 SPBC HN ES        824 31.54                             130    0.32 9  160 219 
 SPBC HZ I         824 37.02         3.4 0.38            134            160 219 
 ZAR  HN ES        824 39.11                             123    0.40 9  204 293 
 SML  HE ES   4    824 44.37                             118   -2.18 0  246 336 
                                                                                
