 2016  416 0003 37.0 L   6.824 -73.120149.9  RSN 17 0.5 2.1LRSN                1
 GAP=108        1.07       3.7     2.8  5.5 -0.3231E+01  0.4778E+01 -0.1705E+01E
 Epicentro: LOS SANTOS - SANTANDER                                             3
 ACTION:UPD 16-05-05 14:21 OP:rebc STATUS:               ID:20160416000337 L   I
 OLDACT:REG 16-04-16 13:38 OP:ak   STATUS:               ID:20160416000004     3
 2016-04-16-0000-04M.COL___316                                                 6
 STAT SP IPHASW D HRMM SECON CODA AMPLIT PERI AZIMU VELO AIN AR TRES W  DIS CAZ7
 BAR2 EZ EP        0 3 57.45                             170    0.2410 26.5 195 
 BAR2 EZ ES        0 4 13.11                             170    0.1510 26.5 195 
 BAR2 EZ I         0 4 15.52        19.0 0.24            168           26.5 195 
 PAM  EZ EP        0 4  0.20                             153    0.7510 73.5  39 
 PAM  EN ES        0 4 17.48                             153    0.5310 73.5  39 
 PAM  EZ I         0 4 19.57        13.3 0.22            157           73.5  39 
 RUS  HZ EP        0 4  1.13                             144   -0.2210  103 178 
 RUS  HN ES        0 4 19.75                             144   -0.5810  103 178 
 RUS  HZ I         0 4 21.45         7.9 0.42            145            103 178 
 PTB  HZ EP        0 4  3.68                             132   -0.94 9  151 258 
 PTB  HN ES        0 4 25.35                             132   -0.80 9  151 258 
 PTB  HZ I         0 4 31.41        12.8 0.16            132            151 258 
 TAM  HZ EP   2    0 4  5.65                             132    0.81 5  153 106 
 TAM  HN ES        0 4 26.49                             132   -0.05 9  153 106 
 SPBC HZ EP        0 4  6.33                             129    0.14 9  167 219 
 SPBC HN ES        0 4 29.13                             129    0.18 9  167 219 
 SPBC HZ I         0 4 34.25        23.9 0.14            130            167 219 
 ZAR  HZ EP   2    0 4 10.21                             123    0.31 4  206 291 
 ZAR  HN ES        0 4 36.05                             123    0.50 8  206 291 
 ZAR  HZ I         0 4 46.34        11.8 0.28            124            206 291 
 NOR  HZ EP        0 4 13.55                             119    0.16 8  239 234 
 NOR  HN ES        0 4 41.60                             119   -0.17 8  239 234 
 NOR  HZ I         0 4 45.11         9.7 0.34            120            239 234 
 CHI  HZ EP        0 4 15.19                             118   -0.11 8  252 196 
 CHI  HN ES        0 4 45.06                             118   -0.10 8  252 196 
 CHI  HZ I         0 4 53.52         3.7 0.50            119            252 196 
 HEL  HZ EP   2    0 4 17.96                             115    0.15 4  275 255 
 HEL  HN ES        0 4 49.74                             115    0.10 7  275 255 
 HEL  HZ I         0 4 56.12         5.3 0.32            116            275 255 
 URE  HZ EP   1    0 4 18.01                             114   -0.46 6  285 291 
 URE  HE ES   4    0 4 49.29                             114   -1.52 0  285 291 
 URE  HZ I         0 4 51.18         5.1 0.14            115            285 291 
 SOCV BZ EP        0 4 19.43                             113   -0.39 7  297  57 
 SOCV BE ES        0 4 52.43                             113   -0.78 7  297  57 
 GUY2CHZ EP        0 4 21.88                             113    0.63 7  305 235 
 GUY2CHN ES        0 4 56.56                             113    0.81 7  305 235 
 GUY2CHZ I         0 5  4.13         7.2 0.28                           305 235 
 ELA  HZ EP   2    0 4 24.63                             111    0.15 3  333 229 
 ELA  HN ES   4    0 5  5.41                             111    3.90 0  333 229 
 ELA  HZ I         0 5 17.12         4.4 0.44            112            333 229 
 CBOC HZ EP        0 4 25.20                             110    0.70 7  337 252 
 CBOC HE ES        0 5  1.00                             110   -0.54 7  337 252 
 DBB  SZ EP        0 4 25.04                             110    0.08 7  342 274 
 DBB  SZ ES        0 5  1.63                             110   -0.73 7  342 274 
 DBB  SZ I         0 5  3.91        13.5 0.52            111            342 274 
 ANIL HE ES   2    0 5  7.67                             109    0.92 3  361 225 
 ANIL HZ I         0 5 11.52        11.2 0.36            110            361 225 
                                                                                
