 2015  816 0933 24.0 L   6.844 -73.070143.1  RSN 10 0.5 1.8LRSN                1
 GAP=191        1.07       3.3     5.7  5.9 -0.4252E+00  0.6402E+01 -0.1715E+01E
 Epicentro: LOS SANTOS - SANTANDER                                             3
 ACTION:UPD 15-09-15 23:02 OP:cam  STATUS:               ID:20150816093324 L   I
 OLDACT:UP  15-08-16 19:23 OP:mh   STATUS:               ID:20150816092747d    3
 OLDACT:UP  15-08-16 19:21 OP:mh   STATUS:               ID:20150816092747d    3
 OLDACT:DUP 15-08-16 19:15 OP:mh   STATUS:               ID:20150816092747d    3
 OLDACT:UP  15-08-16 19:14 OP:mh   STATUS:               ID:20150816092746     3
 OLDACT:UP  15-08-16 19:13 OP:mh   STATUS:               ID:20150816092746     3
 OLDACT:UP  15-08-16 19:13 OP:mh   STATUS:               ID:20150816092746     3
 OLDACT:UP  15-08-16 19:11 OP:mh   STATUS:               ID:20150816092746     3
 OLDACT:UP  15-08-16 19:09 OP:mh   STATUS:               ID:20150816092746     3
 OLDACT:UP  15-08-16 19:08 OP:mh   STATUS:               ID:20150816092746     3
 OLDACT:UP  15-08-16 19:08 OP:mh   STATUS:               ID:20150816092746     3
 OLDACT:UP  15-08-16 18:55 OP:mh   STATUS:               ID:20150816092746     3
 OLDACT:REG 15-08-16 13:48 OP:mh   STATUS:               ID:20150816092746     3
 2015-08-16-0927-46M.COL___325                                                 6
 STAT SP IPHASW D HRMM SECON CODA AMPLIT PERI AZIMU VELO AIN AR TRES W  DIS CAZ7
 BAR2 EZ EP        933 43.76                             167    0.2910 30.5 204 
 BAR2 EZ ES        933 58.34                             167   -0.3210 30.5 204 
 BAR2 EZ I         934  0.18         9.4 0.52            164           30.5 204 
 BRR  HZ EP        933 45.62                             150    0.4410 76.7 292 
 BRR  HN ES        934  2.52                             150    0.8210 76.7 292 
 BRR  HZ I         934  4.49         5.7 0.16            143           76.7 292 
 RUS  HZ EP        933 47.62                             142   -0.2110  105 181 
 RUS  HN ES        934  6.34                             142   -0.0810  105 181 
 OCA  HZ EP        933 52.41                             130    0.65 9  157 350 
 OCA  HN ES        934 12.95                             130   -0.47 9  157 350 
 OCA  HZ I         934 19.21        15.5 0.38            126            157 350 
 SPBC HZ EP        933 53.04                             127   -0.13 9  172 220 
 SPBC HN ES        934 15.44                             127   -0.49 9  172 220 
 SPBC HZ I         934 17.33         9.5 0.26            123            172 220 
 ZAR  HZ EP   9    933 56.61                             121   -0.29 0  210 290 
 ZAR  HN ES        934 22.36                                    0.09 8  210 290 
 ZAR  HZ I         934 27.24         5.7 0.28            116            210 290 
 SML  HZ EP        933 59.61                             117   -0.78 8  243 333 
 SML  HN ES        934 28.30                             117   -0.48 8  243 333 
 SML  HZ I         934 32.70         8.5 0.30            113            243 333 
 HEL  HZ EP        934  5.53                             113    0.41 7  281 255 
 HEL  HN ES        934 36.66                             113   -0.53 7  281 255 
 HEL  HZ I         934 42.86         2.3 0.28            110            281 255 
 GUY2CHZ EP        934  9.00                             111    0.42 7  311 235 
 GUY2CHN ES   4    934 45.10                             111    1.74 0  311 235 
 GUY2CHZ I         934 52.88         3.1 0.50                           311 235 
 CBOC HZ EP        934 11.97                             109    0.07 7  343 252 
 CBOC HZ I         934 39.55         1.0 0.18            106            343 252 
 CBOC HN ES   2    934 49.62                             109    0.36 3  343 252 
                                                                                
