 2016  116 0332 24.9 L   6.887 -73.189142.0  RSN 11 0.4 2.0LRSN                1
 GAP=127        1.00       2.6     4.2  7.2 -0.1545E+01  0.7244E+01  0.1337E+01E
 Epicentro: BETULIA - SANTANDER                                                3
 ACTION:UPD 16-03-09 23:25 OP:cam  STATUS:               ID:20160116033224 L   I
 OLDACT:UP  16-01-16 15:14 OP:mh   STATUS:               ID:20160116031708d    3
 OLDACT:REG 16-01-16 14:34 OP:mh   STATUS:               ID:20160116031708d    3
 2016-1-16-328_032800_840.mseed                                                6
 STAT SP IPHASW D HRMM SECON CODA AMPLIT PERI AZIMU VELO AIN AR TRES W  DIS CAZ7
 PAM  EZ EP   1    332 46.51                             152   -0.01 7 73.6  47 
 PAM  EN ES        333  3.79                             152    0.4310 73.6  47 
 PAM  EZ I         333  5.62        20.1 0.28            154           73.6  47 
 RUS  HZ EP        332 48.73                             140   -0.3410  111 174 
 RUS  HN ES        333  7.89                             140   -0.0110  111 174 
 PTB  HZ EP        332 51.09                             132   -0.28 9  145 255 
 PTB  HN ES        333 12.01                             132    0.02 9  145 255 
 PTB  HZ I         333 14.78        15.4 0.14            131            145 255 
 OCA  HZ EP        332 51.64                             131   -0.36 9  150 354 
 OCA  HN ES        333 12.84                             131   -0.28 9  150 354 
 OCA  HZ I         333 18.51        13.7 0.32            131            150 354 
 SPBC HZ EP   1    332 53.17                             128   -0.43 7  168 216 
 SPBC HN ES        333 16.13                             128    0.16 9  168 216 
 ZAR  BN ES        333 21.56                             123    0.77 9  196 290 
 ZAR  HZ I         333 27.41        12.8 0.34            123            196 290 
 SML  BZ EP        333  1.13                             118    0.95 8  233 335 
 SML  BN ES        333 27.04                             118   -0.63 8  233 335 
 SML  BZ I         333 35.06         9.9 0.10            118            233 335 
 NOR  HN ES        333 27.87                             118   -0.65 8  237 232 
 NOR  HZ I         333 32.04         6.5 0.24            118            237 232 
 CHI  HZ EP        333  3.20                             116   -0.11 8  257 194 
 CHI  HE ES        333 33.67                             116    0.41 8  257 194 
 CHI  HZ I         333 41.77         2.9 0.44            117            257 194 
 GUY2CHN EP   4    333 10.31                             112    1.74 0  303 233 
 GUY2CHE ES   4    333 46.68                             112    4.06 0  303 233 
 GUY2CHN I         333 52.69         5.1 0.68                           303 233 
 PRA  HZ EP        333 19.51                             106    0.47 6  398 208 
 PRA  HN ES   1    334  1.52                             106    0.27 4  398 208 
 PRA  HZ I         334  7.21         3.4 0.28            106            398 208 
                                                                                
