 2011  616 0508 12.6 L   6.776 -73.120155.5  RSN  5 0.1 1.2LRSN                1
 GAP=162        0.32       2.6     5.2  4.5  0.4934E+01 -0.4209E+01 -0.5679E+00E
 Epicentro: LOS SANTOS - SANTANDER                                             3
 ACTION:UP  11-07-14 19:05 OP:ep   STATUS:               ID:20110616050812 L   I
 2011-06-16-0500-00M.COL___125                                                 6
 STAT SP IPHASW D HRMM SECON CODA AMPLIT PERI AZIMU VELO SNR AR TRES W  DIS CAZ7
 BAR2 SZ ES   2    5 8 49.46                             172    -0.1 5   21 199 
 BAR2 SZ I         5 8 49.75         3.5 0.35                            21 199 
 BTL  SZ EP   2    5 8 33.36                             171     0.0 5   23 314 
 BRR  HZ EP   1    5 8 34.86                             153    -0.1 7   75 299 
 BRR  HZ I         5 8 36.45         4.4 0.13                            75 299 
 BRR  HE ES   1    5 8 52.53                             153     0.1 7   75 299 
 RUS  HZ EP   1    5 8 37.19                             146     0.1 7   98 178 
 RUS  HZ I         5 8 37.71         1.0 0.53                            98 178 
 RUS  HN ES   1    5 8 56.19                             146     0.0 7   98 178 
 GRA  SZ ES   2    5 8 59.33                             139     0.0 5  127  16 
 GRA  SZ I         5 9  0.95         2.0 0.22                           127  16 
                                                                                
