 2011 1216 0941 55.8 L   6.770 -73.079147.3  RSN 13 0.2 2.7LRSN                1
 GAP=147        0.45       1.7     3.2  3.0 -0.1680E+01  0.3693E+01  0.9627E+00E
 Epicentro: LOS SANTOS - SANTANDER                                             3
 ACTION:UPD 12-07-13 16:16 OP:ep   STATUS:               ID:20111216094155 L   I
 2011-12-16-0940-00M.COL___186                                                 6
 STAT SP IPHASW D HRMM SECON CODA AMPLIT PERI AZIMU VELO AIN AR TRES W  DIS CAZ7
 BAR2 SZ IP        942 15.61                             171    0.0510 22.7 210 
 BAR2 SZ ES   1    942 30.91                             171   -0.10 7 22.7 210 
 BAR2 SZ I         942 32.50        84.9 0.33                          22.7 210 
 GIR2 SZ EP        942 15.79                             165    0.0310 36.4 340 
 PAM  SZ EP        942 18.37                             152    0.3310 75.6  34 
 PAM  SE ES        942 35.22                             152   -0.1910 75.6  34 
 BRR  HZ EP        942 17.54                             150   -0.0110 79.3 298 
 BRR  HN ES   1    942 34.79                             150    0.25 7 79.3 298 
 RUS  HZ EP        942 19.46                             145    0.0510 97.0 180 
 RUS  HN ES   1    942 37.89                             145    0.03 7 97.0 180 
 RUS  HZ I         942 39.31        26.3 0.35                          97.0 180 
 OCA  SZ EP        942 24.34                             129   -0.26 9  165 351 
 OCA  SZ ES   1    942 47.05                             129   -0.04 7  165 351 
 OCA  SZ I         942 49.54        46.7 0.25                           165 351 
 NOR  SZ EP   1    942 31.40                             118   -0.63 6  239 236 
 CHI  HZ EP        942 33.42                             118    0.00 8  247 197 
 CHI  HN ES   1    943  2.69                             118   -0.10 6  247 197 
 CHI  HZ I         943 12.60        27.3 0.51                           247 197 
 HEL  HZ EP   1    942 37.10                             114    0.34 6  278 257 
 HEL  HZ I         943 14.33        24.4 0.40                           278 257 
 GUY  SZ EP   1    942 40.08                             112   -0.10 5  308 236 
 GUY  SZ I         943 22.12        45.5 0.46                           308 236 
 RREF HZ EP   1    942 42.35                             111   -0.02 5  325 231 
 RREF HN ES   1    943 18.90                             111    0.17 5  325 231 
 RREF HZ I         943 28.23        38.5 0.43                           325 231 
 TOL  SZ EP   1    942 44.62                             109    0.21 5  346 226 
 PRA  HZ EP   1    942 49.69                             107    0.26 4  393 211 
 PRA  HN ES   1    943 30.90                             107   -0.39 4  393 211 
                                                                                
