 2010  616 0027 41.0 L   6.778 -73.108141.5  RSN  8 0.2 1.7LRSN                1
 GAP=160        0.55       3.2     6.6  5.2  0.1809E+01 -0.8591E+01 -0.2110E+01E
 Epicentro: LOS SANTOS - SANTANDER                                             3
 ACTION:UP  10-08-24 10:10 OP:vdl  STATUS:               ID:20100616002741 L   I
 2010-06-16-0025-28S.COL___114                                                 6
 STAT SP IPHASW D HRMM SECON CODA AMPLIT PERI AZIMU VELO SNR AR TRES W  DIS CAZ7
 BAR2 SZ EP   1    028  0.13                             171     0.0 7   22 202 
 BAR2 SZ ES   1    028 14.47                             171    -0.5 7   22 202 
 GIR2 SZ EP   2    028  0.57                             165     0.3 5   35 344 
 BRR  HZ IP     C  028  1.99                             150     0.010   76 299 
 BRR  HN ES   1    028 18.51                             150     0.2 7   76 299 
 BRR  HZ I         028 22.74        16.9 0.14                            76 299 
 RUS  HZ EP   1    028  4.06                             144    -0.1 7   98 178 
 RUS  HN ES   1    028 22.63                             144     0.4 7   98 178 
 RUS  HZ I         028 23.66         7.7 0.30                            98 178 
 BRI  SZ EP   1    028  4.71                             140     0.1 7  109  18 
 GRA  SZ EP   1    028  5.90                             136    -0.1 7  127  15 
 CHI  HZ EP   1    028 18.16                             116    -0.2 6  247 196 
 CHI  HE ES   2    028 47.41                             116    -0.1 4  247 196 
 CHI  HZ I         028 53.48         2.7 0.40                           247 196 
 HEL  HZ EP   3    028 21.21                             113    -0.2 2  275 257 
 HEL  HZ I         028 59.15         3.4 0.48                           275 257 
                                                                                
