 2010  916 0026 48.7 L   6.773 -73.045145.4  RSN  7 0.4 1.6LRSN                1
 GAP=170        0.74       6.5     9.9  8.3 -0.2261E+02 -0.2641E+02  0.1150E+01E
 Epicentro: LOS SANTOS - SANTANDER                                             3
 ACTION:UP  11-02-18 11:03 OP:tino STATUS:               ID:20100916002648 L   I
 2010-09-16-0024-57S.COL___119                                                 6
 STAT SP IPHASW D HRMM SECON CODA AMPLIT PERI AZIMU VELO SNR AR TRES W  DIS CAZ7
 BAR2 SZ ES   3    027 23.29                             170    -0.3 2   25 217 
 BAR2 SZ I         027 26.10        10.3 0.27                            25 217 
 BTL  SZ EP        027  8.69                             169     0.310   29 303 
 BTL  SZ ES   2    027 22.97                             169    -0.8 5   29 303 
 BRR  HZ EP        027 10.37                             150    -0.110   83 297 
 BRR  HN ES   1    027 27.74                             150     0.3 7   83 297 
 BRR  HZ I         027 30.51        18.6 0.22                            83 297 
 RUS  HZ EP   2    027 12.55                             145     0.4 5   97 182 
 RUS  HE ES   3    027 30.36                             145    -0.1 2   97 182 
 RUS  HZ I         027 32.68         3.0 0.09                            97 182 
 GUE  SZ EP        027 13.39                             139    -0.110  118   6 
 GRA  SZ EP   3    027 13.74                             137    -0.2 2  126  12 
 GRA  SZ ES   1    027 34.06                             137     0.5 7  126  12 
 GRA  SZ I         027 36.10         5.2 0.26                           126  12 
 OCA  SZ EP        027 17.06                             129    -0.4 9  165 349 
                                                                                
