 2013  316 0004 31.1 L   6.780 -73.151141.1  RSN  8 0.4 2.0LRSN                1
 GAP=137        0.77       4.3     4.2  6.5  0.2315E+01  0.7264E+01 -0.2570E+01E
 Epicentro: LOS SANTOS - SANTANDER                                             3
 ACTION:UPD 13-04-09 14:02 OP:ep   STATUS:               ID:20130316000431 L   I
 2013-03-16-0000-00M.COL___244                                                 6
 STAT SP IPHASW D HRMM SECON CODA AMPLIT PERI AZIMU VELO AIN AR TRES W  DIS CAZ7
 BAR2 SZ EP        0 4 50.15                             171   -0.0110 21.0 189 
 BAR2 SZ ES   1    0 5  4.57                             171   -0.43 7 21.0 189 
 BAR2 SZ I         0 5  6.56        10.9 0.28            173           21.0 189 
 BRR  HZ EP        0 4 52.11                             152    0.2910 71.8 300 
 BRR  HN ES   2    0 5  8.57                             152    0.62 5 71.8 300 
 BRR  HN I         0 5  9.40        36.4 0.20            150           71.8 300 
 PAM  SZ EP        0 4 53.31                             149    0.3210 79.5  39 
 PAM  SN ES   2    0 5  9.87                             149   -0.17 5 79.5  39 
 PAM  SN I         0 5 10.81        26.7 0.20            151           79.5  39 
 RUS  HZ EP        0 4 54.63                             143    0.3610 98.4 176 
 RUS  HN ES   2    0 5 11.96                             143   -0.36 5 98.4 176 
 RUS  HN I         0 5 14.60         6.0 0.56            148           98.4 176 
 PTB  HZ EP        0 4 57.14                             131   -0.49 9  147 260 
 PTB  HN ES   2    0 5 17.68                             131   -0.62 5  147 260 
 PTB  HN I         0 5 20.59        10.9 0.18            132            147 260 
 ZAR  HZ EP        0 5  2.93                             121   -0.38 9  204 293 
 ZAR  HN ES        0 5 28.63                             121    0.22 9  204 293 
 ZAR  HN I         0 5 33.88        14.9 0.28            122            204 293 
 NOR  HZ EP   1    0 5  6.34                             118   -0.06 6  233 235 
 NOR  HN ES   2    0 5 34.88                             118    0.97 4  233 235 
 SML  HZ EP   1    0 5  7.23                             116   -0.47 6  245 336 
 SML  HZ E         0 5  7.23                                            245 336 
 SML  HN ES   2    0 5 36.11                             116   -0.11 4  245 336 
 SML  HN I         0 5 43.55        11.7 0.10            117            245 336 
                                                                                
