 2017  716 0131 53.9 L   6.985 -73.109136.3  RSN  4 0.3 1.2LRSN                1
 GAP=287        0.82       7.6     5.6  7.4  0.5305E+01  0.8063E+01 -0.1123E+02E
 Epicentro: PIEDECUESTA - SANTANDER                                            3
 ACTION:UPD 17-08-30 15:33 OP:rebc STATUS:               ID:20170716013153 L   I
 OLDACT:REG 17-07-16 12:00 OP:dhb  STATUS:               ID:20170716012309     3
 2017-07-16-0128-00M.COL___389                                                 6
 STAT SP IPHASW D HRMM SECON CODA AMPLIT PERI AZIMU VELO AIN AR TRES W  DIS CAZ7
 BAR2 EZ EP        132 13.53                             161    0.4510 44.1 191 
 BAR2 EZ ES        132 27.93                             161   -0.0610 44.1 191 
 BAR2 EZ I         132 30.54         3.2 0.10            161           44.1 191 
 RUS  HZ EP        132 18.39                             136   -0.0110  121 179 
 RUS  HE ES        132 37.16                             136   -0.3010  121 179 
 RUS  HZ I         132 38.59         2.3 0.36            138            121 179 
 PTB  HZ EP        132 20.99                             128   -0.03 9  157 252 
 PTB  HN ES     D  132 41.93                             128   -0.21 9  157 252 
 PTB  HZ I         132 42.71         1.6 0.14            130            157 252 
 SPBC HZ EP        132 23.16                             124   -0.44 9  182 216 
 SPBC HN ES        132 47.29                             124    0.57 9  182 216 
 SPBC HZ I         132 48.70         3.4 0.10            125            182 216 
                                                                                
