 2011  916 0928  4.9 L   6.807 -73.098143.6  RSN 13 0.5 2.3LRSN                1
 GAP=142        0.86       3.4     4.9  6.1 -0.1367E+01  0.1156E+02  0.4445E+01E
 Epicentro: LOS SANTOS - SANTANDER                                             3
 ACTION:UPD 12-07-13 15:57 OP:ep   STATUS:               ID:20110916092804 L   I
 2011-09-16-0920-00M.COL___171                                                 6
 STAT SP IPHASW D HRMM SECON CODA AMPLIT PERI AZIMU VELO AIN AR TRES W  DIS CAZ7
 BAR2 SZ EP   1    928 24.58                             169    0.30 7 25.6 201 
 BAR2 SZ ES   1    928 39.13                             169   -0.30 7 25.6 201 
 BAR2 SZ I         928 40.87        75.1 0.38                          25.6 201 
 GIR2 SZ EP   1    928 24.64                             167    0.35 7 31.8 341 
 PAM  SZ EP   1    928 27.30                             152    0.69 7 73.5  37 
 PAM  SN ES   1    928 43.19                             152   -0.39 7 73.5  37 
 PAM  SZ I         928 46.68         9.9 0.56                          73.5  37 
 BRR  HZ EP   1    928 25.66                             151   -0.37 7 75.5 296 
 BRR  HN ES   1    928 42.84                             151    0.30 7 75.5 296 
 BRR  HZ I         928 44.09        70.1 0.13                          75.5 296 
 RUS  HZ EP   1    928 28.63                             143    0.19 7  101 179 
 RUS  HZ I         928 29.83        20.9 0.14                           101 179 
 RUS  HN ES   1    928 46.43                             143   -0.41 7  101 179 
 OCA  SZ EP   1    928 32.52                             129   -0.47 7  160 351 
 OCA  SZ ES   1    928 55.31                             129    0.37 7  160 351 
 OCA  SZ I         928 57.95        33.1 0.21                           160 351 
 ZAR  HZ EP   1    928 36.93                             121   -0.71 6  209 291 
 ZAR  HN ES   1    929  2.88                             121   -0.33 6  209 291 
 ZAR  HZ I         929 10.14        19.9 0.27                           209 291 
 NOR  SZ EP   1    928 40.92                             117   -0.06 6  239 235 
 NOR  SZ I         929 14.83         1.1 0.18                           239 235 
 CHI  HZ EP   1    928 42.47                             116   -0.21 6  251 196 
 CHI  HN ES   1    929 12.97                             116    0.79 6  251 196 
 CHI  HZ I         929 17.55         6.6 0.25                           251 196 
 HEL  HZ EP   1    928 46.30                             114    0.74 6  277 256 
 HEL  HN ES   1    929 18.27                             114    0.97 6  277 256 
 HEL  HZ I         929 24.73        14.1 0.36                           277 256 
 GUY  SZ EP   1    928 49.21                             111    0.03 5  308 236 
 GUY  SN ES   1    929 22.86                             111   -0.89 5  308 236 
 GUY  SZ I         929 32.03        19.7 0.55                           308 236 
 RREF HZ EP   1    928 51.05                             110   -0.38 5  326 230 
 RREF HZ I         929 35.20         8.8 0.25                           326 230 
 PRA  HZ EP   1    928 57.94                             106   -0.76 4  395 210 
 PRA  HN ES   1    929 40.82                             106    0.13 4  395 210 
 PRA  HZ I         929 47.43        30.7 0.24                           395 210 
                                                                                
