 2010  316 0936 48.2 L   6.580 -73.490112.9  RSN  6 0.3 1.6LRSN                1
 GAP=111        0.54       4.6     8.2  8.4  0.1700E+02  0.4842E+02  0.2117E+02E
 Epicentro: EL CARMEN DE CHUCURI - SANTANDER                                   3
 ACTION:UP  10-08-24 09:54 OP:vdl  STATUS:               ID:20100316093648 L   I
 2010-03-16-0934-39S.COL___095                                                 6
 STAT SP IPHASW D HRMM SECON CODA AMPLIT PERI AZIMU VELO SNR AR TRES W  DIS CAZ7
 BAR2 SZ IP        937  4.34                             162     0.210   34  88 
 BAR2 SZ ES   1    937 16.62                             162    -0.1 7   34  88 
 BRR  HZ EP   1    937  5.26                             148    -0.1 7   63 337 
 BRR  HZ I         937 12.84        15.3 0.15                            63 337 
 BRR  HN ES   2    937 18.82                             148     0.1 5   63 337 
 RUS  HZ EP   2    937  7.57                             139    -0.3 5   88 149 
 RUS  HN ES   2    937 22.74                             139    -0.4 5   88 149 
 RUS  HZ I         937 23.41         6.5 0.16                            88 149 
 CHI  HZ EP   2    937 21.07                             113     0.4 4  217 187 
 CHI  HN ES   2    937 46.75                             113     0.7 4  217 187 
 CHI  HZ I         937 49.62         2.3 0.24                           217 187 
 HEL  HZ EP   2    937 21.96                             111    -0.1 4  230 259 
 HEL  HZ I         937 51.33         3.1 0.35                           230 259 
 PRA  HZ EP   2    937 35.33                             102    -0.7 3  353 206 
 PRA  HE ES   3    938 12.68                             102    -0.7 2  353 206 
 PRA  HZ I         938 14.76         3.3 0.29                           353 206 
                                                                                
