 2016  216 0536 26.8 L   6.758 -73.127141.8  RSN  7 0.3 1.4LRSN                1
 GAP=141        0.77       3.2     3.8  5.0 -0.1264E+00  0.6216E+01  0.2600E+00E
 Epicentro: LOS SANTOS - SANTANDER                                             3
 ACTION:UPD 16-03-04 21:26 OP:rebc STATUS:               ID:20160216053626 L   I
 OLDACT:DUP 16-02-16 13:46 OP:drio STATUS:               ID:20160216052751d    3
 2016-02-16-0527-49M.COL___310                                                 6
 STAT SP IPHASW D HRMM SECON CODA AMPLIT PERI AZIMU VELO AIN AR TRES W  DIS CAZ7
 BAR2 EZ EP        536 45.94                             172    0.1010 19.3 198 
 BAR2 EZ ES        537  0.48                             172   -0.2410 19.3 198 
 BAR2 EZ I         537  1.63         8.6 0.16            172           19.3 198 
 BRR  HZ EP        536 47.72                             150   -0.0010 75.3 301 
 BRR  HN ES        537  4.55                             150    0.4710 75.3 301 
 BRR  HZ I         537  7.54         3.6 0.34            150           75.3 301 
 PAM  EZ EP        536 48.88                             149    0.1810 79.8  36 
 PAM  EN ES        537  5.69                             149   -0.1310 79.8  36 
 PAM  EZ I         537  7.99         5.5 0.58            152           79.8  36 
 RUS  HZ EP        536 50.16                             144    0.3810 95.8 177 
 RUS  HN ES        537  7.38                             144   -0.3610 95.8 177 
 RUS  HZ I         537  9.02         2.5 0.24            147           95.8 177 
 PTB  HZ EP        536 52.96                             131   -0.56 9  149 261 
 PTB  HN ES   4    537 12.76                             131   -1.63 0  149 261 
 PTB  HZ I         537 16.35         4.3 0.12            132            149 261 
 SPBC HZ EP        536 54.91                             128    0.17 9  161 221 
 SPBC HN ES        537 16.82                             128    0.25 9  161 221 
 SPBC HZ I         537 18.83         2.9 0.10            130            161 221 
 ZAR  HZ EP        536 59.10                             121   -0.23 8  208 293 
 ZAR  HN ES        537 24.62                             121   -0.13 8  208 293 
 ZAR  HZ I         537 27.34         2.4 0.18            122            208 293 
                                                                                
