 2012  916 0846  2.8 L   6.769 -73.162143.5  RSN 16 0.4 2.9LRSN 3.3WRSN        1
 SPEC AVERAGE  MO 14.1 ST  6.0 OM  3.4 f0 3.37 R0.4447 AL 2.58 WI 13.6 MW  3.3 3
 SPEC SD       MO  0.2 ST  1.5 OM  1.2 f00.448 R0.0643 AL      WI      MW  0.1 3
 GAP= 65        0.84       3.0     2.5  4.7 -0.1359E-01  0.2248E+01  0.5748E+01E
 Epicentro: LOS SANTOS - SANTANDER                                             3
 SPEC PRA HH Z MO 14.3 ST  5.5 OM  2.3 f0 2.75 R0.5345 AL 1.74 WI 13.5 MW  3.5 3
 SPEC PRA HH Z T 84736 K 0.000 GD  413 VS 4.20 DE 3.00 Q0230.0 QA 0.60 VS 4.20 3
 SPEC ROSCBH Z MO 14.0 ST  8.0 OM  2.2 f0 3.79 R0.3879 AL 3.82 WI 10.4 MW  3.3 3
 SPEC ROSCBH Z T 84710 K 0.000 GD  287 VS 4.20 DE 3.00 Q0230.0 QA 0.60 VS 4.20 3
 SPEC HEL HH Z MO 13.9 ST  4.5 OM  2.0 f0 3.57 R0.4118 AL 2.19 WI 17.0 MW  3.2 3
 SPEC HEL HH Z T 84712 K 0.000 GD  305 VS 4.20 DE 3.00 Q0230.0 QA 0.60 VS 4.20 3
 ACTION:UPD 12-10-22 14:19 OP:ep   STATUS:               ID:20120916084602 L   I
 2012-09-16-0840-00M.COL___227                                                 6
 STAT SP IPHASW D HRMM SECON CODA AMPLIT PERI AZIMU VELO AIN AR TRES W  DIS CAZ7
 BAR2 SZ IP        846 22.15                             172    0.0810 19.7 187 
 BAR2 SZ ES   1    846 36.51                             172   -0.61 7 19.7 187 
 BAR2 SZ I         846 38.79       335.6 0.23                          19.7 187 
 GIR2 SZ EP        846 22.21                             166   -0.0710 34.4 354 
 GIR2 SZ ES   1    846 37.83                             166    0.35 7 34.4 354 
 BRR  HZ IP     C  846 23.97                             152    0.2710 71.4 302 
 BRR  HN ES   1    846 40.96                             152    0.95 7 71.4 302 
 BRR  HZ I         846 43.88       149.6 0.14                          71.4 302 
 PAM  SZ EP        846 24.99                             149    0.0010 81.1  39 
 PAM  SZ I         846 25.46       142.4 0.25                          81.1  39 
 PAM  SE ES        846 41.64                             149   -0.6610 81.1  39 
 RUS  HZ EP        846 26.12                             144    0.0410 97.3 175 
 RUS  HE ES   1    846 44.11                             144   -0.14 7 97.3 175 
 RUS  HZ I         846 45.96        73.0 0.21                          97.3 175 
 PTB  HZ EP        846 28.88                             132   -0.47 9  145 260 
 PTB  HE ES        846 50.24                             132    0.16 9  145 260 
 PTB  HZ I         846 52.54        62.6 0.19                           145 260 
 TAM  HZ EP        846 30.52                             130    0.16 9  156 104 
 TAM  HZ I         846 51.50        43.8 0.30                           156 104 
 TAM  HE ES        846 51.84                             130   -0.03 9  156 104 
 YOP  SZ EP        846 32.84                             126    0.39 9  177 152 
 YOP  SZ I         846 33.66        61.6 0.08                           177 152 
 YOP  SN ES   2    846 56.20                             126    0.62 4  177 152 
 ZAR  HZ EP   1    846 34.66                             122   -0.39 6  204 293 
 ZAR  HN ES   1    847  0.02                             122   -0.20 6  204 293 
 ZAR  HZ I         847  5.38        91.7 0.36                           204 293 
 NOR  SZ EP   1    846 38.17                             118    0.15 6  231 235 
 NOR  SN ES   1    847  5.70                             118    0.20 6  231 235 
 CHI  HZ EP        846 40.33                             117    0.38 8  245 195 
 CHI  HN ES   1    847  8.93                             117   -0.01 6  245 195 
 CHI  HZ I         847 15.00        47.0 0.28                           245 195 
 ROSC BZ EP   1    846 41.44                             116    1.07 6  249 211 
 ROSC BN ES   1    847  8.99                             116   -0.69 6  249 211 
 ROSC BZ I         847 16.70       143.5 0.48                           249 211 
 HEL  HZ EP   1    846 42.50                             114   -0.10 6  270 256 
 HEL  HN ES   1    847 13.88                             114    0.22 6  270 256 
 HEL  HZ I         847 20.29        39.1 0.34                           270 256 
 VIL  SZ EP   1    846 45.63                             112   -0.06 5  300 191 
 VIL  SE ES   1    847 18.71                             112   -0.43 5  300 191 
 VIL  SZ I         847 29.98        61.8 0.48                           300 191 
 DBB  SZ EP   1    846 49.15                             109   -0.85 5  338 275 
 PRA  HZ EP        846 55.58                             106   -0.20 6  388 210 
 PRA  HE ES   1    847 36.50                             106   -0.62 4  388 210 
 PRA  HZ I         847 44.65        51.0 0.47                           388 210 
                                                                                
