 2011  816 0659  0.2 L   6.542 -73.501110.6  RSN  6 0.3 1.8LRSN                1
 GAP=105        0.63       3.6     5.0  6.6 -0.2603E+01  0.5547E+01 -0.5745E+00E
 Epicentro: EL CARMEN DE CHUCURI - SANTANDER                                   3
 ACTION:UPD 12-07-13 15:52 OP:ep   STATUS:               ID:20110816065900 L   I
 2011-08-16-0657-19S.COL___150                                                 6
 STAT SP IPHASW D HRMM SECON CODA AMPLIT PERI AZIMU VELO AIN AR TRES W  DIS CAZ7
 BAR2 SZ IP     C  659 16.42                             161    0.4010 35.6  81 
 BAR2 SZ ES   1    659 27.85                             161   -0.52 7 35.6  81 
 BAR2 SZ I         659 30.27        75.1 0.23                          35.6  81 
 BRR  HZ EP   1    659 17.30                             146   -0.06 7 66.7 340 
 BRR  HZ I         659 24.92        11.6 0.13                          66.7 340 
 BRR  HE ES   1    659 31.07                             146    0.32 7 66.7 340 
 RUS  HZ EP   1    659 19.46                             140    0.03 7 85.4 147 
 RUS  HZ I         659 20.68         3.5 0.08                          85.4 147 
 PAM  SE ES   1    659 40.58                             128   -0.04 7  125  45 
 NOR  SE ES   2    659 50.64                             116   -0.30 4  186 235 
 OCA  SZ EP   1    659 28.76                             116   -0.34 7  189   6 
 OCA  SZ ES   1    659 51.52                             116   -0.13 7  189   6 
 OCA  SZ I         659 59.00         9.6 0.27                           189   6 
                                                                                
