 2013  316 0431 28.0 L   6.782 -73.160144.0  RSN  6 0.5 1.7LRSN                1
 GAP=135        1.02       4.9     8.8 10.7  0.3326E+01  0.6032E+01 -0.1448E+02E
 Epicentro: LOS SANTOS - SANTANDER                                             3
 ACTION:UPD 13-04-09 14:02 OP:ep   STATUS:               ID:20130316043128 L   I
 2013-03-16-0430-00M.COL___244                                                 6
 STAT SP IPHASW D HRMM SECON CODA AMPLIT PERI AZIMU VELO AIN AR TRES W  DIS CAZ7
 BAR2 SZ ES   1    432  2.93                             171    0.40 7 21.2 187 
 BRR  HZ EP        431 49.44                             152    0.4610 70.7 301 
 BRR  HN ES   2    432  6.09                             152    0.79 5 70.7 301 
 BRR  HN I         432  7.14        19.0 0.28            150           70.7 301 
 PAM  SZ EP        431 50.42                             149    0.1910 79.9  40 
 PAM  SN I         431 51.18         9.0 0.24            153           79.9  40 
 RUS  HZ EP   1    431 51.87                             144    0.38 7 98.8 175 
 RUS  HN ES        432  9.22                             144   -0.5610 98.8 175 
 RUS  HE I         432 11.23         8.6 0.52            144           98.8 175 
 PTB  HZ EP   1    431 54.48                             132   -0.21 7  146 259 
 PTB  HN ES   2    432 14.91                             132   -0.56 5  146 259 
 PTB  HN I         432 19.39         5.2 0.40            130            146 259 
 OCA  HN ES        432 17.87                             129   -0.62 9  162 354 
                                                                                
