 2017  916 0840 56.3 L   6.546 -73.365119.5  RSN  6 0.4 1.2LRSN                1
 GAP=108        1.01       4.1     5.9  9.6  0.2929E+01  0.3242E+02  0.4968E+01E
 Epicentro: HATO - SANTANDER                                                   3
 ACTION:UPD 17-10-05 19:13 OP:rebc STATUS:               ID:20170916084044 L   I
 OLDACT:UP  17-09-18 13:35 OP:nlst STATUS:               ID:20170916084044 L   3
 OLDACT:REG 17-09-16 17:18 OP:mg   STATUS:               ID:20170916083743     3
 2017-09-16-0838-00M.COL___441                                                 6
 STAT SP IPHASW D HRMM SECON CODA AMPLIT PERI AZIMU VELO AIN AR TRES W  DIS CAZ7
 BAR2 EZ EP        841 12.57                             170   -0.1510 20.8  76 
 BAR2 EZ ES        841 25.60                             170    0.0710 20.8  76 
 BAR2 EZ I         841 27.47         6.4 0.23            174           20.8  76 
 BRR  HZ EP        841 14.54                             146   -0.2510 73.0 328 
 BRR  HE ES        841 29.12                             146   -0.1010 73.0 328 
 RUS  HN ES        841 31.06                             145   -0.1110 78.7 157 
 SPBC HZ EP        841 19.78                             130    0.5110  126 218 
 SPBC HN ES        841 37.67                             130    0.4810  126 218 
 ZAR  HN ES        841 49.98                             117    0.40 9  195 302 
 NOR  HN ES        841 49.46                             117   -0.90 9  199 237 
 NOR  HZ I         841 55.30         1.1 0.01            117            199 237 
                                                                                
