 2016  216 0232 51.9 L   6.784 -73.150147.4  RSN 15 0.4 2.0LRSN                1
 GAP= 99        1.05       3.7     2.9  5.4 -0.6181E+00  0.3902E+01  0.3668E+01E
 Epicentro: LOS SANTOS - SANTANDER                                             3
 ACTION:UPD 16-03-04 21:26 OP:rebc STATUS:               ID:20160216023251 L   I
 OLDACT:UP  16-02-16 12:49 OP:drio STATUS:               ID:20160216022747     3
 OLDACT:UP  16-02-16 12:49 OP:drio STATUS:               ID:20160216022747     3
 OLDACT:REG 16-02-16 12:21 OP:drio STATUS:               ID:20160216022747     3
 2016-02-16-0227-47M.COL___307                                                 6
 STAT SP IPHASW D HRMM SECON CODA AMPLIT PERI AZIMU VELO AIN AR TRES W  DIS CAZ7
 BAR2 EZ EP        233 11.43                             171   -0.2210 21.5 190 
 BAR2 EZ ES        233 27.08                             171   -0.0110 21.5 190 
 BAR2 EZ I         233 28.51        22.0 0.30            170           21.5 190 
 BRR  HZ EP        233 13.46                             153    0.2510 71.6 300 
 BRR  HN ES        233 30.91                             153    1.0510 71.6 300 
 BRR  HZ I         233 33.65        19.8 0.36            151           71.6 300 
 PAM  EZ EP        233 14.39                             151    0.0410 79.0  39 
 PAM  EN ES        233 31.69                             151   -0.2010 79.0  39 
 PAM  EZ I         233 36.07         5.5 0.16            154           79.0  39 
 RUS  HZ EP        233 15.62                             145   -0.0310 98.8 176 
 RUS  HN ES        233 34.46                             145    0.2610 98.8 176 
 RUS  HZ I         233 36.77        14.0 0.50            146           98.8 176 
 PTB  HZ EP        233 18.40                             133   -0.49 9  147 259 
 PTB  HN ES        233 39.66                             133   -0.31 9  147 259 
 PTB  HZ I         233 47.05        23.6 0.40            132            147 259 
 TAM  HZ EP        233 19.68                             131    0.01 9  155 104 
 TAM  HE ES        233 41.09                             131   -0.27 9  155 104 
 TAM  HZ I         233 42.14         5.6 0.48            135            155 104 
 SPBC HZ EP        233 20.43                             130    0.10 9  162 219 
 SPBC HE ES        233 41.81                             130   -0.72 9  162 219 
 SPBC HZ I         233 49.21        20.8 0.22            130            162 219 
 ZAR  HZ EP        233 24.17                             123   -0.27 9  204 293 
 ZAR  HE ES        233 49.21                             123   -0.64 9  204 293 
 ZAR  HZ I         233 55.62        22.2 0.34            123            204 293 
 NOR  HZ EP        233 27.48                             119   -0.06 8  233 235 
 NOR  HE ES        233 55.02                             119   -0.34 8  233 235 
 NOR  HZ I         233 59.80        11.3 0.22            120            233 235 
 CHI  HZ EP        233 29.48                             118    0.03 8  247 195 
 CHI  HN ES        233 59.09                             118    0.32 8  247 195 
 CHI  HZ I         234  4.77         6.9 0.28            119            247 195 
 ROSC BZ EP   4    233 32.51                             117    2.63 0  251 211 
 ROSC BE ES   4    234  2.98                             117    3.45 0  251 211 
 ROSC BZ I         234  8.79        13.0 0.45            118            251 211 
 HEL  HZ EP   4    233 33.54                             115    1.48 0  271 256 
 HEL  HE ES        234  3.68                             115    0.27 8  271 256 
 HEL  HZ I         234  9.83         8.1 0.30            116            271 256 
 GUY2CHZ EP        233 36.36                             113    0.97 7  300 235 
 GUY2CHE ES   4    234 11.97                             113    2.63 0  300 235 
 GUY2CHZ I         234 17.01         6.0 0.58                           300 235 
 PTGC HZ EP   4    233 34.43                             112   -1.20 0  307 158 
 PTGC HE ES   4    234  7.61                             112   -2.15 0  307 158 
 CBOC HZ EP        233 39.66                             110    0.93 7  333 252 
 CBOC HE ES        234 15.19                             110   -0.10 7  333 252 
 CBOC HZ I         234 17.16         2.4 0.42            111            333 252 
 MON  HZ EP   4    233 38.77                             109   -2.24 0  354 309 
 MON  HN ES   4    234 17.34                             109   -2.01 0  354 309 
 MON  HZ I         234 34.16         3.4 0.42            110            354 309 
 SJC  HZ EP   4    233 45.38                             106   -2.24 0  410 327 
 SJC  HE ES   4    234 29.08                             106   -2.03 0  410 327 
                                                                                
