 2016  416 0126 21.3 L   6.812 -73.128143.8  RSN 16 0.6 2.0LRSN                1
 GAP=138        1.16       3.2     4.3  6.2 -0.3485E+01  0.1040E+02  0.1425E+01E
 Epicentro: LOS SANTOS - SANTANDER                                             3
 ACTION:UPD 16-05-05 14:21 OP:rebc STATUS:               ID:20160416012621 L   I
 OLDACT:DUP 16-04-16 15:09 OP:ak   STATUS:               ID:20160416011745d    3
 2016-04-16-0117-42M.COL___319                                                 6
 STAT SP IPHASW D HRMM SECON CODA AMPLIT PERI AZIMU VELO AIN AR TRES W  DIS CAZ7
 BAR2 EZ EP        126 40.68                             170   -0.0910 25.0 194 
 BAR2 EZ ES        126 55.94                             170    0.0210 25.0 194 
 BAR2 EZ I         126 58.70        14.0 0.24            165           25.0 194 
 PAM  EZ EP        126 43.64                             151    0.4310 75.1  39 
 PAM  EN ES        127  0.96                             151    0.6910 75.1  39 
 PAM  EZ I         127  2.93        17.5 0.56            158           75.1  39 
 RUS  HZ EP        126 44.53                             143   -0.4610  102 177 
 RUS  HE ES        127  3.37                             143   -0.0610  102 177 
 RUS  HZ I         127  6.73         4.9 0.42            145            102 177 
 PTB  HZ EP   1    126 47.40                             131   -0.95 7  150 258 
 PTB  HN ES        127  8.57                             131   -0.85 9  150 258 
 PTB  HZ I         127 14.63        16.1 0.38            130            150 258 
 OCA  HZ EP        126 49.25                             129   -0.15 9  159 352 
 OCA  HN ES        127 11.27                             129   -0.02 9  159 352 
 OCA  HZ I         127 14.30        17.6 0.26            132            159 352 
 SPBC HZ EP        126 49.72                             128   -0.19 9  165 219 
 SPBC HE ES        127 11.96                             128   -0.23 9  165 219 
 SPBC HZ I         127 17.12        10.8 0.18            128            165 219 
 ZAR  HZ EP        126 53.00                             122   -0.80 8  205 292 
 ZAR  HN ES        127 19.28                             122    0.16 8  205 292 
 ZAR  HZ I         127 24.36        12.8 0.38            122            205 292 
 NOR  HZ EP        126 56.61                             118   -0.61 8  237 234 
 NOR  HN ES        127 24.94                             118   -0.25 8  237 234 
 NOR  HZ I         127 32.59         7.0 0.30            119            237 234 
 CHI  HZ EP        126 58.49                             116   -0.64 8  250 196 
 CHI  HN ES        127 28.27                             116   -0.33 8  250 196 
 CHI  HZ I         127 36.11         5.2 0.30            119            250 196 
 ROSC BZ EP   1    126 59.31                             116   -0.28 6  255 211 
 ROSC BE ES        127 30.30                             116    0.88 8  255 211 
 ROSC BZ I         127 37.98         9.4 0.40            118            255 211 
 HEL  HZ EP        127  2.52                             114    0.81 8  274 256 
 HEL  HE ES        127 34.02                             114    0.83 8  274 256 
 HEL  HZ I         127 40.08         6.2 0.34            115            274 256 
 URE  HZ EP   2    127  1.51                             113   -0.96 4  285 292 
 URE  HN ES   4    127 37.36                             113    2.81 0  285 292 
 URE  HZ I         127 45.80         7.6 0.20            114            285 292 
 GUY2CHZ EP        127  5.81                             112    0.68 7  304 235 
 GUY2CHE ES        127 39.45                             112    0.17 7  304 235 
 GUY2CHZ I         127 45.70         4.5 0.28                           304 235 
 CBOC HZ EP        127  9.15                             109    0.71 7  336 252 
 CBOC HN ES   1    127 45.58                             109    0.40 5  336 252 
 CBOC HZ I         128  7.86         1.6 0.36            110            336 252 
 ANIL HZ EP   2    127 12.28                             108    0.94 3  360 225 
 ANIL HE ES        127 50.74                             108    0.40 6  360 225 
 ANIL HZ I         128  2.00        10.7 0.42            109            360 225 
 ORTC HZ EP        127 16.37                             106    0.91 6  398 216 
 ORTC HN ES        127 58.11                             106    0.44 6  398 216 
 ORTC HZ I         128  4.03         2.3 0.52            108            398 216 
                                                                                
