 2010 1116 0525 33.8 L   6.801 -73.052143.6  RSN  9 0.4 1.9LRSN                1
 GAP=169        0.71       3.3     6.9  6.4 -0.5544E+01 -0.3024E+00  0.1954E+00E
 Epicentro: LOS SANTOS - SANTANDER                                             3
 ACTION:UP  10-12-17 16:53 OP:REBC STATUS:               ID:20101116052533 L   I
 2010-11-16-0521-44S.COL___128                                                 6
 STAT SP IPHASW D HRMM SECON CODA AMPLIT PERI AZIMU VELO SNR AR TRES W  DIS CAZ7
 BAR2 SZ ES   2    526  8.51                             169     0.1 5   27 212 
 BAR2 SZ I         526  9.93        29.4 0.12                            27 212 
 BRR  HZ IP     C  525 55.08                             149    -0.210   80 295 
 BRR  HE ES   1    526 12.24                             149     0.2 7   80 295 
 BRR  HZ I         526 15.02        12.7 0.16                            80 295 
 RUS  HZ EP   1    525 56.83                             143    -0.5 7  101 182 
 RUS  HN ES   1    526 15.81                             143     0.1 7  101 182 
 RUS  HZ I         526 17.07         7.5 0.25                           101 182 
 GRA  SZ IP        525 58.98                             137     0.410  123  13 
 GRA  SZ ES   2    526 18.22                             137     0.2 5  123  13 
 GRA  SZ I         526 21.92         7.8 0.20                           123  13 
 OCA  SZ EP   1    526  1.96                             129    -0.1 7  162 350 
 OCA  SZ ES   2    526 23.31                             129    -0.8 5  162 350 
 OCA  SZ I         526 26.93         7.7 0.23                           162 350 
 CHI  HZ EP   2    526 11.26                             116    -0.5 4  252 197 
 CHI  HE ES   2    526 41.56                             116     0.3 4  252 197 
 CHI  HZ I         526 48.77         4.1 0.58                           252 197 
 HEL  HZ EP   2    526 14.80                             114    -0.2 4  282 256 
 HEL  HZ I         526 51.53         2.8 0.25                           282 256 
 RREF HZ EP   2    526 21.50                             110     0.7 3  330 231 
 RREF HN ES   2    526 57.74                             110     0.3 3  330 231 
 RREF HZ I         527  4.04         4.7 0.19                           330 231 
 PRA  HZ EP   2    526 28.49                             106     0.6 3  397 211 
 PRA  HN ES   2    527  9.95                             106    -0.1 3  397 211 
 PRA  HZ I         527 14.52         9.6 0.26                           397 211 
                                                                                
