 2016  816 0312 56.7 L   6.787 -73.125147.1  RSN 17 0.4 2.1LRSN                1
 GAP=121        0.94       3.1     3.3  4.7 -0.1280E+01  0.4241E+01  0.2493E+01E
 Epicentro: LOS SANTOS - SANTANDER                                             3
 ACTION:UPD 16-10-29 15:36 OP:rebc STATUS:               ID:20160816031256 L   I
 OLDACT:REG 16-08-16 12:37 OP:ak   STATUS:               ID:20160816030759     3
 2016-08-16-0307-59S.COL___346                                                 6
 STAT SP IPHASW D HRMM SECON CODA AMPLIT PERI AZIMU VELO AIN AR TRES W  DIS CAZ7
 BAR2 EZ EP        313 16.41                             171   -0.0310 22.5 196 
 BAR2 EZ ES        313 31.52                             171   -0.3410 22.5 196 
 BAR2 EZ I         313 33.51        20.9 0.51                          22.5 196 
 BRR  HZ IP     C  313 18.36                             152    0.2610 73.8 299 
 BRR  HN ES        313 35.49                             152    0.6610 73.8 299 
 BRR  HZ I         313 40.60        13.5 0.07                          73.8 299 
 PAM  EZ EP        313 19.18                             151    0.1810 77.1  38 
 PAM  EN ES        313 36.81                             151    0.3810 77.1  38 
 PAM  EZ I         313 38.61        11.1 0.58                          77.1  38 
 RUS  HZ EP        313 20.35                             144   -0.0910 99.0 177 
 RUS  HE ES        313 38.51                             144   -0.4710 99.0 177 
 RUS  HZ I         313 40.04        12.1 0.26                          99.0 177 
 PTB  HZ EP   2    313 23.18                             132   -0.73 5  150 260 
 PTB  HN ES        313 44.55                             132   -0.62 9  150 260 
 PTB  HZ I         313 52.19        16.2 0.18                           150 260 
 SPBC HZ EP        313 25.31                             129    0.02 9  164 220 
 SPBC HN ES        313 47.81                             129    0.18 9  164 220 
 SPBC HZ I         313 49.67        31.1 0.05                           164 220 
 ZAR  HZ EP        313 29.44                             122   -0.02 8  207 292 
 ZAR  HN ES        313 54.22                             122   -0.83 8  207 292 
 ZAR  HZ I         314  0.70        13.6 0.15                           207 292 
 NOR  HZ EP   2    313 32.22                             119   -0.36 4  236 235 
 CHI  HZ EP        313 34.19                             117   -0.16 8  248 196 
 CHI  HN ES        314  3.96                             117    0.21 8  248 196 
 CHI  HZ I         314  9.75         6.2 0.06                           248 196 
 ROSC BZ EP   9    313 36.42                             117    1.57 0  253 212 
 ROSC BN ES        314  6.84                                    0.63 8  253 212 
 ROSC BZ I         314  9.87        11.2 0.40                           253 212 
 HEL  HZ EP   2    313 37.14                             115   -0.00 4  274 256 
 HEL  HN ES        314  9.45                             115    0.73 8  274 256 
 HEL  HZ I         314 14.71         5.8 0.30                           274 256 
 URE  HZ EP   2    313 37.62                             114   -0.47 4  286 292 
 URE  HN ES   4    314  6.92                             114   -3.48 0  286 292 
 URE  HZ I         314 20.54         9.5 0.30                           286 292 
 SOCV BZ EP   2    313 38.64                             112   -1.01 4  300  56 
 SOCV BN ES   4    314 10.70                             112   -2.47 0  300  56 
 GUY2CHZ EP        313 40.75                             112    0.30 7  302 235 
 GUY2CHN ES        314 13.99                             112   -0.61 7  302 235 
 GUY2CHZ I         314 25.30         5.3 0.46                           302 235 
 ELA  HZ EP   4    313 46.14                             110    2.48 0  330 230 
 ELA  HN ES   4    314 24.82                             110    4.50 0  330 230 
 ELA  HZ I         314 26.80         5.2 0.62                           330 230 
 CBOC HZ EP        313 44.08                             110    0.25 7  335 252 
 CBOC HN ES        314 20.89                             110    0.28 7  335 252 
 CBOC HZ I         314 22.23         1.8 0.33                           335 252 
 PRA  HZ EP        313 50.79                             107    0.58 6  392 210 
 PRA  HN ES        314 32.34                             107    0.35 6  392 210 
 PRA  HZ I         314 40.76         5.1 0.54                           392 210 
                                                                                
