 2015  316 0117 39.4 L   6.832 -73.170140.9  RSN  9 0.4 1.8LRSN                1
 GAP=132        1.13       3.6     5.8  9.6 -0.5811E+01  0.1684E+02 -0.5234E+01E
 Epicentro: ZAPATOCA - SANTANDER                                               3
 ACTION:UPD 15-04-30 16:26 OP:nd   STATUS:               ID:20150316011739 L   I
 OLDACT:DUP 15-03-16 17:26 OP:stll STATUS:               ID:20150316010751d    3
 OLDACT:DUP 15-03-16 17:20 OP:stll STATUS:               ID:20150316010750d    3
 2015-03-16-0107-48M.COL___257                                                 6
 STAT SP IPHASW D HRMM SECON CODA AMPLIT PERI AZIMU VELO AIN AR TRES W  DIS CAZ7
 BAR2 EZ ES        118 13.64                             169    0.2410 26.6 183 
 BAR2 EZ I         118 14.92        12.5 0.26            167           26.6 183 
 BRR  HZ EP        118  0.32                             153    0.5510 67.1 297 
 BRR  HZ I         118  0.48        11.2 0.26            150           67.1 297 
 BRR  HN ES        118 16.20                             153    0.5210 67.1 297 
 PAM  SZ EP        118  1.07                             150    0.0510 76.5  43 
 PAM  SZ I         118  1.53        15.5 0.22            152           76.5  43 
 PAM  SN ES        118 18.07                             150    0.1610 76.5  43 
 RUS  HE ES        118 20.51                             142   -0.8010  104 175 
 RUS  HZ I         118 22.00         3.6 0.32            141            104 175 
 PTB  HN ES        118 25.83                             131   -0.53 9  146 257 
 PTB  HZ I         118 29.68         5.3 0.52            129            146 257 
 OCA  HN ES        118 28.12                             129   -0.33 9  156 354 
 SPBC HN ES        118 29.59                             128   -0.05 9  164 217 
 SPBC HZ I         118 35.82        12.5 0.40            126            164 217 
 SML  HN ES        118 42.81                             117   -0.44 8  239 336 
 SML  HZ I         118 47.07         8.8 0.28            116            239 336 
 ROSC BN ES        118 47.65                             116    0.56 8  254 210 
                                                                                
