 2011  516 0349 24.2 L   6.790 -73.043136.7  RSN  6 0.3 1.4LRSN                1
 GAP=168        0.79       5.5    12.7 13.2  0.3460E+02 -0.8622E+02 -0.2206E+02E
 Epicentro: LOS SANTOS - SANTANDER                                             3
 ACTION:UP  11-06-29 08:53 OP:tino STATUS:               ID:20110516034924 L   I
 2011-05-16-0345-54S.COL___139                                                 6
 STAT SP IPHASW D HRMM SECON CODA AMPLIT PERI AZIMU VELO SNR AR TRES W  DIS CAZ7
 BAR2 SZ EP        349 42.87                             168     0.110   27 215 
 BAR2 SZ I         349 44.16         5.9 0.31                            27 215 
 BRR  HZ EP        349 44.70                             147    -0.310   82 295 
 BRR  HN ES   1    350  1.71                             147     0.4 7   82 295 
 BRR  HZ I         350  5.97         6.2 0.18                            82 295 
 RUS  HZ EP        349 47.32                             142     0.310   99 183 
 RUS  HN ES   1    350  4.28                             142    -0.5 7   99 183 
 RUS  HZ I         350  6.74         2.7 0.41                            99 183 
 BRI  SZ EP   3    349 47.28                             140     0.2 2  106  15 
 GRA  SZ EP   2    349 48.57                             135     0.1 5  124  12 
 GRA  SZ ES   3    350  7.86                             135     0.4 2  124  12 
 GRA  SZ I         350 10.03         3.3 0.35                           124  12 
 OCA  SZ ES   2    350 13.37                             127    -0.5 5  163 349 
                                                                                
