 2013  216 0542 49.7 L   6.408 -72.871  1.2  RSN 11 0.6 2.5LRSN                1
 GAP=114        1.43       3.5     2.9  6.8  0.1377E+01  0.3419E+01 -0.2809E+01E
 Epicentro: SAN JOAQUIN - SANTANDER                                            3
 ACTION:UPD 13-03-12 09:33 OP:ep   STATUS:               ID:20130216054249 L   I
 2013-02-16-0540-00M.COL___241                                                 6
 STAT SP IPHASW D HRMM SECON CODA AMPLIT PERI AZIMU VELO AIN AR TRES W  DIS CAZ7
 BAR2 SZ IP        542 56.06                              47   -0.9110 40.0 301 
 BAR2 SZ ES   1    543  1.08                              47   -1.59 7 40.0 301 
 BAR2 SZ I         543  2.02       724.7 0.24             47           40.0 301 
 RUS  HZ EP        543  0.14                              47   -0.3710 61.6 202 
 RUS  HE ES        543  8.60                              47   -0.3610 61.6 202 
 RUS  HE I         543  9.63       163.3 0.26             47           61.6 202 
 PAM  SZ EP   4    543  4.87                              47   -2.17 0  105  10 
 PAM  SN I         543 21.41        68.0 0.30             47            105  10 
 TAM  HZ EP        543  9.20                              47    0.3910  119  88 
 TAM  HN ES        543 23.62                              47   -0.1110  119  88 
 TAM  HN I         543 28.00        66.3 0.34             47            119  88 
 BRR  HZ EP        543  9.17                              47    0.1810  121 310 
 BRR  HN ES        543 24.10                              47    0.0510  121 310 
 PTB  HZ EP        543 18.01                              47    0.67 9  176 275 
 PTB  HN ES        543 39.41                              47    0.49 9  176 275 
 PTB  HN I         543 40.68       133.6 0.58             47            176 275 
 OCA  HZ EP        543 22.01                              37    0.38 8  208 346 
 OCA  HN ES        543 46.24                              37   -0.32 8  208 346 
 CHI  HZ EP   4    543 25.62                              37    2.41 0  219 206 
 CHI  HN ES   4    543 54.29                              37    4.92 0  219 206 
 CHI  HZ I         543 56.90        16.1 0.50             37            219 206 
 CHI  HN I         543 57.34        42.9 0.54                           219 206 
 ZAR  HN ES        543 56.32                              37    0.78 8  250 299 
 ZAR  HN I         543 59.43        24.1 0.28             37            250 299 
 HEL  HZ EP        543 33.22                              36    0.50 7  295 265 
 HEL  HN ES        544  6.99                              36    0.69 7  295 265 
 HEL  HN I         544 12.80        13.3 0.26             37            295 265 
 SML  HN I         544 12.53        28.0 0.10             36            296 333 
                                                                                
