 2010  916 0724 45.8 L   6.782 -73.076146.4  RSN 15 0.5 2.8LRSN                1
 GAP=167        1.30       5.1    10.1  7.7 -0.1990E+02  0.1965E+02  0.3213E+01E
 Epicentro: LOS SANTOS - SANTANDER                                             3
 ACTION:UP  11-02-18 11:03 OP:tino STATUS:               ID:20100916072445 L   I
 2010-09-16-0723-51S.COL___119                                                 6
 STAT SP IPHASW D HRMM SECON CODA AMPLIT PERI AZIMU VELO SNR AR TRES W  DIS CAZ7
 BAR2 SZ IP        725  5.30                             170    -0.210   24 210 
 BAR2 SZ ES   1    725 20.49                             170    -0.4 7   24 210 
 BAR2 SZ I         725 22.10       117.7 0.29                            24 210 
 BTL  SZ EP        725  6.66                             169     1.110   26 305 
 GIR2 SZ EP        725  5.33                             166    -0.310   35 338 
 GIR2 SZ ES   1    725 20.66                             166    -0.4 7   35 338 
 URB  SZ EP   2    725  7.99                             157     1.6 5   58 330 
 BRR  HZ IP     C  725  7.17                             150    -0.310   79 297 
 BRR  HZ I         725  7.45       128.3 0.17                            79 297 
 BRR  HN ES   1    725 24.59                             150     0.3 7   79 297 
 RUS  HZ EP        725  9.12                             145    -0.310   98 180 
 RUS  HE ES   1    725 28.03                             145     0.2 7   98 180 
 GUE  SZ EP        725 10.93                             139     0.410  117   8 
 GRA  SZ IP        725 11.08                             137     0.010  126  14 
 GRA  SZ I         725 12.21        82.3 0.26                           126  14 
 GRA  SZ ES   1    725 30.81                             137     0.0 7  126  14 
 OCA  SZ EP        725 13.62                             129    -0.8 9  163 351 
 OCA  SZ I         725 40.51        69.7 0.16                           163 351 
 CHI  HZ EP        725 23.20                             117    -0.3 8  249 197 
 CHI  HE ES   1    725 53.03                             117     0.1 6  249 197 
 CHI  HZ I         725 56.22        21.4 0.53                           249 197 
 HEL  HZ EP        725 26.31                             114    -0.5 7  279 257 
 HEL  HZ I         726  3.63        21.5 0.44                           279 257 
 GUY  SZ EP        725 30.20                             112     0.2 7  307 236 
 RREF HZ EP        725 33.30                             111     0.8 7  326 231 
 RREF HN ES   3    726  8.72                             111    -0.2 2  326 231 
 RREF HZ I         726 14.88        30.8 0.32                           326 231 
 TOL  SZ EP        725 34.22                             109    -0.3 6  348 226 
 ANIL HE ES   2    726 15.40                             108     0.1 3  361 226 
 ANIL HZ I         726 19.13        56.8 0.33                           361 226 
                                                                                
