 2012 1116 0455 17.9 L   6.730 -73.187154.3  RSN  8 0.4 1.5LRSN                1
 GAP=134        0.72       4.9     6.4 11.2  0.2688E+01 -0.9568E-01 -0.2996E+02E
 Epicentro: VILLANUEVA - SANTANDER                                             3
 ACTION:UPD 12-12-05 15:33 OP:}ep  STATUS:               ID:20121116045517 L   I
 2012-11-16-0450-00M.COL___233                                                 6
 STAT SP IPHASW D HRMM SECON CODA AMPLIT PERI AZIMU VELO AIN AR TRES W  DIS CAZ7
 BAR2 SZ ES   1    455 53.81                             174   -0.59 7 15.2 178 
 BAR2 SZ I         455 54.49        10.6 0.51                          15.2 178 
 GIR2 SZ ES   2    455 54.95                             165   -0.10 5 38.6 359 
 BRR  HN ES   2    455 57.73                             154    0.55 5 71.5 306 
 PAM  SZ EP   1    455 41.29                             149   -0.23 7 86.3  39 
 PAM  SZ I         456  0.70         2.9 0.42                          86.3  39 
 RUS  HN ES   1    456  1.25                             147    0.48 7 93.3 173 
 PTB  HN ES   1    456  6.07                             135   -0.16 7  142 262 
 OCA  HN ES   1    456 11.11                             130    0.46 7  168 355 
 OCA  HZ I         456 15.05         3.8 0.40                           168 355 
 SML  HE ES   1    456 24.76                             119   -0.18 6  249 337 
                                                                                
