 2010  916 0429 41.4 L   6.796 -73.063137.3  RSN  9 0.3 2.1LRSN                1
 GAP=168        0.80       3.7     8.3  6.8 -0.5191E+01 -0.9447E+01 -0.5601E+00E
 Epicentro: LOS SANTOS - SANTANDER                                             3
 ACTION:UP  11-02-18 11:03 OP:tino STATUS:               ID:20100916042941 L   I
 2010-09-16-0428-41S.COL___119                                                 6
 STAT SP IPHASW D HRMM SECON CODA AMPLIT PERI AZIMU VELO SNR AR TRES W  DIS CAZ7
 BAR2 SZ EP        429 60.00                             169    -0.110   26 211 
 BAR2 SZ ES   1    430 14.18                             169    -0.5 7   26 211 
 BAR2 SZ I         430 16.36        30.4 0.22                            26 211 
 GIR2 SZ EP        429 59.99                             165    -0.210   34 335 
 BRR  HZ IP     C  430  1.77                             149    -0.410   80 296 
 BRR  HZ I         430  2.03        39.3 0.16                            80 296 
 BRR  HE ES   1    430 18.71                             149     0.3 7   80 296 
 RUS  HZ EP        430  4.43                             142     0.110  100 181 
 RUS  HE ES   1    430 22.62                             142     0.5 7  100 181 
 RUS  HZ I         430 24.22        18.5 0.28                           100 181 
 GUE  SZ EP   1    430  5.59                             138     0.3 7  115   8 
 GRA  SZ EP        430  5.73                             136     0.010  124  13 
 GRA  SZ ES   1    430 24.99                             136     0.3 7  124  13 
 GRA  SZ I         430 26.38        26.3 0.27                           124  13 
 OCA  SZ EP   2    430  9.27                             127     0.0 5  162 350 
 OCA  SZ I         430 38.87        15.5 0.59                           162 350 
 CHI  HZ EP   1    430 18.58                             115    -0.3 6  251 197 
 CHI  HE ES   3    430 48.01                             115    -0.1 2  251 197 
 CHI  HZ I         430 54.79         5.2 0.73                           251 197 
 RREF HZ EP   2    430 28.93                             109     1.0 3  329 230 
 RREF HZ I         431  7.39         6.0 0.27                           329 230 
                                                                                
