 2012  416 0148 17.9 L   6.744 -73.134150.0  RSN  4 0.2 1.3LRSN                1
 GAP=140        0.55       5.6    10.3  9.9  0.3766E+02 -0.6197E+02 -0.3257E+02E
 Epicentro: JORDAN - SANTANDER                                                 3
 ACTION:UPD 12-07-05 11:53 OP:tino STATUS:               ID:20120416014817 L   I
 2012-04-16-0139-35M.COL___172                                                 6
 STAT SP IPHASW D HRMM SECON CODA AMPLIT PERI AZIMU VELO AIN AR TRES W  DIS CAZ7
 BAR2 SZ EP   1    148 37.60                             173    -0.3 7   18 198 
 BAR2 SZ I         148 55.55         7.5 0.30                            18 198 
 BRR  HZ EP   1    148 39.99                             152     0.3 7   75 302 
 BRR  HN ES   1    148 56.66                             152    -0.1 7   75 302 
 BRR  HZ I         148 58.43         4.7 0.11                            75 302 
 PAM  SZ EP   1    148 40.87                             150     0.1 7   82  36 
 PAM  SZ I         148 41.28         2.6 0.15                            82  36 
 RUS  HZ EP   1    148 41.48                             146    -0.1 7   94 177 
 RUS  HN ES        149  0.22                             146     0.110   94 177 
 RUS  HZ I         149  2.51         2.5 0.44                            94 177 
                                                                                
