 2016  816 0037 36.1 L   6.757 -73.147145.4  RSN 16 0.4 2.1LRSN                1
 GAP= 96        0.95       3.1     2.7  4.8 -0.9519E+00  0.2122E+01  0.2391E+01E
 Epicentro: LOS SANTOS - SANTANDER                                             3
 ACTION:UPD 16-10-29 15:35 OP:rebc STATUS:               ID:20160816003736 L   I
 OLDACT:UP  16-08-16 14:04 OP:ak   STATUS:               ID:20160816002760d    3
 OLDACT:DUP 16-08-16 13:50 OP:ak   STATUS:               ID:20160816002760d    3
 2016-08-16-0027-59S.COL___349                                                 6
 STAT SP IPHASW D HRMM SECON CODA AMPLIT PERI AZIMU VELO AIN AR TRES W  DIS CAZ7
 BAR2 EZ EP        037 55.57                             172   -0.0310 18.6 192 
 BAR2 EZ ES        038 10.88                             172    0.0710 18.6 192 
 BAR2 EZ I         038 13.99        23.5 0.16                          18.6 192 
 BRR  HZ IP     D  037 57.56                             152    0.2210 73.5 302 
 BRR  HN ES        038 14.73                             152    0.8210 73.5 302 
 BRR  HZ I         038 15.82        32.4 0.22                          73.5 302 
 PAM  EZ EP        037 58.57                             150    0.0610 81.2  37 
 PAM  EN ES        038 16.05                             150    0.0610 81.2  37 
 PAM  EZ I         038 18.91        14.2 0.31                          81.2  37 
 RUS  HZ EP        037 59.38                             145   -0.1010 95.8 176 
 RUS  HN ES        038 17.04                             145   -0.6710 95.8 176 
 RUS  HZ E         038 18.28                                           95.8 176 
 RUS  HZ I         038 19.09         9.4 0.32                          95.8 176 
 PTB  HZ EP        038  2.05                             132   -0.90 9  147 261 
 PTB  HN ES        038 23.34                             132   -0.54 9  147 261 
 PTB  HZ I         038 24.70        16.3 0.16                           147 261 
 TAM  HZ EP        038  3.77                             131    0.11 9  154 103 
 TAM  HE ES        038 25.30                             131    0.15 9  154 103 
 TAM  HZ I         038 25.54        15.0 0.38                           154 103 
 SPBC HZ EP        038  4.23                             130    0.02 9  159 220 
 SPBC HN ES        038 26.21                             130    0.07 9  159 220 
 SPBC HZ I         038 31.09        30.9 0.36                           159 220 
 ZAR  HZ EP        038  8.56                             122   -0.14 8  206 293 
 ZAR  HN ES        038 33.82                             122   -0.30 8  206 293 
 ZAR  HZ I         038 39.79        18.9 0.35            122            206 293 
 NOR  HZ EP        038 11.71                             119    0.21 8  232 235 
 NOR  HN ES        038 39.18                             119    0.07 8  232 235 
 NOR  HZ I         038 44.75        11.8 0.17                           232 235 
 CHI  HZ EP        038 13.81                             118    0.54 8  244 195 
 CHI  HN ES        038 42.46                             118    0.19 8  244 195 
 CHI  HZ I         038 45.17         3.6 0.39                           244 195 
 ROSC BZ EP   9    038 15.95                             117    2.20 0  249 212 
 ROSC BN ES        038 46.26                                    0.95 8  249 212 
 ROSC BZ I         038 49.76         9.5 0.40                           249 212 
 HEL  HZ EP   2    038 16.19                             115    0.04 4  271 257 
 HEL  HE ES        038 47.58                             115    0.19 8  271 257 
 HEL  HZ I         038 54.75         6.9 0.20                           271 257 
 GUY2CHZ EP   1    038 19.58                             113    0.21 5  298 236 
 GUY2CHN ES   4    038 56.68                             113    3.56 0  298 236 
 GUY2CHZ I         039  1.20         7.4 0.28                           298 236 
 SOCV BZ EP   2    038 18.72                             112   -0.73 4  304  56 
 SOCV BN ES   4    038 50.33                             112   -2.92 0  304  56 
 PRA  HZ EP   2    038 29.75                             107    0.64 3  388 210 
 PRA  HN ES        039 10.62                             107    0.16 6  388 210 
 PRA  HZ I         039 17.58         4.7 0.24                           388 210 
 SJC  HZ EP   4    038 30.07                             106   -2.04 0  413 327 
 SJC  HN ES   4    039 11.31                             106   -4.49 0  413 327 
 SJC  HZ I         039 15.51         2.9 0.32                           413 327 
                                                                                
