 2012  916 0201  0.7 L   6.715 -73.220146.0  RSN  6 0.3 1.7LRSN                1
 GAP=159        0.54       5.1     6.0  6.0  0.1813E+02 -0.3294E+01 -0.1849E+01E
 Epicentro: VILLANUEVA - SANTANDER                                             3
 ACTION:UPD 12-10-22 14:19 OP:ep   STATUS:               ID:20120916020100 L   I
 2012-09-16-0200-00M.COL___227                                                 6
 STAT SP IPHASW D HRMM SECON CODA AMPLIT PERI AZIMU VELO AIN AR TRES W  DIS CAZ7
 BAR2 SZ EP   2    2 1 20.22                             174    0.04 5 14.2 163 
 BAR2 SZ ES   2    2 1 34.90                             174   -0.50 5 14.2 163 
 BAR2 SZ I         2 1 36.29        29.5 0.31                          14.2 163 
 GIR2 SZ EP   1    2 1 20.25                             164   -0.40 7 40.4   4 
 BRR  HZ EP        2 1 21.85                             153    0.1010 69.5 309 
 BRR  HZ I         2 1 22.14        12.8 0.16                          69.5 309 
 BRR  HN ES        2 1 38.49                             153    0.2910 69.5 309 
 RUS  HZ EP   1    2 1 23.94                             146    0.08 7 92.2 171 
 RUS  HZ I         2 1 25.47         3.9 0.12                          92.2 171 
 RUS  HE ES   1    2 1 42.04                             146    0.10 7 92.2 171 
 PTB  HZ EP   2    2 1 26.95                             134    0.15 5  138 262 
 PTB  HE ES   2    2 1 46.81                             134   -0.36 5  138 262 
 PTB  HZ I         2 1 55.30         2.7 0.28                           138 262 
 ZAR  HE ES   2    2 1 57.21                             123   -0.56 4  200 296 
 ZAR  HZ I         2 2  3.92         5.5 0.21                           200 296 
                                                                                
