 2015  816 0446 58.4 L   6.832 -73.120149.2  RSN 24 0.4 2.9LRSN                1
 GAP=115        0.84       1.9     2.5  3.8  0.2883E+00  0.2089E+01  0.3778E+00E
 Epicentro: LOS SANTOS - SANTANDER                                             3
 ACTION:UPD 15-09-15 23:02 OP:cam  STATUS:               ID:20150816044658 L   I
 OLDACT:UP  15-08-16 16:10 OP:mh   STATUS:               ID:20150816043749     3
 OLDACT:UP  15-08-16 16:09 OP:mh   STATUS:               ID:20150816043749     3
 OLDACT:UP  15-08-16 16:09 OP:mh   STATUS:               ID:20150816043749     3
 OLDACT:UP  15-08-16 15:58 OP:mh   STATUS:               ID:20150816043749     3
 OLDACT:UP  15-08-16 15:42 OP:mh   STATUS:               ID:20150816043749     3
 OLDACT:UP  15-08-16 15:36 OP:mh   STATUS:               ID:20150816043749     3
 OLDACT:REG 15-08-16 13:39 OP:mh   STATUS:               ID:20150816043749     3
 2015-08-16-0437-49M.COL___340                                                 6
 STAT SP IPHASW D HRMM SECON CODA AMPLIT PERI AZIMU VELO AIN AR TRES W  DIS CAZ7
 BAR2 EZ IP     D  447 18.74                             169    0.1810 27.4 195 
 BAR2 EZ ES        447 34.01                             169   -0.2510 27.4 195 
 BAR2 EZ I         447 36.23       152.0 0.24            171           27.4 195 
 BRR  HZ IP     D  447 20.53                             153    0.5310 72.1 295 
 BRR  HN ES        447 37.35                             153    0.5210 72.1 295 
 BRR  HZ I         447 41.49       119.1 0.28            152           72.1 295 
 RUS  HZ EP     D  447 22.71                             144   -0.0510  104 178 
 RUS  HN ES        447 41.50                             144   -0.2410  104 178 
 RUS  HZ I         447 42.95        51.2 0.46            144            104 178 
 TAM  HZ EP        447 26.30                             132    0.08 9  153 107 
 TAM  HZ I         447 47.86        44.3 0.38            131            153 107 
 TAM  HN ES        447 48.01                             132    0.11 9  153 107 
 OCA  HZ EP     D  447 26.92                             131    0.20 9  157 352 
 OCA  HN ES        447 48.46                             131   -0.33 9  157 352 
 OCA  HZ I         447 56.93       180.6 0.22            129            157 352 
 SPBC HZ EP        447 27.72                             129    0.10 9  168 219 
 SPBC HN ES        447 50.20                             129   -0.18 9  168 219 
 SPBC HZ I         447 53.95       134.9 0.32            129            168 219 
 ZAR  HZ EP        447 31.39                             123    0.16 8  205 291 
 ZAR  HN ES        447 56.35                             123   -0.47 8  205 291 
 ZAR  HZ I         448  1.45        85.6 0.30            122            205 291 
 NOR  HZ EP        447 34.97                             119    0.15 8  239 234 
 NOR  HN ES        448  3.36                             119    0.15 8  239 234 
 NOR  HZ I         448  9.83        43.9 0.26            118            239 234 
 SML  HZ EP        447 34.78                             118   -0.26 8  242 334 
 SML  HN ES        448  3.21                             118   -0.38 8  242 334 
 SML  HZ I         448 11.81        99.4 0.24            117            242 334 
 CHI  HZ EP        447 36.48                             117   -0.29 8  253 196 
 CHI  HN ES        448  6.31                             117   -0.36 8  253 196 
 CHI  HZ I         448 11.41        46.6 0.30            117            253 196 
 ROSC BZ EP        447 37.93                             117    0.71 8  257 211 
 ROSC BN ES   4    448  9.00                             117    1.52 0  257 211 
 ROSC BZ I         448 13.15       121.6 0.40            117            257 211 
 HEL  HZ EP        447 39.36                             115    0.15 7  276 255 
 HEL  HE ES        448 11.41                             115    0.38 7  276 255 
 HEL  HZ I         448 16.73        35.3 0.38            115            276 255 
 URE  HZ EP   4    447 38.30                             114   -1.51 0  285 291 
 URE  HN ES   4    448  9.22                             114   -2.87 0  285 291 
 LL2C HZ EP   4    447 44.43                             113    2.62 0  303 353 
 LL2C HN ES   4    448 17.40                             113    1.76 0  303 353 
 LL2C HZ I         448 21.67        66.8 0.40            112            303 353 
 LL1C HZ EP   4    447 44.10                             113    2.26 0  304 351 
 LL1C HN ES   4    448 18.78                             113    3.09 0  304 351 
 GUY2CHZ EP        447 42.57                             113   -0.11 7  306 235 
 GUY2CHN ES   4    448 19.75                             113    2.55 0  306 235 
 GUY2CHZ I         448 24.71        42.3 0.58                           306 235 
 VIL  SZ EP        447 42.43                             112   -0.03 7  307 192 
 VIL  SN ES        448 16.32                             112   -0.48 7  307 192 
 VIL  SZ I         448 19.36        66.5 0.38            112            307 192 
 PTGC HZ EP   1    447 41.92                             112   -0.78 5  311 159 
 PTGC HN ES   4    448 14.94                             112   -2.29 0  311 159 
 PTGC HZ I         448 17.17        23.2 0.20            112            311 159 
 LL4C HZ EP        447 44.55                             111    0.82 7  320 351 
 LL4C HN ES   4    448 21.04                             111    1.97 0  320 351 
 ELA  HZ EP   4    447 47.81                             111    1.88 0  334 229 
 ELA  HN ES   4    448 25.11                             111    2.13 0  334 229 
 CBOC HZ EP        447 46.23                             110    0.31 7  337 252 
 CBOC HE ES   4    448 21.04                             110   -1.92 0  337 252 
 CBOC HZ I         448 31.60        10.0 0.58            110            337 252 
 DBB  SZ EP        447 46.24                             110   -0.10 7  342 274 
 DBB  SZ ES        448 23.19                             110   -0.52 7  342 274 
 DBB  SZ I         448 26.55        87.5 0.40            109            342 274 
 TOL  SZ EP   1    447 47.55                             110    0.21 5  348 225 
 TOL  SN ES   4    448 26.65                             110    1.17 0  348 225 
 TOL  SZ I         448 34.46        31.8 0.54            109            348 225 
 ORTC HZ EP   1    447 53.04                             107    0.05 4  400 216 
 ORTC HN ES        448 35.98                             107    0.43 6  400 216 
 ORTC HZ I         448 39.87        25.1 0.22            106            400 216 
 ELOV BZ EP   4    447 52.87                             106   -0.35 0  402  87 
 ELOV BE ES   4    448 33.58                             106   -2.38 0  402  87 
 SJC  HZ EP        447 52.42                             106   -1.52 6  408 326 
 SJC  HN ES   4    448 33.54                             106   -3.70 0  408 326 
 SJC  HZ I         448 48.07        12.5 0.70            106            408 326 
 PAL  HZ EP        447 54.08                             106   -0.12 6  410 239 
 PAL  HN ES   4    448 36.43                             106   -1.27 0  410 239 
 PAL  HZ I         448 42.11         9.7 0.20            106            410 239 
 YOT  HZ EP   4    448  0.93                             103   -1.16 0  476 229 
 YOT  HN ES   4    448 56.26                             103    4.51 0  476 229 
 MACC HZ EP   4    448  5.21                             102   -2.48 0  524 189 
 MACC HN ES   4    448 57.10                             102   -4.61 0  524 189 
 MACC HZ I         449  3.04         9.0 0.76            102            524 189 
                                                                                
