 2012  116 0609 56.1 L   6.678 -73.017142.5  RSN  4 0.3 1.1LRSN                1
 GAP=159        0.55       8.4     9.3  9.7  0.8468E+01  0.1353E+02  0.2898E+02E
 Epicentro: ARATOCA - SANTANDER                                                3
 ACTION:UP  12-02-03 08:17 OP:REBC STATUS:               ID:20120116060956 L   I
 2012-01-16-0610-00M.COL___186                                                 6
 STAT SP IPHASW D HRMM SECON CODA AMPLIT PERI AZIMU VELO SNR AR TRES W  DIS CAZ7
 BAR2 SZ EP   1    610 15.25                             171     0.0 7   21 243 
 BAR2 SZ ES   2    610 30.62                             171     0.4 5   21 243 
 BAR2 SZ I         610 32.20         2.2 0.13                            21 243 
 PAM  SE ES   2    610 35.35                             149    -0.1 5   81  26 
 RUS  HZ EP   2    610 18.29                             147    -0.3 5   87 185 
 BRR  HZ EP   1    610 18.39                             146     0.3 7   90 302 
 BRR  HZ I         610 25.18         2.5 0.47                            90 302 
 BRR  HN ES   2    610 34.81                             146    -0.5 5   90 302 
                                                                                
