 2012  216 0532  1.9 L   6.806 -73.175147.7  RSN  6 0.3 1.4LRSN                1
 GAP=235        0.63       5.0     5.1  7.5  0.1563E+01  0.1129E+02 -0.1001E+01E
 ACTION:UP  12-03-07 16:30 OP:epov STATUS:               ID:20120216053201 L   I
 2012-02-16-0530-00M.COL___188                                                 6
 STAT SP IPHASW D HRMM SECON CODA AMPLIT PERI AZIMU VELO AIN AR TRES W  DIS CAZ7
 BAR2 SZ EP   1    532 21.60                             171   -0.12 7 23.6 182 
 BAR2 SZ ES   1    532 37.28                             171    0.06 7 23.6 182 
 BAR2 SZ I         532 41.17         6.9 0.41                          23.6 182 
 BRR  HZ EP   1    532 23.67                             154    0.63 7 68.0 299 
 BRR  HZ I         532 43.32         8.3 0.13                          68.0 299 
 RUS  HZ EP   1    532 25.60                             144   -0.26 7  101 174 
 RUS  HN ES   1    532 44.54                             144   -0.04 7  101 174 
 RUS  HZ I         532 46.16         2.3 0.49                           101 174 
 PTB  HZ EP   1    532 28.33                             133   -0.38 7  145 258 
 PTB  HN ES   1    532 49.33                             133   -0.32 7  145 258 
 NOR  SN ES   1    533  5.53                             119    0.31 6  232 234 
 CHI  HN ES   1    533  9.33                             118    0.22 6  248 194 
                                                                                
