 2012  716 0352  4.5 L   6.593 -73.229148.8  RSN  4 0.1 1.2LRSN                1
 GAP=176        0.37       6.3     3.8  5.3  0.3352E+01  0.1656E+01  0.8885E+01E
 Epicentro: CABRERA - SANTANDER                                                3
 ACTION:UPD 12-08-14 11:45 OP:ep   STATUS:               ID:20120716035204 L   I
 2012-07-16-0350-00M.COL___197                                                 6
 STAT SP IPHASW D HRMM SECON CODA AMPLIT PERI AZIMU VELO AIN AR TRES W  DIS CAZ7
 BAR2 SZ EP   1    352 24.39                             178     0.1 7    5  91 
 BAR2 SZ ES   2    352 39.49                             178    -0.2 5    5  91 
 BAR2 SZ I         352 40.81         3.9 0.22            176              5  91 
 BRR  HZ EP   1    352 26.24                             151    -0.1 7   78 317 
 BRR  HZ I         352 26.82         5.9 0.14            153             78 317 
 BRR  HE ES   1    352 43.58                             151     0.1 7   78 317 
 PTB  HZ EP   1    352 30.76                             135     0.1 7  136 268 
 PTB  HN ES   1    352 51.08                             135     0.0 7  136 268 
 PTB  HZ I         352 53.77         1.2 0.23            135            136 268 
 ZAR  HN ES   2    353  2.73                             123    -0.2 4  206 299 
