 2012 1116 0404 54.3 L   6.373 -73.708 99.2  RSN  4 0.3 0.9LRSN                1
 GAP=155        0.56       4.3     3.5  8.0  0.6152E+01  0.8288E+01  0.8987E+01E
 Epicentro: SANTA HELENA DEL OPON - SANTANDER                                  3
 ACTION:UPD 12-12-05 15:33 OP:}ep  STATUS:               ID:20121116040454 L   I
 2012-11-16-0400-00M.COL___233                                                 6
 STAT SP IPHASW D HRMM SECON CODA AMPLIT PERI AZIMU VELO AIN AR TRES W  DIS CAZ7
 BAR2 SZ ES   1    4 5 23.19                             146    0.26 7 63.0  67 
 BRR  HZ EP   1    4 5 11.16                             138   -0.27 7 81.2 360 
 BRR  HN ES   1    4 5 24.77                             138   -0.05 7 81.2 360 
 BRR  HZ I         4 5 24.78         2.0 0.22                          81.2 360 
 PTB  HZ EP   1    4 5 11.70                             137   -0.06 7 84.8 283 
 PTB  HN ES   1    4 5 25.51                             137    0.10 7 84.8 283 
 PTB  HZ I         4 5 26.48         2.7 0.14                          84.8 283 
 RUS  HZ EP   1    4 5 13.01                             136    0.40 7 87.2 127 
 RUS  HN ES   1    4 5 26.53                             136   -0.39 7 87.2 127 
 RUS  HZ I         4 5 28.27         1.3 0.22                          87.2 127 
                                                                                
