 2015  516 0906 12.8 L   6.611 -73.589 46.4  RSN  9 0.4 1.8LRSN                1
 GAP=107        0.84       2.9     4.0 11.6  0.6256E+01  0.3502E+02  0.2074E+02E
 Epicentro: EL CARMEN - SANTANDER                                              3
 ACTION:UPD 15-09-10 22:04 OP:cam  STATUS:               ID:20150516090612 L   I
 OLDACT:UP  15-05-19 07:19 OP:DRIO STATUS:               ID:20150516090612 L   3
 OLDACT:UP  15-05-16 15:06 OP:spq  STATUS:               ID:20150516085747d    3
 OLDACT:DUP 15-05-16 14:33 OP:spq  STATUS:               ID:20150516085747d    3
 2015-05-16-0857-45M.COL___276                                                 6
 STAT SP IPHASW D HRMM SECON CODA AMPLIT PERI AZIMU VELO AIN AR TRES W  DIS CAZ7
 BAR2 EZ EP     D  9 6 22.69                             128    0.1010 45.0  93 
 BAR2 EZ ES   1    9 6 30.51                             128    0.32 7 45.0  93 
 BAR2 EZ I         9 6 30.89        28.3 0.56            106           45.0  93 
 BRR  HZ EP        9 6 23.13                             119   -0.3310 56.5 346 
 BRR  HE ES        9 6 31.63                             119   -0.1110 56.5 346 
 BRR  HZ I         9 6 35.59        15.0 0.28            104           56.5 346 
 RUS  HZ EP        9 6 28.93                             103    0.1610 97.2 145 
 RUS  HE ES   1    9 6 40.77                             103   -0.42 7 97.2 145 
 RUS  HZ I         9 6 43.93        12.3 0.42             99           97.2 145 
 SPBC HZ EP   1    9 6 30.84                              99   -0.05 7  119 207 
 SPBC HE ES        9 6 45.03                              99    0.0610  119 207 
 SPBC HZ I         9 6 46.74        18.8 0.13             98            119 207 
 PAM  SZ EP   4    9 6 36.64                              98    4.24 0  127  51 
 ZAR  HZ EP        9 6 37.42                              94    0.25 9  171 305 
 ZAR  HE ES        9 6 56.50                              94    0.35 9  171 305 
 ZAR  HZ I         9 6 57.15        29.7 0.22             56            171 305 
 OCA  HZ EP   4    9 6 43.19                              94    4.40 0  182   9 
 OCA  HE ES   4    9 7  7.42                              94    8.39 0  182   9 
 OCA  HZ I         9 7 10.22        23.4 0.48             56            182   9 
 NOR  HN ES   4    9 6 56.52                              94   -2.41 0  183 231 
 NOR  HZ I         9 6 58.01        12.4 0.50             56            183 231 
 HEL  HZ EP        9 6 42.77                              93   -0.86 8  220 258 
 HEL  HN ES   4    9 7  5.50                              93   -2.13 0  220 258 
 HEL  HZ I         9 7  7.75         8.2 0.18             56            220 258 
 GUY2CHZ EP   1    9 6 48.29                              92    0.86 6  249 232 
 GUY2CHE ES        9 7 14.43                              92    0.03 8  249 232 
 GUY2CHZ I         9 7 16.66         5.0 0.45                           249 232 
                                                                                
