 2012 1216 0912 12.4 L   6.148 -73.753111.2  RSN  5 0.4 1.4LRSN                1
 GAP=188        0.83       7.2     4.6 11.1  0.4220E+01  0.4568E+01 -0.1383E+02E
 Epicentro: LANDAZURI - SANTANDER                                              3
 ACTION:UPD 13-01-04 14:28 OP:ep   STATUS:               ID:20121216091212 L   I
 2012-12-16-0910-00M.COL___239                                                 6
 STAT SP IPHASW D HRMM SECON CODA AMPLIT PERI AZIMU VELO AIN AR TRES W  DIS CAZ7
 RUS  HZ EP   1    912 31.44                             142    0.17 7 79.4 111 
 RUS  HE ES   1    912 45.82                             142   -0.13 7 79.4 111 
 RUS  HZ I         912 46.67         3.0 0.20                          79.4 111 
 BAR2 SZ EP   1    912 31.45                             142    0.49 7 80.0  52 
 BAR2 SZ ES   1    912 45.26                             142   -0.14 7 80.0  52 
 BAR2 SZ I         912 46.92        31.3 0.34                          80.0  52 
 PTB  HZ EP   1    912 30.50                             138   -0.86 7 89.0 299 
 PTB  HE ES   1    912 46.43                             138    0.32 7 89.0 299 
 PTB  HZ I         912 49.06         2.8 0.09                          89.0 299 
 BRR  HZ EP   1    912 33.17                             133    0.38 7  106   2 
 BRR  HZ I         912 52.06         4.1 0.10                           106   2 
 PAM  SE ES   1    913  1.94                             118   -0.29 7  176  41 
                                                                                
