 2011  316 0653 52.0 L   6.774 -73.096148.8  RSN  7 0.3 1.3LRSN                1
 GAP=164        0.54       3.2     6.3  4.8 -0.1025E+02  0.2121E+01  0.2104E+01E
 Epicentro: LOS SANTOS - SANTANDER                                             3
 ACTION:UP  11-06-16 14:33 OP:jfem STATUS:               ID:20110316065351 L   I
 2011-03-16-0650-12S.COL___138                                                 6
 STAT SP IPHASW D HRMM SECON CODA AMPLIT PERI AZIMU VELO SNR AR TRES W  DIS CAZ7
 BAR2 SZ EP        654 11.98                             171     0.010   22 206 
 BAR2 SZ I         654 12.23         3.8 0.21                            22 206 
 BAR2 SZ ES   1    654 27.67                             171     0.1 7   22 206 
 BTL  SZ EP        654 12.14                             170     0.110   25 310 
 BTL  SZ ES   2    654 26.93                             170    -0.7 5   25 310 
 GIR2 SZ EP   3    654 11.77                             166    -0.4 2   35 342 
 GIR2 SZ ES   3    654 27.57                             166    -0.3 2   35 342 
 RUS  HZ EP        654 15.69                             145    -0.110   98 179 
 RUS  HN ES   1    654 34.82                             145     0.4 7   98 179 
 RUS  HZ I         654 35.89         1.7 0.19                            98 179 
 GRA  SZ EP   1    654 17.73                             138     0.1 7  127  15 
 GRA  SZ ES   1    654 37.59                             138     0.0 7  127  15 
 GRA  SZ I         654 38.50         3.9 0.34                           127  15 
 NOR  SN ES   1    654 56.68                             119     0.2 6  238 236 
 CHI  HZ EP        654 29.58                             118    -0.2 8  247 197 
 CHI  HN ES   2    654 58.61                             118    -0.6 4  247 197 
 CHI  HZ I         655  5.34         2.0 0.48                           247 197 
                                                                                
