 2010  216 0611 45.4 L   6.832 -72.972138.8  RSN  5 0.5 1.9LRSN                1
 GAP=213        1.12       7.2    22.8 10.7 -0.7377E+02  0.7306E+02  0.2128E+01E
 Epicentro: CEPITA - SANTANDER                                                 3
 ACTION:UP  10-08-24 09:49 OP:vdl  STATUS:               ID:20100216061145 L   I
 2010-02-16-0607-14S.COL___094                                                 6
 STAT SP IPHASW D HRMM SECON CODA AMPLIT PERI AZIMU VELO SNR AR TRES W  DIS CAZ7
 BAR2 SZ EP        612  5.22                             165     0.710   35 221 
 BAR2 SZ ES   1    612 19.06                             165    -0.4 7   35 221 
 OCA  SZ EP        612 12.64                             128    -0.5 9  160 346 
 OCA  SZ ES   2    612 35.30                             128     0.4 5  160 346 
 OCA  SZ I         612 39.03        10.1 0.07                           160 346 
 CHI  HZ EP        612 23.60                             115    -0.1 8  258 199 
 CHI  HE ES   2    612 52.96                             115    -0.6 4  258 199 
 CHI  HZ I         612 55.86         3.6 0.49                           258 199 
 RREF BZ EP        612 33.68                             108     0.5 7  339 231 
 RREF BN ES   2    613 10.49                             108     0.0 3  339 231 
 RREF BZ I         613 13.37         6.1 0.31                           339 231 
 PRA  HZ EP        612 39.67                             105    -0.5 6  405 212 
 PRA  HZ I         612 40.66         1.6 0.25                           405 212 
                                                                                
