 2013 1116 0604 25.9 L   6.816 -73.430117.7  RSN  4 0.4 1.2LRSN                1
 GAP=150        1.07       6.0     6.6  8.5 -0.8591E-01  0.1199E+02 -0.1970E+02E
 Epicentro: SAN VICENTE DE CHUCURI - SANTANDER                                 3
 ACTION:UPD 14-01-09 16:28 OP:ep   STATUS:               ID:20131116060425 L   I
 OLDACT:REG 13-11-16 10:15 OP:nd   STATUS:               ID:20131116060000     3
 2013-11-16-0600-00M.COL___279                                                 6
 STAT SP IPHASW D HRMM SECON CODA AMPLIT PERI AZIMU VELO AIN AR TRES W  DIS CAZ7
 BAR2 SZ EP        6 4 43.07                             162    0.4310 36.9 132 
 BAR2 SZ ES        6 4 55.50                             162   -0.1610 36.9 132 
 BAR2 SZ I         6 4 56.33         9.5 0.40            170           36.9 132 
 BRR  HZ EP        6 4 42.66                             158    0.0410 44.8 316 
 BRR  HN ES        6 4 55.46                             158   -0.1710 44.8 316 
 BRR  HZ I         6 4 59.83         2.6 0.50            154           44.8 316 
 PTB  HZ EP        6 4 47.00                             132   -0.8710  117 255 
 PTB  HN ES        6 5  5.52                             132    0.5410  117 255 
 PTB  HZ I         6 5  8.75         1.3 0.12            133            117 255 
 SML  HZ EP        6 5  0.00                             112    0.32 8  231 342 
 SML  HN ES        6 5 25.93                             112   -0.06 8  231 342 
 SML  HZ I         6 5 31.12         1.8 0.10            114            231 342 
                                                                                
