 2010  616 0800 11.3 L   6.778 -73.090145.6  RSN  6 0.3 1.5LRSN                1
 GAP=162        0.62       5.2     9.5  8.8  0.1818E+02 -0.4929E+02 -0.2769E+02E
 Epicentro: LOS SANTOS - SANTANDER                                             3
 ACTION:UP  10-08-24 10:10 OP:vdl  STATUS:               ID:20100616080011 L   I
 2010-06-16-0756-39S.COL___114                                                 6
 STAT SP IPHASW D HRMM SECON CODA AMPLIT PERI AZIMU VELO SNR AR TRES W  DIS CAZ7
 BAR2 SZ EP        8 0 30.70                             171    -0.210   23 207 
 BAR2 SZ ES   1    8 0 45.83                             171    -0.3 7   23 207 
 BRR  HZ EP   1    8 0 32.56                             150    -0.2 7   78 298 
 BRR  HZ I         8 0 32.87         9.9 0.14                            78 298 
 BRR  HN ES   1    8 0 49.85                             150     0.3 7   78 298 
 RUS  HZ EP   2    8 0 34.95                             145     0.1 5   98 180 
 RUS  HN ES   1    8 0 53.44                             145     0.3 7   98 180 
 RUS  HZ I         8 0 54.59         2.7 0.27                            98 180 
 BRI  SZ EP   1    8 0 35.65                             141     0.5 7  109  17 
 GUE  SZ EP   1    8 0 35.99                             139    -0.1 7  118   9 
 GRA  SZ EP   1    8 0 36.41                             137    -0.1 7  126  14 
                                                                                
