 2012  616 0850 41.1 L   6.402 -73.352131.3  RSN 10 0.4 2.1LRSN                1
 GAP=110        0.78       3.4     3.6  6.5 -0.2258E+01  0.1057E+02  0.1092E+01E
 Epicentro: SIMACOTA - SANTANDER                                               3
 ACTION:UP  12-08-06 17:49 OP:ep   STATUS:               ID:20120616085041 L   I
 2012-06-16-0850-00M.COL___198                                                 6
 STAT SP IPHASW D HRMM SECON CODA AMPLIT PERI AZIMU VELO AIN AR TRES W  DIS CAZ7
 BAR2 SZ EP        850 58.93                             167   -0.1810 28.2  42 
 BAR2 SZ ES   1    851 13.17                             167    0.02 7 28.2  42 
 BAR2 SZ I         851 15.27        39.9 0.42                          28.2  42 
 RUS  HZ EP   1    851  0.71                             153   -0.26 7 63.7 152 
 RUS  HN ES   1    851 16.52                             153    0.05 7 63.7 152 
 RUS  HZ I         851 18.03        23.1 0.26                          63.7 152 
 PTB  HZ EP   1    851  3.94                             134   -0.72 7  123 277 
 PTB  HN ES   1    851 22.94                             134   -0.10 7  123 277 
 PTB  HZ I         851 24.63        16.4 0.26                           123 277 
 PAM  SZ EP   1    851  5.43                             134   -0.15 7  126  35 
 PAM  SN ES   1    851 25.23                             134    0.55 7  126  35 
 NOR  SZ EP   1    851 11.33                             121   -0.08 7  192 241 
 NOR  SN ES   1    851 35.72                             121    0.66 7  192 241 
 NOR  SZ I         851 40.24         2.7 0.48                           192 241 
 CHI  HN ES   1    851 37.40                             120   -0.10 6  200 192 
 CHI  HZ I         851 39.52         7.5 0.35                           200 192 
 ZAR  HZ EP   1    851 12.56                             119   -0.24 6  206 306 
 ZAR  HN ES   1    851 37.95                             119    0.42 6  206 306 
 ZAR  HZ I         851 44.08        35.2 0.52                           206 306 
 HEL  HZ EP   1    851 17.86                             115    0.62 6  242 265 
 HEL  HE ES   1    851 44.48                             115   -0.96 6  242 265 
 GUY  SZ EP   1    851 20.17                             113    0.71 6  261 240 
 GUY  SE ES   2    851 49.98                             113    0.59 4  261 240 
 GUY  SZ I         851 56.83        29.4 0.59                           261 240 
 PRA  HZ EP   2    851 28.27                             107   -0.06 3  342 210 
 PRA  HN ES   1    852  5.34                             107    0.18 5  342 210 
                                                                                
