 2012  216 0701 14.3 L   7.376 -73.192132.0  RSN  8 0.2 1.7LRSN                1
 GAP=180        0.39       3.5     2.5  3.4 -0.2127E+01  0.2266E+01  0.5853E+00E
 ACTION:UP  12-03-07 16:30 OP:epov STATUS:               ID:20120216070114 L   I
 2012-02-16-0700-00M.COL___188                                                 6
 STAT SP IPHASW D HRMM SECON CODA AMPLIT PERI AZIMU VELO AIN AR TRES W  DIS CAZ7
 PAM  SZ EP   1    7 1 33.80                             157    0.07 7 54.5  94 
 PAM  SN ES   1    7 1 48.74                             157   -0.17 7 54.5  94 
 BRR  HZ EP        7 1 33.59                             152    0.0410 64.7 243 
 BRR  HN ES   1    7 1 48.78                             152    0.18 7 64.7 243 
 BRR  HZ I         7 1 49.76        31.3 0.11                          64.7 243 
 BAR2 SZ EP        7 1 35.44                             145    0.1410 86.7 179 
 BAR2 SZ ES   1    7 1 51.72                             145    0.01 7 86.7 179 
 BAR2 SZ I         7 1 53.10        19.4 0.08                          86.7 179 
 RUS  HZ EP   1    7 1 42.05                             126   -0.35 7  165 176 
 RUS  HZ I         7 2 11.65         2.0 0.26                           165 176 
 PTB  HZ EP   1    7 1 41.99                             125   -0.09 7  168 237 
 PTB  HN ES   1    7 2  3.69                             125   -0.09 7  168 237 
 ZAR  HZ EP   1    7 1 43.66                             122   -0.12 7  184 274 
 ZAR  HZ I         7 2 11.63         7.7 0.27                           184 274 
 NOR  SE ES   1    7 2 24.03                             112   -0.13 6  273 223 
 CHI  HZ EP   1    7 1 58.56                             109    0.41 5  310 191 
 CHI  HZ I         7 2 40.95         1.5 0.43                           310 191 
                                                                                
