 2010  516 0458 28.0 L   6.796 -73.019140.0  RSN  4 0.3 1.4LRSN                1
 GAP=179        0.93       7.6    16.8 20.3  0.5553E+02 -0.2418E+03 -0.5830E+02E
 Epicentro: CEPITA - SANTANDER                                                 3
 ACTION:UP  10-08-24 10:05 OP:vdl  STATUS:               ID:20100516045828 L   I
 2010-05-16-0454-20S.COL___108                                                 6
 STAT SP IPHASW D HRMM SECON CODA AMPLIT PERI AZIMU VELO AIN AR TRES W  DIS CAZ7
 BAR2 SZ EP        458 46.39                             167    -0.610   29 219 
 BRR  HZ EP        458 49.43                             146     0.110   84 294 
 BRR  HE ES   1    459  5.95                             146     0.0 7   84 294 
 BRR  HZ I         459  9.23         4.8 0.20                            84 294 
 RUS  HZ EP        458 51.34                             142     0.210  100 184 
 RUS  HE ES   2    459  9.65                             142     0.5 5  100 184 
 RUS  HZ I         459 10.59         4.1 0.28                           100 184 
 GUE  SZ EP        458 52.19                             138     0.210  115   5 
                                                                                
