 2012  216 0720 35.6 L   6.709 -73.206149.1  RSN  4 0.1 1.0LRSN                1
 GAP=220        0.31       3.1     3.2  4.0  0.4782E+01 -0.1750E+01 -0.1714E+01E
 ACTION:UP  12-03-07 16:30 OP:epov STATUS:               ID:20120216072035 L   I
 2012-02-16-0720-00M.COL___188                                                 6
 STAT SP IPHASW D HRMM SECON CODA AMPLIT PERI AZIMU VELO AIN AR TRES W  DIS CAZ7
 BAR2 SZ EP   1    720 55.32                             175   -0.11 7 13.2 168 
 BRR  HZ EP        720 57.16                             153    0.0910 71.2 308 
 BRR  HZ I         720 57.59         3.1 0.18                          71.2 308 
 BRR  HE ES   1    721 13.80                             153   -0.04 7 71.2 308 
 RUS  HZ EP   1    720 58.95                             147   -0.05 7 91.3 171 
 RUS  HN ES   1    721 17.35                             147    0.07 7 91.3 171 
 RUS  HZ I         721 18.83         0.9 0.36                          91.3 171 
 PTB  HZ EP   1    721  2.06                             134   -0.01 7  139 262 
 PTB  HN ES   1    721 22.72                             134   -0.03 7  139 262 
                                                                                
