 2016  116 0647 14.7 L   6.820 -73.175146.4  RSN  9 0.3 1.7LRSN                1
 GAP=132        0.76       2.7     3.5  5.3 -0.2042E+01  0.8817E+01 -0.3665E+01E
 Epicentro: ZAPATOCA - SANTANDER                                               3
 ACTION:UPD 16-03-09 23:25 OP:cam  STATUS:               ID:20160116064714 L   I
 OLDACT:UP  16-01-16 18:10 OP:mh   STATUS:               ID:20160116062923     3
 OLDACT:REG 16-01-16 14:45 OP:mh   STATUS:               ID:20160116062923     3
 2016-1-16-638_063800_840.mseed                                                6
 STAT SP IPHASW D HRMM SECON CODA AMPLIT PERI AZIMU VELO AIN AR TRES W  DIS CAZ7
 BAR2 EZ EP        647 34.55                             170    0.1010 25.1 182 
 BAR2 EZ ES        647 49.74                             170   -0.1110 25.1 182 
 BAR2 EZ I         647 50.69         9.9 0.40            170           25.1 182 
 PAM  EZ EP        647 37.49                             151    0.4710 77.8  42 
 PAM  EN ES        647 54.45                             151    0.0310 77.8  42 
 PAM  EZ I         647 56.41         4.1 0.32            155           77.8  42 
 RUS  HN EP   1    647 38.97                             143    0.27 7  103 174 
 RUS  HE ES        647 57.03                             143   -0.3810  103 174 
 RUS  HN I         647 58.26         5.6 0.18            146            103 174 
 PTB  HZ EP        647 41.23                             133   -0.26 9  145 258 
 PTB  HN ES   1    648  1.95                             133   -0.42 7  145 258 
 PTB  HZ I         648  4.57         4.6 0.12            132            145 258 
 SPBC HZ EP   1    647 43.05                             129   -0.18 7  163 218 
 SPBC HN ES        648  5.68                             129    0.21 9  163 218 
 SPBC HZ I         648 12.06         8.5 0.34            130            163 218 
 ZAR  HZ EP        647 46.56                             123   -0.25 9  200 292 
 ZAR  HN ES        648 12.38                             123    0.53 9  200 292 
 ZAR  HZ I         648 17.42         5.8 0.24            123            200 292 
 NOR  HZ EP        647 50.00                             119   -0.34 8  233 234 
 NOR  HN ES        648 18.65                             119    0.53 8  233 234 
 NOR  HZ I         648 24.48         3.4 0.16            120            233 234 
 SML  HZ EP        647 50.98                             118   -0.04 8  240 336 
 SML  HE ES        648 18.97                             118   -0.36 8  240 336 
 SML  HZ I         648 24.91         6.1 0.22            119            240 336 
 URE  HZ EP   4    647 54.50                             114   -0.89 0  280 292 
 URE  HN ES   4    648 24.34                             114   -2.78 0  280 292 
 URE  HZ I         648 29.40         2.7 0.16            115            280 292 
                                                                                
