 2015  616 0828  6.4 L   6.798 -73.129141.6  RSN 14 0.4 1.9LRSN                1
 GAP=139        0.95       2.5     3.7  4.8 -0.1938E+01  0.7754E+01  0.1036E+01E
 Epicentro: LOS SANTOS - SANTANDER                                             3
 ACTION:UPD 15-09-10 22:12 OP:cam  STATUS:               ID:20150616082806 L   I
 OLDACT:UP  15-06-16 18:44 OP:drio STATUS:               ID:20150616081749     3
 OLDACT:REG 15-06-16 15:06 OP:drio STATUS:               ID:20150616081749     3
 2015-06-16-0817-49M.COL___306                                                 6
 STAT SP IPHASW D HRMM SECON CODA AMPLIT PERI AZIMU VELO AIN AR TRES W  DIS CAZ7
 BAR2 EZ EP     D  828 25.46                             170   -0.0810 23.5 195 
 BAR2 EZ ES        828 40.06                             170   -0.4010 23.5 195 
 BAR2 EZ I         828 45.54         9.0 0.20            168           23.5 195 
 BRR  HZ EP        828 27.37                             151    0.1610 72.9 298 
 BRR  HN ES        828 44.31                             151    0.8810 72.9 298 
 BRR  HZ I         828 47.20        16.9 0.20            148           72.9 298 
 PAM  SZ EP        828 28.52                             150    0.4010 76.4  38 
 PAM  SE ES        828 45.21                             150    0.1510 76.4  38 
 PAM  SZ I         828 46.82        11.3 0.20            155           76.4  38 
 RUS  HZ EP        828 29.97                             143    0.2410  100 177 
 RUS  HN ES        828 47.38                             143   -0.5410  100 177 
 RUS  HZ I         828 48.88         9.1 0.26            147            100 177 
 OCA  HZ EP        828 34.29                             129   -0.15 9  161 352 
 OCA  HE ES        828 55.98                             129   -0.32 9  161 352 
 OCA  HZ I         829  0.53        18.5 0.24            131            161 352 
 ZAR  HZ EP        828 38.57                             121   -0.20 8  206 292 
 ZAR  HN ES        829  4.36                             121    0.34 8  206 292 
 ZAR  HZ I         829 13.51        11.9 0.34            122            206 292 
 NOR  HZ EP        828 42.19                             117    0.14 8  236 235 
 NOR  HN ES        829  9.52                             117   -0.33 8  236 235 
 NOR  HZ I         829 16.28         8.7 0.22            119            236 235 
 SML  HZ EP        828 42.16                             116   -0.75 8  245 335 
 SML  HE ES        829 11.10                             116   -0.28 8  245 335 
 SML  HZ I         829 20.17         8.7 0.22            118            245 335 
 HEL  HZ EP        828 46.62                             114    0.01 8  274 256 
 HEL  HN ES        829 17.49                             114   -0.47 8  274 256 
 HEL  HZ I         829 24.48         6.4 0.50            115            274 256 
 GUY2CHZ EP        828 50.28                             111    0.30 7  303 235 
 GUY2CHN ES   4    829 29.17                             111    5.20 0  303 235 
 GUY2CHZ I         829 32.75         4.4 0.66                           303 235 
 RREF HZ EP        828 52.05                             110   -0.47 7  323 230 
 RREF HN ES        829 28.87                             110    0.39 7  323 230 
 RREF HZ I         829 33.92         2.4 0.84            112            323 230 
 CBOC HZ EP        828 53.86                             109    0.51 7  335 252 
 CBOC HN ES        829 29.23                             109   -0.73 7  335 252 
 CBOC HZ I         829 33.09         1.5 0.32            111            335 252 
 TOL  SZ EP        828 55.43                             108    0.80 7  345 225 
 TOL  SN ES        829 32.45                             108    0.20 7  345 225 
 TOL  SZ I         829 40.34         3.1 0.36            110            345 225 
 MON  HZ EP   4    828 53.40                             108   -2.03 0  355 308 
 MON  HN ES   4    829 32.13                             108   -1.55 0  355 308 
 MON  HZ I    4    829 35.25         1.6 0.24            109            355 308 
 PRA  HZ EP        828 59.98                             106    0.11 6  393 210 
 PRA  HN ES        829 41.64                             106    0.07 6  393 210 
 PRA  HZ I         829 47.17         3.3 0.36            108            393 210 
                                                                                
