 2016  916 0559 22.8 L   6.767 -73.130148.2  RSN 12 0.4 1.6LRSN                1
 GAP=140        0.88       3.4     3.4  5.5 -0.1943E+01  0.5432E+01  0.3544E+00E
 Epicentro: LOS SANTOS - SANTANDER                                             3
 ACTION:UPD 17-08-17 21:12 OP:lp   STATUS:               ID:20160916055922 L   I
 OLDACT:REG 16-09-16 13:12 OP:ar   STATUS:               ID:20160916055735     3
 2016-09-16-0558-00M.COL___348                                                 6
 STAT SP IPHASW D HRMM SECON CODA AMPLIT PERI AZIMU VELO AIN AR TRES W  DIS CAZ7
 BAR2 EZ IP     C  559 42.55                             172   -0.1110 20.1 197 
 BAR2 EZ ES   3    559 58.50                             172    0.35 2 20.1 197 
 BRR  HZ EP        559 44.42                             152    0.0210 74.5 300 
 BRR  HE ES        6 0  1.99                             152    0.7510 74.5 300 
 BRR  HZ I         6 0  6.23         7.2 0.12            150           74.5 300 
 PAM  EZ EP        559 45.34                             151   -0.0410 79.2  37 
 PAM  EN ES        6 0  2.67                             151   -0.3210 79.2  37 
 PAM  EZ I         6 0  5.04         4.4 0.18            154           79.2  37 
 RUS  HZ EP        559 46.58                             145    0.0610 96.8 177 
 RUS  HE ES        6 0  5.08                             145    0.0510 96.8 177 
 RUS  HZ I         6 0  6.69         2.9 0.19            150           96.8 177 
 PTB  HZ EP        559 49.55                             132   -0.51 9  149 260 
 PTB  HN ES        6 0 10.75                             132   -0.57 9  149 260 
 PTB  HZ I         6 0 16.08         4.8 0.12            133            149 260 
 SPBC HZ EP        559 51.54                             130    0.22 9  161 220 
 SPBC HN ES        6 0 13.55                             130   -0.02 9  161 220 
 SPBC HZ I         6 0 16.51         6.7 0.18            132            161 220 
 ZAR  HZ EP        559 56.55                             122    0.84 8  207 293 
 ZAR  HN ES        6 0 21.09                             122   -0.29 8  207 293 
 ZAR  HZ I         6 0 27.76         5.0 0.21            124            207 293 
 NOR  HZ EP        559 58.80                             119    0.21 8  234 235 
 NOR  HN ES        6 0 26.22                             119   -0.29 8  234 235 
 NOR  HZ I         6 0 28.95         3.1 0.25            121            234 235 
 HEL  HZ EP        6 0  3.35                             115    0.13 8  273 257 
 HEL  HN ES        6 0 34.88                             115    0.13 8  273 257 
 HEL  HZ I         6 0 40.97         2.5 0.36            117            273 257 
 URE  HZ EP   4    6 0  7.14                             114    2.82 0  287 292 
 URE  HN ES   4    6 0 34.43                             114   -2.27 0  287 292 
 URE  HZ I         6 0 40.02         2.5 0.19            116            287 292 
 GUY2CHZ EP   3    6 0  7.18                             113    0.74 2  301 236 
 GUY2CHE ES   4    6 0 45.46                             113    4.98 0  301 236 
 GUY2CHZ I         6 0 52.55         1.6 0.58                           301 236 
 SJC  HZ EP        6 0 18.31                             106   -0.60 6  413 327 
 SJC  HN ES   4    6 0 58.52                             106   -4.16 0  413 327 
                                                                                
