 2016  616 0206  2.3 L   6.826 -73.142141.8  RSN 13 0.5 1.9LRSN                1
 GAP=136        1.17       3.9     5.0  6.8 -0.7874E+01  0.9284E+01  0.1675E+01E
 Epicentro: LOS SANTOS - SANTANDER                                             3
 ACTION:UPD 16-07-21 22:19 OP:rebc STATUS:               ID:20160616020602 L   I
 OLDACT:UP  16-06-16 14:43 OP:dani STATUS:               ID:20160616015750     3
 OLDACT:UP  16-06-16 14:43 OP:dani STATUS:               ID:20160616015750     3
 OLDACT:UP  16-06-16 14:37 OP:dani STATUS:               ID:20160616015750     3
 OLDACT:REG 16-06-16 12:28 OP:dani STATUS:               ID:20160616015750     3
 2016-06-16-0157-50M.COL___337                                                 6
 STAT SP IPHASW D HRMM SECON CODA AMPLIT PERI AZIMU VELO AIN AR TRES W  DIS CAZ7
 BAR2 EZ EP        2 6 21.36                             169   -0.1910 26.2 190 
 BAR2 EZ I         2 6 37.68        13.7 0.16                          26.2 190 
 BRR  HZ EP        2 6 23.21                             152    0.2110 70.2 296 
 BRR  HN ES        2 6 39.96                             152    0.8410 70.2 296 
 BRR  HZ I         2 6 42.88        10.4 0.14                          70.2 296 
 PAM  EZ EP        2 6 24.18                             151    0.2010 74.9  41 
 PAM  EN ES        2 6 41.15                             151    0.2810 74.9  41 
 PAM  EZ I         2 6 43.15        15.9 0.56                          74.9  41 
 RUS  HE ES        2 6 43.76                             142   -0.5310  103 176 
 PTB  HZ EP        2 6 28.38                             131   -0.68 9  149 258 
 PTB  HN ES        2 6 49.10                             131   -0.82 9  149 258 
 PTB  HZ I         2 6 53.00         7.3 0.16                           149 258 
 OCA  HZ EP        2 6 29.60                             129   -0.47 9  157 353 
 OCA  HE ES        2 6 51.41                             129   -0.30 9  157 353 
 OCA  HZ I         2 6 56.29        17.7 0.22                           157 353 
 SPBC HZ EP        2 6 30.56                             128   -0.20 9  166 218 
 SPBC HE ES        2 6 53.32                             128    0.38 9  166 218 
 SPBC HZ I         2 6 57.82        12.5 0.44                           166 218 
 ZAR  HZ EP        2 6 34.28                             122   -0.17 9  203 291 
 ZAR  HZ I         2 7  4.95        17.3 0.38                           203 291 
 NOR  HZ EP        2 6 37.79                             117   -0.25 8  237 234 
 NOR  HE ES        2 7  6.16                             117    0.26 8  237 234 
 NOR  HZ I         2 7  7.68        10.7 0.18                           237 234 
 HEL  HZ EP        2 6 43.55                             114    1.09 8  273 255 
 HEL  HN ES        2 7 13.56                             114   -0.21 8  273 255 
 HEL  HZ I         2 7 27.11         3.1 0.22                           273 255 
 URE  HE ES   4    2 7 13.45                             113   -1.51 0  283 291 
 SOCV BN ES   4    2 7 15.72                             111   -2.53 0  299  57 
 GUY2CHZ EP   9    2 6 48.33                             111    2.35 0  303 234 
 GUY2CHN ES        2 7 21.93                             111   -0.45 7  303 234 
 GUY2CHZ I         2 7 26.76         3.6 0.28                           303 234 
 CBOC HZ EP        2 6 49.90                             109    0.67 7  335 252 
 CBOC HN ES   4    2 7 28.18                             109    2.37 0  335 252 
 CBOC HZ I         2 7 28.61         1.3 0.26                           335 252 
 PRA  HZ EP        2 6 56.36                             106    0.33 6  395 209 
 PRA  HE ES        2 7 38.47                             106    0.56 6  395 209 
 PRA  HZ I         2 7 39.90         3.7 0.30                           395 209 
                                                                                
