 2016 1116 0232 19.2 L   6.234 -73.824102.8  RSN 13 0.3 1.8LRSN                1
 GAP= 58        0.82       2.4     2.3  5.9 -0.5025E+00  0.1732E+01  0.6347E+01E
 Epicentro: LANDAZURI - SANTANDER                                              3
 ACTION:UPD 17-10-26 21:08 OP:lp   STATUS:               ID:20161116023219 L   I
 OLDACT:UP  16-11-16 14:46 OP:e    STATUS:               ID:20161116022748     3
 OLDACT:UP  16-11-16 14:45 OP:e    STATUS:               ID:20161116022748     3
 OLDACT:UP  16-11-16 14:45 OP:e    STATUS:               ID:20161116022748     3
 OLDACT:REG 16-11-16 12:21 OP:and  STATUS:               ID:20161116022748     3
 2016-11-16-0228-00M.COL___335                                                 6
 STAT SP IPHASW D HRMM SECON CODA AMPLIT PERI AZIMU VELO AIN AR TRES W  DIS CAZ7
 PTB  HZ IP   9 C  232 34.77                             139   -1.70 0 77.7 296 
 PTB  HN ES        232 47.83                                   -0.3910 77.7 296 
 PTB  HZ I         232 48.97        19.7 0.11            140           77.7 296 
 BAR2 EZ EP        232 36.86                             138   -0.2110 81.3  61 
 BAR2 EZ ES        232 50.70                             138   -0.2710 81.3  61 
 BAR2 EZ I         232 52.34        33.2 0.17            140           81.3  61 
 BRR  HZ EP        232 37.84                             132   -0.2710 97.4   7 
 BRR  HN ES        232 52.93                             132    0.1010 97.4   7 
 BRR  HZ I         232 54.99        22.1 0.14            134           97.4   7 
 NOR  HZ EP   4    232 40.32                             122   -1.76 0  137 237 
 NOR  HN ES   4    232 56.99                             122   -2.90 0  137 237 
 NOR  HZ I         233  0.21        15.4 0.14            122            137 237 
 PAM  EZ EP        232 46.63                             115    0.05 9  174  45 
 PAM  EN ES        233  8.12                             115    0.20 9  174  45 
 PAM  EZ I         233 11.56         4.2 0.20            116            174  45 
 CHI  HZ EP        232 46.85                             114   -0.01 9  178 177 
 CHI  HN ES        233  8.39                             114   -0.01 9  178 177 
 CHI  HZ I         233 11.09         3.5 0.26            115            178 177 
 ZAR  HZ EP        232 46.22                             114   -0.39 9  180 321 
 ZAR  HE ES        233  8.41                             114    0.45 9  180 321 
 ZAR  HZ I         233  9.89        10.8 0.21            115            180 321 
 TAM  HZ EP        232 52.34                             108    0.47 8  226  84 
 TAM  HE ES        233 17.81                             108    0.49 8  226  84 
 ELA  HN ES   4    233 21.35                             108    1.82 0  231 229 
 ELA  HZ I         233 25.94         4.3 0.30            108            231 229 
 CBOC HZ EP        232 54.32                             106   -0.00 8  246 261 
 CBOC HN ES        233 21.78                             106    0.09 8  246 261 
 CBOC HZ I         233 24.99         2.5 0.08            107            246 261 
 PTGC HZ EP        232 58.82                             102   -0.84 7  293 140 
 PTGC HE ES   4    233 29.69                             102   -1.51 0  293 140 
 PRA  HZ EP        233  0.57                             102   -0.31 7  303 203 
 PRA  HN ES        233 33.97                             102    0.62 7  303 203 
 PRA  HZ I         233 35.54         2.2 0.28            102            303 203 
 SJC  HZ EP   4    233 14.84                              94   -1.64 0  432 340 
 SJC  HN ES   4    233 57.89                              94   -3.24 0  432 340 
 SJC  HZ I         234  1.32         2.4 0.27             96            432 340 
                                                                                
