 2014 1216 0618  4.9 L   6.680 -73.570109.3  RSN  6 0.4 1.0LRSN                1
 GAP=113        1.08       5.2     3.8  8.3  0.5810E+00  0.1805E+01  0.3394E+01E
 Epicentro: EL CARMEN - SANTANDER                                              3
 ACTION:UPD 15-02-10 17:04 OP:nd   STATUS:               ID:20141216061804 L   I
 OLDACT:REG 14-12-16 13:07 OP:spq  STATUS:               ID:20141216060745     3
 2014-12-16-0607-45M.COL___287                                                 6
 STAT SP IPHASW D HRMM SECON CODA AMPLIT PERI AZIMU VELO AIN AR TRES W  DIS CAZ7
 BAR2 EZ EP   1    618 21.40                             157    0.41 7 44.0 103 
 BAR2 EZ ES   1    618 33.93                             157    0.42 7 44.0 103 
 BAR2 EZ I         618 34.49         7.3 0.14            157           44.0 103 
 BRR  HZ EP   1    618 21.00                             154    0.06 7 49.7 342 
 BRR  HE ES        618 34.00                             154    0.5810 49.7 342 
 BRR  HZ I    1    618 34.94         2.8 0.29            154           49.7 342 
 PTB  HZ EP        618 24.41                             135   -0.1310 99.2 261 
 PTB  HN ES        618 39.11                             135   -0.7310 99.2 261 
 PTB  HZ I         618 40.11         1.9 0.08            136           99.2 261 
 RUS  HZ EP        618 25.95                             134    0.4810  102 148 
 RUS  HN ES   1    618 41.27                             134   -0.22 7  102 148 
 RUS  HZ I         618 43.80         1.3 0.42            135            102 148 
 PAM  SZ EP        618 26.87                             129   -0.2810  121  53 
 PAM  SN ES        618 43.82                             129   -0.6510  121  53 
 PAM  SZ I         618 46.37         1.9 0.29            130            121  53 
 ZAR  HZ EP   1    618 31.75                             118    0.39 7  168 302 
 ZAR  HN ES   1    618 52.24                             118    0.26 7  168 302 
 ZAR  HZ I         618 55.21         2.0 0.30            119            168 302 
                                                                                
