 2011  716 0854 57.8 L   6.799 -73.164139.7  RSN  6 0.3 1.5LRSN                1
 GAP=157        0.69       3.7     5.8  6.6 -0.5510E+01  0.2302E+01 -0.4066E+01E
 Epicentro: LOS SANTOS - SANTANDER                                             3
 ACTION:UPD 12-07-25 14:01 OP:epov STATUS:               ID:20110716085457 L   I
 2011-07-16-0851-39S.COL___132                                                 6
 STAT SP IPHASW D HRMM SECON CODA AMPLIT PERI AZIMU VELO AIN AR TRES W  DIS CAZ7
 BAR2 SZ EP        855 16.48                             170   -0.1710 23.0 185 
 BAR2 SZ ES   1    855 31.22                             170   -0.16 7 23.0 185 
 BAR2 SZ I         855 32.60        10.6 0.28                          23.0 185 
 BRR  HZ EP        855 18.33                             152    0.1710 69.5 299 
 BRR  HN ES   1    855 34.07                             152    0.01 7 69.5 299 
 BRR  HZ I         855 36.11         9.7 0.11                          69.5 299 
 RUS  HZ EP   1    855 20.63                             142   -0.29 7  101 175 
 RUS  HN ES   1    855 39.53                             142    0.54 7  101 175 
 RUS  HZ I         855 40.40         3.6 0.26                           101 175 
 GRA  SZ EP   1    855 22.20                             135   -0.33 7  126  18 
 GRA  SZ ES   1    855 41.65                             135   -0.20 7  126  18 
 GRA  SZ I         855 43.03         2.8 0.26                           126  18 
 OCA  SZ EP   1    855 26.29                             128    0.70 7  160 354 
 NOR  SN ES   1    856  0.13                             117   -0.29 6  233 234 
                                                                                
