 2017  816 0324 23.5 L   6.836 -73.136145.1  RSN 22 0.5 2.1LRSN                1
 GAP= 66        0.95       2.8     2.7  4.9 -0.8175E+00  0.2921E+01  0.1326E+01E
 Epicentro: LOS SANTOS - SANTANDER                                             3
 ACTION:UPD 17-09-04 20:20 OP:rebc STATUS:               ID:20170816032423 L   I
 OLDACT:UP  17-08-16 13:59 OP:and  STATUS:               ID:20170816031738     3
 OLDACT:UP  17-08-16 13:56 OP:and  STATUS:               ID:20170816031738     3
 OLDACT:UP  17-08-16 13:52 OP:and  STATUS:               ID:20170816031738     3
 OLDACT:UP  17-08-16 13:52 OP:and  STATUS:               ID:20170816031738     3
 OLDACT:UP  17-08-16 13:51 OP:and  STATUS:               ID:20170816031738     3
 OLDACT:REG 17-08-16 12:49 OP:and  STATUS:               ID:20170816031738     3
 2017-08-16-0318-00M.COL___413                                                 6
 STAT SP IPHASW D HRMM SECON CODA AMPLIT PERI AZIMU VELO AIN AR TRES W  DIS CAZ7
 BAR2 EZ IP     C  324 43.00                             169   -0.1510 27.4 191 
 BAR2 EZ ES        324 57.94                             169   -0.5310 27.4 191 
 BAR2 EZ I         324 59.51        44.1 0.24            167           27.4 191 
 BRR  HZ EP        324 44.88                             152    0.3510 70.3 295 
 BRR  HN ES   2    325  1.89                             152    0.95 5 70.3 295 
 BRR  HZ I         325  5.12        18.0 0.14            151           70.3 295 
 PAM  EZ IP     C  324 45.93                             151    0.5010 73.7  41 
 PAM  EN ES        325  3.03                             151    0.4910 73.7  41 
 PAM  EZ I         325  4.85        15.4 0.32            149           73.7  41 
 RUS  HZ EP        324 46.97                             143   -0.5110  104 177 
 RUS  HN ES        325  5.38                             143   -0.7910  104 177 
 RUS  HZ I         325  6.57         9.8 0.28            139            104 177 
 TAM  HZ IP     C  324 51.32                             130    0.18 9  155 107 
 TAM  HZ I         325 11.92        11.3 0.26            127            155 107 
 TAM  HN ES        325 12.55                             130   -0.14 9  155 107 
 SPBC HZ EP        324 52.00                             128   -0.31 9  167 218 
 SPBC HN ES        325 14.28                             128   -0.50 9  167 218 
 SPBC HZ I         325 15.63        20.1 0.18            125            167 218 
 YPLC HZ IP     C  324 53.37                             126   -0.18 9  180 152 
 YPLC HN ES        325 17.69                             126    0.71 9  180 152 
 YPLC HZ I         325 25.51         6.5 0.18            122            180 152 
 ZAR  HZ EP   4    324 59.09                             122    3.23 0  204 291 
 ZAR  HE ES        325 21.39                             122    0.30 9  204 291 
 ZAR  HZ I         325 26.79         9.3 0.17            120            204 291 
 TABC EZ EP   1    325  0.42                             118    0.78 6  234 210 
 TABC EZ ES   4    325 25.74                             118   -2.08 0  234 210 
 TABC EZ I         325 34.70        18.2 0.42            116            234 210 
 NOR  HZ EP        324 59.34                             118   -0.20 8  238 234 
 NOR  HN ES        325 27.39                             118   -0.25 8  238 234 
 NOR  HZ I         325 32.92         9.7 0.38            115            238 234 
 CHI  HZ EP        325  1.31                             116   -0.30 8  253 195 
 CHI  HN ES        325 32.08                             116    0.74 8  253 195 
 CHI  HZ I         325 37.50         7.0 0.58            113            253 195 
 ROSC BZ EP        325  2.38                             116    0.36 8  257 211 
 ROSC BE ES        325 32.18                             116    0.12 8  257 211 
 ROSC BZ I         325 36.94        14.1 0.50            113            257 211 
 HEL  HZ EP   3    325  5.34                             114    1.43 2  274 255 
 HEL  HN ES        325 35.48                             114    0.06 8  274 255 
 HEL  HZ I         325 41.96         4.8 0.54            112            274 255 
 GUY2CHZ EP   9    325  8.20                             112    0.76 0  304 234 
 GUY2CHE ES        325 42.33                             112   -0.14 7  304 234 
 GUY2CHZ I         325 49.62         8.8 0.46                           304 234 
 PTGC HZ IP   9 C  325  6.09                             111   -1.62 0  312 159 
 PTGC HE ES   1    325 40.08                                   -0.49 5  312 159 
 PTGC HZ I         325 44.08         5.5 0.38            108            312 159 
 LL6C HZ EP        325  8.50                             110   -0.23 7  321 357 
 LL6C HN ES   2    325 43.05                             110   -0.95 3  321 357 
 ELA  HN ES   4    325 45.81                             110   -1.73 0  333 229 
 ELA  HZ I         325 49.21         5.6 0.34            107            333 229 
 DBB  EN ES   3    325 46.73                             109   -1.39 2  340 274 
 DBB  EZ I         325 48.23         4.5 0.40            107            340 274 
 ANIL HN ES   4    325 55.03                             108    2.18 0  361 224 
 ANIL HZ I         326  3.07        12.9 0.60            106            361 224 
 PRA  HZ EP   2    325 16.75                             106   -0.72 3  396 209 
 PRA  HE ES   2    325 59.37                             106   -0.19 3  396 209 
 PRA  HZ I         326  7.58         8.1 0.42            104            396 209 
 ORTC HZ EP   1    325 17.90                             106    0.05 4  399 216 
 ORTC HN ES   2    326  0.91                             106    0.67 3  399 216 
 ORTC HZ I         326  7.27         6.5 0.36            104            399 216 
 SJC  HZ EP   9    325 17.43                             105   -1.29 0  406 327 
 SJC  HN ES   1    326  0.35                             105   -0.15 4  406 327 
 SJC  HZ I         326  3.06         2.4 0.50            104            406 327 
                                                                                
