 2011 1016 0446 52.7 L   6.785 -73.097145.4  RSN  4 0.3 1.6LRSN                1
 GAP=144        0.58       4.2     5.6  6.7  0.1659E+01  0.8472E+01  0.1177E+01E
 Epicentro: LOS SANTOS - SANTANDER                                             3
 ACTION:UPD 12-07-13 16:04 OP:ep   STATUS:               ID:20111016044652 L   I
 2011-10-16-0442-50S.COL___168                                                 6
 STAT SP IPHASW D HRMM SECON CODA AMPLIT PERI AZIMU VELO AIN AR TRES W  DIS CAZ7
 PAM  SZ EP   1    447 15.24                             151    0.46 7 75.4  36 
 PAM  SN ES   1    447 31.61                             151   -0.37 7 75.4  36 
 BRR  HZ EP   1    447 14.16                             150    0.01 7 76.7 298 
 BRR  HZ I         447 16.13        11.5 0.09                          76.7 298 
 BRR  HE ES   1    447 31.10                             150    0.24 7 76.7 298 
 RUS  HZ EP   1    447 16.30                             144    0.00 7 98.7 179 
 RUS  HN ES   1    447 34.62                             144   -0.07 7 98.7 179 
 RUS  HZ I         447 35.83         2.4 0.20                          98.7 179 
 ZAR  HZ EP   1    447 25.34                             121   -0.38 6  210 292 
 ZAR  HZ I         447 56.92         4.5 0.37                           210 292 
                                                                                
