 2016 1016 0026 22.3 L   6.786 -73.153152.1  RSN  5 0.4 1.4LRSN                1
 GAP=136        0.78       4.5     4.5  7.7 -0.5723E+01  0.7179E+01  0.1170E+01E
 Epicentro: LOS SANTOS - SANTANDER                                             3
 ACTION:UPD 16-11-09 19:20 OP:rebc STATUS:               ID:20161016002622 L   I
 OLDACT:DUP 16-10-16 15:01 OP:ar   STATUS:               ID:20161016001738d    3
 OLDACT:REG 16-10-16 13:39 OP:ar   STATUS:               ID:20161016001737     3
 2016-10-16-0018-00M.COL___365                                                 6
 STAT SP IPHASW D HRMM SECON CODA AMPLIT PERI AZIMU VELO AIN AR TRES W  DIS CAZ7
 BRR  HZ EP   2    026 44.75                             153    0.64 5 71.2 300 
 BRR  HN ES   2    027  1.93                             153    0.79 5 71.2 300 
 BRR  HZ I         027  3.19        11.3 0.38            153           71.2 300 
 PAM  HZ EP        026 45.66                             151    0.3910 79.2  39 
 PAM  EN ES        027  2.79                             151   -0.4110 79.2  39 
 PAM  HZ I         027  3.49         3.9 0.24            155           79.2  39 
 RUS  HZ EP        026 46.49                             145   -0.0610 99.1 175 
 RUS  HE ES        027  5.53                             145    0.0510 99.1 175 
 RUS  HZ I         027  6.41         1.6 0.20            146           99.1 175 
 PTB  HZ EP        026 49.67                             133    0.01 9  147 259 
 PTB  HN ES        027 10.70                             133   -0.33 9  147 259 
 PTB  HZ I         027 12.59         2.3 0.16            134            147 259 
 SPBC HZ EP   2    026 50.42                             130   -0.68 5  161 219 
 SPBC HN ES   2    027 14.04                             130    0.46 5  161 219 
 SPBC HZ I         027 18.14         3.9 0.10            131            161 219 
                                                                                
