 2014 1116 0538 17.9 L   6.797 -73.146144.0  RSN 19 0.5 2.5LRSN                1
 GAP= 65        1.47       4.1     4.0  7.6 -0.2604E+01  0.6300E+01  0.7454E+01E
 Epicentro: LOS SANTOS - SANTANDER                                             3
 ACTION:UPD 14-12-19 15:43 OP:nd   STATUS:               ID:20141116053817 L   I
 OLDACT:ARG 14-11-16 13:31 OP:stll STATUS:               ID:20141116052745     3
 2014-11-16-0527-45M.COL___280                                                 6
 STAT SP IPHASW D HRMM SECON CODA AMPLIT PERI AZIMU VELO AIN AR TRES W  DIS CAZ7
 BAR2 SZ EP        538 37.35                             170    0.0610 23.0 190 
 BAR2 SZ I         538 53.61       107.7 0.34            169           23.0 190 
 BRR  HZ IP     C  538 39.21                             152    0.3710 71.3 299 
 BRR  HZ I         538 39.41        98.6 0.24            151           71.3 299 
 BRR  HN ES        538 56.10                             152    0.9110 71.3 299 
 PAM  SZ EP        538 40.14                             150    0.2210 77.6  39 
 PAM  SN ES        538 57.30                             150    0.1910 77.6  39 
 PAM  SZ I         538 59.51        92.2 0.50            152           77.6  39 
 RUS  HZ EP        538 41.13                             143   -0.3010  100 176 
 RUS  HN ES        538 59.97                             143    0.1710  100 176 
 RUS  HZ I         539  0.61        31.8 0.24            143            100 176 
 PTB  HZ EP        538 43.81                             131   -0.88 9  148 259 
 PTB  HN ES        539  4.57                             131   -1.04 9  148 259 
 PTB  HZ I         539  6.77        52.6 0.46            131            148 259 
 TAM  HZ EP        538 45.47                             130    0.06 9  155 105 
 TAM  HZ I         538 45.67        72.4 0.20            131            155 105 
 TAM  HN ES        539  6.60                             130   -0.28 9  155 105 
 OCA  HZ EP        538 45.47                             129   -0.61 9  161 353 
 OCA  HN ES        539  7.33                             129   -0.74 9  161 353 
 OCA  HZ I         539 10.71        49.6 0.22            129            161 353 
 SPBC HZ EP        538 46.24                             128    0.03 9  163 219 
 SPBC HN ES        539  8.16                             128   -0.16 9  163 219 
 SPBC HZ I         539 10.20        35.4 0.24            128            163 219 
 NOR  HZ EP        538 52.99                             118   -0.49 8  234 235 
 NOR  HN ES        539 21.19                             118   -0.06 8  234 235 
 NOR  HZ I         539 26.24        21.4 0.52            118            234 235 
 CHI  HZ EP        538 55.47                             116    0.03 8  248 195 
 CHI  HN ES        539 24.84                             116    0.10 8  248 195 
 CHI  HZ I         539 31.42         9.1 0.46            117            248 195 
 HEL  HZ EP        538 59.32                             114    1.33 8  272 256 
 HEL  HN ES        539 29.71                             114    0.44 8  272 256 
 HEL  HZ I         539 38.01        13.4 0.24            114            272 256 
 URE  HZ EP   9    538 57.61                             113   -1.26 0  284 292 
 URE  HE ES        539 29.40                                   -0.19 7  284 292 
 PTGC HZ EP   9    539  0.47                             111   -1.15 0  308 159 
 PTGC HN ES        539 33.66                                   -0.93 7  308 159 
 PTGC HZ I         539 35.94        11.5 0.44            111            308 159 
 CBOC HZ EP        539  5.68                             109    0.98 7  334 252 
 CBOC HN ES        539 41.12                             109   -0.11 7  334 252 
 CBOC HZ I         539 51.00         4.5 0.54            109            334 252 
 DBB  SZ EP        539  5.75                             109    0.47 7  339 274 
 TOL  SZ EP        539  6.53                             109    0.50 7  343 225 
 TOL  SN ES        539 43.90                             109    0.31 7  343 225 
 MON  HZ EP   9    539  4.88                             108   -1.95 0  354 308 
 MON  HZ I         539 12.66         8.3 0.22            108            354 308 
 MON  HN ES        539 42.19                                   -0.87 6  354 308 
 PRA  HZ EP        539 11.12                             106   -0.18 6  392 210 
 PRA  HN ES        539 52.56                             106   -0.41 6  392 210 
 PRA  HZ I         540  0.00         8.1 0.40            106            392 210 
 SJC  HZ EP   9    539 11.97                             105   -1.44 0  409 327 
 SJC  HN ES        539 52.36                                   -2.93 6  409 327 
 SJC  HZ I         539 57.31        11.1 0.52            105            409 327 
                                                                                
