 2013  116 0244 18.4 L   6.708 -73.204150.3  RSN  5 0.3 1.4LRSN                1
 GAP=221        0.66       7.0     6.7  7.3  0.3034E+02  0.1220E+02  0.4344E+01E
 Epicentro: VILLANUEVA - SANTANDER                                             3
 ACTION:UPD 13-02-15 09:14 OP:ep   STATUS:               ID:20130116024418 L   I
 2013-01-16-0240-00M.COL___241                                                 6
 STAT SP IPHASW D HRMM SECON CODA AMPLIT PERI AZIMU VELO AIN AR TRES W  DIS CAZ7
 BAR2 SZ ES   1    244 53.45                             175   -0.58 7 13.0 169 
 BRR  HZ EP   1    244 39.92                             153   -0.13 7 71.4 308 
 BRR  HN ES   1    244 57.50                             153    0.56 7 71.4 308 
 BRR  HZ I         244 59.70         4.2 0.19            151           71.4 308 
 RUS  HZ EP   1    244 42.13                             147    0.18 7 91.1 172 
 RUS  HN ES   1    245  0.57                             147    0.24 7 91.1 172 
 RUS  HZ I         245  4.10         2.3 0.36            146           91.1 172 
 PTB  HZ EP   1    244 44.90                             135   -0.13 7  140 262 
 PTB  HN ES   1    245  5.70                             135   -0.11 7  140 262 
 PTB  HZ I         245 10.91         3.7 0.18            132            140 262 
 ZAR  HN ES   1    245 16.29                             124   -0.07 6  202 296 
 ZAR  HZ I         245 22.14         3.5 0.29            124            202 296 
                                                                                
