 2014  916 0229 10.3 L   6.800 -73.121151.6  RSN  7 0.5 1.6LRSN                1
 GAP=203        1.17       4.8     6.7  7.6  0.1005E+02  0.2791E+01 -0.9044E+01E
 Epicentro: LOS SANTOS - SANTANDER                                             3
 ACTION:UPD 14-10-03 23:05 OP:nd   STATUS:               ID:20140916022910 L   I
 OLDACT:REG 14-09-16 12:55 OP:carl STATUS:               ID:20140916022820     3
 2014-09-16-0228-20M.COL___287                                                 6
 STAT SP IPHASW D HRMM SECON CODA AMPLIT PERI AZIMU VELO AIN AR TRES W  DIS CAZ7
 BAR2 SZ EP        229 30.28                             171   -0.3910 24.0 196 
 BAR2 SZ ES        229 46.23                             171   -0.3110 24.0 196 
 BAR2 SZ I         229 47.02        14.1 0.24            165           24.0 196 
 BRR  HZ EP        229 32.76                             153    0.5210 73.6 298 
 BRR  HN ES        229 50.15                             153    0.8210 73.6 298 
 BRR  HZ I         229 52.55         4.8 0.36            150           73.6 298 
 RUS  HZ EP        229 34.75                             145    0.1010  100 178 
 RUS  HN ES        229 53.70                             145    0.0910  100 178 
 RUS  HZ I         229 56.47         2.7 0.24            143            100 178 
 PTB  HZ EP        229 37.88                             133   -0.14 9  150 259 
 PTB  HN ES        229 58.78                             133   -0.83 9  150 259 
 PTB  HZ I         230  6.22         7.7 0.52            130            150 259 
 SPBC HZ EP        229 39.85                             130    0.41 9  165 220 
 SPBC HE ES        230  1.91                             130   -0.24 9  165 220 
 SPBC HZ I         230  9.42         6.2 0.16            128            165 220 
 ZAR  HZ EP        229 43.58                             123    0.16 8  207 292 
 ZAR  HN ES        230  9.73                             123    0.51 8  207 292 
 SML  HZ EP        229 47.25                             119   -0.16 8  245 335 
 SML  HN ES        230 15.53                             119   -0.80 8  245 335 
                                                                                
