 2017  116 0537 28.9 L   6.286 -73.666114.1  RSN  4 0.1 0.7LRSN                1
 GAP=164        0.31       1.9     1.5  2.9  0.1172E+01  0.1147E+01  0.9586E+00E
 Epicentro: SANTA HELENA DEL OPON - SANTANDER                                  3
 ACTION:UPD 17-05-22 16:00 OP:jn   STATUS:               ID:20170116053728 L   I
 OLDACT:UP  17-01-16 18:18 OP:nlst STATUS:               ID:20170116053728 L   3
 OLDACT:UP  17-01-16 16:52 OP:dani STATUS:               ID:20170116052748     3
 OLDACT:UP  17-01-16 16:51 OP:dani STATUS:               ID:20170116052748     3
 OLDACT:UP  17-01-16 16:51 OP:dani STATUS:               ID:20170116052748     3
 OLDACT:REG 17-01-16 13:17 OP:dani STATUS:               ID:20170116052748     3
 2017-01-16-0528-00M.COL___341                                                 6
 STAT SP IPHASW D HRMM SECON CODA AMPLIT PERI AZIMU VELO AIN AR TRES W  DIS CAZ7
 BAR2 HZ EP        537 46.54                             149   -0.0510 63.3  58 
 BAR2 HZ ES        538  0.42                             149    0.0610 63.3  58 
 RUS  HZ EP        537 47.83                             144   -0.1010 77.8 124 
 RUS  HN ES        538  2.78                             144    0.0310 77.8 124 
 RUS  HZ I         538  3.52         0.6 0.21            146           77.8 124 
 BRR  HZ EP        537 48.31                             139    0.0610 91.0 357 
 BRR  HN ES        538  3.25                             139   -0.0610 91.0 357 
 PTB  HZ EP        537 48.43                             138    0.0910 91.8 288 
 PTB  HN ES        538  3.44                             138   -0.0410 91.8 288 
 PTB  HZ I         538  5.86         2.5 0.66            139           91.8 288 
                                                                                
