 2012  816 0726 13.0 L   6.766 -73.146148.6  RSN 10 0.4 2.1LRSN                1
 GAP=183        0.77       3.3     4.8  6.0 -0.3759E+00  0.7622E+01 -0.2629E+01E
 Epicentro: LOS SANTOS - SANTANDER                                             3
 ACTION:UPD 12-09-10 11:56 OP:ep   STATUS:               ID:20120816072613 L   I
 2012-08-16-0720-00M.COL___217                                                 6
 STAT SP IPHASW D HRMM SECON CODA AMPLIT PERI AZIMU VELO AIN AR TRES W  DIS CAZ7
 BAR2 SZ EP   1    726 32.59                             172   -0.32 7 19.6 192 
 BAR2 SZ ES   1    726 48.56                             172    0.13 7 19.6 192 
 BAR2 SZ I         726 50.66        21.5 0.23                          19.6 192 
 GIR2 SZ EP   1    726 33.14                             166    0.02 7 35.0 351 
 BRR  HZ EP   1    726 34.55                             152   -0.02 7 73.1 301 
 BRR  HZ I         726 36.14        27.8 0.10                          73.1 301 
 BRR  HN ES   2    726 52.34                             152    0.95 5 73.1 301 
 RUS  HZ EP   1    726 36.50                             146   -0.27 7 96.8 176 
 RUS  HN ES        726 55.33                             146    0.0210 96.8 176 
 RUS  HZ I         726 56.49         5.8 0.36                          96.8 176 
 PTB  HZ EP   1    726 39.82                             133   -0.33 7  147 260 
 PTB  HN ES        727  0.84                             133   -0.48 9  147 260 
 OCA  HZ EP   1    726 41.51                             130   -0.38 7  164 353 
 OCA  HN ES        727  4.71                             130    0.29 9  164 353 
 OCA  HZ I         727  7.67        30.4 0.25                           164 353 
 ZAR  HZ EP   1    726 45.43                             123   -0.36 6  206 293 
 ZAR  HN ES   2    727 11.53                             123    0.17 4  206 293 
 ZAR  HZ I         727 17.08        13.3 0.28                           206 293 
 NOR  SZ EP   1    726 48.76                             119    0.09 6  233 235 
 NOR  SN ES   2    727 17.40                             119    0.91 4  233 235 
 HEL  HZ EP   1    726 54.21                             115    0.94 6  271 257 
 HEL  HZ I         727 32.35         6.1 0.25                           271 257 
 PRA  HZ EP   1    727  7.03                             107    0.78 4  389 210 
                                                                                
