 2010  516 0440 10.1 L   6.784 -73.189125.8  RSN  9 0.3 1.9LRSN                1
 GAP=150        0.69       2.7     6.0  5.3 -0.2424E+01  0.9970E-01 -0.1318E+01E
 Epicentro: ZAPATOCA - SANTANDER                                               3
 ACTION:UP  10-08-24 10:05 OP:vdl  STATUS:               ID:20100516044010 L   I
 2010-05-16-0437-42S.COL___108                                                 6
 STAT SP IPHASW D HRMM SECON CODA AMPLIT PERI AZIMU VELO AIN AR TRES W  DIS CAZ7
 BAR2 SZ EP        440 27.46                             170     0.110   21 178 
 BAR2 SZ ES   1    440 40.54                             170    -0.2 7   21 178 
 BRR  HZ IP        440 29.08                             150     0.110   68 302 
 BRR  HZ I         440 29.25        80.8 0.13                            68 302 
 BRR  HN ES   1    440 43.70                             150     0.1 7   68 302 
 RUS  HZ EP        440 31.98                             139     0.110   99 173 
 RUS  HN ES   1    440 48.55                             139    -0.3 7   99 173 
 RUS  HZ I         440 50.87         5.1 0.29                            99 173 
 BRI  SZ EP        440 32.17                             136    -0.310  112  23 
 BRI  SZ ES   2    440 50.73                             136     0.8 5  112  23 
 GUE  SZ EP        440 33.42                             134     0.110  119  14 
 GUE  SZ ES   1    440 51.70                             134     0.3 7  119  14 
 OCA  SZ EP        440 36.80                             124    -0.3 9  162 355 
 OCA  SZ ES   1    440 57.61                             124    -0.5 7  162 355 
 OCA  SZ I         441  2.24        12.9 0.23                           162 355 
 HEL  HZ EP   3    440 48.86                             111     0.0 2  267 256 
 HEL  HZ I         441 20.60         3.8 0.12                           267 256 
 RREF BZ EP   1    440 55.49                             107     0.6 5  317 229 
 RREF BZ I         441 37.40         2.9 0.77                           317 229 
 PRA  HZ EP   2    441  2.44                             103    -0.1 3  388 209 
 PRA  HN ES   3    441 43.09                             103    -0.4 1  388 209 
 PRA  HZ I         441 51.96         2.8 0.70                           388 209 
                                                                                
