 2016 1116 0014 43.2 L   6.597 -73.191113.0  RSN  4 0.2 1.3LRSN                1
 GAP=234        0.45       6.8     2.9  6.6 -0.2819E+01  0.5519E+01  0.2925E+02E
 Epicentro: BARICHARA - SANTANDER                                              3
 ACTION:UPD 17-10-26 21:08 OP:lp   STATUS:               ID:20161116001443 L   I
 OLDACT:REG 16-11-16 12:09 OP:and  STATUS:               ID:20161116000746     3
 2016-11-16-0008-00M.COL___344                                                 6
 STAT SP IPHASW D HRMM SECON CODA AMPLIT PERI AZIMU VELO AIN AR TRES W  DIS CAZ7
 BRR  HZ EP        015  1.63                             142    0.0710 80.6 314 
 BRR  HN ES        015 16.02                             142    0.1110 80.6 314 
 PAM  EZ EP   4    015  2.55                             136   -1.11 0 98.4  33 
 PAM  EN ES        015 19.57                             136   -0.0810 98.4  33 
 PAM  EZ I         015 21.73         4.1 0.25            153           98.4  33 
 PTB  HZ EP        015  6.76                             125   -0.15 9  140 267 
 PTB  HN ES   4    015 27.61                             125    2.18 0  140 267 
 PTB  HZ I         015 33.35         2.2 0.12            130            140 267 
 ZAR  HZ EP        015 14.51                             113    0.24 8  209 298 
 ZAR  HN ES        015 38.33                             113   -0.21 8  209 298 
 ZAR  HZ I         015 43.63         3.7 0.18            121            209 298 
                                                                                
