 2014  316 0325 24.6 L   6.831 -73.143148.0  RSN  6 0.4 1.5LRSN                1
 GAP=135        0.97       4.6     5.3 11.9  0.7910E+00 -0.5723E+00 -0.2206E+02E
 Epicentro: LOS SANTOS - SANTANDER                                             3
 OLDACT:DUP 14-03-16 11:56 OP:fm   STATUS:               ID:20140316031818d    3
 ACTION:UPD 14-04-09 23:17 OP:nd   STATUS:               ID:20140316032524 L   I
 OLDACT:UP  14-03-16 12:01 OP:fm   STATUS:               ID:20140316031818d    3
 2014-03-16-0318-17M.COL___242                                                 6
 STAT SP IPHASW D HRMM SECON CODA AMPLIT PERI AZIMU VELO AIN AR TRES W  DIS CAZ7
 PAM  SZ EP        325 47.36                             152    0.4310 74.6  41 
 PAM  SE ES   2    326  4.21                             152   -0.11 5 74.6  41 
 PAM  SZ I         326  5.49         5.0 0.60            157           74.6  41 
 RUS  HZ EP        325 48.97                             144    0.1210  104 176 
 RUS  HN ES   1    326  7.19                             144   -0.55 7  104 176 
 RUS  SZ I         326 14.92         4.9 1.82            149            104 176 
 PTB  HZ EP        325 51.35                             133   -0.53 9  149 258 
 PTB  HN ES        326 13.91                             133    0.79 9  149 258 
 PTB  SZ I         326 19.75         4.3 2.10            136            149 258 
 SPBC HN ES   1    326 15.97                             129   -0.18 7  166 218 
 ZAR  HN ES   1    326 22.02                             123   -0.45 6  203 291 
 SML  HZ EP        326  1.11                             118    0.04 8  241 335 
 SML  HN ES        326 29.18                             118   -0.31 8  241 335 
 SML  SZ I         326 38.82         3.6 1.02            123            241 335 
                                                                                
