 2014  116 0714 30.1 L   6.812 -73.180140.3  RSN  8 0.4 1.5LRSN                1
 GAP=132        1.03       2.9     5.1  6.6 -0.3139E+01  0.9837E+01 -0.2909E+01E
 Epicentro: LOS SANTOS - SANTANDER                                             3
 ACTION:UPD 14-03-13 09:55 OP:ep   STATUS:               ID:20140116071430 L   I
 OLDACT:REG 14-01-16 07:34 OP:carl STATUS:               ID:20140116071000     3
 2014-01-16-0710-00M.COL___285                                                 6
 STAT SP IPHASW D HRMM SECON CODA AMPLIT PERI AZIMU VELO AIN AR TRES W  DIS CAZ7
 BAR2 SZ EP        714 49.13                             170    0.0610 24.3 181 
 BAR2 SZ ES        715  3.59                             170   -0.2910 24.3 181 
 BAR2 SZ I         715  5.24        10.0 0.18            171           24.3 181 
 PAM  SZ IP     C  714 51.97                             149    0.1710 78.9  42 
 PAM  SN ES        715  9.30                             149    0.5510 78.9  42 
 PAM  SZ I         715 10.94         3.4 0.36            151           78.9  42 
 RUS  HZ EP        714 53.41                             142   -0.0010  102 174 
 RUS  HN ES        715 11.46                             142   -0.1610  102 174 
 RUS  HZ I         715 13.23         1.5 0.36            145            102 174 
 PTB  HZ EP        714 56.03                             131   -0.25 9  144 258 
 PTB  HN ES        715 17.17                             131    0.45 9  144 258 
 PTB  HZ I         715 18.78         4.7 0.20            132            144 258 
 OCA  HZ EP        714 58.25                             129    0.45 9  159 354 
 OCA  HN ES        715 18.37                             129   -1.05 9  159 354 
 OCA  HZ I         715 26.26         3.8 0.46            130            159 354 
 SPBC HN ES        715 19.72                             128   -0.12 9  162 218 
 SPBC HN I         715 23.84        11.1 0.10            130            162 218 
 SML  HZ EP        715  6.03                             117   -0.06 8  241 336 
 SML  HN ES        715 34.54                             117    0.35 8  241 336 
 SML  HZ I         715 37.60         3.5 0.10            118            241 336 
 CHI  HZ EP        715  6.98                             116   -0.53 8  249 194 
 CHI  HN ES        715 37.07                             116    0.36 8  249 194 
 CHI  HZ I         715 38.76         0.8 0.30            118            249 194 
                                                                                
