 2010  616 0714 13.1 L   6.892 -73.120142.9  RSN  6 0.4 1.5LRSN                1
 GAP=156        0.83       8.6    12.3 12.2  0.4620E+01 -0.8717E+02 -0.4732E+02E
 Epicentro: LOS SANTOS - SANTANDER                                             3
 ACTION:UP  10-08-24 10:10 OP:vdl  STATUS:               ID:20100616071413 L   I
 2010-06-16-0711-06S.COL___114                                                 6
 STAT SP IPHASW D HRMM SECON CODA AMPLIT PERI AZIMU VELO SNR AR TRES W  DIS CAZ7
 BAR2 SZ EP   1    714 32.03                             167    -0.7 7   34 192 
 BAR2 SZ ES   1    714 47.97                             167     0.0 7   34 192 
 BRR  HZ EP   1    714 33.59                             153    -0.3 7   70 290 
 BRR  HN ES   1    714 50.24                             153     0.2 7   70 290 
 BRR  HZ I         714 54.42         9.0 0.14                            70 290 
 BRI  SZ EP        714 36.16                             144     0.210   98  21 
 GUE  SZ EP   1    714 36.64                             142    -0.1 7  106  12 
 RUS  HZ EP   2    714 38.33                             141     1.0 5  111 178 
 RUS  HZ I         714 56.53         2.8 0.38                           111 178 
 GRA  SZ EP        714 37.40                             139     0.110  115  18 
                                                                                
