 2017  916 0125 17.1 L   6.790 -73.079149.6  RSN  6 0.1 1.5LRSN                1
 GAP=223        0.35       2.7     3.2  2.8  0.3061E+01 -0.1375E+00  0.2378E+01E
 Epicentro: LOS SANTOS - SANTANDER                                             3
 ACTION:UPD 17-10-05 19:12 OP:rebc STATUS:               ID:20170916012517 L   I
 OLDACT:UP  17-09-16 14:08 OP:mg   STATUS:               ID:20170916011740d    3
 OLDACT:UP  17-09-16 14:07 OP:mg   STATUS:               ID:20170916011740d    3
 OLDACT:DUP 17-09-16 13:59 OP:mg   STATUS:               ID:20170916011740d    3
 OLDACT:UP  17-09-16 13:58 OP:mg   STATUS:               ID:20170916011739     3
 OLDACT:REG 17-09-16 12:02 OP:mg   STATUS:               ID:20170916011739     3
 2017-09-16-0118-00M.COL___456                                                 6
 STAT SP IPHASW D HRMM SECON CODA AMPLIT PERI AZIMU VELO AIN AR TRES W  DIS CAZ7
 BAR2 EZ EP        125 37.19                             170   -0.0410 24.7 208 
 BAR2 EZ ES   1    125 52.91                             170   -0.01 7 24.7 208 
 BAR2 EZ I         125 54.37         5.5 0.11            163           24.7 208 
 BRR  HZ EP        125 39.05                             151   -0.0310 78.2 297 
 BRR  HN ES        125 56.15                             151   -0.0610 78.2 297 
 BRR  HZ I         125 56.25        10.3 0.33            149           78.2 297 
 RUS  HZ EP        125 41.32                             145    0.1710 99.3 180 
 RUS  HN ES   1    125 59.94                             145    0.05 7 99.3 180 
 RUS  HZ I         126  1.68         4.5 0.36            142           99.3 180 
 SPBC HZ EP   1    125 46.40                             129    0.12 7  167 221 
 SPBC HN ES   2    126  8.87                             129   -0.15 5  167 221 
 SPBC HZ I         126 11.40         3.9 0.09            127            167 221 
 NOR  HZ EP        125 53.79                             119    0.14 8  240 236 
 NOR  HN ES   2    126 21.90                             119   -0.24 4  240 236 
 NOR  HZ I         126 27.83         1.7 0.28            117            240 236 
 PTGC HZ EP        126  0.43                             112   -0.30 7  305 160 
                                                                                
