 2012  316 0018 15.6 L   6.812 -73.410127.9  RSN  4 0.1 1.9LRSN                1
 GAP=180        0.43       5.9     4.0  9.9  0.1223E+02 -0.1168E+02 -0.3001E+02E
 ACTION:UP  12-03-31 23:20 OP:EP   STATUS:               ID:20120316001815 L   I
 2012-03-16-0010-00M.COL___202                                                 6
 STAT SP IPHASW D HRMM SECON CODA AMPLIT PERI AZIMU VELO SNR AR TRES W  DIS CAZ7
 BAR2 SZ EP   1    018 33.10                             164    -0.3 7   35 134 
 BAR2 SZ I         018 47.61        20.6 0.29                            35 134 
 BRR  HZ EP   1    018 33.68                             159     0.2 7   47 314 
 BRR  HZ I         018 45.20        15.9 0.30                            47 314 
 RUS  HZ EP   1    018 38.26                             138     0.1 7  108 160 
 RUS  HE ES   1    018 55.90                             138     0.1 7  108 160 
 PTB  HZ EP   1    018 38.49                             134     0.0 7  120 255 
 PTB  HN ES   1    018 56.40                             134     0.0 7  120 255 
                                                                                
