 2013  616 0055 51.7 L   6.768 -73.188157.6  RSN  4 0.4 1.7LRSN                1
 GAP=196        0.83       5.6     8.4  8.1  0.2593E+02 -0.8510E+01 -0.9724E+01E
 Epicentro: VILLANUEVA - SANTANDER                                             3
 ACTION:UPD 14-01-08 09:54 OP:ep   STATUS:               ID:20130616005551 L   I
 OLDACT:DUP 13-06-16 08:21 OP:cam  STATUS:               ID:20130616004960d    3
 OLDACT:REG 13-06-16 07:17 OP:cam  STATUS:               ID:20130616004959     3
 2013-06-16-0049-59M.COL___261                                                 6
 STAT SP IPHASW D HRMM SECON CODA AMPLIT PERI AZIMU VELO AIN AR TRES W  DIS CAZ7
 BRR  HZ EP        056 14.23                             155    0.2110 69.0 303 
 BRR  HN ES        056 31.82                             155    0.3810 69.0 303 
 BRR  HZ I         056 37.44         6.3 0.48            152           69.0 303 
 RUS  HZ EP        056 16.72                             147    0.3010 97.5 173 
 RUS  HN ES        056 35.27                             147   -0.4410 97.5 173 
 RUS  HZ I         056 35.81         3.5 0.36            151           97.5 173 
 PTB  HZ EP        056 19.23                             136    0.03 9  142 260 
 PTB  HN ES   1    056 40.30                             136   -0.35 7  142 260 
 PTB  HZ I         056 46.01         5.9 0.40            135            142 260 
 SML  HZ EP   2    056 29.07                             120   -0.09 4  245 337 
 SML  HN ES   1    056 57.57                             120   -0.80 6  245 337 
 SML  HZ I         057  0.86         9.6 0.24            122            245 337 
                                                                                
