 2013  116 0935  5.8 L   6.330 -73.697 94.9  RSN  5 0.3 1.3LRSN                1
 GAP=160        0.68       5.9     3.9  9.5  0.1231E+02  0.8473E+01 -0.4926E+01E
 Epicentro: SANTA HELENA DEL OPON - SANTANDER                                  3
 ACTION:UPD 13-02-15 09:14 OP:ep   STATUS:               ID:20130116093505 L   I
 2013-01-16-0930-00M.COL___239                                                 6
 STAT SP IPHASW D HRMM SECON CODA AMPLIT PERI AZIMU VELO AIN AR TRES W  DIS CAZ7
 BAR2 SZ EP   1    935 21.68                             144    0.14 7 63.9  63 
 BAR2 SZ ES   1    935 33.61                             144   -0.21 7 63.9  63 
 BAR2 SZ I         935 36.26         7.8 0.20            146           63.9  63 
 RUS  HZ EP   1    935 23.56                             136    0.11 7 83.4 125 
 RUS  HN ES   1    935 37.50                             136    0.29 7 83.4 125 
 BRR  HZ EP   1    935 22.68                             135   -0.31 7 85.9 359 
 PTB  HZ EP   1    935 22.63                             134   -0.48 7 87.1 285 
 PTB  HN ES   1    935 36.55                             134   -0.07 7 87.1 285 
 PTB  HZ I         935 39.39         4.2 0.08            136           87.1 285 
 ZAR  HE ES   1    935 54.80                             113    0.68 7  182 315 
 ZAR  HZ I         935 58.72         2.7 0.46            114            182 315 
                                                                                
