 2014  616 0005 56.5 L   6.835 -73.158145.5  RSN 13 0.5 2.0LRSN                1
 GAP=192        0.99       3.2     5.4  6.8 -0.6026E+01  0.3674E+01 -0.1381E+01E
 Epicentro: LOS SANTOS - SANTANDER                                             3
 ACTION:UPD 14-07-01 22:54 OP:nd   STATUS:               ID:20140616000557dL   I
 OLDACT:UP  14-06-16 16:11 OP:mh   STATUS:               ID:20140616000011     3
 OLDACT:UP  14-06-16 16:11 OP:mh   STATUS:               ID:20140616000011     3
 OLDACT:UP  14-06-16 16:09 OP:mh   STATUS:               ID:20140616000011     3
 OLDACT:REG 14-06-16 11:50 OP:mh   STATUS:               ID:20140616000011     3
 2014-06-16-0000-11M.COL___259                                                 6
 STAT SP IPHASW D HRMM SECON CODA AMPLIT PERI AZIMU VELO AIN AR TRES W  DIS CAZ7
 BAR2 SZ EP        0 6 16.35                             169    0.1210 27.0 186 
 BAR2 SZ ES   1    0 6 30.96                             169   -0.62 7 27.0 186 
 BAR2 SZ I         0 6 32.83        16.0 0.18            166           27.0 186 
 BRR  HZ EP        0 6 18.03                             154    0.5310 68.2 296 
 BRR  HN ES        0 6 34.40                             154    0.5510 68.2 296 
 BRR  HZ I         0 6 39.14        20.3 0.20            150           68.2 296 
 PTB  HZ EP        0 6 22.97                             132   -0.47 9  147 257 
 PTB  HN ES        0 6 44.04                             132   -0.38 9  147 257 
 PTB  HZ I         0 6 46.62         9.8 0.20            130            147 257 
 OCA  HZ EP        0 6 24.29                             130   -0.18 9  156 353 
 OCA  HN ES   1    0 6 46.04                             130   -0.20 7  156 353 
 SPBC HN ES        0 6 47.96                             129    0.35 9  165 218 
 ZAR  HZ EP        0 6 29.14                             123    0.44 9  201 291 
 ZAR  HN ES   1    0 6 54.55                             123    0.78 6  201 291 
 ZAR  HZ I         0 7  2.26         9.4 0.06            122            201 291 
 NOR  HN ES        0 6 59.86                             118   -0.47 8  236 233 
 NOR  HZ I         0 7  4.43         6.2 0.33            118            236 233 
 SML  HZ EP        0 6 32.62                             118   -0.10 8  240 335 
 SML  HN ES        0 7  0.53                             118   -0.40 8  240 335 
 SML  HZ I         0 7  3.44        15.2 0.15            118            240 335 
 CHI  HN ES   1    0 7  4.46                             117    0.18 6  252 195 
 CHI  HZ I         0 7 11.75         2.4 0.12            117            252 195 
 HEL  HE ES        0 7  7.42                             115   -0.61 8  272 255 
 HEL  HZ I         0 7 14.48         4.2 0.41            114            272 255 
 GUY2CHZ EP   4    0 6 42.07                             112    1.80 0  302 234 
 GUY2CHE ES   4    0 7 12.88                             112   -1.49 0  302 234 
 GUY2CHZ I         0 7 22.93         3.1 0.31                           302 234 
 TOL  SN ES   1    0 7 23.61                             109    0.82 5  345 224 
 TOL  SZ I         0 7 31.63         7.4 0.30            109            345 224 
 PRA  HN ES        0 7 32.09                             106   -0.26 6  395 209 
 ORTC HN ES   4    0 7 35.12                             106    2.13 0  398 216 
                                                                                
