 2016  316 0402 59.4 L   6.792 -73.166143.0  RSN  5 0.5 1.1LRSN                1
 GAP=276        1.07       8.9     7.0  9.2  0.2662E+01  0.9586E+01  0.8661E+01E
 Epicentro: LOS SANTOS - SANTANDER                                             3
 ACTION:UPD 16-05-13 21:24 OP:cam  STATUS:               ID:20160316040259 L   I
 OLDACT:REG 16-03-16 14:13 OP:dnl  STATUS:               ID:20160316035751     3
 2016-03-16-0357-51M.COL___289                                                 6
 STAT SP IPHASW D HRMM SECON CODA AMPLIT PERI AZIMU VELO AIN AR TRES W  DIS CAZ7
 BAR2 EZ EP        4 3 18.84                             171    0.1310 22.2 185 
 BAR2 EZ ES        4 3 34.37                             171    0.6210 22.2 185 
 BAR2 EZ I         4 3 35.45         4.4 0.22            168           22.2 185 
 RUS  HZ EP        4 3 22.51                             144   -0.3610 99.9 175 
 RUS  HN ES        4 3 40.50                             144   -0.6410 99.9 175 
 PTB  HZ EP   3    4 3 25.23                             132   -0.73 2  145 259 
 PTB  HN ES        4 3 46.08                             132   -0.57 9  145 259 
 PTB  HZ I         4 3 49.48         1.3 0.23            131            145 259 
 SPBC HZ EP        4 3 27.98                             129    0.46 9  161 219 
 SPBC HN ES        4 3 49.74                             129    0.31 9  161 219 
 SPBC HZ I         4 3 51.36         1.7 0.14            128            161 219 
 CHI  HZ EP   2    4 3 37.17                             117    0.35 4  247 195 
 CHI  HN ES   2    4 4  6.57                             117    0.58 4  247 195 
 CHI  HZ I         4 4  9.34         0.8 0.42            117            247 195 
                                                                                
