 2017  316 0935 39.0 L   6.794 -73.184148.1  RSN  9 0.5 1.7LRSN                1
 GAP=132        1.10       4.1     4.6  7.1 -0.1063E+01  0.5742E+01  0.7328E+01E
 Epicentro: ZAPATOCA - SANTANDER                                               3
 ACTION:UPD 17-05-25 18:41 OP:jn   STATUS:               ID:20170316093539 L   I
 OLDACT:DUP 17-03-16 18:31 OP:cog  STATUS:               ID:20170316092739d    3
 2017-03-16-0928-00M.COL___379                                                 6
 STAT SP IPHASW D HRMM SECON CODA AMPLIT PERI AZIMU VELO AIN AR TRES W  DIS CAZ7
 BAR2 EZ EP        935 58.72                             171   -0.2010 22.3 180 
 BAR2 EZ ES        936 13.98                             171   -0.4510 22.3 180 
 BAR2 EZ I         936 14.80        11.0 0.22            172           22.3 180 
 BRR  HZ EP        936  0.55                             154    0.3110 67.8 301 
 BRR  HN ES        936 17.90                             154    1.1110 67.8 301 
 BRR  HZ I         936 18.18         6.4 0.12            154           67.8 301 
 PAM  EZ EP        936  1.66                             150   -0.0210 80.6  42 
 PAM  EE ES        936 19.10                             150   -0.2510 80.6  42 
 PAM  EZ I         936 20.85        13.3 0.52            152           80.6  42 
 RUS  HZ EP        936  2.85                             144   -0.1410  100 174 
 RUS  HE ES        936 21.61                             144   -0.0610  100 174 
 RUS  HZ I         936 22.57         9.5 0.30            146            100 174 
 PTB  HZ EP        936  6.05                             133    0.25 9  143 259 
 PTB  HN ES        936 26.37                             133   -0.31 9  143 259 
 PTB  HZ I         936 30.17         3.4 0.22            134            143 259 
 SPBC HN ES        936 29.66                             130    0.12 9  160 218 
 ZAR  HZ EP   4    936 12.58                             123    1.33 0  200 293 
 ZAR  HN ES        936 35.57                             123   -0.81 9  200 293 
 CHI  HZ EP        936 17.06                             118    0.39 8  247 194 
 CHI  HN ES        936 46.39                             118    0.36 8  247 194 
 ORTC HZ EP   3    936 33.34                             107    0.67 1  392 216 
 ORTC HN ES        937 13.86                             107   -0.66 6  392 216 
                                                                                
