 2013  716 0541 22.7 L   6.760 -73.125154.2  RSN  4 0.3 1.9LRSN                1
 GAP=285        0.60       5.3    10.1  7.1 -0.2440E+02 -0.7097E+00 -0.4538E+01E
 Epicentro: LOS SANTOS - SANTANDER                                             3
 ACTION:UPD 13-08-12 10:38 OP:ep   STATUS:               ID:20130716054122 L   I
 OLDACT:DUP 13-07-16 13:17 OP:mh   STATUS:               ID:20130716053844d    3
 OLDACT:REG 13-07-16 12:08 OP:mh   STATUS:               ID:20130716053843     3
 2013-07-16-0538-43M.COL___226                                                 6
 STAT SP IPHASW D HRMM SECON CODA AMPLIT PERI AZIMU VELO AIN AR TRES W  DIS CAZ7
 BRR  HN ES        542  2.54                             153    0.1610 75.4 301 
 BRR  HN I         542  3.83        12.9 0.24            138           75.4 301 
 PTB  HZ EP   1    541 50.45                             134   -0.03 7  149 261 
 PTB  HN ES        542 11.88                             134   -0.29 9  149 261 
 PTB  HN I         542 17.64         5.2 0.24            124            149 261 
 ZAR  HZ EP   1    541 56.38                             124    0.30 6  208 293 
 ZAR  HE ES   1    542 22.55                             124    0.42 6  208 293 
 ZAR  HE I         542 29.47         6.9 0.20            116            208 293 
 SML  HE ES        542 29.39                             119   -0.30 8  249 335 
 SML  HN I         542 32.57        10.4 0.10            114            249 335 
                                                                                
