 2013 1016 0241 37.5 L   6.799 -73.160144.4  RSN 16 0.5 2.4LRSN                1
 GAP= 64        1.03       3.0     3.0  5.2 -0.5709E+00  0.3830E+01  0.1499E+01E
 Epicentro: LOS SANTOS - SANTANDER                                             3
 ACTION:UPD 13-11-25 09:21 OP:ep   STATUS:               ID:20131016024137 L   I
 OLDACT:REG 13-10-16 08:01 OP:jn   STATUS:               ID:20131016023959     3
 2013-10-16-0239-59M.COL___274                                                 6
 STAT SP IPHASW D HRMM SECON CODA AMPLIT PERI AZIMU VELO AIN AR TRES W  DIS CAZ7
 BAR2 SZ EP     D  241 56.98                             171    0.0210 23.0 186 
 BAR2 SZ ES        242 11.89                             171   -0.2510 23.0 186 
 BAR2 SZ I         242 14.06        89.4 0.18            170           23.0 186 
 BRR  HZ EP     C  241 58.86                             153    0.4310 69.9 299 
 BRR  HN ES   1    242 15.87                             153    1.11 7 69.9 299 
 BRR  HZ I         242 19.09        35.2 0.12            152           69.9 299 
 PAM  SZ EP        241 59.73                             150    0.0910 78.5  40 
 PAM  SN ES   1    242 16.77                             150   -0.14 7 78.5  40 
 PAM  SZ I         242 19.48        26.5 0.58            155           78.5  40 
 RUS  HZ EP        242  0.91                             144   -0.2110  101 175 
 RUS  HN ES        242 19.56                             144    0.0210  101 175 
 RUS  HZ I         242 22.24        33.5 0.48            146            101 175 
 PTB  HZ EP        242  3.38                             132   -0.84 9  146 259 
 PTB  HN ES        242 24.58                             132   -0.48 9  146 259 
 PTB  HZ I         242 28.00        41.5 0.26            133            146 259 
 TAM  HZ EP        242  5.11                             130   -0.10 9  157 105 
 TAM  HN ES   1    242 26.51                             130   -0.31 7  157 105 
 OCA  HZ EP        242  5.38                             129   -0.33 9  160 354 
 OCA  HE ES   1    242 27.93                             129    0.23 7  160 354 
 OCA  HZ I         242 32.91        17.0 0.18            132            160 354 
 SPBC HZ EP        242  5.91                             129    0.11 9  162 219 
 SPBC HN ES        242 28.24                             129    0.38 9  162 219 
 SPBC HZ I         242 33.46        37.5 0.26            130            162 219 
 YOP  SE ES   1    242 31.67                             126    0.76 7  179 153 
 YOP  SZ I         242 32.99        29.0 0.22            129            179 153 
 ZAR  HZ EP   1    242  9.51                             122   -0.21 6  203 292 
 ZAR  HN ES        242 34.79                             122   -0.06 9  203 292 
 ZAR  HZ I         242 41.93        45.0 0.28            124            203 292 
 NOR  HZ EP        242 12.78                             118   -0.23 8  233 234 
 NOR  HN ES        242 40.32                             118   -0.39 8  233 234 
 NOR  HZ I         242 45.27        34.0 0.20            120            233 234 
 CHI  HZ EP        242 14.90                             117   -0.17 8  248 195 
 CHI  HN ES        242 43.95                             117   -0.42 8  248 195 
 CHI  HZ I         242 50.28        12.7 0.26            119            248 195 
 HEL  HZ EP        242 18.49                             115    1.01 8  271 256 
 HEL  HN ES   1    242 47.99                             115   -0.67 6  271 256 
 HEL  HZ I         242 55.29        16.4 0.30            116            271 256 
 GUY2CHZ EP        242 21.23                             112    0.33 7  300 235 
 GUY2CHZ I         243  2.83        15.9 0.52                           300 235 
 CBOC HZ EP        242 25.12                             110    0.93 7  332 252 
 CBOC HN ES   1    243  0.18                             110   -0.42 5  332 252 
 CBOC HZ I         243  7.49         5.5 0.38            111            332 252 
 ORTC HZ EP        242 30.95                             106   -0.31 6  394 216 
 ORTC HN ES        243 14.14                             106    0.96 6  394 216 
 ORTC HZ I         243 20.75        10.3 0.40            108            394 216 
                                                                                
