 2017  716 0758 14.6 L   6.776 -73.128142.7  RSN 10 0.5 1.7LRSN                1
 GAP=140        1.28       5.1     5.0  7.3 -0.3380E+01  0.1246E+02  0.3298E+01E
 Epicentro: LOS SANTOS - SANTANDER                                             3
 ACTION:UPD 17-08-30 15:33 OP:rebc STATUS:               ID:20170716075814 L   I
 OLDACT:REG 17-07-16 12:36 OP:dhb  STATUS:               ID:20170716075339     3
 2017-07-16-0758-00M.COL___369                                                 6
 STAT SP IPHASW D HRMM SECON CODA AMPLIT PERI AZIMU VELO AIN AR TRES W  DIS CAZ7
 BAR2 EZ IP     C  758 33.72                             171   -0.1510 21.2 196 
 BAR2 EZ ES        758 48.55                             171   -0.3110 21.2 196 
 BAR2 EZ I         758 50.46        14.0 0.49            170           21.2 196 
 BRR  HZ IP     C  758 35.61                             151   -0.0310 74.2 300 
 BRR  HN ES        758 52.65                             151    0.6310 74.2 300 
 BRR  HZ I         758 53.58        10.6 0.16            151           74.2 300 
 PAM  EZ IP     C  758 36.66                             150    0.0710 78.3  37 
 PAM  EE ES        758 53.80                             150    0.0910 78.3  37 
 PAM  EZ I         758 56.01         7.6 0.66            153           78.3  37 
 RUS  HZ EP        758 37.73                             144   -0.1710 97.8 177 
 RUS  HE ES        758 56.42                             144    0.3810 97.8 177 
 RUS  HZ I         758 57.18         4.5 0.24            146           97.8 177 
 PTB  HZ EP        758 40.74                             131   -0.76 9  149 260 
 PTB  HN ES        759  1.55                             131   -0.89 9  149 260 
 PTB  HZ I         759  4.67         5.2 0.20            132            149 260 
 SPBC HZ EP        758 42.32                             129   -0.51 9  162 220 
 SPBC HN ES        759  5.41                             129    0.59 9  162 220 
 SPBC HZ I         759  8.22         8.5 0.12            130            162 220 
 ZAR  HZ EP        758 47.73                             121    0.55 8  207 293 
 ZAR  HN ES        759 12.28                             121   -0.29 8  207 293 
 ZAR  HZ I         759 14.65         5.9 0.28            122            207 293 
 NOR  HZ IP     C  758 49.59                             118   -0.61 8  235 235 
 NOR  HN ES        759 17.70                             118   -0.24 8  235 235 
 NOR  HZ I         759 18.75         2.7 0.16            119            235 235 
 HEL  HZ EP   2    758 55.59                             114    0.75 4  273 256 
 HEL  HN ES        759 27.20                             114    1.01 8  273 256 
 HEL  HZ I         759 33.44         2.7 0.52            115            273 256 
 GUY2CHZ EP        758 59.19                             112    1.07 7  301 235 
 GUY2CHN ES   4    759 35.56                             112    3.53 0  301 235 
 GUY2CHZ I         759 38.61         1.9 0.28                           301 235 
                                                                                
