 2011  616 0347  6.7 L   6.777 -73.110147.4  RSN 15 0.4 2.7LRSN                1
 GAP=142        0.79       3.1     5.1  4.9 -0.7307E+01  0.3568E+01  0.3738E+01E
 Epicentro: LOS SANTOS - SANTANDER                                             3
 ACTION:UP  11-07-14 19:05 OP:ep   STATUS:               ID:20110616034706 L   I
 2011-06-16-0346-01S.COL___138                                                 6
 STAT SP IPHASW D HRMM SECON CODA AMPLIT PERI AZIMU VELO SNR AR TRES W  DIS CAZ7
 BAR2 SZ IP        347 26.42                             171    -0.110   22 201 
 BAR2 SZ I         347 26.99        97.9 0.40                            22 201 
 BAR2 SZ ES   1    347 41.68                             171    -0.3 7   22 201 
 BTL  SZ IP        347 27.30                             170     0.810   23 312 
 BTL  SZ ES   2    347 42.00                             170     0.0 5   23 312 
 BRR  HZ IP     C  347 28.29                             151     0.010   76 299 
 BRR  HZ I         347 28.57        98.5 0.18                            76 299 
 BRR  HE ES   1    347 45.68                             151     0.6 7   76 299 
 PAM  SZ EP   1    347 29.17                             151     0.1 7   77  36 
 PAM  SE ES   1    347 46.57                             151     0.1 7   77  36 
 RUS  HZ IP        347 30.21                             145    -0.210   98 178 
 RUS  HN ES   2    347 49.03                             145     0.1 5   98 178 
 RUS  HZ I         347 51.76        59.4 0.55                            98 178 
 BRI  SZ IP        347 30.96                             141     0.110  110  18 
 BRI  SZ ES   2    347 49.05                             141    -0.6 5  110  18 
 BRI  SZ I         347 52.76        59.0 0.26                           110  18 
 GRA  SZ IP        347 32.21                             137     0.010  127  15 
 GRA  SZ ES   1    347 51.63                             137    -0.5 7  127  15 
 GRA  SZ I         347 52.94        88.4 0.29                           127  15 
 OCA  SZ EP   1    347 35.18                             129    -0.2 7  163 352 
 OCA  SZ ES   2    347 57.04                             129    -0.8 5  163 352 
 OCA  SZ I         348  1.72        71.6 0.21                           163 352 
 NOR  SZ EP   1    347 42.28                             119    -0.4 6  236 236 
 NOR  SN ES   1    348 10.08                             119    -0.7 6  236 236 
 CHI  HZ EP   1    347 44.31                             118     0.0 6  247 196 
 CHI  HZ I         347 46.50        24.7 0.13                           247 196 
 CHI  HN ES   1    348 13.85                             118     0.2 6  247 196 
 VIL  SZ EP        347 49.77                             112    -0.2 7  302 192 
 VIL  SN ES   2    348 23.78                             112     0.0 4  302 192 
 VIL  SZ I         348 26.48        14.5 0.43                           302 192 
 GUY  SZ EP   1    347 51.29                             112     0.4 5  305 236 
 GUY  SN ES   2    348 24.93                             112    -0.3 4  305 236 
 GUY  SZ I         348 32.09        48.8 0.38                           305 236 
 DBB  SZ EP   1    347 54.76                             109     0.1 5  344 275 
 TOL  SZ EP   1    347 55.78                             109     0.7 5  344 225 
 PRA  HZ EP   1    348  0.06                             107    -0.2 4  392 210 
 PRA  HN ES   2    348 41.78                             107    -0.2 3  392 210 
                                                                                
