 2016  516 0247 33.4 L   6.818 -73.151142.9  RSN 12 0.5 1.8LRSN                1
 GAP=183        1.11       3.3     4.7  6.1  0.1603E+00  0.8810E+01  0.2137E+01E
 Epicentro: LOS SANTOS - SANTANDER                                             3
 ACTION:UPD 16-08-18 17:46 OP:cam  STATUS:               ID:20160516024733 L   I
 OLDACT:UP  16-05-16 18:28 OP:mh   STATUS:               ID:20160516023748d    3
 OLDACT:UP  16-05-16 18:27 OP:mh   STATUS:               ID:20160516023748d    3
 OLDACT:UP  16-05-16 18:25 OP:mh   STATUS:               ID:20160516023748d    3
 OLDACT:DUP 16-05-16 18:17 OP:mh   STATUS:               ID:20160516023748d    3
 OLDACT:UP  16-05-16 18:15 OP:mh   STATUS:               ID:20160516023747d    3
 OLDACT:UP  16-05-16 18:09 OP:mh   STATUS:               ID:20160516023747d    3
 OLDACT:DUP 16-05-16 18:07 OP:mh   STATUS:               ID:20160516023747d    3
 2016-05-16-0237-46M.COL___283                                                 6
 STAT SP IPHASW D HRMM SECON CODA AMPLIT PERI AZIMU VELO AIN AR TRES W  DIS CAZ7
 BAR2 EZ EP        247 52.68                             169   -0.0210 25.2 188 
 BAR2 EZ ES        248  7.50                             169   -0.2710 25.2 188 
 BAR2 EZ I         248  8.72        21.5 0.13            169           25.2 188 
 BRR  HZ EP        247 54.06                             152   -0.0710 69.7 297 
 BRR  HN ES        248 10.83                             152    0.5110 69.7 297 
 BRR  HZ I         248 14.58        13.6 0.29            147           69.7 297 
 RUS  HZ EP        247 57.26                             143    0.2710  103 176 
 RUS  HN ES        248 15.98                             143    0.5610  103 176 
 RUS  HZ I         248 16.27         7.7 0.36            143            103 176 
 PTB  HZ EP        247 59.40                             131   -0.69 9  148 258 
 PTB  HN ES        248 20.30                             131   -0.63 9  148 258 
 PTB  HZ I         248 26.76         5.7 0.17            128            148 258 
 OCA  HZ EP   1    248  1.62                             129    0.35 7  158 353 
 OCA  HN ES        248 22.27                             129   -0.75 9  158 353 
 OCA  HZ I         248 24.73         6.1 0.23            127            158 353 
 SPBC HZ EP        248  1.88                             128    0.11 9  164 218 
 SPBC HN ES        248 23.77                             128   -0.14 9  164 218 
 SPBC HZ I         248 29.43        12.2 0.42            126            164 218 
 ZAR  HZ EP        248  5.54                             122    0.04 9  203 292 
 ZAR  HZ I         248 26.62        12.2 0.24            119            203 292 
 ZAR  HN ES        248 31.46                             122    0.91 9  203 292 
 NOR  HZ EP        248  8.50                             118   -0.51 8  235 234 
 NOR  HN ES        248 36.53                             118   -0.28 8  235 234 
 NOR  HZ I         248 38.42         5.2 0.26            116            235 234 
 CHI  HN ES        248 40.17                             116   -0.37 8  250 195 
 HEL  HZ EP        248 14.08                             114    0.65 8  272 255 
 HEL  HN ES        248 45.30                             114    0.62 8  272 255 
 HEL  HZ I         248 51.72         4.7 0.28            112            272 255 
 CBOC HZ EP        248 20.70                             109    0.52 7  334 252 
 CBOC HN ES     C  248 56.05                             109   -0.63 7  334 252 
 CBOC HZ I         248 59.91         1.1 0.12            108            334 252 
 PRA  HZ EP   1    248 27.30                             106    0.33 4  393 209 
 PRA  HN ES        249  8.70                             106   -0.07 6  393 209 
 PRA  HZ I         249 12.16         1.7 0.34            105            393 209 
                                                                                
