 2014 1216 0646 43.3 L   6.569 -73.654103.5  RSN  5 0.2 0.7LRSN                1
 GAP=128        0.46       2.7     2.3  4.3  0.2623E+01  0.3267E+01  0.2294E+01E
 Epicentro: EL CARMEN - SANTANDER                                              3
 ACTION:UPD 15-02-10 17:04 OP:nd   STATUS:               ID:20141216064643 L   I
 OLDACT:DUP 14-12-16 16:40 OP:spq  STATUS:               ID:20141216063745d    3
 2014-12-16-0637-44M.COL___287                                                 6
 STAT SP IPHASW D HRMM SECON CODA AMPLIT PERI AZIMU VELO AIN AR TRES W  DIS CAZ7
 BAR2 EZ ES   1    647 11.64                             151    0.11 7 52.2  87 
 BRR  HZ EP        646 58.94                             147   -0.3410 59.8 354 
 BRR  HE ES        647 11.83                             147    0.0710 59.8 354 
 BRR  HZ I         647 14.06         1.8 0.42            149           59.8 354 
 PTB  HZ EP        647  1.60                             136    0.1010 88.8 268 
 PTB  HN ES        647 15.58                             136   -0.1210 88.8 268 
 PTB  HZ I         647 16.09         1.2 0.14            138           88.8 268 
 RUS  HZ EP   1    647  2.97                             133    0.02 7 97.9 140 
 RUS  HE ES   1    647 18.34                             133    0.06 7 97.9 140 
 RUS  HZ I         647 23.29         0.8 0.72            133           97.9 140 
 ZAR  HZ EP   1    647  9.51                             116    0.18 7  168 308 
 ZAR  HN ES   1    647 29.88                             116    0.23 7  168 308 
 ZAR  HZ I         647 32.98         1.3 0.22            118            168 308 
                                                                                
