 2010  616 0334 27.9 L   6.765 -73.099147.0  RSN  6 0.3 1.5LRSN                1
 GAP=170        0.65       5.0    10.6  6.6  0.2065E+02 -0.2080E+02 -0.5306E+01E
 Epicentro: LOS SANTOS - SANTANDER                                             3
 ACTION:UP  10-08-24 10:10 OP:vdl  STATUS:               ID:20100616033427 L   I
 2010-06-16-0333-34S.COL___114                                                 6
 STAT SP IPHASW D HRMM SECON CODA AMPLIT PERI AZIMU VELO SNR AR TRES W  DIS CAZ7
 BAR2 SZ EP   2    334 47.32                             171    -0.4 5   21 206 
 BAR2 SZ ES   1    335  2.77                             171    -0.3 7   21 206 
 GIR2 SZ EP   2    334 47.88                             165     0.0 5   36 343 
 BRR  HZ EP   1    334 49.11                             151    -0.5 7   78 299 
 BRR  HZ I         334 49.45        11.6 0.14                            78 299 
 BRR  HN ES   1    335  6.84                             151     0.4 7   78 299 
 RUS  HZ EP   1    334 51.62                             145     0.1 7   96 179 
 RUS  HN ES   1    335 10.11                             145     0.2 7   96 179 
 RUS  HZ I         335 10.72         5.1 0.44                            96 179 
 GUE  SZ EP   1    334 53.29                             139     0.3 7  119   9 
 CHI  HZ EP   1    335  5.54                             118     0.1 6  246 197 
 CHI  HZ I         335  5.82         1.4 0.12                           246 197 
                                                                                
