 2014 1216 0748 16.2 L   6.812 -73.140149.3  RSN 21 0.4 2.1LRSN                1
 GAP= 71        0.93       2.7     2.8  4.8 -0.8051E+00  0.2726E+01  0.1822E+01E
 Epicentro: LOS SANTOS - SANTANDER                                             3
 ACTION:UPD 15-02-10 17:04 OP:nd   STATUS:               ID:20141216074816 L   I
 OLDACT:UP  14-12-16 15:29 OP:spq  STATUS:               ID:20141216074745     3
 OLDACT:REG 14-12-16 13:17 OP:spq  STATUS:               ID:20141216074745     3
 2014-12-16-0747-45M.COL___287                                                 6
 STAT SP IPHASW D HRMM SECON CODA AMPLIT PERI AZIMU VELO AIN AR TRES W  DIS CAZ7
 BAR2 EZ EP        748 36.25                             170   -0.0410 24.8 191 
 BAR2 EZ ES   1    748 51.33                             170   -0.63 7 24.8 191 
 BAR2 EZ I         748 52.82        21.3 0.18            168           24.8 191 
 BRR  HZ EP     D  748 38.13                             153    0.3910 71.1 297 
 BRR  HN ES        748 55.54                             153    1.0110 71.1 297 
 BRR  HZ I         748 58.58        17.8 0.32            152           71.1 297 
 PAM  SZ EP     D  748 39.03                             152    0.3110 75.9  40 
 PAM  SE ES        748 56.28                             152    0.0110 75.9  40 
 PAM  SZ I         748 58.45        33.2 0.54            156           75.9  40 
 RUS  HZ EP        748 40.25                             144   -0.1510  102 176 
 RUS  HN ES        748 59.03                             144   -0.2410  102 176 
 RUS  HZ I         749  1.75        14.5 0.38            144            102 176 
 PTB  HZ EP        748 43.03                             133   -0.52 9  149 258 
 PTB  HN ES        749  4.29                             133   -0.58 9  149 258 
 PTB  HZ I         749  6.59        18.9 0.16            132            149 258 
 TAM  HZ EP        748 44.43                             131    0.29 9  155 106 
 TAM  HN ES   1    749  6.04                             131    0.11 7  155 106 
 TAM  HZ I         749  6.86         5.8 0.52            134            155 106 
 OCA  HZ EP   1    748 43.84                             131   -0.84 7  159 353 
 OCA  HN ES   1    749  6.39                             131   -0.49 7  159 353 
 OCA  HZ I         749 11.96        19.3 0.18            133            159 353 
 SPBC HZ EP        748 45.33                             130    0.21 9  165 219 
 SPBC HN ES        749  7.61                             130   -0.06 9  165 219 
 SPBC HZ I         749 14.45        26.3 0.22            130            165 219 
 ZAR  HZ EP        748 48.86                             123   -0.04 9  204 292 
 ZAR  HE ES        749 14.23                             123   -0.16 9  204 292 
 ZAR  HZ I         749 21.20        12.9 0.26            124            204 292 
 NOR  HZ EP        748 52.12                             119   -0.17 8  236 234 
 NOR  HN ES        749 20.28                             119   -0.14 8  236 234 
 NOR  HZ I         749 24.01        11.4 0.26            119            236 234 
 SML  HZ EP   1    748 52.76                             118   -0.17 6  243 335 
 SML  HE ES   1    749 21.48                             118   -0.09 6  243 335 
 CHI  HZ EP        748 54.42                             118    0.16 8  250 195 
 CHI  HN ES   1    749 23.50                             118   -0.45 6  250 195 
 CHI  HZ I         749 29.22         5.5 0.26            118            250 195 
 ROSC BZ EP   4    748 56.72                             117    2.03 0  254 211 
 ROSC BN ES   4    749 28.22                             117    3.52 0  254 211 
 ROSC BZ I         749 31.09        10.4 0.30            118            254 211 
 HEL  HZ EP   1    748 56.58                             115   -0.13 6  273 256 
 HEL  HE ES        749 29.05                             115    0.75 8  273 256 
 HEL  HZ I         749 34.58         7.0 0.30            116            273 256 
 PTGC HZ EP   4    748 59.16                             112   -1.18 0  310 159 
 PTGC HE ES   4    749 32.39                             112   -2.37 0  310 159 
 PTGC HZ I         749 37.54         4.9 0.24            113            310 159 
 CBOC HZ EP   4    749  5.01                             110    1.62 0  335 252 
 CBOC HN ES   1    749 39.55                             110   -0.64 5  335 252 
 CBOC HZ I         749 46.41         2.7 0.66            111            335 252 
 TOL  SZ EP        749  5.08                             110    0.31 7  345 225 
 TOL  SN ES   1    749 43.54                             110    0.89 5  345 225 
 TOL  SZ I         749 49.14        10.6 0.26            111            345 225 
 MON  HZ EP   4    749  3.22                             109   -2.09 0  353 308 
 MON  HN ES   4    749 41.46                             109   -2.15 0  353 308 
 MON  HZ I         749 44.30         2.1 0.22            110            353 308 
 ORTC HZ EP   1    749 10.90                             107    0.48 4  397 216 
 ORTC HN ES   1    749 52.94                             107    0.23 4  397 216 
 ORTC HZ I         750  0.14         4.0 0.30            108            397 216 
 SJC  HZ EP   4    749  9.98                             106   -1.82 0  408 327 
 SJC  HE ES   4    749 51.43                             106   -3.72 0  408 327 
 SJC  HZ I         749 55.99         3.3 0.36            107            408 327 
 URI  HZ EP   4    749 26.53                             101   -2.59 0  555  13 
 URI  HN ES   4    750 23.83                             101   -2.16 0  555  13 
 URI  HZ I         750 28.61         0.9 0.54            102            555  13 
                                                                                
