 2012  116 0309 52.8 L   6.782 -73.442116.5  RSN  4 0.2 1.4LRSN                1
 GAP=166        0.51       4.9     4.8  6.0  0.1292E+02  0.8957E+01  0.7388E+01E
 Epicentro: EL CARMEN DE CHUCURI - SANTANDER                                   3
 ACTION:UP  12-02-03 08:17 OP:REBC STATUS:               ID:20120116030952 L   I
 2012-01-16-0304-38S.COL___160                                                 6
 STAT SP IPHASW D HRMM SECON CODA AMPLIT PERI AZIMU VELO SNR AR TRES W  DIS CAZ7
 BAR2 SZ EP        310  9.26                             162     0.010   36 126 
 BAR2 SZ ES   1    310 21.79                             162    -0.4 7   36 126 
 BAR2 SZ I         310 23.31        11.7 0.34                            36 126 
 BRR  HZ EP   1    310  9.47                             157     0.1 7   47 320 
 BRR  HN ES   1    310 22.62                             157     0.2 7   47 320 
 BRR  HZ I         310 30.44         3.9 0.40                            47 320 
 RUS  HZ EP   2    310 14.50                             135     0.3 5  106 158 
 RUS  HN ES   1    310 31.18                             135     0.2 7  106 158 
 PTB  HZ EP   1    310 14.14                             132    -0.3 7  115 257 
 PTB  HN ES   2    310 31.32                             132     0.0 5  115 257 
                                                                                
