 2010  516 0910  8.1 L   6.784 -73.009152.1  RSN  7 0.5 2.2LRSN                1
 GAP=180        0.89       4.0     9.5  7.2 -0.2865E+01 -0.5327E+01 -0.1634E+01E
 Epicentro: CEPITA - SANTANDER                                                 3
 ACTION:UP  10-08-24 10:05 OP:vdl  STATUS:               ID:20100516091008 L   I
 2010-05-16-0908-45S.COL___108                                                 6
 STAT SP IPHASW D HRMM SECON CODA AMPLIT PERI AZIMU VELO AIN AR TRES W  DIS CAZ7
 BAR2 SZ IP        910 28.53                             169    -0.110   29 222 
 BAR2 SZ ES   1    910 44.15                             169    -0.5 7   29 222 
 BRR  HZ EP        910 31.19                             149     0.410   86 295 
 BRR  HZ I         910 31.51        38.4 0.14                            86 295 
 BRR  HN ES   1    910 48.86                             149     0.4 7   86 295 
 RUS  HZ EP        910 32.39                             145     0.010   99 185 
 RUS  HN ES   1    910 51.45                             145     0.1 7   99 185 
 RUS  HZ I         910 52.18         9.8 0.27                            99 185 
 GUE  SZ EP        910 33.64                             140     0.210  116   5 
 OCA  SZ EP        910 37.26                             130    -0.1 9  165 348 
 OCA  SZ ES   1    910 59.32                             130    -0.8 7  165 348 
 RREF BZ EP   2    910 55.86                             111     0.1 3  332 231 
 RREF BN ES   2    911 32.47                             111    -0.4 3  332 231 
 RREF BZ I         911 40.86        10.2 0.63                           332 231 
 PRA  HZ EP        911  2.78                             107     0.2 6  398 212 
 PRA  HE ES   2    911 43.18                             107    -1.9 3  398 212 
 PRA  HZ I         911 49.90         5.7 0.34                           398 212 
                                                                                
