 2013  216 0812 56.7 L   6.795 -73.182157.2  RSN  4 0.2 1.3LRSN                1
 GAP=241        0.63       6.8     5.0  5.8  0.2034E+02  0.4866E+00 -0.1370E+02E
 Epicentro: LOS SANTOS - SANTANDER                                             3
 ACTION:UPD 13-03-12 09:33 OP:ep   STATUS:               ID:20130216081256 L   I
 2013-02-16-0810-00M.COL___241                                                 6
 STAT SP IPHASW D HRMM SECON CODA AMPLIT PERI AZIMU VELO AIN AR TRES W  DIS CAZ7
 BAR2 SZ EP        813 17.30                             172   -0.3710 22.5 180 
 BAR2 SZ ES        813 34.17                             172    0.1310 22.5 180 
 BAR2 SZ I         813 34.78         6.0 0.50            168           22.5 180 
 RUS  HZ I         813 21.47         1.0 0.40            160            100 174 
 RUS  HZ EP        813 21.47                             146   -0.0910  100 174 
 RUS  HN ES        813 41.12                             146    0.1610  100 174 
 RUS  HN I         813 41.40         1.8 0.18            160            100 174 
 PTB  HZ EP        813 24.25                             135    0.01 9  144 259 
 PTB  HN ES        813 45.62                             135   -0.13 9  144 259 
 ZAR  HZ EP        813 30.04                             125    0.50 9  201 293 
 ZAR  HN ES   1    813 54.93                             125   -0.24 6  201 293 
 ZAR  HN I         813 59.43         4.2 0.46            121            201 293 
                                                                                
