 2011  316 0304 34.6 L   6.768 -73.089149.5  RSN 13 0.4 2.5LRSN                1
 GAP=106        0.67       3.0     4.4  3.9 -0.6721E+01  0.8294E+00  0.1302E+01E
 Epicentro: LOS SANTOS - SANTANDER                                             3
 ACTION:UP  11-06-16 14:33 OP:jfem STATUS:               ID:20110316030435 L   I
 2011-03-16-0304-16S.COL___138                                                 6
 STAT SP IPHASW D HRMM SECON CODA AMPLIT PERI AZIMU VELO SNR AR TRES W  DIS CAZ7
 BAR2 SZ EP   1    3 4 54.68                             171     0.012   22 208 
 BAR2 SZ ES   1    3 5  9.86                             171    -0.512   22 208 
 BAR2 SZ I         3 5 12.23        53.7 0.36                            22 208 
 BTL  SZ EP   1    3 4 54.92                             170     0.112   26 310 
 BTL  SZ ES   1    3 5 10.74                             170     0.312   26 310 
 GIR2 SZ EP   1    3 4 54.85                             166     0.012   36 341 
 GIR2 SZ ES   1    3 5 10.67                             166     0.012   36 341 
 RUS  HZ EP   1    3 4 58.69                             146     0.212   97 180 
 RUS  HN ES   1    3 5 16.90                             146    -0.212   97 180 
 RUS  HZ I         3 5 17.79        28.2 0.30                            97 180 
 GRA  SZ EP   1    3 5  0.60                             137     0.211  127  14 
 GRA  SZ ES   1    3 5 20.76                             137     0.311  127  14 
 GRA  SZ I         3 5 21.71        50.6 0.42                           127  14 
 OCA  SZ EP   1    3 5  3.33                             129    -0.311  165 351 
 OCA  SZ I         3 5 28.70        30.5 0.26                           165 351 
 YOP  SZ EP   2    3 5  4.44                             128     0.0 7  173 155 
 YOP  SE ES   3    3 5 28.15                             128     0.6 4  173 155 
 NOR  SZ EP   1    3 5 11.30                             119     0.410  238 236 
 NOR  SE ES   1    3 5 38.85                             119    -0.410  238 236 
 CHI  HZ EP   1    3 5 12.63                             118     0.3 9  247 197 
 CHI  HN ES   1    3 5 42.18                             118     0.4 9  247 197 
 CHI  HZ I         3 5 48.20        17.2 0.33                           247 197 
 HEL  HZ EP   1    3 5 16.19                             115     0.6 9  277 257 
 HEL  HN ES   2    3 5 47.06                             115    -0.5 6  277 257 
 HEL  HZ I         3 5 53.21        16.7 0.38                           277 257 
 GUY  SZ EP   3    3 5 18.87                             113     0.1 3  305 236 
 GUY  SN ES   2    3 5 52.41                             113    -0.8 6  305 236 
 GUY  SZ I         3 6  2.11        27.3 0.34                           305 236 
 SDV  BZ EP        3 5 24.37                             109    -0.210  358  49 
 SDV  BE ES   2    3 6  1.82                             109    -1.6 5  358  49 
 PRA  HZ EP        3 5 28.31                             107     0.0 9  392 211 
 PRA  HN ES   2    3 6  9.44                             107    -0.7 5  392 211 
                                                                                
