 2011  716 0848 54.8 L   6.791 -73.047143.4  RSN  4 0.2 1.1LRSN                1
 GAP=209        0.55       5.7    11.0  5.9  0.3981E+02  0.3761E+01  0.8050E+01E
 Epicentro: LOS SANTOS - SANTANDER                                             3
 ACTION:UPD 12-07-25 14:01 OP:epov STATUS:               ID:20110716084854 L   I
 2011-07-16-0846-32S.COL___132                                                 6
 STAT SP IPHASW D HRMM SECON CODA AMPLIT PERI AZIMU VELO AIN AR TRES W  DIS CAZ7
 BAR2 SZ EP   1    849 14.06                             169   -0.15 7 26.6 214 
 BAR2 SZ I         849 14.81         2.9 0.38                          26.6 214 
 BAR2 SZ ES   1    849 28.84                             169   -0.51 7 26.6 214 
 GIR2 SZ ES        849 29.71                             165    0.1810 35.7 333 
 BRR  HZ EP   1    849 16.16                             149   -0.13 7 81.3 295 
 BRR  HZ I         849 18.81         2.0 0.14                          81.3 295 
 BRR  HN ES   1    849 33.18                             149    0.11 7 81.3 295 
 RUS  HZ EP   1    849 18.38                             144    0.15 7 99.4 182 
 RUS  HZ I         849 36.58         2.2 0.58                          99.4 182 
 RUS  HN ES   1    849 36.70                             144    0.20 7 99.4 182 
                                                                                
