 2013 1216 0100 12.7 L   6.856 -73.293124.6  RSN  8 0.5 1.6LRSN                1
 GAP=158        1.25       4.1     6.7  9.7  0.6735E+01  0.2170E+02 -0.2077E+00E
 Epicentro: ZAPATOCA - SANTANDER                                               3
 ACTION:UPD 14-01-13 10:18 OP:ep   STATUS:               ID:20131216010012 L   I
 OLDACT:REG 13-12-16 06:25 OP:jn   STATUS:               ID:20131216010000     3
 2013-12-16-0100-00M.COL___285                                                 6
 STAT SP IPHASW D HRMM SECON CODA AMPLIT PERI AZIMU VELO AIN AR TRES W  DIS CAZ7
 BAR2 SZ EP        1 0 30.52                             165    0.5010 31.6 157 
 BAR2 SZ ES        1 0 43.11                             165   -0.4210 31.6 157 
 BAR2 SZ I         1 0 45.00        39.7 0.18            164           31.6 157 
 BRR  HZ EP        1 0 30.86                             155    0.2510 54.0 301 
 BRR  HN ES        1 0 44.98                             155    0.4110 54.0 301 
 BRR  HZ I         1 0 45.92         7.4 0.36            153           54.0 301 
 RUS  HZ EP        1 0 35.63                             136    0.5010  109 168 
 RUS  HN ES        1 0 52.59                             136   -0.0410  109 168 
 RUS  HZ I         1 0 54.00         4.2 0.24            136            109 168 
 PTB  HZ EP        1 0 35.77                             130   -0.8810  133 255 
 PTB  HN ES   4    1 0 53.00                             130   -2.32 0  133 255 
 PTB  HZ I         1 0 58.56         5.4 0.36            128            133 255 
 OCA  HN ES        1 0 58.26                             126   -0.76 9  153 359 
 OCA  HZ I         1 0 59.73         7.7 0.54            128            153 359 
 ZAR  HN ES        1 1  5.29                             120    0.45 9  187 292 
 NOR  HN ES        1 1 12.07                             115   -0.39 8  226 231 
 NOR  HZ I         1 1 19.79         2.4 0.26            114            226 231 
 SML  HE ES        1 1 13.81                             114    0.28 8  232 338 
                                                                                
