 2010 1216 0542 48.4 L   6.841 -73.116147.5  RSN 12 0.5 2.4LRSN                1
 GAP=163        0.97       5.4     6.0  7.8 -0.5279E+01  0.1697E+02 -0.4448E+01E
 Epicentro: LOS SANTOS - SANTANDER                                             3
 ACTION:UP  11-01-14 15:25 OP:pat  STATUS:               ID:20101216054248 L   I
 2010-12-16-0541-29S.COL___134                                                 6
 STAT SP IPHASW D HRMM SECON CODA AMPLIT PERI AZIMU VELO SNR AR TRES W  DIS CAZ7
 BAR2 SZ EP        543  8.52                             169     0.110   29 195 
 BAR2 SZ ES   1    543 24.08                             169     0.1 7   29 195 
 BAR2 SZ I         543 26.56        52.1 0.28                            29 195 
 RUS  HZ EP   1    543 12.31                             143    -0.4 7  105 178 
 RUS  HN ES   1    543 31.08                             143    -0.5 7  105 178 
 RUS  HZ I         543 34.62        18.4 0.16                           105 178 
 OCA  SZ EP   1    543 17.04                             131     0.5 7  156 352 
 YOP  SZ EP        543 18.96                             126     0.1 9  182 155 
 YOP  SZ I         543 45.79        13.4 0.28                           182 155 
 NOR  SZ EP   1    543 24.25                             118    -0.6 6  240 234 
 NOR  SN ES   1    543 52.68                             118    -0.6 6  240 234 
 CHI  HZ EP   1    543 26.46                             117    -0.3 6  254 196 
 CHI  HN ES   1    543 57.43                             117     0.7 6  254 196 
 CHI  HZ I         544  3.66        13.3 0.22                           254 196 
 ROSC BN ES   1    543 57.94                             116     0.4 6  258 211 
 ROSC BZ I         544  6.28        36.5 0.36                           258 211 
 HEL  HZ EP   1    543 29.83                             115     0.6 6  276 255 
 HEL  HN ES   1    544  0.94                             115    -0.1 6  276 255 
 HEL  HZ I         544 12.84        13.4 0.36                           276 255 
 RREF HZ EP   1    543 35.69                             111     0.4 5  327 229 
 RREF HN ES   1    544 12.77                             111     1.0 5  327 229 
 RREF HZ I         544 20.75        24.1 0.16                           327 229 
 DBB  SZ EP        543 35.54                             110    -0.8 7  342 273 
 TOL  SZ EP   1    543 37.94                             109     0.5 5  349 225 
 PRA  HZ EP   1    543 41.99                             106    -0.7 4  398 210 
 PRA  HN ES   1    544 24.67                             106    -0.3 4  398 210 
                                                                                
