 2017  616 0256 34.1 L   5.977 -73.670115.7  RSN  5 0.4 1.6LRSN                1
 GAP=233        1.08       5.3     6.9  8.8 -0.7270E+01  0.4622E+01 -0.1238E+02E
 Epicentro: VELEZ - SANTANDER                                                  3
 ACTION:UPD 17-09-14 16:52 OP:jn   STATUS:               ID:20170616025634 L   I
 OLDACT:REG 17-06-16 13:04 OP:ar   STATUS:               ID:20170616024747     3
 2017-06-16-0248-00M.COL___350                                                 6
 STAT SP IPHASW D HRMM SECON CODA AMPLIT PERI AZIMU VELO AIN AR TRES W  DIS CAZ7
 SPBC HZ EP        256 51.28                             152   -0.0910 57.2 231 
 SPBC HN ES        257  4.73                             152   -0.0810 57.2 231 
 SPBC HZ I         257  7.09        13.1 0.22            153           57.2 231 
 PTB  HZ EP        256 54.48                             134   -0.4710  107 306 
 PTB  HN ES        257 10.86                             134   -0.3410  107 306 
 PTB  HZ I         257 12.91         5.4 0.14            134            107 306 
 BRR  HZ EP        256 56.91                             129    0.3310  125 358 
 BRR  HN ES        257 14.63                             129    0.5310  125 358 
 BRR  HZ I         257 17.55         8.3 0.16            131            125 358 
 HEL  HZ EP        257  6.16                             115    0.55 8  207 277 
 HEL  HN ES        257 30.85                             115    0.68 8  207 277 
 HEL  HZ I         257 33.77         4.1 0.50            116            207 277 
 ZAR  HZ EP        257  5.16                             114   -0.64 8  213 322 
 ZAR  HN ES        257 30.13                             114   -0.37 8  213 322 
 ZAR  HZ I         257 34.06         4.6 0.32            115            213 322 
                                                                                
