 2017  916 0652 31.1 L   5.858 -73.643129.4  RSN 12 0.4 1.6LRSN                1
 GAP= 74        0.79       2.7     2.3  5.2  0.1263E+00  0.1706E+01 -0.1192E+01E
 Epicentro: PUENTE NACIONAL - SANTANDER                                        3
 ACTION:UPD 17-10-05 19:13 OP:rebc STATUS:               ID:20170916065231 L   I
 OLDACT:UP  17-09-16 20:00 OP:mg   STATUS:               ID:20170916064741d    3
 OLDACT:UP  17-09-16 19:59 OP:mg   STATUS:               ID:20170916064741d    3
 OLDACT:UP  17-09-16 19:59 OP:mg   STATUS:               ID:20170916064741d    3
 OLDACT:UP  17-09-16 19:59 OP:mg   STATUS:               ID:20170916064741d    3
 OLDACT:UP  17-09-16 19:58 OP:mg   STATUS:               ID:20170916064741d    3
 OLDACT:UP  17-09-16 19:56 OP:mg   STATUS:               ID:20170916064741d    3
 OLDACT:DUP 17-09-16 19:47 OP:mg   STATUS:               ID:20170916064741d    3
 OLDACT:UP  17-09-16 19:46 OP:mg   STATUS:               ID:20170916064740     3
 OLDACT:REG 17-09-16 17:04 OP:mg   STATUS:               ID:20170916064740     3
 2017-09-16-0648-00M.COL___438                                                 6
 STAT SP IPHASW D HRMM SECON CODA AMPLIT PERI AZIMU VELO AIN AR TRES W  DIS CAZ7
 SPBC HZ IP     D  652 49.34                             157   -0.3110 52.7 244 
 SPBC HN ES        653  4.46                             157    0.3810 52.7 244 
 SPBC HZ I         653  5.19        12.0 0.28            156           52.7 244 
 RUS  HZ EP        652 50.55                             153   -0.1710 62.1  86 
 RUS  HN ES        653  5.65                             153   -0.3410 62.1  86 
 RUS  HZ I         653  8.39         9.8 0.32            155           62.1  86 
 BAR2 EZ EP        652 52.46                             141   -0.1410 95.9  32 
 BAR2 EZ ES   2    653  9.12                             141   -0.22 5 95.9  32 
 BAR2 EZ I         653  9.87        24.3 0.18            142           95.9  32 
 CHI  HZ EP        652 56.21                             131   -0.06 9  136 184 
 CHI  HN ES        653 15.33                             131   -0.54 9  136 184 
 CHI  HZ I         653 18.16         3.3 0.32            132            136 184 
 BRR  HZ EP        652 56.06                             130    0.15 9  138 357 
 BRR  HN ES        653 15.31                             130    0.08 9  138 357 
 BRR  HZ I         653 19.09         5.7 0.12            130            138 357 
 NOR  HZ EP        652 56.02                             130   -0.09 9  140 257 
 NOR  HN ES        653 15.96                             130    0.38 9  140 257 
 NOR  HZ I         653 17.14        12.1 0.46            129            140 257 
 YPLC HZ EP     C  652 57.12                             128    0.10 9  149 110 
 YPLC HE ES        653 17.99                             128    0.79 9  149 110 
 YPLC HZ I         653 19.56        14.5 0.28            129            149 110 
 GUY2CHZ EP   4    653  3.37                             119    0.28 0  203 250 
 GUY2CHN ES   4    653 30.15                             119    2.14 0  203 250 
 GUY2CHZ I         653 34.99         2.1 0.42                           203 250 
 HEL  HZ EP   3    653  5.19                             118    1.30 2  212 280 
 HEL  HN ES   1    653 29.49                             118    0.05 6  212 280 
 HEL  HZ I         653 35.02         3.3 0.23            118            212 280 
 ZAR  HN ES   1    653 30.77                             116   -0.41 6  225 323 
 ZAR  HZ I         653 37.06         3.1 0.18            116            225 323 
 CBOC HZ EP   1    653  9.06                             112   -0.16 6  262 270 
 CBOC HN ES   1    653 39.09                             112    0.16 6  262 270 
 CBOC HZ I         653 41.09         1.2 0.32            112            262 270 
 PRA  HZ EP   4    653 11.14                             111    0.73 0  274 210 
 PRA  HN ES   4    653 39.60                             111   -1.44 0  274 210 
 PRA  HZ I         653 45.41         2.2 0.30            111            274 210 
                                                                                
