 2011  616 0855 51.1 L   6.762 -73.073149.1  RSN  7 0.3 1.5LRSN                1
 GAP=167        0.69       3.1     6.0  7.6 -0.5967E+01 -0.4409E+01 -0.1279E+01E
 Epicentro: LOS SANTOS - SANTANDER                                             3
 ACTION:UP  11-07-14 19:05 OP:ep   STATUS:               ID:20110616085551 L   I
 2011-06-16-0854-03S.COL___138                                                 6
 STAT SP IPHASW D HRMM SECON CODA AMPLIT PERI AZIMU VELO SNR AR TRES W  DIS CAZ7
 BAR2 SZ EP   1    856 10.59                             171    -0.6 7   22 213 
 BAR2 SZ I         856 29.06         7.0 0.22                            22 213 
 BRR  HZ EP        856 13.05                             150    -0.110   80 298 
 BRR  HZ I         856 14.73         8.0 0.10                            80 298 
 BRR  HN ES   1    856 30.54                             150     0.2 7   80 298 
 RUS  HZ EP        856 15.30                             146     0.410   96 181 
 RUS  HN ES   1    856 33.26                             146    -0.2 7   96 181 
 RUS  HZ I         856 34.94         3.2 0.27                            96 181 
 GRA  SZ EP        856 16.93                             137     0.110  128  13 
 GRA  SZ ES   1    856 37.11                             137     0.2 7  128  13 
 GRA  SZ I         856 39.45         3.5 0.30                           128  13 
 OCA  SZ EP        856 20.04                             129    -0.2 9  166 351 
 NOR  SN ES   1    856 55.99                             119     0.1 6  239 236 
 CHI  HE ES   1    856 58.21                             118     0.0 6  247 197 
                                                                                
