 2014  216 0715 29.4 L   6.828 -73.153149.1  RSN  7 0.4 1.2LRSN                1
 GAP=134        1.02       3.5     4.8  6.7  0.1277E+01  0.1087E+02 -0.1524E+01E
 Epicentro: LOS SANTOS - SANTANDER                                             3
 ACTION:UPD 14-03-10 08:10 OP:ep   STATUS:               ID:20140216071529 L   I
 OLDACT:REG 14-02-16 09:54 OP:carl STATUS:               ID:20140216071000     3
 2014-02-16-0710-00M.COL___212                                                 6
 STAT SP IPHASW D HRMM SECON CODA AMPLIT PERI AZIMU VELO AIN AR TRES W  DIS CAZ7
 BAR2 SZ ES        716  5.32                             170    0.1510 26.3 187 
 PAM  SZ EP        715 52.55                             152    0.6710 75.6  42 
 PAM  SN ES        716  9.06                             152   -0.3410 75.6  42 
 PAM  SZ I         716 11.95         2.0 0.22            155           75.6  42 
 RUS  HZ EP        715 54.10                             144    0.3810  104 176 
 RUS  HN ES        716 12.47                             144   -0.2010  104 176 
 RUS  HZ I         716 15.11         0.9 0.14            145            104 176 
 PTB  HZ EP        715 56.35                             133   -0.29 9  148 258 
 PTB  HN ES        716 17.75                             133   -0.12 9  148 258 
 PTB  HZ I         716 19.86         2.8 0.34            132            148 258 
 ZAR  HZ EP        716  1.60                             123   -0.28 9  202 291 
 ZAR  HE ES        716 28.00                             123    0.80 9  202 291 
 ZAR  HZ I         716 35.04         2.3 0.20            124            202 291 
 SML  HZ EP        716  6.04                             118    0.15 8  241 335 
 SML  HN ES        716 33.59                             118   -0.75 8  241 335 
 SML  HZ I         716 37.94         2.3 0.26            119            241 335 
 CHI  HZ EP        716  7.25                             117   -0.35 8  251 195 
 CHI  HN ES        716 37.22                             117   -0.16 8  251 195 
 CHI  HZ I         716 44.54         0.8 0.42            118            251 195 
                                                                                
