 2013  916 0636 37.3 L   7.214 -74.184  6.2  RSN  6 0.3 1.6LRSN                1
 GAP=107        0.82       2.1     1.6  7.0  0.3694E+00  0.1015E+01  0.5090E+01E
 Epicentro: PUERTO WILCHES - SANTANDER                                         3
 ACTION:UPD 13-10-22 09:23 OP:ep   STATUS:               ID:20130916063637 L   I
 OLDACT:REG 13-09-16 08:03 OP:jn   STATUS:               ID:20130916062959     3
 2013-09-16-0629-59M.COL___269                                                 6
 STAT SP IPHASW D HRMM SECON CODA AMPLIT PERI AZIMU VELO AIN AR TRES W  DIS CAZ7
 BRR  HZ IP     D  636 46.02                              92    0.0410 53.4 103 
 BRR  HN ES        636 52.95                              92    0.1910 53.4 103 
 BRR  HZ I         636 55.20        19.9 0.09             47           53.4 103 
 PTB  HZ EP        636 50.16                              91    0.0810 80.4 202 
 PTB  HE ES        636 59.84                              91   -0.2210 80.4 202 
 PTB  HZ I         637  1.44        17.5 0.22             47           80.4 202 
 ZAR  HZ EP        636 50.32                              91    0.2210 80.6 293 
 ZAR  HN ES        636 59.86                              91   -0.2410 80.6 293 
 ZAR  HZ I         637  1.18        39.5 0.12             47           80.6 293 
 BAR2 SZ EP        636 58.23                              91    0.3710  130 122 
 BAR2 SZ ES        637 13.38                              91   -0.5310  130 122 
 BAR2 SZ I         637 15.68        16.8 0.30             47            130 122 
 OCA  HZ EP        637  0.78                              91    0.30 9  148  40 
 OCA  HN ES   1    637 17.86                              91   -0.72 7  148  40 
 OCA  HZ I         637 18.83        10.3 0.18             47            148  40 
 SPBC HZ EP        637  4.48                              56    0.38 9  173 176 
 SPBC HE ES   1    637 24.71                              56   -0.30 7  173 176 
 SPBC HZ I         637 31.36         3.8 0.28             47            173 176 
                                                                                
