 2015 1216 0012 41.5 L   6.758 -73.160147.6  RSN  5 0.4 2.1LRSN                1
 GAP=137        1.11       4.9     6.6  9.6 -0.6609E+01  0.1229E+02 -0.4535E+01E
 Epicentro: LOS SANTOS - SANTANDER                                             3
 ACTION:UPD 16-02-04 15:05 OP:cam  STATUS:               ID:20151216001652dL   I
 OLDACT:UP  16-01-25 22:25 OP:cam  STATUS:               ID:20151216001652dL   3
 OLDACT:DUP 16-01-25 22:23 OP:cam  STATUS:               ID:20151216001652dL   3
 OLDACT:DUP 16-01-25 21:19 OP:cam  STATUS:               ID:20151216001651dL   3
 OLDACT:DUP 16-01-25 21:16 OP:cam  STATUS:               ID:20151216001650dL   3
 OLDACT:UP  16-01-01 06:20 OP:CARA STATUS:               ID:20151216001649 L   3
 OLDACT:REG 15-12-16 12:38 OP:cara STATUS:               ID:20151216000746     3
 2015-12-16-0007-46M.COL___331                                                 6
 STAT SP IPHASW D HRMM SECON CODA AMPLIT PERI AZIMU VELO AIN AR TRES W  DIS CAZ7
 BAR2 EZ EP        013  1.20                             172   -0.0410 18.5 188 
 BAR2 EZ ES        013 16.52                             172   -0.1410 18.5 188 
 BAR2 EZ I         013 17.28        29.9 0.26            171           18.5 188 
 PAM  EZ EP     D  013  3.96                             150   -0.2010 82.0  38 
 PAM  EN ES        013 21.23                             150   -0.6310 82.0  38 
 PAM  EZ I         013 23.15        40.6 0.50            153           82.0  38 
 RUS  HZ EP        013  5.12                             145    0.0310 96.1 175 
 RUS  HN ES        013 24.12                             145    0.6110 96.1 175 
 RUS  HZ I         013 25.30         8.9 0.44            147           96.1 175 
 PTB  HZ EP   1    013  8.15                             133   -0.22 7  145 261 
 PTB  HN ES        013 29.07                             133   -0.29 9  145 261 
 PTB  HZ I         013 34.83        15.0 0.52            132            145 261 
 OCA  HN ES        013 33.74                             129    0.88 9  165 354 
                                                                                
