 2012  416 0630 45.1 L   6.314 -73.606104.0  RSN 10 0.4 2.0LRSN                1
 GAP= 72        0.88       3.2     3.6  7.6 -0.3342E+01  0.1218E+02 -0.2643E+01E
 Epicentro: SANTA HELENA DEL OPON - SANTANDER                                  3
 ACTION:UPD 12-07-05 11:53 OP:tino STATUS:               ID:20120416063045 L   I
 2012-04-16-0629-50M.COL___160                                                 6
 STAT SP IPHASW D HRMM SECON CODA AMPLIT PERI AZIMU VELO AIN AR TRES W  DIS CAZ7
 BAR2 SZ EP   1    631  1.59                             150     0.3 8   56  57 
 BAR2 SZ ES   1    631 14.23                             150     0.4 8   56  57 
 BAR2 SZ I         631 15.71        62.3 0.23                            56  57 
 RUS  HZ EP   1    631  2.82                             142    -0.1 8   74 129 
 RUS  HN ES   1    631 16.73                             142     0.0 8   74 129 
 RUS  HZ I         631 18.47        12.2 0.17                            74 129 
 BRR  HZ EP   1    631  3.08                             136    -0.3 8   88 352 
 BRR  HZ I         631 12.82        43.6 0.11                            88 352 
 BRR  HN ES   1    631 17.65                             136     0.1 8   88 352 
 PAM  SZ EP   1    631  9.72                             120    -0.4 8  151  41 
 PAM  SN ES   1    631 28.83                             120    -0.7 8  151  41 
 PAM  SZ I         631 32.75         4.5 0.19                           151  41 
 NOR  SZ EP   1    631 10.15                             118    -0.6 7  163 239 
 NOR  SN ES        631 30.79                             118     0.110  163 239 
 NOR  SZ I         631 33.27         2.4 0.19                           163 239 
 CHI  HN ES   2    631 35.95                             114    -0.3 5  187 184 
 ZAR  HZ EP   1    631 13.23                             113    -0.5 7  190 313 
 ZAR  HN ES   1    631 35.99                             113     0.0 7  190 313 
 ZAR  HZ I         631 40.05        22.8 0.25                           190 313 
 HEL  HZ EP   1    631 17.10                             111     0.3 7  213 266 
 HEL  HN ES   1    631 41.16                             111    -0.3 7  213 266 
 HEL  HZ I         631 44.52         8.4 0.34                           213 266 
 OCA  SZ EP   1    631 17.47                             110     0.7 7  215   8 
 OCA  SZ ES   1    631 41.72                             110     0.4 7  215   8 
 PRA  HZ EP   1    631 29.82                             101     0.8 6  321 206 
 PRA  HZ I         632  9.97        18.9 0.20                           321 206 
                                                                                
