 2010  216 0704  8.8 L   6.802 -73.500121.8  RSN  5 0.5 1.9LRSN                1
 GAP=127        0.94       5.1    19.2 15.8  0.5876E+01  0.2479E+03  0.5009E+01E
 Epicentro: EL CARMEN DE CHUCURI - SANTANDER                                   3
 ACTION:UP  10-08-24 09:49 OP:vdl  STATUS:               ID:20100216070408 L   I
 2010-02-16-0659-48S.COL___094                                                 6
 STAT SP IPHASW D HRMM SECON CODA AMPLIT PERI AZIMU VELO SNR AR TRES W  DIS CAZ7
 BAR2 SZ IP        7 4 26.45                             160     0.310   42 124 
 BAR2 SZ ES   2    7 4 40.00                             160     0.3 5   42 124 
 GIR2 SZ EP        7 4 26.45                             158     0.310   46  48 
 GIR2 SZ ES   2    7 4 39.22                             158    -0.5 5   46  48 
 OCA  SZ EP        7 4 35.36                             124     0.0 9  160   7 
 OCA  SZ ES   2    7 4 54.66                             124    -1.4 5  160   7 
 OCA  SZ I         7 5  2.57        17.9 0.13                           160   7 
 CHI  HZ EP        7 4 43.90                             113    -0.6 8  242 186 
 CHI  HE ES   2    7 5 12.21                             113    -0.1 4  242 186 
 CHI  HZ I         7 5 23.77         3.1 0.24                           242 186 
 MON  HZ EP        7 4 53.65                             106     0.3 7  323 313 
                                                                                
