 2010  416 0145 40.9 L   6.779 -73.002147.9  RSN 10 0.4 3.1LRSN                1
 GAP=151        0.78       4.4     6.2  6.8 -0.1647E+02 -0.1296E+02  0.1295E+02E
 Epicentro: CEPITA - SANTANDER                                                 3
 ACTION:UPD 10-08-24 09:59 OP:vdl  STATUS:               ID:20100416014548 L   I
 2010-04-16-0144-08S.COL___100                                                 6
 STAT SP IPHASW D HRMM SECON CODA AMPLIT PERI AZIMU VELO AIN AR TRES W  DIS CAZ7
 BAR2 SZ IP        146  0.95                             169     0.110   29 224 
 BAR2 SZ ES   2    146 16.20                             169    -0.3 5   29 224 
 BRR  HZ IP     C  146  3.16                             148     0.010   86 295 
 BRR  HN ES   1    146 20.61                             148     0.1 7   86 295 
 BRR  HZ I         146 22.33       137.3 1.25                            86 295 
 OCA  SZ EP        146  9.49                             129    -0.3 9  165 348 
 OCA  SZ ES   2    146 32.47                             129     0.1 5  165 348 
 OCA  SZ I         146 34.57       212.5 0.60                           165 348 
 CHI  HZ EP        146 19.05                             117     0.1 8  251 199 
 CHI  HE ES   2    146 48.33                             117    -0.3 4  251 199 
 CHI  HZ I         146 52.06        51.2 0.93                           251 199 
 HEL  HZ EP   1    146 22.17                             114    -0.7 6  287 257 
 HEL  HZ I         146 59.10        60.9 0.38                           287 257 
 RREF BZ EP        146 27.78                             111    -0.5 7  333 231 
 RREF BN ES   1    147  6.11                             111     0.8 5  333 231 
 RREF BZ I         147 12.54        67.2 0.41                           333 231 
 SDV  BZ EP        146 30.32                             109     0.5 6  350  48 
 SDV  BN ES   2    147  8.24                             109     0.3 3  350  48 
 TOL  SZ EP   1    146 30.92                             109     0.6 5  353 227 
 TOL  SZ ES   2    147  9.51                             109     0.6 3  353 227 
 ANIL BZ EP   2    146 32.29                             108     0.4 3  367 227 
 ANIL BN ES   1    147 12.54                             108     0.9 5  367 227 
 PRA  HZ EP        146 34.54                             107    -0.6 6  398 212 
 PRA  HN ES   1    147 17.16                             107    -0.4 4  398 212 
 PRA  HZ I         147 22.76        63.7 0.26                           398 212 
                                                                                
