 2013  416 0329  0.2 L   6.816 -73.218140.0  RSN  7 0.5 1.8LRSN                1
 GAP=175        1.12       5.5     9.1 10.9  0.9353E+01  0.2000E+02 -0.2002E+02E
 Epicentro: ZAPATOCA - SANTANDER                                               3
 ACTION:UPD 13-05-22 14:38 OP:EP   STATUS:               ID:20130416032900 L   I
 2013-04-16-0318-46M.COL___209                                                 6
 STAT SP IPHASW D HRMM SECON CODA AMPLIT PERI AZIMU VELO AIN AR TRES W  DIS CAZ7
 BAR2 SZ EP        329 19.25                             169    0.0310 25.1 171 
 BAR2 SZ ES   1    329 33.91                             169   -0.11 7 25.1 171 
 BAR2 SZ I         329 35.26        32.4 0.14            172           25.1 171 
 BRR  HZ EP        329 21.49                             154    1.1610 63.4 301 
 BRR  HZ I         329 43.82        11.3 0.46            149           63.4 301 
 RUS  HZ EP        329 23.31                             142   -0.3210  103 172 
 RUS  HE ES   1    329 41.51                             142   -0.36 7  103 172 
 RUS  HZ I         329 42.69         5.0 0.38            143            103 172 
 PTB  HZ EP        329 25.91                             132   -0.15 9  140 257 
 PTB  HN ES   1    329 45.92                             132   -0.28 7  140 257 
 PTB  HZ I         329 50.09        10.7 0.10            129            140 257 
 OCA  HZ EP   4    329 22.84                             128   -5.03 0  158 356 
 OCA  HN ES   1    329 49.16                             128   -0.25 7  158 356 
 OCA  HZ I         329 54.45         7.2 0.16            126            158 356 
 SML  HZ EP        329 36.28                             116    0.26 8  239 337 
 SML  HN ES   1    330  3.18                             116   -0.74 6  239 337 
 SML  HZ I         330  7.23         7.1 0.07            114            239 337 
 HEL  HN ES   4    330 12.82                             114    2.96 0  265 255 
 SJC  HZ EP   1    329 54.30                             105   -0.63 4  403 328 
                                                                                
