 2013 1016 0747 54.1 L   6.664 -73.562121.7  RSN  8 0.4 1.6LRSN                1
 GAP= 92        1.04       3.6     4.1  7.2  0.2410E+01  0.8670E+01  0.1592E+01E
 Epicentro: EL CARMEN DE CHUCURI - SANTANDER                                   3
 ACTION:UPD 13-11-25 09:21 OP:ep   STATUS:               ID:20131016074754 L   I
 OLDACT:REG 13-10-16 08:19 OP:jn   STATUS:               ID:20131016073959     3
 2013-10-16-0739-59M.COL___274                                                 6
 STAT SP IPHASW D HRMM SECON CODA AMPLIT PERI AZIMU VELO AIN AR TRES W  DIS CAZ7
 BAR2 SZ EP        748 11.80                             159    0.2710 42.7 101 
 BAR2 SZ ES        748 25.20                             159    0.1010 42.7 101 
 BAR2 SZ I         748 26.26        27.2 0.20            160           42.7 101 
 BRR  HZ EP        748 11.76                             155    0.1610 51.7 341 
 BRR  HE ES        748 25.82                             155    0.5910 51.7 341 
 BRR  HZ I         748 27.54         8.3 0.30            155           51.7 341 
 PTB  HZ EP        748 14.33                             138   -0.5610 99.8 262 
 PTB  HN ES        748 30.45                             138   -0.6210 99.8 262 
 PTB  HZ I         748 31.84        14.0 0.10            139           99.8 262 
 RUS  HZ EP        748 15.91                             138    0.3210  100 148 
 RUS  HN ES        748 31.94                             138   -0.3910  100 148 
 RUS  HZ I         748 34.91         4.4 0.24            140            100 148 
 SPBC HZ EP        748 17.49                             131    0.2810  125 207 
 SPBC HN ES        748 35.07                             131   -0.1410  125 207 
 SPBC HZ I         748 37.63         6.8 0.24            133            125 207 
 ZAR  HZ EP        748 21.46                             122   -0.04 9  170 303 
 ZAR  HE ES        748 43.18                             122    0.34 9  170 303 
 ZAR  HZ I         748 46.11         4.4 0.30            123            170 303 
 OCA  HE ES   1    748 43.43                             121   -0.91 7  176   9 
 OCA  HZ I         748 47.85         4.9 0.24            122            176   9 
 GUY2CHZ EP   4    748 33.78                             111    2.32 0  255 232 
 GUY2CHN ES   1    749  1.07                             111    0.50 6  255 232 
 GUY2CHZ I         749 10.29         1.2 0.22                           255 232 
                                                                                
