 2010 1016 0521 18.8 L   6.789 -73.124145.3  RSN  4 0.1 1.5LRSN                1
 GAP=161        0.34       3.2     5.7  6.8 -0.1702E+01 -0.9903E+01 -0.5235E+01E
 Epicentro: LOS SANTOS - SANTANDER                                             3
 ACTION:UP  11-02-18 11:10 OP:tino STATUS:               ID:20101016052118 L   I
 2010-10-16-0518-55S.COL___125                                                 6
 STAT SP IPHASW D HRMM SECON CODA AMPLIT PERI AZIMU VELO SNR AR TRES W  DIS CAZ7
 BAR2 SZ EP   1    521 38.27                             171    -0.1 7   23 197 
 BAR2 SZ I         521 54.33         8.3 0.25                            23 197 
 BRR  HZ EP   1    521 40.07                             151     0.0 7   74 298 
 BRR  HN ES   2    521 56.68                             151     0.0 5   74 298 
 BRR  HZ I         521 59.40         5.7 0.06                            74 298 
 RUS  HN ES   2    522  0.93                             144     0.1 5   99 177 
 RUS  HZ I         522  2.28         4.8 0.34                            99 177 
 GRA  SZ EP   1    521 44.17                             137     0.1 7  126  16 
 GRA  SZ ES   2    522  3.67                             137    -0.1 5  126  16 
 GRA  SZ I         522  4.98         4.3 0.74                           126  16 
                                                                                
