 2016  716 0924 31.5 L   6.796 -73.142144.9  RSN 16 0.4 2.3LRSN                1
 GAP=100        1.02       3.6     2.9  5.0  0.8605E-01  0.2903E+01  0.2289E+01E
 Epicentro: LOS SANTOS - SANTANDER                                             3
 ACTION:UPD 17-03-29 16:51 OP:lp   STATUS:               ID:20160716092431 L   I
 OLDACT:REG 16-07-16 12:35 OP:lv   STATUS:               ID:20160716091759     3
 2016-07-16-0917-59S.COL___307                                                 6
 STAT SP IPHASW D HRMM SECON CODA AMPLIT PERI AZIMU VELO AIN AR TRES W  DIS CAZ7
 BAR2 EZ EP        924 50.95                             171   -0.0910 22.9 191 
 BAR2 EZ ES        925  5.70                             171   -0.5610 22.9 191 
 BAR2 EZ I         925  8.69        38.0 0.20            166           22.9 191 
 BRR  HZ EP     C  924 52.88                             152    0.2710 71.7 299 
 BRR  HE ES        925  9.47                             152    0.4210 71.7 299 
 BRR  HZ I         925 13.91        24.7 0.12            152           71.7 299 
 PAM  EZ EP        924 53.71                             151    0.0610 77.5  39 
 RUS  HZ EP     D  924 54.81                             144   -0.3410  100 176 
 RUS  HE ES        925 13.69                             144    0.1110  100 176 
 RUS  HZ I         925 16.69        13.3 0.22            143            100 176 
 PTB  HZ EP        924 57.59                             132   -0.85 9  148 259 
 PTB  HN ES        925 18.69                             132   -0.75 9  148 259 
 PTB  HZ I         925 26.21        43.3 0.40            132            148 259 
 TAM  HZ EP        924 59.13                             130    0.04 9  155 105 
 TAM  HN ES        925 20.93                             130    0.34 9  155 105 
 SPBC HZ EP        924 59.82                             129   -0.12 9  163 219 
 SPBC HN ES        925 22.48                             129    0.38 9  163 219 
 SPBC HZ I         925 27.69        46.0 0.05            129            163 219 
 ZAR  HZ EP        925  3.45                             122   -0.51 9  205 292 
 ZAR  HE ES        925 30.19                             122    0.92 9  205 292 
 ZAR  HZ I         925 35.17        20.2 0.12            124            205 292 
 NOR  HZ EP        925  7.26                             118    0.06 8  235 235 
 NOR  HN ES        925 34.87                             118   -0.16 8  235 235 
 NOR  HZ I         925 38.76        23.5 0.20            119            235 235 
 CHI  HZ EP        925  9.22                             117    0.09 8  248 195 
 CHI  HN ES        925 38.70                             117    0.24 8  248 195 
 CHI  HZ I         925 48.12         4.9 0.30            118            248 195 
 HEL  HZ EP        925 12.33                             114    0.62 8  272 256 
 HEL  HN ES        925 43.08                             114    0.02 8  272 256 
 HEL  HZ I         925 50.02        20.1 0.34            116            272 256 
 GUY2CHZ EP        925 15.91                             112    0.82 7  301 235 
 GUY2CHE ES        925 49.30                             112    0.23 7  301 235 
 GUY2CHZ I         925 56.43        13.9 0.24                           301 235 
 PTGC HZ EP   4    925 13.85                             111   -1.42 0  308 159 
 PTGC HE ES   4    925 47.03                             111   -2.37 0  308 159 
 PTGC HZ I         925 54.40         8.4 0.24            113            308 159 
 DBB  EZ EP        925 18.47                             109   -0.54 7  340 274 
 DBB  EZ ES   4    925 52.77                             109   -3.27 0  340 274 
 DBB  EZ I         926  2.54         4.0 0.38            111            340 274 
 PRA  HZ EP        925 24.60                             106   -0.38 6  392 210 
 PRA  HE ES        926  6.94                             106    0.26 6  392 210 
 PRA  HZ I         926 13.42         6.6 0.42            107            392 210 
 ORTC HZ EP        925 25.16                             106   -0.23 6  395 216 
 ORTC HN ES   4    926  8.86                             106    1.46 0  395 216 
 ORTC HZ I         926 14.84         5.3 0.52            107            395 216 
                                                                                
