 2014 1116 0336 27.0 L   6.096 -73.977  4.0  RSN 12 0.9 2.1LRSN                1
 GAP= 68        2.24       3.7     3.5  8.7 -0.2251E+01  0.9302E+00 -0.2351E+01E
 Epicentro: EL PENON - SANTANDER                                               3
 ACTION:UPD 14-12-19 15:43 OP:nd   STATUS:               ID:20141116033627 L   I
 OLDACT:ARG 14-11-16 13:31 OP:stll STATUS:               ID:20141116032745     3
 2014-11-16-0327-45M.COL___283                                                 6
 STAT SP IPHASW D HRMM SECON CODA AMPLIT PERI AZIMU VELO AIN AR TRES W  DIS CAZ7
 SPBC HZ EP        336 34.55                              47   -0.7310 50.2 192 
 SPBC HE ES        336 40.74                              47   -1.0010 50.2 192 
 SPBC HZ I         336 52.01        63.5 0.10             47           50.2 192 
 PTB  HZ IP     D  336 38.52                              47   -0.0410 72.3 313 
 PTB  HN ES        336 47.37                              47   -0.2110 72.3 313 
 PTB  HZ I         336 50.72       230.3 0.10             47           72.3 313 
 RUS  HZ EP        336 42.92                              47   -0.5410  101 103 
 RUS  HZ I         336 43.48        45.0 0.32             47            101 103 
 RUS  HN ES        336 54.84                              47   -1.4710  101 103 
 BAR2 SZ EP        336 43.50                              47   -0.0310  104  58 
 BAR2 SZ ES        336 56.19                              47   -0.2410  104  58 
 BAR2 SZ I         337  4.32        19.6 0.18             47            104  58 
 NOR  HZ EP        336 45.25                              47    0.1810  115 239 
 NOR  HE ES        336 58.95                              47   -0.2210  115 239 
 NOR  HZ I         336 59.81        40.3 0.16             47            115 239 
 BRR  HZ EP        336 45.46                              47    0.3610  116  15 
 BRR  HE ES        336 59.62                              47    0.3910  116  15 
 BRR  HZ I         337  3.29        52.5 0.12             47            116  15 
 CHI  HZ EP        336 54.27                              47    1.35 9  164 170 
 CHI  HN ES        337 14.47                              47    1.33 9  164 170 
 CHI  HZ I         337 23.36         9.3 0.48             47            164 170 
 HEL  HZ EP        336 53.70                              47   -0.35 9  172 274 
 HEL  HN ES        337 13.95                              47   -1.20 9  172 274 
 HEL  HZ I         337 16.11        50.9 0.20             47            172 274 
 PAM  SZ EP        336 58.42                              37    0.94 9  197  46 
 PAM  SZ I         336 59.26        40.3 0.16             37            197  46 
 PAM  SN ES        337 21.38                              37    0.12 9  197  46 
 TOL  SZ EP        337  2.18                              37    1.56 8  224 222 
 CBOC HZ EP        337  2.60                              37    1.79 8  227 264 
 CBOC HN ES        337 26.55                              37   -0.64 8  227 264 
 CBOC HZ I         337 33.75         8.7 0.56             37            227 264 
 SJC  HZ EP   9    337 27.78                              36    0.59 0  441 343 
 SJC  HZ I         337 28.28         3.4 0.12             36            441 343 
 SJC  HN ES        338 12.37                                   -2.36 5  441 343 
                                                                                
