 2014  716 0348 16.1 L   6.825 -73.221146.9  RSN  5 0.5 1.6LRSN                1
 GAP=261        1.14       8.4    15.7 11.2 -0.8977E+02 -0.4130E+02  0.8670E+01E
 Epicentro: ZAPATOCA - SANTANDER                                               3
 ACTION:UPD 15-03-16 20:44 OP:nd   STATUS:               ID:20140716034816 L   I
 OLDACT:UP  14-07-16 15:18 OP:fm   STATUS:               ID:20140716034550d    3
 OLDACT:UP  14-07-16 15:16 OP:fm   STATUS:               ID:20140716034550d    3
 OLDACT:UP  14-07-16 15:16 OP:fm   STATUS:               ID:20140716034550d    3
 OLDACT:DUP 14-07-16 15:12 OP:fm   STATUS:               ID:20140716034550d    3
 2014-07-16-0345-49M.COL___256                                                 6
 STAT SP IPHASW D HRMM SECON CODA AMPLIT PERI AZIMU VELO AIN AR TRES W  DIS CAZ7
 BRR  HZ EP        348 37.24                             156    0.3310 62.6 300 
 BRR  HN ES        348 53.67                             156    0.5210 62.6 300 
 BRR  HZ I         348 59.53         5.8 0.16            138           62.6 300 
 PTB  HZ EP        348 42.32                             134   -0.17 9  140 257 
 PTB  HN ES        349  2.62                             134   -0.45 9  140 257 
 PTB  HZ I         349  8.68         3.9 0.16            126            140 257 
 OCA  HN ES        349  5.23                             131   -0.83 9  157 356 
 OCA  HZ I         349  8.66         4.6 0.32            124            157 356 
 SPBC HZ I         349  1.02         5.3 0.40            128            160 216 
 SML  HZ EP        348 52.31                             118    0.16 8  238 337 
 SML  HN ES        349 20.75                             118    0.48 8  238 337 
 SML  HZ I         349 29.05         3.4 0.10            114            238 337 
                                                                                
