 2016 1116 0633 38.8 L   6.262 -73.631109.2  RSN  4 0.2 1.4LRSN                1
 GAP=235        0.71       7.3     3.6  6.3  0.9079E+01  0.9260E+01  0.1547E+02E
 Epicentro: SANTA HELENA DEL OPON - SANTANDER                                  3
 ACTION:UPD 17-10-26 21:08 OP:lp   STATUS:               ID:20161116063338 L   I
 OLDACT:DUP 16-11-16 16:44 OP:and  STATUS:               ID:20161116062748d    3
 OLDACT:UP  16-11-16 16:37 OP:and  STATUS:               ID:20161116062746     3
 OLDACT:REG 16-11-16 12:42 OP:and  STATUS:               ID:20161116062746     3
 2016-11-16-0628-00M.COL___335                                                 6
 STAT SP IPHASW D HRMM SECON CODA AMPLIT PERI AZIMU VELO AIN AR TRES W  DIS CAZ7
 BAR2 EZ EP        633 55.53                             148   -0.2710 61.6  54 
 BAR2 EZ ES        634  9.22                             148    0.1410 61.6  54 
 BRR  HZ EP   9    633 56.32                             136   -1.56 0 93.9 355 
 BRR  HN ES        634 10.66                                   -0.5710 93.9 355 
 PTB  HZ EP        633 58.27                             135    0.1610 96.3 289 
 PTB  HN ES        634 13.09                             135   -0.1110 96.3 289 
 PTB  HZ I         634 14.73         4.3 0.16            134           96.3 289 
 ZAR  HZ EP        634  7.82                             114    0.03 9  192 315 
 ZAR  HE ES        634 30.51                             114    0.08 9  192 315 
 ZAR  HZ I         634 31.93         4.3 0.42            114            192 315 
                                                                                
