 2011  116 0623 10.3 L   6.792 -73.147144.3  RSN  5 0.2 1.4LRSN                1
 GAP=158        0.46       3.5    13.8  4.8 -0.1561E+02 -0.8143E+01  0.2861E+01E
 Epicentro: LOS SANTOS - SANTANDER                                             3
 ACTION:UP  11-02-08 08:40 OP:pat  STATUS:               ID:20110116062310 L   I
 2011-01-16-0621-00S.COL___135                                                 6
 STAT SP IPHASW D HRMM SECON CODA AMPLIT PERI AZIMU VELO SNR AR TRES W  DIS CAZ7
 BTL  SZ EP   1    623 29.81                             172     0.2 7   19 316 
 BTL  SZ ES   1    623 44.88                             172     0.1 7   19 316 
 BAR2 SZ EP   1    623 29.55                             171    -0.1 7   23 190 
 BAR2 SZ ES   1    623 44.59                             171    -0.3 7   23 190 
 BAR2 SZ I         623 45.65         9.5 0.34                            23 190 
 RUS  HZ EP   1    623 33.68                             144    -0.1 7  100 176 
 RUS  HE ES   1    623 52.40                             144     0.2 7  100 176 
 RUS  HZ I         623 53.44         3.1 0.31                           100 176 
 GRA  SZ EP   2    623 35.51                             136     0.1 5  127  17 
 GRA  SZ I         624  4.12         2.1 0.50                           127  17 
 CHI  HN ES   1    624 17.04                             117     0.0 6  248 195 
 CHI  HZ I         624 19.72         1.8 0.38                           248 195 
                                                                                
