 2016  716 0138 32.7 L   6.690 -73.204152.0  RSN  4 0.4 1.3LRSN                1
 GAP=222        0.95       7.9     7.9  9.5  0.4167E+02 -0.3280E+00 -0.5238E+01E
 Epicentro: VILLANUEVA - SANTANDER                                             3
 ACTION:UPD 17-03-29 16:51 OP:lp   STATUS:               ID:20160716013832 L   I
 OLDACT:REG 16-07-16 12:00 OP:lv   STATUS:               ID:20160716012759     3
 2016-07-16-0127-59S.COL___331                                                 6
 STAT SP IPHASW D HRMM SECON CODA AMPLIT PERI AZIMU VELO AIN AR TRES W  DIS CAZ7
 BRR  HZ EP        138 54.19                             153   -0.4110 72.6 309 
 BRR  HE ES        139 11.64                             153   -0.0410 72.6 309 
 BRR  HZ I         139 14.45         4.2 0.22            149           72.6 309 
 RUS  HZ EP        138 56.25                             148   -0.0510 89.2 171 
 RUS  HN ES        139 15.02                             148    0.3110 89.2 171 
 RUS  HZ I         139 15.66         2.0 0.22            152           89.2 171 
 PTB  HZ EP        138 59.60                             135    0.15 9  139 263 
 PTB  HN ES        139 19.80                             135   -0.52 9  139 263 
 PTB  HZ I         139 22.06         2.2 0.13            133            139 263 
 ZAR  HN ES        139 31.73                             124    0.72 9  203 296 
 ZAR  HZ I         139 43.36         4.0 0.09            122            203 296 
                                                                                
