 2011  716 0451 50.6 L   6.868 -73.151128.3  RSN  4 0.3 1.3LRSN                1
 GAP=157        0.62       4.4     7.4  7.3 -0.7490E+01 -0.1818E+02  0.2519E+01E
 Epicentro: LOS SANTOS - SANTANDER                                             3
 ACTION:UPD 12-07-25 14:01 OP:epov STATUS:               ID:20110716045150 L   I
 2011-07-16-0440-00M.COL___133                                                 6
 STAT SP IPHASW D HRMM SECON CODA AMPLIT PERI AZIMU VELO AIN AR TRES W  DIS CAZ7
 BAR2 SZ EP   1    452  8.24                             166   -0.14 7 30.7 186 
 BAR2 SZ I         452  8.72         5.7 0.07                          30.7 186 
 BAR2 SZ ES   1    452 21.93                             166   -0.28 7 30.7 186 
 BRR  HZ EP   1    452  9.33                             150   -0.37 7 67.4 293 
 BRR  HZ I         452 11.77         9.2 0.24                          67.4 293 
 BRR  HN ES   1    452 24.87                             150    0.31 7 67.4 293 
 RUS  HZ EP   1    452 13.79                             138    0.46 7  108 176 
 RUS  HZ I         452 32.86         2.1 0.39                           108 176 
 GRA  SZ EP   1    452 13.60                             134   -0.17 7  119  19 
 GRA  SZ ES   1    452 32.01                             134    0.20 7  119  19 
 GRA  SZ I         452 35.73         2.6 0.50                           119  19 
                                                                                
