 2015  516 0058  9.0 L   6.788 -73.114150.1  RSN  8 0.2 1.7LRSN                1
 GAP=141        0.50       2.4     3.5  4.0 -0.9702E+00  0.1513E+01 -0.8850E+00E
 Epicentro: LOS SANTOS - SANTANDER                                             3
 ACTION:UPD 15-09-10 22:04 OP:cam  STATUS:               ID:20150516005809 L   I
 OLDACT:DUP 15-05-16 15:46 OP:spq  STATUS:               ID:20150516004750d    3
 OLDACT:REG 15-05-16 12:27 OP:spq  STATUS:               ID:20150516004749     3
 2015-05-16-0047-49M.COL___277                                                 6
 STAT SP IPHASW D HRMM SECON CODA AMPLIT PERI AZIMU VELO AIN AR TRES W  DIS CAZ7
 BAR2 EZ EP        058 29.08                             171   -0.0410 22.9 199 
 BAR2 EZ ES   1    058 44.73                             171   -0.10 7 22.9 199 
 BAR2 EZ I         058 45.68         8.8 0.20            169           22.9 199 
 BRR  HZ EP        058 30.97                             152    0.1710 74.9 298 
 BRR  HN ES        058 48.03                             152    0.2010 74.9 298 
 BRR  HZ I         058 49.02         9.3 0.20            149           74.9 298 
 PAM  SZ EP   1    058 31.57                             152   -0.01 7 76.2  37 
 RUS  HZ EP   1    058 33.13                             145    0.08 7 99.1 178 
 RUS  HN ES   1    058 51.71                             145   -0.11 7 99.1 178 
 RUS  HZ I         058 52.67         5.6 0.28            145           99.1 178 
 SPBC HE ES   1    059  0.21                             130   -0.29 7  164 220 
 SPBC HZ I         059  2.65        10.1 0.14            129            164 220 
 NOR  HZ EP        058 45.58                             119    0.40 8  237 235 
 NOR  HN ES        059 13.23                             119   -0.19 8  237 235 
 NOR  HZ I         059 18.27         3.6 0.18            118            237 235 
 SML  HZ EP   1    058 45.70                             118   -0.43 6  246 335 
 SML  HE ES   1    059 14.83                             118   -0.29 6  246 335 
 SML  HZ I         059 19.60         5.7 0.30            117            246 335 
 GUY2CHZ EP   4    058 55.54                             113    2.52 0  303 235 
 GUY2CHN ES   4    059 30.56                             113    3.18 0  303 235 
 GUY2CHZ I         059 36.53         2.3 0.30                           303 235 
                                                                                
