 2012  116 0844 50.9 L   6.781 -73.117139.3  RSN  6 0.3 1.7LRSN                1
 GAP=141        0.75       4.9     6.4  7.0 -0.3297E+01  0.4199E+01 -0.6242E+00E
 Epicentro: LOS SANTOS - SANTANDER                                             3
 ACTION:UP  12-02-03 08:17 OP:REBC STATUS:               ID:20120116084450 L   I
 2012-01-16-0840-00M.COL___186                                                 6
 STAT SP IPHASW D HRMM SECON CODA AMPLIT PERI AZIMU VELO SNR AR TRES W  DIS CAZ7
 BAR2 SZ EP        845  9.84                             171     0.210   22 199 
 BAR2 SZ I         845 10.16         8.4 0.07                            22 199 
 BAR2 SZ ES   1    845 24.04                             171    -0.3 7   22 199 
 GIR2 SZ EP   1    845  9.86                             165     0.0 7   34 346 
 BRR  HZ EP   1    845 11.58                             150     0.0 7   75 299 
 BRR  HZ I         845 11.92        11.2 0.20                            75 299 
 BRR  HN ES   1    845 28.08                             150     0.4 7   75 299 
 PAM  SZ EP        845 12.64                             150     0.310   77  37 
 PAM  SN ES   1    845 28.70                             150    -0.4 7   77  37 
 RUS  HZ EP   1    845 13.78                             143     0.0 7   98 178 
 RUS  HE ES   1    845 31.86                             143     0.2 7   98 178 
 PTB  HZ EP   1    845 16.87                             130    -0.7 7  150 260 
                                                                                
