 2011  716 0622 29.8 L   6.737 -73.205162.2  RSN  6 0.2 1.2LRSN                1
 GAP=134        0.50       4.7     7.9  6.3  0.1128E+02 -0.2267E+02 -0.1018E+02E
 Epicentro: VILLANUEVA - SANTANDER                                             3
 ACTION:UPD 12-07-25 14:01 OP:epov STATUS:               ID:20110716062229 L   I
 2011-07-16-0621-02S.COL___131                                                 6
 STAT SP IPHASW D HRMM SECON CODA AMPLIT PERI AZIMU VELO AIN AR TRES W  DIS CAZ7
 BAR2 SZ EP   1    622 51.10                             174   -0.23 7 16.2 171 
 BAR2 SZ I         623  7.38         3.8 0.65                          16.2 171 
 GIR2 SZ EP   1    622 51.47                             166   -0.16 7 37.8   2 
 GIR2 SZ ES   1    623  8.86                             166    0.22 7 37.8   2 
 BRR  HZ EP   1    622 53.12                             156    0.44 7 69.4 306 
 BRR  HZ I         622 53.47         6.3 0.14                          69.4 306 
 BRR  HN ES   1    623 10.24                             156   -0.26 7 69.4 306 
 PAM  SZ EP   1    622 54.35                             151   -0.01 7 86.9  40 
 RUS  HN ES   1    623 14.36                             149    0.04 7 94.4 172 
 RUS  HZ I         623 15.91         1.6 0.38                          94.4 172 
 BRI  SZ EP   1    622 55.91                             142   -0.05 7  117  23 
 BRI  SZ I         622 56.55         1.6 0.06                           117  23 
                                                                                
