 2016  416 0135 43.4 L   5.769 -73.919107.5  RSN  6 0.4 1.2LRSN                1
 GAP= 89        1.01       3.6     3.4  7.6 -0.9226E+00 -0.6831E+00  0.1577E+01E
 Epicentro: ALBANIA - SANTANDER                                                3
 ACTION:UPD 16-05-05 14:21 OP:rebc STATUS:               ID:20160416013543 L   I
 OLDACT:REG 16-04-16 13:45 OP:ak   STATUS:               ID:20160416012743     3
 2016-04-16-0127-43M.COL___319                                                 6
 STAT SP IPHASW D HRMM SECON CODA AMPLIT PERI AZIMU VELO AIN AR TRES W  DIS CAZ7
 SPBC HZ EP        135 58.36                             168    0.1510 21.3 233 
 SPBC HN ES        136 10.11                             168    0.3710 21.3 233 
 SPBC HZ I         136 11.80         8.5 0.22            168           21.3 233 
 RUS  HZ EP        136  3.06                             136    0.0110 93.6  82 
 RUS  HN ES        136 17.71                             136   -0.6410 93.6  82 
 RUS  HZ I         136 19.98         1.2 0.20            140           93.6  82 
 PTB  HZ EP        136  2.87                             132   -0.4410  104 325 
 PTB  HN ES        136 18.39                             132   -0.4110  104 325 
 PTB  HZ I         136 22.30         3.8 0.12            136            104 325 
 NOR  HZ EP        136  4.22                             131    0.5210  108 258 
 NOR  HN ES        136 19.41                             131   -0.1010  108 258 
 NOR  HZ I         136 21.92         6.1 0.16            134            108 258 
 BAR2 EZ EP   2    136  5.70                             128    0.38 5  122  42 
 BAR2 EZ ES        136 23.06                             128    0.6810  122  42 
 BAR2 EZ I         136 24.24         3.7 0.17            131            122  42 
 CHI  HZ EP        136  5.97                             126   -0.1210  128 171 
 CHI  HN ES        136 23.69                             126   -0.0710  128 171 
 CHI  HZ I         136 27.72         2.7 0.34            129            128 171 
                                                                                
