 2013  316 0626  8.1 L   6.766 -73.209152.8  RSN  4 0.3 1.6LRSN                1
 GAP=195        0.70       6.5     9.6  8.0  0.4061E+02 -0.9271E+01  0.1171E+01E
 Epicentro: VILLANUEVA - SANTANDER                                             3
 ACTION:UPD 13-04-09 14:02 OP:ep   STATUS:               ID:20130316062608 L   I
 2013-03-16-0620-00M.COL___244                                                 6
 STAT SP IPHASW D HRMM SECON CODA AMPLIT PERI AZIMU VELO AIN AR TRES W  DIS CAZ7
 BRR  HZ EP   1    626 30.00                             155    0.19 7 67.1 304 
 BRR  HN ES        626 46.80                             155    0.0710 67.1 304 
 BRR  HN I         626 47.32         7.9 0.30            149           67.1 304 
 RUS  HZ EP        626 32.70                             146    0.3510 97.6 172 
 RUS  HN ES   1    626 50.77                             146   -0.49 7 97.6 172 
 RUS  HN I         626 52.45         2.9 0.36            141           97.6 172 
 PTB  HZ EP   1    626 34.50                             135   -0.49 7  140 260 
 PTB  HN ES   2    626 56.23                             135    0.27 5  140 260 
 PTB  HN I         627  1.19         7.9 0.26            129            140 260 
 SML  HN ES   2    627 13.70                             119   -0.44 4  244 337 
                                                                                
