 2012  316 0044 13.3 L   6.771 -73.151150.0  RSN  9 0.4 2.2LRSN                1
 GAP=137        0.90       5.2     5.0  8.0 -0.1017E+00  0.8438E+01  0.1137E+02E
 ACTION:UP  12-03-31 23:20 OP:EP   STATUS:               ID:20120316004413 L   I
 2012-03-16-0040-00M.COL___202                                                 6
 STAT SP IPHASW D HRMM SECON CODA AMPLIT PERI AZIMU VELO SNR AR TRES W  DIS CAZ7
 BAR2 SZ EP   1    044 33.23                             172    -0.1 7   20 190 
 BAR2 SZ I         044 50.62        21.3 0.21                            20 190 
 BRR  HZ EP        044 35.17                             153     0.210   72 301 
 BRR  HN ES   1    044 52.77                             153     0.9 7   72 301 
 BRR  HZ I         044 55.40        37.6 0.12                            72 301 
 PAM  SZ EP   1    044 36.10                             151     0.0 7   80  38 
 PAM  SN ES   1    044 53.45                             151    -0.5 7   80  38 
 RUS  HZ EP   1    044 37.15                             146    -0.1 7   97 176 
 RUS  HN ES   1    044 56.14                             146     0.2 7   97 176 
 PTB  HZ EP   1    044 40.39                             133    -0.1 7  147 260 
 PTB  HN ES   1    045  0.90                             133    -0.8 7  147 260 
 PTB  HZ I         045  7.21        22.3 0.25                           147 260 
 ZAR  HZ EP   1    044 45.71                             123    -0.4 6  205 293 
 ZAR  HE ES   1    045 11.95                             123     0.3 6  205 293 
 ZAR  HZ I         045 17.06        15.8 0.24                           205 293 
 NOR  SZ EP   1    044 49.09                             120     0.1 6  232 235 
 NOR  SN ES   1    045 16.65                             120    -0.3 6  232 235 
 CHI  HZ EP   1    044 51.17                             118     0.3 6  245 195 
 CHI  HZ I         045 28.94         6.2 0.49                           245 195 
 PRA  HZ EP   1    045  7.11                             107     0.5 4  389 210 
                                                                                
