 2016 1116 0753 36.3 L   6.710 -73.123154.0  RSN  4 0.3 1.2LRSN                1
 GAP=173        0.84       9.2     5.9  7.7 -0.2173E+02  0.9192E+01  0.1347E+02E
 Epicentro: JORDAN - SANTANDER                                                 3
 ACTION:UPD 17-10-26 21:08 OP:lp   STATUS:               ID:20161116075336 L   I
 OLDACT:UP  16-11-16 17:46 OP:e    STATUS:               ID:20161116074740d    3
 OLDACT:DUP 16-11-16 17:43 OP:e    STATUS:               ID:20161116074740d    3
 2016-11-16-0748-00M.COL___332                                                 6
 STAT SP IPHASW D HRMM SECON CODA AMPLIT PERI AZIMU VELO AIN AR TRES W  DIS CAZ7
 BAR2 EZ EP        753 56.50                             174   -0.2710 14.6 207 
 BAR2 EZ ES        754 12.98                             174    0.2310 14.6 207 
 BRR  HZ EP        753 58.66                             152   -0.0910 78.6 304 
 BRR  HN ES        754 16.51                             152    0.2510 78.6 304 
 PAM  EN ES     D  754 17.93                             150   -0.1510 83.9  34 
 PAM  EZ I         754 18.60         3.5 0.54            150           83.9  34 
 PTB  HZ EP     C  754  4.56                             134    0.54 9  149 263 
 PTB  HN ES        754 25.15                             134   -0.50 9  149 263 
 PTB  HZ I         754 26.61         1.5 0.14            134            149 263 
 ZAR  HZ EP   4    754 13.73                             123    3.81 0  210 294 
 ZAR  HE ES   4    754 35.16                             123   -1.00 0  210 294 
                                                                                
