 2015  816 0740 45.5 L   7.411 -73.127132.3  RSN  7 0.4 2.0LRSN                1
 GAP=191        1.02       3.6     6.5  7.5  0.8871E+01  0.3447E+01 -0.2844E+01E
 Epicentro: EL PLAYON - SANTANDER                                              3
 ACTION:UPD 15-09-15 23:02 OP:cam  STATUS:               ID:20150816074045 L   I
 OLDACT:REG 15-08-16 13:46 OP:mh   STATUS:               ID:20150816073748     3
 2015-08-16-0737-48M.COL___328                                                 6
 STAT SP IPHASW D HRMM SECON CODA AMPLIT PERI AZIMU VELO AIN AR TRES W  DIS CAZ7
 BRR  HZ EP        741  5.75                             149    0.4310 72.8 243 
 BRR  HN ES        741 20.99                             149    0.2210 72.8 243 
 BRR  HZ I         741 21.16        16.9 0.12            146           72.8 243 
 BAR2 EZ EP        741  7.59                             144    0.7110 90.7 184 
 BAR2 EZ ES        741 23.00                             144   -0.5310 90.7 184 
 BAR2 EZ I         741 24.93        11.1 0.38            143           90.7 184 
 OCA  HZ EP   1    741  7.23                             142    0.23 7 94.0 347 
 OCA  HN ES        741 24.00                             142    0.2410 94.0 347 
 OCA  HZ I         741 26.03        19.1 0.12            142           94.0 347 
 RUS  HZ EP   1    741 13.59                             125   -0.44 7  168 178 
 RUS  HN ES        741 35.94                             125   -0.32 9  168 178 
 SML  HZ EP        741 14.55                             122   -0.62 9  186 326 
 SML  HE ES        741 37.78                             122   -0.52 9  186 326 
 SML  HZ I         741 38.01        15.5 0.14            121            186 326 
 ZAR  HZ EP        741 15.88                             121    0.11 9  191 273 
 ZAR  HN ES        741 39.32                             121   -0.05 9  191 273 
 ZAR  HZ I         741 42.76        11.7 0.36            120            191 273 
 URE  HZ EP   1    741 24.52                             112    0.34 6  268 278 
 URE  HN ES   4    741 51.79                             112   -2.55 0  268 278 
 URE  HZ I         742  1.65         4.8 0.16            111            268 278 
                                                                                
