 2012  516 0617 48.3 L   6.799 -73.135145.6  RSN  7 0.4 1.8LRSN                1
 GAP=184        0.77       5.0     7.3  9.8  0.2394E+01  0.2231E+02 -0.1872E+01E
 Epicentro: LOS SANTOS - SANTANDER                                             3
 ACTION:UP  12-07-05 12:05 OP:pat  STATUS:               ID:20120516061748 L   I
 2012-05-16-0617-29S.COL___205                                                 6
 STAT SP IPHASW D HRMM SECON CODA AMPLIT PERI AZIMU VELO SNR AR TRES W  DIS CAZ7
 BAR2 SZ EP   1    618  8.19                             170     0.3 7   24 193 
 BAR2 SZ I         618  8.46        10.7 0.19                            24 193 
 BAR2 SZ ES   1    618 23.21                             170     0.0 7   24 193 
 BRR  HZ EP   1    618 10.07                             152     0.6 7   72 298 
 BRR  HZ I         618 30.00        10.2 0.11                            72 298 
 RUS  HZ EP   1    618 11.80                             144    -0.2 7  100 177 
 RUS  HN ES   2    618 30.49                             144     0.0 5  100 177 
 PTB  HZ EP   1    618 14.85                             132    -0.5 7  149 259 
 PTB  HN ES   2    618 35.98                             132    -0.5 5  149 259 
 PTB  HZ I         618 42.08         6.0 0.33                           149 259 
 OCA  HN ES   1    618 38.31                             130    -0.4 7  160 353 
 ZAR  HN ES   2    618 46.76                             122     0.5 4  205 292 
 ZAR  HZ I         618 52.63         7.8 0.28                           205 292 
 NOR  SN ES   2    618 52.17                             118     0.1 4  236 235 
                                                                                
