 2015  916 0238 25.6 L   6.791 -73.182163.8  RSN  4 0.1 1.2LRSN                1
 GAP=241        0.38       3.9     3.7  5.1  0.9824E+01 -0.3289E+01 -0.7492E+01E
 Epicentro: LOS SANTOS - SANTANDER                                             3
 ACTION:UPD 15-10-28 16:26 OP:cam  STATUS:               ID:20150916023825 L   I
 OLDACT:UP  15-09-16 17:11 OP:mh   STATUS:               ID:20150916023748d    3
 OLDACT:DUP 15-09-16 17:08 OP:mh   STATUS:               ID:20150916023748d    3
 OLDACT:REG 15-09-16 12:42 OP:mh   STATUS:               ID:20150916023746     3
 2015-09-16-0237-46M.COL___346                                                 6
 STAT SP IPHASW D HRMM SECON CODA AMPLIT PERI AZIMU VELO AIN AR TRES W  DIS CAZ7
 RUS  HZ EP   1    238 51.19                             147    0.03 7 99.9 174 
 RUS  HZ I         239 10.72         2.0 0.26                          99.9 174 
 RUS  HN ES        239 11.05                             147   -0.0110 99.9 174 
 PTB  HZ EP   1    238 53.52                             137   -0.26 7  144 259 
 PTB  HE ES   1    239 15.87                             137    0.14 7  144 259 
 PTB  HZ I         239 17.31         1.9 0.17                           144 259 
 SPBC HZ EP        238 55.45                             133    0.17 9  160 218 
 SPBC HN ES        239 18.31                             133   -0.10 9  160 218 
 SPBC HZ I         239 21.06         3.7 0.18            134            160 218 
 ZAR  HE ES        239 25.01                             127   -0.00 9  201 293 
 ZAR  HZ I         239 29.85         0.9 0.19            122            201 293 
                                                                                
