 2013 1016 0801 43.8 L   6.746 -73.172148.0  RSN  6 0.3 1.5LRSN                1
 GAP=230        0.85       5.2     5.4  6.3  0.1159E+02  0.5945E+01  0.3399E+01E
 Epicentro: VILLANUEVA - SANTANDER                                             3
 ACTION:UPD 13-11-25 09:21 OP:ep   STATUS:               ID:20131016080143 L   I
 OLDACT:REG 13-10-16 08:20 OP:jn   STATUS:               ID:20131016075959     3
 2013-10-16-0759-59M.COL___274                                                 6
 STAT SP IPHASW D HRMM SECON CODA AMPLIT PERI AZIMU VELO AIN AR TRES W  DIS CAZ7
 BAR2 SZ EP        8 2  3.32                             173   -0.2810 17.0 184 
 BAR2 SZ ES        8 2 18.67                             173   -0.3610 17.0 184 
 BAR2 SZ I         8 2 20.12        14.7 0.30            170           17.0 184 
 BRR  HZ EP        8 2  5.26                             153    0.0310 71.8 304 
 BRR  HN ES        8 2 22.61                             153    0.6710 71.8 304 
 BRR  HZ I         8 2 27.59         2.8 0.17            151           71.8 304 
 RUS  HZ EP        8 2  7.53                             146    0.1510 94.8 174 
 RUS  HN ES        8 2 25.73                             146   -0.0310 94.8 174 
 RUS  HZ I         8 2 27.04         2.5 0.40            148           94.8 174 
 PTB  HZ EP        8 2 10.34                             133   -0.27 9  144 261 
 PTB  HN ES        8 2 31.31                             133   -0.20 9  144 261 
 PTB  HZ I         8 2 37.31         3.8 0.56            133            144 261 
 SPBC HZ EP        8 2 12.33                             131    0.46 9  157 220 
 SPBC HN ES   1    8 2 33.86                             131    0.10 7  157 220 
 SPBC HZ I         8 2 37.27         4.2 0.28            131            157 220 
 ZAR  HE ES   1    8 2 41.25                             123   -0.51 6  204 294 
 ZAR  HZ I         8 2 43.55         3.6 0.32            124            204 294 
                                                                                
