 2012 1216 0953 26.8 L   6.782 -73.144144.0  RSN  7 0.4 2.0LRSN                1
 GAP=138        0.75       4.0     4.4  6.7  0.6783E+00  0.7678E+01 -0.1296E+01E
 Epicentro: LOS SANTOS - SANTANDER                                             3
 ACTION:UPD 13-01-04 14:28 OP:ep   STATUS:               ID:20121216095326 L   I
 2012-12-16-0950-00M.COL___239                                                 6
 STAT SP IPHASW D HRMM SECON CODA AMPLIT PERI AZIMU VELO AIN AR TRES W  DIS CAZ7
 BAR2 SZ EP   1    953 46.33                             171    0.10 7 21.4 191 
 BAR2 SZ ES   1    954  1.18                             171   -0.16 7 21.4 191 
 BAR2 SZ I         954  2.60        34.3 0.16                          21.4 191 
 BRR  HZ EP   1    953 48.15                             152    0.28 7 72.3 300 
 BRR  HN ES   1    954  5.11                             152    0.84 7 72.3 300 
 BRR  HZ I         954  8.53        16.5 0.29                          72.3 300 
 PAM  SZ EP   1    953 49.10                             150    0.14 7 78.8  39 
 PAM  SN ES   1    954  6.00                             150   -0.21 7 78.8  39 
 PAM  SZ I         954  8.57         9.9 0.44                          78.8  39 
 RUS  HZ EP   1    953 50.40                             144    0.12 7 98.6 176 
 RUS  HN ES   1    954  8.51                             144   -0.05 7 98.6 176 
 RUS  HZ I         954 10.04        10.5 0.32                          98.6 176 
 PTB  HZ EP   1    953 53.36                             132   -0.29 7  148 260 
 PTB  HN ES   1    954 13.86                             132   -0.70 7  148 260 
 PTB  HZ I         954 16.50        10.6 0.15                           148 260 
 OCA  HN ES   1    954 16.79                             129   -0.54 7  162 353 
 OCA  HZ I         954 21.05        11.3 0.14                           162 353 
 ZAR  HZ EP   1    953 59.43                             122    0.16 6  205 293 
 ZAR  HN ES   1    954 24.74                             122    0.17 6  205 293 
 ZAR  HZ I         954 30.36        12.4 0.28                           205 293 
                                                                                
