 2010  316 0510 11.4 L   6.902 -73.215121.1  RSN 12 0.4 2.3LRSN                1
 GAP=120        0.89       3.9     7.6  7.1 -0.2327E+01  0.1929E+02  0.3730E+00E
 Epicentro: BETULIA - SANTANDER                                                3
 ACTION:UP  10-08-24 09:54 OP:vdl  STATUS:               ID:20100316051011 L   I
 2010-03-16-0507-06S.COL___095                                                 6
 STAT SP IPHASW D HRMM SECON CODA AMPLIT PERI AZIMU VELO SNR AR TRES W  DIS CAZ7
 BAR2 SZ IP        510 28.55                             163     0.110   35 174 
 BAR2 SZ ES   1    510 41.28                             163    -0.4 7   35 174 
 BRR  HZ EP   1    510 28.97                             152    -0.3 7   59 292 
 BRR  HZ I         510 43.18        34.9 0.22                            59 292 
 BRR  HN ES   2    510 43.26                             152     0.1 5   59 292 
 RUS  HZ EP   1    510 33.97                             134     0.1 7  113 173 
 RUS  HN ES   2    510 51.06                             134    -0.3 5  113 173 
 RUS  HZ I         510 53.14        14.9 0.27                           113 173 
 OCA  SZ IP        510 36.88                             125     0.1 9  148 356 
 OCA  SZ ES   1    510 56.70                             125     0.2 7  148 356 
 OCA  SZ I         510 58.10       115.4 0.27                           148 356 
 CHI  HZ EP   2    510 48.60                             110    -0.3 4  258 193 
 CHI  HZ I         510 49.10        11.3 0.16                           258 193 
 CHI  HN ES   3    511 17.95                             110    -0.2 2  258 193 
 ROSC BZ EP        510 50.01                             110     1.0 8  259 208 
 ROSC BZ I         511 24.94         7.7 0.16                           259 208 
 HEL  HZ EP        510 49.97                             109    -0.1 8  268 253 
 HEL  HZ I         511 22.95        11.8 0.28                           268 253 
 DBB  SZ EP   1    510 56.11                             105    -0.9 5  331 272 
 TOL  SZ EP   2    510 58.49                             104    -0.7 3  346 222 
 SDV  B1 ES   2    511 38.21                             103    -0.6 3  359  52 
 SDV  BZ I         511 41.62        14.2 0.25                           359  52 
 ANIL BZ EP   3    511  0.96                             103     0.2 2  360 222 
 ANIL BZ I         511 42.73        11.9 0.17                           360 222 
 PRA  HZ EP   2    511  4.50                             101    -0.5 3  398 208 
 PRA  HZ I         511 50.35         6.9 0.42                           398 208 
                                                                                
