 2014  616 0228 42.9 L   6.826 -73.149143.4  RSN  8 0.4 1.7LRSN                1
 GAP=135        0.95       3.6     4.8  6.7 -0.2121E+01  0.3862E+01  0.2624E+01E
 Epicentro: LOS SANTOS - SANTANDER                                             3
 ACTION:UPD 14-07-01 22:54 OP:nd   STATUS:               ID:20140616022842 L   I
 OLDACT:UP  14-06-16 17:11 OP:mh   STATUS:               ID:20140616022820     3
 OLDACT:REG 14-06-16 12:03 OP:mh   STATUS:               ID:20140616022820     3
 2014-06-16-0228-20M.COL___262                                                 6
 STAT SP IPHASW D HRMM SECON CODA AMPLIT PERI AZIMU VELO AIN AR TRES W  DIS CAZ7
 BAR2 SZ EP        229  2.37                             169    0.0410 26.2 188 
 BAR2 SZ ES        229 17.04                             169   -0.4310 26.2 188 
 BAR2 SZ I         229 19.53        23.5 0.03            168           26.2 188 
 BRR  HZ EP        229  3.67                             153   -0.0510 69.5 297 
 BRR  HN ES        229 20.70                             153    0.7610 69.5 297 
 BRR  HZ I         229 24.38        11.5 0.31            153           69.5 297 
 PAM  SZ EP        229  5.10                             151    0.3310 75.4  41 
 PAM  SN ES   1    229 21.50                             151   -0.31 7 75.4  41 
 PAM  SZ I         229 24.62         5.8 0.38            157           75.4  41 
 RUS  HZ EP        229  6.85                             142    0.1910  104 176 
 RUS  HN ES   1    229 25.15                             142   -0.03 7  104 176 
 PTB  HZ EP        229  9.18                             131   -0.54 9  148 258 
 PTB  HN ES   1    229 29.79                             131   -0.83 7  148 258 
 PTB  HZ I         229 35.84         6.8 0.16            133            148 258 
 OCA  HN ES        229 32.29                             130   -0.21 9  157 353 
 SPBC HZ EP        229 11.50                             128    0.06 9  165 218 
 SPBC HN ES        229 34.01                             128    0.33 9  165 218 
 SPBC HZ I         229 41.17         5.9 0.34            130            165 218 
 ZAR  HN ES   1    229 40.38                             122    0.24 6  203 291 
 NOR  HE ES   4    229 44.99                             118   -1.56 0  236 234 
 GUY2CHN ES   4    230  3.03                             112    2.40 0  303 234 
                                                                                
