 2012 1216 0837  8.2 L   6.727 -73.251145.9  RSN  5 0.5 1.0LRSN                1
 GAP=144        0.92       9.4     8.1  9.7  0.2145E+02  0.2090E+02  0.3377E+02E
 Epicentro: VILLANUEVA - SANTANDER                                             3
 ACTION:UPD 13-01-04 14:28 OP:ep   STATUS:               ID:20121216083708 L   I
 2012-12-16-0830-00M.COL___239                                                 6
 STAT SP IPHASW D HRMM SECON CODA AMPLIT PERI AZIMU VELO AIN AR TRES W  DIS CAZ7
 BAR2 SZ EP   1    837 27.55                             173   -0.20 7 16.8 153 
 BAR2 SZ ES   1    837 43.36                             173    0.38 7 16.8 153 
 BAR2 SZ I         837 46.49         2.9 0.26                          16.8 153 
 GIR2 SZ ES   1    837 42.85                             164   -0.85 7 39.4   9 
 BRR  HZ EP   1    837 29.50                             154    0.40 7 66.0 310 
 BRR  HN ES   1    837 46.08                             154    0.70 7 66.0 310 
 BRR  HZ I         837 48.09         2.1 0.46                          66.0 310 
 RUS  HZ EP   1    837 31.43                             146   -0.10 7 94.2 169 
 RUS  HZ I         837 49.52         1.7 0.74                          94.2 169 
 RUS  HN ES   2    837 49.95                             146    0.24 5 94.2 169 
 PTB  HZ EP   1    837 34.13                             135    0.07 7  135 261 
 PTB  HN ES   1    837 53.67                             135   -0.54 7  135 261 
 PTB  HZ I         837 57.10         0.9 0.28                           135 261 
                                                                                
