 2013  616 0725 30.9 L   6.847 -73.220154.4  RSN  3 0.1 1.3LRSN                1
 GAP=280        0.36       2.9     6.3  4.2 -0.5868E+01 -0.7992E+01 -0.1196E+01E
 Epicentro: ZAPATOCA - SANTANDER                                               3
 ACTION:UPD 14-01-08 09:55 OP:ep   STATUS:               ID:20130616072530 L   I
 OLDACT:REG 13-06-16 07:42 OP:cam  STATUS:               ID:20130616071959     3
 2013-06-16-0719-59M.COL___260                                                 6
 STAT SP IPHASW D HRMM SECON CODA AMPLIT PERI AZIMU VELO AIN AR TRES W  DIS CAZ7
 BRR  HZ EP        725 52.39                             157   -0.0710 61.5 298 
 BRR  HN ES        726  9.35                             157    0.0410 61.5 298 
 BRR  HZ I         726 12.83         3.7 0.44            146           61.5 298 
 PTB  HZ EP   1    725 58.17                             135    0.22 7  141 256 
 PTB  HN ES   1    726 18.96                             135   -0.12 7  141 256 
 PTB  HZ I         726 25.64         1.5 0.28            128            141 256 
 SML  HZ EP   1    726  7.01                             120   -0.11 6  236 337 
 SML  HE ES        726 35.45                             120    0.04 8  236 337 
 SML  HZ I         726 38.55         2.8 0.28            118            236 337 
                                                                                
