 2015  916 0904 26.5 L   6.815 -73.167145.0  RSN 15 0.5 1.8LRSN                1
 GAP=133        1.07       2.7     3.7  5.4 -0.1510E+01  0.6569E+01  0.1260E+01E
 Epicentro: LOS SANTOS - SANTANDER                                             3
 ACTION:UPD 15-10-28 16:26 OP:cam  STATUS:               ID:20150916090426 L   I
 OLDACT:UP  15-09-16 16:23 OP:ak   STATUS:               ID:20150916085742     3
 OLDACT:UP  15-09-16 16:22 OP:ak   STATUS:               ID:20150916085742     3
 OLDACT:REG 15-09-16 13:05 OP:mh   STATUS:               ID:20150916085742     3
 2015-09-16-0857-42M.COL___346                                                 6
 STAT SP IPHASW D HRMM SECON CODA AMPLIT PERI AZIMU VELO AIN AR TRES W  DIS CAZ7
 BAR2 EZ EP        9 4 46.13                             170    0.0310 24.7 184 
 BAR2 EZ ES        9 5  0.66                             170   -0.7110 24.7 184 
 BAR2 EZ I         9 5  4.55        15.2 0.28            168           24.7 184 
 BRR  HZ EP        9 4 48.15                             153    0.7110 68.3 298 
 BRR  HN ES        9 5  4.52                             153    0.7710 68.3 298 
 PAM  EZ IP     C  9 4 48.89                             151    0.2110 77.7  42 
 PAM  EN ES        9 5  6.10                             151    0.1410 77.7  42 
 PAM  EZ I         9 5  7.70         4.9 0.35            156           77.7  42 
 RUS  HZ EP        9 4 50.48                             143    0.1410  102 175 
 RUS  HN ES        9 5  8.98                             143    0.0610  102 175 
 RUS  HZ I         9 5 11.58         8.7 0.40            145            102 175 
 PTB  HZ EP        9 4 52.81                             132   -0.45 9  146 258 
 PTB  HN ES        9 5 13.91                             132   -0.20 9  146 258 
 PTB  HZ I         9 5 21.51        13.9 0.52            133            146 258 
 OCA  HZ EP   2    9 4 54.33                             130   -0.27 5  158 354 
 OCA  HN ES        9 5 16.20                             130   -0.30 9  158 354 
 OCA  HZ I         9 5 21.82        13.7 0.32            133            158 354 
 SPBC HZ EP        9 4 55.02                             129    0.06 9  163 218 
 SPBC HN ES        9 5 17.28                             129    0.15 9  163 218 
 SPBC HZ I         9 5 23.09        12.5 0.14            130            163 218 
 ZAR  HZ EP        9 4 58.81                             123    0.17 9  201 292 
 ZAR  HN ES        9 5 24.36                             123    0.68 9  201 292 
 ZAR  HZ I         9 5 31.30         5.9 0.18            124            201 292 
 NOR  HZ EP   4    9 5  0.46                             118   -1.66 0  234 234 
 NOR  HE ES        9 5 29.77                             118   -0.10 8  234 234 
 NOR  HZ I         9 5 33.99         5.7 0.13            120            234 234 
 SML  HZ EP        9 5  2.51                             118   -0.34 8  241 336 
 SML  HE ES        9 5 30.19                             118   -0.98 8  241 336 
 CHI  HZ EP        9 5  4.06                             117   -0.24 8  250 195 
 CHI  HN ES        9 5 33.28                             117   -0.47 8  250 195 
 CHI  HZ I         9 5 43.38         2.8 0.30            119            250 195 
 HEL  HZ EP   1    9 5  6.89                             115    0.39 6  270 255 
 HEL  HN ES        9 5 37.05                             115   -0.62 8  270 255 
 HEL  HZ I         9 5 45.15         4.6 0.38            116            270 255 
 GUY2CHZ EP   1    9 5 10.99                             112    0.99 5  300 234 
 GUY2CHE ES        9 5 44.16                             112    0.26 7  300 234 
 GUY2CHZ I         9 5 54.87         4.3 0.50                           300 234 
 CBOC HZ EP   1    9 5 14.22                             110    1.00 5  332 252 
 CBOC HE ES        9 5 48.90                             110   -0.73 7  332 252 
 CBOC HZ I         9 5 55.60         1.4 0.57            111            332 252 
 PRA  HZ EP   1    9 5 19.72                             106   -0.34 4  392 209 
 PRA  HE ES        9 6  1.91                             106    0.10 6  392 209 
 PRA  HZ I         9 6  6.45         2.8 0.27            108            392 209 
 CRJC HZ EP   4    9 5 26.28                             103   -2.55 0  466   4 
 CRJC HN ES   4    9 6 14.29                             103   -3.13 0  466   4 
                                                                                
