 2011  316 0434 52.1 L   6.788 -73.499108.0  RSN 10 0.4 1.9LRSN                1
 GAP=113        0.91       3.0     5.6  6.7 -0.3580E+01  0.1485E+02  0.1869E+01E
 Epicentro: EL CARMEN DE CHUCURI - SANTANDER                                   3
 ACTION:UP  11-06-16 14:33 OP:jfem STATUS:               ID:20110316043452 L   I
 2011-03-16-0432-50S.COL___138                                                 6
 STAT SP IPHASW D HRMM SECON CODA AMPLIT PERI AZIMU VELO SNR AR TRES W  DIS CAZ7
 BTL  SZ IP        435  7.75                             164     0.310   29  61 
 BTL  SZ ES   1    435 19.41                             164     0.0 7   29  61 
 BAR2 SZ IP        435  8.04                             158     0.110   41 122 
 BAR2 SZ ES   1    435 20.14                             158    -0.1 7   41 122 
 BAR2 SZ I         435 21.69        72.9 0.19                            41 122 
 GIR2 SZ IP        435  8.27                             155     0.210   47  46 
 GIR2 SZ ES   1    435 20.40                             155     0.0 7   47  46 
 RUS  HZ EP   1    435 12.71                             132    -0.5 7  109 155 
 RUS  HE ES   1    435 28.82                             132    -0.8 7  109 155 
 RUS  HZ I         435 29.95        12.2 0.22                           109 155 
 GRA  SZ EP   1    435 16.34                             123     0.3 7  144  32 
 GRA  SZ ES   1    435 35.15                             123     0.4 7  144  32 
 GRA  SZ I         435 37.27        12.7 0.25                           144  32 
 OCA  SZ EP   1    435 17.63                             119    -0.3 7  162   7 
 OCA  SZ ES   1    435 37.35                             119    -0.8 7  162   7 
 OCA  SZ I         435 39.58        15.0 0.18                           162   7 
 YOP  SZ ES   1    435 45.70                             113     0.5 6  199 143 
 NOR  SZ EP   2    435 22.78                             113     0.3 4  203 228 
 NOR  SN ES   1    435 46.75                             113     0.7 6  203 228 
 HEL  HN ES   2    435 52.44                             109    -0.5 4  234 254 
 HEL  HZ I         435 57.49         4.0 0.17                           234 254 
 CHI  HZ EP        435 26.77                             109    -0.3 8  240 186 
 CHI  HN ES   1    435 54.32                             109     0.0 6  240 186 
 CHI  HZ I         436  2.30         3.7 0.40                           240 186 
                                                                                
