 2014  116 0327 59.4 L   6.807 -73.140144.0  RSN 11 0.4 1.7LRSN                1
 GAP=137        0.92       3.2     3.5  5.1 -0.1435E+01  0.5373E+01  0.3400E+01E
 Epicentro: LOS SANTOS - SANTANDER                                             3
 ACTION:UPD 14-03-13 09:55 OP:ep   STATUS:               ID:20140116032759 L   I
 OLDACT:REG 14-01-16 07:28 OP:carl STATUS:               ID:20140116032000     3
 2014-01-16-0320-00M.COL___285                                                 6
 STAT SP IPHASW D HRMM SECON CODA AMPLIT PERI AZIMU VELO AIN AR TRES W  DIS CAZ7
 BAR2 SZ EP        328 18.73                             170   -0.0710 24.2 191 
 BAR2 SZ ES        328 33.50                             170   -0.4610 24.2 191 
 BAR2 SZ I         328 35.03        24.3 0.18            166           24.2 191 
 BRR  HZ EP        328 20.16                             152   -0.1710 71.4 298 
 BRR  HN ES        328 37.54                             152    0.8510 71.4 298 
 PAM  SZ EP        328 21.72                             151    0.3910 76.4  40 
 PAM  SN ES        328 38.35                             151   -0.1210 76.4  40 
 RUS  HZ EP        328 22.81                             143   -0.1810  101 176 
 RUS  HN ES        328 41.34                             143   -0.0810  101 176 
 RUS  HZ I         328 44.44         1.8 0.18            143            101 176 
 PTB  HZ EP        328 26.05                             131   -0.21 9  149 259 
 PTB  HN ES        328 46.79                             131   -0.45 9  149 259 
 PTB  HZ I         328 52.29         7.2 0.28            131            149 259 
 SPBC HZ EP        328 27.80                             128   -0.02 9  164 219 
 SPBC HN ES        328 50.44                             128    0.42 9  164 219 
 SPBC HZ I         328 56.09         7.3 0.42            128            164 219 
 ZAR  HZ EP        328 31.65                             122   -0.08 9  204 292 
 ZAR  HN ES        328 56.89                             122   -0.08 9  204 292 
 ZAR  HZ I         329  3.42         5.4 0.46            122            204 292 
 NOR  HZ EP        328 34.49                             118   -0.60 8  236 234 
 NOR  HN ES        329  2.50                             118   -0.46 8  236 234 
 NOR  HZ I         329  6.64         6.0 0.40            118            236 234 
 CHI  HZ EP        328 37.19                             117    0.13 8  250 195 
 CHI  HN ES        329  6.95                             117    0.49 8  250 195 
 CHI  HZ I         329 10.71         1.6 0.26            117            250 195 
 GUY2CHZ EP        328 43.61                             112    0.61 7  302 235 
 GUY2CHN ES        329 17.40                             112    0.37 7  302 235 
 GUY2CHZ I         329 25.23         2.4 0.32                           302 235 
 RREF HZ EP   4    328 47.23                             110    1.69 0  323 229 
 RREF HN ES        329 21.59                             110    0.03 7  323 229 
 RREF HZ I         329 30.32         2.6 0.26            111            323 229 
                                                                                
