 2012  716 0029 52.5 L   6.749 -73.171157.1  RSN  6 0.4 1.4LRSN                1
 GAP=180        0.89       6.8     7.6  9.7  0.2175E+02  0.6962E+01 -0.2316E+01E
 Epicentro: VILLANUEVA - SANTANDER                                             3
 ACTION:UPD 12-08-14 11:45 OP:ep   STATUS:               ID:20120716002952 L   I
 2012-07-16-0030-00M.COL___197                                                 6
 STAT SP IPHASW D HRMM SECON CODA AMPLIT PERI AZIMU VELO AIN AR TRES W  DIS CAZ7
 BAR2 SZ EP   2    030 13.36                             174    -0.1 5   17 184 
 BAR2 SZ ES   2    030 29.15                             174    -0.6 5   17 184 
 BAR2 SZ I         030 30.42         4.7 0.16            171             17 184 
 BRR  HZ EP        030 15.21                             154     0.310   72 304 
 BRR  HZ I         030 15.53         8.5 0.20            154             72 304 
 BRR  HE ES   1    030 33.15                             154     0.7 7   72 304 
 RUS  HZ EP   1    030 17.33                             148     0.3 7   95 174 
 RUS  HN ES   1    030 35.93                             148    -0.2 7   95 174 
 RUS  HZ I         030 37.14         3.1 0.35            147             95 174 
 PTB  HZ EP        030 20.02                             135    -0.1 9  144 261 
 PTB  HN ES   1    030 41.30                             135    -0.3 7  144 261 
 PTB  HZ I         030 44.38         2.3 0.12            134            144 261 
 OCA  HN ES   2    030 44.55                             131    -0.9 5  166 354 
 ZAR  HN ES   1    030 51.34                             125    -0.2 6  204 294 
