 2015  516 0305 45.5 L   6.757 -73.096149.5  RSN  7 0.3 1.6LRSN                1
 GAP=240        0.65       4.2     6.3  5.4  0.4361E+01  0.8548E+01  0.3706E+01E
 Epicentro: LOS SANTOS - SANTANDER                                             3
 ACTION:UPD 15-09-10 22:04 OP:cam  STATUS:               ID:20150516030545 L   I
 OLDACT:REG 15-05-16 12:37 OP:spq  STATUS:               ID:20150516025750     3
 2015-05-16-0257-50M.COL___274                                                 6
 STAT SP IPHASW D HRMM SECON CODA AMPLIT PERI AZIMU VELO AIN AR TRES W  DIS CAZ7
 BAR2 EZ ES   1    3 6 21.02                             172   -0.13 7 20.6 208 
 BAR2 EZ I         3 6 22.94         7.6 0.30            163           20.6 208 
 BRR  HZ EP        3 6  7.17                             151   -0.3010 78.3 300 
 BRR  HN ES        3 6 24.65                             151    0.0510 78.3 300 
 BRR  HZ I         3 6 26.62         8.8 0.20            147           78.3 300 
 RUS  HZ EP   1    3 6  9.52                             146    0.24 7 95.6 179 
 RUS  HN ES   1    3 6 27.92                             146    0.10 7 95.6 179 
 RUS  HZ I         3 6 29.01         2.8 0.26            144           95.6 179 
 SPBC HZ EP        3 6 14.19                             130   -0.10 9  163 222 
 SPBC HE ES   1    3 6 37.06                             130    0.32 7  163 222 
 SPBC HZ I         3 6 41.41         6.4 0.10            127            163 222 
 ZAR  HZ EP   1    3 6 19.71                             122    0.80 6  211 293 
 NOR  HZ EP   1    3 6 21.25                             119   -0.40 6  237 236 
 NOR  HN ES   1    3 6 49.55                             119   -0.29 6  237 236 
 NOR  HZ I         3 6 57.29         2.7 0.16            118            237 236 
 GUY2CHZ EP   4    3 6 31.36                             113    1.86 0  303 236 
 GUY2CHN ES   4    3 7  6.31                             113    2.50 0  303 236 
 GUY2CHZ I         3 7 11.60         1.9 0.30                           303 236 
                                                                                
