 2012 1116 0312 37.2 L   6.760 -73.190142.8  RSN  4 0.4 1.5LRSN                1
 GAP=229        0.84       8.7     8.3  9.1  0.3614E+02  0.8538E+01  0.3301E+01E
 Epicentro: VILLANUEVA - SANTANDER                                             3
 ACTION:UPD 12-12-05 15:33 OP:}ep  STATUS:               ID:20121116031237 L   I
 2012-11-16-0310-00M.COL___233                                                 6
 STAT SP IPHASW D HRMM SECON CODA AMPLIT PERI AZIMU VELO AIN AR TRES W  DIS CAZ7
 BAR2 SZ EP   1    312 56.32                             172   -0.04 7 18.5 177 
 BAR2 SZ ES   1    313 10.69                             172   -0.63 7 18.5 177 
 BAR2 SZ I         313 12.95         8.1 0.40                          18.5 177 
 BRR  HZ EP   1    312 57.73                             153   -0.17 7 69.3 304 
 BRR  HN ES   1    313 14.67                             153    0.61 7 69.3 304 
 RUS  HZ EP   1    313  0.92                             144    0.57 7 96.6 173 
 RUS  HN ES   1    313 18.53                             144    0.11 7 96.6 173 
 PTB  HZ EP   1    313  2.86                             132   -0.54 7  142 260 
 PTB  HN ES   1    313 23.88                             132    0.04 7  142 260 
 PTB  HZ I         313 26.50         3.0 0.13                           142 260 
                                                                                
