 2012  116 0954 49.9 L   6.773 -73.121140.8  RSN  4 0.0 1.5LRSN                1
 GAP=141        0.30       3.4     3.4  4.2 -0.1422E+01 -0.5320E+01  0.3933E+01E
 Epicentro: LOS SANTOS - SANTANDER                                             3
 ACTION:UP  12-02-03 08:17 OP:REBC STATUS:               ID:20120116095449 L   I
 2012-01-16-0950-00M.COL___185                                                 6
 STAT SP IPHASW D HRMM SECON CODA AMPLIT PERI AZIMU VELO SNR AR TRES W  DIS CAZ7
 BAR2 SZ ES   2    955 23.71                             171     0.0 5   21 199 
 BAR2 SZ I         955 24.81         5.1 0.27                            21 199 
 BRR  HZ EP   1    955 10.72                             150    -0.1 7   75 300 
 BRR  HE ES   1    955 27.05                             150     0.0 7   75 300 
 BRR  HZ I         955 32.06         7.2 0.18                            75 300 
 PAM  SZ EP        955 11.68                             150     0.010   78  37 
 PAM  SE ES   2    955 28.58                             150     0.0 5   78  37 
 RUS  HZ EP   1    955 12.99                             144     0.0 7   98 178 
                                                                                
