 2017  116 0527 15.5 L   6.358 -73.544106.0  RSN  4 0.4 0.8LRSN                1
 GAP=119        0.75       5.6     3.0  9.2  0.6862E+00  0.9800E+00 -0.2326E+02E
 Epicentro: SANTA HELENA DEL OPON - SANTANDER                                  3
 ACTION:UPD 17-05-22 16:00 OP:jn   STATUS:               ID:20170116052715 L   I
 OLDACT:UP  17-01-16 16:46 OP:dani STATUS:               ID:20170116051746d    3
 OLDACT:UP  17-01-16 16:46 OP:dani STATUS:               ID:20170116051746d    3
 OLDACT:UP  17-01-16 16:46 OP:dani STATUS:               ID:20170116051746d    3
 OLDACT:DUP 17-01-16 16:27 OP:dani STATUS:               ID:20170116051746d    3
 OLDACT:UP  17-01-16 16:27 OP:dani STATUS:               ID:20170116051745d    3
 OLDACT:DUP 17-01-16 16:24 OP:dani STATUS:               ID:20170116051745d    3
 OLDACT:REG 17-01-16 13:17 OP:dani STATUS:               ID:20170116051744     3
 2017-01-16-0518-00M.COL___341                                                 6
 STAT SP IPHASW D HRMM SECON CODA AMPLIT PERI AZIMU VELO AIN AR TRES W  DIS CAZ7
 RUS  HZ EP        527 32.88                             144   -0.4010 72.5 135 
 RUS  HN ES        527 47.38                             144    0.2010 72.5 135 
 RUS  HZ I         527 49.64         1.1 0.22            145           72.5 135 
 PTB  HZ EP        527 34.73                             133   -0.3910  103 281 
 PTB  HN ES        527 50.56                             133    0.1110  103 281 
 PTB  HZ I         527 51.71         1.0 0.32            135            103 281 
 PAM  HZ EP        527 39.96                             123    0.29 9  143  41 
 NOR  HZ EP   3    527 43.21                             118    1.15 2  171 239 
 NOR  HN ES        528  3.00                             118    0.19 9  171 239 
 NOR  HZ I         528  5.06         1.8 0.13            119            171 239 
                                                                                
