 2010  116 0309 29.5 L   6.798 -72.943147.2  RSN  7 0.3 1.8LRSN                1
 GAP=203        0.72       3.2    11.7  6.2 -0.9191E+01  0.2463E+02 -0.6319E+00E
 Epicentro: CEPITA - SANTANDER                                                 3
 ACTION:UP  10-08-24 09:44 OP:vdl  STATUS:               ID:20100116030929 L   I
 2010-01-16-0305-04S.COL___096                                                 6
 STAT SP IPHASW D HRMM SECON CODA AMPLIT PERI AZIMU VELO SNR AR TRES W  DIS CAZ7
 BAR2 SZ IP        3 9 49.69                             166     0.110   35 229 
 BAR2 SZ ES   1    310  4.62                             166    -0.7 7   35 229 
 GIR2 SZ EP   1    3 9 49.88                             164     0.2 7   42 318 
 RUS  BZ IP        3 9 53.61                             144     0.110  101 189 
 RUS  BE ES        310 12.38                             144     0.210  101 189 
 RUS  BZ I         310 13.31         5.9 0.32                           101 189 
 OCA  SZ EP   1    3 9 57.78                             129    -0.6 7  165 345 
 OCA  SZ ES   1    310 21.28                             129     0.4 7  165 345 
 OCA  SZ I         310 23.60        14.3 0.22                           165 345 
 CHI  HZ IP        310  7.88                             117    -0.1 8  255 200 
 CHI  HN ES   1    310 37.92                             117    -0.1 6  255 200 
 CHI  HZ I         310 45.25         3.0 0.47                           255 200 
 TOL  SZ EP   1    310 19.92                             109     0.2 5  359 227 
 TOL  SZ ES   2    310 59.08                             109     0.3 3  359 227 
 PRA  HZ EP   2    310 23.92                             106    -0.5 3  403 212 
 PRA  HE ES   1    311  7.04                             106    -0.2 4  403 212 
 PRA  HZ I         311  8.54         2.8 0.49                           403 212 
                                                                                
