 2010  916 1921 51.7 L   6.755 -73.085147.5  RSN  7 0.2 2.5LRSN                1
 GAP=166        0.41       2.8     6.1  4.8 -0.4418E+00 -0.7017E+01 -0.9209E+00E
 Epicentro: LOS SANTOS - SANTANDER                                             3
 ACTION:UP  11-02-18 11:03 OP:tino STATUS:               ID:20100916192151 L   I
 2010-09-16-1918-50S.COL___118                                                 6
 STAT SP IPHASW D HRMM SECON CODA AMPLIT PERI AZIMU VELO SNR AR TRES W  DIS CAZ7
 BAR2 SZ EP   1   1922 11.41                             172    -0.1 7   21 211 
 BAR2 SZ ES   2   1922 26.88                             172    -0.1 5   21 211 
 BAR2 SZ I        1922 28.31        62.6 0.21                            21 211 
 BTL  SZ EP   1   1922 12.02                             169     0.4 7   27 312 
 GIR2 SZ EP   1   1922 11.67                             165    -0.1 7   38 342 
 GIR2 SZ ES   2   1922 27.25                             165    -0.2 5   38 342 
 BRR  HZ IP     C 1922 13.44                             150    -0.110   79 299 
 BRR  HZ I        1922 13.89       106.0 0.13                            79 299 
 BRR  HE ES   2   1922 30.72                             150     0.2 5   79 299 
 RUS  HZ IP     C 1922 15.22                             146    -0.110   95 180 
 RUS  HE ES   2   1922 33.84                             146     0.2 5   95 180 
 RUS  HZ I        1922 35.41        35.8 0.52                            95 180 
 GUE  SZ EP   1   1922 16.80                             139    -0.1 7  120   8 
 GRA  SZ EP   1   1922 17.57                             137     0.2 7  129  14 
 GRA  SZ ES   2   1922 37.30                             137    -0.1 5  129  14 
 GRA  SZ I        1922 39.71        27.2 0.44                           129  14 
                                                                                
