 2014  716 1015 13.3 L   6.808 -73.169136.8  RSN  5 0.5 1.3LRSN                1
 GAP=208        1.08       5.2     8.7  9.7  0.3501E+01  0.2919E+02 -0.1104E+02E
 Epicentro: LOS SANTOS - SANTANDER                                             3
 ACTION:UPD 15-03-16 20:44 OP:nd   STATUS:               ID:20140716101513 L   I
 OLDACT:REG 14-07-16 20:52 OP:stll STATUS:               ID:20140716100818     3
 2014-07-16-1008-18M.COL___256                                                 6
 STAT SP IPHASW D HRMM SECON CODA AMPLIT PERI AZIMU VELO AIN AR TRES W  DIS CAZ7
 BAR2 SZ ES       1015 46.49                             170    0.1510 23.9 184 
 BAR2 SZ I        1015 49.52         4.3 0.28            166           23.9 184 
 PTB  HZ EP       1015 38.92                             130   -0.41 9  145 258 
 PTB  HN ES       1015 59.71                             130    0.08 9  145 258 
 PTB  HZ I        1016  7.46         2.4 0.26            130            145 258 
 SPBC HZ EP       1015 40.72                             127   -0.31 9  162 218 
 SPBC HN ES       1016  2.59                             127   -0.08 9  162 218 
 SPBC HZ I        1016  9.84         2.6 0.42            129            162 218 
 ZAR  HZ EP       1015 46.01                             121    1.13 9  201 292 
 ZAR  HE ES       1016  9.44                             121   -0.08 9  201 292 
 ZAR  HZ I        1016 16.23         1.6 0.24            122            201 292 
 SML  HN ES       1016 16.77                             116   -0.48 8  242 336 
 SML  HZ I        1016 21.50         2.2 0.22            119            242 336 
                                                                                
