 2016  416 1802 20.5 L   6.827 -73.154143.6  RSN 22 0.4 2.8LRSN                1
 GAP= 70        0.93       2.4     2.5  4.4 -0.1212E+01  0.2973E+01  0.7524E+00E
 Epicentro: LOS SANTOS - SANTANDER                                             3
 ACTION:UPD 16-05-05 14:22 OP:rebc STATUS:               ID:20160416180220 L   I
 OLDACT:REG 16-04-16 21:27 OP:mh   STATUS:               ID:20160416175749     3
 2016-04-16-1757-49M.COL___307                                                 6
 STAT SP IPHASW D HRMM SECON CODA AMPLIT PERI AZIMU VELO AIN AR TRES W  DIS CAZ7
 BAR2 EZ EP     D 18 2 40.03                             169    0.1010 26.2 187 
 BAR2 EZ ES       18 2 54.72                             169   -0.3710 26.2 187 
 BAR2 EZ I        18 2 56.21       147.7 0.28            168           26.2 187 
 PAM  EZ EP       18 2 42.91                             151    0.5310 75.7  41 
 PAM  EN ES       18 2 59.94                             151    0.4910 75.7  41 
 PAM  EZ I        18 3  2.68        41.8 0.32            146           75.7  41 
 RUS  HZ EP       18 2 43.98                             142   -0.2810  104 176 
 RUS  HN ES       18 3  2.97                             142    0.1710  104 176 
 RUS  HZ I        18 3  3.77        53.6 0.30            138            104 176 
 PTB  HZ EP       18 2 46.54                             132   -0.73 9  148 258 
 PTB  HE ES       18 3  7.83                             132   -0.32 9  148 258 
 PTB  HZ I        18 3  9.70        57.3 0.12            123            148 258 
 OCA  HZ EP       18 2 48.20                             130   -0.15 9  157 353 
 OCA  HE ES       18 3  9.99                             130   -0.08 9  157 353 
 OCA  HZ I        18 3 18.51       106.3 0.25            121            157 353 
 TAM  HZ EP     D 18 2 48.42                             130    0.26 9  157 106 
 TAM  HZ I        18 3  9.37        35.1 0.36            125            157 106 
 TAM  HN ES       18 3  9.90                             130    0.17 9  157 106 
 SPBC HZ EP       18 2 48.73                             128   -0.27 9  165 218 
 SPBC HN ES       18 3 11.27                             128    0.03 9  165 218 
 SPBC HZ I        18 3 16.09        73.1 0.15            121            165 218 
 ZAR  HZ EP       18 2 52.32                             122   -0.28 9  202 291 
 ZAR  HE ES       18 3 17.94                             122    0.30 9  202 291 
 ZAR  HZ I        18 3 24.43        53.4 0.11            114            202 291 
 NOR  HZ EP       18 2 55.77                             118   -0.44 8  236 234 
 NOR  HE ES       18 3 23.66                             118   -0.41 8  236 234 
 NOR  HZ I        18 3 28.96        40.8 0.18            111            236 234 
 CHI  HZ EP       18 2 58.12                             116   -0.25 8  251 195 
 CHI  HN ES       18 3 27.56                             116   -0.35 8  251 195 
 CHI  HZ I        18 3 32.43        35.4 0.36            111            251 195 
 HEL  HZ EP       18 3  1.59                             114    1.00 8  272 255 
 HEL  HN ES       18 3 31.84                             114   -0.02 8  272 255 
 HEL  HZ I        18 3 38.61        25.8 0.30            108            272 255 
 URE  HZ EP   4   18 2 59.84                             113   -1.41 0  282 291 
 URE  HE ES   4   18 3 30.53                             113   -2.50 0  282 291 
 SOCV BZ EP       18 3  2.77                             112   -0.57 7  300  57 
 SOCV BN ES   4   18 3 35.14                             112   -1.63 0  300  57 
 GUY2CHZ EP       18 3  4.26                             112    0.14 7  302 234 
 GUY2CHE ES   4   18 3 41.75                             112    3.60 0  302 234 
 GUY2CHZ I        18 3 46.44        26.6 0.60                           302 234 
 VIL  SZ EP   2   18 3  3.95                             111   -0.18 4  306 191 
 VIL  SN ES       18 3 38.11                             111   -0.06 7  306 191 
 VIL  SZ I        18 3 41.57      1231.2 0.38            106            306 191 
 PTGC HZ EP   4   18 3  3.28                             111   -1.33 0  312 159 
 PTGC HE ES   4   18 3 35.60                             111   -3.42 0  312 159 
 PTGC HZ I        18 3 37.25        21.5 0.30            106            312 159 
 CBOC HZ EP       18 3  7.78                             109    0.45 7  334 252 
 CBOC HZ I        18 4  7.79        10.5 0.36            104            334 252 
 DBB  SZ EP       18 3  7.47                             109   -0.29 7  338 274 
 DBB  SZ ES   4   18 3 41.54                             109   -3.09 0  338 274 
 DBB  SZ I        18 3 45.54        76.4 0.32            103            338 274 
 SDV  BZ EP   2   18 3  9.73                             108   -0.58 3  359  51 
 SDV  BN ES   4   18 3 46.36                             108   -2.81 0  359  51 
 ANIL HZ EP       18 3 11.38                             108    0.98 6  359 224 
 ANIL HN ES       18 3 50.08                             108    0.76 6  359 224 
 ANIL HZ I        18 3 55.32        61.6 0.34            103            359 224 
 ORTC HZ EP       18 3 14.46                             106   -0.11 6  397 216 
 ORTC HN ES       18 3 57.52                             106    0.78 6  397 216 
 ORTC HZ I        18 4  3.15        13.3 0.44            101            397 216 
 SJC  HZ EP   4   18 3 13.83                             105   -1.81 0  406 327 
 SJC  HN ES   4   18 3 53.94                             105   -4.70 0  406 327 
 SJC  HZ I        18 4  9.86         7.7 0.56            100            406 327 
 YOT  HZ EP   4   18 3 22.21                             103   -1.43 0  473 229 
 YOT  HZ I        18 4 20.85         1.8 0.44             98            473 229 
                                                                                
