 2014  216 1450 57.8 L   6.829 -73.180146.2  RSN  8 0.4 2.2LRSN                1
 GAP=131        0.71       3.1     4.0  6.2 -0.3691E+01  0.1158E+02 -0.4122E+01E
 Epicentro: ZAPATOCA - SANTANDER                                               3
 ACTION:UPD 14-03-10 08:10 OP:ep   STATUS:               ID:20140216145057 L   I
 OLDACT:REG 14-02-16 14:31 OP:mh   STATUS:               ID:20140216145000     3
 2014-02-16-1450-00M.COL___212                                                 6
 STAT SP IPHASW D HRMM SECON CODA AMPLIT PERI AZIMU VELO AIN AR TRES W  DIS CAZ7
 BAR2 SZ EP   1   1451 17.25                             169   -0.31 7 26.1 181 
 BAR2 SZ ES   1   1451 32.66                             169   -0.30 7 26.1 181 
 BAR2 SZ I        1451 34.24        12.4 0.19            169           26.1 181 
 PAM  SZ EP   1   1451 20.28                             151    0.20 7 77.5  43 
 PAM  SN ES       1451 37.71                             151    0.2610 77.5  43 
 PAM  SZ I        1451 39.26         8.1 0.11            154           77.5  43 
 RUS  HZ EP   1   1451 22.12                             143    0.26 7  104 174 
 RUS  HN ES       1451 40.42                             143   -0.2010  104 174 
 RUS  HZ I        1451 41.25         2.8 0.23            145            104 174 
 PTB  HZ EP       1451 24.46                             133   -0.08 9  145 257 
 PTB  HN ES       1451 45.39                             133   -0.00 9  145 257 
 PTB  HZ I        1451 47.72         4.5 0.12            132            145 257 
 OCA  HN ES   2   1451 48.52                             130    0.84 5  157 354 
 SPBC HN ES   2   1451 48.24                             129   -0.39 5  163 217 
 SPBC HZ I        1451 54.73         8.9 0.21            130            163 217 
 NOR  HZ EP   1   1451 33.62                             119    0.18 6  234 233 
 NOR  HN ES   1   1452  2.06                             119    0.83 6  234 233 
 NOR  HZ I        1452  5.12     17050.6 0.02            119            234 233 
 SML  HZ EP   1   1451 33.48                             118   -0.50 6  239 336 
 SML  HN ES   1   1452  1.70                             118   -0.50 6  239 336 
 SML  HZ I        1452  6.09         8.1 0.10            119            239 336 
                                                                                
