 2013  516 1651 36.9 L   6.792 -73.140152.0  RSN 11 0.5 2.0LRSN                1
 GAP=138        0.92       3.6     4.6  6.3  0.6544E+00  0.8809E+01  0.2466E+01E
 Epicentro: LOS SANTOS - SANTANDER                                             3
 ACTION:UPD 13-06-20 09:51 OP:ep   STATUS:               ID:20130516165136 L   I
 2013-05-16-1650-00M.COL___253                                                 6
 STAT SP IPHASW D HRMM SECON CODA AMPLIT PERI AZIMU VELO AIN AR TRES W  DIS CAZ7
 BAR2 SZ EP       1651 57.25                             171   -0.0210 22.5 192 
 BAR2 SZ ES   1   1652 12.60                             171   -0.56 7 22.5 192 
 BAR2 SZ I        1652 14.01        18.3 0.38            167           22.5 192 
 GIR2 SZ EP   1   1651 57.45                             167    0.10 7 32.3 350 
 GIR2 SZ ES   1   1652 13.55                             167    0.25 7 32.3 350 
 GIR2 SZ I        1652 14.79        18.9 0.42            164           32.3 350 
 BRR  HZ EP   1   1651 58.49                             153   -0.30 7 72.2 299 
 BRR  HN ES   1   1652 16.80                             153    0.94 7 72.2 299 
 BRR  HZ I        1652 20.40        19.0 0.14            149           72.2 299 
 PAM  SZ EP   1   1652  0.31                             152    0.50 7 77.7  39 
 PAM  SN ES   1   1652 17.58                             152   -0.10 7 77.7  39 
 PAM  SZ I        1652 19.57        28.3 0.54            157           77.7  39 
 RUS  HZ EP       1652  1.10                             145   -0.1110 99.6 176 
 RUS  HN ES   1   1652 20.23                             145    0.06 7 99.6 176 
 RUS  HZ I        1652 21.46         5.1 0.20            147           99.6 176 
 PTB  HZ EP       1652  3.87                             133   -0.56 9  148 259 
 PTB  HN ES   1   1652 24.96                             133   -0.93 7  148 259 
 PTB  HZ I        1652 31.16        17.5 0.30            132            148 259 
 ZAR  HZ EP   1   1652  9.94                             124    0.08 6  205 292 
 ZAR  HN ES       1652 35.89                             124    0.33 9  205 292 
 ZAR  HZ I        1652 45.99        12.4 0.52            123            205 292 
 NOR  HZ EP   1   1652 13.73                             120    0.73 6  235 235 
 NOR  HN ES   1   1652 41.31                             120    0.15 6  235 235 
 NOR  HZ I        1652 48.95         7.4 0.18            120            235 235 
 SML  HZ EP   1   1652 14.13                             119    0.12 6  245 335 
 SML  HN ES   1   1652 42.30                             119   -0.64 6  245 335 
 CHI  HN ES   1   1652 44.47                             118   -0.03 6  248 195 
 PRA  HN ES   1   1653 13.33                             108    0.87 4  392 210 
 PRA  HZ I        1653 16.85         4.4 0.64            109            392 210 
 SJC  HZ EP   4   1652 31.37                             107   -1.44 0  410 327 
 SJC  HN ES   4   1653 11.78                             107   -4.63 0  410 327 
                                                                                
