 2013 1216 1944 48.7 L   6.775 -73.153142.9  RSN  4 0.3 1.4LRSN                1
 GAP=137        0.73       4.0     3.8  6.8 -0.1956E+01  0.1669E+01  0.4957E+01E
 Epicentro: LOS SANTOS - SANTANDER                                             3
 ACTION:UPD 14-01-13 10:18 OP:ep   STATUS:               ID:20131216194448 L   I
 OLDACT:REG 13-12-16 16:36 OP:nd   STATUS:               ID:20131216194000     3
 2013-12-16-1940-00M.COL___285                                                 6
 STAT SP IPHASW D HRMM SECON CODA AMPLIT PERI AZIMU VELO AIN AR TRES W  DIS CAZ7
 BRR  HZ EP   2   1945  9.91                             152    0.35 5 71.8 301 
 BRR  HN ES       1945 26.25                             152    0.4110 71.8 301 
 BRR  HZ I        1945 43.58        12.0 0.42            151           71.8 301 
 PAM  SZ EP       1945 11.02                             149    0.2610 80.1  39 
 PAM  SN ES       1945 27.55                             149   -0.4210 80.1  39 
 PAM  SZ I        1945 32.68         2.7 0.36            154           80.1  39 
 RUS  HZ EP       1945 11.98                             144    0.0210 97.9 175 
 RUS  HN ES       1945 30.19                             144    0.0810 97.9 175 
 RUS  HZ I        1945 31.89         1.9 0.48            156           97.9 175 
 PTB  HZ EP       1945 15.10                             132   -0.20 9  146 260 
 PTB  HN ES       1945 35.74                             132   -0.31 9  146 260 
 PTB  HZ I        1945 38.92         4.0 0.14            137            146 260 
                                                                                
