 2017  916 1922 35.2 L   6.853 -73.145147.8  RSN 22 0.8 2.6LRSN                1
 GAP= 65        1.68       4.3     4.5  7.5  0.8205E+00  0.1049E+02  0.6699E+01E
 Epicentro: LOS SANTOS - SANTANDER                                             3
 ACTION:UPD 17-10-05 19:13 OP:rebc STATUS:               ID:20170916192234 L   I
 OLDACT:UP  17-09-18 13:35 OP:nlst STATUS:               ID:20170916192234 L   3
 OLDACT:REG 17-09-16 21:33 OP:dnl  STATUS:               ID:20170916191741     3
 2017-09-16-1918-00M.COL___409                                                 6
 STAT SP IPHASW D HRMM SECON CODA AMPLIT PERI AZIMU VELO AIN AR TRES W  DIS CAZ7
 BAR2 EZ IP     C 1922 55.01                             168   -0.2410 29.2 188 
 BAR2 EZ ES       1923 10.22                             168   -0.6310 29.2 188 
 BAR2 EZ I        1923 12.82       120.6 0.32            169           29.2 188 
 BRR  HZ EP       1922 56.83                             154    0.3610 68.7 294 
 BRR  HN ES       1923 13.83                             154    0.8010 68.7 294 
 BRR  HZ I        1923 16.37        65.3 0.26            151           68.7 294 
 PAM  EZ EP       1922 57.77                             153    0.3610 72.9  42 
 PAM  EN ES       1923 15.04                             153    0.3310 72.9  42 
 PAM  EZ I        1923 17.15        63.1 0.54            151           72.9  42 
 RUS  HZ EP       1922 59.01                             143   -0.6110  106 176 
 RUS  HE ES       1923 18.20                             143   -0.4310  106 176 
 RUS  HZ I        1923 19.10        26.6 0.28            143            106 176 
 TAM  HZ EP       1923  3.50                             131    0.28 9  157 107 
 TAM  HZ I        1923 24.38        26.8 0.36            130            157 107 
 TAM  HN ES       1923 25.19                             131    0.15 9  157 107 
 YPLC HZ IP     C 1923  5.51                             126   -0.18 9  182 152 
 YPLC HE ES       1923 29.56                             126    0.13 9  182 152 
 YPLC HZ I        1923 30.43        23.5 0.26            126            182 152 
 ZAR  HZ EP       1923  7.38                             123   -0.23 9  202 291 
 ZAR  HN ES       1923 32.77                             123   -0.09 9  202 291 
 ZAR  HZ I        1923 38.17        47.4 0.36            121            202 291 
 TABC EZ EP       1923 12.69                             119    1.03 8  235 210 
 TABC EZ ES       1923 40.57                             119    0.51 8  235 210 
 TABC EZ I        1923 46.54        56.4 0.38            118            235 210 
 NOR  HZ EP       1923 11.21                             118   -0.26 8  238 233 
 NOR  HN ES       1923 39.14                             118   -0.59 8  238 233 
 NOR  HZ I        1923 46.58        20.5 0.26            117            238 233 
 CHI  HZ EP       1923 13.36                             117   -0.31 8  254 195 
 CHI  HN ES       1923 42.61                             117   -1.04 8  254 195 
 CHI  HZ I        1923 46.10        30.0 0.60            116            254 195 
 ROSC BZ EP       1923 15.24                             117    1.21 8  258 210 
 ROSC BN ES       1923 45.00                             117    0.72 8  258 210 
 ROSC BZ I        1923 49.54        63.7 0.45            115            258 210 
 HEL  HZ EP       1923 17.17                             115    1.44 8  274 255 
 HEL  HE ES       1923 48.46                             115    1.14 8  274 255 
 HEL  HZ I        1923 53.50        23.9 0.34            113            274 255 
 URE  HZ EP   2   1923 19.06                             114    2.88 4  282 291 
 URE  HE ES       1923 45.63                             114   -2.49 7  282 291 
 URE  HZ I        1923 58.71        21.9 0.36            112            282 291 
 GUY2CHZ EP       1923 19.94                             112    0.60 7  305 234 
 GUY2CHE ES   4   1923 55.97                             112    2.23 0  305 234 
 GUY2CHZ I        1924  1.46        22.4 0.58                           305 234 
 VIL  EZ EP       1923 18.93                             112   -0.47 7  309 191 
 VIL  EN ES       1923 53.00                             112   -0.85 7  309 191 
 VIL  EZ I        1923 58.32        41.5 0.56            111            309 191 
 PTGC HZ EP   4   1923 18.32                             112   -1.49 0  314 159 
 PTGC HN ES   4   1923 51.56                             112   -3.01 0  314 159 
 PTGC HZ I        1923 52.21        29.0 0.40            111            314 159 
 LL6C HZ EP       1923 19.70                             111   -0.66 7  319 358 
 LL6C HE ES   4   1923 51.88                             111   -3.67 0  319 358 
 LL6C HZ I        1923 58.01        10.9 0.32            110            319 358 
 ELA  HZ EP   4   1923 24.12                             110    1.49 0  333 229 
 ELA  HN ES   4   1923 54.47                             110   -5.12 0  333 229 
 ELA  HZ I        1924  7.76        19.6 0.62            109            333 229 
 ANIL HZ EP       1923 24.66                             108   -0.96 6  362 224 
 ANIL HN ES       1924  5.57                             108    0.66 6  362 224 
 PRA  HZ EP       1923 29.11                             107   -0.33 6  397 209 
 PRA  HN ES       1924 11.00                             107   -0.71 6  397 209 
 PRA  HZ I        1924 15.34        24.5 0.40            106            397 209 
 ORTC HZ EP       1923 29.45                             106   -0.34 6  400 216 
 ORTC HE ES       1924 13.14                             106    0.79 6  400 216 
 ORTC HZ I        1924 16.48        13.2 0.24            105            400 216 
 SJC  HZ EP       1923 29.22                             106   -1.08 6  404 326 
 SJC  HN ES   4   1924 10.10                             106   -3.15 0  404 326 
 SJC  HZ I        1924 24.96         6.2 0.32            105            404 326 
                                                                                
