 2012  316 1758 10.2 L   6.787 -73.176139.9  RSN  7 0.4 1.9LRSN                1
 GAP=133        1.07       6.6     6.2  9.5  0.4846E+01  0.1120E+02  0.1091E+02E
 ACTION:UP  12-03-31 23:20 OP:EP   STATUS:               ID:20120316175810 L   I
 2012-03-16-1755-50M.COL___184                                                 6
 STAT SP IPHASW D HRMM SECON CODA AMPLIT PERI AZIMU VELO SNR AR TRES W  DIS CAZ7
 BAR2 SZ EP   1   1758 29.19                             171     0.1 7   22 182 
 BAR2 SZ ES   1   1758 43.61                             171    -0.3 7   22 182 
 BAR2 SZ I        1758 46.76        18.7 0.35                            22 182 
 BRR  HZ EP   1   1758 30.99                             152     0.4 7   69 301 
 BRR  HN ES   1   1758 47.32                             152     0.8 7   69 301 
 BRR  HZ I        1758 51.68        21.6 0.09                            69 301 
 PAM  SZ EP   1   1758 31.93                             149    -0.1 7   81  41 
 PAM  SZ I        1758 32.23        13.7 0.16                            81  41 
 PAM  SN ES   1   1758 48.61                             149    -0.4 7   81  41 
 RUS  HZ EP   1   1758 33.41                             143     0.1 7   99 174 
 RUS  HN ES   1   1758 51.62                             143     0.3 7   99 174 
 RUS  HZ I        1758 53.73        14.6 0.30                            99 174 
 PTB  HZ EP   1   1758 35.85                             131    -0.6 7  144 259 
 PTB  HN ES   1   1758 55.99                             131    -0.8 7  144 259 
 PTB  HZ I        1758 59.64         8.6 0.11                           144 259 
 ZAR  HN ES   1   1759  7.16                             121     0.3 6  202 293 
 ZAR  HZ I        1759 12.98        10.7 0.26                           202 293 
 CHI  HZ EP   1   1758 47.75                             116     0.4 6  246 195 
 CHI  HZ I        1759 20.67         5.4 0.61                           246 195 
                                                                                
