 2014  416 1951 51.7 L   6.782 -73.181139.2  RSN  4 0.4 1.2LRSN                1
 GAP=133        1.01       5.4     5.3 10.3 -0.3330E+01 -0.3778E+01  0.8031E+01E
 Epicentro: LOS SANTOS - SANTANDER                                             3
 ACTION:UPD 14-05-13 23:09 OP:nd   STATUS:               ID:20140416195151 L   I
 OLDACT:DUP 14-04-17 01:55 OP:stll STATUS:               ID:20140416194816d    3
 OLDACT:DUP 14-04-17 01:47 OP:stll STATUS:               ID:20140416194815d    3
 2014-04-16-1948-14M.COL___257                                                 6
 STAT SP IPHASW D HRMM SECON CODA AMPLIT PERI AZIMU VELO AIN AR TRES W  DIS CAZ7
 BRR  HZ EP       1952 12.62                             152    0.5710 68.8 302 
 BRR  HZ I        1952 18.06         3.4 0.40            147           68.8 302 
 BRR  HN ES       1952 28.28                             152    0.4010 68.8 302 
 PAM  SZ EP       1952 13.14                             148   -0.3810 81.4  41 
 PAM  SZ I        1952 13.43         2.4 0.22            145           81.4  41 
 PAM  SN ES       1952 30.29                             148   -0.2110 81.4  41 
 RUS  HZ EP       1952 14.86                             143    0.1210 98.9 174 
 RUS  HE ES       1952 32.71                             143    0.0410 98.9 174 
 PTB  HN ES       1952 37.50                             131   -0.61 9  144 259 
                                                                                
