 2016  616 1026 51.1 L   6.903 -73.159146.3  RSN  8 0.4 1.7LRSN                1
 GAP=129        0.81       4.1     4.7  6.3 -0.3430E+01  0.7283E+00 -0.6081E+00E
 Epicentro: BETULIA - SANTANDER                                                3
 ACTION:UPD 16-07-21 22:19 OP:rebc STATUS:               ID:20160616102651 L   I
 OLDACT:UP  16-06-16 22:10 OP:dnl  STATUS:               ID:20160616101746     3
 OLDACT:REG 16-06-16 21:22 OP:dnl  STATUS:               ID:20160616101746     3
 2016-06-16-1017-46M.COL___331                                                 6
 STAT SP IPHASW D HRMM SECON CODA AMPLIT PERI AZIMU VELO AIN AR TRES W  DIS CAZ7
 BAR2 EZ EP       1027 11.38                             166    0.3010 34.4 184 
 BAR2 EZ ES       1027 26.44                             166   -0.2110 34.4 184 
 BAR2 EZ I        1027 27.60        13.0 0.17                          34.4 184 
 BRR  HZ EP       1027 12.31                             155    0.3310 65.1 290 
 BRR  HN ES       1027 28.82                             155    0.5510 65.1 290 
 BRR  HZ I        1027 30.80         7.8 0.18                          65.1 290 
 PAM  EZ EP       1027 13.25                             153    0.2910 70.1  46 
 PAM  EN ES   2   1027 29.74                             153   -0.27 5 70.1  46 
 PAM  EZ I        1027 32.14         6.9 0.38                          70.1  46 
 RUS  HZ EP   2   1027 15.80                             141    0.04 5  112 176 
 RUS  HN ES   2   1027 34.37                             141   -0.63 5  112 176 
 RUS  HZ I        1027 37.17         2.4 0.28                           112 176 
 PTB  HZ EP       1027 18.20                             132   -0.02 9  149 254 
 OCA  HZ I        1027 43.23        17.4 0.22                           149 353 
 PTB  HN ES       1027 39.00                             132   -0.37 9  149 254 
 PTB  HZ I        1027 41.69         3.7 0.32                           149 254 
 OCA  HZ EP   2   1027 17.92                             132   -0.48 5  149 353 
 OCA  HN ES       1027 39.15                             132   -0.54 9  149 353 
 SPBC HZ EP   2   1027 19.67                             128   -0.75 4  171 216 
 SPBC HE ES   4   1027 45.27                             128    1.99 0  171 216 
 SPBC HZ I        1027 50.10         3.1 0.44                           171 216 
 ZAR  HZ EP   3   1027 23.70                             123    0.67 2  199 289 
 ZAR  HN ES   3   1027 47.50                             123   -0.43 2  199 289 
 ZAR  HZ I        1027 53.30         9.5 0.30                           199 289 
                                                                                
