 2013  816 1809 10.4 L   6.788 -73.139141.4  RSN  8 0.3 2.3LRSN                1
 GAP=138        0.77       3.1     3.3  5.3 -0.1268E+01  0.4791E+01  0.1802E+01E
 Epicentro: LOS SANTOS - SANTANDER                                             3
 ACTION:UPD 14-01-14 09:03 OP:ep   STATUS:               ID:20130816180910 L   I
 OLDACT:REG 13-08-16 20:02 OP:mh   STATUS:               ID:20130816180748     3
 2013-08-16-1807-48M.COL___209                                                 6
 STAT SP IPHASW D HRMM SECON CODA AMPLIT PERI AZIMU VELO AIN AR TRES W  DIS CAZ7
 BAR2 SZ EP       18 9 29.49                             171    0.0410 22.2 192 
 BAR2 SZ ES   1   18 9 43.73                             171   -0.61 7 22.2 192 
 BAR2 SZ I        18 9 45.55        35.6 0.16            170           22.2 192 
 BRR  HZ EP       18 9 31.35                             151    0.2310 72.4 299 
 BRR  HN ES       18 9 47.77                             151    0.4610 72.4 299 
 BRR  HZ I        18 9 49.35        20.1 0.44            151           72.4 299 
 PAM  SZ EP       18 9 32.44                             150    0.2810 78.0  39 
 PAM  SN ES       18 9 49.10                             150   -0.0610 78.0  39 
 PAM  SZ I        18 9 51.41        15.1 0.46            153           78.0  39 
 RUS  HZ EP       18 9 33.57                             143   -0.0310 99.2 176 
 RUS  HN ES       18 9 51.57                             143   -0.1410 99.2 176 
 RUS  HN I        18 9 53.50        20.6 0.26            145           99.2 176 
 PTB  HZ EP   1   18 9 36.47                             131   -0.56 7  148 259 
 PTB  HN ES   1   18 9 57.58                             131   -0.24 7  148 259 
 PTB  HN I        18 9 59.77        37.7 0.30            132            148 259 
 SPBC HZ EP       18 9 38.35                             128   -0.13 9  163 219 
 SPBC HN ES       1810  0.61                             128    0.20 9  163 219 
 SPBC HN I        1810  6.44        38.0 0.26            129            163 219 
 ZAR  HZ EP   1   18 9 42.65                             121   -0.00 6  205 292 
 ZAR  HN ES       1810  7.31                             121   -0.53 9  205 292 
 ZAR  HN I        1810 13.21        23.6 0.24            122            205 292 
 NOR  HZ EP   1   18 9 45.56                             118   -0.27 6  234 235 
 NOR  HN ES       1810 14.07                             118    0.58 8  234 235 
 NOR  HN I        1810 15.56        44.0 0.16            119            234 235 
                                                                                
