 2016 1016 1640  1.3 L   6.786 -73.097149.3  RSN 13 0.4 2.1LRSN                1
 GAP=143        0.89       2.9     4.4  5.5 -0.3989E+01  0.7377E+01  0.2589E+01E
 Epicentro: LOS SANTOS - SANTANDER                                             3
 ACTION:UPD 16-11-09 19:20 OP:rebc STATUS:               ID:20161016164001 L   I
 OLDACT:UP  16-10-16 23:59 OP:dnl  STATUS:               ID:20161016163739     3
 OLDACT:REG 16-10-16 20:55 OP:dnl  STATUS:               ID:20161016163739     3
 2016-10-16-1638-00M.COL___374                                                 6
 STAT SP IPHASW D HRMM SECON CODA AMPLIT PERI AZIMU VELO AIN AR TRES W  DIS CAZ7
 BAR2 EZ EP       1640 21.33                             171   -0.0110 23.4 204 
 BAR2 EZ ES       1640 36.74                             171   -0.2510 23.4 204 
 BAR2 EZ I        1640 39.29        26.8 0.36            168           23.4 204 
 PAM  EZ EP       1640 24.08                             152    0.3210 75.3  36 
 PAM  EN ES       1640 41.57                             152    0.2810 75.3  36 
 PAM  EZ I        1640 43.54        16.3 0.54            156           75.3  36 
 BRR  HZ EP       1640 23.18                             151    0.0510 76.7 298 
 BRR  HN ES       1640 40.57                             151    0.4010 76.7 298 
 BRR  HZ I        1640 44.51        16.2 0.26            149           76.7 298 
 RUS  HZ EP       1640 25.47                             145    0.2110 98.8 179 
 RUS  HN ES       1640 43.86                             145   -0.1010 98.8 179 
 RUS  HZ I        1640 45.18        10.0 0.28            147           98.8 179 
 PTB  HZ EP   2   1640 28.08                             132   -0.91 5  153 260 
 PTB  HN ES   4   1640 49.21                             132   -1.40 0  153 260 
 PTB  HZ I        1640 55.10        11.6 0.42            131            153 260 
 OCA  HZ EP   2   1640 29.26                             130   -0.82 5  163 351 
 OCA  HN ES       1640 51.96                             130   -0.59 9  163 351 
 OCA  HZ I        1640 56.48        37.5 0.42            132            163 351 
 SPBC HZ EP       1640 30.32                             129    0.05 9  165 221 
 SPBC HE ES       1640 53.05                             129    0.17 9  165 221 
 SPBC HZ I        1640 59.38        26.8 0.36            130            165 221 
 NOR  HZ EP       1640 37.28                             119   -0.31 8  238 236 
 NOR  HN ES       1641  5.12                             119   -0.80 8  238 236 
 NOR  HZ I        1641  9.06        10.3 0.32            120            238 236 
 CHI  HZ EP   4   1640 38.30                             118   -0.88 0  249 196 
 CHI  HN ES       1641  8.30                             118   -0.43 8  249 196 
 CHI  HZ I        1641 14.55         4.9 0.28            119            249 196 
 HEL  HZ EP   2   1640 42.68                             115    0.47 4  277 256 
 HEL  HE ES       1641 14.74                             115    0.60 7  277 256 
 HEL  HZ I        1641 19.45         5.6 0.46            116            277 256 
 GUY2CHZ EP   2   1640 46.47                             113    1.02 4  305 236 
 GUY2CHE ES   4   1641 23.68                             113    3.77 0  305 236 
 GUY2CHZ I        1641 27.92         6.6 0.26                           305 236 
 LL6C HZ EP   4   1640 27.31                             111   -20.0 0  327 357 
 LL6C HN ES   4   1641  3.55                             111   -19.7 0  327 357 
 PRA  HZ EP   2   1640 55.71                             107    0.63 3  393 210 
 PRA  HN ES       1641 37.62                             107    0.57 6  393 210 
 PRA  HZ I        1641 42.65         7.5 0.62            108            393 210 
 SJC  HZ EP   4   1640 55.51                             106   -1.95 0  413 326 
 SJC  HN ES   4   1641 35.43                             106   -5.85 0  413 326 
 SJC  HZ I        1641 43.89         1.7 0.34            107            413 326 
                                                                                
