 2012  616 1912 54.1 L   6.865 -73.167151.8  RSN  5 0.3 1.5LRSN                1
 GAP=149        0.62       5.2     4.7  6.4 -0.1075E+02  0.1112E+02 -0.1639E+01E
 Epicentro: ZAPATOCA - SANTANDER                                               3
 ACTION:UPD 12-08-06 17:50 OP:ep   STATUS:               ID:20120616191254 L   I
 2012-06-16-1909-00M.COL___199                                                 6
 STAT SP IPHASW D HRMM SECON CODA AMPLIT PERI AZIMU VELO AIN AR TRES W  DIS CAZ7
 BAR2 SZ EP   1   1913 14.73                             168    0.11 7 30.2 183 
 BAR2 SZ ES   1   1913 30.83                             168    0.22 7 30.2 183 
 BAR2 SZ I        1913 32.72         8.5 0.11                          30.2 183 
 PAM  SZ EP   1   1913 16.50                             153   -0.26 7 73.6  45 
 PAM  SN ES   1   1913 34.63                             153    0.22 7 73.6  45 
 RUS  HZ EP   1   1913 18.62                             143   -0.37 7  108 175 
 RUS  HN ES   1   1913 38.27                             143   -0.12 7  108 175 
 RUS  HZ I        1913 40.26         2.3 0.23                           108 175 
 PTB  HZ EP   1   1913 21.64                             133    0.12 7  147 256 
 PTB  HN ES   1   1913 42.32                             133   -0.57 7  147 256 
 PTB  HZ I        1913 48.03         6.2 0.38                           147 256 
 NOR  SZ EP   1   1913 30.94                             119    0.49 6  237 233 
 NOR  SE ES   1   1913 59.19                             119    0.39 6  237 233 
                                                                                
