 2011  816 1407 19.8 L   7.398 -73.146140.1  RSN  8 0.4 2.2LRSN                1
 GAP=104        0.78       3.5     5.6  6.0 -0.2445E+01  0.4267E+01 -0.1884E+01E
 Epicentro: EL PLAYON - SANTANDER                                              3
 ACTION:UPD 12-07-13 15:52 OP:ep   STATUS:               ID:20110816140719 L   I
 2011-08-16-1403-47S.COL___149                                                 6
 STAT SP IPHASW D HRMM SECON CODA AMPLIT PERI AZIMU VELO AIN AR TRES W  DIS CAZ7
 PAM  SZ EP   1   14 7 40.40                             160    0.41 7 49.7  97 
 PAM  SN ES   1   14 7 55.75                             160    0.03 7 49.7  97 
 PAM  SZ I        14 7 56.54        16.7 0.34                          49.7  97 
 BRR  HZ EP   1   14 7 40.56                             152    0.25 7 70.3 243 
 BRR  HN ES       14 7 56.38                             152    0.1010 70.3 243 
 BRR  HZ I        14 7 58.21        65.9 0.13                          70.3 243 
 BAR2 SZ EP   1   14 7 42.28                             146    0.43 7 89.2 183 
 BAR2 SZ ES   1   14 7 58.81                             146   -0.21 7 89.2 183 
 BAR2 SZ I        14 8  0.26        41.5 0.38                          89.2 183 
 OCA  SZ EP       14 7 42.06                             144   -0.0810 94.9 348 
 OCA  SZ ES   1   14 7 59.47                             144   -0.07 7 94.9 348 
 OCA  SZ I        14 8  2.67        30.6 0.29                          94.9 348 
 RUS  HZ EP   1   14 7 49.15                             127    0.39 7  167 178 
 RUS  HN ES   1   14 8 10.52                             127   -0.81 7  167 178 
 RUS  HZ I        14 8 16.65         4.0 0.20                           167 178 
 NOR  SN ES   1   14 8 31.11                             113   -0.32 6  278 223 
 COD  HZ EP   1   14 7 59.45                             112   -1.00 6  283 353 
 COD  HZ I        14 8 33.90        13.8 0.78                           283 353 
 DBB  SZ EP   1   14 8  7.71                             108    0.46 5  341 263 
                                                                                
