 2013  316 1957 24.0 L   6.831 -73.178137.8  RSN  4 0.2 1.8LRSN                1
 GAP=146        0.47       5.4     4.9  7.6 -0.1925E+02  0.1701E+02 -0.8819E+01E
 Epicentro: ZAPATOCA - SANTANDER                                               3
 ACTION:UPD 13-04-09 14:03 OP:ep   STATUS:               ID:20130316195724 L   I
 2013-03-16-1950-00M.COL___244                                                 6
 STAT SP IPHASW D HRMM SECON CODA AMPLIT PERI AZIMU VELO AIN AR TRES W  DIS CAZ7
 PAM  SZ EP       1957 45.51                             149    0.1710 77.2  43 
 PAM  SN ES   2   1958  1.90                             149   -0.10 5 77.2  43 
 PAM  SN I        1958  3.73         9.2 0.74            157           77.2  43 
 RUS  HN ES   2   1958  5.13                             141   -0.25 5  104 174 
 RUS  HN I        1958  6.92         7.1 0.40            149            104 174 
 PTB  HZ EP       1957 49.86                             131   -0.20 9  145 257 
 PTB  HN ES   2   1958 10.25                             131   -0.14 5  145 257 
 PTB  HN I        1958 16.28         9.1 0.16            133            145 257 
 NOR  HZ EP       1957 59.04                             117   -0.13 8  234 233 
 NOR  HN ES       1958 26.93                             117    0.32 8  234 233 
 NOR  HN I        1958 30.82         7.2 0.20            122            234 233 
                                                                                
