 2017  516 1101 24.2 L   7.132 -73.107146.9  RSN  4 0.2 1.7LRSN                1
 GAP=183        0.50       6.4     2.8  4.2 -0.7291E+01  0.3274E+01  0.1066E+01E
 Epicentro: BUCARAMANGA - SANTANDER                                            3
 ACTION:UPD 17-06-16 13:36 OP:jn   STATUS:               ID:20170516110124 L   I
 OLDACT:REG 17-05-16 19:53 OP:lv   STATUS:               ID:20170516105737     3
 2017-05-16-1058-00M.COL___353                                                 6
 STAT SP IPHASW D HRMM SECON CODA AMPLIT PERI AZIMU VELO AIN AR TRES W  DIS CAZ7
 PAM  EZ EP       11 1 45.30                             160    0.1210 50.5  63 
 PAM  EN ES       11 2  1.48                             160   -0.0710 50.5  63 
 PAM  EZ I        11 2  3.55         9.8 0.38            161           50.5  63 
 BRR  HZ EP       11 1 45.38                             154    0.1410 66.9 268 
 BRR  HN ES       11 2  1.57                             154   -0.0810 66.9 268 
 BRR  HZ I        11 2  6.48         8.2 0.45            151           66.9 268 
 PTB  HZ EP       11 1 52.77                             129    0.11 9  163 246 
 PTB  HN ES       11 2 14.80                             129   -0.06 9  163 246 
 PTB  HZ I        11 2 16.95                             131            163 246 
 ZAR  HZ EP       11 1 55.63                             124   -0.42 9  197 282 
 ZAR  HE ES       11 2 21.11                             124    0.23 9  197 282 
 ZAR  HZ I        11 2 28.27         4.1 0.10            124            197 282 
                                                                                
