 2014  516 1326 24.6 L   6.826 -73.146142.3  RSN 17 0.5 2.7LRSN                1
 GAP=135        1.18       2.8     4.4  6.2 -0.2910E+01  0.5878E+01  0.3716E+01E
 Epicentro: LOS SANTOS - SANTANDER                                             3
 ACTION:UPD 15-03-16 16:58 OP:nd   STATUS:               ID:20140516132624 L   I
 OLDACT:REG 14-05-16 21:56 OP:carl STATUS:               ID:20140516131808     3
 2014-05-16-1318-08M.COL___254                                                 6
 STAT SP IPHASW D HRMM SECON CODA AMPLIT PERI AZIMU VELO AIN AR TRES W  DIS CAZ7
 BRR  HZ IP     D 1326 45.75                             152    0.4510 69.8 296 
 BRR  HN ES       1327  1.73                             152    0.2810 69.8 296 
 BRR  HZ I        1327  3.41       160.8 0.14            151           69.8 296 
 PAM  SZ IP     C 1326 46.93                             151    0.6010 75.2  41 
 PAM  SN ES       1327  3.70                             151    0.4310 75.2  41 
 PAM  SZ I        1327  5.87       109.5 0.44            158           75.2  41 
 RUS  HZ EP       1326 48.08                             142   -0.1510  103 176 
 RUS  HE ES       1327  6.11                             142   -0.5510  103 176 
 RUS  HZ I        1327  8.89        31.5 0.26            143            103 176 
 PTB  HZ EP       1326 50.50                             131   -0.84 9  148 258 
 PTB  HN ES       1327 11.46                             131   -0.74 9  148 258 
 PTB  HZ I        1327 16.73        70.2 0.16            131            148 258 
 OCA  HZ EP       1326 51.95                             129   -0.43 9  157 353 
 OCA  HN ES       1327 14.29                             129    0.25 9  157 353 
 OCA  HZ I        1327 16.87        63.7 0.18            133            157 353 
 SPBC HZ EP       1326 52.94                             128   -0.11 9  165 218 
 SPBC HN ES       1327 14.85                             128   -0.39 9  165 218 
 SPBC HZ I        1327 22.15        52.5 0.36            128            165 218 
 ZAR  HZ EP       1326 57.43                             122    0.72 9  203 291 
 ZAR  HE ES       1327 22.59                             122    0.84 9  203 291 
 ZAR  HZ I        1327 28.21        52.6 0.44            123            203 291 
 NOR  HZ EP       1327  0.07                             118   -0.24 8  236 234 
 NOR  HN ES       1327 27.91                             118   -0.25 8  236 234 
 NOR  HZ I        1327 34.45        26.3 0.16            118            236 234 
 SML  HZ EP       1327  0.04                             117   -0.71 8  241 335 
 SML  HN ES       1327 28.08                             117   -0.87 8  241 335 
 SML  HZ I        1327 31.47        67.7 0.26            119            241 335 
 CHI  HZ EP       1327  2.38                             116   -0.04 8  251 195 
 CHI  HN ES       1327 32.01                             116    0.10 8  251 195 
 CHI  HZ I        1327 40.81        20.8 0.36            117            251 195 
 ROSC BZ EP   4   1327  4.16                             116    1.35 0  255 211 
 ROSC BN ES   4   1327 34.64                             116    2.04 0  255 211 
 ROSC BZ I        1327 40.78        40.3 0.35            117            255 211 
 URE  HZ EP   4   1327  4.03                             113   -1.35 0  283 291 
 URE  HN ES   4   1327 35.34                             113   -1.85 0  283 291 
 GUY2CHZ EP       1327  9.12                             111    0.88 7  303 234 
 GUY2CHN ES       1327 42.54                             111    0.27 7  303 234 
 GUY2CHZ I        1327 51.96        21.0 0.64                           303 234 
 RREF HZ EP       1327 10.29                             110   -0.52 7  324 229 
 RREF HN ES       1327 46.66                             110   -0.19 7  324 229 
 RREF HZ I        1327 55.77        25.4 0.26            111            324 229 
 CBOC HZ EP   4   1327 12.52                             109    1.05 0  334 252 
 CBOC HN ES   4   1327 47.85                             109   -0.18 0  334 252 
 CBOC HZ I        1328  0.05         7.1 0.48            110            334 252 
 ANIL HZ EP       1327 14.81                             108    0.30 6  359 224 
 ANIL HN ES       1327 54.05                             108    0.61 6  359 224 
 ANIL HZ I        1328  0.75        59.2 0.26            109            359 224 
 PRA  HZ EP       1327 18.08                             106   -0.22 6  394 209 
 PRA  HN ES       1328  0.14                             106   -0.04 6  394 209 
 PRA  HZ I        1328  7.53        28.9 0.46            107            394 209 
 ORTC HZ EP       1327 19.22                             106    0.54 6  398 216 
 ORTC HE ES       1328  1.79                             106    0.94 6  398 216 
 ORTC HZ I        1328  6.58        22.5 0.42            107            398 216 
 SJC  HZ EP   4   1327 18.37                             105   -1.40 0  407 327 
 SJC  HN ES   4   1327 59.16                             105   -3.63 0  407 327 
                                                                                
