 2016 1116 1634 44.6 L   6.781 -73.134150.0  RSN  8 0.4 2.1LRSN                1
 GAP= 98        1.08       6.3     3.4  6.9 -0.6855E+00  0.3755E+01  0.9761E+01E
 Epicentro: LOS SANTOS - SANTANDER                                             3
 ACTION:UPD 17-10-26 21:08 OP:lp   STATUS:               ID:20161116163444 L   I
 OLDACT:UP  16-11-16 23:44 OP:ar   STATUS:               ID:20161116162646     3
 OLDACT:REG 16-11-16 20:49 OP:ar   STATUS:               ID:20161116162646     3
 2016-11-16-1627-00M.COL___340                                                 6
 STAT SP IPHASW D HRMM SECON CODA AMPLIT PERI AZIMU VELO AIN AR TRES W  DIS CAZ7
 BAR2 EZ EP     D 1635  4.56                             171   -0.1110 21.5 194 
 BAR2 EZ ES       1635 20.86                             171    0.5110 21.5 194 
 BAR2 EZ I        1635 23.33        20.6 0.38            171           21.5 194 
 BRR  HZ EP       1635  6.52                             153    0.2310 73.4 299 
 BRR  HE ES       1635 23.88                             153    0.6410 73.4 299 
 BRR  HZ I        1635 25.52        20.8 0.18            152           73.4 299 
 PAM  EZ EP       1635  7.36                             151    0.0810 78.2  38 
 PAM  EN ES       1635 24.55                             151   -0.4510 78.2  38 
 PAM  EZ I        1635 27.11        25.0 0.64            155           78.2  38 
 PTB  HZ EP       1635 11.63                             133   -0.32 9  149 260 
 PTB  HN ES       1635 32.43                             133   -0.89 9  149 260 
 PTB  HZ I        1635 39.50        11.2 0.60            133            149 260 
 TAM  HZ EP       1635 12.75                             132    0.34 9  153 104 
 TAM  HN ES       1635 33.66                             132   -0.48 9  153 104 
 ZAR  HZ EP       1635 17.78                             123    0.29 8  206 293 
 ZAR  HN ES       1635 42.86                             123   -0.31 8  206 293 
 ZAR  HZ I        1635 49.59        12.5 0.30            124            206 293 
 NOR  HZ EP       1635 20.81                             119    0.29 8  235 235 
 NOR  HE ES       1635 48.69                             119    0.12 8  235 235 
 NOR  HZ I        1635 52.00         8.3 0.30            121            235 235 
 SJC  HZ EP   4   1635 37.81                             106   -2.74 0  412 327 
 SJC  HN ES   4   1636 19.77                             106   -4.46 0  412 327 
 SJC  HZ I        1636 24.30         2.8 0.46            108            412 327 
                                                                                
