 2016  416 1623 48.3 L   6.026 -73.667117.0  RSN  6 0.4 1.8LRSN                1
 GAP=187        0.99       4.6     4.6  7.5 -0.7059E+01  0.7429E+01 -0.5597E+01E
 Epicentro: VELEZ - SANTANDER                                                  3
 ACTION:UPD 16-05-05 14:22 OP:rebc STATUS:               ID:20160416162348 L   I
 OLDACT:UP  16-04-16 23:36 OP:mh   STATUS:               ID:20160416161742     3
 OLDACT:REG 16-04-16 21:24 OP:mh   STATUS:               ID:20160416161742     3
 2016-04-16-1617-42M.COL___306                                                 6
 STAT SP IPHASW D HRMM SECON CODA AMPLIT PERI AZIMU VELO AIN AR TRES W  DIS CAZ7
 SPBC HZ EP       1624  5.58                             151   -0.3310 61.0 227 
 SPBC HN ES       1624 19.42                             151   -0.2210 61.0 227 
 SPBC HZ I        1624 23.13        14.7 0.22            152           61.0 227 
 BAR2 EZ EP       1624  8.04                             142    0.4710 82.4  41 
 BAR2 EZ ES       1624 22.69                             142    0.1010 82.4  41 
 BAR2 EZ I        1624 24.63        71.4 0.41            145           82.4  41 
 PTB  HZ EP       1624  8.12                             135   -0.8910  104 303 
 PTB  HN ES       1624 25.26                             135    0.1110  104 303 
 PTB  HZ I        1624 26.16         9.0 0.56            136            104 303 
 NOR  HZ EP       1624 12.80                             126    0.16 9  143 249 
 NOR  HN ES       1624 32.09                             126    0.48 9  143 249 
 NOR  HZ I        1624 34.84        12.4 0.18            128            143 249 
 GUY2CHZ EP   1   1624 20.43                             115    0.34 6  208 245 
 GUY2CHN ES   4   1624 44.99                             115    0.11 0  208 245 
 GUY2CHZ I        1624 52.79         2.8 0.28                           208 245 
 ZAR  HZ EP       1624 19.56                             115   -0.04 8  209 321 
 ZAR  HN ES       1624 44.10                             115    0.10 8  209 321 
 ZAR  HZ I        1624 50.62         5.4 0.46            116            209 321 
                                                                                
