 2017  716 1438  4.2 L   6.313 -73.909 16.8  RSN  7 0.5 1.0LRSN                1
 GAP= 81        1.14       2.8     2.3  5.7  0.2111E+00 -0.1556E+01 -0.2172E+01E
 Epicentro: CIMITARRA - SANTANDER                                              3
 ACTION:UPD 17-08-30 15:33 OP:rebc STATUS:               ID:20170716143804 L   I
 OLDACT:REG 17-07-16 20:32 OP:lv   STATUS:               ID:20170716142208     3
 2017-07-16-1428-00M.COL___381                                                 6
 STAT SP IPHASW D HRMM SECON CODA AMPLIT PERI AZIMU VELO AIN AR TRES W  DIS CAZ7
 PTB  HZ IP     D 1438 14.84                             102   -0.1210 65.5 293 
 PTB  HN ES       1438 23.47                             102    0.1410 65.5 293 
 SPBC HZ EP       1438 17.40                             100    0.9210 75.2 194 
 SPBC HN ES   2   1438 25.52                             100   -0.52 5 75.2 194 
 BAR2 EZ EP       1438 18.37                              99    0.1010 86.2  69 
 BAR2 EZ ES       1438 28.71                              99   -0.5210 86.2  69 
 BAR2 EZ I        1438 29.92         4.2 0.22            100           86.2  69 
 BRR  HZ EP       1438 18.53                              98   -0.1410 90.5  14 
 BRR  HN ES       1438 30.10                              98    0.1510 90.5  14 
 BRR  HZ I        1438 31.30                              99           90.5  14 
 RUS  HZ EP       1438 21.00                              98    0.0110  103 117 
 RUS  HN ES       1438 33.84                              98   -0.2410  103 117 
 PAM  EZ EP       1438 31.31                              56    0.41 9  175  50 
 PAM  EN ES       1438 52.05                              56    0.34 9  175  50 
 HEL  HZ EP       1438 30.30                              56   -0.99 9  180 266 
 HEL  HE ES   4   1438 50.02                              56   -2.39 0  180 266 
                                                                                
