 2012  816 1752 30.1 L   6.710 -73.225152.2  RSN  4 0.1 1.6LRSN                1
 GAP=221        0.31       3.2     3.2  3.8  0.6286E+01 -0.5740E-01 -0.9542E+00E
 Epicentro: VILLANUEVA - SANTANDER                                             3
 ACTION:UPD 12-09-10 11:56 OP:ep   STATUS:               ID:20120816175230 L   I
 2012-08-16-1750-00M.COL___216                                                 6
 STAT SP IPHASW D HRMM SECON CODA AMPLIT PERI AZIMU VELO AIN AR TRES W  DIS CAZ7
 BRR  HZ EP       1752 51.86                             154   -0.0310 69.5 309 
 BRR  HN ES   1   1753  8.92                             154    0.06 7 69.5 309 
 BRR  HZ I        1753  9.83        16.5 0.55                          69.5 309 
 RUS  HZ EP   1   1752 53.85                             148   -0.07 7 91.7 170 
 RUS  HN ES   1   1753 12.47                             148   -0.01 7 91.7 170 
 RUS  HZ I        1753 15.59         2.6 0.33                          91.7 170 
 PTB  HZ EP       1752 56.86                             136    0.12 9  137 262 
 PTB  HE ES   1   1753 17.44                             136   -0.04 7  137 262 
 PTB  HZ I        1753 23.83         3.8 0.19                           137 262 
 ZAR  HN ES   1   1753 27.81                             124   -0.12 6  200 296 
 ZAR  HZ I        1753 37.16         3.6 0.18                           200 296 
                                                                                
