 2012 1116 1543 55.1 L   6.654 -73.151143.4  RSN  4 0.5 1.7LRSN                1
 GAP=212        1.32      14.7     9.4 10.7 -0.2225E+02  0.1538E+02  0.4081E+02E
 Epicentro: VILLANUEVA - SANTANDER                                             3
 ACTION:UPD 12-12-05 15:33 OP:}ep  STATUS:               ID:20121116154355 L   I
 2012-11-16-1540-00M.COL___233                                                 6
 STAT SP IPHASW D HRMM SECON CODA AMPLIT PERI AZIMU VELO AIN AR TRES W  DIS CAZ7
 BAR2 SZ EP       1544 15.01                             177    0.7710 7.69 206 
 BAR2 SZ ES       1544 29.02                             177   -0.1410 7.69 206 
 BAR2 SZ I        1544 32.73        10.3 0.42                          7.69 206 
 GIR2 SZ EP       1544 14.10                             161   -0.9410 47.2 354 
 GIR2 SZ ES       1544 30.41                             161   -0.1610 47.2 354 
 BRR  HZ EP       1544 16.74                             149    0.2310 79.7 309 
 BRR  HN ES       1544 33.74                             149    0.5510 79.7 309 
 BRR  HN I        1544 35.64        19.5 0.22                          79.7 309 
 PTB  HZ EP       1544 21.69                             132    0.07 9  145 265 
 PTB  HN ES       1544 41.87                             132   -0.43 9  145 265 
 PTB  HN I        1544 47.64         4.2 0.26                           145 265 
                                                                                
