 2012  216 1246  6.9 L   7.417 -73.238125.7  RSN  9 0.4 2.1LRSN                1
 GAP=185        0.66       5.9     3.9  6.2 -0.3374E+01  0.6215E+01  0.4990E+01E
 ACTION:UP  12-03-07 16:31 OP:epov STATUS:               ID:20120216124606 L   I
 2012-02-16-1240-00M.COL___188                                                 6
 STAT SP IPHASW D HRMM SECON CODA AMPLIT PERI AZIMU VELO AIN AR TRES W  DIS CAZ7
 GIR2 SZ EP   1   1246 24.17                             162   -0.21 7 37.7 172 
 PAM  SZ EP   1   1246 25.72                             153   -0.21 7 60.1  98 
 PAM  SN ES   1   1246 40.82                             153    0.02 7 60.1  98 
 BRR  HZ EP   1   1246 25.30                             152   -0.06 7 62.5 237 
 BRR  HE ES   1   1246 40.36                             152    0.58 7 62.5 237 
 BRR  HZ I        1246 41.57        47.6 0.11                          62.5 237 
 BAR2 SZ EP   1   1246 27.53                             142   -0.11 7 91.4 176 
 BAR2 SZ ES   2   1246 43.54                             142   -0.29 5 91.4 176 
 BAR2 SZ I        1246 46.35        15.4 0.48                          91.4 176 
 PTB  HZ EP   1   1246 33.82                             124   -0.27 7  166 234 
 PTB  HN ES   1   1246 54.67                             124   -0.65 7  166 234 
 RUS  HZ EP   2   1246 35.67                             123    0.60 5  169 174 
 ZAR  HZ EP   1   1246 35.44                             121    0.01 7  179 273 
 ZAR  HE ES   2   1246 58.32                             121    0.61 4  179 273 
 ZAR  HZ I        1247  3.09        21.3 0.32                           179 273 
 NOR  SE ES   2   1247 16.11                             110   -0.15 4  273 221 
 CHI  HZ EP   1   1246 51.73                             107    0.80 5  313 190 
 CHI  HN ES   2   1247 25.66                             107    0.38 3  313 190 
 CHI  HZ I        1247 34.79         3.0 0.55                           313 190 
                                                                                
