 2014 1216 1321 11.2 L   6.765 -73.191131.3  RSN  6 0.5 1.5LRSN                1
 GAP=132        1.20       5.6     5.4  8.1 -0.7012E+01  0.1171E+02  0.6043E+01E
 Epicentro: LOS SANTOS - SANTANDER                                             3
 ACTION:UPD 15-02-10 17:04 OP:nd   STATUS:               ID:20141216132111 L   I
 OLDACT:REG 14-12-16 20:32 OP:fm   STATUS:               ID:20141216131744     3
 2014-12-16-1317-44M.COL___287                                                 6
 STAT SP IPHASW D HRMM SECON CODA AMPLIT PERI AZIMU VELO AIN AR TRES W  DIS CAZ7
 BAR2 EZ ES       1321 42.65                             171   -0.2410 19.1 177 
 BAR2 EZ I        1321 45.48         9.6 0.24            172           19.1 177 
 BRR  HZ EP       1321 30.91                             151    0.2510 68.9 303 
 BRR  HN ES       1321 46.40                             151    0.5610 68.9 303 
 BRR  HZ I        1321 51.63        15.3 0.40            151           68.9 303 
 PAM  SZ EP       1321 32.63                             146    0.3210 83.6  40 
 PAM  SN ES       1321 48.17                             146   -0.6010 83.6  40 
 PAM  SZ I        1321 51.85         6.3 0.48            151           83.6  40 
 RUS  HZ EP       1321 32.87                             142   -0.4310 97.2 173 
 RUS  HN ES       1321 51.12                             142    0.5910 97.2 173 
 RUS  HZ I        1321 53.57         3.5 0.48            145           97.2 173 
 PTB  HZ EP       1321 36.09                             130   -0.40 9  142 260 
 PTB  HN ES       1321 56.13                             130   -0.09 9  142 260 
 PTB  HZ I        1322  0.13         5.2 0.12            132            142 260 
 NOR  HZ EP       1321 46.11                             116    0.67 8  228 235 
 NOR  HE ES       1322 11.44                             116   -0.70 8  228 235 
 NOR  HZ I        1322 17.95         1.9 0.16            119            228 235 
                                                                                
