 2012  916 1822 58.3 L   6.723 -73.148146.2  RSN  6 0.4 1.5LRSN                1
 GAP=140        0.87       5.9     5.3  8.7  0.2170E+01  0.1011E+02 -0.8090E+00E
 Epicentro: JORDAN - SANTANDER                                                 3
 ACTION:UPD 12-10-22 14:19 OP:ep   STATUS:               ID:20120916182258 L   I
 2012-09-16-1820-00M.COL___227                                                 6
 STAT SP IPHASW D HRMM SECON CODA AMPLIT PERI AZIMU VELO AIN AR TRES W  DIS CAZ7
 BAR2 SZ ES   1   1823 32.43                             174   -0.65 7 15.0 195 
 BRR  HZ EP   1   1823 20.08                             151    0.35 7 75.4 304 
 BRR  HN ES   1   1823 37.13                             151    0.68 7 75.4 304 
 PAM  SZ EP   1   1823 21.07                             149    0.10 7 84.2  36 
 PAM  SN ES   1   1823 38.35                             149   -0.32 7 84.2  36 
 PAM  SZ I        1823 40.49         6.9 0.52                          84.2  36 
 RUS  HZ EP   1   1823 21.46                             146   -0.03 7 92.2 176 
 RUS  HN ES   1   1823 40.17                             146    0.57 7 92.2 176 
 RUS  HZ I        1823 41.70         4.5 0.30                          92.2 176 
 PTB  HZ EP   1   1823 24.65                             132   -0.49 7  146 262 
 PTB  HN ES   1   1823 45.65                             132   -0.44 7  146 262 
 PTB  HZ I        1823 46.64         3.4 0.16                           146 262 
 ZAR  HE ES   1   1823 56.81                             122    0.15 6  207 294 
 ZAR  HZ I        1824  1.20         3.8 0.16                           207 294 
                                                                                
