 2013  416 1236 12.0 L   6.840 -73.172140.0  RSN  8 0.4 2.5LRSN                1
 GAP=131        1.03       4.0     4.7  7.5 -0.6162E+01  0.1169E+02 -0.1097E+02E
 Epicentro: LOS SANTOS - SANTANDER                                             3
 ACTION:UPD 13-05-22 14:38 OP:EP   STATUS:               ID:20130416123612 L   I
 2013-04-16-1228-49M.COL___212                                                 6
 STAT SP IPHASW D HRMM SECON CODA AMPLIT PERI AZIMU VELO AIN AR TRES W  DIS CAZ7
 GIR2 SZ EP       1236 31.17                             169    0.3410 26.5 355 
 BAR2 SZ EP       1236 31.15                             168    0.1510 27.4 182 
 BAR2 SZ ES       1236 45.93                             168    0.0910 27.4 182 
 BAR2 SZ I        1236 47.42        70.7 0.22            169           27.4 182 
 BRR  HZ EP       1236 32.72                             153    0.4910 66.5 296 
 BRR  HN ES   4   1236 49.91                             153    1.88 0 66.5 296 
 BRR  HN I        1236 50.28        68.4 0.24            152           66.5 296 
 PAM  SZ EP       1236 33.88                             150    0.3910 76.0  43 
 PAM  SZ I        1236 34.23        50.9 0.22            153           76.0  43 
 PAM  SN ES       1236 50.73                             150    0.4610 76.0  43 
 RUS  HZ EP       1236 35.24                             141   -0.2610  105 175 
 RUS  HN ES       1236 53.27                             141   -0.6010  105 175 
 RUS  HN I        1236 56.23        21.7 0.24            144            105 175 
 PTB  HZ EP       1236 38.21                             131   -0.08 9  146 257 
 PTB  HN ES       1236 58.82                             131    0.00 9  146 257 
 PTB  HN I        1237  1.50        31.3 0.20            132            146 257 
 CAPV BZ EP       1236 38.82                             131    0.07 9  148  40 
 CAPV BZ ES       1236 58.87                             131   -0.77 9  148  40 
 SML  HZ EP       1236 47.75                             117    0.05 8  238 335 
 SML  HN ES       1237 14.88                             117   -0.69 8  238 335 
 SML  HN I        1237 19.05        45.9 0.10            118            238 335 
                                                                                
