 2012  716 1010 16.9 L   6.781 -73.131152.0  RSN  6 0.2 1.4LRSN                1
 GAP=184        0.44       3.3     4.2  5.8  0.2305E+01  0.4245E+01 -0.5349E+00E
 Epicentro: LOS SANTOS - SANTANDER                                             3
 ACTION:UPD 12-08-14 11:45 OP:ep   STATUS:               ID:20120716101016 L   I
 2012-07-16-1010-00M.COL___197                                                 6
 STAT SP IPHASW D HRMM SECON CODA AMPLIT PERI AZIMU VELO AIN AR TRES W  DIS CAZ7
 BAR2 SZ EP   1   1010 37.17                             172    -0.1 7   22 195 
 BAR2 SZ ES   2   1010 52.77                             172    -0.4 5   22 195 
 BAR2 SZ I        1010 54.78         7.3 0.26            172             22 195 
 BRR  HZ EP   1   1010 39.06                             153     0.2 7   74 299 
 BRR  HN ES   1   1010 56.25                             153     0.3 7   74 299 
 BRR  HZ I        1010 58.45         4.7 0.17            154             74 299 
 RUS  HN ES   2   1011  0.23                             146     0.2 5   98 177 
 PTB  HZ EP   1   1010 44.40                             133    -0.1 7  149 260 
 PTB  HE ES   2   1011  5.74                             133    -0.3 5  149 260 
 PTB  HZ I        1011  6.92         1.9 0.24            136            149 260 
 OCA  HN ES   1   1011  8.45                             131    -0.1 7  163 353 
 ZAR  HE ES   1   1011 15.78                             123     0.0 6  206 293 
