 2010  116 1615 26.7 L   6.846 -72.973144.4  RSN  7 0.3 2.6LRSN                1
 GAP=201        0.44       2.7     5.5  5.2 -0.2620E+01  0.1220E+02  0.5900E+00E
 Epicentro: CEPITA - SANTANDER                                                 3
 ACTION:UP  10-08-24 09:44 OP:vdl  STATUS:               ID:20100116161526 L   I
 2010-01-16-1611-30S.COL___096                                                 6
 STAT SP IPHASW D HRMM SECON CODA AMPLIT PERI AZIMU VELO SNR AR TRES W  DIS CAZ7
 BAR2 SZ IP       1615 46.53                             165     0.110   37 220 
 BAR2 SZ ES   2   1616  1.84                             165    -0.1 5   37 220 
 RUS  BZ EP   1   1615 50.63                             142    -0.1 7  106 187 
 RUS  BE ES   2   1616  9.53                             142     0.1 5  106 187 
 OCA  SZ EP   1   1615 54.68                             130     0.0 7  159 346 
 OCA  SZ ES   2   1616 16.55                             130    -0.1 5  159 346 
 CHI  HZ EP   1   1616  5.17                             116    -0.3 6  259 199 
 CHI  HN ES   2   1616 35.84                             116     0.2 4  259 199 
 HEL  HZ EP   1   1616  8.83                             113    -0.2 5  292 256 
 HEL  HN ES   2   1616 42.01                             113     0.0 4  292 256 
 HEL  HZ I        1616 45.01        19.7 0.28                           292 256 
 RREF BZ EP       1616 15.19                             109     0.4 7  340 231 
 RREF BN ES   2   1616 52.57                             109     0.2 3  340 231 
 RREF BZ I        1616 58.67        17.1 0.50                           340 231 
 PRA  HZ EP   1   1616 22.14                             106     0.3 4  406 212 
 PRA  HE ES   2   1617  3.59                             106    -1.2 3  406 212 
 PRA  HZ I        1617  7.13        13.2 0.63                           406 212 
                                                                                
