 2014  916 1415 14.6 L   6.766 -73.101144.0  RSN  7 0.4 1.6LRSN                1
 GAP=204        0.73       3.7     4.6  6.1  0.5527E+01 -0.3096E+00 -0.4221E+01E
 Epicentro: LOS SANTOS - SANTANDER                                             3
 ACTION:UPD 14-10-03 23:05 OP:nd   STATUS:               ID:20140916141514 L   I
 OLDACT:REG 14-09-16 22:05 OP:spq  STATUS:               ID:20140916140819     3
 2014-09-16-1408-19M.COL___287                                                 6
 STAT SP IPHASW D HRMM SECON CODA AMPLIT PERI AZIMU VELO AIN AR TRES W  DIS CAZ7
 BAR2 SZ EP       1415 33.78                             171   -0.1910 21.2 205 
 BAR2 SZ ES   1   1415 49.03                             171   -0.06 7 21.2 205 
 BAR2 SZ I        1415 49.82        12.3 0.24            168           21.2 205 
 BRR  HZ EP       1415 35.78                             150   -0.1410 77.3 299 
 BRR  HN ES       1415 52.23                             150   -0.3110 77.3 299 
 BRR  HZ I        1415 54.27        12.1 0.30            147           77.3 299 
 RUS  HZ EP   1   1415 38.18                             144    0.29 7 96.6 179 
 RUS  HE ES   1   1415 56.33                             144    0.28 7 96.6 179 
 RUS  HZ I        1415 57.14         3.2 0.24            144           96.6 179 
 PTB  HZ EP   1   1415 40.95                             130   -0.85 7  152 261 
 PTB  HE ES       1416  3.22                             130    0.20 9  152 261 
 PTB  HZ I        1416  6.00         3.7 0.20            128            152 261 
 SPBC HZ EP   1   1415 42.87                             128   -0.11 7  163 221 
 SPBC HN ES   1   1416  5.50                             128    0.37 7  163 221 
 SPBC HZ I        1416 10.05         4.6 0.14            127            163 221 
 ZAR  HN ES       1416 13.41                             121    0.16 8  210 293 
 ZAR  HZ I        1416 18.23         4.8 0.28            120            210 293 
 SML  HZ EP   1   1415 52.22                             116    0.49 6  249 335 
 SML  HN ES   1   1416 21.23                             116    0.54 6  249 335 
 SML  HZ I        1416 25.29         3.1 0.07            116            249 335 
                                                                                
