 2012  916 1830 50.0 L   6.756 -73.140145.4  RSN  8 0.4 2.0LRSN                1
 GAP=139        0.78       5.2     4.6  7.2  0.1335E+01  0.6401E+01 -0.7125E-01E
 Epicentro: LOS SANTOS - SANTANDER                                             3
 ACTION:UPD 12-10-22 14:19 OP:ep   STATUS:               ID:20120916183051dL   I
 2012-09-16-1830-00M.COL___227                                                 6
 STAT SP IPHASW D HRMM SECON CODA AMPLIT PERI AZIMU VELO AIN AR TRES W  DIS CAZ7
 BAR2 SZ EP   1   1831  9.40                             172   -0.10 7 18.8 195 
 BAR2 SZ ES   1   1831 24.29                             172   -0.43 7 18.8 195 
 BAR2 SZ I        1831 27.11        33.9 0.32                          18.8 195 
 GIR2 SZ EP   1   1831  9.83                             165    0.06 7 36.1 351 
 BRR  HZ EP   1   1831 11.37                             151    0.09 7 74.2 302 
 BRR  HE ES   1   1831 28.79                             151    0.91 7 74.2 302 
 BRR  HZ I        1831 32.24        20.5 0.14                          74.2 302 
 PAM  SZ EP   1   1831 12.27                             150   -0.11 7 80.8  37 
 PAM  SN ES   1   1831 29.65                             150   -0.19 7 80.8  37 
 PAM  SZ I        1831 31.85        13.3 0.62                          80.8  37 
 RUS  HZ EP   1   1831 13.26                             145   -0.11 7 95.7 176 
 RUS  HN ES   1   1831 31.98                             145    0.38 7 95.7 176 
 RUS  HZ I        1831 33.09         8.6 0.28                          95.7 176 
 PTB  HN ES   1   1831 37.30                             132   -0.61 7  148 261 
 PTB  HN I        1831 41.49        13.5 0.10                           148 261 
 ZAR  HN ES   1   1831 47.88                             122   -0.28 6  207 293 
 ZAR  HZ I        1831 49.42         7.0 0.09                           207 293 
 HEL  HZ EP   1   1831 30.58                             115    0.44 6  272 257 
 HEL  HZ I        1832  9.95         6.0 0.42                           272 257 
                                                                                
