 2010  116 1006 37.4 L   6.804 -72.779148.4  RSN  5 0.3 1.5LRSN                1
 GAP=219        0.56       3.3    23.7  7.2 -0.4882E+00 -0.1205E+03  0.2010E+01E
 Epicentro: SAN ANDRES - SANTANDER                                             3
 ACTION:UP  10-08-24 09:44 OP:vdl  STATUS:               ID:20100116100637 L   I
 2010-01-16-1002-05S.COL___096                                                 6
 STAT SP IPHASW D HRMM SECON CODA AMPLIT PERI AZIMU VELO SNR AR TRES W  DIS CAZ7
 BAR2 SZ EP   1   10 6 58.17                             161     0.0 7   50 242 
 BAR2 SZ ES   2   10 7 13.61                             161    -0.8 5   50 242 
 GIR2 SZ EP   1   10 6 58.07                             159    -0.2 7   55 304 
 GIR2 SZ ES       10 7 14.69                             159     0.210   55 304 
 RUS  BZ EP   1   10 7  1.79                             143     0.0 7  106 198 
 RUS  BN ES   2   10 7 21.09                             143     0.2 5  106 198 
 RUS  BZ I        10 7 22.43         4.6 0.54                           106 198 
 OCA  SZ EP       10 7  6.95                             129     0.2 9  169 339 
 OCA  SZ ES   2   10 7 29.17                             129    -0.5 5  169 339 
 CHI  HZ EP   1   10 7 16.62                             116    -0.1 6  263 204 
 CHI  HN ES   2   10 7 47.68                             116     0.2 4  263 204 
 CHI  HZ I        10 7 54.00         1.7 0.34                           263 204 
                                                                                
