 2014  216 1041 42.8 L   6.767 -73.198144.8  RSN  7 0.2 1.8LRSN                1
 GAP=132        0.40       2.1     2.5  4.0 -0.2521E+01  0.3024E+01 -0.6192E+00E
 Epicentro: VILLANUEVA - SANTANDER                                             3
 ACTION:UPD 14-03-10 08:10 OP:ep   STATUS:               ID:20140216104142 L   I
 OLDACT:REG 14-02-16 14:25 OP:mh   STATUS:               ID:20140216104000     3
 2014-02-16-1040-00M.COL___212                                                 6
 STAT SP IPHASW D HRMM SECON CODA AMPLIT PERI AZIMU VELO AIN AR TRES W  DIS CAZ7
 BAR2 SZ EP   1   1042  2.43                             172    0.16 7 19.4 175 
 BAR2 SZ ES   1   1042 17.53                             172    0.10 7 19.4 175 
 BAR2 SZ I        1042 18.68        23.1 0.16            151           19.4 175 
 PAM  SZ EP   1   1042  5.57                             149    0.22 7 83.9  41 
 PAM  SN ES       1042 22.85                             149   -0.0610 83.9  41 
 PAM  SZ I        1042 25.12         8.6 0.30            136           83.9  41 
 RUS  HZ EP       1042  6.18                             144   -0.0910 97.5 173 
 RUS  HZ I        1042 26.22         6.9 0.31            125           97.5 173 
 PTB  HZ EP   1   1042  9.03                             133   -0.12 7  141 260 
 PTB  HN ES   1   1042 29.59                             133   -0.09 7  141 260 
 PTB  HZ I        1042 31.23         8.8 0.08            124            141 260 
 SPBC HN ES       1042 32.18                             130   -0.16 9  157 218 
 NOR  HN ES   1   1042 45.46                             119    0.43 6  228 234 
 NOR  HE ES   1   1042 46.01                             119            228 234 
 NOR  HZ I        1042 51.66         7.6 0.33            109            228 234 
 SML  HZ EP   2   1042 19.24                             117   -0.27 4  245 337 
 SML  HN ES   1   1042 48.12                             117   -0.00 6  245 337 
                                                                                
