 2015  516 1208 29.2 L   6.873 -73.310120.9  RSN  4 0.4 1.7LRSN                1
 GAP=177        0.95       7.4     7.5  7.9  0.2903E+02  0.1934E+01 -0.2669E+02E
 Epicentro: BETULIA - SANTANDER                                                3
 ACTION:UPD 15-09-10 22:04 OP:cam  STATUS:               ID:20150516120829 L   I
 OLDACT:REG 15-05-16 20:30 OP:drio STATUS:               ID:20150516120747     3
 2015-05-16-1207-47M.COL___280                                                 6
 STAT SP IPHASW D HRMM SECON CODA AMPLIT PERI AZIMU VELO AIN AR TRES W  DIS CAZ7
 BAR2 EZ EP       12 8 45.94                             163   -0.1910 34.1 156 
 BAR2 EZ ES       12 8 59.17                             163   -0.2010 34.1 156 
 BAR2 EZ I        12 9  0.25        11.2 0.32            160           34.1 156 
 BRR  HZ EP       12 8 46.42                             155   -0.1010 51.4 300 
 BRR  HZ I        12 8 51.76        17.4 0.36            152           51.4 300 
 BRR  HE ES       12 9  0.61                             155    0.5510 51.4 300 
 ZAR  HZ EP       12 8 58.31                             119    0.34 9  184 292 
 ZAR  HN ES       12 9 19.99                             119   -0.45 9  184 292 
 ZAR  HZ I        12 9 24.39         4.3 0.42            117            184 292 
 SML  HZ EP       12 9  3.44                             113    0.56 8  229 339 
 SML  HN ES       12 9 28.67                             113   -0.51 8  229 339 
                                                                                
