 2010  616 1032 18.7 L   6.785 -73.056149.5  RSN  6 0.2 1.7LRSN                1
 GAP=169        0.35       2.5     5.7  3.9 -0.2206E+01 -0.4208E+01  0.1862E+01E
 Epicentro: LOS SANTOS - SANTANDER                                             3
 ACTION:UP  10-08-24 10:10 OP:vdl  STATUS:               ID:20100616103218 L   I
 2010-06-16-1029-21S.COL___114                                                 6
 STAT SP IPHASW D HRMM SECON CODA AMPLIT PERI AZIMU VELO SNR AR TRES W  DIS CAZ7
 BAR2 SZ EP   1   1032 38.68                             170    -0.1 7   26 213 
 BAR2 SZ ES   2   1032 54.13                             170    -0.3 5   26 213 
 GIR2 SZ EP   1   1032 38.97                             166     0.1 7   36 335 
 GIR2 SZ ES   2   1032 55.00                             166     0.3 5   36 335 
 BRR  HZ EP   1   1032 40.60                             150    -0.2 7   81 296 
 BRR  HZ I        1032 40.77        16.1 0.13                            81 296 
 BRR  HE ES   2   1032 58.13                             150     0.1 5   81 296 
 RUS  HZ EP   1   1032 42.76                             145     0.1 7   99 182 
 RUS  HE ES   2   1033  1.40                             145     0.0 5   99 182 
 RUS  HZ I        1033  2.38         3.9 0.43                            99 182 
 GRA  SZ EP   1   1032 44.13                             138     0.0 7  125  13 
 GRA  SZ ES   2   1033  4.04                             138     0.0 5  125  13 
 CHI  HZ EP   1   1032 56.79                             118     0.1 6  250 197 
                                                                                
