 2013  216 1432 19.1 L   6.503 -74.079 69.6  RSN  5 0.4 1.6LRSN                1
 GAP=174        0.77       5.7     3.8  8.7 -0.8980E+01 -0.3175E+01  0.9979E+01E
 Epicentro: PUERTO PARRA - SANTANDER                                           3
 ACTION:UPD 13-03-12 09:33 OP:ep   STATUS:               ID:20130216143219 L   I
 2013-02-16-1430-00M.COL___241                                                 6
 STAT SP IPHASW D HRMM SECON CODA AMPLIT PERI AZIMU VELO AIN AR TRES W  DIS CAZ7
 PTB  HZ IP     D 1432 30.08                             146   -0.3310 41.9 276 
 PTB  HN ES   1   1432 39.10                             146   -0.12 7 41.9 276 
 PTB  HN I        1432 41.33        16.7 0.32            136           41.9 276 
 BRR  HZ EP   1   1432 33.52                             126   -0.01 7 78.2  31 
 BRR  HN ES   1   1432 45.33                             126    0.55 7 78.2  31 
 BRR  HN I        1432 45.74        46.7 0.14            106           78.2  31 
 BAR2 SZ EP   1   1432 35.95                             119   -0.13 7 99.7  84 
 BAR2 SZ I        1432 52.14         8.4 0.30             95           99.7  84 
 ZAR  HN ES   1   1432 56.38                             110   -0.33 7  139 322 
 ZAR  HN I        1432 57.52        10.4 0.14             95            139 322 
 HEL  HZ EP   1   1432 43.53                             107   -0.07 7  164 258 
 HEL  HN ES   1   1433  3.48                             107    0.78 7  164 258 
 HEL  HN I        1433  6.33         4.5 0.40             92            164 258 
                                                                                
