 2016  916 1628 44.0 L   6.778 -73.114151.1  RSN  9 0.4 2.1LRSN                1
 GAP=239        0.80       4.1     4.3  5.5  0.4408E+01  0.5014E+01  0.1735E+01E
 Epicentro: LOS SANTOS - SANTANDER                                             3
 ACTION:UPD 17-08-17 21:13 OP:lp   STATUS:               ID:20160916162844 L   I
 OLDACT:REG 16-09-16 20:14 OP:lv   STATUS:               ID:20160916162732     3
 2016-09-16-1628-00M.COL___354                                                 6
 STAT SP IPHASW D HRMM SECON CODA AMPLIT PERI AZIMU VELO AIN AR TRES W  DIS CAZ7
 BAR2 EZ EP       1629  4.11                             172   -0.0910 21.8 200 
 BAR2 EZ ES       1629 19.74                             172   -0.2610 21.8 200 
 BAR2 EZ I        1629 20.97        17.3 0.30            163           21.8 200 
 BRR  HZ EP       1629  6.12                             152    0.2010 75.4 299 
 BRR  HN ES       1629 23.56                             152    0.5010 75.4 299 
 BRR  HZ I        1629 25.81        17.8 0.14            147           75.4 299 
 RUS  HZ EP       1629  8.08                             146    0.0210 97.9 178 
 RUS  HN ES       1629 26.91                             146    0.0610 97.9 178 
 RUS  HZ I        1629 30.34         4.9 0.22            143           97.9 178 
 PTB  HZ EP       1629 11.15                             133   -0.48 9  151 260 
 PTB  HN ES       1629 32.51                             133   -0.71 9  151 260 
 PTB  HZ I        1629 39.70        14.6 0.42            129            151 260 
 SPBC HZ EP       1629 13.01                             130    0.11 9  163 220 
 SPBC HE ES       1629 35.79                             130    0.31 9  163 220 
 SPBC HZ I        1629 38.69        25.6 0.10            127            163 220 
 ZAR  HZ EP   2   1629 16.90                             123   -0.28 4  208 292 
 ZAR  HN ES       1629 43.24                             123    0.15 8  208 292 
 ZAR  HZ I        1629 48.70        14.1 0.26            122            208 292 
 NOR  HZ EP   2   1629 20.03                             119   -0.12 4  236 235 
 NOR  HN ES       1629 48.53                             119    0.14 8  236 235 
 NOR  HZ I        1629 51.97        11.2 0.16            117            236 235 
 GUY2CHZ EP   2   1629 28.96                             113    0.98 4  303 236 
 GUY2CHN ES   4   1630  0.84                             113   -1.47 0  303 236 
 GUY2CHZ I        1630 11.46         6.3 0.32                           303 236 
 ELA  HZ EP   4   1629 34.20                             111    3.04 0  330 230 
 ELA  HN ES   4   1630 10.60                             111    2.62 0  330 230 
 ELA  HZ I        1630 24.03         4.6 0.42            110            330 230 
                                                                                
