 2014 1016 1654  2.9 L   6.811 -73.157149.1  RSN 15 0.5 2.2LRSN                1
 GAP=135        1.19       3.6     5.1  7.3 -0.2104E+01  0.9548E+01  0.1995E+01E
 Epicentro: LOS SANTOS - SANTANDER                                             3
 ACTION:UPD 14-11-29 23:50 OP:nd   STATUS:               ID:20141016165402 L   I
 OLDACT:REG 14-10-16 21:03 OP:fm   STATUS:               ID:20141016164746     3
 2014-10-16-1647-46M.COL___295                                                 6
 STAT SP IPHASW D HRMM SECON CODA AMPLIT PERI AZIMU VELO AIN AR TRES W  DIS CAZ7
 BAR2 SZ EP       1654 23.06                             170    0.1110 24.4 187 
 BAR2 SZ ES   1   1654 38.27                             170   -0.33 7 24.4 187 
 BAR2 SZ I        1654 40.84        46.0 0.28            167           24.4 187 
 BRR  HZ EP       1654 24.95                             154    0.6310 69.5 298 
 BRR  HN ES       1654 41.86                             154    0.8310 69.5 298 
 BRR  HZ I        1654 46.17        22.8 0.18            148           69.5 298 
 PAM  SZ EP       1654 26.04                             151    0.5810 77.2  41 
 PAM  SN ES       1654 42.96                             151   -0.1110 77.2  41 
 PAM  SZ I        1654 43.84        13.8 0.18            155           77.2  41 
 RUS  HZ EP       1654 27.03                             144   -0.0410  102 175 
 RUS  HE ES       1654 45.43                             144   -0.5010  102 175 
 PTB  HZ EP       1654 29.86                             133   -0.20 9  147 258 
 PTB  HN ES   1   1654 51.04                             133   -0.20 7  147 258 
 PTB  HZ I        1654 52.85        13.5 0.14            130            147 258 
 SPBC HZ EP   1   1654 31.70                             130    0.03 7  163 218 
 SPBC HE ES       1654 53.77                             130   -0.35 9  163 218 
 SPBC HZ I        1654 58.53        18.4 0.22            128            163 218 
 ZAR  HN ES   1   1655  0.76                             123    0.00 6  202 292 
 ZAR  HZ I        1655  6.23        14.5 0.38            121            202 292 
 SML  HZ EP       1654 38.64                             118   -0.90 8  242 335 
 SML  HN ES       1655  7.26                             118   -0.86 8  242 335 
 SML  HZ I        1655 11.74        18.9 0.26            118            242 335 
 CHI  HZ EP       1654 41.49                             118    0.61 8  249 195 
 CHI  HN ES       1655 10.10                             118   -0.40 8  249 195 
 CHI  HZ I        1655 15.92         8.2 0.34            117            249 195 
 ROSC BZ EP   4   1654 43.32                             117    2.07 0  253 211 
 ROSC BN ES   4   1655 12.58                             117    1.42 0  253 211 
 ROSC BZ I        1655 17.61        20.7 0.45            116            253 211 
 HEL  HN ES   1   1655 14.91                             116    0.30 6  271 255 
 HEL  HZ I        1655 21.56         7.2 0.36            114            271 255 
 RREF HZ EP   4   1654 47.27                             111   -1.90 0  322 229 
 RREF HE ES   1   1655 24.40                             111   -0.87 5  322 229 
 RREF HZ I        1655 26.29         6.6 0.24            111            322 229 
 TOL  SZ EP   4   1654 52.59                             110    1.30 0  344 224 
 TOL  SE ES       1655 29.89                             110    0.85 7  344 224 
 TOL  SZ I        1655 39.29        12.6 0.48            109            344 224 
 MON  HN ES   4   1655 27.77                             109   -2.23 0  352 308 
 MON  HZ I        1655 43.99         3.4 0.52            109            352 308 
 PRA  HE ES   4   1655 37.15                             107   -1.32 0  392 209 
 PRA  HZ I        1655 45.26         8.7 0.68            107            392 209 
 SJC  HZ EP   4   1654 56.80                             106   -1.57 0  408 327 
 SJC  HE ES   4   1655 37.88                             106   -3.77 0  408 327 
                                                                                
