 2012  916 1246 30.0 L   6.784 -73.042149.8  RSN  4 0.1 1.6LRSN                1
 GAP=210        0.38       4.0     7.9  4.1  0.1979E+02 -0.7213E+01 -0.1350E+01E
 Epicentro: LOS SANTOS - SANTANDER                                             3
 ACTION:UPD 12-10-22 14:19 OP:ep   STATUS:               ID:20120916124630 L   I
 2012-09-16-1240-00M.COL___227                                                 6
 STAT SP IPHASW D HRMM SECON CODA AMPLIT PERI AZIMU VELO AIN AR TRES W  DIS CAZ7
 BAR2 SZ EP   1   1246 49.98                             170   -0.24 7 26.3 216 
 BAR2 SZ ES   1   1247  5.78                             170   -0.18 7 26.3 216 
 BAR2 SZ I        1247  7.96        13.9 0.40                          26.3 216 
 GIR2 SZ EP   1   1246 50.29                             166   -0.06 7 36.6 333 
 GIR2 SZ ES   1   1247  6.39                             166    0.20 7 36.6 333 
 BRR  HZ EP   1   1246 52.33                             150    0.06 7 82.2 296 
 BRR  HZ I        1246 52.50         9.9 0.12                          82.2 296 
 BRR  HN ES   1   1247  9.60                             150   -0.01 7 82.2 296 
 RUS  HZ EP   1   1246 54.24                             145    0.17 7 98.7 183 
 RUS  HN ES   1   1247 12.86                             145    0.06 7 98.7 183 
 RUS  HZ I        1247 13.65         2.9 0.48                          98.7 183 
                                                                                
