 2012  116 1204 44.3 L   6.765 -73.164142.6  RSN  6 0.4 1.4LRSN                1
 GAP=136        0.76       6.7     6.9  7.7 -0.6363E+01  0.4533E+01  0.1173E+02E
 Epicentro: LOS SANTOS - SANTANDER                                             3
 ACTION:UP  12-02-03 08:17 OP:REBC STATUS:               ID:20120116120444 L   I
 2012-01-16-1200-00M.COL___185                                                 6
 STAT SP IPHASW D HRMM SECON CODA AMPLIT PERI AZIMU VELO SNR AR TRES W  DIS CAZ7
 BAR2 SZ EP   1   12 5  2.60                             172    -0.8 7   19 186 
 BAR2 SZ ES   1   12 5 18.25                             172    -0.1 7   19 186 
 BAR2 SZ I        12 5 20.39         7.3 0.20                            19 186 
 BRR  HN ES   2   12 5 21.70                             152     0.4 5   71 302 
 PAM  SZ EP   1   12 5  6.71                             149     0.3 7   82  39 
 PAM  SN ES   2   12 5 23.66                             149     0.0 5   82  39 
 PAM  SZ I        12 5 25.91         4.1 0.26                            82  39 
 RUS  HZ EP   1   12 5  7.66                             144     0.2 7   97 175 
 RUS  HN ES   2   12 5 25.83                             144     0.3 5   97 175 
 RUS  HZ I        12 5 28.08         5.3 0.23                            97 175 
 PTB  HZ EP   1   12 5 10.75                             132     0.0 7  145 260 
 PTB  HN ES   2   12 5 31.33                             132     0.0 5  145 260 
 PTB  HZ I        12 5 35.09         0.0 0.18                           145 260 
 CHI  HZ EP   1   12 5 21.39                             117     0.1 6  244 195 
                                                                                
