 2010  816 1138 13.5 L   6.706 -73.186156.0  RSN  5 0.4 1.4LRSN                1
 GAP=160        0.77      11.5    17.9 11.2  0.1498E+03 -0.1160E+03 -0.5281E+02E
 Epicentro: VILLANUEVA - SANTANDER                                             3
 ACTION:UP  10-09-07 10:55 OP:vdl  STATUS:               ID:20100816113813 L   I
 2010-08-16-1134-51S.COL___111                                                 6
 STAT SP IPHASW D HRMM SECON CODA AMPLIT PERI AZIMU VELO SNR AR TRES W  DIS CAZ7
 BAR2 SZ EP       1138 33.82                             175    -0.310   13 179 
 BAR2 SZ ES   2   1138 50.08                             175    -0.2 5   13 179 
 BAR2 SZ I        1138 57.69         5.4 0.42                            13 179 
 GIR2 SZ EP   2   1138 34.21                             164    -0.4 5   41 359 
 BRR  HZ EP       1138 35.79                             154     0.010   73 307 
 BRR  HZ I        1138 36.05        10.3 0.16                            73 307 
 BRR  HE ES       1138 53.37                             154     0.110   73 307 
 RUS  HZ EP   2   1138 38.03                             149     0.5 5   91 173 
 RUS  HN ES   2   1138 56.87                             149     0.5 5   91 173 
 RUS  HZ I        1138 59.99         2.0 0.49                            91 173 
 GUE  SZ EP   2   1138 40.85                             139     0.9 5  128  13 
                                                                                
