 2014  916 1055 44.8 L   6.799 -73.120145.2  RSN  8 0.3 1.6LRSN                1
 GAP=140        0.79       3.3     4.0  5.3  0.1929E+01  0.3646E+01 -0.8033E+00E
 Epicentro: LOS SANTOS - SANTANDER                                             3
 ACTION:UPD 14-10-03 23:05 OP:nd   STATUS:               ID:20140916105544 L   I
 OLDACT:REG 14-09-16 21:36 OP:spq  STATUS:               ID:20140916104818     3
 2014-09-16-1048-18M.COL___263                                                 6
 STAT SP IPHASW D HRMM SECON CODA AMPLIT PERI AZIMU VELO AIN AR TRES W  DIS CAZ7
 BAR2 SZ EP       1056  4.25                             170   -0.1510 23.9 197 
 BAR2 SZ ES   1   1056 19.66                             170   -0.01 7 23.9 197 
 BAR2 SZ I        1056 21.37         6.4 0.28            172           23.9 197 
 BRR  HZ EP       1056  6.02                             152   -0.0410 73.7 298 
 BRR  HE ES       1056 22.76                             152    0.1410 73.7 298 
 BRR  HZ I        1056 25.06         7.3 0.36            150           73.7 298 
 PAM  SN ES   1   1056 23.91                             151   -0.18 7 75.7  38 
 PAM  SZ I        1056 26.61         8.7 0.22            152           75.7  38 
 RUS  HZ EP       1056  8.64                             144    0.1410  100 178 
 RUS  HE ES   1   1056 27.20                             144    0.23 7  100 178 
 PTB  HZ EP       1056 11.15                             131   -0.85 9  151 259 
 PTB  HE ES       1056 33.07                             131   -0.12 9  151 259 
 PTB  HZ I        1056 34.55         3.6 0.09            132            151 259 
 SPBC HZ EP       1056 13.35                             129   -0.09 9  165 220 
 SPBC HN ES   1   1056 36.33                             129    0.56 7  165 220 
 SPBC HZ I        1056 41.63         4.1 0.20            130            165 220 
 ZAR  HZ EP   1   1056 17.82                             122    0.31 6  207 292 
 ZAR  HN ES       1056 43.07                             122    0.07 8  207 292 
 ZAR  HZ I        1056 47.91         3.9 0.44            122            207 292 
 SML  HZ EP       1056 22.21                             117    0.65 8  245 335 
 SML  HE ES   1   1056 50.07                             117   -0.14 6  245 335 
 SML  HZ I        1056 59.11         2.4 0.04            118            245 335 
                                                                                
