 2011 1216 1839 36.7 L   6.751 -73.076145.5  RSN  7 0.2 2.4LRSN                1
 GAP=148        0.49       2.7     3.8  5.1 -0.1530E+01 -0.3840E+00  0.5865E+01E
 Epicentro: LOS SANTOS - SANTANDER                                             3
 ACTION:UPD 12-07-13 16:16 OP:ep   STATUS:               ID:20111216183936 L   I
 2011-12-16-1838-59S.COL___184                                                 6
 STAT SP IPHASW D HRMM SECON CODA AMPLIT PERI AZIMU VELO AIN AR TRES W  DIS CAZ7
 BAR2 SZ EP       1839 56.24                             171    0.0010 21.1 214 
 GIR2 SZ EP   1   1839 56.29                             165   -0.25 7 38.5 340 
 PAM  SZ EP   1   1839 59.04                             151    0.18 7 77.2  33 
 PAM  SE ES   1   1840 16.19                             151    0.03 7 77.2  33 
 BRR  HZ IP     C 1839 58.15                             150   -0.2110 80.6 299 
 BRR  HZ I        1839 58.82        93.5 0.11                          80.6 299 
 BRR  HE ES       1840 15.29                             150    0.0210 80.6 299 
 RUS  HZ EP       1840  0.07                             145    0.0710 94.9 180 
 RUS  HN ES   1   1840 18.39                             145    0.19 7 94.9 180 
 RUS  HZ I        1840 20.57        16.8 0.15                          94.9 180 
 CHI  HZ EP   1   1840 14.24                             117    0.21 6  246 197 
 CHI  HN ES   1   1840 42.64                             117   -0.53 6  246 197 
 CHI  HZ I        1840 51.54        14.2 0.39                           246 197 
 RREF HN ES   1   1840 59.82                             111    0.53 5  324 231 
 RREF HZ I        1841  8.50        22.2 0.26                           324 231 
                                                                                
