 2011  516 1431 58.7 L   6.697 -73.445129.4  RSN  4 0.4 1.2LRSN                1
 GAP=171        0.72      13.0    23.2 10.0  0.2384E+03  0.6666E+02  0.3797E+02E
 Epicentro: EL CARMEN DE CHUCURI - SANTANDER                                   3
 ACTION:UP  11-06-29 08:53 OP:tino STATUS:               ID:20110516143158 L   I
 2011-05-16-1427-50S.COL___141                                                 6
 STAT SP IPHASW D HRMM SECON CODA AMPLIT PERI AZIMU VELO SNR AR TRES W  DIS CAZ7
 BTL  SZ EP   1   1432 16.46                             166    -0.1 7   31  39 
 BAR2 SZ EP   1   1432 16.51                             166    -0.1 7   31 112 
 BAR2 SZ ES   1   1432 30.60                             166     0.1 7   31 112 
 BAR2 SZ I        1432 32.55         6.1 0.27                            31 112 
 BRR  HZ EP   2   1432 18.04                             156     0.9 5   54 327 
 BRR  HZ I        1432 20.72         8.8 0.39                            54 327 
 BRR  HN ES   2   1432 31.05                             156    -0.5 5   54 327 
 RUS  HZ EP   1   1432 20.37                             141    -0.3 7   98 156 
 RUS  HZ I        1432 21.23         1.2 0.12                            98 156 
 RUS  HN ES   2   1432 38.05                             141     0.3 5   98 156 
                                                                                
