 2012  116 1053 33.9 L   6.845 -73.066152.5  RSN  5 0.3 1.4LRSN                1
 GAP=249        0.60      12.2    10.6  8.7  0.9993E+02  0.1396E+02  0.1293E+02E
 Epicentro: LOS SANTOS - SANTANDER                                             3
 ACTION:UP  12-02-03 08:17 OP:REBC STATUS:               ID:20120116105333 L   I
 2012-01-16-1050-00M.COL___185                                                 6
 STAT SP IPHASW D HRMM SECON CODA AMPLIT PERI AZIMU VELO SNR AR TRES W  DIS CAZ7
 BAR2 SZ I        1053 57.17         4.3 0.05                            31 205 
 BAR2 SZ ES   2   1054 11.01                             168     0.4 5   31 205 
 BRR  HN ES   2   1054 12.98                             152    -0.5 5   77 292 
 RUS  HZ EP   1   1053 58.42                             144    -0.2 7  105 181 
 RUS  HN ES   2   1054 18.08                             144     0.1 5  105 181 
 RUS  HZ I        1054 20.86         1.9 0.23                           105 181 
 PTB  HZ EP   1   1054  2.58                             131     0.3 7  157 258 
 PTB  HN ES   2   1054 24.16                             131    -0.3 5  157 258 
 PTB  HZ I        1054 30.00                                            157 258 
 ZAR  HN ES   2   1054 33.86                             123     0.2 4  211 290 
 ZAR  HZ I        1054 41.05         3.5 0.09                           211 290 
                                                                                
