 2010  916 1941 33.9 L   6.863 -73.247124.0  RSN  7 0.2 2.1LRSN                1
 GAP=143        0.52       4.2     9.3  8.3  0.3934E+01 -0.4054E+02 -0.4645E+01E
 Epicentro: ZAPATOCA - SANTANDER                                               3
 ACTION:UP  11-02-18 11:03 OP:tino STATUS:               ID:20100916194133 L   I
 2010-09-16-1936-50S.COL___118                                                 6
 STAT SP IPHASW D HRMM SECON CODA AMPLIT PERI AZIMU VELO SNR AR TRES W  DIS CAZ7
 BTL  SZ EP   1   1941 51.02                             177     0.4 8    7 340 
 GIR2 SZ EP   1   1941 50.91                             168     0.1 8   25  14 
 BAR2 SZ EP   1   1941 51.32                             165     0.2 8   31 167 
 BAR2 SZ ES   2   1942  4.39                             165    -0.1 5   31 167 
 BAR2 SZ I        1942  5.78        60.0 0.46                            31 167 
 BRR  HZ EP   1   1941 51.79                             154    -0.1 8   58 298 
 BRR  HE ES   2   1942  5.83                             154    -0.2 5   58 298 
 BRR  HZ I        1942  7.41        18.3 0.34                            58 298 
 RUS  HZ EP       1941 56.04                             137    -0.210  109 170 
 GUE  SZ EP   1   1941 56.36                             135     0.1 7  113  18 
 GRA  SZ EP   1   1941 56.70                             132    -0.3 7  123  23 
                                                                                
