 2013  516 1203 53.2 L   6.788 -73.153147.5  RSN  5 0.3 1.3LRSN                1
 GAP=136        0.67       4.8     4.6  6.5 -0.2135E+01  0.3636E+01  0.1378E+01E
 Epicentro: LOS SANTOS - SANTANDER                                             3
 ACTION:UPD 13-06-20 09:50 OP:ep   STATUS:               ID:20130516120353 L   I
 2013-05-16-1200-00M.COL___256                                                 6
 STAT SP IPHASW D HRMM SECON CODA AMPLIT PERI AZIMU VELO AIN AR TRES W  DIS CAZ7
 BAR2 SZ EP   1   12 4 13.23                             171    0.19 7 21.8 189 
 BAR2 SZ ES   1   12 4 28.28                             171   -0.21 7 21.8 189 
 BAR2 SZ I        12 4 30.90         5.3 0.18            170           21.8 189 
 BRR  HZ EP   1   12 4 14.78                             153    0.22 7 71.2 300 
 BRR  HN ES   1   12 4 31.84                             153    0.64 7 71.2 300 
 PAM  SZ EP   1   12 4 15.65                             151   -0.07 7 78.9  39 
 PAM  SN ES   1   12 4 32.89                             151   -0.37 7 78.9  39 
 RUS  HZ EP   1   12 4 17.05                             144   -0.01 7 99.3 176 
 RUS  HE ES   1   12 4 35.82                             144    0.18 7 99.3 176 
 RUS  HZ I        12 4 37.09         2.2 0.40            145           99.3 176 
 PTB  HZ EP   1   12 4 20.20                             133   -0.04 7  147 259 
 PTB  HN ES   1   12 4 40.71                             133   -0.61 7  147 259 
 PTB  HZ I        12 4 44.05         3.3 0.16            133            147 259 
                                                                                
