 2016  516 1552 17.9 L   6.736 -74.268 64.3  RSN  9 0.2 1.9LRSN                1
 GAP= 94        0.64       1.7     1.6  3.9  0.1891E+00 -0.8382E-01  0.5919E+00E
 Epicentro: PUERTO PARRA - SANTANDER                                           3
 ACTION:UPD 16-08-18 17:46 OP:cam  STATUS:               ID:20160516155217 L   I
 OLDACT:UP  16-05-16 21:14 OP:drio STATUS:               ID:20160516154744     3
 OLDACT:UP  16-05-16 21:13 OP:drio STATUS:               ID:20160516154744     3
 OLDACT:REG 16-05-16 19:39 OP:drio STATUS:               ID:20160516154744     3
 2016-05-16-1547-44M.COL___307                                                 6
 STAT SP IPHASW D HRMM SECON CODA AMPLIT PERI AZIMU VELO AIN AR TRES W  DIS CAZ7
 PTB  HZ EP       1552 27.59                             152   -0.3110 30.1 224 
 PTB  HN ES       1552 35.69                             152    0.0010 30.1 224 
 PTB  HZ I        1552 36.58        39.6 0.22            150           30.1 224 
 BRR  HZ EP       1552 31.31                             125   -0.2210 73.9  56 
 BRR  HE ES       1552 42.53                             125    0.3810 73.9  56 
 BRR  HZ I        1552 43.26        23.5 0.44            124           73.9  56 
 ZAR  HZ EP       1552 34.57                             114   -0.4410  106 322 
 ZAR  HE ES       1552 48.39                             114    0.0510  106 322 
 ZAR  HZ I        1552 51.49        28.1 0.26            112            106 322 
 BAR2 EZ EP       1552 37.06                             111    0.0510  121  97 
 BAR2 EZ ES       1552 52.04                             111    0.1410  121  97 
 BAR2 EZ I        1552 54.05        11.2 0.26            110            121  97 
 SPBC HZ EP       1552 36.80                             111   -0.1010  122 170 
 SPBC HN ES       1552 51.65                             111   -0.0610  122 170 
 SPBC HZ I        1552 52.75        20.5 0.10            110            122 170 
 NOR  HZ EP       1552 39.75                             106    0.09 9  146 207 
 NOR  HE ES       1552 56.76                             106    0.14 9  146 207 
 NOR  HZ I        1552 59.50        11.8 0.58            105            146 207 
 HEL  HZ EP       1552 41.32                             106    0.53 9  152 247 
 HEL  HN ES   4   1553  0.37                             106    1.74 0  152 247 
 HEL  HZ I        1553  1.55        16.9 0.32            105            152 247 
 RUS  HZ EP       1552 42.07                             105    0.06 9  161 125 
 RUS  HE ES       1553  0.53                             105   -0.27 9  161 125 
 RUS  HZ I        1553  2.14         8.7 0.30            104            161 125 
 URE  HZ EP       1552 43.66                             103    0.03 9  179 309 
 URE  HE ES   4   1553  5.38                             103    1.70 0  179 309 
 URE  HZ I        1553  8.80        17.0 0.38            101            179 309 
                                                                                
