 2011 1116 1056 11.4 L   6.541 -73.155149.1  RSN  7 0.3 2.2LRSN                1
 GAP=144        0.67       3.3     4.3  5.8 -0.2126E+01  0.6410E+01 -0.1627E+01E
 Epicentro: PINCHOTE - SANTANDER                                               3
 ACTION:UPD 12-07-13 16:10 OP:ep   STATUS:               ID:20111116105611 L   I
 2011-11-16-1054-40S.COL___179                                                 6
 STAT SP IPHASW D HRMM SECON CODA AMPLIT PERI AZIMU VELO AIN AR TRES W  DIS CAZ7
 BAR2 SZ EP       1056 31.34                             177    0.0810 6.46 332 
 BAR2 SZ I        1056 31.56        61.9 0.10                          6.46 332 
 BAR2 SZ ES   1   1056 46.20                             177   -0.52 7 6.46 332 
 RUS  HZ EP   1   1056 33.71                             153   -0.01 7 72.1 174 
 RUS  HN ES   1   1056 51.31                             153    0.21 7 72.1 174 
 RUS  HZ I        1056 53.53        17.0 0.27                          72.1 174 
 BRR  HZ IP     D 1056 34.48                             148    0.5210 87.8 315 
 BRR  HZ I        1056 34.88        83.1 0.14                          87.8 315 
 BRR  HN ES   1   1056 51.72                             148    0.20 7 87.8 315 
 PAM  SZ EP   1   1056 35.59                             144    0.00 7  102  30 
 PAM  SZ I        1056 36.11         5.6 0.16                           102  30 
 PAM  SN ES   1   1056 54.36                             144   -0.07 7  102  30 
 OCA  SZ EP   1   1056 42.08                             125   -0.67 7  189 354 
 OCA  SZ ES   1   1057  7.09                             125   -0.08 7  189 354 
 OCA  SZ I        1057 11.43        13.1 0.31                           189 354 
 ZAR  HN ES   1   1057 11.76                             121    0.05 6  216 299 
 ZAR  HZ I        1057 13.96        17.5 0.12                           216 299 
 NOR  SZ EP   1   1056 45.52                             121   -0.13 6  218 240 
 NOR  SN ES   1   1057 11.98                             121   -0.36 6  218 240 
                                                                                
