 2016 1116 1310  1.4 L   6.825 -73.130142.8  RSN  4 0.4 1.5LRSN                1
 GAP=153        0.96      13.8     5.4  8.8 -0.2221E+01  0.1395E+02  0.1292E+02E
 Epicentro: LOS SANTOS - SANTANDER                                             3
 ACTION:UPD 17-10-26 21:08 OP:lp   STATUS:               ID:20161116131001 L   I
 OLDACT:REG 16-11-16 20:36 OP:ar   STATUS:               ID:20161116130642     3
 2016-11-16-1307-00M.COL___326                                                 6
 STAT SP IPHASW D HRMM SECON CODA AMPLIT PERI AZIMU VELO AIN AR TRES W  DIS CAZ7
 BAR2 EZ EP   2   1310 20.30                             168   -0.45 5 26.4 193 
 BAR2 EZ ES   2   1310 35.64                             168   -0.19 5 26.4 193 
 BAR2 EZ I        1310 36.95         6.9 0.11            172           26.4 193 
 BRR  HZ EP       1310 22.11                             152   -0.1410 71.5 296 
 BRR  HN ES       1310 39.05                             152    0.5410 71.5 296 
 PAM  EZ EP       1310 23.30                             152    0.1810 74.1  40 
 PAM  EN ES       1310 39.77                             152   -0.2710 74.1  40 
 PAM  EZ I        1310 42.20         4.4 0.56            151           74.1  40 
 ZAR  HZ EP       1310 34.23                             122    0.51 9  205 291 
 ZAR  HN ES       1310 58.21                             122   -0.71 9  205 291 
 ZAR  HZ I        1311  5.55         4.0 0.24            122            205 291 
                                                                                
