 2014  816 1913  0.0 L   6.785 -73.139145.2  RSN 20 0.4 2.2LRSN                1
 GAP=138        0.90       2.7     3.7  5.0 -0.1107E+01  0.3928E+01  0.2002E+01E
 Epicentro: LOS SANTOS - SANTANDER                                             3
 ACTION:UPD 14-09-15 21:50 OP:nd   STATUS:               ID:20140816191300 L   I
 OLDACT:REG 14-08-16 22:02 OP:spq  STATUS:               ID:20140816190816     3
 2014-08-16-1908-16M.COL___275                                                 6
 STAT SP IPHASW D HRMM SECON CODA AMPLIT PERI AZIMU VELO AIN AR TRES W  DIS CAZ7
 BAR2 SZ EP       1913 19.37                             171   -0.1710 21.8 193 
 BAR2 SZ ES   1   1913 34.36                             171   -0.42 7 21.8 193 
 BAR2 SZ I        1913 35.50        38.2 0.36            167           21.8 193 
 BRR  HZ IP     C 1913 21.26                             152    0.0810 72.7 299 
 BRR  HN ES       1913 38.23                             152    0.5410 72.7 299 
 BRR  HZ I        1913 41.72        18.9 0.08            150           72.7 299 
 PAM  SZ IP     D 1913 22.48                             150    0.2710 78.2  38 
 PAM  SN ES       1913 39.07                             150   -0.4610 78.2  38 
 PAM  SZ I        1913 41.41        23.5 0.46            156           78.2  38 
 RUS  HZ EP       1913 23.44                             144   -0.1410 98.9 176 
 RUS  HN ES   1   1913 42.25                             144    0.28 7 98.9 176 
 RUS  HZ I        1913 43.14        13.3 0.34            143           98.9 176 
 PTB  HZ EP       1913 26.33                             132   -0.64 9  148 260 
 PTB  HE ES       1913 47.44                             132   -0.56 9  148 260 
 PTB  HZ I        1913 49.73        13.6 0.15            130            148 260 
 SPBC HZ EP       1913 28.49                             129    0.10 9  162 220 
 SPBC HE ES       1913 50.64                             129    0.12 9  162 220 
 SPBC HZ I        1913 55.49        18.7 0.20            128            162 220 
 OCA  HN ES       1913 51.29                             129    0.67 9  162 353 
 OCA  HZ I        1913 52.59        21.2 0.22            131            162 353 
 ZAR  HZ EP       1913 32.31                             122   -0.25 8  205 292 
 ZAR  HE ES       1913 57.95                             122    0.01 8  205 292 
 ZAR  HZ I        1914  3.63        14.2 0.38            122            205 292 
 NOR  HN ES   1   1914  3.79                             118    0.31 6  234 235 
 NOR  HZ I        1914  6.79         9.6 0.16            118            234 235 
 SML  HZ EP       1913 36.17                             117   -0.63 8  246 335 
 SML  HN ES   1   1914  5.91                             117    0.41 6  246 335 
 SML  HZ I        1914  6.32        16.7 0.30            118            246 335 
 CHI  HZ EP   1   1913 37.69                             117    0.17 6  247 195 
 CHI  HE ES   1   1914  7.26                             117    0.48 6  247 195 
 CHI  HZ I        1914 14.08         8.3 0.54            117            247 195 
 ROSC BN ES   4   1914 10.31                             117    2.70 0  252 211 
 ROSC BZ I        1914 14.24        15.3 0.45            116            252 211 
 HEL  HZ EP   1   1913 40.01                             115   -0.22 6  272 256 
 HEL  HN ES   4   1914 14.11                             115    2.51 0  272 256 
 HEL  HZ I        1914 17.63         7.9 0.36            114            272 256 
 GUY2CHZ EP   1   1913 44.31                             112    0.75 5  301 235 
 GUY2CHE ES   4   1914 21.58                             112    4.06 0  301 235 
 GUY2CHZ I        1914 25.86         8.2 0.40                           301 235 
 RREF HZ EP   4   1913 44.82                             111   -1.25 0  321 230 
 RREF HN ES   4   1914 23.92                             111    1.92 0  321 230 
 RREF HZ I        1914 28.93         7.6 0.26            111            321 230 
 TOL  SZ EP   4   1913 49.68                             109    1.51 0  343 225 
 TOL  SN ES   4   1914 29.49                             109    3.76 0  343 225 
 TOL  SZ I        1914 33.76        18.9 0.48            109            343 225 
 MON  HN ES   4   1914 25.33                             108   -2.20 0  355 309 
 MON  HZ I        1914 27.63         3.4 0.68            109            355 309 
 ANIL HN ES   4   1914 30.65                             108    2.16 0  357 225 
 PRA  HZ EP       1913 53.93                             106    0.54 6  391 210 
 PRA  HE ES   4   1914 36.35                             106    1.33 0  391 210 
 PRA  HZ I        1914 40.60         8.3 0.34            107            391 210 
 ORTC HZ EP       1913 53.89                             106    0.08 6  395 216 
 ORTC HN ES   4   1914 38.21                             106    2.44 0  395 216 
 ORTC HZ I        1914 43.85         6.6 0.54            106            395 216 
 SJC  HZ IP   4 D 1913 53.85                             105   -1.92 0  411 327 
 SJC  HN ES   4   1914 35.91                             105   -3.35 0  411 327 
 SJC  HZ I        1914 39.18         3.0 0.52            106            411 327 
                                                                                
