 2016 1116 1026 58.5 L   6.691 -73.134140.8  RSN  5 0.4 1.5LRSN                1
 GAP=172        1.16       9.5     5.5  8.4 -0.1189E+02  0.1312E+02 -0.2403E+01E
 Epicentro: VILLANUEVA - SANTANDER                                             3
 ACTION:UPD 17-10-26 21:08 OP:lp   STATUS:               ID:20161116102658 L   I
 OLDACT:DUP 16-11-16 21:10 OP:ar   STATUS:               ID:20161116101749d    3
 OLDACT:DUP 16-11-16 21:05 OP:ar   STATUS:               ID:20161116101748d    3
 OLDACT:UP  16-11-16 21:04 OP:ar   STATUS:               ID:20161116101747     3
 OLDACT:REG 16-11-16 20:23 OP:ar   STATUS:               ID:20161116101747     3
 2016-11-16-1018-00M.COL___326                                                 6
 STAT SP IPHASW D HRMM SECON CODA AMPLIT PERI AZIMU VELO AIN AR TRES W  DIS CAZ7
 BAR2 EZ EP       1027 17.76                             175    0.4210 12.2 206 
 BAR2 EZ ES       1027 32.28                             175    0.2310 12.2 206 
 BAR2 EZ I        1027 33.30         7.5 0.30            174           12.2 206 
 BRR  HZ EP       1027 19.81                             149    0.2610 78.7 306 
 BRR  HN ES       1027 36.55                             149    0.5710 78.7 306 
 BRR  HZ I        1027 38.29         5.9 0.24            146           78.7 306 
 PAM  EZ EP       1027 20.79                             147    0.0510 86.2  34 
 PAM  EN ES       1027 37.34                             147   -0.7610 86.2  34 
 PAM  EZ I        1027 39.98         4.4 0.42            147           86.2  34 
 PTB  HZ EP       1027 24.62                             131   -0.38 9  147 264 
 PTB  HN ES       1027 44.91                             131   -0.77 9  147 264 
 PTB  HZ I        1027 48.26         3.6 0.30            131            147 264 
 ZAR  HZ EP       1027 31.42                             120    0.18 8  210 295 
 ZAR  HN ES       1027 56.90                             120    0.12 8  210 295 
 ZAR  HZ I        1028  2.70         3.0 0.26            120            210 295 
                                                                                
