 2017  416 1425 19.5 L   6.779 -73.167140.8  RSN 16 0.6 2.3LRSN                1
 GAP=118        0.98       3.8     3.5  5.4 -0.1942E+01  0.7104E+01  0.1647E+01E
 Epicentro: LOS SANTOS - SANTANDER                                             3
 ACTION:UPD 17-05-30 21:12 OP:jn   STATUS:               ID:20170416142519 L   I
 OLDACT:UP  17-04-16 22:05 OP:dani STATUS:               ID:20170416141643     3
 OLDACT:UP  17-04-16 22:04 OP:dani STATUS:               ID:20170416141643     3
 OLDACT:UP  17-04-16 22:03 OP:dani STATUS:               ID:20170416141643     3
 OLDACT:UP  17-04-16 22:02 OP:dani STATUS:               ID:20170416141643     3
 OLDACT:REG 17-04-16 20:01 OP:dani STATUS:               ID:20170416141643     3
 2017-04-16-1418-00M.COL___371                                                 6
 STAT SP IPHASW D HRMM SECON CODA AMPLIT PERI AZIMU VELO AIN AR TRES W  DIS CAZ7
 BAR2 EZ IP     C 1425 38.41                             171   -0.0410 20.8 185 
 BAR2 EZ ES       1425 53.07                             171   -0.1910 20.8 185 
 BAR2 EZ I        1425 54.26        63.6 0.18            169           20.8 185 
 BRR  HZ EP     C 1425 40.34                             152    0.3110 70.3 301 
 BRR  HN ES       1425 56.92                             152    0.8510 70.3 301 
 BRR  HZ I        1426  1.38        51.7 0.12            151           70.3 301 
 PAM  EZ EP       1425 41.36                             149    0.0010 80.6  40 
 PAM  EN ES       1425 58.11                             149   -0.3210 80.6  40 
 PAM  EZ I        1425 59.78        30.0 0.22            154           80.6  40 
 RUS  HZ EP       1425 42.88                             143    0.3010 98.5 175 
 RUS  BN ES       1426  0.26                             143   -0.3510 98.5 175 
 RUS  HZ I        1426  1.69        18.8 0.22            144           98.5 175 
 PTB  HZ EP       1425 44.95                             131   -0.83 9  145 260 
 PTB  BN ES       1426  5.80                             131   -0.51 9  145 260 
 PTB  HZ I        1426  8.17        30.7 0.14            131            145 260 
 SPBC HZ EP   1   1425 47.62                             128    0.34 7  160 219 
 SPBC HN ES       1426  9.49                             128    0.52 9  160 219 
 SPBC HZ I        1426 13.00        36.5 0.11            128            160 219 
 ZAR  HZ EP       1425 51.60                             121    0.14 9  203 293 
 ZAR  BE ES   3   1426 17.63                             121    1.22 2  203 293 
 ZAR  HZ I        1426 23.34        30.5 0.28            122            203 293 
 NOR  HZ EP       1425 54.39                             118   -0.17 8  231 235 
 NOR  BN ES       1426 22.25                             118    0.31 8  231 235 
 NOR  HZ I        1426 24.31        18.9 0.16            118            231 235 
 CHI  HZ EP       1425 56.93                             116    0.34 8  246 195 
 CHI  BN ES   3   1426 27.02                             116    1.48 2  246 195 
 CHI  HZ I        1426 34.11         4.5 0.32            117            246 195 
 HEL  HZ EP   3   1426  0.80                             114    1.68 2  269 256 
 HEL  BN ES       1426 29.25                             114   -0.79 8  269 256 
 HEL  HZ I        1426 37.20        10.4 0.44            114            269 256 
 URE  HZ EP   4   1426  2.87                             113    2.72 0  283 293 
 URE  BE ES   3   1426 30.61                             113   -1.28 2  283 293 
 PTGC HZ EP   3   1426  1.83                             111   -1.13 2  307 158 
 PTGC HE ES   3   1426 35.21                             111   -1.68 2  307 158 
 CBOC HE ES       1426 41.44                             109   -0.57 7  331 252 
 DBB  EZ EP       1426  6.73                             109    0.23 7  337 275 
 DBB  EN ES       1426 43.52                             109    0.34 7  337 275 
 DBB  EZ I        1426 45.69         8.1 0.52            109            337 275 
 PRA  HZ EP   3   1426 13.55                             106    1.10 1  389 209 
 PRA  BN ES   3   1426 55.25                             106    1.47 1  389 209 
 PRA  HZ I        1427  2.96         7.1 0.42            107            389 209 
 SJC  HZ EP   3   1426 13.07                             105   -1.87 1  410 327 
 SJC  BN ES   4 D 1426 54.55                             105   -3.67 0  410 327 
 SJC  HZ I        1426 57.91         3.8 0.58            106            410 327 
                                                                                
