 2010 1016 1508 48.5 L   6.814 -73.058138.5  RSN  5 0.3 1.8LRSN                1
 GAP=168        0.96       5.6    11.5 10.4  0.7779E+01 -0.1570E+02  0.2426E+01E
 Epicentro: LOS SANTOS - SANTANDER                                             3
 ACTION:UP  11-02-18 11:10 OP:tino STATUS:               ID:20101016150848 L   I
 2010-10-16-1507-11S.COL___125                                                 6
 STAT SP IPHASW D HRMM SECON CODA AMPLIT PERI AZIMU VELO SNR AR TRES W  DIS CAZ7
 BTL  SZ EP       15 9  7.73                             169     0.410   26 296 
 BAR2 SZ EP       15 9  7.31                             168    -0.110   28 210 
 BAR2 SZ ES   1   15 9 21.47                             168    -0.7 7   28 210 
 BAR2 SZ I        15 9 23.39        19.5 0.31                            28 210 
 BRR  HZ EP       15 9  9.10                             148    -0.310   79 294 
 BRR  HN ES   1   15 9 25.99                             148     0.3 7   79 294 
 BRR  HZ I        15 9 26.89        17.7 0.07                            79 294 
 RUS  HZ EP       15 9 11.56                             142    -0.110  102 182 
 RUS  HE ES   1   15 9 30.23                             142     0.5 7  102 182 
 RUS  HZ I        15 9 31.83         6.7 0.31                           102 182 
 GRA  SZ ES   1   15 9 31.78                             136     0.1 7  122  13 
 GRA  SZ I        15 9 33.80         6.1 0.31                           122  13 
                                                                                
