 2011  116 1131 32.3 L   6.782 -73.229144.6  RSN  4 0.2 1.4LRSN                1
 GAP=188        0.39       5.2    22.4  6.7 -0.9785E+02  0.9157E+02 -0.1712E+02E
 Epicentro: ZAPATOCA - SANTANDER                                               3
 ACTION:UP  11-02-08 08:40 OP:pat  STATUS:               ID:20110116113132 L   I
 2011-01-16-1120-00M.COL___132                                                 6
 STAT SP IPHASW D HRMM SECON CODA AMPLIT PERI AZIMU VELO SNR AR TRES W  DIS CAZ7
 BAR2 SZ ES   2   1132  6.69                             170    -0.2 5   22 167 
 RUS  HZ EP   1   1131 55.93                             143     0.1 7  100 171 
 RUS  HN ES   2   1132 14.28                             143     0.0 5  100 171 
 RUS  HZ I        1132 15.74         3.4 0.45                           100 171 
 GRA  SZ EP   1   1131 57.79                             135     0.0 7  131  21 
 GRA  SZ ES   2   1132 17.92                             135     0.2 5  131  21 
 GRA  SZ I        1132 21.62         3.7 0.43                           131  21 
 CHI  HZ EP   1   1132  9.36                             117    -0.1 6  244 193 
 CHI  HE ES   3   1132 39.42                             117     0.9 2  244 193 
 CHI  HZ I        1132 45.92         1.5 0.30                           244 193 
                                                                                
