 2010  716 1737 57.0 L   7.366 -73.115  3.7  RSN  4 0.6 1.2LRSN                1
 GAP=164        1.47       5.7     8.3 11.7 -0.3576E+02  0.3351E+01 -0.8174E+01E
 Epicentro: MATANZA - SANTANDER                                                3
 ACTION:UPD 10-12-01 15:18 OP:pat  STATUS:               ID:20100716173757 L   I
 2010-07-16-1733-49S.COL___119                                                 6
 STAT SP IPHASW D HRMM SECON CODA AMPLIT PERI AZIMU VELO AIN AR TRES W  DIS CAZ7
 GIR2 SZ EP       1738  2.65                              47    -0.110   33 195 
 GIR2 SZ ES   1   1738  7.19                              47    -0.1 7   33 195 
 GUE  SZ IP       1738  6.38                              47     0.010   55  22 
 GUE  SZ ES   1   1738 12.43                              47    -1.2 7   55  22 
 GUE  SZ I        1738 13.73         8.4 0.14                            55  22 
 GRA  SZ ES   1   1738 17.67                              47     1.2 7   67  31 
 BRR  HZ EP       1738  8.66                              47     0.110   72 247 
 BRR  HZ I        1738 10.31        13.4 0.19                            72 247 
 BRR  HN ES   1   1738 17.66                              47     0.1 7   72 247 
                                                                                
