 2016 1016 1526 27.9 L   6.784 -73.126146.8  RSN 13 0.5 2.2LRSN                1
 GAP=140        1.12       3.6     5.4  6.4 -0.5221E+01  0.9227E+01  0.1969E+01E
 Epicentro: LOS SANTOS - SANTANDER                                             3
 ACTION:UPD 16-11-09 19:20 OP:rebc STATUS:               ID:20161016152627 L   I
 OLDACT:UP  16-10-16 23:38 OP:dnl  STATUS:               ID:20161016151733d    3
 OLDACT:DUP 16-10-16 23:26 OP:dnl  STATUS:               ID:20161016151733d    3
 2016-10-16-1518-00M.COL___377                                                 6
 STAT SP IPHASW D HRMM SECON CODA AMPLIT PERI AZIMU VELO AIN AR TRES W  DIS CAZ7
 BAR2 EZ EP       1526 47.61                             171   -0.0110 22.1 196 
 BAR2 EZ ES       1527  2.56                             171   -0.4510 22.1 196 
 BAR2 EZ I        1527  5.34        29.3 0.34            169           22.1 196 
 BRR  HZ EP       1526 49.58                             152    0.2810 73.9 299 
 BRR  HE ES       1527  6.92                             152    0.9110 73.9 299 
 BRR  HZ I        1527 10.14        19.7 0.32            152           73.9 299 
 PAM  EZ EP   2   1526 50.50                             151    0.28 5 77.4  38 
 PAM  EN ES       1527  7.49                             151   -0.1510 77.4  38 
 PAM  EZ I        1527  9.75        13.2 0.52            155           77.4  38 
 RUS  HZ EP       1526 51.35                             145   -0.2610 98.7 177 
 RUS  HN ES       1527 10.40                             145    0.2910 98.7 177 
 RUS  HZ I        1527 13.08        11.7 0.42            145           98.7 177 
 PTB  HZ EP       1526 54.26                             132   -0.84 9  150 260 
 PTB  HN ES       1527 15.32                             132   -1.01 9  150 260 
 PTB  HZ I        1527 17.79        25.5 0.12            132            150 260 
 OCA  HZ EP       1526 56.30                             130   -0.17 9  162 352 
 OCA  HN ES       1527 18.82                             130    0.06 9  162 352 
 OCA  HZ I        1527 23.35        24.7 0.20            132            162 352 
 SPBC HZ EP       1526 56.58                             129    0.11 9  163 220 
 SPBC HN ES       1527 19.02                             129    0.26 9  163 220 
 SPBC HZ I        1527 25.11        22.6 0.22            130            163 220 
 NOR  HZ EP       1527  3.57                             119   -0.19 8  235 235 
 NOR  HE ES       1527 32.22                             119    0.49 8  235 235 
 NOR  HZ I        1527 35.38        15.8 0.20            119            235 235 
 CHI  HZ EP   2   1527  5.90                             117    0.38 4  248 196 
 CHI  HN ES       1527 34.90                             117    0.02 8  248 196 
 CHI  HZ I        1527 44.86         5.7 0.34            119            248 196 
 HEL  HZ EP       1527  9.04                             115    0.70 8  274 256 
 HEL  HE ES   4   1527 38.68                             115   -1.20 0  274 256 
 HEL  HZ I        1527 46.63        10.7 0.38            116            274 256 
 GUY2CHZ EP   4   1527 12.84                             112    1.21 0  302 235 
 GUY2CHN ES   4   1527 50.13                             112    4.39 0  302 235 
 GUY2CHZ I        1527 56.36         8.4 0.48                           302 235 
 PTGC HZ EP   4   1527 30.97                             112   19.45 0  306 159 
 PTGC HN ES   4   1527 43.77                             112   -1.78 0  306 159 
 LL6C HZ EP   4   1526 53.69                             111   -20.2 0  327 357 
 LL6C HE ES   4   1527 28.00                             111   -21.7 0  327 357 
 PRA  HZ EP   2   1527 21.77                             107    0.38 3  392 210 
 PRA  HN ES   4   1528  2.05                             107   -1.07 0  392 210 
 PRA  HZ I        1528  7.13         7.7 0.56            108            392 210 
 SJC  HZ EP   4   1527 21.35                             106   -2.44 0  412 327 
 SJC  HE ES   4   1528  2.49                             106   -4.91 0  412 327 
 SJC  HZ I        1528  8.04         2.3 0.30            107            412 327 
                                                                                
