 2017  716 1348 44.7 L   6.741 -73.222150.4  RSN  4 0.5 1.0LRSN                1
 GAP=218        1.17      10.6    12.8  9.6  0.8615E+02  0.2618E+02  0.1314E+02E
 Epicentro: VILLANUEVA - SANTANDER                                             3
 ACTION:UPD 17-08-30 15:33 OP:rebc STATUS:               ID:20170716134844 L   I
 OLDACT:REG 17-07-16 20:29 OP:lv   STATUS:               ID:20170716133824     3
 2017-07-16-1348-00M.COL___383                                                 6
 STAT SP IPHASW D HRMM SECON CODA AMPLIT PERI AZIMU VELO AIN AR TRES W  DIS CAZ7
 BAR2 EZ EP       1349  4.74                             173   -0.0510 17.0 165 
 BAR2 EZ ES       1349 19.79                             173   -0.6710 17.0 165 
 BAR2 EZ I        1349 21.02         3.4 0.17            170           17.0 165 
 BRR  HZ EP       1349  6.35                             154    0.1810 67.6 307 
 BRR  HE ES       1349 23.34                             154    0.4310 67.6 307 
 RUS  HZ EP       1349  9.09                             146    0.5510 95.0 171 
 RUS  HN ES       1349 27.23                             146    0.1110 95.0 171 
 RUS  HZ I        1349 28.21         1.6 0.40            145           95.0 171 
 PTB  HZ EP       1349 10.47                             135   -0.76 9  138 261 
 PTB  HN ES   2   1349 32.52                             135    0.60 5  138 261 
 PTB  HZ I        1349 34.20         0.8 0.18            133            138 261 
                                                                                
