 2012  616 1916 55.5 L   6.821 -73.164138.1  RSN 10 0.4 2.4LRSN                1
 GAP=133        0.83       3.4     4.3  6.5 -0.6534E+00  0.1147E+02  0.1865E+01E
 Epicentro: LOS SANTOS - SANTANDER                                             3
 ACTION:UPD 12-08-06 17:50 OP:ep   STATUS:               ID:20120616191655 L   I
 2012-06-16-1909-00M.COL___199                                                 6
 STAT SP IPHASW D HRMM SECON CODA AMPLIT PERI AZIMU VELO AIN AR TRES W  DIS CAZ7
 BAR2 SZ IP       1917 14.46                             169    0.1710 25.4 185 
 BAR2 SZ ES   1   1917 29.27                             169    0.35 7 25.4 185 
 BAR2 SZ I        1917 30.39        44.6 0.19                          25.4 185 
 PAM  SZ EP   1   1917 17.27                             149    0.36 7 76.9  42 
 PAM  SE ES   1   1917 33.98                             149    0.40 7 76.9  42 
 RUS  HZ EP       1917 18.60                             141   -0.1310  103 175 
 RUS  HN ES   1   1917 36.61                             141   -0.21 7  103 175 
 RUS  HZ I        1917 38.93        24.0 0.38                           103 175 
 PTB  HZ EP   1   1917 21.30                             131   -0.45 7  146 258 
 PTB  HN ES   1   1917 41.57                             131   -0.63 7  146 258 
 OCA  HZ EP   1   1917 22.54                             128   -0.47 7  158 354 
 OCA  HN ES   1   1917 43.71                             128   -0.74 7  158 354 
 OCA  HZ I        1917 48.64        82.0 0.30                           158 354 
 ZAR  HZ EP   1   1917 27.38                             121    0.17 6  201 292 
 ZAR  HN ES   1   1917 52.24                             121    0.33 6  201 292 
 ZAR  HZ I        1917 57.88        20.8 0.12                           201 292 
 NOR  SZ EP   1   1917 31.03                             117    0.22 6  234 234 
 CHI  HZ EP   1   1917 32.81                             115   -0.21 6  250 195 
 CHI  HN ES   1   1918  1.86                             115   -0.39 6  250 195 
 CHI  HZ I        1918  7.75        12.6 0.45                           250 195 
 HEL  HZ EP   1   1917 36.42                             113    1.20 6  271 255 
 HEL  HN ES   1   1918  6.53                             113    0.36 6  271 255 
 HEL  HZ I        1918 14.24        24.1 0.34                           271 255 
 GUY  SZ EP   1   1917 38.95                             111   -0.09 5  303 234 
 GUY  SZ I        1918 22.35        17.1 0.39                           303 234 
                                                                                
