 2017  216 1113 34.9 L   6.736 -73.264138.6  RSN  4 0.5 1.1LRSN                1
 GAP=201        1.20       9.0     8.4  9.7  0.3684E+02  0.1296E+02  0.8256E+01E
 Epicentro: ZAPATOCA - SANTANDER                                               3
 ACTION:UPD 17-05-24 15:36 OP:jn   STATUS:               ID:20170216111334 L   I
 OLDACT:REG 17-02-16 20:28 OP:cog  STATUS:               ID:20170216110741     3
 2017-02-16-1108-00M.COL___361                                                 6
 STAT SP IPHASW D HRMM SECON CODA AMPLIT PERI AZIMU VELO AIN AR TRES W  DIS CAZ7
 BAR2 EZ EP       1113 53.22                             172   -0.3410 18.2 150 
 BAR2 EZ ES       1114  8.03                             172   -0.1010 18.2 150 
 BAR2 EZ I        1114  8.80         3.5 0.16            169           18.2 150 
 BRR  HZ EP       1113 55.11                             154    0.2310 64.3 310 
 BRR  HE ES       1114 10.57                             154    0.1010 64.3 310 
 RUS  HZ EP       1113 56.92                             144   -0.6410 95.3 168 
 RUS  HN ES       1114 15.79                             144    0.5510 95.3 168 
 RUS  HZ I        1114 16.24         2.2 0.30            143           95.3 168 
 PTB  HZ EP       1114  0.74                             133    0.7510  134 261 
 PTB  HN ES       1114 19.04                             133   -0.5410  134 261 
 PTB  HZ I        1114 24.23         1.8 0.10            131            134 261 
                                                                                
