 2012  216 1342 54.4 L   6.763 -73.110149.0  RSN 10 0.4 2.1LRSN                1
 GAP=143        0.64       4.2     4.4  6.0 -0.1678E+01  0.3158E+01  0.8796E+01E
 ACTION:UP  12-03-07 16:31 OP:epov STATUS:               ID:20120216134254 L   I
 2012-02-16-1340-00M.COL___188                                                 6
 STAT SP IPHASW D HRMM SECON CODA AMPLIT PERI AZIMU VELO AIN AR TRES W  DIS CAZ7
 BAR2 SZ EP   1   1343 14.25                             172   -0.08 7 20.5 203 
 BAR2 SZ ES   2   1343 29.57                             172   -0.33 5 20.5 203 
 BAR2 SZ I        1343 31.03        33.6 0.29                          20.5 203 
 GIR2 SZ EP   1   1343 14.22                             166   -0.34 7 36.1 345 
 GIR2 SZ ES   2   1343 30.86                             166    0.56 5 36.1 345 
 BRR  HZ EP   1   1343 16.06                             151   -0.11 7 76.7 300 
 BRR  HZ I        1343 16.37        43.8 0.18                          76.7 300 
 BRR  HE ES   1   1343 33.75                             151    0.57 7 76.7 300 
 PAM  SZ EP   1   1343 16.98                             151    0.01 7 78.2  35 
 PAM  SN ES   2   1343 34.52                             151   -0.08 5 78.2  35 
 RUS  HZ EP   1   1343 18.05                             146   -0.08 7 96.3 178 
 RUS  HN ES   2   1343 36.56                             146   -0.11 5 96.3 178 
 RUS  HZ I        1343 38.09        12.9 0.36                          96.3 178 
 PTB  HZ EP   2   1343 21.21                             132   -0.67 5  151 261 
 PTB  HN ES   2   1343 42.06                             132   -1.29 5  151 261 
 ZAR  HZ EP   2   1343 27.96                             122    0.40 4  209 293 
 ZAR  HE ES   2   1343 53.37                             122   -0.08 4  209 293 
 ZAR  HZ I        1343 59.28        12.0 0.47                           209 293 
 NOR  SZ EP   1   1343 30.72                             119    0.34 6  236 236 
 NOR  SN ES   2   1343 58.76                             119    0.29 4  236 236 
 CHI  HZ EP   1   1343 32.30                             118    0.36 6  246 196 
 CHI  HN ES   2   1344  1.66                             118    0.42 4  246 196 
 CHI  HZ I        1344  9.31         4.6 0.37                           246 196 
 RREF HN ES   2   1344 16.92                             111    0.09 3  322 230 
                                                                                
