 2012  916 1333  0.2 L   6.747 -73.188152.5  RSN  4 0.2 1.3LRSN                1
 GAP=228        0.48       5.4     5.1  6.3  0.1123E+02  0.3847E+01 -0.4207E+01E
 Epicentro: VILLANUEVA - SANTANDER                                             3
 ACTION:UPD 12-10-22 14:19 OP:ep   STATUS:               ID:20120916133300 L   I
 2012-09-16-1330-00M.COL___227                                                 6
 STAT SP IPHASW D HRMM SECON CODA AMPLIT PERI AZIMU VELO AIN AR TRES W  DIS CAZ7
 BAR2 SZ EP   1   1333 20.49                             173    0.00 7 17.1 178 
 BAR2 SZ ES   1   1333 35.97                             173   -0.38 7 17.1 178 
 BAR2 SZ I        1333 36.32        11.0 0.38                          17.1 178 
 BRR  HZ EP   1   1333 22.06                             154    0.07 7 70.3 305 
 BRR  HN ES   1   1333 39.25                             154    0.24 7 70.3 305 
 RUS  HN ES   1   1333 43.22                             147    0.25 7 95.2 173 
 RUS  HZ I        1333 44.93         1.5 0.19                          95.2 173 
 PTB  HZ EP   2   1333 26.91                             135   -0.28 5  142 261 
 PTB  HN ES   1   1333 48.20                             135   -0.07 7  142 261 
 PTB  HN I        1333 49.77         2.1 0.12                           142 261 
                                                                                
