 2012  916 1211  6.1 L   6.785 -73.147146.4  RSN 16 0.4 3.1LRSN 3.3WRSN        1
 SPEC AVERAGE  MO 14.0 ST 10.3 OM  2.9 f0 4.13 R0.3653 AL 3.32 WI 11.3 MW  3.3 3
 SPEC SD       MO  0.1 ST  3.3 OM  0.7 f00.666 R0.0605 AL      WI      MW  0.1 3
 GAP= 66        0.79       3.2     2.8  4.7  0.2565E+00  0.2514E+01  0.5633E+01E
 Epicentro: LOS SANTOS - SANTANDER                                             3
 SPEC TAM HH N MO 13.9 ST  8.2 OM  2.2 f0 4.22 R0.3483 AL 3.75 WI  6.0 MW  3.2 3
 SPEC TAM HH N T121155 K 0.000 GD  213 VS 4.20 DE 3.00 Q0230.0 QA 0.60 VS 4.20 3
 SPEC PRA HH N MO 14.2 ST 12.9 OM  2.2 f0 3.93 R0.3740 AL 2.76 WI 12.2 MW  3.4 3
 SPEC PRA HH N T121240 K 0.000 GD  417 VS 4.20 DE 3.00 Q0230.0 QA 0.60 VS 4.20 3
 SPEC PAM SH E MO 13.8 ST 12.0 OM  2.2 f0 5.21 R0.2821 AL 4.13 WI  4.1 MW  3.1 3
 SPEC PAM SH E T121145 K 0.000 GD  166 VS 4.20 DE 3.00 Q0230.0 QA 0.60 VS 4.20 3
 SPEC CHI HH N MO 14.1 ST 13.4 OM  2.3 f0 4.17 R0.3525 AL 3.65 WI 16.2 MW  3.4 3
 SPEC CHI HH N T121211 K 0.000 GD  287 VS 4.20 DE 3.00 Q0230.0 QA 0.60 VS 4.20 3
 SPEC HEL HH N MO 14.1 ST  4.8 OM  2.2 f0 3.13 R0.4696 AL 2.33 WI 17.8 MW  3.3 3
 SPEC HEL HH N T121217 K 0.000 GD  308 VS 4.20 DE 3.00 Q0230.0 QA 0.60 VS 4.20 3
 ACTION:UPD 12-10-22 14:19 OP:ep   STATUS:               ID:20120916121106 L   I
 2012-09-16-1210-00M.COL___227                                                 6
 STAT SP IPHASW D HRMM SECON CODA AMPLIT PERI AZIMU VELO AIN AR TRES W  DIS CAZ7
 BAR2 SZ EP       1211 25.75                             171   -0.0610 21.7 190 
 BAR2 SZ ES   1   1211 40.71                             171   -0.44 7 21.7 190 
 BAR2 SZ I        1211 43.59       482.5 0.26                          21.7 190 
 GIR2 SZ EP       1211 25.81                             167   -0.1210 32.8 351 
 GIR2 SZ ES   1   1211 41.35                             167   -0.01 7 32.8 351 
 BRR  HZ EP       1211 27.64                             152    0.2510 71.9 300 
 BRR  HE ES   1   1211 44.98                             152    1.01 7 71.9 300 
 BRR  HZ I        1211 47.52       194.6 0.18                          71.9 300 
 PAM  SZ EP   1   1211 28.55                             150    0.05 7 78.7  39 
 PAM  SZ I        1211 29.02       166.0 0.24                          78.7  39 
 PAM  SE ES   1   1211 45.88                             150   -0.05 7 78.7  39 
 RUS  HZ EP   1   1211 29.55                             144   -0.29 7 99.0 176 
 RUS  HN ES   1   1211 48.02                             144   -0.30 7 99.0 176 
 RUS  HZ I        1211 49.63        85.1 0.24                          99.0 176 
 PTB  HZ EP   1   1211 32.38                             132   -0.74 7  147 259 
 PTB  HN ES   1   1211 53.57                             132   -0.59 7  147 259 
 PTB  HZ I        1211 56.71        73.6 0.15                           147 259 
 TAM  HZ IP     D 1211 33.92                             131    0.08 9  155 104 
 TAM  HZ I        1211 34.10       115.3 0.20                           155 104 
 TAM  HN ES   1   1211 55.64                             131    0.20 7  155 104 
 YOP  SZ EP   1   1211 36.20                             127    0.11 7  178 153 
 YOP  SZ I        1211 37.04        94.5 0.78                           178 153 
 ZAR  HZ EP   1   1211 38.38                             122   -0.30 6  205 293 
 ZAR  HE ES   1   1212  4.00                             122   -0.05 6  205 293 
 ZAR  HZ I        1212 11.71        83.7 0.12                           205 293 
 NOR  SZ EP   1   1211 41.76                             119   -0.03 6  234 235 
 NOR  SN ES   1   1212 10.07                             119    0.47 6  234 235 
 NOR  SZ I        1212 13.46        94.8 0.64                           234 235 
 CHI  HZ EP   1   1211 43.63                             117   -0.07 6  247 195 
 CHI  HN ES   1   1212 12.73                             117   -0.26 6  247 195 
 CHI  HZ I        1212 17.58        44.8 0.26                           247 195 
 ROSC BZ EP   1   1211 45.42                             117    1.28 6  251 211 
 ROSC BZ I        1212 21.94       118.7 0.50                           251 211 
 HEL  HZ EP   1   1211 46.18                             115   -0.15 6  272 256 
 HEL  HN ES   2   1212 18.14                             115    0.47 4  272 256 
 HEL  HZ I        1212 24.12        55.0 0.32                           272 256 
 VIL  SZ EP   1   1211 49.91                             112    0.51 5  302 192 
 VIL  SN ES   1   1212 22.97                             112   -0.18 5  302 192 
 VIL  SN I        1212 30.39       278.3 0.46                           302 192 
 DBB  SZ EP   1   1211 53.07                             109   -0.57 5  339 275 
 PRA  HZ EP   1   1211 59.18                             107   -0.33 4  391 210 
 PRA  HN ES   1   1212 41.74                             107    0.60 4  391 210 
 PRA  HZ I        1212 47.45        73.4 0.28                           391 210 
                                                                                
