 2014  116 1318 35.1 L   6.807 -73.184140.2  RSN  5 0.4 1.7LRSN                1
 GAP=131        1.08       3.6     7.4  8.0  0.3072E+01  0.1287E+02  0.3076E+01E
 Epicentro: ZAPATOCA - SANTANDER                                               3
 ACTION:UPD 14-03-13 09:55 OP:ep   STATUS:               ID:20140116131835 L   I
 OLDACT:REG 14-01-16 10:19 OP:stll STATUS:               ID:20140116130817     3
 2014-01-16-1308-17M.COL___240                                                 6
 STAT SP IPHASW D HRMM SECON CODA AMPLIT PERI AZIMU VELO AIN AR TRES W  DIS CAZ7
 BRR  HZ EP       1318 56.30                             153    0.9110 67.1 300 
 BRR  HN ES       1319 11.27                             153    0.0310 67.1 300 
 BRR  HZ I        1319 17.11        13.6 0.46            152           67.1 300 
 PAM  SZ EP       1318 57.02                             149    0.1910 79.5  42 
 PAM  SN ES       1319 13.77                             149   -0.0410 79.5  42 
 PAM  SZ I        1319 16.31        13.6 0.56            155           79.5  42 
 RUS  HZ EP       1318 57.96                             142   -0.4110  102 174 
 RUS  HN ES       1319 16.35                             142   -0.1910  102 174 
 RUS  HZ I        1319 18.48         4.4 0.22            145            102 174 
 SML  HZ EP       1319 11.41                             116    0.29 8  241 336 
 SML  HN ES       1319 38.38                             116   -0.86 8  241 336 
 SML  HZ I        1319 42.02         9.6 0.10            119            241 336 
 CHI  HZ EP       1319 12.19                             116   -0.25 8  248 194 
 CHI  HN ES       1319 41.64                             116    0.06 8  248 194 
 CHI  HZ I        1319 46.07         1.7 0.24            119            248 194 
                                                                                
