 2016 1116 1510 25.3 L   6.757 -73.149143.9  RSN  6 0.3 1.9LRSN                1
 GAP=154        0.71       4.6     3.3  5.4 -0.5368E+01  0.3517E+01  0.5148E+01E
 Epicentro: LOS SANTOS - SANTANDER                                             3
 ACTION:UPD 17-10-26 21:08 OP:lp   STATUS:               ID:20161116151025 L   I
 OLDACT:REG 16-11-16 20:44 OP:ar   STATUS:               ID:20161116150855     3
 2016-11-16-1509-10M.COL___331                                                 6
 STAT SP IPHASW D HRMM SECON CODA AMPLIT PERI AZIMU VELO AIN AR TRES W  DIS CAZ7
 BAR2 EZ EP       1510 44.59                             172   -0.0510 18.6 191 
 BAR2 EZ ES       1510 59.79                             172    0.0910 18.6 191 
 BAR2 EZ I        1511  1.14        13.4 0.30            171           18.6 191 
 BRR  HZ EP       1510 46.77                             151    0.3810 73.2 302 
 BRR  HN ES       1511  3.18                             151    0.3710 73.2 302 
 PAM  EZ EP       1510 47.44                             149   -0.1410 81.3  38 
 PAM  EN ES       1511  4.72                             149   -0.2210 81.3  38 
 PAM  EZ I        1511  6.76        12.5 0.48            152           81.3  38 
 PTB  HZ EP   2   1510 51.94                             132   -0.08 5  147 261 
 PTB  HN ES       1511 12.24                             132   -0.61 9  147 261 
 PTB  HZ I        1511 19.98         9.5 0.46            131            147 261 
 ZAR  HN ES       1511 23.07                             122   -0.06 8  206 293 
 ZAR  HZ I        1511 28.81         7.1 0.14            122            206 293 
 NOR  HZ EP       1511  0.68                             118    0.07 8  232 235 
 NOR  HN ES       1511 28.32                             118    0.18 8  232 235 
 NOR  HZ I        1511 32.30         5.9 0.22            119            232 235 
                                                                                
