 2010 1216 1518 28.4 L   6.706 -73.132139.0  RSN 12 0.3 2.1LRSN                1
 GAP=137        0.59       3.4     5.7  6.5 -0.8603E+01  0.1214E+02 -0.1544E+01E
 Epicentro: JORDAN - SANTANDER                                                 3
 ACTION:UP  11-01-14 15:25 OP:pat  STATUS:               ID:20101216151828 L   I
 2010-12-16-1500-00M.COL___137                                                 6
 STAT SP IPHASW D HRMM SECON CODA AMPLIT PERI AZIMU VELO SNR AR TRES W  DIS CAZ7
 BAR2 SZ EP   1   1518 46.73                             174    -0.3 7   14 204 
 BAR2 SZ ES   2   1519  1.24                             174    -0.3 5   14 204 
 BAR2 SZ I        1519  5.28        27.4 0.19                            14 204 
 BTL  SZ EP       1518 47.61                             168     0.310   28 327 
 GIR2 SZ EP   2   1518 46.86                             162    -0.7 5   42 351 
 RUS  HZ EP       1518 50.54                             145    -0.210   90 177 
 RUS  HN ES   2   1519  8.57                             145     0.5 5   90 177 
 RUS  HZ I        1519 12.20        14.5 0.46                            90 177 
 GRA  SZ EP   1   1518 53.96                             133     0.1 7  135  16 
 GRA  SZ ES   2   1519 13.85                             133     0.1 5  135  16 
 GRA  SZ I        1519 15.95        34.2 0.40                           135  16 
 YOP  SZ EP   2   1518 56.73                             126    -0.2 5  169 152 
 OCA  SZ EP   1   1518 57.35                             126     0.2 7  171 353 
 OCA  SZ I        1519 22.88        23.9 0.29                           171 353 
 NOR  SZ EP   1   1519  2.92                             117    -0.3 6  230 237 
 NOR  SE ES   1   1519 30.16                             117    -0.2 6  230 237 
 CHI  HZ EP   2   1519  4.62                             117     0.0 4  239 196 
 CHI  HZ I        1519  7.20         7.3 0.29                           239 196 
 CHI  HE ES   2   1519 33.47                             117     0.5 4  239 196 
 HEL  HZ EP   2   1519  8.37                             113     0.2 4  271 258 
 RREF HZ EP   2   1519 14.24                             110     0.7 3  316 231 
 PRA  HZ EP   1   1519 20.54                             106    -0.1 4  384 211 
                                                                                
