 2010  916 1009 33.0 L   7.286 -73.059152.0  RSN 10 0.5 2.6LRSN                1
 GAP=158        1.02       5.8    10.2  9.8 -0.1372E+02  0.1040E+02  0.1059E+02E
 Epicentro: MATANZA - SANTANDER                                                3
 ACTION:UP  11-02-18 11:03 OP:tino STATUS:               ID:20100916100933 L   I
 2010-09-16-1006-07S.COL___119                                                 6
 STAT SP IPHASW D HRMM SECON CODA AMPLIT PERI AZIMU VELO SNR AR TRES W  DIS CAZ7
 GIR2 SZ IP     C 10 9 53.24                             169    -0.110   27 213 
 GIR2 SZ ES   2   1010  8.77                             169    -0.4 5   27 213 
 BTL  SZ EP   1   10 9 55.17                             162     1.1 7   47 210 
 GUE  SZ EP   1   10 9 55.75                             157     0.9 7   62  14 
 GRA  SZ EP   1   10 9 54.81                             153    -0.3 7   72  23 
 GRA  SZ ES   2   1010 12.46                             153     0.1 5   72  23 
 GRA  SZ I        1010 12.86       146.1 0.32                            72  23 
 BRR  HZ IP     D 10 9 55.04                             152     0.010   75 255 
 BRR  HZ I        10 9 55.88       144.4 0.13                            75 255 
 BRR  HN ES   2   1010 12.55                             152     0.3 5   75 255 
 BAR2 SZ IP     C 10 9 55.41                             152    -0.210   78 190 
 BAR2 SZ I        10 9 55.76        80.8 0.43                            78 190 
 BAR2 SZ ES   2   1010 12.96                             152    -0.2 5   78 190 
 OCA  SZ EP   1   10 9 56.95                             143    -0.6 7  109 345 
 OCA  SZ ES   2   1010 16.47                             143    -0.2 5  109 345 
 OCA  SZ I        1010 18.66        80.6 0.48                           109 345 
 RUS  HZ EP   1   1010  1.16                             132    -0.6 7  154 181 
 RUS  HE ES   2   1010 23.81                             132    -0.3 5  154 181 
 RUS  HZ I        1010 25.99        16.7 0.57                           154 181 
 HEL  HZ EP   1   1010 16.22                             114    -0.3 5  299 246 
 HEL  HN ES   2   1010 50.52                             114     0.1 4  299 246 
 HEL  HZ I        1011  4.61        11.9 0.39                           299 246 
 CHI  HZ EP   1   1010 17.28                             113     0.2 5  303 194 
 CHI  HE ES   2   1010 52.09                             113     0.7 4  303 194 
 CHI  HZ I        1011  0.14        14.4 0.43                           303 194 
                                                                                
