 2017  916 1036 47.8 L   6.776 -73.108144.4  RSN  6 0.3 2.0LRSN                1
 GAP=240        0.56       3.1     3.8  5.4  0.1275E+01  0.9213E+01 -0.2119E+01E
 Epicentro: LOS SANTOS - SANTANDER                                             3
 ACTION:UPD 17-10-05 19:13 OP:rebc STATUS:               ID:20170916103647 L   I
 OLDACT:UP  17-09-16 22:27 OP:dnl  STATUS:               ID:20170916102746d    3
 OLDACT:UP  17-09-16 22:27 OP:dnl  STATUS:               ID:20170916102746d    3
 OLDACT:UP  17-09-16 22:27 OP:dnl  STATUS:               ID:20170916102746d    3
 OLDACT:DUP 17-09-16 22:12 OP:dnl  STATUS:               ID:20170916102746d    3
 2017-09-16-1028-00M.COL___436                                                 6
 STAT SP IPHASW D HRMM SECON CODA AMPLIT PERI AZIMU VELO AIN AR TRES W  DIS CAZ7
 BAR2 EZ EP       1037  7.05                             171   -0.1510 21.9 202 
 BAR2 EZ ES       1037 22.31                             171   -0.0510 21.9 202 
 BAR2 EZ I        1037 23.56        51.0 0.42            169           21.9 202 
 BRR  HZ EP       1037  9.12                             151    0.0710 76.1 299 
 BRR  HN ES   2   1037 26.05                             151    0.40 5 76.1 299 
 BRR  HZ I        1037 29.99        21.0 0.12            146           76.1 299 
 RUS  HZ EP   2   1037 11.31                             144    0.14 5 97.7 178 
 RUS  HN ES       1037 29.59                             144    0.1610 97.7 178 
 SPBC HZ EP   2   1037 16.37                             129    0.16 5  164 221 
 SPBC HN ES       1037 37.91                             129   -0.49 9  164 221 
 SPBC HZ I        1037 39.06        13.6 0.26            131            164 221 
 ZAR  HZ EP   2   1037 20.66                             121    0.04 4  209 292 
 ZAR  HE ES       1037 46.12                             121   -0.13 8  209 292 
 ZAR  HZ I        1037 53.85         6.5 0.12            121            209 292 
 NOR  HZ EP   2   1037 23.51                             118   -0.10 4  237 236 
 NOR  HE ES       1037 52.03                             118    0.46 8  237 236 
 NOR  HZ I        1037 54.18         5.0 0.36            120            237 236 
                                                                                
