 2013  616 1931 37.2 L   6.819 -73.204153.6  RSN  4 0.4 1.9LRSN                1
 GAP=196        0.88       4.7     7.3  8.2  0.1526E+02 -0.1423E+02 -0.1429E+02E
 Epicentro: ZAPATOCA - SANTANDER                                               3
 ACTION:UPD 14-01-08 09:55 OP:ep   STATUS:               ID:20130616193137 L   I
 OLDACT:UP  13-06-16 19:33 OP:cam  STATUS:               ID:20130616192959     3
 OLDACT:REG 13-06-16 18:02 OP:cam  STATUS:               ID:20130616192959     3
 2013-06-16-1929-59M.COL___261                                                 6
 STAT SP IPHASW D HRMM SECON CODA AMPLIT PERI AZIMU VELO AIN AR TRES W  DIS CAZ7
 BRR  HZ IP       1931 59.17                             156    0.3410 64.5 300 
 BRR  HE ES       1932 16.19                             156    0.4710 64.5 300 
 BRR  HZ I        1932 19.58        14.4 0.50            158           64.5 300 
 RUS  HZ EP       1932  2.01                             145    0.1210  103 173 
 RUS  HN ES       1932 20.78                             145   -0.4010  103 173 
 PTB  HZ EP       1932  4.35                             135    0.08 9  142 257 
 PTB  HN ES       1932 25.16                             135   -0.26 9  142 257 
 SML  HZ EP       1932 13.85                             120    0.09 8  239 336 
 SML  HN ES       1932 41.63                             120   -0.67 8  239 336 
                                                                                
