 2017  116 1408 34.0 L   6.804 -73.151148.0  RSN 10 0.5 2.3LRSN                1
 GAP=102        1.27       4.7     3.9  6.9  0.3887E+00  0.4487E+01  0.5268E+01E
 Epicentro: LOS SANTOS - SANTANDER                                             3
 ACTION:UPD 17-05-22 16:00 OP:jn   STATUS:               ID:20170116140834 L   I
 OLDACT:UP  17-01-16 22:46 OP:cog  STATUS:               ID:20170116140745     3
 OLDACT:REG 17-01-16 20:31 OP:cog  STATUS:               ID:20170116140745     3
 2017-01-16-1408-00M.COL___335                                                 6
 STAT SP IPHASW D HRMM SECON CODA AMPLIT PERI AZIMU VELO AIN AR TRES W  DIS CAZ7
 BAR2 EZ EP       14 8 53.66                             170   -0.2410 23.7 188 
 BAR2 EZ ES       14 9  9.02                             170   -0.4010 23.7 188 
 BAR2 EZ I        14 9 10.20        71.0 0.14            168           23.7 188 
 BRR  HZ EP       14 8 55.63                             153    0.2910 70.5 298 
 BRR  HE ES       14 9 13.00                             153    1.0110 70.5 298 
 BRR  HZ I        14 9 15.92        38.4 0.32            154           70.5 298 
 PAM  EZ EP       14 8 56.56                             151    0.1110 77.4  40 
 PAM  EE ES       14 9 13.89                             151   -0.0710 77.4  40 
 PAM  EZ I        14 9 15.96        41.7 0.52            156           77.4  40 
 RUS  HZ EP       14 8 57.56                             144   -0.4410  101 176 
 RUS  HN ES       14 9 16.71                             144   -0.0110  101 176 
 RUS  HZ I        14 9 18.88        19.7 0.42            144            101 176 
 PTB  HZ EP       14 9  0.47                             133   -0.63 9  147 259 
 PTB  HN ES       14 9 21.60                             133   -0.64 9  147 259 
 PTB  HZ I        14 9 27.00        20.6 0.54            133            147 259 
 TAM  HZ EP       14 9  1.90                             131   -0.01 9  156 105 
 TAM  HN ES       14 9 24.08                             131    0.40 9  156 105 
 ZAR  HZ EP       14 9  6.00                             123   -0.51 9  203 292 
 ZAR  HN ES       14 9 31.61                             123   -0.26 9  203 292 
 CHI  HZ EP       14 9 11.80                             118   -0.04 8  249 195 
 CHI  HE ES       14 9 41.17                             118   -0.20 8  249 195 
 CHI  HZ I        14 9 44.90        12.5 0.82            118            249 195 
 ROSC BZ EP   9   14 9 14.02                             117    1.78 0  253 211 
 ROSC BE ES       14 9 43.94                             117    0.08 8  253 211 
 ROSC BZ I        14 9 52.08        18.9 0.45            118            253 211 
 GUY2CHZ EP       14 9 18.79                             113    1.11 7  301 235 
 GUY2CHN ES       14 9 53.04                             113    1.29 7  301 235 
 GUY2CHZ  IAML    1410  1.51        11.9 0.42                           301 235 
                                                                                
