 2011  316 1430 37.1 L   6.795 -73.559132.8  RSN  4 0.2 1.4LRSN                1
 GAP=243        0.53       5.6    25.7  9.1 -0.3851E+02  0.1268E+03 -0.2820E+02E
 Epicentro: EL CARMEN DE CHUCURI - SANTANDER                                   3
 ACTION:UP  11-06-16 14:34 OP:jfem STATUS:               ID:20110316143037 L   I
 2011-03-16-1430-28S.COL___138                                                 6
 STAT SP IPHASW D HRMM SECON CODA AMPLIT PERI AZIMU VELO SNR AR TRES W  DIS CAZ7
 BTL  SZ EP   1   1430 55.44                             166     0.0 7   35  67 
 BAR2 SZ EP       1430 56.15                             161     0.210   47 118 
 BAR2 SZ ES   1   1431 10.50                             161    -0.1 7   47 118 
 BAR2 SZ I        1431 13.39        10.7 0.33                            47 118 
 RUS  HZ EP   1   1431  0.23                             138    -0.3 7  113 152 
 RUS  HN ES   2   1431 19.09                             138     0.2 5  113 152 
 RUS  HZ I        1431 20.36         2.7 0.37                           113 152 
 GRA  SZ EP       1431  3.04                             130     0.0 9  147  35 
 GRA  SZ I        1431 24.20         4.1 0.41                           147  35 
                                                                                
