 2014 1116 1542 32.2 L   6.781 -73.169152.3  RSN  6 0.2 2.0LRSN                1
 GAP=135        0.58       2.9     3.1  4.5 -0.1200E+01  0.3095E+01  0.1713E+01E
 Epicentro: LOS SANTOS - SANTANDER                                             3
 ACTION:UPD 14-12-19 15:43 OP:nd   STATUS:               ID:20141116154232 L   I
 OLDACT:UP  14-11-16 21:22 OP:cam  STATUS:               ID:20141116153820     3
 OLDACT:REG 14-11-16 20:35 OP:cam  STATUS:               ID:20141116153820     3
 2014-11-16-1538-20M.COL___277                                                 6
 STAT SP IPHASW D HRMM SECON CODA AMPLIT PERI AZIMU VELO AIN AR TRES W  DIS CAZ7
 BAR2 SZ EP       1542 52.41                             172   -0.1510 20.9 184 
 BAR2 SZ ES       1543  8.38                             172   -0.0710 20.9 184 
 BAR2 SZ I        1543  9.88        11.4 0.20            170           20.9 184 
 BRR  HZ EP       1542 54.30                             154    0.3210 70.0 301 
 BRR  HN ES       1543 11.14                             154    0.1510 70.0 301 
 BRR  HN I        1543 15.99        37.3 0.18            153           70.0 301 
 PAM  SN ES       1543 13.28                             151   -0.0310 80.6  40 
 PAM  SN I        1543 13.45        21.7 0.48            156           80.6  40 
 RUS  HZ EP       1542 56.60                             146    0.1410 98.7 174 
 RUS  HN ES       1543 15.27                             146   -0.1210 98.7 174 
 RUS  HZ I        1543 16.92         5.7 0.46            147           98.7 174 
 PTB  HZ EP       1542 59.11                             134   -0.33 9  145 259 
 PTB  HN ES       1543 20.47                             134   -0.23 9  145 259 
 PTB  HZ I        1543 22.68         7.8 0.44            134            145 259 
 SPBC HN ES       1543 23.59                             131    0.30 9  160 219 
 SPBC HN I        1543 29.33        29.2 0.14            132            160 219 
                                                                                
