 2011  116 1511 57.2 L   6.807 -73.123144.9  RSN  8 0.4 1.8LRSN                1
 GAP=161        0.76       4.6     9.4  9.2 -0.1719E+02  0.3974E+02 -0.4765E+01E
 Epicentro: LOS SANTOS - SANTANDER                                             3
 ACTION:UP  11-02-08 08:41 OP:pat  STATUS:               ID:20110116151157 L   I
 2011-01-16-1500-00M.COL___136                                                 6
 STAT SP IPHASW D HRMM SECON CODA AMPLIT PERI AZIMU VELO SNR AR TRES W  DIS CAZ7
 BTL  SZ EP   1   1512 16.87                             172     0.1 7   20 308 
 BAR2 SZ IP       1512 16.86                             170     0.110   25 196 
 BAR2 SZ I        1512 17.39        14.8 0.39                            25 196 
 BAR2 SZ ES   2   1512 31.71                             170    -0.4 5   25 196 
 RUS  HZ EP   1   1512 20.79                             143    -0.2 7  101 178 
 RUS  HN ES   2   1512 39.75                             143     0.3 5  101 178 
 RUS  HZ I        1512 40.37         5.6 0.28                           101 178 
 GRA  SZ EP   1   1512 22.56                             137     0.3 7  124  16 
 GRA  SZ ES   2   1512 42.11                             137     0.3 5  124  16 
 GRA  SZ I        1512 43.53         8.0 0.34                           124  16 
 OCA  SZ EP   1   1512 24.81                             130    -0.6 7  160 352 
 OCA  SZ ES   2   1512 47.40                             130     0.0 5  160 352 
 OCA  SZ I        1512 56.17         9.6 0.63                           160 352 
 NOR  SZ EP   1   1512 32.70                             118    -0.5 6  237 235 
 NOR  SN ES   2   1513  1.08                             118    -0.2 4  237 235 
 CHI  HZ EP   1   1512 35.07                             117     0.0 6  250 196 
 HEL  HZ EP   1   1512 38.64                             114     0.9 6  275 256 
 HEL  HZ I        1513 15.94         7.1 0.39                           275 256 
                                                                                
