 2011  516 1231 29.4 L   6.724 -73.098144.0  RSN  4 0.2 1.3LRSN                1
 GAP=146        0.42       3.7     5.1  5.5  0.2190E+01 -0.6853E+01  0.1910E+01E
 Epicentro: JORDAN - SANTANDER                                                 3
 ACTION:UP  11-06-29 08:53 OP:tino STATUS:               ID:20110516123129 L   I
 2011-05-16-1229-45S.COL___139                                                 6
 STAT SP IPHASW D HRMM SECON CODA AMPLIT PERI AZIMU VELO SNR AR TRES W  DIS CAZ7
 BAR2 SZ EP       1231 48.80                             173     0.110   17 212 
 BAR2 SZ ES   2   1232  3.57                             173    -0.2 5   17 212 
 BAR2 SZ I        1232  7.09         6.9 0.63                            17 212 
 BRR  HZ EP   1   1231 50.64                             149    -0.2 7   80 302 
 BRR  HZ I        1231 50.94         6.5 0.23                            80 302 
 BRR  HE ES   1   1232  7.68                             149     0.1 7   80 302 
 PAM  SZ EP   1   1231 51.75                             149     0.1 7   81  33 
 PAM  SZ I        1231 53.24         1.7 0.39                            81  33 
 PAM  SN ES   2   1232  8.80                             149    -0.2 5   81  33 
 RUS  HZ EP   1   1231 52.18                             146    -0.2 7   92 179 
 RUS  HE ES   2   1232 10.41                             146     0.2 5   92 179 
 RUS  HZ I        1232 12.41         2.8 0.31                            92 179 
                                                                                
