 2015 1216 1228 35.5 L   7.059 -73.075151.2  RSN  6 0.4 1.9LRSN                1
 GAP=210        1.08       5.3     7.0  8.0  0.1715E+02 -0.5380E+01 -0.1349E+02E
 Epicentro: FLORIDABLANCA - SANTANDER                                          3
 ACTION:UPD 16-02-04 15:05 OP:cam  STATUS:               ID:20151216122835 L   I
 OLDACT:DUP 15-12-16 22:19 OP:ar   STATUS:               ID:20151216122752d    3
 2015-12-16-1227-50M.COL___333                                                 6
 STAT SP IPHASW D HRMM SECON CODA AMPLIT PERI AZIMU VELO AIN AR TRES W  DIS CAZ7
 BAR2 EZ EP       1228 56.78                             160    0.1110 53.0 193 
 BAR2 EZ ES       1229 12.96                             160   -0.2510 53.0 193 
 BAR2 EZ I        1229 14.55        23.9 0.34            165           53.0 193 
 BRR  HZ EP       1228 56.58                             154   -0.5910 70.6 274 
 BRR  HN ES       1229 14.60                             154    0.5110 70.6 274 
 BRR  HZ I        1229 17.59        11.9 0.24            154           70.6 274 
 RUS  HZ EP       1229  2.27                             138    0.3410  129 180 
 RUS  HN ES       1229 22.67                             138    0.1010  129 180 
 RUS  HZ I        1229 23.61         9.1 0.26            143            129 180 
 PTB  HZ EP       1229  3.93                             130   -0.35 9  163 249 
 PTB  HZ IPg      1229  4.45                             130    0.17 9  163 249 
 PTB  HN ES       1229 26.14                             130   -0.62 9  163 249 
 PTB  HZ I        1229 28.21         6.5 0.16            133            163 249 
 ZAR  HN ES       1229 34.34                             124    0.74 9  203 284 
 ZAR  HZ I        1229 38.01         8.0 0.16            125            203 284 
 SML  HZ EP       1229 10.47                             121    0.40 8  222 330 
 SML  HN ES       1229 36.56                             121   -0.51 8  222 330 
 SML  HZ I        1229 45.58         7.3 0.30            122            222 330 
                                                                                
