 2014 1216 1148 46.6 L   6.748 -73.133134.3  RSN  5 0.4 1.3LRSN                1
 GAP=140        1.00       4.7     5.5  9.2 -0.4783E+01  0.2427E+02  0.3006E+00E
 Epicentro: LOS SANTOS - SANTANDER                                             3
 ACTION:UPD 15-02-10 17:04 OP:nd   STATUS:               ID:20141216114846 L   I
 OLDACT:REG 14-12-16 20:25 OP:fm   STATUS:               ID:20141216113749     3
 2014-12-16-1137-49M.COL___287                                                 6
 STAT SP IPHASW D HRMM SECON CODA AMPLIT PERI AZIMU VELO AIN AR TRES W  DIS CAZ7
 BAR2 EZ EP       1149  4.81                             172    0.0610 18.1 197 
 BAR2 EZ ES   1   1149 19.45                             172    0.55 7 18.1 197 
 BAR2 EZ I        1149 24.27         4.4 0.32            169           18.1 197 
 PAM  SZ EP       1149  8.29                             147    0.4510 81.0  36 
 PAM  SN ES       1149 24.26                             147   -0.1510 81.0  36 
 PAM  SZ I        1149 25.87         3.4 0.16            154           81.0  36 
 RUS  HZ EP       1149  8.14                             143   -0.6710 94.8 177 
 RUS  HE ES       1149 25.93                             143   -0.2010 94.8 177 
 RUS  HZ I        1149 28.53         2.7 0.26            148           94.8 177 
 ZAR  HE ES       1149 43.25                             119   -0.47 8  208 293 
 ZAR  HZ I        1149 49.04         4.5 0.66            122            208 293 
 NOR  HZ EP       1149 21.89                             116    0.44 8  233 236 
 NOR  HE ES       1149 49.02                             116    0.38 8  233 236 
 NOR  HZ I        1149 54.33         1.8 0.38            120            233 236 
                                                                                
