 2013  516 1056 54.5 L   6.404 -73.658 95.4  RSN 13 0.5 2.1LRSN                1
 GAP= 63        1.21       2.9     3.2  8.2 -0.1377E+01  0.4857E+01  0.6475E+00E
 Epicentro: SANTA HELENA DEL OPON - SANTANDER                                  3
 ACTION:UPD 13-06-20 09:50 OP:ep   STATUS:               ID:20130516105654 L   I
 2013-05-16-1050-00M.COL___256                                                 6
 STAT SP IPHASW D HRMM SECON CODA AMPLIT PERI AZIMU VELO AIN AR TRES W  DIS CAZ7
 BAR2 SZ EP     C 1057 10.38                             147    0.5710 56.6  68 
 BAR2 SZ I        1057 24.56       181.7 0.40            145           56.6  68 
 BRR  HZ IP     D 1057 11.37                             138    0.2810 78.0 356 
 BRR  HN ES   1   1057 24.41                             138    0.42 7 78.0 356 
 BRR  HZ I        1057 27.74        21.7 0.16            137           78.0 356 
 RUS  HZ IP     C 1057 12.27                             135   -0.1110 85.2 132 
 RUS  HN ES       1057 26.16                             135   -0.1310 85.2 132 
 RUS  HZ I        1057 29.90        22.1 0.50            135           85.2 132 
 PTB  HZ IP     D 1057 11.40                             133   -0.7110 89.5 280 
 PTB  HN ES       1057 25.43                             133   -0.3810 89.5 280 
 PTB  HZ I        1057 28.18        61.7 0.10            136           89.5 280 
 GIR2 SZ EP       1057 12.80                             133    0.4210 90.6  35 
 GIR2 SZ I        1057 30.83        15.1 0.12            132           90.6  35 
 PAM  SZ EP       1057 18.97                             119    0.37 9  148  46 
 PAM  SN ES       1057 36.74                             119   -0.63 9  148  46 
 PAM  SZ I        1057 39.07        12.1 0.18            118            148  46 
 NOR  HZ IP     C 1057 18.80                             116   -0.90 9  163 235 
 NOR  HN ES       1057 39.03                             116   -0.29 9  163 235 
 NOR  HZ I        1057 41.62        21.7 0.26            117            163 235 
 ZAR  HZ EP     C 1057 21.59                             113    0.17 9  179 312 
 ZAR  HE ES   2   1057 43.14                             113    0.75 4  179 312 
 ZAR  HZ I        1057 47.69        47.8 0.26            114            179 312 
 CHI  HZ EP       1057 23.46                             112   -0.45 9  196 182 
 CHI  HN ES       1057 47.52                             112    0.70 9  196 182 
 CHI  HZ I        1057 49.61         6.4 0.38            112            196 182 
 HEL  HZ EP     D 1057 25.71                             110    0.48 8  208 264 
 HEL  HN ES       1057 50.00                             110    0.84 8  208 264 
 HEL  HZ I        1057 52.76        12.3 0.36            111            208 264 
 URE  HZ EP   4   1057 29.01                             106   -1.27 0  255 306 
 URE  HN ES   4   1057 55.99                             106   -2.16 0  255 306 
 SML  HZ EP       1057 31.71                             105   -0.19 8  269 350 
 SML  HN ES       1058  0.56                             105   -0.48 8  269 350 
 SML  HZ I        1058  6.16        21.4 0.10            105            269 350 
 PRA  HZ EP       1057 39.39                             102    0.45 7  327 205 
 PRA  HE ES   1   1058 12.77                             102   -0.80 5  327 205 
 PRA  HZ I        1058 24.39         5.5 0.24            103            327 205 
 SJC  HZ EP   4   1057 48.96                              99   -1.40 0  421 337 
 SJC  HN ES   4   1058 30.57                              99   -3.32 0  421 337 
 SJC  HZ I        1058 34.13         2.1 0.58             99            421 337 
                                                                                
