 2010  116 1745 44.2 L   6.809 -73.148149.0  RSN  5 0.3 2.4LRSN                1
 GAP=199        0.42       3.5     8.2  5.9  0.7379E+01  0.3032E+02  0.7136E+01E
 Epicentro: LOS SANTOS - SANTANDER                                             3
 ACTION:UP  10-08-24 09:44 OP:vdl  STATUS:               ID:20100116174544 L   I
 2010-01-16-1744-42S.COL___096                                                 6
 STAT SP IPHASW D HRMM SECON CODA AMPLIT PERI AZIMU VELO SNR AR TRES W  DIS CAZ7
 BAR2 SZ EP   1   1746  4.18                             170     0.0 7   24 189 
 BAR2 SZ ES   2   1746 19.49                             170    -0.3 5   24 189 
 GIR2 SZ EP   1   1746  4.25                             168     0.1 7   30 351 
 GIR2 SZ ES   2   1746 20.17                             168     0.3 5   30 351 
 CHI  HZ EP   1   1746 22.21                             118     0.1 6  250 195 
 CHI  HN ES   2   1746 51.62                             118    -0.1 4  250 195 
 CHI  HZ I        1746 55.05         9.4 0.49                           250 195 
 MON  HZ EP   1   1746 33.26                             109     0.1 5  352 308 
 MON  HN ES   2   1747 11.02                             109    -0.4 3  352 308 
 PRA  HZ EP   1   1746 37.50                             107    -0.4 4  393 209 
 PRA  HN ES   2   1747 20.44                             107     0.7 3  393 209 
 PRA  HZ I        1747 25.85        11.1 0.39                           393 209 
                                                                                
