 2011  216 1127 34.1 L   6.798 -73.205138.9  RSN  4 0.2 1.5LRSN                1
 GAP=158        0.46       3.7    14.5  6.0 -0.3320E+02  0.2003E+02 -0.9789E+01E
 Epicentro: ZAPATOCA - SANTANDER                                               3
 ACTION:UP  11-03-28 15:08 OP:jfem STATUS:               ID:20110216112734 L   I
 2011-02-16-1126-19S.COL___136                                                 6
 STAT SP IPHASW D HRMM SECON CODA AMPLIT PERI AZIMU VELO SNR AR TRES W  DIS CAZ7
 BTL  SZ IP       1127 52.72                             174     0.010   15 332 
 BAR2 SZ IP       1127 52.76                             170    -0.110   23 174 
 BAR2 SZ ES   1   1128  7.62                             170     0.1 7   23 174 
 BAR2 SZ I        1128 10.15         8.3 0.27                            23 174 
 RUS  HZ EP   2   1127 56.96                             142    -0.2 5  101 172 
 RUS  HN ES   1   1128 15.30                             142     0.1 7  101 172 
 RUS  HZ I        1128 17.42         3.6 0.44                           101 172 
 GRA  SZ IP       1127 59.13                             135     0.210  128  20 
 GRA  SZ ES   1   1128 18.06                             135    -0.2 7  128  20 
 GRA  SZ I        1128 19.19         6.5 0.39                           128  20 
                                                                                
