 2016  416 1734 58.1 L   6.553 -73.532100.9  RSN  8 0.5 1.7LRSN                1
 GAP=127        1.34       5.3     4.6 10.2 -0.1131E+02  0.1967E+02 -0.8008E+01E
 Epicentro: EL CARMEN - SANTANDER                                              3
 ACTION:UPD 16-05-05 14:22 OP:rebc STATUS:               ID:20160416173458 L   I
 OLDACT:UP  16-04-16 23:48 OP:mh   STATUS:               ID:20160416172749     3
 OLDACT:UP  16-04-16 23:42 OP:mh   STATUS:               ID:20160416172749     3
 OLDACT:REG 16-04-16 21:26 OP:mh   STATUS:               ID:20160416172749     3
 2016-04-16-1727-49M.COL___307                                                 6
 STAT SP IPHASW D HRMM SECON CODA AMPLIT PERI AZIMU VELO AIN AR TRES W  DIS CAZ7
 BAR2 EZ IP     C 1735 13.10                             157    0.0910 38.9  84 
 BAR2 EZ ES       1735 25.19                             157    0.5910 38.9  84 
 BAR2 EZ I        1735 26.90        22.5 0.27            160           38.9  84 
 PTB  HZ EP       1735 17.93                             131    0.6010  102 269 
 PTB  HN ES       1735 31.31                             131   -0.9910  102 269 
 PTB  HZ I        1735 32.23        14.4 0.29            131            102 269 
 SPBC HZ EP       1735 18.81                             127    0.0510  116 211 
 SPBC HN ES       1735 34.90                             127    0.0510  116 211 
 SPBC HZ I        1735 37.09        15.6 0.06            128            116 211 
 PAM  EZ EP       1735 19.50                             124   -0.8210  127  47 
 PAM  EN ES       1735 37.57                             124   -0.0410  127  47 
 PAM  EZ I        1735 38.67         5.0 0.12            127            127  47 
 ZAR  HZ EP       1735 25.18                             114   -0.19 9  180 305 
 ZAR  HN ES       1735 47.12                             114    0.51 9  180 305 
 ZAR  HZ I        1735 49.14         7.7 0.42            115            180 305 
 NOR  HN ES       1735 46.85                             113   -0.75 9  184 234 
 NOR  HZ I        1735 50.27         7.4 0.09            114            184 234 
 HEL  HN ES       1735 57.05                             108    0.52 8  225 260 
 HEL  HZ I        1736  2.02        10.0 0.05            109            225 260 
 GUY2CHZ EP   1   1735 35.01                             106    0.89 6  251 234 
 GUY2CHN ES       1736  2.32                             106    0.14 8  251 234 
 GUY2CHZ I        1736  6.42         2.3 0.24                           251 234 
                                                                                
