 2016  516 1052 22.4 L   7.029 -73.120144.0  RSN  4 0.3 1.5LRSN                1
 GAP=253        0.73       6.9     6.5  8.9  0.3131E+02 -0.4272E+01 -0.5502E+01E
 Epicentro: FLORIDABLANCA - SANTANDER                                          3
 ACTION:UPD 16-08-18 17:46 OP:cam  STATUS:               ID:20160516105222 L   I
 OLDACT:UP  16-05-16 20:35 OP:drio STATUS:               ID:20160516104745     3
 OLDACT:REG 16-05-16 19:21 OP:drio STATUS:               ID:20160516104745     3
 2016-05-16-1047-45M.COL___286                                                 6
 STAT SP IPHASW D HRMM SECON CODA AMPLIT PERI AZIMU VELO AIN AR TRES W  DIS CAZ7
 RUS  HZ EP       1052 47.81                             137   -0.1510  126 178 
 RUS  HE ES       1053  8.12                             137    0.2310  126 178 
 RUS  HZ I        1053 10.64         1.4 0.64            136            126 178 
 PTB  HZ EP       1052 49.70                             130   -0.4310  157 250 
 PTB  HN ES       1053 11.55                             130   -0.2010  157 250 
 PTB  HZ I        1053 13.69         2.3 0.22            129            157 250 
 ZAR  HN ES       1053 19.38                             123    0.39 9  199 285 
 ZAR  HZ I        1053 21.24         4.4 0.32            124            199 285 
 PRA  HZ EP       1053 19.28                             105    0.64 6  416 208 
 PRA  HE ES       1054  2.39                             105   -0.10 6  416 208 
 PRA  HZ I        1054  7.16         1.8 0.32            106            416 208 
                                                                                
