 2010  616 1354 23.9 L   6.771 -73.118148.6  RSN  5 0.3 1.4LRSN                1
 GAP=159        0.65       4.9    11.0  9.2 -0.1198E+01 -0.3274E+02 -0.8162E+01E
 Epicentro: LOS SANTOS - SANTANDER                                             3
 ACTION:UP  10-08-24 10:10 OP:vdl  STATUS:               ID:20100616135423 L   I
 2010-06-16-1352-23S.COL___114                                                 6
 STAT SP IPHASW D HRMM SECON CODA AMPLIT PERI AZIMU VELO SNR AR TRES W  DIS CAZ7
 BAR2 SZ EP   1   1354 43.82                             171     0.0 7   21 200 
 BAR2 SZ ES   2   1354 58.88                             171    -0.5 5   21 200 
 BRR  HZ EP   1   1354 45.57                             151     0.0 7   75 300 
 BRR  HE ES   2   1355  2.68                             151     0.2 5   75 300 
 BRR  HZ I        1355  5.61        10.3 0.45                            75 300 
 RUS  HZ EP   1   1354 48.02                             145     0.3 7   97 178 
 RUS  HE ES   2   1355  6.09                             145    -0.1 5   97 178 
 RUS  HZ I        1355  7.50         2.0 0.27                            97 178 
 BRI  SZ EP   1   1354 48.34                             141     0.1 7  110  19 
 GUE  SZ EP   1   1354 48.53                             139    -0.5 7  119  10 
 GUE  SZ ES   2   1355  9.33                             139     0.6 5  119  10 
                                                                                
