 2011  316 1655 12.3 L   6.816 -73.145139.2  RSN 14 0.5 2.9LRSN                1
 GAP=103        1.11       3.9     5.8  6.8 -0.6176E+01  0.5134E+01  0.2580E+01E
 Epicentro: LOS SANTOS - SANTANDER                                             3
 ACTION:UP  11-06-16 14:34 OP:jfem STATUS:               ID:20110316165512 L   I
 2011-03-16-1653-13S.COL___138                                                 6
 STAT SP IPHASW D HRMM SECON CODA AMPLIT PERI AZIMU VELO SNR AR TRES W  DIS CAZ7
 BTL  SZ EP       1655 30.67                             172    -0.310   18 310 
 BTL  SZ ES   1   1655 45.89                             172     0.3 7   18 310 
 BAR2 SZ EP       1655 31.39                             169     0.210   25 190 
 BAR2 SZ ES   1   1655 45.67                             169    -0.2 7   25 190 
 BAR2 SZ I        1655 48.42       210.7 0.17                            25 190 
 GIR2 SZ EP       1655 31.44                             167     0.310   30 350 
 RUS  HZ EP       1655 35.34                             142    -0.210  102 176 
 RUS  HN ES   1   1655 53.45                             142    -0.2 7  102 176 
 RUS  HZ I        1655 54.82        74.5 0.22                           102 176 
 GRA  SZ IP       1655 37.25                             136     0.510  124  18 
 GRA  SZ ES   1   1655 55.25                             136    -0.7 7  124  18 
 GRA  SZ I        1655 57.91       137.3 0.42                           124  18 
 OCA  SZ EP   1   1655 40.01                             128     0.1 7  159 353 
 OCA  SZ I        1656  6.20       176.0 0.14                           159 353 
 YOP  SZ EP       1655 42.01                             124     0.0 9  181 154 
 YOP  SN ES   1   1656  6.15                             124     0.9 7  181 154 
 YOP  SZ I        1656 10.73        38.2 0.32                           181 154 
 NOR  SZ EP   1   1655 47.43                             117    -0.3 6  236 234 
 NOR  SN ES   1   1656 14.66                             117    -0.8 6  236 234 
 CHI  HE ES   1   1656 18.83                             115    -0.2 6  250 195 
 CHI  HZ I        1656 25.54        37.4 0.23                           250 195 
 HEL  HZ EP   1   1655 53.55                             113     1.3 6  273 255 
 HEL  HN ES   1   1656 23.43                             113     0.1 6  273 255 
 HEL  HZ I        1656 30.70        53.5 0.41                           273 255 
 VIL  SZ EP   1   1655 55.51                             111    -0.1 5  305 192 
 VIL  SE ES   1   1656 29.10                             111    -0.3 5  305 192 
 VIL  SZ I        1656 34.86        35.8 0.31                           305 192 
 TOL  SZ EP   1   1656  1.21                             108     0.8 5  345 224 
 SDV  BZ EP       1656  1.00                             107    -0.9 6  359  50 
 SDV  BZ I        1656  1.80        25.7 0.12                           359  50 
 PRA  HZ EP   1   1656  5.02                             105    -0.7 4  394 209 
 PRA  HN ES   1   1656 47.22                             105    -0.3 4  394 209 
                                                                                
