 2011  316 1228 19.6 L   6.768 -73.178137.7  RSN  8 0.3 2.0LRSN                1
 GAP=155        0.67       3.7     6.7  5.1 -0.1293E+02  0.7524E+01  0.7424E-01E
 Epicentro: LOS SANTOS - SANTANDER                                             3
 ACTION:UP  11-06-16 14:34 OP:jfem STATUS:               ID:20110316122819 L   I
 2011-03-16-1225-05S.COL___138                                                 6
 STAT SP IPHASW D HRMM SECON CODA AMPLIT PERI AZIMU VELO SNR AR TRES W  DIS CAZ7
 BTL  SZ EP   1   1228 37.54                             172    -0.6 7   19 329 
 BAR2 SZ EP       1228 38.21                             172     0.110   19 182 
 BAR2 SZ ES   1   1228 52.84                             172     0.2 7   19 182 
 BAR2 SZ I        1228 55.04        32.7 0.20                            19 182 
 BTL  SZ ES   1   1228 52.45                             172    -0.2 7   19 329 
 GIR2 SZ EP   1   1228 38.48                             165     0.1 7   34 357 
 RUS  HZ EP       1228 42.00                             143    -0.310   97 174 
 RUS  HN ES   1   1229  0.35                             143     0.3 7   97 174 
 RUS  HZ I        1229  2.08        16.2 0.37                            97 174 
 GRA  SZ EP       1228 44.58                             134     0.110  130  18 
 GRA  SZ ES   1   1229  4.20                             134     0.3 7  130  18 
 GRA  SZ I        1229  6.72        21.3 0.31                           130  18 
 NOR  SZ EP   1   1228 54.50                             117     0.2 6  230 235 
 NOR  SN ES   1   1229 21.49                             117     0.1 6  230 235 
 CHI  HZ EP   1   1228 56.17                             116    -0.2 6  244 195 
 CHI  HZ I        1229 33.02         3.4 0.47                           244 195 
 PRA  HZ EP   1   1229 12.90                             105     0.6 4  387 209 
                                                                                
