 2015 1016 1341 25.9 L   6.786 -73.111142.9  RSN 11 0.4 2.1LRSN                1
 GAP=142        0.99       3.3     4.2  6.2 -0.1866E+01  0.1146E+02 -0.3851E+00E
 Epicentro: LOS SANTOS - SANTANDER                                             3
 ACTION:UPD 15-12-22 20:40 OP:cam  STATUS:               ID:20151016134125 L   I
 OLDACT:UP  15-10-16 22:22 OP:ak   STATUS:               ID:20151016133749     3
 OLDACT:UP  15-10-16 22:19 OP:ak   STATUS:               ID:20151016133749     3
 OLDACT:REG 15-10-16 20:30 OP:ak   STATUS:               ID:20151016133749     3
 2015-10-16-1337-49M.COL___339                                                 6
 STAT SP IPHASW D HRMM SECON CODA AMPLIT PERI AZIMU VELO AIN AR TRES W  DIS CAZ7
 BAR2 EZ EP       1341 45.49                             170    0.3310 22.8 200 
 BAR2 EZ ES       1341 59.70                             170   -0.4910 22.8 200 
 BAR2 EZ I        1342  1.24        23.0 0.30            169           22.8 200 
 BRR  HZ EP       1341 47.24                             151    0.2710 75.3 298 
 BRR  HE ES       1342  4.10                             151    0.6910 75.3 298 
 BRR  HZ I        1342  8.66        22.0 0.31            149           75.3 298 
 PAM  EZ EP   1   1341 48.18                             151    0.45 7 76.2  37 
 PAM  EN ES       1342  4.85                             151    0.0910 76.2  37 
 PAM  EZ I        1342  7.30        36.3 0.54            154           76.2  37 
 RUS  HZ EP       1341 49.38                             144    0.1510 98.8 178 
 RUS  HN ES       1342  6.94                             144   -0.4910 98.8 178 
 RUS  HZ I        1342  9.63        12.7 0.38            147           98.8 178 
 SPBC HZ EP       1341 54.43                             128    0.14 9  164 220 
 SPBC HN ES       1342 16.36                             128   -0.08 9  164 220 
 SPBC HZ I        1342 21.80        11.9 0.13            130            164 220 
 ZAR  HZ EP   1   1341 58.37                             121   -0.21 6  208 292 
 ZAR  HN ES       1342 24.27                             121    0.19 8  208 292 
 ZAR  HZ I        1342 29.31        13.4 0.24            122            208 292 
 NOR  HZ EP   4   1341 58.99                             118   -2.71 0  237 235 
 NOR  HN ES       1342 29.15                             118   -0.48 8  237 235 
 NOR  HZ I        1342 36.87         6.9 0.11            119            237 235 
 SML  HZ EP   1   1342  1.68                             116   -1.01 6  247 335 
 SML  HE ES       1342 30.50                             116   -0.89 8  247 335 
 SML  HZ I        1342 37.79                             118            247 335 
 HEL  HZ EP   1   1342  6.46                             114    0.13 6  275 256 
 HEL  HE ES       1342 37.83                             114   -0.05 7  275 256 
 GUY2CHZ EP   1   1342 10.04                             111    0.42 5  303 235 
 GUY2CHN ES       1342 44.13                             111    0.39 7  303 235 
 GUY2CHZ I        1342 50.48         5.4 0.28                           303 235 
 MON  HZ EP   4   1342 13.14                             108   -2.11 0  358 308 
 MON  HN ES   4   1342 50.47                             108   -3.27 0  358 308 
 MON  HZ I        1342 52.59         4.5 0.20            109            358 308 
                                                                                
