 2014 1216 1412 28.5 L   6.785 -73.244139.6  RSN  4 0.3 1.3LRSN                1
 GAP=218        0.64       6.1     4.8  6.5  0.1482E+02  0.1750E+01  0.3362E+01E
 Epicentro: ZAPATOCA - SANTANDER                                               3
 ACTION:UPD 15-02-10 17:04 OP:nd   STATUS:               ID:20141216141228 L   I
 OLDACT:REG 14-12-16 20:34 OP:fm   STATUS:               ID:20141216140747     3
 2014-12-16-1407-47M.COL___287                                                 6
 STAT SP IPHASW D HRMM SECON CODA AMPLIT PERI AZIMU VELO AIN AR TRES W  DIS CAZ7
 BAR2 EZ EP       1412 47.33                             171   -0.0610 22.4 162 
 BAR2 EZ ES   1   1413  2.66                             171    0.55 7 22.4 162 
 BAR2 EZ I        1413  3.84         4.5 0.20            168           22.4 162 
 BRR  HN ES   1   1413  3.79                             154   -0.36 7 62.8 305 
 RUS  HZ EP       1412 51.78                             143    0.1310  100 170 
 RUS  HN ES       1413  9.40                             143   -0.2810  100 170 
 RUS  HZ I        1413 11.36         3.8 0.30            143            100 170 
 PTB  HZ EP   1   1412 54.00                             133    0.01 7  137 259 
 PTB  HN ES       1413 13.97                             133    0.12 9  137 259 
 PTB  HZ I        1413 17.29         2.6 0.14            133            137 259 
                                                                                
