 2017  216 1400  3.4 L   6.861 -73.325126.5  RSN  6 0.4 1.6LRSN                1
 GAP=110        0.96       4.9     4.3  9.1  0.3188E+01  0.1738E+02  0.1234E+01E
 Epicentro: BETULIA - SANTANDER                                                3
 ACTION:UPD 17-05-24 15:36 OP:jn   STATUS:               ID:20170216140003 L   I
 OLDACT:REG 17-02-16 20:44 OP:cog  STATUS:               ID:20170216135744     3
 2017-02-16-1358-00M.COL___361                                                 6
 STAT SP IPHASW D HRMM SECON CODA AMPLIT PERI AZIMU VELO AIN AR TRES W  DIS CAZ7
 BAR2 EZ EP       14 0 21.24                             164    0.2210 33.6 152 
 BAR2 EZ ES       14 0 34.29                             164   -0.4610 33.6 152 
 BAR2 EZ I        14 0 35.47        29.6 0.38            170           33.6 152 
 BRR  HZ EP       14 0 21.56                             157    0.2010 50.7 302 
 BRR  HZ I        14 0 47.10        24.6 0.36            146           50.7 302 
 PAM  EE ES       14 0 40.55                             144   -0.0110 87.0  53 
 RUS  HZ EP       14 0 26.11                             136   -0.0110  110 166 
 RUS  HN ES       14 0 44.26                             136    0.4310  110 166 
 RUS  HZ I        14 0 44.92         1.7 0.20            136            110 166 
 PTB  HZ EP       14 0 26.43                             131   -0.7710  130 254 
 PTB  HE ES       14 0 45.80                             131    0.0410  130 254 
 PTB  HZ I        14 0 49.81         3.5 0.32            125            130 254 
 ZAR  HN ES       14 0 55.51                             121    0.40 9  183 292 
                                                                                
