 2014  116 1303 10.7 L   6.811 -73.143140.3  RSN 13 0.4 2.4LRSN                1
 GAP=136        0.96       3.0     4.2  7.1 -0.2934E+01  0.7184E+01  0.2158E+01E
 Epicentro: LOS SANTOS - SANTANDER                                             3
 ACTION:UPD 14-03-13 09:55 OP:ep   STATUS:               ID:20140116130310 L   I
 OLDACT:UP  14-01-16 10:48 OP:mh   STATUS:               ID:20140116125817     3
 OLDACT:REG 14-01-16 10:18 OP:stll STATUS:               ID:20140116125817     3
 2014-01-16-1258-17M.COL___240                                                 6
 STAT SP IPHASW D HRMM SECON CODA AMPLIT PERI AZIMU VELO AIN AR TRES W  DIS CAZ7
 BRR  HZ IP     C 13 3 31.91                             152    0.6310 70.9 298 
 BRR  HN ES   1   13 3 47.04                             152   -0.27 7 70.9 298 
 BRR  HZ I        13 3 52.33        19.1 0.14            142           70.9 298 
 PAM  SZ EP       13 3 32.77                             150    0.4610 76.3  40 
 PAM  SN ES       13 3 49.28                             150    0.1510 76.3  40 
 PAM  SZ I        13 3 52.53        22.8 0.47            147           76.3  40 
 RUS  HZ EP       13 3 33.97                             142   -0.0810  102 176 
 RUS  HN ES   1   13 3 52.02                             142   -0.21 7  102 176 
 RUS  HZ I        13 3 53.55        12.9 0.19            140            102 176 
 PTB  HZ EP       13 3 36.62                             131   -0.70 9  148 258 
 PTB  HN ES   1   13 3 57.53                             131   -0.52 7  148 258 
 PTB  HZ I        13 3 59.88        15.3 0.10            123            148 258 
 OCA  HZ EP   1   13 3 38.29                             129   -0.23 7  159 353 
 OCA  HN ES       13 3 59.71                             129   -0.48 9  159 353 
 OCA  HZ I        13 4  3.57        20.6 0.24            122            159 353 
 SPBC HZ EP   1   13 3 38.81                             128   -0.13 7  164 219 
 SPBC HN ES   1   13 4  0.92                             128   -0.01 7  164 219 
 SPBC HZ I        13 4  2.62      23.0e4 0.01            122            164 219 
 ZAR  HN ES   1   13 4  8.47                             121    0.64 6  204 292 
 ZAR  HZ I        13 4 18.88        12.8 0.21            114            204 292 
 NOR  HZ EP   1   13 3 46.34                             117    0.08 6  236 234 
 NOR  HN ES       13 4 14.02                             117    0.05 8  236 234 
 NOR  HZ I        13 4 18.02        10.5 0.46            112            236 234 
 SML  HZ EP       13 3 46.25                             116   -0.71 8  243 335 
 SML  HN ES   1   13 4 16.15                             116    0.95 6  243 335 
 SML  HZ I        13 4 20.78        12.8 0.08            111            243 335 
 CHI  HZ EP   1   13 3 48.81                             116    0.53 6  250 195 
 CHI  HN ES   1   13 4 17.58                             116    0.02 6  250 195 
 CHI  HZ I        13 4 24.69         3.6 0.40            111            250 195 
 HEL  HN ES   1   13 4 22.41                             114    0.46 6  273 256 
 HEL  HZ I        13 4 30.35         5.8 0.38            108            273 256 
 URE  HZ EP   4   13 3 54.55                             112    3.02 0  284 292 
 URE  HZ I        13 4 26.17         8.2 0.13            107            284 292 
 RREF HZ EP   4   13 3 56.82                             110    0.05 0  323 229 
 RREF HN ES   4   13 4 35.06                             110    2.39 0  323 229 
 SJC  HZ EP   4   13 4  4.13                             105   -1.89 0  408 327 
 SJC  HN ES   4   13 4 45.77                             105   -3.37 0  408 327 
 SJC  HZ I        13 4 50.36         2.3 0.61            101            408 327 
                                                                                
