 2014  216 1910 44.0 L   6.835 -73.182145.7  RSN  8 0.4 2.1LRSN                1
 GAP=130        0.81       4.0     6.3  7.6 -0.9573E+01  0.2773E+02 -0.5894E+01E
 Epicentro: ZAPATOCA - SANTANDER                                               3
 ACTION:UPD 14-03-10 08:10 OP:ep   STATUS:               ID:20140216191044 L   I
 OLDACT:REG 14-02-16 15:37 OP:mh   STATUS:               ID:20140216191000     3
 2014-02-16-1910-00M.COL___212                                                 6
 STAT SP IPHASW D HRMM SECON CODA AMPLIT PERI AZIMU VELO AIN AR TRES W  DIS CAZ7
 BAR2 SZ IP     C 1911  3.82                             169    0.0910 26.8 180 
 BAR2 SZ ES   1   1911 19.06                             169   -0.03 7 26.8 180 
 BAR2 SZ I        1911 20.40        28.3 0.16            166           26.8 180 
 PAM  SZ EP   1   1911  6.73                             151    0.50 7 77.2  44 
 PAM  SN ES   1   1911 23.95                             151    0.41 7 77.2  44 
 PAM  SZ I        1911 26.85         8.6 0.25            153           77.2  44 
 RUS  HZ EP   1   1911  7.82                             143   -0.26 7  105 174 
 RUS  HN ES   1   1911 26.01                             143   -0.83 7  105 174 
 RUS  HZ I        1911 28.67         8.2 0.30            144            105 174 
 PTB  HZ EP   1   1911 10.29                             132   -0.43 7  145 257 
 PTB  HZ I        1911 32.64        12.4 0.16            127            145 257 
 SPBC HZ EP   1   1911 12.67                             129    0.09 7  164 217 
 SPBC HN ES   2   1911 34.84                             129   -0.01 5  164 217 
 NOR  HZ EP       1911 19.84                             118    0.18 8  234 233 
 NOR  HN ES       1911 48.09                             118    0.65 8  234 233 
 NOR  HZ I        1911 55.70         8.2 0.16            116            234 233 
 SML  HZ EP   1   1911 20.03                             118   -0.07 6  239 336 
 SML  HN ES   1   1911 47.45                             118   -0.78 6  239 336 
 SML  HZ I        1911 52.09        47.2 0.19            115            239 336 
 PRA  HZ EP   1   1911 37.69                             106   -0.03 4  393 209 
 PRA  HN ES   2   1912 19.09                             106   -0.50 3  393 209 
 PRA  HZ I        1912 24.01         3.1 0.24            105            393 209 
                                                                                
