 2017  816 1927  8.9 L   6.747 -73.029148.0  RSN  4 0.4 1.3LRSN                1
 GAP=155        0.96       5.2     7.8  7.8 -0.1371E+01 -0.4823E+01  0.1094E+01E
 Epicentro: ARATOCA - SANTANDER                                                3
 ACTION:UPD 17-09-04 20:21 OP:rebc STATUS:               ID:20170816192708 L   I
 OLDACT:DUP 17-08-17 00:14 OP:lv   STATUS:               ID:20170816191742d    3
 2017-08-16-1918-00M.COL___410                                                 6
 STAT SP IPHASW D HRMM SECON CODA AMPLIT PERI AZIMU VELO AIN AR TRES W  DIS CAZ7
 BAR2 EZ EP       1927 28.68                             170   -0.1010 24.0 225 
 BAR2 EZ ES       1927 43.75                             170   -0.5610 24.0 225 
 BAR2 EZ I        1927 44.82         5.9 0.24            173           24.0 225 
 PAM  EZ EP       1927 31.38                             152    0.2010 75.0  29 
 PAM  EN ES       1927 48.63                             152    0.0510 75.0  29 
 PAM  EZ I        1927 51.18         3.8 0.29            152           75.0  29 
 BRR  HZ EP       1927 30.55                             148   -0.5510 85.3 298 
 BRR  HN ES       1927 48.96                             148    0.5210 85.3 298 
 RUS  HZ EP       1927 32.64                             146    0.2210 94.6 184 
 RUS  HN ES       1927 51.01                             146    0.2210 94.6 184 
 RUS  HZ I        1927 52.31         2.6 0.32            147           94.6 184 
                                                                                
