 2015  516 1505 42.4 L   6.851 -73.116148.6  RSN  7 0.3 2.1LRSN                1
 GAP=220        0.75       3.3     5.5  5.4 -0.2074E+00  0.9769E+01 -0.2201E+01E
 Epicentro: LOS SANTOS - SANTANDER                                             3
 ACTION:UPD 15-09-10 22:04 OP:cam  STATUS:               ID:20150516150542 L   I
 OLDACT:REG 15-05-16 20:40 OP:drio STATUS:               ID:20150516145749     3
 2015-05-16-1457-49M.COL___276                                                 6
 STAT SP IPHASW D HRMM SECON CODA AMPLIT PERI AZIMU VELO AIN AR TRES W  DIS CAZ7
 BAR2 EZ EP       15 6  2.55                             168    0.0710 29.6 194 
 BAR2 EZ ES       15 6 17.74                             168   -0.4210 29.6 194 
 BAR2 EZ I        15 6 19.01        18.1 0.54            167           29.6 194 
 BRR  HZ EP       15 6  4.16                             153    0.3110 71.6 293 
 BRR  HN ES       15 6 21.09                             153    0.4910 71.6 293 
 BRR  HZ I        15 6 25.00        25.2 0.12            149           71.6 293 
 SPBC HE ES       15 6 34.32                             128   -0.26 9  170 219 
 SPBC HZ I        15 6 36.28        11.0 0.14            130            170 219 
 ZAR  HZ EP       15 6 15.22                             123    0.12 9  205 290 
 ZAR  HN ES       15 6 40.32                             123   -0.31 9  205 290 
 ZAR  HZ I        15 6 46.70        12.9 0.38            123            205 290 
 SML  HE ES       15 6 46.96                             118   -0.17 8  240 334 
 GUY2CHZ EP       15 6 27.06                             112    0.28 7  307 234 
 GUY2CHN ES       15 7  1.52                             112    0.10 7  307 234 
 GUY2CHZ I        15 7 10.58         5.3 0.38                           307 234 
 SJC  HZ EP       15 6 37.11                             106   -0.57 6  406 326 
 SJC  HE ES   4   15 7 18.35                             106   -2.47 0  406 326 
                                                                                
