 2012  416 1841 55.6 L   6.777 -73.098137.7  RSN  4 0.3 1.7LRSN                1
 GAP=144        0.77       5.9    10.3  9.4  0.2054E+02 -0.4637E+02 -0.1551E+02E
 Epicentro: LOS SANTOS - SANTANDER                                             3
 ACTION:UPD 12-07-05 11:53 OP:tino STATUS:               ID:20120416184155 L   I
 2012-04-16-1840-00M.COL___190                                                 6
 STAT SP IPHASW D HRMM SECON CODA AMPLIT PERI AZIMU VELO AIN AR TRES W  DIS CAZ7
 BAR2 SZ EP   1   1842 14.06                             170    -0.2 7   22 205 
 BAR2 SZ ES   1   1842 29.12                             170     0.3 7   22 205 
 BAR2 SZ I        1842 31.20         8.4 0.55                            22 205 
 PAM  SZ EP       1842 16.82                             150    -0.110   76  35 
 BRR  HZ EP   1   1842 16.87                             149     0.6 7   77 298 
 BRR  HN ES   1   1842 31.91                             149    -0.4 7   77 298 
 BRR  HZ I        1842 35.69        13.3 0.35                            77 298 
 RUS  HZ EP       1842 18.22                             143    -0.110   98 179 
 RUS  HE ES   1   1842 36.10                             143     0.0 7   98 179 
                                                                                
