 2010  616 1349 48.9 L   6.769 -73.603105.0  RSN  5 0.1 1.7LRSN                1
 GAP=193        0.31       1.9     4.1  3.9  0.3364E+00 -0.2651E+01 -0.1093E+01E
 Epicentro: EL CARMEN DE CHUCURI - SANTANDER                                   3
 ACTION:UP  10-08-24 10:10 OP:vdl  STATUS:               ID:20100616134948 L   I
 2010-06-16-1345-44S.COL___114                                                 6
 STAT SP IPHASW D HRMM SECON CODA AMPLIT PERI AZIMU VELO SNR AR TRES W  DIS CAZ7
 BRR  HZ EP   1   1350  3.75                             158    -0.2 7   39 342 
 BRR  HN ES   2   1350 15.83                             158     0.2 5   39 342 
 BRR  HZ I        1350 16.72        23.1 0.14                            39 342 
 BAR2 SZ EP   1   1350  4.96                             152     0.1 7   50 113 
 BAR2 SZ ES   2   1350 17.21                             152     0.0 5   50 113 
 RUS  HZ EP   1   1350 10.08                             129     0.0 7  113 149 
 RUS  HN ES   2   1350 26.47                             129    -0.1 5  113 149 
 RUS  HZ I        1350 29.03         6.9 0.53                           113 149 
 GUE  SZ EP   1   1350 12.45                             123     0.0 7  139  33 
 GUE  SZ ES   2   1350 30.73                             123    -0.1 5  139  33 
 GRA  SZ EP   1   1350 13.66                             120     0.1 7  152  36 
 GRA  SZ ES   2   1350 32.61                             120    -0.1 5  152  36 
                                                                                
