 2010  616 1007 34.3 L   6.772 -73.054146.0  RSN  5 0.2 1.4LRSN                1
 GAP=169        0.47       3.2     7.5  6.3 -0.4920E+01 -0.1224E+02 -0.1188E+01E
 Epicentro: LOS SANTOS - SANTANDER                                             3
 ACTION:UP  10-08-24 10:10 OP:vdl  STATUS:               ID:20100616100734 L   I
 2010-06-16-1002-21S.COL___114                                                 6
 STAT SP IPHASW D HRMM SECON CODA AMPLIT PERI AZIMU VELO SNR AR TRES W  DIS CAZ7
 BAR2 SZ EP   1   10 7 53.83                             170    -0.1 7   25 216 
 BAR2 SZ ES   2   10 8  8.76                             170    -0.6 5   25 216 
 BRR  HZ EP   1   10 7 56.23                             149     0.2 7   82 297 
 BRR  HN ES   2   10 8 13.09                             149     0.0 5   82 297 
 BRR  HZ I        10 8 15.50         7.5 0.48                            82 297 
 RUS  HZ EP   1   10 7 57.97                             145     0.2 7   97 182 
 RUS  HE ES   2   10 8 16.43                             145     0.3 5   97 182 
 RUS  HZ I        10 8 17.06         2.2 0.34                            97 182 
 GUE  SZ EP   1   10 7 59.01                             139    -0.1 7  118   7 
 GUE  SZ ES   2   10 8 18.72                             139     0.2 5  118   7 
 GRA  SZ EP   1   10 7 59.34                             137    -0.2 7  126  13 
 GRA  SZ ES   2   10 8 19.65                             137     0.4 5  126  13 
                                                                                
