 2013  116 1603 59.5 L   6.829 -73.143142.9  RSN  6 0.5 1.9LRSN                1
 GAP=253        0.87       6.4     6.9  9.3  0.2792E+01  0.8953E+01  0.1733E+02E
 Epicentro: LOS SANTOS - SANTANDER                                             3
 ACTION:UPD 13-02-15 09:14 OP:ep   STATUS:               ID:20130116160359 L   I
 2013-01-16-1600-00M.COL___241                                                 6
 STAT SP IPHASW D HRMM SECON CODA AMPLIT PERI AZIMU VELO AIN AR TRES W  DIS CAZ7
 BAR2 SZ EP       16 4 18.74                             169   -0.1310 26.5 189 
 BAR2 SZ ES   1   16 4 33.48                             169   -0.48 7 26.5 189 
 BRR  HZ EP     C 16 4 20.32                             152    0.0310 70.0 296 
 BRR  HN ES   1   16 4 37.31                             152    0.82 7 70.0 296 
 PTB  HZ EP   1   16 4 26.12                             131   -0.22 7  149 258 
 PTB  HN ES   1   16 4 46.72                             131   -0.54 7  149 258 
 PTB  HZ I        16 4 48.99        10.9 0.42            126            149 258 
 ZAR  HN ES   2   16 4 57.05                             122    0.28 4  203 291 
 ZAR  HZ I        16 5  2.39        15.9 0.30            118            203 291 
 NOR  HE ES   1   16 5  2.98                             118   -0.25 6  237 234 
 NOR  HZ I        16 5  5.35         3.7 0.18            114            237 234 
 CHI  HZ EP   2   16 4 37.45                             116    0.04 4  252 195 
 CHI  HE ES   1   16 5  7.86                             116    0.90 6  252 195 
 CHI  HZ I        16 5 14.80         2.5 0.38            113            252 195 
                                                                                
