 2010  516 1223 22.7 L   6.778 -73.028146.8  RSN  8 0.3 1.8LRSN                1
 GAP=170        0.58       3.2     7.7  5.9 -0.9839E+01 -0.1940E+01  0.1835E+01E
 Epicentro: CEPITA - SANTANDER                                                 3
 ACTION:UP  10-08-24 10:05 OP:vdl  STATUS:               ID:20100516122322 L   I
 2010-05-16-1220-26S.COL___108                                                 6
 STAT SP IPHASW D HRMM SECON CODA AMPLIT PERI AZIMU VELO AIN AR TRES W  DIS CAZ7
 BAR2 SZ EP   1   1223 42.31                             169    -0.3 7   27 220 
 BAR2 SZ ES   2   1223 57.32                             169    -0.7 5   27 220 
 BRR  HZ EP   1   1223 45.04                             149     0.3 7   84 296 
 BRR  HE ES   2   1224  2.38                             149     0.4 5   84 296 
 BRR  HZ I        1224  6.84         9.2 0.27                            84 296 
 RUS  HZ EP   1   1223 46.74                             145     0.3 7   98 184 
 RUS  HE ES   2   1224  5.04                             145     0.2 5   98 184 
 RUS  HZ I        1224  5.76         5.0 0.35                            98 184 
 BRI  SZ EP   1   1223 46.84                             142     0.2 7  107  14 
 BRI  SZ ES   2   1224  5.31                             142     0.1 5  107  14 
 GUE  SZ EP   1   1223 47.23                             140    -0.3 7  117   6 
 GUE  SZ ES   2   1224  7.25                             140     0.3 5  117   6 
 GRA  SZ EP   1   1223 48.09                             137     0.1 7  125  11 
 GRA  SZ ES   2   1224  7.68                             137     0.0 5  125  11 
 OCA  SZ EP   1   1223 51.43                             129    -0.1 7  165 349 
 OCA  SZ ES   2   1224 13.48                             129    -0.5 5  165 349 
 OCA  SZ I        1224 18.06        10.8 0.28                           165 349 
 PRA  HZ EP   1   1224 16.52                             107    -0.3 4  396 211 
 PRA  HE ES   2   1224 58.66                             107    -0.3 3  396 211 
 PRA  HZ I        1225  6.62         2.8 0.30                           396 211 
                                                                                
