 2013 1016 1056 45.9 L   6.788 -73.161150.0  RSN  6 0.5 1.8LRSN                1
 GAP=235        1.23       7.1     8.1  9.0  0.5262E+01 -0.1843E+01  0.1999E+02E
 Epicentro: LOS SANTOS - SANTANDER                                             3
 ACTION:UPD 13-11-25 09:21 OP:ep   STATUS:               ID:20131016105645 L   I
 OLDACT:UP  13-10-16 16:13 OP:cam  STATUS:               ID:20131016104959     3
 OLDACT:UP  13-10-16 16:13 OP:cam  STATUS:               ID:20131016104959     3
 OLDACT:REG 13-10-16 14:46 OP:cam  STATUS:               ID:20131016104959     3
 2013-10-16-1049-59M.COL___274                                                 6
 STAT SP IPHASW D HRMM SECON CODA AMPLIT PERI AZIMU VELO AIN AR TRES W  DIS CAZ7
 BAR2 SZ EP       1057  5.66                             171   -0.3410 21.7 186 
 BAR2 SZ ES       1057 21.50                             171   -0.1810 21.7 186 
 BAR2 SZ I        1057 22.28        23.5 0.36            164           21.7 186 
 BRR  HZ EP       1057  7.51                             154    0.0610 70.4 300 
 BRR  HN ES       1057 25.15                             154    0.8910 70.4 300 
 RUS  HZ EP       1057 10.07                             145    0.1010 99.3 175 
 RUS  HN ES   2   1057 27.70                             145   -1.05 5 99.3 175 
 RUS  HZ I        1057 29.63         6.1 0.38            142           99.3 175 
 PTB  HZ EP       1057 12.35                             134   -0.68 9  146 259 
 PTB  HN ES       1057 33.57                             134   -0.63 9  146 259 
 PTB  HZ I        1057 40.65         7.9 0.32            130            146 259 
 SPBC HZ EP   1   1057 14.92                             131    0.40 7  161 219 
 SPBC HN ES       1057 36.92                             131    0.08 9  161 219 
 SPBC HZ I        1057 41.83         9.4 0.54            127            161 219 
 CHI  HZ EP       1057 24.10                             118    0.46 8  247 195 
 CHI  HN ES   1   1057 54.01                             118    0.94 6  247 195 
 CHI  HZ I        1057 59.42         3.4 0.32            117            247 195 
                                                                                
