 2010  816 1528 41.9 L   6.758 -73.079150.0  RSN  4 0.1 1.4LRSN                1
 GAP=199        0.44      10.2     7.8  5.8 -0.4034E+01 -0.1982E+02 -0.9018E+01E
 Epicentro: LOS SANTOS - SANTANDER                                             3
 ACTION:UP  10-09-07 10:55 OP:vdl  STATUS:               ID:20100816152841 L   I
 2010-08-16-1528-00S.COL___111                                                 6
 STAT SP IPHASW D HRMM SECON CODA AMPLIT PERI AZIMU VELO SNR AR TRES W  DIS CAZ7
 BAR2 SZ ES   3   1529 17.59                             171    -0.1 2   22 212 
 BAR2 SZ I        1529 18.71         5.2 0.23                            22 212 
 BTL  SZ EP       1529  2.27                             170     0.210   27 310 
 BTL  SZ ES   1   1529 17.80                             170    -0.1 7   27 310 
 BRR  HZ EP       1529  3.81                             151    -0.210   80 299 
 BRR  HN ES   1   1529 21.41                             151     0.2 7   80 299 
 BRR  HZ I        1529 59.76         5.3 0.22                            80 299 
 GRA  SZ EP   1   1529  7.70                             138     0.0 7  128  14 
                                                                                
