 2010  616 1505 37.1 L   6.144 -73.988 90.9  RSN  8 0.4 2.0LRSN                1
 GAP=206        0.63       3.1     8.5 11.3 -0.7565E+01  0.5190E+02 -0.7534E+01E
 Epicentro: CIMITARRA - SANTANDER                                              3
 ACTION:UP  10-08-24 10:10 OP:vdl  STATUS:               ID:20100616150537 L   I
 2010-06-16-1501-12S.COL___114                                                 6
 STAT SP IPHASW D HRMM SECON CODA AMPLIT PERI AZIMU VELO SNR AR TRES W  DIS CAZ7
 BAR2 SZ IP     D 15 5 55.79                             128     0.110  102  61 
 BAR2 SZ ES   2   15 6 10.76                             128     0.5 5  102  61 
 RUS  HZ EP   1   15 5 55.97                             128    -0.3 7  104 105 
 RUS  HN ES   2   15 6 10.68                             128    -0.5 5  104 105 
 RUS  HZ I        15 6 15.25        17.3 0.36                           104 105 
 BRR  HZ EP   1   15 5 55.89                             125    -0.4 7  111  16 
 BRR  HZ I        15 5 56.14        39.6 0.19                           111  16 
 BRR  HE ES   2   15 6 11.43                             125     0.1 5  111  16 
 GIR2 SZ EP   1   15 5 59.06                             119     0.0 7  136  40 
 CHI  HZ EP   1   15 6  3.18                             114     0.0 7  170 170 
 CHI  HE ES   2   15 6 24.19                             114     0.6 5  170 170 
 CHI  HZ I        15 6 29.10        11.6 0.56                           170 170 
 BRI  SZ EP   1   15 6  8.54                             108     0.1 6  218  37 
 BRI  SZ ES   2   15 6 33.42                             108     0.5 4  218  37 
 GUE  SZ EP   1   15 6  8.51                             108    -0.4 6  220  32 
 GUE  SZ ES   2   15 6 33.92                             108     0.2 4  220  32 
 GRA  SZ EP   1   15 6 10.79                             107     0.6 6  233  34 
 GRA  SZ ES   2   15 6 35.63                             107    -0.4 4  233  34 
                                                                                
