 2016  316 1223 57.7 L   6.769 -73.197141.6  RSN  7 0.3 1.9LRSN                1
 GAP=239        0.68       3.3     3.4  4.6  0.3536E+01  0.5794E+01  0.1811E+01E
 Epicentro: ZAPATOCA - SANTANDER                                               3
 ACTION:UPD 16-05-13 21:24 OP:cam  STATUS:               ID:20160316122357 L   I
 OLDACT:REG 16-03-16 20:24 OP:cara STATUS:               ID:20160316121752     3
 2016-03-16-1217-52M.COL___294                                                 6
 STAT SP IPHASW D HRMM SECON CODA AMPLIT PERI AZIMU VELO AIN AR TRES W  DIS CAZ7
 BAR2 EZ IP       1224 16.65                             172   -0.1410 19.6 175 
 BAR2 EZ ES       1224 31.36                             172   -0.2910 19.6 175 
 BAR2 EZ I        1224 32.76        18.2 0.22            168           19.6 175 
 RUS  HZ EP       1224 21.23                             144    0.3710 97.7 173 
 RUS  HE ES       1224 39.19                             144    0.2810 97.7 173 
 RUS  HZ I        1224 40.27         8.3 0.26            145           97.7 173 
 PTB  HZ EP       1224 23.46                             132   -0.33 9  142 260 
 PTB  HN ES       1224 44.05                             132   -0.07 9  142 260 
 PTB  HZ I        1224 50.99         8.7 0.60            131            142 260 
 ZAR  HZ EP       1224 29.62                             122    0.12 9  200 294 
 ZAR  HN ES       1224 54.65                             122    0.36 9  200 294 
 ZAR  HZ I        1225  0.94         8.7 0.10            122            200 294 
 NOR  HZ EP       1224 32.04                             118   -0.46 8  228 234 
 NOR  HN ES       1224 59.97                             118    0.34 8  228 234 
 NOR  HZ I        1225  5.96         4.9 0.20            119            228 234 
 CHI  HZ EP       1224 34.85                             117    0.18 8  244 194 
 CHI  HN ES       1225  3.29                             117   -0.20 8  244 194 
 CHI  HZ I        1225  9.22         4.8 0.38            118            244 194 
 GUY2CHZ EP       1224 40.36                             112   -0.03 7  295 235 
 GUY2CHN ES       1225 13.47                             112   -0.20 7  295 235 
 GUY2CHZ I        1225 24.14         4.6 0.42                           295 235 
                                                                                
