 2015  216 1938  6.3 L   6.754 -73.165137.3  RSN 11 0.5 2.0LRSN                1
 GAP=136        1.15       3.3     4.5  7.2 -0.2350E+01  0.1216E+02 -0.2761E+00E
 Epicentro: LOS SANTOS - SANTANDER                                             3
 ACTION:UPD 15-04-30 21:26 OP:nd   STATUS:               ID:20150216193806 L   I
 OLDACT:REG 15-02-16 22:35 OP:fm   STATUS:               ID:20150216193544     3
 2015-02-16-1935-44M.COL___305                                                 6
 STAT SP IPHASW D HRMM SECON CODA AMPLIT PERI AZIMU VELO AIN AR TRES W  DIS CAZ7
 BAR2 EZ EP       1938 25.04                             172    0.2510 18.0 186 
 BAR2 EZ ES       1938 39.93                             172    0.7110 18.0 186 
 PAM  SZ EP       1938 28.15                             147    0.2210 82.6  38 
 PAM  SE ES       1938 44.22                             147   -0.6010 82.6  38 
 PAM  SZ I        1938 47.48        15.9 0.68            148           82.6  38 
 RUS  HZ EP       1938 29.17                             143    0.3310 95.7 175 
 RUS  HE ES       1938 46.12                             143   -0.3210 95.7 175 
 RUS  HZ I        1938 48.31        12.4 0.46            144           95.7 175 
 PTB  HZ EP   1   1938 32.40                             131    0.11 7  145 261 
 PTB  HN ES       1938 52.10                             131   -0.48 9  145 261 
 SPBC HN ES       1938 55.10                             128    0.13 9  158 220 
 SPBC HZ I        1938 58.28        15.4 0.22            127            158 220 
 ZAR  HZ EP       1938 39.02                             120    0.84 9  204 294 
 ZAR  HN ES       1939  3.79                             120    0.72 9  204 294 
 ZAR  HZ I        1939  9.65        13.8 0.38            119            204 294 
 NOR  HE ES       1939  7.45                             117   -0.68 8  230 235 
 NOR  HZ I        1939 12.84         5.3 0.18            117            230 235 
 CHI  HZ EP       1938 43.03                             116    0.11 8  243 195 
 CHI  HN ES       1939 10.95                             116   -0.55 8  243 195 
 CHI  HZ I        1939 18.26         3.2 0.26            116            243 195 
 SML  HZ EP   1   1938 42.25                             115   -0.60 6  247 336 
 SML  HE ES       1939 10.57                             115   -0.81 8  247 336 
 SML  HZ I        1939 19.34        11.5 0.28            115            247 336 
 GUY2CHN ES       1939 22.21                             111   -0.08 7  297 235 
 GUY2CHZ I        1939 30.24         4.3 0.30                           297 235 
 PRA  HZ EP   1   1938 58.82                             105   -0.05 4  387 210 
 PRA  HE ES       1939 40.02                             105    0.12 6  387 210 
 PRA  HZ I        1939 46.24         4.4 0.24            105            387 210 
                                                                                
