 2011  716 1231 55.8 L   6.765 -73.092148.0  RSN  9 0.6 2.1LRSN                1
 GAP=162        1.13       5.2     7.0  7.9 -0.1630E+02  0.6764E+01  0.3417E+01E
 Epicentro: LOS SANTOS - SANTANDER                                             3
 ACTION:UPD 12-07-25 14:01 OP:epov STATUS:               ID:20110716123155 L   I
 2011-07-16-1226-45S.COL___132                                                 6
 STAT SP IPHASW D HRMM SECON CODA AMPLIT PERI AZIMU VELO AIN AR TRES W  DIS CAZ7
 BAR2 SZ IP     C 1232 15.57                             171   -0.0810 21.6 208 
 BAR2 SZ I        1232 15.85        28.3 0.21                          21.6 208 
 BAR2 SZ ES   1   1232 30.68                             171   -0.47 7 21.6 208 
 BRR  HZ IP     D 1232 17.47                             150   -0.1110 78.2 299 
 BRR  HN ES       1232 34.85                             150    0.2610 78.2 299 
 BRR  HZ I        1232 37.21        40.5 0.15                          78.2 299 
 RUS  HZ EP   1   1232 19.35                             145   -0.12 7 96.5 179 
 RUS  HN ES   1   1232 38.35                             145    0.40 7 96.5 179 
 RUS  HZ I        1232 41.11        12.7 0.21                          96.5 179 
 BRI  SZ EP   1   1232 19.97                             141   -0.05 7  110  17 
 BRI  SZ ES   1   1232 37.91                             141   -1.01 7  110  17 
 BRI  SZ I        1232 41.77        13.8 0.20                           110  17 
 GRA  SZ IP     C 1232 22.45                             137    1.0510  128  14 
 GRA  SZ ES   1   1232 41.74                             137    0.36 7  128  14 
 GRA  SZ I        1232 43.18        21.0 0.32                           128  14 
 OCA  SZ EP   1   1232 23.96                             129   -0.74 7  165 351 
 NOR  SZ EP   1   1232 31.60                             118   -0.33 6  237 236 
 NOR  SN ES   1   1232 59.46                             118   -0.67 6  237 236 
 HEL  HZ EP   1   1232 36.09                             115   -0.56 6  277 257 
 HEL  HN ES   1   1233  9.37                             115    0.85 6  277 257 
 PRA  HZ EP   1   1232 48.93                             107   -0.42 4  392 211 
 PRA  HN ES   1   1233 31.98                             107    0.86 4  392 211 
                                                                                
