 2011 1016 1201  9.6 L   6.727 -73.118142.1  RSN  5 0.3 1.5LRSN                1
 GAP=143        0.57       3.8     5.1  6.1 -0.3040E+01  0.1300E+01  0.1482E+01E
 Epicentro: JORDAN - SANTANDER                                                 3
 ACTION:UPD 12-07-13 16:04 OP:ep   STATUS:               ID:20111016120109 L   I
 2011-10-16-1158-39S.COL___168                                                 6
 STAT SP IPHASW D HRMM SECON CODA AMPLIT PERI AZIMU VELO AIN AR TRES W  DIS CAZ7
 BAR2 SZ EP   1   12 1 28.67                             173    0.00 7 16.5 206 
 BAR2 SZ ES   1   12 1 43.14                             173   -0.40 7 16.5 206 
 BAR2 SZ I        12 1 45.45         9.8 0.29                          16.5 206 
 BRR  HZ EP   1   12 1 30.61                             150   -0.15 7 78.0 303 
 BRR  HN ES   1   12 1 47.70                             150    0.44 7 78.0 303 
 BRR  HZ I        12 1 52.06         8.4 0.11                          78.0 303 
 PAM  SZ EP   1   12 1 31.73                             149    0.01 7 82.0  34 
 PAM  SZ I        12 1 31.96         3.7 0.15                          82.0  34 
 PAM  SN ES   1   12 1 48.84                             149   -0.12 7 82.0  34 
 RUS  HZ EP   1   12 1 32.60                             145    0.19 7 92.3 178 
 RUS  HN ES   1   12 1 50.43                             145    0.24 7 92.3 178 
 RUS  HZ I        12 1 52.24         3.1 0.29                          92.3 178 
 NOR  SN ES   2   12 2 11.74                             118   -0.70 4  233 237 
                                                                                
