 2013 1016 1123 25.3 L   6.795 -73.134150.2  RSN  9 0.4 2.1LRSN                1
 GAP=138        1.00       4.0     4.6  6.1 -0.4398E+01  0.5816E+01  0.2900E+01E
 Epicentro: LOS SANTOS - SANTANDER                                             3
 ACTION:UPD 13-11-25 09:22 OP:ep   STATUS:               ID:20131016112325 L   I
 OLDACT:REG 13-10-16 14:47 OP:cam  STATUS:               ID:20131016111959     3
 2013-10-16-1119-59M.COL___274                                                 6
 STAT SP IPHASW D HRMM SECON CODA AMPLIT PERI AZIMU VELO AIN AR TRES W  DIS CAZ7
 BAR2 SZ EP       1123 45.33                             171   -0.0910 23.0 193 
 BAR2 SZ ES       1124  0.75                             171   -0.3910 23.0 193 
 BAR2 SZ I        1124  2.09        37.4 0.46            170           23.0 193 
 BRR  HZ EP       1123 47.24                             153    0.2710 72.6 298 
 BRR  HE ES       1124  4.72                             153    0.8210 72.6 298 
 BRR  HZ I        1124  7.76        15.3 0.32            152           72.6 298 
 PAM  SZ EP       1123 48.17                             152    0.2510 77.0  39 
 PAM  SN ES       1124  5.53                             152   -0.0810 77.0  39 
 PAM  SZ I        1124  7.47        24.1 0.54            155           77.0  39 
 RUS  HZ EP       1123 49.18                             145   -0.2210 99.9 177 
 RUS  HN ES       1124  8.25                             145    0.0110 99.9 177 
 RUS  HZ I        1124 10.47        11.8 0.48            147           99.9 177 
 PTB  HZ EP       1123 52.07                             133   -0.63 9  149 259 
 PTB  HN ES       1124 13.44                             133   -0.66 9  149 259 
 PTB  HZ I        1124 17.69        12.6 0.28            134            149 259 
 SPBC HZ EP       1123 54.35                             130    0.21 9  164 219 
 SPBC HN ES       1124 16.66                             130   -0.00 9  164 219 
 SPBC HZ I        1124 21.30        20.0 0.22            131            164 219 
 NOR  HZ EP       1124  1.42                             119    0.09 8  235 235 
 NOR  HE ES       1124 29.98                             119    0.52 8  235 235 
 NOR  HZ I        1124 31.55         8.7 0.22            121            235 235 
 SML  HE ES   1   1124 30.57                             118   -0.53 6  245 335 
 SML  HZ I        1124 32.94        19.1 0.10            120            245 335 
 CHI  HZ EP   1   1124  3.62                             118    0.44 6  248 195 
 SJC  HZ EP   4   1124 19.42                             106   -1.69 0  410 327 
                                                                                
