 2010  416 1402 30.0 L   6.805 -73.117158.3  RSN 19 0.6 4.3LRSN                1
 GAP=146        1.07       4.6     6.3  7.4 -0.1100E+02 -0.4884E+01  0.1405E+02E
 Epicentro: LOS SANTOS - SANTANDER                                             3
 ACTION:UPD 10-08-24 09:59 OP:vdl  STATUS:               ID:20100416140236 L   I
 2010-04-16-1400-29S.COL___100                                                 6
 STAT SP IPHASW D HRMM SECON CODA AMPLIT PERI AZIMU VELO AIN AR TRES W  DIS CAZ7
 BAR2 SZ IP       14 2 50.80                             171    -0.410   25 197 
 BAR2 SZ ES   2   14 3  6.85                             171    -0.8 5   25 197 
 BRR  HZ IP     D 14 2 53.12                             154     0.510   74 297 
 BRR  HE ES       14 3 10.70                             154     0.410   74 297 
 BRR  HZ I        14 3 12.62      3129.6 0.20                            74 297 
 OCA  SZ IP       14 2 59.17                             132    -0.1 9  160 352 
 OCA  SZ ES   1   14 3 22.54                             132     0.4 7  160 352 
 OCA  SZ I        14 3 26.00      3610.3 0.24                           160 352 
 CHI  HZ IP     D 14 3  8.42                             120    -0.2 8  250 196 
 CHI  HN ES   1   14 3 38.25                             120    -0.4 6  250 196 
 CHI  HZ I        14 3 44.07       927.0 0.31                           250 196 
 ROSC BZ IP     D 14 3 10.26                             119     1.2 8  255 212 
 HEL  HZ EP   1   14 3 10.88                             117    -0.4 6  275 256 
 HEL  HN ES   1   14 3 42.60                             117    -0.8 6  275 256 
 HEL  HZ I        14 3 48.99       953.4 0.36                           275 256 
 RREF BZ EP       14 3 16.71                             113    -0.3 7  325 230 
 RREF BE ES   1   14 3 53.67                             113     0.0 5  325 230 
 RREF BZ I        14 4  3.22      1273.8 0.37                           325 230 
 DBB  SZ IP       14 3 18.51                             111     0.1 7  343 274 
 DBB  SZ ES   1   14 3 54.81                             111    -1.3 5  343 274 
 TOL  SZ EP   1   14 3 19.03                             111    -0.1 5  346 225 
 TOL  SZ ES   2   14 3 58.06                             111     0.7 3  346 225 
 SDV  BZ IP     D 14 3 20.03                             111    -0.2 6  358  50 
 ANIL BZ EP   1   14 3 20.88                             110     0.3 5  360 225 
 ANIL BN ES   1   14 4  1.56                             110     1.5 5  360 225 
 ANIL BZ I        14 4  8.49      1711.4 0.34                           360 225 
 PRA  HZ EP       14 3 23.69                             108    -0.5 6  394 210 
 PRA  HE ES       14 4  5.85                             108    -0.7 6  394 210 
 PRA  HZ I        14 4 10.57      1117.3 0.45                           394 210 
 SOL  SZ EP   2   14 3 34.28                             105     0.2 2  479 263 
 MARA HZ EP   1   14 3 41.52                             103    -0.1 3  539 216 
 MAL  SZ EP   2   14 3 43.64                             102    -0.1 2  560 237 
 MAL  SZ I        14 3 52.43        83.8 0.53                           560 237 
 PCON HZ EP       14 3 51.10                             101     0.2 3  614 216 
 SOTA HZ EP       14 3 55.33                             100     0.8 2  645 217 
 CRU  SZ EP       14 4  4.53                              99     1.3 1  719 216 
 CRU  SZ I        14 4  9.30        81.2 0.59                           719 216 
 GCAL SZ EP   2   14 4 11.37                              98     0.7 0  781 218 
 GCAL SZ I        14 5 35.30        75.3 0.78                           781 218 
                                                                                
