 2016  316 1047 31.5 L   6.750 -73.177130.9  RSN  8 0.3 1.6LRSN                1
 GAP=135        0.71       2.5     3.0  4.6 -0.1239E+01  0.5893E+01  0.5053E+00E
 Epicentro: LOS SANTOS - SANTANDER                                             3
 ACTION:UPD 16-05-13 21:24 OP:cam  STATUS:               ID:20160316104731 L   I
 OLDACT:REG 16-03-16 20:14 OP:cara STATUS:               ID:20160316103749     3
 2016-03-16-1037-49M.COL___285                                                 6
 STAT SP IPHASW D HRMM SECON CODA AMPLIT PERI AZIMU VELO AIN AR TRES W  DIS CAZ7
 BAR2 EZ IP       1047 49.32                             172    0.0810 17.4 182 
 BAR2 EZ ES       1048  3.25                             172    0.1710 17.4 182 
 BAR2 EZ I        1048  5.56         8.8 0.46            171           17.4 182 
 PAM  EZ IP     D 1047 52.41                             146   -0.2010 83.9  39 
 PAM  EE ES       1048  9.19                             146    0.1310 83.9  39 
 PAM  EZ I        1048 11.48         9.3 0.40            151           83.9  39 
 RUS  HN ES       1048 10.32                             142   -0.2210 95.4 174 
 RUS  HZ I        1048 13.77         3.3 0.30            144           95.4 174 
 PTB  HZ EP       1047 56.69                             129   -0.20 9  143 261 
 PTB  HN ES       1048 16.58                             129   -0.11 9  143 261 
 SPBC HZ EP       1047 58.36                             127    0.09 9  157 219 
 SPBC HN ES       1048 19.55                             127    0.40 9  157 219 
 SPBC HZ I        1048 27.25         6.0 0.42            129            157 219 
 ZAR  HZ EP       1048  3.07                             119    0.15 9  203 294 
 ZAR  HN ES       1048 27.06                             119   -0.36 9  203 294 
 ZAR  HZ I        1048 33.34         7.0 0.38            122            203 294 
 CHI  HZ EP       1048  8.08                             114    0.35 8  242 195 
 CHI  HN ES       1048 35.24                             114   -0.75 8  242 195 
 CHI  HZ I        1048 39.89         1.7 0.38            117            242 195 
 GUY2CHZ EP       1048 14.04                             110    0.26 7  295 235 
 GUY2CHN ES       1048 47.08                             110    0.33 7  295 235 
 GUY2CHZ I        1048 54.54         2.4 0.30                           295 235 
                                                                                
