 2013 1116 1833  1.4 L   6.743 -73.155143.2  RSN  7 0.4 1.9LRSN                1
 GAP=138        0.98       4.3     4.6  6.2 -0.7086E+01  0.9372E+00 -0.1100E+00E
 Epicentro: JORDAN - SANTANDER                                                 3
 ACTION:UPD 14-01-09 16:28 OP:ep   STATUS:               ID:20131116183301 L   I
 OLDACT:REG 13-11-16 16:31 OP:stll STATUS:               ID:20131116182810     3
 2013-11-16-1828-10M.COL___229                                                 6
 STAT SP IPHASW D HRMM SECON CODA AMPLIT PERI AZIMU VELO AIN AR TRES W  DIS CAZ7
 BAR2 SZ EP       1833 20.73                             173    0.1310 16.9 190 
 BAR2 SZ ES       1833 35.42                             173   -0.1610 16.9 190 
 BAR2 SZ I        1833 36.61        22.9 0.18            170           16.9 190 
 BRR  HZ EP       1833 22.68                             151    0.2710 73.6 303 
 BRR  HN ES       1833 39.55                             151    0.7610 73.6 303 
 PAM  SZ EP       1833 23.77                             149    0.0810 83.0  37 
 PAM  SZ I        1833 23.94        31.3 0.22            151           83.0  37 
 PAM  SN ES       1833 40.67                             149   -0.4010 83.0  37 
 RUS  HZ EP       1833 24.70                             145    0.2510 94.3 175 
 RUS  HN ES       1833 42.55                             145    0.1210 94.3 175 
 RUS  HZ I        1833 44.04         6.1 0.24            144           94.3 175 
 PTB  HZ EP       1833 27.60                             132   -0.36 9  146 261 
 PTB  HN ES       1833 48.15                             132   -0.53 9  146 261 
 PTB  HZ I        1833 50.24         7.1 0.28            131            146 261 
 CAPV BZ EP       1833 28.76                             130   -0.35 9  155  37 
 SPBC HZ EP       1833 29.59                             129    0.42 9  158 220 
 SPBC HN ES       1833 50.45                             129   -0.39 9  158 220 
 SPBC HZ I        1833 56.53         7.5 0.22            129            158 220 
                                                                                
