 2014 1116 1431  5.0 L   6.736 -73.206154.0  RSN  4 0.1 1.6LRSN                1
 GAP=224        0.43       5.5     3.6  6.3  0.6620E+00 -0.7786E+01  0.1899E+02E
 Epicentro: VILLANUEVA - SANTANDER                                             3
 ACTION:UPD 14-12-19 15:43 OP:nd   STATUS:               ID:20141116143105 L   I
 OLDACT:REG 14-11-16 20:32 OP:cam  STATUS:               ID:20141116142818     3
 2014-11-16-1428-18M.COL___277                                                 6
 STAT SP IPHASW D HRMM SECON CODA AMPLIT PERI AZIMU VELO AIN AR TRES W  DIS CAZ7
 BAR2 SZ EP       1431 25.29                             174   -0.2410 16.2 171 
 BRR  HZ EP       1431 27.00                             154    0.0310 69.3 306 
 BRR  HN ES       1431 44.17                             154    0.0910 69.3 306 
 BRR  HN I        1431 44.59        17.7 0.34            154           69.3 306 
 RUS  HZ EP       1431 29.32                             147    0.1510 94.3 172 
 PTB  HZ EP       1431 32.03                             135    0.04 9  140 261 
 PTB  HN ES       1431 52.96                             135   -0.07 9  140 261 
 PTB  HZ I        1431 56.72         2.2 0.12            134            140 261 
                                                                                
