 2015  416 1905 14.4 L   6.791 -73.103150.8  RSN  8 0.3 1.7LRSN                1
 GAP=142        0.67       3.6     3.5  5.1 -0.3388E+01  0.6124E+01 -0.1015E+01E
 Epicentro: LOS SANTOS - SANTANDER                                             3
 ACTION:UPD 15-06-03 16:55 OP:cam  STATUS:               ID:20150416190514 L   I
 OLDACT:REG 15-04-16 21:57 OP:spq  STATUS:               ID:20150416185749     3
 2015-04-16-1857-49M.COL___272                                                 6
 STAT SP IPHASW D HRMM SECON CODA AMPLIT PERI AZIMU VELO AIN AR TRES W  DIS CAZ7
 BAR2 EZ EP   1   19 5 34.40                             171   -0.19 7 23.6 202 
 BAR2 EZ ES   1   19 5 50.80                             171    0.42 7 23.6 202 
 BAR2 EZ I        19 5 52.14         8.5 0.30            169           23.6 202 
 PAM  SZ EP       19 5 37.25                             152    0.2610 75.3  36 
 PAM  SN ES       19 5 54.49                             152   -0.1510 75.3  36 
 PAM  SZ I        19 5 56.75         6.5 0.62            156           75.3  36 
 BRR  HZ EP       19 5 36.46                             152    0.1510 75.8 298 
 BRR  HE ES   1   19 5 53.54                             152    0.11 7 75.8 298 
 BRR  HZ I        19 5 57.26        12.4 0.45            149           75.8 298 
 RUS  HZ EP   1   19 5 38.52                             145    0.00 7 99.3 179 
 RUS  HN ES   1   19 5 56.95                             145   -0.41 7 99.3 179 
 RUS  HZ I        19 5 57.88         4.6 0.30            149           99.3 179 
 PTB  HZ EP   1   19 5 41.44                             132   -0.69 7  152 260 
 PTB  HE ES   1   19 6  3.31                             132   -0.49 7  152 260 
 PTB  HZ I        19 6  9.67         8.6 0.28            132            152 260 
 ZAR  HZ EP   1   19 5 47.70                             123    0.08 6  209 292 
 ZAR  HN ES   1   19 6 13.53                             123   -0.03 6  209 292 
 ZAR  HZ I        19 6 18.50         6.1 0.36            124            209 292 
 NOR  HZ EP   1   19 5 50.77                             119    0.04 6  238 235 
 NOR  HE ES       19 6 19.63                             119    0.53 8  238 235 
 NOR  HZ I        19 6 24.13         2.9 0.40            121            238 235 
 SML  HZ EP   1   19 5 51.48                             118   -0.10 6  247 334 
                                                                                
