 2011  216 1813  9.1 L   6.403 -73.137119.8  RSN  4 0.1 1.2LRSN                1
 GAP=179        0.35       8.8    50.5  5.2  0.4165E+03 -0.1657E+03 -0.2981E+02E
 Epicentro: PARAMO - SANTANDER                                                 3
 ACTION:UP  11-03-28 15:08 OP:jfem STATUS:               ID:20110216181309 L   I
 2011-02-16-1810-22S.COL___136                                                 6
 STAT SP IPHASW D HRMM SECON CODA AMPLIT PERI AZIMU VELO SNR AR TRES W  DIS CAZ7
 BAR2 SZ ES   1   1813 38.29                             169    -0.1 7   22 346 
 BAR2 SZ I        1813 39.82        12.5 0.20                            22 346 
 RUS  HZ EP   2   1813 27.11                             153    -0.2 5   57 174 
 RUS  HN ES   1   1813 41.66                             153     0.1 7   57 174 
 RUS  HZ I        1813 42.60         1.8 0.34                            57 174 
 BTL  SZ EP       1813 27.11                             152     0.010   59 346 
 BTL  SZ ES   1   1813 41.15                             152     0.0 7   59 346 
 GIR2 SZ EP   1   1813 28.01                             146     0.0 7   75 355 
                                                                                
