 2014  916 1909 13.2 L   6.805 -73.134140.0  RSN  8 0.4 1.9LRSN                1
 GAP=138        0.80       3.8     3.8  5.7 -0.3113E+01  0.5155E+01  0.7148E+01E
 Epicentro: LOS SANTOS - SANTANDER                                             3
 ACTION:UPD 14-10-03 23:05 OP:nd   STATUS:               ID:20140916190913 L   I
 OLDACT:REG 14-09-16 22:46 OP:spq  STATUS:               ID:20140916190820     3
 2014-09-16-1908-20M.COL___284                                                 6
 STAT SP IPHASW D HRMM SECON CODA AMPLIT PERI AZIMU VELO AIN AR TRES W  DIS CAZ7
 BAR2 SZ EP       19 9 32.13                             170    0.0210 24.2 193 
 BAR2 SZ ES   1   19 9 46.69                             170   -0.21 7 24.2 193 
 BAR2 SZ I        19 9 48.16        31.5 0.24            168           24.2 193 
 BRR  HZ EP       19 9 34.02                             151    0.2810 72.1 298 
 BRR  HN ES       19 9 49.98                             151    0.1910 72.1 298 
 BRR  HZ I        19 9 57.25        15.8 0.50            149           72.1 298 
 PAM  SZ EP   1   19 9 34.95                             150    0.26 7 76.1  39 
 PAM  SN ES       19 9 51.47                             150   -0.0110 76.1  39 
 RUS  HZ EP       19 9 36.14                             142   -0.2410  101 177 
 RUS  HN ES       19 9 54.59                             142    0.0910  101 177 
 RUS  HZ I        19 9 56.02         5.4 0.32            145            101 177 
 PTB  HZ EP       19 9 39.08                             130   -0.71 9  149 259 
 PTB  HN ES       1910  0.18                             130   -0.39 9  149 259 
 PTB  HZ I        1910  5.50         7.9 0.46            131            149 259 
 NOR  HN ES       1910 17.00                             117    0.56 8  236 235 
 NOR  HZ I        1910 18.05         7.7 0.20            119            236 235 
 GUY2CHZ EP   1   19 9 57.57                             111    0.90 5  303 235 
 GUY2CHN ES   1   1910 30.76                             111    0.16 5  303 235 
 GUY2CHZ I        1910 38.43         3.2 0.36                           303 235 
 PRA  HZ EP       1910  6.40                             105   -0.22 6  393 210 
 PRA  HN ES       1910 48.33                             105    0.01 6  393 210 
 PRA  HZ I        1910 54.96         4.1 0.38            107            393 210 
                                                                                
