 2016  716 1921 54.5 L   6.821 -73.117147.5  RSN 17 0.5 2.3LRSN                1
 GAP= 72        1.07       3.5     2.9  4.9 -0.2545E+01  0.2868E+01 -0.2973E+00E
 Epicentro: LOS SANTOS - SANTANDER                                             3
 ACTION:UPD 17-03-29 16:51 OP:lp   STATUS:               ID:20160716192154 L   I
 OLDACT:UP  16-07-16 23:37 OP:dani STATUS:               ID:20160716191759     3
 OLDACT:UP  16-07-16 23:34 OP:dani STATUS:               ID:20160716191759     3
 OLDACT:REG 16-07-16 20:44 OP:dani STATUS:               ID:20160716191759     3
 2016-07-16-1917-59S.COL___322                                                 6
 STAT SP IPHASW D HRMM SECON CODA AMPLIT PERI AZIMU VELO AIN AR TRES W  DIS CAZ7
 BAR2 EZ EP       1922 14.40                             170    0.0310 26.3 196 
 BAR2 EZ ES       1922 29.49                             170   -0.4110 26.3 196 
 BAR2 EZ I        1922 30.25        59.6 0.36            166           26.3 196 
 BRR  HZ EP     D 1922 16.31                             152    0.4010 73.0 296 
 BRR  HN ES       1922 32.73                             152    0.1010 73.0 296 
 BRR  HZ I        1922 37.59        44.2 0.14            144           73.0 296 
 PAM  EZ EP       1922 17.23                             152    0.5810 73.6  39 
 PAM  EE ES       1922 34.59                             152    0.6410 73.6  39 
 PAM  EZ I        1922 36.75        18.7 0.42            148           73.6  39 
 RUS  HZ EP       1922 18.39                             144   -0.1610  103 178 
 RUS  HE ES       1922 36.88                             144   -0.4410  103 178 
 RUS  HZ I        1922 37.54        24.6 0.46            137            103 178 
 PTB  HZ EP       1922 21.87                             132   -0.04 9  151 258 
 PTB  HN ES       1922 42.39                             132   -0.92 9  151 258 
 PTB  HZ I        1922 45.13        21.6 0.10            123            151 258 
 TAM  HE ES       1922 44.11                             131    0.53 9  153 106 
 SPBC HZ EP       1922 23.41                             129   -0.05 9  167 219 
 SPBC HE ES       1922 45.64                             129   -0.44 9  167 219 
 SPBC HZ I        1922 46.61        41.0 0.14            121            167 219 
 ZAR  HZ EP       1922 27.30                             122    0.05 8  206 291 
 ZAR  HN ES       1922 53.13                             122    0.31 8  206 291 
 ZAR  HZ I        1922 58.61        33.3 0.26            115            206 291 
 NOR  HZ EP       1922 30.81                             118    0.09 8  239 234 
 NOR  HE ES       1922 59.13                             118    0.13 8  239 234 
 NOR  HZ I        1923  6.90        18.4 0.18            111            239 234 
 CHI  HZ EP       1922 32.49                             117   -0.11 8  252 196 
 CHI  HZ I        1923  7.58         8.0 0.24            111            252 196 
 HEL  HZ EP   4   1922 36.36                             115    1.18 0  276 256 
 HEL  HN ES       1923  7.81                             115    0.88 7  276 256 
 HEL  HZ I        1923 14.08        12.3 0.26            108            276 256 
 URE  HZ EP       1922 35.43                             114   -0.43 7  286 291 
 URE  HE ES   4   1923  6.43                             114   -1.72 0  286 291 
 URE  HZ I        1923 17.85        19.9 0.34            107            286 291 
 SOCV BZ EP       1922 37.11                             113   -0.04 7  297  57 
 SOCV BN ES       1923  9.42                             113   -1.03 7  297  57 
 GUY2CHZ EP   4   1922 40.96                             112    2.36 0  305 235 
 GUY2CHE ES       1923 13.52                             112    0.49 7  305 235 
 GUY2CHZ I        1923 19.80         8.5 0.44                           305 235 
 DBB  EZ EP       1922 42.34                             110   -0.03 7  343 274 
 DBB  EZ I        1923 20.58         4.4 0.24            104            343 274 
 PRA  HZ EP       1922 48.67                             107    0.20 6  396 210 
 PRA  HE ES       1923 30.63                             107    0.04 6  396 210 
 PRA  HZ I        1923 36.89         8.1 0.28            101            396 210 
 SJC  HZ EP       1922 49.00                             106   -1.07 6  409 326 
 SJC  HN ES   4   1923 30.39                             106   -3.05 0  409 326 
 SJC  HZ I        1923 34.50         6.8 0.56            101            409 326 
                                                                                
