 2017  716 1618 30.9 L   6.744 -73.011126.8  RSN  5 0.4 1.0LRSN                1
 GAP=127        0.92       4.4     7.2  7.9 -0.2948E+01 -0.2262E+02  0.9912E+01E
 Epicentro: CEPITA - SANTANDER                                                 3
 ACTION:UPD 17-08-30 15:33 OP:rebc STATUS:               ID:20170716161830 L   I
 OLDACT:REG 17-07-16 20:41 OP:lv   STATUS:               ID:20170716160505     3
 2017-07-16-1608-00M.COL___395                                                 6
 STAT SP IPHASW D HRMM SECON CODA AMPLIT PERI AZIMU VELO AIN AR TRES W  DIS CAZ7
 BAR2 EZ EP       1618 48.07                             168   -0.2810 25.3 229 
 BAR2 EZ ES       1619  2.49                             168    0.5710 25.3 229 
 BAR2 EZ I        1619  4.60         6.9 0.06            171           25.3 229 
 PAM  EZ EP       1618 50.90                             148   -0.0810 74.3  28 
 PAM  EN ES       1619  6.46                             148   -0.1410 74.3  28 
 PAM  EZ I        1619  9.99         1.8 0.61            150           74.3  28 
 BRR  HE ES       1619  6.99                             143    0.0310 87.3 297 
 RUS  HZ EP       1618 52.31                             141   -0.0910 94.5 185 
 RUS  HN ES       1619  8.66                             141   -0.4910 94.5 185 
 RUS  HZ I        1619 12.08         0.8 0.11            144           94.5 185 
 YPLC HZ EP       1618 58.75                             124    0.57 9  165 155 
                                                                                
