 2017  316 1640  8.9 L   6.781 -73.138146.2  RSN  7 0.5 1.7LRSN                1
 GAP=138        0.91       4.5     4.4  7.8 -0.2297E+00  0.1443E+02  0.3338E+01E
 Epicentro: LOS SANTOS - SANTANDER                                             3
 ACTION:UPD 17-05-25 18:41 OP:jn   STATUS:               ID:20170316164008 L   I
 OLDACT:REG 17-03-16 22:07 OP:dnl  STATUS:               ID:20170316163742     3
 2017-03-16-1638-00M.COL___415                                                 6
 STAT SP IPHASW D HRMM SECON CODA AMPLIT PERI AZIMU VELO AIN AR TRES W  DIS CAZ7
 BAR2 EZ EP       1640 28.48                             171   -0.1010 21.5 193 
 BAR2 EZ ES       1640 43.79                             171   -0.1210 21.5 193 
 BAR2 EZ I        1640 45.10        11.8 0.42            169           21.5 193 
 BRR  HZ EP   2   1640 30.20                             152   -0.03 5 73.0 300 
 BRR  HN ES       1640 47.48                             152    0.6410 73.0 300 
 BRR  HZ I        1640 50.81         6.9 0.14            149           73.0 300 
 PAM  EZ EP   2   1640 31.34                             151    0.08 5 78.4  38 
 PAM  EE ES       1640 48.50                             151   -0.1710 78.4  38 
 PAM  EZ I        1640 50.56        10.2 0.56            155           78.4  38 
 RUS  HZ EP   2   1640 32.49                             145   -0.09 5 98.5 176 
 RUS  HE ES       1640 51.18                             145    0.1610 98.5 176 
 RUS  HZ I        1640 52.73         4.7 0.38            146           98.5 176 
 PTB  HZ EP   2   1640 34.93                             132   -1.05 5  148 260 
 PTB  HN ES       1640 56.32                             132   -0.76 9  148 260 
 PTB  HZ I        1641  3.89         7.6 0.34            131            148 260 
 ZAR  HZ EP   2   1640 42.47                             122    0.90 4  206 293 
 ZAR  HE ES       1641  6.96                             122   -0.07 8  206 293 
 ZAR  HZ I        1641 12.88         5.4 0.36            122            206 293 
 NOR  HZ EP   2   1640 44.96                             119    0.32 4  234 235 
 NOR  HE ES       1641 12.97                             119    0.48 8  234 235 
 NOR  HZ I        1641 19.71         3.3 0.16            119            234 235 
                                                                                
