 2012 1116 1913 47.6 L   6.784 -73.149144.0  RSN  7 0.4 2.3LRSN                1
 GAP=137        1.00       4.9     4.7  6.6 -0.6358E+01  0.6688E+01  0.3353E+01E
 Epicentro: LOS SANTOS - SANTANDER                                             3
 ACTION:UPD 12-12-05 15:33 OP:}ep  STATUS:               ID:20121116191347 L   I
 2012-11-16-1910-00M.COL___233                                                 6
 STAT SP IPHASW D HRMM SECON CODA AMPLIT PERI AZIMU VELO AIN AR TRES W  DIS CAZ7
 BAR2 SZ EP       1914  7.01                             171    0.0410 21.5 190 
 BAR2 SZ I        1914  7.35        40.8 0.18                          21.5 190 
 BAR2 SZ ES       1914 22.12                             171    0.0310 21.5 190 
 GIR2 SZ EP       1914  7.00                             166   -0.1010 33.0 351 
 BRR  HZ IP     C 1914  8.79                             152    0.2110 71.8 300 
 BRR  HZ I        1914  9.08        23.0 0.26                          71.8 300 
 BRR  HN ES       1914 25.80                             152    0.8410 71.8 300 
 PAM  SZ EP       1914  9.71                             150    0.0010 79.0  39 
 PAM  SZ I        1914 10.04        40.6 0.24                          79.0  39 
 PAM  SN ES       1914 26.43                             150   -0.5410 79.0  39 
 RUS  HZ EP       1914 11.28                             144    0.2410 98.8 176 
 RUS  HN ES       1914 29.36                             144    0.0310 98.8 176 
 RUS  HN I        1914 31.11        30.8 0.24                          98.8 176 
 PTB  HZ EP       1914 14.04                             132   -0.31 9  147 260 
 PTB  HN ES       1914 34.55                             132   -0.68 9  147 260 
 PTB  HN I        1914 34.99        19.5 0.30                           147 260 
 NOR  HZ EP       1914 23.49                             118    0.42 8  233 235 
 NOR  HN ES       1914 50.50                             118   -0.25 8  233 235 
 NOR  HN I        1914 58.35        27.8 0.18                           233 235 
                                                                                
