 2017  116 1011 58.3 L   6.795 -73.148149.3  RSN  6 0.4 1.3LRSN                1
 GAP=136        0.94       4.1     4.5  7.1 -0.1614E-01  0.7663E+01  0.5463E+01E
 Epicentro: LOS SANTOS - SANTANDER                                             3
 ACTION:UPD 17-05-22 16:00 OP:jn   STATUS:               ID:20170116101158 L   I
 OLDACT:UP  17-03-29 19:02 OP:nlst STATUS:               ID:20170116101158 L   3
 OLDACT:REG 17-01-16 20:11 OP:cog  STATUS:               ID:20170116100744     3
 2017-01-16-1008-00M.COL___335                                                 6
 STAT SP IPHASW D HRMM SECON CODA AMPLIT PERI AZIMU VELO AIN AR TRES W  DIS CAZ7
 BAR2 EZ EP       1012 18.26                             171   -0.1110 22.7 190 
 BAR2 EZ ES       1012 33.43                             171   -0.5710 22.7 190 
 BAR2 EZ I        1012 35.30         4.9 0.28            171           22.7 190 
 PAM  EZ EP       1012 21.23                             151    0.2810 78.0  39 
 PAM  EE ES       1012 38.75                             151    0.1510 78.0  39 
 PAM  EZ I        1012 40.39         5.0 0.48            153           78.0  39 
 RUS  HZ EP       1012 22.15                             145   -0.2410  100 176 
 RUS  HN ES       1012 41.59                             145    0.4410  100 176 
 RUS  HZ I        1012 42.06         2.7 0.28            146            100 176 
 RUS  HZ I      D 1014 37.56                                            100 176 
 PTB  HZ EP   1   1012 25.16                             133   -0.39 7  147 259 
 PTB  HE ES       1012 46.57                             133   -0.22 9  147 259 
 PTB  HZ I        1012 50.01         1.3 0.25            134            147 259 
 ZAR  HN ES       1012 56.98                             123    0.49 9  204 292 
 CHI  HZ EP       1012 35.69                             118   -0.46 8  248 195 
 CHI  HN ES       1013  6.26                             118    0.60 8  248 195 
                                                                                
