 2011  916 1949 28.6 L   6.698 -73.110136.0  RSN  6 0.2 1.5LRSN                1
 GAP=145        0.35       7.6     4.0  6.2 -0.1034E+02 -0.1017E+02  0.2217E+02E
 Epicentro: JORDAN - SANTANDER                                                 3
 ACTION:UPD 12-07-13 15:57 OP:ep   STATUS:               ID:20110916194928 L   I
 2011-09-16-1946-11S.COL___171                                                 6
 STAT SP IPHASW D HRMM SECON CODA AMPLIT PERI AZIMU VELO AIN AR TRES W  DIS CAZ7
 BAR2 SZ ES   3   1950  0.89                             174   -0.25 2 14.2 214 
 BAR2 SZ I        1950  5.20         4.1 0.38                          14.2 214 
 BTL  SZ EP       1949 47.28                             167    0.0810 29.9 324 
 GIR2 SZ EP   2   1949 47.21                             162   -0.28 5 43.0 348 
 BRR  HZ EP       1949 49.12                             148   -0.1310 80.4 304 
 BRR  HZ I        1950  3.64        13.1 0.34                          80.4 304 
 BRR  HE ES   1   1950  5.52                             148    0.14 7 80.4 304 
 PAM  SZ EP       1949 50.25                             147    0.0510 84.2  33 
 PAM  SN ES   2   1950  7.02                             147   -0.05 5 84.2  33 
 RUS  HZ EP   3   1949 50.85                             145    0.30 2 89.2 178 
                                                                                
