 2017  316 1138 46.4 L   6.790 -73.145140.9  RSN 18 0.5 2.7LRSN                1
 GAP=100        0.97       3.0     2.7  4.8 -0.6401E+00  0.3344E+01  0.2310E+01E
 Epicentro: LOS SANTOS - SANTANDER                                             3
 ACTION:UPD 17-05-25 18:41 OP:jn   STATUS:               ID:20170316113846 L   I
 OLDACT:UP  17-03-17 00:13 OP:dnl  STATUS:               ID:20170316113745     3
 OLDACT:UP  17-03-17 00:12 OP:dnl  STATUS:               ID:20170316113745     3
 OLDACT:REG 17-03-16 21:09 OP:dnl  STATUS:               ID:20170316113745     3
 2017-03-16-1138-00M.COL___391                                                 6
 STAT SP IPHASW D HRMM SECON CODA AMPLIT PERI AZIMU VELO AIN AR TRES W  DIS CAZ7
 BAR2 EZ IP     C 1139  5.23                             171   -0.2010 22.2 191 
 BAR2 EZ ES       1139 20.32                             171    0.0510 22.2 191 
 BAR2 EZ I        1139 22.65        65.4 0.32            169           22.2 191 
 BRR  HZ IP     C 1139  7.13                             152    0.0610 71.8 299 
 BRR  HE ES       1139 23.94                             152    0.7610 71.8 299 
 BRR  HZ I        1139 27.88       108.5 0.22            149           71.8 299 
 PAM  EZ EP       1139  8.19                             150    0.0310 78.3  39 
 PAM  EN ES       1139 24.99                             150   -0.1410 78.3  39 
 PAM  EZ I        1139 27.14       135.1 0.50            147           78.3  39 
 RUS  HZ IP     C 1139  9.23                             143   -0.3710 99.4 176 
 RUS  HE ES       1139 27.59                             143   -0.1010 99.4 176 
 RUS  HZ I        1139 28.28        61.6 0.46            140           99.4 176 
 PTB  HZ EP       1139 11.89                             131   -1.08 9  148 259 
 PTB  HN ES       1139 33.17                             131   -0.51 9  148 259 
 PTB  HZ I        1139 36.66        46.0 0.56            128            148 259 
 TAM  HZ IP     C 1139 13.60                             130   -0.08 9  155 105 
 TAM  HZ I        1139 34.12        26.6 0.24            126            155 105 
 TAM  HE ES       1139 35.34                             130    0.40 9  155 105 
 SPBC HZ EP       1139 14.18                             128   -0.27 9  162 219 
 SPBC HE ES       1139 36.54                             128    0.21 9  162 219 
 SPBC HZ I        1139 39.49        91.5 0.22            125            162 219 
 ZAR  HZ EP       1139 18.47                             121   -0.12 9  205 292 
 ZAR  HN ES       1139 44.16                             121    0.47 9  205 292 
 ZAR  HZ I        1139 49.29        97.6 0.44            118            205 292 
 CHI  HZ EP   2   1139 23.69                             116   -0.03 4  248 195 
 CHI  HN ES       1139 52.72                             116   -0.10 8  248 195 
 CHI  HZ I        1139 59.38        19.4 0.30            113            248 195 
 ROSC BZ EP   9   1139 26.01                             116    1.85 0  252 211 
 ROSC BN ES       1139 55.47                                    0.01 8  252 211 
 ROSC BZ I        1140  1.39        67.1 0.55            113            252 211 
 HEL  HZ EP   2   1139 27.47                             114    1.12 4  272 256 
 HEL  HN ES       1139 57.10                             114   -0.40 8  272 256 
 HEL  HZ I        1140  3.94        32.3 0.44            111            272 256 
 URE  HZ EP       1139 27.20                             113   -0.10 7  284 292 
 URE  HN ES   4   1139 57.08                             113   -2.11 0  284 292 
 URE  HZ I        1140 10.31        35.3 0.28            110            284 292 
 GUY2CHZ EP       1139 30.79                             112    1.07 7  301 235 
 GUY2CHN ES   4   1140  6.23                             112    2.72 0  301 235 
 GUY2CHZ  IAML    1140 10.45        26.5 0.36                           301 235 
 ELA  HZ EP   4   1139 36.04                             110    3.07 0  328 230 
 ELA  HN ES       1140  9.78                             110    0.49 7  328 230 
 ELA  HZ I        1140 16.58        29.0 0.58            107            328 230 
 DBB  EZ EP   2   1139 33.08                             109   -0.62 3  340 274 
 DBB  EN ES   4   1140  9.30                             109   -1.29 0  340 274 
 DBB  EZ I        1140 13.65        10.7 0.32            106            340 274 
 ANIL HN ES   4   1140 15.76                             108    1.19 0  357 225 
 PRA  HZ EP       1139 39.82                             106    0.17 6  391 210 
 PRA  HE ES       1140 21.23                             106    0.06 6  391 210 
 PRA  HZ I        1140 29.81        25.0 0.40            103            391 210 
 ORTC HZ EP   2   1139 40.60                             106    0.54 3  395 216 
 ORTC HE ES       1140 22.50                             106    0.60 6  395 216 
 ORTC HZ I        1140 28.50        19.6 0.34            103            395 216 
 SJC  HZ EP   4   1139 40.11                             105   -1.82 0  410 327 
 SJC  HN ES   4   1140 20.89                             105   -4.35 0  410 327 
 SJC  HZ I        1140 24.97        14.0 0.54            102            410 327 
                                                                                
