 2014  216 1612 41.6 L   6.884 -73.188147.0  RSN 10 0.4 2.0LRSN                1
 GAP=127        0.78       3.2     4.3  6.8 -0.3390E+01  0.1153E+02  0.2880E+01E
 Epicentro: BETULIA - SANTANDER                                                3
 ACTION:UPD 14-03-10 08:10 OP:ep   STATUS:               ID:20140216161241 L   I
 OLDACT:UP  14-02-16 17:46 OP:mh   STATUS:               ID:20140216161000     3
 OLDACT:UP  14-02-16 17:45 OP:mh   STATUS:               ID:20140216161000     3
 OLDACT:REG 14-02-16 14:34 OP:mh   STATUS:               ID:20140216161000     3
 2014-02-16-1610-00M.COL___212                                                 6
 STAT SP IPHASW D HRMM SECON CODA AMPLIT PERI AZIMU VELO AIN AR TRES W  DIS CAZ7
 BAR2 SZ EP   1   1613  1.66                             167    0.10 7 32.2 179 
 BAR2 SZ I        1613 18.59        17.6 0.24            166           32.2 179 
 PAM  SZ EP   1   1613  4.30                             152    0.58 7 73.9  47 
 PAM  SN ES       1613 21.08                             152    0.1010 73.9  47 
 PAM  SZ I        1613 23.23        32.2 0.49            153           73.9  47 
 RUS  HZ EP   1   1613  5.82                             141   -0.34 7  110 174 
 RUS  HN ES   1   1613 24.69                             141   -0.64 7  110 174 
 RUS  HZ I        1613 27.21         4.0 0.26            141            110 174 
 PTB  HZ EP       1613  8.35                             133   -0.07 9  145 255 
 PTB  HN ES   1   1613 29.85                             133    0.50 7  145 255 
 PTB  HZ I        1613 30.94        11.0 0.14            132            145 255 
 SPBC HZ EP   1   1613 10.90                             128    0.30 7  168 216 
 SPBC HN ES   1   1613 33.84                             128    0.61 7  168 216 
 SPBC HZ I        1613 39.31        10.4 0.22            128            168 216 
 SML  HZ EP   1   1613 17.13                             119   -0.03 6  233 335 
 SML  HN ES   1   1613 44.04                             119   -0.86 6  233 335 
 SML  HZ I        1613 49.43        13.0 0.13            119            233 335 
 NOR  HZ EP   1   1613 18.16                             118    0.59 6  236 232 
 NOR  HN ES   1   1613 45.51                             118   -0.13 6  236 232 
 NOR  HZ I        1613 49.26         6.6 0.30            118            236 232 
 CHI  HZ EP       1613 20.02                             117   -0.17 8  256 194 
 CHI  HN ES   1   1613 49.90                             117   -0.41 6  256 194 
 CHI  HZ I        1613 56.84         4.0 0.29            116            256 194 
 HEL  HZ EP   4   1613 24.02                             115    2.40 0  270 254 
 HEL  HN ES   1   1613 52.31                             115   -0.54 6  270 254 
 HEL  HZ I        1614  0.38         3.7 0.47            115            270 254 
 GUY2CHZ EP   4   1613 27.58                             112    2.15 0  303 233 
 PRA  HZ EP   1   1613 36.18                             106    0.36 4  398 208 
 PRA  HN ES       1614 18.03                             106   -0.10 6  398 208 
 PRA  HZ I        1614 25.81         6.6 0.27            106            398 208 
                                                                                
