 2011  816 1525 15.5 L   6.791 -73.088149.6  RSN  4 0.3 1.8LRSN                1
 GAP=243        0.54       4.8     5.7  6.0  0.5932E+01  0.6550E+01  0.4443E+01E
 Epicentro: LOS SANTOS - SANTANDER                                             3
 ACTION:UPD 12-07-13 15:52 OP:ep   STATUS:               ID:20110816152515 L   I
 2011-08-16-1521-12S.COL___149                                                 6
 STAT SP IPHASW D HRMM SECON CODA AMPLIT PERI AZIMU VELO AIN AR TRES W  DIS CAZ7
 BAR2 SZ EP   1   1525 35.41                             170   -0.16 7 24.3 205 
 BAR2 SZ ES   1   1525 50.86                             170   -0.39 7 24.3 205 
 BAR2 SZ I        1525 52.41        16.3 0.25                          24.3 205 
 BRR  HZ EP   1   1525 37.60                             151    0.23 7 77.3 297 
 BRR  HN ES   1   1525 54.62                             151    0.15 7 77.3 297 
 BRR  HZ I        1525 56.98        11.7 0.13                          77.3 297 
 RUS  HZ EP   1   1525 39.35                             145   -0.15 7 99.3 180 
 RUS  HN ES   1   1525 58.67                             145    0.42 7 99.3 180 
 RUS  HZ I        1525 59.67         5.9 0.28                          99.3 180 
 NOR  SZ EP   2   1525 51.95                             119    0.04 4  239 236 
 NOR  SN ES   1   1526 20.17                             119   -0.17 6  239 236 
                                                                                
