 2010  216 1323 48.4 L   6.811 -72.926150.9  RSN  4 0.4 1.9LRSN                1
 GAP=328        0.60      14.6    16.2 10.0 -0.1339E+03  0.3954E+01  0.6925E+02E
 Epicentro: CEPITA - SANTANDER                                                 3
 ACTION:UP  10-08-24 09:49 OP:vdl  STATUS:               ID:20100216132348 L   I
 2010-02-16-1320-00S.COL___101                                                 6
 STAT SP IPHASW D HRMM SECON CODA AMPLIT PERI AZIMU VELO SNR AR TRES W  DIS CAZ7
 BAR2 SZ EP   1   1324  9.14                             166     0.2 7   37 230 
 BAR2 SZ ES   2   1324 24.64                             166    -0.4 5   37 230 
 CHI  HZ EP   1   1324 27.61                             117     0.3 6  257 200 
 CHI  HN ES   3   1324 57.72                             117     0.1 2  257 200 
 CHI  HZ I        1325  3.07         3.2 0.69                           257 200 
 RREF BZ EP   1   1324 36.50                             110    -0.5 5  341 232 
 RREF BE ES   2   1325 15.68                             110     0.8 3  341 232 
 RREF BZ I        1325 21.00         2.9 0.46                           341 232 
 PRA  HZ EP   1   1324 43.22                             107    -0.4 4  406 212 
 PRA  HE ES   2   1325 26.34                             107    -0.4 3  406 212 
 PRA  HZ I        1325 30.95         2.6 0.46                           406 212 
                                                                                
