 2016  316 1152 28.2 L   6.672 -73.118141.6  RSN  4 0.2 1.6LRSN                1
 GAP=187        0.62       6.3     3.7  5.5 -0.1130E+02  0.9943E+01 -0.1056E+02E
 Epicentro: VILLANUEVA - SANTANDER                                             3
 ACTION:UPD 16-05-13 21:24 OP:cam  STATUS:               ID:20160316115228 L   I
 OLDACT:DUP 16-03-16 22:30 OP:cara STATUS:               ID:20160316114751d    3
 2016-03-16-1147-50M.COL___285                                                 6
 STAT SP IPHASW D HRMM SECON CODA AMPLIT PERI AZIMU VELO AIN AR TRES W  DIS CAZ7
 BAR2 EZ ES       1153  2.22                             175    0.3210 11.4 219 
 BAR2 EZ I        1153  3.70         6.9 0.42            173           11.4 219 
 PAM  EZ IP       1152 50.60                             147    0.0210 87.1  32 
 PAM  EN ES       1153  7.81                             147   -0.2310 87.1  32 
 PAM  EZ I        1153  9.40        10.5 0.32            149           87.1  32 
 PTB  HZ EP       1152 54.78                             131   -0.13 9  149 264 
 PTB  HN ES       1153 15.41                             131   -0.34 9  149 264 
 PTB  HZ I        1153 20.44         3.0 0.22            131            149 264 
 ZAR  HZ EP       1153  1.51                             120    0.25 8  213 295 
 ZAR  HE ES       1153 27.23                             120    0.18 8  213 295 
 ZAR  HZ I        1153 30.89         6.2 0.26            121            213 295 
                                                                                
