 2013 1216 1444 17.1 L   6.379 -73.753 97.0  RSN  5 0.5 1.5LRSN                1
 GAP=165        1.16       5.7     4.6 10.2 -0.4134E+01  0.1510E+02  0.1049E+02E
 Epicentro: SANTA HELENA DEL OPON - SANTANDER                                  3
 ACTION:UPD 14-01-13 10:18 OP:ep   STATUS:               ID:20131216144417 L   I
 OLDACT:REG 13-12-16 16:17 OP:nd   STATUS:               ID:20131216144000     3
 2013-12-16-1440-00M.COL___285                                                 6
 STAT SP IPHASW D HRMM SECON CODA AMPLIT PERI AZIMU VELO AIN AR TRES W  DIS CAZ7
 BAR2 SZ EP       1444 33.16                             143   -0.1110 67.3  69 
 BAR2 SZ ES       1444 46.20                             143    0.2910 67.3  69 
 BAR2 SZ I        1444 47.28        10.7 0.14            144           67.3  69 
 PTB  HZ EP       1444 33.26                             138   -0.6910 79.8 283 
 PTB  HN ES       1444 46.85                             138   -0.2710 79.8 283 
 PTB  HZ I        1444 47.81         5.9 0.12            136           79.8 283 
 NOR  HZ EP       1444 41.66                             118    0.45 9  153 234 
 NOR  HN ES       1444 59.93                             118   -0.10 9  153 234 
 NOR  HZ I        1445  2.59         7.4 0.24            119            153 234 
 ZAR  HZ EP       1444 42.76                             115   -0.65 9  173 315 
 ZAR  HN ES       1445  4.80                             115    0.84 9  173 315 
 ZAR  HZ I        1445 10.23         5.2 0.42            114            173 315 
 GUY2CHZ EP       1444 49.61                             110    0.34 8  219 235 
 GUY2CHN ES   2   1445 14.92                             110    0.55 4  219 235 
 GUY2CHZ I        1445 21.36         2.7 0.58                           219 235 
                                                                                
