 2016 1116 1024 20.6 L   6.802 -73.152142.9  RSN  7 0.4 1.7LRSN                1
 GAP=148        1.12       7.4     5.3  8.1 -0.1328E+02  0.1355E+02 -0.6877E+00E
 Epicentro: LOS SANTOS - SANTANDER                                             3
 ACTION:UPD 17-10-26 21:08 OP:lp   STATUS:               ID:20161116102420 L   I
 OLDACT:UP  16-11-16 21:04 OP:ar   STATUS:               ID:20161116101747     3
 OLDACT:REG 16-11-16 20:23 OP:ar   STATUS:               ID:20161116101747     3
 2016-11-16-1018-00M.COL___326                                                 6
 STAT SP IPHASW D HRMM SECON CODA AMPLIT PERI AZIMU VELO AIN AR TRES W  DIS CAZ7
 BAR2 EZ EP       1024 40.03                             170    0.1810 23.4 188 
 BAR2 EZ ES       1024 54.71                             170   -0.1810 23.4 188 
 BAR2 EZ I        1024 55.79         7.6 0.28            170           23.4 188 
 BRR  HZ IP     D 1024 41.72                             152    0.3610 70.5 299 
 BRR  HE ES       1024 58.19                             152    0.6110 70.5 299 
 BRR  HZ I        1025  4.01         9.2 0.38            148           70.5 299 
 PAM  EZ EP       1024 42.70                             150    0.2210 77.6  40 
 PAM  EN ES       1024 59.24                             150   -0.3510 77.6  40 
 PAM  EZ I        1025  1.45         6.9 0.16            153           77.6  40 
 PTB  HZ EP       1024 46.61                             131   -0.62 9  147 259 
 PTB  HN ES       1025  7.29                             131   -0.75 9  147 259 
 PTB  HZ I        1025 13.21         6.1 0.30            131            147 259 
 ZAR  HZ EP       1024 52.55                             122   -0.19 9  203 292 
 ZAR  HN ES       1025 17.90                             122    0.05 9  203 292 
 ZAR  HZ I        1025 23.77         6.6 0.26            122            203 292 
 NOR  HN ES       1025 24.47                             118    0.69 8  234 234 
 NOR  HZ I        1025 29.83         3.9 0.20            119            234 234 
 URE  HZ EP   4   1025  4.21                             113    2.80 0  283 292 
 URE  HN ES   4   1025 31.17                             113   -2.10 0  283 292 
 URE  HZ I        1025 40.07         5.5 0.36            114            283 292 
                                                                                
