 2013  416 1724 16.3 L   6.803 -73.175147.3  RSN  7 0.3 2.3LRSN                1
 GAP=133        0.89       3.8     4.6  6.6 -0.2041E+01  0.2251E+01  0.4339E+01E
 Epicentro: LOS SANTOS - SANTANDER                                             3
 ACTION:UPD 13-05-22 14:38 OP:EP   STATUS:               ID:20130416172416 L   I
 2013-04-16-1718-51M.COL___212                                                 6
 STAT SP IPHASW D HRMM SECON CODA AMPLIT PERI AZIMU VELO AIN AR TRES W  DIS CAZ7
 BAR2 SZ EP       1724 36.12                             171    0.0210 23.3 182 
 BAR2 SZ I        1724 52.48        35.6 0.38            168           23.3 182 
 GIR2 SZ EP       1724 36.13                             168    0.0110 30.6 356 
 GIR2 SZ ES       1724 51.87                             168    0.2810 30.6 356 
 BRR  HZ EP       1724 37.93                             154    0.5010 68.2 300 
 BRR  HN ES       1724 54.42                             154    0.4910 68.2 300 
 BRR  HN I        1724 55.46        94.6 0.20            152           68.2 300 
 PAM  SZ EP       1724 39.02                             150    0.2510 79.3  42 
 PAM  SN ES       1724 55.77                             150   -0.5510 79.3  42 
 RUS  HZ EP       1724 40.20                             144   -0.0310  101 174 
 RUS  HN ES       1724 58.82                             144   -0.0810  101 174 
 RUS  HN I        1725  0.57         7.2 0.12            140            101 174 
 PTB  HZ EP       1724 42.91                             133   -0.18 9  145 258 
 PTB  HN ES       1725  3.47                             133   -0.53 9  145 258 
 PTB  HN I        1725  9.12        31.9 0.36            130            145 258 
 OCA  HN ES       1725  6.47                             130   -0.31 9  160 354 
 OCA  HN I        1725  9.21        64.5 0.18            128            160 354 
                                                                                
