 2016 1016 1031 12.1 L   6.528 -73.526113.3  RSN 10 0.5 1.6LRSN                1
 GAP= 71        1.16       3.9     4.6  8.9 -0.9042E+01  0.1957E+02 -0.6991E+01E
 Epicentro: EL CARMEN - SANTANDER                                              3
 ACTION:UPD 16-11-09 19:20 OP:rebc STATUS:               ID:20161016103112 L   I
 OLDACT:UP  16-10-16 22:26 OP:dnl  STATUS:               ID:20161016102736     3
 OLDACT:UP  16-10-16 22:26 OP:dnl  STATUS:               ID:20161016102736     3
 OLDACT:UP  16-10-16 22:26 OP:dnl  STATUS:               ID:20161016102736     3
 OLDACT:REG 16-10-16 20:44 OP:ndl  STATUS:               ID:20161016102736     3
 2016-10-16-1028-00M.COL___365                                                 6
 STAT SP IPHASW D HRMM SECON CODA AMPLIT PERI AZIMU VELO AIN AR TRES W  DIS CAZ7
 BAR2 EZ EP       1031 28.90                             160    0.5810 38.7  79 
 BAR2 EZ ES       1031 41.35                             160    0.3410 38.7  79 
 BAR2 EZ I        1031 42.48        36.0 0.46            165           38.7  79 
 BRR  HZ EP       1031 29.73                             147    0.1910 67.3 342 
 BRR  HN ES       1031 43.48                             147    0.3010 67.3 342 
 BRR  HZ I        1031 53.40         7.2 0.14            147           67.3 342 
 RUS  HN ES       1031 46.07                             141   -0.7110 85.7 145 
 RUS  HZ I        1031 47.87         2.8 0.12            150           85.7 145 
 PTB  HZ EP       1031 31.69                             135   -0.6310  103 271 
 PTB  HN ES   4   1031 46.49                             135   -1.64 0  103 271 
 PTB  HZ I        1031 47.80        10.7 0.10            137            103 271 
 SPBC HZ EP       1031 33.93                             132    0.5010  114 212 
 SPBC HN ES       1031 50.32                             132    0.2110  114 212 
 SPBC HZ I        1031 53.63        11.8 0.10            138            114 212 
 PAM  EZ EP       1031 35.36                             128    0.0910  128  45 
 PAM  EN ES       1031 53.23                             128   -0.1510  128  45 
 PAM  EZ I        1031 54.46         5.9 0.26            134            128  45 
 NOR  HZ EP   4   1031 42.04                             117    1.68 0  183 234 
 NOR  HE ES       1032  1.66                             117   -0.77 9  183 234 
 NOR  HZ I        1032  3.06         4.5 0.52            122            183 234 
 OCA  HZ EP   4   1031 43.36                             116    2.04 0  191   7 
 OCA  HE ES       1032  3.66                             116   -0.48 9  191   7 
 OCA  HZ I        1032  9.35         7.7 0.24            120            191   7 
 HEL  HZ EP   3   1031 46.32                             112    0.93 2  225 261 
 HEL  HE ES       1032 11.17                             112   -0.22 8  225 261 
 HEL  HZ I        1032 15.51         2.0 0.22            116            225 261 
 GUY2CHZ EP   4   1031 49.58                             110    1.22 0  249 235 
 GUY2CHN ES       1032 17.30                             110    0.63 8  249 235 
 GUY2CHZ I        1032 22.38         2.8 0.60                           249 235 
                                                                                
