 2016  916 1206 20.7 L   6.813 -73.193127.1  RSN  6 0.2 1.3LRSN                1
 GAP=130        0.44       5.5     3.9  6.8 -0.3545E+01 -0.5664E+01 -0.2192E+01E
 Epicentro: ZAPATOCA - SANTANDER                                               3
 ACTION:UPD 17-08-17 21:13 OP:lp   STATUS:               ID:20160916120620 L   I
 OLDACT:DUP 16-09-16 21:23 OP:dnl  STATUS:               ID:20160916115730d    3
 OLDACT:UP  16-09-16 21:21 OP:dnl  STATUS:               ID:20160916115729     3
 OLDACT:REG 16-09-16 19:52 OP:lv   STATUS:               ID:20160916115729     3
 2016-09-16-1158-00M.COL___351                                                 6
 STAT SP IPHASW D HRMM SECON CODA AMPLIT PERI AZIMU VELO AIN AR TRES W  DIS CAZ7
 BAR2 EZ EP       12 6 38.30                             168    0.1510 24.4 177 
 BAR2 EZ ES   2   12 6 51.68                             168   -0.05 5 24.4 177 
 BAR2 EZ I        12 6 54.82         5.7 0.22            172           24.4 177 
 BRR  HZ EP   2   12 6 40.09                             151    0.51 5 66.0 300 
 BRR  HE ES   2   12 6 54.26                             151   -0.01 5 66.0 300 
 BRR  HZ I        12 7  2.32         7.4 0.52            143           66.0 300 
 PAM  EZ EP       12 6 41.00                             147   -0.1610 79.8  43 
 PAM  EZ I        12 7  0.91         2.8 0.50            134           79.8  43 
 RUS  HZ EP   2   12 6 42.85                             139    0.00 5  102 173 
 RUS  HE ES   4   12 6 58.12                             139   -1.97 0  102 173 
 RUS  HZ I        12 7  2.42         2.7 0.22            147            102 173 
 PTB  HZ EP   2   12 6 45.29                             128   -0.49 5  143 258 
 PTB  HN ES   2   12 7  5.27                             128   -0.05 5  143 258 
 PTB  HZ I        12 7 10.68         2.3 0.42            129            143 258 
 ZAR  HZ EP   4   12 6 52.95                             119    1.49 0  199 292 
 ZAR  HN ES   3   12 7 15.77                             119    0.34 2  199 292 
 ZAR  HZ I        12 7 21.07         2.5 0.28            116            199 292 
                                                                                
