 2013  216 1415 17.8 L   6.794 -73.110146.9  RSN 14 0.5 3.1LRSN 3.4WRSN        1
 SPEC AVERAGE  MO 14.1 ST 16.4 OM  2.9 f0 3.80 R0.4780 AL 2.25 WI 27.5 MW  3.4 3
 SPEC SD       MO  0.1 ST 15.2 OM  0.5 f0 1.44 R0.2574 AL      WI      MW  0.1 3
 GAP= 73        0.97       3.6     3.8  6.2  0.1133E+01  0.4330E+01  0.1882E+01E
 Epicentro: LOS SANTOS - SANTANDER                                             3
 SPEC ZAR HH N MO 14.2 ST 42.5 OM  2.4 f0 5.78 R0.2543 AL 2.50 WI 34.2 MW  3.4 3
 SPEC ZAR HH N T141613 K 0.000 GD  254 VS 4.20 DE 3.20 Q0300.0 QA 0.60 VS 4.20 3
 SPEC PTB HH N MO 14.1 ST  3.1 OM  2.4 f0 2.56 R0.5742 AL 1.50 WI 25.6 MW  3.4 3
 SPEC PTB HH N T1416 4 K 0.000 GD  210 VS 4.20 DE 3.20 Q0300.0 QA 0.60 VS 4.20 3
 SPEC TAM HH E MO 14.2 ST0.713 OM  2.5 f0 1.46 R1.0068 AL 1.80 WI 18.3 MW  3.4 3
 SPEC TAM HH E T1416 5 K 0.000 GD  210 VS 4.20 DE 3.20 Q0300.0 QA 0.60 VS 4.20 3
 SPEC OCA HH N MO 14.3 ST 28.1 OM  2.6 f0 4.55 R0.3231 AL 2.57 WI 26.3 MW  3.5 3
 SPEC OCA HH N T1416 6 K 0.000 GD  217 VS 4.20 DE 3.20 Q0300.0 QA 0.60 VS 4.20 3
 SPEC CHI HH N MO 13.9 ST  4.9 OM  2.0 f0 3.66 R0.4016 AL 2.25 WI 24.5 MW  3.2 3
 SPEC CHI HH N T141623 K 0.000 GD  289 VS 4.20 DE 3.20 Q0300.0 QA 0.60 VS 4.20 3
 SPEC BRR HH N MO 14.1 ST 19.5 OM  2.5 f0 4.77 R0.3082 AL 2.91 WI 36.2 MW  3.4 3
 SPEC BRR HH N T141555 K 0.000 GD  164 VS 4.20 DE 3.20 Q0300.0 QA 0.60 VS 4.20 3
 ACTION:UPD 13-03-12 09:33 OP:ep   STATUS:               ID:20130216141517 L   I
 2013-02-16-1410-00M.COL___241                                                 6
 STAT SP IPHASW D HRMM SECON CODA AMPLIT PERI AZIMU VELO AIN AR TRES W  DIS CAZ7
 BAR2 SZ IP     C 1415 37.52                             170   -0.0410 23.7 200 
 BAR2 SZ ES   1   1415 53.02                             170    0.03 7 23.7 200 
 BAR2 SZ I        1415 56.43       130.5 0.40            164           23.7 200 
 BRR  HZ EP       1415 39.48                             151    0.2110 74.9 298 
 BRR  HN ES   1   1415 56.85                             151    0.82 7 74.9 298 
 BRR  HN I        1416  0.07       312.5 0.20            144           74.9 298 
 PAM  SZ EP   1   1415 40.34                             152    0.33 7 75.5  37 
 PAM  SN ES   1   1415 57.69                             152    0.34 7 75.5  37 
 PAM  SN I        1415 58.54       106.3 0.44            152           75.5  37 
 RUS  HZ EP       1415 41.31                             144   -0.2810 99.8 178 
 RUS  HN ES   1   1415 59.58                             144   -0.58 7 99.8 178 
 RUS  HN I        1416  1.66        63.7 0.40            139           99.8 178 
 PTB  HZ EP   1   1415 44.40                             131   -0.79 7  151 259 
 PTB  HN ES   1   1416  5.78                             131   -0.77 7  151 259 
 PTB  HN I        1416 10.82       293.1 0.56            124            151 259 
 TAM  HZ EP       1415 45.67                             132    0.47 9  151 105 
 TAM  HN ES   1   1416  5.85                             132   -0.72 7  151 105 
 TAM  HN I        1416  8.14       162.5 0.34            130            151 105 
 OCA  HZ EP   1   1415 46.01                             130   -0.29 7  161 352 
 OCA  HN ES   2   1416  8.77                             130    0.24 5  161 352 
 OCA  HN I        1416 11.47       395.2 0.36            126            161 352 
 ZAR  HZ EP   1   1415 49.91                             122   -0.80 6  208 292 
 ZAR  HN ES   1   1416 16.53                             122    0.15 6  208 292 
 ZAR  HN I        1416 22.21       138.7 0.18            116            208 292 
 SML  HZ EP   1   1415 53.85                             117   -0.87 6  246 335 
 SML  HN ES   1   1416 23.61                             117    0.09 6  246 335 
 SML  HN I        1416 27.41       197.1 0.10            113            246 335 
 CHI  HN ES   1   1416 25.53                             117    0.44 6  249 196 
 CHI  HN I        1416 32.60        60.8 0.54            113            249 196 
 ROSC BZ EP   1   1415 56.82                             117    0.69 6  254 212 
 HEL  HZ EP   1   1415 58.83                             115    0.37 6  276 256 
 HEL  HN I        1416 37.50        35.6 0.24            110            276 256 
 RREF HZ EP   1   1416  4.86                             111    0.59 5  324 230 
 RREF HN ES   1   1416 40.99                             111    0.46 5  324 230 
 RREF HZ I        1416 45.85        39.2 0.28            107            324 230 
 SJA  SZ EP   1   1416 13.13                             106    0.72 4  400 194 
                                                                                
