 2016  216 1210 56.3 L   6.777 -73.130145.6  RSN  7 0.5 1.5LRSN                1
 GAP=140        1.08       4.8     4.9  7.8 -0.1524E+00  0.1044E+02  0.1397E+01E
 Epicentro: LOS SANTOS - SANTANDER                                             3
 ACTION:UPD 16-03-04 21:26 OP:rebc STATUS:               ID:20160216121056 L   I
 OLDACT:REG 16-02-16 21:35 OP:ak   STATUS:               ID:20160216120750     3
 2016-02-16-1207-50M.COL___315                                                 6
 STAT SP IPHASW D HRMM SECON CODA AMPLIT PERI AZIMU VELO AIN AR TRES W  DIS CAZ7
 BAR2 EZ EP   1   1211 15.73                             171   -0.16 7 21.3 196 
 BAR2 EZ ES       1211 31.35                             171    0.1910 21.3 196 
 BAR2 EZ I        1211 33.09         5.9 0.56            168           21.3 196 
 BRR  HZ EP       1211 17.96                             152    0.3510 73.9 300 
 BRR  HN ES       1211 34.51                             152    0.3010 73.9 300 
 PAM  EZ EP   1   1211 18.79                             150    0.22 7 78.3  37 
 PAM  EN ES       1211 35.35                             150   -0.5810 78.3  37 
 PAM  EZ I        1211 37.90         5.6 0.42            156           78.3  37 
 RUS  HZ EP       1211 20.31                             144    0.4410 98.0 177 
 RUS  HE ES       1211 38.33                             144    0.0910 98.0 177 
 RUS  HZ I        1211 42.14         1.6 0.18            145           98.0 177 
 PTB  HZ EP       1211 22.43                             132   -0.96 9  149 260 
 PTB  HN ES       1211 43.91                             132   -0.59 9  149 260 
 PTB  HZ I        1211 49.86         5.1 0.40            132            149 260 
 SPBC HZ EP   2   1211 24.80                             129    0.07 5  162 220 
 SPBC HN ES       1211 46.84                             129   -0.04 9  162 220 
 SPBC HZ I        1211 54.00         4.8 0.27            129            162 220 
 ZAR  HZ EP   2   1211 29.61                             122    0.59 4  207 293 
 ZAR  HE ES       1211 55.10                             122    0.58 8  207 293 
 ZAR  HZ I        1212  0.70         4.8 0.38            123            207 293 
                                                                                
