 2015  516 1346 28.3 L   6.794 -73.146150.6  RSN  5 0.3 1.8LRSN                1
 GAP=201        0.83       6.1     9.3  8.1  0.3453E+02  0.1878E+02 -0.1209E+02E
 Epicentro: LOS SANTOS - SANTANDER                                             3
 ACTION:UPD 15-09-10 22:04 OP:cam  STATUS:               ID:20150516134628 L   I
 OLDACT:UP  15-05-16 23:40 OP:drio STATUS:               ID:20150516133749     3
 OLDACT:REG 15-05-16 20:35 OP:drio STATUS:               ID:20150516133749     3
 2015-05-16-1337-49M.COL___280                                                 6
 STAT SP IPHASW D HRMM SECON CODA AMPLIT PERI AZIMU VELO AIN AR TRES W  DIS CAZ7
 BAR2 EZ ES       1347  3.93                             171   -0.3510 22.6 190 
 BAR2 EZ I        1347  6.60        12.6 0.36            164           22.6 190 
 BRR  HZ EP       1346 50.48                             153    0.4610 71.5 299 
 BRR  HN ES       1347  7.38                             153    0.4410 71.5 299 
 BRR  HZ I        1347  8.98        10.3 0.12            148           71.5 299 
 RUS  HN ES       1347 11.28                             145   -0.0910 99.9 176 
 ZAR  HZ EP       1347  1.04                             123   -0.08 9  204 292 
 ZAR  HN ES       1347 26.41                             123   -0.28 9  204 292 
 ZAR  HZ I        1347 33.71         6.3 0.66            122            204 292 
 SML  HN ES       1347 33.82                             118   -0.31 8  244 335 
                                                                                
