 2012  416 1132 35.0 L   6.832 -73.206132.4  RSN  7 0.2 2.0LRSN                1
 GAP=128        0.52       2.0     2.6  3.7  0.4130E+00  0.2408E+01 -0.5373E+00E
 Epicentro: ZAPATOCA - SANTANDER                                               3
 ACTION:UP  12-07-05 11:53 OP:tino STATUS:               ID:20120416113235 L   I
 2012-04-16-1130-00M.COL___190                                                 6
 STAT SP IPHASW D HRMM SECON CODA AMPLIT PERI AZIMU VELO AIN AR TRES W  DIS CAZ7
 BAR2 SZ EP       1132 53.29                             168     0.110   27 174 
 BAR2 SZ ES   1   1133  7.01                             168    -0.3 7   27 174 
 BAR2 SZ I        1133  9.88        23.7 0.47                            27 174 
 BRR  HZ EP       1132 54.44                             153     0.110   64 299 
 BRR  HZ I        1132 54.74        43.7 0.12                            64 299 
 BRR  HE ES       1133  9.66                             153     0.310   64 299 
 PAM  SZ EP   1   1132 56.22                             148     0.2 7   79  45 
 PAM  SN ES   1   1133 12.32                             148     0.0 7   79  45 
 RUS  HZ EP       1132 57.79                             140     0.010  105 173 
 RUS  HE ES       1133 15.48                             140    -0.110  105 173 
 RUS  HZ I        1133 17.79         8.8 0.44                           105 173 
 OCA  SZ EP       1133  1.78                             127    -0.2 9  156 355 
 OCA  SZ ES       1133 22.73                             127    -0.2 9  156 355 
 ZAR  HZ EP   1   1133  5.72                             120    -0.1 6  197 292 
 ZAR  HN ES   1   1133 29.59                             120    -0.3 6  197 292 
 ZAR  HZ I        1133 33.92        12.6 0.32                           197 292 
 HEL  HZ EP   1   1133 14.17                             112     0.2 6  266 255 
 HEL  HE ES   1   1133 44.41                             112     0.1 6  266 255 
 HEL  HZ I        1133 58.99         4.8 0.32                           266 255 
                                                                                
