 2017  716 1650 48.8 L   6.789 -73.142144.5  RSN 18 0.4 2.3LRSN                1
 GAP= 66        0.98       3.1     2.6  4.6  0.4366E+00  0.2383E+01  0.1447E+01E
 Epicentro: LOS SANTOS - SANTANDER                                             3
 ACTION:UPD 17-08-30 15:33 OP:rebc STATUS:               ID:20170716165048 L   I
 OLDACT:REG 17-07-16 20:43 OP:lv   STATUS:               ID:20170716164251     3
 2017-07-16-1648-00M.COL___395                                                 6
 STAT SP IPHASW D HRMM SECON CODA AMPLIT PERI AZIMU VELO AIN AR TRES W  DIS CAZ7
 BAR2 EZ EP       1651  8.10                             171   -0.1210 22.2 191 
 BAR2 EZ ES       1651 23.48                             171    0.0910 22.2 191 
 BAR2 EZ I        1651 25.21        36.0 0.29            170           22.2 191 
 BRR  HZ IP     C 1651 10.02                             152    0.1910 72.1 299 
 BRR  HE ES       1651 26.49                             152    0.2310 72.1 299 
 BRR  HZ I        1651 31.52        41.1 0.05            151           72.1 299 
 PAM  EZ EP       1651 10.91                             150    0.0210 78.1  39 
 PAM  EN ES       1651 28.25                             150    0.1110 78.1  39 
 PAM  EZ I        1651 30.70        19.6 0.08            154           78.1  39 
 RUS  HZ EP       1651 12.39                             144    0.0910 99.3 176 
 RUS  HN ES       1651 30.69                             144    0.0410 99.3 176 
 RUS  HZ I        1651 32.13        20.1 0.24            146           99.3 176 
 PTB  HZ EP   9   1651 14.73                             132   -0.91 0  148 259 
 PTB  HN ES       1651 36.09                                    0.40 9  148 259 
 PTB  HZ I        1651 41.43        18.1 0.17            132            148 259 
 TAM  HZ EP       1651 16.23                             130   -0.05 9  154 105 
 TAM  HN ES       1651 37.73                             130   -0.01 9  154 105 
 SPBC HZ EP       1651 17.19                             129    0.09 9  162 219 
 SPBC HN ES       1651 39.25                             129    0.06 9  162 219 
 SPBC HZ I        1651 42.02        49.8 0.23            130            162 219 
 YPLC HZ EP       1651 18.27                             126   -0.07 9  176 151 
 YPLC HN ES       1651 40.95                             126   -0.46 9  176 151 
 ZAR  HZ EP       1651 21.29                             122    0.08 9  205 292 
 ZAR  HN ES       1651 46.07                             122   -0.45 9  205 292 
 ZAR  HZ I        1651 53.45        29.1 0.34            123            205 292 
 NOR  HZ EP       1651 24.25                             118   -0.13 8  234 235 
 NOR  HN ES       1651 51.43                             118   -0.72 8  234 235 
 NOR  HZ I        1651 56.87        12.9 0.17            119            234 235 
 HEL  HZ EP       1651 29.96                             114    1.04 8  272 256 
 HEL  HN ES       1652  0.63                             114    0.39 8  272 256 
 HEL  HZ I        1652  6.74         6.9 0.08            115            272 256 
 URE  HZ EP       1651 29.13                             113   -0.74 7  285 292 
 URE  HN ES   4   1651 59.14                             113   -2.78 0  285 292 
 URE  HZ I        1652  3.11        15.9 0.23            114            285 292 
 GUY2CHZ EP   9   1651 34.19                             112    1.92 0  301 235 
 GUY2CHN ES       1652  7.26                                   -0.86 7  301 235 
 GUY2CHZ I        1652 15.38         8.2 0.46                           301 235 
 PTGC HZ EP   9   1651 30.94                             111   -1.48 0  307 159 
 PTGC HN ES       1652  4.59                                   -0.40 7  307 159 
 LL6C HZ EP   3   1651 33.22                             110   -1.34 2  326 358 
 ORTC HZ EP       1651 42.88                             106    0.33 6  395 216 
 ORTC HN ES       1652 24.67                             106    0.17 6  395 216 
 ORTC HZ I        1652 29.50         2.6 0.14            107            395 216 
 SJC  HZ EP   9   1651 42.05                             105   -2.39 0  410 327 
 SJC  HN ES       1652 23.90                                   -1.57 6  410 327 
 SJC  HZ I        1652 27.89         6.1 0.32            107            410 327 
 CRJC HZ EP   9   1651 48.50                             103   -2.88 0  469   3 
 CRJC HN ES       1652 36.01                                   -1.32 5  469   3 
 CRJC HZ I        1652 41.58         4.7 0.20            104            469   3 
                                                                                
