 2010  516 1000 16.8 L   6.779 -73.043148.2  RSN 11 0.4 2.8LRSN                1
 GAP=168        0.82       3.8     7.9  7.4 -0.1282E+02  0.1006E+02  0.4425E+01E
 Epicentro: LOS SANTOS - SANTANDER                                             3
 ACTION:UP  10-08-24 10:05 OP:vdl  STATUS:               ID:20100516100016 L   I
 2010-05-16-0958-44S.COL___108                                                 6
 STAT SP IPHASW D HRMM SECON CODA AMPLIT PERI AZIMU VELO AIN AR TRES W  DIS CAZ7
 BAR2 SZ IP     D 10 0 36.60                             170    -0.210   26 217 
 BAR2 SZ ES   2   10 0 51.87                             170    -0.5 5   26 217 
 BRR  HZ IP     C 10 0 39.28                             149     0.410   82 296 
 BRR  HZ I        10 0 39.64       167.1 0.11                            82 296 
 BRR  HE ES   2   10 0 56.29                             149     0.2 5   82 296 
 RUS  HZ IP     C 10 0 40.51                             145    -0.110   98 183 
 RUS  HZ I        10 0 41.67        46.8 0.10                            98 183 
 RUS  HE ES   2   10 0 59.29                             145     0.1 5   98 183 
 BRI  SZ EP   1   10 0 41.27                             143     0.4 7  107  15 
 BRI  SZ ES   2   10 0 59.86                             143     0.2 5  107  15 
 GUE  SZ EP   1   10 0 41.50                             140    -0.3 7  117   6 
 GUE  SZ ES   2   10 1  1.27                             140     0.0 5  117   6 
 GRA  SZ IP     D 10 0 42.52                             138     0.310  125  12 
 GRA  SZ ES   2   10 1  2.23                             138     0.2 5  125  12 
 OCA  SZ EP   1   10 0 45.42                             130    -0.3 7  164 349 
 OCA  SZ ES   2   10 1  7.38                             130    -0.9 5  164 349 
 OCA  SZ I        10 1 11.02        68.3 0.19                           164 349 
 CHI  HZ EP   1   10 0 54.79                             118     0.0 6  250 198 
 CHI  HN ES   2   10 1 24.76                             118     0.4 4  250 198 
 CHI  HZ I        10 1 31.93        27.9 0.53                           250 198 
 HEL  HZ EP   1   10 0 57.43                             114    -0.9 6  283 257 
 HEL  HZ I        10 1 36.49        41.2 0.96                           283 257 
 RREF BZ EP   1   10 1  4.76                             111     0.9 5  329 231 
 RREF BN ES   2   10 1 41.27                             111     0.7 3  329 231 
 RREF BZ I        10 1 50.14        43.0 0.34                           329 231 
 PRA  HZ EP   1   10 1  9.97                             107    -0.9 4  396 211 
 PRA  HN ES   2   10 1 53.53                             107     0.5 3  396 211 
 PRA  HZ I        10 1 59.05        35.6 0.43                           396 211 
                                                                                
