 2012  716 1710 50.2 L   6.784 -73.144145.9  RSN 10 0.4 2.2LRSN                1
 GAP=137        0.81       3.3     4.7  6.3 -0.1888E+01  0.4798E+01  0.4682E+01E
 Epicentro: LOS SANTOS - SANTANDER                                             3
 ACTION:UPD 12-08-14 11:45 OP:ep   STATUS:               ID:20120716171050 L   I
 2012-07-16-1710-00M.COL___197                                                 6
 STAT SP IPHASW D HRMM SECON CODA AMPLIT PERI AZIMU VELO AIN AR TRES W  DIS CAZ7
 BAR2 SZ EP       1711  9.89                             171     0.010   22 191 
 BAR2 SZ ES   1   1711 25.13                             171     0.0 7   22 191 
 BAR2 SZ I        1711 26.66        77.5 0.27            168             22 191 
 BRR  HZ EP       1711 11.76                             152     0.310   72 300 
 BRR  HN ES   1   1711 28.82                             152     0.8 7   72 300 
 PAM  SZ EP       1711 12.70                             150     0.210   79  39 
 PAM  SN ES   1   1711 29.78                             150    -0.2 7   79  39 
 RUS  HZ EP   1   1711 13.73                             144    -0.1 7   99 176 
 RUS  HN ES   1   1711 32.10                             144    -0.2 7   99 176 
 RUS  HZ I        1711 33.72        19.1 0.36            145             99 176 
 PTB  HZ EP   1   1711 16.80                             132    -0.4 7  148 260 
 PTB  HN ES   1   1711 37.51                             132    -0.7 7  148 260 
 PTB  HZ I        1711 41.39        14.0 0.11            130            148 260 
 OCA  HN ES       1711 40.65                             129    -0.3 9  162 353 
 ZAR  HN ES   2   1711 48.10                             122    -0.1 4  205 293 
 ZAR  HZ I        1711 54.75        13.8 0.15            122            205 293 
 NOR  SZ EP   1   1711 26.34                             119     0.5 6  234 235 
 NOR  SN ES   2   1711 53.97                             119     0.3 4  234 235 
 CHI  HZ EP   1   1711 27.36                             117    -0.4 6  247 195 
 CHI  HN ES   1   1711 57.26                             117     0.2 6  247 195 
 CHI  HZ I        1712  1.79         7.6 0.27            118            247 195 
 PRA  HZ EP   1   1711 43.85                             107     0.3 4  391 210 
