 2016  716 1119 48.0 L   6.732 -73.162147.8  RSN  5 0.2 1.6LRSN                1
 GAP=230        0.63       5.2     5.3  6.4  0.1862E+02 -0.6333E+00 -0.2759E+01E
 Epicentro: VILLANUEVA - SANTANDER                                             3
 ACTION:UPD 17-03-29 16:51 OP:lp   STATUS:               ID:20160716111948 L   I
 OLDACT:UP  16-07-16 21:22 OP:dani STATUS:               ID:20160716111759     3
 OLDACT:UP  16-07-16 21:22 OP:dani STATUS:               ID:20160716111759     3
 OLDACT:REG 16-07-16 19:42 OP:dani STATUS:               ID:20160716111759     3
 2016-07-16-1117-59S.COL___310                                                 6
 STAT SP IPHASW D HRMM SECON CODA AMPLIT PERI AZIMU VELO AIN AR TRES W  DIS CAZ7
 BRR  HZ EP       1120  9.86                             152    0.3110 73.6 304 
 BRR  HN ES       1120 26.12                             152   -0.2010 73.6 304 
 BRR  HZ I        1120 30.55         8.8 0.19            151           73.6 304 
 RUS  HZ EP       1120 11.55                             146    0.0710 93.3 175 
 RUS  HN ES       1120 29.76                             146   -0.0110 93.3 175 
 RUS  HZ I        1120 30.55         3.2 0.24            155           93.3 175 
 PTB  HZ EP       1120 14.46                             133   -0.45 9  145 262 
 PTB  HN ES       1120 36.06                             133    0.20 9  145 262 
 PTB  HZ I        1120 38.18         5.3 0.16            137            145 262 
 SPBC HZ EP   4   1120 16.56                             131    0.51 0  156 220 
 SPBC HN ES   4   1120 33.14                             131   -4.77 0  156 220 
 SPBC HZ I        1120 33.69         5.8 0.20            137            156 220 
 ZAR  HN ES       1120 46.34                             123    0.07 8  205 294 
 ZAR  HZ I        1120 52.17         4.8 0.22            124            205 294 
                                                                                
