 2011  716 1715  1.0 L   6.810 -73.127141.3  RSN 14 0.4 2.7LRSN                1
 GAP=138        0.70       2.6     4.2  4.3 -0.4047E+01  0.5642E+01  0.1458E+01E
 Epicentro: LOS SANTOS - SANTANDER                                             3
 ACTION:UPD 12-07-25 14:01 OP:epov STATUS:               ID:20110716171501 L   I
 2011-07-16-1712-53S.COL___132                                                 6
 STAT SP IPHASW D HRMM SECON CODA AMPLIT PERI AZIMU VELO AIN AR TRES W  DIS CAZ7
 BAR2 SZ IP     C 1715 19.91                             170   -0.1910 24.8 194 
 BAR2 SZ ES   1   1715 34.49                             170   -0.52 7 24.8 194 
 BAR2 SZ I        1715 35.70       166.6 0.31                          24.8 194 
 GIR2 SZ EP   1   1715 19.79                             167   -0.31 7 30.6 346 
 GIR2 SZ ES   1   1715 35.10                             167    0.09 7 30.6 346 
 BRR  HZ EP       1715 21.68                             151   -0.0310 72.5 297 
 BRR  HE ES   1   1715 38.13                             151    0.24 7 72.5 297 
 BRR  HZ I        1715 39.73       141.1 0.14                          72.5 297 
 PAM  SZ EP   1   1715 22.68                             151    0.09 7 75.3  39 
 PAM  SZ I        1715 23.10        66.8 0.18                          75.3  39 
 PAM  SE ES   1   1715 39.62                             151    0.18 7 75.3  39 
 RUS  HZ EP   1   1715 24.02                             143   -0.34 7  102 177 
 RUS  HN ES   1   1715 42.61                             143    0.01 7  102 177 
 RUS  HZ I        1715 44.18        91.9 0.25                           102 177 
 BRI  SZ EP   1   1715 24.41                             141    0.10 7  107  20 
 BRI  SZ ES   1   1715 42.50                             141    0.00 7  107  20 
 BRI  SZ I        1715 47.76        53.0 0.40                           107  20 
 GRA  SZ IP     D 1715 25.74                             136    0.0610  124  17 
 GRA  SZ ES   1   1715 45.30                             136    0.35 7  124  17 
 GRA  SZ I        1715 46.55        54.8 0.27                           124  17 
 OCA  SZ EP   1   1715 28.82                             129   -0.04 7  159 352 
 OCA  SZ ES   1   1715 50.45                             129   -0.16 7  159 352 
 OCA  SZ I        1715 55.00        34.7 0.24                           159 352 
 NOR  SZ EP   1   1715 35.95                             117   -0.75 6  237 235 
 CHI  HZ EP   1   1715 39.58                             116    0.98 6  250 196 
 CHI  HN ES   1   1716  8.68                             116    0.73 6  250 196 
 CHI  HZ I        1716 11.95        15.6 0.27                           250 196 
 HEL  HZ EP   1   1715 42.05                             114    0.84 6  274 256 
 HEL  HN ES   1   1716 12.76                             114    0.16 6  274 256 
 HEL  HZ I        1716 18.39        38.4 0.42                           274 256 
 GUY  SZ EP   1   1715 44.57                             111   -0.33 5  306 235 
 DBB  SZ EP   1   1715 48.11                             108   -0.39 5  341 274 
 DBB  SZ I        1716 27.70         7.0 0.26                           341 274 
 PRA  HZ EP   1   1715 53.83                             106   -0.74 4  394 210 
 PRA  HN ES   1   1716 36.54                             106    0.16 4  394 210 
 PRA  HZ I        1716 42.50        45.9 0.28                           394 210 
                                                                                
