 2012  216 1901  8.9 L   6.789 -73.145147.3  RSN  9 0.4 2.0LRSN                1
 GAP=137        0.63       4.2     4.4  5.8 -0.5165E+00  0.3770E+01  0.8293E+01E
 ACTION:UP  12-03-07 16:31 OP:epov STATUS:               ID:20120216190108 L   I
 2012-02-16-1900-00M.COL___188                                                 6
 STAT SP IPHASW D HRMM SECON CODA AMPLIT PERI AZIMU VELO AIN AR TRES W  DIS CAZ7
 BAR2 SZ EP   1   19 1 28.69                             171    0.03 7 22.1 191 
 BAR2 SZ I        19 1 28.99        21.4 0.10                          22.1 191 
 BAR2 SZ ES   2   19 1 43.84                             171   -0.26 5 22.1 191 
 GIR2 SZ EP   1   19 1 28.73                             167   -0.03 7 32.5 351 
 GIR2 SZ ES   2   19 1 43.93                             167   -0.35 5 32.5 351 
 BRR  HZ EP   1   19 1 30.44                             153    0.22 7 71.8 299 
 BRR  HZ I        19 1 30.72        30.4 0.19                          71.8 299 
 BRR  HN ES   1   19 1 47.62                             153    0.74 7 71.8 299 
 PAM  SZ EP   1   19 1 31.44                             151    0.13 7 78.3  39 
 PAM  SE ES   2   19 1 48.40                             151   -0.41 5 78.3  39 
 RUS  HZ EP   1   19 1 32.41                             144   -0.27 7 99.3 176 
 RUS  HN ES   2   19 1 51.21                             144   -0.05 5 99.3 176 
 RUS  HZ I        19 1 52.90         8.1 0.26                          99.3 176 
 PTB  HZ EP   1   19 1 35.47                             132   -0.47 7  148 259 
 PTB  HN ES   2   19 1 56.37                             132   -0.70 5  148 259 
 ZAR  HZ EP   2   19 1 41.20                             123   -0.27 4  205 292 
 ZAR  HN ES   2   19 2  6.62                             123   -0.28 4  205 292 
 ZAR  HZ I        19 2 12.36        13.0 0.25                           205 292 
 NOR  SZ EP   1   19 1 44.61                             119    0.00 6  234 235 
 NOR  SN ES   2   19 2 12.66                             119    0.16 4  234 235 
 CHI  HZ EP   1   19 1 47.24                             118    0.72 6  247 195 
 CHI  HN ES   2   19 2 15.95                             118    0.06 4  247 195 
 CHI  HZ I        19 2 24.16         3.5 0.49                           247 195 
                                                                                
