 2015  516 1422 51.3 L   6.776 -73.096149.3  RSN  5 0.4 1.7LRSN                1
 GAP=241        1.09       6.9     7.6  9.6  0.2340E+02  0.1737E+02  0.6116E+01E
 Epicentro: LOS SANTOS - SANTANDER                                             3
 ACTION:UPD 15-09-10 22:04 OP:cam  STATUS:               ID:20150516142251 L   I
 OLDACT:REG 15-05-16 20:38 OP:drio STATUS:               ID:20150516141749     3
 2015-05-16-1417-49M.COL___279                                                 6
 STAT SP IPHASW D HRMM SECON CODA AMPLIT PERI AZIMU VELO AIN AR TRES W  DIS CAZ7
 BAR2 EZ EP       1423 11.43                             171    0.0610 22.4 205 
 BAR2 EZ ES       1423 27.55                             171    0.5510 22.4 205 
 BAR2 EZ I        1423 27.77        11.7 0.18            166           22.4 205 
 BRR  HZ EP       1423 13.42                             151    0.2110 77.3 298 
 BRR  HN ES       1423 30.28                             151    0.0010 77.3 298 
 RUS  HZ EP       1423 15.25                             145    0.0210 97.7 179 
 RUS  HN ES       1423 33.16                             145   -0.7110 97.7 179 
 RUS  HZ I        1423 35.09         8.5 0.22            146           97.7 179 
 ZAR  HN ES       1423 49.94                             122   -0.67 8  210 292 
 ZAR  HZ I        1424  3.89         2.8 0.32            119            210 292 
 NOR  HN ES       1423 56.40                             119    0.53 8  238 236 
                                                                                
