 2013  716 1503 46.5 L   6.876 -73.311143.6  RSN  4 0.3 1.9LRSN                1
 GAP=251        0.70       4.4     9.5  6.1 -0.2800E+02 -0.1571E+02  0.5433E+01E
 Epicentro: BETULIA - SANTANDER                                                3
 ACTION:UPD 13-08-12 10:38 OP:ep   STATUS:               ID:20130716150346 L   I
 OLDACT:REG 13-07-16 15:51 OP:nd   STATUS:               ID:20130716145959     3
 2013-07-16-1459-59M.COL___266                                                 6
 STAT SP IPHASW D HRMM SECON CODA AMPLIT PERI AZIMU VELO AIN AR TRES W  DIS CAZ7
 BRR  HZ EP     C 15 4  6.51                             159    0.1010 51.1 300 
 BRR  HN ES       15 4 21.86                             159   -0.0810 51.1 300 
 BRR  HZ I        15 4 24.24        17.9 0.30            139           51.1 300 
 PTB  HZ EP       15 4 11.43                             135   -0.4610  132 254 
 PTB  HN ES       15 4 32.05                             135    0.3510  132 254 
 PTB  HZ I        15 4 34.63        12.1 0.16            123            132 254 
 NOR  HZ EP       15 4 21.24                             119    0.13 8  225 230 
 NOR  HN ES       15 4 47.93                             119   -0.17 8  225 230 
 NOR  HZ I        15 4 54.36         6.8 0.28            113            225 230 
 SML  HZ EP       15 4 21.81                             119    0.41 8  229 339 
 SML  HN ES       15 4 48.35                             119   -0.26 8  229 339 
 SML  HZ I        15 4 59.56         7.3 0.10            111            229 339 
                                                                                
