 2013  416 1319 46.0 L   6.804 -73.149144.0  RSN  9 0.5 2.6LRSN                1
 GAP=149        1.30       4.6     5.9  7.7 -0.6471E+01  0.6947E+01  0.5314E+01E
 Epicentro: LOS SANTOS - SANTANDER                                             3
 ACTION:UPD 13-05-22 14:38 OP:EP   STATUS:               ID:20130416131946 L   I
 2013-04-16-1318-50M.COL___176                                                 6
 STAT SP IPHASW D HRMM SECON CODA AMPLIT PERI AZIMU VELO AIN AR TRES W  DIS CAZ7
 BAR2 SZ EP       1320  5.48                             170    0.0610 23.7 189 
 BAR2 SZ ES       1320 19.93                             170   -0.6510 23.7 189 
 BAR2 SZ I        1320 21.86        91.9 0.18            171           23.7 189 
 BRR  HZ EP       1320  7.39                             152    0.4610 70.7 298 
 BRR  HE ES       1320 24.32                             152    1.0610 70.7 298 
 BRR  HE I        1320 27.97       114.5 0.18            151           70.7 298 
 PAM  SZ EP       1320  8.55                             151    0.5310 77.2  40 
 PAM  SN ES       1320 25.05                             151   -0.1410 77.2  40 
 PAM  SZ I        1320 27.34        26.9 0.50            153           77.2  40 
 CAPV BZ EP       1320 13.34                             131    0.11 9  149  38 
 OCA  HN ES       1320 35.41                             129   -0.66 9  160 353 
 OCA  HN I        1320 40.19       118.5 0.36            131            160 353 
 ZAR  HZ EP   1   1320 18.46                             122    0.18 6  204 292 
 ZAR  HN ES       1320 43.27                             122   -0.19 9  204 292 
 NOR  HZ EP       1320 21.99                             118    0.37 8  235 234 
 NOR  HN ES       1320 48.86                             118   -0.55 8  235 234 
 NOR  HZ I        1320 55.55        15.0 0.22            119            235 234 
 SML  HZ EP       1320 21.52                             117   -0.94 8  243 335 
 SML  HN ES   4   1320 50.22                             117   -0.69 0  243 335 
 CHI  HZ EP       1320 23.89                             117    0.25 8  249 195 
 CHI  HN ES       1320 52.61                             117   -0.38 8  249 195 
                                                                                
