 2011  216 1016 40.4 L   6.812 -73.228132.9  RSN  8 0.4 1.5LRSN                1
 GAP=147        0.97       5.2    14.8  9.9 -0.3741E+02  0.8369E+02 -0.1964E+02E
 Epicentro: ZAPATOCA - SANTANDER                                               3
 ACTION:UP  11-03-28 15:08 OP:jfem STATUS:               ID:20110216101640 L   I
 2011-02-16-1015-05S.COL___136                                                 6
 STAT SP IPHASW D HRMM SECON CODA AMPLIT PERI AZIMU VELO SNR AR TRES W  DIS CAZ7
 BTL  SZ IP       1016 58.52                             174     0.210   13 340 
 BAR2 SZ IP       1016 58.45                             169    -0.110   25 169 
 BAR2 SZ ES   1   1017 13.09                             169     0.4 7   25 169 
 BAR2 SZ I        1017 14.83        12.2 0.17                            25 169 
 GIR2 SZ EP       1016 58.37                             167    -0.110   30   7 
 RUS  HZ EP   1   1017  2.98                             140    -0.1 7  103 171 
 RUS  HN ES   1   1017 20.04                             140    -0.8 7  103 171 
 RUS  HZ I        1017 22.99         3.7 0.40                           103 171 
 GRA  SZ IP       1017  5.18                             133     0.510  128  22 
 GRA  SZ I        1017  6.51         5.7 0.12                           128  22 
 GRA  SZ ES   3   1017 23.62                             133     0.0 2  128  22 
 OCA  SZ EP       1017  7.06                             127    -0.5 9  158 356 
 OCA  SZ I        1017 38.65         4.9 0.18                           158 356 
 NOR  SZ EP       1017 14.66                             116    -0.1 8  228 233 
 CHI  HZ EP       1017 17.57                             114     0.2 8  248 193 
 CHI  HN ES   2   1017 46.99                             114     0.9 4  248 193 
 CHI  HZ I        1017 53.64         1.9 0.30                           248 193 
                                                                                
