 2015  416 1345 33.6 L   6.805 -73.148147.7  RSN  9 0.4 2.3LRSN                1
 GAP=136        0.95       3.5     3.9  5.7 -0.4341E+00  0.6673E+01 -0.2333E+01E
 Epicentro: LOS SANTOS - SANTANDER                                             3
 ACTION:UPD 15-06-03 16:55 OP:cam  STATUS:               ID:20150416134533 L   I
 OLDACT:UP  15-04-17 04:11 OP:mh   STATUS:               ID:20150416133748     3
 OLDACT:UP  15-04-17 04:11 OP:mh   STATUS:               ID:20150416133748     3
 OLDACT:REG 15-04-16 21:28 OP:spq  STATUS:               ID:20150416133748     3
 2015-04-16-1337-48M.COL___263                                                 6
 STAT SP IPHASW D HRMM SECON CODA AMPLIT PERI AZIMU VELO AIN AR TRES W  DIS CAZ7
 BAR2 EZ IP     C 1345 53.63                             171    0.1210 23.8 189 
 BAR2 EZ ES       1346  9.09                             171    0.0910 23.8 189 
 BAR2 EZ I        1346  9.97        58.9 0.16            169           23.8 189 
 BRR  HZ IP       1345 55.42                             153    0.4510 70.7 298 
 BRR  HN ES       1346 12.34                             153    0.7410 70.7 298 
 BRR  HZ I        1346 15.72        36.1 0.28            150           70.7 298 
 PAM  SZ EP       1345 56.08                             151    0.0310 77.2  40 
 PAM  SN ES       1346 13.35                             151   -0.1710 77.2  40 
 PAM  SZ I        1346 13.97        18.6 0.20            155           77.2  40 
 RUS  HZ EP       1345 57.61                             144   -0.0110  101 176 
 RUS  HN ES       1346 15.86                             144   -0.4610  101 176 
 RUS  HZ I        1346 18.05        12.7 0.24            146            101 176 
 PTB  HZ EP   1   1346  0.26                             132   -0.49 7  148 259 
 PTB  HN ES       1346 21.17                             132   -0.72 9  148 259 
 PTB  HZ I        1346 27.96        19.5 0.28            132            148 259 
 ZAR  HZ EP       1346  6.12                             123   -0.04 9  204 292 
 ZAR  HN ES       1346 31.28                             123   -0.25 9  204 292 
 ZAR  HZ I        1346 37.58        23.6 0.42            123            204 292 
 NOR  HZ EP       1346  9.66                             119    0.17 8  235 234 
 NOR  HN ES       1346 37.97                             119    0.52 8  235 234 
 NOR  HZ I        1346 43.14        15.5 0.14            120            235 234 
 SML  HZ EP       1346 10.40                             118    0.09 8  243 335 
 SML  HN ES       1346 38.54                             118   -0.37 8  243 335 
 SML  HZ I        1346 43.43        18.8 0.28            119            243 335 
 GUY2CHZ EP   4   1346 18.80                             113    1.46 0  301 235 
 GUY2CHN ES   4   1346 56.02                             113    4.59 0  301 235 
 GUY2CHZ I        1347  0.11         8.5 0.23                           301 235 
                                                                                
