 2013  616 1403 50.1 L   6.781 -73.166152.0  RSN  7 0.3 1.8LRSN                1
 GAP=180        0.74       4.1     5.6  6.1  0.1163E+02 -0.2000E+01 -0.6794E+01E
 Epicentro: LOS SANTOS - SANTANDER                                             3
 ACTION:UPD 14-01-08 09:55 OP:ep   STATUS:               ID:20130616140350 L   I
 OLDACT:REG 13-06-16 17:42 OP:cam  STATUS:               ID:20130616135959     3
 2013-06-16-1359-59M.COL___261                                                 6
 STAT SP IPHASW D HRMM SECON CODA AMPLIT PERI AZIMU VELO AIN AR TRES W  DIS CAZ7
 BAR2 SZ EP   1   14 4 10.51                             172    0.03 7 21.0 185 
 BAR2 SZ ES   1   14 4 25.81                             172   -0.54 7 21.0 185 
 BAR2 SZ I        14 4 26.74        17.9 0.20            177           21.0 185 
 GIR2 SZ EP   1   14 4 10.39                             167   -0.22 7 33.0 355 
 BRR  HZ EP   1   14 4 12.21                             154    0.29 7 70.3 301 
 BRR  HN ES       14 4 29.46                             154    0.5510 70.3 301 
 BRR  HZ I        14 4 33.09         9.5 0.38            153           70.3 301 
 RUS  HZ EP       14 4 14.24                             146   -0.1510 98.7 175 
 RUS  HN ES       14 4 33.51                             146    0.2210 98.7 175 
 RUS  HZ I        14 4 34.70         6.6 0.38            151           98.7 175 
 PTB  HZ EP       14 4 17.44                             134    0.03 9  145 259 
 PTB  HN ES   1   14 4 38.09                             134   -0.58 7  145 259 
 PTB  HZ I        14 4 39.94         5.8 0.14            136            145 259 
 ZAR  HE ES   1   14 4 48.48                             124    0.07 6  203 293 
 SML  HZ EP   1   14 4 27.43                             119    0.20 6  245 336 
 SML  HN ES       14 4 55.82                             119   -0.34 8  245 336 
 SML  HZ I        14 5  5.11         8.9 0.26            119            245 336 
                                                                                
