 2013  316 1631 16.8 L   6.786 -73.150144.5  RSN  7 0.3 1.9LRSN                1
 GAP=137        0.60       3.6     3.3  5.3 -0.1704E+01  0.4748E+01 -0.1008E+01E
 Epicentro: LOS SANTOS - SANTANDER                                             3
 ACTION:UPD 13-04-09 14:02 OP:ep   STATUS:               ID:20130316163116 L   I
 2013-03-16-1630-00M.COL___244                                                 6
 STAT SP IPHASW D HRMM SECON CODA AMPLIT PERI AZIMU VELO AIN AR TRES W  DIS CAZ7
 BAR2 SZ EP   1   1631 36.09                             171   -0.16 7 21.7 190 
 BAR2 SZ ES   1   1631 51.40                             171   -0.02 7 21.7 190 
 BAR2 SZ I        1631 53.90        32.6 0.32            169           21.7 190 
 BRR  HZ EP       1631 38.03                             152    0.1910 71.6 300 
 BRR  HZ ES   1   1631 54.63                             152    0.39 7 71.6 300 
 PAM  SZ EP       1631 38.84                             150   -0.1410 78.9  39 
 PAM  SN ES       1631 56.30                             150    0.0310 78.9  39 
 PAM  SZ I        1631 58.32        12.2 0.56            156           78.9  39 
 RUS  HZ EP   2   1631 40.01                             144   -0.32 5 99.1 176 
 RUS  HN ES   2   1631 59.04                             144    0.37 5 99.1 176 
 RUS  HZ I        1632  0.08         5.7 0.28            147           99.1 176 
 PTB  HZ EP   2   1631 43.67                             132    0.06 5  147 259 
 PTB  HN ES   1   1632  3.91                             132   -0.60 7  147 259 
 PTB  HZ I        1632 11.42        17.3 0.58            132            147 259 
 OCA  HN ES   1   1632  6.96                             129   -0.31 7  162 353 
 ZAR  HZ EP   1   1631 49.77                             122    0.58 6  204 293 
 ZAR  HN ES   1   1632 14.40                             122   -0.05 6  204 293 
 ZAR  HZ I        1632 20.75         7.8 0.18            123            204 293 
                                                                                
