 2014  216 1534 41.4 L   6.818 -73.183142.1  RSN  8 0.3 1.9LRSN                1
 GAP=131        0.48       1.9     3.0  4.6 -0.1966E+01  0.6114E+01  0.1272E+00E
 Epicentro: ZAPATOCA - SANTANDER                                               3
 ACTION:UPD 14-03-10 08:10 OP:ep   STATUS:               ID:20140216153441 L   I
 OLDACT:UP  14-02-16 17:21 OP:mh   STATUS:               ID:20140216153000     3
 OLDACT:REG 14-02-16 14:33 OP:mh   STATUS:               ID:20140216153000     3
 2014-02-16-1530-00M.COL___212                                                 6
 STAT SP IPHASW D HRMM SECON CODA AMPLIT PERI AZIMU VELO AIN AR TRES W  DIS CAZ7
 PAM  SZ EP   1   1535  3.71                             150    0.38 7 78.5  43 
 PAM  SN ES       1535 20.22                             150   -0.1910 78.5  43 
 PAM  SZ I        1535 22.94        14.1 0.39            157           78.5  43 
 RUS  HZ EP   1   1535  4.73                             142   -0.28 7  103 174 
 RUS  HN ES   1   1535 23.65                             142    0.26 7  103 174 
 RUS  HZ I        1535 25.04         6.2 0.22            147            103 174 
 PTB  HZ EP   1   1535  7.86                             132    0.08 7  144 258 
 PTB  HN ES   1   1535 28.26                             132   -0.07 7  144 258 
 PTB  HZ I        1535 35.33         8.1 0.22            132            144 258 
 OCA  HN ES   1   1535 30.87                             129   -0.04 7  158 355 
 OCA  HZ I        1535 34.15         8.4 0.30            132            158 355 
 SPBC HE ES   1   1535 31.47                             128   -0.04 7  162 217 
 SPBC HZ I        1535 36.25        11.3 0.13            130            162 217 
 NOR  HZ EP   1   1535 16.90                             118    0.17 6  233 233 
 NOR  HE ES   1   1535 44.46                             118    0.20 6  233 233 
 NOR  HZ I        1535 50.70         5.7 0.13            120            233 233 
 SML  HZ EP   1   1535 17.33                             117   -0.14 6  240 336 
 SML  HN ES   1   1535 45.60                             117    0.02 6  240 336 
 SML  HZ I        1535 49.85         8.1 0.06            120            240 336 
 PRA  HZ EP       1535 35.04                             106    0.23 6  392 209 
 PRA  HN ES   1   1536 15.64                             106   -0.80 4  392 209 
 PRA  HZ I        1536 22.77         5.1 0.16            108            392 209 
                                                                                
