 2011 1216 1026 48.1 L   5.869 -73.644125.3  RSN 21 0.3 3.2LRSN                1
 GAP= 77        0.65       1.9     2.4  4.6 -0.1857E+01  0.2177E+01 -0.1105E+01E
 Epicentro: PUENTE NACIONAL - SANTANDER                                        3
 ACTION:UPD 12-07-13 16:16 OP:ep   STATUS:               ID:20111216102648 L   I
 2011-12-16-1020-00M.COL___186                                                 6
 STAT SP IPHASW D HRMM SECON CODA AMPLIT PERI AZIMU VELO AIN AR TRES W  DIS CAZ7
 RUS  HZ IP     D 1027  7.12                             152   -0.1110 62.2  88 
 RUS  HN ES   2   1027 22.00                             152   -0.16 5 62.2  88 
 RUS  HZ I        1027 23.04       252.2 0.30                          62.2  88 
 CTAU SZ IP       1027  9.16                             144    0.3510 86.0 211 
 CTAU SZ ES   2   1027 24.55                             144   -0.42 5 86.0 211 
 BAR2 SZ IP       1027  9.15                             141    0.0610 94.9  33 
 BAR2 SZ ES   1   1027 25.33                             141   -0.13 7 94.9  33 
 BAR2 SZ I        1027 27.19      1105.8 0.34                          94.9  33 
 CTAB SZ IP       1027 11.70                             135    0.7910  113 213 
 CTAB SZ ES   2   1027 29.03                             135    0.32 5  113 213 
 ROSC BZ IP     C 1027 13.41                             130    0.54 9  136 213 
 ROSC BN ES   2   1027 32.17                             130   -0.03 5  136 213 
 ROSC BZ I        1027 38.33       182.0 0.44                           136 213 
 BRR  HZ EP       1027 12.43                             129    0.01 9  137 357 
 BRR  HZ I        1027 38.19       232.4 0.20                           137 357 
 CHI  HZ IP     C 1027 12.66                             129   -0.35 9  137 184 
 BRR  HN ES   2   1027 31.33                             129   -0.07 5  137 357 
 CHI  HN ES       1027 32.28                             129   -0.17 9  137 184 
 CHI  HZ I        1027 34.90       194.2 0.34                           137 184 
 NOR  SZ EP   1   1027 12.18                             129   -0.58 7  140 256 
 NOR  SN ES   1   1027 31.72                             129   -0.28 7  140 256 
 GIR2 SZ IP     C 1027 13.24                             128    0.09 9  143  20 
 GIR2 SZ ES   2   1027 32.61                             128   -0.09 5  143  20 
 YOP  SZ EP   1   1027 13.17                             127   -0.36 7  147 113 
 YOP  SZ I        1027 14.33       124.3 0.45                           147 113 
 YOP  SN ES   2   1027 33.97                             127    0.61 5  147 113 
 CVER SZ EP   1   1027 15.28                             125    0.34 7  156 198 
 PAM  SZ EP   1   1027 18.54                             119   -0.21 7  193  33 
 PAM  SN ES   2   1027 42.77                             119    0.10 4  193  33 
 VIL  SZ EP   1   1027 17.74                             119   -0.67 6  194 182 
 VIL  SN ES   2   1027 41.74                             119   -0.32 4  194 182 
 VIL  SZ I        1027 46.75       117.2 0.42                           194 182 
 GUY  SZ EP   2   1027 20.32                             117    0.19 4  206 250 
 GUY  SZ I        1027 23.14       179.4 0.58                           206 250 
 GUY  SN ES   1   1027 45.23                             117    0.11 6  206 250 
 HEL  HZ EP       1027 20.57                             117   -0.01 8  212 280 
 HEL  HN ES   2   1027 45.78                             117   -0.14 4  212 280 
 HEL  HZ I        1027 52.08       209.4 0.40                           212 280 
 RREF HZ EP   1   1027 21.11                             116   -0.40 6  217 241 
 RREF HN ES   2   1027 47.92                             116    0.35 4  217 241 
 RREF HZ I        1027 51.19       121.4 0.33                           217 241 
 TOL  SZ EP   1   1027 22.72                             114   -0.26 6  234 233 
 TOL  SZ ES   2   1027 50.09                             114   -0.11 4  234 233 
 OCA  SZ EP   1   1027 26.34                             111    0.13 6  264   8 
 OCA  SZ I        1028  6.19       145.1 0.43                           264   8 
 PRA  HZ EP   2   1027 26.64                             110   -0.66 4  275 210 
 PRA  HE ES   2   1027 57.17                             110   -0.72 4  275 210 
 SJA  SZ EP   1   1027 29.15                             109    0.17 5  289 187 
 SJA  SZ ES   2   1028  1.19                             109    0.32 4  289 187 
 COD  HZ EP   1   1027 47.66                             100   -0.21 4  450   3 
 COD  HN ES   2   1028 34.68                             100    0.19 3  450   3 
 COD  HZ I        1028 50.91        64.5 0.46                           450   3 
                                                                                
