 2014  916 1139 56.1 L   6.777 -73.160160.1  RSN  4 0.3 1.4LRSN                1
 GAP=284        0.70       6.6     7.9  8.2 -0.5265E+01 -0.1511E+02 -0.6073E+01E
 Epicentro: LOS SANTOS - SANTANDER                                             3
 ACTION:UPD 14-10-03 23:05 OP:nd   STATUS:               ID:20140916113956 L   I
 OLDACT:REG 14-09-16 21:44 OP:spq  STATUS:               ID:20140916113819     3
 2014-09-16-1138-19M.COL___254                                                 6
 STAT SP IPHASW D HRMM SECON CODA AMPLIT PERI AZIMU VELO AIN AR TRES W  DIS CAZ7
 BRR  HZ EP       1140 19.23                             155    0.3910 71.1 301 
 BRR  HE ES       1140 36.44                             155   -0.1110 71.1 301 
 BRR  HZ I        1140 41.45         8.5 0.33            156           71.1 301 
 PTB  HZ EP   1   1140 23.75                             135   -0.37 7  146 260 
 PTB  HE ES   1   1140 45.61                             135   -0.35 7  146 260 
 PTB  HZ I        1140 49.56         1.4 0.12            138            146 260 
 ZAR  HN ES       1140 55.90                             125    0.37 9  204 293 
 ZAR  HZ I        1140 58.22         2.1 0.08            129            204 293 
 SML  HZ EP   1   1140 33.61                             120   -0.17 6  245 336 
 SML  HE ES   1   1141  2.76                             120   -0.38 6  245 336 
                                                                                
