 2015  216 1739 11.3 L   7.060 -73.415 42.2  RSN  8 0.4 2.1LRSN                1
 GAP=142        1.10       3.3     2.5  7.1  0.5246E+00  0.1275E+01  0.4787E+01E
 Epicentro: SAN VICENTE DE CHUCURI - SANTANDER                                 3
 ACTION:UPD 15-04-30 21:26 OP:nd   STATUS:               ID:20150216173911 L   I
 OLDACT:UP  15-02-16 21:39 OP:fm   STATUS:               ID:20150216173745     3
 OLDACT:REG 15-02-16 19:47 OP:fm   STATUS:               ID:20150216173745     3
 2015-02-16-1737-45M.COL___305                                                 6
 STAT SP IPHASW D HRMM SECON CODA AMPLIT PERI AZIMU VELO AIN AR TRES W  DIS CAZ7
 BRR  HZ EP       1739 19.51                             134    0.2010 33.2 279 
 BRR  HN ES       1739 25.81                             134    0.2710 33.2 279 
 BRR  HZ I        1739 26.39       112.3 0.14            127           33.2 279 
 BAR2 EZ EP       1739 22.11                             114   -0.0510 57.8 154 
 BAR2 EZ ES       1739 30.24                             114   -0.3710 57.8 154 
 BAR2 EZ I        1739 31.65        67.7 0.34            105           57.8 154 
 PAM  SZ EP     D 1739 25.51                             102   -0.1510 84.9  69 
 PAM  SE ES       1739 36.48                             102   -0.3510 84.9  69 
 PAM  SZ I        1739 37.89       122.5 0.16             98           84.9  69 
 PTB  HZ EP       1739 30.08                              94   -0.3710  129 243 
 PTB  HN ES       1739 44.47                              94   -0.8910  129 243 
 RUS  HZ EP       1739 32.62                              93    0.9110  134 164 
 RUS  HN ES       1739 48.08                              93    0.4710  134 164 
 ZAR  HZ EP       1739 35.42                              92    0.34 9  166 287 
 ZAR  HN ES       1739 53.85                              92    0.24 9  166 287 
 ZAR  HZ I        1739 55.48        23.4 0.50             92            166 287 
 SPBC HN ES   1   1739 54.64                              92   -0.35 7  172 205 
 SPBC HZ I        1740  4.83        13.2 0.28             92            172 205 
 NOR  HZ EP       1739 42.93                              91   -0.17 8  231 224 
 NOR  HN ES       1740  8.08                              91    0.21 8  231 224 
                                                                                
