 2017  916 1838 49.8 L   6.772 -73.070144.0  RSN  4 0.2 1.3LRSN                1
 GAP=243        0.44       3.2     3.8  4.5  0.2863E+01  0.5700E+01  0.3766E+01E
 Epicentro: LOS SANTOS - SANTANDER                                             3
 ACTION:UPD 17-10-05 19:13 OP:rebc STATUS:               ID:20170916183849 L   I
 OLDACT:REG 17-09-16 21:30 OP:dnl  STATUS:               ID:20170916183742     3
 2017-09-16-1838-00M.COL___448                                                 6
 STAT SP IPHASW D HRMM SECON CODA AMPLIT PERI AZIMU VELO AIN AR TRES W  DIS CAZ7
 BAR2 EZ EP       1839  9.18                             170   -0.0610 23.4 212 
 BAR2 EZ ES       1839 24.33                             170   -0.0610 23.4 212 
 BAR2 EZ I        1839 25.62         5.0 0.38            164           23.4 212 
 BRR  HZ EP   2   1839 11.07                             149   -0.24 5 80.1 298 
 BRR  HN ES       1839 28.18                             149    0.1110 80.1 298 
 BRR  HZ I        1839 31.92         8.1 0.42            146           80.1 298 
 RUS  HZ EP   2   1839 13.16                             144   -0.00 5 97.2 181 
 RUS  HN ES       1839 31.45                             144    0.0910 97.2 181 
 RUS  HZ I        1839 33.27         2.2 0.28            144           97.2 181 
 NOR  HZ EP   2   1839 26.73                             118    0.73 4  240 236 
 NOR  HE ES       1839 54.03                             118   -0.19 8  240 236 
 NOR  HZ I        1840  0.18         1.0 0.14            117            240 236 
                                                                                
