 2015 1116 1737 41.8 L   6.840 -73.121149.9  RSN 14 0.5 2.1LRSN                1
 GAP=138        1.05       2.7     4.3  5.6 -0.1490E+01  0.7161E+01  0.7729E+00E
 Epicentro: LOS SANTOS - SANTANDER                                             3
 ACTION:UPD 15-12-28 16:11 OP:cam  STATUS:               ID:20151116173741 L   I
 OLDACT:REG 15-11-16 21:05 OP:ak   STATUS:               ID:20151116172750     3
 2015-11-16-1727-50M.COL___319                                                 6
 STAT SP IPHASW D HRMM SECON CODA AMPLIT PERI AZIMU VELO AIN AR TRES W  DIS CAZ7
 BAR2 EZ IP     D 1738  2.26                             169    0.2010 28.3 194 
 BAR2 EZ ES       1738 17.96                             169    0.1210 28.3 194 
 BAR2 EZ I        1738 22.88        19.1 0.22            167           28.3 194 
 BRR  HZ IP     D 1738  3.91                             153    0.4610 71.7 294 
 BRR  HN ES       1738 21.05                             153    0.7310 71.7 294 
 BRR  HZ I        1738 24.07        27.9 0.16            153           71.7 294 
 PAM  EZ EP       1738  4.89                             153    0.7110 72.2  40 
 PAM  EN ES       1738 21.53                             153   -0.1010 72.2  40 
 PAM  EZ I        1738 24.43        13.5 0.38            159           72.2  40 
 RUS  HZ EP       1738  6.56                             144    0.2710  105 178 
 RUS  HN ES       1738 24.70                             144   -0.6810  105 178 
 OCA  HZ EP       1738 10.00                             131   -0.08 9  156 352 
 OCA  HN ES       1738 31.57                             131   -0.56 9  156 352 
 OCA  HZ I        1738 35.67        53.7 0.34            135            156 352 
 SPBC HZ EP       1738 10.25                             129   -0.88 9  168 219 
 SPBC HN ES       1738 33.72                             129   -0.27 9  168 219 
 SPBC HZ I        1738 39.98        11.0 0.19            130            168 219 
 ZAR  HZ EP       1738 14.69                             123    0.05 9  205 291 
 ZAR  HN ES       1738 40.33                             123    0.10 9  205 291 
 ZAR  HZ I        1738 46.58        31.0 0.42            125            205 291 
 NOR  HN ES       1738 46.78                             119    0.01 8  240 234 
 SML  HZ EP       1738 17.92                             119   -0.45 8  241 334 
 SML  HN ES       1738 46.37                             119   -0.52 8  241 334 
 CHI  HZ EP       1738 20.03                             117   -0.26 8  254 196 
 CHI  HN ES       1738 50.40                             117    0.09 8  254 196 
 CHI  HZ I        1739  2.30         4.3 0.60            119            254 196 
 HEL  HZ EP   2   1738 23.64                             115    0.98 4  276 255 
 HEL  HN ES       1738 54.16                             115   -0.37 7  276 255 
 HEL  HZ I        1739  1.74         7.6 0.42            117            276 255 
 URE  HZ EP   4   1738 22.45                             114   -0.75 0  285 291 
 GUY2CHZ EP   1   1738 26.87                             113    0.70 5  306 234 
 GUY2CHE ES   2   1739  0.98                             113    0.22 4  306 234 
 GUY2CHZ I        1739 11.05        10.6 0.06                           306 234 
 MON  HZ EP   4   1738 29.09                             109   -1.83 0  353 308 
 MON  HN ES   4   1739  6.82                             109   -2.40 0  353 308 
 MON  HZ I        1739  9.31         2.1 0.59            111            353 308 
 PRA  HZ EP   1   1738 36.80                             107    0.70 4  397 210 
 PRA  HE ES       1739 18.66                             107    0.23 6  397 210 
 PRA  HZ I        1739 25.28         4.9 0.28            109            397 210 
                                                                                
