 2010 1016 1450 10.6 L   6.772 -73.113141.7  RSN 15 0.4 2.3LRSN                1
 GAP=138        1.02       4.1     7.1  7.1 -0.5661E+01  0.3986E+01  0.6469E+01E
 Epicentro: LOS SANTOS - SANTANDER                                             3
 ACTION:UP  11-02-18 11:10 OP:tino STATUS:               ID:20101016145010 L   I
 2010-10-16-1447-22S.COL___125                                                 6
 STAT SP IPHASW D HRMM SECON CODA AMPLIT PERI AZIMU VELO SNR AR TRES W  DIS CAZ7
 BAR2 SZ IP       1450 29.56                             171    -0.110   21 201 
 BAR2 SZ I        1450 45.25        37.7 0.39                            21 201 
 BTL  SZ IP       1450 29.74                             170     0.010   23 314 
 GIR2 SZ ES   1   1450 44.20                             165    -0.7 7   35 345 
 URB  SZ EP       1450 31.89                             157     1.210   57 335 
 BRR  HZ EP       1450 31.47                             150    -0.110   76 299 
 BRR  HE ES   1   1450 48.25                             150     0.3 7   76 299 
 BRR  HZ I        1450 49.65        63.3 0.14                            76 299 
 RUS  HZ EP       1450 33.48                             144    -0.210   97 178 
 RUS  HE ES   1   1450 51.94                             144     0.2 7   97 178 
 RUS  HZ I        1450 53.24        29.7 0.21                            97 178 
 GUE  SZ EP       1450 34.83                             138    -0.310  119  10 
 GRA  SZ IP       1450 35.62                             136     0.010  128  16 
 GRA  SZ ES   1   1450 55.22                             136     0.0 7  128  16 
 GRA  SZ I        1450 56.46        46.2 0.32                           128  16 
 OCA  SZ EP   1   1450 38.64                             128    -0.3 7  164 352 
 OCA  SZ I        1451  4.77        44.9 0.24                           164 352 
 YOP  SZ EP   1   1450 39.78                             126    -0.1 7  175 154 
 NOR  SZ EP   1   1450 45.83                             117    -0.4 6  236 236 
 NOR  SE ES   2   1451 13.49                             117    -0.5 4  236 236 
 CHI  HZ EP       1450 47.89                             116     0.0 8  247 196 
 CHI  HE ES   3   1451 16.68                             116    -0.2 2  247 196 
 CHI  HZ I        1451 21.14         7.5 0.62                           247 196 
 DBB  SZ EP       1450 58.16                             108    -0.2 7  343 275 
 ANIL HE ES   3   1451 38.92                             108    -0.1 2  358 225 
 PRA  HZ EP       1451  4.29                             106     0.4 6  391 210 
 PRA  HE ES   3   1451 46.31                             106     0.9 1  391 210 
                                                                                
