 2011  116 1342 58.6 L   6.802 -73.157144.3  RSN  8 0.4 2.3LRSN                1
 GAP=157        0.69       3.8     6.7  7.0 -0.9341E+01  0.1669E+02 -0.7138E+00E
 Epicentro: LOS SANTOS - SANTANDER                                             3
 ACTION:UP  11-02-08 08:41 OP:pat  STATUS:               ID:20110116134258 L   I
 2011-01-16-1340-00M.COL___136                                                 6
 STAT SP IPHASW D HRMM SECON CODA AMPLIT PERI AZIMU VELO SNR AR TRES W  DIS CAZ7
 BTL  SZ EP   1   1343 18.15                             172     0.2 7   18 316 
 BTL  SZ ES   2   1343 33.97                             172     0.9 5   18 316 
 BAR2 SZ IP       1343 18.11                             170     0.010   23 187 
 BAR2 SZ ES   2   1343 32.59                             170    -0.7 5   23 187 
 BAR2 SZ I        1343 35.91        37.5 0.44                            23 187 
 RUS  HZ EP   1   1343 22.05                             143    -0.2 7  101 175 
 RUS  HN ES   2   1343 40.61                             143    -0.1 5  101 175 
 RUS  HZ I        1343 43.78        25.1 0.40                           101 175 
 GRA  SZ EP   1   1343 23.69                             137    -0.1 7  126  18 
 GRA  SZ ES   2   1343 43.34                             137     0.0 5  126  18 
 GRA  SZ I        1343 44.51        51.1 0.31                           126  18 
 OCA  SZ EP   1   1343 26.30                             129    -0.5 7  160 354 
 OCA  SZ ES   2   1343 48.90                             129     0.1 5  160 354 
 OCA  SZ I        1343 58.23        27.1 0.29                           160 354 
 NOR  SZ EP   1   1343 34.29                             118     0.1 6  234 234 
 NOR  SN ES   2   1344  1.94                             118     0.0 4  234 234 
 CHI  HZ EP   1   1343 36.38                             117     0.1 6  249 195 
 CHI  HZ I        1343 38.49        11.6 0.14                           249 195 
 CHI  HE ES   2   1344  5.69                             117     0.1 4  249 195 
 HEL  HZ EP   1   1343 39.28                             115     0.6 6  271 256 
 HEL  HN ES   2   1344  9.02                             115    -0.8 4  271 256 
 HEL  HZ I        1344 16.69        11.7 0.35                           271 256 
                                                                                
