 2010 1116 1316 33.7 L   6.500 -73.590102.0  RSN  8 0.4 1.9LRSN                1
 GAP= 88        0.73       3.8     5.0  8.4 -0.4946E+01  0.2009E+02  0.3972E+01E
 Epicentro: SANTA HELENA DEL OPON - SANTANDER                                  3
 ACTION:UP  10-12-17 16:53 OP:REBC STATUS:               ID:20101116131633 L   I
 2010-11-16-1315-01S.COL___129                                                 6
 STAT SP IPHASW D HRMM SECON CODA AMPLIT PERI AZIMU VELO SNR AR TRES W  DIS CAZ7
 BAR2 SZ IP     C 1316 48.73                             154    -0.310   46  77 
 BAR2 SZ ES   2   1317  1.03                             154     0.0 5   46  77 
 BAR2 SZ I        1317  2.46        83.6 0.36                            46  77 
 BRR  HZ EP   1   1316 49.66                             143    -0.5 7   69 349 
 BRR  HZ I        1316 49.81        28.4 0.09                            69 349 
 BRR  HE ES   2   1317  3.79                             143     0.9 5   69 349 
 RUS  HZ EP   1   1316 52.12                             136    -0.2 7   88 140 
 RUS  HE ES   2   1317  6.88                             136     0.1 5   88 140 
 RUS  HZ I        1317  8.49        12.2 0.39                            88 140 
 GRA  SZ EP   1   1317  0.96                             115     0.2 7  176  30 
 GRA  SZ ES   2   1317 22.24                             115     0.4 4  176  30 
 GRA  SZ I        1317 25.45        15.6 0.41                           176  30 
 NOR  SZ EP   1   1317  0.36                             115    -0.2 7  176 234 
 NOR  SN ES   2   1317 21.19                             115    -0.3 4  176 234 
 CHI  HZ EP   1   1317  4.81                             110     0.2 6  207 184 
 CHI  HZ I        1317  6.34         5.6 0.43                           207 184 
 CHI  HE ES   2   1317 29.36                             110     0.6 4  207 184 
 HEL  HZ EP   1   1317  5.65                             109     0.0 6  217 261 
 HEL  HZ I        1317 33.60         5.8 0.45                           217 261 
 RREF HZ EP   1   1317 11.92                             105     0.6 6  263 228 
 RREF HE ES   2   1317 40.81                             105     0.1 4  263 228 
 RREF HZ I        1317 47.20         3.9 0.30                           263 228 
                                                                                
