 2012 1216 1508 54.2 L   6.400 -73.546115.6  RSN  8 0.3 2.1LRSN                1
 GAP= 75        0.89       2.9     3.1  5.9 -0.1911E+01  0.2742E+01  0.3656E+01E
 Epicentro: SANTA HELENA DEL OPON - SANTANDER                                  3
 ACTION:UPD 13-01-04 14:28 OP:ep   STATUS:               ID:20121216150854 L   I
 2012-12-16-1506-37M.COL___207                                                 6
 STAT SP IPHASW D HRMM SECON CODA AMPLIT PERI AZIMU VELO AIN AR TRES W  DIS CAZ7
 BAR2 SZ EP       15 9 11.21                             157    0.1510 45.5  62 
 BAR2 SZ ES       15 9 24.41                             157    0.2210 45.5  62 
 BAR2 SZ I        15 9 25.29       146.0 0.46                          45.5  62 
 RUS  HZ EP       15 9 12.90                             145   -0.3510 76.0 138 
 RUS  HE ES       15 9 27.65                             145   -0.4210 76.0 138 
 RUS  HE I        15 9 28.43        12.9 0.34                          76.0 138 
 BRR  HZ EP       15 9 13.11                             143    0.2510 80.3 347 
 BRR  HN ES       15 9 27.78                             143    0.4010 80.3 347 
 BRR  HN I        15 9 34.70        43.9 0.24                          80.3 347 
 GIR2 SZ EP       15 9 13.68                             141    0.3010 84.6  27 
 PTB  HZ EP       15 9 14.02                             135   -0.5910  102 279 
 PTB  HN ES       15 9 30.05                             135   -0.4510  102 279 
 PTB  HN I        15 9 30.22        22.3 0.18                           102 279 
 PAM  SZ EP       15 9 18.76                             126    0.00 9  140  42 
 PAM  SN ES       15 9 37.69                             126   -0.20 9  140  42 
 PAM  SN I        15 9 42.31         8.5 0.22                           140  42 
 NOR  HZ EP       15 9 21.46                             119   -0.16 9  173 238 
 NOR  HN ES       15 9 43.43                             119    0.44 9  173 238 
 NOR  HN I        15 9 46.31        20.2 0.16                           173 238 
 CHI  HZ EP       15 9 24.75                             116    0.11 9  197 186 
 CHI  HN ES       15 9 48.81                             116    0.45 9  197 186 
 CHI  HN I        15 9 51.72         9.7 0.30                           197 186 
                                                                                
