 2014  116 1307  3.1 L   6.758 -73.156138.2  RSN  8 0.5 1.8LRSN                1
 GAP=137        0.88       3.4     4.4  7.8  0.5277E+00  0.7433E+01  0.3616E+01E
 Epicentro: LOS SANTOS - SANTANDER                                             3
 ACTION:UPD 14-03-13 09:55 OP:ep   STATUS:               ID:20140116130703 L   I
 OLDACT:UP  14-01-16 11:02 OP:mh   STATUS:               ID:20140116125818d    3
 OLDACT:DUP 14-01-16 10:40 OP:nd   STATUS:               ID:20140116125818d    3
 2014-01-16-1258-17M.COL___240                                                 6
 STAT SP IPHASW D HRMM SECON CODA AMPLIT PERI AZIMU VELO AIN AR TRES W  DIS CAZ7
 BRR  HZ EP   1   13 7 23.46                             151   -0.09 7 72.5 302 
 BRR  HN ES   1   13 7 39.83                             151    0.35 7 72.5 302 
 BRR  HZ I        13 7 41.14        25.9 0.06            151           72.5 302 
 PAM  SZ IP     C 13 7 24.65                             148   -0.1710 81.7  38 
 PAM  SN ES   1   13 7 41.53                             148   -0.21 7 81.7  38 
 PAM  SZ I        13 7 43.85        12.5 0.28            156           81.7  38 
 RUS  HZ EP       13 7 25.80                             144   -0.0210 96.1 175 
 RUS  HN ES   1   13 7 43.64                             144    0.13 7 96.1 175 
 RUS  HZ I        13 7 46.46         5.2 0.22            144           96.1 175 
 PTB  HZ EP   1   13 7 28.33                             131   -0.98 7  146 261 
 PTB  HN ES   1   13 7 49.50                             131   -0.24 7  146 261 
 PTB  HZ I        13 7 55.60         8.8 0.13            131            146 261 
 ZAR  HZ EP   1   13 7 36.09                             121    0.92 6  205 293 
 ZAR  HN ES   1   13 7 59.93                             121   -0.24 6  205 293 
 ZAR  HZ I        13 8  5.66         7.4 0.12            123            205 293 
 NOR  HZ EP   1   13 7 37.37                             117   -0.68 6  231 235 
 NOR  HN ES   1   13 8  5.29                             117    0.01 6  231 235 
 NOR  HZ I        13 8 12.76         6.9 0.23            119            231 235 
 CHI  HZ EP   1   13 7 40.29                             116    0.39 6  244 195 
 CHI  HN ES   1   13 8  9.34                             116    0.76 6  244 195 
 CHI  HZ I        13 8 14.81         3.6 0.35            118            244 195 
 SML  HZ EP   4   13 7 37.80                             115   -1.96 0  247 336 
 SML  HN ES       13 8  8.74                             115    0.42 8  247 336 
 URE  HZ EP   4   13 7 45.49                             112    1.57 0  285 293 
 URE  HN ES   4   13 8 19.36                             112    3.62 0  285 293 
                                                                                
