 2017  716 1504 29.9 L   6.800 -73.153139.4  RSN  9 0.3 1.8LRSN                1
 GAP=111        0.81       3.8     3.4  5.0 -0.4399E+01  0.4955E+01  0.1666E+01E
 Epicentro: LOS SANTOS - SANTANDER                                             3
 ACTION:UPD 17-08-30 15:33 OP:rebc STATUS:               ID:20170716150429 L   I
 OLDACT:REG 17-07-16 20:35 OP:lv   STATUS:               ID:20170716144853     3
 2017-07-16-1458-00M.COL___383                                                 6
 STAT SP IPHASW D HRMM SECON CODA AMPLIT PERI AZIMU VELO AIN AR TRES W  DIS CAZ7
 BAR2 EZ EP       15 4 48.72                             170   -0.0410 23.3 188 
 BAR2 EZ ES       15 5  3.64                             170    0.1610 23.3 188 
 BAR2 EZ I        15 5  5.13        21.9 0.28            172           23.3 188 
 PAM  EZ EP       15 4 51.71                             149    0.2410 77.8  40 
 PAM  EN ES       15 5  8.55                             149    0.2610 77.8  40 
 RUS  HZ EP       15 4 52.74                             142   -0.3010  101 176 
 RUS  HN ES       15 5 10.83                             142   -0.2610  101 176 
 PTB  HZ EP       15 4 55.66                             131   -0.63 9  147 259 
 PTB  HN ES       15 5 16.38                             131   -0.49 9  147 259 
 SPBC HZ EP       15 4 57.87                             128   -0.00 9  163 219 
 SPBC HN ES       15 5 19.78                             128    0.08 9  163 219 
 SPBC HZ I        15 5 22.00         7.1 0.08            129            163 219 
 YPLC HZ EP       15 4 59.17                             125   -0.11 9  177 151 
 ZAR  HZ EP   2   15 5  2.04                             121    0.18 4  203 292 
 ZAR  HN ES   2   15 5 26.42                             121   -0.37 4  203 292 
 ZAR  HZ I        15 5 32.53         4.0 0.13            121            203 292 
 NOR  HZ EP       15 5  5.24                             117    0.04 8  234 234 
 NOR  HN ES       15 5 33.28                             117    0.54 8  234 234 
 GUY2CHZ EP       15 5 13.52                             111    0.37 7  301 235 
 GUY2CHN ES       15 5 47.66                             111    0.77 7  301 235 
 GUY2CHZ I        15 5 55.37         3.6 0.23                           301 235 
 SJC  HN ES   4   15 6  6.14                             105   -2.20 0  409 327 
                                                                                
