 2014  816 1550 43.4 L   6.836 -73.085147.2  RSN 12 0.4 1.9LRSN                1
 GAP=143        0.81       3.1     3.9  5.5  0.2126E+00  0.5782E+01  0.3730E+01E
 Epicentro: LOS SANTOS - SANTANDER                                             3
 ACTION:UPD 14-09-15 21:50 OP:nd   STATUS:               ID:20140816155043 L   I
 OLDACT:REG 14-08-16 21:20 OP:spq  STATUS:               ID:20140816154818     3
 2014-08-16-1548-18M.COL___272                                                 6
 STAT SP IPHASW D HRMM SECON CODA AMPLIT PERI AZIMU VELO AIN AR TRES W  DIS CAZ7
 BAR2 SZ IP     D 1551  3.44                             168    0.1010 29.0 202 
 BAR2 SZ ES   1   1551 18.70                             168   -0.18 7 29.0 202 
 BAR2 SZ I        1551 21.99         6.9 0.28            167           29.0 202 
 PAM  SN ES   1   1551 22.58                             153    0.10 7 70.1  37 
 PAM  SZ I        1551 24.88        13.7 0.18            157           70.1  37 
 BRR  HZ IP     C 1551  5.21                             151    0.2510 75.5 293 
 BRR  HN ES       1551 21.89                             151    0.1210 75.5 293 
 BRR  HZ I        1551 25.05        13.1 0.38            152           75.5 293 
 RUS  HZ EP       1551  7.65                             143    0.0810  104 180 
 RUS  HE ES   1   1551 26.02                             143   -0.40 7  104 180 
 PTB  HZ EP   1   1551 10.99                             131   -0.18 7  155 258 
 PTB  HE ES       1551 32.37                             131   -0.45 9  155 258 
 PTB  HZ I        1551 35.09         9.8 0.20            132            155 258 
 SPBC HZ EP       1551 11.89                             128   -0.83 9  171 220 
 SPBC HE ES       1551 36.28                             128    0.70 9  171 220 
 SPBC HZ I        1551 40.82         7.7 0.28            130            171 220 
 ZAR  HZ EP   1   1551 16.67                             122    0.22 6  209 290 
 ZAR  HE ES       1551 42.43                             122    0.21 8  209 290 
 ZAR  HZ I        1551 46.80         6.2 0.26            124            209 290 
 NOR  HZ EP       1551 20.09                             118    0.03 8  242 235 
 NOR  HN ES       1551 48.34                             118   -0.31 8  242 235 
 NOR  HZ I        1551 50.63         5.8 0.28            120            242 235 
 SML  HN ES   1   1551 48.35                             118   -0.27 6  243 333 
 SML  HZ I        1551 52.07         9.0 0.10            120            243 333 
 CHI  HN ES   1   1551 52.22                             117    0.48 6  254 196 
 CHI  HZ I        1552  0.46         3.4 0.20            119            254 196 
 GUY2CHZ EP   1   1551 28.34                             112    0.37 5  309 235 
 GUY2CHN ES   1   1552  2.45                             112   -0.27 5  309 235 
 GUY2CHZ I        1552  9.79         3.4 0.55                           309 235 
 TOL  SN ES   1   1552 11.56                             109    0.60 5  351 225 
                                                                                
