 2010 1016 1133 22.0 L   6.755 -73.047138.9  RSN  5 0.1 1.5LRSN                1
 GAP=208        0.40       4.2     5.4  5.0 -0.4914E+01 -0.1161E+02 -0.1853E+01E
 Epicentro: LOS SANTOS - SANTANDER                                             3
 ACTION:UP  11-02-18 11:10 OP:tino STATUS:               ID:20101016113322 L   I
 2010-10-16-1129-23S.COL___125                                                 6
 STAT SP IPHASW D HRMM SECON CODA AMPLIT PERI AZIMU VELO SNR AR TRES W  DIS CAZ7
 BAR2 SZ EP       1133 40.88                             170     0.110   24 220 
 BAR2 SZ ES   2   1133 55.31                             170    -0.2 5   24 220 
 BAR2 SZ I        1133 57.10         6.9 0.53                            24 220 
 BTL  SZ EP       1133 41.09                             167     0.110   30 307 
 BTL  SZ ES   2   1133 55.71                             167    -0.1 5   30 307 
 BRR  HZ EP       1133 42.94                             147    -0.210   83 298 
 BRR  HZ I        1133 59.64         8.2 0.20                            83 298 
 BRR  HN ES   1   1133 59.80                             147     0.1 7   83 298 
 GUE  SZ EP   2   1133 46.27                             137    -0.1 5  120   6 
 GRA  SZ EP       1133 46.92                             135     0.110  128  12 
 GRA  SZ ES   2   1134  6.02                             135    -0.2 5  128  12 
 GRA  SZ I        1134  7.27         4.4 0.36                           128  12 
                                                                                
