 2012  816 1412 50.6 L   6.728 -73.168139.4  RSN  6 0.2 1.6LRSN                1
 GAP=229        0.49       3.6     3.6  4.7  0.5423E+01  0.4389E+01  0.1696E+01E
 Epicentro: VILLANUEVA - SANTANDER                                             3
 ACTION:UPD 12-09-10 11:56 OP:ep   STATUS:               ID:20120816141250 L   I
 2012-08-16-1410-00M.COL___217                                                 6
 STAT SP IPHASW D HRMM SECON CODA AMPLIT PERI AZIMU VELO AIN AR TRES W  DIS CAZ7
 BAR2 SZ ES   1   1413 23.64                             174   -0.23 7 15.1 186 
 BAR2 SZ I        1413 25.29        11.6 0.19                          15.1 186 
 BRR  HZ EP       1413 11.22                             151    0.0810 73.4 305 
 BRR  HZ I        1413 13.39        12.8 0.09                          73.4 305 
 BRR  HE ES   1   1413 27.47                             151    0.27 7 73.4 305 
 RUS  HZ EP       1413 12.97                             145   -0.1510 92.8 174 
 RUS  HE ES   1   1413 30.94                             145    0.22 7 92.8 174 
 RUS  HZ I        1413 32.65         4.3 0.45                          92.8 174 
 PTB  HZ EP       1413 16.71                             131    0.05 9  144 262 
 PTB  HN ES   1   1413 36.63                             131   -0.40 7  144 262 
 PTB  HZ I        1413 39.24         3.8 0.35                           144 262 
 ZAR  HN ES   1   1413 47.68                             121   -0.07 6  205 294 
 ZAR  HZ I        1413 53.44         5.4 0.45                           205 294 
 NOR  SN ES   1   1413 52.51                             118    0.27 6  228 236 
 NOR  SZ I        1413 55.49         2.4 0.17                           228 236 
                                                                                
