 2014  716 1459 47.6 L   7.515 -73.114122.2  RSN  5 0.3 2.2LRSN                1
 GAP=149        0.79       3.9     4.5  7.0  0.3830E+01  0.1143E+02 -0.8511E+01E
 Epicentro: EL PLAYON - SANTANDER                                              3
 ACTION:UPD 15-03-16 20:44 OP:nd   STATUS:               ID:20140716145947 L   I
 OLDACT:REG 14-07-16 21:17 OP:stll STATUS:               ID:20140716145813     3
 2014-07-16-1458-13M.COL___256                                                 6
 STAT SP IPHASW D HRMM SECON CODA AMPLIT PERI AZIMU VELO AIN AR TRES W  DIS CAZ7
 PAM  SN ES       15 0 19.60                             157   -0.2710 49.8 113 
 BRR  HZ IP     C 15 0  7.06                             144    0.2310 79.9 236 
 BRR  HN ES       15 0 22.15                             144    0.3010 79.9 236 
 BRR  HZ I        15 0 23.16        37.9 0.12            144           79.9 236 
 BAR2 SZ EP       15 0  8.98                             137    0.0910  102 184 
 BAR2 SZ ES       15 0 25.48                             137   -0.0310  102 184 
 BAR2 SZ I        15 0 26.57        31.6 0.14            138            102 184 
 SML  HZ EP       15 0 16.17                             121    0.48 9  177 323 
 SML  HN ES       15 0 37.55                             121   -0.07 9  177 323 
 SML  HZ I        15 0 40.21        21.0 0.10            120            177 323 
 ZAR  HZ EP       15 0 16.71                             118   -0.64 9  192 269 
 ZAR  HZ I        15 0 19.92        12.0 0.58            118            192 269 
 ZAR  HN ES       15 0 40.36                             118   -0.21 9  192 269 
                                                                                
