 2010  816 1114 36.1 L   6.707 -73.106143.2  RSN  4 0.2 1.5LRSN                1
 GAP=200        0.65       7.5     8.8  7.8 -0.9804E+01 -0.2502E+02 -0.2089E+02E
 Epicentro: JORDAN - SANTANDER                                                 3
 ACTION:UP  10-09-07 10:55 OP:vdl  STATUS:               ID:20100816111436 L   I
 2010-08-16-1110-50S.COL___111                                                 6
 STAT SP IPHASW D HRMM SECON CODA AMPLIT PERI AZIMU VELO SNR AR TRES W  DIS CAZ7
 BAR2 SZ EP   1   1114 55.54                             173     0.2 7   15 214 
 BAR2 SZ ES   1   1115 10.20                             173    -0.1 7   15 214 
 BAR2 SZ I        1115 11.77         7.4 0.20                            15 214 
 BRR  HZ EP       1114 57.52                             149     0.010   80 303 
 BRR  HN ES   1   1115 14.26                             149     0.0 7   80 303 
 BRR  HZ I        1115 22.56        12.7 0.46                            80 303 
 GUE  SZ EP       1115  1.69                             137     0.310  126   9 
 GUE  SZ I        1115  3.45         2.0 0.09                           126   9 
 GUE  SZ ES   2   1115 21.24                             137     0.2 5  126   9 
 GRA  SZ EP       1115  1.51                             134    -0.410  134  14 
                                                                                
