 2013 1116 1603 31.4 L   6.747 -73.060141.5  RSN  8 0.6 1.9LRSN 2.6WRSN        1
 SPEC AVERAGE  MO 13.0 ST 85.6 OM  1.3 f0 15.5 R0.2687 AL 0.00 WI 20.0 MW  2.6 3
 SPEC SD       MO  0.1 ST153.5 OM  0.3 f0 12.9 R0.2577 AL      WI      MW  0.0 3
 GAP=150        1.32       5.6     6.6  7.7 -0.1197E+02  0.6409E+01  0.1273E+02E
 Epicentro: LOS SANTOS - SANTANDER                                             3
 SPEC BAR2SH Z MO 13.1 ST 16.6 OM  1.3 f0 12.6 R0.1527 AL-0.00 WI 20.0 MW  2.7 3
 SPEC BAR2SH Z T16 4 3 K 0.050 GD  143 VS 5.20 DE 3.20 Q0750.0 QA 1.50 VS 5.20 3
 SPEC BRR HH Z MO 13.1 ST  4.0 OM  1.2 f0 8.06 R0.2387 AL-0.00 WI 20.0 MW  2.7 3
 SPEC BRR HH Z T16 4 7 K 0.050 GD  163 VS 5.20 DE 3.20 Q0750.0 QA 1.50 VS 5.20 3
 SPEC PTB HH Z MO 13.0 ST392.4 OM  1.0 f0 40.0 R0.0481 AL-0.00 WI 20.0 MW  2.6 3
 SPEC PTB HH Z T16 416 K 0.050 GD  210 VS 5.20 DE 3.20 Q0750.0 QA 1.50 VS 5.20 3
 SPEC NOR HH Z MO 12.9 ST 14.9 OM  0.8 f0 14.3 R0.1345 AL-0.00 WI 20.0 MW  2.6 3
 SPEC NOR HH Z T16 433 K 0.050 GD  277 VS 5.20 DE 3.20 Q0750.0 QA 1.50 VS 5.20 3
 SPEC CHI HH Z MO 13.0 ST0.103 OM  0.9 f0 2.50 R0.7696 AL-0.00 WI 20.0 MW  2.6 3
 SPEC CHI HH Z T16 435 K 0.050 GD  283 VS 5.20 DE 3.20 Q0750.0 QA 1.50 VS 5.20 3
 SPECGUY2CHH Z MO 13.1 ST  0.2 OM  0.9 f0 3.00 R 0.642 AL-0.00 WI 20.0 MW  2.7 3
 SPECGUY2CHH Z T16 450 K 0.050 GD337.1 VS 5.20 DE 3.20 Q0750.0 QA 1.50 VS 5.20 3
 OLDACT:REG 13-11-16 16:28 OP:stll STATUS:               ID:20131116155820     3
 ACTION:UPD 14-01-09 16:28 OP:ep   STATUS:               ID:20131116160331 L   I
 OLDACT:UP  13-11-16 20:05 OP:stll STATUS:               ID:20131116155820     3
 2013-11-16-1558-20M.COL___226                                                 6
 STAT SP IPHASW D HRMM SECON CODA AMPLIT PERI AZIMU VELO AIN AR TRES W  DIS CAZ7
 BAR2 SZ EP       16 3 50.45                             171    0.0010 21.8 219 
 BAR2 SZ ES       16 4  5.15                             171   -0.1810 21.8 219 
 BAR2 SZ I        16 4  7.22        36.6 0.46            167           21.8 219 
 PAM  SZ EP       16 3 53.21                             150    0.1310 76.7  31 
 PAM  SN ES       16 4 10.34                             150    0.3210 76.7  31 
 PAM  SZ I        16 4 12.15        11.6 0.66            155           76.7  31 
 BRR  HZ IP     C 16 3 52.40                             148   -0.3410 82.4 299 
 BRR  HN ES       16 4  9.32                             148   -0.0910 82.4 299 
 BRR  SZ I        16 4 13.68        11.4 0.14            150           82.4 299 
 RUS  HZ EP       16 3 54.20                             145   -0.0610 94.5 182 
 RUS  HN ES       16 4 12.30                             145    0.1910 94.5 182 
 RUS  SZ I        16 4 14.02        12.6 0.28            143           94.5 182 
 PTB  HZ EP   9   16 3 57.13                             129   -1.64 0  156 262 
 PTB  HN ES       16 4 18.32                                   -0.18 9  156 262 
 PTB  SZ I        16 4 20.53        12.2 0.10            130            156 262 
 NOR  HZ EP       16 4  6.67                             117   -0.67 8  239 237 
 NOR  HN ES       16 4 34.52                             117   -0.88 8  239 237 
 NOR  SZ I        16 4 41.04         7.4 0.30            118            239 237 
 CHI  HZ EP       16 4  8.39                             116   -0.11 8  246 198 
 CHI  HN ES       16 4 37.19                             116   -0.28 8  246 198 
 CHI  SZ I        16 4 51.27         5.2 1.48            117            246 198 
 GUY2CHZ EP       16 4 15.66                             111    0.37 7  306 237 
 GUY2CHN ES       16 4 51.72                             111    2.16 7  306 237 
 GUY2CSZ I        16 4 58.97         5.0 0.42                           306 237 
                                                                                
