 2012  316 1912 10.2 L   6.841 -73.165138.2  RSN  7 0.4 1.7LRSN                1
 GAP=132        0.87       4.7     5.0  7.7  0.2255E+01  0.7708E+01  0.9243E+01E
 ACTION:UP  12-03-31 23:20 OP:EP   STATUS:               ID:20120316191210 L   I
 2012-03-16-1910-00M.COL___202                                                 6
 STAT SP IPHASW D HRMM SECON CODA AMPLIT PERI AZIMU VELO SNR AR TRES W  DIS CAZ7
 BAR2 SZ EP   1   1912 29.17                             168     0.1 7   28 184 
 BAR2 SZ ES   1   1912 43.32                             168    -0.4 7   28 184 
 BAR2 SZ I        1912 46.08         9.8 0.12                            28 184 
 BRR  HZ EP   1   1912 30.52                             153     0.2 7   67 296 
 BRR  HN ES   1   1912 46.80                             153     0.8 7   67 296 
 BRR  HZ I        1912 51.48        15.7 0.15                            67 296 
 PAM  SZ EP   1   1912 31.57                             150     0.1 7   75  43 
 PAM  SN ES   1   1912 47.89                             150    -0.2 7   75  43 
 PAM  SZ I        1912 49.83         7.6 0.31                            75  43 
 RUS  HZ EP   1   1912 33.82                             141     0.2 7  105 175 
 RUS  HZ I        1912 34.99         4.0 0.16                           105 175 
 RUS  HN ES   1   1912 51.60                             141    -0.2 7  105 175 
 PTB  HZ EP   1   1912 35.90                             130    -0.6 7  147 257 
 PTB  HN ES   1   1912 56.98                             130     0.0 7  147 257 
 PTB  HZ I        1913  0.39         4.3 0.03                           147 257 
 ZAR  HN ES   1   1913  5.92                             121    -0.5 6  200 291 
 ZAR  HZ I        1913 11.52         6.5 0.14                           200 291 
 CHI  HZ EP   1   1912 48.10                             115     0.2 6  253 194 
 CHI  HN ES   1   1913 17.55                             115     0.2 6  253 194 
 CHI  HZ I        1913 21.78         4.6 0.37                           253 194 
                                                                                
