 2012  916 1605 14.5 L   6.728 -73.169152.1  RSN  6 0.2 1.8LRSN                1
 GAP=178        0.46       4.3     3.8  4.4  0.8560E+01  0.1168E+01 -0.3073E+01E
 Epicentro: VILLANUEVA - SANTANDER                                             3
 ACTION:UPD 12-10-22 14:19 OP:ep   STATUS:               ID:20120916160514 L   I
 2012-09-16-1600-00M.COL___227                                                 6
 STAT SP IPHASW D HRMM SECON CODA AMPLIT PERI AZIMU VELO AIN AR TRES W  DIS CAZ7
 BAR2 SZ EP   1   16 5 34.56                             174   -0.15 7 15.0 186 
 BAR2 SZ ES   1   16 5 50.39                             174   -0.12 7 15.0 186 
 BAR2 SZ I        16 5 52.84        18.8 0.14                          15.0 186 
 GIR2 SZ EP   1   16 5 34.93                             165   -0.17 7 38.9 356 
 BRR  HZ EP   1   16 5 36.58                             153    0.18 7 73.2 305 
 BRR  HN ES   1   16 5 53.82                             153    0.30 7 73.2 305 
 BRR  HZ I        16 5 56.30        15.0 0.26                          73.2 305 
 RUS  HZ EP   1   16 5 38.42                             147    0.12 7 92.8 174 
 RUS  HN ES   1   16 5 56.88                             147   -0.03 7 92.8 174 
 RUS  HZ I        16 5 58.27         4.2 0.32                          92.8 174 
 PTB  HZ EP   1   16 5 42.00                             134    0.40 7  144 262 
 PTB  HN ES   1   16 6  2.59                             134   -0.19 7  144 262 
 PTB  HZ I        16 6  8.46         6.6 0.22                           144 262 
 ZAR  HZ EP   1   16 5 47.11                             124   -0.29 6  205 294 
 ZAR  HE ES   1   16 6 12.96                             124   -0.14 6  205 294 
 ZAR  HZ I        16 6 19.04         8.1 0.17                           205 294 
                                                                                
