 2015  516 1225 31.0 L   6.797 -73.143140.3  RSN  8 0.4 2.0LRSN                1
 GAP=238        0.89       3.6     4.8  5.4  0.4313E+01  0.8742E+01  0.4392E+01E
 Epicentro: LOS SANTOS - SANTANDER                                             3
 ACTION:UPD 15-09-10 22:04 OP:cam  STATUS:               ID:20150516122531 L   I
 OLDACT:REG 15-05-16 20:30 OP:drio STATUS:               ID:20150516121749     3
 2015-05-16-1217-49M.COL___280                                                 6
 STAT SP IPHASW D HRMM SECON CODA AMPLIT PERI AZIMU VELO AIN AR TRES W  DIS CAZ7
 BAR2 EZ IP     C 1225 49.84                             170   -0.1610 23.0 191 
 BAR2 EZ ES       1226  4.33                             170   -0.4710 23.0 191 
 BAR2 EZ I        1226  7.36        17.3 0.46            168           23.0 191 
 BRR  HZ EP       1225 51.84                             151    0.2210 71.7 299 
 BRR  HN ES       1226  8.13                             151    0.4510 71.7 299 
 BRR  HZ I        1226 16.98        12.0 0.44            150           71.7 299 
 RUS  HZ EP       1225 54.34                             143    0.1210  100 176 
 RUS  HN ES       1226 12.81                             143    0.5010  100 176 
 RUS  HZ I        1226 15.24         9.2 0.36            147            100 176 
 SPBC HZ EP       1225 58.88                             128   -0.23 9  163 219 
 SPBC HE ES       1226 20.57                             128   -0.44 9  163 219 
 SPBC HZ I        1226 26.35        19.9 0.42            131            163 219 
 ZAR  HZ EP       1226  2.61                             121   -0.56 9  204 292 
 ZAR  HE ES       1226 28.24                             121   -0.00 9  204 292 
 ZAR  HZ I        1226 34.09        11.0 0.30            124            204 292 
 NOR  HZ EP       1226  6.47                             117    0.01 8  235 235 
 NOR  HZ ES       1226 33.74                             117   -0.35 8  235 235 
 NOR  HZ I        1226 39.20         9.6 0.28            120            235 235 
 SML  HN ES   4   1226 34.58                             116   -1.20 0  244 335 
 CHI  HZ EP       1226  8.33                             116   -0.07 8  248 195 
 CHI  HE ES       1226 37.47                             116   -0.08 8  248 195 
 CHI  HZ I        1226 40.24         4.9 0.12            120            248 195 
 GUY2CHZ EP       1226 15.07                             111    0.67 7  301 235 
 GUY2CHN ES       1226 48.78                             111    0.55 7  301 235 
 GUY2CHZ I        1226 56.32         6.6 0.54                           301 235 
                                                                                
