 2012  616 1144 19.9 L   6.798 -73.143143.0  RSN  6 0.4 1.7LRSN                1
 GAP=137        0.83       4.7     5.3  9.1 -0.6620E+01  0.2104E+02 -0.1284E+02E
 Epicentro: LOS SANTOS - SANTANDER                                             3
 ACTION:UPD 12-08-06 17:50 OP:ep   STATUS:               ID:20120616114419 L   I
 2012-06-16-1140-00M.COL___198                                                 6
 STAT SP IPHASW D HRMM SECON CODA AMPLIT PERI AZIMU VELO AIN AR TRES W  DIS CAZ7
 BAR2 SZ EP   1   1144 39.31                             170    0.15 7 23.2 191 
 BAR2 SZ ES   1   1144 54.56                             170    0.35 7 23.2 191 
 BAR2 SZ I        1144 55.36        13.0 0.15                          23.2 191 
 PAM  SZ EP   1   1144 42.34                             150    0.56 7 77.4  39 
 PAM  SE ES       1144 58.78                             150   -0.1010 77.4  39 
 RUS  HE ES   1   1145  1.40                             143   -0.23 7  100 176 
 RUS  HZ I        1145  3.71         2.8 0.23                           100 176 
 PTB  HZ EP   1   1144 46.51                             131   -0.12 7  148 259 
 PTB  HN ES   1   1145  6.89                             131   -0.62 7  148 259 
 PTB  HZ I        1145  9.42         4.7 0.25                           148 259 
 OCA  HZ EP   1   1144 47.63                             129   -0.35 7  161 353 
 OCA  HN ES   1   1145  9.51                             129   -0.41 7  161 353 
 OCA  HZ I        1145 14.94        12.8 0.16                           161 353 
 ZAR  HN ES   1   1145 18.21                             122    0.85 6  204 292 
 ZAR  HZ I        1145 26.22         6.6 0.24                           204 292 
                                                                                
