 2017  716 1159 34.1 L   6.816 -73.221140.0  RSN  5 0.2 1.5LRSN                1
 GAP=125        0.67       4.6     9.0  5.1 -0.2342E+02 -0.2132E+02  0.6762E+01E
 Epicentro: ZAPATOCA - SANTANDER                                               3
 ACTION:UPD 17-08-30 15:33 OP:rebc STATUS:               ID:20170716115934 L   I
 OLDACT:REG 17-07-16 20:19 OP:lv   STATUS:               ID:20170716115247     3
 2017-07-16-1158-00M.COL___383                                                 6
 STAT SP IPHASW D HRMM SECON CODA AMPLIT PERI AZIMU VELO AIN AR TRES W  DIS CAZ7
 BAR2 EZ EP       1159 52.70                             169   -0.3710 25.2 170 
 BAR2 EZ ES       12 0  8.12                             169    0.2510 25.2 170 
 BRR  HZ EP   9   1159 56.66                             154    2.49 0 63.1 301 
 BRR  HE ES       12 0 12.15                                   -0.1710 63.1 301 
 PAM  EZ EP       1159 55.96                             148   -0.0010 81.6  45 
 PAM  EE ES       12 0 12.99                             148   -0.0310 81.6  45 
 PAM  EZ I        12 0 15.16         4.4 0.41            149           81.6  45 
 RUS  HZ EP       1159 57.77                             142    0.2910  103 172 
 RUS  HN ES       12 0 15.60                             142   -0.1310  103 172 
 RUS  HZ I        12 0 16.73         2.2 0.21            143            103 172 
 PTB  HZ EP   9   12 0  0.67                             132    0.79 0  140 257 
 PTB  HN ES       12 0 20.39                                   -0.40 9  140 257 
 PTB  HZ I        12 0 24.49        10.6 0.04            129            140 257 
                                                                                
