 2015  816 1304 23.7 L   6.398 -73.518122.0  RSN  4 0.3 1.8LRSN                1
 GAP=178        0.61       6.8     5.5  8.4  0.1756E+02  0.3363E+02  0.1682E+02E
 Epicentro: SANTA HELENA DEL OPON - SANTANDER                                  3
 ACTION:UPD 15-09-15 23:02 OP:cam  STATUS:               ID:20150816130423 L   I
 OLDACT:REG 15-08-16 21:12 OP:ar   STATUS:               ID:20150816125748     3
 2015-08-16-1257-48M.COL___334                                                 6
 STAT SP IPHASW D HRMM SECON CODA AMPLIT PERI AZIMU VELO AIN AR TRES W  DIS CAZ7
 BAR2 EZ EP       13 4 41.34                             159    0.1810 42.8  60 
 BAR2 EZ ES       13 4 54.51                             159   -0.2510 42.8  60 
 BAR2 EZ I        13 4 55.64        17.8 0.44            161           42.8  60 
 BRR  HN ES   2   13 4 58.91                             144    0.79 5 81.3 345 
 ZAR  HZ EP       13 4 53.31                             118   -0.04 9  191 309 
 ZAR  HN ES       13 5 16.31                             118   -0.15 9  191 309 
 ZAR  HZ I        13 5 19.77         8.0 0.36            119            191 309 
 GUY2CHE ES   2   13 5 27.69                             112    0.13 4  242 238 
 GUY2CHZ I        13 5 30.18         3.2 0.50                           242 238 
                                                                                
