 2017  816 1057 42.8 L   6.790 -73.298120.2  RSN  6 0.2 1.6LRSN                1
 GAP=199        0.66       3.5     3.9  6.4  0.7920E+01  0.2124E+01  0.5550E+01E
 Epicentro: ZAPATOCA - SANTANDER                                               3
 ACTION:UPD 17-09-04 20:21 OP:rebc STATUS:               ID:20170816105742 L   I
 OLDACT:REG 17-08-16 20:06 OP:lv   STATUS:               ID:20170816104311     3
 2017-08-16-1048-00M.COL___413                                                 6
 STAT SP IPHASW D HRMM SECON CODA AMPLIT PERI AZIMU VELO AIN AR TRES W  DIS CAZ7
 BAR2 EZ EP       1057 59.84                             167    0.4310 25.3 150 
 BAR2 EZ I        1058 14.08        30.4 0.20            158           25.3 150 
 BRR  HZ EP       1058  0.23                             153   -0.1810 57.7 308 
 BRR  HN ES       1058 13.95                             153   -0.2110 57.7 308 
 RUS  HZ EP       1058  4.44                             137    0.2010  102 167 
 RUS  HZ I        1058 23.60         3.0 0.18            131            102 167 
 SPBC HZ EP       1058  8.06                             125   -0.29 9  152 214 
 SPBC HN ES       1058 28.35                             125    0.07 9  152 214 
 SPBC HZ I        1058 36.67         4.2 0.13            122            152 214 
 YPLC HN ES       1058 34.05                             119   -0.17 9  185 147 
 ZAR  HZ EP       1058 11.89                             118   -0.19 9  189 294 
 ZAR  HE ES       1058 35.22                             118    0.30 9  189 294 
 ZAR  HZ I        1058 38.46         5.1 0.27            118            189 294 
                                                                                
