 2014  116 1638 56.5 L   6.779 -73.132151.3  RSN  5 0.4 1.7LRSN                1
 GAP=139        1.07       5.7     5.3  8.5 -0.8085E+01  0.7681E+01  0.1019E+02E
 Epicentro: LOS SANTOS - SANTANDER                                             3
 ACTION:UPD 14-03-13 09:55 OP:ep   STATUS:               ID:20140116163856 L   I
 OLDACT:UP  14-01-16 17:42 OP:cam  STATUS:               ID:20140116163739     3
 OLDACT:REG 14-01-16 17:39 OP:cam  STATUS:               ID:20140116163739     3
 2014-01-16-1637-39M.COL___246                                                 6
 STAT SP IPHASW D HRMM SECON CODA AMPLIT PERI AZIMU VELO AIN AR TRES W  DIS CAZ7
 BRR  HZ EP       1639 18.48                             153    0.1210 73.7 300 
 BRR  HN ES       1639 36.05                             153    0.6210 73.7 300 
 BRR  HZ I        1639 43.33        12.2 0.42            151           73.7 300 
 PAM  SZ EP       1639 19.53                             151    0.2010 78.2  38 
 PAM  SN ES       1639 36.86                             151   -0.3010 78.2  38 
 PAM  SZ I        1639 38.80         6.1 0.46            156           78.2  38 
 RUS  HZ EP       1639 20.27                             146   -0.3310 98.2 177 
 RUS  HN ES       1639 39.56                             146    0.1310 98.2 177 
 RUS  HZ I        1639 40.97         4.4 0.40            151           98.2 177 
 PTB  HZ EP       1639 23.74                             133   -0.25 9  149 260 
 PTB  HN ES       1639 44.59                             133   -0.87 9  149 260 
 PTB  HZ I        1639 52.26         8.9 0.36            134            149 260 
 NOR  HZ EP       1639 32.96                             120    0.44 8  235 235 
 NOR  HN ES       1640  1.02                             120    0.38 8  235 235 
 NOR  HZ I        1640  4.46         4.3 0.28            123            235 235 
                                                                                
