 2014  716 1630 12.2 L   6.540 -73.555103.2  RSN 17 0.6 2.5LRSN                1
 GAP= 62        1.41       2.8     3.9  6.4 -0.1854E+01  0.7904E+01  0.8803E+00E
 Epicentro: EL CARMEN - SANTANDER                                              3
 ACTION:UPD 15-03-16 20:44 OP:nd   STATUS:               ID:20140716163012 L   I
 OLDACT:DUP 14-07-16 23:21 OP:stll STATUS:               ID:20140716162820d    3
 2014-07-16-1628-19M.COL___256                                                 6
 STAT SP IPHASW D HRMM SECON CODA AMPLIT PERI AZIMU VELO AIN AR TRES W  DIS CAZ7
 BAR2 SZ IP     C 1630 27.97                             156    0.5210 41.6  82 
 BAR2 SZ ES       1630 40.25                             156    0.8910 41.6  82 
 BAR2 SZ I        1630 41.94       161.9 0.56            157           41.6  82 
 BRR  HZ EP     D 1630 28.78                             145    0.2710 65.0 345 
 BRR  HN ES       1630 41.55                             145    0.3210 65.0 345 
 BRR  HZ I        1630 43.55        34.7 0.10            139           65.0 345 
 RUS  HZ EP     D 1630 30.82                             136   -0.2010 88.6 144 
 RUS  HN ES       1630 45.46                             136   -0.2510 88.6 144 
 RUS  HZ I        1630 46.78        33.9 0.26            138           88.6 144 
 PTB  HZ IP     D 1630 30.74                             132   -0.5910 99.6 270 
 PTB  HN ES       1630 45.46                             132   -0.8010 99.6 270 
 PTB  HZ I        1630 48.19        40.2 0.26            128           99.6 270 
 SPBC HZ EP       1630 32.85                             128    0.1110  114 210 
 SPBC HN ES       1630 48.71                             128   -0.0510  114 210 
 SPBC HZ I        1630 51.44        89.8 0.26            127            114 210 
 ZAR  HZ EP       1630 40.09                             115    0.70 9  178 306 
 ZAR  HN ES       1631  0.72                             115    0.11 9  178 306 
 ZAR  HZ I        1631  7.30        37.2 0.42            112            178 306 
 NOR  HZ EP       1630 39.47                             114   -0.30 9  181 233 
 NOR  HN ES       1631  0.35                             114   -0.92 9  181 233 
 NOR  HZ I        1631  2.99        33.7 0.56            113            181 233 
 OCA  HZ EP       1630 41.20                             113    0.36 9  190   8 
 OCA  HN ES       1631  2.82                             113   -0.37 9  190   8 
 OCA  HZ I        1631 13.08        39.2 0.16            111            190   8 
 CHI  HZ EP       1630 43.39                             110   -0.33 8  212 185 
 CHI  HN ES       1631  7.56                             110   -0.75 8  212 185 
 HEL  HZ EP       1630 45.85                             109    1.09 8  222 260 
 HEL  HE ES       1631  9.78                             109   -0.39 8  222 260 
 HEL  HZ I        1631 13.94        15.6 0.40            108            222 260 
 GUY2CHZ EP     C 1630 49.34                             107    1.44 8  248 234 
 GUY2CHE ES       1631 16.22                             107    0.46 8  248 234 
 GUY2CHZ I        1631 20.35        26.5 0.36                           248 234 
 SML  HZ EP       1630 47.86                             106   -0.47 8  256 347 
 SML  HE ES       1631 15.73                             106   -0.79 8  256 347 
 SML  HZ I        1631 21.62        45.4 0.28            105            256 347 
 TOL  SZ EP       1630 53.26                             103    0.36 7  291 222 
 TOL  SN ES       1631 24.40                             103   -0.24 7  291 222 
 DBB  SZ EP       1630 53.67                             103    0.29 7  298 280 
 DBB  SZ I        1631 30.58        33.3 0.44            103            298 280 
 ANIL HZ EP       1630 54.37                             102   -0.13 7  305 222 
 ANIL HN ES       1631 27.12                             102   -0.37 7  305 222 
 ANIL HZ I        1631 38.69        50.9 0.30            103            305 222 
 ORTC HZ EP       1630 59.41                             100    0.35 6  346 213 
 ORTC HZ I        1631  0.38        14.4 0.28            101            346 213 
 ORTC HN ES       1631 36.61                             100    0.99 6  346 213 
 SOCV BZ EP       1630 58.75                              99   -1.36 6  355  57 
                                                                                
