 2015  416 1115 54.7 L   6.536 -73.722 92.7  RSN  7 0.5 1.1LRSN                1
 GAP= 95        1.01       6.3     4.5 11.0  0.5584E+01  0.1607E+02  0.4120E+02E
 Epicentro: SANTA HELENA DEL OPON - SANTANDER                                  3
 ACTION:UPD 15-06-03 16:55 OP:cam  STATUS:               ID:20150416111554 L   I
 OLDACT:REG 15-04-16 21:13 OP:spq  STATUS:               ID:20150416110750     3
 2015-04-16-1107-50M.COL___262                                                 6
 STAT SP IPHASW D HRMM SECON CODA AMPLIT PERI AZIMU VELO AIN AR TRES W  DIS CAZ7
 BAR2 EZ EP   1   1116 10.27                             145    0.33 7 60.0  84 
 BRR  HN ES       1116 22.02                             143    0.3810 63.2   1 
 PTB  HZ EP       1116 10.50                             135   -0.8210 81.2 270 
 PTB  HN ES   1   1116 23.94                             135   -0.33 7 81.2 270 
 PTB  HZ I        1116 24.97         3.1 0.10            139           81.2 270 
 RUS  HZ EP       1116 13.46                             130   -0.2410  100 135 
 RUS  HE ES   1   1116 28.46                             130   -0.05 7  100 135 
 RUS  HZ I        1116 31.76         2.0 0.54            131            100 135 
 NOR  HZ EP   1   1116 19.92                             115   -0.17 7  166 230 
 NOR  HE ES   1   1116 40.50                             115    0.62 7  166 230 
 NOR  HZ I        1116 42.22         3.1 0.18            116            166 230 
 HEL  HZ EP       1116 25.10                             110    0.37 9  204 259 
 GUY2CHZ EP   1   1116 28.86                             107    0.59 6  233 232 
                                                                                
