 2013 1116 1304 37.1 L   6.572 -73.528107.9  RSN 10 0.6 1.9LRSN 2.6WRSN        1
 SPEC AVERAGE  MO 13.0 ST226.7 OM  1.5 f0 26.1 R0.0936 AL 0.00 WI 20.0 MW  2.6 3
 SPEC SD       MO  0.4 ST183.4 OM  0.5 f0 14.2 R0.5855 AL      WI      MW  0.2 3
 GAP= 86        1.61       4.3     4.8  9.3 -0.4037E+01  0.1668E+02 -0.3485E+01E
 Epicentro: EL CARMEN DE CHUCURI - SANTANDER                                   3
 SPEC BAR2SH Z MO 13.3 ST 16.3 OM  1.6 f0 10.7 R0.1798 AL-0.00 WI 20.0 MW  2.8 3
 SPEC BAR2SH Z T13 5 4 K 0.050 GD  114 VS 5.20 DE 3.20 Q0750.0 QA 1.50 VS 5.20 3
 SPEC BRR HH Z MO 13.1 ST 19.9 OM  1.3 f0 14.0 R0.1374 AL-0.00 WI 20.0 MW  2.7 3
 SPEC BRR HH Z T13 5 6 K 0.050 GD  124 VS 5.20 DE 3.20 Q0750.0 QA 1.50 VS 5.20 3
 SPEC RUS HH Z MO 12.5 ST 30.1 OM  0.7 f0 24.5 R0.0785 AL-0.00 WI 20.0 MW  2.3 3
 SPEC RUS HH Z T13 5 9 K 0.050 GD  140 VS 5.20 DE 3.20 Q0750.0 QA 1.50 VS 5.20 3
 SPEC PTB HH Z MO 12.9 ST349.9 OM  1.1 f0 40.0 R0.0481 AL-0.00 WI 20.0 MW  2.6 3
 SPEC PTB HH Z T13 5 9 K 0.050 GD  149 VS 5.20 DE 3.20 Q0750.0 QA 1.50 VS 5.20 3
 SPEC ZAR HH Z MO 13.0 ST129.3 OM  1.0 f0 27.7 R0.0695 AL-0.00 WI 20.0 MW  2.6 3
 SPEC ZAR HH Z T13 525 K 0.050 GD  209 VS 5.20 DE 3.20 Q0750.0 QA 1.50 VS 5.20 3
 SPECGUY2CHH Z MO 12.7 ST  0.9 OM  0.5 f0 6.81 R 0.283 AL-0.00 WI 20.0 MW  2.4 3
 SPECGUY2CHH Z T13 540 K 0.050 GD274.1 VS 5.20 DE 3.20 Q0750.0 QA 1.50 VS 5.20 3
 SPEC SML HH Z MO 13.3 ST814.8 OM  1.2 f0 40.0 R0.0481 AL-0.00 WI 20.0 MW  2.8 3
 SPEC SML HH Z T13 539 K 0.050 GD  275 VS 5.20 DE 3.20 Q0750.0 QA 1.50 VS 5.20 3
 OLDACT:REG 13-11-16 16:23 OP:stll STATUS:               ID:20131116125819     3
 ACTION:UPD 14-01-09 16:28 OP:ep   STATUS:               ID:20131116130437 L   I
 OLDACT:UP  13-11-16 18:41 OP:stll STATUS:               ID:20131116125819     3
 2013-11-16-1258-19M.COL___226                                                 6
 STAT SP IPHASW D HRMM SECON CODA AMPLIT PERI AZIMU VELO AIN AR TRES W  DIS CAZ7
 BAR2 SZ IP     C 13 4 53.24                             159    0.5210 38.3  87 
 BAR2 SZ ES       13 5  5.52                             159    0.6010 38.3  87 
 BAR2 SZ I        13 5  7.23        97.3 0.36            165           38.3  87 
 BRR  HZ IP     D 13 4 54.07                             148    0.3610 62.5 341 
 BRR  HN ES       13 5  7.65                             148    0.9810 62.5 341 
 BRR  SZ I        13 5 14.89        26.7 0.20            149           62.5 341 
 RUS  HZ EP       13 4 56.32                             138   -0.1110 89.9 147 
 RUS  HN ES       13 5 11.40                             138   -0.1310 89.9 147 
 RUS  SZ I        13 5 12.70        11.9 0.56            145           89.9 147 
 PTB  HZ IP     C 13 4 56.11                             133   -0.7810  103 268 
 PTB  HN ES       13 5 10.68                             133   -1.6510  103 268 
 PTB  SZ I        13 5 14.75        16.3 0.10            136            103 268 
 PAM  SZ EP       13 4 59.07                             127   -0.5210  125  47 
 PAM  SN ES       13 5 16.50                             127   -0.6410  125  47 
 PAM  SZ I        13 5 21.61         6.7 0.24            133            125  47 
 ZAR  HZ EP       13 5  5.08                             116    0.50 9  179 305 
 ZAR  HN ES       13 5 26.52                             116    0.50 9  179 305 
 ZAR  SZ I        13 5 31.15        18.8 0.22            120            179 305 
 NOR  HZ EP       13 5  5.58                             115    0.18 9  186 233 
 NOR  HN ES       13 5 27.55                             115    0.06 9  186 233 
 NOR  SZ I        13 5 33.32         6.8 0.10            120            186 233 
 OCA  HN ES       13 5 27.34                             115   -0.38 9  186   7 
 GUY2CHZ EP       13 5 14.33                             108    0.84 8  252 234 
 GUY2CHN ES       13 5 42.11                             108    0.22 8  252 234 
 GUY2CSZ I        13 5 50.83         2.9 0.40                           252 234 
 SML  HZ EP       13 5 12.90                             107   -0.16 8  254 346 
 SML  HN ES       13 5 41.18                             107    0.06 8  254 346 
 SML  SZ I        13 5 44.96        15.3 0.08            111            254 346 
                                                                                
