 2014  916 1842 50.6 L   5.963 -73.760109.5  RSN  6 0.4 1.6LRSN                1
 GAP=129        1.07       6.3     4.3  8.4 -0.1393E+02  0.8890E+01 -0.3454E+01E
 Epicentro: BOLIVAR - SANTANDER                                                3
 ACTION:UPD 14-10-03 23:05 OP:nd   STATUS:               ID:20140916184250 L   I
 OLDACT:UP  14-09-17 04:03 OP:mh   STATUS:               ID:20140916183819     3
 OLDACT:UP  14-09-17 04:03 OP:mh   STATUS:               ID:20140916183819     3
 OLDACT:UP  14-09-17 04:03 OP:mh   STATUS:               ID:20140916183819     3
 OLDACT:UP  14-09-17 04:01 OP:mh   STATUS:               ID:20140916183819     3
 OLDACT:UP  14-09-17 04:01 OP:mh   STATUS:               ID:20140916183819     3
 OLDACT:REG 14-09-16 22:45 OP:spq  STATUS:               ID:20140916183819     3
 2014-09-16-1838-19M.COL___278                                                 6
 STAT SP IPHASW D HRMM SECON CODA AMPLIT PERI AZIMU VELO AIN AR TRES W  DIS CAZ7
 SPBC HZ EP     C 1843  6.72                             154    0.0210 48.7 225 
 SPBC HN ES       1843 19.28                             154    0.0210 48.7 225 
 SPBC HZ I        1843 20.52        15.7 0.24            158           48.7 225 
 RUS  HZ EP       1843  8.64                             143   -0.3310 75.4  96 
 RUS  HN ES   1   1843 23.04                             143   -0.26 7 75.4  96 
 RUS  HZ I        1843 25.20         8.9 0.18            148           75.4  96 
 BAR2 SZ EP     C 1843 11.17                             136    1.0510 94.5  43 
 BAR2 SZ ES       1843 25.29                             136   -0.0710 94.5  43 
 BAR2 SZ I        1843 29.04        30.7 0.45            138           94.5  43 
 PTB  HZ EP       1843  9.76                             134   -0.5310100.0 310 
 PTB  HN ES   1   1843 25.47                             134   -0.18 7100.0 310 
 PTB  HZ I        1843 29.14         5.3 0.19            136          100.0 310 
 NOR  HZ EP   1   1843 12.67                             126   -0.52 7  131 250 
 NOR  HN ES   1   1843 31.42                             126    0.60 7  131 250 
 NOR  HZ I        1843 32.84         8.2 0.12            130            131 250 
 GUY2CHZ EP       1843 20.53                             114   -0.10 9  196 245 
 GUY2CHN ES       1843 44.22                             114    0.16 9  196 245 
 GUY2CHZ I        1843 53.48         2.6 0.34                           196 245 
                                                                                
