 2017  416 1707 27.2 L   6.814 -73.158146.1  RSN 11 0.6 1.9LRSN                1
 GAP=110        1.47       5.1     5.1  7.9 -0.6115E+00  0.1036E+02 -0.1046E+01E
 Epicentro: LOS SANTOS - SANTANDER                                             3
 ACTION:UPD 17-05-30 21:12 OP:jn   STATUS:               ID:20170416170727 L   I
 OLDACT:UP  17-04-16 20:50 OP:dani STATUS:               ID:20170416165448     3
 OLDACT:REG 17-04-16 20:09 OP:dani STATUS:               ID:20170416165448     3
 2017-04-16-1658-00M.COL___371                                                 6
 STAT SP IPHASW D HRMM SECON CODA AMPLIT PERI AZIMU VELO AIN AR TRES W  DIS CAZ7
 BAR2 EZ EP       17 7 46.86                             170    0.0110 24.6 186 
 BAR2 EZ ES       17 8  1.83                             170   -0.3810 24.6 186 
 BAR2 EZ I        17 8  2.83        23.8 0.18            170           24.6 186 
 BRR  HZ EP       17 7 48.71                             153    0.4810 69.3 298 
 BRR  HN ES       17 8  5.68                             153    1.0110 69.3 298 
 BRR  HZ I        17 8  6.69        17.8 0.24            151           69.3 298 
 PAM  EZ EP       17 7 49.63                             151    0.2410 77.1  41 
 PAM  EN ES       17 8  6.27                             151   -0.4610 77.1  41 
 PAM  EZ I        17 8  9.13        13.4 0.68            154           77.1  41 
 RUS  HZ EP       17 7 51.07                             144    0.0210  102 175 
 RUS  HE ES       17 8  9.35                             144   -0.3510  102 175 
 RUS  HZ I        17 8 11.12         5.1 0.20            145            102 175 
 PTB  HZ EP       17 7 53.44                             132   -0.61 9  147 258 
 PTB  HN ES       17 8 14.70                             132   -0.33 9  147 258 
 PTB  HZ I        17 8 16.86        12.8 0.12            132            147 258 
 SPBC HZ EP       17 7 56.13                             129    0.42 9  163 218 
 SPBC HN ES       17 8 17.98                             129    0.00 9  163 218 
 SPBC HZ I        17 8 23.63        10.3 0.09            130            163 218 
 YPLC HZ EP       17 7 57.47                             126    0.30 9  179 151 
 ZAR  HZ EP       17 7 59.79                             123    0.36 9  202 292 
 ZAR  HE ES       17 8 25.68                             123    1.08 9  202 292 
 ZAR  HZ I        17 8 31.75         9.6 0.29            123            202 292 
 NOR  HN ES       17 8 30.39                             119   -0.35 8  234 234 
 HEL  HZ EP       17 8  7.98                             115    0.71 8  271 255 
 HEL  HE ES       17 8 37.32                             115   -1.25 8  271 255 
 HEL  HZ I        17 8 46.36         3.3 0.20            115            271 255 
 SJC  HZ EP       17 8 21.45                             106   -1.04 6  407 327 
 SJC  HN ES       17 9  4.03                             106   -1.62 6  407 327 
                                                                                
