 2010  216 1419 57.5 L   6.497 -73.330112.0  RSN  4 0.3 1.5LRSN                1
 GAP=185        0.47       6.7     9.0  8.9 -0.2429E+02  0.3617E+02  0.2270E+02E
 Epicentro: HATO - SANTANDER                                                   3
 ACTION:UP  10-08-24 09:49 OP:vdl  STATUS:               ID:20100216141957 L   I
 2010-02-16-1416-43S.COL___094                                                 6
 STAT SP IPHASW D HRMM SECON CODA AMPLIT PERI AZIMU VELO SNR AR TRES W  DIS CAZ7
 BAR2 SZ IP       1420 12.96                             170     0.010   19  57 
 BAR2 SZ ES   2   1420 25.18                             170     0.1 5   19  57 
 CHI  HZ EP   1   1420 29.01                             113    -0.3 6  211 192 
 CHI  HN ES   2   1420 54.34                             113     0.2 4  211 192 
 CHI  HZ I        1421  2.70         1.9 0.54                           211 192 
 RREF BZ EP   1   1420 38.12                             106     0.1 6  285 232 
 RREF BN ES   2   1421  9.42                             106    -0.2 4  285 232 
 RREF BZ I        1421 11.74         2.5 0.32                           285 232 
 PRA  HZ EP   2   1420 46.16                             102     0.8 3  353 209 
                                                                                
