 2011 1216 1025 36.1 L   6.799 -73.088142.5  RSN  8 0.3 1.8LRSN                1
 GAP=144        0.53       3.0     5.1  4.8 -0.3344E+01 -0.6741E+00  0.5447E+01E
 Epicentro: LOS SANTOS - SANTANDER                                             3
 ACTION:UPD 12-07-13 16:16 OP:ep   STATUS:               ID:20111216102536 L   I
 2011-12-16-1020-00M.COL___186                                                 6
 STAT SP IPHASW D HRMM SECON CODA AMPLIT PERI AZIMU VELO AIN AR TRES W  DIS CAZ7
 BAR2 SZ EP   1   1025 55.37                             170   -0.02 7 25.2 205 
 BAR2 SZ ES   2   1026 10.22                             170   -0.21 5 25.2 205 
 BAR2 SZ I        1026 19.80        15.7 0.56                          25.2 205 
 GIR2 SZ EP   2   1025 54.85                             166   -0.60 5 33.0 339 
 GIR2 SZ ES   2   1026 10.19                             166   -0.34 5 33.0 339 
 PAM  SZ EP       1025 58.07                             151    0.3110 73.5  36 
 PAM  SN ES   1   1026 14.76                             151    0.12 7 73.5  36 
 BRR  HZ EP   1   1025 57.00                             150   -0.25 7 76.9 296 
 BRR  HZ I        1025 58.56        17.8 0.14                          76.9 296 
 BRR  HN ES   1   1026 14.09                             150    0.35 7 76.9 296 
 RUS  HZ EP   1   1025 59.34                             143   -0.18 7  100 180 
 RUS  HZ I        1026  0.52         5.8 0.15                           100 180 
 RUS  HN ES   2   1026 17.49                             143   -0.29 5  100 180 
 OCA  SZ EP   2   1026  3.93                             129   -0.34 5  161 351 
 OCA  SZ ES   2   1026 25.98                             129   -0.25 5  161 351 
 OCA  SZ I        1026 29.85        11.3 0.47                           161 351 
 CTAU SZ EP   1   1026  9.55                             122    0.35 6  206 211 
 CHI  HZ EP   1   1026 13.70                             116   -0.12 6  250 197 
 CHI  HN ES   2   1026 43.62                             116    0.40 4  250 197 
 CHI  HZ I        1026 50.28         2.3 0.44                           250 197 
                                                                                
