 2010 1016 1932 32.5 L   6.826 -73.063140.0  RSN  5 0.2 1.5LRSN                1
 GAP=167        0.55       4.0     8.3  7.9  0.1374E+02 -0.3826E+02 -0.1480E+02E
 Epicentro: LOS SANTOS - SANTANDER                                             3
 ACTION:UP  11-02-18 11:10 OP:tino STATUS:               ID:20101016193232 L   I
 2010-10-16-1928-50S.COL___125                                                 6
 STAT SP IPHASW D HRMM SECON CODA AMPLIT PERI AZIMU VELO SNR AR TRES W  DIS CAZ7
 BAR2 SZ ES   2   1933  6.17                             168    -0.3 5   29 207 
 BAR2 SZ I        1933  7.46         7.9 0.18                            29 207 
 BRR  HZ EP       1932 53.32                             150    -0.210   78 294 
 BRR  HZ I        1932 53.52         9.8 0.14                            78 294 
 BRR  HN ES   1   1933 10.07                             150     0.2 7   78 294 
 RUS  HZ EP       1932 55.91                             142     0.010  103 181 
 RUS  HE ES   1   1933 14.32                             142     0.2 7  103 181 
 RUS  HZ I        1933 16.50         4.7 0.27                           103 181 
 GUE  SZ EP       1932 56.33                             139     0.010  112   8 
 GRA  SZ EP   2   1932 57.31                             137     0.5 5  121  14 
 GRA  SZ I        1933 22.26         4.3 0.50                           121  14 
                                                                                
