 2011  316 1412 27.6 L   6.762 -73.535138.6  RSN  4 0.2 1.6LRSN                1
 GAP=240        0.52       4.7    25.5  6.6  0.3311E+02  0.8990E+02 -0.8784E-01E
 Epicentro: EL CARMEN DE CHUCURI - SANTANDER                                   3
 ACTION:UP  11-06-16 14:34 OP:jfem STATUS:               ID:20110316141227 L   I
 2011-03-16-1409-22S.COL___138                                                 6
 STAT SP IPHASW D HRMM SECON CODA AMPLIT PERI AZIMU VELO SNR AR TRES W  DIS CAZ7
 BTL  SZ EP   1   1412 46.45                             165    -0.2 7   34  60 
 BTL  SZ ES   1   1413  1.32                             165    -0.2 7   34  60 
 BAR2 SZ EP   1   1412 47.27                             162     0.3 7   43 116 
 BAR2 SZ ES   1   1413  2.27                             162     0.2 7   43 116 
 BAR2 SZ I        1413  3.48        14.9 0.34                            43 116 
 RUS  HZ EP   1   1412 51.17                             140     0.0 7  108 152 
 RUS  HN ES   1   1413  9.49                             140    -0.2 7  108 152 
 RUS  HZ I        1413 10.98         3.8 0.26                           108 152 
 GRA  SZ EP   1   1412 54.14                             130     0.0 7  148  33 
 GRA  SZ I        1413 16.27         6.9 0.32                           148  33 
                                                                                
