 2014 1016 1926 39.8 L   6.717 -73.162143.1  RSN  8 0.5 1.9LRSN                1
 GAP=138        1.13       4.3     4.8  7.6 -0.7563E+00  0.8500E+01  0.1723E+01E
 Epicentro: VILLANUEVA - SANTANDER                                             3
 ACTION:UPD 14-11-29 23:50 OP:nd   STATUS:               ID:20141016192639 L   I
 OLDACT:DUP 14-10-17 00:06 OP:fm   STATUS:               ID:20141016191748d    3
 2014-10-16-1917-47M.COL___286                                                 6
 STAT SP IPHASW D HRMM SECON CODA AMPLIT PERI AZIMU VELO AIN AR TRES W  DIS CAZ7
 BAR2 SZ EP       1926 58.98                             174   -0.0210 14.0 189 
 BAR2 SZ ES   1   1927 14.68                             174    0.74 7 14.0 189 
 BAR2 SZ I        1927 15.15        37.7 0.30            173           14.0 189 
 BRR  HZ EP       1927  1.17                             151    0.2710 74.5 305 
 BRR  HN ES       1927 17.87                             151    0.5510 74.5 305 
 BRR  HZ I        1927 19.17        17.2 0.14            151           74.5 305 
 PAM  SZ EP       1927  2.15                             148   -0.1510 85.7  37 
 PAM  SN ES       1927 19.16                             148   -0.6610 85.7  37 
 PAM  SZ I        1927 21.66        15.5 0.44            150           85.7  37 
 RUS  HZ EP       1927  2.81                             146    0.1110 91.6 175 
 RUS  HE ES       1927 20.56                             146    0.0410 91.6 175 
 RUS  HZ I        1927 22.76         8.0 0.36            146           91.6 175 
 PTB  HZ EP       1927  5.84                             132   -0.46 9  144 262 
 PTB  HE ES       1927 26.21                             132   -0.72 9  144 262 
 PTB  HZ I        1927 27.84        12.0 0.10            132            144 262 
 SPBC HZ EP       1927  7.64                             130    0.28 9  155 221 
 SPBC HE ES       1927 28.85                             130    0.02 9  155 221 
 SPBC HZ I        1927 32.14        11.5 0.18            130            155 221 
 ZAR  HZ EP       1927 13.22                             121    0.89 8  206 295 
 ZAR  HE ES       1927 37.33                             121   -0.33 8  206 295 
 ZAR  HZ I        1927 43.73        10.9 0.28            122            206 295 
 CHI  HN ES   1   1927 44.36                             117   -0.52 6  239 195 
 CHI  HZ I        1927 50.24         3.3 0.40            118            239 195 
 SML  HN ES   4   1927 42.43                             116   -3.83 0  251 337 
                                                                                
