 2013  116 1406 33.8 L   6.836 -73.097146.0  RSN 17 0.6 3.8LRSN 3.8WRSN        1
 SPEC AVERAGE  MO 14.8 ST 44.3 OM  3.2 f0 3.68 R0.4232 AL 2.16 WI 26.8 MW  3.8 3
 SPEC SD       MO  0.2 ST 26.8 OM  0.3 f00.981 R0.0928 AL      WI      MW  0.1 3
 GAP=129        1.08       3.4     4.6  6.4 -0.3145E+01  0.6493E+00  0.3558E+01E
 Epicentro: LOS SANTOS - SANTANDER                                             3
 SPEC VIL SH Z MO 14.9 ST 66.4 OM  3.0 f0 3.84 R0.3828 AL 2.11 WI 39.4 MW  3.9 3
 SPEC VIL SH Z T14 744 K 0.000 GD  340 VS 4.20 DE 3.20 Q0300.0 QA 0.60 VS 4.20 3
 SPEC ZAR HH Z MO 14.8 ST 19.4 OM  3.0 f0 2.81 R0.5231 AL 1.43 WI 34.5 MW  3.8 3
 SPEC ZAR HH Z T14 724 K 0.000 GD  254 VS 4.20 DE 3.20 Q0300.0 QA 0.60 VS 4.20 3
 SPEC RREFHH Z MO 15.0 ST104.5 OM  3.0 f0 4.39 R0.3349 AL 2.64 WI 33.7 MW  3.9 3
 SPEC RREFHH Z T14 750 K 0.000 GD  359 VS 4.20 DE 3.20 Q0300.0 QA 0.60 VS 4.20 3
 SPEC ROSCBH Z MO 15.0 ST 42.2 OM  3.1 f0 3.20 R0.4594 AL 2.66 WI 28.2 MW  3.9 3
 SPEC ROSCBH Z T14 741 K 0.000 GD  297 VS 4.20 DE 3.20 Q0300.0 QA 0.60 VS 4.20 3
 SPEC PTB HH Z MO 14.7 ST 30.0 OM  3.0 f0 3.45 R0.4261 AL 1.32 WI 21.7 MW  3.8 3
 SPEC PTB HH Z T14 719 K 0.000 GD  212 VS 4.20 DE 3.20 Q0300.0 QA 0.60 VS 4.20 3
 SPEC RUS HH Z MO 14.5 ST 10.9 OM  2.9 f0 2.81 R0.5231 AL 2.19 WI  9.0 MW  3.6 3
 SPEC RUS HH Z T14 714 K 0.000 GD  179 VS 4.20 DE 3.20 Q0300.0 QA 0.60 VS 4.20 3
 SPEC OCA HH Z MO 14.7 ST 36.1 OM  3.0 f0 3.66 R0.4016 AL 1.82 WI 28.1 MW  3.8 3
 SPEC OCA HH Z T14 721 K 0.000 GD  214 VS 4.20 DE 3.20 Q0300.0 QA 0.60 VS 4.20 3
 SPEC HEL HH Z MO 14.7 ST 63.8 OM  2.8 f0 4.54 R0.3238 AL 2.45 WI 18.8 MW  3.7 3
 SPEC HEL HH Z T14 745 K 0.000 GD  314 VS 4.20 DE 3.20 Q0300.0 QA 0.60 VS 4.20 3
 SPEC CHI HH Z MO 14.8 ST 15.9 OM  2.9 f0 2.71 R0.5424 AL 1.94 WI 36.8 MW  3.8 3
 SPEC CHI HH Z T14 737 K 0.000 GD  292 VS 4.20 DE 3.20 Q0300.0 QA 0.60 VS 4.20 3
 SPEC BRR HH Z MO 14.3 ST 65.3 OM  2.7 f0 6.14 R0.2394 AL 2.34 WI 25.1 MW  3.5 3
 SPEC BRR HH Z T14 710 K 0.000 GD  163 VS 4.20 DE 3.20 Q0300.0 QA 0.60 VS 4.20 3
 SPEC BAR2SH Z MO 15.0 ST 33.0 OM  3.4 f0 2.95 R0.4983 AL 2.81 WI 19.9 MW  3.9 3
 SPEC BAR2SH Z T14 7 6 K 0.000 GD  148 VS 4.20 DE 3.20 Q0300.0 QA 0.60 VS 4.20 3
 ACTION:UPD 13-02-15 09:14 OP:ep   STATUS:               ID:20130116140633 L   I
 2013-01-16-1400-00M.COL___241                                                 6
 STAT SP IPHASW D HRMM SECON CODA AMPLIT PERI AZIMU VELO AIN AR TRES W  DIS CAZ7
 BAR2 SZ IP       14 6 53.88                             168    0.3010 28.6 199 
 BAR2 SZ ES   1   14 7  8.95                             168   -0.06 7 28.6 199 
 BAR2 SZ I        14 7 12.21      1440.5 0.38            167           28.6 199 
 BRR  HZ IP     C 14 6 55.75                             152    0.6010 74.2 294 
 BRR  HN ES   2   14 7 12.66                             152    0.85 5 74.2 294 
 BRR  HZ I        14 7 18.93       441.5 0.20            151           74.2 294 
 RUS  HZ IP     D 14 6 57.72                             143   -0.1310  104 179 
 RUS  HE ES   1   14 7 16.56                             143   -0.05 7  104 179 
 RUS  HZ I        14 7 19.17       631.8 0.48            146            104 179 
 PTB  HZ IP     D 14 7  0.33                             131   -1.02 9  154 258 
 PTB  HN ES   1   14 7 22.05                             131   -0.78 7  154 258 
 PTB  HZ I        14 7 24.05       761.7 0.38            133            154 258 
 OCA  HZ EP       14 7  2.30                             130    0.47 9  157 351 
 OCA  HE ES   1   14 7 23.76                             130    0.06 7  157 351 
 OCA  HZ I        14 7 29.68       639.4 0.32            134            157 351 
 ZAR  HZ EP     C 14 7  5.96                             122   -0.67 8  208 291 
 ZAR  HN ES   1   14 7 32.18                             122   -0.06 6  208 291 
 ZAR  HZ I        14 7 38.91       545.9 0.38            124            208 291 
 CTAB SZ EP       14 7 11.08                             119    0.85 8  236 211 
 CHI  HZ IP     D 14 7 11.52                             117   -0.57 8  254 196 
 CHI  HE ES   1   14 7 41.31                             117   -0.64 6  254 196 
 CHI  HZ I        14 7 49.81       262.3 0.62            120            254 196 
 ROSC BZ IP     D 14 7 13.32                             116    0.71 8  259 212 
 ROSC BN ES   1   14 7 44.03                             116    1.15 6  259 212 
 ROSC BZ I        14 7 48.54       493.1 0.40            119            259 212 
 HEL  HZ EP       14 7 14.42                             114   -0.29 7  278 255 
 HEL  HN ES   1   14 7 46.41                             114   -0.22 6  278 255 
 HEL  HZ I        14 7 52.23       325.3 0.30            117            278 255 
 HEL  HN I        14 7 53.53       361.9 0.34                           278 255 
 URE  HZ EP   4   14 7 13.75                             113   -1.53 0  287 291 
 URE  HN ES   4   14 7 44.90                             113   -2.73 0  287 291 
 VIL  SZ EP       14 7 17.34                             112   -0.46 7  308 192 
 VIL  SN ES   1   14 7 51.23                             112   -0.89 5  308 192 
 VIL  SZ I        14 7 57.12       327.8 0.50            115            308 192 
 RREF HZ EP       14 7 20.39                             110   -0.33 7  328 229 
 RREF HN ES   1   14 7 57.39                             110    0.08 5  328 229 
 RREF HZ I        14 8  4.86       352.6 0.24            113            328 229 
 DBB  SZ EP   4   14 7 21.31                             109   -0.56 0  345 274 
 DBB  SZ ES   4   14 7 57.46                             109   -1.91 0  345 274 
 DBB  SZ I        14 8  2.04       286.4 0.48            112            345 274 
 TOL  SZ EP       14 7 23.28                             109    0.45 6  350 225 
 TOL  SZ ES   1   14 8  1.44                             109    0.37 5  350 225 
 SDV  BZ EP       14 7 23.08                             109    0.00 6  354  50 
 SDV  BN ES   1   14 8  0.69                             109   -0.83 5  354  50 
 ANIL HZ EP     C 14 7 24.92                             108    0.54 6  364 225 
 ANIL HN ES   1   14 8  3.67                             108   -0.16 5  364 225 
 ANIL HZ I        14 8 10.00       179.5 0.42            111            364 225 
 SJA  SZ EP       14 7 29.39                             106    0.43 6  405 194 
 SJA  SZ ES   2   14 8 12.62                             106    0.63 3  405 194 
 SJC  HN ES   4   14 8  9.35                             106   -3.29 0  409 326 
 PAL  HZ EP   4   14 7 29.61                             106   -0.14 0  412 239 
 YOT  HZ EP   4   14 7 36.31                             103   -1.33 0  479 229 
 YOT  HE ES   4   14 8 25.29                             103   -2.15 0  479 229 
 SMAR HZ EP   4   14 7 38.87                             102   -0.51 0  494 346 
 SMAR HE ES   4   14 8 27.04                             102   -3.48 0  494 346 
                                                                                
