 2012  216 1150 20.5 L   6.310 -73.103176.6  RSN  8 0.4 2.0LRSN                1
 GAP=184        0.62       4.4     6.1  6.4 -0.7600E-01  0.3518E+01  0.4812E+01E
 ACTION:UP  12-03-07 16:31 OP:epov STATUS:               ID:20120216115020 L   I
 2012-02-16-1150-00M.COL___188                                                 6
 STAT SP IPHASW D HRMM SECON CODA AMPLIT PERI AZIMU VELO AIN AR TRES W  DIS CAZ7
 BAR2 SZ EP       1150 43.97                             169   -0.0510 32.4 344 
 BAR2 SZ I        1150 44.22        33.0 0.15                          32.4 344 
 BAR2 SZ ES   1   1151  1.87                             169   -0.50 7 32.4 344 
 RUS  HZ EP   2   1150 44.89                             165    0.11 5 46.2 177 
 RUS  HN ES   2   1151  4.17                             165    0.45 5 46.2 177 
 RUS  HZ I        1151  6.85         7.6 0.74                          46.2 177 
 GIR2 SZ EP   1   1150 45.94                             153   -0.05 7 85.6 353 
 GIR2 SZ ES   2   1151  5.61                             153   -0.27 5 85.6 353 
 BRR  HZ EP       1150 47.65                             146    0.3010  111 323 
 BRR  HZ I        1150 47.96        38.8 0.20                           111 323 
 BRR  HE ES   2   1151  9.09                             146    0.80 5  111 323 
 PTB  HZ EP   2   1150 49.72                             137   -0.74 5  152 280 
 PTB  HE ES   2   1151 13.70                             137   -0.14 5  152 280 
 CHI  HZ EP   1   1150 55.20                             129    0.06 6  198 201 
 CHI  HZ I        1150 55.75         5.1 0.31                           198 201 
 CHI  HN ES   2   1151 21.88                             129   -0.28 4  198 201 
 NOR  SE ES   2   1151 24.18                             127    0.53 4  212 247 
 ZAR  HN ES   2   1151 26.86                             124   -0.48 4  234 304 
 ZAR  HZ I        1151 31.81         3.8 0.15                           234 304 
                                                                                
