 2010 1216 1249 18.3 L   6.791 -73.044138.5  RSN  6 0.3 1.7LRSN                1
 GAP=193        0.51       3.2    14.8  6.9 -0.2327E+01  0.2994E+02 -0.1241E+01E
 Epicentro: LOS SANTOS - SANTANDER                                             3
 ACTION:UP  11-01-14 15:25 OP:pat  STATUS:               ID:20101216124918 L   I
 2010-12-16-1240-00M.COL___132                                                 6
 STAT SP IPHASW D HRMM SECON CODA AMPLIT PERI AZIMU VELO SNR AR TRES W  DIS CAZ7
 BAR2 SZ ES   2   1249 51.76                             168    -0.1 5   27 215 
 BAR2 SZ I        1249 53.48        25.4 0.30                            27 215 
 RUS  HZ EP       1249 41.33                             142     0.010   99 182 
 RUS  HE ES   2   1249 58.92                             142    -0.3 5   99 182 
 RUS  HZ I        1250  1.16         4.1 0.27                            99 182 
 OCA  SZ EP   1   1249 46.51                             127     0.2 7  163 349 
 OCA  SZ ES   2   1250  8.18                             127     0.0 5  163 349 
 OCA  SZ I        1250 11.80         8.8 0.20                           163 349 
 CHI  HZ EP   2   1249 55.58                             115    -0.3 4  251 198 
 CHI  HN ES   2   1250 25.95                             115     0.8 4  251 198 
 CHI  HZ I        1250 32.44         1.8 0.41                           251 198 
 RREF HZ EP   2   1250  4.85                             109    -0.2 3  330 231 
 RREF HZ I        1250 50.93         2.2 0.25                           330 231 
 PRA  HZ EP   2   1250 11.64                             105    -0.5 3  397 211 
                                                                                
