 2010  916 1250 50.9 L   6.790 -73.126146.0  RSN  4 0.2 1.7LRSN                1
 GAP=225        0.51      10.2    18.5  8.7  0.1550E+03 -0.6857E+02 -0.3400E+02E
 Epicentro: LOS SANTOS - SANTANDER                                             3
 ACTION:UP  11-02-18 11:03 OP:tino STATUS:               ID:20100916125050 L   I
 2010-09-16-1249-07S.COL___119                                                 6
 STAT SP IPHASW D HRMM SECON CODA AMPLIT PERI AZIMU VELO SNR AR TRES W  DIS CAZ7
 BTL  SZ EP   1   1251 10.87                             171     0.3 7   21 312 
 BAR2 SZ EP   1   1251 10.35                             171    -0.2 7   23 196 
 BAR2 SZ ES   2   1251 25.64                             171    -0.3 5   23 196 
 BAR2 SZ I        1251 28.26        14.2 0.31                            23 196 
 BRR  HZ EP   1   1251 12.21                             152     0.0 7   74 298 
 BRR  HZ I        1251 18.01        14.1 0.47                            74 298 
 BRR  HE ES   2   1251 28.83                             152     0.0 5   74 298 
 RUS  HZ EP   1   1251 14.50                             144    -0.1 7   99 177 
 RUS  HN ES   2   1251 33.41                             144     0.3 5   99 177 
 RUS  HZ I        1251 34.27         4.7 0.30                            99 177 
                                                                                
