 2012  916 1510 57.0 L   6.800 -73.192148.5  RSN  5 0.2 1.2LRSN                1
 GAP=173        0.42       4.7     3.9  5.4  0.3820E+01  0.2100E+01 -0.9030E+01E
 Epicentro: ZAPATOCA - SANTANDER                                               3
 ACTION:UPD 12-10-22 14:19 OP:ep   STATUS:               ID:20120916151057 L   I
 2012-09-16-1510-00M.COL___227                                                 6
 STAT SP IPHASW D HRMM SECON CODA AMPLIT PERI AZIMU VELO AIN AR TRES W  DIS CAZ7
 BAR2 SZ EP   1   1511 16.77                             171   -0.16 7 23.0 177 
 BAR2 SZ ES   1   1511 32.28                             171   -0.21 7 23.0 177 
 BAR2 SZ I        1511 34.41         6.7 0.16                          23.0 177 
 GIR2 SZ EP   1   1511 17.09                             168    0.13 7 30.8 360 
 BRR  HZ EP   1   1511 18.41                             154    0.23 7 66.7 301 
 RUS  HZ EP   1   1511 20.90                             144   -0.13 7  101 173 
 RUS  HZ I        1511 21.47         2.1 0.10                           101 173 
 RUS  HN ES   1   1511 40.03                             144    0.24 7  101 173 
 PTB  HZ EP   1   1511 23.57                             134   -0.15 7  143 258 
 PTB  HN ES   1   1511 44.60                             134    0.02 7  143 258 
 PTB  HZ I        1511 48.88         1.6 0.12                           143 258 
                                                                                
