 2012  116 1148 38.8 L   6.813 -73.182143.6  RSN  5 0.3 1.3LRSN                1
 GAP=131        0.52       4.8     4.2  7.0  0.9517E-01  0.1039E+02 -0.5136E+01E
 Epicentro: ZAPATOCA - SANTANDER                                               3
 ACTION:UP  12-02-03 08:17 OP:REBC STATUS:               ID:20120116114838 L   I
 2012-01-16-1146-39S.COL___155                                                 6
 STAT SP IPHASW D HRMM SECON CODA AMPLIT PERI AZIMU VELO SNR AR TRES W  DIS CAZ7
 BAR2 SZ EP   1   1148 58.30                             170     0.1 7   24 180 
 BAR2 SZ ES   2   1149 13.60                             170     0.3 5   24 180 
 PAM  SZ EP   1   1149  1.21                             150     0.3 7   79  42 
 PAM  SN ES   2   1149 17.55                             150    -0.5 5   79  42 
 PAM  SZ I        1149 20.20         4.9 0.43                            79  42 
 RUS  HZ EP   1   1149  2.23                             143    -0.2 7  102 174 
 RUS  HN ES   2   1149 20.91                             143     0.0 5  102 174 
 RUS  HZ I        1149 23.12         2.4 0.33                           102 174 
 PTB  HZ EP   1   1149  5.41                             132     0.1 7  144 258 
 PTB  HN ES   2   1149 25.68                             132    -0.2 5  144 258 
 PTB  HZ I        1149 30.17         0.0 0.18                           144 258 
 ZAR  HZ EP   1   1149 10.43                             122    -0.2 6  200 292 
 ZAR  HN ES   2   1149 35.66                             122     0.1 4  200 292 
                                                                                
