 2011  316 1152 46.3 L   6.776 -73.041133.8  RSN  6 0.3 1.6LRSN                1
 GAP=171        0.67       3.9    17.5  7.4 -0.3381E+02 -0.2090E+02 -0.2515E+01E
 Epicentro: LOS SANTOS - SANTANDER                                             3
 ACTION:UP  11-06-16 14:34 OP:jfem STATUS:               ID:20110316115246 L   I
 2011-03-16-1149-45S.COL___138                                                 6
 STAT SP IPHASW D HRMM SECON CODA AMPLIT PERI AZIMU VELO SNR AR TRES W  DIS CAZ7
 BAR2 SZ EP       1153  4.27                             169    -0.310   26 218 
 BAR2 SZ ES   1   1153 18.59                             169    -0.2 7   26 218 
 BAR2 SZ I        1153 20.69        19.4 0.30                            26 218 
 BTL  SZ EP   1   1153  4.68                             167     0.1 7   30 302 
 RUS  HZ EP   1   1153  8.48                             142    -0.2 7   98 183 
 RUS  HN ES   1   1153 26.58                             142     0.5 7   98 183 
 RUS  HZ I        1153 27.55         4.7 0.32                            98 183 
 GRA  SZ EP       1153 10.29                             134    -0.210  125  12 
 GRA  SZ I        1153 11.68         9.5 0.24                           125  12 
 GRA  SZ ES   1   1153 29.57                             134     0.3 7  125  12 
 OCA  SZ ES   2   1153 36.28                             126     0.4 5  165 349 
 CHI  HZ EP   2   1153 23.86                             114     0.4 4  249 198 
 CHI  HZ I        1153 58.60         2.1 0.42                           249 198 
                                                                                
