 2012  216 1802 23.0 L   6.781 -73.147142.6  RSN 10 0.4 2.2LRSN                1
 GAP=137        0.57       3.6     3.9  5.3 -0.1548E+01  0.7202E+01  0.4412E+01E
 ACTION:UP  12-03-07 16:31 OP:epov STATUS:               ID:20120216180223 L   I
 2012-02-16-1800-00M.COL___188                                                 6
 STAT SP IPHASW D HRMM SECON CODA AMPLIT PERI AZIMU VELO AIN AR TRES W  DIS CAZ7
 BAR2 SZ EP   1   18 2 42.20                             171   -0.04 7 21.3 191 
 BAR2 SZ ES   2   18 2 57.26                             171    0.03 5 21.3 191 
 BAR2 SZ I        18 2 58.32        27.5 0.26                          21.3 191 
 GIR2 SZ EP   1   18 2 42.12                             166   -0.27 7 33.3 351 
 GIR2 SZ ES   2   18 2 57.70                             166    0.22 5 33.3 351 
 BRR  HZ EP       18 2 43.93                             152    0.0410 72.1 300 
 BRR  HZ I        18 2 44.28        59.4 0.12                          72.1 300 
 BRR  HN ES   2   18 3  0.75                             152    0.59 5 72.1 300 
 PAM  SZ EP   1   18 2 44.83                             150   -0.19 7 79.1  39 
 PAM  SN ES   1   18 3  2.08                             150   -0.08 7 79.1  39 
 RUS  HZ EP   2   18 2 46.33                             144    0.00 5 98.5 176 
 RUS  HN ES   2   18 3  4.57                             144    0.07 5 98.5 176 
 RUS  HZ I        18 3  6.13        11.0 0.50                          98.5 176 
 PTB  HZ EP   2   18 2 48.75                             131   -0.95 5  147 260 
 PTB  HN ES   2   18 3  9.99                             131   -0.51 5  147 260 
 ZAR  HZ EP   1   18 2 55.98                             121    0.64 6  205 293 
 ZAR  HN ES   2   18 3 20.30                             121   -0.24 4  205 293 
 ZAR  HZ I        18 3 25.82        20.2 0.26                           205 293 
 NOR  SZ EP   2   18 2 58.36                             118   -0.08 4  233 235 
 NOR  SE ES   2   18 3 25.63                             118   -0.43 4  233 235 
 CHI  HZ EP   1   18 3  0.49                             117    0.15 6  247 195 
 CHI  HN ES   2   18 3 29.92                             117    0.49 4  247 195 
 HEL  HZ EP   2   18 3  3.81                             114    0.79 4  271 256 
                                                                                
