 2013  516 1558 54.9 L   6.805 -73.164144.3  RSN 21 0.4 3.1LRSN 3.3WRSN        1
 SPEC AVERAGE  MO 14.1 ST  4.3 OM  2.8 f0 2.89 R0.5866 AL 1.95 WI 16.5 MW  3.3 3
 SPEC SD       MO  0.3 ST  4.1 OM  0.5 f00.803 R0.1792 AL      WI      MW  0.2 3
 GAP= 64        0.91       2.1     2.5  3.7  0.5823E-01  0.2094E+01  0.1626E+01E
 Epicentro: LOS SANTOS - SANTANDER                                             3
 SPEC PRA HH N MO 14.0 ST  2.3 OM  2.0 f0 2.65 R0.5864 AL 1.68 WI 36.5 MW  3.3 3
 SPEC PRA HH N T16 025 K 0.000 GD  416 VS 4.20 DE 3.20 Q0300.0 QA 0.60 VS 4.20 3
 SPEC VIL SH N MO 14.6 ST  2.6 OM  2.7 f0 1.74 R0.8931 AL 1.92 WI 23.8 MW  3.7 3
 SPEC VIL SH N T16 011 K 0.000 GD  335 VS 4.20 DE 3.20 Q0300.0 QA 0.60 VS 4.20 3
 SPEC HEL HH N MO 14.1 ST  6.0 OM  2.2 f0 3.49 R0.4453 AL 2.51 WI 15.2 MW  3.3 3
 SPEC HEL HH N T16 0 5 K 0.000 GD  306 VS 4.20 DE 3.20 Q0300.0 QA 0.60 VS 4.20 3
 SPEC YOP SH N MO 14.5 ST  1.8 OM  2.7 f0 1.74 R0.8931 AL 2.17 WI 12.4 MW  3.6 3
 SPEC YOP SH N T155948 K 0.000 GD  230 VS 4.20 DE 3.20 Q0300.0 QA 0.60 VS 4.20 3
 SPEC TAM HH N MO 13.8 ST0.843 OM  2.1 f0 2.21 R0.7032 AL 1.54 WI 18.5 MW  3.2 3
 SPEC TAM HH N T155943 K 0.000 GD  213 VS 4.20 DE 3.20 Q0300.0 QA 0.60 VS 4.20 3
 SPEC PTB HH N MO 14.3 ST  7.9 OM  2.6 f0 3.21 R0.4841 AL 1.45 WI 10.2 MW  3.5 3
 SPEC PTB HH N T155941 K 0.000 GD  205 VS 4.20 DE 3.20 Q0300.0 QA 0.60 VS 4.20 3
 SPEC RUS HH N MO 14.1 ST  2.8 OM  2.5 f0 2.59 R0.6000 AL 2.34 WI 10.0 MW  3.4 3
 SPEC RUS HH N T155935 K 0.000 GD  176 VS 4.20 DE 3.20 Q0300.0 QA 0.60 VS 4.20 3
 SPEC PAM SH N MO 13.6 ST  2.2 OM  2.0 f0 3.57 R0.4353 AL 2.37 WI 12.7 MW  3.0 3
 SPEC PAM SH N T155933 K 0.000 GD  164 VS 4.20 DE 3.20 Q0300.0 QA 0.60 VS 4.20 3
 SPEC BRR HH N MO 14.2 ST 15.1 OM  2.6 f0 4.33 R0.3589 AL 2.00 WI 14.8 MW  3.4 3
 SPEC BRR HH N T155931 K 0.000 GD  160 VS 4.20 DE 3.20 Q0300.0 QA 0.60 VS 4.20 3
 SPEC BAR2SH Z MO 13.7 ST  2.0 OM  2.1 f0 3.33 R0.4667 AL 1.56 WI 10.6 MW  3.1 3
 SPEC BAR2SH Z T155928 K 0.000 GD  146 VS 4.20 DE 3.20 Q0300.0 QA 0.60 VS 4.20 3
 ACTION:UPD 13-06-20 09:51 OP:ep   STATUS:               ID:20130516155854 L   I
 2013-05-16-1557-50M.COL___231                                                 6
 STAT SP IPHASW D HRMM SECON CODA AMPLIT PERI AZIMU VELO AIN AR TRES W  DIS CAZ7
 BAR2 SZ IP     C 1559 14.52                             170    0.1710 23.6 185 
 BAR2 SZ ES       1559 29.13                             170   -0.3910 23.6 185 
 BAR2 SZ I        1559 32.46       213.8 0.34            170           23.6 185 
 GIR2 SZ EP       1559 14.57                             167    0.2010 30.5 354 
 GIR2 SZ ES       1559 29.92                             167    0.3610 30.5 354 
 GIR2 SZ I        1559 31.52       170.8 0.34            167           30.5 354 
 BRR  HZ IP     D 1559 16.40                             153    0.6310 69.2 299 
 BRR  HN ES       1559 32.02                             153   -0.0310 69.2 299 
 BRR  HZ I        1559 36.59       181.6 0.34            151           69.2 299 
 PAM  SZ IP     D 1559 17.44                             150    0.4410 78.3  41 
 PAM  SN ES       1559 34.21                             150   -0.0410 78.3  41 
 PAM  SZ I        1559 38.46        66.9 0.30            150           78.3  41 
 RUS  HZ IP     D 1559 18.34                             143   -0.2010  101 175 
 RUS  HN ES       1559 36.43                             143   -0.5610  101 175 
 RUS  HZ I        1559 38.85       143.8 0.38            142            101 175 
 PTB  HZ EP       1559 20.99                             132   -0.58 9  146 258 
 PTB  HN ES       1559 42.23                             132   -0.15 9  146 258 
 PTB  HZ I        1559 44.60       196.3 0.14            130            146 258 
 TAM  HZ IP     C 1559 22.68                             130    0.04 9  157 105 
 TAM  HZ I        1559 43.36        72.1 0.32            129            157 105 
 TAM  HN ES       1559 44.31                             130    0.02 9  157 105 
 OCA  HZ EP       1559 22.90                             129   -0.12 9  160 354 
 OCA  HN ES       1559 44.83                             129   -0.13 9  160 354 
 OCA  HZ I        1559 48.64       104.1 0.24            128            160 354 
 YOP  SZ EP       1559 24.72                             126   -0.24 9  180 153 
 YOP  SN ES       1559 49.16                             126    0.75 9  180 153 
 YOP  SZ I        1559 52.25        90.4 0.28            125            180 153 
 ZAR  HZ EP       1559 26.86                             122   -0.17 9  202 292 
 ZAR  HN ES   2   1559 52.15                             122    0.05 4  202 292 
 ZAR  HZ I        1559 59.38       190.8 0.34            120            202 292 
 NOR  HZ EP       1559 30.13                             118   -0.26 8  233 234 
 NOR  HN ES       1559 58.43                             118    0.35 8  233 234 
 NOR  HZ I        16 0  2.80       140.8 0.20            117            233 234 
 SML  HZ EP       1559 30.94                             117   -0.35 8  242 336 
 SML  HN ES   2   1559 59.34                             117   -0.35 4  242 336 
 SML  HZ I        16 0  8.97       130.1 0.10            116            242 336 
 CHI  HZ IP     C 1559 32.67                             117    0.17 8  249 195 
 CHI  HN ES       16 0  1.56                             117   -0.28 8  249 195 
 CHI  HZ I        16 0 11.55        54.5 0.34            115            249 195 
 ROSC BZ EP   1   1559 33.04                             116    0.18 6  252 211 
 ROSC BN ES   4   16 0  0.58                             116   -1.90 0  252 211 
 ROSC BZ I        16 0 11.92       112.5 0.45            115            252 211 
 HEL  HZ EP       1559 35.58                             115    0.75 8  270 256 
 HEL  HN ES       16 0  6.48                             115    0.50 8  270 256 
 HEL  HZ I        16 0 12.80        74.6 0.30            113            270 256 
 URE  HZ EP   4 C 1559 34.31                             113   -1.35 0  282 292 
 URE  HN ES   4   16 0  5.87                             113   -1.59 0  282 292 
 URE  HZ I        16 0 19.98        87.7 0.18            112            282 292 
 VIL  SZ EP       1559 37.89                             112   -0.36 7  303 191 
 VIL  SN ES       16 0 11.61                             112   -0.46 7  303 191 
 VIL  SZ I        16 0 18.53        61.3 0.58            110            303 191 
 RREF HZ EP       1559 41.58                             111    0.75 7  321 229 
 RREF HN ES   4   16 0 18.25                             111    1.58 0  321 229 
 RREF HZ I        16 0 25.96        97.4 0.36            109            321 229 
 COD  HZ EP       1559 42.20                             109   -0.93 6  348 355 
 COD  HN ES   4   16 0 18.53                             109   -2.23 0  348 355 
 COD  HZ I        16 0 24.17        19.9 0.62            108            348 355 
 PRA  HZ EP       1559 48.35                             106    0.05 6  391 209 
 PRA  HN ES       16 0 29.57                             106   -0.38 6  391 209 
 PRA  HZ I        16 0 33.99        65.7 0.60            105            391 209 
 SJC  HZ EP   4   1559 48.16                             105   -2.07 0  408 327 
 SJC  HN ES   4   16 0 28.23                             105   -5.16 0  408 327 
 SJC  HZ I        16 0 34.75        23.3 0.28            104            408 327 
                                                                                
