 2015  416 1729 41.6 L   6.582 -73.462119.1  RSN  9 0.3 1.7LRSN                1
 GAP= 83        0.60       2.4     2.8  4.9  0.8071E+00  0.5409E+01 -0.2569E+00E
 Epicentro: EL CARMEN - SANTANDER                                              3
 ACTION:UPD 15-06-03 16:55 OP:cam  STATUS:               ID:20150416172941 L   I
 OLDACT:REG 15-04-16 21:50 OP:spq  STATUS:               ID:20150416172749     3
 2015-04-16-1727-49M.COL___272                                                 6
 STAT SP IPHASW D HRMM SECON CODA AMPLIT PERI AZIMU VELO AIN AR TRES W  DIS CAZ7
 BAR2 EZ EP       1729 58.30                             165    0.0010 31.0  88 
 BAR2 EZ ES   1   1730 10.90                             165   -0.39 7 31.0  88 
 BAR2 EZ I        1730 12.18        44.0 0.42            167           31.0  88 
 BRR  HZ EP       1729 59.27                             150   -0.2710 64.3 335 
 BRR  HN ES       1730 13.52                             150    0.0210 64.3 335 
 BRR  HZ I        1730 16.94         6.5 0.21            148           64.3 335 
 RUS  HZ EP       1730  1.62                             142   -0.1910 87.0 151 
 RUS  HN ES   1   1730 17.89                             142    0.35 7 87.0 151 
 RUS  HZ I        1730 18.76         4.5 0.32            146           87.0 151 
 PTB  HZ EP   4   1730  1.66                             134   -1.37 0  110 268 
 PTB  HE ES   4   1730 17.72                             134   -1.99 0  110 268 
 PTB  HZ I        1730 21.14        12.9 0.44            134            110 268 
 PAM  SE ES   1   1730 22.71                             132    0.46 7  119  45 
 PAM  SZ I        1730 23.53         5.8 0.22            134            119  45 
 ZAR  HZ EP       1730 10.73                             119    0.38 9  184 303 
 ZAR  HN ES       1730 32.79                             119    0.06 9  184 303 
 ZAR  HZ I        1730 38.16         8.2 0.28            119            184 303 
 NOR  HE ES       1730 34.41                             117    0.03 9  192 234 
 NOR  HZ I        1730 35.53         4.3 0.40            119            192 234 
 SML  HZ EP   1   1730 17.88                             110   -0.27 6  254 345 
 SML  HE ES   1   1730 46.43                             110   -0.19 6  254 345 
 SML  HZ I        1730 52.66        12.0 0.10            111            254 345 
 GUY2CHN ES   4   1730 50.36                             110    1.79 0  259 235 
 GUY2CHZ I        1730 54.71         2.4 0.14                           259 235 
                                                                                
