 2010  216 1715 58.9 L   6.813 -73.017142.7  RSN  4 0.2 2.1LRSN                1
 GAP=332        0.39       7.9    16.2  6.3 -0.7531E+02  0.3338E+02  0.1057E+02E
 Epicentro: CEPITA - SANTANDER                                                 3
 ACTION:UP  10-08-24 09:49 OP:vdl  STATUS:               ID:20100216171558 L   I
 2010-02-16-1711-34S.COL___095                                                 6
 STAT SP IPHASW D HRMM SECON CODA AMPLIT PERI AZIMU VELO SNR AR TRES W  DIS CAZ7
 BAR2 SZ EP   1   1716 18.48                             167     0.1 7   31 217 
 BAR2 SZ ES   2   1716 33.32                             167    -0.2 5   31 217 
 CHI  HZ EP   1   1716 36.95                             116    -0.1 6  254 198 
 CHI  HN ES   2   1717  7.04                             116     0.3 4  254 198 
 CHI  HZ I        1717  9.82         8.5 0.55                           254 198 
 TOL  SZ EP   1   1716 48.52                             108     0.2 5  355 226 
 PRA  HZ EP   1   1716 52.95                             106    -0.4 4  400 211 
 PRA  HN ES   2   1717 35.64                             106    -0.1 3  400 211 
 PRA  HZ I        1717 38.82         3.8 0.29                           400 211 
                                                                                
