 2012  216 1558 17.1 L   6.790 -73.079154.2  RSN  7 0.3 1.6LRSN                1
 GAP=202        0.52       5.6     5.2  6.7  0.1495E+01  0.8983E+01  0.2949E+00E
 ACTION:UP  12-03-07 16:31 OP:epov STATUS:               ID:20120216155817 L   I
 2012-02-16-1550-00M.COL___188                                                 6
 STAT SP IPHASW D HRMM SECON CODA AMPLIT PERI AZIMU VELO AIN AR TRES W  DIS CAZ7
 BAR2 SZ EP   1   1558 37.98                             171    0.17 7 24.6 208 
 BAR2 SZ ES   2   1558 53.36                             171   -0.57 5 24.6 208 
 BAR2 SZ I        1558 54.14         4.5 0.17                          24.6 208 
 GIR2 SZ EP   1   1558 38.09                             167    0.19 7 34.4 338 
 GIR2 SZ ES   2   1558 54.22                             167    0.13 5 34.4 338 
 BRR  HZ EP   2   1558 39.24                             152   -0.36 5 78.3 297 
 BRR  HZ I        1558 42.99        11.0 0.32                          78.3 297 
 BRR  HN ES   2   1558 57.63                             152    0.51 5 78.3 297 
 RUS  HE ES   2   1559  0.74                             146    0.00 5 99.2 180 
 PTB  HZ EP   1   1558 45.17                             133   -0.26 7  155 260 
 PTB  HE ES   2   1559  7.13                             133   -0.37 5  155 260 
 ZAR  HE ES   2   1559 17.05                             123   -0.16 4  211 292 
 NOR  SN ES   2   1559 23.23                             120    0.58 4  240 236 
                                                                                
