 2013  616 1655 54.3 L   6.779 -73.151150.8  RSN  7 0.3 2.1LRSN                1
 GAP=182        0.83       4.2     5.0  6.0  0.5901E+01  0.3932E+01 -0.2022E+00E
 Epicentro: LOS SANTOS - SANTANDER                                             3
 ACTION:UPD 14-01-08 09:55 OP:ep   STATUS:               ID:20130616165554 L   I
 OLDACT:REG 13-06-16 17:55 OP:cam  STATUS:               ID:20130616164959     3
 2013-06-16-1649-59M.COL___261                                                 6
 STAT SP IPHASW D HRMM SECON CODA AMPLIT PERI AZIMU VELO AIN AR TRES W  DIS CAZ7
 BAR2 SZ EP       1656 14.53                             172   -0.0010 20.9 189 
 BAR2 SZ ES       1656 29.94                             172   -0.3410 20.9 189 
 BAR2 SZ I        1656 31.30        33.3 0.14            175           20.9 189 
 GIR2 SZ EP   2   1656 14.55                             167   -0.12 5 33.5 352 
 GIR2 SZ ES   1   1656 30.39                             167   -0.14 7 33.5 352 
 BRR  HZ EP       1656 16.26                             153    0.1910 71.8 300 
 BRR  HN ES       1656 33.80                             153    0.7810 71.8 300 
 BRR  HZ I        1656 37.64        17.5 0.20            153           71.8 300 
 RUS  HZ EP       1656 18.57                             145    0.1410 98.3 176 
 RUS  HN ES       1656 37.25                             145    0.0310 98.3 176 
 RUS  HZ I        1656 38.46        24.0 0.28            149           98.3 176 
 PTB  HZ EP       1656 21.68                             133    0.05 9  147 260 
 PTB  HN ES       1656 42.37                             133   -0.55 9  147 260 
 PTB  HZ I        1656 44.25        12.5 0.36            135            147 260 
 OCA  HZ EP   2   1656 23.25                             130   -0.01 5  163 353 
 OCA  HN ES   1   1656 45.28                             130   -0.53 7  163 353 
 OCA  HZ I        1656 49.38        11.8 0.54            131            163 353 
 ZAR  HE ES   1   1656 52.78                             123    0.03 6  204 293 
                                                                                
