 2013  916 1034 32.2 L   6.805 -73.138151.5  RSN  7 0.5 2.0LRSN                1
 GAP=217        1.13       5.0     7.1  8.3 -0.3682E+01  0.1148E+01 -0.5324E+01E
 Epicentro: LOS SANTOS - SANTANDER                                             3
 ACTION:UPD 13-10-22 09:23 OP:ep   STATUS:               ID:20130916103432 L   I
 OLDACT:REG 13-09-16 16:00 OP:carl STATUS:               ID:20130916102959     3
 2013-09-16-1029-59M.COL___269                                                 6
 STAT SP IPHASW D HRMM SECON CODA AMPLIT PERI AZIMU VELO AIN AR TRES W  DIS CAZ7
 BAR2 SZ EP       1034 52.54                             171   -0.0110 24.1 192 
 BAR2 SZ ES   1   1035  7.49                             171   -0.92 7 24.1 192 
 BAR2 SZ I        1035  9.96        11.5 0.32            166           24.1 192 
 BRR  HZ EP       1034 54.50                             154    0.4810 71.6 298 
 BRR  HN ES       1035 11.82                             154    0.8010 71.6 298 
 BRR  HN I        1035 13.01        22.8 0.16            148           71.6 298 
 PTB  HZ EP       1034 59.28                             133   -0.46 9  149 259 
 PTB  HN ES       1035 20.63                             133   -0.58 9  149 259 
 PTB  HZ I        1035 27.78        10.3 0.40            130            149 259 
 SPBC HZ EP       1035  1.42                             130    0.16 9  164 219 
 SPBC HE ES       1035 24.32                             130    0.42 9  164 219 
 SPBC HZ I        1035 27.47         8.2 0.26            129            164 219 
 ZAR  HZ EP       1035  5.24                             124    0.14 9  205 292 
 ZAR  HE ES       1035 30.76                             124    0.01 9  205 292 
 ZAR  HZ I        1035 36.83         7.4 0.28            122            205 292 
 NOR  HN ES       1035 36.39                             120   -0.22 8  236 234 
 NOR  HZ I        1035 44.21         4.4 0.56            119            236 234 
 SML  HZ EP       1035  9.11                             119   -0.04 8  244 335 
 SML  HN ES   1   1035 37.19                             119   -0.77 6  244 335 
 SML  HZ I        1035 41.01        13.0 0.22            119            244 335 
                                                                                
