 2011  216 1959 50.2 L   6.275 -73.658102.6  RSN  7 0.3 2.2LRSN                1
 GAP=124        0.61       4.3     4.3  7.9 -0.7158E+01  0.2087E+02 -0.1998E+01E
 Epicentro: SANTA HELENA DEL OPON - SANTANDER                                  3
 ACTION:UP  11-03-28 15:08 OP:jfem STATUS:               ID:20110216195950 L   I
 2011-02-16-1954-48S.COL___114                                                 6
 STAT SP IPHASW D HRMM SECON CODA AMPLIT PERI AZIMU VELO SNR AR TRES W  DIS CAZ7
 BAR2 SZ EP       20 0  6.88                             146     0.210   63  56 
 BAR2 SZ I        20 0  6.94        30.5 0.14                            63  56 
 BAR2 SZ ES   1   20 0 19.44                             146    -0.1 7   63  56 
 RUS  HZ EP   1   20 0  8.12                             141     0.1 7   76 124 
 RUS  HN ES   1   20 0 21.54                             141    -0.3 7   76 124 
 BTL  SZ EP       20 0  8.26                             138     0.010   83  31 
 NOR  SN ES   1   20 0 34.62                             118     0.3 7  156 240 
 CHI  HZ EP   1   20 0 18.56                             114     0.2 7  182 183 
 CHI  HZ I        20 0 51.27        28.2 0.43                           182 183 
 HEL  HZ EP   1   20 0 20.60                             111    -0.5 6  207 268 
 RREF HZ EP   1   20 0 25.13                             107    -0.2 6  241 231 
 RREF HZ I        20 1  0.31        10.2 0.24                           241 231 
                                                                                
