 2012 1216 1148 34.2 L   6.148 -73.826 89.6  RSN  4 0.3 1.4LRSN                1
 GAP=193        0.83       8.3     4.3 11.1  0.1907E+02 -0.8496E+01 -0.3277E+02E
 Epicentro: LANDAZURI - SANTANDER                                              3
 ACTION:UPD 13-01-04 14:28 OP:ep   STATUS:               ID:20121216114834 L   I
 2012-12-16-1145-48M.COL___186                                                 6
 STAT SP IPHASW D HRMM SECON CODA AMPLIT PERI AZIMU VELO AIN AR TRES W  DIS CAZ7
 PTB  HN ES       1149  3.45                             134    0.0710 82.1 302 
 PTB  HN I        1149  4.06         9.9 0.26                          82.1 302 
 BAR2 SZ EP       1148 51.78                             133    0.5110 86.5  55 
 BAR2 SZ ES       1149  4.63                             133    0.0210 86.5  55 
 BAR2 SZ I        1149  6.45        12.0 0.48                          86.5  55 
 RUS  HE ES       1149  5.12                             133   -0.1710 86.9 109 
 RUS  HE I        1149  7.28         2.9 0.46                          86.9 109 
 BRR  HZ EP       1148 52.45                             126   -0.4410  107   7 
 BRR  HN I        1149  8.72         7.4 0.30                           107   7 
                                                                                
