 2011  116 1252 42.5 L   6.786 -73.132148.3  RSN  5 0.4 1.9LRSN                1
 GAP=160        0.80       5.5    12.6 11.8 -0.2565E+02  0.2682E+02 -0.1812E+02E
 Epicentro: LOS SANTOS - SANTANDER                                             3
 ACTION:UP  11-02-08 08:40 OP:pat  STATUS:               ID:20110116125242 L   I
 2011-01-16-1240-00M.COL___132                                                 6
 STAT SP IPHASW D HRMM SECON CODA AMPLIT PERI AZIMU VELO SNR AR TRES W  DIS CAZ7
 BAR2 SZ EP   1   1253  2.55                             171     0.1 7   22 195 
 BAR2 SZ ES   2   1253 17.55                             171    -0.4 5   22 195 
 BAR2 SZ I        1253 18.40        27.4 0.26                            22 195 
 RUS  HZ EP   1   1253  6.58                             145     0.2 7   99 177 
 RUS  HN ES   2   1253 24.74                             145    -0.3 5   99 177 
 RUS  HZ I        1253 25.80         6.8 0.28                            99 177 
 GRA  SZ EP   1   1253  8.42                             137     0.4 7  127  17 
 GRA  SZ ES   2   1253 28.11                             137     0.1 5  127  17 
 GRA  SZ I        1253 29.18        11.9 0.48                           127  17 
 OCA  SZ EP   1   1253 10.35                             130    -0.8 7  162 353 
 OCA  SZ ES   2   1253 34.07                             130     0.5 5  162 353 
 OCA  SZ I        1253 37.27        11.7 0.35                           162 353 
 NOR  SN ES   2   1253 46.63                             119     0.2 4  235 235 
                                                                                
