 2010  516 1913 16.7 L   6.765 -73.039142.9  RSN  7 0.4 1.6LRSN                1
 GAP=169        0.81       4.6     9.1  7.8 -0.3668E+01 -0.1438E+02 -0.6247E+01E
 Epicentro: LOS SANTOS - SANTANDER                                             3
 ACTION:UP  10-08-24 10:05 OP:vdl  STATUS:               ID:20100516191316 L   I
 2010-05-16-1912-38S.COL___108                                                 6
 STAT SP IPHASW D HRMM SECON CODA AMPLIT PERI AZIMU VELO AIN AR TRES W  DIS CAZ7
 BAR2 SZ EP   1   1913 35.56                             169    -0.4 7   25 220 
 BAR2 SZ ES   1   1913 50.45                             169    -0.6 7   25 220 
 BRR  HZ EP       1913 38.39                             148     0.110   84 297 
 BRR  HZ I        1913 38.83        10.1 0.10                            84 297 
 BRR  HE ES   1   1913 55.40                             148     0.3 7   84 297 
 RUS  HZ EP   1   1913 39.74                             144    -0.1 7   97 183 
 RUS  HN ES   1   1913 58.41                             144     0.5 7   97 183 
 RUS  HZ I        1913 59.95         2.8 0.26                            97 183 
 BRI  SZ EP   1   1913 40.36                             141     0.1 7  109  14 
 BRI  SZ ES   2   1913 59.32                             141     0.6 5  109  14 
 GUE  SZ EP       1913 41.33                             138     0.110  119   6 
 GUE  SZ ES   2   1913 59.63                             138    -0.8 5  119   6 
 HEL  HZ EP   3   1913 57.27                             113    -0.6 2  283 257 
 HEL  HZ I        1914 30.51         1.8 0.38                           283 257 
 PRA  HZ EP   2   1914 10.21                             106    -0.2 3  395 211 
 PRA  HZ I        1914 19.38         2.6 0.54                           395 211 
                                                                                
