 2010  816 1156 17.7 L   6.290 -74.003 32.1  RSN  5 0.4 1.5LRSN                1
 GAP=113        0.94       6.5     4.9999.9  0.1272E+02  0.5278E+04  0.5500E+04E
 Epicentro: CIMITARRA - SANTANDER                                              3
 ACTION:UP  10-09-07 10:55 OP:vdl  STATUS:               ID:20100816115617 L   I
 2010-08-16-1153-10S.COL___111                                                 6
 STAT SP IPHASW D HRMM SECON CODA AMPLIT PERI AZIMU VELO SNR AR TRES W  DIS CAZ7
 BRR  HZ EP   1   1156 32.56                              61     0.0 7   96  20 
 BRR  HE ES   2   1156 44.73                              61     0.5 5   96  20 
 BRR  HZ I        1156 46.65         9.4 0.06                            96  20 
 BAR2 SZ EP       1156 33.05                              61     0.110   97  70 
 BAR2 SZ I        1156 33.37        15.9 0.08                            97  70 
 BAR2 SZ ES   1   1156 44.82                              61    -0.1 7   97  70 
 RUS  HZ EP       1156 34.96                              61    -0.110  111 113 
 RUS  HZ I        1156 35.39         9.5 0.10                           111 113 
 RUS  HN ES   1   1156 48.35                              61    -0.3 7  111 113 
 HEL  HZ IP     C 1156 41.84                              61    -0.4 9  169 266 
 HEL  HZ I        1156 42.35         5.8 0.28                           169 266 
 HEL  HE ES   1   1157  0.96                              61    -0.4 7  169 266 
 RREF HZ EP       1156 48.90                              61     0.8 8  214 224 
 RREF HZ I        1156 49.46         2.9 0.18                           214 224 
                                                                                
