 2015  616 1743 22.9 L   6.785 -73.118140.2  RSN  6 0.5 2.2LRSN                1
 GAP=141        1.32       6.1     9.6  8.9 -0.4383E+01  0.5714E+01 -0.4477E+01E
 Epicentro: LOS SANTOS - SANTANDER                                             3
 ACTION:UPD 15-09-10 22:13 OP:cam  STATUS:               ID:20150616174322 L   I
 OLDACT:DUP 15-06-17 00:54 OP:stll STATUS:               ID:20150616173751d    3
 2015-06-16-1737-50M.COL___312                                                 6
 STAT SP IPHASW D HRMM SECON CODA AMPLIT PERI AZIMU VELO AIN AR TRES W  DIS CAZ7
 BAR2 EZ EP       1743 41.98                             170    0.1210 22.5 198 
 BAR2 EZ ES       1743 56.03                             170   -0.6010 22.5 198 
 BAR2 EZ I        1743 58.39        34.0 0.18            177           22.5 198 
 BRR  HZ EP       1743 43.91                             150    0.2410 74.6 299 
 BRR  HN ES       1744  0.43                             150    0.5810 74.6 299 
 PAM  SZ EP       1743 44.98                             150    0.4710 76.8  37 
 RUS  HZ EP       1743 46.13                             143    0.1310 98.8 178 
 RUS  HN ES       1744  4.00                             143    0.0110 98.8 178 
 RUS  HZ I        1744  6.67        13.8 0.28            141           98.8 178 
 OCA  HZ EP       1743 49.87                             128   -1.12 9  162 352 
 OCA  HZ I        1744 15.20        38.5 0.26            118            162 352 
 TOL  SZ EP       1744 11.75                             108    0.68 7  344 225 
 TOL  SN ES       1744 47.93                             108   -0.70 7  344 225 
 TOL  SZ I        1744 54.86         4.2 0.38            103            344 225 
                                                                                
