 2016 1016 1438 28.1 L   6.550 -73.525113.3  RSN 19 0.5 2.5LRSN                1
 GAP= 72        1.18       3.0     3.7  6.3 -0.4935E+01  0.9701E+01 -0.2035E+01E
 Epicentro: EL CARMEN - SANTANDER                                              3
 ACTION:UPD 16-11-09 19:20 OP:rebc STATUS:               ID:20161016143828 L   I
 OLDACT:UP  16-10-16 23:20 OP:dnl  STATUS:               ID:20161016143741     3
 OLDACT:UP  16-10-16 23:19 OP:dnl  STATUS:               ID:20161016143741     3
 OLDACT:UP  16-10-16 23:18 OP:dnl  STATUS:               ID:20161016143741     3
 OLDACT:REG 16-10-16 20:51 OP:dnl  STATUS:               ID:20161016143741     3
 2016-10-16-1438-00M.COL___377                                                 6
 STAT SP IPHASW D HRMM SECON CODA AMPLIT PERI AZIMU VELO AIN AR TRES W  DIS CAZ7
 BAR2 EZ IP     D 1438 44.73                             160    0.3610 38.2  83 
 BAR2 EZ ES       1438 57.38                             160    0.3310 38.2  83 
 BRR  HZ EP       1438 45.50                             148    0.0410 65.0 341 
 BRR  HE ES       1438 59.53                             148    0.5510 65.0 341 
 BRR  HZ I        1439  6.83        41.7 0.12            148           65.0 341 
 RUS  HZ EP       1438 47.65                             140   -0.1410 87.6 146 
 RUS  HN ES       1439  2.73                             140   -0.3910 87.6 146 
 RUS  HZ I        1439  4.90        36.5 0.20            143           87.6 146 
 PTB  HZ IP     D 1438 47.51                             135   -0.9010  103 269 
 PTB  HN ES   4   1439  2.38                             135   -1.84 0  103 269 
 PTB  HZ I        1439  3.60       130.1 0.30            134            103 269 
 SPBC HZ EP       1438 49.52                             131   -0.1810  116 211 
 SPBC HN ES       1439  6.12                             131   -0.4110  116 211 
 SPBC HZ I        1439  7.78        84.4 0.10            132            116 211 
 PAM  EZ EP       1438 51.33                             128    0.1610  126  46 
 PAM  EE ES       1439  9.26                             128    0.1110  126  46 
 PAM  EZ I        1439 10.85        67.2 0.30            132            126  46 
 NOR  HZ EP       1438 56.26                             117   -0.33 9  184 234 
 NOR  HE ES       1439 17.72                             117   -1.08 9  184 234 
 NOR  HZ I        1439 20.88        35.4 0.14            118            184 234 
 OCA  HZ EP       1438 56.98                             116   -0.14 9  188   7 
 OCA  HE ES       1439 19.42                             116   -0.32 9  188   7 
 OCA  HZ I        1439 25.88        80.1 0.36            118            188   7 
 ROSC BZ EP   4   1439  1.49                             114    1.81 0  209 205 
 ROSC BN ES       1439 24.33                             114    0.03 8  209 205 
 ROSC BZ I        1439 31.08        29.1 0.55            115            209 205 
 CHI  HZ EP   4   1439  2.70                             113    2.43 0  214 186 
 CHI  HE ES       1439 26.10                             113    0.76 8  214 186 
 CHI  HZ I        1439 30.01         9.6 0.30            115            214 186 
 HEL  HZ EP       1439  1.69                             112    0.17 8  225 260 
 HEL  HE ES       1439 28.18                             112    0.61 8  225 260 
 HEL  HZ I        1439 32.83        19.0 0.18            113            225 260 
 GUY2CHZ EP       1439  5.40                             109    0.80 8  251 234 
 GUY2CHE ES   4   1439 35.30                             109    2.25 0  251 234 
 GUY2CHZ I        1439 37.19        29.0 0.32                           251 234 
 ELA  HZ EP   4   1439 10.11                             107    2.15 0  279 228 
 ELA  HN ES   4   1439 36.91                             107   -2.12 0  279 228 
 ELA  HZ I        1439 45.94        15.3 0.64            108            279 228 
 CBOC HZ EP       1439  9.05                             106    0.82 7  286 255 
 CBOC HN ES       1439 39.10                             106   -0.41 7  286 255 
 CBOC HZ I        1439 43.62         9.5 0.38            107            286 255 
 ANIL HZ EP   4   1439 13.76                             105    2.68 0  308 223 
 ANIL HN ES       1439 45.17                             105    0.59 7  308 223 
 ANIL HZ I        1439 53.70        37.0 0.26            106            308 223 
 SOCV BZ EP       1439 15.69                             102   -0.17 6  352  57 
 SOCV BE ES   4   1439 51.53                             102   -1.56 0  352  57 
 LL6C HZ EP   4   1438 57.36                             102   -18.7 0  353   5 
 LL6C HE ES   4   1439 33.05                             102   -20.4 0  353   5 
 LL6C HZ I        1439 42.55         7.8 0.30            103            353   5 
 SJC  HZ EP   4   1439 22.12                              99   -1.10 0  413 334 
 SJC  HE ES   4   1440  3.88                              99   -2.31 0  413 334 
 SJC  HZ I        1440 18.45         5.4 0.48            101            413 334 
 CRJC HZ EP       1439 33.11                              96   -0.64 4  499   8 
 CRJC HE ES   4   1440 23.82                              96   -1.11 0  499   8 
 CRJC HZ I        1440 31.65         8.1 0.52             98            499   8 
                                                                                
