 2014  316 1720 18.2 L   6.792 -73.118140.0  RSN 15 0.5 2.3LRSN                1
 GAP=140        1.15       3.3     4.5  6.2 -0.2141E+01  0.5301E+01  0.3759E+01E
 Epicentro: LOS SANTOS - SANTANDER                                             3
 ACTION:UPD 14-04-09 23:17 OP:nd   STATUS:               ID:20140316172018 L   I
 OLDACT:REG 14-03-16 16:13 OP:mh   STATUS:               ID:20140316171819     3
 2014-03-16-1718-19M.COL___257                                                 6
 STAT SP IPHASW D HRMM SECON CODA AMPLIT PERI AZIMU VELO AIN AR TRES W  DIS CAZ7
 BAR2 SZ IP     D 1720 37.30                             170    0.2010 23.2 198 
 BAR2 SZ ES   1   1720 51.37                             170   -0.50 7 23.2 198 
 BAR2 SZ I        1720 55.46        36.6 0.08            168           23.2 198 
 BRR  HZ IP     C 1720 38.77                             151   -0.1110 74.3 298 
 BRR  HN ES       1720 56.04                             151    1.0110 74.3 298 
 BRR  HZ I        1720 59.25        27.6 0.12            149           74.3 298 
 PAM  SZ EP       1720 40.05                             150    0.3610 76.1  37 
 PAM  SN ES   1   1720 56.90                             150    0.42 7 76.1  37 
 PAM  SZ I        1720 59.13        46.9 0.46            156           76.1  37 
 RUS  HZ IP     C 1720 41.22                             143   -0.0510 99.5 178 
 RUS  HN ES       1720 59.40                             143    0.1010 99.5 178 
 RUS  HZ I        1721  2.74        10.5 0.17            146           99.5 178 
 PTB  HZ EP       1720 43.97                             130   -0.96 9  151 259 
 PTB  HN ES       1721  5.43                             130   -0.38 9  151 259 
 PTB  HZ I        1721 12.68        27.2 0.31            131            151 259 
 OCA  HZ EP       1720 46.11                             128   -0.04 9  162 352 
 OCA  HN ES       1721  7.06                             128   -0.92 9  162 352 
 OCA  HZ I        1721 13.01        22.4 0.17            132            162 352 
 SPBC HZ EP       1720 46.12                             128   -0.23 9  164 220 
 SPBC HN ES       1721  7.77                             128   -0.57 9  164 220 
 SPBC HZ I        1721 14.44                             129            164 220 
 ZAR  HZ EP   1   1720 51.03                             121    0.46 6  207 292 
 ZAR  HN ES       1721 16.33                             121    0.48 8  207 292 
 ZAR  HZ I        1721 21.81        20.5 0.19            123            207 292 
 NOR  HZ EP       1720 53.20                             117   -0.58 8  237 235 
 NOR  HN ES       1721 21.52                             117   -0.05 8  237 235 
 NOR  HZ I        1721 24.67        23.8 0.37            119            237 235 
 CHI  HZ EP       1720 55.25                             116   -0.30 8  249 196 
 CHI  HN ES       1721 24.93                             116    0.23 8  249 196 
 CHI  HZ I        1721 27.29         7.5 0.35            119            249 196 
 ROSC BZ EP   1   1720 56.72                             115    0.65 6  254 212 
 ROSC BN ES   4   1721 25.88                             115    0.24 0  254 212 
 HEL  HZ EP   1   1720 59.15                             113    0.75 6  275 256 
 HEL  HN ES   1   1721 29.95                             113    0.16 6  275 256 
 HEL  HZ I        1721 36.00        10.8 0.42            115            275 256 
 URE  HZ EP   4   1721  0.97                             112    1.65 0  287 292 
 URE  HN ES   4   1721 28.30                             112   -3.12 0  287 292 
 GUY2CHZ EP   1   1721  2.35                             111    0.61 5  303 235 
 GUY2CHZ I        1721 43.99        13.5 0.59                           303 235 
 RREF HZ EP       1721  4.59                             110    0.32 7  324 230 
 RREF HN ES   4   1721 42.75                             110    2.52 0  324 230 
 RREF HZ I        1721 49.07        15.2 0.33            112            324 230 
 ORTC HZ EP   1   1721 11.76                             105   -0.26 4  397 217 
 ORTC HN ES       1721 54.97                             105    0.93 6  397 217 
 ORTC HZ I        1722  2.29         8.1 0.37            108            397 217 
 SJC  HZ EP   4   1721 11.48                             105   -2.35 0  412 327 
 SJC  HN ES   4   1721 52.19                             105   -5.06 0  412 327 
                                                                                
