 2014  716 1008  6.1 L   6.812 -73.135142.5  RSN 24 0.5 2.4LRSN                1
 GAP= 53        1.16       2.6     2.9  5.1 -0.1601E+01  0.4328E+01  0.9889E+00E
 Epicentro: LOS SANTOS - SANTANDER                                             3
 ACTION:UPD 15-03-16 20:44 OP:nd   STATUS:               ID:20140716100806 L   I
 OLDACT:DUP 14-07-16 21:43 OP:stll STATUS:               ID:20140716100007d    3
 2014-07-16-1000-06M.COL___256                                                 6
 STAT SP IPHASW D HRMM SECON CODA AMPLIT PERI AZIMU VELO AIN AR TRES W  DIS CAZ7
 BAR2 SZ IP     C 10 8 25.74                             170    0.4010 24.8 192 
 BAR2 SZ ES       10 8 40.29                             170   -0.0910 24.8 192 
 BAR2 SZ I        10 8 43.42        35.8 0.28            169           24.8 192 
 PAM  SZ EP     D 10 8 28.64                             151    0.8010 75.6  39 
 PAM  SN ES       10 8 45.30                             151    0.4810 75.6  39 
 PAM  SZ I        10 8 47.85        40.8 0.48            152           75.6  39 
 RUS  HZ EP   1   10 8 29.54                             143   -0.05 7  102 177 
 RUS  HZ I        10 8 30.74        14.4 0.14            145            102 177 
 RUS  HE ES       10 8 47.39                             143   -0.5510  102 177 
 PTB  HZ EP       10 8 32.31                             131   -0.60 9  149 258 
 PTB  HE ES       10 8 53.70                             131   -0.14 9  149 258 
 PTB  HZ I        10 8 59.57        32.6 0.54            129            149 258 
 TAM  HZ IP     D 10 8 33.90                             130    0.48 9  154 106 
 TAM  HZ I        10 8 34.30        16.0 0.32            134            154 106 
 TAM  HN ES       10 8 54.48                             130   -0.26 9  154 106 
 OCA  HZ EP       10 8 33.92                             129   -0.11 9  159 353 
 OCA  HE ES       10 8 55.42                             129   -0.41 9  159 353 
 OCA  HZ I        10 9  4.18        19.2 0.26            128            159 353 
 SPBC HZ EP       10 8 34.63                             128    0.14 9  165 219 
 SPBC HN ES       10 8 57.04                             128    0.38 9  165 219 
 SPBC HZ I        10 9  1.80        36.4 0.42            128            165 219 
 ZAR  HZ EP       10 8 38.07                             121   -0.30 9  205 292 
 ZAR  HN ES       10 9  3.26                             121   -0.31 9  205 292 
 ZAR  HZ I        10 9  9.98        28.5 0.30            120            205 292 
 NOR  HZ EP       10 8 41.57                             118   -0.23 8  236 234 
 NOR  HN ES       10 9  9.54                             118   -0.13 8  236 234 
 NOR  HZ I        10 9 13.28        18.1 0.34            117            236 234 
 SML  HZ EP       10 8 41.96                             117   -0.49 8  243 335 
 SML  HN ES       10 9 11.46                             117    0.64 8  243 335 
 SML  HZ I        10 9 15.70        21.0 0.10            116            243 335 
 CHI  HZ EP       10 8 43.74                             116   -0.02 8  250 195 
 CHI  HZ I        10 8 44.65         8.1 0.46            117            250 195 
 CHI  HN ES       10 9 12.52                             116   -0.64 8  250 195 
 ROSC BZ EP       10 8 45.18                             116    0.98 8  254 211 
 ROSC BN ES       10 9 14.08                             116    0.13 8  254 211 
 ROSC BZ I        10 9 23.47        25.9 0.45            116            254 211 
 HEL  HZ EP       10 8 47.08                             114    0.79 8  274 256 
 HEL  HN ES       10 9 16.83                             114   -0.82 8  274 256 
 HEL  HZ I        10 9 24.33        13.1 0.36            113            274 256 
 URE  HZ EP       10 8 46.21                             113   -0.85 7  284 292 
 URE  HE ES   4   10 9 16.87                             113   -2.16 0  284 292 
 URE  HZ I        10 9 26.53        11.1 0.28            112            284 292 
 SOCV BZ EP       10 8 48.19                             112   -0.59 7  300  57 
 SOCV BN ES   4   10 9 20.23                             112   -1.86 0  300  57 
 GUY2CHZ EP       10 8 49.78                             111    0.05 7  303 235 
 GUY2CHN ES       10 9 24.44                             111    0.66 7  303 235 
 GUY2CHZ I        10 9 32.43        21.4 0.74                           303 235 
 PTGC HZ EP       10 8 48.59                             111   -1.28 7  309 159 
 RREF HZ EP       10 8 52.26                             110   -0.01 7  324 229 
 RREF HN ES       10 9 28.62                             110    0.31 7  324 229 
 RREF HZ I        10 9 37.46        13.4 0.50            110            324 229 
 CBOC HZ EP       10 8 53.58                             109    0.55 7  335 252 
 CBOC HZ I        10 8 54.40         4.9 0.20            109            335 252 
 CBOC HN ES       10 9 29.45                             109   -0.21 7  335 252 
 DBB  SZ EP       10 8 53.36                             109   -0.19 7  341 274 
 DBB  SZ I        10 9 32.24        32.0 0.50            108            341 274 
 TOL  SZ EP       10 8 54.64                             109    0.24 7  345 225 
 TOL  SN ES       10 9 32.46                             109    0.36 7  345 225 
 ANIL HZ EP       10 8 57.75                             108    1.80 6  359 225 
 ANIL HE ES       10 9 34.43                             108   -0.44 6  359 225 
 ANIL HZ I        10 9 39.84        28.8 0.42            108            359 225 
 PRA  HZ EP       10 8 59.05                             106   -0.63 6  394 210 
 PRA  HE ES       10 9 41.36                             106   -0.14 6  394 210 
 PRA  HZ I        10 9 47.51        12.7 0.36            106            394 210 
 ORTC HZ EP     C 10 8 59.98                             106   -0.10 6  397 216 
 ORTC HN ES       10 9 42.45                             106    0.23 6  397 216 
 ORTC HZ I        10 9 50.45         8.6 0.58            106            397 216 
                                                                                
