 2011  316 1559 48.0 L   6.780 -73.177139.5  RSN  6 0.4 1.8LRSN                1
 GAP=155        0.96       6.2    13.7  8.4 -0.3176E+02  0.1486E+01 -0.8957E+01E
 Epicentro: LOS SANTOS - SANTANDER                                             3
 ACTION:UP  11-06-16 14:34 OP:jfem STATUS:               ID:20110316155947 L   I
 2011-03-16-1558-02S.COL___138                                                 6
 STAT SP IPHASW D HRMM SECON CODA AMPLIT PERI AZIMU VELO SNR AR TRES W  DIS CAZ7
 BTL  SZ EP       16 0  6.18                             173    -0.610   18 327 
 BTL  SZ ES   1   16 0 20.87                             173    -0.6 7   18 327 
 BAR2 SZ EP       16 0  6.77                             171     0.010   21 182 
 BAR2 SZ ES   1   16 0 21.60                             171     0.1 7   21 182 
 BAR2 SZ I        16 0 23.52        27.1 0.25                            21 182 
 GIR2 SZ EP       16 0  6.92                             166     0.010   33 357 
 GIR2 SZ ES   2   16 0 22.67                             166     0.9 5   33 357 
 RUS  HZ EP   1   16 0 10.96                             143     0.0 7   99 174 
 RUS  HN ES   1   16 0 29.13                             143     0.2 7   99 174 
 RUS  HZ I        16 0 30.71         9.1 0.51                            99 174 
 GRA  SZ EP       16 0 13.50                             134     0.510  129  19 
 GRA  SZ ES   2   16 0 32.59                             134     0.2 5  129  19 
 GRA  SZ I        16 0 34.24         6.7 0.25                           129  19 
 NOR  SN ES   2   16 0 50.70                             118     0.5 4  231 235 
                                                                                
