 2013  916 1259 35.4 L   7.208 -73.115159.1  RSN  5 0.5 2.1LRSN                1
 GAP=217        1.25       8.0     9.9 11.9  0.3253E+02  0.3247E+00 -0.2102E+02E
 Epicentro: RIONEGRO - SANTANDER                                               3
 ACTION:UPD 13-10-22 09:23 OP:ep   STATUS:               ID:20130916125935 L   I
 OLDACT:REG 13-09-16 16:23 OP:carl STATUS:               ID:20130916125736     3
 2013-09-16-1257-36M.COL___238                                                 6
 STAT SP IPHASW D HRMM SECON CODA AMPLIT PERI AZIMU VELO AIN AR TRES W  DIS CAZ7
 BRR  HZ EP       1259 58.18                             156    0.3710 66.8 260 
 BRR  HN ES       13 0 15.96                             156    0.6910 66.8 260 
 BRR  HN I        13 0 18.12        29.4 0.14            152           66.8 260 
 BAR2 SZ EP       1259 58.70                             156    0.4610 68.5 186 
 BAR2 SZ ES       13 0 15.30                             156   -0.7310 68.5 186 
 BAR2 SZ I        13 0 16.42         7.5 0.20            155           68.5 186 
 PTB  HZ EP       13 0  4.71                             131   -0.39 9  166 244 
 PTB  HN ES   1   13 0 27.82                             131   -0.43 7  166 244 
 PTB  HZ I        13 0 29.79         8.9 0.28            130            166 244 
 ZAR  HE ES       13 0 33.33                             126    0.14 9  195 279 
 ZAR  HE I        13 0 39.82        23.5 0.46            125            195 279 
 SML  HE ES       13 0 34.45                             125   -0.53 8  205 329 
                                                                                
