 2015  616 1022 29.8 L   6.009 -73.860 17.1  RSN 13 0.6 2.1LRSN                1
 GAP= 76        1.48       2.9     2.9  5.2 -0.2360E+01  0.6014E+01  0.2505E+01E
 Epicentro: EL PENON - SANTANDER                                               3
 ACTION:UPD 15-09-10 22:12 OP:cam  STATUS:               ID:20150616102229 L   I
 OLDACT:UP  15-06-18 07:48 OP:AK   STATUS:               ID:20150616102229 L   3
 OLDACT:REG 15-06-16 21:04 OP:stll STATUS:               ID:20150616101749     3
 2015-06-16-1017-49M.COL___306                                                 6
 STAT SP IPHASW D HRMM SECON CODA AMPLIT PERI AZIMU VELO AIN AR TRES W  DIS CAZ7
 RUS  HZ EP       1022 43.96                              99   -0.2510 86.9  98 
 RUS  HE ES       1022 54.36                              99   -1.1110 86.9  98 
 RUS  HZ I        1022 56.79        21.6 0.28             95           86.9  98 
 BAR2 EZ IP     C 1022 46.28                              98    0.5510 98.9  49 
 BAR2 EZ ES       1022 57.90                              98   -0.2810 98.9  49 
 BAR2 EZ I        1023  0.16       118.5 0.38             94           98.9  49 
 NOR  HZ EP       1022 49.14                              96    0.1010  122 246 
 NOR  HN ES       1023  3.61                              96   -0.4710  122 246 
 NOR  HZ I        1023  4.65        15.4 0.14             93            122 246 
 BRR  HZ EP     D 1022 49.33                              96    0.2910  123   8 
 BRR  HN ES       1023  4.44                              96    0.3810  123   8 
 BRR  HZ I        1023  7.51        66.2 0.28             93            123   8 
 CHI  HZ EP       1022 54.91                              56    1.35 9  153 175 
 CHI  HN ES       1023 11.88                              56   -0.23 9  153 175 
 CHI  HZ I        1023 18.34        26.6 0.82             93            153 175 
 HEL  HZ EP       1022 58.10                              56    0.52 9  186 276 
 HEL  HN ES       1023 18.71                              56   -0.56 9  186 276 
 HEL  HZ I        1023 20.35        26.1 0.24             56            186 276 
 GUY2CHZ IP   4 C 1022 59.22                              56    1.24 0  188 243 
 GUY2CHE ES       1023 20.14                              56    0.16 9  188 243 
 GUY2CHZ I        1023 24.59        18.0 0.48                           188 243 
 PAM  SZ EP       1022 59.45                              56    0.56 9  195  41 
 PAM  SN ES       1023 21.72                              56    0.11 9  195  41 
 PAM  SZ I        1023 23.83        33.5 0.40             56            195  41 
 ZAR  HZ EP       1022 57.85                              56   -0.78 9  198 326 
 ZAR  HE ES       1023 20.30                              56   -0.83 9  198 326 
 ZAR  HZ I        1023 24.43        17.1 0.26             56            198 326 
 RREF HZ EP       1023  0.83                              56    0.48 8  205 233 
 RREF HN ES   4   1023 22.66                              56   -1.54 0  205 233 
 RREF HZ I        1023 28.96         7.8 0.30             56            205 233 
 TOL  SZ EP       1023  3.52                              56    0.98 8  226 226 
 TOL  SN ES       1023 27.66                              56   -0.44 8  226 226 
 TOL  SZ I        1023 30.07        10.2 0.34             56            226 226 
 CBOC HZ EP   4   1023  6.23                              56    2.25 0  239 266 
 CBOC HN ES   4   1023 32.57                              56    1.92 0  239 266 
 CBOC HZ I        1023 40.45         4.1 0.42             56            239 266 
 ANIL HZ EP   1   1023  4.37                              56    0.15 6  240 226 
 ANIL HE ES       1023 30.63                              56   -0.46 8  240 226 
 ANIL HZ I        1023 38.10        29.7 0.34             56            240 226 
                                                                                
