 2016  316 1252 33.6 L   6.541 -73.536110.1  RSN  8 0.2 1.9LRSN                1
 GAP=136        0.59       2.2     2.2  3.9  0.3319E+00  0.3558E+01  0.6447E+00E
 Epicentro: EL CARMEN - SANTANDER                                              3
 ACTION:UPD 16-05-13 21:24 OP:cam  STATUS:               ID:20160316125233 L   I
 OLDACT:REG 16-03-16 20:48 OP:cara STATUS:               ID:20160316124749     3
 2016-03-16-1247-49M.COL___297                                                 6
 STAT SP IPHASW D HRMM SECON CODA AMPLIT PERI AZIMU VELO AIN AR TRES W  DIS CAZ7
 BAR2 EZ IP     D 1252 49.60                             159    0.0710 39.5  82 
 BAR2 EZ ES       1253  2.10                             159    0.1410 39.5  82 
 BAR2 EZ I        1253  3.67        46.2 0.44            165           39.5  82 
 RUS  HZ EP       1252 52.84                             139   -0.1110 87.5 145 
 RUS  HE ES       1253  7.83                             139   -0.2110 87.5 145 
 RUS  HZ I        1253  9.67        11.0 0.38            143           87.5 145 
 PTB  HZ EP   9   1252 52.41                             134   -1.09 0  102 270 
 PTB  HN ES       1253  7.38                                   -0.5510  102 270 
 PTB  HZ I        1253 12.10        13.9 0.38            135            102 270 
 SPBC HZ EP       1252 54.62                             130   -0.1610  115 211 
 SPBC HN ES       1253 11.55                             130    0.2510  115 211 
 SPBC HZ I        1253 16.77        26.0 0.10            132            115 211 
 ZAR  HZ EP       1253  1.40                             116    0.06 9  180 306 
 ZAR  HE ES       1253 22.98                             116   -0.00 9  180 306 
 ZAR  HZ I        1253 25.97        14.0 0.28            120            180 306 
 NOR  HZ EP       1253  1.38                             116   -0.34 9  183 234 
 NOR  HN ES       1253 23.73                             116    0.07 9  183 234 
 NOR  HZ I        1253 27.09        10.2 0.14            119            183 234 
 CHI  HZ EP       1253  5.69                             112    0.23 8  212 186 
 CHI  HE ES       1253 30.27                             112   -0.05 8  212 186 
 CHI  HZ I        1253 33.23         1.9 0.30            115            212 186 
 GUY2CHZ EP   4   1253 11.00                             108    1.24 0  249 234 
 GUY2CHN ES       1253 38.09                             108    0.11 8  249 234 
 GUY2CHZ I        1253 47.64         4.7 0.52                           249 234 
                                                                                
