 2010  316 1645 25.5 L   6.815 -73.060150.0  RSN 10 0.4 2.4LRSN                1
 GAP=192        0.65       4.0     6.5  5.9  0.7487E+01  0.6506E+01  0.2879E+01E
 Epicentro: LOS SANTOS - SANTANDER                                             3
 ACTION:UP  10-08-24 09:54 OP:vdl  STATUS:               ID:20100316164525 L   I
 2010-03-16-1641-09S.COL___096                                                 6
 STAT SP IPHASW D HRMM SECON CODA AMPLIT PERI AZIMU VELO SNR AR TRES W  DIS CAZ7
 BRR  HZ EP   1   1645 47.55                             151     0.0 8   79 294 
 BRR  HN ES   1   1646  4.66                             151    -0.1 8   79 294 
 BRR  HZ I        1646  7.11        39.6 0.14                            79 294 
 RUS  HZ IP       1645 49.79                             144     0.110  102 181 
 RUS  HN ES   1   1646  8.58                             144    -0.1 7  102 181 
 RUS  HZ I        1646  9.85        22.8 0.38                           102 181 
 OCA  SZ EP   1   1645 54.12                             131     0.0 7  160 350 
 OCA  SZ I        1646 19.82        47.8 0.27                           160 350 
 CHI  HZ IP       1646  3.97                             117     0.1 8  253 197 
 CHI  HE ES   2   1646 33.22                             117    -0.6 4  253 197 
 CHI  HZ I        1646 41.96        10.2 0.49                           253 197 
 ROSC BZ EP   2   1646  5.51                             117     1.0 4  259 213 
 ROSC BZ I        1646 42.44        20.3 0.45                           259 213 
 HEL  HZ EP   2   1646  7.59                             115     0.6 4  282 256 
 HEL  HN ES   2   1646 40.04                             115     0.7 4  282 256 
 HEL  HZ I        1646 44.29         8.6 0.37                           282 256 
 RREF BZ EP   2   1646 12.74                             111     0.0 3  330 230 
 RREF BZ I        1646 57.43        13.7 0.31                           330 230 
 DBB  SZ IP       1646 13.69                             110    -0.5 6  349 274 
 TOL  SZ EP   2   1646 14.06                             109    -0.7 3  351 226 
 PRA  HZ EP   2   1646 19.44                             107    -0.4 3  398 211 
 PRA  HN ES   2   1647  2.19                             107    -0.1 3  398 211 
 PRA  HZ I        1647  7.64        15.9 0.35                           398 211 
                                                                                
