 2017  416 1355 29.6 L   6.801 -73.152147.7  RSN  8 0.5 1.6LRSN                1
 GAP=237        1.22       5.2     6.3  7.4  0.1002E+02  0.9462E+01  0.5781E+01E
 Epicentro: LOS SANTOS - SANTANDER                                             3
 ACTION:UPD 17-05-30 21:12 OP:jn   STATUS:               ID:20170416135529 L   I
 OLDACT:UP  17-04-16 22:14 OP:dani STATUS:               ID:20170416134639     3
 OLDACT:REG 17-04-16 19:59 OP:dani STATUS:               ID:20170416134639     3
 2017-04-16-1348-00M.COL___371                                                 6
 STAT SP IPHASW D HRMM SECON CODA AMPLIT PERI AZIMU VELO AIN AR TRES W  DIS CAZ7
 BAR2 EZ EP     D 1355 49.28                             171   -0.1310 23.3 188 
 BAR2 EZ ES       1356  4.63                             171   -0.2610 23.3 188 
 BAR2 EZ I        1356  8.17         8.1 0.60            166           23.3 188 
 BRR  HZ EP       1355 51.23                             153    0.3610 70.6 299 
 BRR  HE ES       1356  8.60                             153    1.1110 70.6 299 
 BRR  HZ I        1356 11.71         6.4 0.20            150           70.6 299 
 RUS  HZ EP       1355 52.90                             144   -0.6010  101 176 
 RUS  HN ES       1356 11.90                             144   -0.2710  101 176 
 RUS  HZ I        1356 13.00         3.4 0.18            145            101 176 
 PTB  HZ EP       1355 56.35                             133   -0.26 9  147 259 
 PTB  HN ES       1356 17.28                             133   -0.44 9  147 259 
 PTB  HZ I        1356 24.71         6.0 0.38            131            147 259 
 SPBC HZ EP       1355 58.33                             130    0.17 9  163 219 
 SPBC HN ES       1356 20.62                             130    0.15 9  163 219 
 SPBC HZ I        1356 27.00         7.4 0.21            129            163 219 
 ZAR  HZ EP       1356  2.15                             123    0.10 9  203 292 
 ZAR  HN ES       1356 26.40                             123   -1.00 9  203 292 
 ZAR  HZ I        1356 32.98         5.7 0.15            124            203 292 
 NOR  HZ EP       1356  5.62                             119    0.29 8  234 234 
 NOR  HE ES       1356 33.52                             119    0.27 8  234 234 
 NOR  HZ I        1356 38.68         4.8 0.38            120            234 234 
 CHI  HZ EP       1356  8.01                             118    0.67 8  249 195 
 CHI  HN ES       1356 36.84                             118    0.02 8  249 195 
 CHI  HZ I        1356 42.10         1.2 0.23            119            249 195 
                                                                                
