 2014  316 1830 20.3 L   6.760 -73.160141.4  RSN 10 0.4 2.2LRSN                1
 GAP=136        1.06       3.7     4.1  6.2 -0.2377E+01  0.9078E+01 -0.7134E-01E
 Epicentro: LOS SANTOS - SANTANDER                                             3
 ACTION:UPD 14-04-09 23:17 OP:nd   STATUS:               ID:20140316183020 L   I
 OLDACT:UP  14-03-16 20:59 OP:mher STATUS:               ID:20140316182819     3
 OLDACT:UP  14-03-16 20:59 OP:mher STATUS:               ID:20140316182819     3
 OLDACT:REG 14-03-16 16:17 OP:mh   STATUS:               ID:20140316182819     3
 2014-03-16-1828-19M.COL___257                                                 6
 STAT SP IPHASW D HRMM SECON CODA AMPLIT PERI AZIMU VELO AIN AR TRES W  DIS CAZ7
 BAR2 SZ EP       1830 39.39                             172    0.0910 18.7 187 
 BAR2 SZ ES       1830 54.11                             172   -0.0210 18.7 187 
 BAR2 SZ I        1830 55.45        99.0 0.19            171           18.7 187 
 BRR  HZ IP     C 1830 40.95                             151   -0.0610 72.0 302 
 BRR  HN ES       1830 57.78                             151    0.6010 72.0 302 
 BRR  HZ I        1831  0.93        22.9 0.22            148           72.0 302 
 PAM  SZ EP     C 1830 42.24                             149   -0.0810 81.9  38 
 PAM  SN ES       1830 59.11                             149   -0.3910 81.9  38 
 PAM  SZ I        1831  1.37        38.9 0.52            152           81.9  38 
 RUS  HZ EP       1830 43.46                             144    0.1610 96.3 175 
 RUS  HN ES       1831  1.30                             144    0.0610 96.3 175 
 PTB  HZ EP       1830 46.11                             131   -0.57 9  145 260 
 PTB  HN ES       1831  6.52                             131   -0.75 9  145 260 
 PTB  HZ I        1831 12.57        14.7 0.09            131            145 260 
 OCA  HZ EP   1   1830 47.74                             128   -0.93 7  164 354 
 OCA  HN ES       1831 11.49                             128    0.69 9  164 354 
 OCA  HZ I        1831 14.73        21.1 0.12            129            164 354 
 ZAR  HZ EP       1830 52.36                             121   -0.11 9  204 293 
 ZAR  HN ES       1831 17.39                             121   -0.19 9  204 293 
 ZAR  HZ I        1831 23.34        22.6 0.25            121            204 293 
 NOR  HZ EP       1830 56.07                             118    0.72 8  231 235 
 NOR  HN ES       1831 22.66                             118   -0.03 8  231 235 
 NOR  HZ I        1831 28.98         9.1 0.33            119            231 235 
 HEL  HZ EP       1831  0.48                             114    0.49 8  269 257 
 HEL  HN ES   1   1831 31.37                             114    0.42 6  269 257 
 HEL  HZ I        1831 39.75         6.6 0.41            115            269 257 
 GUY2CHZ EP   4   1831  4.66                             112    1.40 0  297 235 
 GUY2CHN ES   4   1831 38.30                             112    1.53 0  297 235 
 GUY2CHZ I        1831 44.14         4.7 0.31                           297 235 
 SJC  HZ EP   4   1831 13.96                             105   -2.09 0  412 327 
 SJC  HN ES   4   1831 54.23                             105   -5.31 0  412 327 
                                                                                
