 2017  116 1658 17.2 L   6.828 -73.129136.2  RSN  6 0.3 1.4LRSN                1
 GAP=137        0.80       4.0     3.7  6.1 -0.6949E+00  0.8908E+01  0.2620E+00E
 Epicentro: LOS SANTOS - SANTANDER                                             3
 ACTION:UPD 17-05-22 16:00 OP:jn   STATUS:               ID:20170116165817 L   I
 OLDACT:REG 17-01-16 20:43 OP:cog  STATUS:               ID:20170116164746     3
 2017-01-16-1648-00M.COL___332                                                 6
 STAT SP IPHASW D HRMM SECON CODA AMPLIT PERI AZIMU VELO AIN AR TRES W  DIS CAZ7
 BAR2 EZ EP       1658 35.96                             168    0.1610 26.7 193 
 BAR2 EZ ES       1658 50.71                             168    0.4410 26.7 193 
 BAR2 EZ I        1658 51.83         7.5 0.36            171           26.7 193 
 PAM  EZ EP       1658 38.77                             150    0.5410 73.8  40 
 PAM  EN ES       1658 54.05                             150   -0.5410 73.8  40 
 PAM  EZ I        1658 59.01         2.9 0.46            150           73.8  40 
 RUS  HZ EP       1658 40.03                             141   -0.2610  104 177 
 RUS  HE ES       1658 58.06                             141   -0.2110  104 177 
 RUS  HZ I        1658 59.49         3.1 0.72            144            104 177 
 PTB  HZ EP       1658 43.59                             129   -0.09 9  150 258 
 PTB  HN ES       1659  4.33                             129    0.04 9  150 258 
 PTB  HZ I        1659  5.51         3.1 0.12            132            150 258 
 ZAR  HE ES       1659 13.90                             120   -0.13 9  205 291 
 GUY2CHZ EP       1659  0.82                             110    0.02 7  304 235 
 GUY2CHE ES   3   1659 34.48                             110   -0.30 2  304 235 
 GUY2CHZ  IAML    1659 41.98         2.0 0.34                           304 235 
                                                                                
