 2016  316 1358 14.0 L   6.802 -73.217139.5  RSN  5 0.3 1.4LRSN                1
 GAP=146        0.69       3.3     3.8  5.1 -0.3531E+01  0.4465E+01  0.2621E+01E
 Epicentro: ZAPATOCA - SANTANDER                                               3
 ACTION:UPD 16-05-13 21:24 OP:cam  STATUS:               ID:20160316135814 L   I
 OLDACT:UP  16-03-16 23:58 OP:cara STATUS:               ID:20160316134749d    3
 OLDACT:DUP 16-03-16 23:53 OP:cara STATUS:               ID:20160316134749d    3
 OLDACT:REG 16-03-16 20:53 OP:cara STATUS:               ID:20160316134748     3
 2016-03-16-1347-48M.COL___297                                                 6
 STAT SP IPHASW D HRMM SECON CODA AMPLIT PERI AZIMU VELO AIN AR TRES W  DIS CAZ7
 BAR2 EZ IP       1358 32.97                             170    0.0710 23.4 171 
 BAR2 EZ ES       1358 47.25                             170   -0.3710 23.4 171 
 BAR2 EZ I        1358 50.46         7.7 0.32            169           23.4 171 
 PAM  EZ IP     D 1358 35.95                             148    0.0610 82.5  44 
 PAM  EE ES       1358 53.21                             148    0.2610 82.5  44 
 PAM  EZ I        1358 55.37         6.5 0.70            151           82.5  44 
 RUS  HZ EP       1358 36.71                             142   -0.5210  102 172 
 RUS  HN ES       1358 55.55                             142    0.2110  102 172 
 RUS  HZ I        1358 56.67         3.9 0.26            143            102 172 
 PTB  HZ EP       1358 39.71                             132   -0.07 9  140 258 
 PTB  HN ES       1358 59.98                             132    0.11 9  140 258 
 PTB  HZ I        1359  2.20         3.0 0.44            134            140 258 
 CHI  HZ EP       1358 51.26                             116    0.08 8  247 193 
 CHI  HN ES       1359 20.50                             116    0.33 8  247 193 
 CHI  HZ I        1359 25.63         1.6 0.62            117            247 193 
                                                                                
