 2013  216 1035 22.7 L   6.858 -73.061140.5  RSN  4 0.4 1.5LRSN                1
 GAP=252        0.70      10.1    11.5 11.3  0.8909E+02 -0.6029E+01 -0.1577E+02E
 Epicentro: LOS SANTOS - SANTANDER                                             3
 ACTION:UPD 13-03-12 09:33 OP:ep   STATUS:               ID:20130216103522 L   I
 2013-02-16-1030-00M.COL___241                                                 6
 STAT SP IPHASW D HRMM SECON CODA AMPLIT PERI AZIMU VELO AIN AR TRES W  DIS CAZ7
 RUS  HN ES   1   1036  4.96                             141    0.02 7  107 181 
 RUS  HN I        1036  7.32         3.0 0.50            143            107 181 
 PTB  HZ EP   1   1035 49.69                             129   -0.59 7  158 257 
 PTB  HN ES   1   1036 11.62                             129   -0.13 7  158 257 
 PTB  HN I        1036 15.78         4.2 0.38            127            158 257 
 ZAR  HE ES   2   1036 22.09                             120    0.98 4  211 290 
 ZAR  HE I        1036 29.19         4.2 0.20            120            211 290 
 CHI  HZ EP   1   1036  1.52                             115    0.40 6  257 197 
 CHI  HN ES   1   1036 31.10                             115    0.05 6  257 197 
 CHI  HN I        1036 35.51         1.8 0.28            116            257 197 
                                                                                
