 2015  816 1242 32.7 L   7.293 -73.930  9.1  RSN  7 0.4 1.9LRSN                1
 GAP= 98        0.97       2.2     2.2  4.3  0.1211E+01  0.2200E+01  0.8510E+00E
 Epicentro: PUERTO WILCHES - SANTANDER                                         3
 ACTION:UPD 15-09-15 23:02 OP:cam  STATUS:               ID:20150816124232 L   I
 OLDACT:REG 15-08-16 21:11 OP:ar   STATUS:               ID:20150816123735     3
 2015-08-16-1237-35M.COL___331                                                 6
 STAT SP IPHASW D HRMM SECON CODA AMPLIT PERI AZIMU VELO AIN AR TRES W  DIS CAZ7
 BRR  HZ EP     D 1242 37.57                             100   -0.5610 31.6 130 
 BRR  HN ES       1242 41.98                             100   -0.4010 31.6 130 
 BRR  HZ I        1242 42.72        69.7 0.12             47           31.6 130 
 ZAR  HZ EP       1242 49.38                              93    0.2110  105 282 
 ZAR  HN ES       1243  1.84                              93   -0.2010  105 282 
 ZAR  HZ I        1243  2.60        45.6 0.12             47            105 282 
 BAR2 EZ EP       1242 51.39                              93    0.7010  113 133 
 BAR2 EZ ES   2   1243  5.64                              93    0.90 5  113 133 
 BAR2 EZ I        1243  6.53        10.8 0.28             47            113 133 
 OCA  HZ EP       1242 52.48                              92    0.1910  124  33 
 OCA  HN ES       1243  7.48                              92   -0.1210  124  33 
 OCA  HZ I        1243  7.88        47.0 0.16             47            124  33 
 SML  HE ES       1243 18.51                              56   -0.00 9  168 355 
 SML  HZ I        1243 21.14        19.8 0.10             47            168 355 
 RUS  HZ EP       1243  1.08                              56    0.38 9  181 149 
 RUS  HN ES       1243 22.11                              56   -0.45 9  181 149 
 RUS  HZ I        1243 24.10        17.9 0.68             47            181 149 
 HEL  HN ES       1243 29.88                              56    0.07 8  215 236 
 HEL  HZ I        1243 34.49         5.6 0.36             37            215 236 
                                                                                
