 2011  516 1354 26.3 L   6.176 -73.855 98.4  RSN  8 0.3 1.9LRSN                1
 GAP=129        0.55       3.3     2.8  6.3 -0.4766E+01  0.4469E+01 -0.2344E+01E
 Epicentro: LANDAZURI - SANTANDER                                              3
 ACTION:UP  11-06-29 08:53 OP:tino STATUS:               ID:20110516135426 L   I
 2011-05-16-1353-48S.COL___141                                                 6
 STAT SP IPHASW D HRMM SECON CODA AMPLIT PERI AZIMU VELO SNR AR TRES W  DIS CAZ7
 BAR2 SZ EP   1   1354 44.60                             136     0.3 7   87  58 
 BAR2 SZ ES   1   1354 58.43                             136     0.1 7   87  58 
 BAR2 SZ I        1355  0.12        55.3 0.26                            87  58 
 RUS  HZ EP   1   1354 44.77                             135    -0.2 7   91 110 
 RUS  HZ I        1354 45.68         7.6 0.08                            91 110 
 RUS  HE ES   2   1354 58.90                             135    -0.6 5   91 110 
 BRR  HZ EP   1   1354 45.37                             130    -0.1 7  104   9 
 BRR  HZ I        1354 56.45        23.2 0.14                           104   9 
 BRR  HE ES   1   1355  0.28                             130    -0.1 7  104   9 
 BTL  SZ EP   1   1354 46.26                             130     0.4 7  105  38 
 NOR  SZ EP   1   1354 48.47                             123     0.2 7  131 239 
 NOR  SN ES   1   1355  5.40                             123     0.1 7  131 239 
 HEL  HZ EP   1   1354 54.14                             114    -0.4 7  185 271 
 HEL  HN ES   2   1355 16.49                             114     0.0 4  185 271 
 HEL  HZ I        1355 23.32         4.3 0.31                           185 271 
 BRI  SZ EP   1   1354 56.57                             111    -0.1 6  207  34 
 GRA  SZ EP   1   1354 58.40                             110     0.0 6  222  32 
 GRA  SZ ES   2   1355 23.28                             110    -0.2 4  222  32 
 GRA  SZ I        1355 24.97        14.2 0.27                           222  32 
                                                                                
