 2011  916 1536  2.9 L   6.775 -73.114142.0  RSN  5 0.3 1.7LRSN                1
 GAP=142        0.72       5.5     5.4  7.8  0.9513E+01 -0.6984E+01  0.4353E+01E
 Epicentro: LOS SANTOS - SANTANDER                                             3
 ACTION:UPD 12-07-13 15:57 OP:ep   STATUS:               ID:20110916153602 L   I
 2011-09-16-1534-05S.COL___170                                                 6
 STAT SP IPHASW D HRMM SECON CODA AMPLIT PERI AZIMU VELO AIN AR TRES W  DIS CAZ7
 BAR2 SZ EP       1536 21.93                             171   -0.0610 21.6 201 
 BAR2 SZ ES   2   1536 36.16                             171   -0.76 5 21.6 201 
 BAR2 SZ I        1536 37.84         6.3 0.20                          21.6 201 
 BRR  HZ EP       1536 23.78                             151   -0.0710 75.6 299 
 BRR  HN ES       1536 40.72                             151    0.4910 75.6 299 
 BRR  HZ I        1536 44.62        14.7 0.16                          75.6 299 
 PAM  SZ EP       1536 24.59                             150   -0.0710 77.4  36 
 PAM  SE ES   2   1536 41.65                             150   -0.03 5 77.4  36 
 RUS  HZ EP       1536 26.24                             144    0.2210 97.7 178 
 RUS  HN ES   2   1536 43.87                             144   -0.22 5 97.7 178 
 ZAR  HN ES   1   1537  0.36                             121   -0.61 6  208 292 
 ZAR  HZ I        1537  6.11         4.6 0.32                           208 292 
                                                                                
