 2014  916 1824 51.0 L   6.846 -73.115144.0  RSN 16 0.5 2.2LRSN                1
 GAP=138        1.06       2.8     4.5  6.6 -0.1658E+01  0.1073E+02  0.2438E+01E
 Epicentro: LOS SANTOS - SANTANDER                                             3
 ACTION:UPD 14-10-03 23:05 OP:nd   STATUS:               ID:20140916182451 L   I
 OLDACT:REG 14-09-16 22:41 OP:spq  STATUS:               ID:20140916181818     3
 2014-09-16-1818-18M.COL___278                                                 6
 STAT SP IPHASW D HRMM SECON CODA AMPLIT PERI AZIMU VELO AIN AR TRES W  DIS CAZ7
 BAR2 SZ EP       1825 10.70                             168    0.1610 29.0 195 
 BAR2 SZ ES   1   1825 25.90                             168    0.12 7 29.0 195 
 BAR2 SZ I        1825 27.25        26.4 0.48            166           29.0 195 
 PAM  SZ EP   1   1825 12.39                             152   -0.28 7 71.3  40 
 PAM  SN ES       1825 29.73                             152    0.1610 71.3  40 
 PAM  SZ I        1825 32.67        33.0 0.54            157           71.3  40 
 RUS  HZ EP       1825 15.10                             142    0.1710  105 178 
 RUS  HN ES       1825 34.10                             142    0.5010  105 178 
 RUS  HZ I        1825 35.58        14.2 0.20            143            105 178 
 PTB  HZ EP       1825 17.71                             131   -0.51 9  152 257 
 PTB  HN ES       1825 39.27                             131   -0.18 9  152 257 
 PTB  HZ I        1825 41.24        26.0 0.46            130            152 257 
 OCA  HN ES       1825 40.03                             130   -0.34 9  156 352 
 OCA  HZ I        1825 47.43        14.1 0.28            132            156 352 
 SPBC HZ EP       1825 20.27                             127    0.33 9  169 219 
 SPBC HE ES       1825 41.43                             127   -1.09 9  169 219 
 SPBC HZ I        1825 49.09        20.1 0.30            128            169 219 
 ZAR  HE ES       1825 48.80                             122    0.02 8  205 290 
 ZAR  HZ I        1825 56.07        11.9 0.30            122            205 290 
 NOR  HZ EP       1825 27.50                             117    0.26 8  240 234 
 NOR  HE ES       1825 56.07                             117    0.57 8  240 234 
 NOR  HZ I        1826  0.28         8.4 0.20            118            240 234 
 SML  HZ EP       1825 27.08                             117   -0.10 8  241 334 
 SML  HN ES       1825 55.82                             117    0.42 8  241 334 
 SML  HZ I        1825 57.72        22.3 0.12            119            241 334 
 CHI  HZ EP       1825 29.05                             116   -0.18 8  254 196 
 CHI  HN ES       1825 58.10                             116   -0.95 8  254 196 
 CHI  HZ I        1826  7.62         6.1 0.32            117            254 196 
 ROSC BZ EP   4   1825 30.49                             116    0.80 0  259 211 
 ROSC BN ES   4   1825 57.44                             116   -2.42 0  259 211 
 ROSC BZ I        1826  8.05        12.7 0.35            117            259 211 
 HEL  HE ES   4   1826  1.55                             114   -1.76 0  277 255 
 HEL  HZ I        1826 10.52         9.4 0.30            115            277 255 
 GUY2CHZ EP   4   1825 35.81                             111    0.64 0  307 234 
 GUY2CHE ES   4   1826  9.07                             111   -0.55 0  307 234 
 GUY2CHZ I        1826 18.98         6.9 0.30                           307 234 
 TOL  SZ EP   1   1825 39.85                             109   -0.02 5  349 224 
 TOL  SN ES       1826 18.99                             109    1.00 6  349 224 
 TOL  SZ I        1826 25.40         9.5 0.28            110            349 224 
 ORTC HZ EP       1825 45.39                             106   -0.18 6  402 216 
 ORTC HN ES       1826 28.78                             106    0.64 6  402 216 
 ORTC HZ I        1826 34.54         3.3 0.50            107            402 216 
 SJC  HN ES   4   1826 25.19                             105   -4.10 0  407 326 
 SJC  HZ I        1826 29.53         4.5 0.42            107            407 326 
                                                                                
