 2017  116 1314 13.9 L   6.774 -73.130144.3  RSN  8 0.5 1.9LRSN                1
 GAP=140        1.18       4.5     4.9  7.0  0.7428E+00  0.1069E+02  0.6800E+01E
 Epicentro: LOS SANTOS - SANTANDER                                             3
 ACTION:UPD 17-05-22 16:00 OP:jn   STATUS:               ID:20170116131413 L   I
 OLDACT:UP  17-01-16 22:35 OP:cog  STATUS:               ID:20170116130744     3
 OLDACT:REG 17-01-16 20:27 OP:cog  STATUS:               ID:20170116130744     3
 2017-01-16-1308-00M.COL___335                                                 6
 STAT SP IPHASW D HRMM SECON CODA AMPLIT PERI AZIMU VELO AIN AR TRES W  DIS CAZ7
 BAR2 EZ EP       1314 33.14                             171   -0.1510 20.9 196 
 BAR2 EZ ES       1314 48.16                             171   -0.2710 20.9 196 
 BAR2 EZ I        1314 48.98        28.8 0.16            169           20.9 196 
 BRR  HZ EP       1314 35.02                             151   -0.0210 74.1 300 
 BRR  HE ES       1314 52.10                             151    0.5610 74.1 300 
 PAM  EZ EP       1314 36.11                             150    0.0910 78.6  37 
 PAM  EE ES       1314 53.10                             150   -0.1810 78.6  37 
 PAM  EZ I        1314 55.05        16.3 0.54            154           78.6  37 
 RUS  HZ EP       1314 37.12                             144   -0.1610 97.6 177 
 RUS  HN ES       1314 56.09                             144    0.5610 97.6 177 
 RUS  HZ I        1314 56.68         9.9 0.36            144           97.6 177 
 PTB  HZ EP       1314 40.10                             131   -0.73 9  149 260 
 PTB  HE ES       1315  0.97                             131   -0.89 9  149 260 
 PTB  HZ I        1315  9.13        11.2 0.18            131            149 260 
 ZAR  HZ EP       1314 47.40                             122    0.89 8  207 293 
 ZAR  HN ES       1315 12.10                             122    0.14 8  207 293 
 CHI  HZ EP       1314 50.62                             117   -0.63 8  246 196 
 CHI  HN ES       1315 20.74                             117    0.35 8  246 196 
 CHI  HZ I        1315 26.73         4.9 0.28            118            246 196 
 GUY2CHZ EP       1314 57.79                             112    0.40 7  301 235 
 GUY2CHE ES       1315 31.72                             112    0.39 7  301 235 
 GUY2CHZ  IAML    1315 39.82         5.5 0.38                           301 235 
                                                                                
