 2016 1016 1803 48.8 L   6.738 -73.114147.6  RSN  5 0.4 1.4LRSN                1
 GAP=143        0.95       5.5     5.6  8.6 -0.2326E+01  0.9710E+01 -0.7870E+00E
 Epicentro: JORDAN - SANTANDER                                                 3
 ACTION:UPD 16-11-09 19:20 OP:rebc STATUS:               ID:20161016180348 L   I
 OLDACT:UP  16-10-17 00:17 OP:dnl  STATUS:               ID:20161016175740     3
 OLDACT:REG 16-10-16 20:57 OP:dnl  STATUS:               ID:20161016175740     3
 2016-10-16-1758-00M.COL___368                                                 6
 STAT SP IPHASW D HRMM SECON CODA AMPLIT PERI AZIMU VELO AIN AR TRES W  DIS CAZ7
 BAR2 EZ EP       18 4  8.55                             173   -0.0510 17.8 205 
 BAR2 EZ ES       18 4 24.22                             173    0.2210 17.8 205 
 BAR2 EZ I        18 4 25.76         8.6 0.74            173           17.8 205 
 BRR  HZ EP       18 4 10.66                             151    0.0910 77.7 302 
 BRR  HE ES       18 4 28.11                             151    0.6010 77.7 302 
 BRR  HZ I        18 4 31.57         6.8 0.32            153           77.7 302 
 PAM  EZ EP   2   18 4 11.54                             150    0.08 5 80.8  35 
 PAM  EE ES       18 4 28.65                             150   -0.4510 80.8  35 
 PAM  EZ I        18 4 31.17         7.8 0.62            153           80.8  35 
 RUS  HZ EP   2   18 4 12.16                             146   -0.12 5 93.5 178 
 RUS  HN ES       18 4 30.58                             146    0.0210 93.5 178 
 RUS  HZ I        18 4 33.61         1.4 0.36            149           93.5 178 
 PTB  HZ EP   2   18 4 17.06                             132    0.89 5  150 262 
 PTB  HN ES       18 4 36.77                             132   -0.71 9  150 262 
 PTB  HZ I        18 4 37.95         3.5 0.22            135            150 262 
                                                                                
