 2012 1116 1024  7.6 L   6.837 -73.147138.5  RSN  5 0.5 1.7LRSN                1
 GAP=147        1.24       9.8     8.8 11.2  0.5881E+01  0.9706E+01 -0.4861E+02E
 Epicentro: LOS SANTOS - SANTANDER                                             3
 ACTION:UPD 12-12-05 15:33 OP:}ep  STATUS:               ID:20121116102407 L   I
 2012-11-16-1020-00M.COL___233                                                 6
 STAT SP IPHASW D HRMM SECON CODA AMPLIT PERI AZIMU VELO AIN AR TRES W  DIS CAZ7
 GIR2 SZ ES       1024 40.51                             168   -0.3710 27.2 349 
 BAR2 SZ ES       1024 40.51                             168   -0.6310 27.4 188 
 BRR  HZ EP       1024 28.02                             152    0.1810 69.2 296 
 BRR  HN ES       1024 44.39                             152    0.7510 69.2 296 
 PAM  SZ EP       1024 29.01                             150    0.1610 74.3  42 
 PAM  SZ I        1024 29.21        10.5 0.20                          74.3  42 
 PAM  SN ES       1024 45.79                             150    0.3610 74.3  42 
 SML  HN ES       1025 10.64                             116   -0.70 8  240 335 
                                                                                
