 2016  416 1959 26.7 L   6.816 -73.129138.4  RSN  9 0.6 2.2LRSN                1
 GAP=120        1.36       5.8     4.6  7.9 -0.1035E+02  0.9577E+01 -0.1049E+02E
 Epicentro: LOS SANTOS - SANTANDER                                             3
 ACTION:UPD 16-05-05 14:22 OP:rebc STATUS:               ID:20160416195926 L   I
 OLDACT:UP  16-04-16 21:38 OP:mh   STATUS:               ID:20160416194748     3
 OLDACT:REG 16-04-16 21:32 OP:mh   STATUS:               ID:20160416194748     3
 2016-04-16-1947-48M.COL___304                                                 6
 STAT SP IPHASW D HRMM SECON CODA AMPLIT PERI AZIMU VELO AIN AR TRES W  DIS CAZ7
 BAR2 EZ EP       1959 45.85                             169    0.3510 25.5 193 
 BAR2 EZ ES       1959 59.97                             169   -0.1910 25.5 193 
 BAR2 EZ I        20 0  1.68        55.8 0.10            171           25.5 193 
 PAM  EZ EP       1959 48.74                             150    0.7510 74.8  39 
 PAM  EN ES       20 0  5.26                             150    0.6810 74.8  39 
 PAM  EZ I        20 0  8.26        41.7 0.43            152           74.8  39 
 RUS  HZ EP       1959 49.86                             142   -0.0110  102 177 
 RUS  HN ES       20 0  8.03                             142    0.0910  102 177 
 RUS  HZ I        20 0  9.69        18.5 0.50            146            102 177 
 PTB  HZ EP       1959 52.97                             130   -0.32 9  150 258 
 PTB  HN ES       20 0 13.19                             130   -0.84 9  150 258 
 PTB  HZ I        20 0 16.41        18.9 0.34            131            150 258 
 SPBC HZ EP   1   1959 54.69                             127   -0.22 7  166 219 
 SPBC HN ES       20 0 16.60                             127   -0.30 9  166 219 
 SPBC HZ I        20 0 20.90        26.7 0.26            130            166 219 
 ZAR  HZ EP       1959 58.92                             121    0.12 9  205 291 
 ZAR  HN ES       20 0 24.06                             121    0.23 9  205 291 
 ZAR  HZ I        20 0 30.35        15.8 0.20            122            205 291 
 HEL  HZ EP       20 0  7.21                             113    0.40 8  274 256 
 HEL  HN ES       20 0 37.48                             113   -0.61 8  274 256 
 SOCV BZ EP       20 0  8.84                             111   -0.30 7  299  57 
 SOCV BN ES       20 0 40.61                             111   -1.62 7  299  57 
 GUY2CHZ EP       20 0 11.34                             111    1.06 7  304 235 
                                                                                
