 2010 1116 1914 41.5 L   6.804 -73.036141.8  RSN  8 0.4 2.0LRSN                1
 GAP=171        0.84       5.2     9.0  9.0 -0.9076E+00 -0.4090E+01  0.6326E+01E
 Epicentro: CEPITA - SANTANDER                                                 3
 ACTION:UP  10-12-17 16:53 OP:REBC STATUS:               ID:20101116191441 L   I
 2010-11-16-1911-27S.COL___129                                                 6
 STAT SP IPHASW D HRMM SECON CODA AMPLIT PERI AZIMU VELO SNR AR TRES W  DIS CAZ7
 BTL  SZ EP   1   1915  0.67                             168    -0.2 7   29 296 
 BAR2 SZ EP   1   1915  0.62                             168    -0.2 7   29 215 
 BAR2 SZ I        1915 16.89        24.1 0.27                            29 215 
 BRR  HZ EP   1   1915  2.55                             148    -0.4 7   82 294 
 BRR  HZ I        1915  2.79        36.7 0.15                            82 294 
 BRR  HE ES   1   1915 19.70                             148     0.1 7   82 294 
 RUS  HZ EP   1   1915  4.82                             143    -0.1 7  101 183 
 RUS  HN ES   1   1915 23.40                             143     0.2 7  101 183 
 RUS  HZ I        1915 25.43         9.4 0.19                           101 183 
 GRA  SZ EP   1   1915  6.64                             137     0.5 7  122  12 
 GRA  SZ I        1915 30.40         9.5 0.30                           122  12 
 NOR  SZ EP   2   1915 17.33                             117    -0.8 4  245 236 
 CHI  HZ EP   1   1915 18.99                             116    -0.5 6  252 198 
 CHI  HN ES   2   1915 49.37                             116     0.4 4  252 198 
 CHI  HZ I        1915 54.48         6.3 0.25                           252 198 
 RREF HZ EP   1   1915 29.62                             109     1.0 5  331 231 
 RREF HN ES   2   1916  5.61                             109     0.3 3  331 231 
 RREF HZ I        1916 12.63         7.7 0.11                           331 231 
                                                                                
