 2014 1216 1532 58.0 L   6.302 -73.593104.2  RSN  4 0.4 1.3LRSN                1
 GAP=129        1.01       6.8     4.1 10.5  0.2640E+01  0.1863E+02  0.1419E+02E
 Epicentro: SANTA HELENA DEL OPON - SANTANDER                                  3
 ACTION:UPD 15-02-10 17:04 OP:nd   STATUS:               ID:20141216153258 L   I
 OLDACT:REG 14-12-16 20:38 OP:fm   STATUS:               ID:20141216152748     3
 2014-12-16-1527-48M.COL___287                                                 6
 STAT SP IPHASW D HRMM SECON CODA AMPLIT PERI AZIMU VELO AIN AR TRES W  DIS CAZ7
 BAR2 EZ IP     D 1533 14.20                             150    0.0310 55.6  55 
 BAR2 EZ ES   1   1533 27.58                             150    0.83 7 55.6  55 
 BAR2 EZ I        1533 29.04         7.7 0.28            156           55.6  55 
 RUS  HZ EP       1533 15.66                             143   -0.0110 72.3 129 
 RUS  HE ES       1533 28.97                             143   -0.4410 72.3 129 
 RUS  HZ I        1533 31.07         3.1 0.22            146           72.3 129 
 PTB  HZ IP     D 1533 16.71                             132   -0.4910 99.1 285 
 PTB  HN ES       1533 31.92                             132   -0.2310 99.1 285 
 PTB  HZ I        1533 33.08         6.9 0.14            136           99.1 285 
 NOR  HZ EP       1533 24.12                             117    0.43 9  163 240 
 NOR  HE ES       1533 44.10                             117    0.39 9  163 240 
 NOR  HZ I        1533 48.08         2.8 0.16            120            163 240 
                                                                                
