 2011  616 1220 43.8 L   6.794 -73.104141.4  RSN  4 0.2 1.5LRSN                1
 GAP=163        0.51       6.0    12.4 10.8  0.7891E+01 -0.9147E+01 -0.4467E+02E
 Epicentro: LOS SANTOS - SANTANDER                                             3
 ACTION:UP  11-07-14 19:05 OP:ep   STATUS:               ID:20110616122043 L   I
 2011-06-16-1218-15S.COL___138                                                 6
 STAT SP IPHASW D HRMM SECON CODA AMPLIT PERI AZIMU VELO SNR AR TRES W  DIS CAZ7
 BAR2 SZ EP   1   1221  3.10                             170     0.2 7   24 201 
 BAR2 SZ ES   2   1221 17.54                             170    -0.3 5   24 201 
 BAR2 SZ I        1221 20.54         6.4 0.20                            24 201 
 BRR  HZ EP   1   1221  4.74                             150     0.0 7   76 297 
 BRR  HZ I        1221 28.20        12.6 0.50                            76 297 
 RUS  HZ EP   2   1221  6.59                             143    -0.5 5  100 179 
 RUS  HN ES   1   1221 25.33                             143     0.1 7  100 179 
 RUS  HZ I        1221 25.60         3.4 0.51                           100 179 
 GRA  SZ EP   1   1221  8.61                             136     0.0 7  125  15 
 GRA  SZ I        1221 30.29         4.7 0.20                           125  15 
                                                                                
