 2014  516 1845 54.4 L   6.801 -73.159152.7  RSN  8 0.4 1.8LRSN                1
 GAP=135        0.92       3.0     4.3  6.8 -0.3981E+01  0.9417E+01 -0.1398E+01E
 Epicentro: LOS SANTOS - SANTANDER                                             3
 ACTION:UPD 15-03-16 16:58 OP:nd   STATUS:               ID:20140516184554 L   I
 OLDACT:REG 14-05-16 22:01 OP:carl STATUS:               ID:20140516183821     3
 2014-05-16-1838-21M.COL___178                                                 6
 STAT SP IPHASW D HRMM SECON CODA AMPLIT PERI AZIMU VELO AIN AR TRES W  DIS CAZ7
 PAM  SZ EP       1846 18.04                             152    0.6110 78.2  40 
 PAM  SN ES       1846 35.24                             152   -0.1410 78.2  40 
 PAM  SZ I        1846 37.20        12.2 0.46            156           78.2  40 
 RUS  HZ EP       1846 19.09                             145    0.2110  101 175 
 RUS  HN ES       1846 37.72                             145   -0.2410  101 175 
 RUS  HZ I        1846 38.89         5.9 0.38            146            101 175 
 PTB  HZ EP       1846 21.85                             134    0.01 9  146 259 
 PTB  HE ES       1846 43.37                             134    0.14 9  146 259 
 PTB  HZ I        1846 46.77         6.0 0.28            135            146 259 
 SPBC HZ EP       1846 23.66                             131    0.27 9  162 219 
 SPBC HN ES       1846 45.93                             131   -0.05 9  162 219 
 SPBC HZ I        1846 52.29         8.7 0.26            132            162 219 
 NOR  HE ES       1846 59.16                             120    0.61 8  234 234 
 SML  HZ EP       1846 31.18                             119   -0.19 8  243 336 
 SML  HN ES       1846 59.69                             119   -0.50 8  243 336 
 CHI  HZ EP       1846 32.68                             118    0.19 8  248 195 
 CHI  HN ES       1847  1.35                             118   -0.83 8  248 195 
 CHI  HZ I        1847  8.77         3.4 0.44            120            248 195 
 GUY2CHZ EP       1846 37.56                             114   -0.68 7  300 235 
 GUY2CHE ES       1847 12.47                             114    0.06 7  300 235 
 GUY2CHZ I        1847 21.40         3.7 0.80                           300 235 
                                                                                
