 2012  416 1256 51.3 L   6.788 -73.128142.0  RSN  4 0.1 1.9LRSN                1
 GAP=158        0.39       4.1     2.5  3.3  0.1195E+01  0.9559E+00 -0.2690E+01E
 Epicentro: LOS SANTOS - SANTANDER                                             3
 ACTION:UPD 12-07-05 11:53 OP:tino STATUS:               ID:20120416125651 L   I
 2012-04-16-1250-00M.COL___190                                                 6
 STAT SP IPHASW D HRMM SECON CODA AMPLIT PERI AZIMU VELO AIN AR TRES W  DIS CAZ7
 BAR2 SZ EP       1257 10.28                             171    -0.110   22 195 
 BAR2 SZ ES       1257 25.39                             171     0.010   22 195 
 BAR2 SZ I        1257 26.37        14.8 0.05                            22 195 
 BRR  HZ EP       1257 12.17                             151     0.010   74 299 
 BRR  HE ES       1257 28.48                             151     0.110   74 299 
 BRR  HZ I        1257 33.51        21.4 0.13                            74 299 
 PAM  SZ EP       1257 13.22                             150     0.210   77  38 
 PAM  SN ES   1   1257 29.87                             150    -0.2 7   77  38 
 ZAR  HZ EP   1   1257 23.61                             121    -0.1 6  206 292 
 ZAR  HE ES   1   1257 48.91                             121    -0.1 6  206 292 
 ZAR  HZ I        1257 54.79         7.5 0.47                           206 292 
                                                                                
