 2012  416 1049 57.3 L   6.740 -73.168154.9  RSN  4 0.2 1.7LRSN                1
 GAP=230        0.55       6.4     7.1  4.7  0.3839E+02  0.7880E+00 -0.3026E+01E
 Epicentro: VILLANUEVA - SANTANDER                                             3
 ACTION:UPD 12-07-05 11:53 OP:tino STATUS:               ID:20120416104957 L   I
 2012-04-16-1044-36M.COL___160                                                 6
 STAT SP IPHASW D HRMM SECON CODA AMPLIT PERI AZIMU VELO AIN AR TRES W  DIS CAZ7
 BAR2 SZ EP       1050 17.65                             174    -0.210   16 186 
 BAR2 SZ ES   1   1050 33.84                             174    -0.1 7   16 186 
 BAR2 SZ I        1050 42.17        10.6 0.47                            16 186 
 BRR  HZ EP       1050 19.70                             154     0.210   73 304 
 BRR  HZ I        1050 20.58        13.9 0.34                            73 304 
 BRR  HE ES       1050 36.94                             154     0.110   73 304 
 RUS  HZ EP       1050 21.71                             147     0.210   94 174 
 RUS  HN ES       1050 40.38                             147     0.010   94 174 
 RUS  HZ I        1050 41.72         3.8 0.23                            94 174 
 ZAR  HZ EP       1050 30.19                             124    -0.2 9  204 294 
 ZAR  HN ES       1050 56.14                             124     0.0 9  204 294 
 ZAR  HZ I        1051  1.49         7.4 0.48                           204 294 
                                                                                
