 2013  416 1652  6.7 L   6.764 -73.171142.6  RSN  5 0.4 1.6LRSN                1
 GAP=232        0.90       5.7     5.2  6.6  0.6332E+01  0.9704E+01  0.6847E+01E
 Epicentro: LOS SANTOS - SANTANDER                                             3
 ACTION:UPD 13-05-22 14:38 OP:EP   STATUS:               ID:20130416165206 L   I
 2013-04-16-1648-35M.COL___214                                                 6
 STAT SP IPHASW D HRMM SECON CODA AMPLIT PERI AZIMU VELO AIN AR TRES W  DIS CAZ7
 BAR2 SZ EP       1652 25.85                             172   -0.0110 19.1 184 
 BAR2 SZ ES       1652 40.44                             172   -0.3710 19.1 184 
 BAR2 SZ I        1652 42.18        11.2 0.18            169           19.1 184 
 BRR  HZ EP       1652 27.70                             152    0.2310 70.7 302 
 BRR  HN ES       1652 44.12                             152    0.4410 70.7 302 
 BRR  HN I        1652 44.89        21.7 0.22            151           70.7 302 
 RUS  HZ EP       1652 30.15                             144    0.2910 96.9 174 
 RUS  HE ES       1652 47.93                             144   -0.0110 96.9 174 
 RUS  HZ I        1652 49.30         1.8 0.26            145           96.9 174 
 PTB  HZ EP       1652 32.43                             132   -0.65 9  144 260 
 PTB  HN ES       1652 53.32                             132   -0.34 9  144 260 
 PTB  HZ I        1653  0.55         4.4 0.28            131            144 260 
 NOR  HZ EP       1652 41.67                             118   -0.07 8  230 235 
 NOR  HE ES       1653  9.57                             118    0.49 8  230 235 
                                                                                
