 2010  916 1745 27.9 L   6.767 -73.080146.0  RSN  5 0.4 2.1LRSN                1
 GAP=231        0.78       9.1    19.1  9.6  0.1072E+03  0.2685E+02  0.2671E+02E
 Epicentro: LOS SANTOS - SANTANDER                                             3
 ACTION:UP  11-02-18 11:03 OP:tino STATUS:               ID:20100916174527 L   I
 2010-09-16-1743-38S.COL___119                                                 6
 STAT SP IPHASW D HRMM SECON CODA AMPLIT PERI AZIMU VELO SNR AR TRES W  DIS CAZ7
 BAR2 SZ EP   1   1745 47.57                             171     0.0 7   23 211 
 BAR2 SZ ES   2   1746  1.87                             171    -1.0 5   23 211 
 BAR2 SZ I        1746  4.30        38.2 0.33                            23 211 
 BTL  SZ EP   1   1745 47.98                             169     0.4 7   27 309 
 BRR  HZ IP     C 1745 49.40                             150    -0.110   79 298 
 BRR  HZ I        1745 49.66        35.7 0.15                            79 298 
 BRR  HN ES   2   1746  6.81                             150     0.4 5   79 298 
 RUS  HZ EP   1   1745 51.41                             145     0.0 7   97 180 
 RUS  HN ES   2   1746 10.32                             145     0.6 5   97 180 
 RUS  HZ I        1746 10.99         7.7 0.58                            97 180 
 CHI  HZ EP       1746  5.30                             117    -0.1 8  247 197 
                                                                                
