 2014  216 1557 40.4 L   5.890 -73.753112.8  RSN  4 0.2 1.6LRSN                1
 GAP=145        0.57      13.1     4.3  7.7 -0.4502E+02  0.1613E+02 -0.5930E+02E
 Epicentro: JESUS MARIA - SANTANDER                                            3
 ACTION:UPD 14-03-10 08:10 OP:ep   STATUS:               ID:20140216155740 L   I
 OLDACT:DUP 14-02-16 17:27 OP:mh   STATUS:               ID:20140216155002d    3
 2014-02-16-1550-00M.COL___212                                                 6
 STAT SP IPHASW D HRMM SECON CODA AMPLIT PERI AZIMU VELO AIN AR TRES W  DIS CAZ7
 SPBC HZ EP   1   1557 56.34                             157   -0.26 7 44.1 233 
 SPBC HN ES   1   1558  9.06                             157   -0.21 7 44.1 233 
 SPBC HZ I        1558 10.58         8.8 0.25             98           44.1 233 
 RUS  HZ EP       1557 59.23                             145    0.2610 74.1  90 
 RUS  HN ES   1   1558 13.45                             145   -0.04 7 74.1  90 
 BAR2 SZ EP   1   1558  0.59                             135   -0.07 7  100  39 
 BAR2 SZ I        1558 18.07        15.9 0.26             56            100  39 
 NOR  HZ EP       1558  2.80                             127   -0.2410  129 254 
 NOR  HN ES       1558 21.04                             127    0.3110  129 254 
 NOR  HZ I        1558 22.52         5.0 0.12             56            129 254 
                                                                                
