 2017  416 1641 26.4 L   7.419 -73.186137.0  RSN  4 0.2 1.5LRSN                1
 GAP=187        0.47       4.5     3.0  5.5 -0.3675E+00  0.1012E+02 -0.7209E+01E
 Epicentro: EL PLAYON - SANTANDER                                              3
 ACTION:UPD 17-05-30 21:12 OP:jn   STATUS:               ID:20170416164126 L   I
 OLDACT:UP  17-04-16 21:07 OP:dani STATUS:               ID:20170416163643     3
 OLDACT:UP  17-04-16 21:05 OP:dani STATUS:               ID:20170416163643     3
 OLDACT:UP  17-04-16 21:04 OP:dani STATUS:               ID:20170416163643     3
 OLDACT:REG 17-04-16 20:09 OP:dani STATUS:               ID:20170416163643     3
 2017-04-16-1638-00M.COL___371                                                 6
 STAT SP IPHASW D HRMM SECON CODA AMPLIT PERI AZIMU VELO AIN AR TRES W  DIS CAZ7
 PAM  EZ EP       1641 46.65                             157    0.2310 54.4  99 
 PAM  EN ES       1642  1.86                             157   -0.1810 54.4  99 
 PAM  EZ I        1642  4.48         7.1 0.36            130           54.4  99 
 BAR2 EZ ES       1642  5.41                             144    0.0910 91.4 180 
 PTB  HZ EP       1641 54.69                             125   -0.20 9  171 235 
 PTB  HZ I        1642 18.48         2.8 0.26            105            171 235 
 ZAR  HZ EP       1641 56.21                             123   -0.08 9  185 273 
 ZAR  HN ES       1642 19.70                             123    0.10 9  185 273 
 ZAR  HZ I        1642 22.71         4.7 0.11            105            185 273 
                                                                                
