 2011  216 1006 45.0 L   6.439 -73.702 98.0  RSN  7 0.3 1.4LRSN                1
 GAP=158        0.66       4.7     5.3  9.7 -0.1597E+02  0.2884E+02 -0.1095E+02E
 Epicentro: SANTA HELENA DEL OPON - SANTANDER                                  3
 ACTION:UP  11-03-28 15:08 OP:jfem STATUS:               ID:20110216100645 L   I
 2011-02-16-1003-46S.COL___136                                                 6
 STAT SP IPHASW D HRMM SECON CODA AMPLIT PERI AZIMU VELO SNR AR TRES W  DIS CAZ7
 BAR2 SZ EP       10 7  0.42                             147    -0.310   60  74 
 BAR2 SZ ES   1   10 7 13.15                             147     0.1 7   60  74 
 BAR2 SZ I        10 7 14.24        11.6 0.50                            60  74 
 BTL  SZ IP       10 7  1.35                             142    -0.310   72  42 
 GIR2 SZ EP   3   10 7  2.55                             134    -0.5 2   90  38 
 RUS  HZ EP   1   10 7  3.64                             135     0.0 7   91 131 
 RUS  HN ES   2   10 7 18.36                             135     0.3 5   91 131 
 RUS  HZ I        10 7 20.42         4.9 0.46                            91 131 
 NOR  SZ EP       10 7 10.28                             117     0.2 9  162 233 
 NOR  SN ES   1   10 7 29.81                             117     0.1 7  162 233 
 GRA  SZ ES   1   10 7 35.85                             113     0.6 7  188  32 
 GRA  SZ I        10 7 38.69         7.9 0.38                           188  32 
 CHI  HZ EP   2   10 7 15.03                             112     0.1 4  200 181 
 CHI  HZ I        10 7 41.15         1.3 0.68                           200 181 
                                                                                
