 2013  516 1707 40.5 L   6.761 -73.153148.6  RSN  7 0.5 1.6LRSN                1
 GAP=137        0.90       5.5     5.9  7.3 -0.2321E+01  0.4051E+01 -0.8826E-01E
 Epicentro: LOS SANTOS - SANTANDER                                             3
 ACTION:UPD 13-06-20 09:51 OP:ep   STATUS:               ID:20130516170740 L   I
 2013-05-16-1700-00M.COL___253                                                 6
 STAT SP IPHASW D HRMM SECON CODA AMPLIT PERI AZIMU VELO AIN AR TRES W  DIS CAZ7
 BAR2 SZ EP       17 8  0.42                             172    0.0210 19.0 190 
 BAR2 SZ ES   1   17 8 15.90                             172   -0.01 7 19.0 190 
 BAR2 SZ I        17 8 17.38         9.8 0.28            172           19.0 190 
 GIR2 SZ EP   1   17 8  0.62                             166   -0.01 7 35.4 353 
 GIR2 SZ E        17 8  0.62                                           35.4 353 
 GIR2 SZ ES   1   17 8 15.49                             166   -0.83 7 35.4 353 
 GIR2 SZ I        17 8 17.13         7.2 0.50            167           35.4 353 
 BRR  HZ EP     C 17 8  2.43                             152    0.3910 72.6 302 
 BRR  HN ES   1   17 8 19.72                             152    0.89 7 72.6 302 
 BRR  HZ I        17 8 22.10        13.2 0.12            152           72.6 302 
 PAM  SZ EP       17 8  3.49                             150    0.2410 81.2  38 
 PAM  SN ES   1   17 8 20.86                             150   -0.13 7 81.2  38 
 PAM  SZ I        17 8 21.26         4.7 0.20            153           81.2  38 
 RUS  HZ EP   1   17 8  3.91                             145   -0.33 7 96.4 175 
 RUS  HE ES   1   17 8 22.88                             145    0.13 7 96.4 175 
 RUS  HZ I        17 8 24.13         5.5 0.56            147           96.4 175 
 PTB  HZ EP   1   17 8  7.31                             133   -0.25 7  146 260 
 PTB  HN ES   1   17 8 28.25                             133   -0.41 7  146 260 
 PTB  HZ I        17 8 30.58         6.8 0.16            134            146 260 
 SML  HN ES   2   17 8 45.59                             117   -1.07 4  247 336 
                                                                                
