 2012  416 1620 57.1 L   6.769 -73.121142.5  RSN 14 0.3 2.7LRSN                1
 GAP=141        0.71       2.4     3.1  4.2 -0.1506E+01  0.3685E+01  0.2712E+01E
 Epicentro: LOS SANTOS - SANTANDER                                             3
 ACTION:UPD 12-07-05 11:53 OP:tino STATUS:               ID:20120416162057 L   I
 2012-04-16-1620-00M.COL___189                                                 6
 STAT SP IPHASW D HRMM SECON CODA AMPLIT PERI AZIMU VELO AIN AR TRES W  DIS CAZ7
 BAR2 SZ EP       1621 16.33                             171     0.110   21 199 
 BAR2 SZ ES   1   1621 31.25                             171     0.0 7   21 199 
 BAR2 SZ I        1621 33.13        81.1 0.24                            21 199 
 BRR  HZ EP       1621 18.24                             151     0.110   75 300 
 BRR  HN ES   1   1621 34.92                             151     0.4 7   75 300 
 BRR  HZ I        1621 38.81        55.0 0.21                            75 300 
 PAM  SZ EP       1621 18.97                             150    -0.110   78  36 
 PAM  SN ES       1621 35.85                             150    -0.310   78  36 
 RUS  HZ EP       1621 20.19                             144    -0.110   97 178 
 RUS  HN ES       1621 38.56                             144     0.210   97 178 
 RUS  HZ I        1621 40.71        57.6 0.50                            97 178 
 PTB  HE ES       1621 44.43                             131    -0.5 9  150 260 
 OCA  SZ EP   1   1621 25.59                             128     0.1 7  164 352 
 OCA  SZ ES   1   1621 48.09                             128     0.4 7  164 352 
 ZAR  HE ES   1   1621 54.62                             121    -0.6 6  208 293 
 ZAR  HZ I        1622  2.03        49.4 0.29                           208 293 
 NOR  SZ EP       1621 32.48                             118    -0.2 8  235 236 
 NOR  SE ES   1   1622  0.51                             118     0.1 6  235 236 
 CHI  HZ EP       1621 34.15                             117    -0.2 8  246 196 
 CHI  HN ES   1   1622  3.24                             117    -0.1 6  246 196 
 CHI  HZ I        1622  9.65        25.5 0.68                           246 196 
 HEL  HZ EP   1   1621 38.22                             114     0.9 6  274 257 
 HEL  HZ I        1622 15.30        26.7 0.43                           274 257 
 GUY  SZ EP       1621 41.10                             111     0.3 7  304 236 
 GUY  SN ES   1   1622 15.42                             111     0.5 5  304 236 
 GUY  SZ I        1622 22.34        40.1 0.51                           304 236 
 RREF HZ EP   1   1621 42.83                             110    -0.2 5  322 230 
 RREF HN ES   1   1622 19.29                             110     0.4 5  322 230 
 RREF HZ I        1622 27.93        32.6 0.30                           322 230 
 TOL  SZ EP       1621 44.88                             109    -0.3 7  343 225 
 PRA  HZ EP       1621 50.16                             106    -0.1 6  390 210 
 PRA  HE ES       1622 31.93                             106     0.1 6  390 210 
                                                                                
