 2010  816 1301  5.9 L   6.772 -73.078150.3  RSN  5 0.1 1.5LRSN                1
 GAP=201        0.30       4.9     6.2  3.6  0.2131E+02 -0.1051E+02 -0.6101E+01E
 Epicentro: LOS SANTOS - SANTANDER                                             3
 ACTION:UP  10-09-07 10:55 OP:vdl  STATUS:               ID:20100816130105 L   I
 2010-08-16-1259-10S.COL___111                                                 6
 STAT SP IPHASW D HRMM SECON CODA AMPLIT PERI AZIMU VELO SNR AR TRES W  DIS CAZ7
 BAR2 SZ EP   1   13 1 25.98                             171    -0.1 7   23 210 
 BAR2 SZ ES   2   13 1 41.73                             171    -0.1 5   23 210 
 BAR2 SZ I        13 1 42.83         6.6 0.32                            23 210 
 BTL  SZ IP       13 1 26.25                             170     0.110   27 308 
 BTL  SZ ES   1   13 1 41.91                             170     0.0 7   27 308 
 GIR2 SZ EP   1   13 1 26.21                             166     0.0 7   36 339 
 BRR  HZ EP       13 1 27.96                             151     0.010   79 298 
 BRR  HZ I        13 1 29.64         5.9 0.16                            79 298 
 BRR  HE ES       13 1 45.25                             151     0.010   79 298 
 RUS  HE ES   2   13 1 48.59                             146     0.0 5   97 180 
 RUS  HZ I        13 1 49.92         3.8 0.26                            97 180 
                                                                                
