 2014  216 1652 21.3 L   6.832 -73.180140.0  RSN  9 0.4 1.9LRSN                1
 GAP=131        0.79       3.9     4.7  6.0 -0.8050E+01  0.1095E+02  0.1547E+01E
 Epicentro: ZAPATOCA - SANTANDER                                               3
 ACTION:UPD 14-03-10 08:10 OP:ep   STATUS:               ID:20140216165221 L   I
 OLDACT:UP  14-02-16 17:54 OP:mh   STATUS:               ID:20140216165000     3
 OLDACT:UP  14-02-16 17:52 OP:mh   STATUS:               ID:20140216165000     3
 OLDACT:UP  14-02-16 17:52 OP:mh   STATUS:               ID:20140216165000     3
 OLDACT:REG 14-02-16 15:33 OP:mh   STATUS:               ID:20140216165000     3
 2014-02-16-1650-00M.COL___212                                                 6
 STAT SP IPHASW D HRMM SECON CODA AMPLIT PERI AZIMU VELO AIN AR TRES W  DIS CAZ7
 BAR2 SZ EP       1652 40.28                             169   -0.0310 26.5 181 
 BAR2 SZ ES       1652 55.41                             169    0.2810 26.5 181 
 BAR2 SZ I        1653  1.43        17.6 0.23            168           26.5 181 
 PAM  SZ EP   1   1652 43.24                             150    0.35 7 77.2  43 
 PAM  SN ES       1653  0.11                             150    0.3810 77.2  43 
 PAM  SZ I        1653  2.24        10.0 0.36            156           77.2  43 
 RUS  HZ EP       1652 44.39                             142   -0.3910  104 174 
 RUS  HN ES   1   1653  2.48                             142   -0.61 7  104 174 
 RUS  HZ I        1653  5.41         5.0 0.30            145            104 174 
 PTB  HZ EP   1   1652 47.07                             131   -0.46 7  145 257 
 PTB  HN ES   1   1653  7.85                             131   -0.14 7  145 257 
 PTB  HZ I        1653 10.66        12.8 0.18            134            145 257 
 OCA  HN ES   1   1653  9.50                             129   -0.73 7  156 354 
 SPBC HZ EP   1   1652 49.45                             128    0.04 7  164 217 
 SPBC HN ES   1   1653 11.36                             128    0.03 7  164 217 
 SPBC HZ I        1653 14.14        12.3 0.20            131            164 217 
 NOR  HZ EP       1652 56.84                             118    0.24 8  234 233 
 NOR  HN ES       1653 24.54                             118    0.41 8  234 233 
 NOR  HZ I        1653 29.63         8.4 0.23            121            234 233 
 GUY2CHZ EP   2   1653  5.17                             111    0.64 4  300 234 
 PRA  HZ EP   1   1653 14.83                             106    0.05 4  393 209 
 PRA  HE ES   4   1653 54.90                             106   -1.59 0  393 209 
                                                                                
