 2012  716 1716 46.9 L   6.775 -73.131146.0  RSN  9 0.4 2.0LRSN                1
 GAP=140        0.88       4.4     5.3  8.0  0.3276E+01  0.1060E+02 -0.7989E+00E
 Epicentro: LOS SANTOS - SANTANDER                                             3
 ACTION:UPD 12-08-14 11:45 OP:ep   STATUS:               ID:20120716171646 L   I
 2012-07-16-1710-00M.COL___197                                                 6
 STAT SP IPHASW D HRMM SECON CODA AMPLIT PERI AZIMU VELO AIN AR TRES W  DIS CAZ7
 BAR2 SZ EP   1   1717  6.44                             171     0.0 7   21 196 
 BAR2 SZ I        1717  6.89        23.9 0.13            166             21 196 
 BAR2 SZ ES   1   1717 21.44                             171    -0.3 7   21 196 
 BRR  HZ EP       1717  8.34                             152     0.210   74 300 
 BRR  HZ I        1717  8.59        49.0 0.16            148             74 300 
 BRR  HN ES   1   1717 25.78                             152     1.0 7   74 300 
 PAM  SZ EP   1   1717  9.22                             151     0.1 7   79  37 
 PAM  SN ES   2   1717 26.14                             151    -0.4 5   79  37 
 RUS  HZ EP   1   1717 10.50                             145     0.1 7   98 177 
 RUS  HN ES   1   1717 28.79                             145     0.0 7   98 177 
 RUS  HZ I        1717 30.33        12.4 0.39            145             98 177 
 PTB  HZ EP   1   1717 13.34                             132    -0.6 7  149 260 
 PTB  HN ES   2   1717 34.60                             132    -0.5 5  149 260 
 PTB  HZ I        1717 42.12         5.5 0.13            130            149 260 
 OCA  HN ES   1   1717 37.45                             129    -0.3 7  163 353 
 ZAR  HZ EP   1   1717 20.12                             122     0.5 6  207 293 
 ZAR  HN ES       1717 44.84                             122    -0.3 8  207 293 
 ZAR  HZ I        1717 51.46        11.8 0.36            122            207 293 
 NOR  SN ES   2   1717 50.01                             119    -0.4 4  234 235 
 CHI  HN ES   2   1717 54.12                             117     0.6 4  246 196 
