 2016  116 1806 10.8 L   6.798 -73.179142.5  RSN 17 0.3 2.3LRSN                1
 GAP= 69        0.76       2.0     2.2  3.8 -0.7343E+00  0.2619E+01  0.2043E+00E
 Epicentro: LOS SANTOS - SANTANDER                                             3
 ACTION:UPD 16-03-09 23:25 OP:cam  STATUS:               ID:20160116180611 L   I
 OLDACT:UP  16-02-23 20:52 OP:AR   STATUS:               ID:20160116180611 L   3
 OLDACT:UP  16-01-16 23:11 OP:drio STATUS:               ID:20160116175419     3
 OLDACT:UP  16-01-16 23:10 OP:drio STATUS:               ID:20160116175419     3
 OLDACT:REG 16-01-16 20:14 OP:drio STATUS:               ID:20160116175419     3
 2016-01-16-175800_840.mseed                                                   6
 STAT SP IPHASW D HRMM SECON CODA AMPLIT PERI AZIMU VELO AIN AR TRES W  DIS CAZ7
 BAR2 EZ EP       18 6 29.98                             170   -0.0310 22.7 181 
 BAR2 EZ ES       18 6 44.75                             170   -0.2610 22.7 181 
 BAR2 EZ I        18 6 46.31        37.3 0.24            171           22.7 181 
 PAM  EZ EP       18 6 33.04                             149    0.2310 80.0  41 
 PAM  EN ES       18 6 50.12                             149    0.1310 80.0  41 
 PAM  EZ I        18 6 53.35        19.4 0.46            153           80.0  41 
 RUS  HZ EP       18 6 34.06                             143   -0.1610  101 174 
 RUS  HE ES       18 6 52.65                             143    0.1510  101 174 
 RUS  HZ I        18 6 55.60        11.5 0.46            146            101 174 
 PTB  HZ EP       18 6 36.59                             132   -0.56 9  144 259 
 PTB  HN ES       18 6 57.58                             132   -0.14 9  144 259 
 PTB  HZ I        18 7  3.04        20.9 0.46            132            144 259 
 TAM  HZ EP       18 6 38.36                             129   -0.17 9  159 105 
 TAM  HE ES       18 7  0.31                             129    0.13 9  159 105 
 TAM  HZ I        18 7  1.64        17.3 0.34            134            159 105 
 OCA  HZ EP       18 6 39.09                             129    0.26 9  160 354 
 OCA  HN ES       18 7  0.72                             129    0.02 9  160 354 
 OCA  HZ I        18 7  8.37        55.9 0.42            131            160 354 
 SPBC HZ EP       18 6 38.66                             129   -0.14 9  161 218 
 SPBC HE ES       18 7  0.21                             129   -0.44 9  161 218 
 SPBC HZ I        18 7  3.01        25.7 0.28            130            161 218 
 ZAR  HZ EP       18 6 42.68                             122    0.01 9  201 293 
 ZAR  HN ES       18 7  8.09                             122    0.54 9  201 293 
 ZAR  HZ I        18 7 14.34        18.3 0.30            123            201 293 
 NOR  HZ EP       18 6 46.23                             118    0.24 8  232 234 
 NOR  HN ES       18 7 14.11                             118    0.66 8  232 234 
 NOR  HZ I        18 7 19.41        13.6 0.56            119            232 234 
 SML  HZ EP       18 6 46.83                             117   -0.26 8  242 336 
 SML  HN ES   4   18 7 13.90                             117   -1.50 0  242 336 
 SML  HZ I        18 7 19.25        23.7 0.22            118            242 336 
 CHI  HZ EP       18 6 48.41                             116    0.24 8  247 194 
 CHI  HE ES       18 7 17.29                             116   -0.05 8  247 194 
 CHI  HZ I        18 7 22.73        11.5 0.38            119            247 194 
 HEL  HZ EP   4   18 6 52.45                             114    2.02 0  268 256 
 HEL  HE ES   4   18 7 25.28                             114    3.93 0  268 256 
 HEL  HZ I        18 7 28.69        10.8 0.24            116            268 256 
 URE  HZ EP       18 6 50.71                             113   -0.61 7  281 292 
 URE  HN ES   4   18 7 19.74                             113   -3.21 0  281 292 
 GUY2CHZ EP   4   18 6 55.04                             112    1.15 0  298 234 
 GUY2CHN ES       18 7 27.50                             112   -0.01 7  298 234 
 GUY2CHZ I        18 7 36.50        10.5 0.60                           298 234 
 ELA  HZ EP       18 6 56.69                             110   -0.47 7  326 229 
 ELA  HN ES   4   18 7 34.94                             110    1.61 0  326 229 
 ELA  HZ I        18 7 42.81         7.2 0.62            111            326 229 
 PRA  HZ EP       18 7  3.91                             106   -0.04 6  390 209 
 PRA  HN ES       18 7 45.90                             106    0.47 6  390 209 
 PRA  HZ I        18 7 50.37        10.4 0.30            108            390 209 
 ORTC HZ EP       18 7  5.18                             106    0.87 6  393 216 
 ORTC HN ES   4   18 7 47.69                             106    1.62 0  393 216 
 ORTC HZ I        18 7 51.55         5.4 0.20            107            393 216 
                                                                                
