 2016 1116 1032 42.7 L   6.788 -73.196144.9  RSN  5 0.2 1.4LRSN                1
 GAP=134        0.54       4.4     2.5  4.3 -0.2346E+01  0.2340E+01  0.9990E-01E
 Epicentro: ZAPATOCA - SANTANDER                                               3
 ACTION:UPD 17-10-26 21:08 OP:lp   STATUS:               ID:20161116103242 L   I
 OLDACT:REG 16-11-16 20:24 OP:ar   STATUS:               ID:20161116102743     3
 2016-11-16-1028-00M.COL___326                                                 6
 STAT SP IPHASW D HRMM SECON CODA AMPLIT PERI AZIMU VELO AIN AR TRES W  DIS CAZ7
 BAR2 EZ EP       1033  2.05                             171   -0.1110 21.7 176 
 BAR2 EZ ES       1033 17.27                             171   -0.0910 21.7 176 
 BAR2 EZ I        1033 19.57         6.9 0.26            172           21.7 176 
 BRR  HZ EP       1033  3.79                             154    0.2910 67.1 302 
 BRR  HN ES       1033 19.63                             154   -0.1110 67.1 302 
 BRR  HZ I        1033 25.95        10.6 0.36            147           67.1 302 
 PAM  EZ EP       1033  5.14                             149    0.0610 82.0  42 
 PAM  EE ES       1033 22.60                             149    0.0410 82.0  42 
 PAM  EZ I        1033 25.12         3.5 0.30            150           82.0  42 
 PTB  HZ EP       1033  8.78                             133   -0.27 9  142 259 
 PTB  HN ES       1033 29.96                             133    0.33 9  142 259 
 PTB  HZ I        1033 36.65         2.6 0.46            132            142 259 
 ZAR  HN ES       1033 39.31                             123   -0.17 9  199 293 
 ZAR  HZ I        1033 50.45         1.9 0.22            122            199 293 
                                                                                
