 2017  216 1541 13.9 L   6.804 -73.169144.1  RSN  5 0.3 1.5LRSN                1
 GAP=133        0.81       4.3     3.8  6.8 -0.3060E+00  0.7872E+01 -0.2256E+01E
 Epicentro: LOS SANTOS - SANTANDER                                             3
 ACTION:UPD 17-05-24 15:37 OP:jn   STATUS:               ID:20170216154113 L   I
 OLDACT:REG 17-02-16 20:55 OP:cog  STATUS:               ID:20170216153747     3
 2017-02-16-1538-00M.COL___358                                                 6
 STAT SP IPHASW D HRMM SECON CODA AMPLIT PERI AZIMU VELO AIN AR TRES W  DIS CAZ7
 BAR2 EZ EP       1541 33.00                             170   -0.3410 23.5 184 
 BAR2 EZ ES       1541 48.69                             170    0.1910 23.5 184 
 PAM  EZ EP       1541 36.38                             150    0.3510 78.7  41 
 PAM  EE ES       1541 52.96                             150   -0.3210 78.7  41 
 PAM  EZ I        1541 55.11         6.0 0.58            152           78.7  41 
 RUS  HZ EP       1541 37.78                             143    0.2310  101 175 
 RUS  HN ES       1541 56.09                             143    0.1110  101 175 
 RUS  HZ I        1541 57.38         4.6 0.30            145            101 175 
 PTB  HZ EP       1541 40.11                             132   -0.41 9  145 258 
 PTB  HN ES       1542  1.03                             132   -0.24 9  145 258 
 PTB  HZ I        1542  4.26         4.6 0.22            133            145 258 
 ZAR  HE ES       1542 11.45                             122    0.46 9  201 292 
                                                                                
