 2014  116 1722 38.2 L   6.752 -73.129148.6  RSN  5 0.5 1.4LRSN                1
 GAP=141        0.97       5.2     5.2  9.4  0.4244E+01  0.7103E+01  0.4376E+01E
 Epicentro: LOS SANTOS - SANTANDER                                             3
 ACTION:UPD 14-03-13 09:55 OP:ep   STATUS:               ID:20140116172238 L   I
 OLDACT:UP  14-01-16 16:35 OP:cam  STATUS:               ID:20140116172000     3
 OLDACT:REG 14-01-16 15:30 OP:cm   STATUS:               ID:20140116172000     3
 2014-01-16-1720-00M.COL___285                                                 6
 STAT SP IPHASW D HRMM SECON CODA AMPLIT PERI AZIMU VELO AIN AR TRES W  DIS CAZ7
 BRR  HZ EP   1   1723  0.13                             152    0.21 7 75.4 301 
 BRR  HN ES       1723 17.42                             152    0.5810 75.4 301 
 PAM  SZ EP       1723  1.14                             150    0.2210 80.4  36 
 PAM  SE ES       1723 18.12                             150   -0.5110 80.4  36 
 PAM  SZ I        1723 20.52         4.0 0.38            154           80.4  36 
 RUS  HZ EP       1723  2.07                             146    0.2010 95.2 177 
 RUS  HE ES       1723 20.30                             146   -0.0310 95.2 177 
 RUS  HZ I        1723 21.63         3.7 0.34            147           95.2 177 
 PTB  HZ EP   2   1723  4.52                             132   -0.98 5  149 261 
 PTB  HN ES   2   1723 25.73                             132   -1.04 5  149 261 
 PTB  HZ I        1723 32.83         4.4 0.44            133            149 261 
 ZAR  HE ES       1723 36.78                             122   -0.20 8  208 293 
                                                                                
