 2013  716 1238 29.3 L   6.490 -73.598109.4  RSN  4 0.2 1.7LRSN                1
 GAP=197        0.69       6.1     3.4  6.5 -0.5711E+01  0.2898E+01  0.1066E+02E
 Epicentro: SANTA HELENA DEL OPON - SANTANDER                                  3
 ACTION:UPD 13-08-12 10:38 OP:ep   STATUS:               ID:20130716123829 L   I
 OLDACT:REG 13-07-16 15:31 OP:nd   STATUS:               ID:20130716122959     3
 2013-07-16-1229-59M.COL___267                                                 6
 STAT SP IPHASW D HRMM SECON CODA AMPLIT PERI AZIMU VELO AIN AR TRES W  DIS CAZ7
 BAR2 SZ IP     C 1238 45.71                             155    0.1610 47.3  76 
 BAR2 SZ ES       1238 58.30                             155    0.0910 47.3  76 
 BAR2 SZ I        1238 59.49        61.1 0.34            162           47.3  76 
 BRR  HZ EP       1238 46.56                             145    0.0110 69.4 350 
 BRR  HN ES       1239  0.39                             145    0.4010 69.4 350 
 BRR  HZ I        1239  1.11        10.0 0.32            149           69.4 350 
 GIR2 SZ EP       1238 47.53                             141    0.0810 79.0  34 
 GIR2 SZ ES       1239  1.08                             141   -0.5110 79.0  34 
 GIR2 SZ I        1239  4.08         8.5 0.24            148           79.0  34 
 PTB  HZ EP       1238 48.46                             136   -0.1110 95.1 273 
 PTB  HN ES       1239  3.47                             136   -0.1310 95.1 273 
 PTB  HZ I        1239  9.15         5.9 0.28            138           95.1 273 
                                                                                
