 2012 1216 1310 11.5 L   6.802 -73.135143.4  RSN  9 0.4 2.2LRSN                1
 GAP=184        1.03       3.6     5.5  7.1  0.4241E+01  0.5952E+01  0.5825E+01E
 Epicentro: LOS SANTOS - SANTANDER                                             3
 ACTION:UPD 13-01-04 14:28 OP:ep   STATUS:               ID:20121216131011 L   I
 2012-12-16-1310-00M.COL___239                                                 6
 STAT SP IPHASW D HRMM SECON CODA AMPLIT PERI AZIMU VELO AIN AR TRES W  DIS CAZ7
 BAR2 SZ EP       1310 30.88                             170    0.0010 23.8 193 
 BAR2 SZ ES       1310 45.98                             170    0.0110 23.8 193 
 BAR2 SZ I        1310 47.70        18.5 0.42                          23.8 193 
 GIR2 SZ EP       1310 31.43                             167    0.5210 31.2 348 
 BRR  HZ EP       1310 32.80                             152    0.3310 72.2 298 
 BRR  HN ES       1310 49.23                             152    0.4210 72.2 298 
 BRR  HN I        1310 53.50        34.8 0.18                          72.2 298 
 RUS  HZ EP       1310 35.19                             143    0.1410  101 177 
 RUS  HN ES       1310 53.00                             143   -0.4110  101 177 
 RUS  HN I        1310 54.12        13.0 0.36                           101 177 
 PTB  HZ EP       1310 37.52                             131   -0.89 9  149 259 
 PTB  HN ES       1310 58.98                             131   -0.41 9  149 259 
 PTB  HN I        1311  3.12        13.8 0.26                           149 259 
 OCA  HN ES       1311  1.13                             129   -0.44 9  160 353 
 OCA  HN I        1311  5.02        49.9 0.30                           160 353 
 ZAR  HE ES       1311  9.45                             122    0.26 9  205 292 
 ZAR  HE I        1311 15.36        30.6 0.26                           205 292 
 CHI  HZ EP       1310 48.99                             117   -0.16 8  249 195 
 CHI  HN ES       1311 18.72                             117    0.21 8  249 195 
 CHI  HN I        1311 22.38         8.4 0.30                           249 195 
 PRA  HN ES       1311 47.59                             106    0.77 6  393 210 
 PRA  HN I        1311 51.36         3.7 0.64                           393 210 
                                                                                
