 2014  816 1031 42.8 L   6.815 -73.159149.4  RSN 22 0.4 2.2LRSN                1
 GAP=134        0.80       2.3     3.2  4.3 -0.1054E+01  0.2529E+01  0.1899E+01E
 Epicentro: LOS SANTOS - SANTANDER                                             3
 ACTION:UPD 14-09-15 21:50 OP:nd   STATUS:               ID:20140816103142 L   I
 OLDACT:REG 14-08-16 20:09 OP:spq  STATUS:               ID:20140816102820     3
 2014-08-16-1028-20M.COL___266                                                 6
 STAT SP IPHASW D HRMM SECON CODA AMPLIT PERI AZIMU VELO AIN AR TRES W  DIS CAZ7
 BAR2 SZ EP       1032  2.71                             170   -0.1410 24.7 186 
 BAR2 SZ ES   1   1032 18.22                             170   -0.30 7 24.7 186 
 BAR2 SZ I        1032 18.86        35.9 0.24            168           24.7 186 
 BRR  HZ IP     C 1032  4.47                             154    0.2910 69.1 298 
 BRR  HE ES       1032 21.67                             154    0.7710 69.1 298 
 BRR  HZ I        1032 22.77        27.2 0.15            148           69.1 298 
 PAM  SZ EP       1032  5.73                             152    0.3910 77.1  41 
 PAM  SN ES   1   1032 22.99                             152    0.04 7 77.1  41 
 PAM  SZ I        1032 25.17        13.3 0.62            154           77.1  41 
 RUS  HZ EP       1032  6.87                             144   -0.1210  102 175 
 RUS  HN ES   1   1032 25.66                             144   -0.23 7  102 175 
 RUS  HZ I        1032 26.61        14.8 0.24            145            102 175 
 PTB  HZ EP       1032  9.24                             133   -0.68 9  147 258 
 PTB  HN ES       1032 30.61                             133   -0.50 9  147 258 
 PTB  HZ I        1032 31.97        17.8 0.16            129            147 258 
 OCA  HE ES       1032 32.92                             131   -0.44 9  158 354 
 OCA  HZ I        1032 39.27        19.0 0.42            129            158 354 
 SPBC HZ EP       1032 11.58                             130    0.01 9  164 218 
 SPBC HE ES       1032 33.92                             130   -0.12 9  164 218 
 SPBC HZ I        1032 38.76        20.4 0.18            128            164 218 
 ZAR  HZ EP   1   1032 15.45                             123    0.21 6  202 292 
 ZAR  HN ES       1032 40.76                             123    0.19 9  202 292 
 ZAR  HZ I        1032 46.10        15.8 0.28            121            202 292 
 NOR  HZ EP       1032 18.90                             119    0.23 8  234 234 
 NOR  HE ES       1032 46.71                             119    0.03 8  234 234 
 NOR  HZ I        1032 53.09         8.5 0.26            117            234 234 
 SML  HZ EP       1032 19.08                             118   -0.28 8  242 335 
 SML  HN ES   1   1032 47.56                             118   -0.35 6  242 335 
 SML  HZ I        1032 55.36        17.9 0.10            117            242 335 
 CHI  HZ EP   1   1032 21.07                             118    0.28 6  250 195 
 CHI  HN ES   1   1032 50.77                             118    0.32 6  250 195 
 CHI  HZ I        1032 52.71        11.5 0.24            117            250 195 
 ROSC BN ES   4   1032 53.97                             117    2.88 0  253 211 
 ROSC BZ I        1032 56.48        18.7 0.30            116            253 211 
 HEL  HZ EP   4   1032 24.21                             116    1.17 0  271 255 
 HEL  HN ES   4   1032 57.90                             116    3.44 0  271 255 
 HEL  HZ I        1033  2.30         6.9 0.30            114            271 255 
 URE  HN ES   4   1033  3.77                             114    7.99 0  282 292 
 URE  HZ I        1033  5.67        14.1 0.22            113            282 292 
 GUY2CHZ EP   4   1032 28.17                             113    1.67 0  301 234 
 GUY2CHE ES   4   1033  5.59                             113    4.96 0  301 234 
 GUY2CHZ I        1033 10.72         5.7 0.15                           301 234 
 PTGC HZ IP   4 C 1032 26.04                             112   -0.97 0  311 159 
 RREF HZ EP   1   1032 28.84                             111   -0.21 5  322 229 
 RREF HE ES   4   1033  7.06                             111    1.90 0  322 229 
 RREF HZ I        1033 10.69         6.8 0.26            110            322 229 
 CBOC HZ EP       1032 30.14                             111    0.42 7  333 252 
 CBOC HN ES       1033  6.59                             111    0.24 7  333 252 
 CBOC HZ I        1033 13.36         2.1 0.56            109            333 252 
 TOL  SZ EP   4   1032 30.36                             110   -0.81 0  344 224 
 TOL  SN ES   4   1033 10.47                             110    1.53 0  344 224 
 TOL  SZ I        1033 14.63        14.6 0.38            109            344 224 
 ANIL HN ES   4   1033 14.01                             109    2.32 0  357 224 
 ANIL HZ I        1033 16.03         1.4 0.30            108            357 224 
 PRA  HZ EP       1032 36.73                             107    0.25 6  393 209 
 PRA  HN ES   1   1033 17.69                             107   -0.70 4  393 209 
 PRA  HZ I        1033 23.34         6.3 0.62            106            393 209 
 ORTC HZ EP       1032 37.08                             107    0.23 6  396 216 
 ORTC HN ES   4   1033 20.29                             107    1.24 0  396 216 
 ORTC HZ I        1033 25.90         3.7 0.56            106            396 216 
 SJC  HZ EP   4   1032 36.90                             106   -1.28 0  407 327 
 SJC  HN ES   4   1033 20.16                             106   -1.26 0  407 327 
 SJC  HZ I        1033 27.70         1.9 0.24            105            407 327 
                                                                                
