 2017  216 1343  5.9 L   6.821 -73.156149.0  RSN  7 0.5 1.9LRSN                1
 GAP=134        1.22       5.1     6.1  7.6 -0.6285E+00  0.9839E+01  0.6518E+01E
 Epicentro: LOS SANTOS - SANTANDER                                             3
 ACTION:UPD 17-05-24 15:36 OP:jn   STATUS:               ID:20170216134305 L   I
 OLDACT:REG 17-02-16 20:43 OP:cog  STATUS:               ID:20170216133744     3
 2017-02-16-1338-00M.COL___358                                                 6
 STAT SP IPHASW D HRMM SECON CODA AMPLIT PERI AZIMU VELO AIN AR TRES W  DIS CAZ7
 BAR2 EZ EP       1343 25.97                             170   -0.0110 25.4 187 
 BAR2 EZ ES       1343 40.83                             170   -0.8010 25.4 187 
 BAR2 EZ I        1343 43.80        33.5 0.30            169           25.4 187 
 BRR  HZ EP       1343 27.72                             154    0.4110 69.1 297 
 BRR  HE ES       1343 44.88                             154    0.8910 69.1 297 
 BRR  HZ I        1343 45.41        22.1 0.12            153           69.1 297 
 PAM  EZ EP       1343 28.78                             152    0.3510 76.4  41 
 PAM  EE ES       1343 45.89                             152   -0.0910 76.4  41 
 PAM  EZ I        1343 48.41        12.0 0.22            156           76.4  41 
 RUS  HZ EP       1343 29.98                             144   -0.1810  103 175 
 RUS  HE ES       1343 49.00                             144   -0.0610  103 175 
 RUS  HZ I        1343 49.89         7.4 0.38            145            103 175 
 PTB  HZ EP       1343 32.48                             133   -0.62 9  147 258 
 PTB  HE ES       1343 54.11                             133   -0.18 9  147 258 
 PTB  HZ I        1344  0.87         9.3 0.22            133            147 258 
 ZAR  HZ EP       1343 37.70                             123   -0.68 9  202 292 
 ZAR  HN ES   3   1344  4.44                             123    0.74 2  202 292 
 CHI  HZ EP       1343 44.37                             118    0.36 8  251 195 
 CHI  HE ES       1344 14.39                             118    0.68 8  251 195 
 CHI  HZ I        1344 17.14         5.2 0.38            119            251 195 
                                                                                
