 2013  616 1636  4.3 L   6.748 -73.213152.7  RSN  4 0.3 1.3LRSN                1
 GAP=223        0.62       5.2     5.2  6.9  0.1291E+02 -0.5942E+01 -0.4580E+01E
 Epicentro: VILLANUEVA - SANTANDER                                             3
 ACTION:UPD 14-01-08 09:55 OP:ep   STATUS:               ID:20130616163604 L   I
 OLDACT:UP  13-06-16 18:52 OP:cam  STATUS:               ID:20130616162959     3
 OLDACT:REG 13-06-16 17:54 OP:cam  STATUS:               ID:20130616162959     3
 2013-06-16-1629-59M.COL___261                                                 6
 STAT SP IPHASW D HRMM SECON CODA AMPLIT PERI AZIMU VELO AIN AR TRES W  DIS CAZ7
 BAR2 SZ EP       1636 24.30                             173   -0.3410 17.6 169 
 BRR  HZ I        1636 26.05         7.5 0.50            153           68.0 306 
 BRR  HZ EP       1636 26.07                             155    0.0710 68.0 306 
 BRR  HN ES       1636 43.06                             155    0.1110 68.0 306 
 RUS  HZ EP   1   1636 28.96                             147    0.59 7 95.7 171 
 RUS  HE ES       1636 47.11                             147   -0.0710 95.7 171 
 RUS  HZ I        1636 48.53         1.7 0.28            145           95.7 171 
 PTB  HZ EP   1   1636 30.91                             135   -0.18 7  139 261 
 PTB  HN ES       1636 51.99                             135   -0.01 9  139 261 
 PTB  HZ I        1636 55.42         2.4 0.20            133            139 261 
                                                                                
