 2013  216 1444 15.1 L   6.789 -73.147144.6  RSN  8 0.5 2.3LRSN                1
 GAP=137        0.94       4.2     5.5  7.6  0.3680E+01  0.1039E+02  0.2675E+01E
 Epicentro: LOS SANTOS - SANTANDER                                             3
 ACTION:UPD 13-03-12 09:33 OP:ep   STATUS:               ID:20130216144415 L   I
 2013-02-16-1440-00M.COL___241                                                 6
 STAT SP IPHASW D HRMM SECON CODA AMPLIT PERI AZIMU VELO AIN AR TRES W  DIS CAZ7
 BAR2 SZ EP       1444 34.74                             171    0.1310 22.1 190 
 BAR2 SZ ES   1   1444 49.24                             171   -0.55 7 22.1 190 
 BAR2 SZ I        1444 50.50        40.6 0.36            170           22.1 190 
 BRR  HZ IP     D 1444 36.55                             152    0.3610 71.7 299 
 BRR  HN ES   1   1444 53.44                             152    0.83 7 71.7 299 
 BRR  HN I        1444 56.83        44.9 0.16            148           71.7 299 
 PAM  SZ EP   1   1444 37.60                             150    0.30 7 78.4  39 
 PAM  SN ES   1   1444 54.61                             150    0.03 7 78.4  39 
 PAM  SN I        1444 55.53        32.5 0.46            153           78.4  39 
 RUS  HZ EP   1   1444 38.51                             144   -0.18 7 99.4 176 
 RUS  HN ES   1   1444 56.77                             144   -0.29 7 99.4 176 
 RUS  HN I        1444 57.97        23.3 0.24            146           99.4 176 
 PTB  HZ EP   1   1444 41.41                             132   -0.57 7  147 259 
 PTB  HN ES   1   1445  2.64                             132   -0.27 7  147 259 
 PTB  HN I        1445  7.38        21.8 0.56            130            147 259 
 ZAR  HZ EP   1   1444 47.43                             122   -0.12 6  204 292 
 ZAR  HN ES   1   1445 13.19                             122    0.37 6  204 292 
 ZAR  HN I        1445 18.43        19.6 0.44            121            204 292 
 SML  HN ES   1   1445 19.17                             117   -1.25 6  245 335 
 SML  HN I        1445 25.69        23.3 0.10            117            245 335 
 CHI  HZ EP   1   1444 53.26                             117    0.62 6  247 195 
 CHI  HN ES   1   1445 21.76                             117   -0.13 6  247 195 
 CHI  HN I        1445 25.02         8.2 0.34            118            247 195 
                                                                                
