 2014 1216 1236 57.8 L   6.773 -73.180140.4  RSN  6 0.5 1.5LRSN                1
 GAP=133        1.23       6.4     6.1  9.0 -0.3784E+01  0.1881E+02  0.1373E+02E
 Epicentro: LOS SANTOS - SANTANDER                                             3
 ACTION:UPD 15-02-10 17:04 OP:nd   STATUS:               ID:20141216123657 L   I
 OLDACT:REG 14-12-16 20:29 OP:fm   STATUS:               ID:20141216122749     3
 2014-12-16-1227-49M.COL___287                                                 6
 STAT SP IPHASW D HRMM SECON CODA AMPLIT PERI AZIMU VELO AIN AR TRES W  DIS CAZ7
 BAR2 EZ EP       1237 17.13                             171    0.3910 20.0 181 
 BAR2 EZ ES       1237 31.50                             171   -0.0010 20.0 181 
 BAR2 EZ I        1237 34.06         7.6 0.16            168           20.0 181 
 BRR  HZ EP       1237 18.62                             152    0.3310 69.4 302 
 BRR  HN ES       1237 35.07                             152    0.8110 69.4 302 
 BRR  HZ I        1237 38.66         7.0 0.30            150           69.4 302 
 PAM  SN ES       1237 36.16                             148   -0.7210 82.1  40 
 RUS  HZ EP       1237 21.21                             143    0.3510 98.0 174 
 RUS  HN ES       1237 38.71                             143   -0.1210 98.0 174 
 RUS  HZ I        1237 40.60         4.1 0.24            145           98.0 174 
 PTB  HZ EP       1237 23.25                             132   -0.72 9  144 260 
 PTB  HN ES       1237 43.81                             132   -0.55 9  144 260 
 PTB  HZ I        1237 49.57         5.3 0.30            131            144 260 
 NOR  HZ EP       1237 32.97                             118    0.24 8  230 235 
 NOR  HE ES       1237 59.81                             118   -0.15 8  230 235 
 NOR  HZ I        1238  8.31         3.2 0.18            119            230 235 
                                                                                
