 2015  716 1143 52.1 L   6.876 -72.925  4.2  RSN  4 0.4 1.3LRSN                1
 GAP=164        1.00       4.7     9.0  8.1 -0.3665E+02 -0.6873E+00 -0.1467E+01E
 Epicentro: GUACA - SANTANDER                                                  3
 ACTION:UPD 15-09-08 21:49 OP:cam  STATUS:               ID:20150716114352 L   I
 OLDACT:REG 15-07-16 20:43 OP:spq  STATUS:               ID:20150716113748     3
 2015-07-16-1137-48M.COL___340                                                 6
 STAT SP IPHASW D HRMM SECON CODA AMPLIT PERI AZIMU VELO AIN AR TRES W  DIS CAZ7
 BAR2 EZ EP       1143 59.55                              90    0.1810 42.4 222 
 BAR2 EZ ES   1   1144  4.66                              90   -0.37 7 42.4 222 
 BAR2 EZ I        1144  5.14        15.9 0.20             47           42.4 222 
 PAM  EZ EP       1144  2.03                              90    0.1910 57.0  26 
 PAM  EE ES       1144  9.07                              90   -0.3610 57.0  26 
 PAM  EZ I        1144  9.79        11.8 0.20             47           57.0  26 
 RUS  HZ EP       1144 10.49                              90    0.5910  110 189 
 RUS  HN ES   1   1144 23.09                              90   -0.69 7  110 189 
 RUS  HZ I        1144 26.01         3.2 0.66             47            110 189 
 SML  HE ES   4   1145  0.94                              56    4.43 0  248 329 
 SML  HZ I        1145  3.24         4.9 0.12             37            248 329 
                                                                                
