 2017  316 1722 39.0 L   6.774 -73.143150.0  RSN  6 0.3 1.5LRSN                1
 GAP=138        0.86       4.4     3.9  6.2  0.1439E+01  0.5387E+01 -0.3914E+00E
 Epicentro: LOS SANTOS - SANTANDER                                             3
 ACTION:UPD 17-05-25 18:41 OP:jn   STATUS:               ID:20170316172239 L   I
 OLDACT:REG 17-03-16 22:08 OP:dnl  STATUS:               ID:20170316171748     3
 2017-03-16-1718-00M.COL___415                                                 6
 STAT SP IPHASW D HRMM SECON CODA AMPLIT PERI AZIMU VELO AIN AR TRES W  DIS CAZ7
 BAR2 EZ EP   2   1722 59.06                             172   -0.03 5 20.6 192 
 BAR2 EZ ES       1723 14.42                             172   -0.3310 20.6 192 
 BAR2 EZ I        1723 18.56         5.4 0.26            171           20.6 192 
 BRR  HZ IP     C 1723  0.93                             153    0.2310 72.9 300 
 BRR  HN ES       1723 18.35                             153    0.7310 72.9 300 
 BRR  HZ I        1723 20.27        10.2 0.38            152           72.9 300 
 PAM  EZ EP       1723  1.71                             151   -0.0710 79.4  38 
 PAM  EN ES       1723 19.24                             151   -0.3110 79.4  38 
 PAM  EZ I        1723 21.47         4.6 0.70            155           79.4  38 
 RUS  HZ EP       1723  3.25                             145    0.2810 97.7 176 
 RUS  HN ES       1723 21.81                             145    0.1510 97.7 176 
 RUS  HZ I        1723 24.52         2.2 0.26            148           97.7 176 
 PTB  HZ EP       1723  5.91                             133   -0.39 9  148 260 
 PTB  HN ES       1723 27.22                             133   -0.37 9  148 260 
 PTB  HZ I        1723 32.96         4.4 0.28            134            148 260 
 ZAR  HZ EP   2   1723 12.27                             123    0.40 4  205 293 
 ZAR  HE ES       1723 37.39                             123   -0.11 8  205 293 
 ZAR  HZ I        1723 44.43         5.3 0.24            125            205 293 
                                                                                
