 2016  516 1234 18.5 L   6.814 -73.110151.3  RSN 14 0.4 2.2LRSN                1
 GAP=121        0.96       3.7     3.8  4.9 -0.1816E+01  0.4218E+01  0.2564E+01E
 Epicentro: LOS SANTOS - SANTANDER                                             3
 ACTION:UPD 16-08-18 17:46 OP:cam  STATUS:               ID:20160516123418 L   I
 OLDACT:UP  16-05-16 20:47 OP:drio STATUS:               ID:20160516122743     3
 OLDACT:UP  16-05-16 20:46 OP:drio STATUS:               ID:20160516122743     3
 OLDACT:UP  16-05-16 20:46 OP:drio STATUS:               ID:20160516122743     3
 OLDACT:UP  16-05-16 20:41 OP:drio STATUS:               ID:20160516122743     3
 OLDACT:REG 16-05-16 19:27 OP:drio STATUS:               ID:20160516122743     3
 2016-05-16-1227-43M.COL___292                                                 6
 STAT SP IPHASW D HRMM SECON CODA AMPLIT PERI AZIMU VELO AIN AR TRES W  DIS CAZ7
 BAR2 EZ EP       1234 38.91                             170    0.0710 25.8 198 
 BAR2 EZ ES       1234 54.43                             170   -0.2810 25.8 198 
 BAR2 EZ I        1234 55.53        31.6 0.38            168           25.8 198 
 PAM  EZ EP       1234 41.53                             153    0.4310 73.7  38 
 PAM  EE ES       1234 58.81                             153    0.0810 73.7  38 
 PAM  EZ I        1235  1.14        16.1 0.60            156           73.7  38 
 BRR  HZ EP       1234 40.27                             153   -0.1310 74.0 296 
 BRR  HE ES       1234 57.92                             153    0.4410 74.0 296 
 BRR  HZ I        1234 59.06        18.6 0.28            151           74.0 296 
 RUS  HZ EP       1234 42.77                             145   -0.1210  102 178 
 RUS  HE ES       1235  1.85                             145   -0.0710  102 178 
 RUS  HZ I        1235  5.12        11.7 0.36            145            102 178 
 PTB  HZ EP       1234 45.75                             132   -0.54 9  152 259 
 PTB  HN ES   4   1235  6.72                             132   -1.25 0  152 259 
 PTB  HZ I        1235  9.49        21.6 0.42            132            152 259 
 SPBC HZ EP       1234 48.07                             130    0.30 9  167 220 
 SPBC HE ES       1235 10.61                             130    0.01 9  167 220 
 SPBC HZ I        1235 12.90        22.1 0.32            129            167 220 
 ZAR  HZ EP   4   1234 53.26                             123    1.64 0  207 291 
 ZAR  HN ES       1235 17.27                             123   -0.19 8  207 291 
 ZAR  HZ I        1235 22.28        18.0 0.40            123            207 291 
 NOR  HZ EP       1234 55.33                             119    0.34 8  239 235 
 NOR  HE ES       1235 23.05                             119   -0.40 8  239 235 
 NOR  HZ I        1235 26.47        14.1 0.18            119            239 235 
 HEL  HZ EP       1235  0.47                             115    1.01 7  276 256 
 HEL  HN ES       1235 31.08                             115   -0.32 7  276 256 
 HEL  HZ I        1235 38.98        10.2 0.42            116            276 256 
 PTGC HZ EP       1235  2.15                             113   -0.46 7  309 159 
 PTGC HN ES   4   1235 35.82                             113   -1.20 0  309 159 
 LL6C HZ EP       1235  3.33                             111   -0.96 7  324 357 
 LL6C HN ES   4   1235 35.74                             111   -4.26 0  324 357 
 ANIL HZ EP   4   1235 10.32                             109    1.36 0  361 225 
 ANIL HE ES   4   1235 52.48                             109    4.16 0  361 225 
 PRA  HZ EP       1235 12.52                             107   -0.08 6  395 210 
 PRA  HN ES   4   1235 56.61                             107    1.82 0  395 210 
 ORTC HZ EP       1235 13.90                             107    0.87 6  399 216 
 ORTC HN ES   4   1235 57.27                             107    1.71 0  399 216 
 ORTC HZ I        1236  3.35         6.2 0.66            108            399 216 
 SJC  HZ EP   4   1235 12.26                             106   -2.09 0  410 326 
 SJC  HN ES   4   1235 53.75                             106   -4.16 0  410 326 
 SJC  HZ I        1235 59.07         2.8 0.44            107            410 326 
                                                                                
