 2011 1016 1155 21.8 L   6.297 -73.674106.2  RSN  5 0.2 1.5LRSN                1
 GAP=191        0.44       3.0     3.9  5.2  0.3780E+01  0.8806E+01  0.3119E+00E
 Epicentro: SANTA HELENA DEL OPON - SANTANDER                                  3
 ACTION:UPD 12-07-13 16:04 OP:ep   STATUS:               ID:20111016115521 L   I
 2011-10-16-1152-57S.COL___168                                                 6
 STAT SP IPHASW D HRMM SECON CODA AMPLIT PERI AZIMU VELO AIN AR TRES W  DIS CAZ7
 BAR2 SZ EP       1155 38.89                             147    0.2110 63.5  59 
 BAR2 SZ I        1155 39.17         8.0 0.18                          63.5  59 
 BAR2 SZ ES   1   1155 51.79                             147   -0.03 7 63.5  59 
 RUS  HZ EP   1   1155 39.96                             141   -0.22 7 79.2 124 
 RUS  HN ES   1   1155 54.48                             141    0.00 7 79.2 124 
 RUS  HZ I        1155 55.33         3.6 0.30                          79.2 124 
 BRR  HZ EP   1   1155 40.24                             136   -0.10 7 89.7 357 
 BRR  HE ES   1   1155 54.84                             136    0.08 7 89.7 357 
 BRR  HZ I        1155 56.02        11.2 0.22                          89.7 357 
 PAM  SZ EP   1   1155 47.90                             119    0.31 7  158  43 
 PAM  SN ES   1   1156  7.37                             119   -0.30 7  158  43 
 ZAR  HZ EP   1   1155 49.88                             114   -0.16 7  186 315 
 ZAR  HZ I        1155 50.47         5.5 0.12                           186 315 
                                                                                
