 2010  516 2158 54.0 L   6.742 -73.048141.1  RSN  5 0.3 1.4LRSN                1
 GAP=168        0.66       4.9     8.6 10.5  0.2525E-01 -0.4060E+02 -0.2653E+01E
 Epicentro: ARATOCA - SANTANDER                                                3
 ACTION:UP  10-08-24 10:05 OP:vdl  STATUS:               ID:20100516215854 L   I
 2010-05-16-2156-22S.COL___108                                                 6
 STAT SP IPHASW D HRMM SECON CODA AMPLIT PERI AZIMU VELO AIN AR TRES W  DIS CAZ7
 BAR2 SZ EP   2   2159 12.28                             171    -0.8 5   22 222 
 BRR  HZ EP       2159 15.54                             147     0.110   84 299 
 BRR  HE ES   1   2159 32.13                             147     0.0 7   84 299 
 BRR  HZ I        2159 35.50         4.8 0.26                            84 299 
 RUS  HZ EP   1   2159 16.85                             145     0.0 7   94 182 
 RUS  HZ I        2159 18.02         3.7 0.14                            94 182 
 RUS  HE ES   2   2159 34.83                             145     0.2 5   94 182 
 BRI  SZ EP   1   2159 18.16                             139     0.5 7  111  14 
 BRI  SZ ES   2   2159 36.09                             139    -0.1 5  111  14 
 GUE  SZ EP   1   2159 18.33                             137    -0.4 7  121   6 
                                                                                
