 2015  416 2254  7.3 L   6.812 -73.183145.7  RSN 17 0.4 3.2LRSN                1
 GAP=131        1.00       2.6     3.7  4.9 -0.5328E+00  0.4595E+01  0.7990E+00E
 Epicentro: ZAPATOCA - SANTANDER                                               3
 ACTION:UPD 15-06-03 16:55 OP:cam  STATUS:               ID:20150416225407 L   I
 OLDACT:UP  15-04-17 03:15 OP:mh   STATUS:               ID:20150416224749     3
 OLDACT:REG 15-04-17 02:18 OP:mh   STATUS:               ID:20150416224749     3
 2015-04-16-2247-49M.COL___278                                                 6
 STAT SP IPHASW D HRMM SECON CODA AMPLIT PERI AZIMU VELO AIN AR TRES W  DIS CAZ7
 BAR2 EZ EP       2254 26.98                             170    0.0110 24.3 180 
 BAR2 EZ ES       2254 42.26                             170   -0.0410 24.3 180 
 BAR2 EZ I        2254 43.47       319.3 0.42            168           24.3 180 
 BRR  HZ IP     C 2254 28.90                             154    0.6610 67.0 299 
 BRR  HN ES       2254 44.97                             154    0.4210 67.0 299 
 BRR  HZ I        2254 51.14       201.2 0.14            151           67.0 299 
 PAM  SZ IP     C 2254 29.92                             150    0.2810 79.1  42 
 PAM  SN ES   1   2254 47.07                             150    0.03 7 79.1  42 
 PAM  SZ I        2254 48.95       199.0 0.58            157           79.1  42 
 RUS  HZ EP       2254 30.92                             143   -0.2810  102 174 
 RUS  HE ES       2254 49.17                             143   -0.6410  102 174 
 RUS  HZ I        2254 50.99       138.8 0.40            146            102 174 
 PTB  HZ IP     D 2254 33.66                             133   -0.30 9  144 258 
 PTB  HN ES       2254 54.82                             133    0.09 9  144 258 
 PTB  HZ I        2255  0.66       152.1 0.28            132            144 258 
 OCA  HZ EP       2254 35.19                             130   -0.29 9  159 355 
 OCA  HN ES       2254 57.84                             130    0.41 9  159 355 
 OCA  HZ I        2255  2.77       535.3 0.28            133            159 355 
 SPBC HZ EP   1   2254 35.69                             129    0.01 7  162 218 
 SPBC HN ES   1   2254 57.89                             129    0.09 7  162 218 
 SPBC HZ I        2255  4.84       330.2 0.24            130            162 218 
 ZAR  HZ EP       2254 39.47                             123    0.13 9  200 292 
 ZAR  HN ES       2255  3.46                             123   -0.84 9  200 292 
 ZAR  HZ I        2255 11.14       229.5 0.46            124            200 292 
 NOR  HZ EP       2254 42.88                             119    0.09 8  232 234 
 NOR  HN ES       2255 10.15                             119   -0.29 8  232 234 
 NOR  HZ I        2255 18.13       128.3 0.24            120            232 234 
 SML  HZ EP   1   2254 43.43                             118   -0.21 6  241 336 
 SML  HN ES       2255 11.52                             118   -0.45 8  241 336 
 SML  HZ I        2255 14.52       204.7 0.28            120            241 336 
 ROSC BZ EP       2254 46.22                             117    0.88 8  252 210 
 ROSC BN ES   4   2255 16.28                             117    1.29 0  252 210 
 ROSC BZ I        2255 20.30       173.1 0.45            119            252 210 
 HEL  HZ EP   1   2254 47.50                             115    0.36 6  268 255 
 HEL  HN ES       2255 18.77                             115    0.58 8  268 255 
 HEL  HZ I        2255 27.47        72.0 0.26            116            268 255 
 URE  HZ EP       2254 47.01                             114   -0.91 7  280 292 
 URE  HN ES   4   2255 17.92                             114   -1.66 0  280 292 
 URE  HZ I        2255 27.81       134.7 0.26            115            280 292 
 GUY2CHZ EP   1   2254 51.01                             112    0.36 5  299 234 
 GUY2CHN ES   4   2255 28.88                             112    4.44 0  299 234 
 GUY2CHZ I        2255 33.70        76.9 0.40                           299 234 
 VIL  SZ EP       2254 50.31                             112   -0.49 7  304 191 
 VIL  SN ES       2255 24.97                             112    0.26 7  304 191 
 PTGC HZ EP   4   2254 49.75                             111   -1.74 0  311 158 
 PTGC HN ES   4   2255 22.86                             111   -3.08 0  311 158 
 PTGC HZ I        2255 28.00        42.4 0.28            115            311 158 
 CBOC HZ EP   1   2254 54.40                             110    0.55 5  330 252 
 CBOC HN ES   4   2255 31.30                             110    1.17 0  330 252 
                                                                                
