 2011  916 2026  0.1 L   6.786 -73.152140.2  RSN 11 0.4 2.5LRSN                1
 GAP=136        0.73       2.9     4.4  5.2 -0.2159E+01  0.6083E+01  0.1346E+01E
 Epicentro: LOS SANTOS - SANTANDER                                             3
 ACTION:UPD 12-07-13 15:57 OP:ep   STATUS:               ID:20110916202600 L   I
 2011-09-16-2023-46S.COL___171                                                 6
 STAT SP IPHASW D HRMM SECON CODA AMPLIT PERI AZIMU VELO AIN AR TRES W  DIS CAZ7
 BTL  SZ EP   1   2026 19.44                             172    0.46 7 19.5 319 
 BAR2 SZ EP       2026 19.13                             171    0.1110 21.6 189 
 BAR2 SZ ES   1   2026 33.69                             171   -0.09 7 21.6 189 
 BAR2 SZ I        2026 35.45       129.9 0.22                          21.6 189 
 GIR2 SZ EP       2026 19.20                             166    0.0510 32.7 352 
 BRR  HZ EP       2026 21.01                             151    0.3610 71.4 300 
 BRR  HN ES   1   2026 37.24                             151    0.55 7 71.4 300 
 BRR  HZ I        2026 42.10        83.8 0.16                          71.4 300 
 PAM  SZ EP       2026 21.97                             149    0.1410 79.1  39 
 PAM  SZ I        2026 22.35        48.5 0.23                          79.1  39 
 PAM  SN ES   1   2026 38.22                             149   -0.55 7 79.1  39 
 RUS  HZ EP       2026 23.12                             143   -0.0710 99.0 176 
 RUS  HN ES   1   2026 41.03                             143   -0.17 7 99.0 176 
 RUS  HZ I        2026 43.07        41.3 0.38                          99.0 176 
 OCA  SZ EP       2026 27.78                             128   -0.34 9  162 353 
 OCA  SZ ES   1   2026 49.88                             128   -0.10 7  162 353 
 OCA  SZ I        2026 54.19        68.2 0.20                           162 353 
 ZAR  HZ EP   1   2026 31.80                             121   -0.38 6  204 293 
 ZAR  HN ES   2   2026 56.91                             121   -0.29 4  204 293 
 NOR  SZ EP   1   2026 35.66                             117    0.31 6  233 235 
 NOR  SN ES   1   2027  1.92                             117   -0.92 6  233 235 
 CHI  HZ EP   1   2026 37.07                             116   -0.23 6  247 195 
 CHI  HZ I        2027 12.72        11.9 0.27                           247 195 
 PRA  HZ EP   1   2026 53.28                             106    0.05 4  390 210 
 PRA  HE ES   1   2027 35.40                             106    0.74 4  390 210 
                                                                                
