 2016 1116 2215  4.9 L   7.402 -72.812  4.0  RSN  5 0.3 1.7LRSN                1
 GAP=206        0.70       3.6     1.8  4.2  0.1679E+01  0.1574E+01  0.4137E+01E
 Epicentro: VETAS - SANTANDER                                                  3
 ACTION:UPD 17-10-26 21:08 OP:lp   STATUS:               ID:20161116221504 L   I
 OLDACT:DUP 16-11-17 05:09 OP:lv   STATUS:               ID:20161116220747d    3
 2016-11-16-2208-00M.COL___346                                                 6
 STAT SP IPHASW D HRMM SECON CODA AMPLIT PERI AZIMU VELO AIN AR TRES W  DIS CAZ7
 PAM  EZ IP     D 2215  7.95                              47   -0.2510 14.2 119 
 PAM  EN ES       2215 10.83                              47    0.0910 14.2 119 
 PAM  EZ I        2215 11.90       188.7 0.19            141           14.2 119 
 BAR2 EZ EP       2215 20.65                              47   -0.0410 98.4 205 
 BAR2 EZ ES       2215 33.10                              47    0.1210 98.4 205 
 BAR2 EZ I        2215 37.18        13.0 0.16             99           98.4 205 
 BRR  HZ EP       2215 21.17                              47   -0.2010  105 252 
 PTB  HZ EP       2215 35.99                              37    0.13 9  205 242 
 PTB  HE ES       2215 59.81                              37   -0.17 9  205 242 
 PTB  HZ I        2216  1.08        11.2 0.28             56            205 242 
 ZAR  HZ EP       2215 39.19                              37    0.73 8  226 273 
 ZAR  HE ES       2216  4.33                              37   -0.27 8  226 273 
 ZAR  HZ I        2216  8.27         3.8 0.24             56            226 273 
                                                                                
