 2010  516 2141 38.3 L   6.763 -73.003148.9  RSN  6 0.2 1.7LRSN                1
 GAP=173        0.53       4.0     7.3  8.0  0.8139E+01 -0.3367E+02 -0.1719E+02E
 Epicentro: CEPITA - SANTANDER                                                 3
 ACTION:UP  10-08-24 10:05 OP:vdl  STATUS:               ID:20100516214138 L   I
 2010-05-16-2139-20S.COL___108                                                 6
 STAT SP IPHASW D HRMM SECON CODA AMPLIT PERI AZIMU VELO AIN AR TRES W  DIS CAZ7
 BAR2 SZ EP       2141 58.07                             169    -0.310   28 226 
 BAR2 SZ ES   2   2142 14.07                             169     0.0 5   28 226 
 BRR  HZ EP       2142  0.71                             148     0.010   87 296 
 BRR  HZ I        2142  0.99        22.0 0.19                            87 296 
 BRR  HN ES   1   2142 18.38                             148     0.1 7   87 296 
 RUS  HZ EP   1   2142  2.41                             146     0.3 7   97 185 
 RUS  HN ES   1   2142 20.64                             146     0.0 7   97 185 
 RUS  HZ I        2142 21.91         3.6 0.23                            97 185 
 BRI  SZ EP       2142  2.64                             142     0.210  108  12 
 GUE  SZ EP   1   2142  3.23                             140    -0.2 7  118   4 
 GRA  SZ EP   1   2142  3.86                             138     0.0 7  126  10 
                                                                                
