 2016  316 2022 42.8 L   6.798 -73.166144.0  RSN 10 0.3 2.0LRSN                1
 GAP=134        0.71       2.1     2.9  4.3 -0.1520E+01  0.2971E+01  0.3301E+00E
 Epicentro: LOS SANTOS - SANTANDER                                             3
 ACTION:UPD 16-05-13 21:24 OP:cam  STATUS:               ID:20160316202242 L   I
 OLDACT:DUP 16-03-17 07:33 OP:ar   STATUS:               ID:20160316201748d    3
 OLDACT:UP  16-03-17 07:30 OP:ar   STATUS:               ID:20160316201747     3
 OLDACT:REG 16-03-17 06:30 OP:ar   STATUS:               ID:20160316201747     3
 2016-03-16-2017-47M.COL___289                                                 6
 STAT SP IPHASW D HRMM SECON CODA AMPLIT PERI AZIMU VELO AIN AR TRES W  DIS CAZ7
 BAR2 EZ EP       2023  2.20                             171    0.0110 22.9 185 
 BAR2 EZ ES       2023 17.46                             171    0.1310 22.9 185 
 BAR2 EZ I        2023 18.73        28.2 0.30            170           22.9 185 
 PAM  EZ EP     C 2023  5.04                             150    0.1310 79.0  41 
 PAM  EN ES       2023 22.11                             150   -0.0510 79.0  41 
 PAM  EZ I        2023 24.58        13.2 0.26            154           79.0  41 
 RUS  HZ EP       2023  6.42                             143    0.0610  101 175 
 RUS  HN ES       2023 24.92                             143    0.1710  101 175 
 RUS  HZ I        2023 26.22         9.6 0.28            145            101 175 
 PTB  HZ EP       2023  9.11                             132   -0.30 9  146 259 
 PTB  HN ES       2023 29.85                             132   -0.32 9  146 259 
 PTB  HZ I        2023 33.68        10.6 0.12            132            146 259 
 OCA  HZ EP       2023 10.49                             129   -0.46 9  160 354 
 OCA  HN ES       2023 32.95                             129    0.03 9  160 354 
 OCA  HZ I        2023 37.32        28.9 0.34            131            160 354 
 SPBC HZ EP       2023 11.12                             129    0.12 9  162 218 
 SPBC HN ES       2023 33.06                             129    0.05 9  162 218 
 SPBC HZ I        2023 38.93        14.9 0.30            130            162 218 
 ZAR  HN ES       2023 40.29                             122    0.32 9  202 292 
 NOR  HZ EP       2023 18.93                             118    0.73 8  233 234 
 NOR  HN ES       2023 45.81                             118   -0.02 8  233 234 
 NOR  HZ I        2023 54.14         7.5 0.14            119            233 234 
 CHI  HZ EP       2023 20.37                             117    0.07 8  248 195 
 CHI  HN ES       2023 48.87                             117   -0.69 8  248 195 
 CHI  HZ I        2023 53.11         6.0 0.64            118            248 195 
 GUY2CHZ EP   9   2023 28.45                             112    2.36 0  299 235 
 GUY2CHN ES       2024  2.36                                    0.13 7  299 235 
 GUY2CHZ I        2024  8.43         4.2 0.32                           299 235 
                                                                                
