 2012 1116 2142 39.2 L   6.555 -73.534110.4  RSN 13 0.5 2.2LRSN                1
 GAP=102        1.01       3.2     3.8  7.0 -0.3966E+01  0.6200E+01  0.4112E+01E
 Epicentro: EL CARMEN DE CHUCURI - SANTANDER                                   3
 ACTION:UPD 12-12-05 15:33 OP:}ep  STATUS:               ID:20121116214239 L   I
 2012-11-16-2140-00M.COL___234                                                 6
 STAT SP IPHASW D HRMM SECON CODA AMPLIT PERI AZIMU VELO AIN AR TRES W  DIS CAZ7
 BAR2 SZ EP       2142 55.38                             159    0.2610 39.1  84 
 BAR2 SZ ES   1   2143  7.71                             159    0.14 7 39.1  84 
 BRR  HZ EP       2142 56.19                             147    0.0410 64.2 342 
 BRR  HN ES   1   2143  9.81                             147    0.41 7 64.2 342 
 BRR  HZ I        2143 14.17        29.1 0.16                          64.2 342 
 GIR2 SZ EP       2142 56.82                             145    0.1310 69.1  33 
 PTB  HZ IP     C 2142 58.22                             134   -0.9010  102 269 
 PTB  HE ES   1   2143 13.54                             134   -1.14 7  102 269 
 PTB  HZ I        2143 14.56        50.8 0.18                           102 269 
 PAM  SZ EP   1   2143  1.82                             127   -0.21 7  127  47 
 PAM  SN ES   1   2143 19.55                             127   -0.31 7  127  47 
 PAM  SZ I        2143 24.22        12.6 0.18                           127  47 
 ZAR  HZ EP   1   2143  7.02                             117    0.16 7  179 305 
 ZAR  HN ES   1   2143 29.41                             117    0.96 7  179 305 
 ZAR  HZ I        2143 31.90        52.2 0.30                           179 305 
 NOR  HZ EP       2143  6.95                             116   -0.48 9  184 234 
 NOR  HN ES   1   2143 29.84                             116    0.37 7  184 234 
 NOR  HZ I        2143 32.18        25.3 0.16                           184 234 
 OCA  HZ EP   1   2143  7.23                             116   -0.74 7  188   7 
 OCA  HN ES   1   2143 31.27                             116    0.84 7  188   7 
 OCA  HZ I        2143 38.98        24.1 0.38                           188   7 
 CHI  HZ EP   1   2143 11.22                             112    0.00 6  214 186 
 CHI  HE ES   1   2143 36.55                             112    0.33 6  214 186 
 CHI  HZ I        2143 41.73         5.6 0.18                           214 186 
 HEL  HZ EP   1   2143 12.94                             111    0.60 6  224 260 
 HEL  HE ES   1   2143 38.16                             111   -0.05 6  224 260 
 HEL  HZ I        2143 43.12        14.2 0.34                           224 260 
 SML  HZ EP   1   2143 15.24                             108   -0.20 6  255 347 
 SML  HN ES   1   2143 43.81                             108    0.08 6  255 347 
 RREF HZ EP   1   2143 18.53                             107    0.40 6  272 228 
 RREF HN ES   1   2143 48.95                             107    0.44 6  272 228 
 RREF HZ I        2143 55.80         9.4 0.56                           272 228 
 PRA  HZ EP   1   2143 26.84                             102    0.41 5  348 206 
 PRA  HN ES   1   2144  3.58                             102    0.28 5  348 206 
 PRA  HZ I        2144  8.64        11.6 0.24                           348 206 
                                                                                
