 2014  516 2043 37.1 L   6.759 -73.149141.8  RSN  8 0.4 2.0LRSN                1
 GAP=158        0.79       5.6     4.9  7.9 -0.1377E+02 -0.7595E+01  0.3131E+02E
 Epicentro: LOS SANTOS - SANTANDER                                             3
 ACTION:UPD 15-03-16 16:58 OP:nd   STATUS:               ID:20140516204337 L   I
 OLDACT:UP  14-05-17 03:57 OP:mh   STATUS:               ID:20140516204000     3
 OLDACT:UP  14-05-17 03:57 OP:mh   STATUS:               ID:20140516204000     3
 OLDACT:UP  14-05-17 03:57 OP:mh   STATUS:               ID:20140516204000     3
 OLDACT:REG 14-05-17 02:16 OP:mh   STATUS:               ID:20140516204000     3
 2014-05-16-2040-00M.COL___252                                                 6
 STAT SP IPHASW D HRMM SECON CODA AMPLIT PERI AZIMU VELO AIN AR TRES W  DIS CAZ7
 BRR  HZ EP       2043 58.04                             151    0.1510 73.1 302 
 BRR  HN ES       2044 14.44                             151    0.3110 73.1 302 
 BRR  HZ I        2044 19.04        24.9 0.15            155           73.1 302 
 PAM  SZ EP     D 2043 59.16                             149    0.0810 81.2  38 
 PAM  SN ES       2044 16.03                             149   -0.2410 81.2  38 
 PAM  SZ I        2044 17.02        11.8 0.14            160           81.2  38 
 PTB  HZ EP   1   2044  2.86                             131   -0.73 7  147 261 
 PTB  HN ES   1   2044 23.88                             131   -0.41 7  147 261 
 PTB  HZ I        2044 26.11        12.5 0.12            134            147 261 
 NOR  HZ EP       2044 12.04                             118   -0.20 8  232 235 
 NOR  HN ES   1   2044 39.72                             118    0.04 6  232 235 
 NOR  HZ I        2044 48.14         5.5 0.13            121            232 235 
 CHI  HZ EP       2044 14.06                             117    0.01 8  244 195 
 CHI  HN ES   1   2044 43.37                             117    0.46 6  244 195 
 CHI  HZ I        2044 47.86         6.4 0.59            119            244 195 
 GUY2CHZ EP       2044 20.96                             112    0.81 7  298 235 
 GUY2CHN ES   4   2044 56.38                             112    2.61 0  298 235 
 GUY2CHZ I        2045  2.51         5.4 0.30                           298 235 
 RREF HZ EP   4   2044 24.13                             110    1.47 0  319 230 
 RREF HN ES   4   2045  1.21                             110    2.98 0  319 230 
 RREF HZ I        2045  8.27         5.1 0.36            113            319 230 
 PRA  HZ EP       2044 29.88                             106   -0.08 6  388 210 
 PRA  HN ES       2045 10.68                             106   -0.54 6  388 210 
 PRA  HZ I        2045 18.77         5.1 0.30            109            388 210 
                                                                                
