 2010  916 2145 10.2 L   6.810 -73.099140.6  RSN  4 0.1 1.5LRSN                1
 GAP=169        0.31       3.4     6.3  6.6  0.1427E+02 -0.2821E+02 -0.1438E+02E
 Epicentro: LOS SANTOS - SANTANDER                                             3
 ACTION:UP  11-02-18 11:03 OP:tino STATUS:               ID:20100916214510 L   I
 2010-09-16-2141-54S.COL___115                                                 6
 STAT SP IPHASW D HRMM SECON CODA AMPLIT PERI AZIMU VELO SNR AR TRES W  DIS CAZ7
 BAR2 SZ EP   1   2145 29.34                             169     0.0 7   26 201 
 BAR2 SZ I        2145 45.55        17.5 0.21                            26 201 
 BRR  HZ IP     D 2145 31.09                             150     0.010   75 296 
 BRR  HE ES   1   2145 47.28                             150     0.0 7   75 296 
 BRR  HZ I        2145 48.78        16.6 0.02                            75 296 
 RUS  HZ EP   2   2145 33.42                             142    -0.1 5  102 179 
 RUS  HN ES   1   2145 51.74                             142     0.0 7  102 179 
 RUS  HZ I        2145 53.44         3.4 0.36                           102 179 
 GUE  SZ EP   1   2145 34.27                             139     0.0 7  114  10 
 GUE  SZ I        2145 54.26         1.9 0.08                           114  10 
                                                                                
