 2013  216 2201  1.0 L   6.802 -73.183137.5  RSN  4 0.1 1.3LRSN                1
 GAP=132        0.42       2.6     2.5  4.7 -0.6998E+00  0.4509E+01 -0.3301E+01E
 Epicentro: LOS SANTOS - SANTANDER                                             3
 ACTION:UPD 13-03-12 09:33 OP:ep   STATUS:               ID:20130216220101 L   I
 2013-02-16-2200-00M.COL___241                                                 6
 STAT SP IPHASW D HRMM SECON CODA AMPLIT PERI AZIMU VELO AIN AR TRES W  DIS CAZ7
 PAM  SZ EP   1   22 1 22.48                             148   -0.06 8 79.9  42 
 PAM  SN ES   1   22 1 39.29                             148   -0.02 8 79.9  42 
 PAM  SZ I        22 1 41.89         3.5 0.51             47           79.9  42 
 RUS  HZ EP       22 1 24.05                             142    0.0210  101 174 
 RUS  HE ES       22 1 42.02                             142    0.0610  101 174 
 RUS  HE I        22 1 43.33         4.5 0.55             47            101 174 
 PTB  HZ EP       22 1 26.73                             131   -0.25 9  144 258 
 PTB  HE ES       22 1 47.21                             131    0.00 9  144 258 
 PTB  HZ I        22 1 53.59         1.9 0.15             47            144 258 
 ZAR  HZ EP       22 1 32.81                             121    0.26 9  200 293 
 ZAR  HZ I        22 2  4.71         3.1 0.30             37            200 293 
                                                                                
