 2012  816 2204 40.2 L   6.783 -73.152147.0  RSN  7 0.4 1.8LRSN                1
 GAP=136        0.69       4.6     4.1  6.3  0.1156E+01  0.4622E+01  0.1068E+01E
 Epicentro: LOS SANTOS - SANTANDER                                             3
 ACTION:UPD 12-09-10 11:56 OP:ep   STATUS:               ID:20120816220440 L   I
 2012-08-16-2200-00M.COL___217                                                 6
 STAT SP IPHASW D HRMM SECON CODA AMPLIT PERI AZIMU VELO AIN AR TRES W  DIS CAZ7
 BAR2 SZ EP   1   22 4 59.93                             171   -0.04 7 21.4 189 
 BAR2 SZ ES   1   22 5 15.49                             171    0.12 7 21.4 189 
 BAR2 SZ I        22 5 17.43        25.9 0.21                          21.4 189 
 GIR2 SZ EP   1   22 5  0.06                             167   -0.03 7 33.0 352 
 GIR2 SZ ES   2   22 5 14.81                             167   -0.78 5 33.0 352 
 BRR  HZ EP   1   22 5  1.76                             153    0.24 7 71.5 300 
 BRR  HZ I        22 5  2.21        22.3 0.10                          71.5 300 
 BRR  HN ES   1   22 5 18.69                             153    0.55 7 71.5 300 
 PAM  SZ EP   1   22 5  2.86                             151    0.17 7 79.3  39 
 PAM  SN ES   1   22 5 19.87                             151   -0.33 7 79.3  39 
 PAM  SZ I        22 5 20.59        11.2 0.18                          79.3  39 
 RUS  HZ EP   1   22 5  3.94                             145   -0.03 7 98.8 176 
 RUS  HZ I        22 5  4.84         5.7 0.14                          98.8 176 
 RUS  HN ES   1   22 5 22.79                             145    0.30 7 98.8 176 
 PTB  HZ EP   1   22 5  6.77                             133   -0.43 7  147 259 
 PTB  HN ES   1   22 5 27.66                             133   -0.58 7  147 259 
 PTB  HZ I        22 5 31.01         5.5 0.28                           147 259 
 ZAR  HN ES   1   22 5 38.51                             123    0.38 6  204 293 
                                                                                
