 2016  616 2339  5.8 L   6.794 -73.115149.3  RSN 11 0.4 1.7LRSN                1
 GAP= 99        0.90       3.4     3.2  5.0 -0.1748E+01  0.1781E+01  0.4446E+01E
 Epicentro: LOS SANTOS - SANTANDER                                             3
 ACTION:UPD 16-07-21 22:19 OP:rebc STATUS:               ID:20160616233905 L   I
 OLDACT:UP  16-06-17 06:37 OP:edw  STATUS:               ID:20160616233743     3
 OLDACT:REG 16-06-17 03:19 OP:edw  STATUS:               ID:20160616233743     3
 2016-06-16-2337-43M.COL___346                                                 6
 STAT SP IPHASW D HRMM SECON CODA AMPLIT PERI AZIMU VELO AIN AR TRES W  DIS CAZ7
 BAR2 EZ EP       2339 25.71                             171   -0.1610 23.5 199 
 BAR2 EZ ES       2339 41.12                             171   -0.3910 23.5 199 
 BAR2 EZ I        2339 42.38        10.9 0.22                          23.5 199 
 BRR  HZ EP       2339 27.77                             152    0.2410 74.5 298 
 BRR  HN ES       2339 44.90                             152    0.4310 74.5 298 
 PAM  EZ EP     D 2339 28.60                             152    0.2910 75.8  37 
 PAM  EN ES       2339 45.81                             152   -0.0510 75.8  37 
 PAM  EZ I        2339 47.85        11.7 0.50                          75.8  37 
 RUS  HZ EP       2339 29.58                             145   -0.2610 99.7 178 
 RUS  HE ES       2339 48.46                             145   -0.1310 99.7 178 
 RUS  HZ I        2339 49.32         2.7 0.34                          99.7 178 
 PTB  HZ EP       2339 32.58                             132   -0.77 9  151 259 
 PTB  HE ES       2339 54.75                             132   -0.09 9  151 259 
 PTB  HZ I        2339 59.66         6.8 0.54                           151 259 
 TAM  HZ EP       2339 33.85                             132    0.40 9  152 105 
 SPBC HZ EP       2339 34.72                             129   -0.01 9  165 220 
 SPBC HE ES       2339 57.85                             129    0.56 9  165 220 
 SPBC HZ I        2339 59.17        14.5 0.22                           165 220 
 ZAR  HE ES       2340  4.39                             123   -0.21 8  207 292 
 NOR  HZ EP       2339 41.50                             119   -0.50 8  237 235 
 NOR  HE ES       2340 10.15                             119   -0.07 8  237 235 
 NOR  HZ I        2340 12.25         4.9 0.26                           237 235 
 CHI  HZ EP       2339 43.41                             118   -0.32 8  249 196 
 CHI  HN ES       2340 13.46                             118    0.15 8  249 196 
 CHI  HZ I        2340 21.71         2.1 0.14                           249 196 
 GUY2CHZ EP       2339 50.57                             113    0.72 7  304 235 
 GUY2CHN ES       2340 24.67                             113    0.47 7  304 235 
 GUY2CHZ I        2340 32.58         4.5 0.74                           304 235 
                                                                                
