 2011  616 2104 39.5 L   6.144 -73.718115.1  RSN  5 0.3 1.9LRSN                1
 GAP=117        0.61       3.1     5.3  9.1 -0.1607E+01  0.1542E+02  0.9187E+01E
 Epicentro: LANDAZURI - SANTANDER                                              3
 ACTION:UP  11-07-14 19:05 OP:ep   STATUS:               ID:20110616210439 L   I
 2011-06-16-2101-01S.COL___135                                                 6
 STAT SP IPHASW D HRMM SECON CODA AMPLIT PERI AZIMU VELO SNR AR TRES W  DIS CAZ7
 RUS  HZ EP   1   21 4 58.63                             145     0.2 7   76 112 
 RUS  HN ES   2   21 5 12.74                             145    -0.5 5   76 112 
 RUS  HZ I        21 5 15.14         8.4 0.34                            76 112 
 BAR2 SZ EP   1   21 4 58.44                             144     0.2 7   77  50 
 BAR2 SZ ES   1   21 5 12.88                             144     0.1 7   77  50 
 BAR2 SZ I        21 5 13.93        47.7 0.21                            77  50 
 BRR  HZ EP   1   21 5  0.31                             134     0.1 7  107   0 
 BRR  HZ I        21 5  0.71        14.4 0.11                           107   0 
 BRR  HN ES   1   21 5 16.13                             134    -0.2 7  107   0 
 NOR  SN ES   2   21 5 22.75                             125     0.2 5  143 243 
 CHI  HZ EP   1   21 5  6.18                             120    -0.5 7  167 181 
 CHI  HN ES   1   21 5 28.15                             120     0.2 7  167 181 
                                                                                
