 2013  316 2210  7.9 L   6.758 -73.135141.3  RSN  4 0.3 1.5LRSN                1
 GAP=140        0.86       5.8     4.7  8.7 -0.7044E+01  0.9340E+00  0.1384E+02E
 Epicentro: LOS SANTOS - SANTANDER                                             3
 ACTION:UPD 13-04-09 14:03 OP:ep   STATUS:               ID:20130316221007 L   I
 2013-03-16-2208-49M.COL___208                                                 6
 STAT SP IPHASW D HRMM SECON CODA AMPLIT PERI AZIMU VELO AIN AR TRES W  DIS CAZ7
 BRR  HN ES       2210 45.60                             151    0.5610 74.5 301 
 PAM  SZ EP       2210 29.96                             149    0.1310 80.3  37 
 PAM  SZ I        2210 30.13         6.7 0.22            152           80.3  37 
 PAM  SN ES       2210 46.53                             149   -0.3910 80.3  37 
 RUS  HZ EP   1   2210 31.06                             144    0.18 7 95.9 177 
 RUS  HN ES   1   2210 48.85                             144    0.05 7 95.9 177 
 RUS  HN I        2210 52.19         3.4 0.62            143           95.9 177 
 PTB  HZ EP       2210 34.54                             131    0.00 9  148 261 
 PTB  HN ES       2210 54.82                             131   -0.50 9  148 261 
 PTB  HN I        2210 57.00         6.6 0.24            132            148 261 
                                                                                
