 2016  716 2143 26.8 L   6.809 -73.154144.1  RSN  7 0.2 1.3LRSN                1
 GAP=135        0.66       2.7     3.2  4.5 -0.2040E+01  0.1862E+01  0.2376E+01E
 Epicentro: LOS SANTOS - SANTANDER                                             3
 ACTION:UPD 17-03-29 16:52 OP:lp   STATUS:               ID:20160716214326 L   I
 OLDACT:DUP 16-07-17 03:46 OP:edw  STATUS:               ID:20160716213760d    3
 2016-07-16-2137-59S.COL___322                                                 6
 STAT SP IPHASW D HRMM SECON CODA AMPLIT PERI AZIMU VELO AIN AR TRES W  DIS CAZ7
 BAR2 EZ EP       2143 46.01                             170   -0.2210 24.1 187 
 BAR2 EZ ES       2144  1.76                             170    0.3610 24.1 187 
 BAR2 EZ I        2144  2.21         4.7 0.28            170           24.1 187 
 BRR  HZ EP       2143 47.56                             153   -0.1210 69.9 298 
 BRR  HE ES       2144  3.47                             153   -0.5110 69.9 298 
 PAM  EZ EP       2143 49.01                             151    0.2010 77.3  41 
 PAM  EN ES       2144  6.03                             151    0.0310 77.3  41 
 PAM  EZ I        2144  8.25         4.8 0.40            152           77.3  41 
 RUS  HZ EP       2143 50.47                             143    0.0310  102 176 
 RUS  HN ES       2144  8.79                             143   -0.1110  102 176 
 RUS  HZ I        2144 10.25         1.7 0.42            144            102 176 
 PTB  HZ EP       2143 53.77                             132    0.23 9  147 258 
 PTB  HE ES       2144 14.70                             132    0.28 9  147 258 
 SPBC HZ EP       2143 55.06                             129   -0.10 9  163 219 
 SPBC HN ES       2144 17.51                             129    0.20 9  163 219 
 SPBC HZ I        2144 20.31         4.1 0.05            130            163 219 
 CHI  HN ES       2144 33.54                             117   -0.31 8  249 195 
                                                                                
