 2016  616 2100 56.9 L   6.717 -73.116151.0  RSN  8 0.6 1.7LRSN                1
 GAP=144        1.42       6.0     6.5  8.6 -0.9553E+01  0.1236E+02  0.1406E+02E
 Epicentro: JORDAN - SANTANDER                                                 3
 ACTION:UPD 16-07-21 22:19 OP:rebc STATUS:               ID:20160616210056 L   I
 OLDACT:UP  16-06-17 05:16 OP:edw  STATUS:               ID:20160616205747     3
 OLDACT:REG 16-06-17 02:55 OP:edw  STATUS:               ID:20160616205747     3
 2016-06-16-2057-47M.COL___346                                                 6
 STAT SP IPHASW D HRMM SECON CODA AMPLIT PERI AZIMU VELO AIN AR TRES W  DIS CAZ7
 BAR2 EZ EP       21 1 17.85                             174    0.8410 15.6 208 
 BAR2 EZ ES       21 1 32.48                             174   -0.2410 15.6 208 
 BAR2 EZ I        21 1 34.29        15.2 0.34                          15.6 208 
 BRR  HZ EP       21 1 19.46                             151    0.4410 78.8 303 
 BRR  HE ES       21 1 36.12                             151   -0.1810 78.8 303 
 PAM  EZ EP       21 1 20.28                             150    0.3110 82.8  34 
 PAM  EN ES       21 1 37.91                             150   -0.0710 82.8  34 
 PAM  EZ I        21 1 39.75         7.4 0.54                          82.8  34 
 RUS  HZ EP       21 1 18.87                             147   -1.6410 91.2 178 
 RUS  HE ES       21 1 39.43                             147    0.4810 91.2 178 
 RUS  HZ I        21 1 41.19         5.5 0.30                          91.2 178 
 PTB  HZ EP       21 1 24.17                             133   -0.26 9  150 263 
 PTB  HE ES       21 1 45.71                             133   -0.22 9  150 263 
 PTB  HZ I        21 1 47.28         5.3 0.44                           150 263 
 NOR  HZ EP       21 1 32.89                             120    0.24 8  232 237 
 NOR  HE ES       21 2  0.53                             120   -0.03 8  232 237 
 NOR  HZ I        21 2  6.56         3.1 0.22                           232 237 
 CHI  HZ EP       21 1 33.75                             119   -0.27 8  241 197 
 CHI  HN ES       21 2  3.52                             119    0.53 8  241 197 
 CHI  HZ I        21 2  8.34         3.6 0.40                           241 197 
 GUY2CHZ EP       21 1 40.62                             113    0.16 7  299 237 
 GUY2CHE ES       21 2 14.62                             113    0.17 7  299 237 
 GUY2CHZ I        21 2 23.83         2.3 0.32                           299 237 
                                                                                
