 2012  316 2305 58.4 L   6.782 -73.126140.8  RSN  4 0.3 1.4LRSN                1
 GAP=140        0.73       5.0     4.8  8.2 -0.3923E+01  0.2406E+01  0.2634E+01E
 ACTION:UP  12-03-31 23:20 OP:EP   STATUS:               ID:20120316230558 L   I
 2012-03-16-2300-00M.COL___202                                                 6
 STAT SP IPHASW D HRMM SECON CODA AMPLIT PERI AZIMU VELO SNR AR TRES W  DIS CAZ7
 BRR  HZ EP       23 6 19.23                             151     0.110   74 299 
 BRR  HN ES   1   23 6 35.71                             151     0.3 7   74 299 
 BRR  HZ I        23 6 35.77         7.7 0.39                            74 299 
 PAM  SZ EP       23 6 20.23                             150     0.210   78  37 
 PAM  SN ES   1   23 6 36.60                             150    -0.4 7   78  37 
 RUS  HZ EP   1   23 6 21.83                             143     0.3 7   99 177 
 RUS  HN ES   1   23 6 39.38                             143    -0.1 7   99 177 
 PTB  HZ EP   1   23 6 24.48                             130    -0.6 7  150 260 
 PTB  HE ES   1   23 6 45.89                             130    -0.1 7  150 260 
 PTB  HZ I        23 6 47.71         2.0 0.04                           150 260 
                                                                                
