 2011  516 2330 24.3 L   6.798 -73.100140.6  RSN 11 0.2 2.2LRSN                1
 GAP=142        0.47       2.7     4.2  3.9 -0.5408E+01 -0.9110E+00  0.1719E+01E
 Epicentro: LOS SANTOS - SANTANDER                                             3
 ACTION:UP  11-06-29 08:53 OP:tino STATUS:               ID:20110516233024 L   I
 2011-05-16-2325-26S.COL___141                                                 6
 STAT SP IPHASW D HRMM SECON CODA AMPLIT PERI AZIMU VELO SNR AR TRES W  DIS CAZ7
 BTL  SZ IP       2330 43.54                             170     0.310   23 306 
 BTL  SZ ES   2   2330 58.13                             170     0.1 5   23 306 
 BAR2 SZ EP   1   2330 43.35                             170     0.1 7   25 202 
 BAR2 SZ ES   2   2330 57.72                             170    -0.4 5   25 202 
 BAR2 SZ I        2330 59.69        37.0 0.30                            25 202 
 GIR2 SZ EP   1   2330 43.22                             166    -0.1 7   33 342 
 GIR2 SZ ES   2   2330 57.89                             166    -0.4 5   33 342 
 PAM  SZ EP   1   2330 45.95                             151     0.2 7   74  36 
 PAM  SE ES   2   2331  2.19                             151    -0.3 5   74  36 
 BRR  HZ EP   1   2330 44.91                             150    -0.2 7   76 297 
 BRR  HZ I        2330 45.22        44.2 0.16                            76 297 
 BRR  HN ES   1   2331  1.65                             150     0.3 7   76 297 
 RUS  HZ EP   2   2330 47.45                             143     0.0 5  100 179 
 RUS  HN ES   2   2331  5.68                             143     0.1 5  100 179 
 RUS  HZ I        2331  7.63        21.1 0.31                           100 179 
 BRI  SZ ES   2   2331  5.45                             141    -0.3 5  107  18 
 BRI  SZ I        2331 11.47        22.2 0.41                           107  18 
 GRA  SZ IP       2330 48.88                             136    -0.110  125  15 
 GRA  SZ I        2330 50.20        26.2 0.06                           125  15 
 GRA  SZ ES   1   2331  8.58                             136     0.4 7  125  15 
 OCA  SZ EP   2   2330 51.99                             128    -0.3 5  161 351 
 OCA  SZ ES   2   2331 13.78                             128    -0.3 5  161 351 
 OCA  SZ I        2331 18.89        29.6 0.37                           161 351 
 NOR  SZ EP   2   2330 59.79                             117    -0.3 4  239 235 
 NOR  SN ES   2   2331 28.15                             117     0.0 4  239 235 
 PRA  HZ EP   2   2331 17.95                             105     0.1 3  394 210 
 PRA  HN ES   2   2331 59.67                             105     0.0 3  394 210 
                                                                                
