 2016  916 2213 22.6 L   6.778 -73.153145.8  RSN 10 0.3 1.8LRSN                1
 GAP=137        0.65       2.4     2.6  3.9 -0.6943E+00  0.2450E+01  0.2429E+01E
 Epicentro: LOS SANTOS - SANTANDER                                             3
 ACTION:UPD 17-08-17 21:13 OP:lp   STATUS:               ID:20160916221322 L   I
 OLDACT:REG 16-09-17 00:57 OP:lv   STATUS:               ID:20160916220746     3
 2016-09-16-2208-00M.COL___360                                                 6
 STAT SP IPHASW D HRMM SECON CODA AMPLIT PERI AZIMU VELO AIN AR TRES W  DIS CAZ7
 BAR2 EZ ES       2213 57.32                             171   -0.1710 20.8 189 
 BAR2 EZ I        2213 58.78        15.2 0.22            170           20.8 189 
 BRR  HZ EP       2213 44.19                             152    0.3810 71.7 301 
 BRR  HN ES       2214  0.56                             152    0.2310 71.7 301 
 BRR  HZ I        2214  5.32        14.2 0.34            152           71.7 301 
 PAM  EZ EP       2213 45.11                             150    0.1210 79.8  39 
 PAM  EE ES       2214  2.15                             150   -0.2810 79.8  39 
 PAM  EZ I        2214  4.28        11.8 0.52            154           79.8  39 
 RUS  HZ EP       2213 46.17                             144   -0.0410 98.2 175 
 RUS  HN ES       2214  4.80                             144    0.2010 98.2 175 
 RUS  HZ I        2214  6.51         6.3 0.42            146           98.2 175 
 PTB  HZ EP       2213 48.88                             132   -0.60 9  147 260 
 PTB  HE ES       2214 10.35                             132   -0.08 9  147 260 
 PTB  HZ I        2214 12.92         6.1 0.28            133            147 260 
 SPBC HZ EP       2213 50.92                             129    0.02 9  161 219 
 SPBC HN ES       2214 13.24                             129    0.29 9  161 219 
 SPBC HZ I        2214 17.97        11.8 0.24            131            161 219 
 ZAR  HE ES       2214 20.38                             122   -0.04 9  204 293 
 ZAR  HZ I        2214 25.37         7.4 0.24            124            204 293 
 NOR  HZ EP       2213 58.36                             119    0.22 8  233 235 
 NOR  HE ES       2214 25.70                             119   -0.13 8  233 235 
 NOR  HZ I        2214 31.62         3.4 0.14            120            233 235 
 CHI  HZ EP       2214  0.24                             117    0.19 8  246 195 
 CHI  HN ES       2214 28.88                             117   -0.35 8  246 195 
 CHI  HZ I        2214 33.40         4.6 0.50            119            246 195 
 GUY2CHZ EP   4   2214  7.72                             112    1.72 0  299 235 
 GUY2CHE ES       2214 39.79                             112   -0.05 7  299 235 
 GUY2CHZ I        2214 48.41         3.4 0.32                           299 235 
                                                                                
