 2010  416 2159  5.5 L   6.815 -72.898140.0  RSN  5 0.5 2.3LRSN                1
 GAP=229        0.50       4.7    13.5  7.5 -0.3575E+02 -0.4089E+02  0.6309E+01E
 Epicentro: SAN ANDRES - SANTANDER                                             3
 ACTION:UPD 10-08-24 09:59 OP:vdl  STATUS:               ID:20100416215912 L   I
 2010-04-16-2156-58S.COL___100                                                 6
 STAT SP IPHASW D HRMM SECON CODA AMPLIT PERI AZIMU VELO AIN AR TRES W  DIS CAZ7
 BAR2 SZ ES   2   2159 39.89                             163    -0.1 6   40 232 
 BRR  HZ EP   3   2159 27.38                             143    -0.2 3   96 290 
 BRR  HN ES   2   2159 44.98                             143     0.1 6   96 290 
 OCA  SZ EP       2159 33.76                             127     0.110  164 344 
 OCA  SZ ES   2   2159 55.36                             127    -0.4 5  164 344 
 ROSC BZ EP   2   2159 45.93                             113     0.8 4  269 216 
 ROSC BE ES   2   22 0 15.83                             113    -0.2 4  269 216 
 ROSC BZ I        22 0 22.02        10.1 0.59                           269 216 
 PRA  HZ EP   3   2159 59.36                             104    -1.3 2  408 213 
 PRA  HE ES   3   22 0 42.37                             104    -1.3 2  408 213 
 PRA  HZ I        22 0 46.28         7.2 0.41                           408 213 
                                                                                
