 2016  816 2257 16.6 L   6.752 -73.135142.7  RSN  6 0.2 1.8LRSN                1
 GAP=140        0.61       3.0     2.7  4.1  0.7808E+00  0.2919E+01 -0.6175E+00E
 Epicentro: LOS SANTOS - SANTANDER                                             3
 ACTION:UPD 16-10-29 15:36 OP:rebc STATUS:               ID:20160816225716 L   I
 OLDACT:DUP 16-08-17 03:36 OP:cara STATUS:               ID:20160816224760d    3
 2016-08-16-2247-59S.COL___346                                                 6
 STAT SP IPHASW D HRMM SECON CODA AMPLIT PERI AZIMU VELO AIN AR TRES W  DIS CAZ7
 BAR2 EZ IP       2257 36.08                             172    0.2810 18.4 196 
 BAR2 HN ES       2257 50.73                             172   -0.0210 18.4 196 
 BAR2 EZ I        2257 52.01        16.6 0.20                          18.4 196 
 BRR  HZ EP       2257 37.79                             151    0.1310 74.8 302 
 BRR  HN ES       2257 54.38                             151    0.3110 74.8 302 
 BRR  HZ I        2257 59.43        13.2 0.12                          74.8 302 
 PAM  EZ IP       2257 38.88                             149    0.1410 80.9  37 
 PAM  HN ES       2257 55.59                             149   -0.3910 80.9  37 
 PAM  EZ I        2257 57.77        11.1 0.58                          80.9  37 
 RUS  HZ EP       2257 39.53                             145   -0.1710 95.2 177 
 RUS  HN ES       2257 57.80                             145    0.1110 95.2 177 
 RUS  HZ I        2258  0.28         3.5 0.18                          95.2 177 
 PTB  HZ EP       2257 43.32                             131   -0.05 9  148 261 
 PTB  HE ES       2258  3.83                             131   -0.39 9  148 261 
 PTB  HZ I        2258  8.76         7.6 0.16                           148 261 
 ZAR  HZ EP       2257 49.06                             121   -0.14 8  207 293 
 ZAR  HN ES       2258 14.72                             121    0.12 8  207 293 
 ZAR  HZ I        2258 19.65        11.5 0.36                           207 293 
                                                                                
