 2016 1016 2329  1.1 L   6.767 -73.180157.4  RSN  4 0.0 1.2LRSN                1
 GAP=134        0.29       2.2     2.0  3.2  0.5678E+00 -0.9566E+00 -0.2177E+01E
 Epicentro: LOS SANTOS - SANTANDER                                             3
 ACTION:UPD 16-11-09 19:20 OP:rebc STATUS:               ID:20161016232901 L   I
 OLDACT:UP  16-10-17 09:00 OP:dani STATUS:               ID:20161016231731d    3
 OLDACT:UP  16-10-17 08:53 OP:dani STATUS:               ID:20161016231731d    3
 OLDACT:DUP 16-10-17 08:47 OP:dani STATUS:               ID:20161016231731d    3
 2016-10-16-2318-00M.COL___359                                                 6
 STAT SP IPHASW D HRMM SECON CODA AMPLIT PERI AZIMU VELO AIN AR TRES W  DIS CAZ7
 BRR  HZ EP       2329 23.47                             155   -0.0110 69.8 303 
 BRR  HE ES       2329 40.89                             155   -0.0210 69.8 303 
 BRR  HZ I        2329 41.14         4.3 0.45            154           69.8 303 
 PAM  EZ EP       2329 24.93                             151    0.0310 82.6  40 
 RUS  HE ES     C 2329 45.07                             147   -0.0110 97.2 174 
 PTB  HZ EP       2329 28.67                             135   -0.03 9  143 260 
 PTB  HN ES       2329 50.23                             135    0.04 9  143 260 
 PTB  HZ I        2329 51.14         1.2 0.16            135            143 260 
                                                                                
