 2017  716 2356  7.0 L   6.783 -73.155141.1  RSN  7 0.4 1.4LRSN                1
 GAP=111        1.02       4.8     4.3  6.8  0.3469E+01  0.6419E+01  0.3055E+00E
 Epicentro: LOS SANTOS - SANTANDER                                             3
 ACTION:UPD 17-08-30 15:34 OP:rebc STATUS:               ID:20170716235607 L   I
 OLDACT:UP  17-07-17 08:37 OP:dani STATUS:               ID:20170716234743d    3
 OLDACT:DUP 17-07-17 08:33 OP:dani STATUS:               ID:20170716234743d    3
 OLDACT:UP  17-07-17 08:32 OP:dani STATUS:               ID:20170716234742     3
 OLDACT:UP  17-07-17 08:29 OP:dani STATUS:               ID:20170716234742     3
 OLDACT:REG 17-07-17 06:49 OP:dani STATUS:               ID:20170716234742     3
 2017-07-16-2348-00M.COL___392                                                 6
 STAT SP IPHASW D HRMM SECON CODA AMPLIT PERI AZIMU VELO AIN AR TRES W  DIS CAZ7
 BAR2 EZ EP       2356 25.74                             171   -0.2610 21.4 188 
 BAR2 EZ ES       2356 40.55                             171   -0.2910 21.4 188 
 BAR2 EZ I        2356 42.50         9.1 0.15            173           21.4 188 
 BRR  HZ EP       2356 27.62                             152    0.0010 71.2 300 
 BRR  HN ES   2   2356 44.65                             152    0.93 5 71.2 300 
 BRR  HZ I        2356 48.91         5.3 0.15            150           71.2 300 
 PAM  EZ EP       2356 28.69                             149   -0.1310 79.4  39 
 PAM  EN ES       2356 45.92                             149    0.0610 79.4  39 
 PAM  EZ I        2356 47.93         9.2 0.53            152           79.4  39 
 RUS  HZ EP       2356 30.11                             143   -0.0310 98.8 175 
 RUS  HE ES       2356 48.82                             143    0.6210 98.8 175 
 RUS  HZ I        2356 49.52         2.6 0.29            148           98.8 175 
 PTB  HZ EP       2356 33.33                             131   -0.11 9  146 259 
 PTB  HN ES       2356 53.61                             131   -0.47 9  146 259 
 PTB  HZ I        2356 56.49         1.7 0.30            133            146 259 
 YPLC HZ EP       2356 36.04                             126   -0.28 9  176 151 
 ZAR  HZ EP       2356 40.10                             121    1.01 9  204 293 
 ZAR  HE ES       2357  3.84                             121   -0.30 9  204 293 
 ZAR  HZ I        2357 10.45         2.3 0.14            123            204 293 
                                                                                
