 2012  116 2102 20.8 L   6.820 -73.125152.2  RSN 20 0.5 3.6LRSN                1
 GAP=115        1.10       3.1     4.2  6.1 -0.1203E+01  0.4868E+01  0.2882E+01E
 Epicentro: LOS SANTOS - SANTANDER                                             3
 ACTION:UP  12-02-03 08:18 OP:REBC STATUS:               ID:20120116210220 L   I
 2012-01-16-2100-00M.COL___188                                                 6
 STAT SP IPHASW D HRMM SECON CODA AMPLIT PERI AZIMU VELO SNR AR TRES W  DIS CAZ7
 BAR2 SZ IP     D 21 2 41.32                             170     0.110   26 194 
 BAR2 SZ ES   1   21 2 56.37                             170    -0.8 7   26 194 
 BAR2 SZ I        21 2 57.93       997.0 0.19                            26 194 
 BRR  HZ EP       21 2 43.09                             153     0.410   72 296 
 BRR  HN ES   1   21 3  0.19                             153     0.4 7   72 296 
 BRR  HZ I        21 3  3.44       670.4 0.29                            72 296 
 PAM  SZ EP       21 2 44.01                             153     0.510   74  39 
 PAM  SN ES   1   21 3  0.97                             153    -0.3 7   74  39 
 RUS  HZ IP     C 21 2 45.14                             144    -0.210  103 177 
 RUS  HN ES   1   21 3  4.17                             144    -0.3 7  103 177 
 RUS  HZ I        21 3  5.60       280.7 0.35                           103 177 
 PTB  HZ IP     C 21 2 47.77                             133    -0.8 9  150 258 
 PTB  HN ES   1   21 3  9.25                             133    -0.9 7  150 258 
 OCA  SZ IP       21 2 49.48                             131     0.1 9  158 352 
 OCA  SZ ES   1   21 3 12.66                             131     0.9 7  158 352 
 OCA  SZ I        21 3 17.41       606.6 0.33                           158 352 
 YOP  SZ EP       21 2 51.88                             127     0.5 9  180 154 
 YOP  SN ES   1   21 3 15.99                             127     0.7 7  180 154 
 YOP  SZ I        21 3 16.53       191.6 0.26                           180 154 
 ZAR  HZ EP   1   21 2 53.57                             124    -0.2 6  205 291 
 ZAR  HN ES   1   21 3 19.42                             124    -0.1 6  205 291 
 ZAR  HZ I        21 3 25.62       367.1 0.24                           205 291 
 NOR  SZ EP   1   21 2 57.04                             119    -0.2 6  238 234 
 NOR  SE ES   1   21 3 25.77                             119     0.1 6  238 234 
 CHI  HZ EP       21 2 59.24                             118     0.1 8  251 196 
 CHI  HN ES   1   21 3 28.53                             118    -0.5 6  251 196 
 CHI  HZ I        21 3 35.13       180.4 0.49                           251 196 
 ROSC BN ES   1   21 3 30.38                             118     0.5 6  256 211 
 ROSC BZ I        21 3 37.88       504.1 0.57                           256 211 
 HEL  HZ EP   1   21 3  2.01                             116     0.4 6  275 255 
 HEL  HN ES   1   21 3 34.01                             116     0.5 6  275 255 
 HEL  HZ I        21 3 40.08       202.4 0.37                           275 255 
 VIL  SZ EP   1   21 3  4.51                             113    -0.3 5  306 192 
 VIL  SN ES   1   21 3 38.61                             113    -0.5 5  306 192 
 VIL  SZ I        21 3 48.82       186.8 0.23                           306 192 
 GUY  SZ EP   1   21 3  5.43                             113     0.1 5  307 235 
 GUY  SN ES   1   21 3 40.68                             113     0.6 5  307 235 
 GUY  SZ I        21 3 46.40       333.3 0.62                           307 235 
 RREF HZ EP   1   21 3  7.36                             112    -0.2 5  325 229 
 RREF HN ES   1   21 3 44.68                             112     0.6 5  325 229 
 RREF HZ I        21 3 53.30       270.1 0.30                           325 229 
 COD  HZ EP       21 3  8.28                             110    -0.9 6  346 354 
 COD  HN ES   1   21 3 46.92                             110     0.0 5  346 354 
 PRA  HZ EP   1   21 3 14.46                             107    -0.4 4  395 210 
 PRA  HE ES   1   21 3 58.06                             107     1.0 4  395 210 
 SJA  SZ EP   1   21 3 15.00                             107    -0.9 4  403 193 
 SJA  SZ I        21 4  4.90       313.1 0.43                           403 193 
 PAL  HZ EP   1   21 3 16.76                             107     0.2 4  409 239 
 YOT  HZ EP   1   21 3 23.81                             104    -0.6 3  475 229 
 YOT  HZ I        21 4 28.05        28.3 0.44                           475 229 
                                                                                
