 2014  516 2142 40.3 L   6.820 -73.187144.2  RSN  5 0.3 1.7LRSN                1
 GAP=151        0.65       4.4     4.1  7.0 -0.7856E+01 -0.1372E+01  0.1740E+02E
 Epicentro: ZAPATOCA - SANTANDER                                               3
 ACTION:UPD 15-03-16 16:58 OP:nd   STATUS:               ID:20140516214240 L   I
 OLDACT:UP  14-05-17 04:02 OP:mh   STATUS:               ID:20140516214000     3
 OLDACT:REG 14-05-17 02:55 OP:mh   STATUS:               ID:20140516214000     3
 2014-05-16-2140-00M.COL___252                                                 6
 STAT SP IPHASW D HRMM SECON CODA AMPLIT PERI AZIMU VELO AIN AR TRES W  DIS CAZ7
 BRR  HZ EP       2143  1.14                             154    0.1510 66.2 299 
 BRR  HN ES   1   2143 17.18                             154    0.05 7 66.2 299 
 BRR  HZ I        2143 33.10                             159           66.2 299 
 PAM  SZ EP       2143  2.61                             150    0.2010 78.7  43 
 PAM  SN ES       2143 19.60                             150   -0.0710 78.7  43 
 PAM  SZ I        2143 21.77        10.2 0.42            164           78.7  43 
 PTB  HZ EP       2143  6.27                             132   -0.50 9  144 258 
 PTB  HN ES   1   2143 27.28                             132   -0.14 7  144 258 
 PTB  HZ I        2143 30.20         6.1 0.13            139            144 258 
 NOR  HZ EP   1   2143 15.72                             118    0.05 6  232 233 
 NOR  HN ES   1   2143 44.00                             118    0.72 6  232 233 
 NOR  HZ I        2143 49.45         4.1 0.12            126            232 233 
 CHI  HZ EP       2143 18.13                             117    0.12 8  250 194 
 CHI  HN ES       2143 47.17                             117   -0.26 8  250 194 
 CHI  HZ I        2143 58.25         2.3 0.43            124            250 194 
 GUY2CHZ EP   4   2143 25.64                             112    2.09 0  299 234 
 GUY2CHN ES   4   2143 59.91                             112    2.61 0  299 234 
                                                                                
