 2010  416 2007  3.9 L   6.816 -73.070153.3  RSN 12 0.4 3.2LRSN                1
 GAP=147        0.75       3.8     5.0  6.0 -0.1044E+02 -0.5509E+01  0.6820E+01E
 Epicentro: LOS SANTOS - SANTANDER                                             3
 ACTION:UPD 10-08-24 09:59 OP:vdl  STATUS:               ID:20100416200705 L   I
 2010-04-16-2004-45S.COL___100                                                 6
 STAT SP IPHASW D HRMM SECON CODA AMPLIT PERI AZIMU VELO AIN AR TRES W  DIS CAZ7
 BAR2 SZ IP       20 7 24.38                             169    -0.110   28 207 
 BAR2 SZ ES   2   20 7 40.03                             169    -0.6 5   28 207 
 BRR  HZ IP     C 20 7 26.79                             151     0.610   78 294 
 BRR  HZ I        20 7 28.35       411.1 0.12                            78 294 
 BRR  HN ES   1   20 7 43.78                             151     0.1 7   78 294 
 OCA  SZ EP       20 7 32.80                             131     0.0 9  160 350 
 OCA  SZ ES   2   20 7 55.34                             131     0.1 5  160 350 
 OCA  SZ I        20 8  0.11       264.4 0.18                           160 350 
 CHI  HZ EP       20 7 42.40                             118     0.0 8  253 197 
 CHI  HN ES   2   20 8 12.56                             118     0.0 4  253 197 
 CHI  HZ I        20 8 17.53        50.7 0.33                           253 197 
 ROSC BZ EP   2   20 7 43.44                             118     0.4 4  259 212 
 ROSC BE ES   1   20 8 14.11                             118     0.5 6  259 212 
 ROSC BZ I        20 8 18.67        49.4 0.39                           259 212 
 HEL  HZ EP   1   20 7 45.45                             115     0.0 6  281 256 
 HEL  HN ES   2   20 8 16.68                             115    -1.2 4  281 256 
 HEL  HZ I        20 8 22.72        72.0 0.39                           281 256 
 RREF BZ EP   1   20 7 51.08                             112    -0.1 5  329 230 
 RREF BE ES   2   20 8 27.27                             112    -0.9 3  329 230 
 RREF BZ I        20 8 33.90        52.8 0.28                           329 230 
 DBB  SZ EP       20 7 52.32                             110    -0.3 6  348 274 
 TOL  SZ EP   1   20 7 53.56                             110     0.3 5  351 225 
 SDV  BZ EP       20 7 53.77                             110     0.4 6  353  50 
 SDV  BN ES   1   20 8 31.07                             110    -0.9 5  353  50 
 ANIL BZ EP   1   20 7 54.49                             109    -0.3 5  364 225 
 ANIL BN ES   1   20 8 34.62                             109     0.1 5  364 225 
 ANIL BZ I        20 8 39.70       101.3 0.37                           364 225 
 PRA  HZ EP       20 7 57.97                             107    -0.4 6  398 210 
 PRA  HE ES   1   20 8 40.79                             107     0.0 4  398 210 
 PRA  HZ I        20 8 44.36        66.1 0.42                           398 210 
                                                                                
