 2016 1216 2036 33.9 L   6.785 -73.149149.6  RSN  8 0.5 1.9LRSN                1
 GAP=137        1.18       5.4     4.9  7.8 -0.2578E+01  0.1045E+02 -0.2328E+01E
 Epicentro: LOS SANTOS - SANTANDER                                             3
 ACTION:UPD 17-01-11 20:15 OP:rebc STATUS:               ID:20161216203633 L   I
 OLDACT:REG 16-12-17 05:38 OP:dnl  STATUS:               ID:20161216202744     3
 2016-12-16-2028-00M.COL___390                                                 6
 STAT SP IPHASW D HRMM SECON CODA AMPLIT PERI AZIMU VELO AIN AR TRES W  DIS CAZ7
 BAR2 EZ ES       2037  8.79                             171   -0.8110 21.6 190 
 BAR2 EZ I        2037 10.89        20.8 0.56            172           21.6 190 
 BRR  HZ EP       2036 55.91                             153    0.4210 71.7 300 
 BRR  HE ES       2037 13.16                             153    0.8310 71.7 300 
 BRR  HZ I        2037 15.99        14.7 0.20            151           71.7 300 
 PAM  EZ EP       2036 57.02                             151    0.4110 78.9  39 
 PAM  EN ES       2037 14.02                             151   -0.3010 78.9  39 
 PAM  EZ I        2037 16.24        19.5 0.48            154           78.9  39 
 RUS  HZ EP       2036 57.71                             145   -0.2010 98.9 176 
 RUS  HE ES       2037 17.13                             145    0.4910 98.9 176 
 RUS  HZ I        2037 17.96        11.2 0.30            148           98.9 176 
 PTB  HZ EP       2037  0.67                             133   -0.46 9  147 259 
 PTB  HN ES       2037 21.87                             133   -0.49 9  147 259 
 PTB  HZ I        2037 26.97         7.9 0.16            133            147 259 
 ZAR  HZ EP       2037  6.39                             123   -0.24 9  204 293 
 ZAR  HE ES       2037 32.03                             123   -0.13 9  204 293 
 ZAR  HZ I        2037 39.00         6.5 0.10            124            204 293 
 NOR  HZ EP   3   2037  9.08                             119   -0.64 2  233 235 
 NOR  HN ES       2037 38.11                             119    0.45 8  233 235 
 NOR  HZ I        2037 40.85         8.9 0.14            121            233 235 
 GUY2CHZ EP   9   2037 19.35                             113    1.80 0  300 235 
 GUY2CHE ES       2037 53.39                                   -0.00 7  300 235 
 GUY2CHZ I        2038  0.15         4.7 0.34                           300 235 
                                                                                
