 2012  616 2338 49.4 L   6.753 -73.154136.0  RSN  7 0.4 2.2LRSN                1
 GAP=138        0.77       4.7     4.2  7.1 -0.3636E+01  0.1507E+02 -0.2740E+01E
 Epicentro: LOS SANTOS - SANTANDER                                             3
 ACTION:UP  12-08-06 17:50 OP:ep   STATUS:               ID:20120616233849 L   I
 2012-06-16-2336-37M.COL___176                                                 6
 STAT SP IPHASW D HRMM SECON CODA AMPLIT PERI AZIMU VELO AIN AR TRES W  DIS CAZ7
 BAR2 SZ EP   1   2339  7.74                             172   -0.02 7 18.1 190 
 BAR2 SZ ES   1   2339 22.27                             172    0.19 7 18.1 190 
 BAR2 SZ I        2339 23.71        38.3 0.18                          18.1 190 
 PAM  SZ EP   1   2339 10.72                             147   -0.16 7 82.0  38 
 PAM  SZ I        2339 10.93        22.1 0.21                          82.0  38 
 PAM  SN ES   1   2339 27.44                             147   -0.20 7 82.0  38 
 RUS  HZ EP   1   2339 11.67                             143   -0.16 7 95.5 175 
 RUS  HN ES   1   2339 29.69                             143    0.37 7 95.5 175 
 RUS  HZ I        2339 31.77        11.1 0.24                          95.5 175 
 PTB  HZ EP   1   2339 14.61                             130   -0.82 7  146 261 
 PTB  HN ES   1   2339 35.46                             130   -0.26 7  146 261 
 PTB  HZ I        2339 38.23        23.4 0.15                           146 261 
 ZAR  HZ EP   1   2339 21.92                             120    0.56 6  205 294 
 ZAR  HN ES   1   2339 46.82                             120    0.54 6  205 294 
 ZAR  HZ I        2339 52.51        28.1 0.34                           205 294 
 NOR  SZ EP   1   2339 24.33                             117    0.15 6  231 235 
 NOR  SN ES   1   2339 51.23                             117   -0.08 6  231 235 
 HEL  HZ EP   1   2339 29.69                             113    0.79 6  270 257 
 HEL  HN ES   1   2339 59.07                             113   -0.64 6  270 257 
 HEL  HZ I        2340  7.52         9.4 0.47                           270 257 
                                                                                
