 2014  616 2314 14.8 L   6.806 -73.163144.6  RSN 31 0.5 3.1LRSN 3.7WRSN        1
 SPEC AVERAGE  MO 14.6 ST0.483 OM  2.8 f0 1.23 R1.7337 AL 0.00 WI 30.0 MW  3.7 3
 SPEC SD       MO  0.6 ST301.3 OM  0.6 f0 1.20 R0.6633 AL      WI      MW  0.4 3
 GAP= 70        1.08       2.2     2.8  4.7 -0.6715E+00  0.3357E+01  0.1091E+01E
 Epicentro: LOS SANTOS - SANTANDER                                             3
 SPEC BAR2SH Z MO 14.3 ST  1.8 OM  2.4 f0 2.48 R0.7758 AL-0.00 WI 30.0 MW  3.5 3
 SPEC BAR2SH Z T231447 K 0.000 GD  146 VS 5.20 DE 3.50 Q0750.0 QA 1.50 VS 5.20 3
 SPEC RUS HH Z MO 14.3 ST0.442 OM  2.3 f0 1.58 R1.2177 AL-0.00 WI 30.0 MW  3.5 3
 SPEC RUS HH Z T231455 K 0.000 GD  176 VS 5.20 DE 3.50 Q0750.0 QA 1.50 VS 5.20 3
 SPEC CHI HH Z MO 14.3 ST0.199 OM  2.1 f0 1.20 R1.6033 AL-0.00 WI 30.0 MW  3.5 3
 SPEC CHI HH Z T231520 K 0.000 GD  287 VS 5.20 DE 3.50 Q0750.0 QA 1.50 VS 5.20 3
 SPEC ROSCBH Z MO 14.8 ST0.137 OM  2.6 f00.719 R2.6759 AL-0.00 WI 30.0 MW  3.8 3
 SPEC ROSCBH Z T231521 K 0.000 GD  290 VS 5.20 DE 3.50 Q0750.0 QA 1.50 VS 5.20 3
 SPEC HEL HH Z MO 14.3 ST0.197 OM  2.1 f0 1.17 R1.6444 AL-0.00 WI 30.0 MW  3.5 3
 SPEC HEL HH Z T231524 K 0.000 GD  306 VS 5.20 DE 3.50 Q0750.0 QA 1.50 VS 5.20 3
 SPECGUY2CHH Z MO 14.7 ST  0.1 OM  2.4 f00.778 R  2.47 AL-0.00 WI 30.0 MW  3.7 3
 SPECGUY2CHH Z T231530 K       GD333.0 VS 5.20 DE 3.50 Q0750.0 QA 1.50 VS 5.20 3
 SPEC VIL SH Z MO 14.4 ST0.279 OM  2.2 f0 1.18 R1.6305 AL-0.00 WI 30.0 MW  3.6 3
 SPEC VIL SH Z T231530 K 0.000 GD  336 VS 5.20 DE 3.50 Q0750.0 QA 1.50 VS 5.20 3
 SPEC RREFHH Z MO 14.6 ST0.153 OM  2.3 f00.882 R2.1814 AL-0.00 WI 30.0 MW  3.7 3
 SPEC RREFHH Z T231536 K 0.000 GD  352 VS 5.20 DE 3.50 Q0750.0 QA 1.50 VS 5.20 3
 SPEC DBB SH Z MO 15.1 ST0.374 OM  2.8 f00.797 R2.4141 AL-0.00 WI 30.0 MW  4.0 3
 SPEC DBB SH Z T231537 K 0.000 GD  367 VS 5.20 DE 3.50 Q0750.0 QA 1.50 VS 5.20 3
 SPEC TOL SH Z MO 14.8 ST0.732 OM  2.5 f0 1.25 R1.5392 AL-0.00 WI 30.0 MW  3.8 3
 SPEC TOL SH Z T231540 K 0.000 GD  372 VS 5.20 DE 3.50 Q0750.0 QA 1.50 VS 5.20 3
 SPEC ANILHH Z MO 14.8 ST0.685 OM  2.5 f0 1.21 R1.5901 AL-0.00 WI 30.0 MW  3.8 3
 SPEC ANILHH Z T231543 K 0.000 GD  384 VS 5.20 DE 3.50 Q0750.0 QA 1.50 VS 5.20 3
 SPEC PRA HH Z MO 14.6 ST0.325 OM  2.3 f0 1.07 R1.7981 AL-0.00 WI 30.0 MW  3.7 3
 SPEC PRA HH Z T231548 K 0.000 GD  417 VS 5.20 DE 3.50 Q0750.0 QA 1.50 VS 5.20 3
 OLDACT:REG 14-06-17 02:58 OP:fm   STATUS:               ID:20140616230817     3
 ACTION:UPD 14-07-01 22:54 OP:nd   STATUS:               ID:20140616231414 L   I
 OLDACT:UP  14-06-18 05:59 OP:FJMB STATUS:               ID:20140616231414 L   3
 OLDACT:UP  14-06-17 04:43 OP:fm   STATUS:               ID:20140616230817     3
 2014-06-16-2308-17M.COL___260                                                 6
 STAT SP IPHASW D HRMM SECON CODA AMPLIT PERI AZIMU VELO AIN AR TRES W  DIS CAZ7
 BAR2 SZ EP     D 2314 34.35                             170    0.0610 23.7 185 
 BAR2 SZ ES   1   2314 49.37                             170   -0.12 7 23.7 185 
 BAR2 SZ I        2314 50.92       332.2 0.28            168           23.7 185 
 BRR  HZ IP     D 2314 36.21                             153    0.5010 69.3 299 
 BRR  HN ES       2314 52.83                             153    0.8110 69.3 299 
 BRR  HZ I        2314 55.81       203.3 0.28            150           69.3 299 
 PAM  SZ IP     D 2314 37.21                             150    0.2810 78.1  41 
 PAM  SN ES       2314 54.05                             150   -0.1410 78.1  41 
 PAM  SZ I        2314 56.55       172.2 0.36            155           78.1  41 
 RUS  HZ EP     C 2314 38.32                             143   -0.1610  101 175 
 RUS  HN ES       2314 56.53                             143   -0.4310  101 175 
 RUS  HZ I        2314 58.23       183.3 0.38            144            101 175 
 PTB  HZ EP       2314 40.74                             132   -0.77 9  146 258 
 PTB  HN ES       2315  1.75                             132   -0.60 9  146 258 
 PTB  HZ I        2315  9.38       145.0 0.34            131            146 258 
 TAM  HZ IP     D 2314 42.83                             130    0.27 9  157 105 
 TAM  HN ES       2315  4.40                             130    0.18 9  157 105 
 TAM  HZ I        2315  5.87        49.2 0.28            134            157 105 
 OCA  HZ EP       2314 42.42                             129   -0.52 9  159 354 
 OCA  HN ES       2315  4.24                             129   -0.64 9  159 354 
 OCA  HZ I        2315 12.62       105.3 0.38            131            159 354 
 SPBC HZ EP     D 2314 43.37                             129    0.23 9  162 218 
 SPBC HN ES       2315  4.90                             129   -0.34 9  162 218 
 SPBC HZ I        2315 12.32       218.1 0.22            129            162 218 
 ZAR  HZ EP       2314 46.92                             122   -0.04 9  202 292 
 ZAR  HN ES       2315 12.56                             122    0.51 9  202 292 
 ZAR  HZ I        2315 18.56        92.6 0.62            122            202 292 
 NOR  HZ EP       2314 50.21                             118   -0.12 8  234 234 
 NOR  HN ES       2315 17.88                             118   -0.17 8  234 234 
 NOR  HZ I        2315 26.23        99.4 0.20            118            234 234 
 SML  HZ EP       2314 50.42                             117   -0.79 8  242 336 
 SML  HN ES   1   2315 20.49                             117    0.88 6  242 336 
 SML  HZ I        2315 22.95       148.6 0.10            118            242 336 
 CHI  HZ EP       2314 52.64                             117    0.20 8  249 195 
 CHI  HN ES       2315 21.70                             117   -0.10 8  249 195 
 CHI  HZ I        2315 28.14        66.4 0.34            118            249 195 
 ROSC BZ EP       2314 53.62                             116    0.82 8  252 211 
 ROSC BN ES       2315 23.36                             116    0.91 8  252 211 
 ROSC BZ I        2315 32.40       101.6 0.35            117            252 211 
 HEL  HZ EP   4   2314 55.03                             115    0.27 0  270 256 
 HEL  HE ES       2315 26.06                             115    0.12 8  270 256 
 HEL  HZ I        2315 34.65        65.3 0.38            115            270 256 
 URE  HZ EP       2314 54.95                             113   -0.64 7  282 292 
 URE  HE ES   4   2315 25.63                             113   -1.78 0  282 292 
 URE  HZ I        2315 38.01        60.6 0.18            114            282 292 
 GUY2CHZ EP   4   2314 59.68                             112    1.46 0  300 234 
 GUY2CHE ES       2315 31.78                             112   -0.31 7  300 234 
 GUY2CHZ I        2315 44.60        67.5 0.44                           300 234 
 VIL  SZ EP       2314 58.01                             112   -0.18 7  304 191 
 VIL  SE ES       2315 31.60                             112   -0.43 7  304 191 
 VIL  SZ I        2315 41.36        79.4 0.44            113            304 191 
 PTGC HZ EP   4 C 2314 57.54                             111   -1.20 0  310 158 
 PTGC HN ES   4   2315 30.67                             111   -2.35 0  310 158 
 PTGC HZ I        2315 35.81        62.6 0.22            113            310 158 
 RREF HZ EP   4   2315  2.45                             111    1.68 0  321 229 
 RREF HN ES   4   2315 38.13                             111    1.50 0  321 229 
 RREF HZ I        2315 41.61        57.6 0.24            111            321 229 
 DBB  SZ EP       2315  1.82                             109   -0.18 7  338 274 
 DBB  SZ ES   1   2315 38.74                             109   -0.09 5  338 274 
 DBB  SZ I        2315 41.93       142.0 0.44            110            338 274 
 TOL  SZ EP       2315  3.84                             109    0.94 7  343 224 
 TOL  SN ES   4   2315 42.11                             109    1.68 0  343 224 
 TOL  SZ I        2315 47.02       116.9 0.36            110            343 224 
 ANIL HN EP   4   2315  5.91                             108    1.46 0  356 224 
 ANIL HZ ES   4   2315 45.36                             108    2.17 0  356 224 
 ARGC HZ EP   1   2315  4.81                             108    0.54 5  358 341 
 ARGC HN ES       2315 43.60                             108    0.75 6  358 341 
 ARGC HZ I        2315 54.59        29.5 0.26            109            358 341 
 SDV  BN ES   4   2315 40.67                             108   -3.33 0  361  50 
 SDV  BZ I        2315 43.29        24.6 0.40            110            361  50 
 PRA  HZ EP   1   2315  7.44                             106   -0.79 4  392 209 
 PRA  HN ES       2315 49.57                             106   -0.34 6  392 209 
 PRA  HZ I        2315 56.64        69.5 0.40            107            392 209 
 ORTC HZ EP       2315  8.64                             106    0.04 6  395 216 
 ORTC HN ES       2315 51.84                             106    1.27 6  395 216 
 ORTC HZ I        2315 59.33        33.7 0.38            107            395 216 
 PAL  HZ EP   4   2315  8.97                             106   -0.79 0  404 239 
 PAL  HN ES   1   2315 52.38                             106   -0.26 4  404 239 
 PAL  HZ I        2316  5.50        53.5 0.24            106            404 239 
 SJC  HZ EP   4   2315  8.61                             106   -1.53 0  408 327 
 SJC  HN ES   4   2315 49.54                             106   -3.77 0  408 327 
 SJC  HZ I        2315 53.82        18.0 0.54            106            408 327 
 YOT  HZ EP       2315 17.52                             103   -0.17 5  471 229 
 YOT  HN ES   4   2316  5.38                             103   -1.36 0  471 229 
 GUA  SN ES   4   2316  4.66                             103   -2.67 0  475 173 
 GUA  SZ I        2316  9.00        57.2 0.38            104            475 173 
 SMAR HZ EP       2315 19.84                             102   -0.67 4  496 346 
 SMAR HN ES   4   2316  6.64                             102   -5.13 0  496 346 
 SMAR HZ I        2316 11.63        14.5 0.30            103            496 346 
 MACC HZ EP   4   2315 21.41                             101   -2.11 0  521 188 
 MACC HN ES   4   2316 11.58                             101   -5.54 0  521 188 
 MACC HZ I        2316 20.09        15.3 0.42            102            521 188 
 MARA HZ EP   4   2315 23.91                             101   -1.81 0  537 215 
 MARA HE ES   4   2316 14.21                             101   -6.83 0  537 215 
                                                                                
