 2016  616 2209 22.5 L   6.820 -73.124144.8  RSN 10 0.6 1.8LRSN                1
 GAP=138        1.31       4.7     5.2  7.3 -0.9519E+00  0.1195E+02  0.9926E+01E
 Epicentro: LOS SANTOS - SANTANDER                                             3
 ACTION:UPD 16-07-21 22:19 OP:rebc STATUS:               ID:20160616220922 L   I
 OLDACT:REG 16-06-17 03:05 OP:edw  STATUS:               ID:20160616220750     3
 2016-06-16-2207-50M.COL___346                                                 6
 STAT SP IPHASW D HRMM SECON CODA AMPLIT PERI AZIMU VELO AIN AR TRES W  DIS CAZ7
 BAR2 EZ EP       22 9 42.03                             169   -0.0110 26.0 194 
 BAR2 EZ ES       22 9 56.63                             169   -0.6810 26.0 194 
 BAR2 EZ I        22 9 58.41        14.1 0.20                          26.0 194 
 BRR  HZ EP       22 9 43.50                             152   -0.0810 72.3 296 
 BRR  HE ES       2210  0.84                             152    0.8010 72.3 296 
 PAM  EZ EP       22 9 44.96                             152    0.5710 74.1  39 
 PAM  EE ES       2210  1.81                             152    0.3210 74.1  39 
 PAM  EZ I        2210  4.30         5.7 0.20                          74.1  39 
 RUS  HZ EP       22 9 46.04                             143   -0.2410  103 177 
 RUS  HN ES       2210  4.63                             143   -0.2210  103 177 
 RUS  HZ I        2210  6.42         3.1 0.24                           103 177 
 PTB  HZ EP       22 9 48.93                             131   -0.68 9  151 258 
 PTB  HN ES       2210  9.88                             131   -0.90 9  151 258 
 PTB  HZ I        2210 12.85        17.2 0.86                           151 258 
 TAM  HZ EP   4   2210 13.35                             130   23.44 0  153 106 
 TAM  HN ES   4   2210 43.79                             130   32.47 0  153 106 
 ZAR  HZ EP       22 9 54.28                             122   -0.72 8  205 291 
 ZAR  HN ES       2210 20.49                             122    0.12 8  205 291 
 ZAR  HZ I        2210 25.78         8.6 0.60                           205 291 
 NOR  HZ EP       22 9 57.85                             118   -0.64 8  238 234 
 NOR  HE ES       2210 27.53                             118    0.94 8  238 234 
 NOR  HZ I        2210 28.04         5.9 0.18                           238 234 
 CHI  HZ EP       2210  0.53                             117    0.11 8  251 196 
 CHI  HN ES       2210 30.21                             117    0.19 8  251 196 
 CHI  HZ I        2210 37.61         3.5 0.34                           251 196 
 GUY2CHZ EP       2210  7.14                             112    0.74 7  304 235 
 GUY2CHN ES       2210 41.38                             112    0.71 7  304 235 
 GUY2CHZ I        2210 49.89         3.1 0.68                           304 235 
 PRA  HZ EP       2210 16.45                             106    0.13 6  395 210 
 PRA  HE ES       2210 58.86                             106    0.53 6  395 210 
 PRA  HZ I        2211  4.90         3.2 0.42                           395 210 
                                                                                
