 2015  816 2300  4.1 L   6.786 -73.094147.7  RSN  8 0.4 1.8LRSN                1
 GAP=144        0.87       3.9     4.4  5.5 -0.5174E+01  0.9111E+01  0.8704E+00E
 Epicentro: LOS SANTOS - SANTANDER                                             3
 ACTION:UPD 15-09-15 23:02 OP:cam  STATUS:               ID:20150816230004 L   I
 OLDACT:UP  15-08-17 04:05 OP:drio STATUS:               ID:20150816225749d    3
 OLDACT:DUP 15-08-17 03:50 OP:drio STATUS:               ID:20150816225749d    3
 OLDACT:REG 15-08-17 02:29 OP:drio STATUS:               ID:20150816225748     3
 2015-08-16-2257-48M.COL___340                                                 6
 STAT SP IPHASW D HRMM SECON CODA AMPLIT PERI AZIMU VELO AIN AR TRES W  DIS CAZ7
 BAR2 EZ EP       23 0 24.00                             171   -0.0110 23.5 205 
 BAR2 EZ ES       23 0 39.57                             171    0.0710 23.5 205 
 BAR2 EZ I        23 0 40.95        14.3 0.18            171           23.5 205 
 PAM  EZ EP       23 0 26.51                             152    0.0810 75.1  35 
 PAM  EN ES       23 0 43.43                             152   -0.3910 75.1  35 
 PAM  EZ I        23 0 48.73         7.7 0.24            153           75.1  35 
 BRR  HZ EP       23 0 25.88                             151    0.0510 77.0 298 
 BRR  HE ES       23 0 43.25                             151    0.5010 77.0 298 
 BRR  HZ I        23 0 43.49         9.1 0.42            150           77.0 298 
 RUS  HZ EP       23 0 27.89                             145   -0.0610 98.8 179 
 RUS  HE ES       23 0 46.70                             145    0.1710 98.8 179 
 RUS  HZ I        23 0 49.16         7.5 0.46            148           98.8 179 
 SPBC HZ EP       23 0 33.00                             129   -0.02 9  166 221 
 SPBC HE ES       23 0 55.01                             129   -0.54 9  166 221 
 SPBC HZ I        23 0 57.70        13.0 0.26            131            166 221 
 ZAR  HZ EP       23 0 37.28                             122   -0.04 8  210 292 
 ZAR  HE ES   4   23 1  1.54                             122   -1.67 0  210 292 
 ZAR  HZ I        23 1  8.72        10.2 0.36            123            210 292 
 HEL  HN ES       23 1 16.06                             115   -0.86 7  277 256 
 HEL  HZ I        23 1 21.95         2.9 0.24            116            277 256 
 GUY2CHZ EP       23 0 48.82                             112    0.55 7  305 236 
 GUY2CHE ES       23 1 23.28                             112    0.59 7  305 236 
 GUY2CHZ I        23 1 30.72         3.0 0.34                           305 236 
                                                                                
