 2011 1216 2325  5.2 L   6.776 -73.112142.3  RSN  6 0.3 2.0LRSN                1
 GAP=142        0.64       4.4     7.0  7.2  0.6051E+01 -0.1990E+02 -0.3533E+01E
 Epicentro: LOS SANTOS - SANTANDER                                             3
 ACTION:UPD 12-07-13 16:16 OP:ep   STATUS:               ID:20111216232505 L   I
 2011-12-16-2320-00M.COL___185                                                 6
 STAT SP IPHASW D HRMM SECON CODA AMPLIT PERI AZIMU VELO AIN AR TRES W  DIS CAZ7
 BAR2 SZ EP   1   2325 23.53                             171   -0.80 7 21.8 201 
 BAR2 SZ ES   2   2325 39.28                             171   -0.01 5 21.8 201 
 BAR2 SZ I        2325 40.44        26.8 0.28                          21.8 201 
 GIR2 SZ EP   1   2325 24.72                             166    0.21 7 34.7 345 
 BRR  HZ EP   1   2325 26.48                             150    0.28 7 75.8 299 
 BRR  HN ES       2325 42.66                             150    0.0510 75.8 299 
 BRR  HZ I        2325 44.65        21.3 0.13                          75.8 299 
 PAM  SZ EP   1   2325 27.33                             150    0.34 7 77.2  36 
 PAM  SN ES   2   2325 44.05                             150    0.03 5 77.2  36 
 PAM  SZ I        2325 46.41        20.5 0.64                          77.2  36 
 RUS  HZ EP   1   2325 28.45                             144    0.09 7 97.7 178 
 RUS  HN ES   2   2325 46.56                             144    0.11 5 97.7 178 
 RUS  HZ I        2325 48.05        10.8 0.31                          97.7 178 
 OCA  SZ EP   1   2325 33.39                             128   -0.11 7  163 352 
 OCA  SZ ES   2   2325 55.11                             128   -0.49 5  163 352 
 OCA  SZ I        2325 59.94        16.8 0.29                           163 352 
                                                                                
