 2013  716 2257 59.7 L   6.804 -73.151125.6  RSN  8 0.4 2.2LRSN                1
 GAP=138        1.06       5.1     4.9  7.6  0.7764E+00 -0.2896E+00 -0.1297E+02E
 Epicentro: LOS SANTOS - SANTANDER                                             3
 ACTION:UPD 13-08-12 10:38 OP:ep   STATUS:               ID:20130716225759 L   I
 OLDACT:UP  13-07-25 11:37 OP:ep   STATUS:               ID:20130716225759 L   3
 OLDACT:DUP 13-07-17 01:18 OP:stll STATUS:               ID:20130716224851d    3
 2013-07-16-2248-50M.COL___222                                                 6
 STAT SP IPHASW D HRMM SECON CODA AMPLIT PERI AZIMU VELO AIN AR TRES W  DIS CAZ7
 BAR2 SZ ES       2258 31.03                             169    0.6610 23.7 188 
 BAR2 SZ I        2258 33.76        28.1 0.18            169           23.7 188 
 GIR2 SZ EP       2258 17.17                             165    0.1810 30.7 351 
 GIR2 SZ ES       2258 29.81                             165   -0.6510 30.7 351 
 BRR  HZ EP       2258 18.90                             149    0.2210 70.5 298 
 BRR  HN ES   4   2258 35.49                             149    2.02 0 70.5 298 
 BRR  HN I        2258 40.07        43.3 0.16            146           70.5 298 
 RUS  HZ EP       2258 21.40                             139   -0.1910  101 176 
 RUS  HN ES       2258 38.68                             139    0.0310  101 176 
 RUS  HN I        2258 40.51        11.4 0.18            144            101 176 
 GRA  SZ EP       2258 23.50                             132    0.2910  125  18 
 PTB  HN ES       2258 44.30                             127   -0.56 9  147 259 
 PTB  HN I        2258 48.78        26.9 0.26            128            147 259 
 CAPV BZ EP       2258 25.17                             127   -0.39 9  149  38 
 ZAR  HE ES       2258 55.57                             118    0.42 9  203 292 
 ZAR  HE I        2259  2.42        34.0 0.38            119            203 292 
                                                                                
