 2014  416 2223 35.0 L   6.809 -73.145151.6  RSN 23 0.3 2.7LRSN                1
 GAP= 71        0.81       2.0     2.4  4.4 -0.4407E+00  0.1812E+01  0.1327E+01E
 Epicentro: LOS SANTOS - SANTANDER                                             3
 ACTION:UPD 14-05-13 23:09 OP:nd   STATUS:               ID:20140416222335 L   I
 OLDACT:UP  14-04-17 04:56 OP:cam  STATUS:               ID:20140416221810     3
 OLDACT:UP  14-04-17 04:56 OP:cam  STATUS:               ID:20140416221810     3
 OLDACT:UP  14-04-17 04:56 OP:cam  STATUS:               ID:20140416221810     3
 OLDACT:UP  14-04-17 04:55 OP:cam  STATUS:               ID:20140416221810     3
 OLDACT:UP  14-04-17 04:55 OP:cam  STATUS:               ID:20140416221810     3
 OLDACT:REG 14-04-17 03:00 OP:cam  STATUS:               ID:20140416221810     3
 2014-04-16-2218-10M.COL___257                                                 6
 STAT SP IPHASW D HRMM SECON CODA AMPLIT PERI AZIMU VELO AIN AR TRES W  DIS CAZ7
 BRR  HZ EP       2223 56.91                             154    0.1910 70.8 298 
 BRR  HE ES       2224 14.34                             154    0.6410 70.8 298 
 BRR  HZ I        2224 21.52        35.7 0.30            154           70.8 298 
 PAM  SZ IP     D 2223 57.79                             152    0.0410 76.6  40 
 PAM  SE ES       2224 15.29                             152   -0.2410 76.6  40 
 PAM  SZ I        2224 17.12        83.8 0.54            153           76.6  40 
 RUS  HZ EP       2223 59.09                             145   -0.2610  102 176 
 RUS  HN ES       2224 18.09                             145   -0.2910  102 176 
 RUS  HZ I        2224 20.54        48.5 0.36            143            102 176 
 PTB  HZ EP     D 2224  1.78                             133   -0.65 9  148 258 
 PTB  HN ES       2224 23.36                             133   -0.51 9  148 258 
 PTB  HZ I        2224 25.44        75.4 0.18            132            148 258 
 TAM  HZ IP     D 2224  3.27                             132    0.16 9  155 105 
 TAM  HZ I        2224 24.03        24.7 0.44            131            155 105 
 TAM  HN ES       2224 25.29                             132    0.21 9  155 105 
 OCA  HZ EP       2224  3.18                             131   -0.46 9  159 353 
 OCA  HN ES       2224 26.36                             131    0.35 9  159 353 
 SPBC HZ EP       2224  4.03                             130    0.04 9  164 219 
 SPBC HN ES       2224 26.57                             130   -0.06 9  164 219 
 SPBC HZ I        2224 32.09        75.5 0.38            129            164 219 
 ZAR  HZ EP       2224  7.52                             124   -0.24 9  204 292 
 ZAR  HN ES       2224 33.55                             124    0.20 9  204 292 
 ZAR  HZ I        2224 38.99        43.6 0.56            123            204 292 
 NOR  HZ EP     D 2224 11.11                             120    0.01 8  235 234 
 NOR  HN ES       2224 39.10                             120   -0.19 8  235 234 
 NOR  HZ I        2224 42.74        43.0 0.22            119            235 234 
 SML  HZ EP       2224 11.77                             119   -0.06 8  243 335 
 SML  HN ES       2224 40.53                             119   -0.05 8  243 335 
 SML  HZ I        2224 42.43        70.4 0.26            118            243 335 
 CHI  HZ EP       2224 13.33                             118    0.24 8  250 195 
 CHI  HN ES       2224 42.84                             118    0.01 8  250 195 
 CHI  HZ I        2224 48.23        16.3 0.28            117            250 195 
 ROSC BZ EP   4   2224 15.03                             118    1.53 0  254 211 
 ROSC BN ES   4   2224 47.04                             118    3.48 0  254 211 
 ROSC BZ I        2224 49.90        38.0 0.35            117            254 211 
 HEL  HZ EP   4   2224 17.47                             116    1.96 0  272 256 
 HEL  HE ES   4   2224 46.23                             116   -0.91 0  272 256 
 HEL  HZ I        2224 54.28        26.7 0.44            115            272 256 
 URE  HZ EP   4   2224 14.99                             115   -1.30 0  284 292 
 URE  HE ES   4   2224 46.14                             115   -2.39 0  284 292 
 URE  HZ I        2224 49.84        28.1 0.16            114            284 292 
 GUY2CHZ EP   4   2224 20.22                             113    1.31 0  302 235 
 GUY2CHN ES   4   2224 55.02                             113    1.82 0  302 235 
 GUY2CHZ I        2225  0.62        28.6 0.28                           302 235 
 PTGC HZ EP   4   2224 18.06                             113   -1.12 0  310 159 
 PTGC HN ES   4   2224 51.58                             113   -2.09 0  310 159 
 PTGC HZ I        2224 54.82        24.3 0.22            112            310 159 
 RREF HZ EP       2224 22.27                             112    0.83 7  322 229 
 RREF HN ES       2224 58.16                             112    0.46 7  322 229 
 RREF HZ I        2225  6.12        31.2 0.26            111            322 229 
 CBOC HZ EP   4   2224 23.62                             111    1.46 0  334 252 
 CBOC HE ES   4   2224 57.64                             111   -1.35 0  334 252 
 CBOC HZ I        2225  5.16         9.2 0.58            110            334 252 
 COD  HZ EP   4   2224 22.68                             110   -0.78 0  347 355 
 COD  HN ES   4   2225  0.67                             110   -0.62 0  347 355 
 COD  HZ I        2225  7.64         9.3 0.32            110            347 355 
 ANIL HZ EP   4   2224 26.35                             109    1.27 0  358 224 
 ANIL HN ES   4   2225  6.11                             109    1.93 0  358 224 
 ANIL HZ I        2225 12.09        55.2 0.34            109            358 224 
 SDV  BZ EP   4   2224 24.35                             109   -0.79 0  360  50 
 SDV  BN ES   4   2225  1.66                             109   -2.62 0  360  50 
 SDV  BZ I        2225  3.50         9.6 0.45            109            360  50 
 PRA  HZ EP       2224 29.00                             107    0.21 6  393 210 
 PRA  HN ES       2225 11.09                             107    0.31 6  393 210 
 PRA  HZ I        2225 15.36        16.6 0.32            107            393 210 
 SJC  HZ EP   4   2224 29.30                             107   -1.33 0  408 327 
 SJC  HN ES   4   2225 10.52                             107   -3.53 0  408 327 
 SJC  HZ I        2225 13.88         9.2 0.34            106            408 327 
                                                                                
