 2017  416 2041 32.0 L   6.724 -73.094144.0  RSN  6 0.3 1.3LRSN                1
 GAP=147        0.49       4.0     3.5  5.4 -0.6151E+01 -0.5185E+00  0.6174E+01E
 Epicentro: JORDAN - SANTANDER                                                 3
 ACTION:UPD 17-05-30 21:13 OP:jn   STATUS:               ID:20170416204132 L   I
 OLDACT:UP  17-04-17 06:12 OP:and  STATUS:               ID:20170416203742d    3
 OLDACT:UP  17-04-17 06:11 OP:and  STATUS:               ID:20170416203742d    3
 OLDACT:UP  17-04-17 06:11 OP:and  STATUS:               ID:20170416203742d    3
 OLDACT:UP  17-04-17 06:11 OP:and  STATUS:               ID:20170416203742d    3
 OLDACT:UP  17-04-17 06:11 OP:and  STATUS:               ID:20170416203742d    3
 OLDACT:UP  17-04-17 06:10 OP:and  STATUS:               ID:20170416203742d    3
 OLDACT:UP  17-04-17 06:10 OP:and  STATUS:               ID:20170416203742d    3
 OLDACT:UP  17-04-17 06:09 OP:and  STATUS:               ID:20170416203742d    3
 OLDACT:UP  17-04-17 06:09 OP:and  STATUS:               ID:20170416203742d    3
 OLDACT:UP  17-04-17 06:07 OP:and  STATUS:               ID:20170416203742d    3
 OLDACT:DUP 17-04-17 06:06 OP:and  STATUS:               ID:20170416203742d    3
 OLDACT:UP  17-04-17 06:04 OP:and  STATUS:               ID:20170416203740     3
 OLDACT:UP  17-04-17 06:04 OP:and  STATUS:               ID:20170416203740     3
 OLDACT:UP  17-04-17 06:03 OP:and  STATUS:               ID:20170416203740     3
 OLDACT:UP  17-04-17 06:03 OP:and  STATUS:               ID:20170416203740     3
 OLDACT:REG 17-04-17 05:24 OP:and  STATUS:               ID:20170416203740     3
 2017-04-16-2038-00M.COL___365                                                 6
 STAT SP IPHASW D HRMM SECON CODA AMPLIT PERI AZIMU VELO AIN AR TRES W  DIS CAZ7
 BRR  HZ IP     C 2041 53.46                             150   -0.0810 80.3 302 
 BRR  HN ES       2042 10.57                             150    0.2510 80.3 302 
 BRR  HZ I        2042 15.16         5.1 0.26            149           80.3 302 
 PAM  EZ EP       2041 54.22                             150   -0.0610 80.8  33 
 PAM  EN ES   2   2042 11.42                             150   -0.20 5 80.8  33 
 PAM  EZ I        2042 13.27         1.9 0.16            154           80.8  33 
 RUS  HZ EP   4   2041 57.20                             146    2.19 0 92.0 179 
 RUS  HN ES   2   2042 13.11                             146    0.18 5 92.0 179 
 RUS  HZ I        2042 14.93         2.9 0.19            150           92.0 179 
 PTB  HZ EP       2041 59.23                             131   -0.02 9  152 262 
 PTB  HN ES   3   2042 19.29                             131   -1.19 2  152 262 
 PTB  HZ I        2042 21.78         2.8 0.20            132            152 262 
 ZAR  HN ES   2   2042 30.91                             121   -0.25 4  213 294 
 ZAR  HZ I        2042 36.74         2.7 0.22            123            213 294 
 NOR  HZ EP   2   2042  8.37                             118    0.70 4  235 237 
 NOR  HN ES       2042 35.31                             118   -0.14 8  235 237 
 NOR  HZ I        2042 39.61         1.4 0.20            121            235 237 
                                                                                
