 2012  416 2245  1.2 L   6.787 -73.148149.8  RSN 12 0.4 2.4LRSN                1
 GAP=137        0.90       4.5     4.9  6.2 -0.3883E+01  0.8990E+01  0.7714E+00E
 Epicentro: LOS SANTOS - SANTANDER                                             3
 ACTION:UPD 12-07-05 11:53 OP:tino STATUS:               ID:20120416224501 L   I
 2012-04-16-2240-00M.COL___190                                                 6
 STAT SP IPHASW D HRMM SECON CODA AMPLIT PERI AZIMU VELO AIN AR TRES W  DIS CAZ7
 BAR2 SZ EP       2245 21.39                             171     0.110   22 190 
 BAR2 SZ ES   1   2245 36.40                             171    -0.6 7   22 190 
 BAR2 SZ I        2245 38.16        55.0 0.25                            22 190 
 BRR  HZ EP       2245 23.29                             153     0.410   72 300 
 BRR  HZ I        2245 23.66        91.4 0.11                            72 300 
 BRR  HE ES   1   2245 40.64                             153     0.9 7   72 300 
 PAM  SZ EP   1   2245 24.16                             151     0.2 7   79  39 
 PAM  SN ES   1   2245 41.61                             151    -0.1 7   79  39 
 PAM  SZ I        2245 43.69        16.9 0.29                            79  39 
 RUS  HZ EP   1   2245 25.22                             145    -0.1 7   99 176 
 RUS  HN ES   1   2245 44.04                             145     0.0 7   99 176 
 RUS  HZ I        2245 45.30        24.5 0.46                            99 176 
 PTB  HZ EP   1   2245 27.92                             133    -0.6 7  147 259 
 PTB  HN ES   1   2245 49.09                             133    -0.7 7  147 259 
 PTB  HZ I        2245 51.43        25.4 0.11                           147 259 
 ZAR  HZ EP   1   2245 33.46                             123    -0.5 6  204 293 
 ZAR  HN ES   2   2245 59.23                             123    -0.3 4  204 293 
 ZAR  HZ I        2246  6.51        49.8 0.29                           204 293 
 NOR  SZ EP   1   2245 37.09                             119     0.0 6  234 235 
 NOR  SN ES   1   2246  5.19                             119     0.1 6  234 235 
 CHI  HZ EP   1   2245 39.15                             118     0.1 6  247 195 
 CHI  HZ I        2246 14.69        11.8 0.29                           247 195 
 HEL  HZ EP   1   2245 41.84                             116     0.3 6  271 256 
 HEL  HN ES   2   2246 13.06                             116     0.0 4  271 256 
 HEL  HZ I        2246 18.82        13.1 0.25                           271 256 
 RREF HZ EP   1   2245 47.58                             112     0.2 5  321 230 
 RREF HZ I        2246 33.83        19.5 0.37                           321 230 
 COD  HZ EP   1   2245 49.72                             109    -0.2 5  350 355 
 COD  HZ I        2245 51.70         8.7 0.32                           350 355 
 COD  HN ES   2   2246 27.21                             109    -0.7 3  350 355 
 PRA  HN ES   2   2246 36.51                             107     0.0 3  391 210 
                                                                                
