 2012  316 2015  4.7 L   6.778 -73.155141.8  RSN  8 0.4 1.8LRSN                1
 GAP=136        1.02       4.1     5.3  7.3  0.9109E+00  0.3118E+01  0.3001E+01E
 ACTION:UP  12-03-31 23:20 OP:EP   STATUS:               ID:20120316201504 L   I
 2012-03-16-2010-00M.COL___201                                                 6
 STAT SP IPHASW D HRMM SECON CODA AMPLIT PERI AZIMU VELO SNR AR TRES W  DIS CAZ7
 BAR2 SZ EP       2015 23.85                             171     0.110   21 188 
 BAR2 SZ ES   1   2015 39.22                             171     0.5 7   21 188 
 BAR2 SZ I        2015 41.07        14.2 0.12                            21 188 
 BRR  HZ EP       2015 25.63                             152     0.210   72 301 
 BRR  HN ES       2015 41.91                             152     0.310   72 301 
 BRR  HZ I        2015 44.42        24.9 0.28                            72 301 
 PAM  SZ EP       2015 26.58                             149     0.010   80  39 
 PAM  SN ES   1   2015 43.24                             149    -0.5 7   80  39 
 RUS  HZ EP       2015 27.98                             144     0.110   98 175 
 RUS  HE ES   1   2015 45.15                             144    -0.8 7   98 175 
 RUS  HZ I        2015 48.84         5.3 0.23                            98 175 
 PTB  HZ EP   1   2015 30.54                             131    -0.7 7  146 260 
 PTB  HN ES   1   2015 51.23                             131    -0.6 7  146 260 
 PTB  HZ I        2015 56.62         7.6 0.11                           146 260 
 OCA  SZ EP   1   2015 32.78                             128    -0.1 7  163 354 
 OCA  SZ ES   1   2015 55.19                             128     0.3 7  163 354 
 ZAR  HZ EP   1   2015 37.01                             121     0.1 6  204 293 
 ZAR  HE ES   1   2016  1.80                             121    -0.2 6  204 293 
 ZAR  HZ I        2016  6.79         7.8 0.35                           204 293 
 CHI  HZ EP   1   2015 41.98                             116     0.1 6  246 195 
 CHI  HE ES   1   2016 11.81                             116     0.9 6  246 195 
 CHI  HZ I        2016 19.50         4.6 0.41                           246 195 
                                                                                
