 2015  416 2054 28.9 L   6.787 -73.143142.9  RSN 10 0.5 2.2LRSN                1
 GAP=138        1.13       3.6     4.6  7.0 -0.2582E+01  0.8705E+01 -0.9263E-01E
 Epicentro: LOS SANTOS - SANTANDER                                             3
 ACTION:UPD 15-06-03 16:55 OP:cam  STATUS:               ID:20150416205428 L   I
 OLDACT:UP  15-04-17 02:41 OP:mh   STATUS:               ID:20150416204748     3
 OLDACT:REG 15-04-17 02:08 OP:mh   STATUS:               ID:20150416204748     3
 2015-04-16-2047-48M.COL___269                                                 6
 STAT SP IPHASW D HRMM SECON CODA AMPLIT PERI AZIMU VELO AIN AR TRES W  DIS CAZ7
 BAR2 EZ I        2055  4.42        22.4 0.22            169           21.9 192 
 BRR  HZ EP       2054 50.30                             152    0.4810 72.2 299 
 BRR  HN ES       2055  6.70                             152    0.5810 72.2 299 
 PAM  SZ EP       2054 51.06                             150    0.1710 78.3  39 
 PAM  SN ES       2055  7.85                             150   -0.1810 78.3  39 
 PAM  SZ I        2055  9.86        31.6 0.48            154           78.3  39 
 RUS  HZ EP       2054 51.79                             144   -0.5010 99.1 176 
 RUS  HN ES       2055 10.79                             144    0.2810 99.1 176 
 RUS  HZ I        2055 12.20        20.2 0.38            144           99.1 176 
 PTB  HZ EP       2054 55.14                             131   -0.53 9  148 259 
 PTB  HN ES       2055 15.72                             131   -0.80 9  148 259 
 PTB  HZ I        2055 18.68        17.8 0.42            132            148 259 
 SPBC HZ EP       2054 57.16                             129    0.04 9  162 219 
 SPBC HN ES       2055 18.70                             129   -0.40 9  162 219 
 SPBC HZ I        2055 26.69        18.2 0.22            129            162 219 
 ZAR  HZ EP       2055  2.01                             122    0.73 9  205 292 
 ZAR  HN ES       2055 26.36                             122   -0.15 9  205 292 
 ZAR  HZ I        2055 28.37        11.9 0.22            123            205 292 
 NOR  HZ EP       2055  4.35                             118   -0.08 8  234 235 
 NOR  HN ES       2055 32.22                             118    0.10 8  234 235 
 NOR  HZ I        2055 36.69        10.3 0.16            119            234 235 
 SML  HZ EP       2055  4.88                             117   -0.67 8  245 335 
 SML  HE ES       2055 34.11                             117   -0.01 8  245 335 
 SML  HZ I        2055 35.47        17.7 0.10            119            245 335 
 GUY2CHZ EP       2055 13.18                             112    0.84 7  301 235 
 GUY2CHN ES   1   2055 46.87                             112    0.67 5  301 235 
 GUY2CHZ I        2055 56.98        15.6 0.94                           301 235 
                                                                                
