 2016 1016 2218 49.4 L   6.782 -73.092150.9  RSN  4 0.1 1.2LRSN                1
 GAP=144        0.38       1.9     2.7  3.8 -0.1611E+01 -0.5203E+00  0.1083E+01E
 Epicentro: LOS SANTOS - SANTANDER                                             3
 ACTION:UPD 16-11-09 19:20 OP:rebc STATUS:               ID:20161016221849 L   I
 OLDACT:UP  16-10-17 08:21 OP:dani STATUS:               ID:20161016221740     3
 OLDACT:REG 16-10-17 05:50 OP:dani STATUS:               ID:20161016221740     3
 2016-10-16-2218-00M.COL___359                                                 6
 STAT SP IPHASW D HRMM SECON CODA AMPLIT PERI AZIMU VELO AIN AR TRES W  DIS CAZ7
 PAM  EZ EP       2219 11.98                             152   -0.0710 75.3  35 
 PAM  EE ES       2219 29.71                             152   -0.0110 75.3  35 
 PAM  EZ I        2219 30.28         2.3 0.30            155           75.3  35 
 BRR  HZ EP       2219 11.36                             151   -0.1010 77.3 298 
 BRR  HE ES       2219 28.76                             151    0.1010 77.3 298 
 BRR  HZ I        2219 31.09         7.6 0.42            152           77.3 298 
 RUS  HZ EP       2219 13.72                             145    0.2110 98.4 179 
 RUS  HE ES       2219 32.25                             145   -0.0710 98.4 179 
 RUS  HZ I        2219 34.03         1.6 0.58            147           98.4 179 
 SPBC HN ES       2219 41.16                             130   -0.07 9  166 221 
                                                                                
