 2015  416 2325 53.2 L   6.808 -73.148151.6  RSN  6 0.4 1.8LRSN                1
 GAP=142        0.99       6.1     6.5  8.1 -0.2313E+02  0.2118E+02 -0.7732E+01E
 Epicentro: LOS SANTOS - SANTANDER                                             3
 ACTION:UPD 15-06-03 16:55 OP:cam  STATUS:               ID:20150416232553 L   I
 OLDACT:UP  15-04-17 03:19 OP:mh   STATUS:               ID:20150416231750d    3
 OLDACT:DUP 15-04-17 03:19 OP:mh   STATUS:               ID:20150416231750d    3
 2015-04-16-2317-49M.COL___278                                                 6
 STAT SP IPHASW D HRMM SECON CODA AMPLIT PERI AZIMU VELO AIN AR TRES W  DIS CAZ7
 BAR2 EZ EP       2326 13.75                             171    0.2110 24.1 189 
 BAR2 EZ ES       2326 29.68                             171    0.2710 24.1 189 
 BAR2 EZ I        2326 30.04        15.4 0.19            171           24.1 189 
 PAM  SZ EP       2326 16.40                             152    0.3910 76.9  40 
 PAM  SN ES       2326 33.68                             152   -0.1210 76.9  40 
 PAM  SZ I        2326 35.93         6.3 0.60            154           76.9  40 
 RUS  HZ EP   1   2326 17.08                             145   -0.50 7  101 176 
 RUS  HN ES       2326 36.25                             145   -0.3610  101 176 
 RUS  HZ I        2326 37.18         6.5 0.28            146            101 176 
 PTB  HZ EP       2326 19.92                             133   -0.71 9  148 258 
 PTB  HN ES   1   2326 41.55                             133   -0.48 7  148 258 
 PTB  HZ I        2326 43.67         7.0 0.20            133            148 258 
 SPBC HZ EP       2326 22.50                             130    0.31 9  164 219 
 SPBC HN ES       2326 44.87                             130    0.06 9  164 219 
 SPBC HZ I        2326 47.35        12.3 0.56            131            164 219 
 NOR  HN ES       2326 58.12                             120    0.67 8  235 234 
 NOR  HZ I        2327  1.18         5.2 0.06            120            235 234 
                                                                                
