 2013  416 2209 37.5 L   6.767 -73.144138.3  RSN  6 0.5 1.5LRSN                1
 GAP=138        1.00       6.1     5.8  8.8 -0.8691E+01  0.8422E+01  0.4444E+01E
 Epicentro: LOS SANTOS - SANTANDER                                             3
 ACTION:UPD 13-05-22 14:38 OP:EP   STATUS:               ID:20130416220937 L   I
 2013-04-16-2207-48M.COL___217                                                 6
 STAT SP IPHASW D HRMM SECON CODA AMPLIT PERI AZIMU VELO AIN AR TRES W  DIS CAZ7
 BAR2 SZ ES   1   2210 10.73                             172    0.04 7 19.8 192 
 BAR2 SZ I        2210 12.26        18.6 0.24            172           19.8 192 
 BRR  HZ EP   1   22 9 58.41                             151    0.48 7 73.1 301 
 BRR  HN ES   1   2210 14.36                             151    0.47 7 73.1 301 
 PAM  SZ EP       22 9 59.31                             148    0.2410 80.1  38 
 PAM  SE ES   1   2210 15.63                             148   -0.28 7 80.1  38 
 PAM  SZ I        2210 18.29         3.5 0.42            151           80.1  38 
 RUS  HZ EP       2210  0.30                             143    0.0710 96.9 176 
 RUS  HN ES   1   2210 17.76                             143   -0.21 7 96.9 176 
 RUS  HZ I        2210 19.90         4.0 0.45            145           96.9 176 
 PTB  HZ EP       2210  3.17                             130   -0.62 9  147 260 
 PTB  HN ES   1   2210 23.50                             130   -0.82 7  147 260 
 PTB  HZ I        2210 26.77         3.8 0.10            133            147 260 
 NOR  HE ES   1   2210 40.88                             117    0.94 6  233 235 
                                                                                
