 2016  316 2243 18.1 L   6.869 -73.131141.8  RSN 11 0.5 2.1LRSN                1
 GAP=135        1.09       3.4     5.1  6.6 -0.3010E+01  0.8972E+01  0.1870E+01E
 Epicentro: LOS SANTOS - SANTANDER                                             3
 ACTION:UPD 16-05-13 21:24 OP:cam  STATUS:               ID:20160316224318 L   I
 OLDACT:UP  16-03-17 10:14 OP:ar   STATUS:               ID:20160316223751d    3
 OLDACT:DUP 16-03-17 10:11 OP:ar   STATUS:               ID:20160316223751d    3
 2016-03-16-2237-50M.COL___310                                                 6
 STAT SP IPHASW D HRMM SECON CODA AMPLIT PERI AZIMU VELO AIN AR TRES W  DIS CAZ7
 BAR2 EZ EP       2243 37.11                             167   -0.3010 31.1 191 
 BAR2 EZ ES       2243 52.49                             167   -0.0110 31.1 191 
 BAR2 EZ I        2244  0.53        24.7 0.82            165           31.1 191 
 PAM  EZ EP       2243 39.72                             152    0.2610 70.6  42 
 PAM  EE ES       2243 56.70                             152    0.5510 70.6  42 
 PAM  EZ I        2243 58.62        18.9 0.46            160           70.6  42 
 RUS  HZ EP       2243 41.56                             141   -0.4410  108 177 
 RUS  HN ES       2244  0.35                             141   -0.3110  108 177 
 RUS  HZ I        2244  1.78         5.2 0.48            144            108 177 
 PTB  HZ EP   9   2243 43.78                             130   -1.23 0  151 256 
 PTB  HE ES       2244  4.84                             129    0.04 9  151 256 
 PTB  HZ I        2244 12.14        13.2 0.40            131            151 256 
 OCA  HZ EP       2243 45.14                             130   -0.24 9  153 352 
 OCA  HN ES       2244  6.58                             130   -0.10 9  153 352 
 OCA  HZ I        2244 11.00        29.8 0.16            134            153 352 
 SPBC HZ EP       2243 46.59                             127   -0.35 9  170 218 
 SPBC HN ES   2   2244  8.64                             127   -0.82 5  170 218 
 SPBC HZ I        2244 14.83        16.9 0.36            129            170 218 
 ZAR  HZ EP   2   2243 51.26                             122    1.13 4  203 290 
 ZAR  HN ES       2244 14.70                             122   -0.44 9  203 290 
 ZAR  HZ I        2244 20.28        16.0 0.36            124            203 290 
 NOR  HN ES       2244 22.91                             117    0.53 8  240 233 
 NOR  HZ I        2244 27.93        11.5 0.18            119            240 233 
 CHI  HZ EP       2243 55.90                             115   -0.50 8  256 195 
 CHI  HE ES       2244 27.26                             115    0.96 8  256 195 
 CHI  HZ I        2244 33.25         4.2 0.56            119            256 195 
 HEL  HZ EP   4   2244  0.44                             114    1.97 0  276 254 
 HEL  HN ES   4   2244 33.32                             114    3.33 0  276 254 
 HEL  HZ I        2244 36.00         6.4 0.24            116            276 254 
 GUY2CHZ EP       2244  3.08                             111    0.93 7  307 234 
 GUY2CHN ES   4   2244 40.12                             111    3.59 0  307 234 
 GUY2CHZ I        2244 45.71         7.8 0.32                           307 234 
                                                                                
