 2015  316 2056  2.5 L   6.538 -73.712 99.6  RSN  7 0.4 1.5LRSN                1
 GAP=141        0.86       4.3     3.2  7.6 -0.6305E+01  0.1258E+01 -0.1633E+01E
 Epicentro: SANTA HELENA DEL OPON - SANTANDER                                  3
 ACTION:UPD 15-04-30 16:26 OP:nd   STATUS:               ID:20150316205602 L   I
 OLDACT:REG 15-03-17 02:36 OP:spq  STATUS:               ID:20150316204749     3
 2015-03-16-2047-49M.COL___272                                                 6
 STAT SP IPHASW D HRMM SECON CODA AMPLIT PERI AZIMU VELO AIN AR TRES W  DIS CAZ7
 BAR2 EZ EP       2056 18.38                             147   -0.0010 58.9  84 
 BAR2 EZ ES   1   2056 31.31                             147    0.55 7 58.9  84 
 BAR2 EZ I        2056 32.32        29.4 0.38            151           58.9  84 
 PTB  HZ EP     D 2056 19.49                             137   -0.3510 82.3 270 
 PTB  HN ES       2056 33.07                             137   -0.2810 82.3 270 
 PTB  HZ I        2056 36.26         7.7 0.16            140           82.3 270 
 RUS  HZ EP   1   2056 21.32                             132   -0.69 7 99.6 136 
 RUS  HN ES   1   2056 37.03                             132   -0.17 7 99.6 136 
 RUS  HZ I        2056 37.99         8.0 0.22            136           99.6 136 
 SPBC HZ EP   1   2056 22.20                             130    0.17 7  106 202 
 SPBC HN ES   1   2056 37.01                             130   -0.24 7  106 202 
 SPBC HZ I        2056 41.70         9.7 0.32            132            106 202 
 PAM  SZ EP       2056 26.17                             121   -0.11 9  143  52 
 PAM  SE ES       2056 45.02                             121    0.21 9  143  52 
 PAM  SZ I        2056 49.21         3.2 0.26            124            143  52 
 NOR  HZ EP       2056 28.94                             116    0.56 9  167 230 
 NOR  HN ES   1   2056 49.19                             116    0.64 7  167 230 
 NOR  HZ I        2056 52.23         4.6 0.22            118            167 230 
 GUY2CHZ EP   4   2056 38.26                             109    1.80 0  234 232 
 GUY2CHN ES   4   2057  6.41                             109    3.47 0  234 232 
 GUY2CHZ I        2057  9.67         2.4 0.30                           234 232 
                                                                                
