 2017  416 2227 31.2 L   6.505 -73.621111.6  RSN  5 0.1 1.2LRSN                1
 GAP=134        0.45       2.7     2.2  4.2  0.2468E+01  0.2294E+01  0.2911E+01E
 Epicentro: SANTA HELENA DEL OPON - SANTANDER                                  3
 ACTION:UPD 17-05-30 21:13 OP:jn   STATUS:               ID:20170416222731 L   I
 OLDACT:UP  17-04-17 07:15 OP:and  STATUS:               ID:20170416221740     3
 OLDACT:UP  17-04-17 07:15 OP:and  STATUS:               ID:20170416221740     3
 OLDACT:UP  17-04-17 07:15 OP:and  STATUS:               ID:20170416221740     3
 OLDACT:UP  17-04-17 07:15 OP:and  STATUS:               ID:20170416221740     3
 OLDACT:UP  17-04-17 07:15 OP:and  STATUS:               ID:20170416221740     3
 OLDACT:UP  17-04-17 07:14 OP:and  STATUS:               ID:20170416221740     3
 OLDACT:REG 17-04-17 05:37 OP:and  STATUS:               ID:20170416221740     3
 2017-04-16-2218-00M.COL___365                                                 6
 STAT SP IPHASW D HRMM SECON CODA AMPLIT PERI AZIMU VELO AIN AR TRES W  DIS CAZ7
 BAR2 EZ IP     D 2227 47.61                             154   -0.1810 49.5  79 
 BAR2 EZ ES       2228  0.54                             154   -0.1810 49.5  79 
 BAR2 EZ I        2228  1.35         6.9 0.24            161           49.5  79 
 BRR  HZ EP       2227 48.47                             147   -0.0510 67.3 351 
 BRR  HE ES       2228  2.26                             147    0.2410 67.3 351 
 BRR  HZ I        2228 11.02         4.4 0.58            152           67.3 351 
 RUS  HZ EP       2227 51.05                             139    0.1410 90.2 139 
 RUS  HN ES       2228  6.38                             139    0.1010 90.2 139 
 RUS  HZ I        2228 11.59         1.4 0.34            144           90.2 139 
 PTB  HZ IP     C 2227 50.45                             137    0.0110 92.4 272 
 PTB  HN ES       2228  5.34                             137   -0.0910 92.4 272 
 PTB  HZ I        2228  6.79         4.0 0.18            141           92.4 272 
 NOR  HZ EP   4   2228  0.55                             118    2.22 0  173 233 
 NOR  HN ES   4   2228 23.00                             118    3.51 0  173 233 
 NOR  HZ I        2228 24.74         2.2 0.20            123            173 233 
                                                                                
