 2014  316 2127 50.7 L   6.771 -73.141150.6  RSN  5 0.5 1.9LRSN                1
 GAP=138        1.34       7.3     7.2 11.0 -0.6798E+01  0.8694E+01  0.1811E+02E
 Epicentro: LOS SANTOS - SANTANDER                                             3
 ACTION:UPD 14-04-09 23:17 OP:nd   STATUS:               ID:20140316212750 L   I
 OLDACT:DUP 14-03-17 02:12 OP:q    STATUS:               ID:20140316211812d    3
 2014-03-16-2118-11M.COL___254                                                 6
 STAT SP IPHASW D HRMM SECON CODA AMPLIT PERI AZIMU VELO AIN AR TRES W  DIS CAZ7
 BRR  HZ EP       2128 12.67                             153    0.1710 73.2 301 
 BRR  HE ES       2128 30.46                             153    0.9710 73.2 301 
 PAM  SZ EP       2128 13.48                             151   -0.1010 79.6  38 
 PAM  SZ I        2128 13.64        15.4 0.44            154           79.6  38 
 PAM  SN ES       2128 30.92                             151   -0.4910 79.6  38 
 RUS  HZ EP       2128 14.70                             146   -0.0210 97.4 176 
 RUS  HN ES       2128 33.52                             146    0.0710 97.4 176 
 PTB  HZ EP       2128 18.06                             133   -0.02 9  148 260 
 PTB  HN ES       2128 38.36                             133   -1.05 9  148 260 
 PTB  HZ I        2128 46.24         7.2 0.30            132            148 260 
 SPBC HZ EP       2128 19.79                             131    0.40 9  161 220 
                                                                                
