 2017  916 2352 32.1 L   6.795 -73.038139.6  RSN  5 0.4 1.6LRSN                1
 GAP=248        0.95       5.6     7.2  7.5  0.2009E+02  0.6082E+01 -0.5599E+01E
 Epicentro: LOS SANTOS - SANTANDER                                             3
 ACTION:UPD 17-10-05 19:13 OP:rebc STATUS:               ID:20170916235232 L   I
 OLDACT:DUP 17-09-17 05:15 OP:dhb  STATUS:               ID:20170916234740d    3
 2017-09-16-2348-00M.COL___408                                                 6
 STAT SP IPHASW D HRMM SECON CODA AMPLIT PERI AZIMU VELO AIN AR TRES W  DIS CAZ7
 BAR2 EZ EP       2352 51.35                             168    0.2310 27.5 215 
 BAR2 EZ ES       2353  5.29                             168   -0.6510 27.5 215 
 BAR2 EZ I        2353  9.25         7.9 0.31            170           27.5 215 
 BRR  HZ EP       2352 53.21                             148   -0.0910 82.1 295 
 BRR  HE ES       2353 10.16                             148    0.3610 82.1 295 
 BRR  HZ I        2353 14.22         8.1 0.45            148           82.1 295 
 RUS  HZ EP       2352 55.46                             143    0.2210 99.9 183 
 RUS  HN ES       2353 13.55                             143    0.2910 99.9 183 
 SPBC HE ES       2353 23.10                             126   -0.21 9  171 222 
 ZAR  HZ EP       2353  4.76                             119   -0.62 8  215 291 
 ZAR  HE ES       2353 31.64                             119    0.34 8  215 291 
 ZAR  HZ I        2353 35.50         3.4 0.45            122            215 291 
                                                                                
