 2010  816 2056 15.2 L   6.771 -73.084144.0  RSN  6 0.3 1.7LRSN                1
 GAP=166        0.69       4.8     8.5  7.7 -0.5176E+01 -0.1689E+02  0.1469E+01E
 Epicentro: LOS SANTOS - SANTANDER                                             3
 ACTION:UP  10-09-07 10:55 OP:vdl  STATUS:               ID:20100816205614 L   I
 2010-08-16-2053-08S.COL___110                                                 6
 STAT SP IPHASW D HRMM SECON CODA AMPLIT PERI AZIMU VELO SNR AR TRES W  DIS CAZ7
 BAR2 SZ ES   2   2056 49.26                             171    -0.5 5   23 209 
 BAR2 SZ I        2056 50.74        11.0 0.15                            23 209 
 BTL  SZ EP       2056 34.88                             169     0.210   26 309 
 BTL  SZ ES   2   2056 49.92                             169     0.0 5   26 309 
 GIR2 SZ EP   2   2056 35.72                             166     0.9 5   36 340 
 BRR  HZ EP       2056 36.36                             150    -0.310   79 298 
 BRR  HN ES   1   2056 53.56                             150     0.2 7   79 298 
 BRR  HZ I        2056 56.36        11.0 0.12                            79 298 
 RUS  HZ EP   1   2056 38.52                             145    -0.1 7   97 180 
 RUS  HN ES   2   2056 57.01                             145     0.2 5   97 180 
 RUS  HZ I        2056 58.15         5.5 0.29                            97 180 
 GRA  SZ EP   1   2056 40.12                             137    -0.3 7  127  14 
 GRA  SZ ES   1   2057  0.19                             137     0.1 7  127  14 
                                                                                
