 2011 1116 2252  3.6 L   6.773 -73.092137.5  RSN  6 0.2 2.3LRSN                1
 GAP=145        0.44       2.3     2.7  3.6 -0.1828E+00  0.2975E+01 -0.1061E+01E
 Epicentro: LOS SANTOS - SANTANDER                                             3
 ACTION:UPD 12-07-13 16:10 OP:ep   STATUS:               ID:20111116225203 L   I
 2011-11-16-2248-12S.COL___179                                                 6
 STAT SP IPHASW D HRMM SECON CODA AMPLIT PERI AZIMU VELO AIN AR TRES W  DIS CAZ7
 BAR2 SZ EP       2252 22.18                             170    0.0010 22.3 206 
 BAR2 SZ ES       2252 36.68                             170   -0.0210 22.3 206 
 BAR2 SZ I        2252 37.86        39.6 0.23                          22.3 206 
 PAM  SZ EP       2252 24.99                             149    0.1610 76.2  35 
 PAM  SN ES       2252 41.39                             149   -0.0310 76.2  35 
 BRR  HZ EP       2252 24.09                             149   -0.1310 77.8 298 
 BRR  HZ I        2252 24.46        57.6 0.10                          77.8 298 
 BRR  HE ES   1   2252 40.63                             149    0.28 7 77.8 298 
 RUS  HZ EP   1   2252 26.52                             143    0.25 7 97.4 179 
 RUS  HE ES       2252 43.75                             143   -0.2310 97.4 179 
 ZAR  HZ EP   1   2252 36.02                             119   -0.15 6  211 292 
 ZAR  HE ES   1   2253  1.46                             119   -0.15 6  211 292 
 ZAR  HZ I        2253  3.33        11.8 0.27                           211 292 
 NOR  SE ES   2   2253  7.39                             116    0.45 4  238 236 
                                                                                
