 2012  916 2053 53.1 L   6.786 -73.149142.0  RSN  6 0.2 1.4LRSN                1
 GAP=137        0.48       4.7     6.7 10.4 -0.2395E+00 -0.4442E+02  0.1170E+02E
 Epicentro: LOS SANTOS - SANTANDER                                             3
 ACTION:UPD 12-10-22 14:19 OP:ep   STATUS:               ID:20120916205353 L   I
 2012-09-16-2050-00M.COL___227                                                 6
 STAT SP IPHASW D HRMM SECON CODA AMPLIT PERI AZIMU VELO AIN AR TRES W  DIS CAZ7
 BAR2 SZ EP       2054 12.09                             171   -0.2010 21.8 190 
 GIR2 SZ EP       2054 12.22                             166   -0.1910 32.7 351 
 BRR  HZ EP       2054 13.90                             152   -0.0110 71.6 300 
 BRR  HZ I        2054 14.08         9.6 0.14                          71.6 300 
 BRR  HN ES   1   2054 30.34                             152    0.23 7 71.6 300 
 PAM  SZ I        2054 15.14         3.0 0.16                          78.8  39 
 PAM  SZ EP       2054 15.17                             150    0.1210 78.8  39 
 RUS  HZ EP       2054 16.64                             143    0.2210 99.1 176 
 RUS  HE ES   3   2054 34.03                             143   -0.55 2 99.1 176 
 PTB  HN ES   3   2054 40.01                             131   -0.48 2  147 259 
 PTB  HN I        2054 45.80         2.7 0.26                           147 259 
                                                                                
