 2011 1016 2313 13.4 L   6.802 -73.161142.0  RSN  8 0.4 2.5LRSN                1
 GAP=135        0.83       3.8     4.5  6.6 -0.2218E+01  0.1185E+02 -0.4997E+00E
 Epicentro: LOS SANTOS - SANTANDER                                             3
 ACTION:UPD 12-07-13 16:04 OP:ep   STATUS:               ID:20111016231313 L   I
 2011-10-16-2311-20S.COL___168                                                 6
 STAT SP IPHASW D HRMM SECON CODA AMPLIT PERI AZIMU VELO AIN AR TRES W  DIS CAZ7
 BAR2 SZ EP       2313 32.74                             170    0.1610 23.3 186 
 BAR2 SZ I        2313 33.07        92.6 0.09                          23.3 186 
 BAR2 SZ ES   1   2313 47.28                             170   -0.25 7 23.3 186 
 BRR  HZ IP     C 2313 34.56                             152    0.5110 69.6 299 
 BRR  HZ I        2313 34.92       117.0 0.11                          69.6 299 
 BRR  HN ES   1   2313 51.02                             152    0.86 7 69.6 299 
 PAM  SZ EP   1   2313 35.52                             150    0.25 7 78.3  41 
 PAM  SZ I        2313 35.82        54.9 0.15                          78.3  41 
 PAM  SN ES   1   2313 52.23                             150   -0.10 7 78.3  41 
 RUS  HZ EP   1   2313 36.77                             143   -0.04 7  101 175 
 RUS  HN ES   1   2313 54.54                             143   -0.53 7  101 175 
 RUS  HZ I        2313 57.24        28.6 0.25                           101 175 
 OCA  SZ EP   1   2313 41.28                             129   -0.10 7  160 354 
 OCA  SZ ES   1   2314  2.40                             129   -0.80 7  160 354 
 OCA  SZ I        2314  8.68        17.8 0.18                           160 354 
 ZAR  HZ EP   1   2313 45.25                             122   -0.18 6  202 292 
 ZAR  HN ES   1   2314  9.89                             122   -0.52 6  202 292 
 ZAR  HZ I        2314 16.57        64.5 0.35                           202 292 
 NOR  SN EP   1   2313 49.08                             118    0.30 6  233 234 
 NOR  SE ES   1   2314 16.20                             118   -0.18 6  233 234 
 HEL  HZ EP   1   2313 52.99                             114   -0.26 6  270 256 
 HEL  HN ES   1   2314 24.25                             114   -0.08 6  270 256 
 HEL  HZ I        2314 31.19        25.8 0.36                           270 256 
                                                                                
