 2011  416 2054 49.8 L   6.740 -73.092149.7  RSN  5 0.2 1.9LRSN                1
 GAP=178        0.48       6.0     5.3  5.6 -0.1987E+02 -0.4233E+01  0.1099E+02E
 Epicentro: JORDAN - SANTANDER                                                 3
 ACTION:UP  11-06-22 15:31 OP:REBC STATUS:               ID:20110416205449 L   I
 2011-04-16-2052-53S.COL___140                                                 6
 STAT SP IPHASW D HRMM SECON CODA AMPLIT PERI AZIMU VELO SNR AR TRES W  DIS CAZ7
 BAR2 SZ EP   1   2055  9.94                             172     0.1 7   19 211 
 BAR2 SZ ES   2   2055 25.65                             172     0.2 5   19 211 
 BAR2 SZ I        2055 26.14        20.9 0.27                            19 211 
 PAM  SZ EP   1   2055 12.84                             151     0.3 7   79  33 
 PAM  SN ES   1   2055 30.05                             151    -0.3 7   79  33 
 PAM  SZ I        2055 32.39         6.3 0.29                            79  33 
 BRR  HZ EP   1   2055 12.00                             150     0.1 7   80 301 
 BRR  HZ I        2055 14.17        29.2 0.10                            80 301 
 BRR  HN ES   1   2055 29.21                             150     0.1 7   80 301 
 BRI  SZ EP   1   2055 14.37                             141    -0.1 7  113  17 
 BRI  SZ ES   2   2055 33.31                             141    -0.3 5  113  17 
 BRI  SZ I        2055 38.14         9.1 0.34                           113  17 
 NOR  SZ EP   2   2055 25.76                             119    -0.2 4  236 237 
 NOR  SE ES   2   2055 53.48                             119    -0.6 4  236 237 
                                                                                
