 2012  116 2330 44.0 L   6.770 -73.111138.0  RSN  9 0.4 2.1LRSN                1
 GAP=142        0.88       4.2     5.2  6.7 -0.7896E+00  0.1238E+02  0.5070E+01E
 Epicentro: LOS SANTOS - SANTANDER                                             3
 ACTION:UP  12-02-03 08:18 OP:REBC STATUS:               ID:20120116233044 L   I
 2012-01-16-2330-00M.COL___188                                                 6
 STAT SP IPHASW D HRMM SECON CODA AMPLIT PERI AZIMU VELO SNR AR TRES W  DIS CAZ7
 BAR2 SZ EP   1   2331  2.40                             171    -0.3 7   21 202 
 BAR2 SZ ES   1   2331 17.04                             171    -0.2 7   21 202 
 BAR2 SZ I        2331 18.54        58.4 0.27                            21 202 
 BRR  HZ EP       2331  4.35                             149    -0.310   76 299 
 BRR  HE ES   1   2331 21.10                             149     0.4 7   76 299 
 BRR  HZ I        2331 25.72        39.4 0.20                            76 299 
 PAM  SZ EP       2331  5.27                             149    -0.210   78  36 
 PAM  SE ES   1   2331 22.52                             149     0.4 7   78  36 
 RUS  HZ EP   1   2331  6.43                             143    -0.3 7   97 178 
 RUS  HE ES   1   2331 24.72                             143     0.2 7   97 178 
 RUS  HZ I        2331 26.21        17.8 0.39                            97 178 
 ZAR  HZ EP   1   2331 17.09                             120     0.6 6  209 293 
 ZAR  HN ES   1   2331 41.52                             120    -0.3 6  209 293 
 ZAR  HZ I        2331 49.36        15.2 0.35                           209 293 
 NOR  SZ EP   1   2331 19.09                             117    -0.4 6  236 236 
 NOR  SE ES   1   2331 46.52                             117    -0.6 6  236 236 
 CHI  HZ EP   1   2331 20.82                             116    -0.2 6  247 196 
 CHI  HN ES   1   2331 50.58                             116     0.6 6  247 196 
 CHI  HZ I        2332  0.44         5.0 0.55                           247 196 
 HEL  HZ EP   1   2331 24.65                             113     0.5 6  275 257 
 HEL  HZ I        2332  0.94         4.9 0.41                           275 257 
 RREF HZ EP   1   2331 30.69                             109     0.8 5  323 230 
 RREF HZ I        2332 15.27         4.8 0.44                           323 230 
                                                                                
