 2011  616 2242  6.4 L   6.763 -73.077142.8  RSN  7 0.3 2.1LRSN                1
 GAP=147        0.61       2.9     4.8  5.6 -0.2483E+01 -0.3787E+01 -0.8756E-01E
 Epicentro: LOS SANTOS - SANTANDER                                             3
 ACTION:UP  11-07-14 19:05 OP:ep   STATUS:               ID:20110616224206 L   I
 2011-06-16-2239-43S.COL___135                                                 6
 STAT SP IPHASW D HRMM SECON CODA AMPLIT PERI AZIMU VELO SNR AR TRES W  DIS CAZ7
 BAR2 SZ EP   1   2242 25.73                             171     0.1 7   22 212 
 BAR2 SZ ES   2   2242 40.23                             171    -0.4 5   22 212 
 BAR2 SZ I        2242 42.07        35.1 0.24                            22 212 
 PAM  SZ EP   1   2242 28.69                             151     0.5 7   76  33 
 PAM  SN ES   2   2242 45.33                             151     0.1 5   76  33 
 BRR  HZ EP   1   2242 27.59                             149    -0.1 7   80 299 
 BRR  HN ES       2242 44.69                             149     0.310   80 299 
 BRR  HZ I        2242 48.42        25.8 0.16                            80 299 
 RUS  HZ EP   1   2242 29.76                             144     0.2 7   96 180 
 RUS  HZ I        2242 30.65         9.3 0.10                            96 180 
 RUS  HE ES   1   2242 47.33                             144    -0.3 7   96 180 
 GRA  SZ EP   1   2242 31.62                             136     0.1 7  128  14 
 GRA  SZ ES   1   2242 50.95                             136    -0.2 7  128  14 
 GRA  SZ I        2242 53.90        17.4 0.43                           128  14 
 OCA  SZ EP   1   2242 34.65                             128    -0.3 7  165 351 
 OCA  SZ ES   1   2242 56.95                             128    -0.3 7  165 351 
 OCA  SZ I        2242 59.46        18.7 0.20                           165 351 
 NOR  SZ EP   2   2242 42.22                             117    -0.2 4  239 236 
 NOR  SN ES   2   2243 10.12                             117    -0.3 4  239 236 
                                                                                
