 2010  916 2114 43.5 L   6.820 -73.049144.9  RSN 13 0.3 3.1LRSN                1
 GAP=169        0.66       2.8     4.6  4.8 -0.5212E+01  0.2120E+01  0.2843E+01E
 Epicentro: LOS SANTOS - SANTANDER                                             3
 ACTION:UP  11-02-18 11:03 OP:tino STATUS:               ID:20100916211443 L   I
 2010-09-16-2113-08S.COL___115                                                 6
 STAT SP IPHASW D HRMM SECON CODA AMPLIT PERI AZIMU VELO SNR AR TRES W  DIS CAZ7
 BAR2 SZ IP       2115  3.30                             168     0.110   29 210 
 BAR2 SZ ES   1   2115 18.19                             168    -0.3 7   29 210 
 BAR2 SZ I        2115 19.37       564.8 0.24                            29 210 
 BRR  HZ IP     D 2115  5.19                             149     0.110   80 293 
 BRR  HN ES   1   2115 22.10                             149     0.2 7   80 293 
 BRR  HZ I        2115 25.25       227.2 0.08                            80 293 
 RUS  HZ EP       2115  7.30                             143     0.010  103 182 
 RUS  HZ I        2115 26.88       161.5 0.16                           103 182 
 GUE  SZ EP   1   2115  8.30                             140     0.5 7  113   7 
 GRA  SZ IP       2115  8.21                             138     0.010  121  13 
 GRA  SZ ES   1   2115 27.09                             138    -0.5 7  121  13 
 OCA  SZ EP       2115 11.82                             129     0.1 9  160 349 
 OCA  SZ I        2115 37.04       185.9 0.18                           160 349 
 CHI  HZ EP       2115 21.50                             116    -0.2 8  254 197 
 CHI  HE ES   1   2115 51.58                             116     0.1 6  254 197 
 CHI  HZ I        2115 54.22        47.8 0.40                           254 197 
 ROSC BZ EP   1   2115 22.03                             116    -0.4 6  260 213 
 ROSC BN ES   1   2115 53.15                             116     0.4 6  260 213 
 ROSC BZ I        2115 58.18        40.9 0.54                           260 213 
 HEL  HZ EP   1   2115 24.75                             114    -0.1 6  283 256 
 HEL  HN ES   1   2115 56.95                             114    -0.2 6  283 256 
 RREF HZ EP   1   2115 30.24                             110    -0.5 5  331 230 
 RREF HZ I        2116 13.26        39.8 0.04                           331 230 
 DBB  SZ EP   1   2115 31.53                             109    -0.6 5  350 274 
 TOL  SZ EP   1   2115 32.82                             108     0.0 5  353 226 
 ANIL HZ EP   1   2115 34.92                             108     0.6 5  366 225 
 ANIL HZ I        2116 21.34        78.2 0.52                           366 225 
                                                                                
