 2016 1016 2334 58.2 L   6.827 -73.121151.2  RSN 13 0.5 2.0LRSN                1
 GAP=121        1.16       3.5     4.4  5.6 -0.6749E+01 -0.3018E+00  0.1963E+01E
 Epicentro: LOS SANTOS - SANTANDER                                             3
 ACTION:UPD 16-11-09 19:20 OP:rebc STATUS:               ID:20161016233458 L   I
 OLDACT:UP  16-10-17 09:13 OP:dani STATUS:               ID:20161016232734d    3
 OLDACT:UP  16-10-17 09:13 OP:dani STATUS:               ID:20161016232734d    3
 OLDACT:UP  16-10-17 09:13 OP:dani STATUS:               ID:20161016232734d    3
 OLDACT:DUP 16-10-17 09:07 OP:dani STATUS:               ID:20161016232734d    3
 OLDACT:UP  16-10-17 09:06 OP:dani STATUS:               ID:20161016232733     3
 OLDACT:REG 16-10-17 05:56 OP:dani STATUS:               ID:20161016232733     3
 2016-10-16-2328-00M.COL___359                                                 6
 STAT SP IPHASW D HRMM SECON CODA AMPLIT PERI AZIMU VELO AIN AR TRES W  DIS CAZ7
 BAR2 EZ EP       2335 18.75                             169    0.1710 26.9 195 
 BAR2 EZ ES       2335 34.09                             169   -0.3710 26.9 195 
 BRR  HZ EP     D 2335 20.56                             153    0.5410 72.3 295 
 BRR  HN ES       2335 37.89                             153    0.8710 72.3 295 
 BRR  HZ I        2335 39.97        16.7 0.12            152           72.3 295 
 PAM  EZ EP     D 2335 21.43                             153    0.6410 73.3  39 
 PAM  EN ES       2335 38.50                             153    0.1110 73.3  39 
 PAM  EZ I        2335 40.71        16.3 0.20            156           73.3  39 
 RUS  HZ EP       2335 22.69                             144   -0.0210  103 178 
 RUS  HN ES       2335 41.55                             144   -0.2710  103 178 
 RUS  HZ I        2335 42.66         7.3 0.30            146            103 178 
 PTB  HZ EP       2335 25.28                             133   -0.65 9  151 258 
 PTB  HN ES       2335 46.83                             133   -0.72 9  151 258 
 PTB  HZ I        2335 54.31         9.5 0.24            132            151 258 
 OCA  HZ EP       2335 26.84                             131    0.12 9  158 352 
 OCA  HN ES       2335 48.70                             131   -0.24 9  158 352 
 OCA  HZ I        2335 53.19        36.3 0.22            133            158 352 
 SPBC HZ EP       2335 27.73                             129    0.21 9  167 219 
 SPBC HN ES       2335 49.79                             129   -0.59 9  167 219 
 SPBC HZ I        2335 55.67        25.2 0.42            130            167 219 
 NOR  HZ EP   4   2335 33.01                             119   -1.69 0  239 234 
 NOR  HN ES       2336  3.33                             119    0.19 8  239 234 
 NOR  HZ I        2336  5.99         7.4 0.18            120            239 234 
 CHI  HZ EP       2335 37.09                             118    0.47 8  252 196 
 CHI  HN ES       2336  6.77                             118    0.20 8  252 196 
 CHI  HZ I        2336 11.95         3.5 0.23            119            252 196 
 SOCV BZ EP       2335 41.07                             113   -0.01 7  297  57 
 SOCV BN ES       2336 13.57                             113   -0.94 7  297  57 
 GUY2CHZ EP       2335 42.77                             113    0.24 7  305 235 
 GUY2CHZ I        2336 29.55         4.6 0.54                           305 235 
 PRA  HZ EP       2335 52.81                             107    0.41 6  396 210 
 PRA  HN ES       2336 34.60                             107   -0.05 6  396 210 
 PRA  HZ I        2336 36.26         2.6 0.24            108            396 210 
 SJC  HZ EP       2335 52.63                             107   -1.22 6  408 326 
 SJC  HN ES   4   2336 34.20                             107   -3.03 0  408 326 
 SJC  HZ I        2336 38.54         2.1 0.29            108            408 326 
                                                                                
