 2017  116 2054 41.7 L   6.778 -73.106147.3  RSN  4 0.0 1.2LRSN                1
 GAP=143        0.26       1.3     2.2  2.8 -0.7951E+00 -0.6167E+00  0.1316E+01E
 Epicentro: LOS SANTOS - SANTANDER                                             3
 ACTION:UPD 17-05-22 16:00 OP:jn   STATUS:               ID:20170116205441 L   I
 OLDACT:UP  17-01-17 03:08 OP:and  STATUS:               ID:20170116204744d    3
 OLDACT:UP  17-01-17 03:08 OP:and  STATUS:               ID:20170116204744d    3
 OLDACT:DUP 17-01-17 03:04 OP:and  STATUS:               ID:20170116204744d    3
 2017-01-16-2048-00M.COL___332                                                 6
 STAT SP IPHASW D HRMM SECON CODA AMPLIT PERI AZIMU VELO AIN AR TRES W  DIS CAZ7
 BRR  HZ EP   2   2055  3.27                             151   -0.06 5 76.2 299 
 BRR  HN ES       2055 20.18                             151    0.0110 76.2 299 
 PAM  EZ EP       2055  4.04                             151   -0.0210 76.6  36 
 PAM  EN ES       2055 21.49                             151    0.0210 76.6  36 
 PAM  EZ I        2055 22.11         2.5 0.22            152           76.6  36 
 RUS  HZ EP   2   2055  5.46                             145    0.02 5 98.0 179 
 RUS  HN ES       2055 23.93                             145   -0.0110 98.0 179 
 RUS  HZ I        2055 24.91         2.1 0.20            144           98.0 179 
 CHI  HZ EP   2   2055 19.50                             118    0.11 4  248 196 
 CHI  HN ES       2055 48.77                             118    0.00 8  248 196 
 CHI  HZ I        2055 51.63         1.7 0.64            117            248 196 
                                                                                
