 2016  516 2106 21.0 L   6.792 -73.107146.1  RSN 15 0.4 2.2LRSN                1
 GAP=241        0.81       3.1     4.1  4.5  0.2962E+01  0.6224E+01  0.2911E+01E
 Epicentro: LOS SANTOS - SANTANDER                                             3
 ACTION:UPD 16-08-18 17:46 OP:cam  STATUS:               ID:20160516210621 L   I
 OLDACT:UP  16-05-17 05:49 OP:dani STATUS:               ID:20160516205746     3
 OLDACT:UP  16-05-17 05:36 OP:dani STATUS:               ID:20160516205746     3
 OLDACT:REG 16-05-17 03:42 OP:dani STATUS:               ID:20160516205746     3
 2016-05-16-2057-46M.COL___307                                                 6
 STAT SP IPHASW D HRMM SECON CODA AMPLIT PERI AZIMU VELO AIN AR TRES W  DIS CAZ7
 BAR2 EZ EP       21 6 40.86                             171    0.1510 23.6 201 
 BAR2 EZ ES       21 6 55.70                             171   -0.3610 23.6 201 
 BAR2 EZ I    2   21 6 56.63        34.8 0.28            163           23.6 201 
 BRR  HZ EP       21 6 42.63                             151    0.1710 75.4 298 
 BRR  HN ES       21 6 59.82                             151    0.6510 75.4 298 
 BRR  HZ I        21 7  2.57        24.1 0.16            143           75.4 298 
 RUS  HZ EP       21 6 44.64                             144   -0.1010 99.5 178 
 RUS  HE ES     C 21 7  3.37                             144    0.1410 99.5 178 
 RUS  HZ I        21 7  4.09        18.5 0.28            139           99.5 178 
 PTB  HZ EP     D 21 6 47.88                             131   -0.51 9  152 259 
 PTB  HN ES   2   21 7  8.71                             131   -1.03 5  152 259 
 PTB  HZ I        21 7 15.57        14.5 0.16            124            152 259 
 SPBC HZ EP       21 6 49.55                             129   -0.20 9  165 220 
 SPBC HE ES       21 7 11.95                             129   -0.20 9  165 220 
 SPBC HZ I        21 7 18.50        22.3 0.22            122            165 220 
 ZAR  HZ EP       21 6 54.02                             122    0.08 8  208 292 
 ZAR  HE ES       21 7 19.75                             122    0.14 8  208 292 
 ZAR  HZ I        21 7 24.33        15.6 0.22            116            208 292 
 NOR  HZ EP     D 21 6 57.32                             118    0.22 8  238 235 
 NOR  HE ES       21 7 25.26                             118    0.03 8  238 235 
 NOR  HZ I        21 7 29.82        12.6 0.16            113            238 235 
 CHI  HZ EP       21 6 58.69                             117   -0.09 8  249 196 
 CHI  HN ES       21 7 28.11                             117   -0.12 8  249 196 
 CHI  HZ I        21 7 34.10         6.8 0.26            113            249 196 
 HEL  HZ EP   2   21 7  1.98                             115    0.29 4  276 256 
 HEL  HZ I        21 7 39.48        10.7 0.30            110            276 256 
 URE  HZ EP   1   21 7  1.84                             113   -0.76 5  288 292 
 URE  HN ES   4   21 7 33.27                             113   -1.75 0  288 292 
 CBOC HZ EP   2   21 7  9.49                             110    1.10 3  337 252 
 CBOC HN ES       21 7 44.57                             110   -0.77 7  337 252 
 CBOC HZ I        21 7 51.29         2.6 0.16            106            337 252 
 ANIL HZ EP   4   21 7  9.49                             108   -1.63 0  360 225 
 ANIL HE ES   2   21 7 50.86                             108    0.67 3  360 225 
 PRA  HZ EP       21 7 15.06                             107    0.34 6  393 210 
 PRA  HN ES       21 7 57.34                             107    0.74 6  393 210 
 PRA  HZ I        21 8  3.12         6.1 0.30            103            393 210 
 ORTC HZ EP   2   21 7 15.28                             106    0.11 3  397 217 
 ORTC HN ES   1   21 7 57.95                             106    0.54 4  397 217 
 ORTC HZ E      D 21 8  3.31                                            397 217 
 ORTC HZ I        21 8  3.43         4.4 0.40            103            397 217 
 SJC  HZ EP   4 D 21 7 15.39                             106   -1.57 0  412 327 
 SJC  HE ES   4   21 7 56.92                             106   -3.67 0  412 327 
 SJC  HZ I        21 8  0.89         5.9 0.50            103            412 327 
                                                                                
