 2013  916 2157 40.0 L   5.744 -73.934109.1  RSN  6 0.4 1.5LRSN                1
 GAP= 90        1.00       3.9     3.6  9.5 -0.1469E+01 -0.1235E+01  0.9118E+00E
 Epicentro: ALBANIA - SANTANDER                                                3
 ACTION:UPD 13-10-22 09:23 OP:ep   STATUS:               ID:20130916215740 L   I
 OLDACT:UP  13-09-16 21:51 OP:cam  STATUS:               ID:20130916214959     3
 OLDACT:REG 13-09-16 21:39 OP:cam  STATUS:               ID:20130916214959     3
 2013-09-16-2149-59M.COL___269                                                 6
 STAT SP IPHASW D HRMM SECON CODA AMPLIT PERI AZIMU VELO AIN AR TRES W  DIS CAZ7
 RUS  HZ EP   1   2157 59.96                             136    0.00 7 95.6  80 
 RUS  HN ES       2158 15.20                             136   -0.3010 95.6  80 
 RUS  HZ I        2158 16.61         3.1 0.20            141           95.6  80 
 PTB  HZ EP     C 2157 59.47                             133   -0.6810  105 327 
 PTB  HN ES       2158 15.47                             133   -0.3710  105 327 
 PTB  HZ I        2158 18.95         9.9 0.16            138            105 327 
 NOR  HZ EP   1   2158  0.86                             133    0.64 7  106 259 
 NOR  HN ES       2158 16.36                             133    0.3910  106 259 
 NOR  HZ I        2158 18.56        10.6 0.16            136            106 259 
 BAR2 SZ EP       2158  2.40                             127    0.0710  125  42 
 BAR2 SZ ES       2158 20.38                             127    0.6510  125  42 
 BAR2 SZ I        2158 20.82         7.8 0.20            133            125  42 
 CHI  HZ EP       2158  2.37                             128   -0.1810  125 170 
 CHI  HN ES   1   2158 20.02                             128   -0.11 7  125 170 
 CHI  HZ I        2158 24.18         2.9 0.38            131            125 170 
 BRR  HZ EP       2158  4.96                             121    0.18 9  153   9 
                                                                                
