 2016  216 2254 11.6 L   6.737 -73.210143.7  RSN  7 0.3 1.7LRSN                1
 GAP=223        0.39       3.6     4.2  5.1  0.6188E+01  0.6648E+01  0.4269E+01E
 Epicentro: VILLANUEVA - SANTANDER                                             3
 ACTION:UPD 16-03-04 21:26 OP:rebc STATUS:               ID:20160216225411 L   I
 OLDACT:REG 16-02-17 03:32 OP:dnl  STATUS:               ID:20160216224750     3
 2016-02-16-2247-50M.COL___319                                                 6
 STAT SP IPHASW D HRMM SECON CODA AMPLIT PERI AZIMU VELO AIN AR TRES W  DIS CAZ7
 BAR2 EZ EP   2   2254 30.63                             173   -0.27 5 16.3 169 
 BAR2 EZ ES   2   2254 45.75                             173   -0.17 5 16.3 169 
 BAR2 EZ I        2254 47.20        10.5 0.20            169           16.3 169 
 BRR  HZ EP   2   2254 32.62                             153    0.18 5 68.9 306 
 BRR  HE ES   2   2254 48.76                             153    0.10 5 68.9 306 
 BRR  HZ I        2254 53.47        14.8 0.32            152           68.9 306 
 RUS  HZ EP   2   2254 34.70                             145   -0.05 5 94.4 171 
 RUS  HE ES   2   2254 52.94                             145    0.17 5 94.4 171 
 RUS  HZ I        2254 55.37         4.1 0.32            145           94.4 171 
 PTB  HZ EP   2   2254 37.50                             133   -0.20 5  140 261 
 PTB  HE ES   2   2254 58.47                             133    0.44 5  140 261 
 PTB  HZ I        2254 59.45         7.0 0.16            132            140 261 
 ZAR  HZ EP   2   2254 43.79                             122    0.23 4  200 295 
 ZAR  HE ES   2   2255  8.03                             122   -0.43 4  200 295 
 ZAR  HZ I        2255 13.41         5.6 0.22            124            200 295 
 CHI  HZ EP   2   2254 48.75                             118    0.45 4  240 194 
 CHI  HN ES   2   2255 16.59                             118   -0.30 4  240 194 
 CHI  HZ I        2255 24.62         2.1 0.34            118            240 194 
 GUY2CHE ES   2   2255 26.88                             113   -0.24 4  291 235 
 GUY2CHZ I        2255 36.86         3.4 0.24                           291 235 
                                                                                
