 2012 1016 2229 14.8 L   5.924 -73.622112.0  RSN  4 0.1 1.8LRSN                1
 GAP=262        0.32       4.5    13.3 11.0  0.4056E+02  0.1365E+03  0.2732E+02E
 Epicentro: BARBOSA - SANTANDER                                                3
 ACTION:UPD 12-11-22 17:04 OP:ep   STATUS:               ID:20121016222914 L   I
 2012-10-16-2228-20M.COL___202                                                 6
 STAT SP IPHASW D HRMM SECON CODA AMPLIT PERI AZIMU VELO AIN AR TRES W  DIS CAZ7
 RUS  HZ EP       2229 32.41                             149    0.0610 59.8  93 
 RUS  HN ES   1   2229 45.96                             149   -0.10 7 59.8  93 
 RUS  HN I        2229 47.63         7.0 0.22                          59.8  93 
 BAR2 SZ EP       2229 34.05                             138    0.0210 88.5  33 
 BAR2 SZ ES   1   2229 49.09                             138    0.05 7 88.5  33 
 BAR2 SZ I        2229 50.56        24.1 0.38                          88.5  33 
 BRR  HZ EP       2229 37.51                             126   -0.0410  131 356 
 BRR  HN I        2229 56.88        21.8 0.14                           131 356 
 GIR2 SZ EP   3   2229 37.91                             125   -0.32 2  136  20 
                                                                                
