 2010  916 2005 15.4 L   6.748 -73.212148.7  RSN  4 0.1 1.4LRSN                1
 GAP=155        0.42       4.5     9.1  7.0  0.2998E+02 -0.4520E+02 -0.1757E+02E
 Epicentro: VILLANUEVA - SANTANDER                                             3
 ACTION:UP  11-02-18 11:03 OP:tino STATUS:               ID:20100916200515 L   I
 2010-09-16-2003-08S.COL___118                                                 6
 STAT SP IPHASW D HRMM SECON CODA AMPLIT PERI AZIMU VELO SNR AR TRES W  DIS CAZ7
 BAR2 SZ EP   1   20 5 35.04                             173    -0.2 7   18 170 
 BAR2 SZ I        20 5 51.20         7.7 0.28                            18 170 
 BRR  HZ EP       20 5 36.78                             154     0.110   68 306 
 BRR  HE ES       20 5 53.25                             154     0.010   68 306 
 BRR  HZ I        20 5 57.13        12.1 0.21                            68 306 
 RUS  HZ EP   1   20 5 39.02                             146    -0.1 7   96 171 
 RUS  HE ES   1   20 5 57.67                             146     0.1 7   96 171 
 RUS  HZ I        20 5 58.50         4.2 0.30                            96 171 
 GUE  SZ EP   1   20 5 41.02                             138     0.1 7  124  15 
 GUE  SZ I        20 5 53.14         0.8 0.04                           124  15 
                                                                                
