 2013 1216 2121 16.7 L   6.783 -73.160146.9  RSN  5 0.4 1.5LRSN                1
 GAP=135        0.96       5.1     5.0  7.7 -0.2411E+01  0.2112E+01  0.1152E+02E
 Epicentro: LOS SANTOS - SANTANDER                                             3
 ACTION:UPD 14-01-13 10:18 OP:ep   STATUS:               ID:20131216212116 L   I
 OLDACT:REG 13-12-16 21:38 OP:carl STATUS:               ID:20131216211400     3
 2013-12-16-2114-00M.COL___285                                                 6
 STAT SP IPHASW D HRMM SECON CODA AMPLIT PERI AZIMU VELO AIN AR TRES W  DIS CAZ7
 BRR  HZ EP       2121 38.40                             153    0.4210 70.7 300 
 BRR  HE ES       2121 54.81                             153    0.2510 70.7 300 
 PAM  SZ EP       2121 39.48                             150    0.2610 79.9  40 
 PAM  SN ES       2121 56.38                             150   -0.3810 79.9  40 
 PAM  SZ I        2121 57.31         5.2 0.38            152           79.9  40 
 RUS  HZ EP       2121 40.61                             145    0.1310 98.8 175 
 RUS  HN ES       2121 58.93                             145   -0.0610 98.8 175 
 RUS  HZ I        2122  0.93         6.3 0.40            144           98.8 175 
 PTB  HZ EP       2121 42.75                             133   -0.87 9  146 259 
 PTB  HN ES       2122  4.65                             133    0.05 9  146 259 
 CHI  HZ EP       2121 54.43                             118    0.17 8  246 195 
                                                                                
