 2012 1116 2222  5.0 L   6.793 -73.137144.6  RSN 13 0.5 2.1LRSN                1
 GAP=138        0.93       3.5     4.3  5.9 -0.1555E+01  0.7930E+01  0.2874E+01E
 Epicentro: LOS SANTOS - SANTANDER                                             3
 ACTION:UPD 12-12-05 15:33 OP:}ep  STATUS:               ID:20121116222205 L   I
 2012-11-16-2219-49M.COL___221                                                 6
 STAT SP IPHASW D HRMM SECON CODA AMPLIT PERI AZIMU VELO AIN AR TRES W  DIS CAZ7
 BAR2 SZ EP       2222 24.46                             171   -0.0610 22.8 193 
 BAR2 SZ ES   1   2222 39.66                             171   -0.04 7 22.8 193 
 BAR2 SZ I        2222 45.77        33.0 0.40                          22.8 193 
 GIR2 SZ EP       2222 24.36                             167   -0.2410 32.2 349 
 GIR2 SZ ES   1   2222 39.40                             167   -0.45 7 32.2 349 
 BRR  HZ EP       2222 26.46                             152    0.3310 72.4 299 
 BRR  HN ES   1   2222 43.62                             152    1.04 7 72.4 299 
 BRR  HZ I        2222 46.35        25.0 0.14                          72.4 299 
 PAM  SZ EP       2222 27.41                             150    0.2810 77.4  39 
 PAM  SN ES   1   2222 44.50                             150    0.15 7 77.4  39 
 PAM  SZ I        2222 48.92        12.6 0.34                          77.4  39 
 RUS  HZ EP   1   2222 28.52                             144   -0.10 7 99.8 177 
 RUS  HN ES   1   2222 47.08                             144    0.08 7 99.8 177 
 RUS  HZ I        2222 48.23        12.5 0.32                          99.8 177 
 PTB  HZ EP   1   2222 31.40                             132   -0.58 7  149 259 
 PTB  HN ES   1   2222 52.21                             132   -0.79 7  149 259 
 PTB  HZ I        2222 56.58        19.7 0.16                           149 259 
 ZAR  HZ EP   1   2222 37.32                             122   -0.21 6  205 292 
 ZAR  HN ES   1   2223  3.15                             122    0.28 6  205 292 
 ZAR  HZ I        2223  9.45        16.3 0.32                           205 292 
 NOR  HZ EP   1   2222 41.09                             118    0.35 6  235 235 
 NOR  HN ES   1   2223  7.48                             118   -1.10 6  235 235 
 NOR  HZ I        2223 14.90        15.6 0.50                           235 235 
 SML  HZ EP   1   2222 41.33                             117   -0.39 6  245 335 
 SML  HN ES   1   2223  9.67                             117   -0.65 6  245 335 
 CHI  HZ EP   1   2222 42.21                             117   -0.41 6  248 195 
 CHI  HN ES   1   2223 11.88                             117   -0.05 6  248 195 
 CHI  HZ I        2223 17.87         6.3 0.34                           248 195 
 HEL  HZ EP   1   2222 46.24                             114    0.96 6  273 256 
 HEL  HN ES   1   2223 17.26                             114    0.60 6  273 256 
 HEL  HZ I        2223 23.10        11.4 0.46                           273 256 
 RREF HN ES   2   2223 27.25                             111    0.12 3  322 230 
 RREF HZ I        2223 34.89         7.5 0.28                           322 230 
 PRA  HZ EP   1   2222 58.96                             106    0.46 4  392 210 
 PRA  HN ES   1   2223 40.91                             106    0.71 4  392 210 
 PRA  HZ I        2223 45.53         6.1 0.30                           392 210 
                                                                                
