 2013 1116 2254 30.2 L   6.765 -73.130143.9  RSN  6 0.4 1.6LRSN                1
 GAP=140        0.97       4.6     5.7  6.8 -0.7055E+01  0.7749E+01  0.2708E+01E
 Epicentro: LOS SANTOS - SANTANDER                                             3
 ACTION:UPD 14-01-09 16:28 OP:ep   STATUS:               ID:20131116225430 L   I
 OLDACT:DUP 13-11-16 22:37 OP:jn   STATUS:               ID:20131116225001d    3
 2013-11-16-2250-00M.COL___279                                                 6
 STAT SP IPHASW D HRMM SECON CODA AMPLIT PERI AZIMU VELO AIN AR TRES W  DIS CAZ7
 BAR2 SZ ES       2255  3.98                             172   -0.6510 19.9 197 
 BAR2 SZ I        2255  5.82        16.2 0.36            169           19.9 197 
 BRR  HZ EP       2254 51.39                             151    0.0410 74.6 301 
 BRR  HN ES       2255  8.34                             151    0.5010 74.6 301 
 BRR  HZ I        2255 11.63         9.4 0.40            148           74.6 301 
 PAM  SZ EP       2254 52.36                             150    0.0210 79.4  37 
 PAM  SN ES       2255  9.71                             150    0.1010 79.4  37 
 PAM  SZ I        2255 11.70         8.2 0.56            155           79.4  37 
 RUS  HZ EP       2254 53.54                             145    0.0510 96.6 177 
 RUS  HN ES       2255 11.69                             145    0.0410 96.6 177 
 RUS  HZ I        2255 13.32         3.2 0.28            147           96.6 177 
 PTB  HZ EP       2254 56.49                             131   -0.62 9  149 260 
 PTB  HN ES   2   2255 17.39                             131   -0.71 5  149 260 
 PTB  HZ I        2255 24.89         4.7 0.42            131            149 260 
 SPBC HZ EP       2254 58.53                             129    0.15 9  161 220 
 SPBC HN ES       2255 20.93                             129    0.57 9  161 220 
 SPBC HZ I        2255 25.57         5.8 0.38            130            161 220 
                                                                                
