 2016  616 2147 45.4 L   6.845 -73.150146.5  RSN 22 0.6 2.6LRSN                1
 GAP= 69        1.28       3.1     3.2  5.4 -0.1416E+01  0.5385E+01  0.2383E+01E
 Epicentro: LOS SANTOS - SANTANDER                                             3
 ACTION:UPD 16-07-21 22:19 OP:rebc STATUS:               ID:20160616214745 L   I
 OLDACT:UP  16-06-17 05:59 OP:edw  STATUS:               ID:20160616213749d    3
 OLDACT:DUP 16-06-17 05:50 OP:edw  STATUS:               ID:20160616213749d    3
 2016-06-16-2137-48M.COL___346                                                 6
 STAT SP IPHASW D HRMM SECON CODA AMPLIT PERI AZIMU VELO AIN AR TRES W  DIS CAZ7
 BAR2 EZ IP     C 2148  5.34                             169    0.0810 28.1 187 
 BAR2 EZ ES       2148 19.96                             169   -0.7610 28.1 187 
 BAR2 EZ I        2148 23.46        91.8 0.22                          28.1 187 
 BRR  HZ EP       2148  7.22                             153    0.7110 68.5 295 
 BRR  HE ES       2148 23.46                             153    0.5010 68.5 295 
 BRR  HZ I        2148 25.58        63.5 0.14                          68.5 295 
 PAM  EZ EP     C 2148  8.25                             152    0.7210 74.0  42 
 PAM  EN ES       2148 25.47                             152    0.7010 74.0  42 
 PAM  EZ I        2148 30.10        40.1 0.42                          74.0  42 
 RUS  HZ EP       2148  9.21                             143   -0.4110  106 176 
 RUS  HE ES       2148 28.03                             143   -0.4510  106 176 
 RUS  HZ I        2148 29.60        37.4 0.40                           106 176 
 PTB  HZ EP       2148 12.15                             132   -0.36 9  148 257 
 PTB  HN ES       2148 33.13                             132   -0.50 9  148 257 
 PTB  HZ I        2148 38.58        55.0 0.40                           148 257 
 OCA  HZ EP       2148 13.03                             131   -0.31 9  155 353 
 OCA  HN ES       2148 34.69                             131   -0.42 9  155 353 
 TAM  HZ EP       2148 13.14                             130   -0.20 9  157 107 
 TAM  HZ I        2148 34.37        29.1 0.34                           157 107 
 TAM  HN ES       2148 35.40                             130    0.29 9  157 107 
 SPBC HZ EP       2148 14.27                             128   -0.06 9  167 218 
 SPBC HN ES       2148 35.94                             128   -0.92 9  167 218 
 SPBC HZ I        2148 42.09        77.3 0.34                           167 218 
 ZAR  HZ EP       2148 18.03                             123    0.34 9  202 291 
 ZAR  HE ES       2148 43.83                             123    0.98 9  202 291 
 ZAR  HZ I        2148 50.38        70.3 0.30                           202 291 
 NOR  HZ EP       2148 21.49                             118    0.02 8  237 233 
 NOR  HE ES       2148 50.12                             118    0.54 8  237 233 
 NOR  HZ I        2148 53.55        48.3 0.20                           237 233 
 CHI  HZ EP       2148 23.56                             117   -0.12 8  253 195 
 CHI  HE ES       2148 53.31                             117   -0.19 8  253 195 
 CHI  HZ I        2149  0.49        12.1 0.48                           253 195 
 HEL  HZ EP       2148 26.39                             115    0.62 8  273 255 
 HEL  HE ES       2148 57.03                             115   -0.20 8  273 255 
 HEL  HZ I        2149  2.64        22.1 0.42                           273 255 
 URE  HZ EP       2148 26.03                             114   -0.25 7  282 291 
 URE  HN ES       2148 56.92                             114   -1.23 7  282 291 
 URE  HZ I        2149  6.65        24.2 0.26                           282 291 
 SOCV BZ EP   4   2148 27.09                             112   -1.17 0  299  58 
 SOCV BN ES   4   2148 59.33                             112   -2.34 0  299  58 
 GUY2CHZ EP       2148 30.05                             112    0.70 7  304 234 
 GUY2CHN ES       2149  4.41                             112    0.80 7  304 234 
 GUY2CHZ I        2149 11.80        27.3 0.74                           304 234 
 VIL  SZ EP   4   2148 29.65                             112    0.23 0  308 191 
 VIL  SE ES   4   2149  2.10                             112   -1.63 0  308 191 
 PTGC HZ EP   4   2148 28.25                             111   -1.62 0  313 159 
 PTGC HE ES   4   2149  1.76                             111   -2.76 0  313 159 
 ELA  HZ EP       2148 32.74                             110    0.10 7  332 229 
 ELA  HN ES       2149  9.50                             110    0.04 7  332 229 
 CBOC HZ EP       2148 33.22                             110    0.72 7  335 251 
 CBOC HN ES       2149  9.31                             110    0.10 7  335 251 
 ANIL HZ EP       2148 35.96                             108    0.33 6  361 224 
 ANIL HN ES       2149 15.04                             108    0.25 6  361 224 
 ANIL HZ I        2149 25.28        43.2 0.34                           361 224 
 PRA  HZ EP       2148 39.63                             106    0.18 6  396 209 
 PRA  HN ES       2149 22.59                             106    1.00 6  396 209 
 ORTC HZ EP       2148 39.55                             106   -0.26 6  399 216 
 ORTC HE ES       2149 22.36                             106    0.14 6  399 216 
 SJC  HZ EP       2148 39.33                             106   -1.17 6  405 327 
 SJC  HN ES   4   2149 20.70                             106   -2.76 0  405 327 
 PAL  HZ EP       2148 40.02                             106   -0.85 6  408 238 
 PAL  HN ES       2149 22.67                             106   -1.43 6  408 238 
 PAL  HZ I        2149 24.62         7.0 0.12                           408 238 
 CRJC HZ EP       2148 46.33                             103   -1.04 5  463   4 
 CRJC HE ES   4   2149 33.75                             103   -1.94 0  463   4 
                                                                                
