 2011  516 2056 29.1 L   6.833 -73.074145.5  RSN  4 0.2 1.4LRSN                1
 GAP=144        0.51       4.2     6.5  6.6  0.6781E+01 -0.6396E+01  0.6928E+00E
 Epicentro: LOS SANTOS - SANTANDER                                             3
 ACTION:UP  11-06-29 08:53 OP:tino STATUS:               ID:20110516205629 L   I
 2011-05-16-2054-00S.COL___135                                                 6
 STAT SP IPHASW D HRMM SECON CODA AMPLIT PERI AZIMU VELO SNR AR TRES W  DIS CAZ7
 BAR2 SZ EP   1   2056 48.61                             168    -0.2 7   29 204 
 BAR2 SZ ES   2   2057  4.14                             168     0.0 5   29 204 
 BAR2 SZ I        2057  6.36         6.2 0.91                            29 204 
 PAM  SZ EP   2   2056 50.95                             153     0.1 5   70  36 
 PAM  SE ES   2   2057  7.76                             153     0.0 5   70  36 
 BRR  HZ EP   1   2056 50.24                             151    -0.3 7   77 293 
 BRR  HZ I        2056 52.39         9.3 0.36                            77 293 
 BRR  HE ES   1   2057  7.43                             151     0.2 7   77 293 
 RUS  HZ EP   1   2056 53.40                             143     0.4 7  104 181 
 RUS  HN ES   1   2057 11.62                             143    -0.1 7  104 181 
 RUS  HZ I        2057 13.10         1.4 0.42                           104 181 
                                                                                
