 2017  916 2111 35.1 L   7.007 -72.901133.8  RSN  4 0.4 1.3LRSN                1
 GAP=265        0.74       5.1     6.8  6.9  0.1635E+02  0.1758E+00 -0.1462E+01E
 Epicentro: SANTA BARBARA - SANTANDER                                          3
 ACTION:UPD 17-10-05 19:13 OP:rebc STATUS:               ID:20170916211135 L   I
 OLDACT:DUP 17-09-17 04:29 OP:dhb  STATUS:               ID:20170916210744d    3
 2017-09-16-2108-00M.COL___417                                                 6
 STAT SP IPHASW D HRMM SECON CODA AMPLIT PERI AZIMU VELO AIN AR TRES W  DIS CAZ7
 BRR  HZ EP       2111 56.33                             144    0.0610 90.3 277 
 BRR  HN ES       2112 12.98                             144    0.2210 90.3 277 
 BRR  HZ I        2112 13.99         7.1 0.10            140           90.3 277 
 RUS  HZ EP       2111 59.90                             135    0.1810  125 189 
 RUS  HN ES       2112 18.57                             135   -0.3210  125 189 
 RUS  HZ I        2112 19.50         0.9 0.36            133            125 189 
 ZAR  HZ EP       2112  8.82                             117   -0.01 8  223 284 
 ZAR  HE ES   2   2112 33.65                             117   -1.46 4  223 284 
 ZAR  HZ I        2112 38.04         4.1 0.20            116            223 284 
 NOR  HZ EP       2112 14.07                             112   -0.06 8  270 234 
 NOR  HN ES       2112 44.79                             112    0.24 8  270 234 
 NOR  HZ I        2112 47.57         1.2 0.13            111            270 234 
                                                                                
