 2014  716 2343 37.5 L   6.642 -73.458106.9  RSN  4 0.4 1.4LRSN                1
 GAP=164        0.97       8.3     5.7  9.8  0.6192E+01  0.8164E+01  0.1672E+02E
 Epicentro: EL CARMEN - SANTANDER                                              3
 ACTION:UPD 15-03-16 20:44 OP:nd   STATUS:               ID:20140716234337 L   I
 OLDACT:UP  14-07-17 05:14 OP:cam  STATUS:               ID:20140716234000     3
 OLDACT:REG 14-07-17 03:58 OP:cam  STATUS:               ID:20140716234000     3
 2014-07-16-2340-00M.COL___282                                                 6
 STAT SP IPHASW D HRMM SECON CODA AMPLIT PERI AZIMU VELO AIN AR TRES W  DIS CAZ7
 BAR2 SZ EP       2343 53.30                             163    0.5710 31.0 100 
 BRR  HZ EP       2343 53.19                             149   -0.5710 58.5 331 
 BRR  HE ES       2344  6.33                             149   -0.1110 58.5 331 
 BRR  HZ I        2344  8.84        10.9 0.36            150           58.5 331 
 PTB  HZ EP       2343 57.77                             130   -0.2110  111 264 
 PTB  HN ES       2344 13.88                             130   -0.0610  111 264 
 PTB  HZ I        2344 20.49         2.9 0.18            130            111 264 
 ZAR  HZ EP       2344  5.12                             115   -0.07 9  181 301 
 ZAR  HN ES       2344 27.32                             115    0.55 9  181 301 
 ZAR  HZ I        2344 31.71         2.9 0.30            118            181 301 
                                                                                
