 2011  916 2302 21.3 L   6.613 -73.052116.0  RSN  4 0.5 1.3LRSN                1
 GAP=157        0.76      10.6    16.3 21.1  0.1054E+03 -0.1701E+03 -0.1240E+03E
 Epicentro: CURITI - SANTANDER                                                 3
 *BRR-RUS-PAM                                                                  3
 ACTION:UPD 12-07-13 15:57 OP:ep   STATUS:               ID:20110916230221 L   I
 2011-09-16-2258-03S.COL___171                                                 6
 STAT SP IPHASW D HRMM SECON CODA AMPLIT PERI AZIMU VELO AIN AR TRES W  DIS CAZ7
 BAR2 SZ EP   2   23 2 37.82                             173    0.67 5 14.6 261 
 BAR2 SZ I        23 2 54.42         5.3 0.21                          14.6 261 
 RUS  HZ EP   2   23 2 41.24                             144    0.65 5 79.7 182 
 RUS  HZ I        23 2 43.82         1.7 0.34                          79.7 182 
 RUS  HN ES   2   23 2 55.09                             144   -0.57 5 79.7 182 
 PAM  SZ EP   2   23 2 41.13                             140   -0.17 5 89.3  26 
 BRR  HZ EP   1   23 2 40.31                             140   -0.46 7 91.1 307 
 BRR  HZ I        23 2 42.89        13.6 0.28                          91.1 307 
 BRR  HE ES   2   23 2 56.42                             140    0.44 5 91.1 307 
                                                                                
