 2012  716 2118 27.4 L   6.738 -73.166142.8  RSN  6 0.4 1.6LRSN                1
 GAP=137        1.02       5.2     5.5  7.5 -0.3516E+01  0.6811E+01  0.1847E+01E
 Epicentro: VILLANUEVA - SANTANDER                                             3
 ACTION:UPD 12-08-14 11:45 OP:ep   STATUS:               ID:20120716211827 L   I
 2012-07-16-2110-00M.COL___196                                                 6
 STAT SP IPHASW D HRMM SECON CODA AMPLIT PERI AZIMU VELO AIN AR TRES W  DIS CAZ7
 BAR2 SZ EP       2118 46.73                             173     0.210   16 186 
 BAR2 SZ I        2118 47.25        11.0 0.13            172             16 186 
 BAR2 SZ ES       2119  1.43                             173    -0.110   16 186 
 BRR  HZ EP       2118 48.57                             151     0.210   73 304 
 BRR  HZ I        2118 49.12        16.9 0.12            150             73 304 
 BRR  HN ES       2119  5.27                             151     0.610   73 304 
 PAM  SZ EP       2118 49.63                             148    -0.110   84  38 
 PAM  SN ES       2119  6.67                             148    -0.510   84  38 
 RUS  HZ EP       2118 50.71                             145     0.310   94 174 
 RUS  HZ I        2118 51.71         3.9 0.08            144             94 174 
 RUS  HN ES       2119  8.34                             145     0.010   94 174 
 PTB  HZ EP       2118 53.47                             132    -0.4 9  144 261 
 PTB  HN ES   1   2119 13.78                             132    -0.6 7  144 261 
 PTB  HZ I        2119 17.94         4.0 0.31            130            144 261 
 NOR  SE ES   2   2119 29.26                             119    -0.3 4  229 236 
