 2014  116 2030 18.3 L   6.803 -73.148143.2  RSN 12 0.5 2.9LRSN 3.1WRSN        1
 SPEC AVERAGE  MO 13.8 ST  3.6 OM  2.6 f0 3.32 R0.6350 AL 0.00 WI 20.0 MW  3.1 3
 SPEC SD       MO  0.2 ST  4.1 OM  0.5 f0 1.89 R0.3050 AL      WI      MW  0.2 3
 GAP= 71        1.13       3.4     3.5  6.3 -0.1062E+01  0.2853E+01  0.5155E+01E
 Epicentro: LOS SANTOS - SANTANDER                                             3
 SPEC BAR2SH Z MO 14.3 ST  1.8 OM  2.7 f0 2.04 R0.7618 AL-0.00 WI 20.0 MW  3.4 3
 SPEC BAR2SH Z T203051 K 0.000 GD  145 VS 4.20 DE 3.20 Q0300.0 QA 0.60 VS 4.20 3
 SPEC BRR HH Z MO 13.4 ST  4.3 OM  1.8 f0 5.26 R0.2954 AL-0.00 WI 20.0 MW  2.9 3
 SPEC BRR HH Z T203054 K 0.000 GD  159 VS 4.20 DE 3.20 Q0300.0 QA 0.60 VS 4.20 3
 SPEC PAM SH Z MO 13.8 ST0.319 OM  2.2 f0 1.62 R0.9593 AL-0.00 WI 20.0 MW  3.1 3
 SPEC PAM SH Z T203055 K 0.000 GD  162 VS 4.20 DE 3.20 Q0300.0 QA 0.60 VS 4.20 3
 SPEC RUS HH Z MO 13.7 ST0.498 OM  2.1 f0 1.98 R0.7848 AL-0.00 WI 20.0 MW  3.1 3
 SPEC RUS HH Z T203058 K 0.000 GD  175 VS 4.20 DE 3.20 Q0300.0 QA 0.60 VS 4.20 3
 SPEC PTB HH Z MO 13.6 ST 11.3 OM  1.9 f0 6.20 R0.2506 AL-0.00 WI 20.0 MW  3.0 3
 SPEC PTB HH Z T2031 3 K 0.000 GD  205 VS 4.20 DE 3.20 Q0300.0 QA 0.60 VS 4.20 3
 SPEC TAM HH Z MO 13.7 ST0.767 OM  2.0 f0 2.32 R0.6698 AL-0.00 WI 20.0 MW  3.1 3
 SPEC TAM HH Z T2031 5 K 0.000 GD  211 VS 4.20 DE 3.20 Q0300.0 QA 0.60 VS 4.20 3
 SPEC SPBCHH Z MO 13.6 ST  9.4 OM  1.9 f0 5.72 R0.2717 AL-0.00 WI 20.0 MW  3.0 3
 SPEC SPBCHH Z T2031 6 K 0.000 GD  216 VS 4.20 DE 3.20 Q0300.0 QA 0.60 VS 4.20 3
 SPEC CHI HH Z MO 14.0 ST0.308 OM  2.1 f0 1.43 R1.0867 AL-0.00 WI 20.0 MW  3.2 3
 SPEC CHI HH Z T203123 K 0.000 GD  287 VS 4.20 DE 3.20 Q0300.0 QA 0.60 VS 4.20 3
 SPECGUY2CHH Z MO 14.3 ST  0.4 OM  2.4 f0 1.12 R  1.39 AL-0.00 WI 20.0 MW  3.5 3
 SPECGUY2CHH Z T203134 K       GD333.3 VS 4.20 DE 3.20 Q0300.0 QA 0.60 VS 4.20 3
 OLDACT:REG 14-01-16 21:04 OP:jn   STATUS:               ID:20140116203000     3
 ACTION:UPD 14-03-13 09:55 OP:ep   STATUS:               ID:20140116203018 L   I
 OLDACT:UP  14-01-16 21:27 OP:jn   STATUS:               ID:20140116203000     3
 OLDACT:UP  14-01-16 21:27 OP:jn   STATUS:               ID:20140116203000     3
 2014-01-16-2030-00M.COL___285                                                 6
 STAT SP IPHASW D HRMM SECON CODA AMPLIT PERI AZIMU VELO AIN AR TRES W  DIS CAZ7
 BAR2 SZ EP       2030 37.75                             170    0.1210 23.6 189 
 BAR2 SZ ES       2030 52.67                             170   -0.0310 23.6 189 
 BAR2 SZ I        2030 54.07       321.3 0.22            166           23.6 189 
 BRR  HZ EP       2030 39.58                             152    0.4310 70.8 298 
 BRR  HN ES       2030 56.38                             152    0.9710 70.8 298 
 BRR  HZ I        2030 59.11        50.9 0.36            163           70.8 298 
 BRR  SZ I        2031  0.50        49.3 0.12                          70.8 298 
 PAM  SZ IP     C 2030 40.48                             150    0.2410 77.3  40 
 PAM  SN ES       2030 57.44                             150    0.0910 77.3  40 
 PAM  SZ I        2031 40.52       275.2 0.24            144           77.3  40 
 RUS  HZ IP     D 2030 41.64                             143   -0.1810  101 176 
 RUS  HN ES       2031  0.13                             143   -0.0410  101 176 
 RUS  HZ I        2031  1.60        71.5 0.32            149            101 176 
 RUS  SZ I        2031 42.77        88.0 0.50                           101 176 
 PTB  HZ EP       2030 44.38                             131   -0.66 9  148 259 
 PTB  HN ES       2031  5.49                             131   -0.41 9  148 259 
 PTB  SZ I        2031  7.31        79.3 0.42            148            148 259 
 PTB  HZ I        2031  7.49        91.5 0.44                           148 259 
 TAM  HZ IP     C 2030 45.99                             130    0.18 9  155 105 
 TAM  HN ES       2031  7.04                             130   -0.22 9  155 105 
 TAM  SZ I        2031 45.96       192.1 0.34            129            155 105 
 OCA  HN ES       2031  7.50                             129   -0.78 9  160 353 
 OCA  HZ I        2031 13.36        89.7 0.22            133            160 353 
 SPBC HZ EP       2030 46.60                             128   -0.01 9  163 219 
 SPBC HN ES       2031  8.08                             128   -0.61 9  163 219 
 SPBC HZ I        2031 11.45       113.6 0.26            142            163 219 
 SPBC SZ I        2031 46.85        93.6 0.20                           163 219 
 ZAR  HN ES   1   2031 15.76                             122    0.07 6  204 292 
 ZAR  HZ I        2031 22.37        61.4 0.30            133            204 292 
 SML  HN ES   2   2031 22.02                             117   -1.14 4  243 335 
 CHI  HZ EP       2030 55.97                             117    0.09 8  249 195 
 CHI  HN ES       2031 25.07                             117   -0.12 8  249 195 
 CHI  HZ I        2031 29.12        25.7 0.62            125            249 195 
 CHI  SZ I        2031 57.07        72.6 0.50                           249 195 
 GUY2CHZ EP       2031  2.93                             112    1.15 7  301 235 
 GUY2CHN ES       2031 35.98                             112    0.28 7  301 235 
 GUY2CHZ I        2031 44.29        37.2 0.34                           301 235 
 GUY2CSZ I        2032  4.52        58.8 0.56                           301 235 
                                                                                
