 2015 1016 2335 16.2 L   6.787 -73.112144.2  RSN  9 0.4 1.9LRSN                1
 GAP=141        0.84       3.0     3.5  5.1  0.8365E+00  0.7518E+01  0.3682E+01E
 Epicentro: LOS SANTOS - SANTANDER                                             3
 ACTION:UPD 15-12-22 20:40 OP:cam  STATUS:               ID:20151016233516 L   I
 OLDACT:REG 15-10-17 03:12 OP:mh   STATUS:               ID:20151016232748     3
 2015-10-16-2327-48M.COL___341                                                 6
 STAT SP IPHASW D HRMM SECON CODA AMPLIT PERI AZIMU VELO AIN AR TRES W  DIS CAZ7
 BAR2 EZ EP     C 2335 35.64                             171    0.0310 22.9 200 
 BAR2 EZ ES       2335 50.76                             171   -0.0110 22.9 200 
 BAR2 EZ I        2335 52.00        17.9 0.20            169           22.9 200 
 BRR  HZ EP   2   2335 36.95                             151   -0.44 5 75.2 298 
 BRR  HN ES       2335 54.36                             151    0.4310 75.2 298 
 BRR  HZ I        2335 57.76        13.2 0.30            149           75.2 298 
 PAM  EZ IP       2335 38.57                             151    0.4110 76.2  37 
 PAM  EE ES       2335 54.97                             151   -0.3310 76.2  37 
 PAM  EZ I        2335 57.61        11.1 0.46            154           76.2  37 
 RUS  HZ EP     C 2335 39.73                             144    0.0710 99.0 178 
 RUS  HZ I        2335 40.71         6.8 0.18            145           99.0 178 
 RUS  HN ES       2335 57.85                             144   -0.1210 99.0 178 
 ZAR  HE ES       2336 14.57                             121    0.08 8  208 292 
 ZAR  HZ I        2336 19.85         8.5 0.34            121            208 292 
 NOR  HZ EP   1   2335 51.99                             118   -0.07 6  237 235 
 NOR  HN ES       2336 19.69                             118   -0.35 8  237 235 
 NOR  HZ I        2336 24.60         6.7 0.38            118            237 235 
 CHI  HZ EP       2335 53.91                             117    0.16 8  248 196 
 CHI  HN ES       2336 22.54                             117   -0.51 8  248 196 
 CHI  HZ I        2336 30.09         3.4 0.42            118            248 196 
 URE  HZ EP       2335 57.18                             113   -0.44 7  288 292 
 URE  HN ES       2336 29.28                             113   -0.67 7  288 292 
 URE  HZ I        2336 35.98         6.5 0.20            113            288 292 
 GUY2CHZ EP       2336  0.53                             112    0.56 7  303 235 
 GUY2CHE ES       2336 34.85                             112    0.73 7  303 235 
 GUY2CHZ I        2336 42.12         7.1 0.44                           303 235 
                                                                                
