 2015  116 2336 14.8 L   6.837 -73.171141.3  RSN 14 0.4 1.9LRSN                1
 GAP=132        1.08       2.7     4.0  5.6 -0.1887E+01  0.6513E+01  0.1171E+01E
 Epicentro: ZAPATOCA - SANTANDER                                               3
 ACTION:UPD 15-03-02 15:40 OP:nd   STATUS:               ID:20150116233614 L   I
 OLDACT:REG 15-01-17 05:17 OP:fm   STATUS:               ID:20150116232748     3
 2015-01-16-2327-48M.COL___265                                                 6
 STAT SP IPHASW D HRMM SECON CODA AMPLIT PERI AZIMU VELO AIN AR TRES W  DIS CAZ7
 BAR2 EZ EP       2336 33.06                             169   -0.8710 27.0 183 
 BAR2 EZ ES       2336 48.73                             169   -0.1510 27.0 183 
 BAR2 EZ I        2336 50.34        13.1 0.14            167           27.0 183 
 BRR  HZ EP       2336 34.82                             153   -0.3610 66.8 297 
 BRR  HE ES       2336 51.49                             153    0.3910 66.8 297 
 BRR  HZ I        2336 56.96        11.4 0.14            147           66.8 297 
 PAM  SZ EP       2336 37.07                             150    0.6510 76.2  43 
 PAM  SE ES       2336 53.93                             150    0.6110 76.2  43 
 PAM  SZ I        2336 54.85        11.0 0.18            155           76.2  43 
 RUS  HZ EP       2336 38.32                             142   -0.0710  105 175 
 RUS  HN ES       2336 56.79                             142   -0.0310  105 175 
 RUS  HZ I        2336 59.26         5.9 0.68            145            105 175 
 PTB  HZ EP       2336 40.65                             131   -0.54 9  146 257 
 PTB  HE ES       2337  1.08                             131   -0.72 9  146 257 
 PTB  HZ I        2337  8.77        10.8 0.74            129            146 257 
 OCA  HZ EP       2336 41.59                             129   -0.72 9  156 354 
 OCA  HN ES       2337  3.63                             129   -0.17 9  156 354 
 OCA  HZ I        2337  7.57         7.1 0.36            130            156 354 
 SPBC HZ EP       2336 43.13                             128    0.08 9  165 217 
 SPBC HE ES       2337  5.05                             128   -0.07 9  165 217 
 SPBC HZ I        2337  9.61        14.7 0.20            128            165 217 
 ZAR  HZ EP       2336 47.03                             122    0.54 9  200 291 
 ZAR  HN ES       2337 11.47                             122    0.23 9  200 291 
 ZAR  HZ I        2337 17.45         8.8 0.38            121            200 291 
 NOR  HZ EP       2336 50.28                             117    0.04 8  235 233 
 NOR  HE ES       2337 18.38                             117    0.46 8  235 233 
 NOR  HZ I        2337 23.54         4.8 0.20            118            235 233 
 SML  HZ EP   1   2336 50.85                             117    0.24 6  239 335 
 SML  HE ES       2337 18.65                             117    0.08 8  239 335 
 SML  HZ I        2337 30.13        11.8 0.10            117            239 335 
 CHI  HZ EP       2336 52.82                             116    0.26 8  252 194 
 CHI  HN ES       2337 21.91                             116   -0.14 8  252 194 
 CHI  HZ I        2337 26.95         5.9 0.32            117            252 194 
 URE  HZ I        2337 39.17         5.1 0.16            113            280 291 
 RREF HZ EP       2337  0.79                             110    0.02 7  322 229 
 RREF HE ES       2337 37.16                             110    0.50 7  322 229 
 RREF HZ I        2337 45.92         4.7 0.46            111            322 229 
 TOL  SE ES       2337 41.32                             108    0.79 7  344 224 
 TOL  SZ I        2337 50.30         8.2 0.48            109            344 224 
                                                                                
