 2012 1116 2041  9.7 L   7.458 -73.166138.1  RSN  9 0.4 1.9LRSN                1
 GAP=115        0.87       3.6     4.6  6.4  0.2159E+01  0.7697E+01 -0.6948E+00E
 Epicentro: EL PLAYON - SANTANDER                                              3
 ACTION:UPD 12-12-05 15:33 OP:}ep  STATUS:               ID:20121116204109 L   I
 2012-11-16-2040-00M.COL___233                                                 6
 STAT SP IPHASW D HRMM SECON CODA AMPLIT PERI AZIMU VELO AIN AR TRES W  DIS CAZ7
 GIR2 SZ EP   1   2041 29.02                             162    0.18 7 42.1 184 
 GIR2 SZ ES   1   2041 43.88                             162    0.13 7 42.1 184 
 PAM  SZ IP     C 2041 30.18                             158    0.3610 53.2 104 
 PAM  SN ES   1   2041 45.67                             158    0.18 7 53.2 104 
 PAM  SZ I        2041 48.57         8.7 0.50                          53.2 104 
 BRR  HZ EP   1   2041 30.43                             151    0.35 7 71.7 237 
 BRR  HN ES   1   2041 46.44                             151    0.49 7 71.7 237 
 BRR  HZ I        2041 51.80        15.3 0.26                          71.7 237 
 OCA  HZ EP   1   2041 31.88                             146    0.54 7 87.9 349 
 OCA  HN ES   1   2041 47.77                             146   -0.44 7 87.9 349 
 BAR2 SZ EP   1   2041 31.91                             143   -0.11 7 95.8 181 
 BAR2 SZ ES   1   2041 48.99                             143   -0.42 7 95.8 181 
 BAR2 SZ I        2041 51.83        24.8 0.50                          95.8 181 
 RUS  HZ EP   1   2041 38.95                             126   -0.23 7  173 177 
 RUS  HN ES   1   2042  1.49                             126   -0.67 7  173 177 
 PTB  HZ EP       2041 38.56                             125   -0.15 9  175 235 
 PTB  HN ES   1   2042  0.94                             125   -0.39 7  175 235 
 PTB  HZ I        2042  3.99        10.5 0.16                           175 235 
 SML  HZ EP   1   2041 38.69                             124   -0.38 7  179 326 
 SML  HN ES   1   2042  0.97                             124   -1.00 7  179 326 
 ZAR  HZ EP   1   2041 40.27                             123    0.38 7  187 271 
 ZAR  HN ES   1   2042  4.07                             123    0.65 7  187 271 
 ZAR  HZ I        2042  5.35         9.3 0.30                           187 271 
                                                                                
