 2011 1116 2001 31.5 L   6.786 -73.118148.2  RSN  6 0.3 1.7LRSN                1
 GAP=141        0.62       3.8     4.2  5.2  0.3116E+01  0.1117E+01  0.2648E+01E
 Epicentro: LOS SANTOS - SANTANDER                                             3
 ACTION:UPD 12-07-13 16:10 OP:ep   STATUS:               ID:20111116200131 L   I
 2011-11-16-2000-00M.COL___181                                                 6
 STAT SP IPHASW D HRMM SECON CODA AMPLIT PERI AZIMU VELO AIN AR TRES W  DIS CAZ7
 BAR2 SZ EP   1   20 1 51.14                             171   -0.27 7 22.6 198 
 BAR2 SZ ES   1   20 2  6.66                             171   -0.27 7 22.6 198 
 BAR2 SZ I        20 2  9.30        12.8 0.37                          22.6 198 
 BRR  HZ EP   1   20 1 53.10                             152   -0.01 7 74.6 298 
 BRR  HN ES       20 2 10.35                             152    0.4010 74.6 298 
 BRR  HZ I        20 2 15.12        10.2 0.09                          74.6 298 
 PAM  SZ EP       20 1 54.11                             151    0.1810 76.7  37 
 PAM  SN ES   1   20 2 11.21                             151   -0.22 7 76.7  37 
 RUS  HZ EP   1   20 1 55.59                             145    0.22 7 98.9 178 
 RUS  HN ES   1   20 2 13.83                             145   -0.16 7 98.9 178 
 RUS  HZ I        20 2 14.79         4.2 0.44                          98.9 178 
 ZAR  HZ EP   2   20 2  3.70                             122   -0.76 4  207 292 
 ZAR  HE ES   1   20 2 29.79                             122   -0.37 6  207 292 
 ZAR  HZ I        20 2 34.87         5.8 0.27                           207 292 
 CHI  HZ EP   1   20 2  9.56                             118    0.30 6  248 196 
 CHI  HZ I        20 2 44.72         2.8 0.37                           248 196 
                                                                                
