 2013  316 2055  5.2 L   6.761 -73.171140.5  RSN  4 0.5 1.5LRSN                1
 GAP=135        1.18       7.4     6.4 12.7 -0.9968E+01 -0.1105E+02  0.2603E+02E
 Epicentro: LOS SANTOS - SANTANDER                                             3
 ACTION:UPD 13-04-09 14:03 OP:ep   STATUS:               ID:20130316205505 L   I
 2013-03-16-2048-49M.COL___208                                                 6
 STAT SP IPHASW D HRMM SECON CODA AMPLIT PERI AZIMU VELO AIN AR TRES W  DIS CAZ7
 BRR  HZ EP       2055 25.95                             152    0.1810 71.0 303 
 BRR  HN ES       2055 42.56                             152    0.7510 71.0 303 
 PAM  SZ IP     C 2055 27.04                             148   -0.1410 82.5  39 
 PAM  SN ES       2055 43.89                             148   -0.4410 82.5  39 
 RUS  HZ EP       2055 28.49                             144    0.3510 96.5 174 
 RUS  HZ I        2055 29.20         2.7 0.10            143           96.5 174 
 RUS  HN ES   1   2055 45.98                             144   -0.06 7 96.5 174 
 PTB  HN ES       2055 51.10                             131   -0.77 9  144 260 
 PTB  HN I        2055 57.06         7.0 0.40            129            144 260 
                                                                                
