 2011 1216 2256 26.6 L   6.769 -73.100142.2  RSN  5 0.2 1.9LRSN                1
 GAP=144        0.46       3.8     6.3  6.9  0.4939E+00 -0.8916E+00 -0.3665E+01E
 Epicentro: LOS SANTOS - SANTANDER                                             3
 ACTION:UPD 12-07-13 16:16 OP:ep   STATUS:               ID:20111216225626 L   I
 2011-12-16-2250-00M.COL___187                                                 6
 STAT SP IPHASW D HRMM SECON CODA AMPLIT PERI AZIMU VELO AIN AR TRES W  DIS CAZ7
 GIR2 SZ EP   1   2256 45.67                             165   -0.30 7 35.8 343 
 PAM  SZ EP   1   2256 48.67                             150    0.26 7 77.1  35 
 PAM  SZ I        2256 48.86         9.4 0.17                          77.1  35 
 PAM  SN ES   2   2257  5.28                             150   -0.14 5 77.1  35 
 BRR  HZ EP   1   2256 47.49                             150   -0.22 7 77.3 299 
 BRR  HZ I        2256 47.66        45.2 0.14                          77.3 299 
 BRR  HN ES   2   2257  4.59                             150    0.40 5 77.3 299 
 RUS  HZ EP   1   2256 49.84                             144    0.12 7 96.9 179 
 RUS  HN ES   2   2257  7.68                             144   -0.09 5 96.9 179 
 RUS  HZ I        2257  9.88         6.0 0.23                          96.9 179 
 OCA  SZ EP   1   2256 55.09                             128    0.07 7  164 352 
                                                                                
