 2011  416 2230 55.4 L   6.764 -73.117148.6  RSN  9 0.3 4.0LRSN                1
 GAP=165        0.65       4.2     5.9  4.9 -0.1724E+02 -0.2131E+00  0.3667E+01E
 Epicentro: LOS SANTOS - SANTANDER                                             3
 ACTION:UP  11-06-22 15:31 OP:REBC STATUS:               ID:20110416223055 L   I
 2011-04-16-2228-33S.COL___140                                                 6
 STAT SP IPHASW D HRMM SECON CODA AMPLIT PERI AZIMU VELO SNR AR TRES W  DIS CAZ7
 BAR2 SZ EP   1   2231 15.49                             172     0.1 8   20 201 
 BAR2 SZ ES   1   2231 30.51                             172    -0.4 8   20 201 
 BRR  HZ EP   1   2231 17.35                             152     0.2 8   76 300 
 BRR  HZ I        2231 17.64      2000.6 0.19                            76 300 
 BRR  HN ES   1   2231 34.29                             152     0.2 8   76 300 
 PAM  SZ EP   1   2231 18.30                             151     0.3 8   79  36 
 PAM  SZ I        2231 18.60      1303.5 0.25                            79  36 
 PAM  SN ES   2   2231 35.64                             151     0.0 5   79  36 
 BRI  SZ IP       2231 19.99                             141     0.210  111  19 
 BRI  SZ ES   2   2231 39.09                             141     0.3 5  111  19 
 BRI  SZ I        2231 44.58      1152.9 0.46                           111  19 
 GRA  SZ IP       2231 21.28                             137     0.110  129  16 
 GRA  SZ I        2231 22.47      1310.4 0.35                           129  16 
 GRA  SZ ES   1   2231 41.20                             137    -0.1 7  129  16 
 OCA  SZ EP       2231 23.65                             130    -0.7 9  165 352 
 OCA  SZ ES   2   2231 47.21                             130     0.3 5  165 352 
 OCA  SZ I        2231 52.43      1557.3 0.38                           165 352 
 NOR  SZ EP   1   2231 31.29                             119    -0.1 6  235 236 
 NOR  SN ES   1   2231 59.46                             119     0.1 6  235 236 
 TOL  SZ EP   1   2231 43.90                             110     0.1 5  343 225 
 PRA  HZ EP   1   2231 48.81                             107     0.0 4  390 210 
 PRA  HN ES   1   2232 30.62                             107     0.1 4  390 210 
                                                                                
