 2013  616 2040 50.6 L   6.804 -73.114140.2  RSN 11 0.5 2.1LRSN                1
 GAP=194        1.18       4.3     5.8  6.9  0.2560E+00  0.1072E+02 -0.3709E+00E
 Epicentro: LOS SANTOS - SANTANDER                                             3
 ACTION:UPD 14-01-08 09:55 OP:ep   STATUS:               ID:20130616204050 L   I
 OLDACT:REG 13-06-16 22:47 OP:nd   STATUS:               ID:20130616203959     3
 2013-06-16-2039-59M.COL___261                                                 6
 STAT SP IPHASW D HRMM SECON CODA AMPLIT PERI AZIMU VELO AIN AR TRES W  DIS CAZ7
 BAR2 SZ EP       2041  8.84                             170   -0.7710 24.6 198 
 BAR2 SZ ES       2041 24.34                             170   -0.0810 24.6 198 
 BAR2 SZ I        2041 25.79        18.4 0.18            171           24.6 198 
 GIR2 SZ EP       2041  9.47                             167   -0.1710 31.6 344 
 GIR2 SZ I        2041 26.49         5.5 0.16            165           31.6 344 
 BRR  HZ IP     C 2041 11.47                             151    0.1310 74.1 297 
 BRR  HN ES       2041 27.74                             151    0.2410 74.1 297 
 BRR  HZ I        2041 28.87        15.1 0.14            150           74.1 297 
 RUS  HN EP       2041 14.27                             142    0.4310  101 178 
 RUS  HE ES       2041 32.45                             142    0.4910  101 178 
 RUS  HN I        2041 33.95        33.4 0.42            142            101 178 
 PTB  HZ EP   2   2041 16.51                             130   -0.95 5  151 259 
 PTB  HN ES       2041 37.35                             130   -1.05 9  151 259 
 PTB  HZ I        2041 38.97        15.7 0.58            130            151 259 
 OCA  HZ EP   4   2041 10.53                             128   -7.97 0  160 352 
 OCA  HN ES   4   2041 39.32                             128   -0.93 0  160 352 
 OCA  HZ I        2041 44.15        13.9 0.56            126            160 352 
 NOR  HZ EP       2041 25.86                             117   -0.50 8  238 235 
 NOR  HN ES       2041 54.77                             117    0.53 8  238 235 
 NOR  HZ I        2042  0.38        11.6 0.18            116            238 235 
 SML  HZ EP       2041 26.98                             116   -0.07 8  245 335 
 SML  HN ES       2041 55.94                             116    0.46 8  245 335 
 SML  HZ I        2041 57.99        26.4 0.22            114            245 335 
 ROSC BZ EP   4   2041 29.91                             115    1.23 0  255 212 
 ROSC BN ES   4   2042  0.29                             115    1.93 0  255 212 
 HEL  HZ EP       2041 31.55                             113    0.61 7  276 256 
 HEL  HN ES       2042  3.01                             113    0.62 7  276 256 
 HEL  HZ I        2042  8.05         8.9 0.54            112            276 256 
 GUY2CHZ EP   4   2041 35.40                             111    1.08 0  304 235 
 GUY2CHN ES   4   2042  7.40                             111   -1.01 0  304 235 
 GUY2CHZ I        2042 14.10         4.9 0.40                           304 235 
 PRA  HZ EP       2041 44.13                             105   -0.06 6  394 210 
 PRA  HN ES       2042 25.65                             105   -0.34 6  394 210 
 PRA  HZ I        2042 30.98         4.6 0.28            104            394 210 
                                                                                
