 2017  716 2228 26.0 L   6.823 -73.151140.3  RSN 16 0.6 2.5LRSN                1
 GAP=110        1.40       4.7     4.2  7.7  0.7035E+00  0.9214E+01  0.7347E+01E
 Epicentro: LOS SANTOS - SANTANDER                                             3
 ACTION:UPD 17-08-30 15:33 OP:rebc STATUS:               ID:20170716222826 L   I
 OLDACT:UP  17-07-17 07:29 OP:dani STATUS:               ID:20170716222741     3
 OLDACT:REG 17-07-17 06:22 OP:dani STATUS:               ID:20170716222741     3
 2017-07-16-2228-00M.COL___395                                                 6
 STAT SP IPHASW D HRMM SECON CODA AMPLIT PERI AZIMU VELO AIN AR TRES W  DIS CAZ7
 BAR2 EZ EP     C 2228 44.83                             169   -0.2210 25.7 188 
 BAR2 EZ I        2229  0.69        78.5 0.32            166           25.7 188 
 BRR  HZ IP     C 2228 46.56                             152    0.0810 69.5 297 
 BRR  HN ES       2229  3.28                             152    0.8410 69.5 297 
 BRR  HZ I        2229  6.96        52.7 0.18            151           69.5 297 
 PAM  EZ EP     C 2228 47.49                             150   -0.0810 75.9  41 
 PAM  EN ES       2229  4.64                             150    0.2710 75.9  41 
 PAM  EZ I        2229  6.64        66.0 0.50            150           75.9  41 
 RUS  HZ EP     C 2228 48.90                             142   -0.5310  103 176 
 RUS  HN ES       2229  7.16                             142   -0.5310  103 176 
 RUS  HZ I        2229  9.36        37.6 0.20            138            103 176 
 PTB  HZ EP     D 2228 51.71                             131   -0.83 9  148 258 
 PTB  HN ES       2229 12.68                             131   -0.54 9  148 258 
 PTB  HZ I        2229 15.00        25.9 0.18            128            148 258 
 SPBC HZ EP       2228 53.81                             127   -0.45 9  165 218 
 SPBC HN ES       2229 15.97                             127   -0.31 9  165 218 
 SPBC HZ I        2229 22.90        51.4 0.40            125            165 218 
 YPLC HZ IP     C 2228 55.42                             125   -0.25 9  179 152 
 YPLC HE ES       2229 19.51                             125    0.71 9  179 152 
 YPLC HZ I        2229 22.19        29.1 0.30            122            179 152 
 ZAR  HZ EP       2228 57.31                             121   -0.65 9  203 292 
 ZAR  HN ES       2229 22.91                             121    0.04 9  203 292 
 ZAR  HZ I        2229 30.72        35.1 0.14            119            203 292 
 TABC EZ EP       2229  3.26                             118    1.61 8  232 210 
 TABC EZ I        2229 34.65        34.9 0.44            115            232 210 
 NOR  HZ EP       2229  1.14                             117   -0.41 8  236 234 
 NOR  HN ES       2229 28.71                             117   -0.54 8  236 234 
 NOR  HZ I        2229 31.16        20.1 0.22            115            236 234 
 ROSC BZ EP   9   2229  5.94                             115    1.89 0  255 211 
 ROSC BN ES       2229 35.79                             115    0.19 8  255 211 
 ROSC BZ I        2229 39.91        30.8 0.35            113            255 211 
 HEL  HZ EP       2229  6.88                             114    0.91 8  272 255 
 HEL  HN ES       2229 37.34                             114    0.22 8  272 255 
 HEL  HZ I        2229 43.76        15.5 0.50            112            272 255 
 GUY2CHZ EP       2229 10.13                             111    0.64 7  302 234 
 GUY2CHN ES       2229 44.55                             111    1.15 7  302 234 
 GUY2CHZ I        2229 51.87        10.0 0.32                           302 234 
 CBOC HZ EP       2229 13.50                             109    0.76 7  334 252 
 CBOC HN ES       2229 48.86                             109   -0.32 7  334 252 
 CBOC HZ I        2229 59.21         5.9 0.54            107            334 252 
 PAL  HZ EP       2229 20.82                             105   -0.28 6  406 239 
 SJC  HZ EP   3   2229 19.05                             105   -2.07 1  407 327 
 SJC  HN ES   4   2230  0.22                             105   -3.88 0  407 327 
 SJC  HZ I        2230  4.34         6.5 0.52            104            407 327 
                                                                                
