 2015  116 2318 32.2 L   6.810 -73.139142.4  RSN  9 0.4 1.6LRSN                1
 GAP=137        1.05       3.4     4.4  6.5  0.9039E+00  0.8385E+01  0.2592E+01E
 Epicentro: LOS SANTOS - SANTANDER                                             3
 ACTION:UPD 15-03-02 15:40 OP:nd   STATUS:               ID:20150116231832 L   I
 OLDACT:REG 15-01-17 05:16 OP:fm   STATUS:               ID:20150116231746     3
 2015-01-16-2317-46M.COL___265                                                 6
 STAT SP IPHASW D HRMM SECON CODA AMPLIT PERI AZIMU VELO AIN AR TRES W  DIS CAZ7
 BAR2 EZ ES       2319  6.32                             170   -0.1310 24.5 191 
 BAR2 EZ I        2319  8.08         9.6 0.10            170           24.5 191 
 BRR  HN ES       2319 10.13                             152    0.9310 71.4 297 
 PAM  SZ EP       2318 54.61                             151    0.6510 76.0  40 
 PAM  SE ES       2319 10.48                             151   -0.4610 76.0  40 
 PAM  SZ I        2319 14.18         4.6 0.60            151           76.0  40 
 RUS  HZ EP       2318 55.81                             143    0.1310  102 177 
 RUS  HN ES       2319 13.62                             143   -0.3910  102 177 
 RUS  HZ I        2319 15.97         4.4 0.22            143            102 177 
 PTB  HZ EP       2318 58.66                             131   -0.31 9  149 258 
 PTB  HN ES       2319 19.61                             131   -0.25 9  149 258 
 PTB  HZ I        2319 21.63         4.0 0.14            130            149 258 
 ZAR  HZ EP       2319  4.30                             122   -0.15 9  204 292 
 ZAR  HE ES       2319 29.22                             122   -0.39 9  204 292 
 ZAR  HZ I        2319 35.96         3.7 0.30            121            204 292 
 NOR  HE ES       2319 36.02                             118    0.34 8  236 234 
 NOR  HZ I        2319 39.28         3.4 0.18            117            236 234 
 SML  HE ES       2319 36.66                             117   -0.26 8  243 335 
 SML  HZ I        2319 42.29         7.2 0.10            117            243 335 
 CHI  HZ EP       2319  9.84                             116    0.00 8  250 195 
 CHI  HN ES       2319 39.34                             116    0.14 8  250 195 
 CHI  HZ I        2319 44.77         1.5 0.46            116            250 195 
                                                                                
