 2013  116 2210 41.6 L   6.777 -73.203141.6  RSN  6 0.4 1.7LRSN                1
 GAP=177        0.87       3.3     5.2  7.6  0.5127E+01  0.5839E+00  0.5476E+01E
 Epicentro: ZAPATOCA - SANTANDER                                               3
 ACTION:UPD 13-02-15 09:14 OP:ep   STATUS:               ID:20130116221041 L   I
 2013-01-16-2210-00M.COL___241                                                 6
 STAT SP IPHASW D HRMM SECON CODA AMPLIT PERI AZIMU VELO AIN AR TRES W  DIS CAZ7
 BRR  HZ EP       2211  2.09                             153   -0.0110 67.0 303 
 BRR  HN ES       2211 18.39                             153    0.3310 67.0 303 
 BRR  HN I        2211 23.98        13.5 0.16            152           67.0 303 
 BRR  HN E      C 2212 34.84                                           67.0 303 
 RUS  HZ EP       2211  4.50                             143   -0.3410 98.7 172 
 RUS  HN ES       2211 22.92                             143   -0.0110 98.7 172 
 RUS  HN I        2211 25.91         3.8 0.42            144           98.7 172 
 PTB  HZ EP       2211  7.24                             132   -0.41 9  141 259 
 PTB  HN ES       2211 27.45                             132   -0.49 9  141 259 
 PTB  HN I        2211 34.43         6.0 0.16            132            141 259 
 OCA  HN ES       2211 31.70                             128   -0.08 9  162 355 
 ZAR  HN ES       2211 38.42                             122    0.42 9  199 294 
 ZAR  HN I        2211 43.04         7.0 0.46            124            199 294 
 CHI  HZ EP       2211 19.31                             117    0.65 8  245 194 
 CHI  HN ES       2211 47.80                             117    0.27 8  245 194 
 CHI  HN I        2211 57.00         2.8 0.48            119            245 194 
 CHI  HN E        2211 57.63                                            245 194 
                                                                                
