 2010  716 2136  1.3 L   6.785 -73.096146.7  RSN  7 0.2 1.9LRSN                1
 GAP=164        0.59       3.1     6.7  5.8 -0.8882E+00 -0.1114E+02 -0.4867E+01E
 Epicentro: LOS SANTOS - SANTANDER                                             3
 ACTION:UPD 10-12-01 15:18 OP:pat  STATUS:               ID:20100716213601 L   I
 2010-07-16-2133-41S.COL___119                                                 6
 STAT SP IPHASW D HRMM SECON CODA AMPLIT PERI AZIMU VELO AIN AR TRES W  DIS CAZ7
 BAR2 SZ EP       2136 20.94                             171    -0.110   23 204 
 BAR2 SZ ES   1   2136 36.14                             171    -0.3 7   23 204 
 BAR2 SZ I        2136 37.20        28.3 0.28                            23 204 
 GIR2 SZ EP       2136 21.08                             166    -0.110   34 342 
 BRR  HZ EP       2136 22.64                             151    -0.210   77 298 
 BRR  HZ I        2136 22.93        55.8 0.15                            77 298 
 BRR  HN ES   1   2136 39.95                             151     0.2 7   77 298 
 RUS  HZ EP   1   2136 25.16                             145     0.1 7   99 179 
 RUS  HE ES   1   2136 43.83                             145     0.3 7   99 179 
 RUS  HZ I        2136 45.86         9.0 0.42                            99 179 
 GUE  SZ EP       2136 26.05                             139    -0.110  117   9 
 GUE  SZ I        2136 41.78         5.8 0.15                           117   9 
 GRA  SZ EP       2136 26.74                             137     0.110  126  15 
 GRA  SZ ES   1   2136 46.39                             137     0.0 7  126  15 
 GRA  SZ I        2136 48.41         6.2 0.27                           126  15 
 OCA  SZ EP   2   2136 30.50                             129     0.6 5  163 351 
 OCA  SZ ES   2   2136 52.64                             129     0.4 5  163 351 
                                                                                
