 2011  616 2137 12.2 L   6.779 -73.095141.5  RSN  6 0.3 2.2LRSN                1
 GAP=144        0.57       3.1     7.4  5.6 -0.1057E+01  0.1795E+01 -0.2243E+01E
 Epicentro: LOS SANTOS - SANTANDER                                             3
 ACTION:UP  11-07-14 19:05 OP:ep   STATUS:               ID:20110616213712 L   I
 2011-06-16-2135-38S.COL___134                                                 6
 STAT SP IPHASW D HRMM SECON CODA AMPLIT PERI AZIMU VELO SNR AR TRES W  DIS CAZ7
 BAR2 SZ EP   1   2137 31.25                             170     0.0 7   23 205 
 BAR2 SZ ES   1   2137 45.97                             170    -0.2 7   23 205 
 BAR2 SZ I        2137 47.37        54.3 0.24                            23 205 
 PAM  SZ EP   1   2137 34.25                             150     0.4 7   76  35 
 PAM  SN ES   2   2137 50.80                             150     0.0 5   76  35 
 BRR  HZ EP   1   2137 33.08                             150    -0.2 7   77 298 
 BRR  HE ES   2   2137 50.08                             150     0.4 5   77 298 
 BRR  HZ I        2137 51.04        39.5 0.12                            77 298 
 RUS  HZ EP   1   2137 35.34                             144     0.0 7   98 179 
 RUS  HZ I        2137 36.50        13.8 0.15                            98 179 
 RUS  HN ES   1   2137 53.34                             144     0.0 7   98 179 
 OCA  SZ EP   1   2137 39.98                             128    -0.5 7  163 351 
 OCA  SZ ES   2   2138  2.92                             128     0.4 5  163 351 
 OCA  SZ I        2138  4.80        27.0 0.21                           163 351 
 CHI  HZ EP   2   2137 49.71                             116     0.1 4  248 197 
 CHI  HZ I        2137 51.28         5.4 0.26                           248 197 
 CHI  HE ES   2   2138 19.02                             116     0.3 4  248 197 
                                                                                
