 2010  716 2351 41.5 L   6.780 -73.086150.0  RSN  5 0.2 1.6LRSN                1
 GAP=165        0.53       3.7     7.8  7.0  0.5420E+01 -0.2274E+02 -0.6763E+01E
 Epicentro: LOS SANTOS - SANTANDER                                             3
 ACTION:UPD 10-12-01 15:18 OP:pat  STATUS:               ID:20100716235141 L   I
 2010-07-16-2347-23S.COL___119                                                 6
 STAT SP IPHASW D HRMM SECON CODA AMPLIT PERI AZIMU VELO AIN AR TRES W  DIS CAZ7
 BAR2 SZ EP       2352  1.54                             171    -0.110   23 207 
 BAR2 SZ ES   2   2352 16.75                             171    -0.6 5   23 207 
 BAR2 SZ I        2352 20.06        13.4 0.65                            23 207 
 BRR  HZ EP   1   2352  3.51                             151     0.0 7   78 298 
 BRR  HN ES   1   2352 20.79                             151     0.1 7   78 298 
 BRR  HZ I        2352 21.64        11.7 0.17                            78 298 
 RUS  HZ EP   1   2352  5.44                             145    -0.1 7   98 180 
 RUS  HN ES   1   2352 24.56                             145     0.3 7   98 180 
 RUS  HZ I        2352 25.68         4.8 0.41                            98 180 
 GUE  SZ EP   1   2352  6.73                             140     0.0 7  117   9 
 GUE  SZ I        2352 34.07         2.3 0.16                           117   9 
 GRA  SZ EP   2   2352  7.21                             138     0.0 5  126  14 
 GRA  SZ ES   2   2352 27.38                             138     0.2 5  126  14 
 GRA  SZ I        2352 28.78         4.2 0.36                           126  14 
                                                                                
