 2014  616 2015 24.4 L   6.882 -73.283121.0  RSN  6 0.3 1.9LRSN                1
 GAP=183        0.62       3.6     4.4  5.2  0.8909E+01 -0.4750E+01 -0.6300E+01E
 Epicentro: BETULIA - SANTANDER                                                3
 ACTION:UPD 14-07-01 22:54 OP:nd   STATUS:               ID:20140616201524 L   I
 OLDACT:UP  14-06-17 03:22 OP:fm   STATUS:               ID:20140616200817     3
 OLDACT:REG 14-06-17 02:47 OP:fm   STATUS:               ID:20140616200817     3
 2014-06-16-2008-17M.COL___264                                                 6
 STAT SP IPHASW D HRMM SECON CODA AMPLIT PERI AZIMU VELO AIN AR TRES W  DIS CAZ7
 BAR2 SZ EP       2015 41.49                             164    0.1310 33.9 161 
 BAR2 SZ ES   1   2015 54.51                             164   -0.08 7 33.9 161 
 BAR2 SZ I        2015 56.00        30.4 0.26            171           33.9 161 
 BRR  HZ EP       2015 41.86                             155   -0.0110 53.6 298 
 BRR  HN ES       2015 55.74                             155    0.2310 53.6 298 
 BRR  HZ I        2015 56.57        14.4 0.24            150           53.6 298 
 RUS  HZ EP       2015 46.87                             135    0.1510  112 169 
 RUS  HE ES   1   2016  3.79                             135   -0.34 7  112 169 
 PTB  HN ES   1   2016  6.41                             128   -0.41 7  135 254 
 PTB  HZ I        2016  8.72        10.2 0.42            128            135 254 
 ZAR  HN ES   1   2016 16.48                             119    0.34 7  187 291 
 ZAR  HZ I        2016 21.05         6.5 0.48            117            187 291 
 SML  HZ EP       2015 58.22                             113    0.08 8  229 338 
 SML  HE ES   1   2016 23.78                             113   -0.69 6  229 338 
 SML  HZ I        2016 35.93         9.0 0.10            111            229 338 
                                                                                
