 2011 1016 2307 47.6 L   6.789 -73.151145.8  RSN  6 0.4 2.7LRSN                1
 GAP=150        0.85       5.3     5.6  7.5 -0.7815E+01  0.1281E+02  0.2744E+00E
 Epicentro: LOS SANTOS - SANTANDER                                             3
 ACTION:UPD 12-07-13 16:04 OP:ep   STATUS:               ID:20111016230747 L   I
 2011-10-16-2307-10S.COL___168                                                 6
 STAT SP IPHASW D HRMM SECON CODA AMPLIT PERI AZIMU VELO AIN AR TRES W  DIS CAZ7
 BAR2 SZ EP       23 8  7.26                             171    0.0810 22.0 189 
 BAR2 SZ ES   1   23 8 21.79                             171   -0.68 7 22.0 189 
 BAR2 SZ I        23 8 24.05       171.3 0.23                          22.0 189 
 BRR  HZ IP     C 23 8  9.14                             152    0.4110 71.3 300 
 BRR  HZ I        23 8  9.42       192.9 0.16                          71.3 300 
 BRR  HN ES   1   23 8 26.02                             152    0.80 7 71.3 300 
 PAM  SZ EP   1   23 8 10.05                             150    0.18 7 78.7  39 
 PAM  SN ES   1   23 8 27.00                             150   -0.26 7 78.7  39 
 PAM  SZ I        23 8 29.47        43.7 0.57                          78.7  39 
 OCA  SZ EP   1   23 8 15.85                             129   -0.15 7  161 353 
 OCA  SZ ES   1   23 8 38.14                             129   -0.02 7  161 353 
 OCA  SZ I        23 8 44.21        37.9 0.23                           161 353 
 ZAR  HZ EP   1   23 8 19.49                             122   -0.52 6  204 293 
 ZAR  HN ES   1   23 8 44.64                             122   -0.67 6  204 293 
 ZAR  HZ I        23 8 52.27        39.4 0.32                           204 293 
 NOR  SZ EP   1   23 8 23.15                             119   -0.02 6  233 235 
 NOR  SN ES   1   23 8 51.11                             119    0.17 6  233 235 
                                                                                
