 2010  216 2252 40.9 L   6.834 -73.131149.0  RSN 10 0.4 3.5LRSN                1
 GAP=142        0.71       3.4     5.8  4.8 -0.7443E+01  0.6419E+01  0.1769E+01E
 Epicentro: LOS SANTOS - SANTANDER                                             3
 ACTION:UP  10-08-24 09:49 OP:vdl  STATUS:               ID:20100216225240 L   I
 2010-02-16-2250-31S.COL___094                                                 6
 STAT SP IPHASW D HRMM SECON CODA AMPLIT PERI AZIMU VELO SNR AR TRES W  DIS CAZ7
 BAR2 SZ IP       2253  0.77                             169    -0.210   27 192 
 BAR2 SZ ES   1   2253 16.61                             169     0.0 7   27 192 
 GIR2 SZ IP       2253  0.80                             169     0.010   28 346 
 GIR2 SZ ES   1   2253 16.40                             169     0.0 7   28 346 
 OCA  SZ EP       2253  9.28                             131     0.2 9  157 352 
 OCA  SZ ES   1   2253 31.41                             131     0.3 7  157 352 
 CHI  HZ EP       2253 19.24                             117     0.1 8  253 195 
 CHI  HE ES   1   2253 49.36                             117     0.3 6  253 195 
 CHI  HZ I        2253 52.11        97.1 0.33                           253 195 
 HEL  HZ EP   1   2253 20.86                             115    -0.7 6  275 255 
 HEL  HE ES   2   2253 52.41                             115    -0.8 4  275 255 
 RREF BZ EP   1   2253 27.81                             111     0.3 5  325 229 
 RREF BZ I        2254 11.41       149.3 0.59                           325 229 
 DBB  SZ IP       2253 28.61                             110     0.0 7  341 274 
 SDV  BZ EP       2253 30.39                             109    -0.2 6  357  50 
 SDV  BZ I        2253 32.35        50.5 0.11                           357  50 
 ANIL BZ EP   1   2253 32.29                             109     1.1 5  361 224 
 ANIL BN ES   2   2254 11.33                             109     0.8 3  361 224 
 ANIL BZ I        2254 18.93       272.4 0.33                           361 224 
 PRA  HZ EP   1   2253 34.15                             107    -0.8 4  396 209 
 PRA  HE ES   2   2254 17.30                             107     0.1 3  396 209 
 PRA  HZ I        2254 23.51       126.6 0.31                           396 209 
                                                                                
