 2011 1217 0029 49.0 L   6.776 -73.096137.0  RSN  4 0.3 1.6LRSN                1
 GAP=144        0.56       4.0     5.7  6.5 -0.8642E+00 -0.1833E+01 -0.1424E+01E
 Epicentro: LOS SANTOS - SANTANDER                                             3
 ACTION:UPD 12-07-13 16:16 OP:ep   STATUS:               ID:20111217002949 L   I
 2011-12-17-0029-00S.MAN___176                                                 6
 STAT SP IPHASW D HRMM SECON CODA AMPLIT PERI AZIMU VELO AIN AR TRES W  DIS CAZ7
 BAR2 SZ EP   1    030  6.97                             170   -0.57 7 22.5 205 
 BAR2 SZ ES   1    030 22.14                             170    0.13 7 22.5 205 
 BAR2 SZ I         030 23.39        12.5 0.20                          22.5 205 
 PAM  SZ EP   1    030 10.52                             150    0.33 7 76.1  35 
 PAM  SE ES   1    030 26.61                             150   -0.12 7 76.1  35 
 BRR  HZ EP   1    030  9.49                             149   -0.07 7 77.3 298 
 BRR  HE ES   1    030 25.71                             149    0.10 7 77.3 298 
 BRR  HZ I         030 30.58        18.0 0.13                          77.3 298 
 RUS  HZ EP   2    030 12.05                             143    0.39 5 97.7 179 
 RUS  HN ES   1    030 29.37                             143    0.01 7 97.7 179 
 RUS  HZ I         030 31.87         3.4 0.47                          97.7 179 
                                                                                
