 2016  417 0334  6.4 L   6.169 -73.850 93.5  RSN 15 0.5 2.0LRSN                1
 GAP= 82        1.22       3.2     2.7  6.6 -0.2236E+01  0.4671E+01  0.3722E+00E
 Epicentro: LANDAZURI - SANTANDER                                              3
 ACTION:UPD 16-05-05 14:22 OP:rebc STATUS:               ID:20160417033406 L   I
 OLDACT:UP  16-04-17 20:02 OP:mh   STATUS:               ID:20160417032745     3
 OLDACT:UP  16-04-17 20:01 OP:mh   STATUS:               ID:20160417032745     3
 OLDACT:UP  16-04-17 20:01 OP:mh   STATUS:               ID:20160417032745     3
 OLDACT:UP  16-04-17 19:58 OP:mh   STATUS:               ID:20160417032745     3
 OLDACT:REG 16-04-17 14:15 OP:ak   STATUS:               ID:20160417032745     3
 2016-04-17-0327-45M.COL___307                                                 6
 STAT SP IPHASW D HRMM SECON CODA AMPLIT PERI AZIMU VELO AIN AR TRES W  DIS CAZ7
 SPBC HZ IP     C  334 21.51                             144   -0.1610 62.2 203 
 SPBC HN ES        334 33.63                             144    0.0510 62.2 203 
 SPBC HZ I         334 34.76        61.3 0.18            143           62.2 203 
 PTB  HZ EP     C  334 22.21                             137   -0.6510 78.6 301 
 PTB  HN ES        334 35.10                             137   -0.6010 78.6 301 
 PTB  HZ I         334 35.37        42.2 0.30            138           78.6 301 
 BAR2 EZ IP     D  334 24.56                             134    0.6310 87.4  58 
 BAR2 EZ ES        334 38.36                             134    0.7710 87.4  58 
 BAR2 EZ I         334 40.68        24.7 0.28            134           87.4  58 
 RUS  HZ EP        334 24.34                             133   -0.1810 90.2 110 
 RUS  HE ES        334 38.50                             133   -0.1510 90.2 110 
 RUS  HZ I         334 40.35        13.6 0.18            133           90.2 110 
 NOR  HZ EP        334 27.04                             121   -0.9510  131 239 
 NOR  HN ES        334 45.26                             121    0.4310  131 239 
 NOR  HZ I         334 46.84        47.0 0.16            121            131 239 
 ROSC BZ EP   1    334 31.14                             117    0.05 7  156 200 
 ROSC BE ES   4    334 51.33                             117    0.98 0  156 200 
 ROSC BZ I         334 57.63        19.8 0.30            117            156 200 
 CHI  HZ EP        334 32.02                             114   -0.75 9  171 176 
 CHI  HN ES        334 53.91                             114    0.58 9  171 176 
 CHI  HZ I         334 58.52         4.5 0.52            114            171 176 
 PAM  EZ EP        334 34.38                             113    0.31 9  181  44 
 PAM  EN ES        334 54.90                             113   -0.75 9  181  44 
 PAM  EZ I         335  0.81        10.4 0.16            113            181  44 
 ZAR  HZ EP        334 34.13                             112    0.38 9  184 323 
 ZAR  HE ES   2    334 55.98                             112    0.90 4  184 323 
 ZAR  HZ I         334 57.77        16.7 0.22            113            184 323 
 HEL  HZ EP        334 35.15                             112    0.72 9  186 271 
 HEL  HN ES        334 55.79                             112   -0.49 9  186 271 
 HEL  HZ I         335  1.04         9.2 0.36            113            186 271 
 GUY2CHZ EP        334 35.72                             111   -0.20 9  198 238 
 GUY2CHN ES        334 59.00                             111    0.06 9  198 238 
 GUY2CHZ I         335  3.84        15.3 0.42                           198 238 
 CBOC HE EP        334 41.06                             107    0.37 8  242 262 
 CBOC HZ ES        335  8.13                             107    0.69 8  242 262 
 CBOC HE I         335  9.69        12.5 0.28            107            242 262 
 ANIL HZ EP        334 42.11                             106   -0.08 8  253 223 
 ANIL HE ES   4    335 11.78                             106    1.68 0  253 223 
 ANIL HZ I         335 12.83        22.1 0.60            106            253 223 
 PTGC HN ES   4    335 15.27                             104   -1.86 0  289 139 
 ORTC HZ EP   1    334 46.43                             103   -0.33 5  294 212 
 ORTC HE ES        335 18.16                             103   -0.07 7  294 212 
 PAL  HZ EP   1    334 48.27                             103    0.31 5  304 243 
 PAL  HN ES   1    335 20.81                             103    0.44 5  304 243 
 PAL  HZ I         335 26.51         3.2 0.46            103            304 243 
                                                                                
