 2012 1217 0618 49.6 L   5.975 -74.006  9.5  RSN  4 0.4 1.1LRSN                1
 GAP=183        0.97       6.3     4.2 12.2  0.1983E+02  0.3845E+02  0.5439E+02E
 Epicentro: LA BELLEZA - SANTANDER                                             3
 ACTION:UPD 13-01-04 14:28 OP:ep   STATUS:               ID:20121217061849 L   I
 2012-12-17-0610-00M.COL___238                                                 6
 STAT SP IPHASW D HRMM SECON CODA AMPLIT PERI AZIMU VELO AIN AR TRES W  DIS CAZ7
 PTB  HZ EP        619  2.36                              94    0.0110 79.9 321 
 PTB  HN ES        619 11.92                              94   -0.3710 79.9 321 
 PTB  HZ I         619 14.88        10.5 0.11                          79.9 321 
 RUS  HZ EP        619  6.79                              93    0.5210  103  95 
 RUS  HE ES        619 18.69                              93   -0.5710  103  95 
 BRR  HZ EP   1    619 10.32                              93    0.51 7  129  15 
 BRR  HE ES   1    619 25.71                              93    0.13 7  129  15 
 BRR  HZ I         619 27.83         2.6 0.59                           129  15 
 HEL  HZ EP        619 16.47                              56    0.35 9  170 278 
 HEL  HN ES   1    619 36.37                              56   -0.43 7  170 278 
 HEL  HZ I         619 39.50         1.9 0.22                           170 278 
                                                                                
