 2017  317 0424 43.9 L   6.774 -73.152155.1  RSN  6 0.4 1.3LRSN                1
 GAP=137        1.14       5.1     5.2  9.1 -0.1832E+01  0.6006E+01  0.6144E+01E
 Epicentro: LOS SANTOS - SANTANDER                                             3
 ACTION:UPD 17-05-25 18:41 OP:jn   STATUS:               ID:20170317042443 L   I
 OLDACT:REG 17-03-17 13:24 OP:cog  STATUS:               ID:20170317041741     3
 2017-03-17-0418-00M.COL___409                                                 6
 STAT SP IPHASW D HRMM SECON CODA AMPLIT PERI AZIMU VELO AIN AR TRES W  DIS CAZ7
 BRR  HZ IP     C  425  6.32                             154    0.1910 72.1 301 
 BRR  HN ES        425 24.41                             154    0.9510 72.1 301 
 BRR  HZ I         425 29.80         4.2 0.40            153           72.1 301 
 PAM  EZ EP        425  7.22                             152   -0.0710 80.0  39 
 PAM  EN ES        425 25.12                             152   -0.4010 80.0  39 
 PAM  EZ I         425 25.56         2.6 0.36            155           80.0  39 
 RUS  HZ EP        425  8.43                             146    0.0210 97.7 176 
 RUS  HN ES        425 27.26                             146   -0.2510 97.7 176 
 RUS  HZ I         425 28.32         2.3 0.30            150           97.7 176 
 PTB  HZ EP        425 11.32                             134   -0.24 9  147 260 
 PTB  HN ES        425 32.40                             134   -0.72 9  147 260 
 PTB  HZ I         425 38.41         3.6 0.32            135            147 260 
 SPBC HZ EP        425 13.46                             132    0.55 9  161 219 
 SPBC HN ES        425 35.66                             132    0.14 9  161 219 
 ZAR  HN ES        425 42.63                             124   -0.25 9  205 293 
                                                                                
