 2015  217 0654 13.9 L   6.844 -73.237138.6  RSN  8 0.5 1.4LRSN                1
 GAP=121        1.22       3.6     6.8  7.9 -0.2885E+01  0.1457E+02 -0.3633E+01E
 Epicentro: ZAPATOCA - SANTANDER                                               3
 ACTION:UPD 15-04-30 21:26 OP:nd   STATUS:               ID:20150217065413 L   I
 OLDACT:UP  15-02-17 17:52 OP:mh   STATUS:               ID:20150217064744     3
 OLDACT:REG 15-02-17 15:04 OP:mh   STATUS:               ID:20150217064744     3
 2015-02-17-0647-44M.COL___293                                                 6
 STAT SP IPHASW D HRMM SECON CODA AMPLIT PERI AZIMU VELO AIN AR TRES W  DIS CAZ7
 BAR2 EZ EP        654 32.38                             168   -0.4610 28.5 168 
 BAR2 EZ ES   1    654 47.30                             168   -0.27 7 28.5 168 
 BAR2 EZ I         654 49.27         5.3 0.20            170           28.5 168 
 BRR  HZ EP        654 33.57                             155   -0.1410 60.0 299 
 BRR  HN ES        654 49.96                             155    0.8310 60.0 299 
 BRR  HZ I         654 56.90         4.7 0.14            150           60.0 299 
 PAM  SZ EP        654 36.14                             148    0.5310 80.7  47 
 PAM  SN ES        654 52.60                             148    0.0810 80.7  47 
 PAM  SZ I         654 55.00         7.0 0.50            154           80.7  47 
 RUS  HZ EP        654 37.59                             141    0.1310  107 171 
 RUS  HN ES        654 55.39                             141   -0.4110  107 171 
 RUS  HZ I         654 57.38         2.4 0.42            148            107 171 
 PTB  HZ EP        654 40.28                             132    0.75 9  139 256 
 PTB  HN ES   4    655  0.37                             132    0.88 0  139 256 
 PTB  HZ I         655  3.49         3.8 0.14            132            139 256 
 OCA  HZ EP        654 41.59                             129    0.43 9  154 357 
 OCA  HN ES        655  2.06                             129   -0.32 9  154 357 
 OCA  HZ I         655 10.63         2.8 0.18            131            154 357 
 SPBC HZ EP        654 41.77                             128    0.08 9  161 215 
 SPBC HN ES        655  2.92                             128   -0.42 9  161 215 
 SPBC HZ I         655 11.21         3.2 0.24            131            161 215 
 SML  HZ EP        654 48.83                             117   -0.41 8  235 337 
 SML  HN ES        655 15.81                             117   -0.97 8  235 337 
 SML  HZ I         655 27.76         2.6 0.22            119            235 337 
                                                                                
