 2017  417 0402 35.1 L   6.841 -73.277  4.1  RSN  4 0.2 1.0LRSN                1
 GAP=133        0.55       1.2     1.5  3.6  0.4029E+00 -0.2436E+00 -0.1031E+00E
 Epicentro: ZAPATOCA - SANTANDER                                               3
 ACTION:UPD 17-05-30 21:13 OP:jn   STATUS:               ID:20170417040234 L   I
 OLDACT:UP  17-04-17 16:17 OP:dani STATUS:               ID:20170417035741d    3
 OLDACT:UP  17-04-17 16:16 OP:dani STATUS:               ID:20170417035741d    3
 OLDACT:UP  17-04-17 16:16 OP:dani STATUS:               ID:20170417035741d    3
 OLDACT:DUP 17-04-17 16:06 OP:dani STATUS:               ID:20170417035741d    3
 OLDACT:UP  17-04-17 16:05 OP:dani STATUS:               ID:20170417035740     3
 OLDACT:REG 17-04-17 13:20 OP:dani STATUS:               ID:20170417035740     3
 2017-04-17-0358-00M.COL___362                                                 6
 STAT SP IPHASW D HRMM SECON CODA AMPLIT PERI AZIMU VELO AIN AR TRES W  DIS CAZ7
 BAR2 EZ EP        4 2 40.26                              47   -0.1010 29.4 159 
 BAR2 EZ ES        4 2 44.37                              47   -0.1310 29.4 159 
 BAR2 EZ I         4 2 44.65        41.3 0.10             47           29.4 159 
 BRR  HZ EP        4 2 44.03                              47   -0.1610 56.4 302 
 BRR  HN ES        4 2 51.36                              47    0.0410 56.4 302 
 BRR  HZ I         4 2 51.90         5.7 0.14             47           56.4 302 
 PAM  EZ EP        4 2 49.33                              47    0.3910 84.3  49 
 PAM  EN ES        4 2 59.53                              47   -0.2310 84.3  49 
 RUS  HZ EP        4 2 52.51                              47    0.1210  107 168 
 RUS  HN ES   1    4 3  6.01                              47    0.11 7  107 168 
 RUS  HZ I         4 3  6.26         3.0 0.23             47            107 168 
                                                                                
