 2010  517 0038  6.2 L   6.792 -73.057147.7  RSN 13 0.5 2.8LRSN                1
 GAP=148        0.99       4.7     7.5  6.9 -0.1752E+02 -0.5838E+01  0.9214E+01E
 Epicentro: LOS SANTOS - SANTANDER                                             3
 ACTION:UP  10-08-24 10:05 OP:vdl  STATUS:               ID:20100517003806 L   I
 2010-05-17-0036-33S.COL___108                                                 6
 STAT SP IPHASW D HRMM SECON CODA AMPLIT PERI AZIMU VELO AIN AR TRES W  DIS CAZ7
 BAR2 SZ IP        038 26.08                             170     0.010   26 212 
 BAR2 SZ ES   1    038 41.04                             170    -0.6 7   26 212 
 BRR  HZ IP     C  038 28.65                             151     0.610   80 296 
 BRR  HZ I         038 28.99       117.7 0.16                            80 296 
 BRR  HN ES   1    038 45.79                             151     0.6 7   80 296 
 BRI  SZ IP     C  038 30.66                             143     0.610  106  16 
 GUE  SZ EP        038 30.87                             140    -0.110  116   7 
 GUE  SZ ES   2    038 50.16                             140    -0.2 5  116   7 
 OCA  SZ IP        038 34.47                             130    -0.4 9  163 350 
 OCA  SZ ES   2    038 56.43                             130    -0.8 5  163 350 
 OCA  SZ I         039  4.80        75.5 0.21                           163 350 
 CHI  HZ EP        038 43.97                             118    -0.2 8  250 197 
 CHI  HN ES   2    039 13.60                             118    -0.2 4  250 197 
 CHI  HZ I         039 19.04        30.5 0.45                           250 197 
 CVER SZ EP        038 47.18                             115     0.2 8  275 204 
 HEL  HZ EP   1    038 47.48                             115     0.0 6  281 256 
 HEL  HZ I         039 24.70        17.7 0.43                           281 256 
 RREF BZ EP   2    038 53.23                             111     0.0 3  329 231 
 RREF BE ES   2    039 29.92                             111     0.1 3  329 231 
 RREF BZ I         039 33.30        29.3 0.27                           329 231 
 DBB  SZ EP        038 54.02                             110    -0.8 6  349 274 
 SDV  BZ EP        038 55.70                             109     0.2 6  354  49 
 SDV  BZ I         038 56.37        13.5 0.30                           354  49 
 ANIL BZ EP   2    038 56.69                             109    -0.1 3  364 226 
 ANIL BN ES   2    039 37.22                             109     1.0 3  364 226 
 ANIL BZ I         039 44.48        46.5 0.33                           364 226 
 PRA  HZ EP        038 59.69                             107    -0.6 6  396 211 
 PRA  HE ES   2    039 42.03                             107    -0.4 3  396 211 
 PRA  HZ I         039 46.31        36.5 0.45                           396 211 
                                                                                
