 2011  917 0838  6.8 L   7.424 -73.179135.0  RSN  6 0.1 1.5LRSN                1
 GAP=111        0.32       2.5     2.9  3.6 -0.1166E+01  0.1441E+01 -0.3286E+01E
 Epicentro: EL PLAYON - SANTANDER                                              3
 ACTION:UPD 12-07-13 15:57 OP:ep   STATUS:               ID:20110917083806 L   I
 2011-09-17-0835-53S.COL___171                                                 6
 STAT SP IPHASW D HRMM SECON CODA AMPLIT PERI AZIMU VELO AIN AR TRES W  DIS CAZ7
 GIR2 SZ EP        838 25.40                             163   -0.0110 38.2 182 
 PAM  SZ EP        838 26.64                             157    0.0810 53.8 100 
 PAM  SE ES   1    838 41.92                             157   -0.06 7 53.8 100 
 BTL  SZ EP        838 26.20                             156   -0.1410 56.7 190 
 BRR  HZ EP        838 26.73                             151    0.1110 68.5 239 
 BRR  HN ES   1    838 42.03                             151   -0.06 7 68.5 239 
 BRR  HZ I         838 44.93         5.0 0.12                          68.5 239 
 OCA  SZ EP        838 28.36                             144    0.0110 91.4 350 
 OCA  SZ I         838 47.06         6.5 0.27                          91.4 350 
 BAR2 SZ EP        838 28.43                             144   -0.0710 92.0 180 
 BAR2 SZ ES   1    838 45.58                             144    0.14 7 92.0 180 
 BAR2 SZ I         838 46.53         7.0 0.24                          92.0 180 
                                                                                
