 2013 1217 0205 37.3 L   6.738 -73.139140.4  RSN  9 0.4 1.8LRSN                1
 GAP=233        0.81       3.6     5.8  5.0  0.6403E+01  0.6819E+01  0.4010E+01E
 Epicentro: JORDAN - SANTANDER                                                 3
 ACTION:UPD 14-01-13 10:18 OP:ep   STATUS:               ID:20131217020537 L   I
 OLDACT:REG 13-12-17 06:29 OP:nd   STATUS:               ID:20131217020000     3
 2013-12-17-0200-00M.COL___285                                                 6
 STAT SP IPHASW D HRMM SECON CODA AMPLIT PERI AZIMU VELO AIN AR TRES W  DIS CAZ7
 BAR2 SZ EP        2 5 55.91                             172   -0.2310 16.9 196 
 BAR2 SZ ES        2 6 10.72                             172   -0.1310 16.9 196 
 BAR2 SZ I         2 6 12.16        42.7 0.24            170           16.9 196 
 BRR  HZ IP     C  2 5 57.65                             150   -0.4310 75.3 303 
 BRR  HN ES        2 6 14.62                             150    0.3110 75.3 303 
 BRR  HZ I         2 6 18.87        10.6 0.28            145           75.3 303 
 RUS  HZ EP        2 5 59.81                             145   -0.1910 93.7 176 
 RUS  HN ES        2 6 18.01                             145    0.2810 93.7 176 
 RUS  HZ I         2 6 19.63         6.7 0.46            145           93.7 176 
 PTB  HZ EP   2    2 6  3.52                             131   -0.24 5  147 261 
 PTB  HN ES   2    2 6 23.40                             131   -1.02 5  147 261 
 PTB  HZ I         2 6 25.70         4.8 0.10            128            147 261 
 SPBC HZ EP        2 6  4.90                             129   -0.00 9  158 221 
 SPBC HN ES        2 6 26.81                             129    0.35 9  158 221 
 SPBC HZ I         2 6 31.48         7.6 0.40            127            158 221 
 ZAR  HN EP        2 6 10.53                             121    0.81 8  207 294 
 ZAR  HE ES   2    2 6 34.35                             121   -0.67 4  207 294 
 ZAR  HN I         2 6 39.71         9.0 0.12            118            207 294 
 CHI  HZ EP        2 6 13.87                             117   -0.11 8  242 196 
 CHI  HN ES        2 6 42.64                             117    0.03 8  242 196 
 CHI  HZ I         2 6 47.64         2.2 0.42            116            242 196 
 PRA  HZ EP        2 6 29.90                             106   -0.06 6  386 210 
 PRA  HN ES   2    2 7 10.95                             106   -0.10 3  386 210 
 PRA  HZ I         2 7 14.78         2.4 0.56            105            386 210 
 SJC  HZ EP   4    2 6 30.00                             105   -3.38 0  415 327 
 SJC  HN ES   4    2 7 12.84                             105   -4.30 0  415 327 
 SJC  HZ I         2 7 34.07         1.9 0.60            104            415 327 
                                                                                
