 2016  417 0103 36.9 L   6.829 -73.084145.1  RSN 12 0.5 2.1LRSN                1
 GAP=123        1.10       3.5     3.8  6.0 -0.4823E+01  0.4205E+01 -0.7465E+00E
 Epicentro: LOS SANTOS - SANTANDER                                             3
 ACTION:UPD 16-05-05 14:22 OP:rebc STATUS:               ID:20160417010336 L   I
 OLDACT:DUP 16-04-17 16:47 OP:ak   STATUS:               ID:20160417005752d    3
 2016-04-17-0057-51M.COL___307                                                 6
 STAT SP IPHASW D HRMM SECON CODA AMPLIT PERI AZIMU VELO AIN AR TRES W  DIS CAZ7
 BAR2 EZ EP        1 3 56.71                             169    0.1110 28.3 203 
 BAR2 EZ ES        1 4 11.54                             169   -0.3910 28.3 203 
 BAR2 EZ I         1 4 12.97        31.2 0.22            168           28.3 203 
 PAM  EZ EP        1 3 59.58                             153    0.8810 70.7  37 
 PAM  EN ES        1 4 16.41                             153    0.7510 70.7  37 
 PAM  EZ I         1 4 18.08        17.7 0.40            155           70.7  37 
 RUS  HZ EP        1 4  0.69                             143   -0.1510  104 180 
 RUS  HE ES        1 4 19.23                             143   -0.2510  104 180 
 RUS  HZ I         1 4 20.44         9.0 0.32            144            104 180 
 PTB  HZ EP        1 4  3.70                             130   -0.83 9  155 258 
 PTB  HN ES   4    1 4 24.63                             130   -1.41 0  155 258 
 PTB  HZ I         1 4 27.15        14.4 0.15            130            155 258 
 OCA  HZ EP   2    1 4  4.58                             130   -0.42 5  158 351 
 OCA  HN ES        1 4 26.50                             130   -0.38 9  158 351 
 OCA  HZ I         1 4 31.29        35.8 0.28            130            158 351 
 ZAR  HZ EP        1 4 10.60                             122    0.72 8  209 291 
 ZAR  HN ES        1 4 35.16                             122   -0.41 8  209 291 
 ZAR  HZ I         1 4 40.69        12.9 0.31            121            209 291 
 NOR  HZ EP   2    1 4 13.27                             118   -0.16 4  242 235 
 NOR  HN ES        1 4 41.44                             118   -0.45 8  242 235 
 NOR  HZ I         1 4 46.11        11.9 0.12            118            242 235 
 CHI  HZ EP        1 4 15.03                             116   -0.11 8  254 196 
 CHI  HE ES        1 4 45.35                             116    0.42 8  254 196 
 CHI  HZ I         1 4 51.81         5.9 0.67            117            254 196 
 HEL  HZ EP   3    1 4 18.09                             114    0.15 2  279 256 
 HEL  HN ES        1 4 50.49                             114    0.57 7  279 256 
 HEL  HZ I         1 4 55.84         5.8 0.32            114            279 256 
 SOCV BZ EP        1 4 19.23                             113    0.11 7  294  57 
 SOCV BN ES   4    1 4 50.59                             113   -1.42 0  294  57 
 GUY2CHZ EP        1 4 21.28                             112   -0.08 7  309 235 
 GUY2CHE ES        1 4 56.26                             112    0.26 7  309 235 
 GUY2CHZ I         1 5  3.41         6.8 0.38                           309 235 
 SDV  BZ EP        1 4 25.88                             108   -0.24 6  353  50 
 SDV  BN ES        1 5  3.73                             108   -0.74 6  353  50 
                                                                                
