 2012 1217 0851 58.7 L   6.549 -73.521114.0  RSN 12 0.4 3.0LRSN                1
 GAP= 54        0.90       2.7     2.8  5.0  0.5025E-01  0.4140E+01  0.1747E+01E
 Epicentro: EL CARMEN DE CHUCURI - SANTANDER                                   3
 ACTION:UPD 13-01-04 14:28 OP:ep   STATUS:               ID:20121217085158 L   I
 2012-12-17-0850-00M.COL___238                                                 6
 STAT SP IPHASW D HRMM SECON CODA AMPLIT PERI AZIMU VELO AIN AR TRES W  DIS CAZ7
 BAR2 SZ IP        852 15.43                             160    0.4410 37.8  83 
 BAR2 SZ ES        852 27.68                             160   -0.0310 37.8  83 
 BAR2 SZ I         852 29.66      1812.7 0.32                          37.8  83 
 BRR  HZ EP        852 16.30                             148    0.2010 65.3 341 
 BRR  HN ES        852 30.07                             148    0.3710 65.3 341 
 RUS  HZ IP     D  852 18.32                             140   -0.0610 87.3 146 
 RUS  HN ES        852 33.62                             140   -0.1210 87.3 146 
 RUS  HN I         852 37.98       146.8 0.29                          87.3 146 
 PTB  HZ IP     D  852 18.19                             135   -0.8610  103 269 
 PTB  HZ I         852 34.32       193.3 0.32                           103 269 
 PAM  SZ EP        852 21.87                             129    0.1110  126  46 
 PAM  SN ES        852 39.29                             129   -0.4710  126  46 
 PAM  SZ I         852 41.61       128.7 0.27                           126  46 
 ZAR  HZ EP        852 27.29                             118    0.56 9  181 305 
 ZAR  HN ES        852 48.88                             118    0.27 9  181 305 
 ZAR  HZ I         852 52.33       149.8 0.55                           181 305 
 OCA  HZ EP        852 27.53                             117   -0.19 9  188   7 
 TAM  HZ IP     C  852 28.19                             116    0.23 9  192  94 
 TAM  HZ I         852 28.51        84.9 0.14                           192  94 
 ROSC BZ EP   4    852 31.98                             114    1.71 0  209 205 
 CHI  HZ EP   1    852 31.39                             113    0.55 6  213 186 
 CHI  HN ES   1    852 56.01                             113    0.08 6  213 186 
 HEL  HZ EP        852 31.93                             112   -0.22 8  226 260 
 HEL  HN ES        852 57.72                             112   -0.54 8  226 260 
 HEL  HZ I         853  1.80        43.9 0.26                           226 260 
 SML  HZ EP   4    852 35.17                             109   -0.03 0  256 346 
 TOL  SZ EP   4    852 39.58                             106   -0.51 0  295 223 
 MON  HZ EP   4    852 44.48                             103   -0.74 0  342 316 
 PRA  HZ EP   1    852 46.30                             103    0.26 5  348 206 
 PRA  HN ES        853 23.12                             103    0.15 6  348 206 
 PRA  HZ I         853 28.38        46.1 0.24                           348 206 
 COD  HZ EP   4    852 50.06                             101    0.92 0  375   1 
 SDV  BZ EP        852 53.20                             100   -0.46 6  410  51 
 YOT  HZ EP   4    852 54.70                              99   -0.34 0  422 228 
                                                                                
