 2014  317 0119 31.8 L   6.422 -73.712 16.3  RSN  6 0.5 1.6LRSN                1
 GAP=133        1.22       5.1     2.4  6.3  0.1985E+01  0.7767E+00 -0.1615E+02E
 Epicentro: SANTA HELENA DEL OPON - SANTANDER                                  3
 ACTION:UPD 14-04-09 23:18 OP:nd   STATUS:               ID:20140317011931 L   I
 OLDACT:UP  14-03-18 05:26 OP:stll STATUS:               ID:20140317011931 L   3
 OLDACT:UP  14-03-17 12:14 OP:mher STATUS:               ID:20140317011808     3
 OLDACT:REG 14-03-17 08:56 OP:mh   STATUS:               ID:20140317011808     3
 2014-03-17-0118-08M.COL___251                                                 6
 STAT SP IPHASW D HRMM SECON CODA AMPLIT PERI AZIMU VELO AIN AR TRES W  DIS CAZ7
 BAR2 SZ EP   1    119 42.11                             102   -0.07 7 61.5  72 
 BAR2 SZ ES   1    119 49.71                             102   -0.55 7 61.5  72 
 PTB  HZ IP     D  119 44.33                              99   -0.8810 83.4 279 
 PTB  HN ES        119 56.35                              99    0.6910 83.4 279 
 PTB  HZ I         119 57.55        15.0 0.18             96           83.4 279 
 RUS  HZ IP        119 47.33                              98    0.4910 90.9 130 
 RUS  HN ES        119 58.40                              98   -0.1610 90.9 130 
 PAM  SZ EP   1    119 56.58                              56    1.09 7  151  48 
 PAM  SE ES        120 13.90                              56   -0.04 9  151  48 
 PAM  SZ I         120 19.69        10.1 0.15             56            151  48 
 ZAR  HZ EP   1    119 57.55                              56   -0.15 7  173 313 
 ZAR  HN ES   1    120 17.78                              56   -0.11 7  173 313 
 ZAR  HZ I         120 20.43         9.5 0.27             56            173 313 
 HEL  HZ EP        120  1.96                              56    0.15 9  203 263 
 HEL  HN ES   1    120 24.53                              56   -0.66 6  203 263 
                                                                                
