 2013  517 0154 51.9 L   6.806 -73.141147.8  RSN 13 0.5 2.2LRSN                1
 GAP=137        1.29       3.7     4.8  6.7 -0.6360E+00  0.1042E+02  0.5981E+01E
 Epicentro: LOS SANTOS - SANTANDER                                             3
 ACTION:UPD 13-06-20 09:51 OP:ep   STATUS:               ID:20130517015451 L   I
 2013-05-17-0150-00M.COL___253                                                 6
 STAT SP IPHASW D HRMM SECON CODA AMPLIT PERI AZIMU VELO AIN AR TRES W  DIS CAZ7
 BAR2 SZ EP        155 11.91                             170    0.1010 24.0 191 
 BAR2 SZ ES        155 26.35                             170   -0.9610 24.0 191 
 BAR2 SZ I         155 28.94        28.4 0.46            168           24.0 191 
 GIR2 SZ EP        155 11.98                             168    0.1610 30.8 349 
 GIR2 SZ ES        155 27.86                             168    0.5210 30.8 349 
 BRR  HZ EP        155 13.77                             153    0.4710 71.4 298 
 BRR  HE ES        155 31.02                             153    1.0510 71.4 298 
 BRR  HZ I         155 35.05        17.9 0.18            148           71.4 298 
 PAM  SZ EP        155 14.67                             151    0.3710 76.6  40 
 PAM  SN ES        155 31.88                             151    0.1210 76.6  40 
 PAM  SZ I         155 34.10        46.6 0.56            150           76.6  40 
 RUS  HZ EP        155 15.75                             144   -0.1610  101 176 
 RUS  HN ES        155 34.66                             144    0.0410  101 176 
 RUS  HZ I         155 37.17        20.6 0.42            140            101 176 
 PTB  HZ EP        155 18.57                             132   -0.54 9  148 259 
 PTB  HN ES        155 39.78                             132   -0.54 9  148 259 
 PTB  HZ I         155 47.44        24.7 0.44            127            148 259 
 OCA  HE ES        155 41.41                             130   -1.09 9  160 353 
 OCA  HZ I         155 47.64        19.9 0.30            127            160 353 
 ZAR  HE ES        155 50.15                             123    0.19 9  204 292 
 ZAR  HZ I         155 56.97        15.9 0.24            119            204 292 
 NOR  HZ EP        155 27.98                             119    0.13 8  235 234 
 NOR  HN ES        155 55.68                             119   -0.20 8  235 234 
 NOR  HZ I         155 58.56        13.3 0.40            115            235 234 
 SML  HN ES        155 56.74                             118   -0.51 8  243 335 
 CHI  HZ EP        155 29.90                             117    0.09 8  249 195 
 CHI  HN ES        155 59.12                             117   -0.24 8  249 195 
 HEL  HZ EP        155 33.04                             115    0.73 8  273 256 
 HEL  HN ES        156  4.02                             115    0.20 8  273 256 
 HEL  HZ I         156 10.22        11.3 0.32            111            273 256 
 PRA  HZ EP        155 45.39                             107   -0.22 6  393 210 
 PRA  HZ I         156 33.20         7.7 0.36            104            393 210 
                                                                                
