 2013  317 0003  9.7 L   6.809 -73.139147.0  RSN 14 0.5 2.6LRSN                1
 GAP= 71        0.89       3.1     3.7  5.5 -0.1171E+00  0.4506E+01  0.6364E+00E
 Epicentro: LOS SANTOS - SANTANDER                                             3
 ACTION:UPD 13-04-09 14:03 OP:ep   STATUS:               ID:20130317000309 L   I
 2013-03-17-0000-00M.COL___244                                                 6
 STAT SP IPHASW D HRMM SECON CODA AMPLIT PERI AZIMU VELO AIN AR TRES W  DIS CAZ7
 BAR2 SZ EP        0 3 29.49                             170    0.0110 24.5 191 
 BAR2 SZ ES   1    0 3 44.29                             170   -0.63 7 24.5 191 
 BAR2 SZ I         0 3 45.66       105.9 0.38            167           24.5 191 
 BRR  HZ IP     C  0 3 31.21                             153    0.2410 71.4 298 
 BRR  HE ES   1    0 3 48.20                             153    0.63 7 71.4 298 
 BRR  HZ I         0 3 51.08        64.5 0.26            143           71.4 298 
 PAM  SZ EP     C  0 3 32.08                             151    0.1310 76.1  40 
 PAM  SN ES   1    0 3 49.21                             151   -0.11 7 76.1  40 
 PAM  SZ I         0 3 51.22       133.3 0.48            147           76.1  40 
 RUS  HZ IP     D  0 3 33.59                             144   -0.0310  102 177 
 RUS  HN ES   1    0 3 51.77                             144   -0.52 7  102 177 
 PTB  HZ EP   4 C  0 3 36.11                             132   -0.72 0  149 259 
 PTB  HN ES   4    0 3 57.53                             132   -0.47 0  149 259 
 PTB  HZ I         0 4  4.33        48.0 0.44            123            149 259 
 TAM  HZ IP     D  0 3 37.88                             131    0.47 9  155 105 
 TAM  HN ES   2    0 3 59.35                             131    0.31 5  155 105 
 OCA  HZ EP   1    0 3 37.41                             130   -0.58 7  159 353 
 OCA  HE ES   1    0 4  0.97                             130    0.89 7  159 353 
 OCA  HZ I         0 4  3.59        43.7 0.24            122            159 353 
 ZAR  HZ EP        0 3 42.03                             123   -0.20 9  204 292 
 ZAR  HN ES   1    0 4  7.60                             123   -0.03 6  204 292 
 ZAR  HZ I         0 4 13.84        34.8 0.36            115            204 292 
 NOR  HZ EP        0 3 45.52                             119   -0.09 8  236 234 
 NOR  HE ES   1    0 4 13.66                             119    0.03 6  236 234 
 NOR  HZ I         0 4 22.71        22.0 0.16            112            236 234 
 SML  HZ E      C  0 0 48.84                                            243 335 
 SML  HZ EP        0 3 45.63                             118   -0.67 8  243 335 
 SML  HN ES   2    0 4 13.99                             118   -0.88 4  243 335 
 HEL  HZ EP   2    0 3 51.30                             115    1.24 4  273 256 
 HEL  HN ES   2    0 4 21.80                             115    0.24 4  273 256 
 HEL  HZ I         0 4 28.74        14.1 0.34            108            273 256 
 VIL  SE ES   2    0 4 26.77                             112   -0.52 4  305 192 
 VIL  SZ I         0 4 38.83        19.8 0.62            107            305 192 
 COD  HZ EP   1    0 3 57.17                             109   -0.82 5  347 354 
 COD  HZ I         0 4 38.62         4.1 0.60            104            347 354 
 PRA  HZ EP        0 4  4.10                             107    0.71 6  393 210 
 PRA  HN ES   1    0 4 45.05                             107   -0.23 4  393 210 
 PRA  HZ I         0 4 53.46        20.4 0.34            102            393 210 
                                                                                
