 2013  117 0552  6.5 L   6.794 -73.165144.0  RSN  9 0.4 2.0LRSN                1
 GAP=134        0.76       3.3     4.4  6.6 -0.3860E+00  0.8571E+01  0.3295E+01E
 Epicentro: LOS SANTOS - SANTANDER                                             3
 ACTION:UPD 13-02-15 09:14 OP:ep   STATUS:               ID:20130117055206 L   I
 2013-01-17-0550-00M.COL___241                                                 6
 STAT SP IPHASW D HRMM SECON CODA AMPLIT PERI AZIMU VELO AIN AR TRES W  DIS CAZ7
 BAR2 SZ EP        552 25.91                             171    0.0010 22.4 185 
 BAR2 SZ ES   1    552 41.10                             171    0.06 7 22.4 185 
 BAR2 SZ I         552 43.62        42.2 0.42            163           22.4 185 
 BRR  HZ IP     C  552 27.74                             153    0.3610 69.7 300 
 BRR  HN ES   4    552 45.15                             153    1.49 0 69.7 300 
 BRR  HZ I         552 47.35        12.8 0.12            139           69.7 300 
 PAM  SZ EP        552 28.64                             150   -0.0110 79.2  40 
 PAM  SN ES   1    552 45.86                             150   -0.06 7 79.2  40 
 PAM  SZ I         552 48.15         8.6 0.56            148           79.2  40 
 RUS  HZ EP   1    552 29.89                             143   -0.16 7  100 175 
 RUS  HN ES   1    552 47.98                             143   -0.43 7  100 175 
 RUS  HZ I         552 49.74        11.4 0.28            137            100 175 
 PTB  HZ EP   1    552 32.53                             132   -0.60 7  146 259 
 PTB  HN ES   1    552 53.58                             132   -0.32 7  146 259 
 PTB  HZ I         553  1.13        18.4 0.52            120            146 259 
 OCA  HN ES   1    552 56.77                             129    0.04 7  161 354 
 OCA  HZ I         553  0.51        15.4 0.26            121            161 354 
 ZAR  HE ES   1    553  4.20                             122    0.45 6  202 293 
 ZAR  HZ I         553 11.22        11.6 0.12            112            202 293 
 CHI  HZ EP        552 44.16                             117    0.18 8  247 195 
 CHI  HN ES   1    553 14.18                             117    0.97 6  247 195 
 CHI  HZ I         553 18.77         3.8 0.30            110            247 195 
 HEL  HZ EP   1    552 45.70                             114   -0.69 6  270 256 
 HEL  HZ I         553 24.20         7.0 0.32            107            270 256 
                                                                                
