 2012  817 0822 16.2 L   6.659 -73.159144.3  RSN  4 0.2 1.7LRSN                1
 GAP=204        0.54       7.9     4.5  5.8 -0.1042E+02  0.2546E+01  0.1078E+02E
 Epicentro: VILLANUEVA - SANTANDER                                             3
 ACTION:UPD 12-09-10 11:56 OP:ep   STATUS:               ID:20120817082216 L   I
 2012-08-17-0820-00M.COL___217                                                 6
 STAT SP IPHASW D HRMM SECON CODA AMPLIT PERI AZIMU VELO AIN AR TRES W  DIS CAZ7
 BAR2 SZ EP   1    822 35.80                             177    0.35 8 7.81 199 
 BAR2 SZ I         822 36.23        17.9 0.07                          7.81 199 
 BAR2 SZ ES   1    822 50.46                             177    0.00 8 7.81 199 
 GIR2 SZ EP   1    822 35.90                             161   -0.32 8 46.6 355 
 GIR2 SZ ES   1    822 51.56                             161   -0.26 8 46.6 355 
 BRR  HZ EP   1    822 37.69                             150    0.05 8 78.6 309 
 BRR  HZ I         822 37.85        12.4 0.15                          78.6 309 
 BRR  HN ES   1    822 54.75                             150    0.40 8 78.6 309 
 PTB  HZ EP   1    822 42.72                             132    0.00 7  144 265 
 PTB  HN ES        823  3.25                             132   -0.1510  144 265 
 PTB  HZ I         823  7.09         4.3 0.21                           144 265 
                                                                                
