 2010  817 0721 20.2 L   6.795 -73.076139.6  RSN  9 0.4 1.5LRSN                1
 GAP=166        0.93       4.4     7.6  8.6 -0.6868E+01 -0.8367E+01  0.1138E+02E
 Epicentro: LOS SANTOS - SANTANDER                                             3
 ACTION:UP  10-09-07 10:55 OP:vdl  STATUS:               ID:20100817072120 L   I
 2010-08-17-0719-02S.COL___111                                                 6
 STAT SP IPHASW D HRMM SECON CODA AMPLIT PERI AZIMU VELO SNR AR TRES W  DIS CAZ7
 BTL  SZ EP        721 39.21                             169     0.110   25 303 
 BTL  SZ ES   1    721 53.14                             169    -0.8 7   25 303 
 BAR2 SZ EP        721 39.04                             169    -0.110   25 208 
 BAR2 SZ I         721 39.24         7.1 0.28                            25 208 
 BRR  HZ EP        721 40.91                             149    -0.210   78 296 
 BRR  HN ES        721 57.83                             149     0.410   78 296 
 BRR  HZ I         721 58.68         6.3 0.39                            78 296 
 RUS  HZ EP        721 43.13                             143    -0.210  100 180 
 RUS  HN ES   1    722  1.59                             143     0.3 7  100 180 
 RUS  HZ I         722  3.55         3.2 0.47                           100 180 
 GUE  SZ EP   1    721 44.74                             138     0.5 7  116   8 
 GRA  SZ ES   1    722  4.20                             136     0.3 7  124  14 
 GRA  SZ I         722  7.12         4.6 0.07                           124  14 
 OCA  SZ ES   2    722  9.26                             128    -0.8 5  162 350 
 OCA  SZ I         722 15.24         3.9 0.37                           162 350 
 RREF HN ES   1    722 43.03                             109     0.0 5  327 230 
 RREF HZ I         722 47.08         1.4 0.42                           327 230 
 PRA  HN ES   1    722 55.89                             105     0.1 4  395 211 
 PRA  HZ I         723  0.47         1.6 0.46                           395 211 
                                                                                
