 2016  517 0405 37.5 L   6.803 -73.126144.1  RSN  8 0.5 2.0LRSN                1
 GAP=185        1.15       3.8     6.3  7.1 -0.1521E+01  0.8230E+01  0.2146E+01E
 Epicentro: LOS SANTOS - SANTANDER                                             3
 ACTION:UPD 16-08-18 17:46 OP:cam  STATUS:               ID:20160517040537 L   I
 OLDACT:UP  16-05-17 18:17 OP:mh   STATUS:               ID:20160517035754d    3
 OLDACT:UP  16-05-17 18:17 OP:mh   STATUS:               ID:20160517035754d    3
 OLDACT:UP  16-05-17 18:16 OP:mh   STATUS:               ID:20160517035754d    3
 OLDACT:UP  16-05-17 18:16 OP:mh   STATUS:               ID:20160517035754d    3
 OLDACT:DUP 16-05-17 18:11 OP:mh   STATUS:               ID:20160517035754d    3
 OLDACT:UP  16-05-17 18:10 OP:mh   STATUS:               ID:20160517035753     3
 OLDACT:REG 16-05-17 13:52 OP:mh   STATUS:               ID:20160517035753     3
 2016-05-17-0358-00M.COL___432                                                 6
 STAT SP IPHASW D HRMM SECON CODA AMPLIT PERI AZIMU VELO AIN AR TRES W  DIS CAZ7
 BAR2 EZ EP        4 5 57.10                             170    0.1210 24.1 195 
 BAR2 EZ ES        4 6 11.79                             170   -0.3510 24.1 195 
 BAR2 EZ I         4 6 13.01        19.1 0.26            168           24.1 195 
 BRR  HZ EP        4 5 59.01                             152    0.4110 72.9 297 
 BRR  HE ES        4 6 15.81                             152    0.7810 72.9 297 
 BRR  HZ I         4 6 19.05        15.0 0.34            148           72.9 297 
 RUS  HZ EP        4 6  1.25                             143    0.1210  101 177 
 RUS  HN ES   1    4 6 20.03                             143    0.49 7  101 177 
 OCA  HZ EP        4 6  5.04                             129   -0.67 9  160 352 
 OCA  HN ES        4 6 27.19                             129   -0.49 9  160 352 
 OCA  HZ I         4 6 31.64        26.0 0.20            129            160 352 
 SPBC HZ EP        4 6  6.20                             128    0.14 9  165 219 
 SPBC HN ES        4 6 27.34                             128   -0.96 9  165 219 
 SPBC HZ I         4 6 30.27         8.9 0.14            128            165 219 
 ZAR  HZ EP        4 6 10.76                             122    0.70 8  206 292 
 ZAR  HN ES        4 6 35.15                             122   -0.28 8  206 292 
 ZAR  HZ I         4 6 40.38         8.5 0.28            121            206 292 
 NOR  HZ EP   1    4 6 13.53                             118    0.16 6  237 235 
 NOR  HN ES        4 6 41.25                             118   -0.08 8  237 235 
 NOR  HZ I         4 6 46.68         4.8 0.22            118            237 235 
 URE  HZ EP   4    4 6 20.25                             113    1.52 0  286 292 
 URE  HN ES   4    4 6 49.50                             113   -1.36 0  286 292 
 PRA  HZ EP        4 6 31.16                             106    0.01 6  393 210 
 PRA  HN ES        4 7 12.90                             106   -0.08 6  393 210 
 PRA  HZ I         4 7 17.99         2.5 0.68            107            393 210 
                                                                                
