 2015 1217 0420  0.3 L   6.804 -73.160148.3  RSN  5 0.3 1.6LRSN                1
 GAP=243        0.64       5.1     5.3  7.1  0.1448E+02  0.1988E+01 -0.8272E+01E
 Epicentro: LOS SANTOS - SANTANDER                                             3
 ACTION:UPD 16-02-04 15:05 OP:cam  STATUS:               ID:20151217042000 L   I
 OLDACT:UP  15-12-17 16:09 OP:cara STATUS:               ID:20151217041746     3
 OLDACT:REG 15-12-17 13:30 OP:cara STATUS:               ID:20151217041746     3
 2015-12-17-0417-46M.COL___334                                                 6
 STAT SP IPHASW D HRMM SECON CODA AMPLIT PERI AZIMU VELO AIN AR TRES W  DIS CAZ7
 RUS  HN ES        420 43.19                             144    0.1110  101 175 
 PTB  HZ EP        420 27.21                             133   -0.13 9  146 259 
 PTB  HN ES        420 48.30                             133   -0.14 9  146 259 
 PTB  HZ I         420 55.77         3.5 0.34            130            146 259 
 SPBC HZ EP        420 29.20                             130    0.27 9  163 218 
 SPBC HN ES        420 50.90                             130   -0.36 9  163 218 
 SPBC HZ I         420 53.79         5.5 0.10            129            163 218 
 ZAR  HN ES        420 58.17                             123    0.12 9  202 292 
 ZAR  HZ I         421  4.33         3.6 0.34            122            202 292 
 NOR  HZ EP        420 35.77                             119   -0.29 8  234 234 
 NOR  HN ES        421  4.43                             119    0.47 8  234 234 
 NOR  HZ I         421 12.16         2.8 0.18            119            234 234 
                                                                                
