 2015  117 0647 47.1 L   6.304 -73.674119.2  RSN  6 0.4 1.5LRSN                1
 GAP= 75        1.04       3.6     4.5  7.7  0.5048E+00  0.3912E+01  0.6789E+01E
 Epicentro: SANTA HELENA DEL OPON - SANTANDER                                  3
 ACTION:UPD 15-03-02 15:40 OP:nd   STATUS:               ID:20150117064747 L   I
 OLDACT:REG 15-01-17 14:23 OP:carl STATUS:               ID:20150117063739     3
 2015-01-17-0637-39M.COL___262                                                 6
 STAT SP IPHASW D HRMM SECON CODA AMPLIT PERI AZIMU VELO AIN AR TRES W  DIS CAZ7
 BAR2 EZ EP        648  5.61                             150    0.3210 63.0  60 
 BAR2 EZ ES        648 19.65                             150    0.1810 63.0  60 
 BAR2 EZ I         648 20.97        19.7 0.20            156           63.0  60 
 RUS  HZ EP        648  6.59                             144   -0.1610 79.6 125 
 RUS  HE ES        648 21.40                             144   -0.6610 79.6 125 
 RUS  HZ I         648 24.31         2.2 0.24            147           79.6 125 
 SPBC HZ EP        648  6.75                             142    0.2110 84.5 212 
 SPBC HN ES        648 22.38                             142    0.6910 84.5 212 
 SPBC HZ I         648 27.55         9.1 0.78            144           84.5 212 
 BRR  HZ EP        648  6.94                             141    0.1910 88.9 357 
 BRR  HN ES        648 22.30                             141    0.2410 88.9 357 
 BRR  HZ I         648 23.62         6.9 0.12            146           88.9 357 
 PTB  HZ EP        648  6.32                             140   -0.5710 90.4 287 
 PTB  HN ES        648 21.85                             140   -0.4610 90.4 287 
 PTB  HZ I         648 23.26         6.8 0.22            144           90.4 287 
 CHI  HZ EP        648 16.59                             119    0.12 9  185 182 
 CHI  HN ES        648 39.29                             119   -0.08 9  185 182 
 CHI  HZ I         648 41.64         3.6 0.36            122            185 182 
                                                                                
