 2013  217 0424 52.8 L   6.719 -73.369131.6  RSN  7 0.5 1.7LRSN                1
 GAP=100        1.27       6.0     5.6  9.0  0.1909E+00  0.1301E+02 -0.6820E+01E
 Epicentro: GALAN - SANTANDER                                                  3
 ACTION:UPD 13-03-12 09:33 OP:ep   STATUS:               ID:20130217042452 L   I
 2013-02-17-0420-00M.COL___241                                                 6
 STAT SP IPHASW D HRMM SECON CODA AMPLIT PERI AZIMU VELO AIN AR TRES W  DIS CAZ7
 BAR2 SZ ES        425 24.82                             169    0.0310 24.9 124 
 BAR2 SZ I         425 25.30        14.2 0.50            173           24.9 124 
 BRR  HZ IP     C  425 11.73                             155    0.0710 57.3 319 
 BRR  HN ES        425 26.81                             155    0.4510 57.3 319 
 BRR  HN I         425 27.07        12.2 0.18            151           57.3 319 
 RUS  HZ EP        425 15.35                             142    0.4510 96.7 161 
 PAM  SN ES        425 32.42                             140   -0.2810  101  47 
 PTB  HZ EP        425 16.07                             134   -0.2210  122 261 
 PTB  HN ES        425 33.64                             134   -0.9610  122 261 
 PTB  HN I         425 36.87         3.9 0.10            133            122 261 
 ZAR  HE ES        425 46.47                             122    0.97 9  185 298 
 ZAR  HE I         425 49.97         7.8 0.34            120            185 298 
 SML  HZ EP        425 28.47                             114   -0.13 8  243 341 
 SML  HN ES        425 56.09                             114   -0.43 8  243 341 
 SML  HN I         426  2.12         3.9 0.10            114            243 341 
                                                                                
