 2012  517 0158  7.9 L   6.818 -73.159142.8  RSN 19 0.4 3.0LRSN 3.4WRSN        1
 SPEC AVERAGE  MO 14.2 ST 17.8 OM 57.1 f0 4.23 R  0.35 AL 2.28 WI 14.6 MW  3.4 3
 GAP=134        1.00       3.6     5.1  6.0 -0.9505E+00  0.8884E+01  0.3265E+01E
 Epicentro: LOS SANTOS - SANTANDER                                             3
 SPEC RUS HH E MO 14.2 ST 22.6 OM  2.6 f0 4.54 R0.3238 AL 2.16 WI 12.0 MW  3.4 3
 SPEC RUS HH E T 15848 K 0.020 GD  176 VS 4.20 DE 3.20 Q0230.0 QA 0.60 VS 4.20 3
 SPEC CHI HH N MO 14.2 ST 15.5 OM  2.3 f0 4.28 R0.3435 AL 2.68 WI 13.3 MW  3.4 3
 SPEC CHI HH N T 15914 K 0.020 GD  287 VS 4.20 DE 3.20 Q0230.0 QA 0.60 VS 4.20 3
 SPEC HEL HH N MO 14.3 ST 15.5 OM  2.4 f0 3.88 R0.3789 AL 1.99 WI 18.5 MW  3.5 3
 SPEC HEL HH N T 15918 K 0.020 GD  306 VS 4.20 DE 3.20 Q0230.0 QA 0.60 VS 4.20 3
 ACTION:UP  12-07-05 12:05 OP:pat  STATUS:               ID:20120517015807 L   I
 2012-05-17-0158-00S.COL___197                                                 6
 STAT SP IPHASW D HRMM SECON CODA AMPLIT PERI AZIMU VELO SNR AR TRES W  DIS CAZ7
 BAR2 SZ EP   1    158 27.45                             170     0.2 7   25 186 
 BAR2 SZ ES   1    158 41.82                             170    -0.5 7   25 186 
 BAR2 SZ I         158 44.81       355.7 0.32                            25 186 
 BRR  HZ EP        158 29.28                             153     0.610   69 298 
 BRR  HE ES   1    158 45.46                             153     0.7 7   69 298 
 BRR  HZ I         158 47.27       295.2 0.19                            69 298 
 PAM  SZ EP   1    158 30.29                             150     0.5 7   77  41 
 PAM  SN ES   1    158 46.70                             150    -0.2 7   77  41 
 RUS  HZ EP        158 31.36                             142    -0.210  103 175 
 RUS  HE ES   1    158 49.95                             142     0.0 7  103 175 
 RUS  HZ I         158 52.29       128.2 0.30                           103 175 
 PTB  HZ EP        158 33.91                             131    -0.7 9  147 258 
 PTB  HN ES   1    158 54.97                             131    -0.4 7  147 258 
 PTB  HZ I         159  0.66        95.6 0.34                           147 258 
 OCA  HZ EP   1    158 35.60                             129    -0.2 7  158 354 
 OCA  HN ES   1    158 56.98                             129    -0.6 7  158 354 
 ZAR  HZ EP   1    158 40.45                             122     0.5 6  202 292 
 ZAR  HN ES   2    159  5.24                             122     0.3 4  202 292 
 ZAR  HZ I         159 12.02       184.1 0.33                           202 292 
 NOR  SZ EP   1    158 43.37                             118    -0.1 6  235 234 
 NOR  SN ES   1    159 11.06                             118    -0.2 6  235 234 
 CHI  HZ EP   1    158 45.79                             116     0.1 6  250 195 
 CHI  HZ I         159 21.76        38.3 0.45                           250 195 
 ROSC BZ EP   1    158 46.69                             116     0.7 6  254 211 
 ROSC BZ I         159 23.31       110.3 0.47                           254 211 
 HEL  HZ EP   1    158 47.65                             114    -0.2 6  271 255 
 HEL  HZ I         159 25.76        56.9 0.39                           271 255 
 URE  HN ES   2    159 20.04                             113    -0.3 4  282 292 
 URE  HZ I         159 27.65        70.0 0.32                           282 292 
 VIL  SZ EP   1    158 51.99                             111     0.6 5  305 191 
 VIL  SN ES   1    159 24.89                             111    -0.4 5  305 191 
 VIL  SZ I         159 36.44        36.0 0.61                           305 191 
 RREF HZ EP   1    158 54.67                             110     0.7 5  322 229 
 RREF HZ I         159 34.65        61.2 0.29                           322 229 
 DBB  SZ EP   1    158 55.48                             109     0.4 5  338 274 
 COD  HZ EP   1    158 55.51                             108    -0.4 5  346 355 
 COD  HZ I         159 40.54        16.5 0.43                           346 355 
 PRA  HZ EP   1    159  0.92                             106    -0.6 4  393 209 
 SJC  HZ EP   1    159  2.59                             105    -0.5 4  407 327 
 SJC  HZ I         159 47.04        16.9 0.56                           407 327 
 YOT  HZ EP   1    159 10.50                             103    -0.4 4  472 229 
 YOT  HZ I         2 0  8.02         9.0 0.62                           472 229 
                                                                                
