 2015  817 0357  1.8 L   6.822 -73.730112.6  RSN  7 0.5 1.7LRSN                1
 GAP= 97        1.19       3.3     5.2  7.9 -0.3233E+01  0.1513E+02 -0.3626E+01E
 Epicentro: EL CARMEN - SANTANDER                                              3
 ACTION:UPD 15-09-15 23:02 OP:cam  STATUS:               ID:20150817035701 L   I
 OLDACT:REG 15-08-17 13:26 OP:ar   STATUS:               ID:20150817034748     3
 2015-08-17-0347-48M.COL___325                                                 6
 STAT SP IPHASW D HRMM SECON CODA AMPLIT PERI AZIMU VELO AIN AR TRES W  DIS CAZ7
 BRR  HZ EP        357 17.13                             163   -0.2010 31.6   4 
 BRR  HN ES        357 29.09                             163   -0.3710 31.6   4 
 BRR  HZ I         357 30.16        12.4 0.26            161           31.6   4 
 BAR2 EZ EP        357 19.22                             148   -0.2010 65.7 113 
 BAR2 EZ ES        357 34.13                             148    0.9510 65.7 113 
 BAR2 EZ I         357 35.09         7.0 0.16            149           65.7 113 
 SPBC HZ EP        357 24.97                             126   -0.0910  135 196 
 SPBC HN ES        357 42.41                             126   -0.8110  135 196 
 SPBC HZ I         357 45.17         9.7 0.36            127            135 196 
 ZAR  HZ EP        357 26.47                             124    0.50 9  145 301 
 ZAR  HN ES        357 45.24                             124    0.40 9  145 301 
 ZAR  HZ I         357 47.54        10.7 0.14            123            145 301 
 OCA  HZ EP        357 27.64                             120   -0.40 9  163  16 
 OCA  HN ES        357 48.45                             120   -0.07 9  163  16 
 OCA  HZ I         357 55.58        10.9 0.20            120            163  16 
 NOR  HZ EP        357 30.93                             116    0.37 9  188 222 
 NOR  HN ES        357 53.06                             116    0.05 9  188 222 
 NOR  HZ I         357 55.96         4.5 0.16            117            188 222 
 SML  HZ EP        357 34.77                             112    0.46 8  222 350 
 SML  HE ES        357 59.08                             112   -0.60 8  222 350 
 SML  HZ I         358  7.00         6.3 0.26            111            222 350 
                                                                                
