 2017  417 0159  3.0 L   6.802 -73.165146.3  RSN  7 0.4 1.6LRSN                1
 GAP=236        1.09       5.6     5.8  7.3  0.9789E+01  0.1114E+02  0.8450E+00E
 Epicentro: LOS SANTOS - SANTANDER                                             3
 ACTION:UPD 17-05-30 21:13 OP:jn   STATUS:               ID:20170417015903 L   I
 OLDACT:UP  17-04-17 15:14 OP:dani STATUS:               ID:20170417015740     3
 OLDACT:REG 17-04-17 13:15 OP:dani STATUS:               ID:20170417015740     3
 2017-04-17-0158-00M.COL___362                                                 6
 STAT SP IPHASW D HRMM SECON CODA AMPLIT PERI AZIMU VELO AIN AR TRES W  DIS CAZ7
 BAR2 EZ EP        159 22.66                             171   -0.0710 23.2 185 
 BAR2 EZ ES        159 37.45                             171   -0.6410 23.2 185 
 BAR2 EZ I         159 39.66        11.5 0.40            170           23.2 185 
 BRR  HZ EP        159 24.34                             153    0.2110 69.2 299 
 BRR  HN ES        159 41.37                             153    0.7810 69.2 299 
 BRR  HZ I         159 43.95         5.8 0.28            151           69.2 299 
 RUS  HZ EP        159 26.98                             144    0.1210  101 175 
 RUS  HE ES        159 45.64                             144    0.1910  101 175 
 RUS  HZ I         159 46.47         6.2 0.32            146            101 175 
 PTB  HZ EP        159 29.35                             133   -0.51 9  146 259 
 PTB  HN ES        159 50.17                             133   -0.61 9  146 259 
 PTB  HZ I         159 52.15         4.2 0.60            132            146 259 
 SPBC HE ES   1    159 53.93                             129    0.30 7  162 218 
 ZAR  HZ EP        159 35.67                             123    0.37 9  202 292 
 ZAR  HN ES        2 0  0.19                             123   -0.28 9  202 292 
 ZAR  HZ I         2 0  7.03         3.0 0.19            123            202 292 
 NOR  HZ EP        159 38.37                             119   -0.25 8  233 234 
 NOR  HN ES        2 0  6.92                             119    0.54 8  233 234 
 NOR  HZ I         2 0 11.30         3.6 0.13            120            233 234 
                                                                                
