 2015  817 0244 34.8 L   6.831 -73.089144.2  RSN 11 0.5 2.2LRSN                1
 GAP=189        1.08       2.9     5.3  6.2 -0.7399E+00  0.8408E+01 -0.6413E+00E
 Epicentro: LOS SANTOS - SANTANDER                                             3
 ACTION:UPD 15-09-15 23:02 OP:cam  STATUS:               ID:20150817024434 L   I
 OLDACT:REG 15-08-17 13:18 OP:ar   STATUS:               ID:20150817023748     3
 2015-08-17-0237-48M.COL___334                                                 6
 STAT SP IPHASW D HRMM SECON CODA AMPLIT PERI AZIMU VELO AIN AR TRES W  DIS CAZ7
 BAR2 EZ IP     D  244 54.32                             168    0.0010 28.3 201 
 BAR2 EZ ES        245  9.29                             168   -0.2810 28.3 201 
 BAR2 EZ I         245 11.29        17.6 0.32            166           28.3 201 
 BRR  HZ EP     D  244 56.17                             151    0.1910 75.3 294 
 BRR  HN ES        245 13.43                             151    0.9010 75.3 294 
 BRR  HZ I         245 17.02        23.5 0.50            147           75.3 294 
 RUS  HZ EP        244 58.81                             143    0.2210  104 180 
 RUS  HN ES        245 17.22                             143    0.0410  104 180 
 RUS  HZ I         245 18.19        18.2 0.32            145            104 180 
 OCA  HZ EP        245  2.63                             130   -0.09 9  158 351 
 OCA  HN ES        245 24.01                             130   -0.51 9  158 351 
 OCA  HZ I         245 28.35        23.9 0.20            130            158 351 
 SPBC HZ EP        245  3.44                             127   -0.33 9  170 220 
 SPBC HN ES        245 25.50                             127   -0.90 9  170 220 
 SPBC HZ I         245 28.54        20.4 0.10            128            170 220 
 ZAR  HZ EP        245  7.80                             121    0.22 8  209 291 
 ZAR  HN ES        245 32.49                             121   -0.69 8  209 291 
 ZAR  HZ I         245 38.26        12.3 0.28            121            209 291 
 SML  HZ EP        245 10.71                             117   -0.55 8  243 334 
 SML  HN ES        245 40.43                             117    0.70 8  243 334 
 SML  HZ I         245 46.37        21.3 0.10            118            243 334 
 ROSC BZ EP        245 13.77                             116    0.30 8  259 212 
 ROSC BN ES        245 44.16                             116    0.50 8  259 212 
 ROSC BZ I         245 47.76        15.7 0.30            117            259 212 
 HEL  HN ES        245 47.65                             114    0.09 7  279 255 
 HEL  HZ I         245 52.98         3.4 0.34            114            279 255 
 GUY2CHZ EP        245 19.21                             111    0.11 7  308 235 
 GUY2CHN ES   2    245 53.46                             111   -0.22 4  308 235 
 GUY2CHZ I         246  4.73         4.8 0.46                           308 235 
 TOL  SN ES        246  2.24                             109    0.30 6  350 225 
 TOL  SZ I         246  8.77         7.0 0.66            109            350 225 
                                                                                
