 2013  117 0343  8.8 L   6.754 -73.223159.6  RSN  4 0.2 1.1LRSN                1
 GAP=220        0.49       5.6     5.9  7.9  0.1719E+02 -0.1662E+02 -0.7367E+01E
 Epicentro: VILLANUEVA - SANTANDER                                             3
 ACTION:UPD 13-02-15 09:14 OP:ep   STATUS:               ID:20130117034308 L   I
 2013-01-17-0340-00M.COL___241                                                 6
 STAT SP IPHASW D HRMM SECON CODA AMPLIT PERI AZIMU VELO AIN AR TRES W  DIS CAZ7
 BAR2 SZ EP   1    343 29.70                             173   -0.31 7 18.5 166 
 BRR  HZ EP   1    343 31.59                             156    0.37 7 66.7 306 
 BRR  HN ES   1    343 48.64                             156   -0.08 7 66.7 306 
 RUS  HZ EP   1    343 33.57                             148   -0.09 7 96.5 171 
 RUS  HN ES   1    343 53.21                             148    0.16 7 96.5 171 
 RUS  HZ I         343 53.80         1.3 0.26            143           96.5 171 
 PTB  HN ES   1    343 57.39                             137   -0.06 7  138 260 
 PTB  HZ I         344  2.23         2.2 0.18            130            138 260 
                                                                                
