 2012  217 0930 22.5 L   6.789 -73.052151.6  RSN  6 0.3 1.5LRSN                1
 GAP=149        0.48       4.6     6.3  5.6  0.2638E+01 -0.1373E+01  0.1026E+02E
 ACTION:UP  12-03-07 16:31 OP:epov STATUS:               ID:20120217093022 L   I
 2012-02-17-0930-00M.COL___188                                                 6
 STAT SP IPHASW D HRMM SECON CODA AMPLIT PERI AZIMU VELO AIN AR TRES W  DIS CAZ7
 BAR2 SZ EP   1    930 42.68                             170   -0.16 7 26.1 213 
 BAR2 SZ I         930 43.28         6.0 0.39                          26.1 213 
 BAR2 SZ ES   2    930 58.76                             170    0.03 5 26.1 213 
 GIR2 SZ ES   2    930 59.18                             166    0.27 5 35.6 334 
 PAM  SZ EP   2    930 45.74                             153    0.74 5 72.3  33 
 PAM  SN ES   2    931  2.14                             153   -0.45 5 72.3  33 
 BRR  HZ EP   1    930 44.58                             150   -0.21 7 80.9 296 
 BRR  HZ I         930 44.89        12.4 0.17                          80.9 296 
 BRR  HE ES   1    931  2.28                             150    0.07 7 80.9 296 
 RUS  HZ EP   2    930 46.54                             145   -0.14 5 99.2 182 
 RUS  HE ES   2    931  5.65                             145    0.07 5 99.2 182 
 RUS  HZ I         931  6.58         2.4 0.34                          99.2 182 
 CHI  HZ EP   1    931  0.77                             118    0.11 6  250 198 
                                                                                
