 2017  217 0254 56.3 L   6.678 -73.120143.2  RSN  6 0.3 1.5LRSN                1
 GAP=145        0.80       4.0     4.3  5.5  0.2982E+01  0.7606E+01 -0.5452E+00E
 Epicentro: VILLANUEVA - SANTANDER                                             3
 ACTION:UPD 17-05-24 15:37 OP:jn   STATUS:               ID:20170217025456 L   I
 OLDACT:DUP 17-02-17 14:32 OP:cog  STATUS:               ID:20170217024742d    3
 2017-02-17-0248-00M.COL___355                                                 6
 STAT SP IPHASW D HRMM SECON CODA AMPLIT PERI AZIMU VELO AIN AR TRES W  DIS CAZ7
 BAR2 EZ EP        255 15.12                             175   -0.2710 11.7 216 
 BAR2 EZ ES        255 30.25                             175   -0.0710 11.7 216 
 BAR2 EZ I         255 34.72         8.1 0.30            174           11.7 216 
 BRR  HZ EP        255 18.20                             149    0.5010 80.8 306 
 BRR  HN ES        255 34.76                             149    0.3310 80.8 306 
 BRR  HZ I         255 40.53         7.8 0.62            150           80.8 306 
 PAM  EZ EP        255 19.23                             147    0.4510 86.7  32 
 PAM  EN ES        255 35.94                             147   -0.4210 86.7  32 
 PAM  EZ I         255 38.33         5.9 0.28            151           86.7  32 
 RUS  HZ EP        255 18.60                             147   -0.2010 86.9 177 
 RUS  HE ES        255 36.48                             147    0.0910 86.9 177 
 PTB  HZ EP        255 23.16                             131    0.08 9  149 264 
 PTB  HE ES   3    255 43.97                             131   -0.04 2  149 264 
 PTB  HZ I         255 45.99         3.9 0.15            134            149 264 
 ZAR  HZ EP        255 29.03                             121   -0.33 8  212 295 
 ZAR  HE ES        255 54.85                             121   -0.34 8  212 295 
                                                                                
