 2014  317 0909  2.0 L   6.826 -73.176141.1  RSN  7 0.4 1.3LRSN                1
 GAP=131        0.96       3.7     4.2  9.2 -0.1831E+01  0.1402E+02 -0.7276E+01E
 Epicentro: LOS SANTOS - SANTANDER                                             3
 ACTION:UPD 14-04-09 23:18 OP:nd   STATUS:               ID:20140317090902 L   I
 OLDACT:REG 14-03-17 09:15 OP:mh   STATUS:               ID:20140317090813     3
 2014-03-17-0908-13M.COL___239                                                 6
 STAT SP IPHASW D HRMM SECON CODA AMPLIT PERI AZIMU VELO AIN AR TRES W  DIS CAZ7
 BAR2 SZ EP        9 9 21.35                             169    0.1810 25.9 182 
 PAM  SZ EP        9 9 24.23                             150    0.4610 77.4  43 
 PAM  SN ES        9 9 41.03                             150    0.3210 77.4  43 
 PAM  SZ I         9 9 42.70         2.5 0.20            150           77.4  43 
 RUS  HZ EP        9 9 25.30                             142   -0.2810  104 174 
 RUS  HE ES        9 9 43.41                             142   -0.5210  104 174 
 RUS  HZ I         9 9 44.89         2.1 0.26            147            104 174 
 PTB  HZ EP        9 9 28.43                             131    0.04 9  145 257 
 PTB  HN ES        9 9 48.65                             131   -0.28 9  145 257 
 PTB  HZ I         9 9 51.31         4.1 0.16            133            145 257 
 ZAR  HN ES        9 9 58.64                             122    0.15 9  200 292 
 NOR  HE ES        910  5.70                             118    0.73 8  234 233 
 SML  HZ EP        9 9 37.68                             117   -0.30 8  240 336 
 SML  HN ES        910  5.42                             117   -0.58 8  240 336 
 SML  HZ I         910 16.19         2.3 0.10            118            240 336 
                                                                                
