 2011  117 0655 38.5 L   6.775 -73.158146.4  RSN  5 0.2 1.7LRSN                1
 GAP=159        0.44       2.3    12.0  4.7 -0.3250E+01 -0.1010E+01 -0.3237E+01E
 Epicentro: LOS SANTOS - SANTANDER                                             3
 ACTION:UP  11-02-08 08:41 OP:pat  STATUS:               ID:20110117065538 L   I
 2011-01-17-0652-24S.COL___134                                                 6
 STAT SP IPHASW D HRMM SECON CODA AMPLIT PERI AZIMU VELO SNR AR TRES W  DIS CAZ7
 BAR2 SZ EP   1    655 58.20                             172     0.1 8   20 188 
 BAR2 SZ ES   1    656 13.40                             172    -0.1 8   20 188 
 BAR2 SZ I         656 15.03        22.2 0.19                            20 188 
 RUS  HZ EP   1    656  2.20                             145     0.1 8   98 175 
 RUS  HE ES   1    656 20.49                             145     0.0 8   98 175 
 RUS  HZ I         656 22.11         4.5 0.15                            98 175 
 GRA  SZ IP        656  4.09                             136     0.010  129  18 
 GRA  SZ I         656  5.22         8.1 0.28                           129  18 
 OCA  SZ EP   1    656  6.70                             129    -0.4 7  163 354 
 OCA  SZ ES   1    656 29.65                             129     0.2 7  163 354 
 OCA  SZ I         656 35.78         6.4 0.37                           163 354 
 CHI  HZ EP   2    656 16.06                             118     0.2 4  246 195 
 CHI  HE ES   2    656 45.03                             118     0.0 4  246 195 
 CHI  HZ I         656 49.17         2.7 0.58                           246 195 
                                                                                
