 2013  117 0448 44.0 L   7.203 -73.077153.7  RSN  7 0.3 1.5LRSN                1
 GAP=120        0.53       3.7     3.6  5.2 -0.1383E+01  0.4418E+01  0.3781E+01E
 Epicentro: BUCARAMANGA - SANTANDER                                            3
 ACTION:UPD 13-02-15 09:14 OP:ep   STATUS:               ID:20130117044844 L   I
 2013-01-17-0447-50M.COL___184                                                 6
 STAT SP IPHASW D HRMM SECON CODA AMPLIT PERI AZIMU VELO AIN AR TRES W  DIS CAZ7
 PAM  SZ EP   1    449  5.64                             163    0.06 7 44.3  70 
 PAM  SN ES   1    449 22.38                             163    0.00 7 44.3  70 
 PAM  SZ I         449 25.22         3.4 0.36            166           44.3  70 
 BAR2 SZ ES   1    449 23.63                             155    0.03 7 68.6 190 
 BRR  HZ EP   1    449  6.49                             154    0.45 7 70.9 261 
 BRR  HN ES   1    449 23.36                             154    0.16 7 70.9 261 
 BRR  HZ I         449 27.07         5.3 0.28            155           70.9 261 
 OCA  HN ES   1    449 28.74                             141   -0.36 7  118 347 
 OCA  HZ I         449 31.01         6.6 0.16            142            118 347 
 PTB  HZ EP   1    449 13.57                             130   -0.05 7  169 244 
 PTB  HN ES   1    449 36.26                             130   -0.44 7  169 244 
 PTB  HZ I         449 37.85         4.8 0.16            132            169 244 
 ZAR  HN ES   1    449 42.11                             125    0.24 6  199 279 
 ZAR  HZ I         449 44.89         3.8 0.11            127            199 279 
 CHI  HZ EP   1    449 26.87                             114   -0.24 5  294 194 
                                                                                
