 2016  117 0742 18.7 L   6.765 -73.155137.0  RSN 11 0.4 1.5LRSN                1
 GAP=137        0.98       2.6     4.2  6.0 -0.1757E+01  0.9228E+01  0.1096E+01E
 Epicentro: LOS SANTOS - SANTANDER                                             3
 ACTION:UPD 16-03-09 23:26 OP:cam  STATUS:               ID:20160117074218 L   I
 OLDACT:UP  16-01-17 17:50 OP:mh   STATUS:               ID:20160117073736     3
 OLDACT:UP  16-01-17 17:49 OP:mh   STATUS:               ID:20160117073736     3
 OLDACT:UP  16-01-17 17:49 OP:mh   STATUS:               ID:20160117073736     3
 OLDACT:REG 16-01-17 14:00 OP:mh   STATUS:               ID:20160117073736     3
 2016-01-17-0737-36M.COL___319                                                 6
 STAT SP IPHASW D HRMM SECON CODA AMPLIT PERI AZIMU VELO AIN AR TRES W  DIS CAZ7
 BAR2 EZ EP   1    742 36.59                             172   -0.60 7 19.3 189 
 BAR2 EZ ES        742 52.08                             172    0.4710 19.3 189 
 BAR2 EZ I         742 53.21        12.6 0.18            170           19.3 189 
 PAM  EZ EP        742 39.94                             148   -0.2710 81.0  38 
 PAM  EN ES        742 56.60                             148   -0.3910 81.0  38 
 PAM  EZ I         742 58.84         2.2 0.40            152           81.0  38 
 RUS  HZ EP        742 41.26                             143   -0.0510 96.8 175 
 RUS  HN ES        742 59.04                             143    0.1010 96.8 175 
 RUS  HZ I         743  0.35         2.7 0.24            144           96.8 175 
 PTB  HZ EP        742 44.59                             130   -0.21 9  146 260 
 PTB  HN ES        743  4.37                             130   -0.79 9  146 260 
 PTB  HZ I         743 11.92         3.0 0.28            130            146 260 
 SPBC HZ EP        742 46.02                             128   -0.16 9  160 220 
 SPBC HN ES        743  8.04                             128    0.42 9  160 220 
 SPBC HZ I         743  8.80         3.5 0.16            128            160 220 
 OCA  HN ES        743  8.95                             127    0.41 9  164 354 
 OCA  HZ I         743 10.38         9.3 0.24            128            164 354 
 ZAR  HZ EP        742 50.93                             120    0.29 9  205 293 
 ZAR  HN ES   1    743 16.14                             120    0.58 6  205 293 
 ZAR  HZ I         743 21.33         3.3 0.50            121            205 293 
 NOR  HN ES        743 20.20                             117   -0.62 8  232 235 
 CHI  HZ EP        742 55.43                             116   -0.05 8  245 195 
 CHI  HN ES        743 24.61                             116    0.44 8  245 195 
 CHI  HZ I         743 31.67         1.3 0.50            117            245 195 
 SML  HZ EP   4    742 53.20                             115   -1.98 0  247 336 
 SML  HN ES        743 24.05                             115    0.40 8  247 336 
 SML  HZ I         743 25.19         6.3 0.10            116            247 336 
 PRA  HZ EP        743 11.47                             105    0.00 6  388 210 
 PRA  HN ES        743 53.35                             105    0.72 6  388 210 
 PRA  HZ I         743 59.63         2.1 0.24            106            388 210 
                                                                                
