 2012  217 0407 24.7 L   6.781 -73.126149.7  RSN  5 0.3 1.2LRSN                1
 GAP=140        0.59       5.8     5.8  7.5  0.1164E+01 -0.7840E+01  0.7355E+01E
 ACTION:UP  12-03-07 16:31 OP:epov STATUS:               ID:20120217040724 L   I
 2012-02-17-0400-00M.COL___188                                                 6
 STAT SP IPHASW D HRMM SECON CODA AMPLIT PERI AZIMU VELO AIN AR TRES W  DIS CAZ7
 GIR2 SZ EP   1    4 7 44.56                             167   -0.30 7 33.8 347 
 GIR2 SZ ES   2    4 7 59.98                             167   -0.64 5 33.8 347 
 BRR  HZ EP   1    4 7 46.54                             152    0.15 7 74.2 299 
 BRR  HN ES   1    4 8  3.81                             152    0.46 7 74.2 299 
 BRR  HZ I         4 8  4.01         3.7 0.51                          74.2 299 
 PAM  SZ EP   1    4 7 47.37                             151    0.07 7 77.7  37 
 RUS  HZ EP   1    4 7 48.76                             145    0.13 7 98.3 177 
 RUS  HZ I         4 8  5.87         2.4 0.46                          98.3 177 
 RUS  HE ES   2    4 8  7.46                             145    0.13 5 98.3 177 
 PTB  HZ EP   1    4 7 52.05                             133   -0.05 7  150 260 
 PTB  HE ES   2    4 8 12.89                             133   -0.62 5  150 260 
                                                                                
