 2012  617 0100 47.3 L   6.815 -73.147147.6  RSN  8 0.5 1.7LRSN                1
 GAP=136        0.89       3.9     5.2  8.4 -0.3464E+01  0.1575E+02 -0.3311E+01E
 Epicentro: LOS SANTOS - SANTANDER                                             3
 ACTION:UPD 12-08-06 17:50 OP:ep   STATUS:               ID:20120617010047 L   I
 2012-06-17-0100-00M.COL___199                                                 6
 STAT SP IPHASW D HRMM SECON CODA AMPLIT PERI AZIMU VELO AIN AR TRES W  DIS CAZ7
 BAR2 SZ EP   1    1 1  7.20                             170    0.07 7 25.0 189 
 BAR2 SZ I         1 1  7.49         7.1 0.29                          25.0 189 
 BAR2 SZ ES   1    1 1 22.71                             170    0.07 7 25.0 189 
 PAM  SZ EP   1    1 1 10.17                             151    0.58 7 76.2  40 
 PAM  SE ES   1    1 1 27.37                             151    0.36 7 76.2  40 
 RUS  HZ EP   1    1 1 10.99                             144   -0.31 7  102 176 
 RUS  HN ES   1    1 1 29.53                             144   -0.53 7  102 176 
 RUS  HZ I         1 1 30.85         3.8 0.28                           102 176 
 PTB  HZ EP   1    1 1 13.55                             132   -0.83 7  148 258 
 PTB  HN ES   1    1 1 35.21                             132   -0.33 7  148 258 
 PTB  HZ I         1 1 41.12         5.3 0.21                           148 258 
 OCA  HZ EP   1    1 1 15.73                             130    0.19 7  159 353 
 OCA  HE ES   1    1 1 37.00                             130   -0.61 7  159 353 
 OCA  HZ I         1 1 42.35         9.8 0.26                           159 353 
 ZAR  HZ EP   1    1 1 19.60                             123   -0.13 6  203 292 
 ZAR  HE ES   1    1 1 45.72                             123    0.65 6  203 292 
 ZAR  HZ I         1 1 52.14         8.5 0.29                           203 292 
 NOR  SE ES   1    1 1 51.72                             119    0.53 6  236 234 
 CHI  HN ES   1    1 1 55.47                             117    0.63 6  250 195 
                                                                                
