 2012 1217 0238 43.8 L   6.760 -73.186148.9  RSN  4 0.3 1.2LRSN                1
 GAP=133        0.66       4.8     5.2  7.6  0.4552E+01 -0.1379E+02 -0.1313E+01E
 Epicentro: VILLANUEVA - SANTANDER                                             3
 ACTION:UPD 13-01-04 14:28 OP:ep   STATUS:               ID:20121217023843 L   I
 2012-12-17-0230-00M.COL___238                                                 6
 STAT SP IPHASW D HRMM SECON CODA AMPLIT PERI AZIMU VELO AIN AR TRES W  DIS CAZ7
 BRR  HZ IP     D  239  5.40                             153    0.2110 69.6 303 
 BRR  HE ES        239 21.97                             153    0.0910 69.6 303 
 BRR  HZ I         239 27.03         3.8 0.57                          69.6 303 
 PAM  SZ EP        239  6.40                             149   -0.3110 83.6  40 
 PAM  SZ I         239  6.66         3.1 0.46                          83.6  40 
 RUS  HZ EP        239  7.96                             145    0.3910 96.6 173 
 RUS  HE ES   1    239 25.88                             145   -0.24 7 96.6 173 
 RUS  HE I         239 28.64         2.6 0.48                          96.6 173 
 PTB  HZ EP   1    239 10.26                             134   -0.29 7  143 260 
 PTB  HE ES   1    239 31.23                             134   -0.19 7  143 260 
 PTB  HZ I         239 36.12         1.4 0.09                           143 260 
                                                                                
