 2010  817 0811  8.5 L   6.737 -73.095147.3  RSN  4 0.1 1.1LRSN                1
 GAP=170        0.38       4.8     6.4  5.0  0.1279E+02 -0.1708E+02 -0.8344E+01E
 Epicentro: JORDAN - SANTANDER                                                 3
 ACTION:UP  10-09-07 10:55 OP:vdl  STATUS:               ID:20100817081108 L   I
 2010-08-17-0808-09S.COL___111                                                 6
 STAT SP IPHASW D HRMM SECON CODA AMPLIT PERI AZIMU VELO SNR AR TRES W  DIS CAZ7
 BTL  SZ EP        811 28.58                             169     0.110   28 316 
 BTL  SZ ES   1    811 44.00                             169     0.0 7   28 316 
 BRR  HZ EP        811 30.30                             150     0.010   80 301 
 BRR  HN ES        811 47.30                             150     0.010   80 301 
 BRR  HZ I         812 10.00         8.2 0.32                            80 301 
 RUS  HN ES   2    811 50.00                             146    -0.2 5   93 179 
 RUS  HZ I         811 52.06         1.3 0.75                            93 179 
 GUE  SZ EP   1    811 33.71                             138    -0.1 7  122   9 
 GUE  SZ I         811 54.97         0.7 0.06                           122   9 
                                                                                
