 2010  917 0047 11.8 L   6.785 -73.065142.9  RSN  7 0.4 2.0LRSN                1
 GAP=168        0.97       4.3     8.9  9.6 -0.8973E+01 -0.8724E+01 -0.3621E+00E
 Epicentro: LOS SANTOS - SANTANDER                                             3
 ACTION:UP  11-02-18 11:03 OP:tino STATUS:               ID:20100917004711 L   I
 2010-09-17-0043-51S.COL___118                                                 6
 STAT SP IPHASW D HRMM SECON CODA AMPLIT PERI AZIMU VELO SNR AR TRES W  DIS CAZ7
 BTL  SZ EP        047 31.35                             169     0.110   27 303 
 BRR  HZ EP        047 33.11                             149    -0.110   80 297 
 BRR  HN ES   1    047 50.35                             149     0.5 7   80 297 
 BRR  HZ I         047 51.17        18.2 0.06                            80 297 
 RUS  HZ EP        047 34.94                             144    -0.210   99 181 
 RUS  HN ES   1    047 53.08                             144    -0.3 7   99 181 
 RUS  HZ I         047 54.95         8.8 0.22                            99 181 
 GUE  SZ EP        047 36.53                             139     0.210  117   8 
 GRA  SZ EP        047 37.15                             136     0.410  125  13 
 GRA  SZ ES   1    047 56.39                             136     0.2 7  125  13 
 GRA  SZ I         047 57.90        13.7 0.39                           125  13 
 OCA  SZ EP        047 39.93                             128    -0.3 9  163 350 
 OCA  SZ ES   1    048  1.32                             128    -1.0 7  163 350 
 OCA  SZ I         048  4.39        11.2 0.29                           163 350 
 RREF HZ EP   1    047 58.96                             110     0.4 5  328 231 
 RREF HN ES   2    048 34.61                             110    -0.3 3  328 231 
 RREF HZ I         048 42.21         6.5 0.51                           328 231 
                                                                                
