 2017  217 0759  6.5 L   7.196 -74.124  4.0  RSN  6 0.4 1.7LRSN                1
 GAP=152        1.00       3.1     1.8  5.3  0.7577E+00 -0.8783E+00  0.3700E+01E
 Epicentro: PUERTO WILCHES - SANTANDER                                         3
 ACTION:UPD 17-05-24 15:37 OP:jn   STATUS:               ID:20170217075906 L   I
 OLDACT:REG 17-02-17 13:41 OP:cog  STATUS:               ID:20170217075742     3
 2017-02-17-0758-00M.COL___330                                                 6
 STAT SP IPHASW D HRMM SECON CODA AMPLIT PERI AZIMU VELO AIN AR TRES W  DIS CAZ7
 BRR  HZ EP        759 13.54                              47   -0.6310 46.5 102 
 BRR  HE ES        759 19.55                              47   -0.5810 46.5 102 
 BRR  HZ I         759 21.16        25.6 0.68             47           46.5 102 
 PTB  HZ EP        759 19.47                              47    0.0110 81.3 207 
 PTB  HE ES        759 29.52                              47   -0.0310 81.3 207 
 PTB  HZ I         759 30.02        24.2 0.16             47           81.3 207 
 ZAR  HZ EP        759 20.42                              47    0.0510 87.4 292 
 ZAR  HE ES        759 30.99                              47   -0.1810 87.4 292 
 BAR2 EZ EP        759 26.43                              47    0.3410  124 123 
 BAR2 EZ ES        759 41.01                              47   -0.3510  124 123 
 BAR2 EZ I         759 41.59         6.2 0.36             47            124 123 
 PAM  EZ EP        759 31.85                              47    0.28 9  158  84 
 PAM  EE ES        759 51.72                              47    0.60 9  158  84 
 PAM  EZ I         759 53.29        14.6 0.38             47            158  84 
 RUS  HZ EP        759 35.90                              37    0.47 9  184 141 
 RUS  HN ES        759 58.32                              37    0.35 9  184 141 
 RUS  HZ I         759 59.86        16.4 0.30             37            184 141 
                                                                                
