 2011  817 0556 50.9 L   6.867 -72.941140.0  RSN  5 0.4 1.7LRSN                1
 GAP=261        0.58       5.3     6.9  6.3  0.5243E+01  0.5484E+01  0.1353E+02E
 Epicentro: GUACA - SANTANDER                                                  3
 *RREF-BRR-RUS                                                                 3
 ACTION:UPD 12-07-13 15:52 OP:ep   STATUS:               ID:20110817055650 L   I
 2011-08-17-0540-00M.COL___151                                                 6
 STAT SP IPHASW D HRMM SECON CODA AMPLIT PERI AZIMU VELO AIN AR TRES W  DIS CAZ7
 BAR2 SZ EP   1    557 10.40                             163    0.11 7 40.4 221 
 BAR2 SZ ES   1    557 25.17                             163   -0.27 7 40.4 221 
 BAR2 SZ I         557 27.00        10.2 0.31                          40.4 221 
 BRR  HZ EP   1    557 12.66                             145    0.11 7 89.3 287 
 BRR  HN ES   1    557 29.36                             145   -0.10 7 89.3 287 
 BRR  HZ I         557 30.33        14.3 0.10                          89.3 287 
 RUS  HZ EP   1    557 14.94                             140    0.25 7  109 188 
 RUS  HZ I         557 16.14         6.1 0.16                           109 188 
 RUS  HN ES   2    557 33.41                             140    0.14 5  109 188 
 RREF HN ES   1    558 17.74                             108    0.63 5  344 231 
 PRA  HZ EP   1    557 45.43                             104   -0.88 4  410 212 
 PRA  HN ES   1    558 29.07                             104   -0.48 4  410 212 
                                                                                
