 2010 1117 0748  2.8 L   6.329 -73.094183.1  RSN  9 0.4 2.3LRSN                1
 GAP=168        0.97       5.1    10.1  8.1 -0.1444E+02  0.1619E+02  0.2793E+01E
 Epicentro: OCAMONTE - SANTANDER                                               3
 ACTION:UP  10-12-17 16:53 OP:REBC STATUS:               ID:20101117074802 L   I
 2010-11-17-0746-58S.COL___127                                                 6
 STAT SP IPHASW D HRMM SECON CODA AMPLIT PERI AZIMU VELO SNR AR TRES W  DIS CAZ7
 BAR2 SZ IP        748 26.94                             170    -0.110   31 341 
 BAR2 SZ ES   1    748 45.41                             170    -0.6 7   31 341 
 BAR2 SZ I         748 48.07        52.4 0.41                            31 341 
 RUS  HZ IP     D  748 28.10                             165     0.210   48 179 
 RUS  HZ I         748 28.71        34.4 0.31                            48 179 
 RUS  HE ES   1    748 47.57                             165     0.1 7   48 179 
 BRR  HZ IP     C  748 30.62                             147     0.410  110 322 
 BRR  HZ I         748 30.90        29.4 0.13                           110 322 
 BRR  HN ES   1    748 52.61                             147     0.9 7  110 322 
 GRA  SZ EP   2    748 35.31                             134    -0.2 4  175  11 
 GRA  SZ ES   2    749  0.64                             134    -0.4 4  175  11 
 GRA  SZ I         749  2.84         9.1 0.25                           175  11 
 ROSC BZ EP   2    748 39.89                             128     0.6 4  213 220 
 ROSC BZ I         749 13.95         9.9 0.42                           213 220 
 OCA  SZ EP   1    748 39.03                             129     0.1 6  213 353 
 OCA  SZ ES   1    749  6.31                             129    -0.8 6  213 353 
 OCA  SZ I         749 14.13         5.2 0.32                           213 353 
 NOR  SZ EP   2    748 38.67                             128    -0.3 4  214 247 
 NOR  SE ES   2    749  6.56                             128    -0.6 4  214 247 
 HEL  HZ EP   2    748 44.71                             122    -0.2 4  270 267 
 HEL  HZ I         749 20.65         8.9 0.32                           270 267 
 PRA  HZ EP   1    748 52.88                             115    -0.3 5  351 215 
 PRA  HZ I         748 54.31         9.8 0.14                           351 215 
 PRA  HE ES   1    749 32.32                             115    -0.2 5  351 215 
                                                                                
