 2015  817 0841 59.1 L   6.825 -73.124146.8  RSN  8 0.5 1.8LRSN                1
 GAP=202        1.11       4.6     7.4  7.8 -0.4414E+01  0.9704E+01 -0.4250E+01E
 Epicentro: LOS SANTOS - SANTANDER                                             3
 ACTION:UPD 15-09-15 23:02 OP:cam  STATUS:               ID:20150817084159 L   I
 OLDACT:REG 15-08-17 13:45 OP:ar   STATUS:               ID:20150817083747     3
 2015-08-17-0837-47M.COL___304                                                 6
 STAT SP IPHASW D HRMM SECON CODA AMPLIT PERI AZIMU VELO AIN AR TRES W  DIS CAZ7
 BAR2 EZ EP        842 18.93                             169    0.0410 26.6 194 
 BAR2 EZ ES        842 34.41                             169    0.0610 26.6 194 
 BAR2 EZ I         842 35.11         8.3 0.26            167           26.6 194 
 BRR  HZ IP     C  842 20.70                             152    0.3310 72.1 296 
 BRR  HN ES        842 37.63                             152    0.6410 72.1 296 
 BRR  HZ I         842 41.72        10.4 0.12            148           72.1 296 
 OCA  HZ EP        842 26.86                             130   -0.36 9  158 352 
 OCA  HN ES        842 48.53                             130   -0.66 9  158 352 
 OCA  HZ I         842 53.20        12.0 0.20            131            158 352 
 SPBC HZ EP        842 28.36                             129    0.37 9  167 219 
 SPBC HN ES        842 49.61                             129   -0.94 9  167 219 
 SPBC HZ I         842 54.53         7.1 0.68            129            167 219 
 ZAR  HZ EP        842 32.34                             122    0.64 8  205 291 
 ZAR  HN ES        842 57.00                             122   -0.15 8  205 291 
 ZAR  HZ I         843  2.58         9.0 0.62            122            205 291 
 SML  HZ EP   2    842 35.14                             118   -0.44 4  242 335 
 SML  HN ES   2    843  4.26                             118    0.19 4  242 335 
 HEL  HZ EP   2    842 40.19                             115    0.53 4  275 255 
 HEL  HN ES   2    843 10.34                             115   -0.99 4  275 255 
 HEL  HZ I         843 16.66         2.8 0.32            115            275 255 
 GUY2CHZ EP   4    842 44.43                             112    1.31 0  305 235 
 GUY2CHE ES   4    843 15.44                             112   -2.05 0  305 235 
 GUY2CHZ I         843 30.38         2.5 0.64                           305 235 
                                                                                
