 2017  217 0458 27.6 L   6.832 -73.332125.1  RSN  5 0.4 1.4LRSN                1
 GAP=105        1.01       5.3     4.6  8.7 -0.3777E+01  0.5462E+01 -0.4475E+01E
 Epicentro: ZAPATOCA - SANTANDER                                               3
 ACTION:UPD 17-05-24 15:37 OP:jn   STATUS:               ID:20170217045623 L   I
 OLDACT:UPD 17-04-17 15:37 OP:nlst STATUS:               ID:20170217045623 L   3
 2017-02-17-0457-00M.COL___349                                                 6
 STAT SP IPHASW D HRMM SECON CODA AMPLIT PERI AZIMU VELO AIN AR TRES W  DIS CAZ7
 BAR2 EZ EP   1    458 44.76                             165   -0.18 7 31.3 148 
 BAR2 EZ ES        458 58.14                             165   -0.3510 31.3 148 
 BAR2 EZ I         458 58.99        15.9 0.24            166           31.3 148 
 BRR  HZ EP        458 45.26                             156   -0.1610 51.8 306 
 BRR  HN ES        458 59.24                             156   -0.1010 51.8 306 
 BRR  HZ I         459  0.14         8.5 0.32            155           51.8 306 
 PAM  EE EP        458 49.06                             142    0.5710 89.6  51 
 PAM  HN ES        459  4.79                             142   -0.0310 89.6  51 
 RUS  HE ES        459  7.49                             137    0.1510  108 165 
 PTB  HZ EP   1    458 50.14                             131   -0.96 7  128 255 
 PTB  HN ES        459 10.02                             131    0.5610  128 255 
 PTB  HZ I         459 12.52         1.5 0.18            130            128 255 
                                                                                
