 2011  917 0901  7.4 L   6.796 -73.110143.0  RSN  5 0.2 0.9LRSN                1
 GAP=141        0.54       4.3     5.2  6.8 -0.1685E+01 -0.3084E+01  0.9685E+01E
 Epicentro: LOS SANTOS - SANTANDER                                             3
 ACTION:UPD 12-07-13 15:57 OP:ep   STATUS:               ID:20110917090107 L   I
 2011-09-17-0858-24S.COL___170                                                 6
 STAT SP IPHASW D HRMM SECON CODA AMPLIT PERI AZIMU VELO AIN AR TRES W  DIS CAZ7
 BTL  SZ EP        9 1 26.77                             171    0.1010 22.1 308 
 GIR2 SZ EP        9 1 26.47                             167   -0.3110 32.6 343 
 GIR2 SZ ES   3    9 1 41.61                             167   -0.28 2 32.6 343 
 BRR  HN EP        9 1 28.23                             151   -0.2310 74.9 297 
 BRR  HE ES   1    9 1 45.20                             151    0.31 7 74.9 297 
 PAM  SZ EP        9 1 29.41                             151    0.2210 75.2  37 
 PAM  SN ES   1    9 1 46.08                             151   -0.11 7 75.2  37 
 RUS  HZ EP        9 1 31.01                             143    0.1810100.0 178 
 RUS  HE ES   2    9 1 48.92                             143   -0.19 5100.0 178 
 RUS  HZ I         9 1 50.60         1.5 0.22                         100.0 178 
                                                                                
