 2016 1117 0319 23.1 L   6.814 -73.129148.7  RSN 12 0.5 2.0LRSN                1
 GAP=102        1.07       5.0     3.2  6.0  0.4378E+00  0.4493E+01  0.9604E+01E
 Epicentro: LOS SANTOS - SANTANDER                                             3
 ACTION:UPD 17-10-26 21:09 OP:lp   STATUS:               ID:20161117031923 L   I
 OLDACT:UP  16-11-17 15:35 OP:and  STATUS:               ID:20161117031742     3
 OLDACT:UP  16-11-17 15:35 OP:and  STATUS:               ID:20161117031742     3
 OLDACT:UP  16-11-17 15:34 OP:and  STATUS:               ID:20161117031742     3
 OLDACT:UP  16-11-17 15:33 OP:and  STATUS:               ID:20161117031742     3
 OLDACT:REG 16-11-17 12:35 OP:and  STATUS:               ID:20161117031742     3
 2016-11-17-0318-00M.COL___340                                                 6
 STAT SP IPHASW D HRMM SECON CODA AMPLIT PERI AZIMU VELO AIN AR TRES W  DIS CAZ7
 BAR2 EZ EP        319 43.01                             170   -0.1610 25.2 193 
 BAR2 EZ ES        319 58.16                             170   -0.6210 25.2 193 
 BAR2 EZ I         319 59.18        19.3 0.21            170           25.2 193 
 BRR  HZ IP     C  319 44.92                             153    0.2610 72.1 297 
 BRR  HN ES        320  2.16                             153    0.7210 72.1 297 
 BRR  HZ I         320  4.64        16.0 0.06            149           72.1 297 
 PAM  EZ IP     C  319 45.75                             152    0.2110 75.1  39 
 PAM  HN ES        320  2.65                             152   -0.3610 75.1  39 
 PAM  EZ I         320  5.24        14.6 0.55            152           75.1  39 
 PTB  HZ EP   9    319 49.53                             132   -1.01 0  150 258 
 PTB  HN ES        320 10.96                                    0.06 9  150 258 
 PTB  HZ I         320 12.97         9.5 0.28            130            150 258 
 TAM  HZ IP     D  319 51.11                             131    0.18 9  154 106 
 TAM  HN ES        320 12.83                             131    0.22 9  154 106 
 ZAR  HZ EP        319 55.91                             123    0.01 9  205 292 
 ZAR  HN ES        320 21.98                             123    0.54 9  205 292 
 ZAR  HZ I         320 28.06        13.1 0.28            121            205 292 
 NOR  HN ES        320 27.07                             119   -0.42 8  237 234 
 NOR  HZ I         320 32.24         6.9 0.22            118            237 234 
 URE  HN ES        320 35.44                             114   -1.29 7  285 291 
 URE  HZ I         320 46.11         8.8 0.26            113            285 291 
 PTGC HZ EP   4    320  5.70                             112   -1.52 0  309 159 
 LL6C HZ EP   9    319 48.50                             111   -20.3 0  323 357 
 LL6C HE ES   4    320 26.27                                    2.15 0  323 357 
 CBOC HZ EP        320 10.07                             110   -0.36 7  336 252 
 CBOC HN ES        320 48.01                             110    0.69 7  336 252 
 CBOC HZ I         320 51.24         1.8 0.20            109            336 252 
 PRA  HZ EP        320 16.66                             107   -0.37 6  394 210 
 PRA  HE ES     C  320 59.58                             107    0.53 6  394 210 
 PRA  HZ I         321  4.37         2.6 0.30            107            394 210 
 ORTC HZ EP        320 17.33                             107   -0.10 6  398 216 
 ORTC HN ES   3    321  1.00                             107    1.22 1  398 216 
 SJC  HZ EP   4    320 17.37                             106   -1.40 0  409 327 
 SJC  HN ES   4    320 59.44                             106   -2.72 0  409 327 
 SJC  HZ I         321  6.54         3.0 0.60            105            409 327 
                                                                                
