 2016 1017 0313 55.1 L   6.878 -73.162147.6  RSN 10 0.4 1.6LRSN                1
 GAP= 68        0.95       3.5     4.3  6.1 -0.4488E+01 -0.2953E+01  0.6344E+01E
 Epicentro: BETULIA - SANTANDER                                                3
 ACTION:UPD 16-11-09 19:20 OP:rebc STATUS:               ID:20161017031355 L   I
 OLDACT:UP  16-10-17 16:19 OP:and  STATUS:               ID:20161017030732     3
 OLDACT:UP  16-10-17 16:18 OP:and  STATUS:               ID:20161017030732     3
 OLDACT:REG 16-10-17 11:39 OP:and  STATUS:               ID:20161017030732     3
 2016-10-17-0308-00M.COL___353                                                 6
 STAT SP IPHASW D HRMM SECON CODA AMPLIT PERI AZIMU VELO AIN AR TRES W  DIS CAZ7
 BAR2 EZ EP        314 14.85                             167   -0.2610 31.6 184 
 BAR2 EZ ES        314 30.02                             167   -0.7310 31.6 184 
 BAR2 EZ I         314 31.80         9.5 0.40            167           31.6 184 
 BRR  HZ IP     C  314 16.27                             155    0.1410 65.9 293 
 BRR  HN ES        314 33.28                             155    0.7210 65.9 293 
 BRR  HZ I         314 34.14         6.9 0.11            155           65.9 293 
 PAM  EZ IP     C  314 17.35                             153    0.1710 72.2  45 
 PAM  EN ES        314 34.60                             153    0.1710 72.2  45 
 PAM  EZ I         314 36.19         6.8 0.26            155           72.2  45 
 RUS  HZ EP        314 19.56                             142   -0.0810  109 175 
 RUS  HN ES   2    314 38.62                             142   -0.19 5  109 175 
 RUS  HZ I         314 39.81         4.5 0.25            142            109 175 
 PTB  HZ EP        314 21.48                             132   -0.72 9  148 255 
 PTB  HN ES        314 43.02                             132   -0.34 9  148 255 
 PTB  HZ I         314 45.37         6.2 0.13            133            148 255 
 OCA  HZ EP   2    314 22.48                             132   -0.23 5  152 353 
 OCA  HN ES        314 44.19                             132   -0.09 9  152 353 
 TAM  HZ IP     D  314 23.44                             130    0.17 9  159 108 
 SPBC HZ EP        314 24.50                             128    0.25 9  169 217 
 SPBC HN ES        314 47.59                             128    0.58 9  169 217 
 SPBC HZ I         314 49.47         6.6 0.18            129            169 217 
 CHI  HZ EP   2    314 34.04                             117    0.32 4  256 194 
 CHI  HN ES        315  4.04                             117    0.17 8  256 194 
 CHI  HZ I         315  6.55         2.0 0.34            118            256 194 
 GUY2CHZ EP   9    314 41.45                             112    2.28 0  305 233 
 GUY2CHN ES   2    315 15.92                                    0.07 4  305 233 
 GUY2CHZ I         315 22.10         2.4 0.60                           305 233 
                                                                                
