 2014  717 0139 56.1 L   6.151 -73.816 97.4  RSN 13 0.5 1.4LRSN                1
 GAP= 67        1.15       2.8     3.5  7.4 -0.2226E+01  0.4645E+01  0.2624E+01E
 Epicentro: LANDAZURI - SANTANDER                                              3
 ACTION:UPD 15-03-16 20:44 OP:nd   STATUS:               ID:20140717013956 L   I
 OLDACT:REG 14-07-17 12:37 OP:fm   STATUS:               ID:20140717013818     3
 2014-07-17-0138-18M.COL___263                                                 6
 STAT SP IPHASW D HRMM SECON CODA AMPLIT PERI AZIMU VELO AIN AR TRES W  DIS CAZ7
 SPBC HZ IP     D  140 11.74                             145    0.0210 62.0 207 
 SPBC HE ES        140 24.53                             145    0.6110 62.0 207 
 SPBC HZ I         140 27.13         8.5 0.18            142           62.0 207 
 PTB  HZ EP        140 12.46                             137   -0.7810 82.9 301 
 PTB  HE ES        140 25.97                             137   -0.6610 82.9 301 
 PTB  HZ I         140 26.85         7.2 0.10            136           82.9 301 
 BAR2 SZ EP        140 14.62                             136    0.8610 85.4  55 
 BAR2 SZ ES   1    140 27.44                             136   -0.11 7 85.4  55 
 BAR2 SZ I         140 28.78         5.7 0.13            138           85.4  55 
 RUS  HZ EP        140 13.82                             136   -0.3410 86.0 109 
 RUS  HN ES   1    140 27.77                             136   -0.49 7 86.0 109 
 RUS  HZ I         140 28.57         2.3 0.16            136           86.0 109 
 BRR  HZ EP        140 15.18                             129   -0.1710  106   6 
 BRR  HE ES        140 30.74                             129    0.3510  106   6 
 BRR  HZ I         140 34.04         8.8 0.12            130            106   6 
 NOR  HZ EP        140 18.19                             122    0.0310  134 241 
 NOR  HE ES        140 35.57                             122    0.1910  134 241 
 NOR  HZ I         140 39.66        14.0 0.14            120            134 241 
 CHI  HE ES   1    140 42.42                             116   -0.50 7  168 177 
 CHI  HZ I         140 47.34         2.6 0.21            115            168 177 
 ZAR  HZ EP        140 23.95                             113   -0.10 9  188 322 
 ZAR  HN ES        140 46.28                             113    0.41 9  188 322 
 ZAR  HZ I         140 48.58         4.4 0.10            113            188 322 
 GUY2CHZ EP   4    140 27.26                             112    1.24 0  200 239 
 GUY2CHN ES   1    140 49.17                             112   -0.20 6  200 239 
 GUY2CHZ I         140 56.60         2.5 0.35                           200 239 
 RREF HN ES   1    140 52.92                             110   -0.71 6  219 231 
 RREF HZ I         140 58.09         3.3 0.24            109            219 231 
 TOL  SN ES        140 58.04                             108    0.61 8  240 224 
 TOL  SZ I         141  7.83         3.1 0.14            107            240 224 
 PRA  HZ I         141 13.30         0.9 0.25            104            294 204 
 ORTC HZ EP        140 37.38                             104    0.80 7  294 213 
 ORTC HN ES   1    141  8.46                             104    0.29 5  294 213 
 ORTC HZ I         141 17.99         2.1 0.18            104            294 213 
 PRA  HZ EP   1    140 35.82                             104   -0.78 5  294 204 
 PRA  HE ES   1    141  8.05                             104   -0.17 5  294 204 
                                                                                
