 2016  217 0353  9.7 L   6.790 -73.119142.7  RSN  8 0.4 1.7LRSN                1
 GAP=140        1.03       3.7     5.1  7.1  0.6684E+00  0.1097E+02  0.6267E+01E
 Epicentro: LOS SANTOS - SANTANDER                                             3
 ACTION:UPD 16-03-04 21:26 OP:rebc STATUS:               ID:20160217035309 L   I
 OLDACT:UP  16-02-17 14:43 OP:drio STATUS:               ID:20160217034743d    3
 OLDACT:DUP 16-02-17 14:37 OP:drio STATUS:               ID:20160217034743d    3
 2016-02-17-0347-42M.COL___322                                                 6
 STAT SP IPHASW D HRMM SECON CODA AMPLIT PERI AZIMU VELO AIN AR TRES W  DIS CAZ7
 BRR  HZ EP        353 30.72                             151    0.0310 74.3 298 
 BRR  HN ES        353 47.54                             151    0.4710 74.3 298 
 BRR  HZ I         353 51.68        15.1 0.10            151           74.3 298 
 PAM  EZ EP        353 31.82                             151    0.3010 76.4  37 
 PAM  EE ES        353 48.39                             151   -0.1610 76.4  37 
 PAM  EZ I         353 51.04         5.6 0.58            157           76.4  37 
 RUS  HZ EP        353 33.06                             143    0.0110 99.4 178 
 RUS  HE ES        353 51.05                             143   -0.2310 99.4 178 
 RUS  HZ I         353 53.08         8.0 0.24            146           99.4 178 
 PTB  HZ EP        353 35.98                             131   -0.68 9  150 259 
 PTB  HN ES   4    353 56.28                             131   -1.41 0  150 259 
 PTB  HZ I         353 59.71         8.8 0.26            132            150 259 
 SPBC HZ EP        353 37.90                             128   -0.16 9  164 220 
 SPBC HN ES        353 59.68                             128   -0.50 9  164 220 
 SPBC HZ I         354  6.98         8.7 0.28            130            164 220 
 ZAR  HZ EP        353 41.78                             121   -0.48 8  207 292 
 ZAR  HE ES        354  7.85                             121    0.18 8  207 292 
 ZAR  HZ I         354 12.80         5.1 0.36            124            207 292 
 CHI  HZ EP        353 47.21                             116    0.01 8  248 196 
 CHI  HE ES        354 17.18                             116    0.73 8  248 196 
 CHI  HZ I         354 22.39         1.4 0.22            119            248 196 
 GUY2CHZ EP        353 54.31                             112    0.95 7  303 235 
 GUY2CHN ES   4    354 29.50                             112    2.07 0  303 235 
 GUY2CHZ I         354 34.46         1.5 0.36                           303 235 
                                                                                
