 2017  217 0849 51.9 L   6.832 -73.355130.7  RSN  4 0.3 1.3LRSN                1
 GAP=157        0.81       4.8     4.1  9.5 -0.5948E+01  0.8432E+01 -0.1767E+01E
 Epicentro: SAN VICENTE DE CHUCURI - SANTANDER                                 3
 ACTION:UPD 17-05-24 15:37 OP:jn   STATUS:               ID:20170217084951 L   I
 OLDACT:REG 17-02-17 13:48 OP:cog  STATUS:               ID:20170217084740     3
 2017-02-17-0848-00M.COL___324                                                 6
 STAT SP IPHASW D HRMM SECON CODA AMPLIT PERI AZIMU VELO AIN AR TRES W  DIS CAZ7
 BAR2 EZ EP        850 10.00                             165    0.0110 32.7 144 
 BAR2 EZ I         850 24.30        12.1 0.32            163           32.7 144 
 PAM  EZ EP        850 13.39                             143   -0.1410 91.6  52 
 PAM  EE ES        850 30.47                             143    0.0810 91.6  52 
 PAM  EZ I         850 31.70         1.9 0.56            142           91.6  52 
 RUS  HZ EP        850 15.37                             138    0.5510  108 164 
 RUS  HE ES        850 32.37                             138   -0.3110  108 164 
 PTB  HZ EP        850 15.26                             133   -0.4310  126 255 
 PTB  HN ES        850 34.46                             133    0.2310  126 255 
 PTB  HZ I         850 37.02         2.7 0.12            131            126 255 
                                                                                
