 2012  717 0137  7.2 L   6.375 -73.701100.1  RSN  5 0.2 1.3LRSN                1
 GAP=136        0.41       4.1     2.2  5.3  0.4204E+01  0.5643E+01  0.5412E+01E
 Epicentro: SANTA HELENA DEL OPON - SANTANDER                                  3
 ACTION:UPD 12-08-14 11:45 OP:ep   STATUS:               ID:20120717013707 L   I
 2012-07-17-0130-00M.COL___197                                                 6
 STAT SP IPHASW D HRMM SECON CODA AMPLIT PERI AZIMU VELO AIN AR TRES W  DIS CAZ7
 BAR2 SZ EP   1    137 23.37                             146     0.1 7   62  67 
 BAR2 SZ ES   1    137 35.89                             146     0.0 7   62  67 
 BAR2 SZ I         137 37.81        14.2 0.18            150             62  67 
 PTB  HZ EP   1    137 24.52                             137    -0.3 7   85 282 
 PTB  HN ES   1    137 38.44                             137    -0.1 7   85 282 
 PTB  HZ I         137 41.20         3.7 0.17            139             85 282 
 RUS  HZ EP   1    137 25.42                             137    -0.1 7   87 128 
 RUS  HZ I         137 25.68         3.4 0.17            142             87 128 
 RUS  HN ES   1    137 40.03                             137     0.1 7   87 128 
 ZAR  HN ES   2    137 55.50                             115     0.3 4  178 314 
 HEL  HZ EP   1    137 37.58                             112     0.1 6  203 264 
 HEL  HN ES   2    138  1.43                             112     0.3 4  203 264 
