 2016  217 0653 18.7 L   5.923 -73.684112.9  RSN  5 0.3 1.1LRSN                1
 GAP=127        0.68       3.4     3.6  6.8  0.4306E+01  0.1048E+02  0.8723E+01E
 Epicentro: GUAVATA - SANTANDER                                                3
 ACTION:UPD 16-03-04 21:26 OP:rebc STATUS:               ID:20160217065318 L   I
 OLDACT:REG 16-02-17 12:54 OP:drio STATUS:               ID:20160217064737     3
 2016-02-17-0647-37M.COL___309                                                 6
 STAT SP IPHASW D HRMM SECON CODA AMPLIT PERI AZIMU VELO AIN AR TRES W  DIS CAZ7
 RUS  HZ EP        653 36.38                             148   -0.4310 66.6  93 
 RUS  HE ES        653 50.84                             148   -0.0910 66.6  93 
 RUS  HZ I         653 52.40         3.5 0.26            156           66.6  93 
 BAR2 EZ EP        653 38.43                             138    0.0610 92.5  37 
 BAR2 EZ ES        653 53.89                             138    0.1810 92.5  37 
 PTB  HZ EP        653 39.29                             132   -0.2310  109 309 
 PTB  HN ES        653 55.69                             132   -0.0610  109 309 
 PTB  HZ I         653 58.88         2.6 0.26            136            109 309 
 BRR  HZ EP        653 41.44                             127   -0.0910  131 359 
 BRR  HN ES        653 59.59                             127    0.2610  131 359 
 BRR  HZ I         654  6.70         3.4 0.54            133            131 359 
 CHI  HZ EP        653 43.74                             125    0.46 9  143 182 
 CHI  HN ES   4    654  4.57                             125    2.14 0  143 182 
 CHI  HZ I         654  9.00         1.7 0.32            128            143 182 
                                                                                
