 2016 1017 0437 54.0 L   6.819 -73.152142.0  RSN 11 0.5 1.6LRSN                1
 GAP=135        0.96       3.3     4.4  6.0 -0.4290E+01  0.6511E+01  0.3808E+01E
 Epicentro: LOS SANTOS - SANTANDER                                             3
 ACTION:UPD 16-11-09 19:20 OP:rebc STATUS:               ID:20161017043754 L   I
 OLDACT:UP  16-10-17 17:12 OP:and  STATUS:               ID:20161017042728     3
 OLDACT:UP  16-10-17 17:08 OP:and  STATUS:               ID:20161017042728     3
 OLDACT:REG 16-10-17 11:45 OP:and  STATUS:               ID:20161017042728     3
 2016-10-17-0428-00M.COL___359                                                 6
 STAT SP IPHASW D HRMM SECON CODA AMPLIT PERI AZIMU VELO AIN AR TRES W  DIS CAZ7
 BAR2 EZ EP     C  438 12.95                             169   -0.3010 25.2 188 
 BAR2 EZ ES        438 28.22                             169   -0.0210 25.2 188 
 BAR2 EZ I         438 29.21        13.0 0.20            169           25.2 188 
 BRR  HZ EP        438 14.87                             153    0.1810 69.6 297 
 BRR  HN ES        438 31.77                             153    0.9810 69.6 297 
 BRR  HZ I         438 35.12         5.0 0.27            152           69.6 297 
 PAM  EZ IP     D  438 15.78                             151   -0.0110 76.3  41 
 PAM  EN ES        438 32.85                             151    0.1010 76.3  41 
 PAM  EZ I         438 34.99         3.9 0.44            153           76.3  41 
 RUS  HZ EP   2    438 17.05                             143   -0.52 5  103 176 
 RUS  HN ES        438 35.81                             143   -0.1210  103 176 
 RUS  HZ I         438 36.63         3.5 0.32            143            103 176 
 PTB  HZ EP        438 20.08                             132   -0.59 9  147 258 
 PTB  HN ES        438 40.81                             132   -0.63 9  147 258 
 PTB  HZ I         438 42.66         3.3 0.14            132            147 258 
 OCA  HZ EP   2    438 22.44                             130    0.59 5  158 353 
 OCA  HE ES        438 43.29                             130   -0.26 9  158 353 
 OCA  HZ I         438 47.55        10.8 0.38            131            158 353 
 SPBC HZ EP        438 22.00                             128   -0.36 9  164 218 
 SPBC HN ES   2    438 44.38                             128   -0.07 5  164 218 
 SPBC HZ I         438 50.86         5.2 0.10            129            164 218 
 NOR  HE ES        438 57.46                             118    0.10 8  235 234 
 NOR  HN ES        438 58.12                                            235 234 
 NOR  HZ I         438 59.09         4.0 0.19            118            235 234 
 CHI  HZ EP   2    438 32.33                             116    0.61 4  250 195 
 CHI  HN ES        439  1.65                             116    0.53 8  250 195 
 CHI  HZ I         439  6.23         1.9 0.26            117            250 195 
 GUY2CHZ EP   3    438 39.36                             112    1.82 2  302 234 
 GUY2CHN ES        439 11.68                             112    0.21 7  302 234 
 GUY2CHZ I         439 19.68         2.0 0.34                           302 234 
 PRA  HZ EP        438 47.65                             106    0.06 6  393 209 
 PRA  HE ES   2    439 30.71                             106    1.34 3  393 209 
 PRA  HZ I         439 35.78         2.3 0.30            107            393 209 
                                                                                
