 2011  817 0503  0.3 L   6.841 -73.008149.5  RSN 14 0.4 2.8LRSN                1
 GAP=192        0.72       2.5     6.6  4.9 -0.2453E+01  0.6297E+01  0.1647E+01E
 Epicentro: CEPITA - SANTANDER                                                 3
 ACTION:UPD 12-07-13 15:52 OP:ep   STATUS:               ID:20110817050300 L   I
 2011-08-17-0501-05S.COL___149                                                 6
 STAT SP IPHASW D HRMM SECON CODA AMPLIT PERI AZIMU VELO AIN AR TRES W  DIS CAZ7
 BAR2 SZ EP        5 3 20.98                             167    0.3110 33.6 215 
 BAR2 SZ ES   1    5 3 35.90                             167   -0.62 7 33.6 215 
 BAR2 SZ I         5 3 38.70       107.9 0.18                          33.6 215 
 BRR  HZ EP        5 3 22.83                             149    0.2310 83.1 291 
 BRR  HN ES   1    5 3 39.70                             149   -0.26 7 83.1 291 
 BRR  HZ I         5 3 42.38        69.9 0.20                          83.1 291 
 RUS  HZ EP   1    5 3 24.87                             143    0.07 7  105 185 
 RUS  HN ES   1    5 3 43.90                             143    0.03 7  105 185 
 RUS  HZ I         5 3 44.79        77.4 0.25                           105 185 
 OCA  SZ EP   2    5 3 29.70                             131    0.93 5  158 347 
 OCA  SZ ES   1    5 3 51.05                             131    0.11 7  158 347 
 OCA  SZ I         5 3 55.98        42.2 0.35                           158 347 
 NOR  SZ EP   1    5 3 37.02                             117   -0.89 6  250 236 
 CHI  HZ EP   1    5 3 39.12                             117   -0.08 6  257 198 
 CHI  HZ I         5 3 40.99        22.2 0.17                           257 198 
 CHI  HN ES   1    5 4  9.12                             117   -0.38 6  257 198 
 ROSC BZ EP   1    5 3 40.52                             116    0.55 6  265 213 
 ROSC BZ I         5 3 42.58        39.0 0.23                           265 213 
 ROSC BN ES   1    5 4 11.57                             116    0.69 6  265 213 
 VIL  SZ EP   2    5 3 43.93                             112   -0.89 3  311 194 
 VIL  SN ES   1    5 4 19.65                             112    0.14 5  311 194 
 RREF HZ EP   1    5 3 48.59                             110    0.28 5  336 230 
 RREF HN ES   1    5 4 26.24                             110    0.52 5  336 230 
 RREF HZ I         5 4 33.15        22.3 0.33                           336 230 
 COD  HZ EP   1    5 3 48.53                             110   -0.03 5  346 352 
 COD  HN ES   1    5 4 25.54                             110   -0.62 5  346 352 
 COD  HZ I         5 4 31.21        19.1 0.42                           346 352 
 DBB  SZ EP   1    5 3 49.34                             109   -0.34 5  354 273 
 TOL  SZ EP   1    5 3 50.52                             109    0.16 5  357 226 
 PRA  HZ EP   1    5 3 54.85                             106   -0.50 4  404 211 
 PRA  HZ I         5 3 55.89        58.5 0.11                           404 211 
 PRA  HN ES   1    5 4 38.04                             106   -0.22 4  404 211 
 SJA  SZ EP   1    5 3 55.48                             106   -0.49 4  408 195 
                                                                                
