 2011  217 0731 13.7 L   6.793 -73.068141.5  RSN  8 0.3 1.7LRSN                1
 GAP=167        0.73       3.2     7.8  7.9 -0.1143E+02  0.1681E+02 -0.2393E+01E
 Epicentro: LOS SANTOS - SANTANDER                                             3
 ACTION:UP  11-03-28 15:09 OP:jfem STATUS:               ID:20110217073113 L   I
 2011-02-17-0729-17S.COL___137                                                 6
 STAT SP IPHASW D HRMM SECON CODA AMPLIT PERI AZIMU VELO SNR AR TRES W  DIS CAZ7
 BAR2 SZ IP        731 32.81                             169     0.010   26 210 
 BAR2 SZ I         731 33.36        14.5 0.19                            26 210 
 BAR2 SZ ES   2    731 47.08                             169    -0.7 5   26 210 
 GIR2 SZ EP   1    731 32.93                             166     0.0 7   35 336 
 RUS  HZ EP   1    731 37.21                             143     0.3 7  100 181 
 RUS  HN ES   1    731 55.37                             143     0.3 7  100 181 
 RUS  HZ I         731 56.69         7.3 0.28                           100 181 
 GRA  SZ IP        731 38.62                             136     0.210  124  14 
 GRA  SZ ES   1    731 57.42                             136    -0.3 7  124  14 
 GRA  SZ I         731 59.71        10.1 0.45                           124  14 
 OCA  SZ EP   1    731 41.40                             128    -0.5 7  162 350 
 OCA  SZ ES   1    732  4.36                             128     0.5 7  162 350 
 OCA  SZ I         732  7.99         9.7 0.21                           162 350 
 NOR  SN ES   1    732 18.25                             117     0.1 6  241 236 
 CHI  HZ EP   1    731 50.83                             116    -0.5 6  250 197 
 CHI  HN ES   1    732 20.76                             116     0.1 6  250 197 
 CHI  HZ I         732 27.87         2.8 0.54                           250 197 
 HEL  HZ EP   2    731 54.39                             113    -0.2 4  280 256 
 HEL  HZ I         732 33.19         2.7 0.29                           280 256 
                                                                                
