 2015  417 0439 35.0 L   6.760 -73.156154.5  RSN  5 0.4 1.2LRSN                1
 GAP=199        1.02       5.7     7.6 10.0  0.2013E+02 -0.9560E+01 -0.2058E+02E
 Epicentro: LOS SANTOS - SANTANDER                                             3
 ACTION:UPD 15-06-03 16:55 OP:cam  STATUS:               ID:20150417043935 L   I
 OLDACT:REG 15-04-17 12:54 OP:spq  STATUS:               ID:20150417043749     3
 2015-04-17-0437-49M.COL___278                                                 6
 STAT SP IPHASW D HRMM SECON CODA AMPLIT PERI AZIMU VELO AIN AR TRES W  DIS CAZ7
 BRR  HZ EP        439 57.76                             153    0.6210 72.4 302 
 BRR  HN ES        440 14.81                             153    0.3710 72.4 302 
 BRR  HZ I         440 20.11         3.4 0.48            153           72.4 302 
 RUS  HZ EP   1    439 59.56                             147    0.26 7 96.3 175 
 RUS  HN ES        440 17.80                             147   -0.4810 96.3 175 
 RUS  HZ I         440 21.22         1.1 0.38            152           96.3 175 
 PTB  HZ EP        440  2.76                             134    0.26 9  146 260 
 PTB  HN ES        440 23.48                             134   -0.49 9  146 260 
 PTB  HZ I         440 25.90         1.7 0.14            137            146 260 
 ZAR  HN ES        440 33.95                             124    0.06 9  205 293 
 ZAR  HZ I         440 43.13         1.5 0.30            127            205 293 
 SML  HZ EP   1    440 11.92                             119   -0.57 6  247 336 
 SML  HN ES        440 41.27                             119   -0.47 8  247 336 
 SML  HZ I         440 45.64         2.0 0.20            121            247 336 
                                                                                
