 2013  917 0750 50.2 L   6.791 -73.117144.0  RSN  7 0.5 1.5LRSN                1
 GAP=186        1.18       4.9     6.6  8.4  0.6326E+01  0.8546E+01  0.2469E+01E
 Epicentro: LOS SANTOS - SANTANDER                                             3
 ACTION:UPD 13-10-22 09:23 OP:ep   STATUS:               ID:20130917075050 L   I
 OLDACT:DUP 13-09-17 11:32 OP:carl STATUS:               ID:20130917074650d    3
 2013-09-17-0746-49M.COL___235                                                 6
 STAT SP IPHASW D HRMM SECON CODA AMPLIT PERI AZIMU VELO AIN AR TRES W  DIS CAZ7
 BAR2 SZ EP        751  9.81                             170    0.2010 23.1 198 
 BAR2 SZ ES        751 24.75                             170   -0.0010 23.1 198 
 BAR2 SZ I         751 25.51         7.7 0.18            165           23.1 198 
 BRR  HZ EP        751 11.73                             151    0.3810 74.5 298 
 BRR  HN ES        751 28.27                             151    0.4310 74.5 298 
 BRR  HN I         751 28.74        15.0 0.20            150           74.5 298 
 RUS  HZ EP        751 13.74                             144    0.0510 99.4 178 
 RUS  HN ES   1    751 32.10                             144    0.09 7 99.4 178 
 RUS  HZ I         751 32.96         2.7 0.24            142           99.4 178 
 PTB  HZ EP        751 16.37                             131   -0.92 9  151 259 
 PTB  HN ES        751 37.73                             131   -0.69 9  151 259 
 PTB  HZ I         751 39.72         5.7 0.18            130            151 259 
 OCA  HE ES        751 39.89                             129   -0.70 9  162 352 
 SPBC HZ EP        751 18.95                             128    0.27 9  164 220 
 SPBC HN ES   1    751 40.65                             128   -0.24 7  164 220 
 SPBC HZ I         751 49.46         2.3 0.28            127            164 220 
 ZAR  HZ EP   1    751 23.54                             122    0.67 6  207 292 
 ZAR  HE ES        751 49.01                             122    0.65 8  207 292 
                                                                                
