 2013 1217 0918 57.1 L   6.871 -73.327120.4  RSN  7 0.3 1.7LRSN                1
 GAP= 99        0.88       3.1     4.3  5.8  0.7326E+00  0.7355E+01 -0.1858E+01E
 Epicentro: BETULIA - SANTANDER                                                3
 ACTION:UPD 14-01-13 10:18 OP:ep   STATUS:               ID:20131217091857 L   I
 OLDACT:DUP 13-12-17 07:32 OP:nd   STATUS:               ID:20131217091001d    3
 2013-12-17-0910-00M.COL___285                                                 6
 STAT SP IPHASW D HRMM SECON CODA AMPLIT PERI AZIMU VELO AIN AR TRES W  DIS CAZ7
 BAR2 SZ EP        919 14.37                             163    0.3110 34.7 153 
 BAR2 SZ ES        919 27.16                             163   -0.1110 34.7 153 
 BAR2 SZ I         919 29.00       120.9 0.22            168           34.7 153 
 BRR  HZ IP     D  919 14.81                             156    0.4510 49.9 302 
 BRR  HN ES        919 27.94                             156    0.1310 49.9 302 
 BRR  HZ I         919 29.77        12.9 0.10            155           49.9 302 
 PAM  SZ EP        919 17.62                             142    0.2410 86.6  53 
 PAM  SN ES        919 33.12                             142   -0.0510 86.6  53 
 PAM  SZ I         919 36.65         6.5 0.24            145           86.6  53 
 RUS  HZ EP        919 19.32                             135   -0.0810  111 166 
 RUS  HN ES        919 36.67                             135   -0.1010  111 166 
 RUS  HZ I         919 38.24         3.4 0.18            139            111 166 
 PTB  HZ EP        919 19.68                             129   -0.7710  130 254 
 PTB  HN ES   4    919 37.02                             129   -1.62 0  130 254 
 PTB  HZ I         919 42.12         8.1 0.32            131            130 254 
 OCA  HZ EP        919 22.45                             125   -0.25 9  151   0 
 OCA  HN ES        919 42.28                             125   -0.36 9  151   0 
 OCA  HZ I         919 48.12         8.5 0.14            127            151   0 
 ZAR  HZ EP        919 26.30                             119    0.56 9  183 292 
 ZAR  HN ES   2    919 47.96                             119   -0.09 4  183 292 
 ZAR  HZ I         919 52.13         3.3 0.26            121            183 292 
                                                                                
