 2012 1217 0606 35.0 L   5.905 -74.046  0.6  RSN  5 0.5 1.8LRSN                1
 GAP=190        1.08       6.1     3.2  8.9 -0.1479E+01  0.8743E+01 -0.2724E+02E
 Epicentro: LA BELLEZA - SANTANDER                                             3
 ACTION:UPD 13-01-04 14:28 OP:ep   STATUS:               ID:20121217060635 L   I
 2012-12-17-0600-00M.COL___238                                                 6
 STAT SP IPHASW D HRMM SECON CODA AMPLIT PERI AZIMU VELO AIN AR TRES W  DIS CAZ7
 PTB  HZ IP     D  6 6 48.32                              47   -0.3810 83.6 327 
 PTB  HE ES        6 7  0.03                              47    0.6010 83.6 327 
 RUS  HZ EP        6 6 52.74                              47    0.0410  107  91 
 BRR  HZ EP        6 6 56.50                              47   -0.43 9  138  16 
 BRR  HN ES   2    6 7 13.73                              47   -0.35 5  138  16 
 BRR  HZ I         6 7 15.51         8.5 0.14                           138  16 
 HEL  HZ EP        6 7  2.34                              47    0.61 9  167 281 
 HEL  HN ES        6 7 22.01                              47   -0.61 9  167 281 
 HEL  HZ I         6 7 24.12         8.0 0.19                           167 281 
 PAM  SZ EP   1    6 7  9.18                              37    0.62 6  218  43 
 PAM  SE ES   1    6 7 34.68                              37   -0.09 6  218  43 
 PAM  SZ I         6 7 37.10        13.6 0.42                           218  43 
                                                                                
