 2011  317 0332 44.1 L   6.807 -73.149145.1  RSN 15 0.4 2.6LRSN                1
 GAP=103        0.82       2.9     5.3  5.1 -0.4885E+01  0.1285E+01  0.2597E+01E
 Epicentro: LOS SANTOS - SANTANDER                                             3
 ACTION:UP  11-06-16 14:34 OP:jfem STATUS:               ID:20110317033244 L   I
 2011-03-17-0329-09S.COL___138                                                 6
 STAT SP IPHASW D HRMM SECON CODA AMPLIT PERI AZIMU VELO SNR AR TRES W  DIS CAZ7
 BTL  SZ IP        333  3.98                             173     0.410   18 313 
 BTL  SZ ES   1    333 19.17                             173     0.4 7   18 313 
 BAR2 SZ EP   1    333  3.70                             170     0.0 7   24 189 
 BAR2 SZ ES   2    333 18.67                             170    -0.3 5   24 189 
 BAR2 SZ I         333 20.06        96.1 0.22                            24 189 
 GIR2 SZ EP        333  3.74                             167     0.110   30 351 
 GIR2 SZ ES   2    333 18.64                             167    -0.3 5   30 351 
 RUS  HZ EP   1    333  7.74                             144    -0.1 7  101 176 
 RUS  HE ES   1    333 25.61                             144    -0.8 7  101 176 
 RUS  HZ I         333 27.79        41.2 0.23                           101 176 
 GRA  SZ IP        333  9.51                             137     0.310  125  18 
 GRA  SZ ES   1    333 28.57                             137    -0.3 7  125  18 
 GRA  SZ I         333 30.14        33.6 0.43                           125  18 
 OCA  SZ EP   1    333 12.18                             130    -0.1 7  159 353 
 OCA  SZ I         333 37.04        54.9 0.21                           159 353 
 YOP  SZ EP        333 14.35                             126     0.2 9  180 153 
 YOP  SN ES   1    333 38.38                             126     0.7 7  180 153 
 NOR  SZ EP   1    333 20.04                             118     0.2 6  235 234 
 NOR  SN ES   1    333 47.25                             118    -0.4 6  235 234 
 CHI  HZ EP   1    333 22.06                             117     0.2 6  249 195 
 CHI  HE ES   1    333 51.20                             117    -0.1 6  249 195 
 CHI  HZ I         333 58.55        17.4 0.51                           249 195 
 HEL  HZ EP   2    333 24.82                             115     0.6 4  272 256 
 HEL  HZ I         334  4.41        15.5 0.23                           272 256 
 GUY  SZ EP   3    333 28.22                             112     0.5 2  301 235 
 GUY  SZ I         334 12.56        42.1 0.44                           301 235 
 VIL  SZ EP        333 27.23                             112    -0.3 7  304 191 
 VIL  SN ES   1    334  0.98                             112    -0.5 5  304 191 
 MON  HZ EP   3    333 31.04                             109    -1.9 2  352 308 
 SDV  BZ EP        333 33.22                             108    -0.9 6  360  50 
 PRA  HZ EP   1    333 37.67                             106     0.0 4  392 209 
 PRA  HN ES   1    334 19.62                             106     0.2 4  392 209 
                                                                                
