 2017  317 0601 29.2 L   7.398 -73.358115.5  RSN  6 0.3 1.0LRSN                1
 GAP=181        0.94       7.6     5.2  7.3 -0.2758E-01  0.6694E+01 -0.1161E+02E
 Epicentro: SABANA DE TORRES - SANTANDER                                       3
 ACTION:UPD 17-05-25 18:41 OP:jn   STATUS:               ID:20170317060129 L   I
 OLDACT:UP  17-03-17 16:27 OP:cog  STATUS:               ID:20170317055709     3
 OLDACT:REG 17-03-17 13:31 OP:cog  STATUS:               ID:20170317055709     3
 2017-03-17-0558-00M.COL___402                                                 6
 STAT SP IPHASW D HRMM SECON CODA AMPLIT PERI AZIMU VELO AIN AR TRES W  DIS CAZ7
 BRR  HN ES        6 1 59.13                             155    0.1810 50.6 231 
 PAM  EN ES        6 2  2.84                             146    0.2210 73.0  95 
 BAR2 EZ ES        6 2  3.85                             140   -0.5610 91.2 168 
 PTB  HZ EP   9    6 1 55.06                             123    0.55 0  154 232 
 PTB  HN ES        6 2 15.47                             122    0.65 9  154 232 
 PTB  HZ I         6 2 17.23         1.9 0.18             37            154 232 
 ZAR  HZ EP        6 1 55.58                             121   -0.14 9  166 274 
 ZAR  HN ES   3    6 2 16.11                             121   -0.32 2  166 274 
 ZAR  HZ I         6 2 21.18         2.0 0.26             37            166 274 
 RUS  HZ EP        6 1 57.05                             121    0.35 9  169 170 
 RUS  HZ I         6 2 26.29         0.7 0.36             37            169 170 
                                                                                
