 2016  817 0629 23.4 L   6.764 -73.203143.9  RSN  5 0.3 1.2LRSN                1
 GAP=229        0.70       4.3     5.3  5.9  0.4512E+01  0.1004E+02  0.4732E+01E
 Epicentro: ZAPATOCA - SANTANDER                                               3
 ACTION:UPD 16-10-29 15:36 OP:rebc STATUS:               ID:20160817062923 L   I
 OLDACT:REG 16-08-17 12:45 OP:ak   STATUS:               ID:20160817062759     3
 2016-08-17-0627-59S.COL___343                                                 6
 STAT SP IPHASW D HRMM SECON CODA AMPLIT PERI AZIMU VELO AIN AR TRES W  DIS CAZ7
 BAR2 EZ ES        629 57.89                             172    0.0610 19.1 173 
 BRR  HZ IP     D  629 43.99                             153   -0.2010 67.8 304 
 BRR  HN ES        630  0.46                             153    0.0810 67.8 304 
 BRR  HZ I         630  4.21         4.2 0.29                          67.8 304 
 PTB  HZ EP        629 49.34                             133   -0.27 9  141 260 
 PTB  HN ES        630  9.60                             133   -0.43 9  141 260 
 PTB  HZ I         630 11.99         1.4 0.12                           141 260 
 SPBC HZ EP        629 51.38                             130    0.27 9  156 218 
 SPBC HN ES        630 12.87                             130    0.17 9  156 218 
 SPBC HZ I         630 15.97         2.9 0.29                           156 218 
 ZAR  HN ES        630 20.61                             123    0.43 9  200 294 
                                                                                
