 2013  517 0326 30.9 L   6.791 -73.162141.7  RSN 13 0.5 2.1LRSN                1
 GAP=135        1.07       3.3     4.3  5.7 -0.1730E+01  0.6972E+01  0.1138E+01E
 Epicentro: LOS SANTOS - SANTANDER                                             3
 ACTION:UPD 13-06-20 09:51 OP:ep   STATUS:               ID:20130517032630 L   I
 2013-05-17-0320-00M.COL___253                                                 6
 STAT SP IPHASW D HRMM SECON CODA AMPLIT PERI AZIMU VELO AIN AR TRES W  DIS CAZ7
 BAR2 SZ EP        326 50.18                             171    0.1310 22.1 186 
 BAR2 SZ ES        327  4.75                             171   -0.2110 22.1 186 
 BAR2 SZ I         327  6.44        30.0 0.22            168           22.1 186 
 GIR2 SZ EP        326 50.17                             167    0.0210 32.0 354 
 GIR2 SZ ES        327  5.10                             167   -0.0310 32.0 354 
 BRR  HZ IP     C  326 51.99                             152    0.4010 70.1 300 
 BRR  HN ES        327  8.81                             152    1.1110 70.1 300 
 BRR  HZ I         327  9.52        28.1 0.12            149           70.1 300 
 PAM  SZ EP        326 53.10                             149    0.2610 79.3  40 
 PAM  SN ES   1    327  9.93                             149    0.01 7 79.3  40 
 PAM  SZ I         327 11.54        23.9 0.40            153           79.3  40 
 RUS  HZ EP        326 54.25                             143    0.0210 99.7 175 
 RUS  HN ES        327 11.81                             143   -0.5810 99.7 175 
 RUS  HZ I         327 15.02        10.8 0.18            143           99.7 175 
 PTB  HZ EP        326 56.82                             131   -0.58 9  146 259 
 PTB  HN ES        327 17.97                             131   -0.07 9  146 259 
 PTB  HZ I         327 21.71        18.2 0.11            129            146 259 
 OCA  HZ EP   1    326 59.63                             129    0.62 7  161 354 
 OCA  HN ES        327 19.93                             129   -0.98 9  161 354 
 OCA  HZ I         327 26.27        11.2 0.28            129            161 354 
 ZAR  HN ES   1    327 27.55                             122   -0.44 6  203 293 
 ZAR  HZ I         327 34.08        21.7 0.52            121            203 293 
 NOR  HZ EP   1    327  6.11                             118   -0.10 6  233 234 
 NOR  HN ES   1    327 33.87                             118    0.14 6  233 234 
 NOR  HZ I         327 40.35        12.0 0.18            117            233 234 
 SML  HZ EP   1    327  7.03                             117   -0.33 6  244 336 
 SML  HN ES   1    327 36.06                             117    0.29 6  244 336 
 CHI  HN ES   1    327 37.86                             116    0.50 6  247 195 
 CHI  HZ I         327 43.14         5.6 0.28            116            247 195 
 HEL  HZ EP   1    327 10.97                             114    0.24 6  270 256 
 HEL  HN ES        327 41.27                             114   -0.49 8  270 256 
 HEL  HZ I         327 48.71         7.7 0.34            113            270 256 
 PRA  HZ EP   1    327 24.55                             106    0.44 4  390 209 
 PRA  HN ES   1    328  6.05                             106    0.46 4  390 209 
 PRA  HZ I         328 12.80         6.1 0.30            106            390 209 
                                                                                
