 2013  717 0231 32.6 L   6.804 -73.120148.8  RSN 17 0.4 2.5LRSN                1
 GAP=160        1.02       2.4     3.6  4.5  0.8550E+00  0.2878E+01  0.1113E+01E
 Epicentro: LOS SANTOS - SANTANDER                                             3
 ACTION:UPD 13-08-12 10:38 OP:ep   STATUS:               ID:20130717023132 L   I
 OLDACT:REG 13-07-17 07:15 OP:nd.  STATUS:               ID:20130717022959     3
 2013-07-17-0229-59M.COL___267                                                 6
 STAT SP IPHASW D HRMM SECON CODA AMPLIT PERI AZIMU VELO AIN AR TRES W  DIS CAZ7
 BAR2 SZ EP     C  231 52.70                             170    0.0410 24.5 196 
 BAR2 SZ ES        232  7.96                             170   -0.3110 24.5 196 
 BAR2 SZ I         232  9.78        48.0 0.22            170           24.5 196 
 GIR2 SZ EP        231 52.69                             167    0.0110 31.4 345 
 GIR2 SZ ES        232  7.84                             167   -0.4710 31.4 345 
 GIR2 SZ I         232 12.13        28.4 0.10            167           31.4 345 
 BRR  HZ EP        231 54.67                             152    0.4210 73.5 297 
 BRR  HN ES        232 11.94                             152    0.8410 73.5 297 
 BRR  HZ I         232 17.77        37.1 0.18            151           73.5 297 
 RUS  HZ EP        231 56.60                             144   -0.1210  101 178 
 RUS  HN ES        232 15.61                             144    0.1210  101 178 
 RUS  HZ I         232 18.24        34.6 0.32            146            101 178 
 PTB  HZ EP        231 59.34                             132   -0.78 9  151 259 
 PTB  HN ES        232 20.68                             132   -0.88 9  151 259 
 PTB  HZ I         232 22.88        53.9 0.36            132            151 259 
 OCA  HZ EP        232  1.14                             130   -0.04 9  160 352 
 OCA  HN ES        232 23.64                             130    0.20 9  160 352 
 OCA  HZ I         232 28.50        40.3 0.24            132            160 352 
 SPBC HZ EP        232  1.58                             129   -0.01 9  165 220 
 SPBC HN ES        232 24.09                             129   -0.07 9  165 220 
 YOP  SZ EP        232  2.59                             127   -0.24 9  178 154 
 YOP  SE ES        232 27.05                             127    0.68 9  178 154 
 YOP  SZ I         232 30.40        34.1 0.20            129            178 154 
 ZAR  HZ EP        232  5.33                             123   -0.22 8  207 292 
 ZAR  HE ES        232 31.14                             123   -0.06 8  207 292 
 ZAR  HZ I         232 37.67        41.1 0.44            123            207 292 
 NOR  HZ EP        232  8.55                             119   -0.28 8  237 235 
 NOR  HN ES        232 36.97                             119   -0.09 8  237 235 
 NOR  HZ I         232 40.45        39.3 0.18            120            237 235 
 SML  HZ EP        232  9.19                             118   -0.34 8  244 335 
 SML  HE ES        232 38.88                             118    0.59 8  244 335 
 SML  HZ I         232 43.13        54.1 0.10            119            244 335 
 CHI  HZ EP        232 11.05                             118    0.40 8  250 196 
 CHI  HN ES        232 39.96                             118   -0.33 8  250 196 
 CHI  HZ I         232 45.79        15.4 0.74            119            250 196 
 HEL  HZ EP        232 14.09                             115    0.75 8  275 256 
 HEL  HN ES        232 45.58                             115    0.51 8  275 256 
 HEL  HZ I         232 51.05        20.3 0.32            116            275 256 
 COD  HZ EP   2    232 20.56                             109   -0.56 3  348 354 
 COD  HN ES   2    232 58.25                             109   -0.68 3  348 354 
 COD  HZ I         233  2.95         6.0 0.56            111            348 354 
 PRA  HZ EP        232 26.36                             107   -0.13 6  394 210 
 PRA  HN ES   4    233  9.80                             107    1.32 0  394 210 
 PRA  HZ I         233 13.98        13.1 0.22            108            394 210 
 ORTC HZ EP        232 26.69                             107   -0.23 6  398 216 
 ORTC HN ES        233 10.07                             107    0.83 6  398 216 
 ORTC HZ I         233 16.53        10.2 0.42            108            398 216 
 SJC  HZ EP   4    232 26.75                             106   -1.70 0  410 327 
 SJC  HN ES   4    233  6.78                             106   -5.19 0  410 327 
 SJC  HZ I         233 16.17         6.6 0.48            107            410 327 
                                                                                
