 2011  617 0450 53.5 L   6.750 -73.228153.0  RSN  5 0.2 1.5LRSN                1
 GAP=158        0.48       7.4    11.8  5.8  0.6199E+02  0.1258E+02  0.1564E+02E
 Epicentro: VILLANUEVA - SANTANDER                                             3
 ACTION:UP  11-07-14 19:05 OP:ep   STATUS:               ID:20110617045053 L   I
 2011-06-17-0440-00M.COL___122                                                 6
 STAT SP IPHASW D HRMM SECON CODA AMPLIT PERI AZIMU VELO SNR AR TRES W  DIS CAZ7
 BAR2 SZ EP   2    451 13.89                             173    -0.1 5   18 164 
 BAR2 SZ ES   2    451 29.90                             173     0.0 5   18 164 
 BAR2 SZ I         451 30.32         9.3 0.29                            18 164 
 BTL  SZ EP   2    451 14.16                             172     0.2 5   19 347 
 BTL  SZ ES   1    451 30.24                             172     0.3 7   19 347 
 GIR2 SZ ES   2    451 29.78                             166    -0.6 5   37   6 
 BRR  HZ EP   1    451 15.20                             155     0.0 7   66 306 
 BRR  HZ I         451 31.89         6.3 0.17                            66 306 
 BRR  HN ES   1    451 32.08                             155    -0.1 7   66 306 
 RUS  HZ EP   1    451 17.74                             146     0.0 7   96 170 
 RUS  HN ES   2    451 36.37                             146    -0.2 5   96 170 
 RUS  HZ I         451 38.13         4.5 0.49                            96 170 
                                                                                
