 2012 1217 0859 17.4 L   6.382 -73.646102.5  RSN  8 0.3 2.0LRSN                1
 GAP= 82        0.85       3.8     3.4  7.4  0.2346E+01  0.1418E+02  0.7947E+01E
 Epicentro: SANTA HELENA DEL OPON - SANTANDER                                  3
 ACTION:UPD 13-01-04 14:28 OP:ep   STATUS:               ID:20121217085917 L   I
 2012-12-17-0854-45M.COL___210                                                 6
 STAT SP IPHASW D HRMM SECON CODA AMPLIT PERI AZIMU VELO AIN AR TRES W  DIS CAZ7
 BAR2 SZ EP        859 33.89                             149    0.4710 56.3  66 
 BAR2 SZ ES        859 46.17                             149    0.2710 56.3  66 
 BAR2 SZ I         859 48.66        89.5 0.17                          56.3  66 
 BRR  HZ EP        859 34.84                             138    0.0110 80.5 355 
 BRR  HN ES        859 48.37                             138   -0.0410 80.5 355 
 BRR  HZ I         859 55.21         9.9 0.11                          80.5 355 
 RUS  HZ EP        859 35.72                             138    0.0510 82.5 131 
 RUS  HN ES   1    859 49.45                             138   -0.46 7 82.5 131 
 RUS  HN I         859 53.00        17.7 0.34                          82.5 131 
 PTB  HZ EP        859 34.90                             135   -0.8510 91.3 281 
 PTB  HZ I         859 51.65        32.7 0.11                          91.3 281 
 PAM  SZ EP   1    859 41.95                             120   -0.05 7  149  45 
 PAM  SZ I         859 44.05         7.2 0.14                           149  45 
 PAM  SE ES   1    9 0  1.08                             120   -0.09 7  149  45 
 ZAR  HZ EP        859 44.93                             114   -0.02 9  182 313 
 ZAR  HN ES   1    9 0  6.28                             114   -0.15 7  182 313 
 ZAR  HZ I         9 0 11.21        19.9 0.30                           182 313 
 CHI  HZ EP   1    859 46.82                             112   -0.02 6  194 183 
 HEL  HZ EP        859 48.78                             110    0.25 8  209 264 
 HEL  HN ES        9 0 13.26                             110    0.46 8  209 264 
 HEL  HZ I         9 0 15.81         9.4 0.30                           209 264 
                                                                                
