 2017  917 0458  0.3 L   6.798 -73.138146.8  RSN  6 0.3 1.6LRSN                1
 GAP=238        0.89       4.6     5.4  6.5  0.6914E+01  0.1017E+02  0.5599E+01E
 Epicentro: LOS SANTOS - SANTANDER                                             3
 ACTION:UPD 17-10-05 19:13 OP:rebc STATUS:               ID:20170917045800 L   I
 OLDACT:REG 17-09-17 12:22 OP:lv   STATUS:               ID:20170917044739     3
 2017-09-17-0448-00M.COL___408                                                 6
 STAT SP IPHASW D HRMM SECON CODA AMPLIT PERI AZIMU VELO AIN AR TRES W  DIS CAZ7
 BAR2 EZ EP        458 19.80                             171   -0.2210 23.3 192 
 BAR2 EZ ES        458 34.77                             171   -0.6510 23.3 192 
 BAR2 EZ I         458 36.11        15.0 0.20            167           23.3 192 
 BRR  HZ EP        458 21.64                             152    0.0710 72.1 298 
 BRR  HE ES        458 38.69                             152    0.5010 72.1 298 
 BRR  HZ I         458 41.25         9.0 0.22            152           72.1 298 
 RUS  HZ EP        458 24.16                             144    0.0610  100 177 
 RUS  HN ES        458 43.07                             144    0.3810  100 177 
 RUS  HZ I         458 44.36         2.9 0.34            144            100 177 
 SPBC HZ EP        458 28.87                             129   -0.01 9  164 219 
 SPBC HN ES        458 51.50                             129    0.30 9  164 219 
 SPBC HZ I         458 55.80         4.8 0.18            129            164 219 
 ZAR  HN ES        458 58.20                             122   -0.10 9  205 292 
 NOR  HZ EP        458 36.23                             119    0.11 8  235 235 
 NOR  HN ES        459  3.51                             119   -0.57 8  235 235 
 NOR  HZ I         459  7.75         2.2 0.60            119            235 235 
                                                                                
