 2012  217 0555 33.8 L   6.783 -73.131146.0  RSN 12 0.4 1.8LRSN                1
 GAP=139        0.72       4.1     4.5  5.6 -0.1060E+01  0.4428E+01  0.6640E+01E
 ACTION:UP  12-03-07 16:31 OP:epov STATUS:               ID:20120217055533 L   I
 2012-02-17-0550-00M.COL___188                                                 6
 STAT SP IPHASW D HRMM SECON CODA AMPLIT PERI AZIMU VELO AIN AR TRES W  DIS CAZ7
 BAR2 SZ EP   1    555 53.27                             171   -0.18 7 21.9 195 
 BAR2 SZ ES   1    556  8.32                             171   -0.45 7 21.9 195 
 BAR2 SZ I         556 10.14        19.7 0.24                          21.9 195 
 GIR2 SZ EP   1    555 53.45                             167   -0.13 7 33.4 348 
 GIR2 SZ ES   2    556  9.37                             167    0.38 5 33.4 348 
 BRR  HZ EP   1    555 55.17                             152    0.04 7 73.5 299 
 BRR  HN ES   1    556 12.64                             152    0.90 7 73.5 299 
 BRR  HZ I         556 17.41        11.2 0.18                          73.5 299 
 PAM  SZ EP   1    555 56.07                             151   -0.02 7 77.8  38 
 PAM  SN ES   2    556 13.53                             151    0.07 5 77.8  38 
 RUS  HZ EP   1    555 57.29                             144   -0.17 7 98.7 177 
 RUS  HE ES   1    556 16.14                             144    0.24 7 98.7 177 
 RUS  HZ I         556 17.87         5.7 0.30                          98.7 177 
 PTB  HZ EP   1    556  0.25                             132   -0.67 7  149 260 
 PTB  HN ES   1    556 21.38                             132   -0.68 7  149 260 
 ZAR  HN ES   2    556 31.73                             122   -0.27 4  206 292 
 ZAR  HZ I         556 36.57         7.8 0.22                           206 292 
 NOR  SN ES   2    556 38.13                             119    0.64 4  235 235 
 CHI  HZ EP   1    556 11.52                             117    0.13 6  247 196 
 CHI  HN ES   2    556 40.95                             117    0.26 4  247 196 
 CHI  HZ I         556 46.46         2.6 0.44                           247 196 
 HEL  HZ EP   2    556 14.97                             115    0.80 4  273 256 
 RREF HZ EP   2    556 20.35                             111    0.37 3  322 230 
 RREF HN ES   2    556 56.54                             111    0.56 3  322 230 
 RREF HZ I         557  2.23         4.0 0.33                           322 230 
 PRA  HZ EP   1    556 27.73                             107    0.47 4  391 210 
 PRA  HN ES   2    557  8.47                             107   -0.47 3  391 210 
                                                                                
