 2014  817 0907 24.1 L   6.793 -73.139149.8  RSN 24 0.4 2.3LRSN                1
 GAP= 72        0.93       2.3     2.6  4.4 -0.6640E+00  0.2700E+01  0.1973E+01E
 Epicentro: LOS SANTOS - SANTANDER                                             3
 ACTION:UPD 14-09-15 21:50 OP:nd   STATUS:               ID:20140817090724 L   I
 OLDACT:REG 14-08-17 13:39 OP:spq  STATUS:               ID:20140817085816     3
 2014-08-17-0858-16M.COL___254                                                 6
 STAT SP IPHASW D HRMM SECON CODA AMPLIT PERI AZIMU VELO AIN AR TRES W  DIS CAZ7
 BAR2 SZ IP     C  9 7 44.13                             171   -0.1010 22.7 192 
 BAR2 SZ ES   1    9 7 59.61                             171   -0.30 7 22.7 192 
 BAR2 SZ I         9 8  0.24        49.2 0.20            169           22.7 192 
 BRR  HZ IP     C  9 7 46.12                             153    0.3610 72.2 299 
 BRR  HN ES        9 8  3.40                             153    0.7510 72.2 299 
 BRR  HZ I         9 8  5.13        34.5 0.11            151           72.2 299 
 PAM  SZ EP        9 7 47.07                             151    0.2910 77.5  39 
 PAM  SN ES        9 8  4.07                             151   -0.3810 77.5  39 
 PAM  SZ I         9 8  9.14        16.5 0.40            155           77.5  39 
 RUS  HZ EP        9 7 47.92                             145   -0.3010 99.8 176 
 RUS  HN ES   1    9 8  6.42                             145   -0.59 7 99.8 176 
 RUS  HZ I         9 8  7.62        29.1 0.30            145           99.8 176 
 PTB  HZ EP        9 7 50.77                             133   -0.70 9  148 259 
 PTB  HE ES        9 8 12.10                             133   -0.71 9  148 259 
 PTB  HZ I         9 8 13.32        16.0 0.23            131            148 259 
 TAM  HZ EP        9 7 52.36                             132    0.32 9  154 105 
 TAM  HN ES        9 8 14.00                             132    0.18 9  154 105 
 TAM  HZ I         9 8 15.24        12.7 0.28            134            154 105 
 OCA  HZ EP        9 7 52.57                             130   -0.26 9  161 353 
 OCA  HN ES        9 8 15.80                             130    0.58 9  161 353 
 OCA  HZ I         9 8 19.91        26.7 0.14            131            161 353 
 SPBC HZ EP        9 7 52.89                             130   -0.03 9  163 219 
 SPBC HE ES        9 8 15.76                             130    0.37 9  163 219 
 SPBC HZ I         9 8 18.61        25.6 0.48            129            163 219 
 ZAR  HZ EP        9 7 56.98                             123    0.05 9  205 292 
 ZAR  HN ES        9 8 22.04                             123   -0.48 9  205 292 
 ZAR  HZ I         9 8 28.04        17.8 0.24            123            205 292 
 NOR  HZ EP        9 8  0.11                             119    0.00 8  235 235 
 NOR  HN ES        9 8 28.37                             119    0.20 8  235 235 
 NOR  HZ I         9 8 34.77        16.3 0.44            119            235 235 
 SML  HZ EP        9 8  0.82                             118   -0.26 8  245 335 
 SML  HN ES   1    9 8 29.40                             118   -0.51 6  245 335 
 SML  HZ I         9 8 33.97        32.5 0.10            119            245 335 
 CHI  HZ EP        9 8  2.20                             118    0.21 8  248 195 
 CHI  HN ES        9 8 31.25                             118   -0.28 8  248 195 
 CHI  HZ I         9 8 37.93         8.9 0.34            118            248 195 
 ROSC BZ EP   4    9 8  3.90                             117    1.46 0  252 211 
 ROSC BE ES        9 8 32.98                             117    0.66 8  252 211 
 ROSC BZ I         9 8 39.98        20.0 0.35            117            252 211 
 HEL  HZ EP   1    9 8  4.25                             115   -0.35 6  273 256 
 HEL  HN ES   4    9 8 39.95                             115    3.78 0  273 256 
 HEL  HZ I         9 8 44.85         8.5 0.22            115            273 256 
 GUY2CHZ EP        9 8  7.88                             113   -0.06 7  301 235 
 GUY2CHE ES   4    9 8 45.12                             113    3.01 0  301 235 
 GUY2CHZ I         9 8 50.21        12.5 0.28                           301 235 
 VIL  SN ES   1    9 8 41.08                             113   -0.54 5  303 192 
 VIL  SZ I         9 8 47.87        11.6 0.64            113            303 192 
 RREF HZ EP   1    9 8 10.38                             112   -0.07 5  322 230 
 RREF HN ES   1    9 8 47.15                             112    0.57 5  322 230 
 RREF HZ I         9 8 51.61        12.3 0.24            111            322 230 
 CBOC HZ EP        9 8 11.32                             111    0.06 7  334 252 
 CBOC HN ES        9 8 48.67                             111    0.65 7  334 252 
 CBOC HZ I         9 8 54.48         3.4 0.54            110            334 252 
 DBB  SZ ES   1    9 8 49.23                             110    0.15 5  340 274 
 TOL  SZ EP        9 8 13.34                             110    0.80 7  343 225 
 TOL  SN ES   4    9 8 52.36                             110    2.06 0  343 225 
 TOL  SZ I         9 8 58.30        18.7 0.45            110            343 225 
 ANIL HZ EP   1    9 8 13.89                             109   -0.19 5  357 225 
 ANIL HN ES   4    9 8 55.63                             109    2.58 0  357 225 
 ANIL HZ I         9 9  0.44         3.2 0.38            109            357 225 
 PRA  HZ EP        9 8 17.15                             107   -0.60 6  392 210 
 PRA  HE ES   4    9 9  0.78                             107    1.20 0  392 210 
 PRA  HZ I         9 9  7.89        10.4 0.42            107            392 210 
 ORTC HZ EP        9 8 18.20                             107    0.04 6  395 216 
 ORTC HN ES   4    9 9  2.81                             107    2.50 0  395 216 
 ORTC HZ I         9 9  7.43         5.7 0.22            107            395 216 
 SJC  HZ EP   4    9 8 18.17                             106   -1.77 0  410 327 
 SJC  HN ES   4    9 9  0.68                             106   -2.79 0  410 327 
 SJC  HZ I         9 9  9.69         4.2 0.28            107            410 327 
                                                                                
