 2012  717 0044 10.9 L   7.361 -73.116 14.6  RSN  5 0.4 1.2LRSN                1
 GAP=106        0.78       4.1     2.7  8.7 -0.2506E+01  0.1011E+02  0.1981E+01E
 Epicentro: MATANZA - SANTANDER                                                3
 ACTION:UPD 12-08-14 11:45 OP:ep   STATUS:               ID:20120717004410 L   I
 2012-07-17-0040-00M.COL___197                                                 6
 STAT SP IPHASW D HRMM SECON CODA AMPLIT PERI AZIMU VELO AIN AR TRES W  DIS CAZ7
 PAM  SZ IP        044 19.40                             105     0.210   46  93 
 PAM  SN ES   1    044 25.61                             105     0.0 7   46  93 
 BRR  HZ EP   1    044 22.73                              99     0.3 7   72 247 
 BRR  HN ES   1    044 31.62                              99     0.2 7   72 247 
 BRR  HZ I         044 35.38         6.8 0.37            100             72 247 
 BAR2 SZ ES   2    044 34.54                              98    -1.0 5   85 185 
 OCA  HN ES   2    044 38.52                              96    -0.7 5  100 347 
 PTB  HZ EP   2    044 36.74                              56    -0.2 4  174 239 
 PTB  HN ES   2    044 57.45                              56     0.1 4  174 239 
 PTB  HZ I         044 59.26         3.2 0.31             56            174 239 
