 2012  117 0406 56.0 L   6.358 -72.858  0.0  RSN  5 0.4 1.2LRSN                1
 GAP=254        0.92       9.1    36.5 25.8  0.3100E+03  0.8778E+03  0.2030E+03E
 Epicentro: ONZAGA - SANTANDER                                                 3
 ACTION:UP  12-02-03 08:18 OP:REBC STATUS:               ID:20120117040656 L   I
 2012-01-17-0400-00M.COL___188                                                 6
 STAT SP IPHASW D HRMM SECON CODA AMPLIT PERI AZIMU VELO SNR AR TRES W  DIS CAZ7
 BAR2 SZ EP   1    4 7  3.70                              47    -0.4 7   44 306 
 BAR2 SZ ES   1    4 7  9.89                              47    -0.6 7   44 306 
 BAR2 SZ I         4 7 10.92        15.2 0.16                            44 306 
 RUS  HZ EP   1    4 7  6.39                              47     0.0 7   57 206 
 RUS  HN ES   1    4 7 14.44                              47     0.0 7   57 206 
 RUS  HZ I         4 7 16.89         5.2 0.54                            57 206 
 BRR  HZ EP   2    4 7 16.71                              47     0.5 5  126 311 
 BRR  HZ I         4 7 18.44         4.8 0.12                           126 311 
 BRR  HN ES   1    4 7 32.70                              47     0.7 7  126 311 
 PTB  HE ES   3    4 7 46.40                              47     0.3 2  178 277 
 PTB  HZ I         4 7 49.70         4.6 0.10                           178 277 
 CHI  HN ES   3    4 7 55.09                              37     0.0 2  214 207 
                                                                                
