 2013  917 0043 18.4 L   7.318 -74.110  4.0  RSN  4 0.3 1.8LRSN                1
 GAP=202        0.70       2.0     3.3  6.6 -0.1769E+01 -0.3685E+01  0.6220E+01E
 Epicentro: PUERTO WILCHES - SANTANDER                                         3
 ACTION:UPD 13-10-22 09:23 OP:ep   STATUS:               ID:20130917003959 L   I
 OLDACT:UPD 13-09-17 09:19 OP:carl STATUS:               ID:20130917003959 L   3
 2013-09-17-0039-59M.COL___269                                                 6
 STAT SP IPHASW D HRMM SECON CODA AMPLIT PERI AZIMU VELO AIN AR TRES W  DIS CAZ7
 ZAR  HZ EP        043 32.37                              90    0.5010 84.8 283 
 ZAR  HN ES        043 42.14                              90   -0.2210 84.8 283 
 ZAR  HZ I         043 43.15        44.7 0.24             47           84.8 283 
 PTB  HZ EP        043 33.45                              90    0.1410 94.2 204 
 PTB  HN ES   1    043 44.52                              90   -0.40 7 94.2 204 
 PTB  HZ I         043 45.12        18.5 0.44             47           94.2 204 
 SML  HZ EP        043 43.86                              90   -0.00 9  164   1 
 SML  HN ES        044  3.50                              90   -0.21 9  164   1 
 SML  HZ I         044  5.94        13.9 0.22             47            164   1 
 NOR  HE ES        044 14.88                              56   -0.05 8  211 203 
                                                                                
