 2016 1017 0808 36.1 L   6.764 -73.077151.3  RSN  7 0.3 1.2LRSN                1
 GAP=147        0.89       3.3     6.0  5.9 -0.5303E+01  0.3881E+01 -0.8106E+00E
 Epicentro: LOS SANTOS - SANTANDER                                             3
 ACTION:UPD 16-11-09 19:20 OP:rebc STATUS:               ID:20161017080836 L   I
 OLDACT:REG 16-10-17 12:01 OP:and  STATUS:               ID:20161017080732     3
 2016-10-17-0808-00M.COL___344                                                 6
 STAT SP IPHASW D HRMM SECON CODA AMPLIT PERI AZIMU VELO AIN AR TRES W  DIS CAZ7
 BAR2 EZ EP        8 8 56.57                             171    0.1610 22.3 212 
 BAR2 EZ ES        8 9 12.69                             171    0.4610 22.3 212 
 BAR2 EZ I         8 9 22.48         3.9 0.52            170           22.3 212 
 PAM  EZ EP        8 8 59.14                             152    0.2710 76.0  33 
 PAM  EN ES        8 9 16.43                             152   -0.1610 76.0  33 
 PAM  EZ I         8 9 18.38         4.0 0.56            158           76.0  33 
 BRR  HZ EP        8 8 58.21                             151   -0.1710 79.8 298 
 BRR  HN ES        8 9 16.15                             151    0.4310 79.8 298 
 BRR  HZ I         8 9 18.58         2.6 0.44            152           79.8 298 
 RUS  HZ EP        8 9  0.40                             146    0.2510 96.4 180 
 RUS  HE ES        8 9 18.30                             146   -0.5710 96.4 180 
 RUS  HZ I         8 9 20.51         0.9 0.38            150           96.4 180 
 PTB  HZ EP   2    8 9  4.19                             132    0.02 5  155 261 
 PTB  HN ES   4 D  8 9 24.51                             132   -1.53 0  155 261 
 PTB  HZ I         8 9 31.35         2.4 0.36            135            155 261 
 OCA  HZ EP        8 9  5.48                             130    0.13 9  165 351 
 OCA  HN ES        8 9 27.46                             130   -0.67 9  165 351 
 SPBC HZ EP        8 9  5.23                             130   -0.02 9  165 222 
 SPBC HN ES        8 9 27.68                             130   -0.27 9  165 222 
 SPBC HZ I         8 9 29.50         2.1 0.60            133            165 222 
                                                                                
