 2014  117 0135 47.1 L   6.855 -73.187136.8  RSN  4 0.3 1.2LRSN                1
 GAP=198        0.66       6.8     6.5 14.8  0.2698E+02 -0.4550E+02 -0.7692E+02E
 Epicentro: ZAPATOCA - SANTANDER                                               3
 ACTION:UPD 14-03-13 09:56 OP:ep   STATUS:               ID:20140117013547 L   I
 OLDACT:REG 14-01-17 07:53 OP:mh   STATUS:               ID:20140117013000     3
 2014-01-17-0130-00M.COL___285                                                 6
 STAT SP IPHASW D HRMM SECON CODA AMPLIT PERI AZIMU VELO AIN AR TRES W  DIS CAZ7
 RUS  HZ EP   1    136 10.62                             140    0.10 9  107 174 
 RUS  HN ES   1    136 28.83                             140    0.08 9  107 174 
 RUS  HZ I         136 32.43         1.1 0.26            154            107 174 
 PTB  HZ EP   1    136 13.36                             130    0.25 9  145 256 
 PTB  HN ES   1    136 32.77                             130   -0.59 9  145 256 
 PTB  HZ I         136 41.67         2.3 0.22            140            145 256 
 ZAR  HN ES   1    136 43.26                             121    0.57 8  198 291 
 SML  HZ EP        136 22.20                             116   -0.2810  236 336 
 SML  HN ES   2    136 50.09                             116    0.06 5  236 336 
 SML  HZ I         136 58.43         2.4 0.34            124            236 336 
                                                                                
