 2014  817 0533 55.6 L   6.789 -73.135148.6  RSN  9 0.3 1.5LRSN                1
 GAP=202        0.78       3.7     4.8  5.5 -0.3710E+00  0.3604E+01  0.2162E+01E
 Epicentro: LOS SANTOS - SANTANDER                                             3
 ACTION:UPD 14-09-15 21:50 OP:nd   STATUS:               ID:20140817053355 L   I
 OLDACT:REG 14-08-17 13:20 OP:spq  STATUS:               ID:20140817052808     3
 2014-08-17-0528-08M.COL___260                                                 6
 STAT SP IPHASW D HRMM SECON CODA AMPLIT PERI AZIMU VELO AIN AR TRES W  DIS CAZ7
 BAR2 SZ EP        534 15.49                             171   -0.0810 22.3 194 
 BAR2 SZ ES   1    534 30.84                             171   -0.30 7 22.3 194 
 BAR2 SZ I         534 31.55         5.6 0.22            169           22.3 194 
 BRR  HZ EP        534 17.45                             152    0.2810 72.9 299 
 BRR  HN ES        534 34.54                             152    0.5610 72.9 299 
 BRR  HZ I         534 35.46         9.4 0.20            146           72.9 299 
 RUS  HZ EP   1    534 19.73                             145    0.17 7 99.2 177 
 RUS  HN ES   1    534 38.13                             145   -0.10 7 99.2 177 
 RUS  HZ I         534 38.98         3.5 0.26            147           99.2 177 
 PTB  HZ EP        534 22.61                             132   -0.30 9  149 259 
 PTB  HE ES        534 43.68                             132   -0.51 9  149 259 
 PTB  HZ I         534 47.92         3.8 0.10            129            149 259 
 SPBC HZ EP        534 24.27                             130   -0.05 9  163 220 
 SPBC HN ES        534 46.55                             130   -0.15 9  163 220 
 SPBC HZ I         534 49.00         5.3 0.30            128            163 220 
 NOR  HZ EP   1    534 31.29                             119   -0.26 6  235 235 
 NOR  HN ES        534 59.94                             119    0.38 8  235 235 
 NOR  HZ I         535  6.71         2.8 0.19            117            235 235 
 SML  HN ES   1    535  0.96                             118   -0.46 6  245 335 
 SML  HZ I         535 12.47         3.4 0.09            116            245 335 
 HEL  HN ES   4    535 12.01                             115    4.38 0  273 256 
 HEL  HZ I         535 14.20         1.5 0.30            113            273 256 
 GUY2CHZ EP        534 39.89                             113    0.50 7  301 235 
 GUY2CHE ES   4    535 18.16                             113    4.63 0  301 235 
 GUY2CHZ I         535 21.34         1.4 0.46                           301 235 
                                                                                
