 2014  517 0415 59.6 L   6.824 -73.131145.7  RSN 31 0.5 3.1LRSN                1
 GAP= 56        1.02       2.1     2.6  4.5 -0.1094E+01  0.2385E+01  0.1554E+01E
 Epicentro: LOS SANTOS - SANTANDER                                             3
 ACTION:UPD 15-03-16 16:58 OP:nd   STATUS:               ID:20140517041559 L   I
 OLDACT:DUP 14-05-17 16:32 OP:spq  STATUS:               ID:20140517040807d    3
 2014-05-17-0408-06M.COL___242                                                 6
 STAT SP IPHASW D HRMM SECON CODA AMPLIT PERI AZIMU VELO AIN AR TRES W  DIS CAZ7
 BRR  HZ IP     C  416 21.24                             152    0.4610 71.4 296 
 BRR  HN ES        416 37.90                             152    0.6210 71.4 296 
 BRR  HZ I         416 38.95       159.2 0.26            147           71.4 296 
 PAM  SZ IP     C  416 22.15                             152    0.5010 74.3  40 
 PAM  SN ES        416 38.97                             152    0.1310 74.3  40 
 PAM  SZ I         416 41.32       308.4 0.50            151           74.3  40 
 RUS  HZ EP        416 23.41                             143   -0.1410  103 177 
 RUS  HE ES        416 41.76                             143   -0.4610  103 177 
 RUS  HZ I         416 44.02       235.2 0.32            142            103 177 
 PTB  HZ EP        416 25.92                             132   -0.86 9  150 258 
 PTB  HN ES        416 47.09                             132   -0.87 9  150 258 
 PTB  HZ I         416 50.01       193.3 0.15            128            150 258 
 TAM  HZ IP     C  416 27.85                             131    0.63 9  154 106 
 TAM  HN ES        416 49.06                             131    0.32 9  154 106 
 OCA  HZ EP        416 27.62                             130   -0.08 9  158 352 
 OCA  HN ES        416 48.78                             130   -0.82 9  158 352 
 OCA  HZ I         416 53.91       172.0 0.18            127            158 352 
 SPBC HZ EP        416 28.35       222.3 0.28            128   -0.06 9  166 219 
 SPBC HN ES        416 51.08                             128    0.21 9  166 219 
 SPBC HZ I         416 57.59       222.3 0.28            126            166 219 
 NOR  HZ EP        416 35.79                             118    0.13 8  238 234 
 NOR  HE ES        417  3.52                             118   -0.24 8  238 234 
 NOR  HZ I         417  8.62        96.2 0.20            115            238 234 
 SML  HZ EP        416 35.33                             118   -0.73 8  242 335 
 SML  HE ES        417  4.69                             118    0.21 8  242 335 
 SML  HZ I         417  6.85       142.7 0.10            115            242 335 
 CHI  HZ EP        416 37.69                             117    0.05 8  252 195 
 CHI  HN ES        417  7.04                             117   -0.26 8  252 195 
 CHI  HZ I         417 10.69        42.2 0.64            115            252 195 
 ROSC BZ IP   4 D  416 39.31                             116    1.23 0  256 211 
 ROSC BN ES   4    417  9.35                             116    1.27 0  256 211 
 ROSC BZ I         417 14.42        96.4 0.40            114            256 211 
 HEL  HZ EP        416 40.39                             115    0.31 8  274 255 
 HEL  HN ES        417 11.98                             115    0.34 8  274 255 
 HEL  HZ I         417 18.23        79.4 0.32            112            274 255 
 URE  HZ EP   4    416 39.34                             113   -1.41 0  284 291 
 URE  HN ES   4    417 10.35                             113   -2.48 0  284 291 
 URE  HZ I         417 20.71        61.0 0.28            111            284 291 
 GUY2CHZ EP        416 43.89                             112    0.34 7  304 235 
 GUY2CHN ES        417 17.55                             112   -0.27 7  304 235 
 GUY2CHZ I         417 25.66        69.8 0.52                           304 235 
 VIL  SZ EP        416 43.11                             112   -0.26 7  306 192 
 VIL  SN ES        417 17.32                             112   -0.17 7  306 192 
 VIL  SZ I         417 19.99        59.9 0.44            110            306 192 
 PTGC HZ IP     D  416 42.83                             111   -0.86 7  311 159 
 PTGC HE ES   4    417 16.15                             111   -1.91 0  311 159 
 PTGC HZ I         417 18.81        55.0 0.50            110            311 159 
 RREF HZ EP        416 46.69                             111    0.59 7  325 229 
 RREF HE ES        417 23.12                             111    0.77 7  325 229 
 RREF HZ I         417 31.80        70.4 0.26            108            325 229 
 CBOC HZ EP        416 47.44                             110    0.63 7  336 252 
 CBOC HN ES        417 23.95                             110    0.34 7  336 252 
 CBOC HZ I         417 33.33        22.6 0.58            107            336 252 
 DBB  SZ EP        416 47.05                             109   -0.21 7  341 274 
 DBB  SZ ES   1    417 23.74                             109   -0.68 5  341 274 
 DBB  SZ I         417 29.01       153.4 0.40            107            341 274 
 TOL  SZ EP        416 48.49                             109    0.27 6  347 225 
 TOL  SZ ES   1    417 26.85                             109    0.72 5  347 225 
 TOL  SZ I         417 34.22        22.9 0.35            107            347 225 
 ARGC HZ EP        416 49.58                             108    0.53 6  357 340 
 ARGC HN ES        417 27.95                             108    0.35 6  357 340 
 ARGC HZ I         417 35.49        29.1 0.30            106            357 340 
 SDV  BZ EP        416 48.59                             108   -0.73 6  357  50 
 SDV  BN ES   4    417 25.64                             108   -2.44 0  357  50 
 ANIL HZ EP        416 50.27                             108    0.50 6  360 224 
 ANIL HN ES        417 29.12                             108    0.22 6  360 224 
 ANIL HZ I         417 43.06       135.0 0.40            106            360 224 
 PRA  HZ EP        416 53.58                             106    0.08 6  395 210 
 PRA  HE ES        417 35.47                             106   -0.06 6  395 210 
 PRA  HZ I         417 42.11        61.7 0.30            105            395 210 
 ORTC HZ EP        416 53.58                             106   -0.32 6  399 216 
 ORTC HN ES        417 35.62                             106   -0.62 6  399 216 
 ORTC HZ I         417 44.31        26.6 0.32            104            399 216 
 SJC  HZ EP   4    416 53.22                             106   -1.80 0  408 327 
 SJC  HN ES   4    417 34.72                             106   -3.52 0  408 327 
 SJC  HZ I         417 38.16        32.3 0.34            104            408 327 
 YOT  HZ EP        417  2.26                             103   -0.76 5  475 229 
 YOT  HN ES   1    417 52.54                             103    0.08 3  475 229 
 GUA  SZ EP   4    417  1.75                             103   -1.31 0  476 173 
 GUA  SE ES   4    417 49.50                             103   -3.05 0  476 173 
 GUA  SZ I         417 55.55        39.3 0.28            102            476 173 
 SMAR HZ EP   4    417  3.86                             102   -1.37 0  495 346 
 SMAR HE ES   4    417 50.13                             102   -6.27 0  495 346 
 CAP2 HZ EP   4    417  4.80                             102   -2.03 0  508 294 
 CAP2 HN ES   4    417 54.56                             102   -4.70 0  508 294 
 CAP2 HZ I         418  0.71        12.2 0.18            100            508 294 
 MACC HZ EP   4    417  6.72                             101   -1.95 0  523 189 
 MACC HN ES   4    417 57.71                             101   -4.82 0  523 189 
 MACC HZ I         418  4.21         8.5 0.28            100            523 189 
 GARC HZ EP   4    417 13.68                             100   -1.57 0  576 207 
 GARC HE ES   4    418 10.52                             100   -3.71 0  576 207 
 GARC HZ I         418 17.88        13.8 0.20             99            576 207 
                                                                                
