 2015 1017 0342 55.0 L   6.745 -73.219152.3  RSN  6 0.4 1.3LRSN                1
 GAP=189        0.91       4.0     6.3  6.6  0.8790E+01  0.5455E+01 -0.6998E+01E
 Epicentro: VILLANUEVA - SANTANDER                                             3
 ACTION:UPD 15-12-22 20:40 OP:cam  STATUS:               ID:20151017034255 L   I
 OLDACT:UP  15-10-17 16:28 OP:ak   STATUS:               ID:20151017033750d    3
 OLDACT:DUP 15-10-17 16:24 OP:ak   STATUS:               ID:20151017033750d    3
 OLDACT:REG 15-10-17 12:43 OP:ak   STATUS:               ID:20151017033749     3
 2015-10-17-0337-49M.COL___341                                                 6
 STAT SP IPHASW D HRMM SECON CODA AMPLIT PERI AZIMU VELO AIN AR TRES W  DIS CAZ7
 BAR2 EZ EP        343 15.10                             173   -0.1810 17.4 166 
 BAR2 EZ ES        343 30.50                             173   -0.6310 17.4 166 
 BAR2 EZ I         343 32.05         3.6 0.20            173           17.4 166 
 BRR  HZ EP        343 17.18                             155    0.5510 67.6 306 
 BRR  HN ES        343 33.86                             155    0.3310 67.6 306 
 BRR  HZ I         343 38.36         4.2 0.24            153           67.6 306 
 RUS  HZ EP   1    343 19.41                             146    0.39 7 95.5 171 
 RUS  HE ES        343 38.04                             146    0.2710 95.5 171 
 RUS  HZ I         343 39.27         1.0 0.28            149           95.5 171 
 SPBC HZ EP   1    343 23.12                             132    0.04 7  153 218 
 SPBC HN ES        343 44.72                             132   -0.28 9  153 218 
 SPBC HZ I         343 49.68         2.4 0.12            133            153 218 
 ZAR  HZ EP   1    343 26.63                             124   -0.71 6  199 295 
 ZAR  HE ES        343 52.78                             124    0.20 9  199 295 
 SML  HZ EP        343 32.00                             118   -0.22 8  246 338 
 SML  HN ES        344  1.20                             118   -0.07 8  246 338 
 SML  HZ I         344  4.69         2.7 0.14            120            246 338 
 MON  HZ EP   4    343 42.09                             110   -1.86 0  351 310 
 SJC  HZ EP   4    343 49.21                             107   -1.63 0  410 328 
                                                                                
