 2012 1217 0729 46.2 L   6.804 -73.134147.5  RSN 11 0.4 2.9LRSN                1
 GAP= 72        1.05       3.6     3.5  5.6  0.5986E+00  0.4238E+01  0.3505E+01E
 Epicentro: LOS SANTOS - SANTANDER                                             3
 ACTION:UPD 13-01-04 14:28 OP:ep   STATUS:               ID:20121217072946 L   I
 2012-12-17-0730-00M.COL___238                                                 6
 STAT SP IPHASW D HRMM SECON CODA AMPLIT PERI AZIMU VELO AIN AR TRES W  DIS CAZ7
 BAR2 SZ IP        730  5.97                             170   -0.0510 24.0 193 
 BAR2 SZ ES        730 21.02                             170   -0.4910 24.0 193 
 BAR2 SZ  AMP      730 22.35       352.1 0.22                          24.0 193 
 BRR  HZ IP     C  730  7.78                             152    0.2210 72.2 298 
 BRR  HN ES        730 25.09                             152    0.8510 72.2 298 
 BRR  HZ I         730 27.55        90.7 0.48                          72.2 298 
 PAM  SZ EP     D  730  8.65                             151    0.1510 76.2  39 
 PAM  SZ I         730  9.19       110.7 0.32                          76.2  39 
 PAM  SE ES        730 25.73                             151   -0.1910 76.2  39 
 RUS  HZ IP     C  730  9.81                             144   -0.3110  101 177 
 RUS  HN ES        730 28.66                             144   -0.1410  101 177 
 PTB  HZ EP        730 12.47                             132   -0.93 9  149 259 
 PTB  HE ES   1    730 34.90                             132    0.25 7  149 259 
 PTB  HZ I         730 36.36        88.5 0.18                           149 259 
 TAM  HZ EP        730 14.10                             131    0.22 9  154 105 
 TAM  HZ I         730 34.80        57.4 0.32                           154 105 
 TAM  HE ES        730 35.74                             131    0.25 9  154 105 
 OCA  HZ EP   1    730 14.07                             130   -0.52 7  160 353 
 ZAR  HZ EP        730 18.58                             123   -0.26 9  205 292 
 ZAR  HE ES        730 44.24                             123   -0.08 9  205 292 
 ZAR  HZ I         730 50.54        91.7 0.48                           205 292 
 CHI  HZ EP        730 24.24                             117    0.19 8  249 195 
 CHI  HN ES        730 53.28                             117   -0.31 8  249 195 
 CHI  HZ I         731  3.28        24.3 0.32                           249 195 
 ROSC BZ EP        730 25.46                             117    0.96 8  254 211 
 ROSC BN ES        730 54.49                             117    0.09 8  254 211 
 ROSC BZ I         731  3.74        62.0 0.45                           254 211 
 HEL  HZ EP        730 26.89                             115    0.27 8  273 256 
 HEL  HZ I         731  5.05        44.0 0.39                           273 256 
 URE  HZ EP   4    730 25.90                             114   -1.54 0  285 292 
 VIL  SZ EP   4    730 30.63                             112    0.88 0  304 192 
                                                                                
