 2010 1017 0549 52.4 L   6.812 -73.087148.2  RSN  4 0.1 1.5LRSN                1
 GAP=239        0.37       6.2     9.4  4.7  0.4206E+02 -0.1465E+02 -0.4831E+01E
 Epicentro: LOS SANTOS - SANTANDER                                             3
 ACTION:UP  11-02-18 11:10 OP:tino STATUS:               ID:20101017054952 L   I
 2010-10-17-0548-36S.COL___125                                                 6
 STAT SP IPHASW D HRMM SECON CODA AMPLIT PERI AZIMU VELO SNR AR TRES W  DIS CAZ7
 BTL  SZ IP        550 12.47                             171     0.110   23 301 
 BTL  SZ ES   1    550 27.74                             171    -0.1 7   23 301 
 BAR2 SZ EP   1    550 12.36                             169     0.0 7   27 204 
 BAR2 SZ I         550 28.34         7.6 0.25                            27 204 
 BRR  HZ IP     C  550 14.07                             151     0.010   76 295 
 BRR  HZ I         550 14.34        15.2 0.23                            76 295 
 BRR  HN ES   1    550 31.06                             151     0.0 7   76 295 
 RUS  HZ EP   2    550 16.26                             144    -0.2 5  102 180 
 RUS  HN ES   2    550 35.38                             144     0.1 5  102 180 
 RUS  HZ I         550 36.07         1.8 0.27                           102 180 
                                                                                
