 2011  417 0538 15.9 L   6.703 -73.007142.6  RSN  6 0.5 1.6LRSN                1
 GAP=131        0.93       7.5     7.5 13.1 -0.2084E+02 -0.1775E+02  0.6160E+02E
 Epicentro: ARATOCA - SANTANDER                                                3
 ACTION:UP  11-06-22 15:31 OP:REBC STATUS:               ID:20110417053815 L   I
 2011-04-17-0537-31S.COL___140                                                 6
 STAT SP IPHASW D HRMM SECON CODA AMPLIT PERI AZIMU VELO SNR AR TRES W  DIS CAZ7
 BAR2 SZ EP   2    538 35.26                             170     0.1 5   23 238 
 BAR2 SZ ES   2    538 49.83                             170    -0.3 5   23 238 
 PAM  SZ EP   1    538 38.75                             150     0.9 8   78  26 
 PAM  SZ I         538 39.26         5.4 0.19                            78  26 
 PAM  SN ES   2    538 55.44                             150     0.5 5   78  26 
 BRR  HZ EP   2    538 37.59                             146    -0.3 5   90 300 
 BRR  HN ES   2    538 55.04                             146     0.0 5   90 300 
 GRA  SZ ES   1    539  0.74                             135    -0.6 8  133  10 
 GRA  SZ I         539  5.93         9.6 0.34                           133  10 
 YOP  SZ EP        538 43.92                             128    -0.210  163 156 
 NOR  SZ EP   1    538 51.74                             117    -0.5 7  242 239 
 NOR  SN ES   1    539 20.93                             117     0.4 7  242 239 
                                                                                
