 2017  217 0725 48.9 L   6.807 -73.121157.3  RSN  5 0.5 1.1LRSN                1
 GAP=139        1.26       7.2     9.3  9.3 -0.2249E+01  0.1485E+02  0.3431E+01E
 Epicentro: LOS SANTOS - SANTANDER                                             3
 ACTION:UPD 17-05-24 15:37 OP:jn   STATUS:               ID:20170217072548 L   I
 OLDACT:REG 17-02-17 13:31 OP:cog  STATUS:               ID:20170217071746     3
 2017-02-17-0718-00M.COL___330                                                 6
 STAT SP IPHASW D HRMM SECON CODA AMPLIT PERI AZIMU VELO AIN AR TRES W  DIS CAZ7
 BAR2 EZ EP        726  9.97                             171    0.0610 24.7 196 
 BAR2 EZ ES        726 26.17                             171   -0.1610 24.7 196 
 BRR  HZ EP        726 11.93                             154    0.5510 73.3 297 
 BRR  HN ES        726 28.87                             154   -0.0810 73.3 297 
 BRR  HZ I         726 34.48         2.2 0.42            153           73.3 297 
 PAM  EZ EP        726 11.22                             153   -0.9710 75.0  38 
 PAM  EN ES        726 30.84                             153    0.4610 75.0  38 
 PAM  EZ I         726 38.27         2.7 0.44            154           75.0  38 
 RUS  HZ EP        726 14.46                             146    0.6510  101 178 
 RUS  HE ES        726 33.01                             146   -0.2610  101 178 
 RUS  HZ I         726 33.92         1.3 0.32            153            101 178 
 PTB  HZ EP        726 16.75                             134   -0.29 9  151 259 
 PTB  HN ES   4    726 38.53                             134   -0.50 0  151 259 
 PTB  HZ I         726 43.29         1.6 0.40            137            151 259 
                                                                                
