 2011 1217 0020  9.7 L   6.767 -73.128137.5  RSN  4 0.1 1.4LRSN                1
 GAP=140        0.31       2.5     4.9  3.7 -0.5370E+01  0.4661E+01 -0.2209E+01E
 Epicentro: LOS SANTOS - SANTANDER                                             3
 ACTION:UPD 12-07-13 16:16 OP:ep   STATUS:               ID:20111217002009 L   I
 2011-12-17-0020-00M.COL___187                                                 6
 STAT SP IPHASW D HRMM SECON CODA AMPLIT PERI AZIMU VELO AIN AR TRES W  DIS CAZ7
 BAR2 SZ EP   1    020 28.13                             171   -0.18 7 20.2 197 
 BAR2 SZ ES   1    020 42.77                             171   -0.03 7 20.2 197 
 BAR2 SZ I         020 44.32         5.3 0.48                          20.2 197 
 BRR  HZ EP   1    020 30.29                             150    0.08 7 74.7 300 
 BRR  HZ I         020 49.55         8.5 0.09                          74.7 300 
 PAM  SZ EP        020 31.18                             149   -0.0110 79.1  37 
 PAM  SE ES   1    020 47.96                             149    0.04 7 79.1  37 
 RUS  HZ EP   1    020 32.46                             143    0.05 7 96.8 177 
 RUS  HE ES   1    020 50.13                             143    0.05 7 96.8 177 
 RUS  HZ I         020 52.17         3.2 0.35                          96.8 177 
                                                                                
