 2014  817 0710 25.7 L   6.813 -73.105139.3  RSN  6 0.3 0.9LRSN                1
 GAP=204        0.76       4.9     5.4  6.9  0.1269E+02  0.2697E+01 -0.4398E+01E
 Epicentro: LOS SANTOS - SANTANDER                                             3
 ACTION:UPD 14-09-15 21:50 OP:nd   STATUS:               ID:20140817071025 L   I
 OLDACT:REG 14-08-17 13:27 OP:spq  STATUS:               ID:20140817070818     3
 2014-08-17-0708-18M.COL___254                                                 6
 STAT SP IPHASW D HRMM SECON CODA AMPLIT PERI AZIMU VELO AIN AR TRES W  DIS CAZ7
 BAR2 SZ EP   1    710 44.10                             169   -0.49 7 25.8 199 
 BAR2 SZ ES   1    710 59.05                             169   -0.29 7 25.8 199 
 BAR2 SZ I         711  0.47         2.3 0.22            169           25.8 199 
 BRR  HZ EP        710 46.22                             150   -0.1110 74.6 296 
 BRR  HN ES        711  2.94                             150    0.5010 74.6 296 
 BRR  HZ I         711  4.30         2.9 0.40            150           74.6 296 
 RUS  HZ EP   1    710 49.15                             142    0.26 7  102 179 
 RUS  HN ES   1    711  7.08                             142    0.09 7  102 179 
 RUS  HZ I         711  8.63         0.8 0.25            144            102 179 
 PTB  HZ EP        710 52.98                             130    0.41 9  152 259 
 PTB  HE ES        711 13.17                             130   -0.37 9  152 259 
 PTB  HZ I         711 13.70         1.0 0.26            130            152 259 
 ZAR  HE ES        711 23.23                             120   -0.15 8  208 291 
 ZAR  HZ I         711 28.40         0.8 0.32            121            208 291 
 SML  HE ES   1    711 30.17                             116   -0.20 6  244 334 
                                                                                
