 2012  617 0006 26.2 L   6.845 -73.205146.0  RSN  5 0.2 1.5LRSN                1
 GAP=127        0.41       3.2     2.8  4.7 -0.1298E+01  0.3737E+01 -0.1143E+01E
 Epicentro: ZAPATOCA - SANTANDER                                               3
 ACTION:UPD 12-08-06 17:50 OP:ep   STATUS:               ID:20120617000626 L   I
 2012-06-17-0000-00M.COL___199                                                 6
 STAT SP IPHASW D HRMM SECON CODA AMPLIT PERI AZIMU VELO AIN AR TRES W  DIS CAZ7
 BAR2 SZ EP   1    0 6 45.91                             169   -0.05 7 28.0 175 
 BAR2 SZ ES   1    0 7  1.62                             169    0.24 7 28.0 175 
 BAR2 SZ I         0 7  3.35         5.4 0.18                          28.0 175 
 PAM  SZ EP   1    0 6 48.50                             151    0.02 7 78.1  46 
 PAM  SN ES   1    0 7  5.80                             151   -0.07 7 78.1  46 
 RUS  HZ EP   1    0 6 50.52                             142    0.14 7  106 173 
 RUS  HN ES   1    0 7  8.91                             142   -0.33 7  106 173 
 RUS  HZ I         0 7 10.52         7.1 0.27                           106 173 
 PTB  HZ EP   1    0 6 52.76                             133    0.05 7  142 256 
 PTB  HN ES   1    0 7 13.54                             133    0.15 7  142 256 
 PTB  HZ I         0 7 16.39         3.9 0.24                           142 256 
 ZAR  HE ES   2    0 7 22.16                             124   -0.38 4  196 292 
                                                                                
