 2012  217 0011 36.9 L   6.773 -73.142139.9  RSN  5 0.4 1.4LRSN                1
 GAP=138        0.65       5.8     5.5  7.6 -0.7296E+00  0.3353E+00  0.6367E+01E
 ACTION:UP  12-03-07 16:31 OP:epov STATUS:               ID:20120217001136 L   I
 2012-02-17-0010-00M.COL___188                                                 6
 STAT SP IPHASW D HRMM SECON CODA AMPLIT PERI AZIMU VELO AIN AR TRES W  DIS CAZ7
 BAR2 SZ ES   2    012 10.37                             171   -0.13 5 20.4 193 
 BRR  HZ EP   1    011 57.32                             151   -0.22 7 73.0 300 
 BRR  HZ I         011 58.64         8.9 0.37                          73.0 300 
 BRR  HN ES   1    012 14.19                             151    0.56 7 73.0 300 
 PAM  SZ EP   1    011 58.65                             149    0.01 7 79.5  38 
 PAM  SN ES   2    012 15.07                             149   -0.52 5 79.5  38 
 RUS  HZ EP   1    012  0.24                             143    0.36 7 97.5 176 
 RUS  HZ I         012  0.90         2.7 0.13                          97.5 176 
 RUS  HN ES   2    012 17.62                             143   -0.16 5 97.5 176 
 PTB  HZ EP   1    012  3.35                             131   -0.05 7  148 260 
 PTB  HN ES   2    012 23.27                             131   -0.78 5  148 260 
                                                                                
