 2014  717 0940 42.3 L   6.765 -73.144151.2  RSN  9 0.3 1.9LRSN                1
 GAP=183        0.61       2.7     4.0  5.5 -0.1747E+01  0.4444E+01 -0.3717E+01E
 Epicentro: LOS SANTOS - SANTANDER                                             3
 ACTION:UPD 15-03-16 20:44 OP:nd   STATUS:               ID:20140717094042 L   I
 OLDACT:DUP 14-07-17 16:04 OP:fm   STATUS:               ID:20140717093817d    3
 2014-07-17-0938-16M.COL___257                                                 6
 STAT SP IPHASW D HRMM SECON CODA AMPLIT PERI AZIMU VELO AIN AR TRES W  DIS CAZ7
 BAR2 SZ EP        941  2.87                             172    0.3810 19.5 192 
 BAR2 SZ ES   1    941 18.46                             172    0.20 7 19.5 192 
 BAR2 SZ I         941 19.04        25.9 0.26            162           19.5 192 
 RUS  HZ EP   1    941  6.04                             146   -0.25 7 96.7 176 
 RUS  HE ES        941 24.81                             146   -0.2210 96.7 176 
 PTB  HZ EP        941  9.67                             133    0.03 9  147 260 
 PTB  HN ES        941 30.72                             133   -0.27 9  147 260 
 PTB  HZ I         941 36.52         8.1 0.24            127            147 260 
 OCA  HZ EP        941 11.11                             130   -0.26 9  164 353 
 OCA  HN ES        941 34.19                             130    0.12 9  164 353 
 OCA  HZ I         941 36.87        13.1 0.24            129            164 353 
 NOR  HN ES   1    941 46.48                             120    0.44 6  233 235 
 NOR  HZ I         941 55.44         4.7 0.22            116            233 235 
 HEL  HN ES   4    941 57.76                             116    3.56 0  271 257 
 HEL  HZ I         942  4.71         2.4 0.54            112            271 257 
 RREF HN ES   4    942  6.57                             112    2.23 0  319 230 
 RREF HZ I         942 14.42         2.8 0.28            110            319 230 
 PRA  HZ EP   1    941 35.73                             108    0.13 4  389 210 
 PRA  HN ES   4    942 10.69                             108   -6.50 0  389 210 
 PRA  HZ I         942 22.73         3.3 0.30            106            389 210 
 SJC  HZ EP   4    941 37.25                             106   -1.16 0  413 327 
 SJC  HN ES   4    942 17.50                             106   -4.70 0  413 327 
 SJC  HZ I         942 20.70         1.5 0.58            105            413 327 
                                                                                
