 2012  817 0959 53.4 L   6.808 -73.044143.7  RSN  4 0.1 1.7LRSN                1
 GAP=211        0.32       4.5     7.4  4.3  0.2713E+02 -0.1849E+02 -0.9775E+01E
 Epicentro: LOS SANTOS - SANTANDER                                             3
 ACTION:UPD 12-09-10 11:56 OP:ep   STATUS:               ID:20120817095953 L   I
 2012-08-17-1000-00M.COL___217                                                 6
 STAT SP IPHASW D HRMM SECON CODA AMPLIT PERI AZIMU VELO AIN AR TRES W  DIS CAZ7
 BAR2 SZ EP   1   10 0 12.91                             168    0.07 7 28.4 213 
 BAR2 SZ ES   1   10 0 27.91                             168   -0.14 7 28.4 213 
 BAR2 SZ I        10 0 30.41        14.7 0.26                          28.4 213 
 GIR2 SZ EP   1   10 0 12.95                             166    0.09 7 34.2 331 
 BRR  HZ EP       10 0 14.76                             149   -0.1010 80.9 294 
 BRR  HZ I        10 0 15.01        19.6 0.16                          80.9 294 
 BRR  HN ES       10 0 31.69                             149    0.0610 80.9 294 
 RUS  HZ EP   1   10 0 16.94                             143   -0.01 7  101 182 
 RUS  HN ES   1   10 0 35.42                             143    0.06 7  101 182 
 RUS  HZ I        10 0 36.76         4.2 0.24                           101 182 
                                                                                
