 2017  117 0739 33.0 L   6.784 -73.218141.1  RSN  4 0.2 1.0LRSN                1
 GAP=226        0.55       4.5     5.0  5.6  0.1305E+02 -0.1789E+01 -0.2360E+00E
 Epicentro: ZAPATOCA - SANTANDER                                               3
 ACTION:UPD 17-05-22 16:00 OP:jn   STATUS:               ID:20170117073933 L   I
 OLDACT:UP  17-03-29 21:21 OP:nlst STATUS:               ID:20170117073933 L   3
 OLDACT:DUP 17-01-17 17:50 OP:dani STATUS:               ID:20170117073745d    3
 OLDACT:UP  17-01-17 17:50 OP:dani STATUS:               ID:20170117073744     3
 OLDACT:UP  17-01-17 17:49 OP:dani STATUS:               ID:20170117073744     3
 OLDACT:REG 17-01-17 13:14 OP:dani STATUS:               ID:20170117073744     3
 2017-01-17-0738-00M.COL___323                                                 6
 STAT SP IPHASW D HRMM SECON CODA AMPLIT PERI AZIMU VELO AIN AR TRES W  DIS CAZ7
 BAR2 EZ EP        739 51.83                             171   -0.2610 21.6 169 
 BRR  HZ EP        739 53.45                             154    0.0910 65.2 303 
 BRR  HN ES        740  9.26                             154    0.0510 65.2 303 
 BRR  HZ I         740 14.08         3.2 0.35            156           65.2 303 
 RUS  HZ EP        739 56.17                             143   -0.1110 99.7 171 
 RUS  HE ES        740 14.56                             143    0.1610 99.7 171 
 RUS  HZ I         740 18.29         0.8 0.47            147           99.7 171 
 PTB  HZ EP        739 59.17                             133    0.28 9  140 259 
 PTB  HN ES   1    740 18.69                             133   -0.36 7  140 259 
 PTB  HZ I         740 22.30         1.3 0.22            136            140 259 
                                                                                
