 2015  317 0621 26.3 L   6.801 -73.149144.9  RSN  7 0.4 1.4LRSN                1
 GAP=101        0.94       4.4     4.1  6.0 -0.4342E+01 -0.1088E+01  0.4010E+01E
 Epicentro: LOS SANTOS - SANTANDER                                             3
 ACTION:UPD 15-04-30 16:26 OP:nd   STATUS:               ID:20150317062126 L   I
 OLDACT:REG 15-03-17 12:50 OP:stll STATUS:               ID:20150317061750     3
 2015-03-17-0617-50M.COL___269                                                 6
 STAT SP IPHASW D HRMM SECON CODA AMPLIT PERI AZIMU VELO AIN AR TRES W  DIS CAZ7
 BAR2 EZ EP        621 45.76                             170   -0.0210 23.4 189 
 BAR2 EZ ES        622  0.66                             170   -0.3510 23.4 189 
 BAR2 EZ I         622  1.80         7.5 0.18            169           23.4 189 
 BRR  HZ EP        621 47.62                             152    0.3410 70.8 299 
 BRR  HZ I         621 47.79         7.6 0.26            152           70.8 299 
 BRR  HN ES        622  4.24                             152    0.5510 70.8 299 
 PAM  SZ EP        621 48.70                             151    0.3210 77.5  40 
 PAM  SN ES        622  5.28                             151   -0.3610 77.5  40 
 PAM  SZ I         622  7.16         3.2 0.40            154           77.5  40 
 RUS  HZ EP        621 49.78                             144   -0.1510  101 176 
 RUS  HE ES        622  8.48                             144    0.0810  101 176 
 RUS  HZ I         622  9.32         2.5 0.18            144            101 176 
 PTB  HZ EP        621 52.44                             132   -0.68 9  147 259 
 PTB  HN ES        622 13.69                             132   -0.38 9  147 259 
 PTB  HZ I         622 17.60         2.7 0.14            132            147 259 
 TAM  HZ EP        621 54.05                             130    0.15 9  156 105 
 SPBC HZ EP        621 54.64                             129   -0.03 9  163 219 
 SPBC HN ES        622 17.33                             129    0.49 9  163 219 
 SPBC HZ I         622 22.76         4.8 0.24            129            163 219 
                                                                                
