 2014  917 0142 41.3 L   7.475 -73.184126.0  RSN  6 0.5 1.9LRSN                1
 GAP=213        1.20       5.2     7.8  9.9  0.1456E+02  0.3025E+01 -0.4608E+01E
 Epicentro: EL PLAYON - SANTANDER                                              3
 ACTION:UPD 14-10-03 23:05 OP:nd   STATUS:               ID:20140917014241 L   I
 OLDACT:REG 14-09-17 12:52 OP:carl STATUS:               ID:20140917013816     3
 2014-09-17-0138-16M.COL___290                                                 6
 STAT SP IPHASW D HRMM SECON CODA AMPLIT PERI AZIMU VELO AIN AR TRES W  DIS CAZ7
 BRR  HZ EP        143  0.59                             149    0.2710 71.1 235 
 BRR  HN ES        143 15.71                             149    0.5410 71.1 235 
 BRR  HZ I         143 16.51        20.2 0.24            144           71.1 235 
 BAR2 SZ EP        143  2.61                             140    0.0510 97.7 180 
 BAR2 SZ ES        143 18.82                             140   -0.3410 97.7 180 
 BAR2 SZ I         143 20.05        21.8 0.14            139           97.7 180 
 PTB  HZ EP        143  8.97                             122   -0.44 9  175 234 
 PTB  HN ES        143 30.30                             122   -1.04 9  175 234 
 PTB  HZ I         143 32.24         7.4 0.20            120            175 234 
 SML  HN ES        143 31.18                             122   -0.42 9  176 326 
 SML  HZ I         143 34.43        16.2 0.28            121            176 326 
 ZAR  HZ EP        143 10.44                             120   -0.02 9  185 271 
 ZAR  HN ES        143 33.88                             120    0.66 9  185 271 
 ZAR  HZ I         143 38.54         7.3 0.34            119            185 271 
 SPBC HZ EP        143 15.40                             115    0.57 8  224 206 
 SPBC HN ES        143 41.19                             115    0.19 8  224 206 
 SPBC HZ I         143 48.78         4.1 0.40            114            224 206 
                                                                                
