 2013  317 0508 13.8 L   6.779 -73.126146.2  RSN  6 0.4 1.3LRSN                1
 GAP=238        0.81       6.3     6.0  8.0  0.9341E+01  0.9087E+01  0.1945E+01E
 Epicentro: LOS SANTOS - SANTANDER                                             3
 ACTION:UPD 13-04-09 14:03 OP:ep   STATUS:               ID:20130317050813 L   I
 2013-03-17-0500-00M.COL___244                                                 6
 STAT SP IPHASW D HRMM SECON CODA AMPLIT PERI AZIMU VELO AIN AR TRES W  DIS CAZ7
 BAR2 SZ EP        5 8 33.42                             171    0.0210 21.5 197 
 BAR2 SZ ES   1    5 8 48.76                             171    0.04 7 21.5 197 
 BAR2 SZ I         5 8 52.48         8.2 0.50            165           21.5 197 
 BRR  HZ EP     C  5 8 35.36                             152    0.2410 74.3 299 
 BRR  HN ES   1    5 8 51.96                             152    0.17 7 74.3 299 
 BRR  HZ I         5 8 54.98         3.6 0.14            151           74.3 299 
 RUS  HZ EP   1    5 8 37.34                             145   -0.03 7 98.1 177 
 RUS  HN ES   1    5 8 55.75                             145   -0.04 7 98.1 177 
 RUS  HZ I         5 8 58.08         1.4 0.34            145           98.1 177 
 PTB  HZ EP   1    5 8 40.03                             132   -0.88 7  149 260 
 PTB  HN ES   1    5 9  1.38                             132   -0.71 7  149 260 
 PTB  HZ I         5 9  7.38         3.0 0.32            132            149 260 
 ZAR  HE ES   2    5 9 12.64                             122    0.55 4  207 293 
 NOR  HZ EP   2    5 8 50.11                             119    0.56 4  235 235 
 NOR  HE ES   1    5 9 18.15                             119    0.67 6  235 235 
 NOR  HZ I         5 9 23.66         2.7 0.20            120            235 235 
                                                                                
