 2010  717 0251 14.8 L   6.783 -73.110152.2  RSN  5 0.2 1.3LRSN                1
 GAP=163        0.44       4.8     9.3 10.1  0.1769E+02 -0.7122E+02 -0.2606E+02E
 Epicentro: LOS SANTOS - SANTANDER                                             3
 ACTION:UPD 10-12-01 15:18 OP:pat  STATUS:               ID:20100717025114 L   I
 2010-07-17-0247-19S.COL___119                                                 6
 STAT SP IPHASW D HRMM SECON CODA AMPLIT PERI AZIMU VELO AIN AR TRES W  DIS CAZ7
 BRR  HZ EP   1    251 36.86                             152     0.0 8   76 298 
 BRR  HE ES   1    251 54.03                             152    -0.1 8   76 298 
 BRR  HZ I         251 56.41         6.2 0.30                            76 298 
 RUS  HZ EP   2    251 38.94                             146    -0.1 5   99 178 
 RUS  HE ES   2    251 57.94                             146     0.0 5   99 178 
 RUS  HZ I         252  1.13         2.8 0.17                            99 178 
 GUE  SZ EP   2    251 39.72                             140    -0.4 5  118  10 
 GUE  SZ I         251 41.24         0.8 0.12                           118  10 
 GRA  SZ IP        251 40.79                             138     0.110  126  15 
 GRA  SZ I         252  1.94         3.0 0.28                           126  15 
 OCA  SZ EP   2    251 43.95                             131     0.1 5  163 352 
 OCA  SZ I         252 10.00         3.6 0.26                           163 352 
                                                                                
