 2015  217 0538 49.0 L   6.808 -73.123149.5  RSN  8 0.4 1.9LRSN                1
 GAP= 78        1.04       3.3     4.4  6.3  0.8511E+00  0.2317E+01 -0.1987E+01E
 Epicentro: LOS SANTOS - SANTANDER                                             3
 ACTION:UPD 15-04-30 21:26 OP:nd   STATUS:               ID:20150217053849 L   I
 OLDACT:REG 15-02-17 15:02 OP:mh   STATUS:               ID:20150217053735     3
 2015-02-17-0537-35M.COL___287                                                 6
 STAT SP IPHASW D HRMM SECON CODA AMPLIT PERI AZIMU VELO AIN AR TRES W  DIS CAZ7
 BAR2 EZ EP        539  9.27                             170    0.2010 24.7 195 
 BAR2 EZ ES        539 24.22                             170   -0.5310 24.7 195 
 BAR2 EZ I         539 25.92        37.7 0.16            171           24.7 195 
 BRR  HZ EP        539 10.95                             153    0.3410 73.0 297 
 BRR  HN ES        539 27.93                             153    0.4310 73.0 297 
 BRR  HZ I         539 32.33        11.7 0.22            151           73.0 297 
 PAM  SZ EP        539 12.24                             152    0.8010 75.1  39 
 PAM  SN ES        539 29.33                             152    0.3510 75.1  39 
 PAM  SZ I         539 31.56         7.1 0.48            154           75.1  39 
 RUS  HZ EP        539 13.07                             144   -0.0610  101 177 
 RUS  HN ES   1    539 31.68                             144   -0.31 7  101 177 
 RUS  HZ I         539 33.19         7.1 0.46            148            101 177 
 TAM  HZ EP   1    539 16.46                             132   -0.28 7  153 106 
 TAM  HN ES        539 38.20                             132   -0.21 9  153 106 
 TAM  HZ I         539 38.59         4.3 0.28            136            153 106 
 OCA  HZ EP        539 17.25                             130   -0.26 9  160 352 
 OCA  HN ES        539 39.26                             130   -0.52 9  160 352 
 OCA  HZ I         539 44.31         7.7 0.46            132            160 352 
 SPBC HZ EP        539 18.40                             129    0.44 9  165 219 
 SPBC HN ES        539 40.29                             129   -0.29 9  165 219 
 SPBC HZ I         539 44.64        15.4 0.44            131            165 219 
 SML  HZ EP        539 25.15                             118   -0.67 8  244 335 
 SML  HN ES        539 54.43                             118   -0.14 8  244 335 
 SML  HZ I         539 59.91         9.4 0.26            119            244 335 
                                                                                
