 2015  417 0251 41.7 L   6.786 -73.139146.1  RSN  8 0.4 1.5LRSN                1
 GAP=138        0.89       4.2     4.4  6.9 -0.1585E+01  0.6425E+01 -0.2044E+01E
 Epicentro: LOS SANTOS - SANTANDER                                             3
 ACTION:UPD 15-06-03 16:55 OP:cam  STATUS:               ID:20150417025141 L   I
 OLDACT:REG 15-04-17 12:40 OP:spq  STATUS:               ID:20150417024747     3
 2015-04-17-0247-47M.COL___278                                                 6
 STAT SP IPHASW D HRMM SECON CODA AMPLIT PERI AZIMU VELO AIN AR TRES W  DIS CAZ7
 BAR2 EZ EP        252  1.35                             171    0.0310 21.9 193 
 BAR2 EZ ES   1    252 16.14                             171   -0.50 7 21.9 193 
 BAR2 EZ I         252 17.24         9.5 0.34            169           21.9 193 
 BRR  HZ EP     D  252  3.13                             152    0.1910 72.6 299 
 BRR  HN ES        252 20.16                             152    0.6410 72.6 299 
 BRR  HZ I         252 24.02         5.4 0.48            150           72.6 299 
 PAM  SZ EP        252  4.25                             151    0.2810 78.1  38 
 PAM  SN ES        252 21.07                             151   -0.2910 78.1  38 
 PAM  SZ I         252 23.28         4.4 0.57            154           78.1  38 
 RUS  HZ EP   1    252  5.66                             144    0.32 7 99.0 176 
 RUS  HE ES   1    252 23.80                             144   -0.00 7 99.0 176 
 RUS  HZ I         252 24.93         4.2 0.26            146           99.0 176 
 PTB  HZ EP   1    252  7.98                             132   -0.73 7  148 259 
 PTB  HN ES   1    252 29.02                             132   -0.77 7  148 259 
 PTB  HZ I         252 30.71         3.5 0.10            131            148 259 
 ZAR  HE ES   1    252 39.93                             122    0.23 6  205 292 
 ZAR  HZ I         252 45.31         4.5 0.27            122            205 292 
 NOR  HN ES   1    252 45.58                             119    0.33 6  234 235 
 NOR  HZ I         252 52.52         2.2 0.22            119            234 235 
 SML  HZ EP   1    252 18.21                             117   -0.30 6  245 335 
 SML  HE ES   1    252 46.88                             117   -0.35 6  245 335 
                                                                                
