 2013 1117 0407 49.8 L   6.812 -73.145146.8  RSN  7 0.6 1.5LRSN                1
 GAP=136        1.41       5.1     7.4  9.0 -0.2153E+01  0.1884E+02 -0.4069E+01E
 Epicentro: LOS SANTOS - SANTANDER                                             3
 ACTION:UPD 14-01-09 16:28 OP:ep   STATUS:               ID:20131117040749 L   I
 OLDACT:DUP 13-11-17 12:45 OP:stll STATUS:               ID:20131117035810d    3
 2013-11-17-0358-08M.COL___220                                                 6
 STAT SP IPHASW D HRMM SECON CODA AMPLIT PERI AZIMU VELO AIN AR TRES W  DIS CAZ7
 BAR2 SZ EP        4 8  9.85                             170    0.2410 24.7 190 
 BAR2 SZ ES        4 8 24.80                             170   -0.2410 24.7 190 
 BAR2 SZ I         4 8 26.46        10.9 0.28            169           24.7 190 
 BRR  HZ EP        4 8 11.75                             153    0.6910 70.6 298 
 BRR  HN ES        4 8 28.30                             153    0.6910 70.6 298 
 BRR  HZ I         4 8 31.85         5.6 0.30            149           70.6 298 
 PAM  SN ES        4 8 29.71                             151    0.2510 76.3  40 
 PAM  SZ I         4 8 31.94         5.7 0.56            155           76.3  40 
 RUS  HZ EP        4 8 13.73                             144   -0.0510  102 176 
 RUS  HZ I         4 8 14.42         1.4 0.26            146            102 176 
 RUS  HN ES        4 8 31.45                             144   -1.0110  102 176 
 PTB  HZ EP        4 8 16.59                             132   -0.32 9  148 258 
 PTB  HN ES        4 8 37.76                             132   -0.27 9  148 258 
 PTB  HZ I         4 8 43.52         3.6 0.72            131            148 258 
 SPBC HZ EP        4 8 19.10                             129    0.59 9  164 219 
 SPBC HN ES        4 8 41.21                             129    0.33 9  164 219 
 SPBC HZ I         4 8 47.98         3.3 0.62            130            164 219 
 SML  HZ EP        4 8 26.32                             118   -0.07 8  243 335 
 SML  HN ES        4 8 53.70                             118   -1.20 8  243 335 
 SML  HZ I         4 9  1.87         3.7 0.24            118            243 335 
                                                                                
