 2010  617 0605 31.1 L   6.781 -73.181148.4  RSN  4 0.2 1.4LRSN                1
 GAP=151        0.57       3.5     7.1  6.7 -0.6414E+00 -0.1089E+02  0.1847E+01E
 Epicentro: LOS SANTOS - SANTANDER                                             3
 ACTION:UP  10-08-24 10:11 OP:vdl  STATUS:               ID:20100617060531 L   I
 2010-06-17-0601-59S.COL___114                                                 6
 STAT SP IPHASW D HRMM SECON CODA AMPLIT PERI AZIMU VELO SNR AR TRES W  DIS CAZ7
 BAR2 SZ EP   1    6 5 50.64                             172    -0.3 7   21 181 
 BAR2 SZ ES   2    6 6  6.50                             172     0.0 5   21 181 
 BRR  HZ EP   1    6 5 52.03                             154    -0.3 7   69 302 
 BRR  HZ I         6 5 56.17         5.5 0.08                            69 302 
 BRR  HN ES   1    6 6  9.22                             154     0.2 7   69 302 
 RUS  HZ EP        6 5 55.14                             145     0.210   99 174 
 RUS  HN ES   1    6 6 13.51                             145    -0.1 7   99 174 
 RUS  HZ I         6 6 14.36         3.1 0.24                            99 174 
 BRI  SZ EP   1    6 5 55.77                             141     0.3 7  112  22 
 BRI  SZ ES   1    6 6 14.35                             141    -0.1 7  112  22 
                                                                                
