 2011  117 0257 38.1 L   6.805 -72.816139.0  RSN  5 0.4 1.5LRSN                1
 GAP=216        0.76       3.4    15.4  9.0 -0.5669E+00  0.5814E+01  0.5091E+00E
 Epicentro: SAN ANDRES - SANTANDER                                             3
 ACTION:UP  11-02-08 08:41 OP:pat  STATUS:               ID:20110117025738 L   I
 2011-01-17-0254-17S.COL___136                                                 6
 STAT SP IPHASW D HRMM SECON CODA AMPLIT PERI AZIMU VELO SNR AR TRES W  DIS CAZ7
 BAR2 SZ EP   2    257 57.77                             160     0.2 6   47 240 
 BAR2 SZ ES   2    258 12.12                             160    -0.7 6   47 240 
 BAR2 SZ I         258 13.76         6.4 0.22                            47 240 
 RUS  HZ EP   1    258  1.63                             141     0.1 8  105 196 
 RUS  HE ES   1    258 20.05                             141     0.3 8  105 196 
 RUS  HZ I         258 21.52         3.6 0.39                           105 196 
 OCA  SZ EP   1    258  5.91                             127    -0.7 7  168 341 
 OCA  SZ ES        258 29.18                             127     0.310  168 341 
 OCA  SZ I         258 29.46         3.8 0.27                           168 341 
 CHI  HZ EP   1    258 16.76                             115     0.0 6  261 203 
 CHI  HE ES   2    258 46.71                             115    -0.2 4  261 203 
 CHI  HZ I         258 52.61         1.6 0.44                           261 203 
 RREF HZ EP   2    258 27.22                             108     0.0 4  351 233 
 RREF HE ES   2    259  5.73                             108     0.1 4  351 233 
 RREF HZ I         259  7.50         2.1 0.12                           351 233 
                                                                                
