 2014  817 0629 20.7 L   6.781 -73.104146.0  RSN  7 0.4 1.3LRSN                1
 GAP=204        0.79       3.7     4.9  5.9  0.4665E+01  0.4940E+00 -0.3458E+01E
 Epicentro: LOS SANTOS - SANTANDER                                             3
 ACTION:UPD 14-09-15 21:50 OP:nd   STATUS:               ID:20140817062920 L   I
 OLDACT:REG 14-08-17 13:25 OP:spq  STATUS:               ID:20140817062807     3
 2014-08-17-0628-07M.COL___260                                                 6
 STAT SP IPHASW D HRMM SECON CODA AMPLIT PERI AZIMU VELO AIN AR TRES W  DIS CAZ7
 BAR2 SZ EP        629 40.44                             171    0.1010 22.6 202 
 BAR2 SZ ES   1    629 55.46                             171   -0.21 7 22.6 202 
 BAR2 SZ I         629 56.16         4.9 0.18            169           22.6 202 
 BRR  HZ EP        629 42.30                             151    0.1410 76.2 298 
 BRR  HE ES        629 59.04                             151    0.1310 76.2 298 
 BRR  HZ I         630  0.32         5.8 0.32            149           76.2 298 
 RUS  HZ EP   1    629 44.30                             145   -0.01 7 98.3 179 
 RUS  HN ES   1    630  2.67                             145   -0.06 7 98.3 179 
 RUS  HZ I         630  4.45         2.1 0.38            145           98.3 179 
 PTB  HZ EP        629 47.26                             131   -0.80 9  152 260 
 PTB  HE ES        630  9.70                             131    0.29 9  152 260 
 PTB  HZ I         630 11.17         2.9 0.14            130            152 260 
 SPBC HZ EP        629 49.27                             129   -0.08 9  165 221 
 SPBC HN ES        630 11.87                             129    0.18 9  165 221 
 SPBC HZ I         630 15.83         1.6 0.18            128            165 221 
 ZAR  HZ EP   1    629 54.28                             122    0.60 6  209 292 
 ZAR  HN ES        630 19.16                             122   -0.25 8  209 292 
 ZAR  HZ I         630 24.27         1.2 0.26            121            209 292 
 SML  HZ EP   1    629 58.44                             117    0.69 6  248 335 
 SML  HN ES   1    630 26.20                             117   -0.45 6  248 335 
 SML  HZ I         630 29.51         2.2 0.10            117            248 335 
                                                                                
