 2013  117 0833 37.6 L   6.737 -73.135136.8  RSN  6 0.4 1.2LRSN                1
 GAP=141        0.82       5.5     5.4  9.1  0.6109E+01  0.1406E+02  0.2474E+01E
 Epicentro: JORDAN - SANTANDER                                                 3
 ACTION:UPD 13-02-15 09:14 OP:ep   STATUS:               ID:20130117083337 L   I
 2013-01-17-0830-00M.COL___241                                                 6
 STAT SP IPHASW D HRMM SECON CODA AMPLIT PERI AZIMU VELO AIN AR TRES W  DIS CAZ7
 BAR2 SZ EP   1    833 55.92                             173   -0.10 7 16.9 198 
 BAR2 SZ ES   1    834 10.07                             173   -0.33 7 16.9 198 
 BAR2 SZ I         834 11.56         4.5 0.30            173           16.9 198 
 BRR  HZ EP        833 57.87                             149   -0.1910 75.8 303 
 BRR  HE ES   1    834 14.68                             149    0.66 7 75.8 303 
 PAM  SN ES   1    834 15.82                             148   -0.17 7 82.1  36 
 PAM  SZ I         834 18.16         2.4 0.51            149           82.1  36 
 RUS  HZ EP   1    834  0.18                             144    0.23 7 93.6 177 
 RUS  HN ES   1    834 17.79                             144    0.39 7 93.6 177 
 RUS  HZ I         834 18.94         1.8 0.50            146           93.6 177 
 PTB  HN ES   1    834 23.59                             130   -0.73 7  148 262 
 PTB  HZ I         834 25.92         2.4 0.20            132            148 262 
 ZAR  HE ES   1    834 35.49                             120    0.44 6  208 294 
                                                                                
