 2016 1217 0610 47.7 L   6.820 -73.173148.0  RSN  5 0.2 1.3LRSN                1
 GAP=132        0.67       4.1     3.8  4.5 -0.4113E+01  0.1295E+01  0.6624E+00E
 Epicentro: LOS SANTOS - SANTANDER                                             3
 ACTION:UPD 17-01-11 20:16 OP:rebc STATUS:               ID:20161217061047 L   I
 OLDACT:UP  16-12-17 16:41 OP:and  STATUS:               ID:20161217060742     3
 OLDACT:UP  16-12-17 16:41 OP:and  STATUS:               ID:20161217060742     3
 OLDACT:UP  16-12-17 16:40 OP:and  STATUS:               ID:20161217060742     3
 OLDACT:REG 16-12-17 12:57 OP:and  STATUS:               ID:20161217060742     3
 2016-12-17-0608-00M.COL___360                                                 6
 STAT SP IPHASW D HRMM SECON CODA AMPLIT PERI AZIMU VELO AIN AR TRES W  DIS CAZ7
 BAR2 EZ EP        611  7.75                             170    0.0910 25.2 182 
 BAR2 EZ ES        611 23.07                             170   -0.1510 25.2 182 
 BAR2 EZ I         611 24.27         8.9 0.27            173           25.2 182 
 BRR  HZ EP   9    611  9.58                             154    0.66 0 67.5 298 
 BRR  HN ES        611 26.57                             153    0.4610 67.5 298 
 BRR  HZ I         611 29.27         3.4 0.17            151           67.5 298 
 PAM  EZ EP        611 10.49                             151    0.2910 77.7  42 
 PAM  EN ES        611 27.58                             151   -0.1410 77.7  42 
 PAM  EZ I         611 33.72         2.3 0.42            152           77.7  42 
 RUS  HZ EP        611 11.60                             144   -0.2710  103 174 
 RUS  HN ES        611 31.00                             144    0.2910  103 174 
 RUS  HZ I         611 31.92         1.7 0.48            149            103 174 
 PTB  HZ EP        611 14.61                             133   -0.04 9  145 258 
 PTB  HN ES        611 35.58                             133   -0.08 9  145 258 
 PTB  HZ I         611 43.08         3.6 0.20            133            145 258 
                                                                                
