 2013  617 0644  3.8 L   6.808 -73.124146.5  RSN 12 0.5 2.3LRSN                1
 GAP=185        0.94       3.2     5.3  6.0  0.9651E-01  0.7327E+01  0.2509E+01E
 Epicentro: LOS SANTOS - SANTANDER                                             3
 ACTION:UPD 14-01-08 09:55 OP:ep   STATUS:               ID:20130617064403 L   I
 OLDACT:REG 13-06-17 07:12 OP:carl STATUS:               ID:20130617063959     3
 2013-06-17-0639-59M.COL___261                                                 6
 STAT SP IPHASW D HRMM SECON CODA AMPLIT PERI AZIMU VELO AIN AR TRES W  DIS CAZ7
 BAR2 SZ EP        644 23.69                             170    0.1010 24.8 195 
 BAR2 SZ ES   1    644 38.62                             170   -0.38 7 24.8 195 
 BAR2 SZ I         644 39.57        61.7 0.20            169           24.8 195 
 GIR2 SZ EP   1    644 23.66                             168    0.07 7 30.9 346 
 GIR2 SZ ES   1    644 39.34                             168    0.34 7 30.9 346 
 GIR2 SZ I         644 40.13        12.4 0.10            166           30.9 346 
 BRR  HZ EP        644 25.62                             152    0.4510 72.9 297 
 BRR  HN ES   1    644 42.69                             152    0.88 7 72.9 297 
 BRR  HZ I         644 44.12        51.5 0.14            150           72.9 297 
 RUS  HZ EP        644 27.59                             144   -0.1410  101 177 
 RUS  HN ES   1    644 46.37                             144    0.02 7  101 177 
 RUS  HZ I         644 47.10        19.6 0.34            144            101 177 
 PTB  HZ EP   1    644 30.68                             132   -0.43 7  150 259 
 PTB  HN ES   1    644 51.45                             132   -0.92 7  150 259 
 PTB  HZ I         644 53.52        31.0 0.14            130            150 259 
 OCA  HZ EP   1    644 31.91                             130   -0.25 7  160 352 
 OCA  HN ES   1    644 53.66                             130   -0.58 7  160 352 
 OCA  HZ I         644 57.88        20.0 0.50            130            160 352 
 ZAR  HZ EP   1    644 37.63                             122    1.09 6  206 292 
 ZAR  HE ES   1    645  2.38                             122    0.34 6  206 292 
 ZAR  HZ I         645  8.61        27.2 0.34            122            206 292 
 NOR  HZ EP   1    644 39.90                             118    0.01 6  237 235 
 NOR  HE ES   1    645  7.43                             118   -0.57 6  237 235 
 NOR  HZ I         645  9.38        15.9 0.32            118            237 235 
 SML  HZ EP   1    644 39.83                             118   -0.70 6  244 335 
 SML  HN ES   1    645  8.61                             118   -0.54 6  244 335 
 CHI  HZ EP   1    644 42.25                             117    0.50 6  250 196 
 CHI  HN ES   1    645 10.66                             117   -0.66 6  250 196 
 CHI  HZ I         645 16.94         5.4 0.38            117            250 196 
 GUY2CHZ EP   1    644 47.63                             112   -0.14 5  304 235 
 GUY2CHN ES   1    645 22.26                             112    0.22 5  304 235 
 GUY2CHZ I         645 30.24        11.3 0.50                           304 235 
 PRA  HZ EP   1    644 58.16                             107    0.53 4  394 210 
 PRA  HN ES   1    645 40.11                             107    0.54 4  394 210 
 PRA  HZ I         645 44.98         6.0 0.28            107            394 210 
                                                                                
