 2011  117 0904 54.5 L   6.787 -73.137147.3  RSN  9 0.3 2.1LRSN                1
 GAP=160        0.64       2.7     6.7  5.8 -0.8398E+01  0.1574E+02 -0.1707E+01E
 Epicentro: LOS SANTOS - SANTANDER                                             3
 ACTION:UP  11-02-08 08:41 OP:pat  STATUS:               ID:20110117090454 L   I
 2011-01-17-0900-45S.COL___135                                                 6
 STAT SP IPHASW D HRMM SECON CODA AMPLIT PERI AZIMU VELO SNR AR TRES W  DIS CAZ7
 BAR2 SZ IP        9 5 14.16                             171    -0.110   22 193 
 BAR2 SZ ES   1    9 5 29.65                             171    -0.1 7   22 193 
 BAR2 SZ I         9 5 30.47        24.8 0.34                            22 193 
 RUS  HZ IP     D  9 5 18.04                             145    -0.210   99 177 
 RUS  HN ES   1    9 5 36.90                             145     0.1 7   99 177 
 RUS  HZ I         9 5 38.49         8.3 0.29                            99 177 
 GRA  SZ IP        9 5 19.94                             137     0.010  127  17 
 GRA  SZ ES   1    9 5 40.26                             137     0.4 7  127  17 
 GRA  SZ I         9 5 41.92        23.4 0.24                           127  17 
 OCA  SZ EP   1    9 5 22.70                             130    -0.4 7  162 353 
 OCA  SZ ES   1    9 5 45.49                             130     0.1 7  162 353 
 OCA  SZ I         9 5 49.55        22.2 0.45                           162 353 
 NOR  SZ EP   1    9 5 30.27                             119     0.0 6  235 235 
 NOR  SE ES   2    9 5 57.62                             119    -0.6 4  235 235 
 CHI  HZ EP   1    9 5 32.33                             118     0.2 6  247 195 
 CHI  HE ES   1    9 6  2.04                             118     0.5 6  247 195 
 CHI  HZ I         9 6  9.48         5.5 0.56                           247 195 
 ROSC BZ EP   2    9 5 33.00                             117     0.4 4  252 211 
 ROSC BZ I         9 6 12.35        11.0 0.47                           252 211 
 HEL  HZ EP   2    9 5 35.70                             115     0.9 4  273 256 
 HEL  HZ I         9 6 12.85         9.6 0.35                           273 256 
 RREF HZ EP   2    9 5 40.42                             111    -0.3 3  322 230 
 RREF HE ES   2    9 6 16.75                             111     0.1 3  322 230 
 RREF HZ I         9 6 26.42         9.1 0.27                           322 230 
                                                                                
