 2016 1217 0923 32.6 L   6.153 -73.644114.0  RSN  8 0.3 1.0LRSN                1
 GAP= 68        0.73       2.6     2.9  5.6 -0.3339E-02  0.7226E+01 -0.5431E+00E
 Epicentro: LA PAZ - SANTANDER                                                 3
 ACTION:UPD 17-01-11 20:16 OP:rebc STATUS:               ID:20161217092332 L   I
 OLDACT:UP  16-12-17 18:17 OP:and  STATUS:               ID:20161217091748     3
 OLDACT:UP  16-12-17 18:16 OP:and  STATUS:               ID:20161217091748     3
 OLDACT:UP  16-12-17 18:16 OP:and  STATUS:               ID:20161217091748     3
 OLDACT:UP  16-12-17 16:49 OP:ar   STATUS:               ID:20161217091748     3
 OLDACT:REG 16-12-17 13:06 OP:and  STATUS:               ID:20161217091748     3
 2016-12-17-0918-00M.COL___354                                                 6
 STAT SP IPHASW D HRMM SECON CODA AMPLIT PERI AZIMU VELO AIN AR TRES W  DIS CAZ7
 RUS  HZ EP        923 50.37                             147   -0.5110 68.4 115 
 RUS  HN ES        924  5.07                             147   -0.1110 68.4 115 
 RUS  HZ I         924 11.24         1.0 0.62            148           68.4 115 
 BAR2 EZ EP        923 51.13                             146    0.4710 70.4  46 
 BAR2 EZ ES        924  4.81                             146    0.0310 70.4  46 
 PTB  HZ EP   9    923 51.74                             136   -0.85 0 99.6 295 
 PTB  HN ES        924  7.06                             135   -0.3110 99.6 295 
 PTB  HZ I         924  9.63         1.7 0.16            140           99.6 295 
 BRR  HZ EP        923 53.22                             134    0.1110  106 356 
 BRR  HN ES   4    924 11.85                             134    2.71 0  106 356 
 NOR  HZ EP   4    923 59.63                             123    2.16 0  151 244 
 NOR  HN ES        924 16.92                             123    0.01 9  151 244 
 NOR  HZ I         924 17.71         2.2 0.13            125            151 244 
 CHI  HN ES        924 21.19                             120    0.08 9  169 183 
 CHI  HZ I         924 27.07         1.4 0.30            122            169 183 
 ZAR  HZ EP        924  2.34                             115   -0.35 9  200 318 
 ZAR  HN ES        924 26.18                             115   -0.01 9  200 318 
 ZAR  HZ I         924 28.14         2.0 0.30            118            200 318 
 GUY2CHZ EP        924  5.43                             113    0.29 8  217 242 
 GUY2CHN ES   4    924 32.60                             113    2.04 0  217 242 
 GUY2CHZ I         924 37.30         0.6 0.27                           217 242 
                                                                                
