 2012  717 0336 45.0 L   6.726 -73.173152.6  RSN  5 0.3 1.5LRSN                1
 GAP=229        0.72       7.5     7.1  7.9  0.2572E+02  0.6183E+01 -0.7091E+01E
 Epicentro: VILLANUEVA - SANTANDER                                             3
 ACTION:UPD 12-08-14 11:45 OP:ep   STATUS:               ID:20120717033645 L   I
 2012-07-17-0330-00M.COL___197                                                 6
 STAT SP IPHASW D HRMM SECON CODA AMPLIT PERI AZIMU VELO AIN AR TRES W  DIS CAZ7
 BAR2 SZ EP   1    337  5.31                             174     0.0 7   15 184 
 BAR2 SZ ES   1    337 20.70                             174    -0.5 7   15 184 
 BAR2 SZ I         337 22.00         6.9 0.29            167             15 184 
 BRR  HZ EP        337  7.02                             153     0.010   73 305 
 BRR  HZ I         337  7.40        15.9 0.30            151             73 305 
 BRR  HN ES   1    337 24.68                             153     0.5 7   73 305 
 RUS  HZ EP   2    337  9.21                             147     0.3 5   93 174 
 RUS  HN ES   1    337 27.64                             147     0.1 7   93 174 
 RUS  HZ I         337 29.08         2.8 0.42            145             93 174 
 PTB  HZ EP   1    337 12.11                             134    -0.1 7  143 262 
 PTB  HN ES   1    337 33.40                             134     0.1 7  143 262 
 PTB  HZ I         337 38.37         3.1 0.49            131            143 262 
 ZAR  HN ES   2    337 42.87                             124    -0.8 4  205 295 
