 2010  617 0406  2.1 L   6.690 -72.923126.0  RSN  4 0.7 1.1LRSN                1
 GAP=184        1.27      18.6    29.5 31.4  0.4127E+03 -0.6169E+03 -0.4358E+03E
 Epicentro: CEPITA - SANTANDER                                                 3
 ACTION:UP  10-08-24 10:11 OP:vdl  STATUS:               ID:20100617040602 L   I
 2010-06-17-0401-13S.COL___114                                                 6
 STAT SP IPHASW D HRMM SECON CODA AMPLIT PERI AZIMU VELO SNR AR TRES W  DIS CAZ7
 BAR2 SZ EP   1    4 6 20.40                             168     0.9 7   31 249 
 RUS  HZ EP   3    4 6 24.83                             145     1.7 2   90 191 
 RUS  HN ES   1    4 6 39.16                             145    -0.4 7   90 191 
 RUS  HZ I         4 6 45.70         2.3 0.30                            90 191 
 BRR  HZ EP        4 6 22.54                             142    -0.510   99 298 
 BRR  HZ I         4 6 27.64         2.4 0.15                            99 298 
 BRR  HN ES   1    4 6 39.89                             142     0.4 7   99 298 
 BRI  SZ EP   2    4 6 24.33                             136    -0.3 5  114   7 
                                                                                
