 2010 1217 0240 18.8 L   6.767 -73.090150.0  RSN  9 0.3 1.9LRSN                1
 GAP=188        0.68       3.1     6.1  5.3 -0.1752E+01  0.8448E+01  0.2412E+01E
 Epicentro: LOS SANTOS - SANTANDER                                             3
 ACTION:UP  11-01-14 15:25 OP:pat  STATUS:               ID:20101217024018 L   I
 2010-12-17-0237-09S.COL___137                                                 6
 STAT SP IPHASW D HRMM SECON CODA AMPLIT PERI AZIMU VELO SNR AR TRES W  DIS CAZ7
 BAR2 SZ EP        240 38.71                             171    -0.210   22 208 
 BAR2 SZ ES   1    240 54.61                             171     0.0 7   22 208 
 BAR2 SZ I         240 56.71        12.4 0.26                            22 208 
 BRR  HZ EP        240 40.64                             151    -0.210   78 299 
 BRR  HZ I         240 42.18        23.2 0.08                            78 299 
 BRR  HN ES   1    240 58.14                             151     0.1 7   78 299 
 RUS  HZ EP   1    240 42.56                             146    -0.2 7   97 180 
 RUS  HN ES   1    241  1.45                             146     0.1 7   97 180 
 RUS  HZ I         241  2.62         3.7 0.18                            97 180 
 OCA  SZ EP   1    240 47.62                             130    -0.2 7  165 351 
 OCA  SZ ES   1    241 11.13                             130     0.6 7  165 351 
 OCA  SZ I         241 14.05        14.9 0.35                           165 351 
 NOR  SZ EP   1    240 54.88                             119    -0.2 6  238 236 
 NOR  SN ES   1    241 23.01                             119    -0.4 6  238 236 
 CHI  HZ EP   1    240 56.64                             118     0.1 6  247 197 
 CHI  HN ES   2    241 26.86                             118     0.9 4  247 197 
 CHI  HZ I         241 31.55         3.0 0.44                           247 197 
 HEL  HZ EP   1    240 59.85                             115     0.0 6  277 257 
 HEL  HZ I         241 38.39         4.2 0.22                           277 257 
 RREF HZ EP   2    241  5.95                             111     0.5 3  324 231 
 RREF HZ I         241 47.18         4.6 0.27                           324 231 
 PRA  HZ EP   1    241 12.89                             107     0.4 4  392 211 
 PRA  HN ES   1    241 54.84                             107     0.5 4  392 211 
 PRA  HZ I         241 58.97         7.3 0.09                           392 211 
                                                                                
