 2013  617 0213 57.6 L   6.797 -73.109146.8  RSN  8 0.5 1.9LRSN                1
 GAP=187        0.94       3.6     6.9  7.2  0.1379E+01 -0.1931E+00  0.6295E-02E
 Epicentro: LOS SANTOS - SANTANDER                                             3
 ACTION:UPD 14-01-08 09:55 OP:ep   STATUS:               ID:20130617021357 L   I
 OLDACT:REG 13-06-17 07:03 OP:carl STATUS:               ID:20130617020959     3
 2013-06-17-0209-59M.COL___261                                                 6
 STAT SP IPHASW D HRMM SECON CODA AMPLIT PERI AZIMU VELO AIN AR TRES W  DIS CAZ7
 BAR2 SZ EP   1    214 17.62                             170    0.22 8 24.1 200 
 BAR2 SZ ES   1    214 33.30                             170    0.48 8 24.1 200 
 BAR2 SZ I         214 33.82        19.6 0.14            171           24.1 200 
 BRR  HZ EP   1    214 19.60                             152    0.50 8 75.0 297 
 BRR  HN ES   1    214 36.53                             152    0.68 8 75.0 297 
 BRR  HZ I         214 40.78         9.2 0.46            148           75.0 297 
 RUS  HZ EP   1    214 20.64                             144   -0.81 8  100 178 
 RUS  HN ES   1    214 39.77                             144   -0.25 8  100 178 
 RUS  HZ I         214 41.64         6.2 0.50            147            100 178 
 PTB  HZ EP   1    214 25.34                             132    0.30 7  152 259 
 PTB  HE ES        214 46.02                             132   -0.4010  152 259 
 PTB  HZ I         214 48.69         7.1 0.18            131            152 259 
 OCA  HZ EP   1    214 26.84                             130    0.74 7  161 352 
 OCA  HN ES   1    214 47.64                             130   -0.66 7  161 352 
 OCA  HZ I         214 52.07         9.8 0.18            129            161 352 
 SML  HZ EP   1    214 34.13                             118   -0.40 6  246 334 
 SML  HE ES   1    215  2.84                             118   -0.47 6  246 334 
 SML  HZ I         215 12.98        11.3 0.10            117            246 334 
 CHI  HZ EP   1    214 35.38                             117   -0.09 6  249 196 
 CHI  HN ES   1    215  4.61                             117   -0.38 6  249 196 
 PRA  HZ EP   1    214 52.13                             107    0.74 5  394 210 
 PRA  HN ES   1    215 33.51                             107    0.18 5  394 210 
 PRA  HZ I         215 38.99         3.1 0.24            107            394 210 
                                                                                
