 2013 1017 0156 43.8 L   6.802 -73.164141.3  RSN 20 0.5 2.9LRSN 3.2WRSN        1
 SPEC AVERAGE  MO 13.9 ST 37.5 OM  2.3 f0 6.84 R0.3722 AL 0.00 WI 21.6 MW  3.2 3
 SPEC SD       MO  0.3 ST 35.6 OM  0.4 f0 3.33 R0.2581 AL      WI      MW  0.2 3
 GAP= 54        1.23       2.8     3.4  5.3 -0.6939E+00  0.3039E+01  0.1511E+01E
 Epicentro: LOS SANTOS - SANTANDER                                             3
 SPEC SML HH N MO 13.8 ST 81.8 OM  2.0 f0 10.0 R0.1554 AL 0.00 WI 32.5 MW  3.2 3
 SPEC SML HH N T 15746 K 0.000 GD  281 VS 4.20 DE 3.20 Q0300.0 QA 0.60 VS 4.20 3
 SPEC SPBCHH N MO 13.8 ST 78.8 OM  2.1 f0 10.0 R0.1554 AL 0.00 WI 24.1 MW  3.2 3
 SPEC SPBCHH N T 15733 K 0.000 GD  214 VS 4.20 DE 3.20 Q0300.0 QA 0.60 VS 4.20 3
 SPEC TAM HH Z MO 14.5 ST  1.7 OM  2.0 f0 3.04 R0.9250 AL 0.00 WI 27.5 MW  3.6 3
 SPEC TAM HH Z T 15710 K 0.000 GD  211 VP 7.60 DE 3.20 Q0300.0 QA 0.60 VS 4.20 3
 SPEC RUS HH Z MO 13.2 ST0.939 OM  1.6 f0 3.60 R0.4317 AL 0.00 WI 11.9 MW  2.8 3
 SPEC RUS HH Z T 15722 K 0.000 GD  173 VS 4.20 DE 3.20 Q0300.0 QA 0.60 VS 4.20 3
 SPEC NOR HH N MO 13.7 ST 63.0 OM  1.9 f0 10.0 R0.1554 AL 0.00 WI 28.3 MW  3.1 3
 SPEC NOR HH N T 15744 K 0.000 GD  272 VS 4.20 DE 3.20 Q0300.0 QA 0.60 VS 4.20 3
 SPEC OCA HH Z MO 14.0 ST 19.6 OM  1.5 f0 10.0 R0.2812 AL 0.00 WI 19.6 MW  3.3 3
 SPEC OCA HH Z T 15710 K 0.000 GD  213 VP 7.60 DE 3.20 Q0300.0 QA 0.60 VS 4.20 3
 SPEC PTB HH N MO 14.0 ST 32.7 OM  2.3 f0 6.52 R0.2383 AL 0.00 WI 16.6 MW  3.3 3
 SPEC PTB HH N T 15729 K 0.000 GD  203 VS 4.20 DE 3.20 Q0300.0 QA 0.60 VS 4.20 3
 SPEC PAM SH N MO 14.3 ST  2.3 OM  2.7 f0 2.13 R0.7296 AL 0.00 WI 11.7 MW  3.5 3
 SPEC PAM SH N T 15722 K 0.000 GD  161 VS 4.20 DE 3.20 Q0300.0 QA 0.60 VS 4.20 3
 SPEC CHI HH N MO 13.9 ST  2.6 OM  2.0 f0 3.14 R0.4949 AL 0.00 WI 19.7 MW  3.2 3
 SPEC CHI HH N T 15748 K 0.000 GD  285 VS 4.20 DE 3.20 Q0300.0 QA 0.60 VS 4.20 3
 SPEC BRR HH N MO 13.9 ST 91.4 OM  2.3 f0 10.0 R0.1554 AL 0.00 WI 23.6 MW  3.2 3
 SPEC BRR HH N T 15720 K 0.000 GD  157 VS 4.20 DE 3.20 Q0300.0 QA 0.60 VS 4.20 3
 ACTION:UPD 13-11-25 09:22 OP:ep   STATUS:               ID:20131017015643 L   I
 OLDACT:UP  13-10-17 09:54 OP:jn   STATUS:               ID:20131017014835     3
 OLDACT:REG 13-10-17 08:13 OP:jn   STATUS:               ID:20131017014835     3
 2013-10-17-0148-35M.COL___226                                                 6
 STAT SP IPHASW D HRMM SECON CODA AMPLIT PERI AZIMU VELO AIN AR TRES W  DIS CAZ7
 BAR2 SZ IP     C  157  3.07                             170    0.1610 23.3 185 
 BAR2 SZ ES        157 17.03                             170   -0.7710 23.3 185 
 BAR2 SZ I         157 19.31       267.8 0.36            169           23.3 185 
 BRR  HZ IP     C  157  4.95                             152    0.5710 69.3 299 
 BRR  HE ES        157 21.58                             152    1.1710 69.3 299 
 BRR  HZ I         157 26.23       126.7 0.14            147           69.3 299 
 PAM  SZ EP        157  5.94                             150    0.3110 78.5  41 
 PAM  SN ES        157 22.68                             150    0.0410 78.5  41 
 PAM  SZ I         157 25.21       282.7 0.62            151           78.5  41 
 RUS  HZ EP        157  7.05                             143   -0.1110  101 175 
 RUS  HN ES        157 25.12                             143   -0.2410  101 175 
 RUS  HZ I         157 26.60        55.1 0.32            143            101 175 
 PTB  HZ EP        157  9.71                             131   -0.53 9  146 259 
 PTB  HN ES        157 30.49                             131   -0.36 9  146 259 
 PTB  HZ I         157 33.88       127.4 0.16            128            146 259 
 TAM  HZ EP        157 11.43                             129    0.10 9  157 105 
 OCA  HZ EP     C  157 11.38                             129   -0.36 9  160 354 
 OCA  HN ES        157 32.84                             129   -0.68 9  160 354 
 OCA  HZ I         157 36.71       138.4 0.44            127            160 354 
 SPBC HZ EP        157 12.04                             128    0.17 9  162 218 
 SPBC HN ES        157 34.12                             128    0.37 9  162 218 
 SPBC HZ I         157 42.15        38.6 0.36            126            162 218 
 YOP  SZ EP        157 13.71                             125    0.06 9  180 153 
 YOP  SN ES        157 37.60                             125    0.68 9  180 153 
 YOP  SZ I         157 38.99        60.3 0.38            126            180 153 
 ZAR  HZ EP        157 16.14                             122    0.37 9  202 292 
 ZAR  HN ES   1    157 41.22                             122    0.53 6  202 292 
 ZAR  HZ I         157 47.10       127.5 0.36            119            202 292 
 NOR  HZ EP        157 19.16                             118    0.04 8  233 234 
 NOR  HN ES        157 46.12                             118   -0.54 8  233 234 
 NOR  HZ I         157 52.43        47.3 0.18            116            233 234 
 SML  HZ EP        157 19.32                             117   -0.76 8  243 336 
 SML  HE ES   1    157 49.15                             117    0.78 6  243 336 
 SML  HZ I         157 50.69        71.2 0.10            115            243 336 
 CHI  HZ EP        157 21.37                             116    0.14 8  248 195 
 CHI  HN ES        157 49.97                             116   -0.45 8  248 195 
 CHI  HZ I         157 54.78        26.8 0.26            115            248 195 
 HEL  HZ EP        157 23.92                             114    0.33 8  270 256 
 HEL  HN ES        157 53.28                             114   -1.33 8  270 256 
 HEL  HZ I         158  2.21        26.5 0.26            112            270 256 
 URE  HZ EP   4    157 23.42                             113   -1.03 0  282 292 
 URE  HZ I         157 56.94        58.1 0.36            111            282 292 
 GUY2CHZ EP   1    157 27.49                             112    0.44 5  300 235 
 GUY2CHZ I         158 11.01        27.4 0.30                           300 235 
 DBB  SZ EP        157 31.39                             109    0.51 7  337 274 
 DBB  SZ ES   2    158  8.02                             109    0.44 3  337 274 
 SDV  BZ EP        157 32.90                             107   -0.96 6  362  50 
 PRA  HZ EP        157 37.04                             106   -0.05 6  391 209 
 PRA  HN ES        158 18.14                             106   -0.50 6  391 209 
 PRA  HZ I         158 26.13        20.6 0.58            105            391 209 
 ORTC HZ EP        157 37.91                             106    0.45 6  394 216 
 ORTC HN ES        158 20.03                             106    0.72 6  394 216 
 ORTC HZ I         158 26.30        22.1 0.66            105            394 216 
 SJC  HZ EP   4    157 37.45                             105   -1.63 0  408 327 
 SJC  HN ES   4    158 18.11                             105   -4.08 0  408 327 
                                                                                
