 2014  117 0250 18.9 L   6.800 -73.125145.6  RSN 16 0.5 2.2LRSN                1
 GAP= 72        0.84       2.9     3.0  5.3 -0.1747E+00  0.2611E+01  0.9489E+00E
 Epicentro: LOS SANTOS - SANTANDER                                             3
 ACTION:UPD 14-03-13 09:56 OP:ep   STATUS:               ID:20140117025018 L   I
 OLDACT:UP  14-01-17 09:31 OP:mh   STATUS:               ID:20140117025000     3
 OLDACT:UP  14-01-17 09:31 OP:mh   STATUS:               ID:20140117025000     3
 OLDACT:REG 14-01-17 08:07 OP:mh   STATUS:               ID:20140117025000     3
 2014-01-17-0250-00M.COL___285                                                 6
 STAT SP IPHASW D HRMM SECON CODA AMPLIT PERI AZIMU VELO AIN AR TRES W  DIS CAZ7
 BAR2 SZ EP        250 38.44                             170   -0.0610 23.9 195 
 BAR2 SZ ES   1    250 53.45                             170   -0.35 7 23.9 195 
 BAR2 SZ I         250 55.16        45.5 0.24            163           23.9 195 
 BRR  HZ EP     C  250 40.33                             152    0.2110 73.2 298 
 BRR  HE ES   1    250 56.86                             152    0.18 7 73.2 298 
 BRR  HZ I         251  0.05        15.9 0.14            139           73.2 298 
 PAM  SZ EP        250 41.31                             151    0.3210 75.9  38 
 PAM  SN ES   1    250 58.55                             151    0.32 7 75.9  38 
 PAM  SZ I         251  0.25        24.3 0.56            144           75.9  38 
 RUS  HZ EP     D  250 42.39                             144   -0.2110  100 177 
 RUS  HN ES   1    251  1.17                             144    0.06 7  100 177 
 RUS  HZ I         251  4.11         7.8 0.24            132            100 177 
 PTB  HZ EP   1    250 45.19                             131   -0.84 7  150 259 
 PTB  HN ES   1    251  6.85                             131   -0.36 7  150 259 
 PTB  HZ I         251 13.65        26.1 0.52            118            150 259 
 TAM  HZ EP        250 46.65                             131    0.31 9  153 105 
 TAM  HN ES   2    251  7.03                             131   -0.73 5  153 105 
 OCA  HZ EP   2    250 46.26                             129   -0.94 5  161 352 
 OCA  HN ES   1    251  9.72                             129    0.43 7  161 352 
 OCA  HZ I         251 16.09        16.6 0.29            118            161 352 
 SPBC HN ES   1    251  9.85                             129    0.03 7  165 220 
 SPBC HZ I         251 16.79        18.4 0.14            116            165 220 
 ZAR  HZ EP   1    250 51.09                             122   -0.44 6  206 292 
 ZAR  HN ES        251 17.15                             122    0.16 8  206 292 
 ZAR  HZ I         251 22.68        16.1 0.28            110            206 292 
 NOR  HZ EP   1    250 54.46                             118   -0.34 6  237 235 
 NOR  HN ES   1    251 22.55                             118   -0.26 6  237 235 
 NOR  HZ I         251 28.65        12.7 0.15            107            237 235 
 SML  HZ EP   1    250 55.27                             117   -0.32 6  245 335 
 SML  HN ES   1    251 23.23                             117   -1.00 6  245 335 
 SML  HZ I         251 26.82        18.8 0.11            107            245 335 
 CHI  HZ EP   1    250 56.61                             117   -0.03 6  249 196 
 CHI  HN ES   2    251 26.04                             117   -0.04 4  249 196 
 CHI  HZ I         251 35.62         5.2 0.28            106            249 196 
 HEL  HZ EP        251  0.18                             114    0.85 8  274 256 
 HEL  HN ES   1    251 31.32                             114    0.45 6  274 256 
 HEL  HZ I         251 37.65         7.6 0.42            104            274 256 
 GUY2CHZ EP   1    251  3.45                             112    0.76 5  303 235 
 GUY2CHN ES   4    251 39.66                             112    2.80 0  303 235 
 GUY2CHZ I         251 43.82         6.2 0.26                           303 235 
 RREF HZ EP   4    251  6.61                             111    1.40 0  323 230 
 RREF HZ I         251 50.53         7.3 0.20            101            323 230 
 SJC  HZ EP   4    251 12.60                             105   -1.98 0  410 327 
 SJC  HZ I         251 58.41         4.1 0.62             97            410 327 
                                                                                
