 2016  117 0941 14.6 L   6.898 -73.154141.3  RSN  4 0.4 1.4LRSN                1
 GAP=202        0.91       5.5     6.5 12.8  0.1889E+02 -0.2390E+02 -0.4335E+02E
 Epicentro: BETULIA - SANTANDER                                                3
 ACTION:UPD 16-03-09 23:26 OP:cam  STATUS:               ID:20160117094114 L   I
 OLDACT:UP  16-01-17 18:48 OP:mh   STATUS:               ID:20160117093739     3
 OLDACT:REG 16-01-17 14:06 OP:mh   STATUS:               ID:20160117093739     3
 2016-01-17-0937-39M.COL___310                                                 6
 STAT SP IPHASW D HRMM SECON CODA AMPLIT PERI AZIMU VELO AIN AR TRES W  DIS CAZ7
 RUS  HZ EP        941 38.49                             140   -0.2410  111 176 
 RUS  HN ES        941 57.80                             140    0.2410  111 176 
 RUS  HZ I         941 59.53         1.8 0.34            151            111 176 
 PTB  HZ EP        941 40.74                             131   -0.59 9  149 255 
 PTB  HN ES        942  2.13                             131   -0.07 9  149 255 
 PTB  HZ I         942  4.99         2.9 0.10            139            149 255 
 ZAR  HZ EP        941 46.78                             122    0.53 9  199 289 
 ZAR  HN ES        942 11.16                             122    0.21 9  199 289 
 ZAR  HZ I         942 16.62         4.1 0.32            128            199 289 
 SML  HZ EP        941 50.32                             118    0.47 8  233 334 
 SML  HN ES        942 16.92                             118   -0.44 8  233 334 
 SML  HZ I         942 25.76         2.9 0.10            122            233 334 
                                                                                
