 2015  417 0220  8.8 L   6.758 -73.162150.0  RSN  7 0.4 1.4LRSN                1
 GAP=199        0.89       4.7     5.5  6.9  0.5214E+01  0.3497E+01 -0.2888E+01E
 Epicentro: LOS SANTOS - SANTANDER                                             3
 ACTION:UPD 15-06-03 16:55 OP:cam  STATUS:               ID:20150417022008 L   I
 OLDACT:REG 15-04-17 12:34 OP:spq  STATUS:               ID:20150417021748     3
 2015-04-17-0217-48M.COL___278                                                 6
 STAT SP IPHASW D HRMM SECON CODA AMPLIT PERI AZIMU VELO AIN AR TRES W  DIS CAZ7
 BAR2 EZ EP        220 28.66                             173   -0.2410 18.5 187 
 BAR2 EZ ES   1    220 44.47                             173   -0.07 7 18.5 187 
 BAR2 EZ I         220 45.54         6.1 0.22            168           18.5 187 
 BRR  HZ EP        220 30.74                             153    0.2510 71.9 302 
 BRR  HN ES        220 47.99                             153    0.6110 71.9 302 
 BRR  HZ I         220 49.79         5.1 0.14            150           71.9 302 
 RUS  HZ EP   1    220 32.87                             146    0.16 7 96.1 175 
 RUS  HN ES   1    220 51.14                             146   -0.18 7 96.1 175 
 RUS  HZ I         220 52.64         2.6 0.26            145           96.1 175 
 PTB  HZ EP        220 35.32                             134   -0.61 9  145 260 
 PTB  HN ES        220 56.66                             134   -0.39 9  145 260 
 PTB  HZ I         220 59.31         3.6 0.30            131            145 260 
 ZAR  HN ES   1    221  6.94                             124   -0.17 6  204 294 
 ZAR  HZ I         221 12.54         3.2 0.38            122            204 294 
 NOR  HZ EP   1    220 44.86                             120    0.48 6  231 235 
 NOR  HN ES   1    221 12.84                             120    0.74 6  231 235 
 NOR  HZ I         221 19.72         2.2 0.16            119            231 235 
 SML  HZ EP   1    220 46.33                             118    0.25 6  247 336 
 SML  HN ES   1    221 14.64                             118   -0.49 6  247 336 
                                                                                
