 2016  917 0156 39.5 L   6.076 -74.225  4.0  RSN  5 0.4 1.3LRSN                1
 GAP=173        0.73       1.9     2.4  5.2  0.1817E+01 -0.3566E+01 -0.1706E+01E
 Epicentro: LA BELLEZA - SANTANDER                                             3
 ACTION:UPD 17-08-17 21:13 OP:lp   STATUS:               ID:20160917015639 L   I
 OLDACT:REG 16-09-17 13:43 OP:and  STATUS:               ID:20160917014734     3
 2016-09-17-0148-00M.COL___366                                                 6
 STAT SP IPHASW D HRMM SECON CODA AMPLIT PERI AZIMU VELO AIN AR TRES W  DIS CAZ7
 SPBC HZ EP        156 47.73                              47   -0.0110 49.9 160 
 SPBC HN ES        156 54.30                              47    0.1310 49.9 160 
 PTB  HZ EP        156 48.54                              47   -0.2410 57.2 333 
 PTB  HN ES        156 56.05                              47    0.0310 57.2 333 
 PTB  HZ I         156 56.45        23.1 0.12            110           57.2 333 
 BRR  HZ EP   3    157  0.41                              47    1.03 2  127  26 
 BRR  HN ES   3    157 13.79                              47   -1.10 2  127  26 
 RUS  HN EP        157  0.09                              47    0.0910  128  99 
 RUS  HE ES        157 15.50                              47   -0.5010  128  99 
 RUS  HN I         157 17.43         3.2 0.30             56            128  99 
 BAR2 EZ EP   2    157  0.68                              47    0.84 5  129  64 
 BAR2 EZ ES        157 16.02                              47    0.3110  129  64 
 BAR2 EZ I         157 18.61         8.6 0.48             56            129  64 
                                                                                
