 2012  417 0835 24.3 L   6.365 -73.672100.0  RSN  6 0.3 1.5LRSN                1
 GAP=140        0.61       3.7     3.0  7.5 -0.1488E+01  0.7686E+01  0.1243E+02E
 Epicentro: SANTA HELENA DEL OPON - SANTANDER                                  3
 ACTION:UPD 12-07-05 11:53 OP:tino STATUS:               ID:20120417083524 L   I
 2012-04-17-0830-00M.COL___190                                                 6
 STAT SP IPHASW D HRMM SECON CODA AMPLIT PERI AZIMU VELO AIN AR TRES W  DIS CAZ7
 BAR2 SZ EP   1    835 40.40                             147     0.1 7   60  65 
 BAR2 SZ ES   1    835 52.34                             147    -0.4 7   60  65 
 BAR2 SZ I         835 54.97        16.0 0.13                            60  65 
 BRR  HZ EP   1    835 41.78                             138     0.1 7   82 357 
 BRR  HZ I         835 50.17        10.7 0.11                            82 357 
 BRR  HN ES   1    835 55.43                             138     0.3 7   82 357 
 PAM  SZ EP   1    835 48.90                             120    -0.2 7  152  45 
 PAM  SN ES   1    836  8.76                             120     0.3 7  152  45 
 PAM  SZ I         836 10.43         3.1 0.25                           152  45 
 ZAR  HN ES   1    836 12.60                             115    -0.4 7  181 314 
 ZAR  HZ I         836 18.13         5.8 0.17                           181 314 
 HEL  HZ EP   1    835 54.87                             112    -0.1 6  206 265 
 HEL  HN ES   1    836 19.11                             112     0.2 6  206 265 
 HEL  HZ I         836 21.59         2.5 0.15                           206 265 
 PRA  HZ EP   1    836  8.00                             103    -0.3 5  323 205 
 PRA  HN ES   1    836 42.93                             103     0.3 5  323 205 
                                                                                
