 2012 1117 0924 39.3 L   6.749 -73.158146.3  RSN  5 0.4 1.1LRSN                1
 GAP=137        0.71       4.1     4.5  9.6  0.9079E-01  0.1382E+02 -0.8781E+01E
 Epicentro: LOS SANTOS - SANTANDER                                             3
 ACTION:UPD 12-12-05 15:34 OP:}ep  STATUS:               ID:20121117092439 L   I
 2012-11-17-0920-00M.COL___233                                                 6
 STAT SP IPHASW D HRMM SECON CODA AMPLIT PERI AZIMU VELO AIN AR TRES W  DIS CAZ7
 PAM  SZ EP   1    925  1.96                             149    0.07 7 82.6  38 
 PAM  SN ES   1    925 19.68                             149    0.17 7 82.6  38 
 PAM  SZ I         925 21.38         2.3 0.66                          82.6  38 
 RUS  HZ EP   1    925  3.26                             145    0.55 7 95.1 175 
 RUS  HN ES   1    925 20.50                             145   -0.48 7 95.1 175 
 RUS  HZ I         925 22.56         1.0 0.50                          95.1 175 
 PTB  HZ EP   1    925  5.83                             132   -0.26 7  145 261 
 PTB  HN ES   1    925 26.97                             132   -0.02 7  145 261 
 PTB  HZ I         925 28.03         2.5 0.46                           145 261 
 ZAR  HN ES   1    925 37.80                             122    0.53 6  205 294 
 SML  HZ EP   2    925 16.07                             117   -0.37 4  248 336 
 SML  HE ES   1    925 44.85                             117   -0.56 6  248 336 
                                                                                
