 2013  517 0648 41.8 L   6.869 -73.500113.5  RSN  7 0.5 1.6LRSN                1
 GAP= 94        1.25       4.4     5.9  9.5  0.4172E+01  0.2703E+01 -0.2995E+01E
 Epicentro: SAN VICENTE DE CHUCURI - SANTANDER                                 3
 ACTION:UPD 13-06-20 09:51 OP:ep   STATUS:               ID:20130517064841 L   I
 2013-05-17-0646-47M.COL___225                                                 6
 STAT SP IPHASW D HRMM SECON CODA AMPLIT PERI AZIMU VELO AIN AR TRES W  DIS CAZ7
 BRR  HZ EP        648 58.13                             162    0.5310 35.2 318 
 BRR  HN ES        649 10.66                             162    0.7410 35.2 318 
 BRR  HZ I         649 11.60         9.0 0.12            160           35.2 318 
 GIR2 SZ EP        648 58.09                             159    0.0410 41.0  56 
 GIR2 SZ I         649 12.23         9.1 0.34            153           41.0  56 
 BAR2 SZ EP        648 58.73                             156    0.2810 46.6 131 
 BAR2 SZ ES        649 10.99                             156   -0.4410 46.6 131 
 BAR2 SZ I         649 12.43        14.8 0.16            153           46.6 131 
 PTB  HZ EP        649  2.83                             132   -0.0510  112 251 
 PTB  HN ES        649 18.71                             132   -0.6110  112 251 
 PTB  HZ I         649 20.43         7.9 0.20            132            112 251 
 RUS  HZ EP        649  4.12                             131    0.0810  117 157 
 RUS  HN ES        649 21.38                             131    0.0010  117 157 
 OCA  HE ES        649 25.79                             123   -0.95 9  153   7 
 SML  HE ES   1    649 40.49                             112    0.57 6  223 344 
                                                                                
