 2011  617 0856 11.7 L   6.778 -73.093152.0  RSN  9 0.3 1.5LRSN                1
 GAP=162        0.65       4.5     7.3  6.9 -0.6188E+01 -0.1244E+02 -0.1661E+01E
 Epicentro: LOS SANTOS - SANTANDER                                             3
 ACTION:UP  11-07-14 19:05 OP:ep   STATUS:               ID:20110617085611 L   I
 2011-06-17-0840-00M.COL___122                                                 6
 STAT SP IPHASW D HRMM SECON CODA AMPLIT PERI AZIMU VELO SNR AR TRES W  DIS CAZ7
 BAR2 SZ EP   1    856 31.79                             171    -0.2 7   23 206 
 BAR2 SZ ES   2    856 47.50                             171    -0.4 5   23 206 
 BAR2 SZ I         856 48.07         6.4 0.42                            23 206 
 BTL  SZ EP   1    856 32.77                             170     0.7 7   25 309 
 GIR2 SZ EP   1    856 32.25                             166     0.1 7   35 342 
 GIR2 SZ ES   2    856 48.73                             166     0.5 5   35 342 
 BRR  HZ EP   1    856 33.81                             151     0.0 7   77 298 
 BRR  HZ I         856 33.99        16.4 0.19                            77 298 
 BRR  HE ES   1    856 51.07                             151    -0.1 7   77 298 
 RUS  HZ EP   1    856 35.73                             146    -0.1 7   98 179 
 RUS  HN ES   2    856 54.80                             146     0.1 5   98 179 
 RUS  HZ I         856 56.23         2.9 0.39                            98 179 
 BRI  SZ EP   1    856 36.16                             143     0.0 7  109  17 
 BRI  SZ I         856 43.59         3.5 0.34                           109  17 
 GRA  SZ EP   2    856 37.40                             138    -0.1 5  126  15 
 GRA  SZ I         856 38.75         4.1 0.32                           126  15 
 GRA  SZ ES   2    856 57.12                             138    -0.6 5  126  15 
 OCA  SZ EP   1    856 40.75                             130     0.0 7  163 351 
 OCA  SZ I         857 11.37         4.6 0.54                           163 351 
 NOR  SN ES   2    857 16.29                             119    -0.3 4  238 236 
                                                                                
