 2015 1217 0848 13.1 L   6.805 -73.149143.2  RSN 12 0.4 2.0LRSN                1
 GAP=136        0.88       2.4     3.4  4.5 -0.1893E+01  0.5143E+01 -0.7039E+00E
 Epicentro: LOS SANTOS - SANTANDER                                             3
 ACTION:UPD 16-02-04 15:05 OP:cam  STATUS:               ID:20151217084813 L   I
 OLDACT:REG 15-12-17 13:57 OP:cara STATUS:               ID:20151217083747     3
 2015-12-17-0837-47M.COL___331                                                 6
 STAT SP IPHASW D HRMM SECON CODA AMPLIT PERI AZIMU VELO AIN AR TRES W  DIS CAZ7
 BAR2 EZ IP        848 32.23                             170   -0.1910 23.8 189 
 BAR2 EZ ES        848 46.94                             170   -0.5610 23.8 189 
 BAR2 EZ I         848 48.86        18.3 0.42            171           23.8 189 
 BRR  HZ IP        848 34.03                             152    0.1110 70.6 298 
 BRR  HN ES        848 50.64                             152    0.4610 70.6 298 
 BRR  HZ I         848 54.31        19.8 0.28            151           70.6 298 
 PAM  EZ IP     C  848 35.21                             150    0.1910 77.2  40 
 PAM  EN ES        848 52.22                             150    0.1010 77.2  40 
 PAM  EZ I         848 54.32        10.0 0.42            153           77.2  40 
 RUS  HZ EP        848 36.49                             143   -0.1410  101 176 
 RUS  HN ES        848 55.28                             143    0.2910  101 176 
 RUS  HZ I         848 56.01         7.5 0.32            147            101 176 
 PTB  HZ EP        848 38.95                             131   -0.87 9  147 259 
 PTB  HN ES        849  0.54                             131   -0.13 9  147 259 
 PTB  HZ I         849  2.60         9.5 0.20            132            147 259 
 OCA  HZ IP        848 40.96                             129   -0.18 9  160 353 
 OCA  HN ES        849  3.53                             129    0.51 9  160 353 
 OCA  HZ I         849 10.43        22.5 0.30            131            160 353 
 SPBC HZ IP        848 41.37                             128   -0.04 9  163 219 
 SPBC HN ES        849  3.54                             128    0.04 9  163 219 
 SPBC HZ I         849 10.42        11.6 0.20            130            163 219 
 ZAR  HZ EP        848 45.44                             122    0.14 9  203 292 
 ZAR  HN ES        849 10.36                             122   -0.08 9  203 292 
 NOR  HZ EP        848 48.56                             118   -0.11 8  235 234 
 NOR  HN ES        849 16.36                             118   -0.06 8  235 234 
 NOR  HZ I         849 22.52         7.6 0.16            120            235 234 
 SML  HZ EP        848 49.26                             117   -0.23 8  243 335 
 SML  HE ES        849 17.43                             117   -0.46 8  243 335 
 SML  HZ I         849 22.95        10.3 0.22            118            243 335 
 GUY2CHZ EP        848 57.35                             112    0.77 7  301 235 
 GUY2CHN ES        849 30.91                             112    0.41 7  301 235 
 GUY2CHZ I         849 40.60         4.3 0.62                           301 235 
 CBOC HZ EP        849  0.36                             109    0.49 7  333 252 
 CBOC HN ES   4    849 37.90                             109    1.54 0  333 252 
 CBOC HZ I         849 41.29         5.4 0.10            111            333 252 
                                                                                
