 2010 1117 0857 15.2 L   6.796 -73.050144.0  RSN  5 0.3 1.6LRSN                1
 GAP=193        0.63       4.3     7.2  6.4  0.8651E+01 -0.1762E+01 -0.6496E+01E
 Epicentro: LOS SANTOS - SANTANDER                                             3
 ACTION:UP  10-12-17 16:53 OP:REBC STATUS:               ID:20101117085715 L   I
 2010-11-17-0853-40S.COL___127                                                 6
 STAT SP IPHASW D HRMM SECON CODA AMPLIT PERI AZIMU VELO SNR AR TRES W  DIS CAZ7
 BAR2 SZ EP   1    857 34.47                             169    -0.2 7   27 213 
 BAR2 SZ ES   1    857 49.63                             169    -0.3 7   27 213 
 BAR2 SZ I         857 51.20        12.5 0.26                            27 213 
 BRR  HZ EP   1    857 36.30                             149    -0.4 7   81 295 
 BRR  HZ I         857 38.22         8.0 0.10                            81 295 
 BRR  HN ES   1    857 53.64                             149     0.1 7   81 295 
 RUS  HZ EP   1    857 38.80                             144     0.1 7  100 182 
 RUS  HE ES   1    857 57.42                             144     0.3 7  100 182 
 RUS  HZ I         857 58.89         3.7 0.43                           100 182 
 OCA  SZ EP   1    857 43.83                             129     0.3 7  162 349 
 OCA  SZ ES   2    858  6.07                             129     0.4 5  162 349 
 OCA  SZ I         858  8.30         3.7 0.26                           162 349 
 HEL  HZ EP   2    857 56.28                             113    -0.2 4  282 256 
 HEL  HE ES   2    858 28.99                             113     0.4 4  282 256 
 HEL  HZ I         858 33.55         2.7 0.49                           282 256 
                                                                                
