 2013  717 0510 27.0 L   6.820 -73.208138.2  RSN  5 0.3 1.6LRSN                1
 GAP=170        0.70       3.2     4.9  5.0 -0.4468E+01  0.9693E+01 -0.3675E+01E
 Epicentro: ZAPATOCA - SANTANDER                                               3
 ACTION:UPD 13-08-12 10:38 OP:ep   STATUS:               ID:20130717051027 L   I
 OLDACT:REG 13-07-17 07:20 OP:nd.  STATUS:               ID:20130717050959     3
 2013-07-17-0509-59M.COL___267                                                 6
 STAT SP IPHASW D HRMM SECON CODA AMPLIT PERI AZIMU VELO AIN AR TRES W  DIS CAZ7
 BAR2 SZ EP        510 45.78                             169    0.0310 25.3 173 
 BAR2 SZ ES        510 59.93                             169   -0.4510 25.3 173 
 BAR2 SZ I         511  1.89         7.0 0.24            173           25.3 173 
 GIR2 SZ EP        510 45.59                             168   -0.0910 28.7   3 
 GIR2 SZ ES        511  0.72                             168    0.4510 28.7   3 
 GIR2 SZ I         511  1.55         7.6 0.12            163           28.7   3 
 PTB  HZ EP        510 52.92                             132    0.16 9  141 257 
 PTB  HN ES        511 12.59                             132   -0.27 9  141 257 
 PTB  HZ I         511 16.80         3.7 0.44            131            141 257 
 SPBC HZ EP        510 54.72                             128    0.05 9  161 217 
 SPBC HN ES        511 16.52                             128    0.26 9  161 217 
 SML  HZ EP        511  2.38                             116   -0.29 8  239 337 
 SML  HN ES        511 30.63                             116    0.13 8  239 337 
 SML  HZ I         511 37.99         4.8 0.10            116            239 337 
                                                                                
