 2011  917 0232 24.9 L   6.741 -73.105135.1  RSN  5 0.2 1.7LRSN                1
 GAP=173        0.42       4.9     4.1  4.2 -0.4946E+01 -0.1268E+01  0.1465E+01E
 Epicentro: JORDAN - SANTANDER                                                 3
 ACTION:UPD 12-07-13 15:57 OP:ep   STATUS:               ID:20110917023224 L   I
 2011-09-17-0226-32S.COL___171                                                 6
 STAT SP IPHASW D HRMM SECON CODA AMPLIT PERI AZIMU VELO AIN AR TRES W  DIS CAZ7
 BAR2 SZ EP        232 43.35                             172    0.1610 18.5 207 
 BAR2 SZ ES   1    232 57.29                             172   -0.13 7 18.5 207 
 BAR2 SZ I         233  1.33        11.7 0.62                          18.5 207 
 BTL  SZ EP        232 43.49                             168    0.1310 26.6 318 
 GIR2 SZ EP        232 43.39                             163   -0.1810 38.6 345 
 GIR2 SZ ES   2    232 57.87                             163   -0.24 5 38.6 345 
 BRR  HZ EP        232 45.23                             148   -0.1510 78.3 301 
 BRR  HE ES   1    233  1.54                             148    0.21 7 78.3 301 
 BRR  HZ I         233  3.01        12.6 0.14                          78.3 301 
 PAM  SZ EP        232 46.18                             148   -0.0110 79.9  34 
 PAM  SE ES   1    233  2.88                             148    0.12 7 79.9  34 
                                                                                
