 2017  217 0635 51.3 L   6.776 -73.143148.7  RSN  5 0.3 1.5LRSN                1
 GAP=138        0.79       4.3     4.1  5.8 -0.1692E+01  0.2831E+01  0.1002E+01E
 Epicentro: LOS SANTOS - SANTANDER                                             3
 ACTION:UPD 17-05-24 15:37 OP:jn   STATUS:               ID:20170217063551 L   I
 OLDACT:REG 17-02-17 13:19 OP:cog  STATUS:               ID:20170217062741     3
 2017-02-17-0628-00M.COL___342                                                 6
 STAT SP IPHASW D HRMM SECON CODA AMPLIT PERI AZIMU VELO AIN AR TRES W  DIS CAZ7
 BAR2 EZ EP        636 11.16                             172   -0.0710 20.8 192 
 BAR2 EZ ES        636 26.24                             172   -0.5410 20.8 192 
 BAR2 EZ I         636 27.16         7.2 0.20            173           20.8 192 
 BRR  HZ EP        636 13.04                             152    0.2010 72.7 300 
 BRR  HE ES        636 30.06                             152    0.4110 72.7 300 
 BRR  HZ I         636 33.16         8.1 0.30            152           72.7 300 
 PAM  EZ EP        636 13.95                             151    0.0210 79.2  38 
 PAM  EN ES        636 31.53                             151   -0.0510 79.2  38 
 PAM  EZ I         636 33.07         7.2 0.54            152           79.2  38 
 RUS  HZ EP        636 15.37                             145    0.2210 98.0 176 
 RUS  HE ES        636 34.01                             145    0.2610 98.0 176 
 RUS  HZ I         636 34.81         3.6 0.34            148           98.0 176 
 PTB  HZ EP        636 17.98                             133   -0.50 9  148 260 
 PTB  HN ES        636 39.68                             133   -0.01 9  148 260 
 PTB  HZ I         636 41.21         2.9 0.44            134            148 260 
                                                                                
