 2015  517 0753 36.3 L   6.828 -73.072150.0  RSN  4 0.3 1.4LRSN                1
 GAP=272        0.70       5.8     6.5  7.0  0.1456E+02  0.5602E+01  0.9648E+01E
 Epicentro: LOS SANTOS - SANTANDER                                             3
 ACTION:UPD 15-09-10 22:04 OP:cam  STATUS:               ID:20150517075336 L   I
 OLDACT:REG 15-05-17 13:02 OP:spq  STATUS:               ID:20150517074736     3
 2015-05-17-0747-36M.COL___273                                                 6
 STAT SP IPHASW D HRMM SECON CODA AMPLIT PERI AZIMU VELO AIN AR TRES W  DIS CAZ7
 BAR2 EZ EP        753 56.56                             169   -0.0110 28.8 205 
 BAR2 EZ ES   1    754 11.85                             169   -0.52 7 28.8 205 
 BAR2 EZ I         754 14.39         3.0 0.28            165           28.8 205 
 BRR  HZ EP        753 58.35                             151    0.0910 77.2 294 
 BRR  HN ES        754 15.78                             151    0.4010 77.2 294 
 BRR  HZ I         754 19.55         2.5 0.42            149           77.2 294 
 SPBC HZ EP        754  5.91                             129    0.05 9  171 220 
 SPBC HE ES   1    754 29.08                             129    0.17 7  171 220 
 SPBC HZ I         754 32.10         3.8 0.18            129            171 220 
 ZAR  HN ES        754 35.34                             122   -0.41 8  211 291 
 ZAR  HZ I         754 40.61         3.5 0.36            123            211 291 
                                                                                
