 2013  117 0047 19.4 L   6.768 -73.188145.1  RSN  6 0.4 1.5LRSN                1
 GAP=133        0.76       5.4     4.8  7.9 -0.3405E+00  0.6183E+01  0.2706E+01E
 Epicentro: VILLANUEVA - SANTANDER                                             3
 ACTION:UPD 13-02-15 09:14 OP:ep   STATUS:               ID:20130117004719 L   I
 2013-01-17-0040-00M.COL___241                                                 6
 STAT SP IPHASW D HRMM SECON CODA AMPLIT PERI AZIMU VELO AIN AR TRES W  DIS CAZ7
 BAR2 SZ ES   1    047 54.27                             172    0.23 7 19.5 178 
 BRR  HN ES   1    047 57.28                             153    0.62 7 68.9 303 
 PAM  SZ EP   1    047 41.93                             149    0.07 7 83.1  41 
 PAM  SN ES   1    047 58.87                             149   -0.54 7 83.1  41 
 PAM  SZ I         048  1.18         5.3 0.42            150           83.1  41 
 RUS  HZ EP   1    047 43.07                             145    0.24 7 97.6 173 
 RUS  HN ES   1    048  1.02                             145   -0.12 7 97.6 173 
 RUS  HZ I         048  2.42         5.1 0.22            146           97.6 173 
 PTB  HZ EP   1    047 45.90                             133    0.10 7  142 260 
 PTB  HN ES   1    048  5.73                             133   -0.69 7  142 260 
 PTB  HZ I         048  8.61         4.1 0.20            134            142 260 
 ZAR  HN ES   2    048 16.55                             123    0.06 4  201 294 
                                                                                
