 2014  617 0322 32.1 L   6.473 -73.587113.1  RSN  6 0.4 1.5LRSN                1
 GAP= 96        0.96       3.8     4.1  8.6  0.6627E+00  0.4429E+01 -0.1182E+01E
 Epicentro: SANTA HELENA DEL OPON - SANTANDER                                  3
 ACTION:UPD 14-07-01 22:54 OP:nd   STATUS:               ID:20140617032232 L   I
 OLDACT:UP  14-06-17 17:17 OP:mh   STATUS:               ID:20140617031814     3
 OLDACT:REG 14-06-17 13:35 OP:mh   STATUS:               ID:20140617031814     3
 2014-06-17-0318-14M.COL___259                                                 6
 STAT SP IPHASW D HRMM SECON CODA AMPLIT PERI AZIMU VELO AIN AR TRES W  DIS CAZ7
 BAR2 SZ EP        322 48.94                             156    0.2810 46.6  74 
 BAR2 SZ ES   1    323  1.93                             156    0.31 7 46.6  74 
 BAR2 SZ I         323  4.20         7.8 0.46            159           46.6  74 
 BRR  HZ EP        322 50.06                             145    0.2510 71.5 349 
 BRR  HN ES        323  4.13                             145    0.4810 71.5 349 
 BRR  HZ I         323  5.79         8.8 0.17            147           71.5 349 
 RUS  HZ EP        322 51.55                             141    0.0610 85.0 139 
 RUS  HN ES        323  6.23                             141   -0.4310 85.0 139 
 RUS  HZ I         323 10.68        10.4 0.05            143           85.0 139 
 PTB  HZ EP        322 51.65                             137   -0.1110 96.4 274 
 PTB  HN ES        323  6.60                             137   -0.5210 96.4 274 
 PTB  HZ I         323 10.66         4.8 0.03            138           96.4 274 
 NOR  HN ES   1    323 21.23                             119    0.54 7  174 235 
 NOR  HZ I         323 25.72         2.8 0.18            120            174 235 
 OCA  HN ES        323 24.91                             115   -0.57 9  198   9 
 OCA  HZ I         323 30.87         4.8 0.18            117            198   9 
                                                                                
