 2011  917 0005 45.4 L   6.780 -73.118144.0  RSN 11 0.4 2.0LRSN                1
 GAP=141        0.53       3.3     4.6  5.4 -0.2889E+00  0.2814E+01  0.3340E+01E
 Epicentro: LOS SANTOS - SANTANDER                                             3
 ACTION:UPD 12-07-13 15:57 OP:ep   STATUS:               ID:20110917000545 L   I
 2011-09-17-0000-00M.COL___173                                                 6
 STAT SP IPHASW D HRMM SECON CODA AMPLIT PERI AZIMU VELO AIN AR TRES W  DIS CAZ7
 BAR2 SZ EP        0 6  4.54                             171   -0.2410 21.9 199 
 BAR2 SZ ES   3    0 6 19.22                             171   -0.68 2 21.9 199 
 BAR2 SZ I         0 6 22.19        22.8 0.30                          21.9 199 
 BTL  SZ EP        0 6  4.76                             171   -0.0310 22.5 313 
 GIR2 SZ EP        0 6  4.97                             166    0.0410 34.1 346 
 BRR  HZ EP        0 6  6.39                             151   -0.1710 74.9 299 
 BRR  HZ I         0 6  6.61        28.1 0.28                          74.9 299 
 BRR  HE ES   1    0 6 23.48                             151    0.40 7 74.9 299 
 PAM  SZ EP        0 6  7.62                             151    0.2110 77.3  37 
 PAM  SN ES   1    0 6 24.53                             151   -0.05 7 77.3  37 
 RUS  HZ EP        0 6  8.77                             144   -0.0210 98.2 178 
 RUS  HN ES   1    0 6 27.11                             144    0.06 7 98.2 178 
 RUS  HZ I         0 6 27.99         9.4 0.26                          98.2 178 
 ZAR  HZ EP   3    0 6 16.28                             122   -1.81 2  208 292 
 ZAR  HN ES   3    0 6 42.61                             122   -1.00 2  208 292 
 ZAR  HZ I         0 6 49.38        12.1 0.40                           208 292 
 CHI  HZ EP   3    0 6 22.77                             117   -0.07 2  247 196 
 CHI  HZ I         0 6 57.50         3.8 0.74                           247 196 
 HEL  HZ EP   3    0 6 26.07                             114    0.29 2  274 256 
 HEL  HZ I         0 7  3.38         5.1 0.28                           274 256 
 RREF HZ EP   2    0 6 32.16                             110    0.61 3  323 230 
 RREF HZ I         0 7 11.65         4.8 0.32                           323 230 
 PRA  HZ EP   2    0 6 39.60                             106    0.80 3  392 210 
                                                                                
