 2015  617 0801 22.4 L   6.846 -73.097143.1  RSN 10 0.4 1.6LRSN                1
 GAP=188        0.88       2.4     4.4  4.9  0.9861E+00  0.5983E+01  0.9060E+00E
 Epicentro: LOS SANTOS - SANTANDER                                             3
 ACTION:UPD 15-09-10 22:13 OP:cam  STATUS:               ID:20150617080122 L   I
 OLDACT:REG 15-06-17 12:57 OP:drio STATUS:               ID:20150617075750     3
 2015-06-17-0757-50M.COL___315                                                 6
 STAT SP IPHASW D HRMM SECON CODA AMPLIT PERI AZIMU VELO AIN AR TRES W  DIS CAZ7
 BAR2 EZ EP        8 1 42.04                             168    0.2310 29.6 199 
 BAR2 EZ ES        8 1 56.76                             168   -0.2310 29.6 199 
 BAR2 EZ I         8 1 59.77         8.4 0.22            169           29.6 199 
 BRR  HZ EP        8 1 43.85                             151    0.4810 73.9 293 
 BRR  HN ES        8 2  0.08                             151    0.3110 73.9 293 
 BRR  HZ I         8 2  2.11         6.8 0.32            149           73.9 293 
 RUS  HZ EP        8 1 46.19                             142   -0.0210  105 179 
 RUS  HE ES        8 2  4.62                             142   -0.1910  105 179 
 RUS  HZ I         8 2  6.03         2.5 0.30            145            105 179 
 OCA  HZ EP        8 1 49.32                             130   -0.74 9  156 351 
 OCA  HN ES        8 2 11.99                             130    0.32 9  156 351 
 OCA  HZ I         8 2 20.21         9.2 0.48            130            156 351 
 ZAR  HZ EP        8 1 55.04                             121    0.08 8  207 290 
 ZAR  HN ES        8 2 20.04                             121   -0.36 8  207 290 
 ZAR  HZ I         8 2 25.15         4.1 0.30            121            207 290 
 SML  HZ EP        8 1 58.22                             117   -0.37 8  241 334 
 SML  HN ES        8 2 26.79                             117   -0.06 8  241 334 
 SML  HZ I         8 2 35.44         5.6 0.24            117            241 334 
 CHI  HZ EP        8 2  1.34                             116    0.74 8  255 196 
 CHI  HN ES        8 2 29.93                             116   -0.50 8  255 196 
 CHI  HZ I         8 2 33.07         3.1 0.52            118            255 196 
 HEL  HZ EP        8 2  3.19                             114    0.03 7  279 255 
 HEL  HN ES        8 2 34.60                             114   -0.39 7  279 255 
 HEL  HZ I         8 2 40.40         1.6 0.36            114            279 255 
 GUY2CHZ EP        8 2  7.22                             111    0.55 7  309 235 
 GUY2CHE ES        8 2 41.68                             111    0.44 7  309 235 
 GUY2CHZ I         8 2 48.17         2.5 0.40                           309 235 
 PRA  HZ EP        8 2 16.30                             106   -0.31 6  399 210 
 PRA  HN ES        8 2 58.70                             106   -0.24 6  399 210 
 PRA  HZ I         8 3  4.47         1.9 0.24            107            399 210 
                                                                                
