 2016  417 0441 43.9 L   7.006 -73.031147.9  RSN  4 0.5 1.2LRSN                1
 GAP=291        1.17      12.8     9.0 12.6  0.2040E+02  0.4187E+01 -0.4550E+02E
 Epicentro: PIEDECUESTA - SANTANDER                                            3
 ACTION:UPD 16-05-05 14:22 OP:rebc STATUS:               ID:20160417044143 L   I
 OLDACT:UP  16-04-17 22:59 OP:mh   STATUS:               ID:20160417043744     3
 OLDACT:UP  16-04-17 22:58 OP:mh   STATUS:               ID:20160417043744     3
 OLDACT:REG 16-04-17 14:21 OP:ak   STATUS:               ID:20160417043744     3
 2016-04-17-0437-44M.COL___307                                                 6
 STAT SP IPHASW D HRMM SECON CODA AMPLIT PERI AZIMU VELO AIN AR TRES W  DIS CAZ7
 BAR2 EZ EP   1    442  4.16                             161   -0.42 8 48.7 200 
 BAR2 EZ ES   1    442 20.58                             161   -0.10 8 48.7 200 
 RUS  HZ EP        442  9.21                             138   -0.4110  123 183 
 RUS  HN ES        442 30.21                             138    0.5510  123 183 
 RUS  HZ I         442 32.14         2.1 0.48            135            123 183 
 PTB  HZ EP   1    442 12.71                             129   -0.03 7  166 252 
 PTB  HE ES        442 35.48                             129    0.28 9  166 252 
 PTB  HZ I         442 37.11         1.7 0.26            127            166 252 
 SPBC HZ EP        442 15.85                             125    0.76 9  189 218 
 SPBC HN ES        442 38.56                             125   -0.83 9  189 218 
 SPBC HZ I         442 42.93         2.2 0.20            123            189 218 
                                                                                
