 2011  517 0710 41.5 L   6.785 -73.147142.0  RSN 12 0.3 2.2LRSN                1
 GAP=137        0.61       2.6     4.1  4.7 -0.3972E+01  0.6291E+01  0.6458E+00E
 Epicentro: LOS SANTOS - SANTANDER                                             3
 ACTION:UP  11-06-29 08:54 OP:tino STATUS:               ID:20110517070844 L   I
 2011-05-17-0708-44S.COL___141                                                 6
 STAT SP IPHASW D HRMM SECON CODA AMPLIT PERI AZIMU VELO SNR AR TRES W  DIS CAZ7
 BTL  SZ EP   1    711  0.74                             172     0.1 7   20 318 
 BAR2 SZ EP   1    711  0.65                             171     0.0 7   22 190 
 BAR2 SZ ES   2    711 14.78                             171    -0.8 5   22 190 
 BAR2 SZ I         711 18.33        35.6 0.34                            22 190 
 BRR  HZ EP   1    711  2.42                             152     0.1 7   72 300 
 BRR  HZ I         711  2.69        54.6 0.09                            72 300 
 BRR  HN ES   1    711 18.78                             152     0.3 7   72 300 
 PAM  SZ EP   1    711  3.58                             150     0.2 7   79  39 
 PAM  SE ES   1    711 20.72                             150     0.2 7   79  39 
 RUS  HZ EP   1    711  4.59                             143    -0.2 7   99 176 
 RUS  HN ES   1    711 23.00                             143     0.1 7   99 176 
 RUS  HZ I         711 25.75        20.8 0.29                            99 176 
 BRI  SZ EP   1    711  5.60                             140     0.4 7  110  21 
 GRA  SZ EP   1    711  6.22                             136    -0.3 7  127  17 
 GRA  SZ ES   1    711 25.68                             136    -0.4 7  127  17 
 GRA  SZ I         711 30.81        12.2 0.36                           127  17 
 OCA  SZ EP   1    711  9.32                             128    -0.4 7  162 353 
 OCA  SZ ES   1    711 31.79                             128     0.1 7  162 353 
 OCA  SZ I         711 35.66        20.9 0.37                           162 353 
 NOR  SZ EP   1    711 16.78                             118    -0.1 6  234 235 
 NOR  SE ES   2    711 44.25                             118    -0.3 4  234 235 
 HEL  HZ EP   1    711 21.62                             114     0.2 6  272 256 
 HEL  HN ES   2    711 52.04                             114    -0.6 4  272 256 
 HEL  HZ I         712  0.29        12.2 0.75                           272 256 
 DBB  SZ EP   1    711 28.94                             109     0.1 5  339 275 
 PRA  HZ EP   1    711 34.44                             106    -0.3 4  391 210 
 PRA  HN ES   1    712 16.75                             106     0.5 4  391 210 
                                                                                
