 2016  617 0252  1.1 L   6.772 -73.147143.6  RSN 12 0.5 1.7LRSN                1
 GAP=138        1.01       3.8     4.2  6.5 -0.3838E+01  0.4575E+01  0.2015E+01E
 Epicentro: LOS SANTOS - SANTANDER                                             3
 ACTION:UPD 16-07-21 22:19 OP:rebc STATUS:               ID:20160617025201 L   I
 OLDACT:REG 16-06-17 12:22 OP:dnl  STATUS:               ID:20160617024743     3
 2016-06-17-0247-43M.COL___343                                                 6
 STAT SP IPHASW D HRMM SECON CODA AMPLIT PERI AZIMU VELO AIN AR TRES W  DIS CAZ7
 BAR2 EZ EP        252 20.30                             172   -0.0810 20.3 191 
 BAR2 EZ ES        252 34.94                             172   -0.4910 20.3 191 
 BAR2 EZ I         252 36.67        13.9 0.16                          20.3 191 
 BRR  HZ EP        252 22.22                             152    0.1610 72.6 301 
 BRR  HN ES        252 39.22                             152    0.7910 72.6 301 
 BRR  HZ I         252 42.87         6.8 0.13                          72.6 301 
 PAM  EZ EP        252 23.17                             150   -0.0310 79.9  38 
 PAM  EE ES        252 40.41                             150   -0.0610 79.9  38 
 PAM  EZ I         252 42.56         9.2 0.54                          79.9  38 
 RUS  HZ EP        252 24.85                             144    0.4710 97.5 176 
 RUS  HN ES   2    252 42.69                             144    0.12 5 97.5 176 
 RUS  HZ I         252 43.65         3.5 0.20                          97.5 176 
 PTB  HZ EP        252 27.33                             132   -0.46 9  147 260 
 PTB  HN ES        252 47.90                             132   -0.74 9  147 260 
 PTB  HZ I         252 50.34         6.5 0.14                           147 260 
 SPBC HZ EP   2    252 29.68                             129    0.52 5  161 220 
 SPBC HN ES   2    252 51.10                             129    0.03 5  161 220 
 SPBC HZ I         252 57.03         5.8 0.12                           161 220 
 OCA  HZ EP        252 28.68                             129   -0.82 9  163 353 
 OCA  HE ES        252 52.04                             129    0.37 9  163 353 
 OCA  HZ I         252 57.62        16.7 0.46                           163 353 
 ZAR  HZ EP   3    252 33.94                             122    0.46 2  205 293 
 ZAR  HN ES        252 58.97                             122    0.21 9  205 293 
 ZAR  HZ I         253  5.31         8.8 0.44                           205 293 
 NOR  HZ EP   2    252 36.76                             118    0.30 4  233 235 
 NOR  HN ES        253  4.21                             118    0.14 8  233 235 
 NOR  HZ I         253 10.83         3.7 0.64                           233 235 
 CHI  HE ES   2    253  8.06                             117    0.69 4  246 195 
 CHI  HZ I         253 11.28         2.0 0.18                           246 195 
 GUY2CHZ EP   2    252 45.12                             112    0.76 4  299 235 
 GUY2CHE ES   4    253 16.88                             112   -1.25 0  299 235 
 GUY2CHZ I         253 24.81         1.7 0.28                           299 235 
 SJC  HZ EP   4    252 55.11                             105   -1.74 0  412 327 
 SJC  HN ES   4    253 36.18                             105   -4.19 0  412 327 
 SJC  HZ I         253 51.92         1.8 0.44                           412 327 
                                                                                
