 2016  917 0633 59.3 L   6.794 -73.112153.3  RSN  9 0.4 1.9LRSN                1
 GAP=141        1.12       3.8     4.7  6.5 -0.3434E+01  0.8106E+01 -0.2354E+01E
 Epicentro: LOS SANTOS - SANTANDER                                             3
 ACTION:UPD 17-08-17 21:13 OP:lp   STATUS:               ID:20160917063359 L   I
 OLDACT:REG 16-09-17 14:13 OP:and  STATUS:               ID:20160917062735     3
 2016-09-17-0628-00M.COL___354                                                 6
 STAT SP IPHASW D HRMM SECON CODA AMPLIT PERI AZIMU VELO AIN AR TRES W  DIS CAZ7
 BAR2 EZ EP        634 19.88                             171    0.0410 23.7 199 
 BAR2 EZ ES        634 35.04                             171   -0.8210 23.7 199 
 BAR2 EZ I         634 36.41        22.3 0.42            168           23.7 199 
 BRR  HZ EP        634 21.76                             153    0.3010 74.8 298 
 BRR  HN ES        634 39.02                             153    0.2710 74.8 298 
 BRR  HZ I         634 42.17        11.5 0.14            149           74.8 298 
 PAM  EZ EP        634 22.73                             153    0.5210 75.5  37 
 PAM  EE ES        634 39.90                             153   -0.1910 75.5  37 
 PAM  EZ I         634 41.95        23.6 0.58            157           75.5  37 
 RUS  HZ EP        634 23.57                             146   -0.1710 99.8 178 
 RUS  HN ES        634 42.81                             146    0.0110 99.8 178 
 RUS  HZ I         634 44.86         3.7 0.36            147           99.8 178 
 PTB  HZ EP        634 27.33                             133    0.13 9  151 259 
 PTB  HE ES        634 48.96                             133   -0.01 9  151 259 
 PTB  HZ I         634 53.25         8.8 0.50            132            151 259 
 OCA  HZ EP        634 27.90                             131   -0.40 9  161 352 
 OCA  HE ES        634 51.76                             131    0.83 9  161 352 
 OCA  HZ I         634 53.84        29.2 0.20            132            161 352 
 SPBC HZ EP        634 28.81                             130    0.25 9  165 220 
 SPBC HN ES        634 51.72                             130    0.34 9  165 220 
 SPBC HZ I         634 57.08        10.3 0.30            131            165 220 
 ZAR  HZ EP        634 31.88                             123   -0.74 8  208 292 
 ZAR  HZ IPg       634 31.88                             123   -0.74 8  208 292 
 ZAR  HN ES        634 58.38                             123   -0.23 8  208 292 
 ZAR  HZ I         635  7.80         6.1 0.12            123            208 292 
 NOR  HE ES        635  4.70                             120    0.50 8  237 235 
 NOR  HZ I         635 12.40         5.6 0.20            120            237 235 
                                                                                
