 2010 1217 0139 47.6 L   6.799 -73.117148.4  RSN 17 0.3 2.8LRSN                1
 GAP=104        0.76       2.2     3.8  4.7 -0.1697E+01  0.1307E+01  0.1487E+01E
 Epicentro: LOS SANTOS - SANTANDER                                             3
 ACTION:UP  11-01-14 15:25 OP:pat  STATUS:               ID:20101217013947 L   I
 2010-12-17-0138-09S.COL___137                                                 6
 STAT SP IPHASW D HRMM SECON CODA AMPLIT PERI AZIMU VELO SNR AR TRES W  DIS CAZ7
 BTL  SZ EP   1    140  7.67                             171     0.2 7   21 308 
 BAR2 SZ IP        140  7.48                             170    -0.110   24 198 
 BAR2 SZ ES   1    140 22.79                             170    -0.3 7   24 198 
 BAR2 SZ I         140 24.24       148.8 0.24                            24 198 
 GIR2 SZ EP        140  7.61                             167     0.010   32 345 
 BRR  HZ IP     C  140  9.32                             152     0.110   74 297 
 BRR  HE ES   1    140 26.68                             152     0.7 7   74 297 
 BRR  HZ I         140 29.25       190.8 0.11                            74 297 
 RUS  HZ IP     D  140 11.33                             144    -0.210  100 178 
 RUS  HE ES   1    140 30.00                             144    -0.3 7  100 178 
 GRA  SZ IP        140 13.29                             138     0.310  125  16 
 GRA  SZ ES   1    140 32.74                             138    -0.1 7  125  16 
 GRA  SZ I         140 34.17       106.9 0.51                           125  16 
 OCA  SZ EP        140 15.89                             130    -0.3 9  161 352 
 OCA  SZ ES   1    140 38.13                             130    -0.3 7  161 352 
 OCA  SZ I         140 42.63        85.5 0.21                           161 352 
 YOP  SZ EP        140 17.95                             127     0.3 9  177 154 
 YOP  SE ES   1    140 41.92                             127     0.8 7  177 154 
 NOR  SZ EP   1    140 23.45                             119    -0.3 6  237 235 
 NOR  SN ES   1    140 51.52                             119    -0.4 6  237 235 
 NOR  SZ I         140 59.01         7.7 0.19                           237 235 
 CHI  HZ EP   1    140 25.53                             118     0.0 6  249 196 
 CHI  HE ES   1    140 54.56                             118    -0.5 6  249 196 
 CHI  HZ I         140 58.34        35.5 0.56                           249 196 
 ROSC BN ES   1    140 55.82                             117    -0.2 6  254 212 
 ROSC BZ I         141  1.29        61.7 0.55                           254 212 
 HEL  HZ EP   1    140 28.96                             115     0.7 6  275 256 
 HEL  HE ES   2    140 59.79                             115    -0.2 4  275 256 
 HEL  HZ I         141  6.98        18.0 0.31                           275 256 
 VIL  SZ EP   2    140 30.88                             113    -0.1 4  302 190 
 VIL  SN ES   1    141  4.81                             113     0.0 5  302 190 
 VIL  SZ I         141 10.66        23.2 0.06                           302 190 
 RREF HZ EP   1    140 34.45                             111     0.3 5  324 230 
 RREF HZ I         141 19.96        60.9 0.24                           324 230 
 DBB  SZ EP   1    140 35.77                             110     0.2 5  343 274 
 SDV  BZ IP     D  140 36.91                             109    -0.5 6  358  50 
 PRA  HZ EP        140 41.29                             107    -0.1 6  393 210 
 PRA  HN ES   1    141 23.58                             107     0.3 4  393 210 
 PRA  HZ I         141 27.32        60.8 0.15                           393 210 
                                                                                
