 2015 1017 0313 28.3 L   6.805 -73.118149.0  RSN 10 0.4 1.8LRSN                1
 GAP=186        0.96       2.5     4.8  5.3 -0.2540E+00  0.5534E+01 -0.1317E+00E
 Epicentro: LOS SANTOS - SANTANDER                                             3
 ACTION:UPD 15-12-22 20:40 OP:cam  STATUS:               ID:20151017031328 L   I
 OLDACT:REG 15-10-17 12:42 OP:ak   STATUS:               ID:20151017030745     3
 2015-10-17-0307-45M.COL___341                                                 6
 STAT SP IPHASW D HRMM SECON CODA AMPLIT PERI AZIMU VELO AIN AR TRES W  DIS CAZ7
 BAR2 EZ EP        313 48.53                             170    0.1510 24.5 197 
 BAR2 EZ ES        314  3.93                             170   -0.0910 24.5 197 
 BAR2 EZ I         314  5.17        24.9 0.20            171           24.5 197 
 BRR  HZ EP        313 50.16                             152    0.1910 73.6 297 
 BRR  HN ES        314  7.60                             152    0.7510 73.6 297 
 BRR  HZ I         314 11.55        12.0 0.34            150           73.6 297 
 RUS  HZ EP        313 52.48                             144    0.0510  101 178 
 RUS  HE ES        314 11.26                             144    0.0310  101 178 
 RUS  HZ I         314 12.20         4.4 0.22            147            101 178 
 OCA  HZ EP        313 56.42                             130   -0.47 9  160 352 
 OCA  HN ES        314 18.49                             130   -0.67 9  160 352 
 OCA  HZ I         314 28.50        11.2 0.16            131            160 352 
 SPBC HZ EP        313 57.67                             129    0.37 9  165 220 
 SPBC HN ES        314 19.63                             129   -0.27 9  165 220 
 SPBC HZ I         314 22.74         9.3 0.19            131            165 220 
 ZAR  HZ EP        314  1.74                             123    0.48 8  207 292 
 ZAR  HN ES        314 26.53                             123   -0.41 8  207 292 
 ZAR  HZ I         314 32.59         4.4 0.29            123            207 292 
 NOR  HZ EP        314  4.42                             119   -0.13 8  237 235 
 NOR  HE ES        314 32.07                             119   -0.73 8  237 235 
 NOR  HZ I         314 36.60         4.2 0.11            120            237 235 
 SML  HZ EP        314  5.04                             118   -0.19 8  245 335 
 SML  HE ES        314 34.37                             118    0.36 8  245 335 
 SML  HZ I         314 41.08        10.8 0.05            119            245 335 
 CHI  HZ EP        314  6.56                             118    0.20 8  250 196 
 CHI  HE ES        314 35.54                             118   -0.47 8  250 196 
 CHI  HZ I         314 45.50         2.6 0.39            120            250 196 
 GUY2CHZ EP        314 12.94                             113    0.53 7  304 235 
 GUY2CHN ES        314 46.98                             113    0.20 7  304 235 
 MON  HN ES   4    314 53.66                             109   -2.54 0  356 308 
                                                                                
