 2017  117 0703 14.8 L   6.787 -73.108144.6  RSN 11 0.5 1.8LRSN                1
 GAP= 98        0.93       3.5     3.5  4.9  0.9932E+00  0.3937E+01  0.4778E+01E
 Epicentro: LOS SANTOS - SANTANDER                                             3
 ACTION:UPD 17-05-22 16:00 OP:jn   STATUS:               ID:20170117070314 L   I
 OLDACT:UP  17-01-17 17:38 OP:dani STATUS:               ID:20170117065750     3
 OLDACT:UP  17-01-17 17:36 OP:dani STATUS:               ID:20170117065750     3
 OLDACT:UP  17-01-17 17:34 OP:dani STATUS:               ID:20170117065750     3
 OLDACT:REG 17-01-17 13:10 OP:dani STATUS:               ID:20170117065750     3
 2017-01-17-0658-00M.COL___329                                                 6
 STAT SP IPHASW D HRMM SECON CODA AMPLIT PERI AZIMU VELO AIN AR TRES W  DIS CAZ7
 BAR2 EZ EP     C  7 3 34.10                             170   -0.1410 23.0 201 
 BAR2 EZ ES        7 3 49.36                             170   -0.0810 23.0 201 
 BAR2 EZ I         7 3 52.89        14.0 0.44            167           23.0 201 
 BRR  HZ EP     C  7 3 35.99                             151   -0.0410 75.5 298 
 BRR  HN ES        7 3 53.05                             151    0.4310 75.5 298 
 BRR  HZ I         7 3 56.25        10.3 0.24            150           75.5 298 
 PAM  EZ EP        7 3 36.91                             151    0.1410 76.0  36 
 PAM  EN ES        7 3 53.85                             151   -0.0810 76.0  36 
 PAM  EZ I         7 3 56.32        13.0 0.76            157           76.0  36 
 RUS  HZ EP        7 3 38.00                             144   -0.2710 98.9 178 
 RUS  HN ES        7 3 56.79                             144    0.1710 98.9 178 
 RUS  HZ I         7 3 58.20         7.9 0.46            144           98.9 178 
 TAM  HZ EP        7 3 42.37                             131    0.43 9  151 105 
 PTB  HZ EP        7 3 41.23                             131   -0.75 9  152 260 
 PTB  HE ES   3    7 4  1.54                             131   -1.67 2  152 260 
 PTB  HZ I         7 4  7.28         8.6 0.44            131            152 260 
 ZAR  HZ EP        7 3 47.46                             122   -0.12 8  208 292 
 ZAR  HE ES        7 4 12.87                             122   -0.31 8  208 292 
 ZAR  HZ I         7 4 18.40         8.9 0.36            122            208 292 
 CHI  HZ EP        7 3 52.86                             117    0.50 8  248 196 
 CHI  HN ES        7 4 21.89                             117    0.20 8  248 196 
 CHI  HZ I         7 4 29.86         2.6 0.35            118            248 196 
 GUY2CHZ EP        7 3 58.93                             112    0.33 7  304 235 
 GUY2CHN ES        7 4 33.01                             112    0.21 7  304 235 
 GUY2CHZ I         7 4 39.18         3.0 0.30                           304 235 
 PTGC HZ EP        7 3 57.25                             112   -0.99 7  306 159 
 PTGC HN ES   3    7 4 30.49                             112   -1.66 2  306 159 
 PTGC HZ I         7 4 33.00         4.1 0.49            114            306 159 
 CBOC HZ EP        7 4  2.89                             109    0.87 7  337 253 
 CBOC HN ES   2    7 4 38.90                             109    0.01 3  337 253 
 CBOC HZ I         7 4 50.61         1.4 0.59            110            337 253 
                                                                                
