 2015  717 0138 17.7 L   6.779 -73.122140.8  RSN 13 0.4 2.1LRSN                1
 GAP=141        0.87       2.2     3.6  5.0 -0.1519E+01  0.8747E+01 -0.2013E-01E
 Epicentro: LOS SANTOS - SANTANDER                                             3
 ACTION:UPD 15-09-08 21:49 OP:cam  STATUS:               ID:20150717013817 L   I
 OLDACT:UP  15-07-30 14:55 OP:cam  STATUS:               ID:20150717013817 L   3
 OLDACT:UP  15-07-30 14:55 OP:cam  STATUS:               ID:20150717013817 L   3
 OLDACT:UP  15-07-30 07:11 OP:AK   STATUS:               ID:20150717013817 L   3
 OLDACT:REG 15-07-17 12:47 OP:ak   STATUS:               ID:20150717012747     3
 2015-07-17-0127-47M.COL___340                                                 6
 STAT SP IPHASW D HRMM SECON CODA AMPLIT PERI AZIMU VELO AIN AR TRES W  DIS CAZ7
 BAR2 EZ EP        138 36.86                             171    0.1810 21.7 198 
 BAR2 EZ ES        138 51.70                             171    0.2010 21.7 198 
 BAR2 EZ I         138 53.09        23.5 0.16            170           21.7 198 
 PAM  EZ EP        138 39.98                             150    0.6010 77.6  37 
 PAM  EN ES        138 56.48                             150    0.1710 77.6  37 
 PAM  EZ I         138 59.46        20.2 0.44            139           77.6  37 
 RUS  HZ EP        138 40.64                             143   -0.1310 98.1 177 
 RUS  HN ES        138 58.63                             143   -0.1410 98.1 177 
 RUS  HZ I         139  0.48        11.1 0.26            135           98.1 177 
 OCA  HZ EP        138 45.58                             128   -0.28 9  163 352 
 OCA  HN ES        139  7.33                             128   -0.51 9  163 352 
 OCA  HZ I         139 12.71        35.0 0.48            117            163 352 
 ZAR  HZ EP        138 50.15                             121    0.00 8  207 292 
 ZAR  HN ES        139 15.64                             121    0.16 8  207 292 
 ZAR  HZ I         139 22.01        17.4 0.30            111            207 292 
 NOR  HZ EP        138 52.87                             117   -0.34 8  235 235 
 NOR  HN ES        139 19.90                             117   -1.03 8  235 235 
 NOR  HZ I         139 28.05        12.7 0.18            108            235 235 
 CHI  HZ EP        138 54.65                             116   -0.29 8  247 196 
 CHI  HN ES        139 23.76                             116   -0.24 8  247 196 
 CHI  HZ I         139 26.53         4.4 0.36            107            247 196 
 SML  HZ EP        138 54.35                             116   -0.03 8  247 335 
 SML  HN ES        139 22.73                             116   -0.28 8  247 335 
 SML  HZ I         139 31.16        12.7 0.30            106            247 335 
 HEL  HZ EP        138 57.95                             114    0.09 8  274 256 
 HEL  HN ES        139 30.05                             114    0.84 8  274 256 
 HEL  HZ I         139 35.74         6.6 0.40            105            274 256 
 URE  HZ EP   9    138 57.56                             112   -1.32 0  287 292 
 URE  HN ES   1    139 29.50                             112   -0.20 5  287 292 
 URE  HZ I         139 41.72        10.5 0.16            103            287 292 
 GUY2CHZ EP        139  1.70                             111    0.55 7  302 235 
 GUY2CHN ES        139 35.01                             111   -0.06 7  302 235 
 GUY2CHZ I         139 43.26         7.1 0.60                           302 235 
 CBOC HZ EP        139  4.70                             109    0.10 7  335 253 
 CBOC HN ES   4    139 39.82                             109   -1.38 0  335 253 
 CBOC HZ I         139 57.38         2.8 0.46            100            335 253 
 TOL  SZ EP        139  6.06                             108    0.30 7  344 225 
 TOL  SN ES        139 43.59                             108    0.32 7  344 225 
 TOL  SZ I         139 49.90         4.1 0.40            100            344 225 
                                                                                
