 2017  617 0548  2.9 L   6.792 -73.135145.2  RSN  9 0.4 1.8LRSN                1
 GAP=213        0.90       4.2     4.1  6.8  0.5888E+01 -0.2437E+01  0.6010E+01E
 Epicentro: LOS SANTOS - SANTANDER                                             3
 ACTION:UPD 17-09-14 16:52 OP:jn   STATUS:               ID:20170617054802 L   I
 OLDACT:UP  17-06-17 16:36 OP:cog  STATUS:               ID:20170617053743     3
 OLDACT:REG 17-06-17 13:35 OP:cog  STATUS:               ID:20170617053743     3
 2017-06-17-0538-00M.COL___347                                                 6
 STAT SP IPHASW D HRMM SECON CODA AMPLIT PERI AZIMU VELO AIN AR TRES W  DIS CAZ7
 BRR  HZ EP        548 23.90                             152   -0.2110 72.7 299 
 BRR  HN ES        548 40.96                             152    0.3410 72.7 299 
 BRR  HZ I         548 44.08        10.5 0.34            148           72.7 299 
 PTB  HZ EP   9    548 29.01                             132   -0.95 0  149 259 
 PTB  HN ES        548 50.03                             132   -0.05 9  149 259 
 PTB  HZ I         548 52.89         6.3 0.12            128            149 259 
 SPBC HZ EP        548 31.20                             129   -0.20 9  163 220 
 SPBC HN ES        548 52.79                             129   -0.81 9  163 220 
 SPBC HZ I         548 56.44        11.3 0.10            126            163 220 
 YPLC HZ EP        548 32.38                             127   -0.18 9  175 152 
 YPLC HN ES        548 56.25                             127    0.59 9  175 152 
 ZAR  HN ES        549  0.55                             122   -0.35 8  206 292 
 NOR  HZ EP        548 38.68                             118   -0.01 8  235 235 
 NOR  HN ES        549  7.33                             118    0.76 8  235 235 
 NOR  HZ I         549 11.96         6.4 0.52            116            235 235 
 CHI  HZ EP        548 40.53                             117   -0.02 8  248 195 
 CHI  HN ES        549  9.71                             117   -0.17 8  248 195 
 CHI  HZ I         549 16.59         4.2 0.46            116            248 195 
 HEL  HZ EP   4    548 44.58                             115    1.35 0  273 256 
 HEL  HE ES        549 14.77                             115    0.11 8  273 256 
 URE  HE ES   4    549 13.40                             113   -2.89 0  285 292 
 CBOC HZ EP        548 50.30                             110    0.36 7  335 252 
 CBOC HN ES   3    549 27.76                             110    1.17 2  335 252 
 CBOC HZ I         549 43.15         1.2 0.56            109            335 252 
                                                                                
