 2015  817 0703 41.2 L   6.835 -73.110147.2  RSN  9 0.3 1.7LRSN                1
 GAP=187        0.57       2.2     5.0  4.4 -0.1411E+01  0.4911E+01 -0.2094E+01E
 Epicentro: LOS SANTOS - SANTANDER                                             3
 ACTION:UPD 15-09-15 23:02 OP:cam  STATUS:               ID:20150817070341 L   I
 OLDACT:UP  15-08-17 16:56 OP:ar   STATUS:               ID:20150817065749     3
 OLDACT:REG 15-08-17 13:35 OP:ar   STATUS:               ID:20150817065749     3
 2015-08-17-0657-49M.COL___328                                                 6
 STAT SP IPHASW D HRMM SECON CODA AMPLIT PERI AZIMU VELO AIN AR TRES W  DIS CAZ7
 BAR2 EZ ES        7 4 16.66                             169    0.0610 28.0 197 
 BAR2 EZ I         7 4 18.72         5.4 0.22            163           28.0 197 
 BRR  HZ EP        7 4  2.99                             152    0.4110 73.0 294 
 BRR  HN ES        7 4 19.52                             152    0.2510 73.0 294 
 BRR  HZ I         7 4 20.43         5.8 0.30            144           73.0 294 
 RUS  HN ES        7 4 23.98                             143   -0.1910  104 178 
 RUS  HZ I         7 4 25.35         5.6 0.32            143            104 178 
 OCA  HZ EP        7 4  9.30                             131    0.00 9  157 352 
 OCA  HN ES        7 4 30.97                             131   -0.25 9  157 352 
 OCA  HZ I         7 4 36.42        12.3 0.18            129            157 352 
 SPBC HZ EP        7 4 10.26                             128   -0.04 9  169 219 
 SPBC HN ES        7 4 32.85                             128   -0.17 9  169 219 
 SPBC HZ I         7 4 39.36         7.4 0.24            126            169 219 
 ZAR  HZ EP   2    7 4 14.09                             122    0.14 4  206 291 
 ZAR  HN ES   4    7 4 39.10                             122   -0.40 0  206 291 
 ZAR  HZ I         7 4 46.43         3.7 0.12            119            206 291 
 SML  HN ES   2    7 4 45.57                             118   -0.60 4  242 334 
 SML  HZ I         7 4 51.49         5.7 0.22            116            242 334 
 HEL  HN ES   2    7 4 53.33                             115   -0.49 4  277 255 
 HEL  HZ I         7 5  1.42         2.9 0.56            112            277 255 
 GUY2CHZ EP   4    7 4 26.95                             112    1.49 0  307 235 
 GUY2CHE ES   4    7 5  3.52                             112    3.52 0  307 235 
 GUY2CHZ I         7 5  7.24         2.2 0.48                           307 235 
                                                                                
