 2015 1017 0311 49.9 L   7.464 -73.201124.1  RSN  5 0.2 1.4LRSN                1
 GAP=212        0.59       2.6     4.2  5.8  0.4324E+01 -0.1570E+01 -0.5415E+01E
 Epicentro: EL PLAYON - SANTANDER                                              3
 ACTION:UPD 15-12-22 20:40 OP:cam  STATUS:               ID:20151017031149 L   I
 OLDACT:UP  15-10-17 15:53 OP:ak   STATUS:               ID:20151017030746d    3
 OLDACT:DUP 15-10-17 15:50 OP:ak   STATUS:               ID:20151017030746d    3
 OLDACT:REG 15-10-17 12:42 OP:ak   STATUS:               ID:20151017030745     3
 2015-10-17-0307-45M.COL___341                                                 6
 STAT SP IPHASW D HRMM SECON CODA AMPLIT PERI AZIMU VELO AIN AR TRES W  DIS CAZ7
 BRR  HZ EP        312  8.93                             149    0.3610 68.9 235 
 BRR  HN ES        312 23.43                             149    0.2710 68.9 235 
 BAR2 EZ EP        312 10.93                             140    0.0610 96.4 179 
 BAR2 EZ ES        312 26.91                             140   -0.3510 96.4 179 
 BAR2 EZ I         312 28.26         2.6 0.11            142           96.4 179 
 SML  HZ EP        312 17.91                             121   -0.11 9  176 327 
 SML  HE ES        312 39.86                             121   -0.12 9  176 327 
 SML  HZ I         312 41.62         5.3 0.05            122            176 327 
 ZAR  HZ EP   1    312 18.85                             120    0.11 7  183 271 
 ZAR  HN ES        312 41.07                             120   -0.19 9  183 271 
 SPBC HE ES        312 48.96                             115   -0.08 8  222 206 
                                                                                
