 2010  617 0404  3.3 L   6.777 -73.102143.4  RSN  5 0.3 1.5LRSN                1
 GAP=161        0.79       4.5     8.9  7.9  0.7177E+00 -0.1116E+02 -0.8218E+00E
 Epicentro: LOS SANTOS - SANTANDER                                             3
 ACTION:UP  10-08-24 10:10 OP:vdl  STATUS:               ID:20100617040403 L   I
 2010-06-17-0401-13S.COL___114                                                 6
 STAT SP IPHASW D HRMM SECON CODA AMPLIT PERI AZIMU VELO SNR AR TRES W  DIS CAZ7
 BAR2 SZ IP        4 4 22.71                             171     0.110   22 204 
 BAR2 SZ ES   1    4 4 37.30                             171    -0.4 7   22 204 
 GIR2 SZ EP   1    4 4 22.03                             166    -0.8 7   35 343 
 BRR  HZ IP     D  4 4 24.50                             150     0.010   77 299 
 BRR  HN ES   1    4 4 41.41                             150     0.3 7   77 299 
 BRR  HZ I         4 4 45.16         7.9 0.07                            77 299 
 RUS  HZ IP     C  4 4 26.82                             144     0.210   98 179 
 RUS  HN ES   1    4 4 45.02                             144     0.2 7   98 179 
 RUS  HZ I         4 4 47.32         3.5 0.33                            98 179 
 BRI  SZ EP   1    4 4 27.17                             141     0.1 7  109  18 
 BRI  SZ ES   1    4 4 45.83                             141     0.3 7  109  18 
                                                                                
