 2011  817 0445  6.4 L   6.866 -73.223118.0  RSN  4 0.2 1.7LRSN                1
 GAP=176        0.49       3.8     7.0  4.9  0.1666E+02 -0.1372E+02 -0.7677E+01E
 Epicentro: ZAPATOCA - SANTANDER                                               3
 ACTION:UPD 12-07-13 15:52 OP:ep   STATUS:               ID:20110817044506 L   I
 2011-08-17-0440-00M.COL___151                                                 6
 STAT SP IPHASW D HRMM SECON CODA AMPLIT PERI AZIMU VELO AIN AR TRES W  DIS CAZ7
 BAR2 SZ EP   1    445 23.23                             165    0.33 7 30.6 172 
 BAR2 SZ ES        445 35.65                             165   -0.1210 30.6 172 
 BAR2 SZ I         445 37.57        31.8 0.34                          30.6 172 
 BRR  HZ EP        445 23.62                             151   -0.3010 60.3 296 
 BRR  HZ I         445 23.84        15.6 0.09                          60.3 296 
 BRR  HN ES        445 37.77                             151    0.1710 60.3 296 
 RUS  HZ EP   1    445 28.24                             135    0.03 7  109 172 
 RUS  HE ES   2    445 45.28                             135    0.04 5  109 172 
 RUS  HZ I         445 46.75         2.3 0.30                           109 172 
 OCA  SZ EP   1    445 32.03                             124    0.15 7  152 356 
 OCA  SZ ES   2    445 51.62                             124   -0.14 5  152 356 
 OCA  SZ I         445 57.33         8.4 0.16                           152 356 
                                                                                
