 2013  417 0454 18.5 L   6.789 -73.162148.2  RSN  7 0.4 1.5LRSN                1
 GAP=181        0.77       4.4     6.6  7.0  0.7215E+01  0.7073E+01  0.1867E+01E
 Epicentro: LOS SANTOS - SANTANDER                                             3
 ACTION:UPD 13-05-22 14:39 OP:EP   STATUS:               ID:20130417045418 L   I
 2013-04-17-0450-00M.COL___250                                                 6
 STAT SP IPHASW D HRMM SECON CODA AMPLIT PERI AZIMU VELO AIN AR TRES W  DIS CAZ7
 BAR2 SZ EP   1    454 38.22                             171   -0.13 7 21.9 186 
 BAR2 SZ ES   1    454 53.77                             171   -0.10 7 21.9 186 
 BAR2 SZ I         454 55.64         8.7 0.30            162           21.9 186 
 GIR2 SZ EP   1    454 38.37                             167   -0.07 7 32.2 354 
 BRR  HZ EP   1    454 40.22                             153    0.40 7 70.2 300 
 BRR  HN ES   1    454 57.26                             153    0.79 7 70.2 300 
 BRR  HZ I         455  2.63         3.8 0.52            147           70.2 300 
 RUS  HZ EP   1    454 42.46                             145    0.09 7 99.5 175 
 RUS  HN ES   1    455  0.71                             145   -0.32 7 99.5 175 
 PTB  HZ EP   1    454 45.00                             133   -0.45 7  146 259 
 PTB  HN ES   1    455  5.99                             133   -0.51 7  146 259 
 PTB  HZ I         455 13.35         3.3 0.40            129            146 259 
 SML  HN ES   1    455 23.58                             118   -0.38 6  244 336 
 PRA  HZ EP   1    455 12.45                             107    0.61 4  390 209 
 PRA  HE ES   1    455 54.07                             107    0.59 4  390 209 
 PRA  HZ I         456  2.88         1.7 0.26            108            390 209 
                                                                                
