 2014  417 0810 17.1 L   7.460 -73.206130.0  RSN 12 0.5 2.3LRSN                1
 GAP= 72        1.17       3.0     4.3  7.2 -0.2008E+01  0.7415E+01  0.2223E+01E
 Epicentro: EL PLAYON - SANTANDER                                              3
 ACTION:UPD 14-05-13 23:09 OP:nd   STATUS:               ID:20140417081017 L   I
 OLDACT:REG 14-04-17 14:52 OP:nd   STATUS:               ID:20140417080835     3
 2014-04-17-0808-35M.COL___244                                                 6
 STAT SP IPHASW D HRMM SECON CODA AMPLIT PERI AZIMU VELO AIN AR TRES W  DIS CAZ7
 PAM  SZ EP        810 36.87                             155    0.3810 57.4 103 
 PAM  SN ES        810 51.70                             155    0.0910 57.4 103 
 PAM  SZ I         810 53.47        50.8 0.16            160           57.4 103 
 OCA  HZ EP        810 38.27                             144    0.4310 87.0 352 
 OCA  HN ES        810 54.32                             144    0.3010 87.0 352 
 OCA  HZ I         810 58.12        28.7 0.18            147           87.0 352 
 PTB  HZ EP        810 45.35                             124    0.16 9  172 234 
 PTB  HN ES        811  6.06                             124   -1.04 9  172 234 
 PTB  HZ I         811  9.86        20.6 0.16            125            172 234 
 RUS  HZ EP        810 45.52                             124   -0.52 9  174 176 
 RUS  HN ES   1    811  7.98                             124   -0.63 7  174 176 
 SML  HZ EP        810 45.24                             123   -0.40 9  176 327 
 SML  HN ES        811  7.14                             123   -0.76 9  176 327 
 ZAR  HZ EP        810 47.04                             122    0.76 9  182 271 
 ZAR  HN ES        811  9.79                             122    0.74 9  182 271 
 ZAR  HZ I         811 14.75        30.8 0.30            123            182 271 
 SPBC HZ EP        810 50.84                             116    0.26 8  222 206 
 SPBC HN ES        811 17.05                             116    0.35 8  222 206 
 SPBC HZ I         811 19.88        21.7 0.20            118            222 206 
 COD  HZ EP        810 56.53                             111    0.12 8  275 355 
 COD  HN ES        811 26.41                             111   -0.67 8  275 355 
 NOR  HZ EP        810 57.08                             111    0.14 7  279 221 
 NOR  HN ES        811 27.65                             111   -0.37 7  279 221 
 NOR  HZ I         811 33.69         8.7 0.20            112            279 221 
 HEL  HZ EP        810 59.32                             110    0.42 7  293 241 
 HEL  HN ES   2    811 30.89                             110   -0.62 4  293 241 
 HEL  HZ I         811 41.90         8.0 0.32            111            293 241 
 SDV  BZ EP        811  2.04                             107   -0.33 7  324  61 
 SDV  BN ES   4    811 34.60                             107   -3.08 0  324  61 
 SDV  BZ I         811 37.85         4.7 0.40            110            324  61 
 GUY2CHZ EP   4    811  6.65                             106    1.67 0  344 224 
 GUY2CHN ES   4    811 45.95                             106    3.63 0  344 224 
 GUY2CHZ I         811 51.82         7.9 0.80                           344 224 
                                                                                
