 2015  217 0310 40.6 L   6.765 -73.105139.1  RSN  7 0.4 1.8LRSN                1
 GAP=143        1.02       3.5     6.0  6.5 -0.6927E+01  0.8083E+01 -0.4908E+00E
 Epicentro: LOS SANTOS - SANTANDER                                             3
 ACTION:UPD 15-04-30 21:26 OP:nd   STATUS:               ID:20150217031040 L   I
 OLDACT:UP  15-02-17 16:34 OP:mh   STATUS:               ID:20150217030749d    3
 OLDACT:DUP 15-02-17 16:25 OP:mh   STATUS:               ID:20150217030749d    3
 2015-02-17-0307-48M.COL___302                                                 6
 STAT SP IPHASW D HRMM SECON CODA AMPLIT PERI AZIMU VELO AIN AR TRES W  DIS CAZ7
 BAR2 EZ EP        310 59.18                             171   -0.2210 20.9 204 
 BAR2 EZ ES        311 13.66                             171   -0.3810 20.9 204 
 BAR2 EZ I         311 16.52        11.6 0.26            170           20.9 204 
 BRR  HZ EP     C  311  1.46                             149    0.0610 77.0 299 
 BRR  HN ES        311 17.43                             149   -0.1710 77.0 299 
 BRR  HZ I         311 22.02        15.8 0.12            149           77.0 299 
 PAM  SZ EP        311  2.43                             149    0.2810 77.7  35 
 PAM  SN ES        311 19.10                             149    0.1610 77.7  35 
 PAM  SZ I         311 22.11        13.6 0.34            153           77.7  35 
 RUS  HZ EP        311  3.63                             144    0.2110 96.5 179 
 RUS  HN ES        311 21.11                             144   -0.0910 96.5 179 
 RUS  HZ I         311 25.06         2.7 0.18            147           96.5 179 
 SPBC HZ EP        311  8.30                             127   -0.30 9  163 221 
 SPBC HN ES        311 31.16                             127    0.73 9  163 221 
 SPBC HZ I         311 37.26        10.9 0.16            130            163 221 
 OCA  HZ EP        311  8.00                             127   -0.84 9  165 352 
 OCA  HN ES        311 31.48                             127    0.62 9  165 352 
 OCA  HZ I         311 36.99        11.5 0.28            130            165 352 
 GUY2CHZ EP   1    311 24.59                             111    0.50 5  303 236 
 GUY2CHN ES   1    311 57.48                             111   -0.52 5  303 236 
 GUY2CHZ I         312  2.69         2.9 0.58                           303 236 
                                                                                
