 2014  317 0629 45.9 L   6.822 -73.179140.7  RSN  5 0.3 1.4LRSN                1
 GAP=131        0.79       3.8     5.0  8.7  0.3129E+01  0.2320E+02 -0.1553E+01E
 Epicentro: ZAPATOCA - SANTANDER                                               3
 ACTION:UPD 14-04-09 23:18 OP:nd   STATUS:               ID:20140317062945 L   I
 OLDACT:REG 14-03-17 09:09 OP:mh   STATUS:               ID:20140317062812     3
 2014-03-17-0628-12M.COL___242                                                 6
 STAT SP IPHASW D HRMM SECON CODA AMPLIT PERI AZIMU VELO AIN AR TRES W  DIS CAZ7
 PAM  SZ EP        630  7.95                             150    0.3510 78.0  43 
 PAM  SN ES        630 24.58                             150    0.0410 78.0  43 
 RUS  HZ EP   1    630  9.32                             142   -0.03 7  103 174 
 RUS  HN ES   1    630 27.41                             142   -0.24 7  103 174 
 RUS  HZ I         630 29.29         3.1 0.19            146            103 174 
 OCA  HN ES   1    630 34.70                             129   -0.41 7  157 354 
 OCA  HZ I         630 38.03         3.6 0.12            133            157 354 
 ZAR  HZ EP        630 17.00                             122   -0.56 9  200 292 
 ZAR  HN ES        630 42.75                             122    0.49 9  200 292 
 ZAR  HZ I         630 50.18         2.2 0.11            124            200 292 
 SML  HZ EP        630 22.14                             117    0.31 8  240 336 
 SML  HN ES        630 49.56                             117   -0.30 8  240 336 
                                                                                
