 2016 1017 0704 54.6 L   6.800 -73.127146.9  RSN 13 0.5 1.8LRSN                1
 GAP= 67        1.12       3.4     4.3  6.1 -0.4274E+01 -0.1917E+01  0.4478E+01E
 Epicentro: LOS SANTOS - SANTANDER                                             3
 ACTION:UPD 16-11-09 19:20 OP:rebc STATUS:               ID:20161017070454 L   I
 OLDACT:UP  16-10-17 19:26 OP:and  STATUS:               ID:20161017065733d    3
 OLDACT:UP  16-10-17 19:25 OP:and  STATUS:               ID:20161017065733d    3
 OLDACT:UP  16-10-17 19:22 OP:and  STATUS:               ID:20161017065733d    3
 OLDACT:UP  16-10-17 19:19 OP:and  STATUS:               ID:20161017065733d    3
 OLDACT:DUP 16-10-17 19:17 OP:and  STATUS:               ID:20161017065733d    3
 OLDACT:REG 16-10-17 11:56 OP:and  STATUS:               ID:20161017065732     3
 2016-10-17-0658-00M.COL___343                                                 6
 STAT SP IPHASW D HRMM SECON CODA AMPLIT PERI AZIMU VELO AIN AR TRES W  DIS CAZ7
 BAR2 EZ IP     D  7 5 14.38                             170    0.0410 23.8 195 
 BAR2 EZ ES        7 5 29.67                             170   -0.0910 23.8 195 
 BAR2 EZ I         7 5 30.75        11.1 0.25            169           23.8 195 
 BRR  HZ IP     D  7 5 16.29                             152    0.3610 73.0 298 
 BRR  HN ES        7 5 33.46                             152    0.8610 73.0 298 
 BRR  HZ I         7 5 35.09        10.0 0.15            152           73.0 298 
 PAM  EZ IP     D  7 5 17.22                             151    0.4010 76.1  38 
 PAM  EN ES        7 5 34.08                             151   -0.1110 76.1  38 
 PAM  EZ I         7 5 36.85         9.1 0.31            154           76.1  38 
 RUS  HZ EP        7 5 18.41                             144   -0.0110  100 177 
 RUS  HN ES        7 5 36.73                             144   -0.2910  100 177 
 RUS  HZ I         7 5 38.01         7.0 0.28            144            100 177 
 PTB  HZ EP        7 5 21.13                             132   -0.67 9  150 259 
 PTB  HN ES        7 5 42.15                             132   -0.90 9  150 259 
 PTB  HZ I         7 5 45.82         5.9 0.22            132            150 259 
 TAM  HZ EP        7 5 22.64                             131    0.49 9  153 105 
 OCA  HZ EP        7 5 22.85                             130   -0.13 9  161 352 
 OCA  HN ES        7 5 44.54                             130   -0.61 9  161 352 
 OCA  HZ I         7 5 46.53        10.6 0.20            131            161 352 
 SPBC HZ EP        7 5 23.43                             129    0.16 9  164 220 
 SPBC HE ES        7 5 45.48                             129   -0.18 9  164 220 
 SPBC HZ I         7 5 46.58        10.1 0.15            129            164 220 
 NOR  HZ EP   2    7 5 31.37                             119    0.84 4  236 235 
 NOR  HN ES        7 5 59.25                             119    0.66 8  236 235 
 NOR  HZ I         7 6  5.12         5.0 0.18            119            236 235 
 CHI  HZ EP   2    7 5 32.81                             117    0.43 4  249 196 
 CHI  HN ES        7 6  2.49                             117    0.61 8  249 196 
 CHI  HZ I         7 6  7.60         2.5 0.40            118            249 196 
 GUY2CHZ EP   9    7 5 39.96                             112    1.55 0  303 235 
 GUY2CHE ES        7 6 13.88                                   -0.28 7  303 235 
 GUY2CHZ I         7 6 19.43         3.0 0.32                           303 235 
 PTGC HZ EP        7 5 37.47                             112   -0.92 7  308 159 
 PTGC HN ES   3    7 6 11.05                             112   -1.52 2  308 159 
 PRA  HZ EP   3    7 5 47.15                             107   -1.09 1  393 210 
 PRA  HE ES        7 6 29.85                             107   -0.25 6  393 210 
 PRA  HZ I         7 6 34.12         2.3 0.36            107            393 210 
                                                                                
