 2016  417 0250 30.7 L   6.780 -73.174147.2  RSN  8 0.3 2.0LRSN                1
 GAP=134        1.07       4.1     4.6  6.9 -0.2549E+01  0.7921E+01  0.1474E+01E
 Epicentro: LOS SANTOS - SANTANDER                                             3
 ACTION:UPD 16-05-05 14:22 OP:rebc STATUS:               ID:20160417025030 L   I
 OLDACT:DUP 16-04-18 00:27 OP:mher STATUS:               ID:20160417024746d    3
 2016-04-17-0247-45M.COL___307                                                 6
 STAT SP IPHASW D HRMM SECON CODA AMPLIT PERI AZIMU VELO AIN AR TRES W  DIS CAZ7
 BAR2 EZ EP        250 50.67                             172    0.1710 20.8 182 
 BAR2 EZ ES        251  5.92                             172    0.0110 20.8 182 
 BAR2 EZ I         251  6.99        23.6 0.15            169           20.8 182 
 PAM  EZ EP        250 53.49                             149    0.1610 81.1  40 
 PAM  EN ES        251 10.42                             149   -0.5310 81.1  40 
 PAM  EZ I         251 13.03        12.7 0.49            154           81.1  40 
 RUS  HZ EP        250 54.38                             144   -0.1210 98.7 174 
 RUS  HN ES   1    251 13.64                             144    0.61 7 98.7 174 
 PTB  HZ EP        250 57.22                             133   -0.29 9  144 259 
 PTB  HN ES        251 18.38                             133   -0.01 9  144 259 
 PTB  HZ I         251 20.53        10.0 0.10            132            144 259 
 SPBC HZ EP        250 59.36                             130    0.35 9  160 219 
 SPBC HN ES        251 21.03                             130   -0.02 9  160 219 
 SPBC HZ I         251 27.79        15.1 0.40            129            160 219 
 ZAR  HZ EP        251  3.55                             122    0.48 9  202 293 
 ZAR  HN ES        251 28.28                             122   -0.00 9  202 293 
 ZAR  HZ I         251 33.93         8.6 0.32            123            202 293 
 CHI  HZ EP        251  7.59                             117   -0.62 8  246 195 
 CHI  HN ES        251 37.43                             117    0.00 8  246 195 
 CHI  HZ I         251 42.37         4.6 0.10            118            246 195 
 ROSC BZ EP   9    251 12.33                             117    3.77 0  249 211 
 ROSC BN ES        251 40.46                                   -1.37 8  249 211 
 ROSC BZ I         251 45.93         8.7 0.08            117            249 211 
                                                                                
