 2012 1217 0425 16.9 L   6.759 -73.126149.5  RSN  5 0.3 1.5LRSN                1
 GAP=141        0.70       3.9     4.1  6.2 -0.1179E+01  0.2750E+01  0.3238E+01E
 Epicentro: LOS SANTOS - SANTANDER                                             3
 ACTION:UPD 13-01-04 14:28 OP:ep   STATUS:               ID:20121217042516 L   I
 2012-12-17-0420-00M.COL___238                                                 6
 STAT SP IPHASW D HRMM SECON CODA AMPLIT PERI AZIMU VELO AIN AR TRES W  DIS CAZ7
 BAR2 SZ EP        425 36.80                             172   -0.1110 19.4 199 
 BAR2 SZ I         425 54.91         8.5 0.33                          19.4 199 
 BRR  HZ EP        425 38.95                             152    0.2610 75.3 301 
 BRR  HN ES        425 56.03                             152    0.3510 75.3 301 
 BRR  HZ I         426  2.53         4.4 0.16                          75.3 301 
 PAM  SZ EP        425 39.81                             151    0.1610 79.7  36 
 PAM  SZ I         425 39.98         4.2 0.17                          79.7  36 
 PAM  SN ES        425 57.06                             151   -0.3410 79.7  36 
 RUS  HZ EP        425 40.91                             146    0.2110 95.9 177 
 RUS  HN ES        425 59.26                             146    0.0010 95.9 177 
 RUS  HN I         426  1.54         4.6 0.23                          95.9 177 
 PTB  HZ EP        425 43.89                             133   -0.40 9  149 261 
 PTB  HN ES   1    426  5.32                             133   -0.34 7  149 261 
 PTB  HZ I         426 12.55         3.7 0.41                           149 261 
                                                                                
