 2010  817 0207 46.4 L   6.766 -73.076144.1  RSN 11 0.5 1.8LRSN                1
 GAP=167        1.29       5.0    10.1 11.3 -0.1841E+02  0.1156E+02  0.1333E+02E
 Epicentro: LOS SANTOS - SANTANDER                                             3
 ACTION:UP  10-09-07 10:55 OP:vdl  STATUS:               ID:20100817020746 L   I
 2010-08-17-0205-15S.COL___111                                                 6
 STAT SP IPHASW D HRMM SECON CODA AMPLIT PERI AZIMU VELO SNR AR TRES W  DIS CAZ7
 BAR2 SZ EP        2 8  5.28                             171    -0.610   23 212 
 BAR2 SZ I         2 8  5.75        12.7 0.38                            23 212 
 GIR2 SZ EP   1    2 8  6.51                             165     0.4 7   37 339 
 BRR  HZ EP        2 8  7.23                             149    -0.710   80 298 
 BRR  HN ES   1    2 8 24.53                             149    -0.1 7   80 298 
 BRR  HZ I         2 8 26.37        12.1 0.31                            80 298 
 RUS  HZ EP        2 8  9.28                             144    -0.410   97 181 
 RUS  HN ES   1    2 8 28.34                             144     0.4 7   97 181 
 RUS  HZ I         2 8 29.71         4.6 0.53                            97 181 
 GUE  SZ EP        2 8 11.69                             138     0.510  119   8 
 GRA  SZ EP        2 8 11.83                             136     0.210  127  14 
 GRA  SZ ES   1    2 8 31.50                             136     0.2 7  127  14 
 GRA  SZ I         2 8 32.97         6.7 0.41                           127  14 
 OCA  SZ ES   1    2 8 37.44                             128     0.0 7  165 351 
 OCA  SZ I         2 8 43.77         5.9 0.16                           165 351 
 CHI  HZ EP   1    2 8 23.22                             117    -0.7 6  247 197 
 CHI  HN ES   1    2 8 54.12                             117     1.0 6  247 197 
 CHI  HZ I         2 8 58.65         3.1 0.53                           247 197 
 HEL  HZ EP   1    2 8 27.53                             114     0.2 6  279 257 
 HEL  HZ I         2 9  3.58         3.8 0.49                           279 257 
 RREF HZ EP   1    2 8 34.01                             110     1.1 5  325 231 
 RREF HN ES   1    2 9  9.70                             110     0.5 5  325 231 
 RREF HZ I         2 9 16.97         4.4 0.33                           325 231 
 PRA  HZ EP        2 8 39.76                             106    -0.2 6  393 211 
 PRA  HN ES   1    2 9 21.35                             106    -0.4 4  393 211 
 PRA  HZ I         2 9 24.71         5.4 0.62                           393 211 
                                                                                
