 2013 1117 0815 31.2 L   6.789 -73.173146.1  RSN  7 0.6 1.6LRSN                1
 GAP=198        1.38       5.7     9.1  8.9  0.4708E+01 -0.5978E+01  0.1435E+00E
 Epicentro: LOS SANTOS - SANTANDER                                             3
 ACTION:UPD 14-01-09 16:29 OP:ep   STATUS:               ID:20131117081531 L   I
 OLDACT:REG 13-11-17 09:07 OP:stll STATUS:               ID:20131117080809     3
 2013-11-17-0808-09M.COL___213                                                 6
 STAT SP IPHASW D HRMM SECON CODA AMPLIT PERI AZIMU VELO AIN AR TRES W  DIS CAZ7
 BAR2 SZ EP        815 51.00                             171    0.1310 21.8 183 
 BAR2 SZ ES        816  5.50                             171   -0.6810 21.8 183 
 BAR2 SZ I         816  7.87        11.0 0.48            159           21.8 183 
 BRR  HZ EP        815 52.65                             153    0.3510 69.2 301 
 BRR  HZ I         815 53.18         5.4 0.26            150           69.2 301 
 BRR  HN ES        816  9.85                             153    1.1210 69.2 301 
 RUS  HZ EP        815 55.08                             144    0.1410 99.6 174 
 PTB  HZ EP        815 57.75                             133   -0.18 9  145 259 
 PTB  HN ES        816 18.95                             133    0.19 9  145 259 
 PTB  HZ I         816 23.63         4.2 0.28            123            145 259 
 SPBC HZ EP        815 59.44                             130   -0.05 9  160 218 
 SPBC HN ES        816 20.70                             130   -0.82 9  160 218 
 SPBC HZ I         816 27.33         4.4 0.54            118            160 218 
 SML  HZ EP        816  7.74                             117   -0.12 8  244 336 
 SML  HN ES        816 35.52                             117   -0.90 8  244 336 
 SML  HZ I         816 41.70         4.3 0.10            110            244 336 
 CHI  HZ EP        816  9.22                             117    0.48 8  247 195 
 CHI  HZ I         816 44.15         1.8 0.32            107            247 195 
                                                                                
