 2012 1017 0714 53.2 L   6.810 -73.090148.0  RSN  5 0.2 1.4LRSN                1
 GAP=201        0.45       4.7     5.5  5.2  0.1509E+02  0.3841E+01 -0.2063E+01E
 Epicentro: LOS SANTOS - SANTANDER                                             3
 ACTION:UPD 12-11-22 17:04 OP:ep   STATUS:               ID:20121017071453 L   I
 2012-10-17-0710-00M.COL___231                                                 6
 STAT SP IPHASW D HRMM SECON CODA AMPLIT PERI AZIMU VELO AIN AR TRES W  DIS CAZ7
 BAR2 SZ EP   1    715 13.30                             170    0.18 7 26.1 203 
 BAR2 SZ ES   1    715 28.54                             170   -0.15 7 26.1 203 
 BAR2 SZ I         715 29.49         5.5 0.26                          26.1 203 
 GIR2 SZ EP   1    715 13.02                             167   -0.09 7 31.9 339 
 GIR2 SZ ES   1    715 28.53                             167   -0.15 7 31.9 339 
 BRR  HZ EP   1    715 14.87                             151    0.04 7 76.2 296 
 BRR  HZ I         715 15.10         4.5 0.13                          76.2 296 
 BRR  HN ES   1    715 32.14                             151    0.40 7 76.2 296 
 RUS  HN ES   1    715 35.92                             144   -0.02 7  101 180 
 ZAR  HN ES   1    715 51.86                             122   -0.28 6  209 291 
                                                                                
