 2017  217 0409 16.8 L   6.807 -73.151149.5  RSN 12 0.5 1.9LRSN                1
 GAP=118        1.04       3.8     3.9  5.6  0.3663E+00  0.5114E+01  0.7293E+01E
 Epicentro: LOS SANTOS - SANTANDER                                             3
 ACTION:UPD 17-05-24 15:37 OP:jn   STATUS:               ID:20170217040916 L   I
 OLDACT:REG 17-02-17 13:10 OP:cog  STATUS:               ID:20170217040743     3
 2017-02-17-0408-00M.COL___355                                                 6
 STAT SP IPHASW D HRMM SECON CODA AMPLIT PERI AZIMU VELO AIN AR TRES W  DIS CAZ7
 BAR2 EZ EP        4 9 37.04                             170    0.1210 24.0 188 
 BAR2 EZ ES        4 9 52.11                             170   -0.4810 24.0 188 
 BAR2 EZ I         4 9 53.91        15.2 0.38            168           24.0 188 
 BRR  HZ EP        4 9 38.63                             153    0.3010 70.3 298 
 BRR  HN ES        4 9 55.79                             153    0.6810 70.3 298 
 BRR  HZ I         4 9 59.59        12.9 0.24            150           70.3 298 
 PAM  EZ EP        4 9 39.82                             151    0.4010 77.2  40 
 PAM  EN ES        4 9 56.98                             151   -0.0710 77.2  40 
 PAM  EZ I         4 9 59.04        12.5 0.50            157           77.2  40 
 RUS  HZ EP        4 9 40.98                             144   -0.0210  101 176 
 RUS  HN ES        4 9 59.83                             144   -0.0310  101 176 
 RUS  HZ I         410  0.58        10.3 0.24            146            101 176 
 PTB  HZ EP        4 9 43.62                             133   -0.44 9  147 258 
 PTB  HN ES        410  4.69                             133   -0.62 9  147 258 
 PTB  HZ I         410 11.59        10.2 0.40            132            147 258 
 ZAR  HZ EP        4 9 48.70                             123   -0.73 9  203 292 
 ZAR  HE ES        410 14.97                             123    0.10 9  203 292 
 ZAR  HZ I         410 25.13         7.5 0.42            123            203 292 
 NOR  HZ EP        4 9 52.46                             119   -0.31 8  235 234 
 NOR  HN ES        410 20.34                             119   -0.47 8  235 234 
 NOR  HZ I         410 28.76         6.8 0.14            119            235 234 
 CHI  HZ EP        4 9 55.07                             118    0.28 8  249 195 
 CHI  HN ES        410 24.94                             118    0.53 8  249 195 
 CHI  HZ I         410 27.65         5.8 0.38            119            249 195 
 ROSC BZ EP        4 9 55.71                             117    0.52 8  253 211 
 ROSC BN ES   4    410 28.18                             117    3.07 0  253 211 
 ROSC BZ I         410 31.56         8.1 0.35            118            253 211 
 PTGC HZ EP        410  0.07                             112   -0.88 7  310 159 
 PTGC HN ES   4    410 33.70                             112   -1.67 0  310 159 
 PTGC HZ I         410 34.90         7.2 0.32            114            310 159 
 CBOC HZ EP   3    410  5.20                             111    1.34 2  333 252 
 CBOC HE ES        410 41.05                             111    0.50 7  333 252 
 CBOC HZ I         410 45.40         1.0 0.16            111            333 252 
 PRA  HZ EP        410 10.91                             107    0.39 6  392 209 
 PRA  HE ES        410 52.99                             107    0.59 6  392 209 
 PRA  HZ I         410 56.86         3.5 0.28            108            392 209 
                                                                                
