 2015  517 0724 45.2 L   6.797 -73.105146.9  RSN  7 0.3 1.5LRSN                1
 GAP=204        0.59       2.6     3.8  5.0  0.2455E+01  0.2996E+01 -0.1759E+01E
 Epicentro: LOS SANTOS - SANTANDER                                             3
 ACTION:UPD 15-09-10 22:04 OP:cam  STATUS:               ID:20150517072445 L   I
 OLDACT:REG 15-05-17 13:01 OP:spq  STATUS:               ID:20150517071747     3
 2015-05-17-0717-47M.COL___276                                                 6
 STAT SP IPHASW D HRMM SECON CODA AMPLIT PERI AZIMU VELO AIN AR TRES W  DIS CAZ7
 BAR2 EZ EP        725  4.92                             170   -0.1010 24.2 201 
 BAR2 EZ ES   1    725 19.99                             170   -0.46 7 24.2 201 
 BAR2 EZ I         725 21.11         7.7 0.16            168           24.2 201 
 BRR  HZ EP        725  6.82                             151    0.0810 75.3 297 
 BRR  HN ES        725 23.86                             151    0.3410 75.3 297 
 BRR  HZ I         725 26.30         3.6 0.38            147           75.3 297 
 RUS  HZ EP   1    725  9.09                             144    0.04 7  100 179 
 RUS  HN ES        725 27.76                             144    0.1210  100 179 
 RUS  HZ I         725 28.47         2.6 0.18            145            100 179 
 SPBC HZ EP   1    725 13.97                             129   -0.09 7  166 220 
 SPBC HN ES   1    725 36.28                             129   -0.27 7  166 220 
 SPBC HZ I         725 39.42         6.2 0.10            128            166 220 
 ZAR  HE ES        725 43.46                             122   -0.44 8  208 292 
 ZAR  HZ I         725 48.90         3.6 0.34            121            208 292 
 NOR  HN ES        725 49.92                             118    0.31 8  238 235 
 NOR  HZ I         725 54.31         3.1 0.48            118            238 235 
 SML  HZ EP   1    725 22.18                             117    0.02 6  246 334 
 SML  HE ES   1    725 51.15                             117    0.19 6  246 334 
 SML  HZ I         725 56.07         3.3 0.10            117            246 334 
                                                                                
