 2014  317 0444 13.1 L   6.811 -73.203138.0  RSN  4 0.2 1.2LRSN                1
 GAP=240        0.49       4.2     3.5  7.1  0.7883E+01 -0.8612E+00 -0.1422E+02E
 Epicentro: ZAPATOCA - SANTANDER                                               3
 ACTION:UPD 14-04-09 23:18 OP:nd   STATUS:               ID:20140317044413 L   I
 OLDACT:DUP 14-03-17 13:41 OP:mher STATUS:               ID:20140317043808d    3
 2014-03-17-0438-07M.COL___245                                                 6
 STAT SP IPHASW D HRMM SECON CODA AMPLIT PERI AZIMU VELO AIN AR TRES W  DIS CAZ7
 RUS  HZ EP        444 36.32                             142    0.0810  102 173 
 RUS  HN ES        444 54.31                             142    0.0310  102 173 
 PTB  HZ EP        444 38.66                             132   -0.24 9  142 258 
 PTB  HN ES   1    444 58.69                             132   -0.33 7  142 258 
 PTB  HZ I         445 10.07         1.6 0.30            133            142 258 
 ZAR  HZ EP        444 44.34                             122   -0.05 9  198 292 
 ZAR  HN ES        445  9.07                             122    0.27 9  198 292 
 ZAR  HZ I         445 15.24         1.9 0.16            125            198 292 
 NOR  HE ES        445 15.23                             117    0.16 8  230 233 
 NOR  HZ I         445 20.68         1.8 0.17            121            230 233 
                                                                                
