 2014  317 0725 23.1 L   6.620 -73.468112.9  RSN 18 0.6 2.1LRSN                1
 GAP= 55        1.22       3.1     3.2  6.3 -0.1950E+01  0.6649E+01  0.1427E-01E
 Epicentro: EL CARMEN DE CHUCURI - SANTANDER                                   3
 ACTION:UPD 14-04-09 23:18 OP:nd   STATUS:               ID:20140317072523 L   I
 OLDACT:UP  14-03-17 14:41 OP:mh   STATUS:               ID:20140317071812     3
 OLDACT:UP  14-03-17 14:41 OP:mh   STATUS:               ID:20140317071812     3
 OLDACT:UP  14-03-17 14:33 OP:mh   STATUS:               ID:20140317071812     3
 OLDACT:REG 14-03-17 09:12 OP:mh   STATUS:               ID:20140317071812     3
 2014-03-17-0718-12M.COL___242                                                 6
 STAT SP IPHASW D HRMM SECON CODA AMPLIT PERI AZIMU VELO AIN AR TRES W  DIS CAZ7
 BAR2 SZ EP        725 39.56                             163    0.4910 31.8  96 
 BAR2 SZ ES        725 51.99                             163    0.4810 31.8  96 
 BAR2 SZ I         725 53.94        79.4 0.17            167           31.8  96 
 RUS  HN EP        725 43.15                             139    0.1410 91.0 152 
 RUS  HE ES        725 58.43                             139   -0.1010 91.0 152 
 RUS  HN I         726  1.22        24.0 0.19            142           91.0 152 
 PTB  HZ EP        725 43.00                             133   -0.9510  110 265 
 PTB  HN ES   1    725 59.45                             133   -0.75 7  110 265 
 PTB  HZ I         726  1.64        24.0 0.14            133            110 265 
 PAM  SZ EP        725 45.37                             131    0.1610  116  47 
 PAM  SN ES        726  2.88                             131    0.4510  116  47 
 PAM  SZ I         726  4.50        22.4 0.19            134            116  47 
 SPBC HZ EP   1    725 45.93                             128    0.34 7  126 212 
 OCA  HZ EP        725 51.11                             118   -0.07 9  180   5 
 OCA  HN ES        726 12.39                             118   -0.68 9  180   5 
 OCA  HZ I         726 19.76        24.1 0.26            120            180   5 
 ZAR  HZ EP        725 51.67                             117    0.51 9  181 302 
 ZAR  HN ES   1    726 12.52                             117   -0.52 7  181 302 
 ZAR  HZ I         726 17.78        21.8 0.07            119            181 302 
 TAM  HZ EP        725 51.76                             116   -0.02 9  187  96 
 TAM  HN ES   2    726 14.09                             116   -0.04 4  187  96 
 NOR  HZ EP        725 52.14                             115   -0.48 9  194 233 
 NOR  HN ES        726 14.93                             115   -0.70 9  194 233 
 NOR  HZ I         726 16.73        12.4 0.16            117            194 233 
 ROSC BZ EP   4    725 57.38                             113    1.64 0  218 206 
 ROSC BN ES   4    726 23.47                             113    2.28 0  218 206 
 CHI  HZ EP        725 55.51                             112   -0.68 8  222 188 
 CHI  HN ES   4    726 25.16                             112    3.17 0  222 188 
 CHI  HZ I         726 32.15         5.6 0.52            114            222 188 
 HEL  HZ EP   1    725 57.97                             111    0.60 6  233 258 
 HEL  HN ES        726 24.12                             111    0.04 8  233 258 
 HEL  HZ I         726 30.56         7.5 0.34            112            233 258 
 SML  HZ EP   1    725 58.63                             109   -0.26 6  250 345 
 SML  HN ES        726 26.70                             109   -0.08 8  250 345 
 SML  HZ I         726 32.28        28.1 0.07            111            250 345 
 URE  HZ EP   4    725 58.76                             108   -1.29 0  260 299 
 URE  HN ES   4    726 26.01                             108   -2.85 0  260 299 
 GUY2CHZ EP        726  1.42                             108    0.73 8  261 234 
 GUY2CHN ES   4    726 31.60                             108    1.60 0  261 234 
 GUY2CHZ I         726 37.92         6.8 0.44                           261 234 
 RREF HZ EP        726  4.11                             107    0.75 7  282 228 
 RREF HN ES   4    726 36.35                             107    1.60 0  282 228 
 CBOC HZ EP        726  4.95                             106    0.78 7  294 254 
 CBOC HN ES        726 37.12                             106    0.93 7  294 254 
 CBOC HZ I         726 45.36         2.4 0.22            107            294 254 
 PTGC HZ EP        726  4.16                             105   -1.23 7  306 151 
 PTGC HN ES   4    726 35.74                             105   -2.62 0  306 151 
 ORTC HZ EP        726 11.93                             102    0.21 6  359 213 
 ORTC HN ES   1    726 49.83                             102    0.21 5  359 213 
 SDV  BZ EP        726 16.95                             100    0.01 6  401  51 
 SDV  BN ES   4    726 55.15                             100   -3.77 0  401  51 
                                                                                
