 2011  917 0122 37.0 L   6.802 -73.138141.1  RSN  7 0.4 1.5LRSN                1
 GAP=137        0.85       6.7    10.1 14.4 -0.1207E+01  0.2399E+02  0.3861E+01E
 Epicentro: LOS SANTOS - SANTANDER                                             3
 ACTION:UPD 12-07-13 15:57 OP:ep   STATUS:               ID:20110917012237 L   I
 2011-09-17-0120-00M.COL___173                                                 6
 STAT SP IPHASW D HRMM SECON CODA AMPLIT PERI AZIMU VELO AIN AR TRES W  DIS CAZ7
 BTL  SZ EP        122 56.21                             172    0.1710 19.3 312 
 BAR2 SZ EP        122 56.23                             170    0.1010 23.7 192 
 BAR2 SZ ES   3    123 10.63                             170   -0.38 2 23.7 192 
 BAR2 SZ I         123 14.78         5.7 0.58                          23.7 192 
 GIR2 SZ EP        122 55.26                             167   -0.9110 31.2 349 
 BRR  HZ EP        122 58.08                             151    0.3510 71.8 298 
 BRR  HZ I         123  0.36        11.7 0.38                          71.8 298 
 BRR  HE ES   3    123 14.04                             151    0.17 2 71.8 298 
 PAM  SZ EP        122 58.94                             150    0.2110 76.7  39 
 PAM  SE ES   2    123 15.96                             150    0.32 5 76.7  39 
 RUS  HZ EP        123  0.37                             143    0.0210  101 177 
 RUS  HN ES   2    123 18.55                             143    0.01 5  101 177 
 RUS  HZ I         123 20.78         4.0 0.26                           101 177 
 ZAR  HE ES   3    123 34.22                             121   -0.18 2  205 292 
 ZAR  HZ I         123 37.12         3.1 0.28                           205 292 
                                                                                
