 2015  417 0710 14.2 L   6.770 -73.194144.2  RSN  5 0.5 1.1LRSN                1
 GAP=196        1.19       6.0     8.3  8.7  0.2043E+02 -0.1282E+01 -0.1638E+02E
 Epicentro: ZAPATOCA - SANTANDER                                               3
 ACTION:UPD 15-06-03 16:55 OP:cam  STATUS:               ID:20150417071014 L   I
 OLDACT:REG 15-04-17 13:13 OP:spq  STATUS:               ID:20150417070748     3
 2015-04-17-0707-48M.COL___275                                                 6
 STAT SP IPHASW D HRMM SECON CODA AMPLIT PERI AZIMU VELO AIN AR TRES W  DIS CAZ7
 BAR2 EZ EP        710 33.76                             172    0.2010 19.7 176 
 BAR2 EZ ES        710 48.76                             172    0.0910 19.7 176 
 BRR  HZ EP        710 35.60                             153    0.6010 68.2 303 
 BRR  HN ES        710 51.59                             153    0.3610 68.2 303 
 BRR  HZ I         710 54.63         2.6 0.12            149           68.2 303 
 RUS  HZ EP        710 38.09                             144    0.5110 97.8 173 
 RUS  HN ES        710 54.96                             144   -0.8810 97.8 173 
 RUS  HZ I         710 57.43         1.3 0.48            146           97.8 173 
 PTB  HZ EP        710 40.54                             133    0.05 9  142 260 
 PTB  HN ES        711  0.73                             133   -0.28 9  142 260 
 PTB  HZ I         711  8.01         1.7 0.46            131            142 260 
 SML  HZ EP        710 50.22                             117   -0.59 8  245 337 
 SML  HN ES        711 18.89                             117   -0.49 8  245 337 
 SML  HZ I         711 23.58         2.0 0.10            118            245 337 
                                                                                
