 2012  117 0924  3.6 L   6.373 -73.604117.3  RSN  5 0.4 1.3LRSN                1
 GAP= 97        0.89       5.6     5.9 11.3  0.5402E+01  0.1235E+02  0.3595E+02E
 Epicentro: SANTA HELENA DEL OPON - SANTANDER                                  3
 ACTION:UP  12-02-03 08:18 OP:REBC STATUS:               ID:20120117092403 L   I
 2012-01-17-0920-00M.COL___188                                                 6
 STAT SP IPHASW D HRMM SECON CODA AMPLIT PERI AZIMU VELO SNR AR TRES W  DIS CAZ7
 BAR2 SZ EP   1    924 20.81                             154    -0.2 7   53  62 
 BAR2 SZ ES   1    924 34.31                             154    -0.2 7   53  62 
 BAR2 SZ I         924 35.31         8.0 0.36                            53  62 
 RUS  HZ EP   1    924 22.46                             144    -0.5 7   78 133 
 BRR  HZ EP   1    924 22.85                             142     0.3 7   82 352 
 BRR  HN ES   1    924 37.95                             142     0.7 7   82 352 
 BRR  HZ I         924 43.59         4.9 0.19                            82 352 
 PTB  HZ EP        924 23.45                             138    -0.210   96 281 
 PTB  HN ES   1    924 38.96                             138    -0.3 7   96 281 
 CHI  HZ EP   1    924 33.96                             117     0.2 7  193 184 
 CHI  HE ES   1    924 57.74                             117     0.5 7  193 184 
 CHI  HZ I         925  0.68         1.0 0.32                           193 184 
                                                                                
