 2011  317 0714 11.7 L   6.775 -73.120146.7  RSN  9 0.2 2.0LRSN                1
 GAP=162        0.54       2.2     4.5  4.6 -0.4130E+01  0.7607E+01 -0.1130E+01E
 Epicentro: LOS SANTOS - SANTANDER                                             3
 ACTION:UP  11-06-16 14:34 OP:jfem STATUS:               ID:20110317071411 L   I
 2011-03-17-0710-35S.COL___138                                                 6
 STAT SP IPHASW D HRMM SECON CODA AMPLIT PERI AZIMU VELO SNR AR TRES W  DIS CAZ7
 BAR2 SZ EP        714 31.45                             171     0.110   21 199 
 BAR2 SZ ES   1    714 46.73                             171     0.0 7   21 199 
 BAR2 SZ I         714 49.15        20.3 0.25                            21 199 
 BTL  SZ EP   1    714 31.61                             171     0.2 7   23 314 
 RUS  HZ EP        714 35.21                             145    -0.110   98 178 
 RUS  HN ES   1    714 53.70                             145     0.0 7   98 178 
 RUS  HZ I         714 55.61        14.3 0.22                            98 178 
 GRA  SZ IP        714 37.25                             137     0.110  128  16 
 GRA  SZ ES   1    714 56.66                             137    -0.3 7  128  16 
 GRA  SZ I         714 58.12        14.9 0.17                           128  16 
 OCA  SZ EP        714 40.10                             129    -0.2 9  163 352 
 OCA  SZ ES   1    715  3.00                             129     0.3 7  163 352 
 OCA  SZ I         715  7.51        11.1 0.23                           163 352 
 NOR  SZ EP   1    714 47.27                             119    -0.3 6  236 236 
 NOR  SN ES   1    715 15.09                             119    -0.4 6  236 236 
 NOR  SZ I         715 19.05         1.8 0.21                           236 236 
 CHI  HZ EP   1    714 49.52                             117     0.3 6  247 196 
 CHI  HN ES   1    715 18.58                             117     0.1 6  247 196 
 CHI  HZ I         715 26.76         4.6 0.56                           247 196 
 HEL  HZ EP   1    714 52.42                             115     0.3 6  274 257 
 HEL  HN ES   2    715 24.05                             115     0.3 4  274 257 
 HEL  HZ I         715 30.51         8.0 0.39                           274 257 
 PRA  HZ EP   1    715  4.87                             107    -0.2 4  391 210 
 PRA  HZ I         715  7.07        24.2 0.16                           391 210 
                                                                                
