 2010 1017 0252 30.5 L   6.800 -73.139148.3  RSN  5 0.1 1.2LRSN                1
 GAP=159        0.36       3.7     7.4  7.3  0.1329E+02 -0.3678E+02 -0.1056E+02E
 Epicentro: LOS SANTOS - SANTANDER                                             3
 ACTION:UP  11-02-18 11:10 OP:tino STATUS:               ID:20101017025230 L   I
 2010-10-17-0248-53S.COL___125                                                 6
 STAT SP IPHASW D HRMM SECON CODA AMPLIT PERI AZIMU VELO SNR AR TRES W  DIS CAZ7
 BTL  SZ EP   1    252 50.33                             172     0.0 7   19 313 
 BAR2 SZ EP   2    252 50.09                                    -0.4 5   24 192 
 BRR  HZ EP        252 52.01                             153     0.010   72 298 
 BRR  HZ I         252 52.28         6.7 0.11                            72 298 
 BRR  HE ES   1    253  8.71                             153     0.0 7   72 298 
 RUS  HZ EP   1    252 54.55                             144     0.0 7  101 176 
 RUS  HE ES   2    253 13.33                             144     0.1 5  101 176 
 RUS  HZ I         253 14.37         1.4 0.40                           101 176 
 GRA  SZ EP   1    252 56.02                             138     0.1 7  125  17 
 GRA  SZ I         253 18.48         1.8 0.15                           125  17 
                                                                                
