 2012  517 0146 35.2 L   6.824 -73.134138.7  RSN  4 0.2 1.2LRSN                1
 GAP=241        0.49       7.5     9.8  5.9  0.6193E+02 -0.8037E+01 -0.6623E+01E
 Epicentro: LOS SANTOS - SANTANDER                                             3
 ACTION:UP  12-07-05 12:05 OP:pat  STATUS:               ID:20120517014635 L   I
 2012-05-17-0140-00M.COL___197                                                 6
 STAT SP IPHASW D HRMM SECON CODA AMPLIT PERI AZIMU VELO SNR AR TRES W  DIS CAZ7
 BAR2 SZ EP   1    146 54.09                             169     0.1 7   26 192 
 BAR2 SZ ES   1    147  8.68                             169     0.0 7   26 192 
 BAR2 SZ I         147 10.19         5.8 0.14                            26 192 
 BRR  HZ EP   1    146 55.80                             151     0.3 7   71 296 
 BRR  HN ES   1    147 11.28                             151    -0.2 7   71 296 
 RUS  HZ EP   1    146 58.08                             142    -0.3 7  103 177 
 RUS  HZ I         146 59.27         2.2 0.17                           103 177 
 RUS  HN ES   1    147 16.73                             142     0.2 7  103 177 
 ZAR  HN ES   2    147 32.17                             121     0.0 4  204 291 
                                                                                
