 2010 1017 0734 14.6 L   6.799 -73.045144.5  RSN 12 0.4 2.1LRSN                1
 GAP=170        0.80       3.7     7.3  7.0 -0.9779E+01  0.1354E+02 -0.2203E+01E
 Epicentro: LOS SANTOS - SANTANDER                                             3
 ACTION:UP  11-02-18 11:10 OP:tino STATUS:               ID:20101017073414 L   I
 2010-10-17-0732-29S.COL___125                                                 6
 STAT SP IPHASW D HRMM SECON CODA AMPLIT PERI AZIMU VELO SNR AR TRES W  DIS CAZ7
 BTL  SZ EP        734 34.25                             169     0.110   28 298 
 BAR2 SZ IP        734 34.13                             169     0.010   28 214 
 BAR2 SZ ES   2    734 49.29                             169    -0.1 5   28 214 
 BAR2 SZ I         734 50.48        21.6 0.13                            28 214 
 BRR  HZ IP     C  734 35.90                             149    -0.310   81 295 
 BRR  HZ I         734 36.17        47.1 0.10                            81 295 
 BRR  HN ES   2    734 53.60                             149     0.5 5   81 295 
 RUS  HZ EP   1    734 38.27                             143     0.1 7  100 182 
 RUS  HN ES   1    734 56.38                             143    -0.2 7  100 182 
 RUS  HZ I         734 58.36        14.2 0.39                           100 182 
 GUE  SZ EP   1    734 39.08                             139     0.0 7  115   7 
 GRA  SZ EP        734 39.91                             137     0.410  123  13 
 GRA  SZ ES   2    734 58.83                             137    -0.1 5  123  13 
 GRA  SZ I         735  0.53        21.7 0.25                           123  13 
 OCA  SZ EP        734 42.58                             129    -0.4 9  162 349 
 OCA  SZ I         735  9.17        12.5 0.41                           162 349 
 NOR  SZ EP   1    734 50.68                             117    -0.6 6  244 236 
 CHI  HZ EP   1    734 52.64                             116     0.1 6  252 198 
 CHI  HE ES   2    735 22.50                             116     0.3 4  252 198 
 CHI  HZ I         735 25.27         4.1 0.33                           252 198 
 ROSC BZ EP   1    734 54.29                             116     1.0 6  259 213 
 ROSC BZ I         735 29.01         6.3 0.37                           259 213 
 HEL  HZ EP   1    734 56.14                             113     0.2 6  283 256 
 HEL  HN ES   2    735 28.47                             113     0.3 4  283 256 
 HEL  HZ I         735 34.96         7.1 0.17                           283 256 
 PRA  HZ EP   1    735  8.59                             106    -0.1 4  398 211 
 PRA  HN ES   2    735 49.96                             106    -1.0 3  398 211 
 PRA  HZ I         735 58.57        11.7 0.33                           398 211 
                                                                                
