 2013  417 0817  4.2 L   6.826 -73.150148.7  RSN 18 0.4 2.2LRSN                1
 GAP= 65        0.93       2.7     3.3  4.2 -0.4338E+00  0.2826E+01  0.1030E+01E
 Epicentro: LOS SANTOS - SANTANDER                                             3
 ACTION:UPD 13-05-22 14:39 OP:EP   STATUS:               ID:20130417081704 L   I
 2013-04-17-0810-00M.COL___250                                                 6
 STAT SP IPHASW D HRMM SECON CODA AMPLIT PERI AZIMU VELO AIN AR TRES W  DIS CAZ7
 BAR2 SZ IP     C  817 24.17                             170   -0.0910 26.1 188 
 BAR2 SZ ES        817 39.40                             170   -0.4910 26.1 188 
 BAR2 SZ I         817 40.83       120.1 0.26            166           26.1 188 
 GIR2 SZ IP     D  817 24.29                             169    0.1210 28.3 350 
 GIR2 SZ ES        817 39.84                             169    0.1210 28.3 350 
 GIR2 SZ I         817 40.54        23.8 0.13            171           28.3 350 
 BRR  HZ EP     C  817 26.04                             154    0.4510 69.4 297 
 BRR  HN ES   1    817 43.14                             154    0.89 7 69.4 297 
 BRR  HZ I         817 47.02        30.6 0.18            153           69.4 297 
 PAM  SZ EP        817 26.95                             152    0.3110 75.5  41 
 PAM  SN ES   1    817 44.38                             152    0.26 7 75.5  41 
 PAM  SZ I         817 45.01        13.3 0.18            152           75.5  41 
 RUS  HZ EP        817 28.04                             143   -0.4310  104 176 
 RUS  HN ES   1    817 46.70                             143   -0.68 7  104 176 
 RUS  HZ I         817 48.09        14.6 0.24            140            104 176 
 PTB  HZ EP        817 30.93                             133   -0.51 9  148 258 
 PTB  HN ES   1    817 52.33                             133   -0.34 7  148 258 
 PTB  HZ I         817 53.94        21.9 0.14            130            148 258 
 TAM  HZ EP        817 32.53                             131    0.28 9  156 106 
 TAM  HN ES   1    817 54.06                             131   -0.04 7  156 106 
 OCA  HZ EP        817 32.45                             131   -0.04 9  157 353 
 OCA  HN ES   1    817 54.14                             131   -0.39 7  157 353 
 OCA  HZ I         817 57.53        19.5 0.22            130            157 353 
 YOP  SZ EP        817 34.96                             126    0.21 9  182 154 
 YOP  SZ I         817 59.57        13.6 0.30            124            182 154 
 NOR  HZ EP        817 40.18                             119   -0.08 8  236 234 
 NOR  HN ES   1    818  8.90                             119    0.53 6  236 234 
 NOR  HZ I         818 13.49        10.4 0.20            117            236 234 
 SML  HZ EP        817 40.53                             118   -0.18 8  241 335 
 SML  HN ES   2    818  9.00                             118   -0.16 4  241 335 
 SML  HZ I         818 11.70                             117            241 335 
 CHI  HZ EP        817 42.54                             117    0.17 8  251 195 
 CHI  HN ES   1    818 11.73                             117   -0.40 6  251 195 
 CHI  HZ I         818 15.19        10.6 0.46            115            251 195 
 ROSC BZ EP        817 43.98                             117    1.23 8  255 211 
 ROSC BN ES   4    818 14.03                             117    1.24 0  255 211 
 ROSC BZ I         818 18.62        24.0 0.50            115            255 211 
 HEL  HZ EP        817 44.49                             115   -0.12 8  272 255 
 HEL  HN ES   1    818 16.32                             115    0.20 6  272 255 
 HEL  HZ I         818 22.14         9.1 0.32            113            272 255 
 URE  HZ EP        817 45.11                             114   -0.15 7  282 291 
 URE  HN ES   4    818 12.50                             114   -4.78 0  282 291 
 URE  HZ I         818 22.53        10.3 0.12            113            282 291 
 COD  HZ EP        817 51.68                             109   -0.70 7  345 355 
 COD  HN ES   1    818 29.82                             109   -0.12 5  345 355 
 PRA  HZ EP        817 57.76                             107   -0.35 6  394 209 
 PRA  HN ES   4    818 39.11                             107   -1.04 0  394 209 
 PRA  HZ I         818 46.32        10.9 0.36            105            394 209 
 SJC  HZ EP   4    817 58.41                             106   -1.15 0  407 327 
 SJC  HN ES   4    818 41.52                             106   -1.21 0  407 327 
 SJC  HZ I         818 43.46         2.9 0.30            105            407 327 
                                                                                
