 2017  317 0119 48.3 L   6.824 -73.327124.9  RSN  6 0.4 1.4LRSN                1
 GAP=104        0.99       4.8     4.3  7.3 -0.1363E+01  0.3502E+01  0.2493E+01E
 Epicentro: ZAPATOCA - SANTANDER                                               3
 ACTION:UPD 17-05-25 18:41 OP:jn   STATUS:               ID:20170317011948 L   I
 OLDACT:REG 17-03-17 13:08 OP:cog  STATUS:               ID:20170317011747     3
 2017-03-17-0118-00M.COL___409                                                 6
 STAT SP IPHASW D HRMM SECON CODA AMPLIT PERI AZIMU VELO AIN AR TRES W  DIS CAZ7
 BAR2 EZ EP        120  5.73                             166    0.0710 30.2 148 
 BAR2 EZ ES        120 19.09                             166   -0.0710 30.2 148 
 BAR2 EZ I         120 20.16        17.5 0.28            166           30.2 148 
 BRR  HZ EP        120  6.25                             156    0.0310 52.8 306 
 BRR  HN ES        120 19.79                             156   -0.3710 52.8 306 
 BRR  HZ I         120 20.88        13.0 0.46            156           52.8 306 
 PAM  EZ EP        120  9.21                             142   -0.0510 89.7  51 
 PAM  EN ES        120 25.81                             142    0.2410 89.7  51 
 PAM  EZ I         120 27.39         4.3 0.28            144           89.7  51 
 RUS  HZ EP        120 10.95                             137    0.3610  107 165 
 RUS  HN ES        120 27.77                             137   -0.1710  107 165 
 RUS  HZ I         120 29.39         1.5 0.18            138            107 165 
 PTB  HZ EP        120 11.10                             131   -0.7910  129 256 
 PTB  HN ES        120 30.93                             131    0.6710  129 256 
 PTB  HZ I         120 33.05         3.3 0.34            132            129 256 
 ZAR  HE ES   3    120 41.61                             120    1.49 2  185 294 
                                                                                
