 2011  517 0729 25.0 L   6.785 -73.097147.6  RSN  4 0.1 1.5LRSN                1
 GAP=144        0.33       2.5     3.8  4.6 -0.1603E+01 -0.5693E+01  0.1623E+01E
 Epicentro: LOS SANTOS - SANTANDER                                             3
 ACTION:UP  11-06-29 08:54 OP:tino STATUS:               ID:20110517072541 L   I
 2011-05-17-0725-41S.COL___141                                                 6
 STAT SP IPHASW D HRMM SECON CODA AMPLIT PERI AZIMU VELO SNR AR TRES W  DIS CAZ7
 PAM  SZ EP   1    729 47.39                             152     0.1 7   75  36 
 PAM  SE ES   2    730  4.61                             152    -0.1 5   75  36 
 BRR  HZ EP   1    729 46.50                             151    -0.2 7   77 298 
 BRR  HE ES   1    730  3.67                             151     0.1 7   77 298 
 BRR  HZ I         730  5.13         9.6 0.24                            77 298 
 RUS  HZ EP   1    729 48.83                             145     0.0 7   99 179 
 RUS  HN ES   2    730  7.36                             145     0.0 5   99 179 
 RUS  HZ I         730  8.69         3.9 0.36                            99 179 
 GRA  SZ EP   1    729 50.51                             137     0.1 7  126  15 
 GRA  SZ ES   2    730 10.14                             137    -0.1 5  126  15 
 GRA  SZ I         730 12.12         2.8 0.52                           126  15 
                                                                                
