 2011 1117 0338 49.9 L   6.773 -73.114142.0  RSN  5 0.2 1.4LRSN                1
 GAP=142        0.49       3.4     4.1  5.5  0.1940E+01  0.2085E+01  0.7807E+00E
 Epicentro: LOS SANTOS - SANTANDER                                             3
 ACTION:UPD 12-07-13 16:10 OP:ep   STATUS:               ID:20111117033849 L   I
 2011-11-17-0337-04S.COL___179                                                 6
 STAT SP IPHASW D HRMM SECON CODA AMPLIT PERI AZIMU VELO AIN AR TRES W  DIS CAZ7
 BAR2 SZ EP        339  8.96                             171   -0.0910 21.4 201 
 BAR2 SZ I         339  9.10         8.4 0.19                          21.4 201 
 BAR2 SZ ES   2    339 23.42                             171   -0.56 5 21.4 201 
 BRR  HZ EP        339 10.86                             150   -0.0610 75.6 299 
 BRR  HZ I         339 11.32        10.1 0.10                          75.6 299 
 BRR  HE ES   1    339 27.58                             150    0.28 7 75.6 299 
 PAM  SZ EP   1    339 12.02                             150    0.28 7 77.6  36 
 PAM  SE ES   1    339 28.68                             150   -0.09 7 77.6  36 
 PAM  SZ I         339 31.26         2.7 0.43                          77.6  36 
 RUS  HZ EP   1    339 12.92                             144   -0.15 7 97.5 178 
 RUS  HZ I         339 13.80         2.0 0.11                          97.5 178 
 RUS  HE ES   1    339 31.40                             144    0.27 7 97.5 178 
 ZAR  HE ES   2    339 47.83                             121   -0.20 4  208 293 
                                                                                
