 2015  117 0441 11.0 L   6.536 -73.602113.8  RSN  5 0.5 1.3LRSN                1
 GAP= 93        1.38       7.9     6.6 13.0 -0.5935E+01  0.2358E+01  0.4720E+02E
 Epicentro: EL CARMEN - SANTANDER                                              3
 ACTION:UPD 15-03-02 15:40 OP:nd   STATUS:               ID:20150117044111 L   I
 OLDACT:REG 15-01-17 14:05 OP:carl STATUS:               ID:20150117043745     3
 2015-01-17-0437-45M.COL___265                                                 6
 STAT SP IPHASW D HRMM SECON CODA AMPLIT PERI AZIMU VELO AIN AR TRES W  DIS CAZ7
 BAR2 EZ EP        441 27.44                             156   -0.2210 46.8  82 
 BAR2 EZ ES        441 40.44                             156   -0.2410 46.8  82 
 BRR  HN ES        441 42.56                             148    0.7310 64.3 349 
 RUS  HZ EP        441 30.58                             139   -0.3910 91.5 141 
 RUS  HZ I         441 47.59         1.4 0.52            125           91.5 141 
 PTB  HZ EP        441 30.17                             137   -0.3910 94.5 270 
 PTB  HN ES        441 45.24                             137   -0.6110 94.5 270 
 PTB  HZ I         441 46.63         5.8 0.18            133           94.5 270 
 SPBC HZ EP        441 33.02                             132    0.9510  111 208 
 SPBC HN ES        441 48.74                             132    0.2010  111 208 
 SPBC HZ I         441 52.89         7.3 0.20            123            111 208 
                                                                                
