 2011  717 0740 41.2 L   6.814 -73.034147.3  RSN  7 0.3 1.8LRSN                1
 GAP=168        0.58       2.6     7.9  4.8  0.5759E+00 -0.9530E+01  0.4490E+00E
 Epicentro: CEPITA - SANTANDER                                                 3
 ACTION:UPD 12-07-25 14:01 OP:epov STATUS:               ID:20110717074041 L   I
 2011-07-17-0739-21S.COL___143                                                 6
 STAT SP IPHASW D HRMM SECON CODA AMPLIT PERI AZIMU VELO AIN AR TRES W  DIS CAZ7
 BAR2 SZ EP   1    741  1.15                             168    0.03 7 29.5 214 
 BAR2 SZ ES   1    741 16.29                             168   -0.39 7 29.5 214 
 BAR2 SZ I         741 17.65        26.5 0.21                          29.5 214 
 GIR2 SZ EP   1    741  1.39                             166    0.28 7 34.2 329 
 GIR2 SZ ES   1    741 16.82                             166    0.17 7 34.2 329 
 BRR  HZ EP   1    741  2.99                             149   -0.11 7 81.6 293 
 BRR  HE ES   1    741 20.31                             149    0.11 7 81.6 293 
 BRR  HZ I         741 21.94         9.8 0.13                          81.6 293 
 RUS  HZ EP   1    741  5.16                             144   -0.01 7  102 183 
 RUS  HE ES   1    741 24.07                             144    0.18 7  102 183 
 RUS  HZ I         741 25.50         9.8 0.44                           102 183 
 BRI  SZ EP   1    741  4.69                             143   -0.13 7  103  15 
 OCA  SZ EP   1    741 10.18                             130    0.54 7  161 349 
 OCA  SZ ES   1    741 31.45                             130   -0.40 7  161 349 
 OCA  SZ I         741 36.34         6.9 0.26                           161 349 
 CHI  HZ EP   1    741 18.89                             117   -0.60 6  254 198 
 CHI  HN ES   1    741 49.60                             117    0.22 6  254 198 
 CHI  HZ I         741 56.62         3.3 0.57                           254 198 
                                                                                
