 2013  817 0442 21.0 L   6.794 -73.134134.0  RSN  6 0.6 1.5LRSN 1.9WRSN        1
 SPEC AVERAGE  MO 12.0 ST0.358 OM  0.7 f0 6.42 R0.2466 AL 0.00 WI 20.0 MW  1.9 3
 SPEC SD       MO  0.3 ST0.220 OM  0.4 f00.833 R0.0349 AL      WI      MW  0.2 3
 GAP=138        1.63       7.7     7.0 11.0  0.5051E+01  0.2167E+02 -0.3451E+01E
 Epicentro: LOS SANTOS - SANTANDER                                             3
 SPEC BRR HH Z MO 12.2 ST0.257 OM  0.6 f0 5.26 R0.2954 AL-0.00 WI 20.0 MW  2.1 3
 SPEC BRR HH Z T 44256 K 0.000 GD  152 VS 4.20 DE 3.20 Q0300.0 QA 0.60 VS 4.20 3
 SPEC RUS HH Z MO 11.6 ST0.154 OM  0.0 f0 6.82 R0.2279 AL-0.00 WI 20.0 MW  1.7 3
 SPEC RUS HH Z T 44260 K 0.000 GD  167 VS 4.20 DE 3.20 Q0300.0 QA 0.60 VS 4.20 3
 SPEC ZAR HH Z MO 12.2 ST0.663 OM  0.4 f0 7.18 R0.2164 AL-0.00 WI 20.0 MW  2.1 3
 SPEC ZAR HH Z T 44316 K 0.000 GD  244 VS 4.20 DE 3.20 Q0300.0 QA 0.60 VS 4.20 3
 2013-08-17-0438-46M.COL___216                                                 6
 OLDACT:REG 13-08-17 08:28 OP:stll STATUS:               ID:20130817043846     3
 ACTION:UPD 14-01-14 09:03 OP:ep   STATUS:               ID:20130817044221 L   I
 OLDACT:UP  13-08-17 13:19 OP:stll STATUS:               ID:20130817043846     3
 STAT SP IPHASW D HRMM SECON CODA AMPLIT PERI AZIMU VELO AIN AR TRES W  DIS CAZ7
 BAR2 SZ EP        442 39.08                             170   -0.1010 23.0 193 
 BAR2 SZ ES        442 53.48                             170    0.0910 23.0 193 
 BAR2 SZ I         442 56.06         4.4 0.28            171           23.0 193 
 BRR  HZ EP        442 41.05                             150    0.1010 72.6 298 
 BRR  HN ES        442 57.63                             150    1.1010 72.6 298 
 BRR  SZ I         443  3.24         8.8 3.08            149           72.6 298 
 PAM  SZ EP        442 41.95                             149    0.0210 77.1  39 
 PAM  SN ES        442 57.48                             149   -0.8010 77.1  39 
 PAM  SZ I         443  1.09         3.9 0.62            152           77.1  39 
 RUS  HZ EP        442 43.61                             141    0.0810 99.9 177 
 RUS  HN ES        443  1.56                             141    0.4310 99.9 177 
 PTB  HZ EP        442 46.56                             129   -0.55 9  149 259 
 PTB  HN ES        443  6.18                             129   -1.32 9  149 259 
 PTB  SZ I         443 12.93         5.4 1.64            131            149 259 
 ZAR  HZ EP        442 53.76                             120    0.93 8  205 292 
 ZAR  HN ES        443 17.72                             120    0.04 8  205 292 
 ZAR  SZ I         443 21.82         4.4 2.04            122            205 292 
                                                                                
