 2015 1017 0852 36.7 L   6.801 -73.120142.0  RSN  9 0.4 1.4LRSN                1
 GAP=140        0.93       2.7     4.2  5.3 -0.1729E+00  0.7306E+01  0.6087E+00E
 Epicentro: LOS SANTOS - SANTANDER                                             3
 ACTION:UPD 15-12-22 20:40 OP:cam  STATUS:               ID:20151017085236 L   I
 OLDACT:UP  15-11-01 03:29 OP:DRIO STATUS:               ID:20151017085236 L   3
 OLDACT:REG 15-10-17 13:00 OP:ak   STATUS:               ID:20151017084735     3
 2015-10-17-0847-35M.COL___337                                                 6
 STAT SP IPHASW D HRMM SECON CODA AMPLIT PERI AZIMU VELO AIN AR TRES W  DIS CAZ7
 BAR2 EZ EP        852 55.93                             170    0.0810 24.1 197 
 BAR2 EZ ES        853 10.76                             170   -0.0510 24.1 197 
 BAR2 EZ I         853 13.02         5.0 0.18            171           24.1 197 
 BRR  HZ IP     C  852 57.75                             151    0.2110 73.7 297 
 BRR  HN ES        853 13.87                             151    0.0410 73.7 297 
 BRR  HZ I         853 15.95         3.5 0.09            150           73.7 297 
 PAM  EZ EP        852 58.91                             151    0.5610 75.5  38 
 PAM  EN ES        853 15.58                             151    0.3010 75.5  38 
 PAM  EZ I         853 17.56         3.7 0.16            153           75.5  38 
 RUS  HZ EP        852 59.82                             143   -0.2110  101 178 
 RUS  HN ES        853 17.98                             143   -0.2910  101 178 
 RUS  HZ I         853 20.81         2.3 0.18            146            101 178 
 SPBC HZ EP        853  4.70                             128   -0.35 9  165 220 
 SPBC HN ES        853 27.24                             128    0.04 9  165 220 
 SPBC HZ I         853 30.58         3.2 0.12            130            165 220 
 ZAR  HZ EP        853  9.44                             121    0.31 8  207 292 
 ZAR  HN ES        853 34.33                             121   -0.12 8  207 292 
 ZAR  HZ I         853 39.77         3.2 0.40            122            207 292 
 SML  HZ EP        853 12.34                             117   -0.85 8  245 335 
 SML  HN ES        853 41.16                             117   -0.53 8  245 335 
 SML  HZ I         853 48.42         3.2 0.11            118            245 335 
 CHI  HZ EP        853 14.52                             116    0.28 8  250 196 
 CHI  HE ES        853 42.94                             116   -0.62 8  250 196 
 GUY2CHZ EP   1    853 21.16                             111    0.80 5  304 235 
 GUY2CHN ES        853 55.09                             111    0.63 7  304 235 
 GUY2CHZ I         854  4.32         1.1 0.44                           304 235 
                                                                                
