 2015  417 0925 32.5 L   6.412 -73.762 96.0  RSN  4 0.4 0.9LRSN                1
 GAP=153        0.81       7.6     4.7 11.3  0.1921E+02  0.1358E+02 -0.1807E+02E
 Epicentro: SANTA HELENA DEL OPON - SANTANDER                                  3
 ACTION:UPD 15-06-03 16:55 OP:cam  STATUS:               ID:20150417092532 L   I
 OLDACT:DUP 15-04-17 13:41 OP:spq  STATUS:               ID:20150417091751d    3
 2015-04-17-0917-50M.COL___269                                                 6
 STAT SP IPHASW D HRMM SECON CODA AMPLIT PERI AZIMU VELO AIN AR TRES W  DIS CAZ7
 BAR2 EZ EP   1    925 48.24                             143   -0.36 7 67.1  73 
 BAR2 EZ ES   1    926  0.96                             143   -0.18 7 67.1  73 
 BAR2 EZ I         926  2.06         4.7 0.20            148           67.1  73 
 PTB  HZ EP        925 48.81                             138   -0.3410 78.1 280 
 PTB  HN ES   1    926  1.94                             138   -0.19 7 78.1 280 
 PTB  HZ I         926  4.70         1.6 0.09            140           78.1 280 
 RUS  HN ES   1    926  6.44                             133    0.61 7 94.5 127 
 RUS  HZ I         926  8.51         1.0 0.16            136           94.5 127 
 ZAR  HZ EP   1    925 58.44                             115    0.01 7  170 315 
 ZAR  HE ES        926 19.14                             115    0.50 9  170 315 
 ZAR  HZ I         926 21.15         1.3 0.12            117            170 315 
                                                                                
