 2010  417 0526  7.7 L   6.834 -72.965146.0  RSN  7 0.6 2.3LRSN                1
 GAP=269        1.42       9.1    13.9 10.5  0.1848E+01  0.1593E+02  0.4751E+02E
 Epicentro: CEPITA - SANTANDER                                                 3
 ACTION:UPD 10-08-24 09:59 OP:vdl  STATUS:               ID:20100417052619 L   I
 2010-04-17-0522-20S.COL___100                                                 6
 STAT SP IPHASW D HRMM SECON CODA AMPLIT PERI AZIMU VELO AIN AR TRES W  DIS CAZ7
 BAR2 SZ EP        526 28.00                             165     0.310   36 222 
 BAR2 SZ ES        526 42.62                             165    -0.710   36 222 
 BRR  HZ EP        526 30.20                             147     0.310   88 290 
 BRR  HN ES        526 47.33                             147     0.110   88 290 
 BRR  HZ I         526 51.49        20.8 1.15                            88 290 
 CHI  HZ EP        526 46.23                             116    -0.2 8  258 199 
 CHI  HN ES   1    527 16.44                             116    -0.2 6  258 199 
 CHI  HZ I         527 19.30         8.0 1.14                           258 199 
 ROSC BZ EP        526 48.47                             115     1.1 8  267 214 
 ROSC BN ES   1    527 19.18                             115     0.9 6  267 214 
 ROSC BZ I         527 22.64        13.8 0.11                           267 214 
 RREF BZ EP   1    526 56.05                             109     0.1 5  340 231 
 RREF BN ES        527 33.21                             109    -0.3 7  340 231 
 RREF BZ I         527 35.27         8.8 0.76                           340 231 
 DBB  SZ EP   1    526 56.14                             108    -1.3 5  359 273 
 PRA  HZ EP        527  1.79                             106    -1.0 6  405 212 
 PRA  HZ I         527 50.17         9.5 0.65                           405 212 
                                                                                
