 2012 1217 0532  0.8 L   6.780 -73.153145.0  RSN  9 0.3 2.3LRSN                1
 GAP= 99        0.78       3.5     2.8  4.9  0.9922E+00  0.1706E+01  0.3673E+01E
 Epicentro: LOS SANTOS - SANTANDER                                             3
 ACTION:UPD 13-01-04 14:28 OP:ep   STATUS:               ID:20121217053200 L   I
 2012-12-17-0530-00M.COL___238                                                 6
 STAT SP IPHASW D HRMM SECON CODA AMPLIT PERI AZIMU VELO AIN AR TRES W  DIS CAZ7
 BAR2 SZ IP        532 20.33                             171    0.0610 21.0 189 
 BAR2 SZ ES        532 35.30                             171   -0.1710 21.0 189 
 BAR2 SZ I         532 36.76        76.2 0.28                          21.0 189 
 BRR  HZ IP     C  532 22.13                             152    0.2610 71.6 300 
 BRR  HN ES        532 39.00                             152    0.6910 71.6 300 
 BRR  HZ I         532 42.51        35.4 0.12                          71.6 300 
 PAM  SZ EP        532 23.15                             150    0.1110 79.6  39 
 PAM  SZ I         532 23.42        32.4 0.23                          79.6  39 
 PAM  SN ES        532 40.02                             150   -0.3910 79.6  39 
 RUS  HZ EP        532 24.39                             144    0.0910 98.4 176 
 RUS  HN ES        532 42.50                             144   -0.1510 98.4 176 
 RUS  HN I         532 44.46        41.1 0.20                          98.4 176 
 PTB  HZ EP        532 26.93                             132   -0.65 9  147 260 
 PTB  HE ES        532 48.38                             132   -0.10 9  147 260 
 PTB  HZ I         532 55.63        30.5 0.41                           147 260 
 TAM  HZ EP   1    532 28.50                             130    0.09 7  155 104 
 TAM  HZ I         532 49.35        12.6 0.38                           155 104 
 TAM  HE ES   1    532 50.14                             130    0.17 7  155 104 
 ZAR  HE ES        532 58.24                             122   -0.22 9  204 293 
 ZAR  HZ I         533  3.49        16.7 0.39                           204 293 
 CHI  HZ EP   1    532 38.43                             117    0.25 6  246 195 
 PRA  HZ EP   1    532 54.05                             106    0.05 4  390 210 
 PRA  HN ES   1    533 35.99                             106    0.47 4  390 210 
 PRA  HZ I         533 43.61        11.2 0.28                           390 210 
                                                                                
