 2011  317 0615 48.0 L   6.829 -73.198135.8  RSN  7 0.2 2.0LRSN                1
 GAP=153        0.55       2.3     5.5  4.4 -0.5448E+01  0.7593E+01 -0.4572E+00E
 Epicentro: ZAPATOCA - SANTANDER                                               3
 ACTION:UP  11-06-16 14:34 OP:jfem STATUS:               ID:20110317061548 L   I
 2011-03-17-0614-01S.COL___138                                                 6
 STAT SP IPHASW D HRMM SECON CODA AMPLIT PERI AZIMU VELO SNR AR TRES W  DIS CAZ7
 BTL  SZ EP   1    616  6.64                             174     0.4 7   13 322 
 BTL  SZ ES   1    616 20.55                             174     0.1 7   13 322 
 BAR2 SZ EP   1    616  6.59                             168     0.1 7   26 177 
 BAR2 SZ ES   1    616 20.69                             168    -0.2 7   26 177 
 BAR2 SZ I         616 22.68        36.5 0.30                            26 177 
 RUS  HZ EP   1    616 10.75                             141    -0.3 7  104 173 
 RUS  HN ES   1    616 28.91                             141    -0.1 7  104 173 
 RUS  HZ I         616 31.56        14.8 0.30                           104 173 
 GRA  SZ EP   1    616 12.31                             135     0.1 7  125  20 
 GRA  SZ ES   1    616 31.50                             135     0.3 7  125  20 
 GRA  SZ I         616 32.69         9.8 0.30                           125  20 
 OCA  SZ EP   1    616 14.93                             128    -0.2 7  156 355 
 OCA  SZ ES   1    616 36.10                             128    -0.3 7  156 355 
 OCA  SZ I         616 39.65        18.7 0.20                           156 355 
 NOR  SZ EP   1    616 22.99                             117     0.1 6  232 233 
 NOR  SN ES   1    616 50.07                             117     0.0 6  232 233 
 CHI  HZ EP   1    616 25.15                             115    -0.2 6  250 194 
 CHI  HN ES   1    616 54.87                             115     0.4 6  250 194 
 CHI  HZ I         617  1.18         5.2 0.46                           250 194 
                                                                                
