 2011 1117 0340 27.4 L   7.221 -73.283119.8  RSN  5 0.3 1.6LRSN                1
 GAP=159        0.57       4.6     4.1  7.7  0.7177E+01  0.1209E+02  0.6490E+01E
 Epicentro: LEBRIJA - SANTANDER                                                3
 ACTION:UPD 12-07-13 16:10 OP:ep   STATUS:               ID:20111117034027 L   I
 2011-11-17-0337-04S.COL___179                                                 6
 STAT SP IPHASW D HRMM SECON CODA AMPLIT PERI AZIMU VELO AIN AR TRES W  DIS CAZ7
 BRR  HZ EP        340 44.20                             156   -0.3210 49.0 255 
 BRR  HZ I         340 44.44        14.6 0.13                          49.0 255 
 BRR  HE ES   1    340 57.66                             156   -0.21 7 49.0 255 
 PAM  SN ES   1    341  0.94                             150    0.14 7 65.8  78 
 BAR2 SZ ES   1    341  0.91                             148    0.23 7 70.4 171 
 BAR2 SZ I         341  2.29        17.4 0.39                          70.4 171 
 RUS  HZ EP   2    340 53.31                             126    0.22 5  149 171 
 RUS  HE ES   1    341 13.07                             126   -0.06 7  149 171 
 ZAR  HN ES   1    341 17.57                             120    0.47 7  176 280 
 ZAR  HZ I         341 19.78         2.6 0.28                           176 280 
                                                                                
