 2016 1017 0837 11.7 L   6.811 -73.170145.8  RSN  7 0.3 1.6LRSN                1
 GAP=133        0.87       3.8     4.4  5.6 -0.1907E+01  0.3295E+01  0.6374E+01E
 Epicentro: LOS SANTOS - SANTANDER                                             3
 ACTION:UPD 16-11-09 19:20 OP:rebc STATUS:               ID:20161017082732 L   I
 OLDACT:UPD 16-10-19 19:41 OP:nlst STATUS:               ID:20161017082732 L   3
 2016-10-17-0828-00M.COL___343                                                 6
 STAT SP IPHASW D HRMM SECON CODA AMPLIT PERI AZIMU VELO AIN AR TRES W  DIS CAZ7
 BAR2 EZ EP        837 31.24                             170   -0.1510 24.2 183 
 BAR2 EZ ES        837 46.35                             170   -0.3710 24.2 183 
 BAR2 EZ I         837 47.71         8.9 0.16            164           24.2 183 
 BRR  HZ I         837 32.80         7.7 0.24            156           68.2 299 
 BRR  HZ IP     C  837 32.96                             153    0.2410 68.2 299 
 BRR  HN ES        837 49.69                             153    0.5910 68.2 299 
 PAM  EZ EP        837 34.16                             150    0.1510 78.3  42 
 PAM  EZ ES        837 51.36                             150   -0.0210 78.3  42 
 PAM  EE ES        837 51.41                                           78.3  42 
 PAM  EZ I         837 53.10         7.4 0.40            147           78.3  42 
 RUS  HZ EP        837 35.43                             143   -0.1610  102 175 
 RUS  HN ES        837 54.11                             143   -0.0910  102 175 
 RUS  HZ I         837 54.71         6.9 0.24            136            102 175 
 PTB  HZ EP        837 37.99                             132   -0.49 9  145 258 
 PTB  HN ES        837 59.01                             132   -0.34 9  145 258 
 PTB  HZ I         838  5.61         6.9 0.32            130            145 258 
 SPBC HZ EP        837 40.22                             129    0.06 9  162 218 
 CHI  HZ EP        837 49.49                             117    0.01 8  249 194 
 CHI  HN ES        838 19.71                             117    0.78 8  249 194 
                                                                                
