 2010  517 0745 17.6 L   6.839 -72.945138.1  RSN  4 0.3 1.4LRSN                1
 GAP=223        0.86       8.3    13.0 12.2  0.1686E+02 -0.8041E+02 -0.5403E+02E
 Epicentro: CEPITA - SANTANDER                                                 3
 ACTION:UP  10-08-24 10:05 OP:vdl  STATUS:               ID:20100517074517 L   I
 2010-05-17-0743-34S.COL___108                                                 6
 STAT SP IPHASW D HRMM SECON CODA AMPLIT PERI AZIMU VELO AIN AR TRES W  DIS CAZ7
 BAR2 SZ EP        745 36.72                             164     0.010   38 224 
 BAR2 SZ ES   1    745 51.37                             164    -0.3 7   38 224 
 BRR  HZ EP        745 39.14                             145     0.010   90 289 
 BRR  HN ES   1    745 56.23                             145     0.3 7   90 289 
 BRR  HZ I         745 57.82         4.9 0.14                            90 289 
 GUE  SZ EP        745 41.64                             139     0.510  110   1 
 OCA  SZ EP        745 44.90                             128    -0.5 9  160 345 
 OCA  SZ ES   2    746  6.74                             128    -0.2 5  160 345 
 OCA  SZ I         746 11.69         2.3 0.45                           160 345 
                                                                                
