 2012 1117 0855 19.9 L   6.821 -73.117145.6  RSN  8 0.5 1.5LRSN                1
 GAP=139        0.86       4.6     5.4  7.4  0.9095E+00  0.1236E+02 -0.6072E+01E
 Epicentro: LOS SANTOS - SANTANDER                                             3
 ACTION:UPD 12-12-05 15:33 OP:}ep  STATUS:               ID:20121117085519 L   I
 2012-11-17-0850-00M.COL___233                                                 6
 STAT SP IPHASW D HRMM SECON CODA AMPLIT PERI AZIMU VELO AIN AR TRES W  DIS CAZ7
 BAR2 SZ EP   1    855 39.43                             169   -0.11 7 26.3 196 
 BAR2 SZ ES   1    855 54.83                             169   -0.05 7 26.3 196 
 BAR2 SZ I         855 56.69         7.6 0.28                          26.3 196 
 GIR2 SZ EP   1    855 39.72                             168    0.25 7 29.7 344 
 GIR2 SZ ES   1    855 54.39                             168   -0.38 7 29.7 344 
 BRR  HZ EP   1    855 41.58                             152    0.49 7 72.9 296 
 BRR  HE ES   4    855 58.41                             152    0.77 0 72.9 296 
 PAM  SZ EP   1    855 42.33                             152    0.49 7 73.6  39 
 PAM  SN ES   1    855 59.26                             152    0.29 7 73.6  39 
 PAM  SZ I         856  1.36         6.2 0.56                          73.6  39 
 RUS  HZ EP   1    855 43.79                             143    0.03 7  103 178 
 RUS  HN ES   1    856  1.95                             143   -0.44 7  103 178 
 RUS  HZ I         856  3.54         2.7 0.38                           103 178 
 PTB  HZ EP   1    855 46.69                             131   -0.45 7  151 258 
 PTB  HN ES   1    856  8.49                             131    0.08 7  151 258 
 PTB  HZ I         856 10.67         4.3 0.10                           151 258 
 ZAR  HE ES   1    856 18.84                             122    0.87 6  206 291 
 SML  HZ EP   1    855 55.95                             117   -0.44 6  243 334 
 SML  HN ES   1    856 23.91                             117   -0.97 6  243 334 
 SML  HZ I         856 28.50         3.5 0.10                           243 334 
                                                                                
