 2017  117 0748  8.6 L   6.774 -73.143150.1  RSN  4 0.2 1.0LRSN                1
 GAP=236        0.56       4.5     4.3  4.5  0.9706E+01  0.1259E+01 -0.1066E+00E
 Epicentro: LOS SANTOS - SANTANDER                                             3
 ACTION:UPD 17-05-22 16:00 OP:jn   STATUS:               ID:20170117074808 L   I
 OLDACT:DUP 17-01-17 17:52 OP:dani STATUS:               ID:20170117073746d    3
 OLDACT:DUP 17-01-17 17:50 OP:dani STATUS:               ID:20170117073745d    3
 OLDACT:UP  17-01-17 17:50 OP:dani STATUS:               ID:20170117073744     3
 OLDACT:UP  17-01-17 17:49 OP:dani STATUS:               ID:20170117073744     3
 OLDACT:REG 17-01-17 13:14 OP:dani STATUS:               ID:20170117073744     3
 2017-01-17-0738-00M.COL___323                                                 6
 STAT SP IPHASW D HRMM SECON CODA AMPLIT PERI AZIMU VELO AIN AR TRES W  DIS CAZ7
 BAR2 EZ EP        748 28.80                             172    0.0710 20.5 192 
 BAR2 EZ ES        748 44.03                             172   -0.3810 20.5 192 
 BAR2 EZ I         748 45.22         2.8 0.15            166           20.5 192 
 BRR  HZ EP        748 30.43                             153    0.0910 72.9 300 
 BRR  HN ES        748 47.49                             153    0.2110 72.9 300 
 BRR  HZ I         748 49.95         2.7 0.38            149           72.9 300 
 RUS  HZ EP        748 32.60                             145   -0.0010 97.6 176 
 RUS  HN ES        748 51.52                             145    0.2210 97.6 176 
 RUS  HZ I         748 52.66         0.8 0.38            145           97.6 176 
 PTB  HZ EP        748 35.69                             133   -0.24 9  148 260 
 PTB  HN ES        748 57.23                             133    0.00 9  148 260 
 PTB  HZ I         749  3.21         0.8 0.12            131            148 260 
                                                                                
