 2013 1017 0956 16.3 L   6.762 -73.221145.2  RSN  5 0.2 1.3LRSN                1
 GAP=222        0.50       4.3     4.9  5.6  0.1181E+02  0.3063E+01 -0.1433E+01E
 Epicentro: ZAPATOCA - SANTANDER                                               3
 ACTION:UPD 13-11-25 09:22 OP:ep   STATUS:               ID:20131017095616 L   I
 OLDACT:REG 13-10-17 08:56 OP:jn   STATUS:               ID:20131017094837d    3
 2013-10-17-0948-36M.COL___223                                                 6
 STAT SP IPHASW D HRMM SECON CODA AMPLIT PERI AZIMU VELO AIN AR TRES W  DIS CAZ7
 BAR2 SZ EP   1    956 35.46                             172   -0.28 7 19.3 167 
 BRR  HZ EP        956 37.41                             154    0.3410 66.3 305 
 BRR  HN ES        956 53.23                             154   -0.0810 66.3 305 
 BRR  HZ I         957  0.74         5.4 0.34            154           66.3 305 
 RUS  HN ES        956 58.04                             145    0.0210 97.4 171 
 PTB  HZ EP        956 42.22                             134   -0.16 9  139 260 
 PTB  HN ES   1    957  2.85                             134    0.11 7  139 260 
 PTB  HZ I         957  5.37         1.8 0.34            139            139 260 
 ZAR  HE ES   2    957 12.67                             123   -0.17 4  198 294 
                                                                                
