 2012  517 0909 36.6 L   6.793 -73.149145.4  RSN 14 0.4 2.5LRSN                1
 GAP=136        0.82       2.9     4.1  5.6 -0.2033E+01  0.7426E+01  0.7830E+00E
 Epicentro: LOS SANTOS - SANTANDER                                             3
 ACTION:UP  12-07-05 12:05 OP:pat  STATUS:               ID:20120517090936 L   I
 2012-05-17-0908-59S.COL___207                                                 6
 STAT SP IPHASW D HRMM SECON CODA AMPLIT PERI AZIMU VELO SNR AR TRES W  DIS CAZ7
 BAR2 SZ EP        9 9 56.36                             171     0.210   22 189 
 BAR2 SZ ES   1    910 11.19                             171    -0.2 7   22 189 
 BAR2 SZ I         910 14.29        86.3 0.17                            22 189 
 BRR  HZ EP   1    9 9 58.24                             152     0.6 7   71 299 
 BRR  HZ I         910 20.14        60.6 0.16                            71 299 
 PAM  SZ EP   1    9 9 59.11                             150     0.3 7   78  39 
 PAM  SN ES   1    910 16.52                             150     0.4 7   78  39 
 RUS  HZ EP   1    910  0.18                             144     0.0 7  100 176 
 RUS  HN ES   1    910 18.26                             144    -0.4 7  100 176 
 RUS  HZ I         910 20.75        27.7 0.42                           100 176 
 PTB  HZ EP   1    910  2.91                             132    -0.5 7  147 259 
 PTB  HN ES   1    910 24.13                             132    -0.3 7  147 259 
 PTB  HZ I         910 30.15        35.7 0.38                           147 259 
 OCA  HZ EP   1    910  4.26                             129    -0.7 7  161 353 
 OCA  HN ES   1    910 27.16                             129     0.1 7  161 353 
 ZAR  HZ EP   1    910  8.95                             122     0.0 6  204 292 
 ZAR  HE ES   1    910 34.59                             122     0.3 6  204 292 
 ZAR  HZ I         910 40.73        37.5 0.22                           204 292 
 NOR  SZ EP   1    910 12.07                             118    -0.1 6  234 235 
 NOR  SN ES   1    910 39.33                             118    -0.6 6  234 235 
 CHI  HZ EP   1    910 14.27                             117     0.1 6  248 195 
 CHI  HZ I         910 52.21        18.0 0.37                           248 195 
 HEL  HZ EP   1    910 17.23                             115     0.5 6  272 256 
 HEL  HN ES   1    910 48.46                             115     0.5 6  272 256 
 HEL  HZ I         910 57.53        19.7 0.24                           272 256 
 VIL  SZ EP   1    910 20.07                             112     0.2 5  303 192 
 VIL  SE ES   1    910 53.57                             112    -0.1 5  303 192 
 RREF HZ EP   1    910 23.14                             111     0.5 5  321 229 
 RREF HZ I         911  4.98        26.9 0.29                           321 229 
 COD  HZ EP   1    910 24.15                             109    -0.9 5  349 355 
 COD  HN ES   1    911  2.24                             109    -0.6 5  349 355 
 PRA  HZ EP   1    910 29.85                             106    -0.1 4  391 210 
 PRA  HN ES   1    911 12.04                             106     0.4 4  391 210 
                                                                                
