 2014  817 0433 38.2 L   6.834 -73.132145.1  RSN 27 0.5 2.4LRSN                1
 GAP= 71        1.05       2.4     2.9  4.8 -0.3911E+00  0.3079E+01  0.1839E+01E
 Epicentro: LOS SANTOS - SANTANDER                                             3
 ACTION:UPD 14-09-15 21:50 OP:nd   STATUS:               ID:20140817043338 L   I
 OLDACT:REG 14-08-17 13:14 OP:spq  STATUS:               ID:20140817042810     3
 2014-08-17-0428-10M.COL___263                                                 6
 STAT SP IPHASW D HRMM SECON CODA AMPLIT PERI AZIMU VELO AIN AR TRES W  DIS CAZ7
 BAR2 SZ EP        433 57.69                             169   -0.1010 27.3 192 
 BAR2 SZ ES   1    434 12.46                             169   -0.64 7 27.3 192 
 BAR2 SZ I         434 13.56        42.0 0.30            168           27.3 192 
 BRR  HZ EP        433 59.38                             153    0.1810 70.8 295 
 BRR  HE ES        434 16.46                             153    0.8410 70.8 295 
 BRR  HZ I         434 19.75        60.9 0.14            151           70.8 295 
 PAM  SZ EP        434  0.65                             152    0.5810 73.5  41 
 PAM  SN ES   1    434 17.44                             152    0.28 7 73.5  41 
 PAM  SZ I         434 18.71        14.5 0.16            155           73.5  41 
 RUS  HZ EP        434  1.70                             143   -0.4110  104 177 
 RUS  HN ES   1    434 20.54                             143   -0.25 7  104 177 
 RUS  HZ I         434 22.72        29.3 0.28            144            104 177 
 PTB  HZ EP        434  4.50                             131   -0.76 9  150 258 
 PTB  HN ES        434 25.93                             131   -0.48 9  150 258 
 PTB  HZ I         434 27.81        48.4 0.12            131            150 258 
 TAM  HZ IP     C  434  6.12                             130    0.38 9  155 106 
 TAM  HE ES        434 27.43                             130    0.17 9  155 106 
 TAM  HZ I         434 32.81        18.0 0.54            133            155 106 
 OCA  HZ EP        434  5.66                             130   -0.41 9  157 352 
 OCA  HN ES        434 27.25                             130   -0.60 9  157 352 
 OCA  HZ I         434 33.48        31.5 0.50            131            157 352 
 SPBC HZ EP        434  6.56                             128   -0.41 9  167 219 
 SPBC HN ES        434 29.48                             128    0.04 9  167 219 
 SPBC HZ I         434 36.50        34.2 0.24            128            167 219 
 ZAR  HZ EP        434 10.23                             122   -0.32 9  204 291 
 ZAR  HN ES        434 35.69                             122   -0.13 9  204 291 
 ZAR  HZ I         434 42.02        28.1 0.26            122            204 291 
 NOR  HZ EP        434 14.00                             118   -0.21 8  238 234 
 NOR  HE ES        434 42.92                             118    0.59 8  238 234 
 NOR  HZ I         434 45.50        17.0 0.30            118            238 234 
 SML  HZ EP        434 14.86                             118    0.43 8  241 335 
 SML  HN ES   1    434 42.21                             118   -0.52 6  241 335 
 SML  HZ I         434 46.76        39.8 0.10            118            241 335 
 CHI  HZ EP        434 16.25                             117   -0.00 8  253 195 
 CHI  HE ES   1    434 46.46                             117    0.49 6  253 195 
 CHI  HZ I         434 53.18        16.0 0.40            117            253 195 
 ROSC BZ EP   4    434 18.06                             116    1.39 0  257 211 
 ROSC BN ES   4    434 48.07                             116    1.35 0  257 211 
 ROSC BZ I         434 52.68        23.2 0.40            117            257 211 
 HEL  HZ EP        434 19.24                             114    0.65 8  274 255 
 HEL  HE ES   4    434 51.78                             114    1.65 0  274 255 
 HEL  HZ I         434 56.36        16.6 0.40            115            274 255 
 GUY2CHZ EP        434 22.03                             112   -0.08 7  305 234 
 GUY2CHE ES   4    434 59.05                             112    2.65 0  305 234 
 GUY2CHZ I         435  5.79        11.5 0.60                           305 234 
 VIL  SZ EP        434 21.58                             112   -0.41 7  307 192 
 VIL  SN ES        434 55.37                             112   -0.82 7  307 192 
 VIL  SZ I         435  1.68        18.6 0.40            112            307 192 
 RREF HZ EP   1    434 24.17                             110   -0.50 5  325 229 
 RREF HN ES   4    435  2.96                             110    2.00 0  325 229 
 RREF HZ I         435  6.06        16.8 0.34            111            325 229 
 CBOC HZ EP        434 25.57                             110    0.24 7  336 252 
 CBOC HN ES        435  2.98                             110    0.85 7  336 252 
 CBOC HZ I         435 11.20         4.3 0.41            110            336 252 
 DBB  SZ ES   1    435  2.33                             109   -0.52 5  341 274 
 DBB  SZ I         435  3.87        32.8 0.58            110            341 274 
 TOL  SZ EP        434 27.34                             109    0.53 6  347 224 
 TOL  SN ES   4    435  6.12                             109    1.36 0  347 224 
 TOL  SZ I         435  8.62        21.3 0.42            109            347 224 
 MON  HZ EP   4    434 24.85                             108   -2.14 0  352 308 
 MON  HN ES   4    435  3.24                             108   -1.84 0  352 308 
 MON  HZ I         435 18.39         8.6 0.46            109            352 308 
 ARGC HZ EP        434 28.03                             108    0.61 6  356 340 
 ARGC HE ES        435  6.16                             108    0.30 6  356 340 
 ARGC HZ I         435 13.01         7.6 0.30            109            356 340 
 ANIL HZ EP   4    434 30.09                             108    1.73 0  361 224 
 ANIL HN ES   4    435  9.73                             108    2.21 0  361 224 
 ANIL HZ I         435 14.47         2.6 0.30            109            361 224 
 PRA  HZ EP        434 31.65                             106   -0.47 6  396 209 
 PRA  HE ES        435 15.27                             106    1.06 6  396 209 
 PRA  HZ I         435 18.42        15.8 0.40            107            396 209 
 ORTC HZ EP        434 32.42                             106   -0.09 6  399 216 
 ORTC HN ES        435 15.71                             106    0.81 6  399 216 
 ORTC HZ I         435 20.55        10.8 0.44            107            399 216 
 SJC  HZ EP   4    434 31.40                             106   -2.01 0  407 326 
 SJC  HE ES   4    435 14.85                             106   -1.66 0  407 326 
 SJC  HZ I         435 19.56         4.3 0.34            106            407 326 
 PAL  HZ EP        434 33.20                             106   -0.46 6  409 239 
 PAL  HN ES   4    435 18.31                             106    1.35 0  409 239 
 PAL  HZ I         435 21.49        14.7 0.16            106            409 239 
                                                                                
