 2012  617 0258 12.6 L   6.794 -73.134148.4  RSN  9 0.3 2.3LRSN                1
 GAP=138        0.57       2.4     3.0  4.7 -0.1131E+01  0.5242E+01  0.2537E+00E
 Epicentro: LOS SANTOS - SANTANDER                                             3
 ACTION:UPD 12-08-06 17:50 OP:ep   STATUS:               ID:20120617025812 L   I
 2012-06-17-0250-00M.COL___199                                                 6
 STAT SP IPHASW D HRMM SECON CODA AMPLIT PERI AZIMU VELO AIN AR TRES W  DIS CAZ7
 BAR2 SZ EP   1    258 32.57                             171    0.00 7 23.0 193 
 BAR2 SZ ES   1    258 48.10                             171   -0.02 7 23.0 193 
 BAR2 SZ I         258 49.39        77.9 0.26                          23.0 193 
 PAM  SZ EP   1    258 35.43                             151    0.32 7 77.1  39 
 PAM  SE ES   1    258 52.85                             151    0.21 7 77.1  39 
 RUS  HZ EP   1    258 36.46                             144   -0.13 7 99.9 177 
 RUS  HN ES   1    258 54.98                             144   -0.30 7 99.9 177 
 RUS  HZ I         258 56.42        17.6 0.53                          99.9 177 
 PTB  HZ EP   1    258 39.34                             132   -0.57 7  149 259 
 PTB  HE ES   1    259  0.98                             132   -0.22 7  149 259 
 PTB  HZ I         259  7.85        22.4 0.39                           149 259 
 OCA  HZ EP   1    258 40.66                             130   -0.56 7  161 353 
 OCA  HE ES   1    259  3.80                             130    0.28 7  161 353 
 OCA  HZ I         259  9.09        39.5 0.27                           161 353 
 ZAR  HZ EP   1    258 45.35                             123   -0.04 6  205 292 
 ZAR  HN ES   1    259 10.84                             123   -0.11 6  205 292 
 ZAR  HZ I         259 17.60        22.8 0.36                           205 292 
 NOR  SZ EP   1    258 49.10                             119    0.52 6  235 235 
 NOR  SE ES   1    259 17.07                             119    0.44 6  235 235 
 CHI  HZ EP   1    258 50.61                             118    0.17 6  248 195 
 CHI  HN ES   1    259 20.03                             118    0.09 6  248 195 
 CHI  HZ I         259 29.46         6.1 0.37                           248 195 
 HEL  HZ EP   2    258 53.02                             115   -0.07 4  273 256 
 HEL  HN ES   1    259 24.96                             115    0.30 6  273 256 
 HEL  HZ I         259 31.18        10.8 0.37                           273 256 
                                                                                
