 2013  817 0337 47.9 L   6.703 -73.179144.9  RSN  4 0.5 1.4LRSN                1
 GAP=226        1.33      10.7    10.8 11.1  0.6228E+02  0.2594E+02  0.1215E+02E
 Epicentro: VILLANUEVA - SANTANDER                                             3
 2013-08-17-0328-49M.COL___216                                                 6
 OLDACT:DUP 13-08-17 12:36 OP:stll STATUS:               ID:20130817032850d    3
 ACTION:UPD 14-01-14 09:03 OP:ep   STATUS:               ID:20130817033747 L   I
 OLDACT:UP  13-08-17 12:38 OP:stll STATUS:               ID:20130817032850d    3
 STAT SP IPHASW D HRMM SECON CODA AMPLIT PERI AZIMU VELO AIN AR TRES W  DIS CAZ7
 BAR2 SZ ES        338 21.67                             175   -0.6910 12.2 182 
 BAR2 SZ I         338 22.76         2.6 0.18            173           12.2 182 
 BRR  HZ EP        338  8.63                             151   -0.4910 74.0 307 
 BRR  HN ES        338 26.49                             151    0.8210 74.0 307 
 BRR  HZ I         338 44.00         7.1 3.02            149           74.0 307 
 RUS  HZ EP        338 11.46                             147    0.6110 90.2 173 
 RUS  HN ES        338 28.84                             147    0.1010 90.2 173 
 RUS  SZ I         338 33.34         5.3 2.88            159           90.2 173 
 PTB  HZ EP        338 14.04                             133   -0.28 9  142 263 
 PTB  HN ES        338 34.81                             133   -0.12 9  142 263 
 PTB  HZ I         338 40.74         6.2 3.04            136            142 263 
                                                                                
