 2016  717 0223 15.7 L   6.772 -73.128144.2  RSN  6 0.4 1.3LRSN                1
 GAP=237        0.94       5.7     7.5  7.8  0.2244E+02  0.1672E+02  0.3470E+01E
 Epicentro: LOS SANTOS - SANTANDER                                             3
 ACTION:UPD 17-03-29 16:52 OP:lp   STATUS:               ID:20160717022315 L   I
 OLDACT:REG 16-07-17 12:33 OP:lv   STATUS:               ID:20160717021759     3
 2016-07-17-0217-59S.COL___322                                                 6
 STAT SP IPHASW D HRMM SECON CODA AMPLIT PERI AZIMU VELO AIN AR TRES W  DIS CAZ7
 BAR2 EZ ES        223 49.63                             171   -0.5310 20.8 197 
 BAR2 EZ I         223 51.12         9.1 0.20            168           20.8 197 
 BRR  HZ EP        223 36.62                             151   -0.2010 74.4 300 
 BRR  HE ES        223 53.66                             151    0.3410 74.4 300 
 BRR  HZ I         223 54.96         4.5 0.24            148           74.4 300 
 RUS  HZ EP        223 39.42                             144    0.4010 97.4 177 
 RUS  HN ES        223 57.55                             144    0.3110 97.4 177 
 RUS  HZ I         223 58.91         2.3 0.28            145           97.4 177 
 PTB  HZ EP        223 42.13                             131   -0.48 9  149 260 
 PTB  HN ES   4    224  1.53                             131   -2.11 0  149 260 
 PTB  HZ I         224  6.46         1.4 0.21            130            149 260 
 SPBC HN ES        224  5.83                             129   -0.14 9  162 220 
 SPBC HZ I         224  7.99         2.6 0.12            128            162 220 
 ZAR  HN ES        224 14.07                             122    0.30 8  207 293 
 ZAR  HZ I         224 19.65         2.4 0.18            121            207 293 
                                                                                
