 2013 1117 0613 48.3 L   6.756 -73.135142.4  RSN  5 0.4 1.6LRSN                1
 GAP=159        1.11      10.8     6.6  8.0 -0.4151E+02 -0.2053E+00 -0.1892E+01E
 Epicentro: LOS SANTOS - SANTANDER                                             3
 ACTION:UPD 14-01-09 16:28 OP:ep   STATUS:               ID:20131117061348 L   I
 OLDACT:DUP 13-11-17 13:35 OP:stll STATUS:               ID:20131117060806d    3
 2013-11-17-0608-05M.COL___220                                                 6
 STAT SP IPHASW D HRMM SECON CODA AMPLIT PERI AZIMU VELO AIN AR TRES W  DIS CAZ7
 BAR2 SZ EP        614  7.86                             172    0.4610 18.9 196 
 BAR2 SZ ES        614 22.30                             172   -0.0310 18.9 196 
 BAR2 SZ I         614 24.07         7.8 0.26            170           18.9 196 
 BRR  HZ EP        614  9.42                             151    0.1710 74.6 301 
 BRR  HN ES        614 26.28                             151    0.6710 74.6 301 
 BRR  HZ I         614 26.93         7.5 0.34            150           74.6 301 
 PAM  SZ EP        614 10.60                             149    0.2910 80.5  37 
 PAM  SZ I         614 10.80        11.6 0.20            152           80.5  37 
 PAM  SN ES        614 26.88                             149   -0.6310 80.5  37 
 PTB  HZ EP        614 14.69                             131   -0.29 9  148 261 
 PTB  HN ES        614 35.21                             131   -0.61 9  148 261 
 PTB  HZ I         614 40.44         2.8 0.16            131            148 261 
 CAPV BZ EP        614 15.52                             130   -0.16 9  152  36 
                                                                                
