 2014  917 0752 11.6 L   6.840 -73.170141.5  RSN  6 0.3 1.6LRSN                1
 GAP=181        0.68       2.3     4.2  5.4 -0.5844E+00  0.4437E+01 -0.3078E+01E
 Epicentro: ZAPATOCA - SANTANDER                                               3
 ACTION:UPD 14-10-03 23:05 OP:nd   STATUS:               ID:20140917075211 L   I
 OLDACT:DUP 14-09-17 17:21 OP:carl STATUS:               ID:20140917074819d    3
 2014-09-17-0748-17M.COL___287                                                 6
 STAT SP IPHASW D HRMM SECON CODA AMPLIT PERI AZIMU VELO AIN AR TRES W  DIS CAZ7
 BAR2 SZ EP        752 30.94                             169    0.1610 27.4 183 
 BAR2 SZ ES        752 45.64                             169   -0.1210 27.4 183 
 BAR2 SZ I         752 51.65         6.9 0.28            169           27.4 183 
 RUS  HZ EP        752 34.96                             142   -0.2810  105 175 
 RUS  HN ES        752 53.64                             142   -0.0710  105 175 
 RUS  HZ I         752 55.25         4.2 0.32            146            105 175 
 PTB  HZ EP        752 37.70                             131   -0.33 9  146 257 
 PTB  HN ES        752 58.96                             131    0.28 9  146 257 
 PTB  HZ I         753  1.70         4.5 0.28            134            146 257 
 OCA  HZ EP        752 39.52                             129    0.41 9  156 354 
 OCA  HN ES        753  0.75                             129    0.16 9  156 354 
 OCA  HZ I         753  1.93         5.5 0.16            134            156 354 
 SPBC HZ EP        752 40.09                             128    0.18 9  165 217 
 SPBC HN ES        753  2.06                             128    0.04 9  165 217 
 SPBC HZ I         753  8.72         5.4 0.22            131            165 217 
 SML  HZ EP   4    752 44.71                             117   -2.69 0  239 335 
 SML  HN ES        753 14.85                             117   -0.50 8  239 335 
 SML  HZ I         753 19.40         5.4 0.10            121            239 335 
                                                                                
