 2012  517 0724 14.2 L   6.792 -73.153139.4  RSN 14 0.4 2.6LRSN 3.1WRSN        1
 SPEC AVERAGE  MO 13.7 ST 10.7 OM 87.6 f0 5.02 R  0.29 AL 2.59 WI 10.9 MW  3.1 3
 GAP=136        0.91       3.7     5.2  6.7 -0.1094E+01  0.1578E+02  0.2352E+01E
 Epicentro: LOS SANTOS - SANTANDER                                             3
 SPEC RUS HH N MO 13.9 ST 15.2 OM  2.3 f0 5.06 R0.2905 AL 1.86 WI  8.9 MW  3.2 3
 SPEC RUS HH N T 72454 K 0.020 GD  171 VS 4.20 DE 3.20 Q0230.0 QA 0.60 VS 4.20 3
 SPEC CHI HH N MO 13.5 ST  6.1 OM  1.7 f0 4.99 R0.2946 AL 3.31 WI 12.9 MW  3.0 3
 SPEC CHI HH N T 72520 K 0.020 GD  284 VS 4.20 DE 3.20 Q0230.0 QA 0.60 VS 4.20 3
 ACTION:UP  12-07-05 12:05 OP:pat  STATUS:               ID:20120517072414 L   I
 2012-05-17-0720-00M.COL___197                                                 6
 STAT SP IPHASW D HRMM SECON CODA AMPLIT PERI AZIMU VELO SNR AR TRES W  DIS CAZ7
 BAR2 SZ EP        724 33.06                             170     0.010   22 188 
 BAR2 SZ ES   1    724 48.01                             170     0.3 7   22 188 
 BAR2 SZ I         724 49.25        94.6 0.21                            22 188 
 BRR  HZ EP   1    724 34.91                             151     0.3 7   71 299 
 BRR  HZ I         724 36.85       114.7 0.12                            71 299 
 PAM  SZ EP   1    724 35.87                             149     0.1 7   79  40 
 PAM  SN ES   1    724 52.78                             149     0.1 7   79  40 
 RUS  HZ EP   1    724 37.02                             143    -0.2 7  100 176 
 RUS  HN ES   1    724 54.94                             143    -0.3 7  100 176 
 RUS  HZ I         724 56.73        44.8 0.25                           100 176 
 PTB  HZ EP   1    724 39.98                             131    -0.6 7  147 259 
 PTB  HN ES   1    725  0.53                             131    -0.6 7  147 259 
 PTB  HZ I         725  8.13        25.1 0.12                           147 259 
 OCA  HZ EP   1    724 41.29                             128    -0.8 7  161 353 
 OCA  HN ES   1    725  4.07                             128     0.2 7  161 353 
 ZAR  HZ EP   1    724 46.81                             121     0.6 6  204 292 
 ZAR  HN ES   1    725 11.39                             121     0.3 6  204 292 
 ZAR  HZ I         725 17.14        74.6 0.27                           204 292 
 CHI  HZ EP   1    724 51.19                             116    -0.2 6  248 195 
 CHI  HZ I         725 28.29        12.7 0.42                           248 195 
 ROSC BZ EP   1    724 52.55                             115     0.7 6  252 211 
 ROSC BZ I         725 27.05        28.5 0.46                           252 211 
 HEL  HZ EP   1    724 54.52                             114     0.6 6  271 256 
 HEL  HZ I         725 32.35        22.7 0.34                           271 256 
 URE  HZ EP   1    724 54.11                             112    -0.8 6  283 292 
 URE  HZ I         725 37.88        29.3 0.24                           283 292 
 RREF HZ EP   1    725  0.49                             110     0.6 5  321 229 
 RREF HN ES   2    725 35.67                             110     0.1 3  321 229 
 RREF HZ I         725 43.93        14.7 0.29                           321 229 
 DBB  SZ EP   1    725  1.22                             108    -0.1 5  339 274 
 PRA  HZ EP   1    725  7.12                             105    -0.2 4  391 210 
 PRA  HN ES   1    725 49.17                             105     0.4 4  391 210 
                                                                                
