 2012  317 0512 39.0 L   6.764 -73.124155.9  RSN  8 0.5 2.2LRSN                1
 GAP=141        1.12       5.7     6.4 10.7 -0.5266E+01  0.1242E+02 -0.1975E+01E
 ACTION:UP  12-03-31 23:20 OP:EP   STATUS:               ID:20120317051239 L   I
 2012-03-17-0510-00M.COL___201                                                 6
 STAT SP IPHASW D HRMM SECON CODA AMPLIT PERI AZIMU VELO SNR AR TRES W  DIS CAZ7
 BAR2 SZ EP   1    512 59.91                             172     0.1 7   20 199 
 BAR2 SZ I         513 17.23        18.4 0.30                            20 199 
 BRR  HZ EP        513  2.01                             153     0.510   75 300 
 BRR  HN ES   1    513 19.36                             153     0.4 7   75 300 
 BRR  HZ I         513 21.40        26.4 0.13                            75 300 
 PAM  SZ EP   1    513  1.46                             152    -0.9 7   79  36 
 PAM  SN ES   1    513 20.19                             152    -0.5 7   79  36 
 RUS  HZ EP   1    513  4.05                             147     0.6 7   97 177 
 RUS  HE ES   1    513 22.69                             147     0.1 7   97 177 
 RUS  HZ I         513 24.10        17.8 0.21                            97 177 
 PTB  HZ EP   1    513  6.90                             134    -0.1 7  149 260 
 PTB  HN ES   1    513 27.94                             134    -0.8 7  149 260 
 PTB  HZ I         513 35.46        17.4 0.54                           149 260 
 OCA  SZ EP   1    513  8.12                             131    -0.4 7  164 352 
 OCA  SZ ES   1    513 32.13                             131     0.6 7  164 352 
 ZAR  HZ EP   1    513 12.52                             124     0.0 6  208 293 
 ZAR  HE ES   1    513 38.57                             124    -0.1 6  208 293 
 ZAR  HZ I         513 45.12        19.1 0.27                           208 293 
 NOR  SN ES   1    513 43.46                             121    -0.2 6  234 236 
                                                                                
