 2017  717 0845 53.8 L   6.779 -73.155144.0  RSN  9 0.3 1.7LRSN                1
 GAP=112        0.79       3.1     3.1  5.5 -0.6829E+00  0.2125E+01  0.2839E+01E
 Epicentro: LOS SANTOS - SANTANDER                                             3
 ACTION:UPD 17-08-30 15:34 OP:rebc STATUS:               ID:20170717084553 L   I
 OLDACT:UP  17-07-17 17:42 OP:dnl  STATUS:               ID:20170717083742d    3
 OLDACT:DUP 17-07-17 17:36 OP:dnl  STATUS:               ID:20170717083742d    3
 2017-07-17-0838-00M.COL___377                                                 6
 STAT SP IPHASW D HRMM SECON CODA AMPLIT PERI AZIMU VELO AIN AR TRES W  DIS CAZ7
 BAR2 EZ EP        846 13.02                             171   -0.1510 20.9 188 
 BAR2 EZ ES        846 28.05                             171   -0.2210 20.9 188 
 BAR2 EZ I         846 29.32        26.6 0.18            170           20.9 188 
 BRR  HZ EP        846 14.92                             152    0.1510 71.5 301 
 BRR  HN ES        846 31.77                             152    0.6410 71.5 301 
 BRR  HZ I         846 32.96         6.6 0.16            154           71.5 301 
 PAM  EZ EP        846 15.97                             150   -0.0010 79.8  39 
 PAM  EN ES        846 33.04                             150   -0.2310 79.8  39 
 PAM  EZ I         846 35.04        14.0 0.44            151           79.8  39 
 RUS  HZ EP        846 17.51                             144    0.3010 98.3 175 
 RUS  HN ES        846 35.72                             144    0.2410 98.3 175 
 RUS  HZ I         846 36.76         9.5 0.34            144           98.3 175 
 PTB  HZ EP        846 20.10                             132   -0.39 9  146 260 
 PTB  HN ES        846 40.79                             132   -0.52 9  146 260 
 PTB  HZ I         846 43.16         5.6 0.38            133            146 260 
 SPBC HZ EP   2    846 22.29                             129    0.36 5  161 219 
 SPBC HN ES        846 44.00                             129    0.13 9  161 219 
 YPLC HZ EP   2    846 23.79                             127    0.48 4  175 151 
 YPLC HN ES        846 46.06                             127   -0.27 9  175 151 
 YPLC HZ I         846 51.10         6.5 0.50            127            175 151 
 NOR  HZ EP   4    846 26.19                             118   -3.00 0  233 235 
 NOR  HN ES        846 56.80                             118   -0.00 8  233 235 
 NOR  HZ I         846 59.31         4.1 0.16            119            233 235 
 GUY2CHZ EP   4    846 39.31                             112    2.23 0  299 235 
 GUY2CHN ES   4    847 12.83                             112    1.99 0  299 235 
 GUY2CHZ I         847 18.04         1.9 0.52                           299 235 
                                                                                
