 2010  917 0325 13.9 L   6.811 -73.104145.0  RSN  5 0.2 1.3LRSN                1
 GAP=163        0.45       3.1     6.3  7.2 -0.3674E-01 -0.2384E+02  0.7804E+00E
 Epicentro: LOS SANTOS - SANTANDER                                             3
 ACTION:UP  11-02-18 11:03 OP:tino STATUS:               ID:20100917032513 L   I
 2010-09-17-0323-00S.COL___118                                                 6
 STAT SP IPHASW D HRMM SECON CODA AMPLIT PERI AZIMU VELO SNR AR TRES W  DIS CAZ7
 BTL  SZ EP        325 33.56                             171     0.210   22 303 
 BAR2 SZ EP   1    325 33.26                             170    -0.2 7   26 200 
 BRR  HZ EP        325 34.93                             152    -0.210   75 296 
 BRR  HZ I         325 35.25         7.3 0.13                            75 296 
 BRR  HE ES   1    325 51.85                             152     0.1 7   75 296 
 RUS  HZ EP        325 37.74                             143     0.110  102 179 
 RUS  HN ES   2    325 56.01                             143    -0.1 5  102 179 
 RUS  HZ I         325 57.53         2.0 0.27                           102 179 
 GRA  SZ EP        325 38.91                             137     0.110  123  16 
 GRA  SZ ES   2    325 58.21                             137    -0.1 5  123  16 
                                                                                
