 2016  817 0908  3.5 L   6.819 -73.150148.6  RSN 19 0.5 2.2LRSN                1
 GAP=108        1.11       3.9     3.3  5.4 -0.1238E+01  0.2820E+01  0.4118E+00E
 Epicentro: LOS SANTOS - SANTANDER                                             3
 ACTION:UPD 16-10-29 15:36 OP:rebc STATUS:               ID:20160817090803 L   I
 OLDACT:UP  16-08-17 19:03 OP:ar   STATUS:               ID:20160817090636     3
 OLDACT:REG 16-08-17 13:38 OP:ak   STATUS:               ID:20160817090636     3
 2016-08-17-0907-00M.COL___368                                                 6
 STAT SP IPHASW D HRMM SECON CODA AMPLIT PERI AZIMU VELO AIN AR TRES W  DIS CAZ7
 BAR2 EZ EP        9 8 23.45                             170   -0.0210 25.3 188 
 BAR2 EZ ES        9 8 38.47                             170   -0.6010 25.3 188 
 BAR2 EZ I         9 8 39.57        48.5 0.22                          25.3 188 
 BRR  HZ EP        9 8 25.22                             153    0.3910 69.8 297 
 BRR  HN ES        9 8 42.49                             153    0.9810 69.8 297 
 BRR  HZ I         9 8 45.28        21.9 0.14                          69.8 297 
 RUS  HZ EP        9 8 27.46                             144   -0.1810  103 176 
 RUS  HN ES        9 8 46.51                             144    0.0210  103 176 
 RUS  HZ I         9 8 47.14        23.5 0.26                           103 176 
 PTB  HZ EP        9 8 30.14                             133   -0.51 9  148 258 
 PTB  HE ES        9 8 51.12                             133   -0.74 9  148 258 
 PTB  HZ I         9 8 54.06        19.6 0.14                           148 258 
 TAM  HZ EP        9 8 31.78                             131    0.33 9  156 106 
 TAM  HE ES        9 8 53.41                             131    0.13 9  156 106 
 SPBC HZ EP        9 8 32.13                             129   -0.17 9  164 218 
 SPBC HN ES        9 8 54.68                             129   -0.11 9  164 218 
 SPBC HZ I         9 9  0.65        32.0 0.24                           164 218 
 ZAR  HE ES   2    9 9  1.31                             123   -0.01 4  203 292 
 NOR  HZ EP        9 8 39.60                             119    0.16 8  236 234 
 NOR  HN ES        9 9  7.75                             119    0.25 8  236 234 
 NOR  HZ I         9 9 13.00        17.4 0.16                           236 234 
 CHI  HZ EP        9 8 41.87                             118    0.35 8  251 195 
 CHI  HN ES        9 9 10.77                             118   -0.43 8  251 195 
 CHI  HZ I         9 9 14.65        10.4 0.54                           251 195 
 ROSC BZ EP   4    9 8 43.97                             117    2.07 0  254 211 
 ROSC BN ES        9 9 12.55                             117    0.67 8  254 211 
 ROSC BZ I         9 9 17.83        16.0 0.40                           254 211 
 HEL  HZ EP   4    9 8 45.60                             115    1.78 0  272 255 
 HEL  HN ES        9 9 15.41                             115    0.11 8  272 255 
 HEL  HZ I         9 9 21.48         9.3 0.26                           272 255 
 URE  HZ EP        9 8 43.71                             114   -0.82 7  283 292 
 URE  HN ES   4    9 9 13.46                             114   -3.11 0  283 292 
 URE  HZ I         9 9 26.11         9.3 0.24                           283 292 
 GUY2CHZ EP   9    9 8 48.79                             113    1.50 0  302 234 
 GUY2CHN ES        9 9 23.25                             112    0.27 7  302 234 
 GUY2CHZ I         9 9 29.67         9.2 0.34                           302 234 
 LL6C HZ EP        9 8 48.41                             111   -0.63 7  323 358 
 LL6C HE ES   4    9 9 20.89                             111   -3.71 0  323 358 
 CBOC HZ EP        9 8 51.75                             110    1.24 7  334 252 
 CBOC HN ES   4    9 9 26.17                             110   -1.04 0  334 252 
 CBOC HZ I         9 9 31.55         2.6 0.16                           334 252 
 PRA  HZ EP        9 8 57.36                             107    0.10 6  394 209 
 PRA  HN ES        9 9 38.49                             107   -0.73 6  394 209 
 PRA  HZ I         9 9 43.73         6.5 0.22                           394 209 
 PAL  HZ EP        9 8 58.66                             106   -0.13 6  406 239 
 PAL  HN ES        9 9 42.26                             106    0.31 6  406 239 
 PAL  HZ I         9 9 44.82         3.6 0.24                           406 239 
 CRJC HZ EP   4    9 9  3.89                             104   -1.91 0  466   4 
 CRJC HE ES   4    9 9 51.48                             104   -2.94 0  466   4 
 CRJC HZ I         910  3.01         5.4 0.44                           466   4 
 MACC HZ EP   4    9 9 10.43                             102   -2.04 0  523 189 
 MACC HN ES   4    910  2.26                             102   -4.04 0  523 189 
 MACC HZ I         910 25.60         1.6 0.64                           523 189 
                                                                                
