 2013 1117 0255 44.9 L   6.744 -73.133143.0  RSN  5 0.3 1.1LRSN                1
 GAP=141        0.89       4.7     4.6  6.5 -0.1960E+01  0.3837E+01  0.1025E+01E
 Epicentro: JORDAN - SANTANDER                                                 3
 ACTION:UPD 14-01-09 16:28 OP:ep   STATUS:               ID:20131117025544 L   I
 OLDACT:DUP 13-11-17 11:44 OP:stll STATUS:               ID:20131117024811d    3
 2013-11-17-0248-10M.COL___220                                                 6
 STAT SP IPHASW D HRMM SECON CODA AMPLIT PERI AZIMU VELO AIN AR TRES W  DIS CAZ7
 BAR2 SZ EP        256  4.36                             173    0.2810 17.6 198 
 BAR2 SZ ES        256 19.42                             173    0.3710 17.6 198 
 BAR2 SZ I         256 20.81         6.5 0.16            173           17.6 198 
 BRR  HZ EP        256  6.12                             151    0.1210 75.6 302 
 BRR  HN ES        256 22.82                             151    0.3610 75.6 302 
 BRR  HZ I         256 27.70         2.9 0.36            150           75.6 302 
 PAM  SZ EP        256  7.02                             149   -0.0410 81.4  36 
 PAM  SZ I         256  8.91         3.2 0.12            151           81.4  36 
 PAM  SN ES        256 23.87                             149   -0.4810 81.4  36 
 RUS  HZ EP        256  8.28                             145    0.3610 94.3 177 
 RUS  HN ES        256 25.49                             145   -0.3910 94.3 177 
 RUS  HZ I         256 27.83         1.1 0.28            148           94.3 177 
 PTB  HZ EP        256 11.37                             131   -0.29 9  148 261 
 PTB  HN ES        256 32.16                             131   -0.39 9  148 261 
 PTB  HZ I         256 34.91         1.4 0.24            132            148 261 
                                                                                
