 2016  517 0005 32.6 L   6.760 -73.147138.4  RSN  5 0.2 1.7LRSN                1
 GAP=234        0.47       2.8     3.5  4.4  0.3870E+01  0.7325E+01  0.1933E+01E
 Epicentro: LOS SANTOS - SANTANDER                                             3
 ACTION:UPD 16-08-18 17:46 OP:cam  STATUS:               ID:20160517000532 L   I
 OLDACT:UP  16-05-17 14:21 OP:mh   STATUS:               ID:20160517000008     3
 OLDACT:REG 16-05-17 13:47 OP:mh   STATUS:               ID:20160517000008     3
 2016-05-17-0000-15M.COL___452                                                 6
 STAT SP IPHASW D HRMM SECON CODA AMPLIT PERI AZIMU VELO AIN AR TRES W  DIS CAZ7
 BAR2 EZ EP        0 5 51.37                             172    0.0810 19.0 192 
 BAR2 EZ ES        0 6  5.56                             172   -0.2910 19.0 192 
 BAR2 EZ I         0 6  7.60        30.0 0.04            167           19.0 192 
 BRR  HZ EP        0 5 52.99                             150   -0.1310 73.3 302 
 BRR  HN ES        0 6  9.31                             150    0.2210 73.3 302 
 BRR  HZ I         0 6 10.64        14.8 0.07            148           73.3 302 
 RUS  HE ES        0 6 13.22                             143    0.1610 96.2 176 
 RUS  HZ I         0 6 14.89         3.1 0.34            144           96.2 176 
 ZAR  HN ES        0 6 29.84                             120   -0.01 8  206 293 
 ZAR  HZ I         0 6 36.21         3.7 0.17            120            206 293 
 NOR  HZ EP   1    0 6  7.68                             117    0.02 6  232 235 
 NOR  HN ES        0 6 34.91                             117   -0.07 8  232 235 
 NOR  HZ I         0 6 39.39         2.8 0.41            117            232 235 
                                                                                
