 2016  517 0706 15.9 L   6.743 -74.253 63.9  RSN 14 0.3 2.0LRSN                1
 GAP= 74        0.67       1.7     1.6  7.3  0.2189E-01  0.2810E+01  0.2829E+01E
 Epicentro: PUERTO PARRA - SANTANDER                                           3
 ACTION:UPD 16-08-18 17:46 OP:cam  STATUS:               ID:20160517070615 L   I
 OLDACT:UP  16-05-17 17:55 OP:dnl  STATUS:               ID:20160517065753     3
 OLDACT:REG 16-05-17 13:55 OP:mh   STATUS:               ID:20160517065753     3
 2016-05-17-0658-00M.COL___426                                                 6
 STAT SP IPHASW D HRMM SECON CODA AMPLIT PERI AZIMU VELO AIN AR TRES W  DIS CAZ7
 BRR  HZ EP     D  7 6 29.17                             126   -0.0910 72.1  56 
 BRR  HN ES        7 6 39.74                             126    0.0210 72.1  56 
 BRR  HZ I         7 6 41.34        42.8 0.14             47           72.1  56 
 ZAR  HZ EP        7 6 32.42                             114   -0.5610  106 321 
 ZAR  HN ES        7 6 46.34                             114    0.0110  106 321 
 ZAR  HZ I         7 6 49.54        51.1 0.22             47            106 321 
 BAR2 EZ EP        7 6 34.85                             111    0.0910  120  98 
 BAR2 EZ ES        7 6 49.74                             111    0.2410  120  98 
 BAR2 EZ I         7 6 51.93        23.2 0.28             47            120  98 
 SPBC HZ IP     D  7 6 34.61                             110   -0.2810  122 171 
 SPBC HN ES        7 6 49.47                             110   -0.2710  122 171 
 SPBC HZ I         7 6 50.66        35.3 0.10             47            122 171 
 NOR  HZ EP        7 6 37.59                             106   -0.18 9  147 208 
 NOR  HN ES   2    7 6 55.00                             106    0.14 5  147 208 
 NOR  HZ I         7 6 57.65        21.8 0.14             47            147 208 
 HEL  HZ EP        7 6 39.19                             105    0.24 9  154 247 
 HEL  HN ES        7 6 57.44                             105    0.49 9  154 247 
 HEL  HZ I         7 6 59.47        31.9 0.28             47            154 247 
 RUS  HZ EP   2    7 6 39.68                             105   -0.16 5  160 126 
 RUS  HN ES        7 6 58.52                             105   -0.02 9  160 126 
 RUS  HZ I         7 7  0.06        16.2 0.28             47            160 126 
 URE  HZ EP   4    7 6 40.60                             102   -1.06 0  180 308 
 URE  HE ES   4    7 7  3.61                             102    1.84 0  180 308 
 URE  HZ I         7 7  6.72        31.9 0.40             37            180 308 
 OCA  HZ EP        7 6 43.58                             101   -0.04 9  195  32 
 OCA  HN ES        7 7  5.57                             101    0.30 9  195  32 
 OCA  HZ I         7 7 13.16        14.9 0.25             37            195  32 
 CBOC HZ EP   4    7 6 48.68                             100    2.28 0  218 244 
 CBOC HN ES   4    7 7 13.47                             100    3.25 0  218 244 
 CBOC HZ I         7 7 19.02         4.2 0.48             37            218 244 
 CHI  HN ES   2    7 7 16.64                              99    0.87 4  241 166 
 CHI  HZ I         7 7 23.75         5.1 0.13             37            241 166 
 ELA  HZ EP   3    7 6 50.97                              98    0.93 2  244 211 
 ELA  HN ES   4    7 7 18.12                              98    1.42 0  244 211 
 ELA  HZ I         7 7 21.50         6.8 0.58             37            244 211 
 ORTC HZ EP   4    7 7  2.12                              96    1.85 0  332 199 
 ORTC HN ES   4    7 7 37.12                              96    2.22 0  332 199 
 ORTC HZ I         7 7 42.42         4.1 0.40             36            332 199 
 PRA  HZ EP   4    7 7  3.02                              95    1.51 0  342 192 
 PRA  HN ES   4    7 7 40.32                              95    3.21 0  342 192 
 PRA  HZ I         7 7 50.32         3.7 0.28             36            342 192 
                                                                                
