 2012 1217 0451 50.0 L   6.779 -73.144141.3  RSN  5 0.3 1.6LRSN                1
 GAP= 98        0.73       4.7     3.6  6.4 -0.2330E+01 -0.3102E+01  0.9569E+01E
 Epicentro: LOS SANTOS - SANTANDER                                             3
 ACTION:UPD 13-01-04 14:28 OP:ep   STATUS:               ID:20121217045150 L   I
 2012-12-17-0450-00M.COL___238                                                 6
 STAT SP IPHASW D HRMM SECON CODA AMPLIT PERI AZIMU VELO AIN AR TRES W  DIS CAZ7
 BRR  HZ EP        452 10.99                             151    0.2510 72.4 300 
 BRR  HN ES        452 27.26                             151    0.3410 72.4 300 
 BRR  HZ I         452 31.99         6.8 0.10                          72.4 300 
 PAM  SZ EP        452 11.95                             149    0.1010 79.1  38 
 PAM  SZ I         452 12.16        13.2 0.23                          79.1  38 
 PAM  SE ES        452 28.55                             149   -0.3310 79.1  38 
 RUS  HZ EP   1    452 13.58                             144    0.43 7 98.3 176 
 RUS  HN ES   1    452 31.12                             144   -0.08 7 98.3 176 
 RUS  HN I         452 32.76         4.5 0.19                          98.3 176 
 PTB  HZ EP        452 16.17                             131   -0.41 9  147 260 
 PTB  HN ES   1    452 36.95                             131   -0.36 7  147 260 
 PTB  HZ I         452 39.79         5.2 0.10                           147 260 
 TAM  HZ EP        452 17.23                             130   -0.03 9  154 104 
                                                                                
