 2017  217 0527 13.6 L   6.800 -73.128150.8  RSN  6 0.4 1.2LRSN                1
 GAP=139        1.12       6.2     5.7  8.8  0.8024E+01  0.1617E+02  0.7944E+01E
 Epicentro: LOS SANTOS - SANTANDER                                             3
 ACTION:UPD 17-05-24 15:37 OP:jn   STATUS:               ID:20170217052713 L   I
 OLDACT:REG 17-02-17 13:15 OP:cog  STATUS:               ID:20170217051741     3
 2017-02-17-0518-00M.COL___343                                                 6
 STAT SP IPHASW D HRMM SECON CODA AMPLIT PERI AZIMU VELO AIN AR TRES W  DIS CAZ7
 BAR2 EZ EP        527 33.34                             171   -0.4910 23.7 195 
 BAR2 EZ ES        527 49.30                             171   -0.3210 23.7 195 
 BAR2 EZ I         527 49.50         3.0 0.46            171           23.7 195 
 BRR  HZ EP        527 35.33                             153   -0.0510 72.9 298 
 BRR  HZ I         527 48.04         3.3 0.56            146           72.9 298 
 BRR  HN ES        527 52.90                             153    0.5310 72.9 298 
 BRR  HZ ES        527 52.94                             153           72.9 298 
 PAM  EN ES        527 54.06                             152    0.1010 76.2  38 
 RUS  HZ EP        527 37.63                             145   -0.2010  100 177 
 RUS  HE ES        527 56.99                             145    0.2510  100 177 
 PTB  HZ EP        527 42.06                             133    0.92 9  150 259 
 PTB  HN ES        528  2.38                             133   -0.25 9  150 259 
 PTB  HZ I         528  8.64         2.3 0.26            127            150 259 
 ZAR  HE ES        528 11.71                             123   -0.55 8  206 292 
                                                                                
