 2012 1017 0818 52.8 L   6.766 -73.137147.9  RSN 11 0.3 2.5LRSN                1
 GAP= 73        0.56       2.8     2.4  3.9  0.5186E+00  0.2532E+01  0.3019E+01E
 Epicentro: LOS SANTOS - SANTANDER                                             3
 ACTION:UPD 12-11-22 17:04 OP:ep   STATUS:               ID:20121017081852 L   I
 2012-10-17-0815-59S.COL___229                                                 6
 STAT SP IPHASW D HRMM SECON CODA AMPLIT PERI AZIMU VELO AIN AR TRES W  DIS CAZ7
 BAR2 SZ EP   1    819 12.51                             172   -0.07 7 19.9 195 
 BAR2 SZ ES   1    819 27.80                             172   -0.25 7 19.9 195 
 BAR2 SZ I         819 30.39        98.9 0.27                          19.9 195 
 GIR2 SZ EP   1    819 12.56                             166   -0.23 7 35.1 350 
 GIR2 SZ ES   1    819 28.80                             166    0.38 7 35.1 350 
 BRR  HZ EP   1    819 14.38                             152    0.09 7 73.9 301 
 BRR  HZ I         819 14.67        65.7 0.30                          73.9 301 
 BRR  HN ES   1    819 31.61                             152    0.52 7 73.9 301 
 PAM  SZ EP   1    819 15.28                             150   -0.06 7 79.7  37 
 PAM  SZ I         819 15.53       101.0 0.21                          79.7  37 
 PAM  SN ES   1    819 32.64                             150   -0.31 7 79.7  37 
 RUS  HZ EP   1    819 16.37                             145   -0.09 7 96.8 176 
 RUS  HN ES   1    819 34.63                             145   -0.31 7 96.8 176 
 RUS  HN I         819 37.02        60.9 0.19                          96.8 176 
 TAM  HZ EP   1    819 20.66                             131    0.23 7  153 104 
 TAM  HZ I         819 20.91        20.2 0.20                           153 104 
 TAM  HN ES   1    819 42.29                             131    0.27 7  153 104 
 TAM  HN I         819 43.17        99.8 0.42                           153 104 
 ZAR  HZ EP   1    819 25.08                             122   -0.50 6  206 293 
 ZAR  HN ES   1    819 50.91                             122   -0.28 6  206 293 
 ZAR  HZ I         819 57.96        25.5 0.31                           206 293 
 NOR  SZ EP   1    819 28.45                             119   -0.02 6  233 235 
 NOR  SN ES   2    819 56.78                             119    0.45 4  233 235 
 CHI  HZ EP   1    819 30.42                             118    0.20 6  245 196 
 CHI  HZ I         819 32.67        11.5 0.14                           245 196 
 CHI  HN ES   1    819 59.35                             118   -0.09 6  245 196 
 CHI  HN I         820  5.36        30.4 0.28                           245 196 
 ROSC BZ EP   9    819 32.12                             117    1.41 0  250 212 
 ROSC BZ I         819 33.81        19.1 0.25                           250 212 
 ROSC BN ES   9    820  2.57                                    0.85 0  250 212 
 HEL  HZ EP   1    819 33.67                             115    0.58 6  272 257 
 HEL  HN ES   1    820  4.48                             115   -0.07 6  272 257 
 HEL  HN I         820 10.97        15.0 0.28                           272 257 
                                                                                
