 2013  617 0026 49.6 L   6.820 -73.135146.0  RSN 13 0.5 2.2LRSN                1
 GAP=184        0.93       3.3     4.8  6.6 -0.1365E+01  0.8403E+01  0.4292E+00E
 Epicentro: LOS SANTOS - SANTANDER                                             3
 ACTION:UPD 14-01-08 09:55 OP:ep   STATUS:               ID:20130617002649 L   I
 OLDACT:REG 13-06-17 06:59 OP:carl STATUS:               ID:20130617001959     3
 2013-06-17-0019-59M.COL___261                                                 6
 STAT SP IPHASW D HRMM SECON CODA AMPLIT PERI AZIMU VELO AIN AR TRES W  DIS CAZ7
 BAR2 SZ EP        027  9.20                             170   -0.0810 25.7 192 
 BAR2 SZ ES   1    027 24.45                             170   -0.20 7 25.7 192 
 BAR2 SZ I         027 25.12        25.8 0.32            168           25.7 192 
 GIR2 SZ EP   1    027  9.15                             168   -0.07 7 29.4 347 
 BRR  HZ EP        027 11.06                             153    0.3210 71.2 297 
 BRR  HN ES   1    027 28.05                             153    0.79 7 71.2 297 
 BRR  HZ I         027 28.50        47.5 0.30            149           71.2 297 
 RUS  HZ EP   1    027 13.40                             143   -0.10 7  103 177 
 RUS  HN ES   1    027 32.24                             143    0.08 7  103 177 
 RUS  HZ I         027 33.84        16.7 0.36            142            103 177 
 PTB  HZ EP   1    027 16.19                             132   -0.51 7  149 258 
 PTB  HN ES   1    027 37.11                             132   -0.75 7  149 258 
 PTB  HZ I         027 37.85        16.5 0.12            129            149 258 
 OCA  HZ EP   1    027 17.09                             130   -0.62 7  158 353 
 OCA  HE ES   1    027 40.02                             130    0.37 7  158 353 
 OCA  HZ I         027 43.95        22.7 0.28            129            158 353 
 ZAR  HZ EP   1    027 22.47                             122    0.41 6  204 291 
 ZAR  HN ES   1    027 47.46                             122    0.06 6  204 291 
 ZAR  HZ I         027 52.90        29.0 0.16            120            204 291 
 NOR  HZ EP   1    027 25.14                             118   -0.41 6  237 234 
 NOR  HE ES   1    027 52.80                             118   -0.82 6  237 234 
 NOR  HZ I         027 59.18        10.7 0.28            117            237 234 
 SML  HZ EP   1    027 25.66                             118   -0.39 6  242 335 
 SML  HN ES   1    027 53.78                             118   -0.72 6  242 335 
 SML  HZ I         028  1.75        20.0 0.10            116            242 335 
 CHI  HE ES   1    027 57.69                             117    0.53 6  251 195 
 CHI  HZ I         028  4.76         5.2 0.44            116            251 195 
 ROSC BN ES   4    027 59.33                             117    1.40 0  255 211 
 HEL  HZ EP   1    027 31.29                             115    1.31 6  274 255 
 HEL  HN ES        028  1.86                             115    0.36 8  274 255 
 HEL  HZ I         028  7.27         7.6 0.52            113            274 255 
 GUY2CHZ EP   1    027 34.08                             112    0.64 5  303 235 
 GUY2CHN ES   1    028  7.53                             112   -0.13 5  303 235 
 GUY2CHZ I         028 15.56         6.6 0.34                           303 235 
 PRA  HZ EP   1    027 43.65                             106    0.26 4  394 210 
 PRA  HN ES   1    028 24.58                             106   -0.79 4  394 210 
 PRA  HZ I         028 33.29         4.5 0.24            105            394 210 
                                                                                
