 2017  817 0013 15.3 L   6.700 -73.486108.4  RSN  5 0.3 1.3LRSN                1
 GAP=138        0.86       4.0     4.9  8.1  0.9700E+01  0.1480E+02  0.8333E+01E
 Epicentro: EL CARMEN - SANTANDER                                              3
 ACTION:UPD 17-09-04 20:21 OP:rebc STATUS:               ID:20170817001315 L   I
 OLDACT:REG 17-08-17 12:20 OP:lv   STATUS:               ID:20170817000736     3
 2017-08-17-0008-00M.COL___413                                                 6
 STAT SP IPHASW D HRMM SECON CODA AMPLIT PERI AZIMU VELO AIN AR TRES W  DIS CAZ7
 BAR2 EZ EP        013 30.89                             160    0.0210 35.6 109 
 BAR2 EZ ES        013 43.47                             160    0.4610 35.6 109 
 BRR  HZ EP        013 30.81                             153   -0.4810 51.5 331 
 BRR  HN ES        013 43.43                             153   -0.3310 51.5 331 
 BRR  HZ I         013 44.05         7.0 0.26            155           51.5 331 
 RUS  HZ EP        013 35.72                             134    0.2010 99.8 153 
 RUS  HN ES        013 51.15                             134   -0.1410 99.8 153 
 RUS  HZ I         013 53.38         2.4 0.32            135           99.8 153 
 SPBC HE ES        013 55.71                             125   -0.1410  133 209 
 SPBC HZ I         013 58.51         4.8 0.10            125            133 209 
 ZAR  HN ES        014  4.04                             117    0.49 9  175 300 
                                                                                
