 2011  517 0335 43.9 L   6.778 -73.076142.5  RSN  9 0.2 1.6LRSN                1
 GAP=147        0.42       2.7     5.9  4.7  0.1488E+01 -0.1497E+02 -0.3790E+01E
 Epicentro: LOS SANTOS - SANTANDER                                             3
 ACTION:UP  11-06-29 08:53 OP:tino STATUS:               ID:20110517033543 L   I
 2011-05-17-0332-19S.COL___141                                                 6
 STAT SP IPHASW D HRMM SECON CODA AMPLIT PERI AZIMU VELO SNR AR TRES W  DIS CAZ7
 BAR2 SZ ES   1    336 17.86                             170    -0.3 7   24 210 
 BAR2 SZ I         336 19.43        12.1 0.47                            24 210 
 BTL  SZ EP        336  3.28                             169     0.010   26 306 
 BTL  SZ ES   2    336 18.57                             169     0.3 5   26 306 
 GIR2 SZ EP   1    336  3.21                             165    -0.1 7   36 339 
 PAM  SZ EP   1    336  5.85                             151     0.2 7   75  34 
 BRR  HE ES   1    336 21.89                             149     0.1 7   79 297 
 BRR  HZ I         336 22.91         9.5 0.13                            79 297 
 RUS  HZ EP   1    336  7.33                             144     0.2 7   98 180 
 RUS  HE ES   2    336 25.31                             144     0.0 5   98 180 
 RUS  HZ I         336 26.62         2.8 0.35                            98 180 
 BRI  SZ EP   1    336  7.53                             141     0.0 7  108  17 
 GRA  SZ EP   1    336  8.82                             136    -0.1 7  126  14 
 GRA  SZ I         336 10.35         6.2 0.21                           126  14 
 GRA  SZ ES   2    336 28.37                             136     0.0 5  126  14 
 OCA  SZ EP   1    336 12.08                             128    -0.3 7  164 351 
 OCA  SZ ES   2    336 34.68                             128     0.2 5  164 351 
 OCA  SZ I         336 41.86         7.2 0.40                           164 351 
                                                                                
