 2013 1017 0734 28.1 L   6.813 -73.161144.8  RSN 19 0.5 2.3LRSN                1
 GAP=112        1.09       2.5     3.5  5.1 -0.4399E+00  0.5445E+01  0.1722E+01E
 Epicentro: LOS SANTOS - SANTANDER                                             3
 ACTION:UPD 13-11-25 09:22 OP:ep   STATUS:               ID:20131017073428 L   I
 OLDACT:REG 13-10-17 08:45 OP:jn   STATUS:               ID:20131017072847     3
 2013-10-17-0728-47M.COL___223                                                 6
 STAT SP IPHASW D HRMM SECON CODA AMPLIT PERI AZIMU VELO AIN AR TRES W  DIS CAZ7
 BAR2 SZ EP        734 47.66                             170   -0.0210 24.6 185 
 BAR2 SZ ES        735  3.09                             170    0.1710 24.6 185 
 BAR2 SZ I         735  5.37        63.1 0.28            168           24.6 185 
 BRR  HZ EP        734 49.51                             153    0.4410 69.0 298 
 BRR  HN ES   1    735  6.19                             153    0.81 7 69.0 298 
 BRR  HZ I         735 10.48        25.6 0.12            149           69.0 298 
 PAM  SZ EP        734 50.39                             151    0.1310 77.4  41 
 PAM  SN ES        735  7.75                             151    0.2510 77.4  41 
 PAM  SZ I         735  9.80        33.7 0.20            153           77.4  41 
 RUS  HZ EP        734 51.54                             143   -0.3810  102 175 
 RUS  HN ES        735  9.78                             143   -0.6810  102 175 
 RUS  HZ I         735 11.22        15.4 0.56            143            102 175 
 PTB  HZ EP        734 54.27                             132   -0.64 9  146 258 
 PTB  HN ES        735 15.15                             132   -0.63 9  146 258 
 PTB  HZ I         735 21.52        33.0 0.22            129            146 258 
 OCA  HZ EP        734 57.10                             130    0.88 9  159 354 
 OCA  HN ES        735 17.46                             130   -0.67 9  159 354 
 OCA  HZ I         735 26.10        25.4 0.32            129            159 354 
 SPBC HZ EP        734 56.58                             129    0.00 9  163 218 
 SPBC HN ES        735 19.03                             129    0.28 9  163 218 
 SPBC HZ I         735 23.73        40.5 0.40            127            163 218 
 YOP  SZ EP        734 58.17                             126   -0.15 9  181 153 
 YOP  SN ES        735 22.26                             126    0.40 9  181 153 
 YOP  SZ I         735 25.19         9.8 0.26            126            181 153 
 ZAR  HZ EP        735  0.13                             122   -0.18 9  202 292 
 ZAR  HN ES   1    735 25.21                             122   -0.18 6  202 292 
 ZAR  HZ I         735 31.21        29.6 0.46            120            202 292 
 NOR  HZ EP        735  3.83                             118    0.07 8  234 234 
 NOR  HN ES        735 31.76                             118    0.22 8  234 234 
 NOR  HZ I         735 35.49        21.0 0.24            117            234 234 
 SML  HZ EP        735  3.92                             117   -0.57 8  242 336 
 SML  HE ES        735 32.67                             117   -0.18 8  242 336 
 CHI  HZ EP        735  5.71                             117   -0.19 8  250 195 
 CHI  HN ES        735 34.38                             117   -0.96 8  250 195 
 CHI  HZ I         735 41.01         9.7 0.24            116            250 195 
 ROSC BZ EP        735  7.42                             116    1.17 8  253 211 
 ROSC BN ES   1    735 36.62                             116    0.64 6  253 211 
 HEL  HZ EP   1    735  8.17                             115    0.01 6  271 255 
 HEL  HN ES        735 39.78                             115    0.40 8  271 255 
 HEL  HZ I         735 46.37        10.1 0.36            113            271 255 
 GUY2CHZ EP        735 11.82                             112    0.17 7  301 234 
 GUY2CHZ I         735 54.53        19.6 0.76                           301 234 
 RREF HZ EP   1    735 14.82                             111    0.61 5  321 229 
 RREF HZ I         735 56.32        15.9 0.24            110            321 229 
 CBOC HZ EP        735 15.28                             110    0.40 7  332 252 
 CBOC HN ES   1    735 51.21                             110   -0.13 5  332 252 
 CBOC HZ I         736  0.79         3.6 0.42            109            332 252 
 PRA  HZ EP        735 21.06                             106   -0.62 6  392 209 
 PRA  HN ES        736  3.78                             106    0.34 6  392 209 
 PRA  HZ I         736  8.32        12.1 0.50            106            392 209 
 ORTC HZ EP        735 21.47                             106   -0.58 6  396 216 
 ORTC HN ES        736  4.31                             106    0.21 6  396 216 
 ORTC HZ I         736 12.34         7.7 0.64            105            396 216 
                                                                                
