 2012 1017 0923 52.1 L   6.778 -73.094148.7  RSN 10 0.4 2.3LRSN                1
 GAP=144        0.85       4.2     5.3  6.3  0.2286E+00  0.1137E+02  0.6902E+01E
 Epicentro: LOS SANTOS - SANTANDER                                             3
 ACTION:UPD 12-11-22 17:04 OP:ep   STATUS:               ID:20121017092352 L   I
 2012-10-17-0920-00M.COL___231                                                 6
 STAT SP IPHASW D HRMM SECON CODA AMPLIT PERI AZIMU VELO AIN AR TRES W  DIS CAZ7
 BAR2 SZ EP        924 12.13                             171    0.0810 22.7 205 
 BAR2 SZ I         924 12.75        32.1 0.18                          22.7 205 
 BAR2 SZ ES   1    924 27.65                             171    0.02 7 22.7 205 
 GIR2 SZ EP   1    924 12.41                             166    0.21 7 35.1 342 
 GIR2 SZ ES   1    924 27.12                             166   -0.79 7 35.1 342 
 PAM  SZ EP   1    924 14.90                             152    0.38 7 75.9  35 
 PAM  SZ I         924 16.95        14.0 0.14                          75.9  35 
 PAM  SN ES   1    924 31.91                             152   -0.11 7 75.9  35 
 BRR  HZ EP   1    924 14.05                             151    0.15 7 77.4 298 
 BRR  HZ I         924 14.29        61.9 0.14                          77.4 298 
 BRR  HN ES   1    924 31.69                             151    0.77 7 77.4 298 
 RUS  HZ EP   1    924 15.94                             145    0.01 7 97.9 179 
 RUS  HN ES   1    924 34.51                             145   -0.02 7 97.9 179 
 RUS  HZ I         924 36.00        15.4 0.30                          97.9 179 
 ZAR  HZ EP   1    924 24.52                             122   -0.83 6  210 292 
 ZAR  HN ES   1    924 50.96                             122   -0.35 6  210 292 
 ZAR  HZ I         924 56.62        32.3 0.40                           210 292 
 NOR  SN ES   1    924 57.23                             119    0.63 6  238 236 
 CHI  HZ EP   1    924 30.20                             118    0.35 6  248 197 
 CHI  HZ I         924 32.80        11.0 0.30                           248 197 
 CHI  HN ES   1    924 58.50                             118   -0.82 6  248 197 
 CHI  HN I         925  3.74        22.1 0.37                           248 197 
 HEL  HZ EP   1    924 32.68                             115   -0.30 6  277 257 
 HEL  HZ I         925 11.84        16.1 0.26                           277 257 
 HEL  HN I         925 13.98        13.4 0.24                           277 257 
 RREF HZ EP   1    924 38.92                             111    0.26 5  325 230 
                                                                                
