 2016 1017 0701 31.7 L   6.783 -73.118142.0  RSN  7 0.4 1.4LRSN                1
 GAP=141        0.92       3.4     4.6  6.8 -0.3665E+01  0.2240E+01 -0.1558E+00E
 Epicentro: LOS SANTOS - SANTANDER                                             3
 ACTION:UPD 16-11-09 19:20 OP:rebc STATUS:               ID:20161017070131 L   I
 OLDACT:REG 16-10-17 11:56 OP:and  STATUS:               ID:20161017065732     3
 2016-10-17-0658-00M.COL___343                                                 6
 STAT SP IPHASW D HRMM SECON CODA AMPLIT PERI AZIMU VELO AIN AR TRES W  DIS CAZ7
 BAR2 EZ EP        7 1 50.81                             171   -0.0010 22.2 199 
 BAR2 EZ ES        7 2  5.81                             171    0.0610 22.2 199 
 BAR2 EZ I         7 2  6.77         8.0 0.18            171           22.2 199 
 BRR  HZ EP        7 1 52.84                             151    0.2310 74.8 299 
 BRR  HN ES        7 2  9.56                             151    0.6110 74.8 299 
 PAM  EZ EP        7 1 53.64                             150    0.1910 77.0  37 
 PAM  EE ES        7 2 10.56                             150    0.1210 77.0  37 
 PAM  EZ I         7 2 12.91         5.8 0.62            151           77.0  37 
 RUS  HZ EP        7 1 55.31                             144    0.4210 98.5 178 
 RUS  HE ES        7 2 12.45                             144   -0.5610 98.5 178 
 RUS  HZ I         7 2 14.42         2.6 0.22            145           98.5 178 
 PTB  HZ EP   2    7 1 58.81                             131    0.24 5  150 260 
 PTB  HE ES        7 2 19.31                             131   -0.24 9  150 260 
 PTB  HZ I         7 2 21.26         2.1 0.11            131            150 260 
 OCA  HZ EP   2    7 1 59.35                             128   -0.55 5  163 352 
 OCA  HN ES        7 2 21.17                             128   -0.75 9  163 352 
 OCA  HZ I         7 2 24.49         6.8 0.34            129            163 352 
 SPBC HZ EP   2    7 1 59.98                             128    0.06 5  164 220 
 SPBC HN ES        7 2 21.75                             128   -0.21 9  164 220 
 SPBC HZ I         7 2 24.77         3.5 0.10            129            164 220 
                                                                                
