 2014  217 0449  2.4 L   6.802 -73.163148.0  RSN 10 0.4 2.0LRSN                1
 GAP= 77        0.65       2.4     3.7  4.6 -0.8292E+00  0.4435E+01  0.1808E+01E
 Epicentro: LOS SANTOS - SANTANDER                                             3
 ACTION:UPD 14-03-10 08:10 OP:ep   STATUS:               ID:20140217044902 L   I
 OLDACT:REG 14-02-17 11:43 OP:cam  STATUS:               ID:20140217044746     3
 2014-02-17-0447-46M.COL___215                                                 6
 STAT SP IPHASW D HRMM SECON CODA AMPLIT PERI AZIMU VELO AIN AR TRES W  DIS CAZ7
 BAR2 SZ EP     D  449 22.20                             171   -0.1210 23.3 185 
 BAR2 SZ ES        449 37.97                             171    0.1310 23.3 185 
 BAR2 SZ I         449 40.01        45.5 0.31            168           23.3 185 
 PAM  SZ EP     D  449 25.04                             151    0.1010 78.4  41 
 PAM  SN ES   1    449 42.40                             151   -0.10 7 78.4  41 
 PAM  SZ I         449 45.27        12.4 0.39            154           78.4  41 
 RUS  HZ EP        449 26.20                             144   -0.2210  101 175 
 RUS  HN ES   1    449 44.98                             144   -0.16 7  101 175 
 RUS  HZ I         449 46.44        11.1 0.27            144            101 175 
 PTB  HZ EP        449 28.69                             133   -0.72 9  146 259 
 PTB  HN ES   1    449 50.75                             133    0.29 7  146 259 
 PTB  HZ I         449 52.54        10.0 0.23            133            146 259 
 TAM  HZ EP   2    449 30.63                             131    0.18 5  157 105 
 TAM  HN ES   2    449 52.48                             131    0.16 5  157 105 
 OCA  HZ EP   4    449 30.54                             130   -0.32 0  160 354 
 OCA  HN ES        449 53.19                             130    0.14 9  160 354 
 SML  HZ EP   2    449 39.25                             118    0.19 4  243 336 
 SML  HN ES   2    450  7.64                             118   -0.00 4  243 336 
 CHI  HZ EP     C  449 40.49                             118    0.27 8  248 195 
 CHI  HN ES   1    450  9.92                             118    0.22 6  248 195 
 CHI  HZ I         450 16.16         6.2 0.33            118            248 195 
 ROSC BZ EP   4    449 41.99                             117    1.40 0  252 211 
 HEL  HZ EP   2    449 43.79                             115    1.23 4  270 256 
 HEL  HN ES   4    450 17.41                             115    3.55 0  270 256 
 GUY2CHZ EP   4    449 47.37                             113    1.39 0  300 235 
 PRA  HZ EP        449 56.09                             107    0.15 6  391 209 
 PRA  HN ES   2    450 38.42                             107    0.74 3  391 209 
 PRA  HZ I         450 44.73         6.4 0.43            108            391 209 
                                                                                
