 2014 1017 0723 29.8 L   6.820 -73.139146.8  RSN 13 0.4 1.9LRSN                1
 GAP=136        0.93       2.5     3.8  5.2 -0.1611E+01  0.5761E+01  0.2100E+00E
 Epicentro: LOS SANTOS - SANTANDER                                             3
 ACTION:UPD 14-11-29 23:50 OP:nd   STATUS:               ID:20141017072329 L   I
 OLDACT:UP  14-10-17 18:29 OP:mh   STATUS:               ID:20141017071736d    3
 OLDACT:DUP 14-10-17 18:29 OP:mh   STATUS:               ID:20141017071736d    3
 2014-10-17-0717-35M.COL___282                                                 6
 STAT SP IPHASW D HRMM SECON CODA AMPLIT PERI AZIMU VELO AIN AR TRES W  DIS CAZ7
 BAR2 SZ EP        723 49.74                             170    0.1510 25.6 191 
 BAR2 SZ ES   1    724  4.51                             170   -0.53 7 25.6 191 
 BAR2 SZ I         724  8.03        11.9 0.07            168           25.6 191 
 BRR  HZ EP   1    723 50.53                             153   -0.50 7 70.8 297 
 BRR  HN ES   1    724  8.08                             153    0.49 7 70.8 297 
 BRR  HZ I         724 11.41        13.6 0.40            150           70.8 297 
 PAM  SZ EP     C  723 52.67                             152    0.6810 75.2  40 
 PAM  SN ES        724  9.19                             152   -0.1110 75.2  40 
 PAM  SZ I         724 11.64        11.2 0.52            156           75.2  40 
 RUS  HZ EP   1 C  723 53.63                             143   -0.17 7  103 177 
 RUS  HN ES        724 12.48                             143   -0.0510  103 177 
 RUS  HZ I         724 15.33         5.0 0.24            146            103 177 
 PTB  HZ EP        723 56.51                             132   -0.43 9  149 258 
 PTB  HN ES        724 17.85                             132   -0.27 9  149 258 
 PTB  HZ I         724 19.54        17.1 0.12            131            149 258 
 OCA  HZ EP        723 58.29                             130    0.31 9  158 353 
 OCA  HN ES        724 19.58                             130   -0.39 9  158 353 
 OCA  HZ I         724 25.05         7.6 0.14            132            158 353 
 SPBC HZ EP     C  723 58.67                             129    0.10 9  165 219 
 SPBC HN ES        724 21.54                             129    0.52 9  165 219 
 SPBC HZ I         724 27.83         9.8 0.30            130            165 219 
 ZAR  HZ EP        724  2.13                             123   -0.15 9  204 291 
 ZAR  HN ES   1    724 28.67                             123    1.04 6  204 291 
 ZAR  HZ I         724 34.44        14.3 0.34            123            204 291 
 SML  HZ EP        724  6.07                             118   -0.21 8  242 335 
 SML  HN ES   1    724 34.62                             118   -0.13 6  242 335 
 CHI  HZ EP        724  7.41                             117   -0.38 8  251 195 
 CHI  HN ES        724 37.61                             117    0.17 8  251 195 
 CHI  HZ I         724 44.73         5.0 0.32            119            251 195 
 HEL  HZ EP        724 10.81                             115    0.62 8  273 255 
 HEL  HN ES        724 41.06                             115   -0.64 8  273 255 
 HEL  HZ I         724 48.85         5.6 0.34            116            273 255 
 URE  HZ EP   4    724  9.78                             114   -1.11 0  284 291 
 URE  HN ES   4    724 46.37                             114    3.42 0  284 291 
 RREF HZ EP   4    724 14.08                             111   -2.12 0  324 229 
 RREF HN ES   4    724 51.27                             111   -1.13 0  324 229 
 TOL  SZ EP   4    724 19.39                             109    1.07 0  346 224 
 TOL  SN ES   4    724 55.86                             109   -0.32 0  346 224 
 MON  HZ EP   4    724 16.56                             109   -2.17 0  353 308 
 MON  HN ES   4    724 55.74                             109   -1.17 0  353 308 
 MON  HZ I         725 12.14         2.3 0.32            110            353 308 
 PRA  HZ EP        724 23.58                             106   -0.03 6  394 209 
 PRA  HN ES   1    725  5.12                             106   -0.47 4  394 209 
 PRA  HZ I         725  8.84         4.6 0.56            108            394 209 
 SJC  HZ EP   4    724 23.28                             106   -1.93 0  408 327 
 SJC  HN ES   4    725  4.68                             106   -3.76 0  408 327 
                                                                                
