 2013  117 0919 15.0 L   6.791 -73.171146.5  RSN  8 0.4 2.0LRSN                1
 GAP=134        0.84       4.4     4.4  6.9  0.1647E+01  0.8814E+01  0.5409E+01E
 Epicentro: LOS SANTOS - SANTANDER                                             3
 ACTION:UPD 13-02-15 09:14 OP:ep   STATUS:               ID:20130117091915 L   I
 2013-01-17-0917-51M.COL___180                                                 6
 STAT SP IPHASW D HRMM SECON CODA AMPLIT PERI AZIMU VELO AIN AR TRES W  DIS CAZ7
 BAR2 SZ EP   1    919 34.73                             171    0.06 7 22.0 183 
 BAR2 SZ ES   1    919 49.74                             171   -0.28 7 22.0 183 
 BAR2 SZ I         919 51.15        41.9 0.20            168           22.0 183 
 BRR  HZ EP   1    919 36.53                             153    0.43 7 69.3 300 
 BRR  HN ES   1    919 53.48                             153    0.91 7 69.3 300 
 BRR  HZ I         919 56.77        12.5 0.11            150           69.3 300 
 PAM  SZ EP   1    919 37.61                             150    0.19 7 79.9  41 
 PAM  SN ES   1    919 54.65                             150   -0.28 7 79.9  41 
 PAM  SZ I         919 57.02        13.6 0.50            155           79.9  41 
 RUS  HZ EP   1    919 38.71                             144   -0.04 7 99.8 174 
 RUS  HN ES   1    919 56.89                             144   -0.39 7 99.8 174 
 RUS  HZ I         919 58.74        12.0 0.26            144           99.8 174 
 PTB  HZ EP   1    919 41.42                             133   -0.33 7  145 259 
 PTB  HN ES   1    920  2.22                             133   -0.40 7  145 259 
 PTB  HZ I         920  6.03        10.4 0.13            131            145 259 
 ZAR  HZ EP   1    919 46.41                             123   -0.84 6  202 293 
 ZAR  HN ES   1    920 12.49                             123    0.07 6  202 293 
 ZAR  HZ I         920 19.36        10.2 0.25            122            202 293 
 CHI  HZ EP   1    919 53.08                             117    0.54 6  247 195 
 CHI  HN ES   1    920 22.34                             117    0.51 6  247 195 
 CHI  HZ I         920 29.43         5.5 0.48            118            247 195 
 HEL  HN ES   1    920 25.94                             115   -0.11 6  269 256 
 HEL  HZ I         920 35.34         4.7 0.26            115            269 256 
                                                                                
