 2016 1017 0754 28.5 L   6.891 -73.166151.2  RSN  4 0.4 0.9LRSN                1
 GAP=151        0.93       5.5     5.6  9.0 -0.1342E+02  0.1372E+02  0.3925E+00E
 Epicentro: BETULIA - SANTANDER                                                3
 ACTION:UPD 16-11-09 19:20 OP:rebc STATUS:               ID:20161017075428 L   I
 OLDACT:REG 16-10-17 12:00 OP:and  STATUS:               ID:20161017074736     3
 2016-10-17-0748-00M.COL___344                                                 6
 STAT SP IPHASW D HRMM SECON CODA AMPLIT PERI AZIMU VELO AIN AR TRES W  DIS CAZ7
 PAM  EZ EP        754 51.41                             154    0.4810 71.5  46 
 PAM  EE ES        755  8.34                             154   -0.1110 71.5  46 
 PAM  EZ I         755  9.36         1.9 0.28            159           71.5  46 
 RUS  HZ EP        754 53.32                             142   -0.1710  111 175 
 RUS  HN ES        755 12.76                             142   -0.2510  111 175 
 RUS  HZ I         755 15.93         0.6 0.50            145            111 175 
 PTB  HZ EP        754 55.77                             133   -0.11 9  148 255 
 PTB  HN ES        755 17.02                             133   -0.25 9  148 255 
 PTB  HZ I         755 22.37         1.2 0.18            135            148 255 
 SPBC HZ EP        754 57.66                             129   -0.34 9  170 216 
 SPBC HE ES        755 21.80                             129    0.76 9  170 216 
 SPBC HZ I         755 24.59         1.5 0.16            131            170 216 
                                                                                
