 2016 1217 0017 15.8 L   6.178 -73.838 97.2  RSN  6 0.2 1.2LRSN                1
 GAP=124        0.58       1.9     3.1  6.1 -0.1306E+00  0.7173E+01  0.1859E+00E
 Epicentro: LANDAZURI - SANTANDER                                              3
 ACTION:UPD 17-01-11 20:15 OP:rebc STATUS:               ID:20161217001716dL   I
 OLDACT:DUP 16-12-17 13:19 OP:e    STATUS:               ID:20161217000750d    3
 OLDACT:DUP 16-12-17 13:12 OP:e    STATUS:               ID:20161217000749d    3
 2016-12-17-0008-00M.COL___384                                                 6
 STAT SP IPHASW D HRMM SECON CODA AMPLIT PERI AZIMU VELO AIN AR TRES W  DIS CAZ7
 PTB  HZ EP        017 32.70                             138    0.1010 79.2 300 
 PTB  HE I         017 44.94         7.7 0.18            133           79.2 300 
 PTB  HZ I         017 47.17         2.5 0.07                          79.2 300 
 BAR2 EZ EP        017 33.58                             136    0.1310 85.7  58 
 BAR2 EZ ES        017 47.55                             136    0.2910 85.7  58 
 BAR2 EZ I         017 49.14         6.0 0.25            146           85.7  58 
 RUS  HZ EP        017 34.03                             135   -0.0810 89.3 111 
 RUS  HN ES        017 48.10                             135   -0.3310 89.3 111 
 BRR  HZ EP        017 34.38                             130   -0.3710  104   8 
 BRR  HN ES        017 49.53                             130   -0.0410  104   8 
 CHI  HE ES        018  3.41                             116    0.20 9  172 176 
 PAM  EZ EP        017 43.46                             114    0.04 9  180  44 
 PAM  EN ES        018  5.14                             114    0.14 9  180  44 
                                                                                
