 2011  517 0110 39.0 L   6.713 -73.110151.3  RSN  4 0.1 1.5LRSN                1
 GAP=164        0.35       4.5     8.5  8.4  0.2108E+02 -0.5368E+02 -0.2051E+02E
 Epicentro: JORDAN - SANTANDER                                                 3
 ACTION:UP  11-06-29 08:53 OP:tino STATUS:               ID:20110517011039 L   I
 2011-05-17-0106-40S.COL___140                                                 6
 STAT SP IPHASW D HRMM SECON CODA AMPLIT PERI AZIMU VELO SNR AR TRES W  DIS CAZ7
 BTL  SZ EP   1    110 59.60                             169     0.2 7   29 322 
 BRR  HZ EP   1    111  1.30                             151     0.0 7   80 303 
 BRR  HN ES   1    111 18.53                             151    -0.1 7   80 303 
 BRR  HZ I         111 23.50        10.5 0.55                            80 303 
 RUS  HZ EP   2    111  2.50                             148    -0.2 5   91 178 
 RUS  HE ES   2    111 21.12                             148     0.0 5   91 178 
 RUS  HZ I         111 22.39         3.2 0.33                            91 178 
 GRA  SZ EP   1    111  5.39                             136    -0.1 7  134  15 
 GRA  SZ I         111 29.97         2.9 0.43                           134  15 
                                                                                
