 2011 1217 0558 26.7 L   6.795 -73.043144.0  RSN  4 0.3 1.2LRSN                1
 GAP=210        0.38       6.7    13.0  7.8  0.7216E+02 -0.6905E+02 -0.2793E+02E
 Epicentro: LOS SANTOS - SANTANDER                                             3
 ACTION:UPD 12-07-13 16:16 OP:ep   STATUS:               ID:20111217055826 L   I
 2011-12-17-0550-00M.COL___187                                                 6
 STAT SP IPHASW D HRMM SECON CODA AMPLIT PERI AZIMU VELO AIN AR TRES W  DIS CAZ7
 BAR2 SZ EP   1    558 46.22                             169   -0.03 7 27.2 215 
 BAR2 SZ I         558 46.66         4.4 0.10                          27.2 215 
 BAR2 SZ ES   2    559  1.62                             169    0.16 5 27.2 215 
 GIR2 SZ EP   2    558 46.32                             166   -0.01 5 35.5 332 
 BRR  HZ EP   3    558 49.30                             149    0.97 2 81.6 295 
 BRR  HE ES   1    559  5.09                             149   -0.07 7 81.6 295 
 BRR  HZ I         559  6.81         4.7 0.17                          81.6 295 
 RUS  HZ EP   1    558 50.14                             144   -0.13 7 99.9 183 
 RUS  HN ES   1    559  8.67                             144    0.05 7 99.9 183 
 RUS  HZ I         559 10.39         1.0 0.48                          99.9 183 
                                                                                
