 2016  717 0551 48.5 L   6.818 -73.135150.9  RSN  7 0.4 1.7LRSN                1
 GAP=137        1.13       4.9     5.0  7.2 -0.7287E+00  0.9692E+01  0.3536E+00E
 Epicentro: LOS SANTOS - SANTANDER                                             3
 ACTION:UPD 17-03-29 16:52 OP:lp   STATUS:               ID:20160717055148 L   I
 OLDACT:REG 16-07-17 14:46 OP:lv   STATUS:               ID:20160717054759     3
 2016-07-17-0547-59S.COL___314                                                 6
 STAT SP IPHASW D HRMM SECON CODA AMPLIT PERI AZIMU VELO AIN AR TRES W  DIS CAZ7
 BAR2 EZ ES        552 24.04                             170   -0.5510 25.5 192 
 BAR2 EZ I         552 24.93        21.2 0.08            170           25.5 192 
 BRR  HZ IP     C  552 10.46                             153    0.2710 71.3 297 
 BRR  HE ES        552 28.12                             153    1.0010 71.3 297 
 BRR  HZ I         552 31.28         5.8 0.13            152           71.3 297 
 PAM  EZ EP        552 11.17                             152    0.0610 75.1  40 
 PAM  EE ES        552 28.51                             152   -0.2510 75.1  40 
 PAM  EZ I         552 30.66         8.7 0.64            155           75.1  40 
 RUS  HZ EP        552 12.86                             144   -0.0110  103 177 
 RUS  HN ES        552 31.95                             144    0.0510  103 177 
 RUS  HZ I         552 32.44         6.2 0.19            147            103 177 
 PTB  HZ EP        552 15.75                             133   -0.26 9  149 258 
 PTB  HN ES        552 36.69                             133   -0.79 9  149 258 
 PTB  HZ I         552 40.68         5.3 0.13            133            149 258 
 SPBC HZ EP        552 17.77                             130    0.18 9  165 219 
 SPBC HE ES        552 40.74                             130    0.44 9  165 219 
 SPBC HZ I         552 44.24         3.5 0.12            131            165 219 
 ZAR  HZ EP        552 21.18                             123   -0.12 9  204 291 
 ZAR  HN ES        552 46.76                             123   -0.14 9  204 291 
 ZAR  HZ I         552 49.71         4.4 0.13            124            204 291 
                                                                                
