 2011  517 0832 52.3 L   6.771 -73.092140.9  RSN  6 0.3 1.5LRSN                1
 GAP=145        0.52       4.2     6.8  6.8 -0.1088E+02  0.3958E+00 -0.4067E+01E
 Epicentro: LOS SANTOS - SANTANDER                                             3
 ACTION:UP  11-06-29 08:54 OP:tino STATUS:               ID:20110517082000 L   I
 2011-05-17-0820-00M.COL___142                                                 6
 STAT SP IPHASW D HRMM SECON CODA AMPLIT PERI AZIMU VELO SNR AR TRES W  DIS CAZ7
 BAR2 SZ EP   1    833 11.31                             171     0.0 7   22 207 
 BAR2 SZ I         833 19.30        11.9 0.50                            22 207 
 BAR2 SZ ES   2    833 25.55                             171    -0.6 5   22 207 
 BTL  SZ EP   1    833 11.37                             169     0.0 7   25 310 
 PAM  SZ EP   1    833 14.20                             150     0.2 7   76  35 
 PAM  SN ES   2    833 30.94                             150     0.1 5   76  35 
 BRR  HZ EP   1    833 13.31                             149     0.0 7   78 299 
 BRR  HZ I         833 13.67         6.3 0.20                            78 299 
 BRR  HE ES   2    833 30.13                             149     0.4 5   78 299 
 RUS  HN ES   2    833 33.64                             144     0.3 5   97 179 
 RUS  HZ I         833 35.78         4.8 0.26                            97 179 
 GRA  SZ EP   1    833 17.04                             136    -0.2 7  127  14 
 GRA  SZ ES   1    833 36.74                             136     0.0 7  127  14 
 GRA  SZ I         833 38.16         3.8 0.29                           127  14 
                                                                                
