 2013  617 0015  9.2 L   6.850 -73.096148.3  RSN 11 0.5 2.4LRSN                1
 GAP=117        0.83       3.3     3.7  6.0  0.2562E+00  0.5587E+01  0.3427E+00E
 Epicentro: LOS SANTOS - SANTANDER                                             3
 ACTION:UPD 14-01-08 09:55 OP:ep   STATUS:               ID:20130617001509 L   I
 OLDACT:REG 13-06-17 06:59 OP:carl STATUS:               ID:20130617000959     3
 2013-06-17-0009-59M.COL___261                                                 6
 STAT SP IPHASW D HRMM SECON CODA AMPLIT PERI AZIMU VELO AIN AR TRES W  DIS CAZ7
 BAR2 SZ IP     C  015 29.21                             168   -0.0310 30.1 198 
 BAR2 SZ ES   1    015 44.87                             168   -0.04 7 30.1 198 
 BAR2 SZ I         015 45.68        37.2 0.24            168           30.1 198 
 BRR  HZ IP     D  015 31.01                             152    0.2910 73.7 293 
 BRR  HN ES   1    015 47.95                             152    0.41 7 73.7 293 
 BRR  HZ I         015 52.01        39.0 0.16            150           73.7 293 
 RUS  HZ EP        015 33.34                             143   -0.2010  106 179 
 RUS  HN ES   1    015 52.20                             143   -0.37 7  106 179 
 RUS  HZ I         015 53.88        23.7 0.22            146            106 179 
 TAM  HZ EP   1    015 37.26                             132    0.56 7  151 108 
 TAM  HN ES   1    015 58.48                             132    0.30 7  151 108 
 PTB  HZ EP   1    015 36.03                             131   -0.89 7  154 257 
 PTB  HN ES   4    015 56.97                             131   -1.61 0  154 257 
 PTB  HZ I         016  2.61        28.4 0.26            132            154 257 
 OCA  HZ EP   1    015 36.99                             131   -0.23 7  156 351 
 OCA  HN ES   2    015 58.73                             131   -0.38 5  156 351 
 OCA  HZ I         016  3.25        36.0 0.22            133            156 351 
 SML  HZ EP   1    015 44.98                             118   -0.65 6  241 334 
 SML  HE ES   1    016 13.98                             118   -0.11 6  241 334 
 SML  HZ I         016 15.93        50.4 0.28            120            241 334 
 NOR  HZ EP   1    015 45.55                             118   -0.30 6  242 234 
 NOR  HN ES   1    016 14.22                             118   -0.26 6  242 234 
 NOR  HZ I         016 15.34        17.0 0.20            120            242 234 
 CHI  HZ EP   1    015 47.70                             117   -0.03 6  255 196 
 CHI  HN ES   1    016 17.51                             117   -0.32 6  255 196 
 CHI  HZ I         016 22.33        13.7 0.28            119            255 196 
 ROSC BZ EP   4    015 50.18                             116    1.94 0  260 211 
 ROSC BN ES   4    016 20.41                             116    1.68 0  260 211 
 HEL  HZ EP   1    015 51.25                             115    1.01 6  279 255 
 HEL  HE ES   1    016 23.19                             115    0.91 6  279 255 
 HEL  HZ I         016 28.67        20.6 0.36            116            279 255 
 GUY2CHZ EP        015 54.21                             112    0.47 7  309 235 
 GUY2CHE ES   1    016 28.16                             112   -0.37 5  309 235 
 GUY2CHZ I         016 37.26        16.6 0.62                           309 235 
                                                                                
