 2016 1117 0557 19.7 L   6.617 -73.427113.4  RSN  7 0.3 1.7LRSN                1
 GAP=138        0.89       4.6     2.9  6.5 -0.7736E+00  0.4815E+01  0.4408E+01E
 Epicentro: EL CARMEN - SANTANDER                                              3
 ACTION:UPD 17-10-26 21:09 OP:lp   STATUS:               ID:20161117055719 L   I
 OLDACT:UP  16-11-17 19:05 OP:and  STATUS:               ID:20161117054750d    3
 OLDACT:DUP 16-11-17 18:57 OP:and  STATUS:               ID:20161117054750d    3
 2016-11-17-0548-00M.COL___343                                                 6
 STAT SP IPHASW D HRMM SECON CODA AMPLIT PERI AZIMU VELO AIN AR TRES W  DIS CAZ7
 BAR2 EZ EP        557 35.01                             166   -0.5510 27.2  96 
 BAR2 EZ ES        557 48.06                             166    0.1210 27.2  96 
 BAR2 EZ I         557 49.13        37.8 0.26            165           27.2  96 
 BRR  HZ EP   4    557 36.08                             149   -0.81 0 62.7 330 
 BRR  HN ES        557 50.35                             149    0.0410 62.7 330 
 BRR  HZ I         557 50.81        10.8 0.12            147           62.7 330 
 PAM  EZ EP        557 41.00                             132   -0.5410  113  45 
 PAM  EN ES        557 58.76                             132    0.1710  113  45 
 PAM  EZ I         558  2.03         5.2 0.22            131            113  45 
 PTB  HZ EP        557 41.43                             131    0.4510  114 266 
 PTB  HN ES   4    557 54.03                             131   -3.55 0  114 266 
 PTB  HZ I         557 57.20         8.8 0.18            132            114 266 
 TAM  HE ES        558 10.23                             117    0.35 9  182  96 
 ZAR  HZ EP        557 48.58                             117    0.37 9  185 302 
 ZAR  HE ES        558 10.28                             117   -0.17 9  185 302 
 ZAR  HZ I         558 13.53         4.1 0.13            117            185 302 
 NOR  HZ EP   4    557 51.74                             115    2.13 0  198 234 
 NOR  HN ES        558 12.78                             115   -0.16 9  198 234 
                                                                                
