 2016  817 0620 33.3 L   6.799 -73.156144.0  RSN  9 0.4 1.7LRSN                1
 GAP=248        0.92       4.3     5.3  6.5 -0.8016E+00  0.6617E+01  0.1091E+02E
 Epicentro: LOS SANTOS - SANTANDER                                             3
 ACTION:UPD 16-10-29 15:36 OP:rebc STATUS:               ID:20160817062033 L   I
 OLDACT:REG 16-08-17 12:44 OP:ak   STATUS:               ID:20160817061759     3
 2016-08-17-0617-59S.COL___343                                                 6
 STAT SP IPHASW D HRMM SECON CODA AMPLIT PERI AZIMU VELO AIN AR TRES W  DIS CAZ7
 BAR2 EZ EP        620 52.63                             170   -0.0910 23.1 187 
 BAR2 EZ ES        621  7.75                             170   -0.1110 23.1 187 
 BAR2 EZ I         621  9.31         8.5 0.38                          23.1 187 
 BRR  HZ IP     C  620 54.41                             153    0.2010 70.2 299 
 BRR  HN ES        621 11.27                             153    0.7610 70.2 299 
 BRR  HZ I         621 15.62         8.0 0.36                          70.2 299 
 PTB  HZ EP        620 59.48                             132   -0.55 9  147 259 
 PTB  HN ES        621 20.53                             132   -0.34 9  147 259 
 PTB  HZ I         621 23.56         3.7 0.30                           147 259 
 SPBC HZ EP        621  1.28                             129   -0.32 9  162 219 
 SPBC HN ES        621 23.51                             129   -0.15 9  162 219 
 SPBC HZ I         621 25.78         8.4 0.12                           162 219 
 ZAR  HN ES        621 30.31                             122   -0.35 9  203 292 
 NOR  HZ EP   2    621  9.52                             118    0.69 4  234 234 
 NOR  HN ES        621 36.36                             118   -0.18 8  234 234 
 NOR  HZ I         621 40.67         4.1 0.20                           234 234 
 ROSC BZ EP   2    621 11.30                             117    0.04 4  252 211 
 ROSC BN ES        621 40.85                             117   -0.01 8  252 211 
 ROSC BZ I         621 43.93         3.9 0.30                           252 211 
 GUY2CHZ EP   2    621 17.47                             112    0.75 4  300 235 
 GUY2CHN ES        621 51.35                             112    0.76 7  300 235 
 GUY2CHZ I         621 59.05         2.1 0.26                           300 235 
 PRA  HZ EP        621 26.38                             106   -0.31 6  391 209 
 PRA  HN ES        622  9.14                             106    0.81 6  391 209 
 PRA  HZ I         622 13.64         2.3 0.26                           391 209 
                                                                                
