 2013  417 0700 50.5 L   6.834 -73.157145.2  RSN 15 0.5 2.3LRSN                1
 GAP= 69        0.91       2.9     3.2  5.1 -0.2874E+00  0.3499E+01  0.2008E+01E
 Epicentro: LOS SANTOS - SANTANDER                                             3
 ACTION:UPD 13-05-22 14:39 OP:EP   STATUS:               ID:20130417070050 L   I
 2013-04-17-0700-00M.COL___250                                                 6
 STAT SP IPHASW D HRMM SECON CODA AMPLIT PERI AZIMU VELO AIN AR TRES W  DIS CAZ7
 BAR2 SZ EP        7 1  9.98                             169   -0.1510 26.9 186 
 BAR2 SZ ES   1    7 1 25.24                             169   -0.21 7 26.9 186 
 BAR2 SZ I         7 1 26.50        57.4 0.22            169           26.9 186 
 GIR2 SZ EP        7 1 10.06                             169    0.0610 27.4 351 
 GIR2 SZ ES   1    7 1 25.09                             169   -0.12 7 27.4 351 
 GIR2 SZ I         7 1 26.85        23.0 0.34            168           27.4 351 
 BRR  HZ IP     C  7 1 11.85                             153    0.4210 68.4 296 
 BRR  HN ES   1    7 1 28.34                             153    0.59 7 68.4 296 
 BRR  HZ I         7 1 32.70        36.6 0.16            152           68.4 296 
 PAM  SZ EP        7 1 12.95                             151    0.4210 75.3  42 
 PAM  SN ES   1    7 1 30.02                             151    0.31 7 75.3  42 
 PAM  SZ I         7 1 30.59        26.1 0.20            154           75.3  42 
 RUS  HZ EP        7 1 14.15                             143   -0.3210  104 176 
 RUS  HN ES   1    7 1 32.74                             143   -0.43 7  104 176 
 RUS  HZ I         7 1 34.34        15.0 0.46            144            104 176 
 PTB  HZ EP        7 1 16.43                             132   -0.95 9  147 257 
 PTB  HN ES   1    7 1 37.57                             132   -0.78 7  147 257 
 PTB  HZ I         7 1 40.15        25.8 0.16            132            147 257 
 OCA  HZ EP   1    7 1 17.84                             130   -0.56 7  156 353 
 OCA  HN ES   1    7 1 39.88                             130   -0.28 7  156 353 
 OCA  HZ I         7 1 45.97        20.4 0.42            132            156 353 
 TAM  HZ EP        7 1 18.55                             130    0.22 9  157 106 
 TAM  HN ES   1    7 1 40.35                             130    0.31 7  157 106 
 TAM  HZ I         7 1 41.54         9.5 0.52            133            157 106 
 ZAR  HZ EP   1    7 1 22.86                             123    0.22 6  202 291 
 ZAR  HN ES   1    7 1 47.82                             123    0.10 6  202 291 
 ZAR  HZ I         7 1 53.29        18.4 0.30            123            202 291 
 NOR  HZ EP        7 1 26.28                             118   -0.04 8  236 234 
 NOR  HN ES   1    7 1 54.34                             118    0.07 6  236 234 
 NOR  HZ I         7 1 55.90        12.6 0.20            119            236 234 
 SML  HZ EP        7 1 26.46                             118   -0.20 8  240 335 
 SML  HE ES   1    7 1 54.70                             118   -0.17 6  240 335 
 SML  HZ I         7 1 56.90        29.7 0.44            119            240 335 
 CHI  HZ EP   1    7 1 28.44                             117   -0.08 6  252 195 
 CHI  HN ES   1    7 1 58.26                             117    0.07 6  252 195 
 CHI  HZ I         7 2  1.31        10.9 0.46            118            252 195 
 ROSC BN ES   2    7 1 59.80                             116    1.00 4  255 210 
 ROSC BZ I         7 2  4.22        17.0 0.35            117            255 210 
 HEL  HZ EP   1    7 1 31.77                             115    1.12 6  272 255 
 HEL  HN ES   1    7 2  2.91                             115    0.93 6  272 255 
 HEL  HZ I         7 2  9.38        10.0 0.30            115            272 255 
 PRA  HZ EP   1    7 1 44.02                             106   -0.29 4  395 209 
 PRA  HN ES   1    7 2 26.70                             106    0.41 4  395 209 
 PRA  HZ I         7 2 32.78        11.5 0.30            107            395 209 
                                                                                
