 2010  917 0346 53.2 L   6.788 -73.068146.6  RSN  6 0.3 1.4LRSN                1
 GAP=167        0.55       4.4     7.1  8.1 -0.9668E+01 -0.2031E+02  0.5583E+00E
 Epicentro: LOS SANTOS - SANTANDER                                             3
 ACTION:UP  11-02-18 11:03 OP:tino STATUS:               ID:20100917034653 L   I
 2010-09-17-0344-18S.COL___118                                                 6
 STAT SP IPHASW D HRMM SECON CODA AMPLIT PERI AZIMU VELO SNR AR TRES W  DIS CAZ7
 BTL  SZ EP   1    347 13.14                             170     0.1 7   26 303 
 BRR  HZ EP        347 14.79                             150    -0.210   80 296 
 BRR  HN ES   1    347 31.82                             150    -0.1 7   80 296 
 RUS  HN ES   2    347 35.71                             144     0.2 5   99 181 
 GUE  SZ EP   2    347 17.91                             140    -0.1 5  116   8 
 GRA  SZ EP        347 18.59                             137     0.110  125  14 
 GRA  SZ I         347 20.05         2.8 0.72                           125  14 
 GRA  SZ ES   1    347 37.87                             137    -0.3 7  125  14 
 OCA  SZ ES   2    347 44.92                             129     0.8 5  163 350 
 OCA  SZ I         347 47.20         4.1 0.24                           163 350 
                                                                                
