 2012  817 0908 39.8 L   6.848 -73.229136.3  RSN  5 0.4 1.4LRSN                1
 GAP=161        0.67      10.0     5.8  9.3  0.1180E+02 -0.2309E+00 -0.2264E+02E
 Epicentro: ZAPATOCA - SANTANDER                                               3
 ACTION:UPD 12-09-10 11:56 OP:ep   STATUS:               ID:20120817090839 L   I
 2012-08-17-0906-37M.COL___200                                                 6
 STAT SP IPHASW D HRMM SECON CODA AMPLIT PERI AZIMU VELO AIN AR TRES W  DIS CAZ7
 GIR2 SZ EP   1    9 8 57.79                             169   -0.40 7 25.8   9 
 BAR2 SZ EP   1    9 8 58.89                             167    0.48 7 28.8 170 
 BAR2 SZ ES   1    9 9 13.04                             167    0.10 7 28.8 170 
 BAR2 SZ I         9 9 14.27         8.0 0.23                          28.8 170 
 BRR  HZ EP   1    9 8 59.19                             155   -0.13 7 60.5 298 
 BRR  HZ I         9 8 59.44         5.5 0.15                          60.5 298 
 BRR  HN ES   1    9 9 14.52                             155   -0.04 7 60.5 298 
 PTB  HN ES   1    9 9 24.83                             131   -0.32 7  140 256 
 ZAR  HE ES   2    9 9 35.32                             122    0.82 4  193 292 
 ZAR  HZ I         9 9 38.38         2.2 0.16                           193 292 
                                                                                
