 2017  617 0147 58.5 L   6.794 -73.162150.8  RSN  7 0.4 1.9LRSN                1
 GAP=211        0.77       3.5     4.9  6.4  0.2785E+01 -0.1231E+02  0.3775E+01E
 Epicentro: LOS SANTOS - SANTANDER                                             3
 ACTION:UPD 17-09-14 16:52 OP:jn   STATUS:               ID:20170617014758 L   I
 OLDACT:UP  17-06-17 15:51 OP:cog  STATUS:               ID:20170617013735     3
 OLDACT:REG 17-06-17 12:52 OP:cog  STATUS:               ID:20170617013735     3
 2017-06-17-0138-00M.COL___368                                                 6
 STAT SP IPHASW D HRMM SECON CODA AMPLIT PERI AZIMU VELO AIN AR TRES W  DIS CAZ7
 BRR  HZ EP        148 19.89                             154   -0.2110 70.0 300 
 BRR  HN ES        148 37.33                             154    0.3610 70.0 300 
 BRR  HZ I         148 41.27        13.4 0.14            154           70.0 300 
 PTB  HZ EP   9    148 24.98                             134   -0.70 0  146 259 
 PTB  HN ES        148 46.09                             133   -0.12 9  146 259 
 PTB  HZ I         148 47.85         6.0 0.18            134            146 259 
 SPBC HZ EP        148 27.35                             131    0.15 9  162 219 
 SPBC HN ES        148 49.74                             131    0.12 9  162 219 
 SPBC HZ I         148 57.05        14.0 0.22            131            162 219 
 YPLC HZ EP        148 28.47                             128   -0.19 9  177 151 
 YPLC HN ES   3    148 50.70                             128   -1.51 2  177 151 
 ZAR  HZ EP        148 31.64                             124    0.53 9  203 293 
 ZAR  HN ES        148 55.82                             124   -0.74 9  203 293 
 ZAR  HZ I         149  1.33        11.9 0.40            125            203 293 
 NOR  HZ EP        148 34.30                             120    0.00 8  233 234 
 NOR  HE ES        149  2.03                             120   -0.21 8  233 234 
 NOR  HZ I         149  8.09         5.2 0.18            121            233 234 
 CHI  HZ EP        148 36.49                             118    0.16 8  247 195 
 CHI  HE ES        149  5.91                             118    0.05 8  247 195 
                                                                                
