 2015 1217 0725 12.7 L   6.794 -73.130152.4  RSN  5 0.2 1.5LRSN                1
 GAP=256        0.58       3.8     4.0  4.7  0.2546E+01  0.2989E+01  0.2536E+01E
 Epicentro: LOS SANTOS - SANTANDER                                             3
 ACTION:UPD 16-02-04 15:05 OP:cam  STATUS:               ID:20151217072512 L   I
 OLDACT:REG 15-12-17 13:51 OP:cara STATUS:               ID:20151217071746     3
 2015-12-17-0717-46M.COL___334                                                 6
 STAT SP IPHASW D HRMM SECON CODA AMPLIT PERI AZIMU VELO AIN AR TRES W  DIS CAZ7
 BAR2 EZ IP        725 33.15                             171    0.0610 23.1 194 
 BAR2 EZ ES        725 48.69                             171   -0.3310 23.1 194 
 BAR2 EZ I         725 50.92         6.3 0.28            168           23.1 194 
 BRR  HZ EP        725 34.85                             153    0.2210 73.0 298 
 BRR  HN ES        725 52.05                             153    0.2810 73.0 298 
 BRR  HZ I         725 55.72         6.9 0.42            151           73.0 298 
 PTB  HZ EP        725 40.19                             133   -0.13 9  149 259 
 PTB  HE ES        726  1.77                             133   -0.12 9  149 259 
 PTB  HZ I         726  7.01         2.6 0.34            132            149 259 
 SPBC HZ EP        725 41.58                             130   -0.15 9  164 220 
 SPBC HN ES        726  4.69                             130    0.28 9  164 220 
 SPBC HZ I         726  8.77         5.9 0.30            131            164 220 
 ZAR  HN ES        726 11.34                             123   -0.19 8  206 292 
 ZAR  HZ I         726 16.30         3.1 0.36            124            206 292 
                                                                                
