 2011 1217 0813 35.9 L   6.754 -73.110146.3  RSN  7 0.1 1.7LRSN                1
 GAP=143        0.35       2.4     4.7  3.3  0.3718E+01 -0.4164E+01 -0.1932E+01E
 Epicentro: LOS SANTOS - SANTANDER                                             3
 ACTION:UPD 12-07-13 16:16 OP:ep   STATUS:               ID:20111217081335 L   I
 2011-12-17-0810-00M.COL___186                                                 6
 STAT SP IPHASW D HRMM SECON CODA AMPLIT PERI AZIMU VELO AIN AR TRES W  DIS CAZ7
 BAR2 SZ EP        813 55.52                             172    0.0010 19.7 204 
 BAR2 SZ ES   1    814 10.66                             172   -0.17 7 19.7 204 
 BAR2 SZ I         814 11.98        22.8 0.17                          19.7 204 
 GIR2 SZ EP   1    813 55.60                             165   -0.20 7 37.0 346 
 BRR  HZ EP        813 57.34                             151   -0.1010 77.1 300 
 BRR  HE ES   1    814 14.42                             151    0.17 7 77.1 300 
 BRR  HZ I         814 15.57        10.7 0.12                          77.1 300 
 PAM  SZ EP   1    813 58.38                             150    0.12 7 79.0  35 
 RUS  HZ EP   1    813 59.29                             145   -0.04 7 95.4 178 
 RUS  HE ES   1    814 17.77                             145    0.16 7 95.4 178 
 RUS  HZ I         814 19.25         6.7 0.15                          95.4 178 
 OCA  SZ EP   1    814  4.91                             129    0.15 7  166 352 
 OCA  SZ I         814 25.62         5.0 0.47                           166 352 
 CHI  HZ EP   1    814 13.23                             118    0.02 6  245 196 
 CHI  HZ I         814 45.15         2.2 0.18                           245 196 
                                                                                
