 2011 1217 0532 35.4 L   6.798 -73.121140.7  RSN  4 0.2 1.4LRSN                1
 GAP=140        0.49       3.7     5.8  7.1  0.3437E+01 -0.1019E+02 -0.9192E-02E
 Epicentro: LOS SANTOS - SANTANDER                                             3
 ACTION:UPD 12-07-13 16:16 OP:ep   STATUS:               ID:20111217053235 L   I
 2011-12-17-0530-00M.COL___186                                                 6
 STAT SP IPHASW D HRMM SECON CODA AMPLIT PERI AZIMU VELO AIN AR TRES W  DIS CAZ7
 BAR2 SZ EP   1    532 54.05                             170   -0.36 7 23.7 197 
 BAR2 SZ I         533 11.23        12.1 0.99                          23.7 197 
 BRR  HZ EP   1    532 56.31                             151    0.17 7 73.8 298 
 BRR  HN ES   1    533 12.28                             151   -0.04 7 73.8 298 
 BRR  HZ I         533 17.22         6.4 0.13                          73.8 298 
 PAM  SZ EP   1    532 57.22                             150    0.25 7 75.9  38 
 PAM  SN ES   2    533 13.65                             150   -0.15 5 75.9  38 
 RUS  HZ EP   1    532 58.44                             143   -0.17 7  100 178 
 RUS  HE ES   1    533 16.94                             143    0.22 7  100 178 
 RUS  HZ I         533 18.10         2.0 0.74                           100 178 
                                                                                
