 2016  917 0648 49.2 L   6.788 -73.130146.4  RSN  9 0.4 1.6LRSN                1
 GAP=139        1.07       3.8     4.6  6.8 -0.1267E+01  0.8011E+01  0.2760E+00E
 Epicentro: LOS SANTOS - SANTANDER                                             3
 ACTION:UPD 17-08-17 21:13 OP:lp   STATUS:               ID:20160917064849 L   I
 OLDACT:REG 16-09-17 14:17 OP:and  STATUS:               ID:20160917064733     3
 2016-09-17-0648-00M.COL___354                                                 6
 STAT SP IPHASW D HRMM SECON CODA AMPLIT PERI AZIMU VELO AIN AR TRES W  DIS CAZ7
 BAR2 EZ EP        649  8.86                             171    0.0110 22.4 195 
 BAR2 EZ ES        649 24.27                             171    0.0610 22.4 195 
 BRR  HZ EP        649 10.60                             152    0.1010 73.3 299 
 BRR  HN ES        649 27.65                             152    0.5010 73.3 299 
 BRR  HZ I         649 31.63         8.2 0.16            150           73.3 299 
 PAM  EZ EP        649 11.74                             151    0.2910 77.4  38 
 PAM  EE ES        649 28.77                             151   -0.0610 77.4  38 
 PAM  EZ I         649 31.66         4.1 0.25            154           77.4  38 
 RUS  HZ EP        649 12.85                             144   -0.0310 99.1 177 
 RUS  HN ES        649 31.18                             144   -0.1910 99.1 177 
 RUS  HZ I         649 32.77         4.1 0.22            147           99.1 177 
 PTB  HZ EP        649 15.55                             132   -0.76 9  149 259 
 PTB  HE ES        649 37.68                             132    0.19 9  149 259 
 PTB  HZ I         649 39.14         5.3 0.16            132            149 259 
 OCA  HZ EP   4    649 19.95                             129    2.28 0  162 353 
 OCA  HN ES        649 39.34                             129   -0.56 9  162 353 
 SPBC HZ EP        649 17.68                             129   -0.04 9  163 220 
 SPBC HN ES        649 39.91                             129   -0.07 9  163 220 
 SPBC HZ I         649 45.72         7.0 0.46            130            163 220 
 ZAR  HZ EP        649 22.97                             122    1.10 8  206 292 
 ZAR  HN ES        649 46.79                             122   -0.58 8  206 292 
 ZAR  HZ I         649 52.02         5.6 0.26            123            206 292 
 URE  HN ES   4    649 59.19                             113   -3.54 0  286 292 
 URE  HZ I         650  8.98         2.6 0.16            115            286 292 
                                                                                
