 2014 1017 0459 44.9 L   6.828 -73.147139.3  RSN 18 0.5 2.5LRSN                1
 GAP=135        0.97       2.4     3.6  5.2 -0.1012E+01  0.5857E+01  0.6797E+00E
 Epicentro: LOS SANTOS - SANTANDER                                             3
 ACTION:UPD 14-11-29 23:50 OP:nd   STATUS:               ID:20141017045944 L   I
 OLDACT:UP  14-10-17 18:01 OP:mh   STATUS:               ID:20141017045743     3
 OLDACT:UP  14-10-17 18:00 OP:mh   STATUS:               ID:20141017045743     3
 OLDACT:UP  14-10-17 18:00 OP:mh   STATUS:               ID:20141017045743     3
 OLDACT:REG 14-10-17 14:19 OP:mh   STATUS:               ID:20141017045743     3
 2014-10-17-0457-43M.COL___287                                                 6
 STAT SP IPHASW D HRMM SECON CODA AMPLIT PERI AZIMU VELO AIN AR TRES W  DIS CAZ7
 BAR2 SZ EP     C  5 0  4.10                             169    0.2610 26.4 188 
 BAR2 SZ ES        5 0 18.43                             169   -0.1710 26.4 188 
 BAR2 SZ I         5 0 21.13        65.8 0.08            168           26.4 188 
 BRR  HZ EP        5 0  5.81                             152    0.5310 69.6 296 
 BRR  HZ I         5 0 25.12        44.4 0.15            150           69.6 296 
 PAM  SZ EP        5 0  6.81                             150    0.5010 75.1  41 
 PAM  SN ES   1    5 0 23.58                             150    0.58 7 75.1  41 
 PAM  SZ I         5 0 25.24        43.1 0.38            154           75.1  41 
 RUS  HZ EP        5 0  8.19                             141   -0.0910  104 176 
 RUS  HN ES        5 0 26.20                             141   -0.2910  104 176 
 RUS  HZ I         5 0 28.31        47.9 0.20            143            104 176 
 PTB  HZ EP   1    5 0 10.67                             130   -0.74 7  148 258 
 PTB  HN ES        5 0 31.81                             130   -0.26 9  148 258 
 PTB  HZ I         5 0 36.96        29.9 0.18            129            148 258 
 OCA  HZ EP        5 0 11.96                             129   -0.48 9  157 353 
 OCA  HN ES        5 0 33.75                             129   -0.15 9  157 353 
 OCA  HZ I         5 0 36.90        70.5 0.18            130            157 353 
 SPBC HZ EP        5 0 13.21                             127    0.05 9  166 218 
 SPBC HN ES        5 0 35.05                             127   -0.13 9  166 218 
 SPBC HZ I         5 0 40.13        31.8 0.29            127            166 218 
 ZAR  HZ EP   1    5 0 16.66                             121   -0.16 6  203 291 
 ZAR  HN ES        5 0 42.09                             121    0.40 9  203 291 
 ZAR  HZ I         5 0 47.58        52.6 0.26            121            203 291 
 SML  HZ EP        5 0 20.65                             116   -0.22 8  241 335 
 SML  HN ES        5 0 48.37                             116   -0.55 8  241 335 
 SML  HZ I         5 0 52.55        53.6 0.07            117            241 335 
 CHI  HZ EP        5 0 22.56                             115   -0.04 8  252 195 
 CHI  HN ES   1    5 0 52.08                             115    0.10 6  252 195 
 CHI  HZ I         5 1  2.95        11.1 0.38            116            252 195 
 ROSC BZ EP   1    5 0 22.82                             115   -0.16 6  255 211 
 ROSC BN ES   4    5 0 55.18                             115    2.51 0  255 211 
 HEL  HN ES        5 0 55.46                             113   -0.59 8  273 255 
 URE  HZ EP   4    5 0 28.01                             112    2.47 0  283 291 
 URE  HN ES   4    5 0 54.95                             112   -2.27 0  283 291 
 VIL  SZ EP   1    5 0 27.83                             110   -0.57 5  306 191 
 VIL  SN ES   4    5 1  3.63                             110    1.32 0  306 191 
 RREF HZ EP   4    5 0 27.88                             109   -3.13 0  324 229 
 RREF HN ES   4    5 1  3.93                             109   -3.03 0  324 229 
 RREF HZ I         5 1 10.37        14.3 0.22            110            324 229 
 CBOC HZ EP        5 0 32.57                             109    0.90 7  334 252 
 CBOC HN ES        5 1  9.28                             109    1.15 7  334 252 
 CBOC HZ I         5 1 18.36         5.1 0.60            109            334 252 
 TOL  SZ EP   4    5 0 34.31                             108    1.14 0  346 224 
 TOL  SN ES   4    5 1 12.05                             108    1.25 0  346 224 
 TOL  SZ I         5 1 15.15        21.0 0.33            108            346 224 
 MON  HZ EP   4    5 0 31.00                             107   -2.44 0  352 308 
 MON  HN ES   4    5 1  9.86                             107   -1.42 0  352 308 
 PRA  HZ EP        5 0 38.39                             105   -0.15 6  395 209 
 PRA  HN ES        5 1 19.70                             105   -0.65 6  395 209 
 ORTC HZ EP        5 0 38.95                             105    0.04 6  398 216 
 ORTC HN ES        5 1 21.86                             105    0.84 6  398 216 
 ORTC HZ I         5 1 27.21         9.6 0.38            106            398 216 
                                                                                
