 2010  817 0100 47.8 L   6.900 -73.034134.0  RSN  5 0.5 1.4LRSN                1
 GAP=170        1.20       7.3    11.9 16.1 -0.4013E+02  0.4179E+02  0.9286E+01E
 Epicentro: PIEDECUESTA - SANTANDER                                            3
 ACTION:UP  10-09-07 10:55 OP:vdl  STATUS:               ID:20100817010047 L   I
 2010-08-17-0057-00S.COL___111                                                 6
 STAT SP IPHASW D HRMM SECON CODA AMPLIT PERI AZIMU VELO SNR AR TRES W  DIS CAZ7
 BRR  HZ EP        1 1  7.32                             148    -0.810   78 287 
 BRR  HZ I         1 1  7.57         3.9 1.14                            78 287 
 BRR  HN ES   1    1 1 24.18                             148     0.2 7   78 287 
 GUE  SZ EP   1    1 1 10.80                             141     0.4 7  104   7 
 GUE  SZ ES   3    1 1 28.46                             141     0.5 2  104   7 
 RUS  HN ES   1    1 1 29.51                             138    -0.1 7  112 183 
 GRA  SZ ES   1    1 1 29.08                             138     0.3 7  112  13 
 GRA  SZ I         1 1 31.12         5.2 0.17                           112  13 
 RREF HN ES        1 2 13.16                             108     0.7 7  338 229 
 RREF HZ I         1 2 17.98         1.3 0.38                           338 229 
                                                                                
