 2012  117 0245 54.6 L   6.752 -73.109143.5  RSN 11 0.4 2.2LRSN                1
 GAP=143        0.88       3.2     4.2  5.1 -0.3835E+01  0.4565E+01  0.3582E+01E
 Epicentro: LOS SANTOS - SANTANDER                                             3
 ACTION:UP  12-02-03 08:18 OP:REBC STATUS:               ID:20120117024554 L   I
 2012-01-17-0240-00M.COL___188                                                 6
 STAT SP IPHASW D HRMM SECON CODA AMPLIT PERI AZIMU VELO SNR AR TRES W  DIS CAZ7
 BAR2 SZ EP        246 13.73                             172    -0.110   19 205 
 BAR2 SZ ES        246 28.75                             172    -0.110   19 205 
 BAR2 SZ I         246 30.54        26.7 0.42                            19 205 
 BRR  HZ IP     C  246 15.66                             150    -0.210   77 301 
 BRR  HZ I         246 15.98        68.7 0.23                            77 301 
 BRR  HE ES        246 32.85                             150     0.510   77 301 
 PAM  SZ EP        246 16.58                             150    -0.110   79  35 
 PAM  SN ES        246 33.83                             150     0.010   79  35 
 RUS  HZ EP        246 17.71                             145     0.010   95 178 
 RUS  HE ES   1    246 35.85                             145     0.1 7   95 178 
 RUS  HZ I         246 37.67        12.2 0.29                            95 178 
 PTB  HZ EP   1    246 20.63                             131    -1.0 7  151 261 
 PTB  HE ES   1    246 42.32                             131    -0.4 7  151 261 
 OCA  SZ EP        246 23.85                             128     0.6 9  166 352 
 OCA  SZ ES   1    246 45.14                             128    -0.5 7  166 352 
 OCA  SZ I         246 50.99        30.5 0.31                           166 352 
 NOR  SZ EP        246 29.88                             118    -0.3 8  235 236 
 NOR  SN ES   1    246 57.76                             118    -0.2 6  235 236 
 CHI  HZ EP        246 31.68                             117     0.0 8  245 196 
 CHI  HE ES   1    247  1.14                             117     0.5 6  245 196 
 CHI  HZ I         247 10.95         5.9 0.44                           245 196 
 HEL  HZ EP   1    246 35.61                             114     0.7 6  275 257 
 HEL  HE ES   1    247  6.85                             114     0.4 6  275 257 
 HEL  HZ I         247 13.81         6.2 0.34                           275 257 
 RREF HE ES   1    247 16.71                             110     0.3 5  321 231 
 RREF HZ I         247 25.01         8.7 0.42                           321 231 
 PRA  HZ EP   1    246 47.82                             106     0.1 4  389 210 
 PRA  HN ES   1    247 29.09                             106    -0.1 4  389 210 
                                                                                
