 2017  817 0540 32.3 L   6.781 -73.126135.3  RSN 12 0.5 1.7LRSN                1
 GAP=114        0.94       3.4     4.1  5.7 -0.2188E+01  0.7514E+01  0.4350E+01E
 Epicentro: LOS SANTOS - SANTANDER                                             3
 ACTION:UPD 17-09-04 20:21 OP:rebc STATUS:               ID:20170817054032 L   I
 OLDACT:REG 17-08-17 12:35 OP:lv   STATUS:               ID:20170817053741     3
 2017-08-17-0538-00M.COL___407                                                 6
 STAT SP IPHASW D HRMM SECON CODA AMPLIT PERI AZIMU VELO AIN AR TRES W  DIS CAZ7
 BAR2 EZ EP        540 50.57                             170   -0.0410 21.8 197 
 BAR2 EZ ES        541  4.28                             170   -0.6410 21.8 197 
 BAR2 EZ I         541  7.10        12.9 0.21            169           21.8 197 
 BRR  HZ EP        540 52.41                             150   -0.0710 74.1 299 
 BRR  HZ I         541 10.18         8.4 0.12            146           74.1 299 
 PAM  EZ EP        540 53.42                             149    0.0110 77.7  37 
 PAM  EN ES        541 10.48                             149    0.5910 77.7  37 
 PAM  EZ I         541 12.73         6.7 0.28            150           77.7  37 
 RUS  HZ EP        540 54.62                             142   -0.2210 98.3 177 
 RUS  HN ES        541 12.59                             142    0.1510 98.3 177 
 RUS  HZ I         541 14.12         2.6 0.26            144           98.3 177 
 SPBC HZ EP        540 59.58                             127   -0.38 9  163 220 
 SPBC HN ES        541 22.23                             127    0.67 9  163 220 
 SPBC HZ I         541 26.60         9.3 0.18            126            163 220 
 YPLC HZ EP        541  0.99                             125   -0.05 9  174 152 
 YPLC HN ES   3    541 24.96                             125    1.49 2  174 152 
 ZAR  HZ EP   3    541  6.85                             120    2.49 2  207 292 
 ZAR  HN ES        541 28.94                             120   -0.44 8  207 292 
 ZAR  HZ I         541 34.82         4.9 0.23            118            207 292 
 NOR  HZ EP        541  7.25                             116   -0.23 8  235 235 
 NOR  HN ES        541 35.47                             116    0.53 8  235 235 
 NOR  HZ I         541 39.76         4.1 0.16            116            235 235 
 CHI  HZ EP        541  8.92                             115   -0.33 8  247 196 
 CHI  HE ES        541 37.93                             115   -0.16 8  247 196 
 CHI  HZ I         541 45.07         2.6 0.30            116            247 196 
 GUY2CHZ EP        541 16.18                             110    0.70 7  302 235 
 GUY2CHE ES   3    541 50.32                             110    1.13 2  302 235 
 GUY2CHZ I         541 57.18         2.2 0.58                           302 235 
 PRA  HZ EP        541 25.17                             105   -0.19 6  391 210 
 PRA  HE ES        542  6.59                             105   -0.18 6  391 210 
 PRA  HZ I         542 13.59         3.0 0.54            105            391 210 
 SJC  HZ EP   4    541 25.03                             104   -2.83 0  412 327 
 SJC  HN ES   4    542  5.54                             104   -5.68 0  412 327 
 SJC  HZ I         542 10.25         1.3 0.44            104            412 327 
                                                                                
