 2012  217 0325  8.8 L   5.750 -74.009 97.2  RSN  9 0.4 1.4LRSN                1
 GAP= 92        0.67       3.1     3.2 10.0 -0.2149E+00 -0.1807E+01 -0.1265E+01E
 ACTION:UP  12-03-07 16:31 OP:epov STATUS:               ID:20120217032508 L   I
 2012-02-17-0320-00M.COL___188                                                 6
 STAT SP IPHASW D HRMM SECON CODA AMPLIT PERI AZIMU VELO AIN AR TRES W  DIS CAZ7
 NOR  SZ EP   1    325 26.95                             132   -0.29 7 97.4 258 
 NOR  SE ES   2    325 42.19                             132    0.52 5 97.4 258 
 PTB  HN ES   2    325 41.22                             131   -0.84 5  100 330 
 RUS  HZ EP   1    325 28.38                             130   -0.05 7  104  81 
 RUS  HZ I         325 29.04         2.2 0.18                           104  81 
 RUS  HE ES   2    325 44.05                             130    0.28 5  104  81 
 CHI  HZ EP   1    325 30.59                             124   -0.09 7  128 166 
 CHI  HN ES   2    325 47.73                             124   -0.05 5  128 166 
 CHI  HZ I         325 50.24         2.0 0.49                           128 166 
 BAR2 SZ EP   1    325 30.52                             123   -0.23 7  131  44 
 BAR2 SZ I         325 50.37         7.7 0.21                           131  44 
 BRR  HZ EP   1    325 32.60                             118   -0.30 7  154  12 
 BRR  HZ I         325 33.90        10.2 0.13                           154  12 
 BRR  HN ES   1    325 52.28                             118    0.55 7  154  12 
 GIR2 SZ EP   2    325 35.45                             115    0.29 4  172  32 
 HEL  HZ EP   1    325 36.42                             115    0.68 7  175 286 
 HEL  HN ES   2    325 56.70                             115   -0.10 4  175 286 
 HEL  HZ I         326  0.48         4.7 0.69                           175 286 
 ZAR  HN ES   2    326  3.48                             110   -0.47 4  214 334 
 ZAR  HZ I         326  8.95         4.5 0.06                           214 334 
                                                                                
