 2017  817 0429 26.4 L   6.768 -73.204146.5  RSN  5 0.2 1.0LRSN                1
 GAP=131        0.64       3.4     5.1  5.6 -0.2251E+00 -0.6204E+01 -0.1912E+01E
 Epicentro: ZAPATOCA - SANTANDER                                               3
 ACTION:UPD 17-09-04 20:21 OP:rebc STATUS:               ID:20170817042926 L   I
 OLDACT:REG 17-08-17 12:31 OP:lv   STATUS:               ID:20170817042744     3
 2017-08-17-0428-00M.COL___413                                                 6
 STAT SP IPHASW D HRMM SECON CODA AMPLIT PERI AZIMU VELO AIN AR TRES W  DIS CAZ7
 BAR2 HZ EP        429 45.94                             172   -0.1110 19.6 173 
 BAR2 HZ ES        430  1.30                             172   -0.0810 19.6 173 
 BAR2 HZ I         430  2.08         2.6 0.11            165           19.6 173 
 BRR  HZ EP        429 47.70                             154    0.2710 67.5 304 
 BRR  HE ES        430  3.93                             154    0.1010 67.5 304 
 PAM  HZ EP        429 48.77                             149   -0.3410 84.2  41 
 PAM  HZ I         430  4.59         2.2 0.34            134           84.2  41 
 RUS  HZ EP        429 50.30                             145    0.2810 97.7 172 
 RUS  HN ES        430  8.60                             145    0.1610 97.7 172 
 RUS  HZ I         430  9.65         1.6 0.30            141           97.7 172 
 SPBC HN ES        430 15.76                             130   -0.34 9  156 218 
                                                                                
