 2017  217 0332 13.6 L   6.717 -73.207149.2  RSN  5 0.5 1.5LRSN                1
 GAP=221        1.30       7.6     9.8  9.7  0.3334E+02  0.2351E+02  0.2548E+02E
 Epicentro: VILLANUEVA - SANTANDER                                             3
 ACTION:UPD 17-05-24 15:37 OP:jn   STATUS:               ID:20170217033213 L   I
 OLDACT:DUP 17-02-17 14:44 OP:cog  STATUS:               ID:20170217032743d    3
 2017-02-17-0328-00M.COL___355                                                 6
 STAT SP IPHASW D HRMM SECON CODA AMPLIT PERI AZIMU VELO AIN AR TRES W  DIS CAZ7
 BAR2 EZ ES        332 48.38                             174   -0.6110 14.1 169 
 BRR  HZ EP        332 34.79                             153   -0.2710 70.5 308 
 BRR  HN ES        332 52.13                             153    0.3110 70.5 308 
 BRR  HZ I         332 55.32         6.7 0.46            153           70.5 308 
 RUS  HZ EP        332 37.17                             147    0.0810 92.2 171 
 RUS  HN ES        332 56.06                             147    0.6310 92.2 171 
 RUS  HZ I         332 57.13         4.2 0.38            148           92.2 171 
 PTB  HZ EP        332 39.74                             134   -0.36 9  140 262 
 PTB  HN ES        333  1.07                             134    0.29 9  140 262 
 PTB  HZ I         333  3.08         4.6 0.14            135            140 262 
 CHI  HZ EP        332 51.16                             119    0.83 8  238 194 
 CHI  HN ES        333 18.03                             119   -0.96 8  238 194 
 CHI  HZ I         333 21.10         1.5 0.46            120            238 194 
                                                                                
