 2015  417 0920 16.5 L   6.792 -73.159148.8  RSN  6 0.4 1.3LRSN                1
 GAP=199        0.90       5.6     6.2  7.6  0.1378E+02 -0.2430E+01 -0.1036E+02E
 Epicentro: LOS SANTOS - SANTANDER                                             3
 ACTION:UPD 15-06-03 16:55 OP:cam  STATUS:               ID:20150417092016 L   I
 OLDACT:REG 15-04-17 13:20 OP:spq  STATUS:               ID:20150417091750     3
 2015-04-17-0917-50M.COL___269                                                 6
 STAT SP IPHASW D HRMM SECON CODA AMPLIT PERI AZIMU VELO AIN AR TRES W  DIS CAZ7
 BAR2 EZ EP        920 36.25                             171   -0.1810 22.2 187 
 BAR2 EZ ES   1    920 51.52                             171   -0.49 7 22.2 187 
 BAR2 EZ I         920 53.61         3.7 0.30            169           22.2 187 
 BRR  HZ EP        920 38.32                             153    0.4310 70.4 300 
 BRR  HN ES        920 55.07                             153    0.4610 70.4 300 
 BRR  HZ I         920 55.55        10.1 0.34            151           70.4 300 
 RUS  HZ EP   1    920 40.90                             145    0.45 7 99.8 175 
 RUS  HE ES   1    920 59.09                             145   -0.08 7 99.8 175 
 RUS  HZ I         921  0.50         1.7 0.24            145           99.8 175 
 PTB  HZ EP        920 43.43                             133   -0.10 9  146 259 
 PTB  HN ES        921  4.10                             133   -0.55 9  146 259 
 PTB  HZ I         921  7.71         2.1 0.16            131            146 259 
 ZAR  HE ES   1    921 14.85                             123    0.47 6  203 293 
 ZAR  HZ I         921 20.19         2.0 0.58            123            203 293 
 SML  HZ EP   1    920 53.17                             118   -0.11 6  244 336 
 SML  HN ES   1    921 21.34                             118   -0.66 6  244 336 
                                                                                
