 2014  817 0041 15.2 L   6.248 -73.728102.0  RSN 12 0.4 1.6LRSN                1
 GAP= 61        1.10       2.9     3.2  6.5 -0.1445E+01  0.4314E+01 -0.3622E+01E
 Epicentro: LANDAZURI - SANTANDER                                              3
 ACTION:UPD 14-09-15 21:50 OP:nd   STATUS:               ID:20140817004115 L   I
 OLDACT:REG 14-08-17 12:57 OP:spq  STATUS:               ID:20140817003815     3
 2014-08-17-0038-15M.COL___269                                                 6
 STAT SP IPHASW D HRMM SECON CODA AMPLIT PERI AZIMU VELO AIN AR TRES W  DIS CAZ7
 BAR2 SZ IP     C  041 32.24                             143    0.0210 71.3  58 
 BAR2 SZ ES   1    041 45.65                             143    0.19 7 71.3  58 
 BAR2 SZ I         041 46.70        35.4 0.36            144           71.3  58 
 SPBC HZ EP        041 32.06                             140   -0.3210 76.2 210 
 SPBC HN ES        041 46.36                             140    0.6110 76.2 210 
 SPBC HZ I         041 50.34         9.4 0.16            141           76.2 210 
 RUS  HZ EP        041 32.86                             139   -0.5010 81.5 119 
 RUS  HE ES        041 47.23                             139   -0.2710 81.5 119 
 RUS  HZ I         041 49.74         6.0 0.32            141           81.5 119 
 PTB  HZ EP        041 32.33                             136   -0.8110 86.8 292 
 PTB  HE ES        041 46.79                             136   -0.3110 86.8 292 
 PTB  HZ I         041 48.05         9.0 0.21            136           86.8 292 
 BRR  HZ EP        041 33.80                             134   -0.0310 95.0   1 
 BRR  HN ES        041 49.25                             134    0.9210 95.0   1 
 BRR  HZ I         041 49.49         8.4 0.10            134           95.0   1 
 NOR  HZ EP        041 39.29                             120    0.23 9  147 239 
 NOR  HN ES        041 57.58                             120   -0.06 9  147 239 
 NOR  HZ I         041 59.47         8.9 0.16            120            147 239 
 PAM  SZ EP        041 41.63                             117    0.03 9  166  43 
 PAM  SN ES   1    042  1.93                             117   -0.24 7  166  43 
 PAM  SZ I         042  6.18         4.5 0.22            118            166  43 
 CHI  HE ES   1    042  4.87                             115    0.28 7  179 180 
 CHI  HZ I         042  8.27         5.1 0.14            115            179 180 
 ZAR  HZ EP        041 43.14                             113   -0.06 9  186 318 
 ZAR  HN ES        042  4.38                             113   -0.64 9  186 318 
 ZAR  HZ I         042  8.66         4.5 0.38            114            186 318 
 HEL  HZ EP   1    041 45.58                             112    0.39 6  199 268 
 HEL  HN ES   4    042 10.44                             112    1.88 0  199 268 
 HEL  HZ I         042 16.03         3.0 0.18            112            199 268 
 GUY2CHZ EP        041 47.62                             110    0.65 8  214 238 
 GUY2CHE ES   4    042 16.74                             110    5.02 0  214 238 
 GUY2CHZ I         042 18.68         3.8 0.52                           214 238 
 SML  HZ EP        041 54.84                             103    0.15 7  285 352 
 SML  HN ES   1    042 26.15                             103    0.69 6  285 352 
 SML  HZ I         042 32.31         4.3 0.09            104            285 352 
                                                                                
