 2011  817 0316 37.4 L   6.771 -73.068154.1  RSN  6 0.5 1.8LRSN                1
 GAP=191        0.83       4.6     8.6  7.5 -0.7362E+01  0.6149E+01  0.4722E+01E
 Epicentro: LOS SANTOS - SANTANDER                                             3
 ACTION:UPD 12-07-13 15:52 OP:ep   STATUS:               ID:20110817031637 L   I
 2011-08-17-0312-17S.COL___149                                                 6
 STAT SP IPHASW D HRMM SECON CODA AMPLIT PERI AZIMU VELO AIN AR TRES W  DIS CAZ7
 BAR2 SZ EP   1    316 58.03                             171   -0.04 7 23.4 213 
 BAR2 SZ ES   1    317 13.56                             171   -0.60 7 23.4 213 
 BAR2 SZ I         317 16.34         9.7 0.38                          23.4 213 
 BRR  HZ EP   1    317  0.21                             151    0.21 7 80.3 298 
 BRR  HN ES   1    317 17.52                             151   -0.08 7 80.3 298 
 BRR  HZ I         317 19.96        10.7 0.13                          80.3 298 
 RUS  HZ EP   1    317  2.19                             146    0.42 7 97.1 181 
 RUS  HZ I         317  3.38         2.8 0.16                          97.1 181 
 RUS  HN ES   2    317 21.25                             146    0.49 5 97.1 181 
 OCA  SZ EP   1    317  6.25                             131   -0.56 7  165 350 
 OCA  SZ ES   1    317 30.39                             131    0.67 7  165 350 
 OCA  SZ I         317 34.79         7.3 0.27                           165 350 
 NOR  SZ EP   1    317 13.33                             120   -0.88 6  240 236 
 NOR  SN ES   1    317 43.24                             120    0.35 6  240 236 
 PRA  HZ EP   1    317 31.46                             108    0.04 4  394 211 
 PRA  HE ES   2    318 14.29                             108    0.75 3  394 211 
 PRA  HZ I         318 19.25         7.5 0.21                           394 211 
                                                                                
