 2017  417 0859  6.6 L   6.798 -73.132143.3  RSN 10 0.4 2.1LRSN                1
 GAP=113        0.95       3.4     3.2  5.1  0.1667E+01  0.2558E+01  0.3517E+01E
 Epicentro: LOS SANTOS - SANTANDER                                             3
 ACTION:UPD 17-05-30 21:13 OP:jn   STATUS:               ID:20170417085906 L   I
 OLDACT:UP  17-04-17 17:03 OP:dnl  STATUS:               ID:20170417085738     3
 OLDACT:REG 17-04-17 13:46 OP:dani STATUS:               ID:20170417085738     3
 2017-04-17-0858-00M.COL___362                                                 6
 STAT SP IPHASW D HRMM SECON CODA AMPLIT PERI AZIMU VELO AIN AR TRES W  DIS CAZ7
 BAR2 EZ EP        859 25.71                             170   -0.2110 23.4 194 
 BAR2 EZ ES        859 40.46                             170   -0.5410 23.4 194 
 BAR2 EZ I         859 41.86        34.2 0.20            168           23.4 194 
 BRR  HZ IP     C  859 27.57                             152    0.0210 72.7 298 
 BRR  HN ES        859 44.31                             152    0.4010 72.7 298 
 BRR  HZ I         859 47.57        16.4 0.18            152           72.7 298 
 PAM  EZ EP        859 28.63                             151    0.1410 76.6  39 
 PAM  EN ES        859 45.36                             151   -0.2210 76.6  39 
 PAM  EZ I         859 47.42        41.5 0.48            155           76.6  39 
 RUS  HZ EP        859 30.08                             143    0.0110  100 177 
 RUS  HE ES        859 48.60                             143    0.2110  100 177 
 RUS  HZ I         859 49.85        11.2 0.26            144            100 177 
 PTB  HZ EP        859 33.18                             131   -0.31 9  149 259 
 PTB  HN ES        859 54.38                             131   -0.09 9  149 259 
 PTB  HZ I         859 56.50        11.2 0.12            132            149 259 
 SPBC HZ EP        859 35.04                             128    0.07 9  164 219 
 SPBC HE ES        859 56.60                             128   -0.51 9  164 219 
 SPBC HZ I         9 0  3.52        14.2 0.34            129            164 219 
 YPLC HZ IP     D  859 36.28                             126    0.17 9  176 152 
 YPLC HN ES        9 0  0.02                             126    0.89 9  176 152 
 YPLC HZ I         9 0  2.79        18.6 0.30            128            176 152 
 ZAR  HZ EP        859 39.08                             122    0.05 8  206 292 
 ZAR  HN ES        9 0  4.77                             122    0.44 8  206 292 
 ZAR  HZ I         9 0  6.93        13.9 0.38            123            206 292 
 NOR  HZ EP        859 42.56                             118    0.27 8  236 235 
 NOR  HE ES        9 0 10.19                             118    0.05 8  236 235 
 NOR  HZ I         9 0 15.68         5.8 0.22            119            236 235 
 PTGC HZ EP        859 49.24                             111   -1.00 7  308 159 
 PTGC HN ES   4    9 0 22.43                             111   -1.86 0  308 159 
 PTGC HZ I         9 0 24.80         7.4 0.30            113            308 159 
                                                                                
