 2012  217 0658 30.0 L   6.788 -73.909 15.8  RSN  5 0.3 1.4LRSN                1
 GAP=146        0.57       2.9     2.5  5.2 -0.2994E+01 -0.4090E+01  0.1357E+01E
 ACTION:UP  12-03-07 16:31 OP:epov STATUS:               ID:20120217065830 L   I
 2012-02-17-0650-00M.COL___188                                                 6
 STAT SP IPHASW D HRMM SECON CODA AMPLIT PERI AZIMU VELO AIN AR TRES W  DIS CAZ7
 BRR  HZ EP   1    658 37.12                             107   -0.04 7 41.4  32 
 BRR  HE ES   2    658 43.27                             107    0.53 5 41.4  32 
 BRR  HZ I         658 43.68        53.1 0.09                          41.4  32 
 PTB  HZ EP   1    658 40.62                             101   -0.25 7 66.5 246 
 PTB  HN ES   2    658 49.29                             101   -0.05 5 66.5 246 
 GIR2 SZ EP   2    658 43.79                              98   -0.02 5 85.3  68 
 GIR2 SZ ES   2    658 53.77                              98   -0.80 5 85.3  68 
 RUS  HZ EP   1    658 52.00                              95    0.39 7  135 137 
 RUS  HN ES   2    659  8.39                              95   -0.06 5  135 137 
 RUS  HZ I         659 10.58         3.5 0.25                           135 137 
 PAM  SZ EP   1    658 53.44                              56    0.23 7  147  65 
 PAM  SN ES   2    659 11.06                              56   -0.24 5  147  65 
                                                                                
