 2013 1217 0531  7.8 L   6.748 -73.145145.4  RSN  7 0.5 1.6LRSN                1
 GAP=183        1.02       4.6     6.1  7.0  0.8872E+01 -0.1388E+01 -0.1267E+02E
 Epicentro: LOS SANTOS - SANTANDER                                             3
 ACTION:UPD 14-01-13 10:18 OP:ep   STATUS:               ID:20131217053107 L   I
 OLDACT:REG 13-12-17 06:36 OP:nd   STATUS:               ID:20131217053000     3
 2013-12-17-0530-00M.COL___285                                                 6
 STAT SP IPHASW D HRMM SECON CODA AMPLIT PERI AZIMU VELO AIN AR TRES W  DIS CAZ7
 BAR2 SZ EP        531 27.30                             173    0.0210 17.7 193 
 BAR2 SZ ES        531 42.64                             173    0.1710 17.7 193 
 BAR2 SZ I         531 43.39        11.7 0.24            173           17.7 193 
 BRR  HZ EP        531 29.46                             152    0.3910 74.2 302 
 BRR  HN ES        531 45.96                             152    0.2910 74.2 302 
 BRR  HZ I         531 47.41         4.6 0.22            149           74.2 302 
 RUS  HZ EP        531 31.22                             146    0.1210 94.8 176 
 RUS  HN ES        531 48.82                             146   -0.4610 94.8 176 
 RUS  HZ I         531 50.67         5.0 0.30            148           94.8 176 
 PTB  HZ EP        531 34.30                             132   -0.35 9  147 261 
 PTB  HN ES        531 55.31                             132   -0.28 9  147 261 
 PTB  HZ I         531 59.18         3.3 0.24            132            147 261 
 OCA  HZ EP        531 37.06                             128    0.44 9  166 353 
 OCA  HN ES   2    531 58.76                             128   -0.34 5  166 353 
 OCA  HZ I         532  1.83         4.8 0.52            129            166 353 
 ZAR  HZ EP   1    531 41.65                             122    1.20 6  206 294 
 ZAR  HN ES   1    532  5.98                             122    0.05 6  206 294 
 ZAR  HZ I         532 11.41         4.0 0.62            122            206 294 
 SML  HZ EP        531 44.15                             117   -0.82 8  249 336 
 SML  HN ES        532 13.52                             117   -0.45 8  249 336 
 SML  HZ I         532 19.86         6.2 0.28            117            249 336 
                                                                                
