 2011  117 0246 46.4 L   6.835 -73.082133.7  RSN  7 0.3 1.7LRSN                1
 GAP=165        0.77       3.3     8.5  7.3 -0.8539E+01  0.2543E+02 -0.2680E+01E
 Epicentro: LOS SANTOS - SANTANDER                                             3
 ACTION:UP  11-02-08 08:41 OP:pat  STATUS:               ID:20110117024646 L   I
 2011-01-17-0242-17S.COL___136                                                 6
 STAT SP IPHASW D HRMM SECON CODA AMPLIT PERI AZIMU VELO SNR AR TRES W  DIS CAZ7
 BAR2 SZ IP        247  4.80                             167     0.010   29 203 
 BAR2 SZ I         247  4.91        12.2 0.10                            29 203 
 BAR2 SZ ES   1    247 19.19                             167     0.1 7   29 203 
 RUS  HZ EP   1    247  8.84                             140    -0.5 7  104 180 
 RUS  HN ES   1    247 26.92                             140    -0.2 7  104 180 
 RUS  HZ I         247 28.85         8.5 0.29                           104 180 
 GRA  SZ EP   1    247 10.66                             135     0.5 7  120  15 
 GRA  SZ ES   1    247 28.93                             135     0.3 7  120  15 
 GRA  SZ I         247 31.42         8.1 0.23                           120  15 
 OCA  SZ EP   1    247 13.37                             127    -0.2 7  157 350 
 OCA  SZ ES   1    247 34.06                             127    -0.6 7  157 350 
 OCA  SZ I         247 36.94         6.5 0.26                           157 350 
 CHI  HZ EP   1    247 24.20                             114     0.1 6  254 196 
 CHI  HN ES   2    247 53.94                             114     0.4 4  254 196 
 CHI  HZ I         247 55.85         1.4 0.36                           254 196 
 HEL  HZ EP   1    247 26.88                             111    -0.1 6  280 255 
 HEL  HN ES   2    247 59.08                             111     0.6 4  280 255 
 HEL  HZ I         248  2.31         3.2 0.43                           280 255 
 RREF HZ EP   2    247 33.21                             108     0.2 3  330 230 
 RREF HZ I         248 12.74         2.4 0.39                           330 230 
                                                                                
