 2013  817 0301 37.4 L   6.779 -73.135141.6  RSN  8 0.3 1.5LRSN 2.2WRSN        1
 SPEC AVERAGE  MO 12.4 ST  1.4 OM  1.2 f0 7.41 R0.2418 AL 0.00 WI 20.0 MW  2.2 3
 SPEC SD       MO  0.2 ST  1.2 OM  0.5 f0 3.05 R0.0785 AL      WI      MW  0.1 3
 GAP=139        0.81       2.8     3.5  6.0 -0.7744E+00  0.4459E+01  0.1367E+01E
 Epicentro: LOS SANTOS - SANTANDER                                             3
 SPEC BRR HH Z MO 12.4 ST0.512 OM  0.8 f0 5.59 R0.2780 AL-0.00 WI 20.0 MW  2.2 3
 SPEC BRR HH Z T 3 213 K 0.000 GD  159 VS 4.20 DE 3.20 Q0300.0 QA 0.60 VS 4.20 3
 SPEC PTB HH Z MO 12.2 ST  3.0 OM  0.5 f0 11.7 R0.1328 AL-0.00 WI 20.0 MW  2.1 3
 SPEC PTB HH Z T 3 222 K 0.000 GD  204 VS 4.20 DE 3.20 Q0300.0 QA 0.60 VS 4.20 3
 SPEC SPBCHH Z MO 12.6 ST0.600 OM  0.9 f0 4.94 R0.3146 AL-0.00 WI 20.0 MW  2.4 3
 SPEC SPBCHH Z T 3 225 K 0.000 GD  215 VS 4.20 DE 3.20 Q0300.0 QA 0.60 VS 4.20 3
 2013-08-17-0258-49M.COL___219                                                 6
 OLDACT:REG 13-08-17 08:21 OP:stll STATUS:               ID:20130817025849     3
 ACTION:UPD 14-01-14 09:03 OP:ep   STATUS:               ID:20130817030137 L   I
 OLDACT:UP  13-08-17 12:00 OP:stll STATUS:               ID:20130817025849     3
 STAT SP IPHASW D HRMM SECON CODA AMPLIT PERI AZIMU VELO AIN AR TRES W  DIS CAZ7
 BAR2 SZ EP        3 1 56.63                             171    0.1810 21.3 194 
 BAR2 SZ I         3 2 13.12         7.0 1.36            167           21.3 194 
 BRR  HZ EP        3 1 58.52                             151    0.3310 73.3 300 
 BRR  HN ES        3 2 14.81                             151    0.3810 73.3 300 
 BRR  HZ I         3 2 16.95         6.3 0.14            152           73.3 300 
 PAM  SZ EP        3 1 59.42                             150    0.2210 78.4  38 
 PAM  SZ I         3 1 59.83         5.7 0.24            154           78.4  38 
 PAM  SN ES        3 2 16.00                             150   -0.2410 78.4  38 
 RUS  HZ EP        3 2  0.60                             144    0.0610 98.2 177 
 RUS  HN ES        3 2 18.59                             144   -0.0210 98.2 177 
 RUS  HZ I         3 2 26.07         2.8 1.34            143           98.2 177 
 PTB  HZ EP        3 2  3.45                             131   -0.61 9  148 260 
 PTB  HN ES        3 2 24.40                             131   -0.48 9  148 260 
 PTB  HZ I         3 2 30.22         4.4 0.66            131            148 260 
 SPBC HZ EP        3 2  5.48                             128    0.03 9  162 220 
 SPBC HN ES        3 2 27.34                             128   -0.01 9  162 220 
 SPBC HZ I         3 2 33.33         4.0 0.34            128            162 220 
 OCA  HN ES        3 2 27.16                             128   -0.43 9  163 353 
 ZAR  HZ EP        3 2  9.81                             121    0.07 8  206 293 
 ZAR  HN ES        3 2 35.44                             121    0.44 8  206 293 
 ZAR  HZ I         3 2 44.68         3.0 0.32            123            206 293 
                                                                                
