 2012  317 0334 49.4 L   6.518 -73.594113.8  RSN  4 0.0 1.3LRSN                1
 GAP=131        0.30       4.6     1.7  4.0  0.7423E+00 -0.3515E+00  0.2923E+01E
 ACTION:UP  12-03-31 23:20 OP:EP   STATUS:               ID:20120317033449 L   I
 2012-03-17-0330-00M.COL___202                                                 6
 STAT SP IPHASW D HRMM SECON CODA AMPLIT PERI AZIMU VELO SNR AR TRES W  DIS CAZ7
 BAR2 SZ EP        335  6.06                             156     0.010   46  80 
 BAR2 SZ I         335  6.37        12.8 0.26                            46  80 
 BAR2 SZ ES   1    335 19.10                             156     0.0 7   46  80 
 BRR  HZ EP   1    335  6.97                             147     0.1 7   66 349 
 BRR  HZ I         335 21.65         4.9 0.13                            66 349 
 RUS  HZ EP   1    335  9.32                             139     0.0 7   89 141 
 PTB  HZ EP   1    335  9.07                             137     0.0 7   95 271 
 PTB  HE ES        335 24.45                             137     0.010   95 271 
 PTB  HZ I         335 26.22         2.2 0.07                            95 271 
                                                                                
