 2017  817 0826 37.5 L   6.428 -73.749100.8  RSN  5 0.3 1.3LRSN                1
 GAP=111        0.70       2.5     3.3  6.6  0.2161E+01  0.9969E+01  0.1382E+01E
 Epicentro: SANTA HELENA DEL OPON - SANTANDER                                  3
 ACTION:UPD 17-09-04 20:21 OP:rebc STATUS:               ID:20170817082637 L   I
 OLDACT:DUP 17-08-17 16:28 OP:lv   STATUS:               ID:20170817081747d    3
 2017-08-17-0818-00M.COL___407                                                 6
 STAT SP IPHASW D HRMM SECON CODA AMPLIT PERI AZIMU VELO AIN AR TRES W  DIS CAZ7
 BAR2 EZ EP        826 53.97                             145    0.1010 65.2  74 
 BAR2 EZ ES        827  6.59                             145   -0.0910 65.2  74 
 BRR  HZ EP   4    826 51.94                             140   -2.34 0 75.2   3 
 BRR  HE ES        827  7.64                             140    0.2410 75.2   3 
 BRR  HZ I         827 10.39         2.7 0.29            141           75.2   3 
 SPBC HZ EP        826 55.66                             134   -0.2310 93.0 203 
 SPBC HE ES        827 10.54                             134    0.2610 93.0 203 
 SPBC HZ I         827 11.27         5.4 0.19            137           93.0 203 
 RUS  HZ EP        826 56.74                             134    0.1610 94.6 129 
 RUS  HE ES        827 11.20                             134   -0.3010 94.6 129 
 ZAR  HZ EP        827  3.90                             115    0.31 9  170 314 
 ZAR  HE ES        827 23.50                             115   -0.48 9  170 314 
 ZAR  HZ I         827 28.42         4.5 0.28            117            170 314 
                                                                                
