 2011  717 0014  3.2 L   6.798 -73.121151.2  RSN  4 0.2 1.3LRSN                1
 GAP=228        0.39       5.5    10.2  4.2  0.4381E+02 -0.1080E+02 -0.3691E+01E
 Epicentro: LOS SANTOS - SANTANDER                                             3
 ACTION:UPD 12-07-25 14:01 OP:epov STATUS:               ID:20110717001403 L   I
 2011-07-17-0011-04S.COL___132                                                 6
 STAT SP IPHASW D HRMM SECON CODA AMPLIT PERI AZIMU VELO AIN AR TRES W  DIS CAZ7
 BTL  SZ EP   1    014 23.51                             172    0.11 7 21.0 309 
 BTL  SZ ES   1    014 39.41                             172    0.22 7 21.0 309 
 BAR2 SZ EP   1    014 23.25                             171   -0.20 7 23.7 197 
 BAR2 SZ ES   1    014 39.03                             171   -0.25 7 23.7 197 
 BAR2 SZ I         014 39.54         5.0 0.18                          23.7 197 
 BRR  HZ EP   1    014 24.96                             153   -0.08 7 73.7 298 
 BRR  HZ I         014 30.07         4.6 0.53                          73.7 298 
 BRR  HE ES   1    014 42.12                             153    0.02 7 73.7 298 
 RUS  HZ EP   1    014 27.55                             145    0.13 7  100 178 
 RUS  HN ES   1    014 46.41                             145    0.06 7  100 178 
 RUS  HZ I         014 47.76         2.4 0.53                           100 178 
                                                                                
