 2017  617 0718 18.8 L   6.794 -73.176151.0  RSN  7 0.4 2.2LRSN                1
 GAP=254        0.82       3.8     5.8  6.8  0.2658E+01 -0.1404E+02  0.3951E+01E
 Epicentro: LOS SANTOS - SANTANDER                                             3
 ACTION:UPD 17-09-14 16:52 OP:jn   STATUS:               ID:20170617071818 L   I
 OLDACT:UP  17-06-17 16:40 OP:cog  STATUS:               ID:20170617071726     3
 OLDACT:REG 17-06-17 14:01 OP:cog  STATUS:               ID:20170617071726     3
 2017-06-17-0718-00M.COL___356                                                 6
 STAT SP IPHASW D HRMM SECON CODA AMPLIT PERI AZIMU VELO AIN AR TRES W  DIS CAZ7
 BRR  HZ EP        718 40.02                             154   -0.3410 68.6 300 
 BRR  HN ES        718 57.13                             154   -0.0610 68.6 300 
 BRR  HZ I         719  1.02        32.1 0.44            153           68.6 300 
 PTB  HZ EP   9    718 44.57                             134   -1.31 0  144 259 
 PTB  HN ES        719  5.82                             131    0.12 9  144 259 
 PTB  HZ I         719 13.00        11.8 0.44            134            144 259 
 SPBC HZ EP        718 47.22                             131   -0.22 9  161 218 
 SPBC HE ES        719 10.04                             131    0.25 9  161 218 
 SPBC HZ I         719 16.24        16.3 0.29            132            161 218 
 ZAR  HZ EP        718 52.16                             124    0.88 9  201 293 
 ZAR  HN ES        719 16.59                             124   -0.05 9  201 293 
 ZAR  HZ I         719 22.49        14.5 0.46            125            201 293 
 CHI  HZ EP        718 56.46                             118   -0.15 8  247 194 
 CHI  HE ES        719 26.31                             118    0.20 8  247 194 
 HEL  HZ EP   9    719  0.52                             116    1.63 0  269 256 
 HEL  HE ES        719 31.75                             114   -0.05 8  269 256 
 CBOC HZ EP   4    719  7.73                             111    2.20 0  330 252 
 CBOC HN ES        719 41.40                             111   -0.59 7  330 252 
                                                                                
