 2016 1217 0913 36.5 L   6.807 -73.079152.7  RSN  6 0.2 1.0LRSN                1
 GAP=145        0.49       2.8     2.8  4.7  0.9883E+00  0.4653E+01  0.1352E+00E
 Epicentro: LOS SANTOS - SANTANDER                                             3
 ACTION:UPD 17-01-11 20:16 OP:rebc STATUS:               ID:20161217091336 L   I
 OLDACT:UP  16-12-17 18:40 OP:and  STATUS:               ID:20161217090747d    3
 OLDACT:UP  16-12-17 18:40 OP:and  STATUS:               ID:20161217090747d    3
 OLDACT:DUP 16-12-17 16:55 OP:ar   STATUS:               ID:20161217090747d    3
 OLDACT:UP  16-12-17 16:52 OP:ar   STATUS:               ID:20161217090745     3
 OLDACT:REG 16-12-17 13:05 OP:and  STATUS:               ID:20161217090745     3
 2016-12-17-0908-00M.COL___354                                                 6
 STAT SP IPHASW D HRMM SECON CODA AMPLIT PERI AZIMU VELO AIN AR TRES W  DIS CAZ7
 BAR2 EZ EP        913 56.82                             170   -0.1810 26.4 206 
 BAR2 EZ ES        914 13.29                             170    0.2810 26.4 206 
 PAM  EZ EP   4    913 51.01                             154   -8.14 0 72.3  35 
 PAM  EN ES        914 16.70                             154   -0.1310 72.3  35 
 PAM  EZ I         914 19.40         2.2 0.27            154           72.3  35 
 BRR  HZ EP        913 58.88                             152    0.1610 77.4 295 
 RUS  HZ EP        914  1.10                             145    0.1510  101 180 
 RUS  HN ES        914 19.88                             145   -0.1610  101 180 
 RUS  HZ I         914 22.26         1.1 0.32            148            101 180 
 PTB  HZ ES        914 26.55                             132   -0.12 9  155 259 
 ZAR  HZ EP   4    914 12.87                             123    2.82 0  211 291 
 ZAR  HN ES        914 36.22                             123   -0.01 8  211 291 
 ZAR  HZ I         914 41.76         1.2 0.23            124            211 291 
                                                                                
