 2017  917 0206 39.5 L   6.748 -73.105142.0  RSN  6 0.5 1.6LRSN                1
 GAP=266        1.06       6.0     7.4  8.4 -0.3560E+01  0.2298E+02  0.1281E+02E
 Epicentro: LOS SANTOS - SANTANDER                                             3
 ACTION:UPD 17-10-05 19:13 OP:rebc STATUS:               ID:20170917020639 L   I
 OLDACT:REG 17-09-17 12:15 OP:lv   STATUS:               ID:20170917014826     3
 2017-09-17-0158-00M.COL___411                                                 6
 STAT SP IPHASW D HRMM SECON CODA AMPLIT PERI AZIMU VELO AIN AR TRES W  DIS CAZ7
 BAR2 EZ EP        2 6 58.53                             172   -0.0510 19.3 206 
 BAR2 EZ ES        2 7 13.26                             172   -0.2210 19.3 206 
 BAR2 EZ I         2 7 14.55        11.7 0.11            170           19.3 206 
 BRR  HZ IP     D  2 7  0.51                             150   -0.1210 78.0 301 
 BRR  HN ES        2 7 17.74                             150    0.6210 78.0 301 
 BRR  HZ I         2 7 18.59         6.1 0.20            148           78.0 301 
 SPBC HN ES        2 7 29.47                             128    0.02 9  162 222 
 ZAR  HE ES        2 7 37.49                             121   -0.50 8  210 293 
 ZAR  HZ I         2 7 39.88         3.7 0.10            121            210 293 
 NOR  HZ EP        2 7 14.94                             118   -0.11 8  235 236 
 NOR  HN ES        2 7 41.98                             118   -0.81 8  235 236 
 NOR  HZ I         2 7 47.40         2.2 0.10            118            235 236 
 GUY2CHZ EP        2 7 23.56                             112    0.59 7  302 236 
 GUY2CHN ES        2 7 57.71                             112    0.81 7  302 236 
 GUY2CHZ I         2 8  4.63         1.6 0.32                           302 236 
                                                                                
