 2016 1117 0014 39.7 L   6.795 -73.136152.0  RSN  6 0.1 1.4LRSN                1
 GAP=154        0.42       2.9     2.0  3.3 -0.2145E+01  0.1490E+01  0.9674E+00E
 Epicentro: LOS SANTOS - SANTANDER                                             3
 ACTION:UPD 17-10-26 21:08 OP:lp   STATUS:               ID:20161117001439 L   I
 OLDACT:DUP 16-11-17 13:07 OP:and  STATUS:               ID:20161117000745d    3
 OLDACT:UP  16-11-17 13:06 OP:and  STATUS:               ID:20161117000744     3
 OLDACT:REG 16-11-17 12:22 OP:and  STATUS:               ID:20161117000744     3
 2016-11-17-0008-00M.COL___340                                                 6
 STAT SP IPHASW D HRMM SECON CODA AMPLIT PERI AZIMU VELO AIN AR TRES W  DIS CAZ7
 BAR2 EZ EP        015  0.07                             171    0.0110 23.0 193 
 BAR2 EZ ES        015 15.94                             171   -0.0110 23.0 193 
 BAR2 EZ I         015 16.51         5.7 0.14            171           23.0 193 
 BRR  HZ EP        015  1.58                             153    0.0010 72.4 298 
 BRR  HN ES        015 18.69                             153    0.0410 72.4 298 
 PAM  EZ EP     D  015  2.80                             152    0.2510 77.1  39 
 PAM  EN ES        015 20.21                             152   -0.1710 77.1  39 
 PAM  EZ I         015 22.58         3.6 0.58            153           77.1  39 
 PTB  HZ EP     C  015  7.02                             133   -0.23 9  149 259 
 PTB  HN ES        015 28.94                             133    0.18 9  149 259 
 PTB  HZ I         015 32.70         2.2 0.14            133            149 259 
 ZAR  HN ES        015 38.35                             123   -0.05 8  205 292 
 ZAR  HZ I         015 41.00         2.3 0.09            124            205 292 
 NOR  HN ES        015 43.99                             120   -0.06 8  235 235 
 NOR  HZ I         015 46.65         1.9 0.28            120            235 235 
                                                                                
