 2012 1117 0319 11.7 L   6.776 -73.353121.1  RSN  5 0.1 1.2LRSN                1
 GAP=109        0.35       2.9     3.1  5.8  0.3120E+01 -0.5730E+01  0.2813E+00E
 Epicentro: ZAPATOCA - SANTANDER                                               3
 ACTION:UPD 12-12-05 15:33 OP:}ep  STATUS:               ID:20121117031911 L   I
 2012-11-17-0317-45M.COL___213                                                 6
 STAT SP IPHASW D HRMM SECON CODA AMPLIT PERI AZIMU VELO AIN AR TRES W  DIS CAZ7
 BAR2 SZ EP   1    319 28.55                             166    0.09 7 27.7 137 
 BAR2 SZ I         319 42.35        10.8 0.48                          27.7 137 
 GIR2 SZ EP   1    319 28.60                             162   -0.06 7 37.8  28 
 BRR  HZ EP   1    319 29.01                             154   -0.18 7 54.0 313 
 BRR  HN ES   1    319 42.96                             154    0.10 7 54.0 313 
 BRR  HZ I         319 43.64         2.3 0.15                          54.0 313 
 RUS  HZ EP   1    319 33.38                             137    0.17 7  102 163 
 RUS  HZ I         319 49.41         2.2 0.78                           102 163 
 RUS  HN ES   1    319 49.89                             137   -0.12 7  102 163 
 PTB  HE ES   1    319 52.39                             131    0.00 7  125 258 
                                                                                
