 2017  717 0108  0.9 L   6.748 -73.163148.9  RSN  7 0.3 1.5LRSN                1
 GAP=137        0.64       3.4     3.7  4.8 -0.4193E+00 -0.1037E+01 -0.1895E+00E
 Epicentro: LOS SANTOS - SANTANDER                                             3
 ACTION:UPD 17-08-30 15:34 OP:rebc STATUS:               ID:20170717010800 L   I
 OLDACT:UP  17-07-17 13:53 OP:dnl  STATUS:               ID:20170717005747     3
 OLDACT:UP  17-07-17 13:53 OP:dnl  STATUS:               ID:20170717005747     3
 OLDACT:REG 17-07-17 12:46 OP:dnl  STATUS:               ID:20170717005747     3
 2017-07-17-0058-00M.COL___386                                                 6
 STAT SP IPHASW D HRMM SECON CODA AMPLIT PERI AZIMU VELO AIN AR TRES W  DIS CAZ7
 BAR2 EZ EP   2    1 8 20.48                             173   -0.31 5 17.4 187 
 BAR2 EZ ES        1 8 36.06                             173   -0.2510 17.4 187 
 BAR2 EZ I         1 8 37.19        17.5 0.16            167           17.4 187 
 BRR  HZ IP     C  1 8 22.45                             153    0.0010 72.5 303 
 BRR  HN ES        1 8 39.68                             153    0.4210 72.5 303 
 BRR  HZ I         1 8 40.80         5.2 0.34            144           72.5 303 
 PAM  EZ EP        1 8 23.55                             150   -0.2210 83.0  38 
 PAM  EZ I         1 8 50.31         3.8 0.36            130           83.0  38 
 RUS  HZ EP        1 8 24.69                             146    0.1310 95.0 175 
 RUS  HN ES        1 8 43.19                             146    0.1710 95.0 175 
 RUS  HZ I         1 8 44.49         5.7 0.22            141           95.0 175 
 PTB  HZ EP   2    1 8 27.61                             133   -0.25 5  145 261 
 PTB  HE ES        1 8 48.66                             133   -0.23 9  145 261 
 PTB  HZ I         1 8 51.87         1.8 0.30            128            145 261 
 SPBC HZ EP        1 8 29.45                             131    0.35 9  158 220 
 SPBC HN ES        1 8 50.86                             131   -0.25 9  158 220 
 SPBC HZ I         1 8 54.31         8.0 0.32            127            158 220 
 GUY2CHZ EP   4    1 8 46.74                             113    2.64 0  296 235 
 GUY2CHN ES   4    1 9  9.43                             113   -8.37 0  296 235 
 GUY2CHZ I         1 9 11.09         0.9 0.22                           296 235 
                                                                                
