 2013  117 0856 53.2 L   6.760 -73.165140.4  RSN  7 0.4 1.8LRSN                1
 GAP=136        0.74       3.8     4.2  6.4  0.1476E+01  0.5237E+01  0.5200E+01E
 Epicentro: LOS SANTOS - SANTANDER                                             3
 ACTION:UPD 13-02-15 09:14 OP:ep   STATUS:               ID:20130117085653 L   I
 2013-01-17-0850-00M.COL___241                                                 6
 STAT SP IPHASW D HRMM SECON CODA AMPLIT PERI AZIMU VELO AIN AR TRES W  DIS CAZ7
 BAR2 SZ EP        857 12.23                             172    0.1010 18.6 186 
 BAR2 SZ ES   1    857 26.42                             172   -0.45 7 18.6 186 
 BAR2 SZ I         857 28.67        14.1 0.20            172           18.6 186 
 BRR  HZ EP        857 14.05                             151    0.2210 71.6 303 
 BRR  HN ES   1    857 30.35                             151    0.46 7 71.6 303 
 BRR  HZ I         857 40.01        16.7 0.36            150           71.6 303 
 PAM  SZ EP   1    857 15.11                             148   -0.08 7 82.2  39 
 PAM  SN ES   1    857 31.97                             148   -0.34 7 82.2  39 
 PAM  SZ I         857 34.21        12.7 0.48            153           82.2  39 
 RUS  HZ EP   1    857 16.23                             144    0.08 7 96.3 175 
 RUS  HN ES   1    857 34.49                             144    0.47 7 96.3 175 
 PTB  HZ EP   1    857 18.86                             131   -0.64 7  145 260 
 PTB  HN ES   1    857 39.92                             131   -0.06 7  145 260 
 PTB  HZ I         857 41.48         6.8 0.34            132            145 260 
 ZAR  HE ES   1    857 50.28                             121   -0.04 6  204 294 
 ZAR  HZ I         857 56.26         8.0 0.30            123            204 294 
 CHI  HZ EP   1    857 30.62                             116    0.51 6  244 195 
 CHI  HN ES   1    857 58.25                             116   -0.62 6  244 195 
 CHI  HZ I         858  3.76         3.1 0.50            120            244 195 
                                                                                
