 2015  717 0849 29.2 L   6.831 -73.112140.0  RSN  9 0.4 1.7LRSN                1
 GAP=139        0.88       2.8     4.0  5.8 -0.2184E+01  0.1326E+02 -0.2333E+01E
 Epicentro: LOS SANTOS - SANTANDER                                             3
 ACTION:UPD 15-09-08 21:49 OP:cam  STATUS:               ID:20150717084929 L   I
 OLDACT:REG 15-07-17 15:17 OP:ak   STATUS:               ID:20150717084748     3
 2015-07-17-0847-48M.COL___337                                                 6
 STAT SP IPHASW D HRMM SECON CODA AMPLIT PERI AZIMU VELO AIN AR TRES W  DIS CAZ7
 BAR2 EZ IP     C  849 48.18                             168   -0.0910 27.5 196 
 BAR2 EZ ES        850  3.20                             168    0.0810 27.5 196 
 BAR2 EZ I         850  4.51         8.7 0.12            167           27.5 196 
 PAM  EZ EP        849 50.88                             151    0.3410 72.4  39 
 PAM  EN ES        850  7.62                             151    0.4610 72.4  39 
 PAM  EZ I         850  8.89         5.4 0.17            155           72.4  39 
 RUS  HZ EP        849 52.27                             142   -0.4010  104 178 
 RUS  HN ES        850 10.54                             142   -0.4010  104 178 
 OCA  HZ EP        849 56.84                             129    0.01 9  157 352 
 OCA  HN ES        850 18.18                             129   -0.17 9  157 352 
 OCA  HZ I         850 21.56         8.9 0.34            130            157 352 
 ZAR  HZ EP        850  2.11                             121    0.57 8  206 291 
 ZAR  HN ES        850 26.79                             121    0.05 8  206 291 
 ZAR  HZ I         850 32.59         6.3 0.32            121            206 291 
 SML  HZ EP        850  4.61                             116   -0.77 8  242 334 
 SML  HE ES        850 33.10                             116   -0.47 8  242 334 
 SML  HZ I         850 40.28         3.8 0.11            117            242 334 
 HEL  HZ EP        850 10.35                             113    0.69 7  276 255 
 HEL  HN ES        850 41.09                             113   -0.09 7  276 255 
 HEL  HZ I         850 46.82         2.6 0.32            114            276 255 
 GUY2CHZ EP        850 13.51                             111    0.36 7  306 235 
 GUY2CHN ES        850 47.65                             111    0.25 7  306 235 
 GUY2CHZ I         850 54.52         3.9 0.50                           306 235 
 CBOC HZ EP        850 16.40                             108   -0.04 7  338 252 
 CBOC HN ES        850 52.94                             108   -0.33 7  338 252 
 CBOC HZ I         851  4.84         1.4 0.81            110            338 252 
                                                                                
