 2011  517 0314  8.8 L   6.819 -73.077138.3  RSN  8 0.3 1.6LRSN                1
 GAP=145        0.73       3.4     7.9  6.8 -0.5466E+01  0.6651E+01 -0.3864E+01E
 Epicentro: LOS SANTOS - SANTANDER                                             3
 ACTION:UP  11-06-29 08:53 OP:tino STATUS:               ID:20110517031408 L   I
 2011-05-17-0312-56S.COL___141                                                 6
 STAT SP IPHASW D HRMM SECON CODA AMPLIT PERI AZIMU VELO SNR AR TRES W  DIS CAZ7
 BTL  SZ EP        314 27.67                             170     0.210   24 298 
 BAR2 SZ EP   1    314 27.37                             168    -0.2 7   28 205 
 BAR2 SZ I         314 27.80         8.5 0.11                            28 205 
 BAR2 SZ ES   1    314 41.92                             168    -0.4 7   28 205 
 GIR2 SZ EP   1    314 27.53                             166     0.0 7   32 336 
 PAM  SZ EP   1    314 30.44                             151     0.6 7   71  36 
 PAM  SN ES   1    314 46.32                             151     0.1 7   71  36 
 BRR  HZ EP   1    314 29.27                             149    -0.2 7   77 294 
 BRR  HZ I         314 29.70        17.2 0.07                            77 294 
 BRR  HN ES   2    314 46.32                             149     0.7 5   77 294 
 RUS  HZ EP   1    314 32.02                             142     0.1 7  102 180 
 RUS  HE ES   1    314 49.94                             142     0.0 7  102 180 
 RUS  HZ I         314 51.84         2.9 0.24                           102 180 
 GRA  SZ EP   1    314 32.43                             136    -0.6 7  122  14 
 GRA  SZ ES   1    314 51.84                             136    -0.1 7  122  14 
 GRA  SZ I         314 54.87         5.2 0.29                           122  14 
 OCA  SZ EP   1    314 36.50                             128     0.1 7  159 350 
 OCA  SZ ES   1    314 57.77                             128    -0.2 7  159 350 
 OCA  SZ I         315  1.05         5.3 0.33                           159 350 
                                                                                
