 2011  717 0124 28.7 L   6.523 -73.543108.9  RSN  6 0.2 1.4LRSN                1
 GAP=200        0.49       2.7     5.6  4.2  0.4305E+01 -0.2789E+00 -0.1729E+01E
 Epicentro: EL CARMEN DE CHUCURI - SANTANDER                                   3
 ACTION:UPD 12-07-25 14:01 OP:epov STATUS:               ID:20110717012428 L   I
 2011-07-17-0121-04S.COL___132                                                 6
 STAT SP IPHASW D HRMM SECON CODA AMPLIT PERI AZIMU VELO AIN AR TRES W  DIS CAZ7
 BAR2 SZ EP   1    124 44.44                             158   -0.09 7 40.6  79 
 BAR2 SZ ES   1    124 56.54                             158   -0.35 7 40.6  79 
 BAR2 SZ I         124 58.59        16.2 0.51                          40.6  79 
 BTL  SZ EP   1    124 45.12                             152   -0.06 7 53.3  35 
 BTL  SZ ES   1    124 57.90                             152   -0.15 7 53.3  35 
 BRR  HZ EP   1    124 45.51                             146   -0.20 7 67.2 344 
 BRR  HZ I         124 53.35         5.6 0.13                          67.2 344 
 BRR  HN ES   1    124 59.31                             146    0.31 7 67.2 344 
 RUS  HZ EP   1    124 47.75                             139   -0.07 7 86.3 144 
 RUS  HE ES   1    125  3.14                             139    0.38 7 86.3 144 
 RUS  HZ I         125  3.98         2.4 0.37                          86.3 144 
 BRI  SZ EP   1    124 54.11                             121    0.16 7  156  32 
 GRA  SZ EP   1    124 55.45                             118   -0.15 7  171  28 
 GRA  SZ ES   1    125 16.86                             118    0.26 7  171  28 
 GRA  SZ I         125 19.93         3.2 0.45                           171  28 
                                                                                
