 2013  117 0158 11.3 L   6.755 -73.151149.1  RSN  6 0.4 1.7LRSN                1
 GAP=138        0.85       5.8     5.2  8.3  0.2644E+01  0.7901E+01  0.3924E+00E
 Epicentro: LOS SANTOS - SANTANDER                                             3
 ACTION:UPD 13-02-15 09:14 OP:ep   STATUS:               ID:20130117015811 L   I
 2013-01-17-0150-00M.COL___241                                                 6
 STAT SP IPHASW D HRMM SECON CODA AMPLIT PERI AZIMU VELO AIN AR TRES W  DIS CAZ7
 BAR2 SZ EP   1    158 31.22                             173   -0.04 7 18.4 191 
 BAR2 SZ ES   1    158 46.49                             173   -0.33 7 18.4 191 
 BAR2 SZ I         158 47.85        15.4 0.32            170           18.4 191 
 BRR  HZ EP   1    158 33.15                             152    0.21 7 73.2 302 
 BRR  HN ES   1    158 50.77                             152    0.97 7 73.2 302 
 BRR  HZ I         158 54.47         8.7 0.40            149           73.2 302 
 PAM  SZ EP   1    158 34.06                             150   -0.08 7 81.6  38 
 PAM  SN ES   1    158 51.50                             150   -0.44 7 81.6  38 
 PAM  SZ I         158 53.55         6.6 0.50            154           81.6  38 
 RUS  HZ EP   1    158 35.52                             146    0.46 7 95.7 175 
 RUS  HN ES   1    158 53.66                             146    0.08 7 95.7 175 
 RUS  HZ I         158 55.13         6.9 0.34            149           95.7 175 
 PTB  HZ EP   1    158 38.16                             133   -0.27 7  146 261 
 PTB  HN ES   1    158 58.95                             133   -0.63 7  146 261 
 PTB  HZ I         159  6.53         6.0 0.32            132            146 261 
 ZAR  HN ES   1    159  9.64                             123   -0.07 6  205 293 
 ZAR  HZ I         159 15.69         4.9 0.22            123            205 293 
                                                                                
