 2016  317 0824 11.4 L   6.841 -73.232134.0  RSN  7 0.4 1.4LRSN                1
 GAP=124        0.68       2.7     3.1  7.9 -0.9713E+00  0.8896E+01 -0.1837E+01E
 Epicentro: ZAPATOCA - SANTANDER                                               3
 ACTION:UPD 16-05-13 21:24 OP:cam  STATUS:               ID:20160317082411 L   I
 OLDACT:UP  16-03-17 18:38 OP:dnl  STATUS:               ID:20160317081746     3
 OLDACT:REG 16-03-17 14:43 OP:dnl  STATUS:               ID:20160317081746     3
 2016-03-17-0817-46M.COL___297                                                 6
 STAT SP IPHASW D HRMM SECON CODA AMPLIT PERI AZIMU VELO AIN AR TRES W  DIS CAZ7
 PAM  EZ EP        824 32.35                             147   -0.1910 80.6  47 
 PAM  EN ES        824 49.17                             147    0.1110 80.6  47 
 PAM  EZ I         824 51.50         5.7 0.54            116           80.6  47 
 RUS  HZ EP   2    824 33.89                             140   -0.51 5  106 171 
 RUS  HN ES        824 52.60                             140    0.2210  106 171 
 RUS  HZ I         824 54.30         3.0 0.30            107            106 171 
 PTB  HZ EP   2    824 36.28                             131   -0.32 5  139 256 
 PTB  HN ES        824 56.05                             131   -0.25 9  139 256 
 PTB  HZ I         824 58.50         2.4 0.20            103            139 256 
 OCA  HZ EP   2    824 39.37                             128    1.12 5  155 356 
 OCA  HN ES        824 58.94                             128   -0.29 9  155 356 
 OCA  HZ I         825  4.48         4.4 0.23            101            155 356 
 SPBC HZ EP   2    824 38.79                             127    0.03 5  161 215 
 SPBC HZ I         825  3.09         3.1 0.10            100            161 215 
 ZAR  HZ EP   2    824 42.45                             121    0.51 4  193 292 
 ZAR  HE ES        825  6.11                             121    0.31 9  193 292 
 ZAR  HZ I         825 13.47         3.5 0.26             98            193 292 
 CHI  HE EP   4    824 49.79                             114    1.13 0  251 193 
 CHI  HZ ES   2    825 17.44                             114   -0.32 4  251 193 
 CHI  HE I         825 20.70         2.1 0.64             95            251 193 
                                                                                
