 2011 1117 0855 52.7 L   6.752 -73.159141.2  RSN  4 0.4 1.4LRSN                1
 GAP=232        0.75      10.9    13.2  7.8  0.1219E+03  0.1438E+02 -0.2749E+01E
 Epicentro: LOS SANTOS - SANTANDER                                             3
 ACTION:UPD 12-07-13 16:10 OP:ep   STATUS:               ID:20111117085552 L   I
 2011-11-17-0852-49S.COL___179                                                 6
 STAT SP IPHASW D HRMM SECON CODA AMPLIT PERI AZIMU VELO AIN AR TRES W  DIS CAZ7
 BAR2 SZ ES   1    856 26.04                             172   -0.46 7 17.8 188 
 BAR2 SZ I         856 27.42         8.2 0.37                          17.8 188 
 BRR  HZ EP        856 13.27                             151   -0.1910 72.6 303 
 BRR  HN ES   1    856 30.27                             151    0.64 7 72.6 303 
 BRR  HZ I         856 31.07         3.7 0.13                          72.6 303 
 RUS  HZ EP   1    856 15.72                             144    0.07 7 95.4 175 
 RUS  HN ES   1    856 33.71                             144    0.18 7 95.4 175 
 ZAR  HZ EP   1    856 25.26                             121    0.32 6  205 294 
 ZAR  HN ES   1    856 49.64                             121   -0.43 6  205 294 
 ZAR  HZ I         856 52.31         2.4 0.79                           205 294 
                                                                                
