 2013 1217 0307 37.4 L   6.763 -73.181144.1  RSN  7 0.3 1.6LRSN                1
 GAP=231        0.71       3.5     4.4  4.8  0.3295E+01  0.2520E+01  0.4310E+01E
 Epicentro: VILLANUEVA - SANTANDER                                             3
 ACTION:UPD 14-01-13 10:18 OP:ep   STATUS:               ID:20131217030737 L   I
 OLDACT:DUP 13-12-17 07:05 OP:nd   STATUS:               ID:20131217030001d    3
 2013-12-17-0300-00M.COL___285                                                 6
 STAT SP IPHASW D HRMM SECON CODA AMPLIT PERI AZIMU VELO AIN AR TRES W  DIS CAZ7
 BAR2 SZ EP        3 7 56.62                             172   -0.1610 18.9 181 
 BAR2 SZ ES        3 8 11.88                             172    0.0110 18.9 181 
 BAR2 SZ I         3 8 13.19        14.7 0.28            168           18.9 181 
 BRR  HZ EP        3 7 58.47                             153    0.1410 70.0 303 
 BRR  HN ES        3 8 15.02                             153    0.3910 70.0 303 
 BRR  HZ I         3 8 17.94         6.1 0.34            152           70.0 303 
 RUS  HZ EP        3 8  0.60                             145   -0.1510 96.8 174 
 RUS  HN ES        3 8 18.70                             145   -0.2310 96.8 174 
 RUS  HZ I         3 8 20.30         2.5 0.20            144           96.8 174 
 PTB  HZ EP        3 8  3.57                             133   -0.28 9  143 260 
 PTB  HN ES        3 8 24.09                             133   -0.37 9  143 260 
 PTB  HZ I         3 8 27.10         4.3 0.10            132            143 260 
 SPBC HZ EP        3 8  5.70                             130    0.43 9  158 219 
 SPBC HN ES        3 8 26.91                             130   -0.07 9  158 219 
 SPBC HZ I         3 8 32.16         5.6 0.20            129            158 219 
 CHI  HZ EP        3 8 14.40                             117   -0.09 8  244 195 
 CHI  HN ES        3 8 43.90                             117    0.49 8  244 195 
 CHI  HZ I         3 8 49.30         2.4 0.44            118            244 195 
 GUY2CHZ EP   4    3 8 21.96                             112    1.62 0  296 235 
 GUY2CHN ES   4    3 8 56.59                             112    2.79 0  296 235 
 GUY2CHZ I         3 9  3.09         2.4 0.60                           296 235 
                                                                                
