 2013 1117 0233 49.9 L   6.782 -73.124145.1  RSN  6 0.5 1.3LRSN                1
 GAP=140        1.16       5.1     5.9  8.5 -0.7984E+01  0.6104E+01  0.5323E+00E
 Epicentro: LOS SANTOS - SANTANDER                                             3
 ACTION:UPD 14-01-09 16:28 OP:ep   STATUS:               ID:20131117023349 L   I
 OLDACT:UP  13-12-03 10:14 OP:ep   STATUS:               ID:20131117023349 L   3
 OLDACT:REG 13-11-17 08:57 OP:stll STATUS:               ID:20131117022810     3
 2013-11-17-0228-10M.COL___220                                                 6
 STAT SP IPHASW D HRMM SECON CODA AMPLIT PERI AZIMU VELO AIN AR TRES W  DIS CAZ7
 BRR  HN ES        234 28.26                             151    0.5510 74.3 299 
 PAM  SZ EP        234 12.30                             151    0.2710 77.4  37 
 PAM  SN ES        234 29.28                             151   -0.0210 77.4  37 
 RUS  HZ EP        234 13.73                             144    0.3110 98.5 177 
 RUS  HN ES        234 31.03                             144   -0.7410 98.5 177 
 RUS  HZ I         234 33.39         1.5 0.32            144           98.5 177 
 PTB  HZ EP        234 16.73                             131   -0.25 9  150 260 
 PTB  HN ES        234 37.61                             131   -0.50 9  150 260 
 SPBC HZ EP        234 18.81                             129    0.48 9  163 220 
 SPBC HE ES        234 40.88                             129    0.36 9  163 220 
 SPBC HZ I         234 45.19         2.3 0.20            129            163 220 
 SML  HZ EP        234 26.08                             117   -0.70 8  247 335 
 SML  HN ES   4    234 53.10                             117   -2.45 0  247 335 
 SML  HZ I         234 57.15         3.4 0.10            118            247 335 
                                                                                
