 2010  617 0809 34.2 L   6.802 -73.076135.1  RSN 13 0.6 2.2LRSN                1
 GAP=131        1.32       4.4     7.7  8.0 -0.1142E+02  0.1262E+02  0.1418E+01E
 Epicentro: LOS SANTOS - SANTANDER                                             3
 ACTION:UP  10-08-24 10:11 OP:vdl  STATUS:               ID:20100617080934 L   I
 2010-06-17-0807-01S.COL___114                                                 6
 STAT SP IPHASW D HRMM SECON CODA AMPLIT PERI AZIMU VELO SNR AR TRES W  DIS CAZ7
 BAR2 SZ IP        8 9 52.51                             169    -0.110   26 207 
 BAR2 SZ ES   1    810  7.00                             169     0.1 7   26 207 
 BRR  HZ IP     D  8 9 54.41                             148    -0.210   78 296 
 BRR  HZ I         8 9 54.84        72.4 0.13                            78 296 
 BRR  HN ES   1    810 11.18                             148     0.7 7   78 296 
 RUS  HZ EP        8 9 56.44                             141    -0.410  101 180 
 RUS  HE ES        810 14.42                             141    -0.210  101 180 
 RUS  HZ I         810 15.69        29.5 0.24                           101 180 
 BRI  SZ EP   1    8 9 58.20                             140     1.4 7  106  17 
 BRI  SZ ES   1    810 15.42                             140     0.9 7  106  17 
 GUE  SZ EP        8 9 57.71                             137    -0.110  115   8 
 GUE  SZ ES   1    810 15.78                             137    -0.4 7  115   8 
 GRA  SZ EP        8 9 58.55                             135     0.310  123  14 
 GRA  SZ ES   1    810 16.56                             135    -0.5 7  123  14 
 OCA  SZ EP   1    810  1.38                             127    -0.4 7  161 350 
 OCA  SZ ES   1    810 22.25                             127    -1.0 7  161 350 
 OCA  SZ I         810 26.95        24.4 0.12                           161 350 
 CHI  HZ EP   1    810 10.87                             115    -0.7 6  251 197 
 CHI  HZ I         810 43.10         5.5 0.58                           251 197 
 ROSC BZ EP        810 12.80                             114     0.6 8  257 212 
 ROSC BZ I         810 53.81         7.3 0.36                           257 212 
 HEL  HZ EP        810 14.95                             112     0.3 7  280 256 
 HEL  HN ES   1    810 45.67                             112    -0.6 6  280 256 
 HEL  HZ I         810 51.91         9.1 0.32                           280 256 
 DBB  SZ EP   1    810 21.90                             107    -0.2 5  347 274 
 TOL  SZ EP   1    810 23.59                             107     0.9 5  349 226 
 SDV  BZ EP   1    810 22.43                             107    -0.7 5  354  49 
 SDV  BZ I         811  1.99         3.5 0.47                           354  49 
                                                                                
