 2011  217 0644 23.1 L   6.774 -73.109148.6  RSN  6 0.2 1.4LRSN                1
 GAP=163        0.47       2.4     5.3  6.7 -0.4947E+01  0.8695E+01  0.1050E+00E
 Epicentro: LOS SANTOS - SANTANDER                                             3
 ACTION:UP  11-03-28 15:09 OP:jfem STATUS:               ID:20110217064423 L   I
 2011-02-17-0639-33S.COL___137                                                 6
 STAT SP IPHASW D HRMM SECON CODA AMPLIT PERI AZIMU VELO SNR AR TRES W  DIS CAZ7
 BAR2 SZ EP   1    644 42.81                             171    -0.2 7   22 202 
 BAR2 SZ I         644 43.12         8.0 0.07                            22 202 
 RUS  HZ EP   1    644 46.96                             145     0.1 7   98 178 
 RUS  HN ES   1    645  5.53                             145     0.1 7   98 178 
 RUS  HZ I         645  6.72         2.8 0.33                            98 178 
 GRA  SZ EP   1    644 48.59                             137    -0.1 7  127  15 
 GRA  SZ ES   1    645  8.46                             137    -0.2 7  127  15 
 GRA  SZ I         645  9.29         3.4 0.29                           127  15 
 OCA  SZ EP   2    644 51.80                             130    -0.1 5  164 352 
 OCA  SZ ES   1    645 14.78                             130     0.4 7  164 352 
 OCA  SZ I         645 15.15         3.7 0.47                           164 352 
 NOR  SN ES   1    645 27.14                             119    -0.2 6  237 236 
 CHI  HZ EP   1    645  0.95                             118     0.2 6  247 196 
                                                                                
