 2015  417 0632 29.6 L   6.526 -73.539  4.2  RSN  4 0.1 0.8LRSN                1
 GAP=127        0.33       0.9     0.7  2.1  0.2068E+00 -0.5985E-01 -0.8914E-01E
 Epicentro: EL CARMEN - SANTANDER                                              3
 ACTION:UPD 15-06-03 16:55 OP:cam  STATUS:               ID:20150417063229 L   I
 OLDACT:REG 15-04-17 13:10 OP:spq  STATUS:               ID:20150417062749     3
 2015-04-17-0627-49M.COL___275                                                 6
 STAT SP IPHASW D HRMM SECON CODA AMPLIT PERI AZIMU VELO AIN AR TRES W  DIS CAZ7
 BAR2 EZ EP        632 36.47                              47    0.0110 40.1  79 
 BAR2 EZ ES        632 41.76                              47   -0.0910 40.1  79 
 BAR2 EZ I         632 43.08         3.8 0.30            125           40.1  79 
 BRR  HZ EP        632 40.31                              47    0.0010 67.1 343 
 BRR  HN ES        632 48.76                              47    0.0610 67.1 343 
 BRR  HZ I         632 49.73         3.8 0.10            104           67.1 343 
 RUS  HZ EP        632 43.90                              47    0.1810 86.3 144 
 RUS  HZ I         632 44.27         3.9 0.12             98           86.3 144 
 RUS  HN ES        632 54.72                              47   -0.0610 86.3 144 
 PTB  HZ EP        632 45.51                              47   -0.0310  102 271 
 PTB  HN ES        632 57.95                              47   -0.0610  102 271 
 PTB  HZ I         632 59.43         3.0 0.22             61            102 271 
                                                                                
