 2017  717 0258 40.5 L   6.413 -73.594107.8  RSN  4 0.2 0.8LRSN                1
 GAP=143        0.50       3.0     2.5  5.0  0.2684E+01  0.4413E+01  0.1801E+01E
 Epicentro: SANTA HELENA DEL OPON - SANTANDER                                  3
 ACTION:UPD 17-08-30 15:34 OP:rebc STATUS:               ID:20170717025840 L   I
 OLDACT:DUP 17-07-17 15:12 OP:dnl  STATUS:               ID:20170717024747d    3
 OLDACT:REG 17-07-17 12:51 OP:dnl  STATUS:               ID:20170717024746     3
 2017-07-17-0248-00M.COL___386                                                 6
 STAT SP IPHASW D HRMM SECON CODA AMPLIT PERI AZIMU VELO AIN AR TRES W  DIS CAZ7
 BAR2 HZ EP        258 56.80                             154    0.1710 49.6  66 
 BAR2 HZ ES        259  9.09                             154   -0.1610 49.6  66 
 BRR  HZ EP        258 57.97                             141   -0.1810 77.9 350 
 BRR  HZ I         259 10.62         1.5 0.50            125           77.9 350 
 BRR  HN ES        259 12.11                             141    0.1510 77.9 350 
 RUS  HZ EP   2    258 59.62                             141    0.57 5 80.6 135 
 RUS  HN ES        259 13.52                             141   -0.0410 80.6 135 
 RUS  HZ I         259 17.11         0.9 0.46            126           80.6 135 
 PTB  HZ EP        258 59.54                             135   -0.1510 96.4 278 
 PTB  HN ES        259 14.78                             135    0.0810 96.4 278 
 PTB  HZ I         259 15.86         2.0 0.14            122           96.4 278 
                                                                                
