 2012  817 0936 36.1 L   6.273 -73.751 99.9  RSN  8 0.4 1.6LRSN                1
 GAP= 60        0.80       3.4     3.3  7.0  0.3949E+01  0.7249E+01  0.6544E+01E
 Epicentro: LANDAZURI - SANTANDER                                              3
 ACTION:UPD 12-09-10 11:56 OP:ep   STATUS:               ID:20120817093636 L   I
 2012-08-17-0930-00M.COL___217                                                 6
 STAT SP IPHASW D HRMM SECON CODA AMPLIT PERI AZIMU VELO AIN AR TRES W  DIS CAZ7
 BAR2 SZ EP   1    936 52.80                             141   -0.11 7 72.1  61 
 BAR2 SZ ES   1    937  6.16                             141    0.13 7 72.1  61 
 BAR2 SZ I         937  7.29        52.3 0.13                          72.1  61 
 PTB  HZ EP   1    936 52.95                             137   -0.56 7 83.4 291 
 PTB  HN ES        937  6.63                             137   -0.4810 83.4 291 
 PTB  HZ I         937 10.09         4.7 0.14                          83.4 291 
 RUS  HZ EP   1    936 53.86                             137   -0.44 7 85.0 120 
 RUS  HN ES        937  8.57                             137    0.0610 85.0 120 
 RUS  HZ I         937  9.26         6.6 0.18                          85.0 120 
 BRR  HZ EP   1    936 54.12                             134   -0.13 7 92.3   3 
 BRR  HZ I         936 54.45        16.8 0.13                          92.3   3 
 BRR  HE ES        937  8.83                             134    0.4010 92.3   3 
 GIR2 SZ EP   1    936 55.74                             129   -0.18 7  108  35 
 NOR  SZ EP   1    937  0.40                             120    0.70 7  147 238 
 NOR  SZ I         937 21.84         6.9 0.19                           147 238 
 ZAR  HZ EP   1    937  3.57                             114    0.05 7  182 318 
 ZAR  HN ES   1    937 25.41                             114    0.48 7  182 318 
 ZAR  HZ I         937 28.99         6.0 0.18                           182 318 
 CHI  HZ EP   1    937  4.05                             115    0.04 7  182 179 
 CHI  HZ I         937  5.14         3.6 0.10                           182 179 
 CHI  HN ES   2    937 26.53                             115    0.74 4  182 179 
                                                                                
