 2016  517 0303 20.8 L   6.800 -73.113146.0  RSN  8 0.5 1.9LRSN                1
 GAP=186        1.15       3.7     6.5  6.9 -0.1192E+01  0.1138E+02  0.7331E+00E
 Epicentro: LOS SANTOS - SANTANDER                                             3
 ACTION:UPD 16-08-18 17:46 OP:cam  STATUS:               ID:20160517030320 L   I
 OLDACT:REG 16-05-17 13:51 OP:mh   STATUS:               ID:20160517025752     3
 2016-05-17-0258-00M.COL___435                                                 6
 STAT SP IPHASW D HRMM SECON CODA AMPLIT PERI AZIMU VELO AIN AR TRES W  DIS CAZ7
 BAR2 EZ EP        3 3 40.70                             170    0.1810 24.2 198 
 BAR2 EZ ES        3 3 55.75                             170   -0.1210 24.2 198 
 BAR2 EZ I         3 3 57.36        12.8 0.05            167           24.2 198 
 BRR  HZ EP        3 3 42.39                             151    0.1910 74.3 297 
 BRR  HN ES        3 3 59.77                             151    0.9110 74.3 297 
 BRR  HZ I         3 3 59.84        14.4 0.30            149           74.3 297 
 RUS  HZ EP   1    3 3 44.72                             144    0.11 7  100 178 
 RUS  HN ES        3 4  3.04                             144   -0.1010  100 178 
 RUS  HZ I         3 4  4.31         8.8 0.32            144            100 178 
 OCA  HZ EP        3 3 49.17                             130   -0.04 9  161 352 
 OCA  HN ES        3 4 10.35                             130   -0.99 9  161 352 
 OCA  HZ I         3 4 14.11        13.3 0.16            130            161 352 
 SPBC HZ EP        3 3 49.60                             129    0.02 9  165 220 
 SPBC HN ES        3 4 11.71                             129   -0.28 9  165 220 
 SPBC HZ I         3 4 14.83        12.3 0.14            128            165 220 
 ZAR  HZ EP        3 3 54.57                             122    0.93 8  207 292 
 ZAR  HN ES        3 4 18.87                             122   -0.36 8  207 292 
 ZAR  HZ I         3 4 24.20         7.2 0.32            121            207 292 
 NOR  HZ EP        3 3 56.91                             118    0.01 8  238 235 
 NOR  HN ES        3 4 24.39                             118   -0.64 8  238 235 
 NOR  HZ I         3 4 30.58         4.0 0.37            118            238 235 
 PRA  HZ EP        3 4 14.22                             106   -0.36 6  394 210 
 PRA  HN ES        3 4 56.72                             106    0.22 6  394 210 
 PRA  HZ I         3 5  3.21         2.5 0.44            107            394 210 
                                                                                
