 2010  717 0052 23.3 L   6.785 -73.421113.1  RSN  4 0.2 1.4LRSN                1
 GAP=159        0.50       3.8     6.1  5.7  0.7526E+01 -0.6146E+01 -0.5340E+01E
 Epicentro: SAN VICENTE DE CHUCURI - SANTANDER                                 3
 ACTION:UPD 10-12-01 15:18 OP:pat  STATUS:               ID:20100717005223 L   I
 2010-07-17-0047-19S.COL___119                                                 6
 STAT SP IPHASW D HRMM SECON CODA AMPLIT PERI AZIMU VELO AIN AR TRES W  DIS CAZ7
 BAR2 SZ EP   2    052 39.34                             162     0.0 5   34 129 
 BAR2 SZ ES   1    052 52.09                             162     0.2 7   34 129 
 BAR2 SZ I         052 52.77        14.1 0.14                            34 129 
 BRR  HZ IP     C  052 39.56                             155    -0.110   48 318 
 BRR  HZ I         052 49.82        13.5 0.39                            48 318 
 BRR  HN ES   1    052 52.35                             155     0.0 7   48 318 
 RUS  HZ EP   2    052 44.56                             134     0.1 5  105 159 
 RUS  HN ES   2    053  0.40                             134    -0.5 5  105 159 
 RUS  HZ I         053 10.15         2.3 0.62                           105 159 
 GUE  SZ EP   1    052 46.45                             128     0.2 7  128  25 
 GUE  SZ I         052 46.94         4.2 0.12                           128  25 
 GUE  SZ ES   2    053  3.80                             128    -0.4 5  128  25 
                                                                                
