 2013  317 0416 40.7 L   6.711 -73.186154.9  RSN  4 0.4 1.1LRSN                1
 GAP=226        0.66       6.4     6.5  8.2  0.1609E+02  0.3982E+01  0.1256E+01E
 Epicentro: VILLANUEVA - SANTANDER                                             3
 ACTION:UPD 13-04-09 14:03 OP:ep   STATUS:               ID:20130317041640 L   I
 2013-03-17-0410-00M.COL___244                                                 6
 STAT SP IPHASW D HRMM SECON CODA AMPLIT PERI AZIMU VELO AIN AR TRES W  DIS CAZ7
 BRR  HZ EP   1    417  3.00                             154    0.03 8 72.8 307 
 BRR  HN ES   1    417 20.64                             154    0.34 8 72.8 307 
 BRR  HZ I         417 27.79         3.1 0.68            151           72.8 307 
 RUS  HZ EP   1    417  5.00                             148    0.23 8 91.2 173 
 RUS  HN ES   1    417 23.31                             148   -0.21 8 91.2 173 
 RUS  HZ I         417 25.06         0.8 0.18            154           91.2 173 
 PTB  HZ EP        417  7.83                             135   -0.1110  142 262 
 PTB  HN ES   1    417 28.63                             135   -0.53 7  142 262 
 PTB  HZ I         417 34.88         2.3 0.26            136            142 262 
 NOR  HE ES   2    417 44.44                             122    0.86 4  225 236 
 NOR  HZ I         417 48.71         1.7 0.18            125            225 236 
                                                                                
