 2013 1117 0558 38.2 L   6.782 -73.142137.1  RSN 13 0.7 1.7LRSN 2.4WRSN        1
 SPEC AVERAGE  MO 12.7 ST 30.5 OM  1.1 f0 17.3 R0.1419 AL 0.00 WI 20.0 MW  2.4 3
 SPEC SD       MO  0.2 ST 34.6 OM  0.4 f0 7.98 R0.0782 AL      WI      MW  0.1 3
 GAP= 72        1.77       5.3     5.6  8.9 -0.7443E+01 -0.7721E+00  0.6847E+01E
 Epicentro: LOS SANTOS - SANTANDER                                             3
 SPEC BAR2SH Z MO 13.0 ST 37.3 OM  1.2 f0 18.0 R0.1069 AL-0.00 WI 20.0 MW  2.6 3
 SPEC BAR2SH Z T 559 9 K 0.050 GD  138 VS 5.20 DE 3.20 Q0750.0 QA 1.50 VS 5.20 3
 SPEC BRR HH Z MO 12.8 ST 14.4 OM  0.9 f0 15.9 R0.1210 AL-0.00 WI 20.0 MW  2.5 3
 SPEC BRR HH Z T 55913 K 0.050 GD  155 VS 5.20 DE 3.20 Q0750.0 QA 1.50 VS 5.20 3
 SPEC PAM SH Z MO 12.7 ST0.839 OM  0.8 f0 6.61 R0.2911 AL-0.00 WI 20.0 MW  2.4 3
 SPEC PAM SH Z T 55915 K 0.050 GD  158 VS 5.20 DE 3.20 Q0750.0 QA 1.50 VS 5.20 3
 SPEC RUS HH Z MO 12.4 ST  5.1 OM  0.5 f0 14.9 R0.1291 AL-0.00 WI 20.0 MW  2.2 3
 SPEC RUS HH Z T 55917 K 0.050 GD  168 VS 5.20 DE 3.20 Q0750.0 QA 1.50 VS 5.20 3
 SPEC SPBCHH Z MO 12.7 ST 94.9 OM  0.7 f0 31.3 R0.0615 AL-0.00 WI 20.0 MW  2.4 3
 SPEC SPBCHH Z T 55925 K 0.050 GD  212 VS 5.20 DE 3.20 Q0750.0 QA 1.50 VS 5.20 3
 OLDACT:REG 13-11-17 09:04 OP:stll STATUS:               ID:20131117054805     3
 ACTION:UPD 14-01-09 16:28 OP:ep   STATUS:               ID:20131117055838 L   I
 OLDACT:UP  13-11-17 13:32 OP:stll STATUS:               ID:20131117054805     3
 2013-11-17-0548-05M.COL___220                                                 6
 STAT SP IPHASW D HRMM SECON CODA AMPLIT PERI AZIMU VELO AIN AR TRES W  DIS CAZ7
 BAR2 SZ EP        558 57.07                             171    0.3310 21.5 192 
 BAR2 SZ ES        559 11.41                             171    0.1910 21.5 192 
 BAR2 SZ I         559 12.97        44.2 0.18            168           21.5 192 
 BRR  HZ EP        558 58.99                             151    0.5010 72.5 300 
 BRR  HN ES        559 15.25                             151    0.9310 72.5 300 
 BRR  SZ I         559 18.28         6.0 0.18            155           72.5 300 
 PAM  SZ EP        558 59.98                             149    0.4110 78.7  38 
 PAM  SN ES        559 16.55                             149    0.3010 78.7  38 
 PAM  SZ I         559 17.82         7.4 0.18            154           78.7  38 
 RUS  HZ EP        559  1.03                             143    0.0810 98.6 176 
 RUS  HN ES        559 18.75                             143    0.0410 98.6 176 
 RUS  SZ I         559 24.06         6.6 1.80            143           98.6 176 
 PTB  HZ EP        559  3.74                             130   -0.72 9  148 260 
 PTB  HN ES        559 23.49                             130   -1.47 9  148 260 
 PTB  SZ I         559 30.20         9.5 0.42            133            148 260 
 CAPV BZ EP        559  5.14                             130    0.12 9  151  37 
 TAM  HZ EP        559  5.39                             129    0.27 9  154 104 
 TAM  HN ES        559 25.58                             129   -0.54 9  154 104 
 TAM  SZ I         559 33.81        10.8 3.86            131            154 104 
 SPBC HZ EP        559  6.11                             127    0.20 9  162 220 
 SPBC HN ES        559 27.22                             127   -0.32 9  162 220 
 SPBC SZ I         559 36.56         5.8 1.12            129            162 220 
 OCA  HN ES        559 26.85                             127   -0.90 9  162 353 
 NOR  HZ EP        559 13.48                             117    0.14 8  234 235 
 CHI  HZ EP        559 14.57                             116   -0.66 8  247 195 
 CHI  HZ I         559 17.44         2.1 0.64            118            247 195 
 CHI  HN ES        559 43.82                             116   -0.30 8  247 195 
 GUY2CHZ EP        559 23.69                             111    2.37 7  300 235 
 SOCV BZ EP        559 19.76                             110   -1.18 7  302  57 
                                                                                
