 2014  717 0202 52.9 L   6.813 -73.180139.6  RSN 19 0.5 2.0LRSN                1
 GAP=180        1.04       2.5     4.3  5.3 -0.1537E+01  0.3956E+01  0.2223E+01E
 Epicentro: ZAPATOCA - SANTANDER                                               3
 ACTION:UPD 15-03-16 20:44 OP:nd   STATUS:               ID:20140717020252 L   I
 OLDACT:REG 14-07-17 12:37 OP:fm   STATUS:               ID:20140717015814     3
 2014-07-17-0158-14M.COL___263                                                 6
 STAT SP IPHASW D HRMM SECON CODA AMPLIT PERI AZIMU VELO AIN AR TRES W  DIS CAZ7
 BAR2 SZ IP     C  2 3 11.87                             170    0.0310 24.4 181 
 BAR2 SZ ES   1    2 3 26.73                             170    0.14 7 24.4 181 
 BAR2 SZ I         2 3 27.95        17.3 0.24            166           24.4 181 
 BRR  HZ EP        2 3 13.80                             153    0.6110 67.2 299 
 BRR  HE ES        2 3 29.37                             153    0.3810 67.2 299 
 BRR  HZ I         2 3 34.07        19.8 0.28            149           67.2 299 
 RUS  HZ EP   1    2 3 15.86                             142   -0.35 7  102 174 
 RUS  HE ES   1    2 3 34.31                             142   -0.06 7  102 174 
 RUS  HZ I         2 3 35.96        11.5 0.42            143            102 174 
 PTB  HZ EP        2 3 18.52                             131   -0.57 9  144 258 
 PTB  HN ES        2 3 39.11                             131   -0.38 9  144 258 
 PTB  HZ I         2 3 45.06        10.6 0.20            129            144 258 
 OCA  HN ES        2 3 41.64                             128   -0.53 9  158 354 
 OCA  HZ I         2 3 46.95         8.6 0.37            131            158 354 
 SPBC HZ EP        2 3 20.77                             128   -0.08 9  162 218 
 SPBC HN ES        2 3 42.35                             128   -0.27 9  162 218 
 SPBC HZ I         2 3 45.38        15.9 0.28            127            162 218 
 ZAR  HZ EP        2 3 24.97                             121    0.41 9  200 292 
 ZAR  HN ES        2 3 50.01                             121    0.78 9  200 292 
 ZAR  HZ I         2 3 57.01         9.5 0.32            121            200 292 
 NOR  HZ IP     C  2 3 28.20                             117    0.13 8  233 234 
 NOR  HE ES        2 3 55.31                             117   -0.17 8  233 234 
 NOR  HZ I         2 4  2.94         9.0 0.12            117            233 234 
 SML  HZ EP        2 3 28.72                             116   -0.18 8  241 336 
 SML  HE ES        2 3 56.47                             116   -0.49 8  241 336 
 SML  HZ I         2 4  2.04         8.7 0.10            118            241 336 
 CHI  HZ EP        2 3 30.80                             116    0.46 8  249 194 
 CHI  HE ES   1    2 3 58.73                             116   -0.79 6  249 194 
 CHI  HZ I         2 4  7.55         4.6 0.36            117            249 194 
 ROSC BE ES        2 4  1.05                             115    0.98 8  252 210 
 ROSC BZ I         2 4  9.68         9.8 0.40            116            252 210 
 HEL  HZ EP   1    2 3 32.36                             114   -0.11 6  269 255 
 HEL  HE ES        2 4  2.40                             114   -0.91 8  269 255 
 HEL  HZ I         2 4 10.00         4.8 0.54            114            269 255 
 GUY2CHZ EP        2 3 36.76                             111    0.75 7  299 234 
 GUY2CHN ES        2 4  9.29                             111   -0.32 7  299 234 
 GUY2CHZ I         2 4 16.91         4.1 0.26                           299 234 
 RREF HN ES        2 4 13.99                             110   -0.22 7  320 229 
 RREF HZ I         2 4 24.91         4.9 0.38            110            320 229 
 CBOC HZ EP        2 3 40.12                             109    0.88 7  330 252 
 CBOC HN ES   1    2 4 15.24                             109   -0.11 5  330 252 
 CBOC HZ I         2 4 28.35         2.4 0.46            109            330 252 
 TOL  SZ EP        2 3 41.07                             108    0.31 7  342 224 
 TOL  SN ES        2 4 18.55                             108    0.48 7  342 224 
 TOL  SZ I         2 4 25.47         9.4 0.22            109            342 224 
 PRA  HZ EP        2 3 45.89                             105   -0.29 6  391 209 
 PRA  HN ES        2 4 27.18                             105   -0.53 6  391 209 
 PRA  HZ I         2 4 35.18         4.7 0.60            106            391 209 
 ORTC HZ EP        2 3 45.57                             105   -0.95 6  394 216 
 ORTC HE ES        2 4 28.34                             105    0.01 6  394 216 
 ORTC HZ I         2 4 36.03         3.3 0.42            106            394 216 
 SJC  HZ EP        2 3 47.88                             105   -0.03 6  406 327 
 SJC  HN ES   4    2 4 26.99                             105   -3.81 0  406 327 
 SJC  HZ I         2 4 32.03         1.7 0.54            106            406 327 
                                                                                
