 2010  817 0418 16.3 L   6.797 -73.096146.8  RSN  7 0.4 1.7LRSN                1
 GAP=164        0.86       4.1     7.6  6.9 -0.2798E+01 -0.8018E+01 -0.6680E+01E
 Epicentro: LOS SANTOS - SANTANDER                                             3
 ACTION:UP  10-09-07 10:55 OP:vdl  STATUS:               ID:20100817041816 L   I
 2010-08-17-0417-16S.COL___111                                                 6
 STAT SP IPHASW D HRMM SECON CODA AMPLIT PERI AZIMU VELO SNR AR TRES W  DIS CAZ7
 BTL  SZ EP        418 36.29                             171     0.210   23 305 
 BTL  SZ ES   1    418 51.28                             171    -0.2 7   23 305 
 BAR2 SZ ES   1    418 51.12                             170    -0.4 7   25 203 
 BAR2 SZ I         418 52.70        17.0 0.06                            25 203 
 BRR  HZ EP        418 37.85                             151     0.010   76 297 
 BRR  HZ I         418 38.13        20.2 0.13                            76 297 
 BRR  HN ES   1    418 55.24                             151     0.6 7   76 297 
 RUS  HZ EP        418 39.94                             144    -0.210  100 179 
 RUS  HN ES        418 58.89                             144     0.210  100 179 
 RUS  HZ I         418 59.46         3.5 1.11                           100 179 
 GUE  SZ EP        418 41.14                             140     0.110  116   9 
 GRA  SZ EP        418 41.73                             137     0.210  125  15 
 GRA  SZ ES   1    419  0.74                             137    -0.5 7  125  15 
 GRA  SZ I         419  4.11         3.0 0.75                           125  15 
 HEL  HN ES   2    419 27.92                             114    -1.1 4  277 256 
 HEL  HZ I         419 34.64         2.8 0.29                           277 256 
                                                                                
