 2015 1017 0339 14.3 L   6.827 -73.164146.4  RSN 10 0.4 1.7LRSN                1
 GAP=200        1.00       3.1     5.2  5.9  0.2518E+01  0.7514E+01  0.7115E+00E
 Epicentro: LOS SANTOS - SANTANDER                                             3
 ACTION:UPD 15-12-22 20:40 OP:cam  STATUS:               ID:20151017033914 L   I
 OLDACT:REG 15-10-17 12:43 OP:ak   STATUS:               ID:20151017033749     3
 2015-10-17-0337-49M.COL___341                                                 6
 STAT SP IPHASW D HRMM SECON CODA AMPLIT PERI AZIMU VELO AIN AR TRES W  DIS CAZ7
 BAR2 EZ EP        339 34.38                             170    0.3110 26.0 184 
 BAR2 EZ ES        339 49.75                             170    0.2610 26.0 184 
 BAR2 EZ I         339 50.68         9.7 0.34            166           26.0 184 
 BRR  HZ EP        339 35.93                             154    0.5810 68.0 297 
 BRR  HN ES        339 52.05                             154    0.2810 68.0 297 
 BRR  HZ I         339 56.79        10.3 0.22            148           68.0 297 
 RUS  HZ EP        339 37.86                             143   -0.4810  104 175 
 RUS  HN ES        339 56.68                             143   -0.4210  104 175 
 RUS  HZ I         339 58.18         4.8 0.20            144            104 175 
 SPBC HZ EP        339 43.38                             129    0.43 9  164 218 
 SPBC HN ES        340  4.55                             129   -0.75 9  164 218 
 SPBC HZ I         340  9.00         8.4 0.08            128            164 218 
 ZAR  HZ EP   1    339 46.91                             123    0.42 6  201 292 
 ZAR  HN ES        340 11.21                             123   -0.38 9  201 292 
 ZAR  HZ I         340 18.56         7.8 0.28            121            201 292 
 NOR  HZ EP        339 49.49                             119   -0.59 8  235 234 
 NOR  HN ES        340 18.09                             119    0.10 8  235 234 
 NOR  HZ I         340 24.23         3.7 0.10            118            235 234 
 SML  HZ EP        339 50.34                             118   -0.25 8  240 335 
 SML  HN ES        340 18.45                             118   -0.44 8  240 335 
 SML  HZ I         340 22.13         6.9 0.10            118            240 335 
 CHI  HZ EP        339 52.33                             117    0.04 8  251 195 
 CHI  HN ES        340 22.32                             117    0.40 8  251 195 
 CHI  HZ I         340 29.08         2.5 0.40            118            251 195 
 GUY2CHZ EP   1    339 58.22                             112    0.27 5  301 234 
 GUY2CHE ES        340 32.43                             112    0.44 7  301 234 
 GUY2CHZ I         340 38.65         1.8 0.32                           301 234 
 MON  HZ EP   4    340  0.85                             109   -2.08 0  350 308 
 MON  HN ES   4    340 40.00                             109   -0.87 0  350 308 
 MON  HZ I         340 54.92         1.3 0.45            109            350 308 
 SJC  HZ EP   4    340  7.97                             106   -1.50 0  406 327 
 SJC  HN ES   4    340 49.93                             106   -2.57 0  406 327 
                                                                                
