 2016  317 0528 34.8 L   6.744 -73.179132.1  RSN  4 0.2 1.1LRSN                1
 GAP=138        0.38       2.4     2.7  7.7 -0.2462E+01  0.1148E+02 -0.3010E+01E
 Epicentro: VILLANUEVA - SANTANDER                                             3
 ACTION:UPD 16-05-13 21:24 OP:cam  STATUS:               ID:20160317052834 L   I
 OLDACT:DUP 16-03-17 18:27 OP:dnl  STATUS:               ID:20160317051749d    3
 2016-03-17-0517-48M.COL___291                                                 6
 STAT SP IPHASW D HRMM SECON CODA AMPLIT PERI AZIMU VELO AIN AR TRES W  DIS CAZ7
 PAM  EN EP   2    528 55.92                             146   -0.10 5 84.5  39 
 PAM  EZ ES        529 12.62                             146    0.0310 84.5  39 
 PAM  EN I         529 14.35         6.6 0.44            150           84.5  39 
 RUS  HZ EP   3    528 57.44                             143    0.68 2 94.8 174 
 RUS  HE ES        529 13.81                             143   -0.1010 94.8 174 
 RUS  HZ I         529 16.76         1.2 0.15            144           94.8 174 
 PTB  HZ EP   2    528 59.94                             130   -0.27 5  143 261 
 PTB  HN ES        529 20.12                             130    0.07 9  143 261 
 PTB  HZ I         529 23.45         1.1 0.16            131            143 261 
 SPBC HN ES   2    529 22.68                             127    0.23 5  156 219 
 SPBC HZ I         529 26.53         1.6 0.10            129            156 219 
                                                                                
