 2012  717 0728 52.7 L   6.749 -73.147144.2  RSN  6 0.4 1.7LRSN                1
 GAP=139        0.88       6.0     6.2  8.3  0.2164E+01  0.1212E+02 -0.1639E+00E
 Epicentro: LOS SANTOS - SANTANDER                                             3
 ACTION:UPD 12-08-14 11:45 OP:ep   STATUS:               ID:20120717072852 L   I
 2012-07-17-0720-00M.COL___197                                                 6
 STAT SP IPHASW D HRMM SECON CODA AMPLIT PERI AZIMU VELO AIN AR TRES W  DIS CAZ7
 BAR2 SZ EP   1    729 11.93                             173    -0.1 7   18 193 
 BAR2 SZ ES   1    729 26.72                             173    -0.4 7   18 193 
 BAR2 SZ I         729 28.04        19.1 0.22            169             18 193 
 BRR  HZ EP   1    729 14.07                             151     0.3 7   74 302 
 BRR  HZ I         729 14.54        13.0 0.11            152             74 302 
 BRR  HN ES   1    729 30.91                             151     0.6 7   74 302 
 PAM  SZ EP   1    729 15.18                             149     0.2 7   82  37 
 PAM  SN ES   1    729 32.01                             149    -0.4 7   82  37 
 RUS  HZ EP   1    729 15.86                             145     0.0 7   95 176 
 RUS  HN ES   1    729 34.43                             145     0.5 7   95 176 
 RUS  HZ I         729 36.44         6.6 0.43            144             95 176 
 PTB  HZ EP   1    729 18.73                             132    -0.7 7  147 261 
 PTB  HN ES   2    729 39.58                             132    -0.7 5  147 261 
 PTB  HZ I         729 42.66         5.0 0.11            131            147 261 
 ZAR  HZ EP   2    729 25.70                             122     0.5 4  206 294 
 ZAR  HE ES   2    729 50.87                             122     0.2 4  206 294 
