 2016 1017 0119  5.0 L   6.807 -73.157146.0  RSN  5 0.3 1.1LRSN                1
 GAP=135        0.67       4.2     4.2  6.5 -0.7345E+01 -0.1351E+01  0.8895E+01E
 Epicentro: LOS SANTOS - SANTANDER                                             3
 ACTION:UPD 16-11-09 19:20 OP:rebc STATUS:               ID:20161017011905 L   I
 OLDACT:UP  16-10-17 14:14 OP:and  STATUS:               ID:20161017011730d    3
 OLDACT:DUP 16-10-17 14:09 OP:and  STATUS:               ID:20161017011730d    3
 OLDACT:REG 16-10-17 11:31 OP:and  STATUS:               ID:20161017011729     3
 2016-10-17-0118-00M.COL___353                                                 6
 STAT SP IPHASW D HRMM SECON CODA AMPLIT PERI AZIMU VELO AIN AR TRES W  DIS CAZ7
 BRR  HZ EP        119 26.49                             153    0.3810 69.7 298 
 BRR  HE ES        119 42.76                             153    0.2010 69.7 298 
 PAM  EZ EP        119 27.38                             151    0.1110 77.6  41 
 PAM  EN ES        119 44.32                             151   -0.3110 77.6  41 
 PAM  EZ I         119 46.74         2.1 0.33            152           77.6  41 
 RUS  HZ EP        119 28.85                             144   -0.0110  101 175 
 RUS  HN ES   2    119 47.72                             144    0.27 5  101 175 
 RUS  HZ I         119 48.44         1.7 0.32            145            101 175 
 PTB  HZ EP        119 31.61                             132   -0.30 9  147 258 
 PTB  HN ES   2    119 52.09                             132   -0.79 5  147 258 
 PTB  HZ I         119 54.56         1.8 0.16            134            147 258 
 SPBC HN ES        119 55.75                             129   -0.00 9  163 218 
                                                                                
