 2012 1017 0636 18.2 L   6.815 -73.097140.8  RSN  5 0.3 1.4LRSN                1
 GAP=199        0.68       7.3     9.0  7.3  0.4829E+02  0.1851E+02  0.1286E+02E
 Epicentro: LOS SANTOS - SANTANDER                                             3
 ACTION:UPD 12-11-22 17:04 OP:ep   STATUS:               ID:20121017063618 L   I
 2012-10-17-0630-00M.COL___231                                                 6
 STAT SP IPHASW D HRMM SECON CODA AMPLIT PERI AZIMU VELO AIN AR TRES W  DIS CAZ7
 BAR2 SZ EP   1    636 37.37                             169    0.09 7 26.3 201 
 BAR2 SZ ES   1    636 51.52                             169   -0.66 7 26.3 201 
 BAR2 SZ I         636 53.25         8.0 0.28                          26.3 201 
 GIR2 SZ ES   1    636 52.23                             167    0.09 7 31.1 340 
 BRR  HZ EP   1    636 39.05                             150    0.02 7 75.3 295 
 BRR  HZ I         636 40.44         4.5 0.12                          75.3 295 
 BRR  HN ES   1    636 55.76                             150    0.46 7 75.3 295 
 RUS  HZ EP   1    636 41.44                             142   -0.11 7  102 179 
 RUS  HN ES   1    637  0.10                             142    0.32 7  102 179 
 RUS  HZ I         637  1.79         2.7 0.32                           102 179 
 ZAR  HE ES   1    637 15.89                             121   -0.29 6  208 291 
                                                                                
