 2012  517 0434 10.8 L   6.738 -73.154143.8  RSN  8 0.3 1.8LRSN                1
 GAP=138        0.71       3.8     4.0  5.8 -0.9002E+00  0.3910E+01  0.1898E+01E
 Epicentro: JORDAN - SANTANDER                                                 3
 ACTION:UP  12-07-05 12:05 OP:pat  STATUS:               ID:20120517043410 L   I
 2012-05-17-0430-00M.COL___197                                                 6
 STAT SP IPHASW D HRMM SECON CODA AMPLIT PERI AZIMU VELO SNR AR TRES W  DIS CAZ7
 BAR2 SZ EP   1    434 30.17                             173     0.1 7   16 191 
 BAR2 SZ I         434 30.56        12.7 0.10                            16 191 
 BAR2 SZ ES   1    434 44.86                             173    -0.3 7   16 191 
 BRR  HZ EP        434 32.13                             151     0.210   74 304 
 BRR  HN ES   1    434 48.97                             151     0.6 7   74 304 
 BRR  HZ I         434 50.38        22.2 0.17                            74 304 
 PAM  SZ EP        434 33.18                             149     0.010   83  37 
 PAM  SN ES   1    434 50.25                             149    -0.4 7   83  37 
 RUS  HZ EP   1    434 34.16                             145     0.3 7   94 175 
 RUS  HN ES   1    434 52.06                             145     0.2 7   94 175 
 RUS  HZ I         434 53.68         6.1 0.34                            94 175 
 PTB  HZ EP   1    434 37.02                             132    -0.4 7  146 261 
 PTB  HN ES   1    434 57.79                             132    -0.4 7  146 261 
 PTB  HZ I         435  0.72         5.9 0.16                           146 261 
 OCA  HZ EP   2    434 39.32                             128    -0.3 5  167 354 
 ZAR  HN ES   1    435  8.78                             122     0.1 6  206 294 
 PRA  HZ EP   1    435  4.01                             106     0.5 4  386 210 
 PRA  HN ES   1    435 44.17                             106    -0.5 4  386 210 
                                                                                
