 2012  617 0241 59.4 L   6.863 -73.200131.3  RSN  5 0.4 1.4LRSN                1
 GAP=127        0.76       5.9     5.3 10.1 -0.8774E+01  0.2379E+02 -0.1555E+02E
 Epicentro: ZAPATOCA - SANTANDER                                               3
 ACTION:UPD 12-08-06 17:50 OP:ep   STATUS:               ID:20120617024159 L   I
 2012-06-17-0240-00M.COL___199                                                 6
 STAT SP IPHASW D HRMM SECON CODA AMPLIT PERI AZIMU VELO AIN AR TRES W  DIS CAZ7
 BAR2 SZ EP   1    242 18.21                             166    0.70 7 30.0 176 
 BAR2 SZ ES   1    242 31.32                             166   -0.27 7 30.0 176 
 BAR2 SZ I         242 34.46         6.5 0.25                          30.0 176 
 PAM  SZ EP   1    242 20.05                             148   -0.02 7 76.3  46 
 PAM  SN ES   1    242 36.08                             148   -0.08 7 76.3  46 
 RUS  HN ES   1    242 40.37                             138    0.08 7  108 173 
 RUS  HZ I         242 41.57         4.6 0.31                           108 173 
 PTB  HZ EP   1    242 24.14                             129   -0.73 7  143 256 
 PTB  HE ES   1    242 44.82                             129    0.13 7  143 256 
 PTB  HZ I         242 46.58         2.6 0.22                           143 256 
 ZAR  HN ES   2    242 54.44                             120    0.38 4  196 291 
                                                                                
