 2013  417 0546 11.9 L   6.791 -73.151151.0  RSN 11 0.5 1.7LRSN                1
 GAP=136        0.88       3.6     4.7  5.9 -0.8304E+00  0.8452E+01  0.3741E+00E
 Epicentro: LOS SANTOS - SANTANDER                                             3
 ACTION:UPD 13-05-22 14:39 OP:EP   STATUS:               ID:20130417054611 L   I
 2013-04-17-0540-00M.COL___250                                                 6
 STAT SP IPHASW D HRMM SECON CODA AMPLIT PERI AZIMU VELO AIN AR TRES W  DIS CAZ7
 BAR2 SZ EP   1    546 32.53                             171    0.39 7 22.3 189 
 BAR2 SZ ES   1    546 47.59                             171   -0.34 7 22.3 189 
 BAR2 SZ I         546 49.01        13.0 0.16            170           22.3 189 
 GIR2 SZ EP   1    546 31.61                             167   -0.61 7 32.1 352 
 GIR2 SZ ES   1    546 47.81                             167   -0.26 7 32.1 352 
 GIR2 SZ I         546 50.47         4.2 0.28            166           32.1 352 
 BRR  HZ EP   1    546 34.03                             153    0.42 7 71.1 299 
 BRR  HN ES   1    546 51.43                             153    0.88 7 71.1 299 
 BRR  HZ I         546 53.72         5.2 0.14            151           71.1 299 
 PAM  SZ EP        546 34.93                             151    0.1910 78.5  39 
 PAM  SN ES   1    546 52.07                             151   -0.49 7 78.5  39 
 RUS  HZ EP   1    546 36.23                             145    0.13 7 99.7 176 
 RUS  HN ES   1    546 55.08                             145    0.09 7 99.7 176 
 RUS  HZ I         546 57.24         5.4 0.48            147           99.7 176 
 PTB  HZ EP        546 38.86                             133   -0.37 9  147 259 
 PTB  HN ES   1    547  0.08                             133   -0.47 7  147 259 
 PTB  HZ I         547  2.12         8.5 0.34            132            147 259 
 OCA  HE ES   1    547  4.05                             131    0.88 7  161 353 
 OCA  HZ I         547  5.98         5.9 0.30            131            161 353 
 ZAR  HZ EP        546 44.46                             124   -0.21 9  204 292 
 ZAR  HN ES   1    547 10.39                             124    0.16 6  204 292 
 ZAR  HZ I         547 16.43         4.5 0.36            123            204 292 
 NOR  HN ES   2    547 16.26                             120    0.41 4  234 235 
 NOR  HZ I         547 19.68         6.2 0.16            120            234 235 
 SML  HZ EP   1    546 48.67                             118   -0.22 6  244 336 
 SML  HN ES   1    547 17.11                             118   -0.63 6  244 336 
 SML  HZ I         547 22.35         6.9 0.10            119            244 336 
 PRA  HZ EP   1    547  6.17                             107    0.70 4  391 210 
 PRA  HE ES   1    547 47.33                             107    0.07 4  391 210 
 PRA  HZ I         547 52.96         2.0 0.48            108            391 210 
                                                                                
