 2016  817 0050 42.8 L   6.787 -73.176150.0  RSN  8 0.5 1.7LRSN                1
 GAP=233        1.04       5.3     6.0  7.3  0.1296E+02  0.8005E+01  0.1294E+02E
 Epicentro: LOS SANTOS - SANTANDER                                             3
 ACTION:UPD 16-10-29 15:36 OP:rebc STATUS:               ID:20160817005042 L   I
 OLDACT:REG 16-08-17 12:24 OP:ak   STATUS:               ID:20160817004759     3
 2016-08-17-0047-59S.COL___346                                                 6
 STAT SP IPHASW D HRMM SECON CODA AMPLIT PERI AZIMU VELO AIN AR TRES W  DIS CAZ7
 BAR2 EZ EP        051  2.77                             171   -0.0910 21.5 182 
 BAR2 EZ ES        051 18.43                             171   -0.1110 21.5 182 
 BAR2 EZ I         051 20.68        11.3 0.31                          21.5 182 
 BRR  HZ EP   3    051  4.87                             154    0.63 2 69.0 301 
 BRR  HN ES        051 21.87                             154    0.8710 69.0 301 
 RUS  HZ EP        051  6.36                             145   -0.4810 99.4 174 
 RUS  HN ES        051 25.41                             145   -0.2210 99.4 174 
 RUS  HZ I         051 26.75         6.5 0.34                          99.4 174 
 PTB  HZ EP   2    051  9.43                             134   -0.32 5  144 259 
 PTB  HN ES        051 29.99                             134   -0.82 9  144 259 
 ZAR  HZ EP   2    051 15.12                             124   -0.10 4  201 293 
 ZAR  HN ES        051 40.50                             124   -0.04 9  201 293 
 CHI  HZ EP        051 20.99                             118    0.54 8  246 194 
 CHI  HN ES        051 50.48                             118    0.64 8  246 194 
 CHI  HZ I         051 56.21         2.4 0.30                           246 194 
 GUY2CHZ EP   9    051 28.96                             113    2.80 0  298 235 
 GUY2CHN ES        052  3.04                                    0.23 7  298 235 
 GUY2CHZ I         052  8.31         1.9 0.38                           298 235 
 PRA  HZ EP   2    051 36.64                             107    0.56 3  389 209 
 PRA  HN ES        052 17.83                             107    0.15 6  389 209 
 PRA  HZ I         052 25.03         2.2 0.54                           389 209 
                                                                                
