 2014 1017 0050 48.6 L   6.804 -73.187141.9  RSN  6 0.4 1.7LRSN                1
 GAP=131        0.87       3.9     4.3  7.0 -0.3979E+00  0.3780E+01 -0.1440E+01E
 Epicentro: ZAPATOCA - SANTANDER                                               3
 ACTION:UPD 14-11-29 23:50 OP:nd   STATUS:               ID:20141017005048 L   I
 OLDACT:REG 14-10-17 13:23 OP:mh   STATUS:               ID:20141017004747     3
 2014-10-17-0047-47M.COL___287                                                 6
 STAT SP IPHASW D HRMM SECON CODA AMPLIT PERI AZIMU VELO AIN AR TRES W  DIS CAZ7
 BAR2 SZ EP   1    051  8.04                             170    0.24 7 23.4 179 
 BAR2 SZ I         051 25.77        14.5 0.09            167           23.4 179 
 BRR  HZ EP        051  9.71                             153    0.5810 67.0 300 
 BRR  HN ES        051 24.74                             153   -0.3810 67.0 300 
 BRR  HZ I         051 28.81        16.2 0.30            154           67.0 300 
 PAM  SZ EP        051 10.93                             149    0.3310 80.0  42 
 PAM  SN ES        051 27.70                             149   -0.0410 80.0  42 
 PAM  SZ I         051 28.53         5.6 0.20            149           80.0  42 
 RUS  HZ EP        051 11.60                             143   -0.4610  101 173 
 RUS  HN ES        051 30.24                             143   -0.1010  101 173 
 RUS  HZ I         051 34.07         2.2 0.32            140            101 173 
 PTB  HZ EP        051 15.00                             132    0.12 9  143 258 
 PTB  HN ES        051 35.51                             132    0.15 9  143 258 
 PTB  HZ I         051 37.94         4.7 0.12            131            143 258 
 SML  HZ EP   1    051 23.96                             117   -0.83 6  241 336 
 SML  HN ES   1    051 52.99                             117   -0.01 6  241 336 
 SML  HZ I         051 56.82         9.3 0.10            116            241 336 
                                                                                
