 2013  217 0738  9.7 L   6.810 -73.125147.5  RSN 13 0.5 2.2LRSN                1
 GAP= 72        1.30       3.4     3.8  6.4  0.5997E+00  0.3858E+01 -0.2129E+01E
 Epicentro: LOS SANTOS - SANTANDER                                             3
 ACTION:UPD 13-03-12 09:33 OP:ep   STATUS:               ID:20130217073809 L   I
 2013-02-17-0730-00M.COL___241                                                 6
 STAT SP IPHASW D HRMM SECON CODA AMPLIT PERI AZIMU VELO AIN AR TRES W  DIS CAZ7
 BAR2 SZ IP     D  738 29.57                             170   -0.0410 25.0 195 
 BAR2 SZ ES        738 44.18                             170   -0.9310 25.0 195 
 BAR2 SZ I         738 45.88        27.2 0.38            170           25.0 195 
 BRR  HZ IP     C  738 31.42                             152    0.2610 72.7 297 
 BRR  HN ES        738 48.93                             152    1.0610 72.7 297 
 BRR  HN I         738 50.90        51.1 0.18            149           72.7 297 
 PAM  SZ IP     D  738 32.33                             152    0.3310 75.0  39 
 PAM  SN ES        738 49.74                             152    0.3710 75.0  39 
 PAM  SN I         738 50.83        41.1 0.46            147           75.0  39 
 RUS  HZ IP     C  738 33.42                             144   -0.3110  102 177 
 RUS  HN ES        738 52.30                             144   -0.1510  102 177 
 RUS  HN I         738 53.98        27.8 0.22            141            102 177 
 PTB  HZ EP        738 36.23                             132   -0.85 9  150 259 
 PTB  HN ES        738 57.75                             132   -0.65 9  150 259 
 PTB  HN I         739  2.65        40.3 0.28            128            150 259 
 TAM  HZ IP     C  738 37.69                             131    0.31 9  153 106 
 TAM  HN ES        738 59.47                             131    0.54 9  153 106 
 TAM  HN I         739  0.45        10.8 0.26            127            153 106 
 OCA  HZ EP        738 38.11                             130    0.00 9  159 352 
 OCA  HN ES        738 59.63                             130   -0.60 9  159 352 
 ZAR  HZ EP        738 42.91                             122    0.43 8  206 292 
 ZAR  HN ES        739  8.33                             122    0.32 8  206 292 
 ZAR  HN I         739 15.87        31.3 0.24            119            206 292 
 SML  HZ EP        738 46.08                             118   -0.38 8  244 335 
 SML  HN ES        739 15.21                             118    0.11 8  244 335 
 CHI  HZ EP        738 47.71                             117   -0.01 8  250 196 
 CHI  HN ES        739 17.10                             117   -0.25 8  250 196 
 CHI  HN I         739 19.79        10.7 0.50            114            250 196 
 HEL  HZ EP        738 51.47                             115    1.15 8  275 256 
 HEL  HE ES        739 22.38                             115    0.40 8  275 256 
 HEL  HE I         739 30.03         7.1 0.38            112            275 256 
 COD  HZ EP        738 57.46                             109   -0.62 6  347 354 
 COD  HN ES        739 35.08                             109   -0.70 6  347 354 
 COD  HN I         739 39.64         4.5 0.26            106            347 354 
 SDV  BZ EP   2    738 59.03                             109   -0.53 3  358  50 
 SDV  BZ I         739 38.24         0.5 0.40            105            358  50 
                                                                                
