 2014  217 0530 19.0 L   6.824 -73.157141.6  RSN 21 0.5 2.8LRSN                1
 GAP= 64        1.12       2.7     3.3  5.9 -0.1311E+01  0.6038E+01  0.9392E+00E
 Epicentro: LOS SANTOS - SANTANDER                                             3
 ACTION:UPD 14-03-10 08:10 OP:ep   STATUS:               ID:20140217053019 L   I
 OLDACT:REG 14-02-17 10:10 OP:fm   STATUS:               ID:20140217053000     3
 2014-02-17-0530-00M.COL___212                                                 6
 STAT SP IPHASW D HRMM SECON CODA AMPLIT PERI AZIMU VELO AIN AR TRES W  DIS CAZ7
 BAR2 SZ IP     D  530 38.39                             169    0.1710 25.8 186 
 BAR2 SZ ES        530 52.74                             169   -0.4510 25.8 186 
 BAR2 SZ I         530 54.74       190.2 0.56            169           25.8 186 
 PAM  SZ EP        530 41.11                             150    0.3710 76.1  42 
 PAM  SE ES        530 58.13                             150    0.4710 76.1  42 
 PAM  SZ I         530 59.86        70.7 0.18            142           76.1  42 
 RUS  HZ IP     C  530 42.48                             142   -0.1110  103 175 
 RUS  HN ES        531  0.60                             142   -0.3610  103 175 
 RUS  HZ I         531  2.91        71.7 0.34            137            103 175 
 PTB  HZ EP   1    530 44.88                             131   -0.73 7  147 258 
 PTB  HN ES   1    531  5.88                             131   -0.45 7  147 258 
 PTB  HZ I         531  8.34       103.0 0.44            125            147 258 
 OCA  HZ EP        530 47.22                             129    0.46 9  157 353 
 OCA  HN ES        531  8.08                             129   -0.30 9  157 353 
 OCA  HZ I         531 12.48        74.5 0.22            121            157 353 
 TAM  HZ IP     D  530 46.81                             129    0.24 9  157 106 
 TAM  HN ES        531  8.51                             129    0.47 9  157 106 
 TAM  HZ I         531  9.08        32.3 0.24            122            157 106 
 SPBC HZ EP        530 47.42                             128    0.07 9  165 218 
 SPBC HE ES        531 10.02                             128    0.59 9  165 218 
 SPBC HZ I         531 16.65        91.4 0.26            122            165 218 
 NOR  HZ EP        530 55.08                             117    0.49 8  235 234 
 NOR  HN ES        531 22.37                             117    0.05 8  235 234 
 NOR  HZ I         531 26.07        42.2 0.16            112            235 234 
 SML  HZ EP   1    530 54.49                             117   -0.62 6  241 335 
 SML  HN ES        531 22.74                             117   -0.51 8  241 335 
 SML  HZ I         531 27.07        75.5 0.26            110            241 335 
 CHI  HZ EP        530 56.79                             116    0.03 8  251 195 
 CHI  HN ES        531 26.55                             116    0.37 8  251 195 
 CHI  HZ I         531 32.64        25.9 0.36            110            251 195 
 ROSC BZ EP   4    530 58.58                             115    1.46 0  254 210 
 ROSC BN ES   4    531 29.75                             115    2.93 0  254 210 
 ROSC BZ I         531 35.32        40.9 0.65            110            254 210 
 HEL  HZ EP   4    531  0.31                             114    1.33 0  272 255 
 HEL  HN ES        531 30.10                             114   -0.04 8  272 255 
 HEL  HZ I         531 37.96        33.7 0.30            108            272 255 
 CVER SZ EP   4    531  1.18                             114    1.77 0  274 202 
 URE  HZ EP   4    530 58.39                             113   -1.28 0  282 291 
 URE  HN ES   4    531 29.15                             113   -2.21 0  282 291 
 URE  HZ I         531 33.41        31.8 0.14            107            282 291 
 GUY2CHZ EP   4    531  3.60                             111    1.08 0  302 234 
 GUY2CHN ES   1    531 35.80                             111   -0.63 5  302 234 
 GUY2CHZ I         531 46.46        42.2 0.46                           302 234 
 PTGC HZ EP   4    531  1.83                             110   -1.22 0  312 159 
 PTGC HN ES        531 35.38                             110   -2.00 7  312 159 
 PTGC HN I         531 35.93        60.8 0.36            105            312 159 
 CBOC HZ EP   1    531  6.55                             109    0.81 5  333 252 
 CBOC HE ES   1    531 42.78                             109    0.61 5  333 252 
 CBOC HZ I         531 54.34        11.8 0.32            104            333 252 
 DBB  SZ EP   1 C  531  6.07                             109   -0.11 5  338 274 
 COD  HZ EP   1    531  6.24                             108   -0.69 5  345 355 
 COD  HE ES   4    531 42.48                             108   -1.80 0  345 355 
 COD  HZ I         531 50.01         7.2 0.72            103            345 355 
 ARGC HZ EP   4    531  9.05                             108    0.86 0  356 340 
 PRA  HZ EP   1    531 12.33                             106   -0.29 4  394 209 
 PRA  HN ES        531 54.88                             106    0.46 6  394 209 
 PRA  HZ I         532  1.81        26.1 0.28            101            394 209 
 ORTC HZ EP        531 13.21                             105    0.22 6  397 216 
 ORTC HN ES   4    531 56.87                             105    1.80 0  397 216 
 ORTC HZ I         532  2.60        21.1 0.44            101            397 216 
 SJC  HZ EP   4    531 12.62                             105   -1.50 0  406 327 
 SJC  HN ES   4    531 52.99                             105   -4.09 0  406 327 
 SJC  HZ I         531 56.82        12.2 0.34            100            406 327 
                                                                                
