 2014  517 0605 18.3 L   6.768 -73.144150.0  RSN  5 0.3 1.3LRSN                1
 GAP=138        0.79       3.9     4.1  6.9 -0.4199E+01  0.1836E+01  0.2380E+01E
 Epicentro: LOS SANTOS - SANTANDER                                             3
 ACTION:UPD 15-03-16 16:58 OP:nd   STATUS:               ID:20140517060518 L   I
 OLDACT:DUP 14-05-17 16:04 OP:stll STATUS:               ID:20140517055809d    3
 2014-05-17-0558-08M.COL___242                                                 6
 STAT SP IPHASW D HRMM SECON CODA AMPLIT PERI AZIMU VELO AIN AR TRES W  DIS CAZ7
 BRR  HZ EP        6 5 40.24                             153    0.1810 73.1 301 
 BRR  HN ES        6 5 57.42                             153    0.4210 73.1 301 
 BRR  HZ I         6 5 58.30         4.8 0.18            153           73.1 301 
 PAM  SZ EP        6 5 41.34                             151    0.1710 80.0  38 
 PAM  SZ I         6 5 41.53         5.8 0.24            152           80.0  38 
 PAM  SN ES        6 5 58.46                             151   -0.5110 80.0  38 
 RUS  HZ EP        6 5 42.47                             146    0.2110 97.0 176 
 RUS  HE ES        6 6  1.10                             146    0.1810 97.0 176 
 RUS  HZ I         6 6  1.85         1.4 0.24            146           97.0 176 
 PTB  HZ EP        6 5 45.30                             133   -0.32 9  147 260 
 PTB  HN ES        6 6  6.78                             133   -0.11 9  147 260 
 PTB  HZ I         6 6  7.44         2.4 0.28            134            147 260 
 SPBC HN ES        6 6  8.90                             130   -0.32 9  161 220 
                                                                                
