 2012  117 0038 18.9 L   6.727 -73.091144.7  RSN  4 0.3 1.4LRSN                1
 GAP=182        0.54       8.9     4.9  7.2 -0.2136E+02 -0.6023E+01  0.2068E+02E
 Epicentro: JORDAN - SANTANDER                                                 3
 ACTION:UP  12-02-03 08:18 OP:REBC STATUS:               ID:20120117003818 L   I
 2012-01-17-0030-00M.COL___188                                                 6
 STAT SP IPHASW D HRMM SECON CODA AMPLIT PERI AZIMU VELO SNR AR TRES W  DIS CAZ7
 BAR2 SZ EP   1    038 38.29                             173    -0.1 7   18 214 
 BAR2 SZ ES   2    038 53.62                             173     0.1 5   18 214 
 BAR2 SZ I         038 54.97         4.9 0.31                            18 214 
 PAM  SZ EP   1    038 41.50                             149     0.3 7   80  33 
 PAM  SE ES   2    038 57.99                             149    -0.6 5   80  33 
 BRR  HZ EP   2    038 40.83                             149     0.3 5   80 302 
 BRR  HZ I         038 43.82         5.2 0.41                            80 302 
 BRR  HN ES   1    038 57.47                             149     0.1 7   80 302 
 PTB  HZ EP   1    038 45.96                             131    -0.3 7  152 262 
 PTB  HE ES   1    039  7.51                             131     0.0 7  152 262 
                                                                                
