 2011 1117 0258 47.1 L   6.774 -73.118142.9  RSN  5 0.3 1.7LRSN                1
 GAP=141        0.70       3.9     7.0  7.2  0.1827E+01  0.1133E+01 -0.1459E+01E
 Epicentro: LOS SANTOS - SANTANDER                                             3
 ACTION:UPD 12-07-13 16:10 OP:ep   STATUS:               ID:20111117025847 L   I
 2011-11-17-0257-14S.COL___179                                                 6
 STAT SP IPHASW D HRMM SECON CODA AMPLIT PERI AZIMU VELO AIN AR TRES W  DIS CAZ7
 BAR2 SZ EP   1    259  6.26                             171   -0.11 7 21.3 199 
 BAR2 SZ ES   1    259 20.68                             171   -0.70 7 21.3 199 
 BAR2 SZ I         259 22.69        18.4 0.14                          21.3 199 
 BRR  HZ EP        259  8.16                             151   -0.0410 75.2 299 
 BRR  HZ I         259  8.60        12.7 0.12                          75.2 299 
 BRR  HN ES   1    259 25.05                             151    0.41 7 75.2 299 
 PAM  SZ EP   1    259  9.25                             150    0.19 7 77.8  36 
 PAM  SZ I         259  9.49         4.5 0.17                          77.8  36 
 PAM  SN ES   1    259 26.38                             150    0.21 7 77.8  36 
 RUS  HZ EP   1    259 10.19                             144   -0.18 7 97.5 178 
 RUS  HE ES   1    259 28.94                             144    0.43 7 97.5 178 
 RUS  HZ I         259 29.77         7.4 0.41                          97.5 178 
 OCA  SZ ES   1    259 37.47                             128   -0.21 7  164 352 
 OCA  SZ I         259 43.92         9.8 0.27                           164 352 
                                                                                
