 2011 1117 0120  2.8 L   7.340 -73.192135.7  RSN  4 0.3 1.5LRSN                1
 GAP=204        0.61       7.8     7.8  9.1  0.1320E+02 -0.4359E+00 -0.6124E+00E
 Epicentro: RIONEGRO - SANTANDER                                               3
 ACTION:UPD 12-07-13 16:10 OP:ep   STATUS:               ID:20111117012002 L   I
 2011-11-17-0116-35S.COL___179                                                 6
 STAT SP IPHASW D HRMM SECON CODA AMPLIT PERI AZIMU VELO AIN AR TRES W  DIS CAZ7
 PAM  SN ES   2    120 38.07                             157   -0.08 5 54.3  90 
 BRR  HZ EP   1    120 22.77                             154    0.40 7 63.0 246 
 BRR  HZ I         120 26.81         7.4 0.53                          63.0 246 
 BRR  HN ES   1    120 37.38                             154   -0.28 7 63.0 246 
 BAR2 SZ EP   1    120 23.55                             147   -0.36 7 82.7 179 
 BAR2 SZ ES   1    120 40.74                             147    0.34 7 82.7 179 
 BAR2 SZ I         120 42.05         5.2 0.12                          82.7 179 
 RUS  HN ES   2    120 52.44                             127   -0.21 5  161 176 
                                                                                
