 2013 1117 0737 14.5 L   6.793 -73.158140.5  RSN  7 0.5 1.8LRSN                1
 GAP=100        1.23       5.2     5.4  7.7 -0.3745E+01 -0.2315E+01  0.1102E+02E
 Epicentro: LOS SANTOS - SANTANDER                                             3
 ACTION:UPD 14-01-09 16:29 OP:ep   STATUS:               ID:20131117073714 L   I
 OLDACT:DUP 13-11-17 13:53 OP:stll STATUS:               ID:20131117072811d    3
 2013-11-17-0728-09M.COL___219                                                 6
 STAT SP IPHASW D HRMM SECON CODA AMPLIT PERI AZIMU VELO AIN AR TRES W  DIS CAZ7
 BAR2 SZ EP        737 33.60                             171    0.1210 22.3 187 
 BAR2 SZ ES        737 47.98                             171   -0.3110 22.3 187 
 BAR2 SZ I         737 49.18        27.3 0.32            168           22.3 187 
 BRR  HZ EP        737 35.46                             152    0.4210 70.4 300 
 BRR  HN ES        737 51.96                             152    0.9010 70.4 300 
 BRR  HZ I         737 55.32        12.0 0.34            152           70.4 300 
 PAM  SZ EP        737 36.47                             149    0.2210 78.9  40 
 PAM  SN ES        737 52.48                             149   -0.7410 78.9  40 
 PAM  SZ I         737 55.31        14.8 0.40            153           78.9  40 
 RUS  HZ EP        737 37.67                             143   -0.0210 99.9 175 
 RUS  HE ES        737 56.28                             143    0.5010 99.9 175 
 RUS  HZ I         737 57.86         6.9 0.32            143           99.9 175 
 PTB  HZ EP        737 40.53                             131   -0.38 9  146 259 
 PTB  HN ES        738  0.75                             131   -0.76 9  146 259 
 PTB  HZ I         738  4.61         7.0 0.16            131            146 259 
 TAM  HZ EP        737 41.80                             129   -0.07 9  156 105 
 CHI  HZ EP        737 52.07                             116    0.28 8  247 195 
 CHI  HN ES        738 20.53                             116   -0.34 8  247 195 
 CHI  HZ I         738 29.04         2.0 0.34            117            247 195 
                                                                                
