 2016  317 0114 12.3 L   6.823 -73.155138.0  RSN  8 0.6 1.6LRSN                1
 GAP=134        1.13       4.4     5.2 10.7 -0.3715E+01  0.2365E+02  0.3169E+01E
 Epicentro: LOS SANTOS - SANTANDER                                             3
 ACTION:UPD 16-05-13 21:24 OP:cam  STATUS:               ID:20160317011412 L   I
 OLDACT:REG 16-03-17 13:54 OP:dnl  STATUS:               ID:20160317010750     3
 2016-03-17-0107-50M.COL___310                                                 6
 STAT SP IPHASW D HRMM SECON CODA AMPLIT PERI AZIMU VELO AIN AR TRES W  DIS CAZ7
 PAM  EZ EP        114 33.48                             150   -0.1610 76.1  41 
 PAM  EN ES        114 50.54                             150    0.2810 76.1  41 
 PAM  EZ I         114 52.71         6.1 0.19            153           76.1  41 
 RUS  HN ES        114 53.69                             141    0.0810  103 176 
 RUS  HZ I         114 55.52         4.3 0.40            144            103 176 
 PTB  HZ EP        114 37.96                             130   -0.67 9  147 258 
 PTB  HN ES        114 58.90                             130   -0.25 9  147 258 
 PTB  HZ I         115  2.67         5.2 0.14            131            147 258 
 SPBC HZ EP   2    114 41.17                             127    0.79 5  165 218 
 SPBC HN ES        115  1.49                             127   -0.77 9  165 218 
 SPBC HE ES        115  2.35                             127            165 218 
 ZAR  HZ EP   2    114 43.40                             121   -0.68 4  202 292 
 ZAR  HE ES        115  9.29                             121    0.44 9  202 292 
 ZAR  HZ I         115 16.21         3.9 0.23            122            202 292 
 CHI  HZ EP   1    114 49.61                             115   -0.24 6  251 195 
 CHI  HN ES        115 19.62                             115    0.50 8  251 195 
 CHI  HZ I         115 24.25         1.6 0.54            117            251 195 
 URE  HZ EP   2    114 53.39                             112    0.57 4  282 292 
 URE  HN ES   4    115 20.81                             112   -3.59 0  282 292 
 URE  HZ I         115 25.63         3.0 0.14            114            282 292 
 GUY2CHZ EP   4    114 57.88                             111    2.21 0  302 234 
 GUY2CHN ES        115 30.61                             111    1.14 7  302 234 
 GUY2CHZ I         115 38.04         2.5 0.52                           302 234 
                                                                                
