 2010  617 0457 32.8 L   7.371 -73.157131.0  RSN  9 0.3 1.9LRSN                1
 GAP=118        0.77       3.8     6.2  5.1 -0.9669E+01 -0.5739E+01  0.1376E+01E
 Epicentro: RIONEGRO - SANTANDER                                               3
 ACTION:UP  10-08-24 10:11 OP:vdl  STATUS:               ID:20100617045732 L   I
 2010-06-17-0452-44S.COL___114                                                 6
 STAT SP IPHASW D HRMM SECON CODA AMPLIT PERI AZIMU VELO SNR AR TRES W  DIS CAZ7
 GIR2 SZ EP   1    457 49.88                             165    -0.9 7   33 187 
 GIR2 SZ ES   1    458  4.29                             165    -0.5 7   33 187 
 BRI  SZ EP        457 52.06                             156     0.310   55  46 
 BRI  SZ ES   1    458  6.84                             156     0.3 7   55  46 
 GUE  SZ IP        457 51.99                             155     0.010   57  27 
 GUE  SZ ES   1    458  7.04                             155     0.0 7   57  27 
 BRR  HZ EP   1    457 52.06                             151    -0.1 7   68 245 
 BRR  HE ES   1    458  7.38                             151     0.1 7   68 245 
 BRR  HZ I         458  8.43        41.8 0.16                            68 245 
 GRA  SZ IP        457 52.67                             151     0.210   69  34 
 GRA  SZ ES   1    458  7.58                             151    -0.2 7   69  34 
 BAR2 SZ EP   1    457 54.07                             145     0.4 7   86 182 
 BAR2 SZ ES   1    458 10.18                             145     0.2 7   86 182 
 OCA  SZ EP        457 54.46                             141     0.010   98 349 
 OCA  SZ ES   1    458 11.21                             141    -0.1 7   98 349 
 OCA  SZ I         458 12.57        27.2 0.27                            98 349 
 RUS  HZ EP   1    458  0.98                             126     0.2 7  164 177 
 RUS  HZ I         458 29.86         2.5 0.48                           164 177 
 SDV  BZ EP        458 17.66                             108    -0.5 7  325  59 
                                                                                
