 2017  817 0803 36.5 L   6.782 -73.143142.7  RSN 11 0.4 1.5LRSN                1
 GAP=120        1.16       4.0     5.4  6.5 -0.8105E+00  0.1083E+02  0.3922E+01E
 Epicentro: LOS SANTOS - SANTANDER                                             3
 ACTION:UPD 17-09-04 20:21 OP:rebc STATUS:               ID:20170817080336 L   I
 OLDACT:REG 17-08-17 12:44 OP:lv   STATUS:               ID:20170817075743     3
 2017-08-17-0758-00M.COL___407                                                 6
 STAT SP IPHASW D HRMM SECON CODA AMPLIT PERI AZIMU VELO AIN AR TRES W  DIS CAZ7
 BAR2 EZ EP        8 3 55.67                             171   -0.0210 21.4 192 
 BAR2 EZ ES        8 4  9.77                             171   -0.9210 21.4 192 
 BAR2 EZ I         8 4 13.39         8.2 0.38            168           21.4 192 
 BRR  HZ IP     D  8 3 57.46                             151    0.1110 72.4 300 
 BRR  HN ES        8 4 14.64                             151    0.9910 72.4 300 
 BRR  HZ I         8 4 18.43         5.0 0.24            143           72.4 300 
 PAM  EZ EP        8 3 58.58                             150    0.1410 78.7  38 
 PAM  EN ES        8 4 15.43                             150   -0.1510 78.7  38 
 PAM  EZ I         8 4 18.65         5.6 0.34            148           78.7  38 
 RUS  HZ EP        8 3 59.80                             144    0.0310 98.6 176 
 RUS  HE ES        8 4 18.37                             144    0.4210 98.6 176 
 RUS  HZ I         8 4 19.68         2.8 0.28            141           98.6 176 
 SPBC HZ EP        8 4  4.71                             129    0.11 9  162 220 
 SPBC HN ES        8 4 26.36                             129   -0.19 9  162 220 
 SPBC HZ I         8 4 29.08         6.5 0.28            123            162 220 
 ZAR  HZ EP        8 4  8.40                             122   -0.41 9  205 293 
 ZAR  HN ES        8 4 33.58                             122   -0.47 9  205 293 
 ZAR  HZ I         8 4 38.52         3.9 0.21            116            205 293 
 CHI  HZ EP   1    8 4 13.83                             117    0.04 6  247 195 
 CHI  HE ES   1    8 4 43.16                             117    0.25 6  247 195 
 CHI  HZ I         8 4 45.66         1.2 0.24            113            247 195 
 HEL  HZ EP        8 4 16.30                             114   -0.20 8  272 256 
 HEL  HE EP        8 4 16.86                             114            272 256 
 HEL  HZ I         8 4 54.35         2.4 0.48            109            272 256 
 HEL  HE I         8 4 54.94         2.3 0.20                           272 256 
 GUY2CHZ EP   9    8 4 20.73                             112    0.90 0  300 235 
 GUY2CHN ES        8 4 55.61                                    1.05 7  300 235 
 GUY2CHZ I         8 5  0.84         2.0 0.52                           300 235 
 PTGC HZ EP   9    8 4 18.85                             111   -1.11 0  307 159 
 PTGC HN ES        8 4 51.89                                   -0.89 7  307 159 
 PRA  HZ EP        8 4 29.64                             106   -0.05 6  390 210 
 PRA  HE ES        8 5 11.55                             106    0.34 6  390 210 
 PRA  HZ I         8 5 17.81         1.8 0.54            103            390 210 
 SJC  HZ EP   4    8 4 30.05                             105   -2.08 0  411 327 
 SJC  HN ES   4    8 5 10.26                             105   -5.30 0  411 327 
                                                                                
