 2012 1017 0945 22.7 L   6.789 -73.165145.8  RSN  7 0.3 1.8LRSN                1
 GAP=135        0.57       3.7     3.4  5.2  0.9567E+00  0.4700E+01  0.2167E+01E
 Epicentro: LOS SANTOS - SANTANDER                                             3
 ACTION:UPD 12-11-22 17:04 OP:ep   STATUS:               ID:20121017094522 L   I
 2012-10-17-0940-00M.COL___231                                                 6
 STAT SP IPHASW D HRMM SECON CODA AMPLIT PERI AZIMU VELO AIN AR TRES W  DIS CAZ7
 BAR2 SZ EP   1    945 42.18                             171   -0.12 7 21.9 185 
 BAR2 SZ ES   1    945 57.30                             171   -0.30 7 21.9 185 
 BAR2 SZ I         945 59.61        18.0 0.28                          21.9 185 
 GIR2 SZ EP   1    945 42.22                             167   -0.18 7 32.2 354 
 GIR2 SZ ES   1    945 57.75                             167   -0.02 7 32.2 354 
 BRR  HZ EP   1    945 44.00                             153    0.22 7 70.0 300 
 BRR  HZ I         945 44.17        17.1 0.14                          70.0 300 
 BRR  HN ES   1    946  0.79                             153    0.56 7 70.0 300 
 PAM  SZ EP   1    945 45.26                             150    0.21 7 79.6  40 
 PAM  SZ I         945 45.59         4.0 0.18                          79.6  40 
 PAM  SN ES   1    946  2.14                             150   -0.35 7 79.6  40 
 PAM  SN I         946  3.44        19.4 0.68                          79.6  40 
 RUS  HZ EP   1    945 46.54                             144    0.16 7 99.5 175 
 RUS  HN ES   1    946  5.00                             144    0.15 7 99.5 175 
 RUS  HZ I         946  6.02         6.1 0.24                          99.5 175 
 RUS  HN I         946  6.31        11.0 0.24                          99.5 175 
 ZAR  HN ES   1    946 20.07                             123   -0.11 6  203 293 
 ZAR  HN I         946 25.21        12.7 0.38                           203 293 
 HEL  HN ES   1    946 33.38                             115   -0.44 6  270 256 
 HEL  HN I         946 40.10         4.6 0.46                           270 256 
                                                                                
