 2012  617 0434 17.0 L   6.723 -73.114145.9  RSN  8 0.4 1.9LRSN                1
 GAP=144        0.67       3.4     4.1  5.9 -0.1446E+01  0.9550E+01 -0.5794E-01E
 Epicentro: JORDAN - SANTANDER                                                 3
 ACTION:UPD 12-08-06 17:50 OP:ep   STATUS:               ID:20120617043417 L   I
 2012-06-17-0430-00M.COL___199                                                 6
 STAT SP IPHASW D HRMM SECON CODA AMPLIT PERI AZIMU VELO AIN AR TRES W  DIS CAZ7
 BAR2 SZ EP   1    434 36.65                             173    0.15 7 16.3 208 
 BAR2 SZ ES   1    434 51.76                             173    0.03 7 16.3 208 
 BAR2 SZ I         434 53.99        17.3 0.21                          16.3 208 
 PAM  SZ EP   1    434 39.69                             149    0.20 7 82.1  34 
 PAM  SN ES   1    434 56.72                             149   -0.33 7 82.1  34 
 RUS  HZ EP   1    434 40.61                             146    0.48 7 91.9 178 
 RUS  HE ES   1    434 58.45                             146    0.26 7 91.9 178 
 PTB  HZ EP   1    434 43.85                             132   -0.30 7  150 262 
 PTB  HN ES   2    435  4.43                             132   -0.90 5  150 262 
 PTB  HZ I         435  6.99         6.2 0.25                           150 262 
 OCA  HZ EP   1    434 45.97                             128   -0.18 7  169 352 
 OCA  HZ I         435 11.02        18.2 0.35                           169 352 
 ZAR  HN ES   1    435 16.24                             121    0.28 6  211 294 
 CHI  HZ EP   1    434 53.21                             118   -0.69 6  241 197 
 CHI  HN ES   1    435 22.40                             118   -0.30 6  241 197 
 HEL  HZ EP   1    434 57.81                             115    0.45 6  274 258 
 HEL  HN ES   1    435 29.11                             115    0.25 6  274 258 
 HEL  HZ I         435 37.21         2.7 0.42                           274 258 
                                                                                
