 2014  817 0018  8.0 L   6.792 -73.124143.0  RSN 27 0.4 2.5LRSN                1
 GAP= 72        0.96       2.1     2.5  4.3 -0.7115E+00  0.2839E+01  0.1097E+01E
 Epicentro: LOS SANTOS - SANTANDER                                             3
 ACTION:UPD 14-09-15 21:50 OP:nd   STATUS:               ID:20140817001808 L   I
 OLDACT:REG 14-08-17 12:55 OP:spq  STATUS:               ID:20140817000818     3
 2014-08-17-0008-18M.COL___266                                                 6
 STAT SP IPHASW D HRMM SECON CODA AMPLIT PERI AZIMU VELO AIN AR TRES W  DIS CAZ7
 BAR2 SZ IP     D  018 27.25                             170   -0.0110 23.0 196 
 BAR2 SZ ES   1    018 41.89                             170   -0.41 7 23.0 196 
 BAR2 SZ I         018 43.10        69.8 0.16            169           23.0 196 
 BRR  HZ IP     C  018 29.18                             151    0.2110 73.7 298 
 BRR  HE ES        018 46.03                             151    0.6910 73.7 298 
 BRR  HZ I         018 50.52        54.9 0.12            150           73.7 298 
 PAM  SZ IP     C  018 30.14                             151    0.3010 76.6  38 
 PAM  SN ES        018 46.84                             151   -0.0610 76.6  38 
 PAM  SZ I         018 49.19       118.8 0.46            154           76.6  38 
 RUS  HZ EP        018 31.23                             144   -0.1410 99.5 177 
 RUS  HN ES        018 49.58                             144   -0.0510 99.5 177 
 RUS  HZ I         018 50.97        59.1 0.24            144           99.5 177 
 PTB  HZ EP        018 34.05                             131   -0.86 9  150 259 
 PTB  HE ES        018 55.81                             131   -0.12 9  150 259 
 PTB  HZ I         018 59.00        32.1 0.08            130            150 259 
 TAM  HZ IP     C  018 35.63                             130    0.44 9  153 105 
 TAM  HN ES        018 56.95                             130    0.53 9  153 105 
 TAM  HZ I         018 58.06        15.1 0.38            134            153 105 
 OCA  HZ EP        018 35.55                             129   -0.63 9  161 352 
 OCA  HE ES        018 57.37                             129   -0.81 9  161 352 
 OCA  HZ I         019  1.32        38.7 0.31            130            161 352 
 SPBC HZ EP        018 36.19                             128   -0.15 9  164 220 
 SPBC HE ES        018 58.16                             128   -0.30 9  164 220 
 SPBC HZ I         019  1.50        59.7 0.20            128            164 220 
 ZAR  HZ EP        018 40.40                             121   -0.10 8  207 292 
 ZAR  HN ES        019  6.40                             121    0.53 8  207 292 
 ZAR  HZ I         019 13.60        24.7 0.20            122            207 292 
 NOR  HZ EP        018 43.80                             118    0.11 8  236 235 
 NOR  HE ES        019 11.04                             118   -0.52 8  236 235 
 NOR  HZ I         019 12.76        20.4 0.14            118            236 235 
 SML  HZ EP        018 43.63                             117   -1.01 8  246 335 
 SML  HN ES   1    019 13.65                             117    0.41 6  246 335 
 SML  HZ I         019 15.71        43.3 0.10            118            246 335 
 CHI  HZ EP   1    018 45.61                             117    0.12 6  248 196 
 CHI  HN ES   1    019 14.77                             117    0.01 6  248 196 
 CHI  HZ I         019 17.98        13.7 0.28            117            248 196 
 ROSC BZ IP   4 C  018 47.41                             116    1.42 0  253 212 
 ROSC BN ES        019 15.97                             116    0.32 8  253 212 
 ROSC BZ I         019 23.80        25.3 0.60            117            253 212 
 HEL  HZ EP   4    018 49.44                             114    1.16 0  274 256 
 HEL  HN ES   1    019 19.93                             114    0.22 6  274 256 
 HEL  HZ I         019 24.49        13.5 0.24            114            274 256 
 URE  HZ EP   4    018 47.70                             113   -1.49 0  286 292 
 URE  HN ES   4    019 29.90                             113    8.55 0  286 292 
 URE  HZ I         019 31.81        24.2 0.16            113            286 292 
 GUY2CHZ EP        018 51.41                             112   -0.20 7  303 235 
 GUY2CHN ES   4    019 29.65                             112    3.99 0  303 235 
 GUY2CHZ I         019 32.27        16.3 0.28                           303 235 
 VIL  SZ EP   1    018 50.78                             112   -0.44 5  303 192 
 VIL  SN ES        019 24.90                             112   -0.05 7  303 192 
 VIL  SZ I         019 33.93        17.0 0.34            112            303 192 
 RREF HZ EP        018 53.89                             110   -0.24 7  323 230 
 RREF HN ES        019 30.47                             110    0.33 7  323 230 
 RREF HZ I         019 34.00        10.0 0.24            111            323 230 
 CBOC HZ EP   4    018 55.95                             109    0.95 0  336 252 
 CBOC HE ES        019 31.79                             109    0.11 7  336 252 
 CBOC HZ I         019 35.01         5.3 0.54            110            336 252 
 DBB  SZ ES   1    019 33.49                             109    0.71 5  342 274 
 DBB  SZ I         019 35.78        34.1 0.42            109            342 274 
 TOL  SZ EP        018 56.97                             109    0.73 7  345 225 
 TOL  SN ES        019 34.07                             109    0.19 7  345 225 
 TOL  SZ I         019 39.52        30.1 0.23            109            345 225 
 MON  HZ EP   4    018 55.11                             108   -2.04 0  356 308 
 MON  HN ES   4    019 33.85                             108   -1.65 0  356 308 
 MON  HZ I         019 34.44        10.4 0.20            109            356 308 
 ANIL HZ EP        018 57.72                             108   -0.07 6  358 225 
 ANIL HN ES   4    019 38.63                             108    1.98 0  358 225 
 ANIL HZ I         019 43.29         3.5 0.28            108            358 225 
 ARGC HZ EP        018 58.20                             108    0.49 6  361 340 
 ARGC HN ES        019 37.30                             108    0.79 6  361 340 
 ARGC HZ I         019 43.97         9.7 0.36            109            361 340 
 PRA  HZ EP        019  0.97                             106   -0.47 6  392 210 
 PRA  HN ES   1    019 43.60                             106    0.45 4  392 210 
 PRA  HZ I         019 50.61         9.6 0.30            107            392 210 
 ORTC HZ EP        019  2.14                             106    0.26 6  396 217 
 ORTC HN ES   1    019 44.59                             106    0.67 4  396 217 
 ORTC HZ I         019 50.31         8.8 0.28            107            396 217 
 SJC  HZ EP   4    019  2.18                             105   -1.50 0  411 327 
 SJC  HN ES   4    019 43.35                             105   -3.79 0  411 327 
 SJC  HZ I         019 47.00         9.9 0.56            106            411 327 
                                                                                
