 2013  217 0612 43.7 L   6.806 -73.157148.0  RSN  5 0.4 1.3LRSN                1
 GAP=135        1.04       4.8     5.7  9.5 -0.4806E+01 -0.3672E+01  0.1660E+02E
 Epicentro: LOS SANTOS - SANTANDER                                             3
 ACTION:UPD 13-03-12 09:33 OP:ep   STATUS:               ID:20130217061243 L   I
 2013-02-17-0610-00M.COL___241                                                 6
 STAT SP IPHASW D HRMM SECON CODA AMPLIT PERI AZIMU VELO AIN AR TRES W  DIS CAZ7
 BRR  HZ EP        613  5.15                             153    0.1810 69.8 299 
 BRR  HN ES        613 22.10                             153    0.5110 69.8 299 
 BRR  HN I         613 23.41         5.9 0.22            152           69.8 299 
 PAM  SZ EP        613  6.17                             151    0.0410 77.6  41 
 PAM  SN ES        613 23.57                             151   -0.0810 77.6  41 
 PAM  SN I         613 24.53         1.9 0.16            154           77.6  41 
 RUS  HZ EP        613  7.47                             144   -0.2210  101 175 
 RUS  HN ES        613 26.08                             144   -0.3510  101 175 
 RUS  HN I         613 27.33         2.4 0.18            145            101 175 
 PTB  HE ES        613 31.19                             133   -0.62 9  147 258 
 PTB  HE I         613 36.72         4.8 0.42            132            147 258 
 CHI  HZ EP   1    613 21.20                             117   -0.32 6  249 195 
 CHI  HN ES        613 51.98                             117    0.93 8  249 195 
 CHI  HN I         613 52.72         1.2 0.34            118            249 195 
                                                                                
