 2017  317 0623 11.9 L   6.844 -73.302121.0  RSN 11 0.4 2.0LRSN                1
 GAP=108        0.72       2.4     2.7  4.3 -0.6025E-01  0.5567E+01  0.1858E+01E
 Epicentro: ZAPATOCA - SANTANDER                                               3
 ACTION:UPD 17-05-25 18:41 OP:jn   STATUS:               ID:20170317062311 L   I
 OLDACT:UP  17-03-17 16:43 OP:cog  STATUS:               ID:20170317061742     3
 OLDACT:REG 17-03-17 13:33 OP:cog  STATUS:               ID:20170317061742     3
 2017-03-17-0618-00M.COL___402                                                 6
 STAT SP IPHASW D HRMM SECON CODA AMPLIT PERI AZIMU VELO AIN AR TRES W  DIS CAZ7
 BAR2 EZ EP        623 28.66                             165   -0.1610 30.9 155 
 BAR2 EZ ES        623 41.83                             165   -0.1510 30.9 155 
 BRR  HZ EP        623 29.04                             154   -0.4010 53.8 303 
 BRR  HN ES        623 43.23                             154    0.1410 53.8 303 
 BRR  HZ I         623 44.11        42.5 0.12            155           53.8 303 
 PAM  EZ EP        623 32.12                             142   -0.1010 86.2  51 
 PAM  EE ES        623 48.43                             142    0.3910 86.2  51 
 PAM  EZ I         623 51.88         9.0 0.38            145           86.2  51 
 RUS  HZ EP        623 33.86                             136   -0.1110  108 167 
 RUS  HN ES        623 51.41                             136    0.2610  108 167 
 RUS  HZ I         623 52.34        14.0 0.28            136            108 167 
 PTB  HZ EP   3    623 33.95                             129   -1.53 2  132 255 
 PTB  HE ES   3    623 55.00                             129    1.15 2  132 255 
 PTB  HZ I         623 56.20        26.4 0.36            130            132 255 
 SPBC HZ EP        623 37.69                             124   -0.35 9  157 213 
 SPBC HE ES        623 58.00                             124   -0.39 9  157 213 
 SPBC HZ I         624  1.87        16.5 0.10            124            157 213 
 ZAR  HZ EP        623 40.73                             119   -0.24 9  186 293 
 ZAR  HN ES        624  3.63                             119    0.01 9  186 293 
 CHI  HZ EP   3    623 49.13                             111    0.64 2  249 191 
 CHI  HN ES        624 17.12                             111    0.12 8  249 191 
 CHI  HZ I         624 23.00         5.7 0.40            112            249 191 
 HEL  HZ EP        623 49.87                             111    0.62 8  257 254 
 HEL  HE ES   3    624 17.02                             111   -1.33 2  257 254 
 HEL  HZ I         624 23.09         8.0 0.32            112            257 254 
 GUY2CHZ EP        623 53.47                             108    0.22 7  290 232 
 GUY2CHN ES        624 25.96                             108    0.48 7  290 232 
 GUY2CHZ  IAML     624 32.58         4.6 0.54                           290 232 
 CBOC HZ EP        623 56.55                             106    0.34 7  319 250 
 CBOC HE ES        624 30.72                             106   -0.02 7  319 250 
 CBOC HZ I         624 33.32         2.4 0.26            107            319 250 
                                                                                
