 2014  617 0008 17.0 L   6.580 -73.416113.5  RSN  7 0.4 1.5LRSN                1
 GAP=116        0.91       4.3     5.2  8.2  0.3623E+00  0.1729E+02  0.7512E+01E
 Epicentro: HATO - SANTANDER                                                   3
 ACTION:UPD 14-07-01 22:54 OP:nd   STATUS:               ID:20140617000817 L   I
 OLDACT:UP  14-06-17 16:07 OP:mh   STATUS:               ID:20140617000012     3
 OLDACT:REG 14-06-17 12:44 OP:mh   STATUS:               ID:20140617000012     3
 2014-06-17-0000-12M.COL___262                                                 6
 STAT SP IPHASW D HRMM SECON CODA AMPLIT PERI AZIMU VELO AIN AR TRES W  DIS CAZ7
 BAR2 SZ EP        0 8 32.92                             166    0.0610 25.9  87 
 BAR2 SZ ES   1    0 8 45.05                             166   -0.17 7 25.9  87 
 BRR  HZ EP        0 8 34.37                             147   -0.1310 66.8 331 
 BRR  HE ES   1    0 8 48.55                             147    0.42 7 66.8 331 
 BRR  HZ I         0 8 49.52        14.7 0.14            149           66.8 331 
 RUS  HZ EP        0 8 36.18                             141   -0.2810 84.5 154 
 RUS  HZ I         0 8 54.67         2.8 0.26                          84.5 154 
 PTB  HZ EP   4    0 8 36.76                             131   -1.64 0  115 268 
 PTB  HN ES   4    0 8 51.46                             131   -3.62 0  115 268 
 PTB  HZ I         0 8 57.44         8.5 0.10                           115 268 
 SPBC HZ EP        0 8 40.43                             128    0.9310  126 215 
 SPBC HN ES   1    0 8 56.55                             128   -0.47 7  126 215 
 SPBC HZ I         0 8 58.37         8.5 0.15            125            126 215 
 ZAR  HZ EP        0 8 45.54                             116   -0.35 9  189 302 
 ZAR  HN ES   1    0 9  8.37                             116   -0.03 7  189 302 
 ZAR  HZ I         0 9 11.85         3.2 0.06            116            189 302 
 NOR  HZ EP        0 8 46.68                             115   -0.11 9  196 235 
 NOR  HN ES        0 9  9.94                             115   -0.06 9  196 235 
 NOR  HZ I         0 9 13.47         3.1 0.07            114            196 235 
 URE  HN ES   4    0 9 19.51                             108   -4.77 0  267 299 
                                                                                
