 2013  117 0259 29.0 L   6.808 -73.217134.0  RSN  5 0.3 1.3LRSN                1
 GAP=127        0.68       5.1     5.0  7.8 -0.6798E+01  0.1349E+02 -0.6442E+01E
 Epicentro: ZAPATOCA - SANTANDER                                               3
 ACTION:UPD 13-02-15 09:14 OP:ep   STATUS:               ID:20130117025929 L   I
 2013-01-17-0257-45M.COL___181                                                 6
 STAT SP IPHASW D HRMM SECON CODA AMPLIT PERI AZIMU VELO AIN AR TRES W  DIS CAZ7
 BAR2 SZ ES   1    3 0  1.56                             169    0.10 7 24.2 171 
 BRR  HZ EP   1    259 49.17                             153    0.71 7 63.9 301 
 BRR  HN ES   4    3 0  5.46                             153    1.81 0 63.9 301 
 BRR  HZ I         3 0  7.58         5.7 0.14            152           63.9 301 
 PAM  SZ EP   1    259 50.15                             147   -0.12 7 81.9  44 
 PAM  SE ES   1    3 0  6.63                             147   -0.23 7 81.9  44 
 PAM  SZ I         3 0  9.33         5.0 0.60            151           81.9  44 
 RUS  HZ EP   1    259 51.91                             141    0.17 7  102 172 
 RUS  HN ES   1    3 0  9.42                             141   -0.07 7  102 172 
 RUS  HZ I         3 0 10.90         1.2 0.28            147            102 172 
 PTB  HZ EP   1    259 53.81                             131   -0.52 7  140 258 
 PTB  HN ES   1    3 0 13.99                             131   -0.10 7  140 258 
 PTB  HZ I         3 0 17.64         4.1 0.10            133            140 258 
                                                                                
