 2015  317 0119 35.8 L   6.835 -73.144142.8  RSN  8 0.6 1.8LRSN                1
 GAP= 70        1.64       5.5     5.9  9.7  0.5605E+01  0.1960E+00 -0.9882E+01E
 Epicentro: LOS SANTOS - SANTANDER                                             3
 ACTION:UPD 15-04-30 16:26 OP:nd   STATUS:               ID:20150317011935 L   I
 OLDACT:REG 15-03-17 12:42 OP:stll STATUS:               ID:20150317011742     3
 2015-03-17-0117-42M.COL___269                                                 6
 STAT SP IPHASW D HRMM SECON CODA AMPLIT PERI AZIMU VELO AIN AR TRES W  DIS CAZ7
 BAR2 EZ EP        119 55.43                             169    0.2710 27.2 189 
 BAR2 EZ I         119 55.70         7.9 0.34            169           27.2 189 
 BAR2 EZ ES        120 10.69                             169    0.4310 27.2 189 
 BRR  HZ EP        119 57.22                             153    0.6810 69.6 296 
 BRR  HN ES        120 13.34                             153    0.6310 69.6 296 
 PAM  SZ EP        119 58.14                             151    0.6310 74.3  41 
 PAM  SN ES        120 14.72                             151    0.2710 74.3  41 
 PAM  SZ I         120 17.15        21.9 0.50            153           74.3  41 
 RUS  HZ EP        119 59.65                             142    0.1010  104 176 
 RUS  HE ES        120 17.59                             142   -0.4810  104 176 
 RUS  HZ I         120 19.97         6.2 0.26            143            104 176 
 PTB  HZ EP        120  2.15                             131   -0.47 9  149 257 
 PTB  HN ES        120 22.85                             131   -0.68 9  149 257 
 PTB  HZ I         120 26.27         6.5 0.16            132            149 257 
 OCA  HZ EP        120  4.25                             130    0.73 9  156 353 
 OCA  HN ES        120 24.09                             130   -1.05 9  156 353 
 TAM  HZ IP     D  120  3.87                             130    0.55 9  156 106 
 TAM  HZ I         120  4.10        12.3 0.36            131            156 106 
 TAM  HE ES        120 23.49                             130   -1.30 9  156 106 
 SML  HZ EP        120 11.66                             117   -0.22 8  240 335 
 SML  HN ES        120 39.26                             117   -0.77 8  240 335 
                                                                                
