 2012  617 0932 55.6 L   6.784 -73.164143.6  RSN  9 0.4 1.9LRSN                1
 GAP=135        0.65       3.3     3.5  5.4 -0.2269E+00  0.8169E+01  0.2944E+01E
 Epicentro: LOS SANTOS - SANTANDER                                             3
 ACTION:UP  12-08-06 17:50 OP:ep   STATUS:               ID:20120617093255 L   I
 2012-06-17-0930-00M.COL___199                                                 6
 STAT SP IPHASW D HRMM SECON CODA AMPLIT PERI AZIMU VELO AIN AR TRES W  DIS CAZ7
 BAR2 SZ IP        933 14.82                             171   -0.0710 21.4 185 
 BAR2 SZ I         933 15.18        17.5 0.10                          21.4 185 
 BAR2 SZ ES   1    933 30.27                             171    0.30 7 21.4 185 
 PAM  SZ EP   1    933 17.83                             150    0.12 7 80.0  40 
 PAM  SN ES   1    933 34.53                             150   -0.45 7 80.0  40 
 RUS  HZ EP   1    933 18.79                             144   -0.20 7 99.0 175 
 RUS  HN ES   1    933 37.57                             144    0.31 7 99.0 175 
 RUS  HZ I         933 38.94        11.9 0.44                          99.0 175 
 PTB  HZ EP   1    933 21.83                             132   -0.31 7  145 259 
 PTB  HN ES   1    933 42.59                             132   -0.28 7  145 259 
 PTB  HZ I         933 47.33         8.3 0.16                           145 259 
 ZAR  HZ EP   1    933 27.78                             122    0.04 6  203 293 
 ZAR  HN ES   1    933 53.41                             122    0.58 6  203 293 
 ZAR  HZ I         934  0.15        10.8 0.37                           203 293 
 CHI  HZ EP   1    933 32.64                             117   -0.26 6  246 195 
 CHI  HN ES   1    934  2.25                             117    0.22 6  246 195 
 CHI  HZ I         934  5.22         3.9 0.36                           246 195 
 HEL  HZ EP   1    933 36.36                             115    0.96 6  270 256 
 HEL  HN ES   1    934  6.07                             115   -0.39 6  270 256 
 HEL  HZ I         934 13.74         5.2 0.33                           270 256 
 GUY  SZ EP   1    933 38.97                             112   -0.06 5  301 235 
 GUY  SN ES   2    934 12.21                             112   -0.73 4  301 235 
 GUY  SZ I         934 22.70         6.5 0.46                           301 235 
 PRA  HZ EP   2    933 49.09                             106    0.37 3  389 209 
 PRA  HN ES   1    934 30.00                             106   -0.17 4  389 209 
                                                                                
