 2012  117 0740 22.4 L   6.556 -73.592116.0  RSN  4 0.4 1.3LRSN                1
 GAP=126        0.95       7.8     6.0 10.7  0.1855E+02  0.1823E+02  0.2135E+02E
 Epicentro: EL CARMEN DE CHUCURI - SANTANDER                                   3
 ACTION:UP  12-02-03 08:18 OP:REBC STATUS:               ID:20120117074022 L   I
 2012-01-17-0740-00M.COL___188                                                 6
 STAT SP IPHASW D HRMM SECON CODA AMPLIT PERI AZIMU VELO SNR AR TRES W  DIS CAZ7
 BAR2 SZ EP        740 39.50                             157     0.210   46  85 
 BAR2 SZ ES   1    740 51.81                             157    -0.7 7   46  85 
 BAR2 SZ I         740 53.49        13.2 0.38                            46  85 
 BRR  HZ EP   1    740 39.36                             150    -0.5 7   62 348 
 BRR  HE ES   1    740 54.15                             150     0.7 7   62 348 
 BRR  HZ I         741  1.40         2.8 0.17                            62 348 
 RUS  HZ EP   1    740 42.67                             139    -0.1 7   93 142 
 RUS  HN ES   1    740 58.92                             139     0.3 7   93 142 
 PTB  HZ EP        740 42.44                             138     0.110   96 269 
 PTB  HE ES   1    740 57.57                             138    -0.3 7   96 269 
                                                                                
