 2016 1017 0841  2.9 L   6.738 -73.074145.4  RSN  5 0.5 1.1LRSN                1
 GAP=149        1.01       5.5     8.4  7.9 -0.2381E+02  0.1669E+02 -0.2586E+01E
 Epicentro: JORDAN - SANTANDER                                                 3
 ACTION:UPD 16-11-09 19:20 OP:rebc STATUS:               ID:20161017084102 L   I
 OLDACT:DUP 16-10-17 21:07 OP:ar   STATUS:               ID:20161017083733d    3
 2016-10-17-0838-00M.COL___343                                                 6
 STAT SP IPHASW D HRMM SECON CODA AMPLIT PERI AZIMU VELO AIN AR TRES W  DIS CAZ7
 BAR2 EZ EP        841 22.43                             172    0.0510 20.0 217 
 BAR2 EZ ES        841 37.12                             172   -0.4910 20.0 217 
 BAR2 EZ I         841 38.54         4.5 0.18            166           20.0 217 
 PAM  EZ EP        841 25.38                             150    0.2910 78.4  32 
 PAM  EE ES        841 42.27                             150   -0.1710 78.4  32 
 PAM  EZ I         841 42.67         1.3 0.36            154           78.4  32 
 BRR  HZ EP        841 24.10                             149   -0.4810 81.4 300 
 BRR  HN ES   2    841 42.98                             149    1.46 5 81.4 300 
 BRR  HZ I         841 45.15         3.4 0.14            144           81.4 300 
 RUS  HZ EP        841 26.48                             145    0.4110 93.5 181 
 RUS  HE ES        841 44.23                             145    0.0510 93.5 181 
 RUS  HZ I         841 44.90         0.6 0.34            146           93.5 181 
 SPBC HZ EP        841 31.59                             128    0.27 9  163 223 
 SPBC HN ES        841 53.22                             128   -0.30 9  163 223 
 SPBC HZ I         842  1.06         2.3 0.22            128            163 223 
                                                                                
