 2012  117 0915 39.9 L   6.855 -73.320125.4  RSN  7 0.4 1.4LRSN                1
 GAP=109        0.90       6.4     7.1  9.4  0.9588E+01  0.2785E+02  0.1668E+02E
 Epicentro: ZAPATOCA - SANTANDER                                               3
 ACTION:UP  12-02-03 08:18 OP:REBC STATUS:               ID:20120117091539 L   I
 2012-01-17-0910-00M.COL___188                                                 6
 STAT SP IPHASW D HRMM SECON CODA AMPLIT PERI AZIMU VELO SNR AR TRES W  DIS CAZ7
 BAR2 SZ EP        915 57.72                             165     0.410   33 152 
 BAR2 SZ I         915 57.96        16.3 0.10                            33 152 
 BAR2 SZ ES   1    916 10.79                             165    -0.1 7   33 152 
 BRR  HZ EP   1    915 58.12                             156     0.4 7   51 303 
 BRR  HN ES   1    916 11.93                             156     0.3 7   51 303 
 BRR  HZ I         916 13.87         7.6 0.19                            51 303 
 PAM  SE ES   1    916 16.51                             143    -0.3 7   87  52 
 RUS  HZ EP   1    916  2.55                             137     0.1 7  110 166 
 RUS  HZ I         916  3.48         2.1 0.26                           110 166 
 RUS  HE ES   1    916 19.78                             137    -0.2 7  110 166 
 PTB  HZ EP        916  3.03                             131    -0.610  130 255 
 PTB  HZ I         916 25.03         2.1 0.12                           130 255 
 ZAR  HN ES   3    916 31.93                             120     0.4 2  184 293 
 ZAR  HZ I         916 37.21         3.0 0.50                           184 293 
 CHI  HZ EP   3    916 17.69                             112     1.0 2  250 191 
                                                                                
