 2016  817 0803  9.5 L   6.748 -73.189152.2  RSN  4 0.4 1.3LRSN                1
 GAP=228        0.93       5.8     6.9  8.4  0.1185E+02 -0.3426E+01  0.1328E+01E
 Epicentro: VILLANUEVA - SANTANDER                                             3
 ACTION:UPD 16-10-29 15:36 OP:rebc STATUS:               ID:20160817080309 L   I
 OLDACT:DUP 16-08-17 19:32 OP:ak   STATUS:               ID:20160817075632d    3
 OLDACT:REG 16-08-17 13:35 OP:ak   STATUS:               ID:20160817075631     3
 2016-08-17-0757-00M.COL___374                                                 6
 STAT SP IPHASW D HRMM SECON CODA AMPLIT PERI AZIMU VELO AIN AR TRES W  DIS CAZ7
 BRR  HZ EP        8 3 31.35                             154    0.0210 70.1 305 
 BRR  HN ES        8 3 48.65                             154    0.3310 70.1 305 
 BRR  HZ I         8 3 51.67         4.0 0.20                          70.1 305 
 RUS  HZ EP        8 3 33.76                             147    0.1910 95.4 173 
 RUS  HN ES        8 3 51.88                             147   -0.4310 95.4 173 
 RUS  HZ I         8 3 53.26         2.0 0.44                          95.4 173 
 PTB  HZ EP        8 3 36.02                             135   -0.51 9  142 261 
 PTB  HN ES        8 3 57.21                             135   -0.38 9  142 261 
 PTB  HZ I         8 4  0.75         2.9 0.23                           142 261 
 SPBC HZ EP        8 3 38.17                             132    0.32 9  156 219 
 SPBC HN ES        8 4  0.42                             132    0.48 9  156 219 
 SPBC HZ I         8 4  6.00         2.9 0.07                           156 219 
                                                                                
