 2015 1117 0439 32.4 L   6.826 -73.112147.7  RSN 16 0.5 2.1LRSN                1
 GAP=140        1.03       2.6     4.1  5.0 -0.2399E+01  0.7416E+01  0.1205E+01E
 Epicentro: LOS SANTOS - SANTANDER                                             3
 ACTION:UPD 15-12-28 16:11 OP:cam  STATUS:               ID:20151117043932 L   I
 OLDACT:UP  15-11-19 06:52 OP:CARA STATUS:               ID:20151117043932 L   3
 OLDACT:REG 15-11-17 12:53 OP:ak   STATUS:               ID:20151117043747     3
 2015-11-17-0437-47M.COL___313                                                 6
 STAT SP IPHASW D HRMM SECON CODA AMPLIT PERI AZIMU VELO AIN AR TRES W  DIS CAZ7
 BAR2 EZ EP        439 52.24                             169   -0.0710 27.1 197 
 BAR2 EZ ES        440  7.58                             169   -0.2910 27.1 197 
 BAR2 EZ I         440  9.90        24.7 0.28            167           27.1 197 
 PAM  EZ EP        439 54.99                             153    0.4710 72.7  39 
 PAM  EN ES        440 12.24                             153    0.4410 72.7  39 
 PAM  EZ I         440 14.49        16.0 0.26            158           72.7  39 
 BRR  HZ EP     C  439 54.04                             152    0.2010 73.2 295 
 BRR  HN ES        440 11.19                             152    0.6010 73.2 295 
 BRR  HZ I         440 16.16        15.4 0.05            150           73.2 295 
 RUS  HZ EP        439 56.05                             143   -0.4610  103 178 
 RUS  HN ES        440 14.72                             143   -0.6210  103 178 
 RUS  HZ I         440 16.03         7.5 0.44            146            103 178 
 OCA  HZ EP        440  0.42                             130   -0.19 9  158 352 
 OCA  HN ES        440 22.74                             130    0.11 9  158 352 
 OCA  HZ I         440 27.57        25.3 0.30            133            158 352 
 SPBC HZ IP        440  1.35                             129   -0.11 9  168 219 
 SPBC HE ES        440 24.18                             129    0.03 9  168 219 
 SPBC HZ I         440 29.11        25.5 0.07            129            168 219 
 ZAR  HZ EP        440  5.49                             122    0.30 8  206 291 
 ZAR  HN ES        440 30.47                             122   -0.32 8  206 291 
 ZAR  HZ I         440 36.73         9.1 0.18            123            206 291 
 NOR  HZ IP        440  8.24                             118   -0.48 8  239 234 
 NOR  HN ES        440 36.33                             118   -0.75 8  239 234 
 NOR  HZ I         440 40.05         8.1 0.23            119            239 234 
 SML  HZ IP        440  8.28                             118   -0.71 8  243 334 
 SML  HN ES        440 36.91                             118   -0.65 8  243 334 
 SML  HZ I         440 40.90        18.7 0.14            120            243 334 
 ROSC BZ EP        440 11.71                             117    0.63 8  257 211 
 ROSC BN ES        440 41.71                             117    0.44 8  257 211 
 ROSC BZ I         440 50.11        11.6 0.40            118            257 211 
 HEL  HZ EP        440 13.66                             115    0.49 7  276 255 
 HEL  HN ES        440 44.74                             115   -0.25 7  276 255 
 HEL  HZ I         440 50.92         5.7 0.36            116            276 255 
 GUY2CHZ EP        440 17.25                             112    0.64 7  306 235 
 GUY2CHN ES        440 51.75                             112    0.64 7  306 235 
 GUY2CHZ I         440 59.08         9.3 0.76                           306 235 
 ELA  HZ EP   1    440 20.41                             110    0.56 5  334 230 
 ELA  HN ES   4    440 59.94                             110    3.06 0  334 230 
 ELA  HZ I         441  4.23         4.8 0.36            112            334 230 
 ANIL HN I         440  8.97                                            362 225 
 PRA  HZ EP        440 25.78                             107   -0.69 6  396 210 
 PRA  HN ES        441  8.84                             107    0.17 6  396 210 
 PRA  HZ I         441 14.20         5.3 0.11            108            396 210 
 ORTC HZ EP        440 26.83                             106   -0.06 6  400 216 
 ORTC HN ES        441  9.91                             106    0.49 6  400 216 
 ORTC HZ I         441 16.91         4.4 0.24            108            400 216 
                                                                                
