 2011  317 0433 26.7 L   6.538 -73.570107.7  RSN 15 0.4 2.8LRSN                1
 GAP= 57        0.78       3.2     4.4  6.5 -0.5136E+01  0.1336E+02  0.1030E+01E
 Epicentro: EL CARMEN DE CHUCURI - SANTANDER                                   3
 ACTION:UP  11-06-16 14:34 OP:jfem STATUS:               ID:20110317043327 L   I
 2011-03-17-0432-43S.COL___138                                                 6
 STAT SP IPHASW D HRMM SECON CODA AMPLIT PERI AZIMU VELO SNR AR TRES W  DIS CAZ7
 BAR2 SZ IP        433 42.77                             156     0.210   43  82 
 BAR2 SZ ES   1    433 54.46                             156    -0.4 7   43  82 
 BAR2 SZ I         433 56.66       894.7 0.46                            43  82 
 BTL  SZ EP   1    433 43.36                             151     0.2 7   54  38 
 GIR2 SZ EP   1    433 44.32                             143     0.1 7   73  35 
 GIR2 SZ ES   2    433 58.24                             143     0.3 5   73  35 
 RUS  HZ EP   1    433 45.86                             137    -0.2 7   89 143 
 RUS  HZ I         433 47.19        28.8 0.08                            89 143 
 RUS  HE ES   2    434  1.29                             137     0.2 5   89 143 
 GRA  SZ EP   1    433 53.99                             117     0.4 7  171  30 
 GRA  SZ I         434 22.90        42.8 0.25                           171  30 
 NOR  SZ EP   1    433 54.38                             116     0.0 7  180 233 
 NOR  SN ES   1    434 14.98                             116    -1.0 7  180 233 
 YOP  SZ EP   1    433 54.69                             115    -0.1 7  183 136 
 YOP  SZ I         434 18.77        33.1 0.37                           183 136 
 OCA  SZ EP        433 55.05                             114    -0.6 9  190   8 
 OCA  SZ ES   3    434 18.04                             114    -0.1 2  190   8 
 OCA  SZ I         434 23.99        59.0 0.32                           190   8 
 CHI  HZ EP        433 58.51                             111     0.1 8  212 185 
 CHI  HE ES   1    434 23.23                             111     0.1 6  212 185 
 HEL  HZ EP   1    434  0.01                             111     0.7 6  220 260 
 HEL  HE ES   2    434 25.41                             111     0.7 4  220 260 
 TOL  SZ EP        434  7.72                             104     0.3 7  290 222 
 MON  HZ EP   3    434 11.70                             101    -1.0 2  338 317 
 PRA  HZ EP        434 13.35                             101    -0.2 7  345 205 
 PRA  HE ES   1    434 50.01                             101     0.0 5  345 205 
 PRA  HZ I         434 56.13        83.2 0.21                           345 205 
 SJA  SZ EP   2    434 15.61                             100    -0.3 3  364 187 
 SDV  BZ EP   3    434 20.81                              97    -1.4 1  415  51 
                                                                                
