 2013  117 0342 16.6 L   6.748 -73.125144.8  RSN  5 0.3 1.0LRSN                1
 GAP=236        0.52       6.8     6.4  6.4  0.3052E+02  0.1481E+02  0.1212E+02E
 Epicentro: LOS SANTOS - SANTANDER                                             3
 ACTION:UPD 13-02-15 09:14 OP:ep   STATUS:               ID:20130117034216 L   I
 2013-01-17-0340-00M.COL___241                                                 6
 STAT SP IPHASW D HRMM SECON CODA AMPLIT PERI AZIMU VELO AIN AR TRES W  DIS CAZ7
 BAR2 SZ ES   1    342 50.93                             172   -0.21 7 18.4 200 
 BRR  HE ES   1    342 54.66                             151    0.13 7 76.1 301 
 RUS  HZ EP   1    342 40.16                             145    0.36 7 94.7 177 
 RUS  HN ES   1    342 57.90                             145   -0.03 7 94.7 177 
 RUS  HZ I         343  0.08         1.4 0.34            143           94.7 177 
 PTB  HZ EP   1    342 43.11                             131   -0.46 7  149 261 
 PTB  HN ES   1    343  4.75                             131    0.12 7  149 261 
 PTB  HZ I         343  5.90         1.7 0.23            131            149 261 
 ZAR  HE ES   2    343 15.14                             121    0.14 4  208 293 
                                                                                
