 2017  917 0313 56.4 L   6.775 -73.104148.9  RSN 11 0.4 2.0LRSN                1
 GAP=221        0.82       3.3     3.7  4.5  0.3531E+01  0.4177E+01  0.4471E+01E
 Epicentro: LOS SANTOS - SANTANDER                                             3
 ACTION:UPD 17-10-05 19:13 OP:rebc STATUS:               ID:20170917031356 L   I
 OLDACT:REG 17-09-17 12:18 OP:lv   STATUS:               ID:20170917030744     3
 2017-09-17-0308-00M.COL___411                                                 6
 STAT SP IPHASW D HRMM SECON CODA AMPLIT PERI AZIMU VELO AIN AR TRES W  DIS CAZ7
 BAR2 EZ IP     D  314 16.54                             171    0.1510 22.0 203 
 BAR2 EZ ES        314 31.61                             171   -0.3610 22.0 203 
 BAR2 EZ I         314 32.85        28.3 0.18            167           22.0 203 
 BRR  HZ IP     D  314 18.39                             151    0.1810 76.6 299 
 BRR  HN ES        314 35.12                             151   -0.0910 76.6 299 
 BRR  HZ I         314 38.24        10.8 0.24            150           76.6 299 
 RUS  HZ EP        314 20.49                             145    0.2310 97.6 179 
 RUS  HN ES        314 39.27                             145    0.4110 97.6 179 
 RUS  HZ I         314 40.65         6.3 0.20            144           97.6 179 
 SPBC HZ EP        314 25.57                             130    0.34 9  164 221 
 SPBC HN ES        314 47.74                             130    0.03 9  164 221 
 SPBC HZ I         314 50.23        22.4 0.20            128            164 221 
 ZAR  HZ EP        314 29.50                             122   -0.11 8  209 292 
 ZAR  HE ES        314 55.02                             122   -0.48 8  209 292 
 ZAR  HZ I         315  0.68        15.4 0.52            122            209 292 
 NOR  HZ EP        314 32.71                             119    0.15 8  237 236 
 NOR  HN ES        315  0.80                             119    0.05 8  237 236 
 NOR  HZ I         315  5.71         7.5 0.26            118            237 236 
 URE  HN ES   4    315  7.95                             114   -2.90 0  289 292 
 GUY2CHZ EP        314 41.17                             113    0.76 7  303 236 
 GUY2CHN ES        315 14.83                             113    0.10 7  303 236 
 GUY2CHZ I         315 23.14         6.1 0.44                           303 236 
 PTGC HZ EP        314 39.27                             112   -0.65 7  304 159 
 PTGC HN ES        315 13.32                             112   -0.55 7  304 159 
 PTGC HZ I         315 17.94         4.9 0.54            113            304 159 
 PRA  HZ EP   4    314 51.20                             107    1.17 0  392 210 
 PRA  HN ES        315 31.87                             107    0.02 6  392 210 
 PRA  HZ I         315 37.29         3.9 0.46            107            392 210 
 ORTC HZ EP        314 49.85                             107   -0.65 6  396 217 
 ORTC HN ES        315 31.89                             107   -0.80 6  396 217 
 ORTC HZ I         315 40.69         3.1 0.40            107            396 217 
 PAL  HZ EP        314 52.29                             106    0.32 6  408 240 
                                                                                
