 2010 1117 0741  9.6 L   6.774 -73.100148.1  RSN  8 0.3 1.8LRSN                1
 GAP=164        0.59       3.1     4.9  5.0 -0.3856E+01  0.2362E+01 -0.1988E+01E
 Epicentro: LOS SANTOS - SANTANDER                                             3
 ACTION:UP  10-12-17 16:53 OP:REBC STATUS:               ID:20101117074109 L   I
 2010-11-17-0738-38S.COL___127                                                 6
 STAT SP IPHASW D HRMM SECON CODA AMPLIT PERI AZIMU VELO SNR AR TRES W  DIS CAZ7
 BAR2 SZ EP   1    741 29.35                             171    -0.1 8   22 205 
 BAR2 SZ ES   1    741 44.58                             171    -0.4 8   22 205 
 BAR2 SZ I         741 45.96        24.1 0.26                            22 205 
 BRR  HZ EP   1    741 31.28                             151     0.0 8   77 299 
 BRR  HE ES   1    741 48.60                             151     0.3 8   77 299 
 BRR  HZ I         741 50.78        12.3 0.13                            77 299 
 RUS  HZ EP   1    741 33.27                             145    -0.1 8   97 179 
 RUS  HN ES   1    741 52.27                             145     0.4 8   97 179 
 RUS  HZ I         741 53.70         6.2 0.20                            97 179 
 GRA  SZ IP        741 35.27                             137     0.110  127  15 
 GRA  SZ ES   2    741 54.51                             137    -0.6 5  127  15 
 GRA  SZ I         741 58.16         5.3 0.32                           127  15 
 OCA  SZ EP   1    741 38.23                             129    -0.2 7  164 352 
 OCA  SZ ES   2    742  1.56                             129     0.7 5  164 352 
 OCA  SZ I         742  4.48         6.7 0.20                           164 352 
 NOR  SZ EP   2    741 45.79                             119     0.1 4  237 236 
 NOR  SE ES   2    742 13.54                             119    -0.4 4  237 236 
 HEL  HZ EP   2    741 50.56                             115     0.2 4  276 257 
 HEL  HN ES   2    742 21.73                             115    -0.5 4  276 257 
 HEL  HZ I         742 29.93         4.0 0.31                           276 257 
 PRA  HZ EP   2    742  3.23                             107     0.0 3  392 210 
 PRA  HE ES   2    742 45.19                             107     0.2 3  392 210 
                                                                                
