 2016  717 0109 16.9 L   6.815 -73.154142.7  RSN 22 0.5 2.5LRSN                1
 GAP=135        1.00       2.7     3.2  5.0 -0.1378E+01  0.6422E+01  0.3174E+00E
 Epicentro: LOS SANTOS - SANTANDER                                             3
 ACTION:UPD 17-03-29 16:52 OP:lp   STATUS:               ID:20160717010916 L   I
 OLDACT:REG 16-07-17 12:29 OP:lv   STATUS:               ID:20160717010759     3
 2016-07-17-0107-59S.COL___325                                                 6
 STAT SP IPHASW D HRMM SECON CODA AMPLIT PERI AZIMU VELO AIN AR TRES W  DIS CAZ7
 BAR2 EZ EP        1 9 36.11                             170   -0.1310 24.8 187 
 BAR2 EZ ES        1 9 51.25                             170   -0.0310 24.8 187 
 BAR2 EZ I         1 9 52.48        99.3 0.20            171           24.8 187 
 BRR  HZ IP     C  1 9 37.91                             153    0.2410 69.6 298 
 BRR  HE ES   4    1 9 55.23                             153    1.39 0 69.6 298 
 BRR  HZ I         1 9 58.14        58.5 0.16            150           69.6 298 
 PAM  EZ EP        1 9 38.94                             150    0.1410 76.8  41 
 PAM  EN ES        1 9 56.08                             150    0.2410 76.8  41 
 PAM  EZ I         1 9 58.53       122.2 0.46            152           76.8  41 
 RUS  HZ EP        1 9 40.10                             143   -0.4210  102 176 
 RUS  HN ES        1 9 59.46                             143    0.5510  102 176 
 RUS  HZ I         110  0.04        53.4 0.25            145            102 176 
 PTB  HZ EP        1 9 42.85                             131   -0.76 9  147 258 
 PTB  HN ES        110  3.75                             131   -0.65 9  147 258 
 PTB  HZ I         110  6.90        41.9 0.12            131            147 258 
 SPBC HZ EP        1 9 44.95                             128   -0.33 9  164 218 
 SPBC HN ES        110  7.01                             128   -0.36 9  164 218 
 SPBC HZ I         110 10.53        79.2 0.16            129            164 218 
 ZAR  HZ EP        1 9 48.72                             122   -0.32 9  203 292 
 ZAR  HN ES        110 14.12                             122    0.05 9  203 292 
 ZAR  HZ I         110 19.76        22.7 0.18            122            203 292 
 NOR  HZ EP        1 9 52.20                             118   -0.32 8  235 234 
 NOR  HE ES        110 20.70                             118    0.44 8  235 234 
 NOR  HZ I         110 25.86        30.3 0.18            119            235 234 
 CHI  HZ EP        1 9 54.32                             116   -0.30 8  250 195 
 CHI  HN ES        110 23.59                             116   -0.42 8  250 195 
 CHI  HZ I         110 27.41        26.5 0.54            118            250 195 
 ROSC BZ EP        1 9 55.66                             116    0.66 8  254 211 
 ROSC BN ES        110 24.76                             116    0.08 8  254 211 
 ROSC BZ I         110 28.25        40.0 0.40            117            254 211 
 HEL  HZ EP   4    1 9 58.34                             114    1.39 0  272 255 
 HEL  HN ES        110 28.30                             114    0.16 8  272 255 
 HEL  HZ I         110 34.35        18.1 0.27            115            272 255 
 URE  HZ EP   9    1 9 55.97                             113   -1.73 0  282 292 
 URE  HN ES        110 27.14                                   -0.62 7  282 292 
 URE  HZ I         110 36.76        23.7 0.18            113            282 292 
 GUY2CHZ EP        110  1.35                             112    0.92 7  301 234 
 GUY2CHE ES        110 34.89                             112    0.54 7  301 234 
 GUY2CHZ I         110 42.28        19.5 0.28                           301 234 
 PTGC HZ EP   4    1 9 59.33                             111   -1.55 0  311 159 
 PTGC HN ES   4    110 32.91                             111   -2.24 0  311 159 
 PTGC HZ I         110 37.59        26.6 0.30            113            311 159 
 ELA  HN ES        110 40.97                             110    0.79 7  329 229 
 CBOC HZ EP   4    110  4.45                             109    0.76 0  333 252 
 CBOC HN ES        110 40.51                             109    0.36 7  333 252 
 CBOC HZ I         110 44.28         5.5 0.16            110            333 252 
 DBB  EZ EP        110  4.35                             109    0.17 7  338 274 
 DBB  EZ ES        110 40.47                             109   -0.54 7  338 274 
 DBB  EZ I         110 44.14         7.0 0.30            109            338 274 
 ARGC HZ EP        110  6.97                             108    0.70 6  357 340 
 ARGC HN ES        110 44.98                             108    0.24 6  357 340 
 ARGC HZ I         110 56.24         6.2 0.25            108            357 340 
 ANIL HE ES   4    110 47.44                             108    1.95 0  358 224 
 PRA  HZ EP        110  9.87                             106   -0.60 6  393 209 
 PRA  HN ES        110 51.66                             106   -0.56 6  393 209 
 PRA  HZ I         110 56.50        13.3 0.18            107            393 209 
 PAL  HZ EP        110 11.67                             105   -0.34 6  406 239 
 PAL  HN ES        110 55.80                             105    0.84 6  406 239 
 PAL  HZ I         110 57.73         7.0 0.20            106            406 239 
 SJC  HZ EP   4    110 10.35                             105   -1.84 0  407 327 
 SJC  HE ES   4    110 51.34                             105   -3.93 0  407 327 
 SJC  HZ I         110 58.57         5.5 0.19            106            407 327 
 CRJC HZ EP   9    110 16.52                             103   -2.66 0  466   4 
 CRJC HE ES        111  4.84                                   -0.22 5  466   4 
 CRJC HZ I         111  8.49        11.3 0.16            104            466   4 
                                                                                
