 2015  717 0941 14.3 L   6.806 -73.140149.1  RSN 20 0.4 2.3LRSN                1
 GAP=137        0.89       2.1     3.1  4.7 -0.9387E+00  0.7436E+01  0.6442E+00E
 Epicentro: LOS SANTOS - SANTANDER                                             3
 ACTION:UPD 15-09-08 21:49 OP:cam  STATUS:               ID:20150717094114 L   I
 OLDACT:UP  15-07-30 07:11 OP:AK   STATUS:               ID:20150717094114 L   3
 OLDACT:REG 15-07-17 15:21 OP:ak   STATUS:               ID:20150717093735     3
 2015-07-17-0937-35M.COL___339                                                 6
 STAT SP IPHASW D HRMM SECON CODA AMPLIT PERI AZIMU VELO AIN AR TRES W  DIS CAZ7
 BAR2 EZ IP     D  941 34.36                             170   -0.0110 24.1 191 
 BAR2 EZ ES        941 50.12                             170    0.1110 24.1 191 
 BAR2 EZ I         941 55.42        24.3 0.15            168           24.1 191 
 PAM  EZ EP     D  941 37.16                             152    0.3210 76.5  39 
 PAM  EE ES        941 54.46                             152    0.0510 76.5  39 
 PAM  EZ I         941 56.56        22.4 0.23            158           76.5  39 
 RUS  HZ EP        941 38.33                             144   -0.1210  101 176 
 RUS  HN ES        941 57.28                             144    0.0110  101 176 
 RUS  HZ I         941 58.88         9.8 0.42            148            101 176 
 OCA  HZ EP        941 42.96                             130    0.12 9  160 353 
 OCA  HN ES        942  4.66                             130   -0.43 9  160 353 
 OCA  HZ I         942 10.49        33.9 0.30            134            160 353 
 ZAR  HZ EP        941 46.79                             123   -0.23 9  204 292 
 ZAR  HE ES        942 13.43                             123    0.90 9  204 292 
 ZAR  HZ I         942 19.21        29.7 0.40            125            204 292 
 NOR  HZ EP        941 50.34                             119   -0.00 8  236 234 
 NOR  HE ES        942 18.93                             119    0.49 8  236 234 
 NOR  HZ I         942 22.18        19.0 0.15            121            236 234 
 SML  HZ EP        941 50.83                             118   -0.27 8  243 335 
 SML  HN ES        942 19.57                             118   -0.22 8  243 335 
 SML  HZ I         942 24.17        38.5 0.07            121            243 335 
 CHI  HZ EP        941 51.31                             118   -0.98 8  249 195 
 CHI  HN ES        942 21.22                             118   -0.69 8  249 195 
 ROSC BZ EP        941 53.26                             117    0.54 8  254 211 
 ROSC BN ES        942 22.59                             117   -0.08 8  254 211 
 ROSC BZ I         942 32.35        17.0 0.45            120            254 211 
 HEL  HZ EP        941 55.33                             115    0.54 8  273 256 
 HEL  HN ES        942 26.16                             115   -0.20 8  273 256 
 HEL  HZ I         942 33.12        11.3 0.32            118            273 256 
 URE  HZ EP        941 55.19                             114   -0.40 7  284 292 
 URE  HN ES        942 27.51                             114   -0.28 7  284 292 
 URE  HZ I         942 35.10        11.3 0.27            116            284 292 
 GUY2CHZ EP        941 58.77                             113    0.59 7  302 235 
 GUY2CHN ES        942 31.96                             113   -0.44 7  302 235 
 GUY2CHZ I         942 41.41        12.1 0.38                           302 235 
 CBOC HZ EP        942  2.01                             110    0.54 7  334 252 
 CBOC HN ES        942 38.05                             110   -0.19 7  334 252 
 CBOC HZ I         942 50.17         3.7 0.44            113            334 252 
 DBB  SZ EP        942  1.84                             110   -0.16 7  340 274 
 DBB  SZ ES        942 38.70                             110   -0.49 7  340 274 
 DBB  SZ I         942 51.33        22.3 0.52            112            340 274 
 TOL  SZ EP        942  3.79                             110    0.98 7  344 225 
 TOL  SE ES        942 40.77                             110    0.13 7  344 225 
 TOL  SZ I         942 45.53         8.7 0.21            113            344 225 
 MON  HZ EP   4    942  1.70                             109   -1.76 0  354 308 
 MON  HN ES   4    942 39.91                             109   -1.89 0  354 308 
 MON  HZ I         942 42.78         6.7 0.36            112            354 308 
 ANIL HZ EP   1    942  4.46                             109    0.10 5  358 225 
 ANIL HN ES        942 43.37                             109   -0.02 6  358 225 
 ORTC HZ EP        942  8.55                             107    0.09 6  396 216 
 ORTC HN ES        942 50.71                             107    0.02 6  396 216 
 ORTC HZ I         942 57.39         5.0 0.26            110            396 216 
 PAL  HZ EP        942  9.98                             106    0.29 6  407 239 
 PAL  HN ES        942 52.16                             106   -0.72 6  407 239 
 PAL  HZ I         943  3.16         3.5 0.30            109            407 239 
 SJC  HZ EP   4    942  8.56                             106   -1.41 0  409 327 
 SJC  HN ES   4    942 49.38                             106   -4.00 0  409 327 
 SJC  HZ I         942 54.61         3.4 0.40            109            409 327 
                                                                                
