 2011  917 0105 30.7 L   6.781 -73.112145.2  RSN  9 0.3 1.9LRSN                1
 GAP=142        0.63       3.4     4.1  4.8  0.1574E+01  0.5122E+01  0.4473E+01E
 Epicentro: LOS SANTOS - SANTANDER                                             3
 ACTION:UPD 12-07-13 15:57 OP:ep   STATUS:               ID:20110917010530 L   I
 2011-09-17-0103-35S.COL___171                                                 6
 STAT SP IPHASW D HRMM SECON CODA AMPLIT PERI AZIMU VELO AIN AR TRES W  DIS CAZ7
 BAR2 SZ EP        1 5 50.16                             171   -0.0910 22.2 201 
 BAR2 SZ ES   1    1 6  5.20                             171   -0.29 7 22.2 201 
 BAR2 SZ I         1 6  6.74        18.1 0.36                          22.2 201 
 BTL  SZ EP        1 5 50.46                             171    0.1910 23.0 312 
 GIR2 SZ EP   2    1 5 50.16                             166   -0.24 5 34.2 345 
 GIR2 SZ ES   2    1 6  5.20                             166   -0.56 5 34.2 345 
 BRR  HZ EP        1 5 52.22                             151    0.1710 75.5 299 
 BRR  HN ES   1    1 6  9.39                             151    0.70 7 75.5 299 
 BRR  HZ I         1 6 14.80        16.9 0.54                          75.5 299 
 PAM  SZ EP        1 5 52.89                             151    0.0610 76.8  36 
 PAM  SN ES   1    1 6  9.96                             151   -0.12 7 76.8  36 
 RUS  HZ EP        1 5 54.11                             144   -0.1310 98.2 178 
 RUS  HZ I         1 5 54.65         5.7 0.16                          98.2 178 
 RUS  HN ES   1    1 6 12.79                             144    0.20 7 98.2 178 
 ZAR  HE ES   1    1 6 28.46                             122   -0.73 6  208 292 
 ZAR  HZ I         1 6 35.73        10.7 0.30                           208 292 
 CHI  HZ EP        1 6  8.22                             117   -0.04 8  248 196 
 CHI  HE ES   2    1 6 37.48                             117   -0.07 4  248 196 
 CHI  HZ I         1 6 41.57         3.8 0.48                           248 196 
 HEL  HZ EP        1 6 11.35                             114    0.11 8  275 256 
 HEL  HZ I         1 6 48.70         6.2 0.38                           275 256 
                                                                                
