 2012 1217 0243 23.5 L   6.744 -73.142146.2  RSN  6 0.3 1.7LRSN                1
 GAP= 94        0.86       4.6     4.3  5.8 -0.6559E+00 -0.1621E+01  0.1829E+01E
 Epicentro: JORDAN - SANTANDER                                                 3
 ACTION:UPD 13-01-04 14:28 OP:ep   STATUS:               ID:20121217024323 L   I
 2012-12-17-0240-00M.COL___238                                                 6
 STAT SP IPHASW D HRMM SECON CODA AMPLIT PERI AZIMU VELO AIN AR TRES W  DIS CAZ7
 BAR2 SZ ES        243 58.28                             173   -0.0910 17.4 195 
 BAR2 SZ I         243 59.05        14.9 0.16                          17.4 195 
 BRR  HZ EP        243 45.24                             151    0.3210 74.7 303 
 BRR  HN ES        244  2.15                             151    0.5410 74.7 303 
 BRR  HZ I         244  6.88         5.7 0.13                          74.7 303 
 PAM  SZ EP        243 46.10                             149    0.0310 82.0  37 
 PAM  SZ I         243 46.43         9.5 0.18                          82.0  37 
 PAM  SE ES        244  3.19                             149   -0.4610 82.0  37 
 RUS  HZ EP        243 47.03                             146    0.1410 94.4 176 
 RUS  HN ES        244  5.12                             146    0.0110 94.4 176 
 RUS  HN I         244  7.06        13.0 0.26                          94.4 176 
 PTB  HZ EP        243 49.95                             132   -0.52 9  147 261 
 PTB  HE ES   1    244 11.04                             132   -0.44 7  147 261 
 PTB  HZ I         244 13.25         6.7 0.16                           147 261 
 TAM  HZ EP        243 51.27                             131    0.20 9  153 103 
                                                                                
