 2014  817 0518 52.6 L   6.832 -73.028151.5  RSN  5 0.3 1.0LRSN                1
 GAP=251        0.75       5.7     6.5  7.6  0.1022E+02  0.1835E+01  0.1119E+01E
 Epicentro: CEPITA - SANTANDER                                                 3
 ACTION:UPD 14-09-15 21:50 OP:nd   STATUS:               ID:20140817051852 L   I
 OLDACT:REG 14-08-17 13:20 OP:spq  STATUS:               ID:20140817051812     3
 2014-08-17-0518-12M.COL___260                                                 6
 STAT SP IPHASW D HRMM SECON CODA AMPLIT PERI AZIMU VELO AIN AR TRES W  DIS CAZ7
 BAR2 SZ ES   1    519 28.82                             168   -0.30 7 31.5 213 
 BAR2 SZ I         519 29.88         2.2 0.06            162           31.5 213 
 BRR  HZ EP        519 15.37                             150    0.3910 81.4 292 
 BRR  HN ES        519 32.54                             150    0.1210 81.4 292 
 BRR  HZ I         519 36.21         1.8 0.30            147           81.4 292 
 RUS  HZ EP   1    519 16.80                             144   -0.38 7  104 183 
 RUS  HN ES   1    519 36.48                             144    0.14 7  104 183 
 RUS  HZ I         519 37.64         1.3 0.37            143            104 183 
 PTB  HZ EP   1    519 21.09                             131   -0.19 7  161 259 
 PTB  HE ES        519 43.20                             131   -0.43 9  161 259 
 PTB  HZ I         519 48.35         1.3 0.26            128            161 259 
 SPBC HN ES   1    519 46.53                             128    0.53 7  174 222 
 SPBC HZ I         519 50.92         1.5 0.23            127            174 222 
                                                                                
