 2013  617 0601 41.7 L   6.802 -73.132143.1  RSN 10 0.5 2.0LRSN                1
 GAP=189        1.00       4.1     6.4  6.8  0.4821E+01  0.1223E+02  0.4476E+01E
 Epicentro: LOS SANTOS - SANTANDER                                             3
 ACTION:UPD 14-01-08 09:55 OP:ep   STATUS:               ID:20130617060141 L   I
 OLDACT:UP  13-06-17 09:05 OP:carl STATUS:               ID:20130617055959     3
 OLDACT:REG 13-06-17 07:11 OP:carl STATUS:               ID:20130617055959     3
 2013-06-17-0559-59M.COL___261                                                 6
 STAT SP IPHASW D HRMM SECON CODA AMPLIT PERI AZIMU VELO AIN AR TRES W  DIS CAZ7
 BAR2 SZ EP   1    6 2  1.20                             170    0.15 7 23.8 193 
 BAR2 SZ ES   1    6 2 15.76                             170   -0.35 7 23.8 193 
 BAR2 SZ I         6 2 17.12        33.9 0.20            165           23.8 193 
 GIR2 SZ EP   1    6 2  1.12                             167    0.04 7 31.3 348 
 GIR2 SZ ES   1    6 2 15.31                             167   -0.87 7 31.3 348 
 GIR2 SZ I         6 2 17.60         8.2 0.10            165           31.3 348 
 BRR  HZ EP   1    6 2  3.06                             152    0.40 7 72.4 298 
 BRR  HN ES   1    6 2 20.11                             152    1.13 7 72.4 298 
 BRR  HZ I         6 2 23.16        18.6 0.30            147           72.4 298 
 RUS  HZ EP   1    6 2  5.57                             143    0.35 7  101 177 
 RUS  HN ES   1    6 2 24.00                             143    0.45 7  101 177 
 RUS  HZ I         6 2 24.62        13.0 0.28            142            101 177 
 PTB  HZ EP   1    6 2  7.71                             131   -0.90 7  149 259 
 PTB  HN ES   1    6 2 28.86                             131   -0.72 7  149 259 
 PTB  HZ I         6 2 31.15        10.4 0.32            128            149 259 
 ZAR  HZ EP   1    6 2 14.93                             122    0.80 6  205 292 
 ZAR  HN ES   1    6 2 39.71                             122    0.30 6  205 292 
 ZAR  HZ I         6 2 45.23        12.6 0.32            120            205 292 
 NOR  HZ EP   1    6 2 17.45                             118    0.00 6  236 235 
 NOR  HN ES   1    6 2 45.43                             118    0.13 6  236 235 
 NOR  HZ I         6 2 51.85         7.8 0.20            116            236 235 
 SML  HZ EP   1    6 2 17.62                             117   -0.63 6  244 335 
 SML  HN ES   1    6 2 46.54                             117   -0.20 6  244 335 
 SML  HZ I         6 2 50.58        10.6 0.10            117            244 335 
 CHI  HZ EP   1    6 2 19.29                             116   -0.05 6  249 195 
 CHI  HN ES   1    6 2 48.42                             116   -0.26 6  249 195 
 CHI  HZ I         6 2 55.20         3.1 0.32            116            249 195 
 PRA  HZ EP   1    6 2 35.36                             106    0.10 4  393 210 
 PRA  HN ES   1    6 3 16.74                             106   -0.28 4  393 210 
 PRA  HZ I         6 3 24.51         3.1 0.44            106            393 210 
                                                                                
