 2016  417 0418 53.0 L   6.810 -73.180131.6  RSN  9 0.5 1.8LRSN                1
 GAP=132        1.14       3.8     4.7  7.8 -0.5056E+01  0.1712E+02 -0.5467E+01E
 Epicentro: ZAPATOCA - SANTANDER                                               3
 ACTION:UPD 16-05-05 14:22 OP:rebc STATUS:               ID:20160417041853 L   I
 OLDACT:UP  16-04-17 22:10 OP:mh   STATUS:               ID:20160417041742     3
 OLDACT:REG 16-04-17 14:19 OP:ak   STATUS:               ID:20160417041742     3
 2016-04-17-0417-42M.COL___307                                                 6
 STAT SP IPHASW D HRMM SECON CODA AMPLIT PERI AZIMU VELO AIN AR TRES W  DIS CAZ7
 BAR2 EZ EP        419 11.18                             169    0.2610 24.1 181 
 BAR2 EZ ES        419 24.31                             169   -0.6010 24.1 181 
 BAR2 EZ I         419 27.23        21.0 0.05            168           24.1 181 
 PAM  EZ EP        419 14.13                             147    0.3310 79.0  42 
 PAM  EN ES        419 30.86                             147    0.8110 79.0  42 
 PAM  EZ I         419 33.53        13.8 0.50            153           79.0  42 
 RUS  HZ EP   1    419 15.63                             140    0.16 7  102 174 
 RUS  HN ES        419 32.95                             140   -0.0610  102 174 
 RUS  HZ I         419 36.03        47.6 1.11            143            102 174 
 PTB  HZ EP        419 17.78                             129   -0.71 9  144 258 
 PTB  HN ES        419 38.48                             129    0.08 9  144 258 
 PTB  HZ I         419 40.88         6.9 0.17            130            144 258 
 OCA  HZ EP        419 19.56                             126   -0.51 9  159 354 
 OCA  HN ES        419 40.53                             126   -0.68 9  159 354 
 OCA  HZ I         419 44.16        14.4 0.22            130            159 354 
 SPBC HZ EP        419 20.13                             126   -0.15 9  162 218 
 SPBC HN ES        419 41.58                             126    0.00 9  162 218 
 SPBC HZ I         419 50.90         4.5 0.17            127            162 218 
 ZAR  HZ EP   1    419 24.10                             120   -0.02 6  200 292 
 ZAR  HN ES        419 49.08                             120    0.66 9  200 292 
 ZAR  HZ I         419 54.80         9.5 0.26            121            200 292 
 GUY2CHZ EP   4    419 37.71                             110    2.02 0  299 234 
 GUY2CHE ES   4    420 11.55                             110    2.55 0  299 234 
 GUY2CHZ I         420 17.48         2.6 0.54                           299 234 
 CBOC HZ EP        419 39.55                             107    0.59 7  330 252 
 CBOC HN ES        420 15.07                             107    0.24 7  330 252 
 CBOC HZ I         420 26.43         1.2 0.49            109            330 252 
                                                                                
