 2012 1217 0323 24.5 L   6.754 -73.148143.3  RSN  6 0.4 2.0LRSN                1
 GAP= 95        0.94       5.5     4.7  6.6 -0.1969E+01 -0.2719E+01  0.6320E+01E
 Epicentro: LOS SANTOS - SANTANDER                                             3
 ACTION:UPD 13-01-04 14:28 OP:ep   STATUS:               ID:20121217032324 L   I
 2012-12-17-0320-00M.COL___238                                                 6
 STAT SP IPHASW D HRMM SECON CODA AMPLIT PERI AZIMU VELO AIN AR TRES W  DIS CAZ7
 BAR2 SZ EP        323 43.82                             172    0.1310 18.3 192 
 BAR2 SZ ES        323 58.59                             172   -0.1110 18.3 192 
 BAR2 SZ I         324  0.26        34.4 0.21                          18.3 192 
 BRR  HZ EP        323 45.68                             151    0.2110 73.6 302 
 BRR  HZ I         323 46.06        18.4 0.14                          73.6 302 
 BRR  HN ES        324  2.51                             151    0.6410 73.6 302 
 PAM  SZ EP        323 46.71                             149    0.0510 81.5  37 
 PAM  SZ I         323 47.08        22.2 0.20                          81.5  37 
 PAM  SN ES        324  3.44                             149   -0.5410 81.5  37 
 RUS  HZ EP        323 47.77                             145    0.1710 95.6 176 
 RUS  HN ES   1    324  5.59                             145   -0.07 7 95.6 176 
 RUS  HN I         324  7.17        11.9 0.21                          95.6 176 
 PTB  HZ EP        323 50.43                             132   -0.69 9  147 261 
 PTB  HN ES   1    324 11.60                             132   -0.32 7  147 261 
 PTB  HZ I         324 13.48        10.1 0.10                           147 261 
 TAM  HZ EP        323 52.12                             130    0.28 9  154 103 
                                                                                
