 2016 1217 0912  3.3 L   6.774 -73.161144.2  RSN  6 0.3 1.3LRSN                1
 GAP=136        0.86       4.3     3.9  6.8  0.1717E+01  0.2792E+01 -0.7566E+00E
 Epicentro: LOS SANTOS - SANTANDER                                             3
 ACTION:UPD 17-01-11 20:16 OP:rebc STATUS:               ID:20161217091203 L   I
 OLDACT:UP  16-12-17 18:46 OP:and  STATUS:               ID:20161217090745     3
 OLDACT:UP  16-12-17 18:44 OP:and  STATUS:               ID:20161217090745     3
 OLDACT:UP  16-12-17 16:54 OP:ar   STATUS:               ID:20161217090745     3
 OLDACT:UP  16-12-17 16:52 OP:ar   STATUS:               ID:20161217090745     3
 OLDACT:REG 16-12-17 13:05 OP:and  STATUS:               ID:20161217090745     3
 2016-12-17-0908-00M.COL___354                                                 6
 STAT SP IPHASW D HRMM SECON CODA AMPLIT PERI AZIMU VELO AIN AR TRES W  DIS CAZ7
 BAR2 EZ EP        912 22.68                             172   -0.0410 20.3 187 
 BAR2 EZ ES        912 37.55                             172   -0.2910 20.3 187 
 BAR2 EZ I         912 38.52         7.6 0.26            171           20.3 187 
 BRR  HZ EP        912 24.21                             152   -0.1010 71.2 301 
 BRR  HE ES        912 41.39                             152    0.7110 71.2 301 
 BRR  HZ I         912 53.58         9.0 0.24            149           71.2 301 
 PAM  EZ EP        912 25.56                             149   -0.0210 80.6  39 
 PAM  EE ES        912 42.70                             149   -0.2410 80.6  39 
 PAM  EZ I         912 44.47         5.2 0.48            153           80.6  39 
 RUS  HZ EP        912 27.01                             144    0.2710 97.9 175 
 RUS  HN ES        912 45.14                             144    0.1410 97.9 175 
 RUS  HZ I         912 46.71         1.0 0.24            151           97.9 175 
 PTB  HZ EP   4    912 28.52                             132   -1.46 0  146 260 
 PTB  HN ES        912 50.24                             132   -0.52 9  146 260 
 PTB  HZ I         912 55.52         1.9 0.52            133            146 260 
 ZAR  HZ EP   4    912 36.98                             122    1.35 0  204 293 
 ZAR  HN ES        913  0.85                             122    0.03 9  204 293 
 ZAR  HZ I         913  8.26         1.8 0.32            123            204 293 
                                                                                
