 2011 1017 0218 21.6 L   6.773 -73.094148.3  RSN  7 0.3 1.8LRSN                1
 GAP=144        0.58       3.0     5.7  4.9  0.5761E+00  0.3230E+01 -0.2216E+01E
 Epicentro: LOS SANTOS - SANTANDER                                             3
 ACTION:UPD 12-07-13 16:04 OP:ep   STATUS:               ID:20111017021821 L   I
 2011-10-17-0216-16S.COL___168                                                 6
 STAT SP IPHASW D HRMM SECON CODA AMPLIT PERI AZIMU VELO AIN AR TRES W  DIS CAZ7
 BAR2 SZ EP        218 41.46                             171   -0.0210 22.2 206 
 BAR2 SZ ES   1    218 56.71                             171   -0.31 7 22.2 206 
 BAR2 SZ I         218 58.24        15.8 0.41                          22.2 206 
 PAM  SZ EP   1    218 44.22                             152    0.23 7 76.3  35 
 PAM  SN ES   1    219  1.47                             152   -0.02 7 76.3  35 
 BRR  HZ EP        218 43.33                             151   -0.0310 77.6 298 
 BRR  HN ES   1    219  0.77                             151    0.40 7 77.6 298 
 BRR  HZ I         219  8.82         9.8 0.13                          77.6 298 
 RUS  HZ EP   1    218 45.64                             145    0.30 7 97.3 179 
 RUS  HN ES   1    219  3.73                             145   -0.16 7 97.3 179 
 RUS  HZ I         219  5.33         7.6 0.29                          97.3 179 
 OCA  SZ EP        218 50.13                             130   -0.30 9  164 351 
 OCA  SZ ES   1    219 13.23                             130    0.29 7  164 351 
 OCA  SZ I         219 17.93         7.7 0.32                           164 351 
 ZAR  HZ EP   2    218 54.07                             122   -0.77 4  210 292 
 ZAR  HZ I         219 26.58         7.9 0.21                           210 292 
 PRA  HZ EP   2    219 15.90                             107    0.69 3  392 211 
                                                                                
