 2016 1017 0450 11.7 L   6.818 -73.146149.1  RSN  8 0.4 1.4LRSN                1
 GAP=136        0.69       4.0     4.3  6.2 -0.8966E+01  0.2850E+01  0.2827E+01E
 Epicentro: LOS SANTOS - SANTANDER                                             3
 ACTION:UPD 16-11-09 19:20 OP:rebc STATUS:               ID:20161017045011 L   I
 OLDACT:UP  16-10-17 17:24 OP:and  STATUS:               ID:20161017044731     3
 OLDACT:UP  16-10-17 17:15 OP:and  STATUS:               ID:20161017044731     3
 OLDACT:REG 16-10-17 11:47 OP:and  STATUS:               ID:20161017044731     3
 2016-10-17-0448-00M.COL___359                                                 6
 STAT SP IPHASW D HRMM SECON CODA AMPLIT PERI AZIMU VELO AIN AR TRES W  DIS CAZ7
 BAR2 EZ EP     D  450 31.53                             170   -0.2210 25.3 189 
 BAR2 EZ ES   2    450 46.96                             170   -0.44 5 25.3 189 
 BAR2 EZ I         450 50.67         7.1 0.30            168           25.3 189 
 BRR  HZ EP        450 33.40                             153    0.2610 70.2 297 
 BRR  HN ES   2    450 50.86                             153    0.99 5 70.2 297 
 PAM  EZ EP        450 34.22                             152    0.0610 75.9  41 
 PAM  EN ES        450 51.67                             152   -0.0210 75.9  41 
 PAM  EZ I         450 54.06         4.3 0.30            156           75.9  41 
 RUS  HZ EP   2    450 35.52                             144   -0.38 5  103 176 
 RUS  HE ES   2    450 55.00                             144    0.21 5  103 176 
 RUS  HZ I         450 56.15         1.2 0.24            144            103 176 
 PTB  HZ EP   2    450 38.55                             133   -0.40 5  148 258 
 PTB  HN ES        450 59.64                             133   -0.58 9  148 258 
 PTB  HZ I         451  0.74         3.0 0.18            136            148 258 
 OCA  HZ EP   2    450 39.98                             131   -0.09 5  158 353 
 OCA  HN ES   2    451  2.28                             131    0.08 5  158 353 
 SPBC HZ EP        450 40.89                             129    0.31 9  165 219 
 SPBC HN ES        451  3.32                             129    0.20 9  165 219 
 SPBC HZ I         451  9.78         3.6 0.18            131            165 219 
 GUY2CHZ EP   2    450 55.60                             113    0.03 4  302 234 
 GUY2CHN ES   4    451 27.92                             113   -1.89 0  302 234 
 GUY2CHZ I         451 38.82         1.3 0.30                           302 234 
                                                                                
