 2013  917 0602  2.3 L   6.786 -73.140149.2  RSN  8 0.5 1.7LRSN                1
 GAP=237        1.14       4.9     5.9  7.3  0.8601E+01  0.7512E+01  0.6006E+01E
 Epicentro: LOS SANTOS - SANTANDER                                             3
 ACTION:UPD 13-10-22 09:23 OP:ep   STATUS:               ID:20130917055959 L   I
 OLDACT:UPD 13-09-17 10:07 OP:Migu STATUS:               ID:20130917055959 L   3
 2013-09-17-0559-59M.COL___269                                                 6
 STAT SP IPHASW D HRMM SECON CODA AMPLIT PERI AZIMU VELO AIN AR TRES W  DIS CAZ7
 BAR2 SZ EP        6 2 22.03                             171   -0.2310 22.0 192 
 BAR2 SZ ES        6 2 37.53                             171   -0.3510 22.0 192 
 BAR2 SZ I         6 2 39.15         8.1 0.28            166           22.0 192 
 BRR  HZ EP        6 2 24.11                             153    0.2710 72.5 299 
 BRR  HN ES        6 2 41.64                             153    0.9610 72.5 299 
 BRR  HZ I         6 2 43.90        12.2 0.16            150           72.5 299 
 RUS  HZ EP        6 2 26.27                             145    0.0410 99.0 176 
 RUS  HN ES        6 2 44.72                             145   -0.2110 99.0 176 
 RUS  HZ I         6 2 46.28         3.7 0.44            144           99.0 176 
 PTB  HZ EP        6 2 29.08                             133   -0.45 9  148 259 
 PTB  HN ES        6 2 50.09                             133   -0.72 9  148 259 
 PTB  HZ I         6 2 55.84        13.2 0.42            131            148 259 
 SPBC HZ EP        6 2 31.04                             130    0.10 9  162 220 
 SPBC HN ES        6 2 53.14                             130   -0.18 9  162 220 
 SPBC HZ I         6 2 57.59         5.5 0.22            128            162 220 
 ZAR  HZ EP   1    6 2 35.52                             123    0.48 6  205 292 
 ZAR  HE ES        6 3  0.34                             123   -0.28 8  205 292 
 ZAR  HZ I         6 3  5.97         7.8 0.72            123            205 292 
 NOR  HE ES        6 3  6.50                             119    0.36 8  234 235 
 CHI  HZ EP        6 2 39.74                             118   -0.26 8  247 195 
 CHI  HN ES        6 3 10.32                             118    0.88 8  247 195 
 CHI  HZ I         6 3 19.10         2.4 0.48            118            247 195 
                                                                                
