 2013 1117 0213 19.8 L   6.758 -73.158139.2  RSN  9 0.4 1.6LRSN                1
 GAP=137        0.88       3.3     3.8  4.9 -0.4602E+01  0.1654E+01  0.2754E+01E
 Epicentro: LOS SANTOS - SANTANDER                                             3
 ACTION:UPD 14-01-09 16:28 OP:ep   STATUS:               ID:20131117021319 L   I
 OLDACT:REG 13-11-17 08:57 OP:stll STATUS:               ID:20131117020818     3
 2013-11-17-0208-18M.COL___220                                                 6
 STAT SP IPHASW D HRMM SECON CODA AMPLIT PERI AZIMU VELO AIN AR TRES W  DIS CAZ7
 BAR2 SZ EP        213 38.49                             172   -0.1010 18.5 188 
 BAR2 SZ I         213 38.79        12.3 0.32            169           18.5 188 
 BAR2 SZ ES        213 53.10                             172   -0.1110 18.5 188 
 BRR  HZ EP        213 40.51                             151    0.1610 72.4 302 
 BRR  HZ I         213 40.65         5.6 0.26            153           72.4 302 
 BRR  HN ES        213 56.69                             151    0.3410 72.4 302 
 PAM  SZ IP     C  213 41.37                             148   -0.2810 81.9  38 
 PAM  SN ES        213 58.52                             148   -0.1410 81.9  38 
 PAM  SZ I         214  0.55         5.9 0.58            153           81.9  38 
 RUS  HZ EP        213 42.34                             144   -0.2810 96.0 175 
 RUS  HE ES        214  0.31                             144   -0.0710 96.0 175 
 RUS  HZ I         214  4.14         2.6 0.18            144           96.0 175 
 PTB  HZ EP        213 45.33                             131   -0.75 9  146 261 
 PTB  HN ES        214  6.48                             131   -0.06 9  146 261 
 PTB  HZ I         214 13.79         8.4 0.50            132            146 261 
 CAPV BZ EP        213 47.80                             129    0.66 9  154  37 
 SPBC HZ EP        213 47.28                             128   -0.13 9  159 220 
 SPBC HZ I         213 47.93         7.9 0.10            129            159 220 
 SPBC HN ES        214  9.41                             128    0.50 9  159 220 
 CHI  HZ EP        213 56.72                             116    0.07 8  244 195 
 CHI  HN ES        214 25.70                             116    0.34 8  244 195 
 CHI  HZ I         214 34.83         1.4 0.36            117            244 195 
 GUY2CHZ EP        214  3.26                             111    0.54 7  297 235 
 GUY2CHN ES        214 35.75                             111   -0.41 7  297 235 
 GUY2CHZ I         214 45.37         3.0 0.72                           297 235 
                                                                                
