 2014 1217 0828  9.5 L   6.748 -73.097141.9  RSN  6 0.3 1.2LRSN                1
 GAP=145        0.71       5.0     5.2  6.3  0.1118E+02  0.1221E+02  0.4911E+01E
 Epicentro: LOS SANTOS - SANTANDER                                             3
 ACTION:UPD 15-02-10 17:04 OP:nd   STATUS:               ID:20141217082809 L   I
 OLDACT:DUP 14-12-17 17:18 OP:spq  STATUS:               ID:20141217081741d    3
 2014-12-17-0817-40M.COL___290                                                 6
 STAT SP IPHASW D HRMM SECON CODA AMPLIT PERI AZIMU VELO AIN AR TRES W  DIS CAZ7
 BAR2 EZ EP        828 28.71                             172    0.1510 19.6 209 
 BAR2 EZ ES   1    828 43.16                             172   -0.29 7 19.6 209 
 BAR2 EZ I         828 44.46         4.9 0.22            164           19.6 209 
 PAM  SN ES   1    828 48.14                             150   -0.29 7 78.8  34 
 PAM  SZ I         828 49.10         3.2 0.18            128           78.8  34 
 BRR  HZ EP        828 30.64                             149   -0.0110 78.8 300 
 BRR  HE ES        828 47.59                             149    0.4210 78.8 300 
 BRR  HZ I         828 51.07         4.8 0.32            143           78.8 300 
 RUS  HZ EP   1    828 32.70                             145    0.29 7 94.6 179 
 RUS  HN ES   1    828 50.21                             145   -0.09 7 94.6 179 
 RUS  HZ I         828 51.94         1.2 0.26            142           94.6 179 
 PTB  HZ EP   1    828 35.92                             130   -0.61 7  152 261 
 ZAR  HZ EP   1    828 42.83                             120    0.41 6  211 293 
 ZAR  HN ES        829  7.82                             120   -0.30 8  211 293 
 ZAR  HZ I         829 10.86         1.8 0.36            114            211 293 
                                                                                
