 2013  317 0652 29.7 L   6.742 -73.173155.5  RSN  4 0.3 1.3LRSN                1
 GAP=230        0.62       7.7     6.4  7.2  0.1998E+02  0.1813E+01  0.7766E+01E
 Epicentro: VILLANUEVA - SANTANDER                                             3
 ACTION:UPD 13-04-09 14:03 OP:ep   STATUS:               ID:20130317065229 L   I
 2013-03-17-0650-00M.COL___244                                                 6
 STAT SP IPHASW D HRMM SECON CODA AMPLIT PERI AZIMU VELO AIN AR TRES W  DIS CAZ7
 BAR2 SZ EP   1    652 50.05                             174   -0.31 8 16.6 184 
 BAR2 SZ ES   2    653  5.77                             174   -0.73 5 16.6 184 
 BAR2 SZ I         653  6.23         8.7 0.38            168           16.6 184 
 BRR  HZ EP   1    652 52.01                             154    0.09 8 72.0 304 
 BRR  HE ES   1    653  9.63                             154    0.36 8 72.0 304 
 BRR  HZ I         653 12.39         3.3 0.42            151           72.0 304 
 RUS  HZ EP   1    652 54.32                             147    0.34 8 94.5 174 
 RUS  HN ES   2    653 13.29                             147    0.35 5 94.5 174 
 RUS  HZ I         653 14.30         1.9 0.42            147           94.5 174 
 PTB  HZ EP        652 56.96                             135   -0.1310  144 261 
 PTB  HE ES   1    653 18.37                             135   -0.12 7  144 261 
 PTB  HZ I         653 23.18         2.7 0.46            133            144 261 
                                                                                
