 2016  417 0932  0.0 L   6.839 -73.500 13.1  RSN  6 0.5 1.5LRSN                1
 GAP=192        1.15       4.7     3.5  5.9  0.7569E+01  0.9942E+01 -0.2664E+01E
 Epicentro: SAN VICENTE DE CHUCURI - SANTANDER                                 3
 ACTION:UPD 16-05-05 14:22 OP:rebc STATUS:               ID:20160417092751dL   I
 OLDACT:DUP 16-04-18 14:09 OP:drio STATUS:               ID:20160417092751dL   3
 2016-04-17-0927-50M.COL___300                                                 6
 STAT SP IPHASW D HRMM SECON CODA AMPLIT PERI AZIMU VELO AIN AR TRES W  DIS CAZ7
 BAR2 EZ EP        932  7.82                             103    0.0610 44.4 128 
 BAR2 EZ ES        932 13.88                             103    0.0910 44.4 128 
 BAR2 EZ I         932 15.09        15.5 0.26             95           44.4 128 
 PTB  HZ EP        932 16.53                              95   -0.9610  111 253 
 PTB  HE ES        932 31.72                              95    0.6110  111 253 
 PTB  HZ I         932 32.10        11.1 0.18             92            111 253 
 RUS  HZ EP        932 18.86                              95    0.3510  114 156 
 RUS  HN ES        932 32.48                              95   -0.4410  114 156 
 RUS  HZ I         932 43.10         3.2 0.42             92            114 156 
 SPBC HZ EP   4    932 24.53                              56    1.70 0  146 206 
 SPBC HN ES        932 40.89                              56    0.27 9  146 206 
 SPBC HZ I         932 44.04        15.4 0.20             92            146 206 
 ZAR  HZ EP        932 25.67                              56    0.33 9  167 296 
 ZAR  HE ES        932 44.92                              56   -0.16 9  167 296 
 ZAR  HZ I         932 45.83        15.8 0.62             91            167 296 
 HEL  HZ EP        932 34.77                              56    0.36 8  236 252 
 HEL  HN ES        933  0.71                              56   -0.51 8  236 252 
 HEL  HZ I         933  2.30         4.1 0.28             56            236 252 
                                                                                
