 2011  617 0252 44.6 L   6.762 -73.065142.8  RSN  7 0.2 1.5LRSN                1
 GAP=168        0.42       3.3     7.8  4.4  0.5352E+01 -0.1065E+02 -0.5453E+01E
 Epicentro: LOS SANTOS - SANTANDER                                             3
 ACTION:UP  11-07-14 19:05 OP:ep   STATUS:               ID:20110617025244 L   I
 2011-06-17-0247-17S.COL___135                                                 6
 STAT SP IPHASW D HRMM SECON CODA AMPLIT PERI AZIMU VELO SNR AR TRES W  DIS CAZ7
 BAR2 SZ EP   2    253  3.70                             171    -0.2 5   23 215 
 BAR2 SZ ES   1    253 18.71                             171    -0.2 7   23 215 
 BAR2 SZ I         253 20.50         5.8 0.29                            23 215 
 BTL  SZ EP   2    253  4.31                             168     0.3 5   28 308 
 GIR2 SZ EP   1    253  4.27                             164     0.2 7   38 338 
 GIR2 SZ ES   1    253 19.43                             164     0.1 7   38 338 
 BRR  HZ EP   1    253  5.92                             149    -0.1 7   81 298 
 BRR  HE ES   2    253 22.98                             149     0.2 5   81 298 
 BRR  HZ I         253 23.92         6.6 0.12                            81 298 
 RUS  HZ EP   2    253  7.92                             144     0.2 5   96 181 
 RUS  HE ES   2    253 25.58                             144    -0.2 5   96 181 
 GRA  SZ EP   1    253  9.90                             136     0.2 7  127  13 
 GRA  SZ I         253 35.31         3.6 0.65                           127  13 
 OCA  SZ EP   1    253 12.94                             128    -0.3 7  166 350 
 OCA  SZ I         253 34.62         3.5 0.49                           166 350 
 OCA  SZ ES   2    253 35.25                             128    -0.3 5  166 350 
                                                                                
