 2014  917 0916  9.8 L   6.804 -73.129144.5  RSN 11 0.5 2.0LRSN                1
 GAP=138        1.14       3.3     4.5  6.4 -0.1882E+01  0.9218E+01 -0.4718E+00E
 Epicentro: LOS SANTOS - SANTANDER                                             3
 ACTION:UPD 14-10-03 23:05 OP:nd   STATUS:               ID:20140917091609 L   I
 OLDACT:REG 14-09-17 13:12 OP:carl STATUS:               ID:20140917090816     3
 2014-09-17-0908-16M.COL___286                                                 6
 STAT SP IPHASW D HRMM SECON CODA AMPLIT PERI AZIMU VELO AIN AR TRES W  DIS CAZ7
 BAR2 SZ EP        916 29.38                             170    0.0610 24.2 194 
 BAR2 SZ ES        916 43.98                             170   -0.5410 24.2 194 
 BAR2 SZ I         916 45.51        23.5 0.22            169           24.2 194 
 BRR  HZ EP        916 31.24                             152    0.3210 72.6 298 
 BRR  HN ES        916 47.97                             152    0.6010 72.6 298 
 BRR  HZ I         916 52.84        15.1 0.14            151           72.6 298 
 PAM  SZ IP     C  916 32.30                             151    0.4910 75.8  39 
 PAM  SN ES        916 48.92                             151   -0.0410 75.8  39 
 PAM  SZ I         916 51.58         8.6 0.46            155           75.8  39 
 RUS  HZ EP        916 33.54                             143    0.0710  101 177 
 RUS  HN ES        916 51.85                             143   -0.0710  101 177 
 PTB  HZ EP        916 36.29                             131   -0.57 9  150 259 
 PTB  HE ES        916 57.48                             131   -0.47 9  150 259 
 PTB  HZ I         917  1.33        11.4 0.10            132            150 259 
 SPBC HZ EP        916 38.45                             128    0.08 9  165 219 
 SPBC HN ES        917  1.17                             128    0.53 9  165 219 
 SPBC HZ I         917  8.42        11.5 0.28            130            165 219 
 ZAR  HZ EP        916 42.27                             122   -0.08 8  206 292 
 ZAR  HE ES        917  8.48                             122    0.77 8  206 292 
 ZAR  HZ I         917 12.75        11.9 0.36            123            206 292 
 NOR  HN ES        917 13.02                             118   -0.61 8  236 235 
 SML  HZ EP        916 45.72                             117   -0.70 8  244 335 
 SML  HN ES        917 14.34                             117   -0.62 8  244 335 
 SML  HZ I         917 17.21        11.7 0.24            119            244 335 
 CHI  HN ES        917 16.71                             117   -0.27 8  250 196 
 CHI  HZ I         917 23.59         3.4 0.26            119            250 196 
 GUY2CHZ EP        916 54.51                             112    0.93 7  303 235 
 GUY2CHE ES        917 27.57                             112   -0.13 7  303 235 
 GUY2CHZ I         917 34.66         4.8 0.30                           303 235 
                                                                                
