 2010  717 0349 52.0 L   6.822 -73.131147.7  RSN  7 0.4 1.4LRSN                1
 GAP=160        0.68       4.3     8.4  7.5 -0.3846E+01 -0.1157E+02  0.1146E+01E
 Epicentro: LOS SANTOS - SANTANDER                                             3
 ACTION:UPD 10-12-01 15:18 OP:pat  STATUS:               ID:20100717034952 L   I
 2010-07-17-0346-04S.COL___120                                                 6
 STAT SP IPHASW D HRMM SECON CODA AMPLIT PERI AZIMU VELO AIN AR TRES W  DIS CAZ7
 BAR2 SZ EP   2    350 12.50                             169     0.5 5   26 193 
 BAR2 SZ ES   2    350 27.44                             169    -0.1 5   26 193 
 BAR2 SZ I         350 28.01        10.7 0.33                            26 193 
 GIR2 SZ ES   2    350 27.37                             168     0.0 5   29 346 
 BRR  HZ IP     C  350 13.58                             152     0.210   72 296 
 BRR  HZ I         350 15.28        10.7 0.13                            72 296 
 BRR  HN ES   1    350 30.18                             152     0.1 7   72 296 
 RUS  HZ EP   1    350 15.79                             143    -0.4 7  103 177 
 RUS  HZ I         350 17.02         1.6 0.45                           103 177 
 RUS  HN ES   2    350 34.90                             143    -0.1 5  103 177 
 GUE  SZ EP   2    350 16.55                             140    -0.2 5  114  12 
 GUE  SZ I         350 36.99         1.8 0.14                           114  12 
 GRA  SZ EP   2    350 18.05                             138     0.8 5  123  17 
 GRA  SZ ES   1    350 36.88                             138     0.0 7  123  17 
 GRA  SZ I         350 38.72         4.0 0.26                           123  17 
 OCA  SZ EP   2    350 19.96                             130    -0.3 5  158 352 
 OCA  SZ ES   2    350 41.59                             130    -0.7 5  158 352 
 OCA  SZ I         350 57.66         4.4 0.53                           158 352 
                                                                                
