 2011  717 0414 22.8 L   6.764 -73.093143.8  RSN  9 0.2 2.2LRSN                1
 GAP=145        0.47       2.1     3.5  3.7 -0.3182E+01  0.2253E+01 -0.1794E+00E
 Epicentro: LOS SANTOS - SANTANDER                                             3
 ACTION:UPD 12-07-25 14:01 OP:epov STATUS:               ID:20110717041422 L   I
 2011-07-17-0412-07S.COL___143                                                 6
 STAT SP IPHASW D HRMM SECON CODA AMPLIT PERI AZIMU VELO AIN AR TRES W  DIS CAZ7
 BAR2 SZ EP        414 42.03                             171   -0.0910 21.4 207 
 BAR2 SZ ES   1    414 57.01                             171   -0.21 7 21.4 207 
 BAR2 SZ I         414 57.72        31.9 0.22                          21.4 207 
 BTL  SZ EP   1    414 42.21                             169    0.00 7 25.7 312 
 PAM  SZ EP   1    414 45.20                             151    0.45 7 77.1  34 
 PAM  SN ES   1    415  1.95                             151    0.05 7 77.1  34 
 BRR  HZ EP   1    414 43.99                             150   -0.12 7 78.2 299 
 BRR  HN ES   1    415  0.92                             150    0.15 7 78.2 299 
 BRR  HZ I         415  3.98        38.8 0.13                          78.2 299 
 RUS  HZ EP   1    414 46.01                             145   -0.01 7 96.4 179 
 RUS  HN ES   1    415  4.10                             145   -0.06 7 96.4 179 
 RUS  HZ I         415  5.71        10.0 0.41                          96.4 179 
 BRI  SZ EP   1    414 46.79                             140    0.18 7  110  17 
 BRI  SZ ES   1    415  5.02                             140   -0.19 7  110  17 
 BRI  SZ I         415 10.59        31.2 0.52                           110  17 
 GRA  SZ EP   1    414 48.06                             136    0.04 7  128  14 
 GRA  SZ ES   1    415  8.01                             136    0.29 7  128  14 
 GRA  SZ I         415  8.63        29.7 0.39                           128  14 
 OCA  SZ EP   1    414 50.81                             128   -0.56 7  165 351 
 OCA  SZ ES   1    415 13.59                             128   -0.10 7  165 351 
 OCA  SZ I         415 15.98        31.3 0.38                           165 351 
 NOR  SZ EP   1    414 58.57                             118   -0.08 6  237 236 
 NOR  SN ES   1    415 26.97                             118    0.33 6  237 236 
                                                                                
