 2016 1117 0539  3.8 L   6.854 -73.073151.1  RSN  5 0.2 1.3LRSN                1
 GAP=165        0.65       6.3     3.5  5.2  0.3222E+00 -0.3243E+00 -0.5051E+01E
 Epicentro: LOS SANTOS - SANTANDER                                             3
 ACTION:UPD 17-10-26 21:09 OP:lp   STATUS:               ID:20161117053903 L   I
 OLDACT:REG 16-11-17 12:45 OP:and  STATUS:               ID:20161117053739     3
 2016-11-17-0538-00M.COL___343                                                 6
 STAT SP IPHASW D HRMM SECON CODA AMPLIT PERI AZIMU VELO AIN AR TRES W  DIS CAZ7
 BAR2 EZ EP        539 23.86                             168   -0.3810 31.4 203 
 BAR2 EZ ES        539 40.41                             168    0.2110 31.4 203 
 PAM  EZ EP        539 26.46                             155    0.4210 67.7  38 
 PAM  EN ES        539 43.16                             155   -0.2410 67.7  38 
 PAM  EZ I         539 46.20         3.0 0.31            156           67.7  38 
 BRR  HZ EP        539 25.75                             152   -0.0310 75.9 292 
 BRR  HE ES        539 42.97                             152    0.0410 75.9 292 
 BRR  HZ I         539 44.80         3.1 0.14            149           75.9 292 
 PTB  HZ EP   9    539 30.82                             131   -1.19 0  157 257 
 PTB  HN ES        539 52.83                                   -0.01 9  157 257 
 PTB  HZ I         539 59.03         1.7 0.25            131            157 257 
 ZAR  HE ES        540  3.12                             123   -0.01 8  209 290 
 ZAR  HZ I         540  7.85         3.8 0.27            122            209 290 
                                                                                
