 2012  117 0508 34.8 L   6.773 -73.145142.3  RSN  6 0.3 2.3LRSN                1
 GAP=138        0.83       4.8     4.2  6.2 -0.3585E+00  0.5932E+01  0.5569E+00E
 Epicentro: LOS SANTOS - SANTANDER                                             3
 ACTION:UP  12-02-03 08:18 OP:REBC STATUS:               ID:20120117050834 L   I
 2012-01-17-0500-00M.COL___188                                                 6
 STAT SP IPHASW D HRMM SECON CODA AMPLIT PERI AZIMU VELO SNR AR TRES W  DIS CAZ7
 BAR2 SZ EP        5 8 54.17                             171     0.210   20 192 
 BAR2 SZ ES        5 9  8.76                             171    -0.110   20 192 
 BAR2 SZ I         5 9 10.22        24.6 0.32                            20 192 
 BRR  HZ IP     C  5 8 55.91                             151     0.310   73 301 
 BRR  HE ES        5 9 12.44                             151     0.510   73 301 
 BRR  HE I         5 9 16.69        67.8 0.18                            73 301 
 PAM  SZ EP        5 8 56.82                             149     0.010   80  38 
 PAM  SN ES        5 9 13.59                             149    -0.410   80  38 
 RUS  HZ EP   1    5 8 58.33                             144     0.3 7   98 176 
 RUS  HE ES   1    5 9 15.99                             144    -0.1 7   98 176 
 PTB  HZ EP        5 9  0.94                             131    -0.5 9  147 260 
 PTB  HN ES   1    5 9 21.96                             131    -0.3 7  147 260 
 ZAR  HZ EP   2    5 9  7.35                             121     0.2 4  205 293 
 ZAR  HE ES   1    5 9 32.03                             121    -0.3 6  205 293 
 ZAR  HZ I         5 9 38.41        16.2 0.52                           205 293 
                                                                                
