 2016  317 1630 35.5 L   6.795 -73.150143.7  RSN  8 0.3 1.7LRSN                1
 GAP=136        0.69       2.6     2.9  4.4 -0.8955E+00  0.4747E+01  0.9786E+00E
 Epicentro: LOS SANTOS - SANTANDER                                             3
 ACTION:UPD 16-05-13 21:25 OP:cam  STATUS:               ID:20160317163035 L   I
 OLDACT:REG 16-03-17 21:21 OP:cara STATUS:               ID:20160317162746     3
 2016-03-17-1627-46M.COL___303                                                 6
 STAT SP IPHASW D HRMM SECON CODA AMPLIT PERI AZIMU VELO AIN AR TRES W  DIS CAZ7
 BAR2 EZ IP       1630 54.82                             171   -0.0210 22.7 189 
 BAR2 EZ ES       1631  9.60                             171   -0.3510 22.7 189 
 BAR2 EZ I        1631 13.17         8.2 0.46            168           22.7 189 
 PAM  EZ IP       1630 57.80                             150    0.2910 78.1  39 
 PAM  EZ I        1630 57.83         6.4 0.24            155           78.1  39 
 PAM  EN ES       1631 14.93                             150    0.2210 78.1  39 
 RUS  HZ EP       1630 58.58                             143   -0.4010  100 176 
 RUS  HE ES       1631 17.44                             143    0.1210  100 176 
 RUS  HZ I        1631 18.41         5.8 0.26            144            100 176 
 PTB  HZ EP       1631  1.96                             132   -0.26 9  147 259 
 PTB  HN ES       1631 23.23                             132    0.14 9  147 259 
 PTB  HZ I        1631 24.79         8.3 0.16            131            147 259 
 SPBC HZ EP       1631  3.79                             129    0.05 9  162 219 
 SPBC HN ES       1631 25.54                             129   -0.26 9  162 219 
 SPBC HZ I        1631 31.54         6.3 0.10            129            162 219 
 ZAR  HZ EP       1631  7.28                             122   -0.49 9  204 292 
 ZAR  HN ES       1631 33.25                             122    0.29 9  204 292 
 ZAR  HZ I        1631 39.85         9.6 0.28            123            204 292 
 CHI  HZ EP       1631 13.18                             117    0.20 8  248 195 
 CHI  HN ES       1631 42.66                             117    0.42 8  248 195 
 CHI  HZ I        1631 51.74         2.2 0.36            118            248 195 
 GUY2CHZ EP       1631 18.96                             112    0.05 7  300 235 
 GUY2CHN ES       1631 53.10                             112    0.31 7  300 235 
 GUY2CHZ I        1632  0.62         2.6 0.56                           300 235 
                                                                                
