 2016 1117 1412 34.2 L   6.839 -73.121148.0  RSN 17 0.5 2.6LRSN                1
 GAP= 67        1.24       4.5     3.6  6.2 -0.1856E+01  0.4359E+01  0.1041E+02E
 Epicentro: LOS SANTOS - SANTANDER                                             3
 ACTION:UPD 17-10-26 21:09 OP:lp   STATUS:               ID:20161117141234 L   I
 OLDACT:UP  16-11-17 23:22 OP:edw  STATUS:               ID:20161117140746     3
 OLDACT:UP  16-11-17 23:16 OP:edw  STATUS:               ID:20161117140746     3
 OLDACT:REG 16-11-17 20:18 OP:edw  STATUS:               ID:20161117140746     3
 2016-11-17-1408-00M.COL___334                                                 6
 STAT SP IPHASW D HRMM SECON CODA AMPLIT PERI AZIMU VELO AIN AR TRES W  DIS CAZ7
 BAR2 EZ IP     C 1412 54.03                             169   -0.1410 28.1 194 
 BAR2 EZ ES       1413  9.65                             169   -0.1210 28.1 194 
 BAR2 EZ I        1413 11.72        79.8 0.52            166           28.1 194 
 BRR  HZ IP     C 1412 55.80                             153    0.2210 71.7 294 
 BRR  HN ES       1413 12.57                             153    0.2810 71.7 294 
 BRR  HZ I        1413 13.36        70.0 0.12            151           71.7 294 
 PAM  EZ EP       1412 56.80                             153    0.4710 72.4  40 
 PAM  EN ES       1413 13.75                             153    0.1310 72.4  40 
 PAM  EZ I        1413 16.50        36.9 0.22            157           72.4  40 
 PTB  HZ EP   9   1413  0.69                             132   -0.94 0  151 257 
 PTB  HN ES       1413 21.95                             132   -0.16 9  151 257 
 PTB  HZ I        1413 24.32        78.3 0.10            131            151 257 
 TAM  HZ IP     D 1413  2.46                             131    0.57 9  154 107 
 TAM  HE ES       1413 23.18                             131   -0.33 9  154 107 
 TAM  HZ I        1413 24.67        31.6 0.30            134            154 107 
 ZAR  HZ EP       1413  6.86                             123    0.01 9  205 291 
 ZAR  HN ES       1413 31.85                             123   -0.50 9  205 291 
 ZAR  HZ I        1413 37.40        50.9 0.23            123            205 291 
 NOR  HZ EP       1413 10.15                             118   -0.37 8  239 234 
 NOR  HE ES       1413 38.37                             118   -0.52 8  239 234 
 NOR  HZ I        1413 46.24        27.9 0.20            118            239 234 
 CHI  HZ EP       1413 12.63                             117    0.12 8  253 196 
 CHI  HN ES       1413 41.69                             117   -0.73 8  253 196 
 CHI  HZ I        1413 46.61        12.3 0.22            117            253 196 
 URE  HZ EP   4   1413 14.21                             114   -1.24 0  285 291 
 URE  HN ES   4   1413 49.43                             114    1.78 0  285 291 
 URE  HZ I        1413 54.10        28.7 0.34            114            285 291 
 PTGC HZ EP       1413 17.51                             112   -0.95 7  312 159 
 PTGC HN ES   4   1413 50.59                             112   -2.43 0  312 159 
 PTGC HZ I        1413 50.89        21.2 0.40            113            312 159 
 LL6C HZ EP   4   1413  0.50                             111   -19.0 0  321 357 
 LL6C HE ES   4   1413 35.10                             111   -19.7 0  321 357 
 ELA  HZ EP   4   1413 23.60                             110    1.94 0  334 229 
 ELA  HN ES       1413 59.77                             110    1.06 7  334 229 
 ELA  HZ I        1414  9.60        19.3 0.40            110            334 229 
 CBOC HZ EP       1413 22.30                             110    0.68 7  338 252 
 CBOC HN ES       1413 58.63                             110    0.00 7  338 252 
 CBOC HZ I        1414 10.08        11.6 0.34            110            338 252 
 ANIL HZ EP   4   1413 26.29                             108    1.66 0  362 224 
 ANIL HN ES   4   1414  6.42                             108    2.43 0  362 224 
 PRA  HZ EP       1413 27.95                             107   -0.40 6  397 210 
 PRA  HN ES       1414 10.61                             107   -0.01 6  397 210 
 PRA  HZ I        1414 15.84        18.5 0.54            107            397 210 
 ORTC HZ EP       1413 28.83                             106    0.08 6  400 216 
 ORTC HN ES       1414 11.90                             106    0.57 6  400 216 
 ORTC HZ I        1414 16.74        11.7 0.38            107            400 216 
 SJC  HZ EP       1413 28.41                             106   -1.14 6  407 326 
 SJC  HN ES   4   1414  9.15                             106   -3.60 0  407 326 
 SJC  HZ I        1414 12.71        10.6 0.34            107            407 326 
 PAL  HZ EP       1413 30.20                             106    0.27 6  410 239 
 PAL  HN ES       1414 13.85                             106    0.43 6  410 239 
 PAL  HZ I        1414 18.59        11.8 0.52            106            410 239 
 CRJC HZ EP   9   1413 34.24                             104   -1.96 0  463   3 
 CRJC HE ES       1414 19.60                                   -3.03 5  463   3 
 CRJC HZ I        1414 23.88         8.2 0.72            105            463   3 
                                                                                
