 2016  117 1711 22.8 L   6.834 -73.201140.0  RSN 13 0.3 2.1LRSN                1
 GAP=128        1.18       2.9     4.4  6.3 -0.2145E+01  0.8754E+01  0.1702E-02E
 Epicentro: ZAPATOCA - SANTANDER                                               3
 ACTION:UPD 16-03-09 23:26 OP:cam  STATUS:               ID:20160117171122 L   I
 OLDACT:UP  16-02-23 20:53 OP:AR   STATUS:               ID:20160117171122 L   3
 OLDACT:UP  16-01-17 22:37 OP:drio STATUS:               ID:20160117170748     3
 OLDACT:REG 16-01-17 20:13 OP:drio STATUS:               ID:20160117170748     3
 2016-01-17-1707-48M.COL___328                                                 6
 STAT SP IPHASW D HRMM SECON CODA AMPLIT PERI AZIMU VELO AIN AR TRES W  DIS CAZ7
 BAR2 EZ EP       1711 41.84                             168    0.0110 26.8 176 
 BAR2 EZ ES       1711 56.66                             168   -0.0110 26.8 176 
 BAR2 EZ I        1712  3.31        10.7 0.26            169           26.8 176 
 PAM  EZ EP       1711 44.66                             149    0.1610 78.7  45 
 PAM  EN ES       1712  1.65                             149    0.2410 78.7  45 
 PAM  EZ I        1712  3.99        12.5 0.52            155           78.7  45 
 RUS  HZ EP       1711 46.33                             141    0.0010  105 173 
 RUS  HN ES       1712  4.62                             141   -0.0510  105 173 
 PTB  HZ EP       1711 48.45                             132   -0.39 9  143 257 
 PTB  HN ES       1712  8.96                             132   -0.19 9  143 257 
 PTB  HZ I        1712 11.99        18.5 0.14            133            143 257 
 OCA  HZ EP       1711 50.39                             129    0.13 9  156 355 
 OCA  HN ES       1712 11.26                             129   -0.42 9  156 355 
 OCA  HZ I        1712 16.68        38.5 0.32            133            156 355 
 SPBC HZ EP       1711 51.18                             128    0.38 9  162 216 
 SPBC HN ES       1712 12.50                             128   -0.14 9  162 216 
 SPBC HZ I        1712 17.27        13.6 0.24            130            162 216 
 ZAR  HZ EP       1711 54.40                             122    0.25 9  197 292 
 ZAR  HN ES       1712 19.57                             122    0.97 9  197 292 
 ZAR  HZ I        1712 25.65        14.4 0.24            124            197 292 
 NOR  HZ EP       1711 57.71                             117   -0.21 8  232 233 
 NOR  HE ES       1712 25.53                             117    0.22 8  232 233 
 NOR  HZ I        1712 31.96         8.9 0.56            120            232 233 
 SML  HZ EP       1711 58.28                             117   -0.19 8  238 336 
 SML  HN ES       1712 25.64                             117   -0.65 8  238 336 
 CHI  HZ EP       1712  0.57                             115    0.14 8  251 194 
 CHI  HN ES       1712 29.78                             115    0.00 8  251 194 
 CHI  HZ I        1712 36.81         3.6 0.36            119            251 194 
 HEL  HZ EP   9   1712  3.34                             114    1.15 0  267 255 
 HEL  HE ES       1712 31.97                             114   -2.08 8  267 255 
 HEL  HZ I        1712 39.77         8.9 0.30            116            267 255 
 GUY2CHZ EP       1712  5.26                             111   -0.59 7  298 233 
 GUY2CHE ES   4   1712 40.54                             111    1.12 0  298 233 
 GUY2CHZ I        1712 46.23         5.8 0.34                           298 233 
 PRA  HZ EP       1712 16.65                             105    0.47 6  392 209 
 PRA  HN ES       1712 57.54                             105   -0.27 6  392 209 
 PRA  HZ I        1713  3.77         4.4 0.26            108            392 209 
                                                                                
