 2013  717 1911 23.6 L   6.637 -73.244140.0  RSN  4 0.1 1.8LRSN                1
 GAP=171        0.39       4.7     3.0  4.1  0.3828E+01  0.2974E+01 -0.1570E+01E
 Epicentro: BARICHARA - SANTANDER                                              3
 ACTION:UPD 13-08-12 10:38 OP:ep   STATUS:               ID:20130717191123 L   I
 OLDACT:REG 13-07-17 15:27 OP:mh   STATUS:               ID:20130717190959     3
 2013-07-17-1909-59M.COL___267                                                 6
 STAT SP IPHASW D HRMM SECON CODA AMPLIT PERI AZIMU VELO AIN AR TRES W  DIS CAZ7
 BAR2 SZ EP   1   1911 42.23                             176   -0.07 8 8.38 126 
 BAR2 SZ ES   1   1911 56.87                             176   -0.04 8 8.38 126 
 BAR2 SZ I        1911 58.28        11.3 0.20            178           8.38 126 
 BRR  HZ EP   1   1911 44.09                             151   -0.15 8 73.4 315 
 BRR  HN ES   1   1912  0.57                             151    0.22 8 73.4 315 
 BRR  HN I        1912  1.67        37.6 0.24            149           73.4 315 
 PTB  HZ EP   1   1911 48.97                             134    0.09 7  135 265 
 PTB  HN ES       1912  8.62                             134   -0.0010  135 265 
 PTB  HZ I        1912 12.03         4.8 0.48            133            135 265 
 ZAR  HZ EP   1   1911 55.70                             121    0.27 7  202 298 
 ZAR  HE ES       1912 20.09                             121   -0.18 9  202 298 
 ZAR  HZ I        1912 25.58         3.6 0.30            122            202 298 
                                                                                
