 2010 1217 1254 20.9 L   6.770 -73.010138.9  RSN  5 0.3 1.8LRSN                1
 GAP=174        0.86       4.8    10.7  9.1  0.7002E+01 -0.3951E+02 -0.1264E+02E
 Epicentro: CEPITA - SANTANDER                                                 3
 ACTION:UP  11-01-14 15:25 OP:pat  STATUS:               ID:20101217125420 L   I
 2010-12-17-1251-06S.COL___136                                                 6
 STAT SP IPHASW D HRMM SECON CODA AMPLIT PERI AZIMU VELO SNR AR TRES W  DIS CAZ7
 BAR2 SZ EP       1254 39.74                             169    -0.110   28 224 
 BAR2 SZ ES   1   1254 54.59                             169     0.0 7   28 224 
 BAR2 SZ I        1254 56.45        17.0 0.46                            28 224 
 BRR  HZ EP       1254 42.03                             147    -0.210   86 296 
 BRR  HN ES   1   1254 59.15                             147     0.2 7   86 296 
 BRR  HZ I        1255  0.07        21.8 0.23                            86 296 
 RUS  HZ EP       1254 43.73                             143     0.010   97 185 
 RUS  HN ES   2   1255  1.39                             143    -0.2 5   97 185 
 RUS  HZ I        1255  3.64         6.3 0.22                            97 185 
 GRA  SZ EP       1254 46.12                             135     0.610  125  10 
 GRA  SZ ES   2   1255  3.88                             135    -0.8 5  125  10 
 GRA  SZ I        1255  8.23        10.9 0.33                           125  10 
 OCA  SZ EP       1254 48.95                             127    -0.3 9  166 348 
 OCA  SZ ES   2   1255 11.30                             127     0.0 5  166 348 
 OCA  SZ I        1255 15.66         9.3 0.29                           166 348 
                                                                                
