 2013  517 1851  2.1 L   6.788 -73.125151.3  RSN 15 0.5 2.3LRSN                1
 GAP=140        0.92       3.2     4.4  5.5 -0.3770E+01  0.7062E+01  0.8133E-01E
 Epicentro: LOS SANTOS - SANTANDER                                             3
 ACTION:UPD 13-06-20 09:51 OP:ep   STATUS:               ID:20130517185102 L   I
 2013-05-17-1850-00M.COL___256                                                 6
 STAT SP IPHASW D HRMM SECON CODA AMPLIT PERI AZIMU VELO AIN AR TRES W  DIS CAZ7
 BAR2 SZ EP       1851 22.25                             171   -0.0810 22.6 196 
 BAR2 SZ ES   1   1851 37.21                             171   -0.94 7 22.6 196 
 BAR2 SZ I        1851 40.27        48.2 0.34            171           22.6 196 
 GIR2 SZ EP   1   1851 22.39                             167   -0.04 7 33.0 347 
 GIR2 SZ ES   1   1851 38.87                             167    0.55 7 33.0 347 
 GIR2 SZ I        1851 40.45        22.5 0.16            165           33.0 347 
 BRR  HZ EP       1851 24.20                             153    0.2610 73.8 299 
 BRR  HN ES   1   1851 41.74                             153    0.72 7 73.8 299 
 BRR  HZ I        1851 47.40        30.4 0.16            150           73.8 299 
 PAM  SZ EP       1851 25.13                             152    0.2910 77.0  38 
 PAM  SN ES   1   1851 42.68                             152    0.07 7 77.0  38 
 PAM  SZ I        1851 44.05        14.7 0.26            155           77.0  38 
 RUS  HZ EP       1851 26.21                             145   -0.0410 99.1 177 
 RUS  HN ES   1   1851 45.21                             145    0.09 7 99.1 177 
 RUS  HZ I        1851 46.65        32.4 0.38            149           99.1 177 
 PTB  HZ EP       1851 29.02                             133   -0.63 9  150 259 
 PTB  HN ES   1   1851 50.36                             133   -0.81 7  150 259 
 PTB  HZ I        1851 52.39        40.7 0.40            133            150 259 
 OCA  HZ EP   1   1851 30.62                             131   -0.32 7  162 352 
 OCA  HN ES   1   1851 53.87                             131    0.39 7  162 352 
 OCA  HZ I        1851 57.23        27.1 0.30            132            162 352 
 NOR  HZ EP   1   1851 38.36                             119    0.14 6  236 235 
 NOR  HE ES   1   1852  6.51                             119    0.08 6  236 235 
 NOR  HZ I        1852 10.59        33.4 0.20            121            236 235 
 SML  HZ EP   1   1851 38.88                             118   -0.34 6  246 335 
 SML  HN ES   1   1852  7.18                             118   -1.03 6  246 335 
 CHI  HN ES   1   1852  9.42                             118   -0.16 6  248 196 
 HEL  HZ EP   1   1851 43.55                             116    0.79 6  274 256 
 HEL  HN ES       1852 14.94                             116    0.44 8  274 256 
 HEL  HZ I        1852 21.49        16.1 0.30            117            274 256 
 URE  HZ EP   4   1851 42.31                             114   -1.37 0  286 292 
 URE  HN ES   4   1852 12.04                             114   -4.11 0  286 292 
 GUY2CHZ EP   1   1851 47.04                             113    1.00 5  302 235 
 GUY2CHN ES   2   1852 20.35                             113   -0.00 4  302 235 
 GUY2CHZ I        1852 28.43        12.4 0.30                           302 235 
 COD  HZ EP   1   1851 50.81                             110   -0.02 5  350 354 
 COD  HN ES   2   1852 28.58                             110   -0.29 3  350 354 
 COD  HZ I        1852 35.98         7.3 0.50            111            350 354 
 PRA  HZ EP   1   1851 55.62                             107   -0.15 4  392 210 
 PRA  HN ES   2   1852 37.18                             107   -0.48 3  392 210 
 PRA  HZ I        1852 42.32        11.7 0.34            109            392 210 
 SJC  HZ EP   4   1851 56.02                             106   -2.05 0  412 327 
 SJC  HN ES   4   1852 36.82                             106   -4.95 0  412 327 
 SJC  HZ I        1852 42.38         4.5 0.38            108            412 327 
                                                                                
