 2011  217 1833 29.5 L   6.819 -73.623114.9  RSN  4 0.1 1.2LRSN                1
 GAP=248        0.39       3.3    21.4  8.9 -0.1883E+01  0.1252E+03 -0.6534E+01E
 Epicentro: EL CARMEN DE CHUCURI - SANTANDER                                   3
 ACTION:UP  11-03-28 15:09 OP:jfem STATUS:               ID:20110217183329 L   I
 2011-02-17-1831-03S.COL___137                                                 6
 STAT SP IPHASW D HRMM SECON CODA AMPLIT PERI AZIMU VELO SNR AR TRES W  DIS CAZ7
 BAR2 SZ EP       1833 46.88                             153     0.210   55 117 
 GIR2 SZ EP       1833 46.54                             153    -0.110   55  59 
 BAR2 SZ ES   2   1834  0.03                             153    -0.1 5   55 117 
 RUS  HZ EP       1833 51.84                             131    -0.110  119 150 
 RUS  HN ES   2   1834  9.51                             131     0.1 5  119 150 
 RUS  HZ I        1834 12.17         1.8 0.41                           119 150 
 GRA  SZ EP   1   1833 54.41                             124     0.0 7  149  37 
 GRA  SZ I        1834 16.65         3.8 0.45                           149  37 
                                                                                
