 2013 1217 1432 25.1 L   6.320 -73.587111.4  RSN  5 0.4 1.3LRSN                1
 GAP=132        0.92       5.6     3.8 10.0  0.1453E+01  0.1453E+02  0.1227E+02E
 Epicentro: SANTA HELENA DEL OPON - SANTANDER                                  3
 ACTION:UPD 14-01-13 10:18 OP:ep   STATUS:               ID:20131217143225 L   I
 OLDACT:REG 13-12-17 14:45 OP:jn   STATUS:               ID:20131217143000     3
 2013-12-17-1430-00M.COL___285                                                 6
 STAT SP IPHASW D HRMM SECON CODA AMPLIT PERI AZIMU VELO AIN AR TRES W  DIS CAZ7
 BAR2 SZ EP       1432 42.25                             152    0.3110 54.0  56 
 BAR2 SZ ES       1432 55.52                             152    0.4710 54.0  56 
 BAR2 SZ I        1432 57.16        16.2 0.24            144           54.0  56 
 RUS  HZ EP       1432 43.18                             144   -0.3510 73.1 130 
 RUS  HE ES       1432 57.50                             144   -0.3810 73.1 130 
 RUS  HZ I        1433  0.22         2.3 0.38            157           73.1 130 
 PTB  HZ EP       1432 44.85                             135   -0.0610 99.1 284 
 PTB  HN ES       1432 59.93                             135   -0.4110 99.1 284 
 PTB  HZ I        1433  3.25         3.5 0.10            135           99.1 284 
 NOR  HN ES       1433 12.19                             119    0.35 9  165 240 
 CHI  HZ I        1432 55.12         1.5 0.52            133            188 185 
 CHI  HN ES   2   1433 17.75                             116    0.70 4  188 185 
                                                                                
