 2010  317 1426 19.2 L   6.867 -72.895138.7  RSN  4 0.2 1.5LRSN                1
 GAP=264        0.39       5.0     7.6  7.6  0.1184E+02  0.1056E+02  0.1219E+02E
 Epicentro: GUACA - SANTANDER                                                  3
 ACTION:UP  10-08-24 09:54 OP:vdl  STATUS:               ID:20100317142619 L   I
 2010-03-17-1422-46S.COL___099                                                 6
 STAT SP IPHASW D HRMM SECON CODA AMPLIT PERI AZIMU VELO SNR AR TRES W  DIS CAZ7
 BRR  HZ EP   2   1426 40.88                             144    -0.2 5   94 286 
 BRR  HZ I        1426 43.43         7.9 0.32                            94 286 
 BRR  HE ES   2   1426 58.24                             144     0.1 5   94 286 
 RUS  HZ EP   2   1426 43.01                             140     0.0 5  110 191 
 RUS  HE ES   2   1427  1.54                             140     0.0 5  110 191 
 RUS  HZ I        1427  2.98         3.2 0.40                           110 191 
 RREF BZ EP   2   1427  8.53                             108     0.5 3  348 231 
 RREF BE ES   2   1427 46.25                             108     0.1 3  348 231 
 RREF BZ I        1427 47.40         1.9 0.43                           348 231 
 PRA  HN ES   2   1427 57.86                             104    -0.5 3  413 212 
                                                                                
