 2012  717 1900 16.5 L   6.823 -73.137146.0  RSN  9 0.3 2.0LRSN                1
 GAP=136        0.83       3.6     4.1  6.4 -0.1209E-01  0.7534E+01  0.5611E+01E
 Epicentro: LOS SANTOS - SANTANDER                                             3
 ACTION:UPD 12-08-14 11:45 OP:ep   STATUS:               ID:20120717190016 L   I
 2012-07-17-1900-00M.COL___196                                                 6
 STAT SP IPHASW D HRMM SECON CODA AMPLIT PERI AZIMU VELO AIN AR TRES W  DIS CAZ7
 BAR2 SZ EP   1   19 0 36.13                             169    -0.1 7   26 191 
 BAR2 SZ I        19 0 36.70        17.8 0.14            168             26 191 
 BAR2 SZ ES   1   19 0 51.49                             169    -0.1 7   26 191 
 BRR  HZ EP   1   19 0 37.80                             153     0.1 7   71 296 
 BRR  HN ES       19 0 54.66                             153     0.510   71 296 
 BRR  HZ I        19 0 57.40        30.6 0.25            152             71 296 
 PAM  SZ EP   1   19 0 39.00                             152     0.4 7   75  40 
 PAM  SE ES       19 0 55.75                             152    -0.110   75  40 
 PAM  SZ I        19 0 58.18        16.3 0.53            155             75  40 
 RUS  HZ EP   1   19 0 40.21                             143    -0.3 7  103 177 
 RUS  HZ I        19 0 41.44        15.1 0.15            143            103 177 
 RUS  HN ES   1   19 0 59.24                             143     0.1 7  103 177 
 PTB  HZ EP   1   19 0 42.86                             132    -0.8 7  149 258 
 PTB  HN ES   1   19 1  4.24                             132    -0.5 7  149 258 
 PTB  HZ I        19 1  6.49        10.1 0.13            132            149 258 
 OCA  HN ES   1   19 1  6.06                             130    -0.5 7  158 353 
 ZAR  HZ EP   1   19 0 49.24                             123     0.3 6  204 291 
 ZAR  HN ES   1   19 1 14.34                             123     0.1 6  204 291 
 ZAR  HZ I        19 1 20.45        16.0 0.43            123            204 291 
 CHI  HZ EP   1   19 0 54.69                             117     0.2 6  251 195 
 CHI  HN ES   1   19 1 24.34                             117     0.2 6  251 195 
 CHI  HZ I        19 1 31.34         7.4 0.46            118            251 195 
 HEL  HN ES   1   19 1 28.63                             115     0.2 6  274 255 
