 2016  117 1421 40.6 L   6.806 -73.162146.3  RSN 10 0.5 1.7LRSN                1
 GAP=134        1.13       5.0     4.5  7.2 -0.2083E+01  0.1210E+02  0.7876E+01E
 Epicentro: LOS SANTOS - SANTANDER                                             3
 ACTION:UPD 16-03-09 23:26 OP:cam  STATUS:               ID:20160117142140 L   I
 OLDACT:UP  16-01-17 22:06 OP:drio STATUS:               ID:20160117141750     3
 OLDACT:REG 16-01-17 20:05 OP:drio STATUS:               ID:20160117141750     3
 2016-01-17-1417-50M.COL___325                                                 6
 STAT SP IPHASW D HRMM SECON CODA AMPLIT PERI AZIMU VELO AIN AR TRES W  DIS CAZ7
 BAR2 EZ EP       1422  0.25                             170   -0.0110 23.7 185 
 BAR2 EZ ES       1422 15.69                             170    0.0610 23.7 185 
 BAR2 EZ I        1422 16.92         8.4 0.26            170           23.7 185 
 PAM  EZ EP       1422  2.74                             151   -0.1310 78.1  41 
 PAM  EE ES       1422 20.55                             151    0.2710 78.1  41 
 PAM  EZ I        1422 24.83         3.3 0.30            153           78.1  41 
 RUS  HZ EP       1422  4.65                             144    0.2310  101 175 
 RUS  HE ES       1422 23.03                             144   -0.0010  101 175 
 RUS  HZ I        1422 23.84         6.7 0.32            146            101 175 
 PTB  HZ EP       1422  6.54                             132   -0.88 9  146 258 
 PTB  HN ES       1422 27.38                             132   -0.99 9  146 258 
 PTB  HZ I        1422 30.32        10.8 0.16            132            146 258 
 ZAR  HE ES       1422 38.28                             123    0.27 9  202 292 
 NOR  HZ EP       1422 16.09                             119   -0.11 8  234 234 
 NOR  HE ES       1422 44.13                             119    0.13 8  234 234 
 NOR  HZ I        1422 48.63         5.3 0.18            119            234 234 
 CHI  HZ EP       1422 18.45                             117    0.15 8  249 195 
 CHI  HN ES   4   1422 45.95                             117   -1.80 0  249 195 
 HEL  HZ EP       1422 21.02                             115    0.40 8  270 256 
 HEL  HE ES       1422 53.09                             115    1.23 8  270 256 
 HEL  HZ I        1423  2.31         3.8 0.30            116            270 256 
 GUY2CHZ EP   4   1422 26.36                             112    2.30 0  300 234 
 GUY2CHE ES   4   1423  1.03                             112    3.03 0  300 234 
 GUY2CHZ I        1423  8.98         3.2 0.42                           300 234 
 PRA  HZ EP       1422 33.77                             107   -0.29 6  392 209 
 PRA  HE ES       1423 16.00                             107    0.21 6  392 209 
 PRA  HZ I        1423 20.27         3.5 0.30            108            392 209 
                                                                                
