 2016  917 1647  5.6 L   6.848 -73.213137.0  RSN  4 0.1 1.4LRSN                1
 GAP=126        0.33       2.4     2.0  3.2  0.3982E+00  0.1829E+01  0.6269E+00E
 Epicentro: ZAPATOCA - SANTANDER                                               3
 ACTION:UPD 17-08-17 21:13 OP:lp   STATUS:               ID:20160917164705 L   I
 OLDACT:REG 16-09-17 21:17 OP:dnl  STATUS:               ID:20160917163738     3
 2016-09-17-1638-00M.COL___360                                                 6
 STAT SP IPHASW D HRMM SECON CODA AMPLIT PERI AZIMU VELO AIN AR TRES W  DIS CAZ7
 BAR2 EZ EP   2   1647 24.00                             168   -0.26 5 28.5 173 
 BAR2 EZ ES       1647 38.84                             168   -0.0110 28.5 173 
 BAR2 EZ I        1647 39.78         8.7 0.24            172           28.5 173 
 PAM  EZ EP       1647 26.90                             149   -0.0210 78.6  46 
 PAM  EN ES       1647 43.61                             149    0.0210 78.6  46 
 PAM  EZ I        1647 46.51         2.6 0.26            149           78.6  46 
 RUS  HZ EP       1647 28.99                             140    0.0710  107 172 
 RUS  HN ES   4   1647 43.95                             140   -3.20 0  107 172 
 RUS  HZ I    4   1647 47.13         3.9 0.18            145            107 172 
 ZAR  HZ EP   4   1647 37.74                             122    1.23 0  195 292 
 ZAR  HE ES       1648  0.66                             122    0.00 9  195 292 
 ZAR  HZ I        1648  8.93         3.9 0.12            120            195 292 
                                                                                
