 2011  717 1352 22.7 L   6.831 -72.947144.2  RSN  5 0.2 1.5LRSN                1
 GAP=162        0.44       3.2     5.0  4.6  0.2227E+01  0.3477E+01  0.2998E+01E
 Epicentro: CEPITA - SANTANDER                                                 3
 ACTION:UPD 12-07-25 14:01 OP:epov STATUS:               ID:20110717135224 L   I
 2011-07-17-1350-02S.COL___142                                                 6
 STAT SP IPHASW D HRMM SECON CODA AMPLIT PERI AZIMU VELO AIN AR TRES W  DIS CAZ7
 BAR2 SZ EP   1   1352 42.38                             165   -0.15 7 37.0 225 
 BAR2 SZ ES   1   1352 58.10                             165    0.12 7 37.0 225 
 BAR2 SZ I        1352 59.62        15.7 0.21                          37.0 225 
 PAM  SN ES   1   1353  0.44                             156   -0.08 7 62.5  26 
 BRR  HZ EP       1352 44.83                             146   -0.0510 89.8 290 
 BRR  HN ES   1   1353  2.18                             146    0.03 7 89.8 290 
 BRR  HZ I        1353  4.20         6.5 0.17                          89.8 290 
 RUS  HZ EP   1   1352 47.06                             142    0.42 7  105 188 
 RUS  HN ES   1   1353  5.11                             142   -0.19 7  105 188 
 RUS  HZ I        1353  6.82         3.0 0.23                           105 188 
 CHI  HZ EP   2   1353  1.14                             116   -0.28 4  258 200 
 CHI  HZ I        1353  3.56         1.6 0.42                           258 200 
                                                                                
