 2012 1117 1843  9.8 L   6.852 -73.288123.0  RSN 10 0.4 2.4LRSN                1
 GAP=107        0.91       2.5     4.1  4.7  0.1755E+01  0.5978E+01  0.3269E+00E
 Epicentro: ZAPATOCA - SANTANDER                                               3
 ACTION:UPD 12-12-05 15:34 OP:}ep  STATUS:               ID:20121117184309 L   I
 2012-11-17-1840-00M.COL___234                                                 6
 STAT SP IPHASW D HRMM SECON CODA AMPLIT PERI AZIMU VELO AIN AR TRES W  DIS CAZ7
 GIR2 SZ IP       1843 26.66                             167    0.0410 27.1  23 
 GIR2 SZ ES       1843 39.76                             167   -0.0110 27.1  23 
 BAR2 SZ IP       1843 27.04                             165    0.1510 31.1 158 
 BAR2 SZ ES       1843 40.12                             165   -0.1110 31.1 158 
 BAR2 SZ I        1843 41.14       183.0 0.48                          31.1 158 
 BRR  HZ IP     D 1843 27.42                             154   -0.1110 54.6 301 
 BRR  HZ I        1843 27.71        47.2 0.14                          54.6 301 
 BRR  HN ES       1843 41.53                             154    0.1510 54.6 301 
 PAM  SZ EP       1843 30.28                             144    0.1610 84.4  50 
 PAM  SN ES       1843 46.63                             144    0.6510 84.4  50 
 RUS  HZ EP       1843 31.77                             136   -0.2510  109 168 
 RUS  HN ES       1843 49.09                             136   -0.2810  109 168 
 RUS  HN I        1843 50.12        22.3 0.28                           109 168 
 PTB  HZ EP   4   1843 32.29                             129   -1.34 0  134 255 
 PTB  HN ES   4   1843 49.70                             129   -2.53 0  134 255 
 PTB  HN I        1843 54.36        29.9 0.62                           134 255 
 OCA  HZ EP       1843 35.30                             125   -0.42 9  153 359 
 OCA  HN ES       1843 55.04                             125   -0.92 9  153 359 
 OCA  HN I        1843 55.58        80.4 0.22                           153 359 
 ZAR  HZ EP       1843 39.50                             119    0.46 9  187 292 
 ZAR  HN ES       1844  1.90                             119    0.04 9  187 292 
 ZAR  HN I        1844  8.69        30.4 0.20                           187 292 
 SML  HZ EP       1843 43.89                             113   -0.04 8  232 338 
 SML  HE ES       1844 10.90                             113    0.33 8  232 338 
 SML  HN I        1844 13.36        50.0 0.10                           232 338 
 CHI  HZ EP       1843 47.06                             112    0.51 8  251 191 
 CHI  HZ I        1843 48.16         4.5 0.10                           251 191 
 CHI  HN ES       1844 14.98                             112   -0.25 8  251 191 
                                                                                
