 2012  617 1933 59.7 L   6.793 -73.184146.0  RSN  6 0.3 1.5LRSN                1
 GAP=132        0.59       4.0     3.6  7.1  0.7294E+00  0.7614E+01  0.5012E+01E
 Epicentro: LOS SANTOS - SANTANDER                                             3
 ACTION:UPD 12-08-06 17:50 OP:ep   STATUS:               ID:20120617193359 L   I
 2012-06-17-1930-00M.COL___199                                                 6
 STAT SP IPHASW D HRMM SECON CODA AMPLIT PERI AZIMU VELO AIN AR TRES W  DIS CAZ7
 BAR2 SZ EP   1   1934 19.92                             171    0.56 8 22.2 180 
 PAM  SZ EP   1   1934 22.28                             150    0.11 8 80.7  41 
 PAM  SE ES   1   1934 39.48                             150   -0.19 8 80.7  41 
 RUS  HZ EP   1   1934 23.08                             144   -0.39 8  100 174 
 RUS  HE ES   1   1934 42.02                             144    0.03 8  100 174 
 RUS  HZ I        1934 43.12         3.5 0.12                           100 174 
 PTB  HZ EP       1934 26.06                             133   -0.2610  143 259 
 PTB  HN ES   1   1934 47.09                             133    0.02 7  143 259 
 PTB  HZ I        1934 52.27         3.0 0.16                           143 259 
 ZAR  HN ES   1   1934 56.99                             123    0.14 7  200 293 
 ZAR  HZ I        1935  3.70         3.6 0.21                           200 293 
 CHI  HZ EP   1   1934 37.49                             117    0.26 6  247 194 
 CHI  HZ I        1935  9.28         2.7 0.29                           247 194 
                                                                                
