 2014 1117 1308 38.2 L   6.858 -73.706  0.0  RSN  4 0.6 1.5LRSN                1
 GAP=149        1.63       3.4     5.1 10.7  0.3069E+00  0.5214E+01  0.3410E+01E
 Epicentro: BARRANCABERMEJA - SANTANDER                                        3
 ACTION:UPD 14-12-19 15:43 OP:nd   STATUS:               ID:20141117130838 L   I
 OLDACT:REG 14-11-17 21:45 OP:fm   STATUS:               ID:20141117125747     3
 2014-11-17-1257-47M.COL___289                                                 6
 STAT SP IPHASW D HRMM SECON CODA AMPLIT PERI AZIMU VELO AIN AR TRES W  DIS CAZ7
 BRR  HZ IP     C 13 8 43.92                              47    0.3810 27.6 359 
 BRR  HE ES       13 8 47.64                              47   -0.0710 27.6 359 
 BRR  HZ I        13 8 48.29        41.2 0.12            168           27.6 359 
 PTB  HZ EP       13 8 53.36                              47    0.3310 90.1 247 
 PTB  HN ES       13 9  4.01                              47   -0.5910 90.1 247 
 PTB  HZ I        13 9  4.86        30.8 0.24             99           90.1 247 
 RUS  HZ EP       13 8 57.68                              47   -1.4310  127 147 
 RUS  HN ES       13 9 15.85                              47    0.4310  127 147 
 RUS  HZ I        13 9 21.03         4.8 0.46             93            127 147 
 SPBC HZ EP       13 9  1.21                              47    0.65 9  139 197 
 SPBC HN ES       13 9 18.33                              47    0.33 9  139 197 
 SPBC HZ I        13 9 21.76         6.6 0.12             93            139 197 
                                                                                
