 2015  317 1931 44.6 L   6.793 -73.187143.6  RSN  5 0.2 1.8LRSN                1
 GAP=132        0.52       2.6     3.0  5.0 -0.1735E+01  0.6387E+01 -0.4869E+01E
 Epicentro: ZAPATOCA - SANTANDER                                               3
 ACTION:UPD 15-04-30 16:26 OP:nd   STATUS:               ID:20150317193144 L   I
 OLDACT:UP  15-03-17 23:16 OP:cam  STATUS:               ID:20150317192748     3
 OLDACT:REG 15-03-17 21:41 OP:cam  STATUS:               ID:20150317192748     3
 2015-03-17-1927-48M.COL___263                                                 6
 STAT SP IPHASW D HRMM SECON CODA AMPLIT PERI AZIMU VELO AIN AR TRES W  DIS CAZ7
 BAR2 EZ EP       1932  3.52                             171   -0.4310 22.2 179 
 BAR2 EZ ES       1932 19.01                             171   -0.0310 22.2 179 
 BAR2 EZ I        1932 21.61        19.6 0.22            171           22.2 179 
 PAM  SZ EP       1932  6.96                             149    0.1510 81.0  42 
 PAM  SN ES       1932 24.18                             149    0.0610 81.0  42 
 PAM  SZ I        1932 25.23         5.3 0.42            154           81.0  42 
 RUS  HN ES       1932 26.57                             143    0.1210  100 173 
 RUS  HN I        1932 27.49        23.1 0.52            147            100 173 
 PTB  HZ EP       1932 11.13                             132    0.16 9  143 259 
 PTB  HN ES       1932 31.54                             132    0.01 9  143 259 
 PTB  HZ I        1932 36.40         9.1 0.10            134            143 259 
 SML  HN ES       1932 49.32                             117   -0.03 8  243 336 
                                                                                
