 2013  517 1004 33.5 L   6.736 -73.257147.2  RSN  6 0.4 1.8LRSN                1
 GAP=142        0.86       4.1     6.7  8.3  0.5916E+01 -0.6736E-01 -0.3536E+01E
 Epicentro: ZAPATOCA - SANTANDER                                               3
 ACTION:UPD 13-06-20 09:51 OP:ep   STATUS:               ID:20130517100433 L   I
 2013-05-17-1000-00M.COL___253                                                 6
 STAT SP IPHASW D HRMM SECON CODA AMPLIT PERI AZIMU VELO AIN AR TRES W  DIS CAZ7
 BAR2 SZ EP   1   10 4 52.97                             173   -0.25 7 17.9 153 
 BAR2 SZ ES   1   10 5  7.78                             173   -0.81 7 17.9 153 
 BAR2 SZ I        10 5  8.98         7.8 0.62            171           17.9 153 
 GIR2 SZ EP   1   10 4 53.45                             165   -0.12 7 38.5  11 
 BRR  HZ EP   1   10 4 55.08                             155    0.61 7 64.9 309 
 BRR  HN ES       10 5 11.13                             155    0.3010 64.9 309 
 BRR  HN I        10 5 12.39        24.0 0.30            151           64.9 309 
 RUS  HZ EP   1   10 4 57.10                             146    0.07 7 95.2 168 
 RUS  HN ES       10 5 15.71                             146    0.3410 95.2 168 
 RUS  HN I        10 5 17.24         6.4 0.34            145           95.2 168 
 PTB  HZ EP   1   10 4 58.85                             135   -0.56 7  134 261 
 PTB  HN ES   1   10 5 19.49                             135   -0.13 7  134 261 
 PTB  HN I        10 5 26.06         8.3 0.42            132            134 261 
 OCA  HN ES       10 5 25.11                             129   -0.01 9  166 358 
 OCA  HE I        10 5 25.34        13.1 0.20            130            166 358 
                                                                                
