 2016 1117 1043  7.8 L   6.758 -73.123142.5  RSN 12 0.4 2.3LRSN                1
 GAP=123        0.91       3.6     4.6  5.5 -0.6593E+00  0.6518E+01  0.6772E+01E
 Epicentro: LOS SANTOS - SANTANDER                                             3
 ACTION:UPD 17-10-26 21:09 OP:lp   STATUS:               ID:20161117104307 L   I
 OLDACT:UP  16-11-17 21:34 OP:edw  STATUS:               ID:20161117103744d    3
 OLDACT:UP  16-11-17 21:34 OP:edw  STATUS:               ID:20161117103744d    3
 OLDACT:UP  16-11-17 21:33 OP:edw  STATUS:               ID:20161117103744d    3
 OLDACT:UP  16-11-17 21:33 OP:edw  STATUS:               ID:20161117103744d    3
 OLDACT:DUP 16-11-17 21:25 OP:edw  STATUS:               ID:20161117103744d    3
 OLDACT:UP  16-11-17 21:21 OP:edw  STATUS:               ID:20161117103743     3
 OLDACT:REG 16-11-17 19:52 OP:edw  STATUS:               ID:20161117103743     3
 2016-11-17-1038-00M.COL___340                                                 6
 STAT SP IPHASW D HRMM SECON CODA AMPLIT PERI AZIMU VELO AIN AR TRES W  DIS CAZ7
 BAR2 EZ IP     D 1043 26.94                             172    0.0210 19.4 200 
 BAR2 EZ ES       1043 41.69                             172   -0.1810 19.4 200 
 BAR2 EZ I        1043 43.57        86.7 0.20            172           19.4 200 
 BRR  HZ IP     C 1043 28.79                             150   -0.0310 75.7 301 
 BRR  HN ES       1043 45.73                             150    0.4810 75.7 301 
 BRR  HZ I        1043 47.46        25.9 0.16            141           75.7 301 
 PAM  EZ EP     C 1043 29.72                             149   -0.0310 79.5  36 
 PAM  EN ES       1043 46.93                             149    0.0110 79.5  36 
 PAM  EZ I        1043 48.63        12.2 0.18            138           79.5  36 
 PTB  HZ EP       1043 34.03                             131   -0.58 9  149 261 
 PTB  HN ES   4   1043 50.27                             131   -5.29 0  149 261 
 PTB  HZ I        1043 50.68        26.4 0.08            121            149 261 
 ZAR  HZ EP       1043 41.12                             121    0.70 8  208 293 
 ZAR  HN ES       1044  5.17                             121   -0.73 8  208 293 
 ZAR  HZ I        1044  7.77        10.9 0.16            111            208 293 
 NOR  HZ EP   9   1043 42.80                             118   -0.43 0  234 236 
 NOR  HN ES       1044 10.80                                    0.33 8  234 236 
 NOR  HZ I        1044 15.00        14.4 0.20            109            234 236 
 CHI  HZ EP       1043 44.95                             117    0.10 8  245 196 
 CHI  HN ES       1044 13.96                             117    0.17 8  245 196 
 CHI  HZ I        1044 18.03         8.1 0.36            108            245 196 
 PTGC HZ EP   9   1043 49.83                             111   -1.03 0  303 159 
 PTGC HN ES       1044 22.66                             110   -0.80 7  303 159 
 ELA  HZ EP   4   1043 57.60                             110    3.26 0  328 230 
 ELA  HN ES   4   1044 34.64                             110    3.95 0  328 230 
 ELA  HZ I        1044 47.12         5.3 0.66            102            328 230 
 LL6C HZ EP   4   1043 32.27                             109   -21.6 0  330 357 
 LL6C HN ES   4   1044  9.79                             109   -20.0 0  330 357 
 PRA  HZ EP       1044  0.64                             106   -0.19 6  389 210 
 PRA  HN ES       1044 42.57                             106    0.33 6  389 210 
 PRA  HZ I        1044 48.56        10.1 0.30             98            389 210 
 ORTC HZ EP       1044  1.39                             106    0.09 6  393 217 
 ORTC HN ES   4   1044 44.47                             106    1.41 0  393 217 
 ORTC HZ I        1044 50.46         7.3 0.52             98            393 217 
 SJC  HZ EP   4   1044  0.95                             105   -2.89 0  415 327 
 SJC  HZ I        1044 37.56         9.1 0.20             97            415 327 
 SJC  HN ES   4   1044 42.44                             105   -5.14 0  415 327 
 URI  HZ EP   4   1044 17.40                             100   -3.76 0  561  13 
 URI  HN ES   4   1045 17.53                             100   -0.89 0  561  13 
                                                                                
