 2012  917 1933 57.4 L   6.726 -73.149138.0  RSN  6 0.3 1.8LRSN                1
 GAP=231        0.57       4.6     5.3  5.5  0.1409E+02  0.7749E+01  0.6624E+01E
 Epicentro: JORDAN - SANTANDER                                                 3
 ACTION:UPD 12-10-22 14:19 OP:ep   STATUS:               ID:20120917193357 L   I
 2012-09-17-1930-00M.COL___224                                                 6
 STAT SP IPHASW D HRMM SECON CODA AMPLIT PERI AZIMU VELO AIN AR TRES W  DIS CAZ7
 BAR2 SZ ES   1   1934 30.39                             173    0.01 7 15.3 194 
 BAR2 SZ I        1934 31.61        21.2 0.34                          15.3 194 
 BRR  HZ EP       1934 17.72                             150   -0.1810 75.2 304 
 BRR  HN ES       1934 34.26                             150    0.3310 75.2 304 
 BRR  HZ I        1934 39.10        14.6 0.14                          75.2 304 
 RUS  HZ EP   1   1934 19.70                             145   -0.06 7 92.5 176 
 RUS  HN ES   1   1934 37.11                             145   -0.12 7 92.5 176 
 RUS  HZ I        1934 40.17         6.4 0.30                          92.5 176 
 PTB  HE ES   1   1934 44.08                             131    0.11 7  146 262 
 ZAR  HN ES   1   1934 54.27                             120   -0.50 6  207 294 
 ZAR  HZ I        1935  0.29         6.2 0.24                           207 294 
 PRA  HZ EP   1   1934 50.41                             106    0.65 4  385 210 
 PRA  HZ I        1934 58.85         2.6 0.52                           385 210 
 PRA  HE ES   2   1935 30.29                             106   -0.35 3  385 210 
                                                                                
