 2012 1217 1139 50.8 L   6.771 -73.140145.3  RSN  7 0.4 1.7LRSN                1
 GAP=139        0.82       5.3     4.8  7.1  0.1442E+01  0.6930E+01  0.3279E+01E
 Epicentro: LOS SANTOS - SANTANDER                                             3
 ACTION:UPD 13-01-04 14:28 OP:ep   STATUS:               ID:20121217113950 L   I
 2012-12-17-1138-42M.COL___195                                                 6
 STAT SP IPHASW D HRMM SECON CODA AMPLIT PERI AZIMU VELO AIN AR TRES W  DIS CAZ7
 BAR2 SZ EP   1   1140 10.44                             172    0.12 7 20.3 193 
 BAR2 SZ ES   1   1140 25.03                             172   -0.51 7 20.3 193 
 BAR2 SZ I        1140 28.04        11.4 0.26                          20.3 193 
 GIR2 SZ EP   1   1140  9.90                             166   -0.61 7 34.5 350 
 GIR2 SZ ES   1   1140 25.54                             166   -0.34 7 34.5 350 
 GIR2 SZ I        1140 27.94         8.0 0.24                          34.5 350 
 BRR  HZ EP   1   1140 12.35                             152    0.34 7 73.3 300 
 BRR  HE ES   1   1140 29.05                             152    0.49 7 73.3 300 
 BRR  HZ I        1140 31.82        12.4 0.20                          73.3 300 
 PAM  SZ EP   1   1140 13.33                             150    0.24 7 79.5  38 
 PAM  SN ES   1   1140 30.59                             150    0.11 7 79.5  38 
 PAM  SZ I        1140 32.71        15.6 0.56                          79.5  38 
 RUS  HZ EP   1   1140 14.30                             145    0.03 7 97.4 176 
 RUS  HN ES   1   1140 33.17                             145    0.58 7 97.4 176 
 RUS  HZ I        1140 34.18         4.8 0.24                          97.4 176 
 PTB  HZ EP   1   1140 17.11                             132   -0.62 7  148 260 
 PTB  HE ES   1   1140 38.44                             132   -0.29 7  148 260 
 PTB  HZ I        1140 41.41         6.7 0.14                           148 260 
 ZAR  HN ES   1   1140 49.28                             122    0.46 6  206 293 
                                                                                
