 2010 1217 1451 56.8 L   6.734 -73.153140.0  RSN  6 0.3 1.7LRSN                1
 GAP=207        0.71       5.0     6.2  6.7  0.1878E+01  0.8344E+01  0.1209E+02E
 Epicentro: JORDAN - SANTANDER                                                 3
 ACTION:UP  11-01-14 15:25 OP:pat  STATUS:               ID:20101217145156 L   I
 2010-12-17-1451-09S.COL___136                                                 6
 STAT SP IPHASW D HRMM SECON CODA AMPLIT PERI AZIMU VELO SNR AR TRES W  DIS CAZ7
 BAR2 SZ EP       1452 15.49                             173    -0.110   16 192 
 BAR2 SZ ES   1   1452 29.80                             173    -0.4 7   16 192 
 BAR2 SZ I        1452 31.22        12.3 0.38                            16 192 
 BTL  SZ EP       1452 15.70                             170     0.010   24 328 
 BRR  HZ EP       1452 17.28                             150    -0.210   74 304 
 BRR  HN ES   1   1452 34.05                             150     0.4 7   74 304 
 BRR  HZ I        1452 35.00        12.3 0.15                            74 304 
 RUS  HZ EP       1452 19.54                             145     0.110   93 175 
 RUS  HZ I        1452 20.19         6.7 0.28                            93 175 
 RUS  HN ES   2   1452 37.82                             145     0.7 5   93 175 
 NOR  SZ EP       1452 31.76                             118     0.1 8  230 236 
 NOR  SN ES   1   1452 58.71                             118    -0.2 6  230 236 
 CHI  HZ EP   1   1452 33.66                             117     0.3 6  241 195 
 CHI  HN ES   2   1453  1.13                             117    -0.8 4  241 195 
 CHI  HZ I        1453  7.72         3.1 0.70                           241 195 
                                                                                
