 2014  617 1643 38.2 L   6.865 -73.148149.0  RSN 10 0.5 2.2LRSN                1
 GAP=133        1.17       3.8     4.8  7.4 -0.1353E+01  0.9416E+01  0.3630E+01E
 Epicentro: LOS SANTOS - SANTANDER                                             3
 ACTION:UPD 14-07-01 22:54 OP:nd   STATUS:               ID:20140617164338 L   I
 OLDACT:REG 14-06-17 21:29 OP:carl STATUS:               ID:20140617163815d    3
 2014-06-17-1638-14M.COL___262                                                 6
 STAT SP IPHASW D HRMM SECON CODA AMPLIT PERI AZIMU VELO AIN AR TRES W  DIS CAZ7
 BAR2 SZ EP       1643 58.42                             168    0.0810 30.4 187 
 BAR2 SZ I        1644 15.77        20.4 0.78            169           30.4 187 
 BRR  HZ EP       1643 59.83                             154    0.3510 67.8 293 
 BRR  HN ES       1644 16.66                             154    0.5510 67.8 293 
 BRR  HZ I        1644 21.48        25.5 0.28            153           67.8 293 
 PAM  SZ EP       1644  1.03                             153    0.6010 72.2  43 
 PAM  SN ES       1644 17.77                             153   -0.0310 72.2  43 
 PAM  SZ I        1644 20.15        16.4 0.34            153           72.2  43 
 RUS  HZ EP       1644  2.56                             143   -0.2010  108 176 
 RUS  HN ES       1644 21.46                             143   -0.4810  108 176 
 RUS  HZ I        1644 22.78        10.7 0.26            143            108 176 
 PTB  HZ EP       1644  4.82                             132   -0.69 9  149 256 
 PTB  HN ES       1644 26.62                             132   -0.23 9  149 256 
 PTB  HZ I        1644 29.77        17.8 0.16            132            149 256 
 ZAR  HZ EP       1644 11.06                             124    0.53 9  201 290 
 ZAR  HN ES       1644 36.25                             124    0.47 9  201 290 
 ZAR  HZ I        1644 41.85        26.6 0.32            123            201 290 
 SML  HZ EP       1644 13.98                             119   -0.28 8  237 335 
 SML  HN ES       1644 41.11                             119   -1.31 8  237 335 
 SML  HZ I        1644 52.53        18.6 0.10            118            237 335 
 NOR  HE ES       1644 42.72                             119   -0.15 8  239 233 
 TOL  SZ EP       1644 27.39                             110    0.27 6  348 224 
 TOL  SN ES       1645  5.49                             110    0.18 6  348 224 
 TOL  SZ I        1645 12.46        11.2 0.62            110            348 224 
 PRA  HZ EP       1644 33.23                             107    0.72 6  398 209 
 PRA  HN ES       1645 14.52                             107   -0.39 6  398 209 
 PRA  HZ I        1645 23.75         5.3 0.28            107            398 209 
                                                                                
