 2015  517 1304 42.2 L   6.770 -73.099138.8  RSN 11 0.4 2.2LRSN                1
 GAP=187        0.89       2.8     4.5  5.1 -0.3340E+01  0.8467E+01 -0.1516E+01E
 Epicentro: LOS SANTOS - SANTANDER                                             3
 ACTION:UPD 15-09-10 22:04 OP:cam  STATUS:               ID:20150517130442 L   I
 OLDACT:REG 15-05-17 20:35 OP:drio STATUS:               ID:20150517125747     3
 2015-05-17-1257-47M.COL___280                                                 6
 STAT SP IPHASW D HRMM SECON CODA AMPLIT PERI AZIMU VELO AIN AR TRES W  DIS CAZ7
 BAR2 EZ EP       13 5  1.47                             171    0.4910 21.7 205 
 BAR2 EZ ES       13 5 15.17                             171   -0.4410 21.7 205 
 BAR2 EZ I        13 5 19.17        25.7 0.38            167           21.7 205 
 BRR  HZ EP       13 5  3.28                             149    0.2910 77.3 299 
 BRR  HN ES       13 5 19.68                             149    0.4910 77.3 299 
 BRR  HZ I        13 5 24.30        15.6 0.14            145           77.3 299 
 RUS  HE ES       13 5 22.52                             143   -0.3010 97.0 179 
 SPBC HZ EP       13 5 10.52                             127    0.25 9  164 221 
 SPBC HN ES       13 5 32.42                             127    0.28 9  164 221 
 SPBC HZ I        13 5 35.00        30.4 0.32            129            164 221 
 OCA  HZ EP       13 5 10.78                             127    0.40 9  164 352 
 OCA  HN ES       13 5 31.93                             127   -0.42 9  164 352 
 OCA  HZ I        13 5 37.15        28.8 0.26            128            164 352 
 ZAR  HZ E        13 0  1.76                                            210 292 
 ZAR  HZ EP       13 5 14.33                             120   -0.53 8  210 292 
 ZAR  HN ES       13 5 40.34                             120    0.03 8  210 292 
 ZAR  HZ I        13 5 46.64        11.4 0.26            120            210 292 
 NOR  HZ EP       13 5 17.41                             117   -0.40 8  237 236 
 NOR  HE ES       13 5 45.12                             117   -0.44 8  237 236 
 NOR  HZ I        13 5 50.85        13.0 0.38            118            237 236 
 SML  HZ EP       13 5 18.63                             115   -0.41 8  249 335 
 SML  HE ES   4   13 5 46.52                             115   -1.23 0  249 335 
 SML  HZ I        13 5 52.30        10.7 0.28            117            249 335 
 HEL  HN ES       13 5 54.02                             113   -0.00 7  276 257 
 HEL  HZ I        13 6  0.29         8.3 0.46            114            276 257 
 GUY2CHZ EP       13 5 26.32                             111    0.54 7  304 236 
 GUY2CHN ES       13 6  0.03                             111    0.27 7  304 236 
 GUY2CHZ I        13 6  7.79         8.5 0.30                           304 236 
 RREF HZ EP       13 5 28.11                             109   -0.17 7  324 230 
 RREF HN ES       13 6  3.91                             109   -0.29 7  324 230 
 RREF HZ I        13 6 12.98         2.9 0.30            111            324 230 
                                                                                
