 2013  917 1555  1.3 L   6.780 -73.141142.7  RSN 10 0.6 2.2LRSN                1
 GAP=138        1.37       5.2     5.9  9.2  0.6836E+00  0.1325E+02  0.9416E+01E
 Epicentro: LOS SANTOS - SANTANDER                                             3
 ACTION:UPD 13-10-22 09:23 OP:ep   STATUS:               ID:20130917155501 L   I
 OLDACT:REG 13-09-17 14:37 OP:jn   STATUS:               ID:20130917154959     3
 2013-09-17-1549-59M.COL___269                                                 6
 STAT SP IPHASW D HRMM SECON CODA AMPLIT PERI AZIMU VELO AIN AR TRES W  DIS CAZ7
 BAR2 SZ EP       1555 20.45                             171   -0.0610 21.2 192 
 BAR2 SZ ES   1   1555 35.02                             171   -0.48 7 21.2 192 
 BAR2 SZ I        1555 36.48        37.3 0.22            170           21.2 192 
 BRR  HZ EP       1555 22.35                             151    0.1610 72.7 300 
 BRR  HN ES       1555 39.39                             151    0.8910 72.7 300 
 BRR  HZ I        1555 40.43        33.4 0.24            151           72.7 300 
 PAM  SZ EP       1555 23.42                             150    0.1610 78.8  38 
 PAM  SN ES       1555 40.57                             150    0.1710 78.8  38 
 PAM  SZ I        1555 42.77        33.3 0.64            153           78.8  38 
 RUS  HZ EP       1555 24.34                             144   -0.2410 98.3 176 
 RUS  HN ES   1   1555 42.29                             144   -0.45 7 98.3 176 
 RUS  HZ I        1555 44.46        11.3 0.28            144           98.3 176 
 PTB  HZ EP       1555 27.06                             131   -0.96 9  148 260 
 PTB  HN ES       1555 47.96                             131   -0.90 9  148 260 
 PTB  HZ I        1555 50.86        33.6 0.16            131            148 260 
 OCA  HN ES   1   1555 50.95                             128   -0.69 7  163 353 
 ZAR  HZ EP       1555 34.31                             121    0.64 8  205 293 
 ZAR  HN ES       1555 59.49                             121    0.56 8  205 293 
 ZAR  HZ I        1556  5.40        34.6 0.28            122            205 293 
 NOR  HZ EP   1   1555 36.97                             118    0.22 6  234 235 
 NOR  HE ES   2   1556  4.38                             118   -0.02 4  234 235 
 SML  HE ES   2   1556  5.17                             116   -1.44 4  246 335 
 CHI  HZ EP   1   1555 39.02                             117    0.42 6  247 195 
 CHI  HN ES   1   1556  9.17                             117    1.47 6  247 195 
 CHI  HZ I        1556 13.80         5.6 0.26            117            247 195 
                                                                                
