 2015  117 1811 54.0 L   6.810 -73.170146.0  RSN 14 0.4 2.6LRSN                1
 GAP= 69        0.97       2.5     2.7  5.0 -0.4836E+00  0.2338E+01  0.6592E+00E
 Epicentro: LOS SANTOS - SANTANDER                                             3
 ACTION:UPD 15-03-02 15:40 OP:nd   STATUS:               ID:20150117181154 L   I
 OLDACT:UP  15-01-18 01:33 OP:mh   STATUS:               ID:20150117180755     3
 OLDACT:REG 15-01-17 21:22 OP:y    STATUS:               ID:20150117180755     3
 2015-01-17-1807-55M.COL___172                                                 6
 STAT SP IPHASW D HRMM SECON CODA AMPLIT PERI AZIMU VELO AIN AR TRES W  DIS CAZ7
 BAR2 EZ EP       1812 13.94                             170    0.2210 24.1 183 
 BAR2 EZ ES       1812 28.40                             170   -0.6610 24.1 183 
 BAR2 EZ I        1812 29.82        99.3 0.26            170           24.1 183 
 BRR  HZ EP     D 1812 15.82                             153    0.7610 68.3 299 
 BRR  HN ES       1812 32.30                             153    0.8510 68.3 299 
 BRR  HZ I        1812 35.64        52.2 0.30            153           68.3 299 
 PAM  SZ EP     C 1812 16.67                             151    0.3310 78.3  42 
 PAM  SN ES       1812 33.58                             151   -0.1510 78.3  42 
 PAM  SZ I        1812 35.89       117.7 0.48            154           78.3  42 
 RUS  HZ EP       1812 17.78                             143   -0.1310  102 175 
 RUS  HN ES   1   1812 36.60                             143    0.07 7  102 175 
 RUS  HZ I        1812 37.22        45.2 0.26            146            102 175 
 PTB  HZ EP       1812 20.53                             133   -0.28 9  145 258 
 PTB  HN ES       1812 41.59                             133   -0.10 9  145 258 
 PTB  HZ I        1812 48.80        26.7 0.22            133            145 258 
 TAM  HZ EP     D 1812 22.30                             130    0.29 9  158 105 
 TAM  HN ES       1812 43.89                             130    0.07 9  158 105 
 TAM  HZ I        1812 46.35        22.8 0.34            134            158 105 
 OCA  HZ EP       1812 21.93                             130   -0.31 9  159 354 
 OCA  HN ES       1812 43.66                             130   -0.58 9  159 354 
 OCA  HZ I        1812 48.37        45.3 0.46            132            159 354 
 SPBC HZ EP   1   1812 22.74                             129    0.26 7  162 218 
 SPBC HN ES       1812 44.26                             129   -0.40 9  162 218 
 SPBC HZ I        1812 48.77        67.3 0.42            131            162 218 
 ZAR  HZ EP   1   1812 26.38                             123    0.17 6  201 292 
 ZAR  HN ES       1812 51.54                             123    0.25 9  201 292 
 ZAR  HZ I        1812 56.66        43.2 0.28            124            201 292 
 NOR  HZ EP   1   1812 29.68                             119    0.06 6  233 234 
 NOR  HN ES       1812 57.02                             119   -0.35 8  233 234 
 NOR  HZ I        1813  0.26        27.8 0.20            120            233 234 
 SML  HZ EP       1812 30.06                             118   -0.39 8  242 336 
 SML  HN ES       1812 58.72                             118   -0.13 8  242 336 
 SML  HZ I        1813  0.71        47.6 0.34            119            242 336 
 CHI  HZ EP       1812 31.95                             117    0.15 8  249 195 
 CHI  HN ES       1813  1.28                             117    0.04 8  249 195 
 CHI  HZ I        1813  4.42        38.2 0.54            119            249 195 
 HEL  HZ EP       1812 33.42                             115   -0.59 8  270 255 
 HEL  HN ES       1813  5.61                             115    0.43 8  270 255 
 HEL  HZ I        1813 11.31        19.8 0.26            116            270 255 
 PTGC HZ EP   4   1812 35.93                             111   -2.21 0  311 158 
 PTGC HN ES   4   1813  9.98                             111   -2.55 0  311 158 
 PTGC HZ I        1813 13.18        22.0 0.52            113            311 158 
                                                                                
