 2015 1217 1920 24.5 L   6.782 -73.134144.5  RSN 24 0.5 2.6LRSN                1
 GAP=121        1.07       2.3     3.4  4.5 -0.1977E+01  0.4016E+01  0.6584E+00E
 Epicentro: LOS SANTOS - SANTANDER                                             3
 ACTION:UPD 16-02-04 15:05 OP:cam  STATUS:               ID:20151217192024 L   I
 OLDACT:REG 15-12-17 22:15 OP:ar   STATUS:               ID:20151217191747     3
 2015-12-17-1917-47M.COL___337                                                 6
 STAT SP IPHASW D HRMM SECON CODA AMPLIT PERI AZIMU VELO AIN AR TRES W  DIS CAZ7
 BAR2 EZ IP     D 1920 44.29                             171    0.3410 21.6 194 
 BAR2 EZ ES       1920 59.57                             171    0.4510 21.6 194 
 BAR2 EZ I        1921  0.55        41.4 0.18            169           21.6 194 
 BRR  HZ EP       1920 46.16                             151    0.5210 73.3 299 
 BRR  HE ES       1921  2.54                             151    0.4210 73.3 299 
 BRR  HZ I        1921  6.67        44.0 0.24            149           73.3 299 
 PAM  EZ IP     D 1920 47.03                             150    0.3910 78.2  38 
 PAM  EN ES       1921  3.68                             150   -0.2210 78.2  38 
 PAM  EZ I        1921  6.53        74.6 0.56            150           78.2  38 
 RUS  HZ EP       1920 48.07                             144    0.0810 98.5 177 
 RUS  HE ES       1921  5.42                             144   -0.8810 98.5 177 
 RUS  HZ I        1921  8.38        48.2 0.34            142           98.5 177 
 PTB  HZ EP       1920 50.92                             131   -0.53 9  149 260 
 PTB  HE ES       1921 12.20                             131   -0.27 9  149 260 
 PTB  HZ I        1921 13.80        43.4 0.30            129            149 260 
 OCA  HZ EP       1920 52.88                             129   -0.04 9  162 353 
 OCA  HE ES       1921 14.78                             129   -0.31 9  162 353 
 OCA  HZ I        1921 20.20        86.0 0.40            127            162 353 
 SPBC HZ EP       1920 53.15                             129    0.31 9  162 220 
 SPBC HE ES       1921 15.16                             129    0.23 9  162 220 
 SPBC HZ I        1921 20.73        62.7 0.40            126            162 220 
 ZAR  HZ EP       1920 57.79                             122    0.72 8  206 293 
 ZAR  HN ES       1921 22.41                             122   -0.06 8  206 293 
 ZAR  HZ I        1921 28.82        33.3 0.28            120            206 293 
 NOR  HZ EP       1921  0.60                             118    0.45 8  235 235 
 NOR  HE ES       1921 28.19                             118    0.24 8  235 235 
 NOR  HZ I        1921 31.87        33.0 0.18            116            235 235 
 SML  HZ EP       1921  2.07                             117    0.75 8  246 335 
 SML  HE ES       1921 29.50                             117   -0.53 8  246 335 
 SML  HZ I        1921 31.16        30.4 0.48            115            246 335 
 CHI  HZ EP       1921  2.15                             117    0.19 8  247 196 
 CHI  HE ES       1921 30.32                             117   -0.85 8  247 196 
 CHI  HZ I        1921 37.48        15.2 0.70            115            247 196 
 HEL  HZ EP       1921  5.07                             114    0.33 8  273 256 
 HEL  HN ES       1921 35.66                             114   -0.46 8  273 256 
 HEL  HZ I        1921 43.40        22.3 0.44            112            273 256 
 URE  HZ EP       1921  4.89                             113   -0.84 7  286 292 
 URE  HE ES   4   1921 36.04                             113   -1.84 0  286 292 
 URE  HZ I        1921 41.86        18.9 0.14            111            286 292 
 GUY2CHZ EP       1921  8.76                             112    0.72 7  301 235 
 GUY2CHE ES       1921 42.02                             112    0.02 7  301 235 
 GUY2CHZ I        1921 50.96        23.4 0.28                           301 235 
 SOCV BN ES   4   1921 36.97                             112   -4.07 0  301  56 
 PTGC HZ EP       1921  7.13                             111   -0.91 7  306 159 
 PTGC HN ES   4   1921 40.38                             111   -1.62 0  306 159 
 PTGC HZ I        1921 45.16        28.4 0.30            110            306 159 
 LL6C HZ EP       1921 10.19                             110   -0.20 7  327 357 
 LL6C HE ES       1921 45.25                             110   -0.93 7  327 357 
 LL6C HZ I        1921 56.96         8.2 0.38            109            327 357 
 ELA  HZ EP       1921 11.27                             110    0.00 7  329 230 
 ELA  HE ES       1921 47.47                             110   -0.27 7  329 230 
 ELA  HZ I        1921 56.59        16.3 0.32            108            329 230 
 CBOC HZ EP       1921 11.96                             110    0.52 7  334 252 
 CBOC HN ES       1921 47.81                             110   -0.23 7  334 252 
 CBOC HZ I        1921 59.34         8.2 0.44            108            334 252 
 MON  HE ES   4   1921 50.53                             108   -1.57 0  356 309 
 MON  HZ I        1921 52.31         6.1 0.26            107            356 309 
 ANIL HZ EP   4   1921 16.42                             108    2.22 0  357 225 
 ANIL HE ES       1921 52.74                             108   -0.22 6  357 225 
 ANIL HZ I        1921 57.99        38.1 0.28            107            357 225 
 PRA  HZ EP       1921 17.72                             106   -0.13 6  391 210 
 PRA  HE ES       1921 59.92                             106    0.46 6  391 210 
 PRA  HZ I        1922  4.53        13.4 0.32            105            391 210 
 ORTC HZ EP       1921 18.86                             106    0.58 6  395 216 
 ORTC HZ I        1922  7.60         8.9 0.52            105            395 216 
 PAL  HZ EP       1921 19.30                             106   -0.33 6  406 239 
 PAL  HE ES       1922  1.92                             106   -0.71 6  406 239 
 PAL  HZ I        1922  7.67         8.0 0.22            104            406 239 
 SJC  HE ES   4   1921 57.49                             105   -6.34 0  412 327 
 CRJC HZ EP   4   1921 24.02                             103   -3.18 0  470   3 
 CRJC HE ES   4   1922 10.39                             103   -5.71 0  470   3 
 CRJC HZ I        1922 20.21        15.6 0.82            102            470   3 
                                                                                
