 2010  617 1024 39.0 L   6.805 -73.068145.6  RSN  6 0.3 1.5LRSN                1
 GAP=164        0.65       4.5     9.7  8.3 -0.1267E+02 -0.1850E+02 -0.2591E+01E
 Epicentro: LOS SANTOS - SANTANDER                                             3
 ACTION:UP  10-08-24 10:11 OP:vdl  STATUS:               ID:20100617102439 L   I
 2010-06-17-1021-21S.COL___115                                                 6
 STAT SP IPHASW D HRMM SECON CODA AMPLIT PERI AZIMU VELO SNR AR TRES W  DIS CAZ7
 BAR2 SZ EP   1   1024 58.61                             169    -0.1 7   27 208 
 BAR2 SZ ES   2   1025 13.43                             169    -0.7 5   27 208 
 BRR  HZ EP   1   1025  0.43                             150    -0.2 7   79 295 
 BRR  HZ I        1025  8.53        12.8 0.39                            79 295 
 BRR  HN ES   2   1025 17.80                             150     0.4 5   79 295 
 RUS  HZ EP   1   1025  3.15                             144     0.3 7  101 181 
 RUS  HE ES   2   1025 21.57                             144     0.2 5  101 181 
 RUS  HZ I        1025 24.04         2.6 0.29                           101 181 
 BRI  SZ EP   1   1025  2.18                             142    -0.5 7  105  17 
 BRI  SZ ES   2   1025 21.14                             142     0.0 5  105  17 
 GUE  SZ EP   1   1025  3.57                             140     0.0 7  114   8 
 GRA  SZ EP   1   1025  4.38                             138     0.3 7  123  14 
 GRA  SZ ES   2   1025 24.02                             138     0.5 5  123  14 
                                                                                
