 2015  917 1125 52.0 L   6.761 -73.162155.1  RSN  5 0.4 1.9LRSN                1
 GAP=199        0.88       4.8     6.2  7.5  0.1466E+02 -0.8107E+01 -0.1355E+02E
 Epicentro: LOS SANTOS - SANTANDER                                             3
 ACTION:UPD 15-10-28 16:26 OP:cam  STATUS:               ID:20150917112552 L   I
 OLDACT:REG 15-09-17 20:24 OP:drio STATUS:               ID:20150917111748     3
 2015-09-17-1117-48M.COL___343                                                 6
 STAT SP IPHASW D HRMM SECON CODA AMPLIT PERI AZIMU VELO AIN AR TRES W  DIS CAZ7
 BRR  HZ EP     C 1126 14.53                             154    0.2910 71.8 302 
 BRR  HE ES       1126 32.04                             154    0.4910 71.8 302 
 BRR  HZ I        1126 36.87         8.7 0.16            152           71.8 302 
 RUS  HZ EP       1126 16.62                             147    0.1910 96.4 175 
 RUS  HN ES       1126 35.11                             147   -0.3610 96.4 175 
 RUS  HZ I        1126 36.90         5.7 0.38            151           96.4 175 
 PTB  HZ EP       1126 19.40                             135   -0.16 9  145 260 
 PTB  HE ES       1126 40.70                             135   -0.33 9  145 260 
 PTB  HZ I        1126 48.08         8.4 0.38            135            145 260 
 ZAR  HZ EP       1126 25.33                             124    0.22 9  204 293 
 ZAR  HN ES       1126 51.05                             124    0.14 9  204 293 
 ZAR  HZ I        1126 56.05         7.3 0.48            126            204 293 
 SML  HZ EP       1126 29.62                             119    0.08 8  247 336 
 SML  HE ES       1126 58.01                             119   -0.78 8  247 336 
 SML  HZ I        1127  2.38        14.3 0.10            122            247 336 
                                                                                
