 2016 1117 1326 25.0 L   6.369 -73.640107.1  RSN  7 0.3 1.6LRSN                1
 GAP=119        0.75       2.4     2.7  5.2 -0.1319E+01  0.2105E+01  0.3648E+01E
 Epicentro: SANTA HELENA DEL OPON - SANTANDER                                  3
 ACTION:UPD 17-10-26 21:09 OP:lp   STATUS:               ID:20161117132625 L   I
 OLDACT:UP  16-11-17 22:58 OP:edw  STATUS:               ID:20161117131726d    3
 OLDACT:UP  16-11-17 22:57 OP:edw  STATUS:               ID:20161117131726d    3
 OLDACT:DUP 16-11-17 22:55 OP:edw  STATUS:               ID:20161117131726d    3
 OLDACT:UP  16-11-17 22:51 OP:edw  STATUS:               ID:20161117131725     3
 OLDACT:UP  16-11-17 22:50 OP:edw  STATUS:               ID:20161117131725     3
 OLDACT:REG 16-11-17 20:15 OP:edw  STATUS:               ID:20161117131725     3
 2016-11-17-1318-00M.COL___334                                                 6
 STAT SP IPHASW D HRMM SECON CODA AMPLIT PERI AZIMU VELO AIN AR TRES W  DIS CAZ7
 BAR2 EZ EP       1326 41.74                             150    0.2410 56.3  64 
 BAR2 EZ ES       1326 54.27                             150   -0.0910 56.3  64 
 BRR  HZ EP       1326 42.93                             139   -0.0410 82.0 354 
 BRR  HN ES       1326 57.17                             139    0.2010 82.0 354 
 PTB  HZ EP   9 C 1326 42.99                             136   -0.84 0 92.2 282 
 PTB  HN ES       1326 57.33                             137   -0.3310 92.2 282 
 PTB  HZ I        1326 59.88        11.2 0.30            135           92.2 282 
 PAM  EZ EP       1326 49.88                             121   -0.06 9  149  44 
 PAM  EN ES       1327  9.12                             121   -0.26 9  149  44 
 PAM  EZ I        1327  9.92         3.4 0.62            123            149  44 
 NOR  HZ EP       1326 50.12                             118   -0.65 9  163 237 
 NOR  HN ES       1327 10.97                             118    0.11 9  163 237 
 ZAR  HZ EP       1326 52.94                             115   -0.01 9  183 313 
 ZAR  HN ES       1327 14.77                             115    0.04 9  183 313 
 ZAR  HZ I        1327 19.41        17.5 0.28            115            183 313 
 CHI  HZ EP       1326 55.14                             114    0.63 9  193 183 
 CHI  HE ES       1327 17.41                             114   -0.11 9  193 183 
 CHI  HZ I        1327 24.44         1.8 0.05            114            193 183 
                                                                                
