 2012  817 1309 32.0 L   6.761 -73.163152.0  RSN  6 0.3 1.8LRSN                1
 GAP=180        0.65       5.9     5.7  7.7  0.1773E+02 -0.5048E+01 -0.1099E+01E
 Epicentro: LOS SANTOS - SANTANDER                                             3
 ACTION:UPD 12-09-10 11:56 OP:ep   STATUS:               ID:20120817130932 L   I
 2012-08-17-1304-50M.COL___201                                                 6
 STAT SP IPHASW D HRMM SECON CODA AMPLIT PERI AZIMU VELO AIN AR TRES W  DIS CAZ7
 BAR2 SZ EP   1   13 9 51.84                             173   -0.43 7 18.7 186 
 BAR2 SZ I        1310  9.25        17.2 0.29                          18.7 186 
 GIR2 SZ EP   1   13 9 52.24                             166   -0.26 7 35.3 355 
 BRR  HZ EP   1   13 9 54.21                             153    0.38 7 71.7 302 
 BRR  HZ I        13 9 54.48        13.3 0.13                          71.7 302 
 BRR  HN ES       1310 11.02                             153    0.1510 71.7 302 
 RUS  HZ EP   1   13 9 56.61                             146    0.56 7 96.4 175 
 RUS  HN ES   1   1310 14.61                             146   -0.22 7 96.4 175 
 PTB  HZ EP   1   13 9 59.01                             134   -0.20 7  145 260 
 PTB  HN ES   1   1310 20.51                             134    0.05 7  145 260 
 ZAR  HE ES   1   1310 30.22                             124   -0.22 6  204 293 
 ZAR  HZ I        1310 36.68         3.8 0.11                           204 293 
                                                                                
