 2012  917 1133 22.0 L   6.834 -73.156143.0  RSN  8 0.2 2.0LRSN                1
 GAP=134        0.41       2.7     2.2  3.0 -0.3658E+00  0.1281E+01  0.2020E+01E
 Epicentro: LOS SANTOS - SANTANDER                                             3
 ACTION:UPD 12-10-22 14:19 OP:ep   STATUS:               ID:20120917113322 L   I
 2012-09-17-1130-00M.COL___224                                                 6
 STAT SP IPHASW D HRMM SECON CODA AMPLIT PERI AZIMU VELO AIN AR TRES W  DIS CAZ7
 BAR2 SZ EP       1133 41.32                             169   -0.0510 26.9 186 
 BAR2 SZ ES       1133 56.48                             169    0.0010 26.9 186 
 BAR2 SZ I        1133 57.49        31.2 0.19                          26.9 186 
 BRR  HZ EP       1133 42.85                             153    0.1610 68.5 296 
 BRR  HE ES   1   1133 59.17                             153    0.33 7 68.5 296 
 BRR  HZ I        1134  0.65        21.3 0.16                          68.5 296 
 PAM  SZ EP       1133 43.75                             151   -0.0410 75.3  42 
 PAM  SN ES       1134  0.70                             151   -0.0910 75.3  42 
 PAM  SZ I        1134  2.95        24.6 0.40                          75.3  42 
 RUS  HZ EP   1   1133 45.64                             142   -0.12 7  104 176 
 PTB  HE ES   1   1134  9.34                             131   -0.21 7  147 257 
 ZAR  HZ EP   1   1133 54.12                             122    0.10 6  202 291 
 ZAR  HZ I        1133 55.95        15.6 0.22                           202 291 
 ZAR  HE ES   1   1134 18.70                             122   -0.29 6  202 291 
 CHI  HZ EP   1   1134  0.21                             116    0.30 6  252 195 
 CHI  HZ I        1134 36.20         2.5 0.39                           252 195 
 PRA  HZ EP   1   1134 15.58                             106   -0.16 4  395 209 
                                                                                
