 2012  617 1936 40.0 L   6.786 -73.160142.5  RSN  5 0.3 1.4LRSN                1
 GAP=135        0.64       4.4     3.8  6.9 -0.1647E+01  0.6734E+01 -0.4688E+01E
 Epicentro: LOS SANTOS - SANTANDER                                             3
 ACTION:UPD 12-08-06 17:50 OP:ep   STATUS:               ID:20120617193640 L   I
 2012-06-17-1930-00M.COL___199                                                 6
 STAT SP IPHASW D HRMM SECON CODA AMPLIT PERI AZIMU VELO AIN AR TRES W  DIS CAZ7
 BAR2 SZ EP   1   1936 59.15                             171    0.00 7 21.6 187 
 BAR2 SZ ES   1   1937 13.94                             171   -0.19 7 21.6 187 
 BAR2 SZ I        1937 15.45         5.2 0.10                          21.6 187 
 PAM  SZ EP       1937  2.09                             149    0.1410 79.6  40 
 PAM  SN ES   1   1937 18.93                             149   -0.18 7 79.6  40 
 RUS  HZ EP   1   1937  3.19                             143   -0.09 7 99.2 175 
 RUS  HZ I        1937  4.44         2.5 0.10                          99.2 175 
 RUS  HN ES   1   1937 21.91                             143    0.44 7 99.2 175 
 PTB  HZ EP   1   1937  6.08                             132   -0.41 7  146 259 
 PTB  HN ES   1   1937 26.82                             132   -0.36 7  146 259 
 PTB  HZ I        1937 30.23         3.0 0.15                           146 259 
 ZAR  HE ES   1   1937 37.79                             122    0.63 6  203 293 
 ZAR  HZ I        1937 43.02         5.7 0.19                           203 293 
                                                                                
