 2010  217 1852  6.4 L   6.797 -73.084146.1  RSN  7 0.3 2.2LRSN                1
 GAP=189        0.57       3.6    12.9  7.6 -0.1292E+02  0.5759E+02 -0.1343E+01E
 Epicentro: LOS SANTOS - SANTANDER                                             3
 ACTION:UP  10-08-24 09:49 OP:vdl  STATUS:               ID:20100217185206 L   I
 2010-02-17-1848-31S.COL___094                                                 6
 STAT SP IPHASW D HRMM SECON CODA AMPLIT PERI AZIMU VELO SNR AR TRES W  DIS CAZ7
 BAR2 SZ EP   1   1852 25.77                             170    -0.4 7   25 206 
 BAR2 SZ ES   2   1852 41.51                             170     0.0 5   25 206 
 RUS  BZ EP   1   1852 30.06                             144    -0.1 7  100 180 
 RUS  BE ES   2   1852 49.16                             144     0.5 5  100 180 
 RUS  BZ I        1852 50.28        17.0 0.49                           100 180 
 OCA  SZ EP   1   1852 35.13                             129     0.3 7  161 351 
 OCA  SZ ES   2   1852 56.87                             129    -0.2 5  161 351 
 CHI  HZ EP   1   1852 44.30                             117     0.0 6  250 197 
 CHI  HE ES   2   1853 13.70                             117    -0.2 4  250 197 
 CHI  HZ I        1853 21.92         8.5 0.53                           250 197 
 RREF BZ EP   1   1852 53.75                             110     0.6 5  327 230 
 RREF BZ I        1853 38.42        11.0 0.21                           327 230 
 TOL  SZ EP   1   1852 54.72                             109    -0.5 5  348 225 
 PRA  HZ EP   1   1853  0.64                             106     0.3 4  395 210 
 PRA  HE ES   2   1853 42.01                             106    -0.3 3  395 210 
 PRA  HZ I        1853 47.26         7.7 0.26                           395 210 
                                                                                
