 2010 1017 1717 34.2 L   6.789 -73.100143.4  RSN 14 0.4 2.9LRSN                1
 GAP=164        0.89       3.5     6.7  5.9 -0.6806E+01  0.1014E+02 -0.4504E+00E
 Epicentro: LOS SANTOS - SANTANDER                                             3
 ACTION:UP  11-02-18 11:10 OP:tino STATUS:               ID:20101017171734 L   I
 2010-10-17-1716-10S.COL___126                                                 6
 STAT SP IPHASW D HRMM SECON CODA AMPLIT PERI AZIMU VELO SNR AR TRES W  DIS CAZ7
 BTL  SZ IP       1717 53.58                             170     0.010   23 308 
 BAR2 SZ IP       1717 53.48                             170    -0.110   24 203 
 BAR2 SZ ES   1   1718  8.29                             170    -0.3 7   24 203 
 BAR2 SZ I        1718  9.52       209.1 0.24                            24 203 
 GIR2 SZ IP       1717 54.52                             166     0.910   34 342 
 BRR  HZ IP     C 1717 55.28                             150    -0.110   76 298 
 BRR  HZ I        1717 55.55       353.8 0.12                            76 298 
 BRR  HE ES   1   1718 12.20                             150     0.3 7   76 298 
 RUS  HZ IP     C 1717 57.51                             144    -0.110   99 179 
 RUS  HN ES   1   1718 15.64                             144    -0.2 7   99 179 
 RUS  HZ I        1718 17.34        63.6 0.40                            99 179 
 GUE  SZ EP       1717 58.40                             139    -0.310  117  10 
 GRA  SZ IP       1717 59.30                             137     0.110  125  15 
 OCA  SZ EP       1718  2.09                             129    -0.4 9  162 351 
 OCA  SZ I        1718 32.20        67.8 0.26                           162 351 
 NOR  SZ EP   1   1718  9.37                             118    -0.8 6  238 236 
 NOR  SE ES   3   1718 37.54                             118    -0.7 2  238 236 
 CHI  HZ EP       1718 11.82                             117     0.0 8  249 196 
 CHI  HN ES   1   1718 41.28                             117     0.2 6  249 196 
 CHI  HZ I        1718 43.53        44.5 0.36                           249 196 
 HEL  HZ EP   1   1718 15.32                             114     0.5 6  277 256 
 HEL  HZ I        1718 53.10        30.4 0.22                           277 256 
 DBB  SZ EP       1718 21.75                             109    -0.4 7  345 274 
 ANIL HZ EP       1718 24.48                             108     0.3 6  360 225 
 ANIL HN ES   2   1719  3.24                             108     0.0 3  360 225 
 ANIL HZ I        1719  5.78        56.0 0.38                           360 225 
 PRA  HZ EP       1718 28.06                             106     0.3 6  393 210 
 PRA  HN ES   2   1719  9.65                             106     0.0 3  393 210 
                                                                                
