 2016  717 1810 59.8 L   6.657 -73.368127.3  RSN  4 0.3 1.6LRSN                1
 GAP=155        0.83       8.0     5.1  7.7  0.1375E+02  0.1496E+02  0.7635E+01E
 Epicentro: GALAN - SANTANDER                                                  3
 ACTION:UPD 17-03-29 16:52 OP:lp   STATUS:               ID:20160717181001dL   I
 OLDACT:REG 16-07-17 21:01 OP:dani STATUS:               ID:20160717180759     3
 2016-07-17-1807-59S.COL___319                                                 6
 STAT SP IPHASW D HRMM SECON CODA AMPLIT PERI AZIMU VELO AIN AR TRES W  DIS CAZ7
 BAR2 EZ EP       1811 17.51                             170    0.3810 21.7 109 
 BAR2 EZ ES       1811 30.81                             170    0.1310 21.7 109 
 BAR2 EZ I        1811 31.66        11.9 0.40            174           21.7 109 
 BRR  HZ EP       1811 18.19                             152   -0.2310 62.7 323 
 BRR  HN ES       1811 32.65                             152   -0.3410 62.7 323 
 BRR  HZ I        1811 33.36         7.7 0.14            151           62.7 323 
 PTB  HZ EP       1811 22.41                             134   -0.3910  121 264 
 PTB  HN ES       1811 40.82                             134    0.0510  121 264 
 PTB  HZ I        1811 45.08         6.5 0.28            132            121 264 
 ZAR  HN ES       1811 53.09                             120    0.50 9  189 299 
 ZAR  HZ I        1811 57.35         4.7 0.28            120            189 299 
                                                                                
