 2014  917 1615 28.0 L   6.834 -73.106147.9  RSN  5 0.3 1.5LRSN                1
 GAP=205        0.61       4.5     4.3  7.3  0.1023E+02 -0.1308E+01 -0.9845E+01E
 Epicentro: LOS SANTOS - SANTANDER                                             3
 ACTION:UPD 14-10-03 23:06 OP:nd   STATUS:               ID:20140917161528 L   I
 OLDACT:UP  14-09-18 00:42 OP:spq  STATUS:               ID:20140917160819d    3
 OLDACT:DUP 14-09-17 23:54 OP:spq  STATUS:               ID:20140917160819d    3
 2014-09-17-1608-18M.COL___293                                                 6
 STAT SP IPHASW D HRMM SECON CODA AMPLIT PERI AZIMU VELO AIN AR TRES W  DIS CAZ7
 BAR2 SZ EP       1615 48.25                             169    0.2210 28.0 197 
 BAR2 SZ ES   1   1616  3.91                             169    0.29 7 28.0 197 
 BAR2 SZ I        1616  4.57         9.5 0.26            176           28.0 197 
 RUS  HZ EP       1615 52.31         2.1 0.32            143    0.0510  104 179 
 RUS  HE ES   1   1616 10.64                             143   -0.50 7  104 179 
 RUS  HZ I        1616 12.05         2.1 0.32            150            104 179 
 PTB  HZ EP   1   1615 55.55                             132   -0.09 7  153 258 
 PTB  HN ES       1616 17.01                             132   -0.15 9  153 258 
 PTB  HZ I        1616 18.19         2.4 0.07            134            153 258 
 ZAR  HN ES       1616 26.76                             123    0.23 8  207 291 
 ZAR  HZ I        1616 31.25         2.7 0.16            123            207 291 
 SML  HE ES   1   1616 32.72                             118   -0.43 6  242 334 
 SML  HZ I        1616 41.41         3.4 0.09            117            242 334 
                                                                                
