 2017  717 1137 23.7 L   6.760 -73.069143.7  RSN 10 0.4 2.1LRSN                1
 GAP=221        0.92       4.3     4.2  4.9  0.4790E+01  0.2903E+01  0.1845E+01E
 Epicentro: LOS SANTOS - SANTANDER                                             3
 ACTION:UPD 17-08-30 15:34 OP:rebc STATUS:               ID:20170717113723 L   I
 OLDACT:DUP 17-07-17 23:06 OP:lv   STATUS:               ID:20170717112749d    3
 2017-07-17-1128-00M.COL___377                                                 6
 STAT SP IPHASW D HRMM SECON CODA AMPLIT PERI AZIMU VELO AIN AR TRES W  DIS CAZ7
 BAR2 EZ EP       1137 43.03                             171   -0.0210 22.3 214 
 BAR2 EZ ES       1137 58.31                             171    0.1610 22.3 214 
 BAR2 EZ I        1137 59.58        39.4 0.08            170           22.3 214 
 BRR  HZ EP       1137 44.96                             149   -0.2310 80.7 298 
 BRR  HN ES       1138  2.26                             149    0.3010 80.7 298 
 RUS  HZ EP       1137 47.48                             145    0.5710 95.9 181 
 RUS  HN ES       1138  4.85                             145   -0.1610 95.9 181 
 PTB  HZ EP   9   1137 49.74                             130   -1.45 0  155 261 
 PTB  HN ES       1138 10.71                                   -0.47 9  155 261 
 SPBC HZ EP       1137 52.06                             128   -0.18 9  165 222 
 SPBC HN ES       1138 14.38                             128   -0.12 9  165 222 
 ZAR  HZ EP       1137 56.93                             121   -0.07 8  214 292 
 ZAR  HE ES       1138 22.29                             121   -0.68 8  214 292 
 NOR  HZ EP       1137 59.65                             118   -0.13 8  239 237 
 NOR  HN ES       1138 27.49                             118   -0.44 8  239 237 
 HEL  HZ EP       1138  5.28                             114    0.68 7  279 257 
 HEL  HN ES       1138 36.93                             114    0.43 7  279 257 
 HEL  HZ I        1138 41.15         4.7 0.24            114            279 257 
 PTGC HZ EP       1138  5.96                             112   -0.69 7  302 160 
 GUY2CHZ EP       1138  8.20                             112    0.49 7  306 236 
                                                                                
