 2012 1117 1057  3.9 L   6.746 -73.132148.8  RSN  5 0.4 1.7LRSN                1
 GAP=187        1.02       6.9     7.3  7.7  0.1906E+02  0.1392E+02  0.1275E+02E
 Epicentro: JORDAN - SANTANDER                                                 3
 ACTION:UPD 12-12-05 15:34 OP:}ep  STATUS:               ID:20121117105703 L   I
 2012-11-17-1050-00M.COL___233                                                 6
 STAT SP IPHASW D HRMM SECON CODA AMPLIT PERI AZIMU VELO AIN AR TRES W  DIS CAZ7
 BAR2 SZ EP       1057 24.01                             173    0.1710 17.8 198 
 BAR2 SZ ES       1057 39.31                             173   -0.0510 17.8 198 
 GIR2 SZ ES       1057 39.26                             165   -0.6610 37.5 350 
 BRR  HZ EP       1057 26.05                             152    0.3910 75.5 302 
 BRR  HN ES       1057 43.23                             152    0.6210 75.5 302 
 BRR  HN I        1057 44.36        11.7 0.26                          75.5 302 
 RUS  HZ EP       1057 27.31                             146   -0.2610 94.5 177 
 RUS  HN ES       1057 46.30                             146    0.3010 94.5 177 
 RUS  HN I        1057 48.23         4.1 0.26                          94.5 177 
 PTB  HZ EP       1057 30.93                             133   -0.26 9  148 261 
 PTB  HN ES       1057 52.12                             133   -0.33 9  148 261 
 PTB  HN I        1057 57.59         8.2 0.26                           148 261 
                                                                                
