 2017  717 1009 31.1 L   6.756 -73.093146.0  RSN  4 0.3 1.6LRSN                1
 GAP=240        0.76       8.8    10.2  7.7  0.7604E+02 -0.1459E+02 -0.1936E+02E
 Epicentro: LOS SANTOS - SANTANDER                                             3
 ACTION:UPD 17-08-30 15:34 OP:rebc STATUS:               ID:20170717100931 L   I
 OLDACT:REG 17-07-17 20:31 OP:lv   STATUS:               ID:20170717100740     3
 2017-07-17-1008-00M.COL___374                                                 6
 STAT SP IPHASW D HRMM SECON CODA AMPLIT PERI AZIMU VELO AIN AR TRES W  DIS CAZ7
 BAR2 EZ EP       10 9 50.55                             172   -0.1710 20.6 209 
 BRR  HZ EP       10 9 52.40                             150   -0.3310 78.7 300 
 BRR  HE ES       1010  9.88                             150    0.2910 78.7 300 
 BRR  HZ I        1010 10.61         6.7 0.29            145           78.7 300 
 RUS  HZ EP       10 9 54.63                             145    0.1110 95.4 179 
 RUS  HN ES       1010 12.76                             145   -0.0210 95.4 179 
 ZAR  HZ EP       1010  4.87                             121    0.54 8  211 293 
 ZAR  HE ES       1010 29.86                             121   -0.38 8  211 293 
 ZAR  HZ I        1010 34.91         3.7 0.17            119            211 293 
                                                                                
