 2012  817 1241 30.4 L   6.119 -73.916 85.3  RSN  8 0.2 1.5LRSN                1
 GAP= 68        0.47       2.5     2.1  6.2  0.1564E+01  0.4956E+01  0.6973E+01E
 Epicentro: EL PEON - SANTANDER                                                3
 ACTION:UPD 12-09-10 11:56 OP:ep   STATUS:               ID:20120817124130 L   I
 2012-08-17-1240-00M.COL___218                                                 6
 STAT SP IPHASW D HRMM SECON CODA AMPLIT PERI AZIMU VELO AIN AR TRES W  DIS CAZ7
 PTB  HZ EP   1   1241 45.58                             135   -0.32 7 75.8 308 
 PTB  HN ES   1   1241 58.08                             135    0.10 7 75.8 308 
 PTB  HZ I        1242  2.67         7.6 0.06                          75.8 308 
 RUS  HZ EP   1   1241 48.20                             128   -0.17 7 95.5 105 
 RUS  HE ES   1   1242  2.15                             128   -0.23 7 95.5 105 
 RUS  HZ I        1242  3.43         4.1 0.16                          95.5 105 
 BAR2 SZ EP   1   1241 48.10                             128   -0.04 7 96.5  57 
 BAR2 SZ ES   1   1242  2.27                             128    0.31 7 96.5  57 
 BRR  HZ EP   1   1241 49.20                             123   -0.14 7  112  12 
 BRR  HZ I        1241 59.16        10.9 0.44                           112  12 
 BRR  HN ES   1   1242  4.20                             123    0.10 7  112  12 
 NOR  SZ EP   1   1241 50.39                             120   -0.13 7  122 240 
 CHI  HZ EP   1   1241 56.29                             112    0.45 7  166 173 
 HEL  HZ EP   1   1241 57.46                             111    0.21 7  179 273 
 HEL  HZ I        1242 29.85         4.3 0.36                           179 273 
 ZAR  HE ES   1   1242 18.47                             110   -0.03 7  184 326 
 ZAR  HZ I        1242 22.03         5.4 0.10                           184 326 
                                                                                
