 2016 1117 1939 43.4 L   6.681 -73.129140.6  RSN  6 0.6 2.0LRSN                1
 GAP=163        1.40       9.4     6.7 10.1 -0.1108E+02  0.1817E+02  0.3471E+01E
 Epicentro: VILLANUEVA - SANTANDER                                             3
 ACTION:UPD 17-10-26 21:09 OP:lp   STATUS:               ID:20161117193943 L   I
 OLDACT:REG 16-11-17 20:53 OP:edw  STATUS:               ID:20161117193734     3
 2016-11-17-1938-00M.COL___343                                                 6
 STAT SP IPHASW D HRMM SECON CODA AMPLIT PERI AZIMU VELO AIN AR TRES W  DIS CAZ7
 BAR2 EZ EP       1940  2.75                             175    0.5210 11.5 211 
 BAR2 EZ ES       1940 17.25                             175    0.3410 11.5 211 
 BAR2 EZ I        1940 18.54        31.4 0.24            170           11.5 211 
 BRR  HZ EP       1940  4.58                             149    0.0510 79.8 306 
 BRR  HE ES       1940 21.67                             149    0.6810 79.8 306 
 BRR  HZ I        1940 23.69        20.7 0.34            150           79.8 306 
 PAM  EZ EP       1940  5.57                             147   -0.1210 86.9  33 
 PAM  EN ES       1940 22.33                             147   -0.7310 86.9  33 
 PAM  EZ I        1940 24.78        20.9 0.66            151           86.9  33 
 PTB  HZ EP       1940  9.24                             131   -0.71 9  148 264 
 PTB  HN ES       1940 29.83                             131   -0.82 9  148 264 
 PTB  HZ I        1940 32.32        12.8 0.16            130            148 264 
 ZAR  HZ EP       1940 17.19                             120    0.93 8  211 295 
 ZAR  HN ES       1940 41.76                             120   -0.12 8  211 295 
 ZAR  HZ I        1940 47.18        10.8 0.34            121            211 295 
 CHI  HN ES   2   1940 47.71                             117    0.05 4  236 196 
 CHI  HZ I        1940 56.77         2.9 0.42            116            236 196 
                                                                                
