 2014 1017 1054 47.4 L   6.334 -73.615110.1  RSN 15 0.5 2.1LRSN                1
 GAP= 71        1.19       2.7     3.4  6.6 -0.1495E+01  0.5665E+01 -0.7529E-02E
 Epicentro: SANTA HELENA DEL OPON - SANTANDER                                  3
 ACTION:UPD 14-11-29 23:50 OP:nd   STATUS:               ID:20141017105447 L   I
 OLDACT:REG 14-10-17 20:33 OP:fm   STATUS:               ID:20141017104744     3
 2014-10-17-1047-44M.COL___281                                                 6
 STAT SP IPHASW D HRMM SECON CODA AMPLIT PERI AZIMU VELO AIN AR TRES W  DIS CAZ7
 BAR2 SZ EP     C 1055  4.39                             151    0.2110 55.7  59 
 BAR2 SZ ES   1   1055 17.97                             151    0.72 7 55.7  59 
 BAR2 SZ I        1055 18.73        47.5 0.38            152           55.7  59 
 RUS  HZ EP     D 1055  5.69                             143   -0.2310 76.4 130 
 RUS  HE ES       1055 19.94                             143   -0.4010 76.4 130 
 RUS  HZ I        1055 21.69        10.7 0.20            143           76.4 130 
 BRR  HZ EP       1055  5.97                             139   -0.0110 86.2 353 
 BRR  HE ES       1055 20.82                             139    0.3710 86.2 353 
 BRR  HZ I        1055 21.62        34.3 0.10            138           86.2 353 
 SPBC HZ EP       1055  6.59                             137    0.1110 90.8 214 
 SPBC HE ES       1055 21.47                             137    0.1210 90.8 214 
 SPBC HZ I        1055 25.55        33.3 0.26            135           90.8 214 
 PTB  HZ EP       1055  6.06                             136   -0.7410 95.8 284 
 PTB  HN ES       1055 21.60                             136   -0.3210 95.8 284 
 PTB  HZ I        1055 24.31        32.5 0.10            133           95.8 284 
 PAM  SZ EP       1055 12.46                             122   -0.16 9  150  42 
 PAM  SN ES       1055 32.67                             122    0.38 9  150  42 
 PAM  SZ I        1055 36.84        10.0 0.44            121            150  42 
 ZAR  HZ EP       1055 16.00                             115   -0.02 9  188 313 
 ZAR  HE ES       1055 38.72                             115    0.39 9  188 313 
 ZAR  HZ I        1055 43.49        27.9 0.42            114            188 313 
 CHI  HZ EP   1   1055 16.63                             115   -0.03 7  189 184 
 CHI  HN ES       1055 38.73                             115   -0.73 9  189 184 
 CHI  HZ I        1055 44.32         4.7 0.26            114            189 184 
 HEL  HZ EP       1055 19.43                             112    0.21 8  212 266 
 HEL  HE ES       1055 43.14                             112   -0.89 8  212 266 
 HEL  HZ I        1055 50.80         8.4 0.32            111            212 266 
 OCA  HN ES       1055 43.57                             112   -0.12 8  213   9 
 OCA  HZ I        1055 50.76        10.5 0.18            111            213   9 
 URE  HZ EP   4   1055 23.73                             107   -0.92 0  264 307 
 URE  HE ES   4   1055 52.30                             107   -1.40 0  264 307 
 URE  HZ I        1055 54.16        15.7 0.14            106            264 307 
 TOL  SZ EP   1   1055 26.72                             107    0.87 6  270 224 
 TOL  SN ES   1   1055 57.71                             107    1.89 6  270 224 
 TOL  SZ I        1056  2.95        10.9 0.52            105            270 224 
 SML  HZ EP       1055 25.77                             106   -0.48 7  277 350 
 SML  HN ES   4   1055 58.03                             106    1.49 0  277 350 
 SML  HZ I        1056  1.27        16.7 0.10            105            277 350 
 PRA  HZ EP   1   1055 32.13                             103    0.54 5  322 206 
 PRA  HE ES       1056  6.87                             103    0.82 7  322 206 
 PRA  HZ I        1056 12.24         6.0 0.18            102            322 206 
 ORTC HN ES   4   1056  8.40                             103    2.09 0  323 214 
 ORTC HZ I        1056 13.98         4.1 0.18            101            323 214 
                                                                                
