 2015 1217 1228 18.1 L   6.808 -73.171139.4  RSN 15 0.5 2.3LRSN                1
 GAP=133        1.10       3.2     3.8  5.8 -0.2173E+01  0.9147E+01 -0.2516E+01E
 Epicentro: LOS SANTOS - SANTANDER                                             3
 ACTION:UPD 16-02-04 15:05 OP:cam  STATUS:               ID:20151217122818 L   I
 OLDACT:REG 15-12-17 21:21 OP:ar   STATUS:               ID:20151217121747     3
 2015-12-17-1217-47M.COL___334                                                 6
 STAT SP IPHASW D HRMM SECON CODA AMPLIT PERI AZIMU VELO AIN AR TRES W  DIS CAZ7
 BAR2 EZ EP       1228 36.74                             170   -0.1910 23.9 183 
 BAR2 EZ ES       1228 51.35                             170   -0.3110 23.9 183 
 BAR2 EZ I        1228 52.93        56.3 0.36            170           23.9 183 
 BRR  HZ EP       1228 38.66                             152    0.3110 68.3 299 
 BRR  HN ES       1228 55.14                             152    0.9510 68.3 299 
 BRR  HZ I        1228 57.08        29.3 0.14            150           68.3 299 
 PAM  EZ EP       1228 39.76                             149    0.0910 78.5  42 
 PAM  EN ES       1228 56.61                             149    0.0910 78.5  42 
 PAM  EZ I        1228 58.81        44.9 0.58            153           78.5  42 
 RUS  HZ EP       1228 41.42                             142    0.1510  102 175 
 RUS  HN ES       1228 59.07                             142   -0.3110  102 175 
 RUS  HZ I        1229  0.82        16.8 0.28            145            102 175 
 PTB  HZ EP       1228 43.75                             131   -0.52 9  145 258 
 PTB  HN ES       1229  4.17                             131   -0.55 9  145 258 
 PTB  HZ I        1229  6.37        19.3 0.20            131            145 258 
 OCA  HZ EP       1228 45.43                             128   -0.33 9  159 354 
 OCA  HN ES       1229  6.70                             128   -0.67 9  159 354 
 OCA  HZ I        1229 10.34        48.7 0.48            130            159 354 
 SPBC HN ES   2   1229  7.46                             128   -0.29 5  162 218 
 SPBC HZ I        1229  9.67        26.0 0.26            129            162 218 
 ZAR  HZ EP       1228 49.75                             121   -0.04 9  201 292 
 ZAR  HN ES       1229 15.40                             121    0.86 9  201 292 
 ZAR  HZ I        1229 23.25        16.3 0.28            122            201 292 
 NOR  HZ EP       1228 54.17                             117    0.94 8  233 234 
 NOR  HN ES       1229 20.66                             117   -0.01 8  233 234 
 NOR  HZ I        1229 25.02        10.8 0.14            119            233 234 
 SML  HZ EP       1228 54.11                             116   -0.00 8  242 336 
 SML  HN ES       1229 22.10                             116   -0.14 8  242 336 
 SML  HZ I        1229 27.89        27.4 0.26            118            242 336 
 HEL  HZ EP       1228 58.18                             114    0.51 8  270 255 
 HEL  HN ES       1229 28.39                             114   -0.18 8  270 255 
 HEL  HZ I        1229 39.25         6.8 0.32            115            270 255 
 URE  HZ EP       1228 59.08                             112    0.59 7  281 292 
 URE  HN ES   2   1229 29.13                             112   -0.90 4  281 292 
 URE  HZ I        1229 30.59        14.4 0.36            113            281 292 
 GUY2CHZ EP   2   1229  0.58                             111   -0.59 4  299 234 
 GUY2CHN ES   2   1229 35.11                             111    0.30 4  299 234 
 GUY2CHZ I        1229 42.10         7.6 0.24                           299 234 
 DBB  SZ EP   2   1229  4.87                             108   -0.08 3  337 274 
 DBB  SZ ES       1229 40.59                             108   -0.94 7  337 274 
 SJC  HZ EP   4   1229 11.08                             105   -2.06 0  407 327 
 SJC  HN ES   4   1229 51.97                             105   -4.14 0  407 327 
 SJC  HZ I        1229 56.95         5.4 0.58            106            407 327 
                                                                                
