 2015  317 1353 15.1 L   6.801 -73.163147.3  RSN 12 0.4 2.4LRSN                1
 GAP=134        0.89       2.8     3.8  4.7 -0.3208E+01  0.5928E+01  0.4657E+00E
 Epicentro: LOS SANTOS - SANTANDER                                             3
 ACTION:UPD 15-04-30 16:26 OP:nd   STATUS:               ID:20150317135315 L   I
 OLDACT:UP  15-03-17 22:29 OP:cam  STATUS:               ID:20150317134749     3
 OLDACT:REG 15-03-17 21:20 OP:cam  STATUS:               ID:20150317134749     3
 2015-03-17-1347-49M.COL___263                                                 6
 STAT SP IPHASW D HRMM SECON CODA AMPLIT PERI AZIMU VELO AIN AR TRES W  DIS CAZ7
 BAR2 EZ EP     C 1353 34.98                             171    0.0510 23.2 185 
 BAR2 EZ ES       1353 49.94                             171   -0.4410 23.2 185 
 BAR2 EZ I        1353 52.55        51.2 0.20            170           23.2 185 
 BRR  HZ EP       1353 36.88                             153    0.5410 69.5 299 
 BRR  HN ES       1353 53.68                             153    0.7910 69.5 299 
 BRR  HN I        1353 54.43       105.8 0.28            152           69.5 299 
 PAM  SZ EP     D 1353 37.75                             151    0.1910 78.5  41 
 PAM  SN ES       1353 54.85                             151   -0.2210 78.5  41 
 PAM  SZ I        1353 57.30        23.5 0.66            153           78.5  41 
 RUS  HZ EP       1353 38.87                             144   -0.1710  101 175 
 RUS  HN ES       1353 57.84                             144    0.1410  101 175 
 RUS  HZ I        1353 58.54        23.6 0.28            145            101 175 
 PTB  HZ EP       1353 41.57                             133   -0.48 9  146 259 
 PTB  HN ES       1354  2.87                             133   -0.18 9  146 259 
 PTB  HZ I        1354  4.04        28.7 0.12            132            146 259 
 SPBC HZ EP       1353 43.77                             130    0.13 9  162 218 
 SPBC HN ES       1354  5.72                             130   -0.16 9  162 218 
 SPBC HZ I        1354 10.14        32.6 0.24            130            162 218 
 NOR  HZ EP       1353 50.64                             119   -0.14 8  233 234 
 NOR  HE ES       1354 18.33                             119   -0.27 8  233 234 
 NOR  HZ I        1354 24.18        24.2 0.36            119            233 234 
 SML  HZ EP       1353 51.51                             118   -0.22 8  243 336 
 SML  HN ES       1354 20.03                             118   -0.26 8  243 336 
 SML  HZ I        1354 26.47        19.9 0.10            118            243 336 
 URE  HZ EP   1   1353 55.36                             114   -0.70 6  282 292 
 GUY2CHZ EP   4   1353 59.88                             113    1.24 0  300 235 
 GUY2CHN ES       1354 32.95                             113    0.37 7  300 235 
 GUY2CHZ I        1354 41.34        16.1 0.36                           300 235 
 TOL  SZ EP       1354  3.86                             110    0.56 7  342 224 
 TOL  SE ES       1354 41.10                             110    0.22 7  342 224 
 TOL  SZ I        1354 46.34        20.5 0.90            110            342 224 
 PRA  HZ EP       1354  9.21                             107    0.61 6  391 209 
 PRA  HN ES       1354 49.70                             107   -0.62 6  391 209 
 PRA  HZ I        1354 55.39         8.1 0.28            107            391 209 
                                                                                
