 2011 1117 1249 41.1 L   6.769 -73.155136.5  RSN 10 0.3 2.4LRSN                1
 GAP=137        0.66       2.6     3.4  4.8 -0.9400E+00  0.5362E+01  0.1470E+01E
 Epicentro: LOS SANTOS - SANTANDER                                             3
 ACTION:UPD 12-07-13 16:10 OP:ep   STATUS:               ID:20111117124941 L   I
 2011-11-17-1247-45S.COL___179                                                 6
 STAT SP IPHASW D HRMM SECON CODA AMPLIT PERI AZIMU VELO AIN AR TRES W  DIS CAZ7
 BAR2 SZ EP       1249 59.80                             171    0.2410 19.8 189 
 BAR2 SZ ES   1   1250 14.01                             171    0.07 7 19.8 189 
 BAR2 SZ I        1250 16.00        68.7 0.25                          19.8 189 
 BRR  HZ EP   1   1250  1.71                             151    0.39 7 72.0 301 
 BRR  HN ES   1   1250 17.58                             151    0.51 7 72.0 301 
 BRR  HZ I        1250 22.83        90.3 0.13                          72.0 301 
 PAM  SZ EP       1250  2.64                             148    0.0810 80.7  39 
 PAM  SZ I        1250  2.94        68.9 0.15                          80.7  39 
 PAM  SN ES   1   1250 19.09                             148   -0.20 7 80.7  39 
 RUS  HZ EP   1   1250  3.80                             143    0.08 7 97.2 175 
 RUS  HN ES   1   1250 21.20                             143   -0.14 7 97.2 175 
 RUS  HZ I        1250 22.99        24.9 0.23                          97.2 175 
 OCA  SZ EP   1   1250  8.73                             127   -0.31 7  164 354 
 OCA  SZ ES   1   1250 30.14                             127   -0.68 7  164 354 
 OCA  SZ I        1250 33.81        59.8 0.34                           164 354 
 ZAR  HZ EP   1   1250 12.86                             120   -0.15 6  204 293 
 ZAR  HN ES   1   1250 37.87                             120   -0.02 6  204 293 
 ZAR  HZ I        1250 44.72        43.0 0.16                           204 293 
 NOR  SZ EP   1   1250 16.36                             117    0.34 6  232 235 
 NOR  SN ES   1   1250 42.96                             117   -0.28 6  232 235 
 NOR  SZ I        1250 45.81         1.5 0.14                           232 235 
 CHI  HZ EP   1   1250 17.89                             115   -0.03 6  245 195 
 CHI  HN ES   1   1250 45.86                             115   -0.77 6  245 195 
 CHI  HZ I        1250 50.71         9.9 0.25                           245 195 
 HEL  HZ EP   1   1250 21.15                             113    0.48 6  270 256 
 HEL  HN ES   1   1250 51.06                             113   -0.46 6  270 256 
 HEL  HZ I        1250 59.12        12.4 0.38                           270 256 
 PRA  HZ EP   1   1250 34.26                             105    0.34 4  389 210 
 PRA  HZ I        1251 22.85        34.3 0.32                           389 210 
                                                                                
