 2014  417 1458 14.2 L   6.826 -73.179141.4  RSN  5 0.3 1.5LRSN                1
 GAP=146        0.80       3.9     4.1  7.0 -0.5057E+01  0.8546E+01  0.5371E+01E
 Epicentro: ZAPATOCA - SANTANDER                                               3
 ACTION:UPD 14-05-13 23:09 OP:nd   STATUS:               ID:20140417145814 L   I
 OLDACT:REG 14-04-17 20:53 OP:stll STATUS:               ID:20140417144808     3
 2014-04-17-1448-08M.COL___247                                                 6
 STAT SP IPHASW D HRMM SECON CODA AMPLIT PERI AZIMU VELO AIN AR TRES W  DIS CAZ7
 PAM  SZ EP       1458 36.35                             150    0.4110 77.7  43 
 PAM  SN ES       1458 52.83                             150   -0.0910 77.7  43 
 PAM  SZ I        1458 55.33         6.8 0.52            155           77.7  43 
 RUS  HZ EP       1458 37.25                             142   -0.4810  104 174 
 RUS  HZ I        1458 38.26         3.9 0.46            147            104 174 
 RUS  HN ES       1458 56.24                             142    0.1310  104 174 
 PTB  HZ EP       1458 39.96                             132   -0.54 9  145 257 
 PTB  HN ES       1459  1.06                             132    0.01 9  145 257 
 PTB  HZ I        1459  8.64         4.9 0.42            132            145 257 
 NOR  HZ EP       1458 49.94                             118    0.44 8  233 233 
 NOR  HE ES       1459 17.31                             118    0.24 8  233 233 
 NOR  HZ I        1459 24.22         2.8 0.16            120            233 233 
 CHI  HZ EP       1458 51.92                             116    0.09 8  250 194 
 CHI  HN ES       1459 21.17                             116   -0.03 8  250 194 
                                                                                
