 2016  817 1346  0.6 L   6.808 -73.138141.3  RSN 15 0.5 2.4LRSN                1
 GAP=137        1.11       3.7     4.0  5.9 -0.1724E+01  0.7047E+01  0.4887E+01E
 Epicentro: LOS SANTOS - SANTANDER                                             3
 ACTION:UPD 16-10-29 15:36 OP:rebc STATUS:               ID:20160817134600 L   I
 OLDACT:REG 16-08-17 20:46 OP:dnl  STATUS:               ID:20160817133738     3
 2016-08-17-1338-00M.COL___377                                                 6
 STAT SP IPHASW D HRMM SECON CODA AMPLIT PERI AZIMU VELO AIN AR TRES W  DIS CAZ7
 BAR2 EZ EP       1346 19.72                             170    0.0110 24.4 192 
 BAR2 EZ ES       1346 34.37                             170   -0.2510 24.4 192 
 BAR2 EZ I        1346 36.11        91.4 0.44                          24.4 192 
 BRR  HZ EP       1346 21.46                             152    0.1810 71.5 298 
 BRR  HN ES       1346 38.29                             152    0.8810 71.5 298 
 BRR  HZ I        1346 38.97        91.9 0.34                          71.5 298 
 PAM  EZ EP       1346 22.41                             150    0.1410 76.2  39 
 PAM  EN ES       1346 38.94                             150   -0.2310 76.2  39 
 PAM  EZ I        1346 41.57        47.6 0.44                          76.2  39 
 RUS  HZ EP       1346 24.06                             143    0.0910  101 177 
 RUS  HE ES       1346 42.24                             143    0.0310  101 177 
 RUS  HZ I        1346 44.46        23.5 0.26                           101 177 
 PTB  HZ EP       1346 26.31                             131   -0.98 9  149 259 
 PTB  HN ES       1346 47.25                             131   -0.87 9  149 259 
 PTB  HZ I        1346 49.97        37.6 0.40                           149 259 
 SPBC HZ EP       1346 28.65                             128   -0.22 9  164 219 
 SPBC HN ES       1346 50.72                             128   -0.21 9  164 219 
 SPBC HZ I        1346 57.96        30.6 0.30                           164 219 
 ZAR  HZ EP       1346 33.38                             121    0.58 9  204 292 
 ZAR  HN ES       1346 58.00                             121    0.08 9  204 292 
 ZAR  HZ I        1347  4.72        27.2 0.38                           204 292 
 NOR  HZ EP       1346 36.15                             117   -0.05 8  236 234 
 NOR  HN ES       1347  3.34                             117   -0.63 8  236 234 
 NOR  HZ I        1347 12.18        12.3 0.38                           236 234 
 CHI  HZ EP       1346 38.23                             116    0.06 8  250 195 
 CHI  HE ES       1347  8.18                             116    0.70 8  250 195 
 CHI  HZ I        1347 16.30        10.5 0.60                           250 195 
 HEL  HZ EP   2   1346 41.35                             114    0.65 4  273 256 
 HEL  HE ES   4   1347 13.71                             114    1.73 0  273 256 
 HEL  HZ I        1347 18.45        18.4 0.32                           273 256 
 URE  HZ EP   4   1346 43.20                             113    1.70 0  284 292 
 URE  HE ES   4   1347 11.36                             113   -2.05 0  284 292 
 URE  HZ I        1347 21.46        17.6 0.24                           284 292 
 GUY2CHZ EP   2   1346 43.03                             111   -1.11 4  302 235 
 GUY2CHN ES       1347 19.05                             111    0.95 7  302 235 
 GUY2CHZ I        1347 26.61         8.9 0.46                           302 235 
 CBOC HZ EP   2   1346 46.66                             109   -0.79 3  335 252 
 CBOC HN ES       1347 24.30                             109    0.30 7  335 252 
 CBOC HZ I        1347 34.30         3.8 0.44                           335 252 
 ANIL HZ EP   9   1346 52.15                             108    1.78 0  359 225 
 ANIL HE ES       1347 31.16                                    0.19 6  359 225 
 ANIL HZ I        1347 36.54        29.0 0.30                           359 225 
 PRA  HZ EP       1346 53.96                             106   -0.15 6  393 210 
 PRA  HE ES       1347 36.32                             106    0.48 6  393 210 
 PRA  HZ I        1347 43.29        18.4 0.44                           393 210 
                                                                                
