 2012  817 1212 39.9 L   6.717 -73.183134.7  RSN  5 0.2 1.7LRSN                1
 GAP=175        0.56       6.2     4.7  5.8  0.8106E+01 -0.5264E+00  0.9646E+01E
 Epicentro: VILLANUEVA - SANTANDER                                             3
 ACTION:UPD 12-09-10 11:56 OP:ep   STATUS:               ID:20120817121239 L   I
 2012-08-17-1210-00M.COL___217                                                 6
 STAT SP IPHASW D HRMM SECON CODA AMPLIT PERI AZIMU VELO AIN AR TRES W  DIS CAZ7
 BAR2 SZ EP       1212 58.08                             174    0.0710 13.8 180 
 BAR2 SZ ES   1   1213 11.82                             174   -0.33 7 13.8 180 
 BAR2 SZ I        1213 13.87        12.2 0.23                          13.8 180 
 GIR2 SZ EP   1   1212 58.25                             163   -0.27 7 40.0 358 
 BRR  HZ EP       1212 59.89                             150   -0.0410 72.7 306 
 BRR  HN ES       1213 15.83                             150    0.2610 72.7 306 
 BRR  HZ I        1213 27.48        15.7 0.32                          72.7 306 
 RUS  HZ EP   1   1213  2.30                             144    0.39 7 91.8 173 
 PTB  HZ EP   1   1213  5.22                             130   -0.23 7  142 262 
 PTB  HN ES   1   1213 25.29                             130   -0.10 7  142 262 
 PTB  HZ I        1213 28.56         4.0 0.09                           142 262 
                                                                                
