 2017  717 1548 58.5 L   6.860 -73.143142.0  RSN  5 0.4 1.4LRSN                1
 GAP=222        0.85       6.8     5.9  6.7  0.6808E+01  0.1144E+02 -0.7327E+01E
 Epicentro: LOS SANTOS - SANTANDER                                             3
 ACTION:UPD 17-08-30 15:34 OP:rebc STATUS:               ID:20170717154858 L   I
 OLDACT:DUP 17-07-18 01:15 OP:lv   STATUS:               ID:20170717153739d    3
 2017-07-17-1538-00M.COL___383                                                 6
 STAT SP IPHASW D HRMM SECON CODA AMPLIT PERI AZIMU VELO AIN AR TRES W  DIS CAZ7
 BAR2 EZ EP       1549 18.31                             167    0.5210 29.9 188 
 BAR2 EZ ES       1549 32.52                             167   -0.3410 29.9 188 
 BAR2 EZ I        1549 35.64         5.9 0.06            164           29.9 188 
 RUS  HZ EP       1549 22.16                             141   -0.1710  107 176 
 RUS  HN ES       1549 41.36                             141    0.4110  107 176 
 RUS  HZ I        1549 43.74         1.6 0.23            141            107 176 
 YPLC HZ EP       1549 28.32                             125   -0.22 9  182 152 
 ZAR  HZ EP       1549 30.12                             122   -0.32 9  202 290 
 ZAR  HE ES   3   1549 56.87                             122    1.48 2  202 290 
 NOR  HZ EP       1549 34.62                             117    0.20 8  239 233 
 NOR  HN ES       1550  2.15                             117   -0.32 8  239 233 
 NOR  HZ I        1550  7.27         5.1 0.06            118            239 233 
                                                                                
