 2013  217 1517 32.3 L   6.758 -73.139144.0  RSN  6 0.4 1.8LRSN                1
 GAP=139        0.85       6.3     4.4 10.0  0.1956E+01  0.4447E+01  0.1248E+02E
 Epicentro: LOS SANTOS - SANTANDER                                             3
 ACTION:UPD 13-03-12 09:33 OP:ep   STATUS:               ID:20130217151732 L   I
 2013-02-17-1510-00M.COL___241                                                 6
 STAT SP IPHASW D HRMM SECON CODA AMPLIT PERI AZIMU VELO AIN AR TRES W  DIS CAZ7
 BAR2 SZ EP       1517 51.73                             172    0.0510 18.9 195 
 BAR2 SZ I        1518  8.07         7.2 0.46            168           18.9 195 
 BRR  HZ EP       1517 53.67                             151    0.2010 74.2 301 
 BRR  HN ES   1   1518 10.39                             151    0.44 7 74.2 301 
 BRR  HN I        1518 14.18        13.7 0.34            151           74.2 301 
 PAM  SZ EP       1517 54.71                             149    0.1410 80.6  37 
 PAM  SN ES   1   1518 11.22                             149   -0.68 7 80.6  37 
 PAM  SN I        1518 12.30        11.1 0.24            152           80.6  37 
 RUS  HZ EP   1   1517 55.79                             145    0.21 7 95.9 176 
 RUS  HN ES   2   1518 14.08                             145    0.37 5 95.9 176 
 RUS  HN I        1518 15.74         9.6 0.26            141           95.9 176 
 PTB  HZ EP   1   1517 58.53                             131   -0.63 7  148 261 
 PTB  HN ES   1   1518 19.36                             131   -0.71 7  148 261 
 PTB  HN I        1518 24.77         9.3 0.34            130            148 261 
 ZAR  HN ES       1518 30.61                             121    0.26 8  207 293 
 ZAR  HN I        1518 34.60         6.7 0.44            121            207 293 
                                                                                
