 2017  417 1919 23.4 L   6.782 -73.127141.3  RSN  7 0.4 2.0LRSN                1
 GAP=140        0.78       3.4     3.6  5.1 -0.6821E-01  0.7254E+01  0.1217E+01E
 Epicentro: LOS SANTOS - SANTANDER                                             3
 ACTION:UPD 17-05-30 21:13 OP:jn   STATUS:               ID:20170417191923 L   I
 OLDACT:UP  17-04-17 23:44 OP:cog  STATUS:               ID:20170417191102     3
 OLDACT:REG 17-04-17 21:33 OP:cog  STATUS:               ID:20170417191102     3
 2017-04-17-1918-00M.COL___374                                                 6
 STAT SP IPHASW D HRMM SECON CODA AMPLIT PERI AZIMU VELO AIN AR TRES W  DIS CAZ7
 BAR2 EZ EP       1919 42.39                             171   -0.0810 21.8 196 
 BAR2 EZ ES       1919 57.12                             171   -0.2210 21.8 196 
 BAR2 EZ I        1919 58.54        36.6 0.20            168           21.8 196 
 BRR  HZ EP       1919 44.22                             151   -0.0210 74.0 299 
 BRR  HN ES       1920  0.96                             151    0.4710 74.0 299 
 BRR  HZ I        1920  5.76        30.1 0.28            151           74.0 299 
 PAM  EZ EP       1919 45.32                             150    0.1510 77.7  37 
 PAM  EN ES       1920  2.03                             150   -0.1210 77.7  37 
 RUS  HZ EP       1919 46.80                             144    0.2310 98.4 177 
 RUS  HN ES       1920  4.58                             144   -0.0510 98.4 177 
 RUS  HZ I        1920  8.17         6.0 0.34            145           98.4 177 
 PTB  HZ EP       1919 49.48                             131   -0.69 9  149 260 
 PTB  HN ES   3   1920  9.28                             131   -1.76 2  149 260 
 PTB  HZ I        1920 12.83        16.2 0.12            131            149 260 
 ZAR  HZ EP       1919 55.75                             121   -0.10 8  207 292 
 ZAR  HN ES       1920 21.17                             121    0.02 8  207 292 
 NOR  HZ EP       1919 59.07                             118    0.13 8  235 235 
 NOR  HN ES       1920 27.11                             118    0.46 8  235 235 
 NOR  HZ I        1920 32.36        11.3 0.20            119            235 235 
                                                                                
