 2014  617 1704 46.9 L   6.831 -73.125145.3  RSN 13 0.5 2.3LRSN                1
 GAP=185        1.14       3.0     5.2  6.1 -0.8295E+00  0.8936E+01  0.1377E+01E
 Epicentro: LOS SANTOS - SANTANDER                                             3
 ACTION:UPD 14-07-01 22:54 OP:nd   STATUS:               ID:20140617170446 L   I
 OLDACT:REG 14-06-17 21:31 OP:carl STATUS:               ID:20140617165818     3
 2014-06-17-1658-18M.COL___262                                                 6
 STAT SP IPHASW D HRMM SECON CODA AMPLIT PERI AZIMU VELO AIN AR TRES W  DIS CAZ7
 BAR2 SZ EP       17 5  6.56                             169    0.0210 27.2 193 
 BAR2 SZ ES       17 5 21.45                             169   -0.4210 27.2 193 
 BAR2 SZ I        17 5 22.73        29.5 0.26            165           27.2 193 
 BRR  HZ EP       17 5  8.34                             152    0.3410 71.6 295 
 BRR  HN ES       17 5 25.58                             152    1.1010 71.6 295 
 BRR  HZ I        17 5 31.29        30.6 0.16            148           71.6 295 
 RUS  HZ EP       17 5 11.06                             143    0.2310  104 177 
 RUS  HN ES       17 5 29.33                             143   -0.1710  104 177 
 RUS  HZ I        17 5 30.61        15.2 0.42            144            104 177 
 PTB  HZ EP       17 5 13.22                             131   -0.85 9  151 258 
 PTB  HN ES       17 5 34.63                             131   -0.65 9  151 258 
 PTB  HZ I        17 5 36.36        29.9 0.54            130            151 258 
 OCA  HN ES       17 5 36.80                             130    0.12 9  157 352 
 SPBC HZ EP       17 5 15.68                             128   -0.05 9  167 219 
 SPBC HE ES       17 5 38.62                             128    0.38 9  167 219 
 SPBC HZ I        17 5 43.46        22.2 0.24            128            167 219 
 ZAR  HZ EP       17 5 19.82                             122    0.44 9  205 291 
 ZAR  HN ES       17 5 44.75                             122    0.02 9  205 291 
 ZAR  HZ I        17 5 50.37        38.3 0.26            122            205 291 
 NOR  HZ EP       17 5 22.86                             118   -0.13 8  239 234 
 NOR  HN ES       17 5 50.51                             118   -0.65 8  239 234 
 NOR  HZ I        17 5 56.02        12.2 0.32            118            239 234 
 SML  HZ EP       17 5 22.86                             118   -0.38 8  242 334 
 SML  HN ES       17 5 51.04                             118   -0.57 8  242 334 
 SML  HZ I        17 5 55.32        19.8 0.10            119            242 334 
 CHI  HN ES       17 5 54.09                             117   -0.60 8  253 195 
 GUY2CHZ EP       17 5 31.33                             112    0.43 7  305 234 
 GUY2CHE ES       17 6  5.44                             112    0.21 7  305 234 
 GUY2CHZ I        17 6 12.43         7.0 0.34                           305 234 
 RREF HZ EP       17 5 33.66                             110    0.21 7  326 229 
 RREF HN ES       17 6 10.14                             110    0.36 7  326 229 
 RREF HZ I        17 6 19.06         7.7 0.56            111            326 229 
 TOL  SZ EP       17 5 36.38                             109    0.80 6  348 225 
 TOL  SN ES       17 6 13.73                             109    0.16 6  348 225 
 TOL  SZ I        17 6 26.72        13.3 0.62            110            348 225 
                                                                                
