 2011 1117 1751 55.5 L   6.793 -73.113140.8  RSN 13 0.5 2.8LRSN                1
 GAP=117        0.82       2.7     4.0  5.5  0.3197E+00  0.7023E+01  0.1433E+01E
 Epicentro: LOS SANTOS - SANTANDER                                             3
 ACTION:UPD 12-07-13 16:10 OP:ep   STATUS:               ID:20111117175155 L   I
 2011-11-17-1750-21S.COL___179                                                 6
 STAT SP IPHASW D HRMM SECON CODA AMPLIT PERI AZIMU VELO AIN AR TRES W  DIS CAZ7
 BAR2 SZ EP   1   1752 14.70                             170    0.13 7 23.5 199 
 BAR2 SZ ES   1   1752 28.96                             170   -0.46 7 23.5 199 
 BAR2 SZ I        1752 30.53       200.7 0.27                          23.5 199 
 BRR  HZ EP   1   1752 16.68                             150    0.33 7 74.8 298 
 BRR  HN ES   1   1752 33.48                             150    0.88 7 74.8 298 
 BRR  HZ I        1752 34.94        95.1 0.12                          74.8 298 
 PAM  SZ EP   1   1752 17.63                             150    0.51 7 75.7  37 
 PAM  SN ES   1   1752 34.03                             150    0.07 7 75.7  37 
 PAM  SZ I        1752 36.74        80.7 0.43                          75.7  37 
 RUS  HZ EP   1   1752 18.69                             143   -0.04 7 99.7 178 
 RUS  HN ES   1   1752 36.42                             143   -0.40 7 99.7 178 
 RUS  HZ I        1752 38.48        75.3 0.36                          99.7 178 
 OCA  SZ EP   1   1752 23.27                             128   -0.30 7  161 352 
 OCA  SZ ES   1   1752 45.25                             128   -0.20 7  161 352 
 OCA  SZ I        1752 51.23        70.6 0.18                           161 352 
 YOP  SZ EP   1   1752 25.25                             126    0.26 7  177 154 
 YOP  SN ES   1   1752 47.93                             126   -0.05 7  177 154 
 YOP  SZ I        1752 56.14        37.2 0.20                           177 154 
 ZAR  HZ EP   1   1752 27.77                             121   -0.27 6  208 292 
 ZAR  HN ES   1   1752 53.28                             121   -0.11 6  208 292 
 ZAR  HZ I        1752 59.48        62.8 0.30                           208 292 
 NOR  SZ EP   1   1752 31.20                             117   -0.05 6  237 235 
 CHI  HN ES   1   1753  1.56                             116   -0.64 6  249 196 
 HEL  HZ EP   1   1752 35.21                             113   -0.66 6  275 256 
 HEL  HN ES   1   1753  6.55                             113   -0.78 6  275 256 
 HEL  HZ I        1753 13.76        29.0 0.50                           275 256 
 RREF HZ EP   1   1752 42.60                             110    0.88 5  324 230 
 RREF HN ES   1   1753 18.57                             110    0.82 5  324 230 
 COD  HZ EP   1   1752 42.98                             108   -0.86 5  349 354 
 COD  HN ES   1   1753 21.82                             108    0.30 5  349 354 
 COD  HZ I        1753 27.39        17.3 0.31                           349 354 
 PRA  HZ EP   1   1752 48.92                             106   -0.10 4  393 210 
 PRA  HN ES   1   1753 31.39                             106    0.65 4  393 210 
 PRA  HZ I        1753 37.54        51.3 0.24                           393 210 
                                                                                
