 2014  717 1511 28.2 L   6.795 -73.135142.2  RSN  7 0.4 1.8LRSN                1
 GAP=202        1.09       4.4     6.5  7.3  0.6090E+01  0.8384E+01 -0.9061E+01E
 Epicentro: LOS SANTOS - SANTANDER                                             3
 ACTION:UPD 15-03-16 20:44 OP:nd   STATUS:               ID:20140717151128 L   I
 OLDACT:DUP 14-07-18 00:00 OP:stll STATUS:               ID:20140717150821d    3
 2014-07-17-1508-20M.COL___272                                                 6
 STAT SP IPHASW D HRMM SECON CODA AMPLIT PERI AZIMU VELO AIN AR TRES W  DIS CAZ7
 BAR2 SZ EP       1511 47.29                             170   -0.0810 23.0 193 
 BAR2 SZ ES       1512  2.28                             170   -0.0610 23.0 193 
 BAR2 SZ I        1512  3.38        16.2 0.20            159           23.0 193 
 BRR  HZ EP       1511 49.18                             151    0.1610 72.5 298 
 BRR  HN ES       1512  5.59                             151    0.3210 72.5 298 
 RUS  HN ES       1512  9.84                             143    0.0910 99.9 177 
 RUS  HZ I        1512 55.47         6.6 0.32            137           99.9 177 
 PTB  HZ EP       1511 54.60                             131   -0.36 9  149 259 
 PTB  HN ES       1512 15.18                             131   -0.66 9  149 259 
 PTB  HZ I        1512 16.96         7.0 0.20            138            149 259 
 SPBC HZ EP       1511 56.10                             128   -0.34 9  163 219 
 SPBC HN ES       1512 18.67                             128    0.20 9  163 219 
 SPBC HZ I        1512 23.10         8.1 0.34            129            163 219 
 ZAR  HZ EP       1512  1.78                             121    1.25 8  205 292 
 ZAR  HN ES       1512 25.96                             121    0.20 8  205 292 
 ZAR  HZ I        1512 31.36         5.9 0.26            128            205 292 
 SML  HZ EP       1512  4.44                             117   -0.28 8  245 335 
 SML  HN ES       1512 32.74                             117   -0.48 8  245 335 
 SML  HZ I        1512 41.00         8.6 0.26            121            245 335 
                                                                                
