 2015  117 1837 16.0 L   6.774 -73.120151.0  RSN  6 0.3 1.8LRSN                1
 GAP=141        0.90       4.0     4.6  6.5 -0.7433E+00  0.5224E+01  0.2350E+01E
 Epicentro: LOS SANTOS - SANTANDER                                             3
 ACTION:UPD 15-03-02 15:40 OP:nd   STATUS:               ID:20150117183716 L   I
 OLDACT:UP  15-01-18 01:36 OP:mh   STATUS:               ID:20150117182756     3
 OLDACT:REG 15-01-17 21:22 OP:y    STATUS:               ID:20150117182756     3
 2015-01-17-1827-56M.COL___172                                                 6
 STAT SP IPHASW D HRMM SECON CODA AMPLIT PERI AZIMU VELO AIN AR TRES W  DIS CAZ7
 BAR2 EZ EP       1837 36.45                             172    0.2510 21.3 199 
 BAR2 EZ ES       1837 51.89                             172   -0.0810 21.3 199 
 BAR2 EZ I        1837 52.92        18.1 0.22            170           21.3 199 
 BRR  HZ EP       1837 38.15                             152    0.2410 75.1 299 
 BRR  HN ES       1837 55.41                             152    0.3910 75.1 299 
 BRR  HZ I        1837 57.81         9.9 0.12            148           75.1 299 
 PAM  SZ EP       1837 39.23                             152    0.4510 77.9  37 
 PAM  SN ES       1837 56.14                             152   -0.4310 77.9  37 
 PAM  SZ I        1837 58.76         7.0 0.62            154           77.9  37 
 RUS  HZ EP       1837 39.53                             146   -0.5110 97.6 178 
 RUS  HN ES       1837 58.81                             146    0.0010 97.6 178 
 RUS  HZ I        1838  0.03         9.2 0.26            148           97.6 178 
 SPBC HZ EP       1837 44.81                             130   -0.04 9  163 220 
 SPBC HN ES       1838  7.54                             130    0.17 9  163 220 
 SPBC HZ I        1838 11.81        10.7 0.14            130            163 220 
 ZAR  HZ EP   4   1837 44.95                             123   -4.20 0  208 293 
 ZAR  HN ES       1838 14.43                             123   -0.59 8  208 293 
 ZAR  HZ I        1838 23.58         4.7 0.12            122            208 293 
                                                                                
