 2017  717 1147  0.3 L   6.750 -73.166147.5  RSN  4 0.2 1.3LRSN                1
 GAP=241        0.53       5.4     4.1  5.0  0.1447E+02  0.2424E+01 -0.4138E+01E
 Epicentro: LOS SANTOS - SANTANDER                                             3
 ACTION:UPD 17-08-30 15:34 OP:rebc STATUS:               ID:20170717114700 L   I
 OLDACT:REG 17-07-17 20:54 OP:lv   STATUS:               ID:20170717113741     3
 2017-07-17-1138-00M.COL___377                                                 6
 STAT SP IPHASW D HRMM SECON CODA AMPLIT PERI AZIMU VELO AIN AR TRES W  DIS CAZ7
 BAR2 EZ EP       1147 20.02                             173   -0.0110 17.6 186 
 BAR2 EZ ES       1147 35.38                             173   -0.0510 17.6 186 
 BAR2 EZ I        1147 36.82         3.6 0.10            174           17.6 186 
 RUS  HZ EP       1147 24.12                             146    0.2810 95.3 174 
 RUS  HN ES       1147 42.13                             146   -0.0810 95.3 174 
 RUS  HZ I        1147 44.15         1.7 0.24            149           95.3 174 
 PTB  HZ EP       1147 26.75                             133   -0.36 9  145 261 
 PTB  HN ES       1147 48.15                             133    0.11 9  145 261 
 PTB  HZ I        1147 49.98         2.2 0.21            133            145 261 
 ZAR  HN ES       1147 58.36                             123    0.10 9  204 294 
 ZAR  HZ I        1148  4.79         3.2 0.05            123            204 294 
                                                                                
