 2014  817 1247 24.7 L   6.791 -73.136155.4  RSN  4 0.4 1.6LRSN                1
 GAP=218        0.89       6.0     7.4  7.7  0.4294E+01  0.5276E+01 -0.1159E+02E
 Epicentro: LOS SANTOS - SANTANDER                                             3
 ACTION:UPD 14-09-15 21:50 OP:nd   STATUS:               ID:20140817124724 L   I
 OLDACT:UP  14-08-17 21:18 OP:cam  STATUS:               ID:20140817124000     3
 OLDACT:UP  14-08-17 21:18 OP:cam  STATUS:               ID:20140817124000     3
 OLDACT:REG 14-08-17 20:21 OP:cam  STATUS:               ID:20140817124000     3
 2014-08-17-1240-00M.COL___285                                                 6
 STAT SP IPHASW D HRMM SECON CODA AMPLIT PERI AZIMU VELO AIN AR TRES W  DIS CAZ7
 BAR2 SZ EP       1247 45.76                             171    0.3010 22.6 193 
 BAR2 SZ ES       1248  1.17                             171   -0.5010 22.6 193 
 BAR2 SZ I        1248  2.43         4.1 0.20            169           22.6 193 
 BRR  HZ EP       1247 46.88                             153   -0.0810 72.6 299 
 BRR  HN ES       1248  4.94                             153    0.6110 72.6 299 
 BRR  HN I        1248  5.54        13.8 0.56            150           72.6 299 
 PTB  HZ EP       1247 52.70                             134    0.17 9  149 259 
 PTB  HN ES       1248 13.96                             134   -0.29 9  149 259 
 PTB  HZ I        1248 19.58         3.3 0.20            131            149 259 
 SML  HZ EP   2   1248  1.73                             119   -0.28 4  245 335 
 SML  HN ES       1248 30.84                             119   -0.29 8  245 335 
 SML  HZ I        1248 34.20         3.3 0.24            119            245 335 
                                                                                
