 2010  617 1048 42.1 L   6.768 -73.043144.3  RSN  7 0.2 1.8LRSN                1
 GAP=168        0.44       2.7     6.5  4.9 -0.7050E+01 -0.5811E+01  0.2387E+01E
 Epicentro: LOS SANTOS - SANTANDER                                             3
 ACTION:UP  10-08-24 10:11 OP:vdl  STATUS:               ID:20100617104842 L   I
 2010-06-17-1047-38S.COL___115                                                 6
 STAT SP IPHASW D HRMM SECON CODA AMPLIT PERI AZIMU VELO SNR AR TRES W  DIS CAZ7
 BAR2 SZ IP       1049  1.56                             170     0.010   25 219 
 BAR2 SZ ES   2   1049 16.45                             170    -0.3 5   25 219 
 BRR  HZ EP   1   1049  3.60                             149    -0.1 7   83 297 
 BRR  HN ES   2   1049 20.85                             149     0.2 5   83 297 
 BRR  HZ I        1049 25.09        21.4 0.14                            83 297 
 RUS  HZ EP   1   1049  5.54                             144     0.2 7   97 183 
 RUS  HN ES   2   1049 23.68                             144     0.1 5   97 183 
 RUS  HZ I        1049 25.30         7.2 0.29                            97 183 
 BRI  SZ EP   1   1049  5.39                             141    -0.4 7  108  15 
 BRI  SZ ES   2   1049 24.27                             141     0.0 5  108  15 
 GUE  SZ EP   1   1049  6.69                             139    -0.1 7  118   6 
 GUE  SZ ES   2   1049 26.17                             139     0.1 5  118   6 
 GRA  SZ EP   1   1049  7.56                             137     0.3 7  126  12 
 GRA  SZ ES   2   1049 26.97                             137     0.1 5  126  12 
 CHI  HZ EP   1   1049 19.66                             117     0.0 6  248 198 
 CHI  HZ I        1049 22.45         3.5 0.44                           248 198 
                                                                                
