 2016 1017 1559 42.1 L   6.742 -73.129145.8  RSN  6 0.3 1.8LRSN                1
 GAP=141        0.89       4.5     4.3  6.0 -0.4750E+01  0.5757E+01  0.3279E+01E
 Epicentro: LOS SANTOS - SANTANDER                                             3
 ACTION:UPD 16-11-09 19:20 OP:rebc STATUS:               ID:20161017155942 L   I
 OLDACT:REG 16-10-17 22:58 OP:ar   STATUS:               ID:20161017155735     3
 2016-10-17-1558-00M.COL___354                                                 6
 STAT SP IPHASW D HRMM SECON CODA AMPLIT PERI AZIMU VELO AIN AR TRES W  DIS CAZ7
 BAR2 EZ EP       16 0  1.91                             173    0.2510 17.6 200 
 BAR2 EZ ES       16 0 16.59                             173   -0.3010 17.6 200 
 BAR2 EZ I        16 0 19.27        20.5 0.30            170           17.6 200 
 BRR  HZ EP       16 0  3.72                             151    0.1610 76.0 302 
 BRR  HE ES       16 0 20.93                             151    0.6510 76.0 302 
 BRR  HZ I        16 0 26.74         5.3 0.12            149           76.0 302 
 PAM  EZ EP       16 0  4.62                             150    0.0310 81.3  36 
 PAM  EN ES       16 0 21.82                             150   -0.2810 81.3  36 
 PAM  EZ I        16 0 24.08         7.3 0.56            154           81.3  36 
 RUS  HZ EP       16 0  5.39                             146   -0.0410 94.1 177 
 RUS  HE ES       16 0 23.75                             146    0.1610 94.1 177 
 RUS  HZ I        16 0 25.34         7.2 0.34            150           94.1 177 
 PTB  HZ EP       16 0  8.62                             132   -0.55 9  148 261 
 PTB  HN ES       16 0 29.74                             132   -0.51 9  148 261 
 PTB  HZ I        16 0 36.97        11.3 0.42            132            148 261 
 NOR  HZ EP       16 0 17.92                             119    0.28 8  233 236 
 NOR  HN ES       16 0 45.48                             119    0.16 8  233 236 
 NOR  HZ I        16 0 51.01         8.1 0.34            121            233 236 
                                                                                
