 2014  317 1201 17.5 L   6.702 -73.156137.0  RSN  5 0.4 1.6LRSN                1
 GAP=139        0.81       5.2     5.5  8.0  0.3666E+01  0.2062E+02 -0.5031E+01E
 Epicentro: VILLANUEVA - SANTANDER                                             3
 OLDACT:REG 14-03-17 15:45 OP:fm   STATUS:               ID:20140317115816     3
 ACTION:UPD 14-04-09 23:18 OP:nd   STATUS:               ID:20140317120117 L   I
 OLDACT:UP  14-03-17 20:07 OP:fm   STATUS:               ID:20140317115816     3
 2014-03-17-1158-16M.COL___245                                                 6
 STAT SP IPHASW D HRMM SECON CODA AMPLIT PERI AZIMU VELO AIN AR TRES W  DIS CAZ7
 BAR2 SZ EP       12 1 35.91                             175   -0.0310 12.5 194 
 BAR2 SZ ES       12 1 49.85                             175   -0.4310 12.5 194 
 BAR2 SZ I        12 1 57.21        14.0 0.84            167           12.5 194 
 PAM  SN ES   1   12 1 56.85                             146    0.33 7 86.7  36 
 RUS  HZ EP   1   12 1 40.19                             145    0.53 7 89.8 175 
 RUS  HN ES       12 1 56.98                             145    0.0710 89.8 175 
 RUS  SZ I        12 2  3.58         5.7 1.60            148           89.8 175 
 PTB  HZ EP   1   12 1 42.86                             130   -0.69 7  145 263 
 PTB  HN ES   1   12 2  4.32                             130    0.49 7  145 263 
 PTB  SZ I        12 2 12.65         4.9 1.82            132            145 263 
 ZAR  HZ EP   1   12 1 49.57                             120   -0.21 6  207 295 
 ZAR  HE ES   1   12 2 15.14                             120    0.21 6  207 295 
 ZAR  SZ I        12 2 20.95         5.2 0.46            124            207 295 
                                                                                
