 2014 1217 1714 25.4 L   6.775 -73.142149.0  RSN 10 0.5 2.0LRSN                1
 GAP=138        1.18       4.2     4.5  6.5 -0.1243E+01  0.8637E+01  0.4381E+01E
 Epicentro: LOS SANTOS - SANTANDER                                             3
 ACTION:UPD 15-02-10 17:04 OP:nd   STATUS:               ID:20141217171425 L   I
 OLDACT:REG 14-12-17 21:22 OP:fm   STATUS:               ID:20141217170748     3
 2014-12-17-1707-48M.COL___278                                                 6
 STAT SP IPHASW D HRMM SECON CODA AMPLIT PERI AZIMU VELO AIN AR TRES W  DIS CAZ7
 BAR2 EZ EP       1714 45.61                             172    0.2810 20.7 192 
 BAR2 EZ ES       1715  0.60                             172   -0.3110 20.7 192 
 BAR2 EZ I        1715  1.81        24.0 0.12            170           20.7 192 
 BRR  HZ EP       1714 47.25                             153    0.3010 72.9 300 
 BRR  HE ES       1715  4.79                             153    0.9910 72.9 300 
 BRR  HZ I        1715  8.54        20.0 0.38            150           72.9 300 
 PAM  SZ EP       1714 48.31                             151    0.2710 79.3  38 
 PAM  SE ES       1715  5.37                             151   -0.3510 79.3  38 
 PAM  SZ I        1715  7.63        12.3 0.54            155           79.3  38 
 RUS  HZ EP       1714 48.80                             145   -0.4410 97.8 176 
 RUS  HN ES       1715  8.12                             145    0.2510 97.8 176 
 RUS  HZ I        1715  9.16        10.6 0.28            147           97.8 176 
 PTB  HZ EP       1714 52.37                             133   -0.21 9  148 260 
 PTB  HN ES       1715 13.32                             133   -0.49 9  148 260 
 PTB  HZ I        1715 14.86        12.0 0.20            132            148 260 
 SPBC HZ EP       1714 53.20                             130   -0.73 9  161 220 
 SPBC HN ES       1715 15.98                             130   -0.24 9  161 220 
 SPBC HZ I        1715 19.70        18.4 0.40            130            161 220 
 ZAR  HZ EP       1714 57.70                             123   -0.46 8  205 293 
 ZAR  HN ES       1715 23.03                             123   -0.71 8  205 293 
 ZAR  HZ I        1715 30.74        10.4 0.28            123            205 293 
 NOR  HZ EP       1715  1.97                             119    0.83 8  233 235 
 NOR  HE ES       1715 29.22                             119    0.17 8  233 235 
 NOR  HZ I        1715 34.96        11.2 0.48            120            233 235 
 CHI  HZ EP       1715  3.10                             118    0.14 8  246 195 
 CHI  HN ES       1715 32.32                             118    0.02 8  246 195 
 CHI  HZ I        1715 37.09         3.6 0.74            119            246 195 
 HEL  HZ EP       1715  6.31                             115    0.61 8  272 256 
 HEL  HE ES       1715 37.51                             115    0.34 8  272 256 
 HEL  HZ I        1715 47.32         4.2 0.52            116            272 256 
                                                                                
