 2010  417 1145 31.1 L   6.762 -72.887135.6  RSN  5 0.5 1.9LRSN                1
 GAP=269        0.85      11.6    15.7 19.4 -0.8668E+02 -0.1544E+03  0.1848E+03E
 Epicentro: SAN ANDRES - SANTANDER                                             3
 ACTION:UPD 10-08-24 09:59 OP:vdl  STATUS:               ID:20100417114538 L   I
 2010-04-17-1142-39S.COL___100                                                 6
 STAT SP IPHASW D HRMM SECON CODA AMPLIT PERI AZIMU VELO AIN AR TRES W  DIS CAZ7
 BAR2 SZ EP   2   1145 50.70                             164     0.8 5   38 240 
 BRR  HZ EP       1145 53.23                             143     0.210   99 293 
 BRR  HE ES   1   1146  9.67                             143    -0.5 7   99 293 
 BRR  HZ I        1146 12.32        10.3 0.15                            99 293 
 CHI  HZ EP   2   1146  8.33                             115    -0.5 4  254 202 
 CHI  HE ES   3   1146 38.16                             115    -0.1 2  254 202 
 CHI  HZ I        1146 40.88         3.7 0.29                           254 202 
 RREF BZ EP   1   1146 19.27                             108     0.2 5  341 233 
 RREF BE ES   1   1146 57.23                             108     0.7 5  341 233 
 RREF BZ I        1146 58.37         3.6 0.29                           341 233 
 PRA  HZ EP       1146 25.00                             105    -0.6 6  403 213 
 PRA  HN ES   1   1147  8.16                             105     0.0 4  403 213 
 PRA  HZ I        1147 11.36         4.0 0.31                           403 213 
                                                                                
