 2015  817 1505 58.0 L   6.602 -73.506107.0  RSN  5 0.3 1.7LRSN                1
 GAP=154        0.71       5.3     6.4  6.7  0.2631E+02  0.2067E+02  0.1070E+02E
 Epicentro: EL CARMEN - SANTANDER                                              3
 ACTION:UPD 15-09-15 23:02 OP:cam  STATUS:               ID:20150817150558 L   I
 OLDACT:DUP 15-08-18 01:08 OP:spq  STATUS:               ID:20150817145749d    3
 2015-08-17-1457-48M.COL___340                                                 6
 STAT SP IPHASW D HRMM SECON CODA AMPLIT PERI AZIMU VELO AIN AR TRES W  DIS CAZ7
 BAR2 EZ EP       15 6 13.45                             160    0.0010 35.8  92 
 BAR2 EZ ES   1   15 6 25.35                             160   -0.13 7 35.8  92 
 BAR2 EZ I        15 6 26.78        38.6 0.24            157           35.8  92 
 BRR  HZ EP       15 6 14.05                             148   -0.3510 60.3 338 
 BRR  HN ES       15 6 27.37                             148    0.1910 60.3 338 
 BRR  HZ I        15 6 31.11        10.3 0.42            145           60.3 338 
 RUS  HZ EP       15 6 17.21                             137   -0.2010 91.3 149 
 RUS  HE ES   1   15 6 32.87                             137    0.34 7 91.3 149 
 RUS  HZ I        15 6 33.63         9.0 0.66            140           91.3 149 
 ZAR  HZ EP       15 6 26.03                             116    0.55 9  179 303 
 ZAR  HE ES       15 6 46.58                             116   -0.32 9  179 303 
 ZAR  HZ I        15 6 49.40         4.4 0.24            116            179 303 
 SML  HE ES   1   15 7  1.63                             107    0.16 6  251 346 
 SML  HZ I        15 7  7.93         6.2 0.10            107            251 346 
                                                                                
