 2015  117 1604 56.0 L   6.777 -73.183138.6  RSN  4 0.4 1.5LRSN                1
 GAP=133        0.90       4.9     4.8 10.9 -0.1256E+01  0.2285E+02 -0.4743E+01E
 Epicentro: LOS SANTOS - SANTANDER                                             3
 ACTION:UPD 15-03-02 15:40 OP:nd   STATUS:               ID:20150117160456 L   I
 OLDACT:REG 15-01-17 21:19 OP:y    STATUS:               ID:20150117155755     3
 2015-01-17-1557-55M.COL___174                                                 6
 STAT SP IPHASW D HRMM SECON CODA AMPLIT PERI AZIMU VELO AIN AR TRES W  DIS CAZ7
 PAM  SZ EP       16 5 17.60                             148   -0.1110 82.0  41 
 PAM  SN ES       16 5 34.61                             148   -0.0610 82.0  41 
 PAM  SZ I        16 5 40.37         5.2 0.48            151           82.0  41 
 RUS  HZ EP   1   16 5 18.37                             143   -0.48 7 98.4 174 
 RUS  HN ES       16 5 37.04                             143    0.3310 98.4 174 
 RUS  HZ I        16 5 38.20         3.9 0.42            150           98.4 174 
 PTB  HZ EP       16 5 22.13                             131    0.19 9  143 260 
 PTB  HN ES   1   16 5 41.36                             131   -0.84 7  143 260 
 PTB  HZ I        16 5 44.87         6.2 0.18            137            143 260 
 ZAR  HN ES       16 5 52.86                             121    0.48 9  201 293 
                                                                                
