 2012 1217 1505 24.4 L   6.785 -73.232143.6  RSN  4 0.3 1.2LRSN                1
 GAP=222        0.62       7.9     6.0  8.0  0.1768E+02  0.5721E+01 -0.1749E+02E
 Epicentro: ZAPATOCA - SANTANDER                                               3
 ACTION:UPD 13-01-04 14:28 OP:ep   STATUS:               ID:20121217150524 L   I
 2012-12-17-1500-00M.COL___242                                                 6
 STAT SP IPHASW D HRMM SECON CODA AMPLIT PERI AZIMU VELO AIN AR TRES W  DIS CAZ7
 BAR2 SZ EP   1   15 5 43.38                             171   -0.31 7 22.0 166 
 BAR2 SZ ES   1   15 5 58.58                             171   -0.20 7 22.0 166 
 BAR2 SZ I        15 6  0.32         3.9 0.17                          22.0 166 
 BRR  HZ EP   1   15 5 45.38                             155    0.51 7 63.9 304 
 RUS  HZ EP   1   15 5 47.63                             143   -0.22 7  100 171 
 RUS  HE ES   1   15 6  6.55                             143    0.37 7  100 171 
 RUS  HZ I        15 6  9.00         1.1 0.20                           100 171 
 PTB  HZ EP   1   15 5 50.22                             134   -0.06 7  138 259 
 PTB  HN ES   1   15 6 10.38                             134   -0.12 7  138 259 
 PTB  HZ I        15 6 13.57         3.9 0.14                           138 259 
                                                                                
