 2017  617 1319 16.8 L   6.347 -73.927 14.9  RSN  9 1.0 1.8LRSN                1
 GAP=158        1.92       4.0     6.2  9.3 -0.2250E+01  0.5144E+01  0.5041E+01E
 Epicentro: CIMITARRA - SANTANDER                                              3
 ACTION:UPD 17-09-14 16:52 OP:jn   STATUS:               ID:20170617131916 L   I
 OLDACT:UP  17-07-05 20:25 OP:nlst STATUS:               ID:20170617131916 L   3
 OLDACT:UP  17-06-17 22:36 OP:dani STATUS:               ID:20170617131741     3
 OLDACT:UP  17-06-17 22:36 OP:dani STATUS:               ID:20170617131741     3
 OLDACT:UP  17-06-17 22:35 OP:dani STATUS:               ID:20170617131741     3
 OLDACT:UP  17-06-17 22:35 OP:dani STATUS:               ID:20170617131741     3
 OLDACT:UP  17-06-17 22:33 OP:dani STATUS:               ID:20170617131741     3
 OLDACT:REG 17-06-17 20:30 OP:dani STATUS:               ID:20170617131741     3
 2017-06-17-1318-00M.COL___344                                                 6
 STAT SP IPHASW D HRMM SECON CODA AMPLIT PERI AZIMU VELO AIN AR TRES W  DIS CAZ7
 PTB  HZ EP     C 1319 27.28                             101    0.2810 62.3 290 
 PTB  HN ES       1319 36.14                             101    1.1710 62.3 290 
 PTB  HZ I        1319 36.36        80.9 0.14             47           62.3 290 
 SPBC HZ EP       1319 28.86                              98   -0.6510 78.5 192 
 SPBC HN ES       1319 38.63                              98   -0.7910 78.5 192 
 SPBC HZ I        1319 42.74        41.2 0.24             47           78.5 192 
 BRR  HZ EP       1319 30.50                              97   -0.2310 87.3  16 
 BRR  HN ES       1319 41.43                              97   -0.1610 87.3  16 
 BRR  HZ I        1319 44.13        45.5 0.44             47           87.3  16 
 NOR  HZ EP       1319 37.88                              95   -0.19 9  136 230 
 NOR  HE ES   3   1319 52.59                              95   -2.07 2  136 230 
 NOR  HZ I        1319 55.06        10.7 0.24             47            136 230 
 TABC EZ EP       1319 41.45                              56    0.91 9  151 192 
 TABC EZ I        1320  3.75        13.1 0.34             47            151 192 
 ZAR  HZ EP       1319 40.94                              56   -0.59 9  163 321 
 ZAR  HE ES   3   1319 58.79                              56   -2.02 2  163 321 
 ZAR  HZ I        1320  1.71        10.0 0.14             47            163 321 
 HEL  HZ EP   4   1319 38.60                              56   -5.23 0  178 265 
 HEL  HN ES       1320  3.85                              56   -1.06 9  178 265 
 HEL  HZ I        1320  6.29        15.3 0.25             47            178 265 
 CHI  HZ EP       1319 47.08                              56    1.57 9  191 174 
 CHI  HE ES   3   1320 10.64                              56    2.73 2  191 174 
 CHI  HZ I        1320 15.93         5.1 0.30             37            191 174 
 CBOC HE ES   4   1320 21.69                              56    4.11 0  237 257 
 CBOC HZ I        1320 26.75         3.8 0.70             37            237 257 
                                                                                
