 2011  817 1619 10.2 L   6.778 -73.092142.5  RSN  8 0.4 3.9LRSN                1
 GAP=188        0.80       3.2     7.1  6.6 -0.2840E+01  0.1201E+02 -0.1360E+01E
 Epicentro: LOS SANTOS - SANTANDER                                             3
 ACTION:UPD 12-07-13 15:52 OP:ep   STATUS:               ID:20110817161812dL   I
 2011-08-17-1616-17S.COL___149                                                 6
 STAT SP IPHASW D HRMM SECON CODA AMPLIT PERI AZIMU VELO AIN AR TRES W  DIS CAZ7
 BAR2 SZ IP       1619 29.69                             170    0.3110 22.9 206 
 BAR2 SZ ES   1   1619 44.16                             170   -0.21 7 22.9 206 
 BAR2 SZ I        1619 45.91      2373.9 0.36                          22.9 206 
 BRR  HZ IP     C 1619 31.61                             150    0.2810 77.6 298 
 BRR  HE ES   1   1619 48.37                             150    0.53 7 77.6 298 
 BRR  HZ I        1619 52.84      2688.1 0.14                          77.6 298 
 RUS  HZ EP       1619 33.70                             144    0.3110 97.9 179 
 RUS  HN ES       1619 51.14                             144   -0.3710 97.9 179 
 RUS  HZ I        1619 52.79       606.0 0.35                          97.9 179 
 OCA  SZ EP       1619 38.46                             128   -0.06 9  163 351 
 OCA  SZ ES   1   1619 59.77                             128   -0.87 7  163 351 
 OCA  SZ I        1620  5.29      1901.5 0.24                           163 351 
 NOR  SZ EP   1   1619 45.73                             117   -0.34 6  238 236 
 ROSC BE ES   1   1620 17.83                             116   -0.07 6  254 212 
 RREF HN ES   1   1620 32.29                             110   -0.35 5  325 230 
 RREF HZ I        1620 41.64       180.5 0.28                           325 230 
 PRA  HN ES   1   1620 45.24                             106   -0.16 4  393 211 
                                                                                
