 2014  717 1117 52.2 L   5.928 -73.631119.5  RSN  4 0.2 1.5LRSN                1
 GAP=204        0.57       4.0     3.3  5.2 -0.7323E+01  0.3770E+00  0.6610E+00E
 Epicentro: BARBOSA - SANTANDER                                                3
 ACTION:UPD 15-03-16 20:44 OP:nd   STATUS:               ID:20140717111752 L   I
 OLDACT:DUP 14-07-17 22:26 OP:stll STATUS:               ID:20140717110819d    3
 2014-07-17-1108-18M.COL___257                                                 6
 STAT SP IPHASW D HRMM SECON CODA AMPLIT PERI AZIMU VELO AIN AR TRES W  DIS CAZ7
 SPBC HZ EP       1118  9.49                             153   -0.3910 57.6 238 
 SPBC HN ES       1118 23.72                             153    0.0510 57.6 238 
 SPBC HZ I        1118 26.88         4.6 0.24            153           57.6 238 
 BAR2 SZ EP       1118 12.29                             141    0.1110 88.7  34 
 BAR2 SZ ES       1118 27.81                             141    0.0610 88.7  34 
 BAR2 SZ I        1118 29.17        14.2 0.16            146           88.7  34 
 PTB  HZ EP       1118 13.75                             133   -0.1910  114 307 
 PTB  HN ES       1118 30.87                             133   -0.0210  114 307 
 NOR  HZ EP       1118 17.09                             126    0.35 9  143 254 
 NOR  HE ES       1118 35.95                             126    0.07 9  143 254 
 NOR  HZ I        1118 40.07         4.1 0.14            129            143 254 
                                                                                
