 2012  317 1842 25.1 L   6.764 -73.151137.6  RSN 11 0.4 2.9LRSN                1
 GAP=137        0.97       4.3     4.4  6.9 -0.2822E+01  0.9512E+01  0.2307E+01E
 ACTION:UP  12-03-31 23:20 OP:EP   STATUS:               ID:20120317184225 L   I
 2012-03-17-1840-00M.COL___202                                                 6
 STAT SP IPHASW D HRMM SECON CODA AMPLIT PERI AZIMU VELO SNR AR TRES W  DIS CAZ7
 BAR2 SZ EP       1842 43.90                             172     0.210   19 190 
 BAR2 SZ ES   1   1842 57.58                             172    -0.6 7   19 190 
 BAR2 SZ I        1842 59.78       229.5 0.28                            19 190 
 BRR  HZ EP       1842 45.76                             150     0.310   73 301 
 BRR  HZ I        1842 46.09       217.6 0.24                            73 301 
 BRR  HN ES   1   1843  2.06                             150     0.7 7   73 301 
 PAM  SZ EP       1842 46.81                             148     0.110   81  38 
 PAM  SN ES   1   1843  3.56                             148     0.0 7   81  38 
 PAM  SZ I        1843  6.32       103.2 0.56                            81  38 
 RUS  HZ EP   1   1842 47.82                             143     0.0 7   97 176 
 RUS  HN ES   1   1843  5.55                             143     0.1 7   97 176 
 RUS  HZ I        1843  8.06        56.3 0.41                            97 176 
 PTB  HZ EP   1   1842 50.38                             130    -0.9 7  146 260 
 PTB  HN ES   1   1843 11.23                             130    -0.5 7  146 260 
 PTB  HZ I        1843 13.41        64.1 0.26                           146 260 
 OCA  SZ EP   1   1842 52.42                             127    -0.8 7  164 354 
 ZAR  HZ EP   1   1842 57.38                             120     0.2 6  205 293 
 ZAR  HN ES       1843 22.13                             120     0.0 9  205 293 
 ZAR  HZ I        1843 28.58       109.9 0.31                           205 293 
 NOR  SZ EP   1   1842 59.71                             117    -0.4 6  232 235 
 NOR  SN ES   1   1843 27.27                             117    -0.1 6  232 235 
 HEL  HZ EP   1   1843  5.30                             113     0.5 6  271 257 
 HEL  HN ES   2   1843 36.06                             113     0.4 4  271 257 
 HEL  HZ I        1843 42.27        27.4 0.33                           271 257 
 RREF HN ES   1   1843 46.39                             109     0.4 5  319 230 
 RREF HZ I        1843 51.04        22.2 0.50                           319 230 
 PRA  HZ EP   1   1843 18.38                             105     0.4 4  388 210 
 PRA  HN ES   1   1843 59.24                             105     0.1 4  388 210 
 PRA  HZ I        1844  4.98        60.5 0.28                           388 210 
                                                                                
