 2014  117 1302 28.9 L   6.812 -73.137143.9  RSN 15 0.5 2.3LRSN                1
 GAP=137        1.11       2.8     3.9  5.3 -0.2344E+01  0.6900E+01  0.7515E+00E
 Epicentro: LOS SANTOS - SANTANDER                                             3
 ACTION:UPD 14-03-13 09:56 OP:ep   STATUS:               ID:20140117130228 L   I
 OLDACT:REG 14-01-17 16:24 OP:carl STATUS:               ID:20140117130000     3
 2014-01-17-1300-00M.COL___285                                                 6
 STAT SP IPHASW D HRMM SECON CODA AMPLIT PERI AZIMU VELO AIN AR TRES W  DIS CAZ7
 BAR2 SZ ES       13 3  3.21                             170   -0.2810 24.8 192 
 BAR2 SZ I        13 3  5.94        63.8 0.28            167           24.8 192 
 BRR  HZ EP       13 2 50.28                             152    0.4210 71.4 297 
 BRR  HN ES       13 3  7.02                             152    0.8110 71.4 297 
 BRR  HZ I        13 3 11.56        26.8 0.30            150           71.4 297 
 PAM  SZ EP       13 2 51.02                             151    0.2010 75.8  40 
 PAM  SN ES       13 3  8.21                             151    0.3010 75.8  40 
 RUS  HZ EP       13 2 52.18                             143   -0.3810  102 177 
 RUS  HN ES       13 3 10.78                             143   -0.2310  102 177 
 RUS  HZ I        13 3 12.10        19.1 0.34            145            102 177 
 PTB  HZ EP       13 2 55.23                             131   -0.60 9  149 258 
 PTB  HN ES       13 3 16.29                             131   -0.54 9  149 258 
 PTB  HZ I        13 3 22.48        22.4 0.40            131            149 258 
 OCA  HZ EP       13 2 57.50                             129    0.55 9  159 353 
 OCA  HN ES       13 3 18.71                             129   -0.12 9  159 353 
 OCA  HZ I        13 3 23.79        26.4 0.38            132            159 353 
 SPBC HZ EP       13 2 57.44                             128    0.03 9  165 219 
 SPBC HN ES       13 3 19.41                             128   -0.24 9  165 219 
 SPBC HZ I        13 3 25.18        32.9 0.22            129            165 219 
 ZAR  HZ EP       13 3  1.11                             122   -0.16 9  204 292 
 ZAR  HN ES       13 3 26.39                             122   -0.12 9  204 292 
 ZAR  HZ I        13 3 31.78        23.8 0.34            123            204 292 
 NOR  HZ EP       13 3  4.46                             118   -0.23 8  236 234 
 NOR  HN ES       13 3 31.71                             118   -0.89 8  236 234 
 NOR  HZ I        13 3 36.94        18.1 0.26            119            236 234 
 SML  HZ EP       13 3  4.52                             117   -0.82 8  243 335 
 SML  HN ES       13 3 33.03                             117   -0.73 8  243 335 
 SML  HZ I        13 3 35.19        32.9 0.10            119            243 335 
 CHI  HZ EP       13 3  6.41                             117   -0.25 8  250 195 
 CHI  HN ES       13 3 36.57                             117    0.46 8  250 195 
 CHI  HZ I        13 3 44.58         5.0 0.38            118            250 195 
 HEL  HZ EP       13 3  9.93                             114    0.77 8  273 256 
 HEL  HN ES       13 3 41.06                             114    0.50 8  273 256 
 HEL  HZ I        13 3 47.91         9.8 0.68            115            273 256 
 GUY2CHZ EP       13 3 12.97                             112    0.37 7  303 235 
 GUY2CHN ES       13 3 47.28                             112    0.60 7  303 235 
 GUY2CHZ I        13 3 54.90        11.6 0.58                           303 235 
 RREF HZ EP       13 3 15.01                             110   -0.13 7  323 229 
 RREF HN ES       13 3 51.60                             110    0.39 7  323 229 
 RREF HZ I        13 3 57.99        10.3 0.26            112            323 229 
 CBOC HZ EP       13 3 16.67                             109    0.78 7  335 252 
 CBOC HN ES       13 3 52.65                             109    0.11 7  335 252 
 CBOC HZ I        13 4  5.63         3.3 0.14            111            335 252 
                                                                                
