 2016 1117 1005  1.6 L   6.149 -74.022  0.1  RSN 11 0.3 1.6LRSN                1
 GAP=107        0.82       1.5     1.8  3.7 -0.9103E+00 -0.6363E+00  0.5207E+00E
 Epicentro: CIMITARRA - SANTANDER                                              3
 ACTION:UPD 17-10-26 21:09 OP:lp   STATUS:               ID:20161117100501 L   I
 OLDACT:UP  16-11-17 21:11 OP:edw  STATUS:               ID:20161117095537     3
 OLDACT:UP  16-11-17 21:11 OP:edw  STATUS:               ID:20161117095537     3
 OLDACT:UP  16-11-17 21:07 OP:edw  STATUS:               ID:20161117095537     3
 OLDACT:REG 16-11-17 19:46 OP:edw  STATUS:               ID:20161117095537     3
 2016-11-17-0958-00M.COL___334                                                 6
 STAT SP IPHASW D HRMM SECON CODA AMPLIT PERI AZIMU VELO AIN AR TRES W  DIS CAZ7
 PTB  HZ IP     D 10 5 12.91                              47    0.3110 64.6 312 
 PTB  HN ES       10 5 21.51                              47    0.3610 64.6 312 
 PTB  HZ I        10 5 25.39        40.8 0.18             47           64.6 312 
 BAR2 EZ EP   4   10 5 16.98                              47   -1.97 0  105  62 
 BAR2 EZ ES       10 5 32.93                              47    0.4810  105  62 
 BAR2 EZ I        10 5 38.02         9.2 0.38             47            105  62 
 BRR  HZ EP       10 5 19.55                              47   -0.1110  111  18 
 BRR  HE ES       10 5 33.66                              47   -0.0710  111  18 
 BRR  HZ I        10 5 38.06        23.0 0.12             47            111  18 
 NOR  HZ EP       10 5 19.84                              47   -0.2710  114 235 
 NOR  HN ES       10 5 34.34                              47   -0.1910  114 235 
 NOR  HZ I        10 5 34.50        22.0 0.22             47            114 235 
 CHI  HZ EP       10 5 29.07                              47   -0.06 9  171 169 
 CHI  HE ES       10 5 50.69                              47    0.12 9  171 169 
 ZAR  HZ EP       10 5 28.74                              47   -0.57 9  175 328 
 ZAR  HN ES   4   10 5 49.80                              47   -1.10 0  175 328 
 ZAR  HZ I        10 5 51.30         4.6 0.26             47            175 328 
 PAM  EZ EP       10 5 32.56                              37   -0.17 9  197  48 
 PAM  EN ES       10 5 56.45                              37   -0.53 9  197  48 
 PAM  EZ I        10 6  0.18        10.8 0.28             37            197  48 
 ELA  HZ EP       10 5 35.03                              37    0.74 8  209 227 
 ELA  HN ES       10 5 59.75                              37   -0.01 8  209 227 
 ELA  HZ I        10 6  1.41         5.1 0.22             37            209 227 
 CBOC HZ EP   4   10 5 33.68                              37   -1.89 0  223 262 
 CBOC HN ES   2   10 6  1.73                              37   -0.32 4  223 262 
 CBOC HZ I        10 6  8.98         2.6 0.03             37            223 262 
 ORTC HZ EP   4   10 5 33.19                              37   -9.70 0  282 209 
 ORTC HZ I        10 6 17.38         2.3 0.46             37            282 209 
 ORTC HN ES   4   10 6 17.78                              37    2.70 0  282 209 
 PRA  HZ EP       10 5 43.36                              37    0.04 7  286 200 
 PRA  HE ES       10 6 15.65                              37   -0.18 7  286 200 
 PRA  HZ I        10 6 29.25         3.3 0.22             37            286 200 
                                                                                
