 2017  317 1257  8.3 L   6.782 -73.174145.5  RSN  4 0.2 1.3LRSN                1
 GAP=141        0.61       3.7     3.7  5.4 -0.4546E+01  0.2736E+01 -0.1083E+01E
 Epicentro: LOS SANTOS - SANTANDER                                             3
 ACTION:UPD 17-05-25 18:41 OP:jn   STATUS:               ID:20170317125708 L   I
 OLDACT:REG 17-03-17 21:22 OP:dnl  STATUS:               ID:20170317124746     3
 2017-03-17-1248-00M.COL___409                                                 6
 STAT SP IPHASW D HRMM SECON CODA AMPLIT PERI AZIMU VELO AIN AR TRES W  DIS CAZ7
 BAR2 EZ EP       1257 27.86                             171   -0.0210 21.0 183 
 BAR2 EZ ES       1257 43.48                             171    0.3510 21.0 183 
 BAR2 EZ I        1257 46.68         7.0 0.80            172           21.0 183 
 PAM  EZ EP       1257 30.71                             150   -0.0210 80.9  40 
 PAM  EE ES       1257 48.04                             150   -0.1610 80.9  40 
 PAM  EZ I        1257 49.70         5.8 0.50            152           80.9  40 
 RUS  HZ EP       1257 32.21                             144    0.2810 98.8 174 
 RUS  HN ES       1257 49.98                             144   -0.3510 98.8 174 
 RUS  HZ I        1257 51.83         1.2 0.32            147           98.8 174 
 PTB  HZ EP   2   1257 34.79                             133   -0.17 5  144 259 
 PTB  HE ES       1257 55.67                             133   -0.07 9  144 259 
 PTB  HZ I        1257 56.97         1.9 0.20            135            144 259 
                                                                                
