 2010  217 1137  9.7 L   6.792 -72.936146.9  RSN  8 0.4 2.2LRSN                1
 GAP=204        0.63       3.9     9.9  6.4 -0.1301E+02  0.1900E+02  0.3679E+01E
 Epicentro: CEPITA - SANTANDER                                                 3
 ACTION:UP  10-08-24 09:49 OP:vdl  STATUS:               ID:20100217113709 L   I
 2010-02-17-1133-15S.COL___094                                                 6
 STAT SP IPHASW D HRMM SECON CODA AMPLIT PERI AZIMU VELO SNR AR TRES W  DIS CAZ7
 BAR2 SZ EP   1   1137 29.82                             166     0.0 7   35 231 
 BAR2 SZ ES   2   1137 44.63                             166    -0.8 5   35 231 
 GIR2 SZ EP   1   1137 29.93                             163     0.1 7   43 318 
 GIR2 SZ ES   2   1137 45.55                             163     0.0 5   43 318 
 RUS  BZ EP   1   1137 33.86                             144     0.3 7  101 189 
 RUS  BN ES   2   1137 52.81                             144     0.6 5  101 189 
 RUS  BZ I        1137 53.65        14.6 0.25                           101 189 
 OCA  SZ EP   1   1137 38.17                             129    -0.4 7  165 345 
 OCA  SZ ES   2   1138  1.71                             129     0.6 5  165 345 
 CHI  HZ EP   1   1137 47.98                             117    -0.2 6  255 200 
 CHI  HN ES   2   1138 17.65                             117    -0.5 4  255 200 
 CHI  HZ I        1138 21.05        10.5 0.58                           255 200 
 RREF BZ EP   1   1137 58.51                             110     0.6 5  339 232 
 RREF BE ES   2   1138 35.51                             110     0.0 3  339 232 
 RREF BZ I        1138 41.98         8.8 0.37                           339 232 
 TOL  SZ EP   1   1137 59.89                             108     0.0 5  360 227 
 TOL  SZ ES   2   1138 39.05                             108     0.1 3  360 227 
 PRA  HZ EP   1   1138  3.99                             106    -0.6 4  403 213 
 PRA  HN ES   2   1138 47.31                             106    -0.1 3  403 213 
 PRA  HZ I        1138 54.69         7.1 0.38                           403 213 
                                                                                
