 2017  917 1104 55.4 L   6.550 -73.525109.0  RSN  7 0.4 1.5LRSN                1
 GAP=102        0.94       3.7     3.3  7.4  0.3178E+01  0.8210E+01  0.1062E+02E
 Epicentro: EL CARMEN - SANTANDER                                              3
 ACTION:UPD 17-10-05 19:13 OP:rebc STATUS:               ID:20170917110455 L   I
 OLDACT:UP  17-09-17 21:34 OP:dnl  STATUS:               ID:20170917105740     3
 OLDACT:UP  17-09-17 21:34 OP:dnl  STATUS:               ID:20170917105740     3
 OLDACT:REG 17-09-17 20:59 OP:dnl  STATUS:               ID:20170917105740     3
 2017-09-17-1058-00M.COL___397                                                 6
 STAT SP IPHASW D HRMM SECON CODA AMPLIT PERI AZIMU VELO AIN AR TRES W  DIS CAZ7
 BAR2 EZ IP     D 11 5 11.06                             159   -0.0710 38.2  83 
 BAR2 EZ ES       11 5 24.03                             159    0.6110 38.2  83 
 BAR2 EZ I        11 5 25.32         9.6 0.40            165           38.2  83 
 BRR  HZ EP       11 5 11.86                             147   -0.4110 64.9 341 
 BRR  HN ES       11 5 25.04                             147   -0.4010 64.9 341 
 BRR  HZ I        11 5 32.28         6.2 0.24            152           64.9 341 
 SPBC HZ EP   2   11 5 16.95                             129    0.33 5  116 211 
 SPBC HN ES       11 5 32.70                             129   -0.4910  116 211 
 SPBC HZ I        11 5 39.14        10.8 0.24            133            116 211 
 YPLC HZ EP       11 5 23.12                             116   -0.01 9  180 135 
 YPLC HE ES       11 5 44.92                             116    0.14 9  180 135 
 YPLC HZ I        11 5 47.38         6.1 0.32            122            180 135 
 ZAR  HZ EP   2   11 5 23.14                             116    0.03 4  180 305 
 ZAR  HE ES       11 5 44.97                             116    0.23 9  180 305 
 ZAR  HZ I        11 5 46.99         5.1 0.54            121            180 305 
 HEL  HZ EP   2   11 5 28.69                             111    0.10 4  225 260 
 HEL  HN ES       11 5 55.32                             111    0.83 8  225 260 
 HEL  HZ I        11 5 58.29         2.9 0.36            115            225 260 
 GUY2CHZ EP   4   11 5 32.86                             108    1.16 0  251 234 
 GUY2CHN ES       11 5 59.70                             108   -0.32 8  251 234 
 GUY2CHZ I        11 6  4.62         1.9 0.24                           251 234 
                                                                                
