 2015  117 1635  7.7 L   6.738 -73.167143.8  RSN  5 0.4 1.7LRSN                1
 GAP=137        1.12       4.7     6.4  8.6 -0.7214E+01  0.1446E+02 -0.9735E+01E
 Epicentro: VILLANUEVA - SANTANDER                                             3
 ACTION:UPD 15-03-02 15:40 OP:nd   STATUS:               ID:20150117163507 L   I
 OLDACT:UP  15-01-18 01:17 OP:mh   STATUS:               ID:20150117162755     3
 OLDACT:REG 15-01-17 21:20 OP:y    STATUS:               ID:20150117162755     3
 2015-01-17-1627-55M.COL___175                                                 6
 STAT SP IPHASW D HRMM SECON CODA AMPLIT PERI AZIMU VELO AIN AR TRES W  DIS CAZ7
 BAR2 EZ EP       1635 27.20                             173    0.2110 16.2 186 
 BAR2 EZ ES       1635 42.24                             173    0.2210 16.2 186 
 BAR2 EZ I        1635 43.13         9.5 0.32            170           16.2 186 
 PAM  SZ EP       1635 30.26                             148    0.1010 84.2  38 
 PAM  SN ES       1635 47.02                             148   -0.6310 84.2  38 
 PAM  SZ I        1635 49.05        17.9 0.44            153           84.2  38 
 RUS  HZ EP       1635 31.08                             145    0.2710 93.9 174 
 RUS  HN ES       1635 48.78                             145   -0.0310 93.9 174 
 RUS  HZ I        1636  1.65         5.3 0.42            145           93.9 174 
 PTB  HZ EP       1635 34.30                             132    0.09 9  144 261 
 PTB  HN ES       1635 54.50                             132   -0.37 9  144 261 
 PTB  HZ I        1635 58.00         5.7 0.18            135            144 261 
 OCA  HZ EP       1635 35.78                             128   -0.73 9  167 354 
 OCA  HN ES       1635 59.82                             128    0.86 9  167 354 
 OCA  HZ I        1636  2.29        10.9 0.14            133            167 354 
                                                                                
