 2013  217 1250  7.8 L   6.770 -73.152144.3  RSN  7 0.3 2.1LRSN                1
 GAP=137        0.66       4.2     3.9  6.0 -0.1610E+01  0.2965E+01  0.9988E+01E
 Epicentro: LOS SANTOS - SANTANDER                                             3
 ACTION:UPD 13-03-12 09:33 OP:ep   STATUS:               ID:20130217125007 L   I
 2013-02-17-1250-00M.COL___241                                                 6
 STAT SP IPHASW D HRMM SECON CODA AMPLIT PERI AZIMU VELO AIN AR TRES W  DIS CAZ7
 BAR2 SZ EP       1250 27.19                             172    0.0210 19.9 190 
 BAR2 SZ ES   1   1250 42.34                             172    0.04 7 19.9 190 
 BAR2 SZ I        1250 43.38        42.9 0.14            167           19.9 190 
 BRR  HZ EP   1   1250 29.16                             152    0.33 7 72.3 301 
 BRR  HN ES   1   1250 45.93                             152    0.68 7 72.3 301 
 BRR  HN I        1250 47.33        38.5 0.18            148           72.3 301 
 PAM  SZ EP   1   1250 30.05                             150    0.02 7 80.4  38 
 PAM  SN ES       1250 47.11                             150   -0.2710 80.4  38 
 PAM  SN I        1250 47.43        11.7 0.34            155           80.4  38 
 RUS  HZ EP       1250 31.14                             144   -0.0110 97.3 176 
 RUS  HN ES   2   1250 49.36                             144   -0.02 5 97.3 176 
 RUS  HN I        1250 51.20        11.3 0.32            143           97.3 176 
 PTB  HZ EP   1   1250 34.13                             132   -0.38 7  146 260 
 PTB  HN ES   1   1250 54.71                             132   -0.65 7  146 260 
 PTB  HN I        1251  0.32        18.4 0.22            129            146 260 
 ZAR  HN ES   2   1251  5.61                             122    0.13 4  205 293 
 ZAR  HN I        1251 12.93        17.9 0.24            120            205 293 
 CHI  HZ EP   1   1250 45.38                             117    0.35 6  245 195 
 CHI  HN ES   2   1251 14.29                             117    0.21 4  245 195 
 CHI  HN I        1251 20.49         7.3 0.30            117            245 195 
                                                                                
