 2010 1117 1406  6.8 L   6.729 -73.081138.0  RSN  4 0.3 2.2LRSN                1
 GAP=189        0.80       7.7    15.3  9.6  0.8933E+02 -0.9417E+02 -0.4509E+02E
 Epicentro: JORDAN - SANTANDER                                                 3
 ACTION:UP  10-12-17 16:53 OP:REBC STATUS:               ID:20101117140606 L   I
 2010-11-17-1403-05S.COL___127                                                 6
 STAT SP IPHASW D HRMM SECON CODA AMPLIT PERI AZIMU VELO SNR AR TRES W  DIS CAZ7
 BAR2 SZ EP       14 6 25.31                             172    -0.110   19 217 
 BAR2 SZ ES   1   14 6 39.61                             172    -0.3 7   19 217 
 BAR2 SZ I        14 6 41.27        56.3 0.78                            19 217 
 BRR  HZ EP       14 6 27.24                             148    -0.510   81 301 
 BRR  HN ES       14 6 44.32                             148     0.310   81 301 
 BRR  HZ I        14 6 49.42        33.0 0.63                            81 301 
 RUS  HZ EP       14 6 29.33                             145     0.210   93 180 
 RUS  HN ES   1   14 6 46.83                             145     0.2 7   93 180 
 RUS  HZ I        14 6 48.52        21.9 0.45                            93 180 
 OCA  SZ EP       14 6 35.56                             126     0.2 9  169 351 
                                                                                
