 2016  717 1032 17.9 L   5.733 -73.869111.0  RSN  5 0.5 1.3LRSN                1
 GAP=202        1.16       5.9    10.0  9.6  0.1217E+02 -0.7505E+01 -0.2288E+02E
 Epicentro: ALBANIA - SANTANDER                                                3
 ACTION:UPD 17-03-29 16:52 OP:lp   STATUS:               ID:20160717103217 L   I
 OLDACT:UP  16-07-17 21:23 OP:dani STATUS:               ID:20160717102759     3
 OLDACT:REG 16-07-17 20:21 OP:dani STATUS:               ID:20160717102759     3
 2016-07-17-1027-59S.COL___312                                                 6
 STAT SP IPHASW D HRMM SECON CODA AMPLIT PERI AZIMU VELO AIN AR TRES W  DIS CAZ7
 SPBC HZ EP       1032 33.57                             167    0.3910 24.2 248 
 SPBC HE ES       1032 45.36                             167    0.2710 24.2 248 
 SPBC HZ I        1032 46.38         6.0 0.22            166           24.2 248 
 PTB  HZ EP       1032 38.29                             132   -0.3610  110 324 
 PTB  HN ES       1032 54.16                             132   -0.6710  110 324 
 PTB  HZ I        1032 58.67         2.4 0.10            130            110 324 
 NOR  HZ EP       1032 39.16                             131    0.2810  112 260 
 NOR  HN ES       1032 55.09                             131   -0.1510  112 260 
 NOR  HZ I        1032 56.22         6.0 0.14            133            112 260 
 CHI  HE ES   2   1032 57.43                             129   -0.44 5  123 173 
 GUY2CHZ EP   4   1032 47.61                             118    1.85 0  175 251 
 ZAR  HZ EP       1032 50.01                             111   -0.50 8  223 331 
 ZAR  HN ES       1033 16.91                             111    0.96 8  223 331 
 ZAR  HZ I        1033 22.90         2.5 0.30            112            223 331 
                                                                                
