 2011  817 1516 51.7 L   6.810 -73.127143.3  RSN  7 0.3 2.2LRSN                1
 GAP=240        0.58       3.7     5.5  4.9  0.4429E+01  0.9398E+01  0.4721E+01E
 Epicentro: LOS SANTOS - SANTANDER                                             3
 ACTION:UPD 12-07-13 15:52 OP:ep   STATUS:               ID:20110817151651 L   I
 2011-08-17-1515-04S.COL___149                                                 6
 STAT SP IPHASW D HRMM SECON CODA AMPLIT PERI AZIMU VELO AIN AR TRES W  DIS CAZ7
 BAR2 SZ EP       1517 10.89                             170   -0.1310 24.8 194 
 BAR2 SZ ES   1   1517 26.49                             170    0.37 7 24.8 194 
 BAR2 SZ I        1517 29.28        22.3 0.15                          24.8 194 
 BRR  HZ EP       1517 12.52                             152   -0.0910 72.5 297 
 BRR  HN ES   1   1517 29.07                             152    0.12 7 72.5 297 
 BRR  HZ I        1517 33.34        78.1 0.07                          72.5 297 
 RUS  HZ EP   1   1517 14.97                             143   -0.26 7  102 177 
 RUS  HN ES   1   1517 33.37                             143   -0.25 7  102 177 
 RUS  HZ I        1517 37.47        13.1 0.44                           102 177 
 NOR  SZ EP   1   1517 27.71                             118    0.22 6  237 235 
 NOR  SN ES   1   1517 54.80                             118   -0.64 6  237 235 
 CHI  HZ EP   1   1517 29.57                             116    0.18 6  250 196 
 CHI  HN ES   1   1517 59.34                             116    0.52 6  250 196 
 CHI  HZ I        1518  5.29         8.8 0.36                           250 196 
 DBB  SZ EP   1   1517 39.58                             109    0.32 5  341 274 
 TOL  SZ EP   1   1517 40.31                             109    0.24 5  346 225 
                                                                                
