 2012  517 1749 30.3 L   6.818 -73.156140.1  RSN  7 0.4 2.1LRSN                1
 GAP=134        0.84       5.0     6.6  8.6 -0.5715E+01  0.1536E+02 -0.1095E+02E
 Epicentro: LOS SANTOS - SANTANDER                                             3
 ACTION:UP  12-07-05 12:06 OP:pat  STATUS:               ID:20120517174930 L   I
 2012-05-17-1747-18M.COL___196                                                 6
 STAT SP IPHASW D HRMM SECON CODA AMPLIT PERI AZIMU VELO SNR AR TRES W  DIS CAZ7
 BAR2 SZ EP       1749 49.37                             169     0.010   25 187 
 BAR2 SZ ES   1   1750  3.91                             169    -0.2 7   25 187 
 BAR2 SZ I        1750  6.61        15.3 0.28                            25 187 
 BRR  HZ EP       1749 51.28                             152     0.510   69 298 
 BRR  HZ I        1750 12.44        41.0 0.12                            69 298 
 PAM  SZ EP       1749 52.21                             150     0.310   77  41 
 PAM  SN ES   2   1750  8.83                             150     0.1 5   77  41 
 RUS  HZ EP       1749 53.64                             142     0.010  103 175 
 RUS  HE ES   2   1750 11.53                             142    -0.4 5  103 175 
 PTB  HZ EP       1749 56.41                             131    -0.4 9  147 258 
 PTB  HN ES   2   1750 17.84                             131     0.4 5  147 258 
 PTB  HZ I        1750 18.89         9.3 0.44                           147 258 
 OCA  HZ EP       1749 57.68                             129    -0.3 9  158 353 
 OCA  HN ES   2   1750 18.80                             129    -0.8 5  158 353 
 OCA  HZ I        1750 22.80        24.3 0.46                           158 353 
 ZAR  HN ES   3   1750 27.85                             121     0.8 2  202 292 
                                                                                
