 2016 1217 1617 31.1 L   6.841 -73.436110.8  RSN  7 0.3 1.7LRSN                1
 GAP=102        0.71       2.9     2.8  4.5 -0.5061E+00  0.2167E+01  0.4409E+00E
 Epicentro: SAN VICENTE DE CHUCURI - SANTANDER                                 3
 ACTION:UPD 17-01-11 20:16 OP:rebc STATUS:               ID:20161217161731 L   I
 OLDACT:UP  16-12-18 00:51 OP:edw  STATUS:               ID:20161217160750     3
 OLDACT:UP  16-12-18 00:51 OP:edw  STATUS:               ID:20161217160750     3
 OLDACT:UP  16-12-18 00:50 OP:edw  STATUS:               ID:20161217160750     3
 OLDACT:REG 16-12-17 20:01 OP:edw  STATUS:               ID:20161217160750     3
 2016-12-17-1608-00M.COL___378                                                 6
 STAT SP IPHASW D HRMM SECON CODA AMPLIT PERI AZIMU VELO AIN AR TRES W  DIS CAZ7
 BAR2 EZ EP       1617 47.17                             159    0.1010 39.3 134 
 BAR2 EZ ES       1617 59.38                             159   -0.1710 39.3 134 
 BAR2 EZ I        1618  0.48        32.4 0.12            165           39.3 134 
 BRR  HZ EP       1617 46.70                             157   -0.1610 42.4 314 
 BRR  HZ I        1617 55.87        17.2 0.36            152           42.4 314 
 BRR  HN ES       1617 59.58                             157    0.4010 42.4 314 
 PAM  EZ EP       1617 51.83                             136    0.4610 98.3  56 
 PAM  EN ES       1618  6.72                             136   -0.4810 98.3  56 
 RUS  HZ EP       1617 52.56                             132   -0.0110  112 160 
 RUS  HN ES       1618  9.49                             132    0.1410  112 160 
 PTB  HZ EP   9 C 1617 51.47                             130   -1.00 0  118 254 
 PTB  HN ES       1618  7.95                             131   -0.2110  118 254 
 PTB  HZ I        1618 11.46         3.3 0.32            127            118 254 
 ZAR  HZ EP       1617 57.93                             118   -0.14 9  173 295 
 ZAR  HE ES   2   1618 19.09                             118   -0.04 4  173 295 
 ZAR  HZ I        1618 24.19         8.0 0.40            116            173 295 
 NOR  HZ EP   4   1618  1.03                             112   -1.47 0  212 228 
 NOR  HN ES       1618 26.81                             112   -0.21 8  212 228 
                                                                                
