 2010  717 1302 34.9 L   6.793 -73.038144.7  RSN  6 0.7 2.1LRSN                1
 GAP=171        1.71       7.6    12.6 14.0 -0.2391E+02  0.1653E+01  0.7117E+01E
 Epicentro: CEPITA - SANTANDER                                                 3
 ACTION:UPD 10-12-01 15:18 OP:pat  STATUS:               ID:20100717130234 L   I
 2010-07-17-1258-05S.COL___128                                                 6
 STAT SP IPHASW D HRMM SECON CODA AMPLIT PERI AZIMU VELO AIN AR TRES W  DIS CAZ7
 BAR2 SZ EP       13 2 54.36                             169    -0.210   27 216 
 BAR2 SZ ES   1   13 3  9.13                             169    -0.7 7   27 216 
 BAR2 SZ I        13 3 11.13        37.3 1.07                            27 216 
 BRR  HZ EP       13 2 56.20                             149    -0.410   82 295 
 BRR  HN ES       13 3 13.43                             149    -0.110   82 295 
 BRR  HZ I        13 3 17.40        19.3 0.53                            82 295 
 RUS  HZ EP       13 2 58.32                             144    -0.210  100 183 
 RUS  HN ES       13 3 17.41                             144     0.510  100 183 
 RUS  HZ I        13 3 18.80        14.5 0.32                           100 183 
 GRA  SZ EP       13 3  0.16                             137     0.310  123  12 
 GRA  SZ ES   1   13 3 19.95                             137     0.6 7  123  12 
 GRA  SZ I        13 3 21.41        13.3 0.71                           123  12 
 RREF HN ES       13 4  0.15                             110     1.4 7  330 231 
 RREF HZ I        13 4  6.40         7.5 1.21                           330 231 
 PRA  HN ES   1   13 4  9.29                             106    -2.0 4  397 211 
 PRA  HZ I        13 4 15.02         4.5 0.52                           397 211 
                                                                                
