 2017  617 1316 51.4 L   6.831 -73.191153.1  RSN 11 0.4 2.2LRSN                1
 GAP=191        0.76       2.9     5.9  5.4  0.5869E+00 -0.6173E+01  0.1039E+01E
 Epicentro: ZAPATOCA - SANTANDER                                               3
 ACTION:UPD 17-09-14 16:52 OP:jn   STATUS:               ID:20170617131651 L   I
 OLDACT:UP  17-06-17 22:30 OP:dani STATUS:               ID:20170617130736     3
 OLDACT:UP  17-06-17 22:29 OP:dani STATUS:               ID:20170617130736     3
 OLDACT:REG 17-06-17 20:29 OP:dani STATUS:               ID:20170617130736     3
 2017-06-17-1308-00M.COL___344                                                 6
 STAT SP IPHASW D HRMM SECON CODA AMPLIT PERI AZIMU VELO AIN AR TRES W  DIS CAZ7
 BRR  HZ EP       1317 13.30                             156    0.2710 65.2 298 
 BRR  HE ES       1317 29.95                             156    0.0510 65.2 298 
 BRR  HZ I        1317 33.46        27.5 0.26            149           65.2 298 
 SPBC HZ EP       1317 20.34                             131   -0.09 9  163 217 
 SPBC HN ES       1317 43.29                             131    0.21 9  163 217 
 SPBC HZ I        1317 48.47        22.3 0.26            124            163 217 
 ZAR  HZ EP       1317 23.93                             125    0.20 9  198 292 
 ZAR  HN ES       1317 48.85                             125   -0.11 9  198 292 
 ZAR  HZ I        1317 56.47        10.5 0.42            120            198 292 
 TABC EZ EP   3   1317 29.01                             121    1.37 2  230 209 
 TABC EZ I        1318  2.94        16.9 0.28            116            230 209 
 NOR  HZ EP       1317 27.44                             120    0.09 8  233 233 
 NOR  HN ES       1317 54.83                             120   -0.56 8  233 233 
 NOR  HZ I        1318  0.60        10.7 0.32            115            233 233 
 CHI  HZ EP       1317 29.91                             118    0.18 8  251 194 
 CHI  HN ES       1317 59.09                             118   -0.54 8  251 194 
 CHI  HZ I        1318  4.06         6.1 0.38            114            251 194 
 ROSC BZ EP   9   1317 32.09                             118    2.12 0  253 210 
 ROSC BE ES       1318  1.77                                   -0.41 8  253 210 
 ROSC BZ I        1318  6.43        18.6 0.42            113            253 210 
 URE  HZ EP       1317 32.06                             116   -0.12 7  278 292 
 URE  HE ES   4   1318  1.69                             116   -2.30 0  278 292 
 URE  HZ I        1318 12.91         7.6 0.16            111            278 292 
 PTGC HZ EP   3   1317 34.65                             112   -1.50 2  314 158 
 PTGC HN ES   4   1318  7.15                             112   -3.91 0  314 158 
 PTGC HZ I        1318  9.93         8.0 0.24            110            314 158 
 ELA  HZ EP       1317 39.05                             112    0.66 7  328 228 
 ELA  HE ES       1318 15.18                             112    0.13 7  328 228 
 ELA  HZ I        1318 23.11         5.1 0.43            108            328 228 
 SJC  HZ EP       1317 45.71                             107   -0.84 6  404 327 
 SJC  HN ES   4   1318 24.71                             107   -4.87 0  404 327 
 SJC  HZ I        1318 30.78         2.5 0.38            105            404 327 
                                                                                
