 2016  417 1140 24.8 L   6.841 -73.153140.2  RSN 23 0.5 2.8LRSN                1
 GAP= 69        1.17       3.4     3.2  5.3 -0.3786E+01  0.5332E+01 -0.6073E+00E
 Epicentro: LOS SANTOS - SANTANDER                                             3
 ACTION:UPD 16-05-05 14:22 OP:rebc STATUS:               ID:20160417114024 L   I
 OLDACT:UP  16-04-18 16:00 OP:drio STATUS:               ID:20160417113747     3
 OLDACT:UP  16-04-18 15:59 OP:drio STATUS:               ID:20160417113747     3
 OLDACT:ARG 16-04-18 14:37 OP:cara STATUS:               ID:20160417113747     3
 2016-04-17-1137-47M.COL___303                                                 6
 STAT SP IPHASW D HRMM SECON CODA AMPLIT PERI AZIMU VELO AIN AR TRES W  DIS CAZ7
 BAR2 EZ EP       1140 43.97                             168    0.1210 27.7 187 
 BAR2 EZ ES       1140 58.47                             168   -0.2510 27.7 187 
 BAR2 EZ I        1141  0.00       279.6 0.16            166           27.7 187 
 PAM  EZ IP     C 1140 46.85                             150    0.6110 74.5  42 
 PAM  EE ES       1141  3.89                             150    0.9210 74.5  42 
 PAM  EZ I        1141  5.88       175.7 0.50            155           74.5  42 
 RUS  HZ EP       1140 47.92                             141   -0.4210  105 176 
 RUS  HE ES       1141  6.38                             141   -0.3310  105 176 
 RUS  HZ I        1141  8.10       115.4 0.32            141            105 176 
 PTB  HZ EP       1140 50.59                             131   -0.73 9  148 257 
 PTB  HN ES       1141 11.57                             131   -0.45 9  148 257 
 PTB  HZ I        1141 14.24       106.1 0.16            130            148 257 
 OCA  HZ EP       1140 52.28                             129    0.05 9  156 353 
 OCA  HE ES       1141 13.64                             129    0.00 9  156 353 
 OCA  HZ I        1141 17.72       152.4 0.38            131            156 353 
 TAM  HZ IP     C 1140 52.31                             129    0.09 9  157 107 
 TAM  HN ES       1141 13.53                             129   -0.09 9  157 107 
 TAM  HZ I        1141 14.93        29.8 0.58            132            157 107 
 SPBC HZ EP       1140 52.94                             127   -0.22 9  166 218 
 SPBC HN ES       1141 14.57                             127   -0.72 9  166 218 
 SPBC HZ I        1141 22.52        99.9 0.28            127            166 218 
 ZAR  HZ EP       1140 57.15                             121    0.53 9  202 291 
 ZAR  HN ES   4   1141 22.93                             121    1.48 0  202 291 
 ZAR  HZ I        1141 30.17        77.9 0.34            122            202 291 
 NOR  HZ EP       1140 59.97                             117   -0.45 8  237 233 
 NOR  HE ES       1141 28.13                             117   -0.08 8  237 233 
 NOR  HZ I        1141 35.19        57.8 0.20            117            237 233 
 CHI  HZ EP       1141  2.25                             115   -0.39 8  253 195 
 CHI  HN ES   4   1141 30.93                             115   -1.24 0  253 195 
 CHI  HZ I        1141 41.61        28.8 0.40            116            253 195 
 ROSC BZ EP       1141  3.91                             115    0.92 8  256 210 
 ROSC BN ES   4   1141 35.48                             115    2.68 0  256 210 
 ROSC BZ I        1141 41.00        40.1 0.40            115            256 210 
 HEL  HZ EP   4   1141  6.08                             113    1.32 0  272 255 
 HEL  HN ES       1141 36.08                             113    0.14 8  272 255 
 HEL  HZ I        1141 40.81        41.9 0.26            114            272 255 
 URE  HZ EP       1141  5.14                             112   -0.17 7  281 291 
 URE  HN ES   4   1141 36.09                             112   -0.84 0  281 291 
 URE  HZ I        1141 38.01        48.5 0.14            113            281 291 
 SOCV BZ EP       1141  6.85                             111   -0.53 7  300  58 
 SOCV BE ES   4   1141 39.09                             111   -1.51 0  300  58 
 GUY2CHZ EP       1141  9.33                             111    0.96 7  303 234 
 GUY2CHN ES   4   1141 44.62                             111    2.26 0  303 234 
 GUY2CHZ I        1141 48.98        40.2 0.26                           303 234 
 ELA  HZ EP       1141 12.32                             109    0.64 7  331 229 
 ELA  HN ES   4   1141 50.69                             109    2.43 0  331 229 
 ELA  HZ I        1142  0.61        21.2 0.74            109            331 229 
 CBOC HZ EP       1141 12.05                             109    0.50 7  334 251 
 CBOC HN ES       1141 47.90                             109   -0.13 7  334 251 
 CBOC HZ I        1141 53.51        14.5 0.40            109            334 251 
 SDV  BZ EP       1141 13.51                             107   -0.84 6  358  51 
 SDV  BN ES   4   1141 50.48                             107   -2.54 0  358  51 
 SDV  BZ I        1141 55.75        26.2 0.60            109            358  51 
 ANIL HZ EP       1141 15.36                             107    0.67 6  360 224 
 ANIL HE ES       1141 54.17                             107    0.55 6  360 224 
 ANIL HZ I        1142  1.63        53.3 0.38            108            360 224 
 ORTC HZ EP       1141 18.38                             105   -0.52 6  399 216 
 ORTC HN ES       1142  2.47                             105    1.37 6  399 216 
 ORTC HZ I        1142  6.14        12.7 0.20            106            399 216 
 SJC  HZ EP       1141 18.91                             105   -0.75 6  405 327 
 SJC  HE ES   4   1142  0.08                             105   -2.39 0  405 327 
 SJC  HZ I        1142  4.41        13.1 0.44            106            405 327 
 ELOV BZ EP   4   1141 18.26                             105   -1.43 0  406  87 
 ELOV BN ES   4   1141 59.55                             105   -2.98 0  406  87 
 PAL  HZ EP       1141 20.02                             105    0.06 6  407 238 
 PAL  HE ES       1142  2.54                             105   -0.46 6  407 238 
 PAL  HZ I        1142 18.89        13.9 0.62            105            407 238 
 YOT  HZ EP   4   1141 26.80                             102   -1.16 0  474 228 
 YOT  HE ES   4   1142 19.48                             102    2.24 0  474 228 
 YOT  HZ I        1142 26.70         2.8 0.50            103            474 228 
                                                                                
