 2010 1117 1347 44.6 L   6.814 -73.092145.4  RSN 12 0.4 2.6LRSN                1
 GAP=164        1.09       4.7     6.7  8.0 -0.1539E+02  0.2449E+01  0.7984E+01E
 Epicentro: LOS SANTOS - SANTANDER                                             3
 ACTION:UP  10-12-17 16:53 OP:REBC STATUS:               ID:20101117134744 L   I
 2010-11-17-1344-00S.COL___127                                                 6
 STAT SP IPHASW D HRMM SECON CODA AMPLIT PERI AZIMU VELO SNR AR TRES W  DIS CAZ7
 GIR2 SZ EP   1   1348  4.27                             167     0.0 7   31 339 
 BRR  HZ EP       1348  5.97                             151     0.010   76 295 
 BRR  HN ES       1348 23.21                             151     0.610   76 295 
 BRR  HZ I        1348 26.33        75.3 0.29                            76 295 
 RUS  HZ EP       1348  8.28                             144    -0.110  102 179 
 RUS  HN ES   1   1348 26.60                             144    -0.4 7  102 179 
 RUS  HZ I        1348 28.82        49.8 0.06                           102 179 
 GUE  SZ EP       1348  9.06                             140     0.010  114   9 
 GRA  SZ EP       1348  9.75                             138     0.210  123  15 
 GRA  SZ ES   1   1348 28.86                             138    -0.2 7  123  15 
 GRA  SZ I        1348 33.29        62.0 0.30                           123  15 
 OCA  SZ EP   1   1348 12.15                             130    -0.7 7  160 351 
 OCA  SZ I        1348 38.57        23.4 0.63                           160 351 
 NOR  SZ EP       1348 20.33                             118    -0.6 8  241 235 
 NOR  SN ES       1348 48.45                             118    -0.8 8  241 235 
 NOR  SZ I        1348 51.91         5.8 0.03                           241 235 
 ROSC BZ EP       1348 23.98                             116     0.8 8  257 212 
 ROSC BN ES   2   1348 53.60                             116     0.3 4  257 212 
 ROSC BZ I        1348 58.79        26.7 0.42                           257 212 
 HEL  HZ EP   1   1348 25.87                             114     0.4 6  278 256 
 HEL  HE ES   2   1348 57.09                             114    -0.3 4  278 256 
 HEL  HZ I        1349  4.26        40.9 0.27                           278 256 
 RREF HZ EP       1348 32.02                             110     0.7 7  327 230 
 RREF HN ES   2   1349  7.66                             110    -0.2 3  327 230 
 RREF HZ I        1349 14.97        22.3 0.46                           327 230 
 DBB  SZ EP   1   1348 32.60                             109    -0.1 5  345 274 
 PRA  HN ES   1   1349 20.99                             106     0.3 4  396 210 
 PRA  HZ I        1349 25.22        44.7 1.16                           396 210 
                                                                                
