 2015  417 1911 24.0 L   6.763 -73.076134.9  RSN  4 0.3 1.3LRSN                1
 GAP=147        0.87       4.5     7.3  8.6 -0.4340E+01 -0.1820E+02  0.5195E+01E
 Epicentro: LOS SANTOS - SANTANDER                                             3
 ACTION:UPD 15-06-03 16:55 OP:cam  STATUS:               ID:20150417191124 L   I
 OLDACT:REG 15-04-17 21:17 OP:ak   STATUS:               ID:20150417190749     3
 2015-04-17-1907-49M.COL___275                                                 6
 STAT SP IPHASW D HRMM SECON CODA AMPLIT PERI AZIMU VELO AIN AR TRES W  DIS CAZ7
 BAR2 EZ ES       1911 55.94                             170   -0.5810 22.2 212 
 PAM  SZ EP       1911 44.71                             149   -0.2310 76.1  33 
 PAM  SN ES       1912  1.60                             149    0.2910 76.1  33 
 PAM  SZ I        1912  3.49         4.4 0.54            150           76.1  33 
 BRR  HN ES       1912  0.70                             147    0.2010 79.9 298 
 RUS  HZ EP       1911 46.29                             143   -0.0310 96.2 180 
 RUS  HE ES       1912  4.12                             143    0.3510 96.2 180 
 RUS  HZ I        1912  6.24         3.3 0.18            144           96.2 180 
                                                                                
