 2014  717 1032  9.1 L   6.772 -73.172137.7  RSN 17 0.5 2.3LRSN                1
 GAP=134        1.00       2.3     3.5  5.0 -0.2205E+01  0.6814E+01  0.6712E+00E
 Epicentro: LOS SANTOS - SANTANDER                                             3
 ACTION:UPD 15-03-16 20:44 OP:nd   STATUS:               ID:20140717103209 L   I
 OLDACT:UP  14-07-17 21:31 OP:stll STATUS:               ID:20140717102817d    3
 OLDACT:DUP 14-07-17 21:23 OP:stll STATUS:               ID:20140717102817d    3
 2014-07-17-1028-16M.COL___257                                                 6
 STAT SP IPHASW D HRMM SECON CODA AMPLIT PERI AZIMU VELO AIN AR TRES W  DIS CAZ7
 BAR2 SZ IP     C 1032 28.12                             171    0.4010 19.9 183 
 BAR2 SZ I        1032 28.23        65.3 0.18            170           19.9 183 
 BAR2 SZ ES       1032 42.65                             171    0.4310 19.9 183 
 PAM  SZ EP       1032 31.40                             148    0.6410 81.6  40 
 PAM  SE ES       1032 47.65                             148    0.0210 81.6  40 
 PAM  SZ I        1032 50.74        21.2 0.62            152           81.6  40 
 RUS  HZ EP       1032 31.73                             143   -0.1510 97.8 174 
 RUS  HZ I        1032 33.05        22.6 0.16            146           97.8 174 
 RUS  HE ES       1032 49.24                             143   -0.3910 97.8 174 
 PTB  HZ EP       1032 34.83                             131   -0.29 9  144 260 
 PTB  HN ES       1032 55.16                             131   -0.24 9  144 260 
 PTB  HZ I        1033  0.84        25.3 0.16            130            144 260 
 SPBC HZ EP       1032 36.73                             128    0.13 9  159 219 
 SPBC HZ I        1032 37.01        30.9 0.16            129            159 219 
 SPBC HE ES       1032 57.98                             128   -0.06 9  159 219 
 OCA  HZ EP       1032 36.65                             127   -0.43 9  163 354 
 OCA  HN ES       1032 58.36                             127   -0.53 9  163 354 
 OCA  HZ I        1033  4.21        15.3 0.60            129            163 354 
 ZAR  HZ EP       1032 41.26                             121    0.36 9  203 293 
 ZAR  HE ES       1033  5.94                             121    0.26 9  203 293 
 ZAR  HZ I        1033 13.16        28.3 0.30            121            203 293 
 NOR  HZ EP       1032 43.72                             117   -0.22 8  231 235 
 NOR  HN ES       1033 11.47                             117    0.37 8  231 235 
 NOR  HZ I        1033 17.13        25.6 0.34            118            231 235 
 CHI  HZ EP       1032 45.90                             116   -0.08 8  245 195 
 CHI  HN ES       1033 14.18                             116   -0.54 8  245 195 
 CHI  HZ I        1033 21.16         7.5 0.26            118            245 195 
 SML  HZ EP       1032 45.20                             116   -0.29 8  245 336 
 SML  HN ES       1033 13.59                             116   -0.26 8  245 336 
 SML  HZ I        1033 19.82        15.4 0.10            117            245 336 
 HEL  HZ EP       1032 48.22                             113   -0.32 8  268 256 
 HEL  HE ES       1033 19.38                             113    0.10 8  268 256 
 HEL  HZ I        1033 26.97        15.2 0.44            114            268 256 
 GUY2CHZ EP       1032 52.00                             111    0.11 7  297 235 
 GUY2CHN ES       1033 25.47                             111    0.21 7  297 235 
 GUY2CHZ I        1033 34.53        19.2 0.56                           297 235 
 RREF HZ EP   1   1032 55.39                             110    0.95 5  318 229 
 RREF HE ES       1033 29.89                             110    0.10 7  318 229 
 RREF HZ I        1033 39.20        11.4 0.30            111            318 229 
 TOL  SZ EP       1032 57.09                             108    0.52 7  339 225 
 TOL  SE ES       1033 32.28                             108   -1.30 7  339 225 
 ANIL HZ EP       1032 59.11                             107    0.98 6  353 225 
 ANIL HE ES       1033 37.42                             107    1.06 6  353 225 
 ANIL HZ I        1033 44.71        18.2 0.34            109            353 225 
 PRA  HZ EP       1033  1.25                             105   -0.64 6  388 209 
 PRA  HN ES       1033 42.51                             105   -0.54 6  388 209 
 PRA  HZ I        1033 48.98         8.0 0.38            107            388 209 
 ORTC HZ EP       1033  2.71                             105    0.43 6  391 216 
 ORTC HN ES       1033 43.31                             105   -0.43 6  391 216 
 ORTC HZ I        1033 54.11         4.9 0.26            107            391 216 
                                                                                
