 2010  417 1424 40.1 L   6.784 -72.965142.7  RSN  9 0.5 2.4LRSN                1
 GAP=253        0.77       5.9     8.3  8.1 -0.8389E+01  0.1452E+01  0.2546E+02E
 Epicentro: CEPITA - SANTANDER                                                 3
 ACTION:UPD 10-08-24 09:59 OP:vdl  STATUS:               ID:20100417142448 L   I
 2010-04-17-1423-08S.COL___100                                                 6
 STAT SP IPHASW D HRMM SECON CODA AMPLIT PERI AZIMU VELO AIN AR TRES W  DIS CAZ7
 BAR2 SZ EP       1424 59.86                             167     0.310   32 229 
 BAR2 SZ ES   2   1425 14.10                             167    -0.7 5   32 229 
 BRR  HZ IP     C 1425  2.09                             146     0.010   90 293 
 BRR  HE ES   1   1425 19.32                             146     0.0 7   90 293 
 BRR  HZ I        1425 23.23        41.4 0.09                            90 293 
 CHI  HZ EP   1   1425 17.80                             116    -0.3 6  253 200 
 CHI  HE ES   2   1425 48.48                             116     0.7 4  253 200 
 CHI  HZ I        1425 57.49        11.8 0.35                           253 200 
 ROSC BZ EP   1   1425 19.65                             115     0.5 6  262 215 
 ROSC BE ES   2   1425 49.16                             115    -0.4 4  262 215 
 ROSC BZ I        1425 54.69        14.1 0.46                           262 215 
 HEL  HZ EP   2   1425 21.74                             112    -0.6 4  291 257 
 HEL  HN ES   3   1425 54.50                             112    -0.7 2  291 257 
 HEL  HZ I        1425 57.61         7.4 0.35                           291 257 
 RREF BZ EP   1   1425 28.41                             109     0.6 5  336 232 
 RREF BN ES       1426  5.25                             109     0.3 7  336 232 
 RREF BZ I        1426  9.17        13.4 0.27                           336 232 
 TOL  SZ EP   1   1425 29.89                             108     0.1 5  357 227 
 TOL  SZ ES   3   1426  7.87                             108    -0.6 2  357 227 
 MON  HZ EP   2   1425 30.61                             107    -0.3 3  370 307 
 MON  HZ I        1426 23.00         7.0 0.48                           370 307 
 PRA  HZ EP       1425 33.70                             106    -0.9 6  401 212 
 PRA  HN ES   2   1426 16.28                             106    -0.7 3  401 212 
 PRA  HZ I        1426 22.27        12.5 0.34                           401 212 
                                                                                
