 2012  817 1808 38.9 L   6.712 -73.176153.5  RSN  4 0.2 1.9LRSN                1
 GAP=227        0.50       4.8     4.9  4.6  0.1147E+02  0.2924E+01  0.2036E+01E
 Epicentro: VILLANUEVA - SANTANDER                                             3
 ACTION:UPD 12-09-10 11:56 OP:ep   STATUS:               ID:20120817180838 L   I
 2012-08-17-1800-00M.COL___216                                                 6
 STAT SP IPHASW D HRMM SECON CODA AMPLIT PERI AZIMU VELO AIN AR TRES W  DIS CAZ7
 BAR2 SZ EP   1   18 8 59.06                             175   -0.29 7 13.2 183 
 BAR2 SZ ES   1   18 9 15.00                             175   -0.27 7 13.2 183 
 BAR2 SZ I        18 9 16.14        12.6 0.31                          13.2 183 
 BRR  HZ EP       18 9  1.01                             153   -0.0510 73.6 306 
 BRR  HZ I        18 9  1.21        23.3 0.22                          73.6 306 
 BRR  HN ES       18 9 18.55                             153    0.2310 73.6 306 
 RUS  HZ EP   1   18 9  3.04                             148    0.21 7 91.2 174 
 RUS  HN ES   1   18 9 21.63                             148    0.17 7 91.2 174 
 PTB  HZ EP       18 9  6.18                             135    0.06 9  143 262 
 PTB  HN ES   1   18 9 27.08                             135   -0.24 7  143 262 
 PTB  HZ I        18 9 34.37         6.4 0.38                           143 262 
                                                                                
