 2010 1217 1023 15.2 L   6.882 -72.873140.0  RSN  4 0.2 1.3LRSN                1
 GAP=267        0.65       8.5    15.6  9.4  0.1002E+03 -0.8888E+02 -0.3732E+02E
 Epicentro: GUACA - SANTANDER                                                  3
 ACTION:UP  11-01-14 15:25 OP:pat  STATUS:               ID:20101217102315 L   I
 2010-12-17-1021-35S.COL___136                                                 6
 STAT SP IPHASW D HRMM SECON CODA AMPLIT PERI AZIMU VELO SNR AR TRES W  DIS CAZ7
 BTL  SZ EP       1023 34.55                             162    -0.210   44 275 
 BTL  SZ ES   1   1023 50.08                             162     0.0 7   44 275 
 BAR2 SZ EP       1023 35.26                             161     0.310   47 227 
 BAR2 SZ ES   3   1023 50.16                             161    -0.1 2   47 227 
 BAR2 SZ I        1023 53.41         4.4 0.17                            47 227 
 BRR  HZ EP       1023 37.17                             144    -0.210   96 285 
 BRR  HZ I        1023 38.12         6.2 0.44                            96 285 
 BRR  HN ES   1   1023 54.90                             144     0.2 7   96 285 
 RUS  HZ EP   1   1023 39.51                             140     0.2 7  112 192 
 RUS  HN ES   1   1023 57.81                             140    -0.3 7  112 192 
 RUS  HZ I        1023 59.60         1.5 0.57                           112 192 
                                                                                
