 2012  417 1011 14.5 L   6.395 -73.653106.1  RSN  9 0.2 1.7LRSN                1
 GAP= 73        0.59       2.1     2.1  4.4 -0.1362E+01  0.4079E+01 -0.2124E+00E
 Epicentro: SANTA HELENA DEL OPON - SANTANDER                                  3
 ACTION:UPD 12-07-05 11:53 OP:tino STATUS:               ID:20120417101114 L   I
 2012-04-17-1010-00M.COL___189                                                 6
 STAT SP IPHASW D HRMM SECON CODA AMPLIT PERI AZIMU VELO AIN AR TRES W  DIS CAZ7
 BAR2 SZ EP       1011 30.94                             150     0.010   56  67 
 BAR2 SZ ES       1011 43.62                             150    -0.110   56  67 
 BAR2 SZ I        1011 45.91        28.3 0.37                            56  67 
 BRR  HZ EP       1011 32.00                             140    -0.110   79 355 
 BRR  HZ I        1011 40.37        10.3 0.19                            79 355 
 BRR  HN ES   1   1011 45.91                             140     0.0 7   79 355 
 RUS  HZ EP       1011 32.93                             139    -0.310   84 131 
 RUS  HZ I        1011 33.40         7.7 0.24                            84 131 
 RUS  HE ES   1   1011 47.90                             139     0.1 7   84 131 
 PAM  SZ EP       1011 39.44                             121     0.2 9  148  45 
 PAM  SE ES       1011 58.55                             121     0.0 9  148  45 
 NOR  SZ EP   1   1011 40.37                             118     0.1 7  163 236 
 NOR  SN ES       1012  0.52                             118     0.2 9  163 236 
 ZAR  HZ EP   1   1011 41.37                             115    -0.7 7  180 312 
 ZAR  HE ES   1   1012  3.45                             115    -0.1 7  180 312 
 ZAR  HZ I        1012  9.37         8.7 0.31                           180 312 
 OCA  SZ EP       1011 45.59                             112     0.3 8  207  10 
 HEL  HZ EP       1011 46.08                             112     0.4 8  209 264 
 HEL  HE ES   1   1012 10.08                             112     0.0 6  209 264 
 HEL  HZ I        1012 13.01         5.8 0.36                           209 264 
 PRA  HZ EP   1   1011 58.90                             101    -0.2 5  326 205 
 PRA  HE ES   1   1012 33.73                             101    -0.1 5  326 205 
                                                                                
