 2011  417 1217  0.9 L   6.137 -73.678106.4  RSN 12 0.3 2.2LRSN                1
 GAP= 86        0.62       2.7     2.9  5.6 -0.3985E+01  0.2175E+01  0.3241E+01E
 Epicentro: CHIPATA - SANTANDER                                                3
 ACTION:UP  11-06-22 15:31 OP:REBC STATUS:               ID:20110417121700 L   I
 2011-04-17-1200-00M.COL___141                                                 6
 STAT SP IPHASW D HRMM SECON CODA AMPLIT PERI AZIMU VELO SNR AR TRES W  DIS CAZ7
 BAR2 SZ IP       1217 18.76                             143     0.210   74  47 
 BAR2 SZ ES       1217 32.22                             143    -0.110   74  47 
 BAR2 SZ I        1217 34.03       139.4 0.18                            74  47 
 BRR  HZ EP   1   1217 20.85                             131    -0.1 7  107 358 
 BRR  HE ES   1   1217 36.70                             131     0.1 7  107 358 
 BRR  HZ I        1217 38.92        44.9 0.13                           107 358 
 GIR2 SZ EP   1   1217 22.24                             128     0.2 7  117  27 
 NOR  SZ EP   1   1217 24.68                             121    -0.2 7  146 244 
 NOR  SN ES   1   1217 43.91                             121     0.3 7  146 244 
 NOR  SZ I        1217 46.33         5.7 0.57                           146 244 
 YOP  SZ EP   2   1217 27.02                             118     0.2 5  164 122 
 YOP  SN ES   2   1217 47.32                             118     0.3 5  164 122 
 YOP  SZ I        1217 50.06        21.3 0.27                           164 122 
 CHI  HZ EP   2   1217 27.17                             118    -0.4 5  167 182 
 CHI  HE ES   2   1217 48.24                             118    -0.1 5  167 182 
 CHI  HZ I        1217 53.93        15.4 0.35                           167 182 
 PAM  SZ EP   1   1217 28.06                             117    -0.1 7  171  39 
 PAM  SE ES   1   1217 48.55                             117    -0.8 7  171  39 
 BRI  SZ EP   1   1217 30.72                             113    -0.2 6  200  29 
 HEL  HZ EP   2   1217 32.17                             112     0.5 4  205 272 
 HEL  HN ES   2   1217 55.32                             112    -0.4 4  205 272 
 HEL  HZ I        1218  1.30        11.8 0.19                           205 272 
 GRA  SZ EP   1   1217 33.01                             111     0.3 6  216  27 
 GRA  SZ ES   2   1217 58.22                             111     0.8 4  216  27 
 GRA  SZ I        1217 60.00        23.2 0.48                           216  27 
 RREF HZ EP   1   1217 34.61                             110    -0.3 6  230 234 
 RREF HE ES   2   1218  1.05                             110    -0.3 4  230 234 
 RREF HZ I        1218  6.64        13.0 0.27                           230 234 
 PRA  HZ EP   1   1217 42.16                             103    -0.1 5  300 207 
 PRA  HE ES   2   1218 15.05                             103     0.5 4  300 207 
                                                                                
