 2016  417 1303 24.2 L   6.764 -73.306125.3  RSN  4 0.3 1.9LRSN                1
 GAP=115        0.87       7.3     4.9  8.6 -0.5886E+01  0.2392E+02 -0.1472E+02E
 Epicentro: ZAPATOCA - SANTANDER                                               3
 ACTION:UPD 16-05-05 14:22 OP:rebc STATUS:               ID:20160417130324 L   I
 OLDACT:ARG 16-04-18 14:37 OP:cara STATUS:               ID:20160417125750     3
 2016-04-17-1257-50M.COL___309                                                 6
 STAT SP IPHASW D HRMM SECON CODA AMPLIT PERI AZIMU VELO AIN AR TRES W  DIS CAZ7
 BAR2 EZ EP       13 3 41.69                             169    0.3310 23.4 144 
 BAR2 EZ ES       13 3 54.84                             169    0.0810 23.4 144 
 BAR2 EZ I        13 3 56.09        29.6 0.24            172           23.4 144 
 PAM  EZ EP       13 3 45.19                             142   -0.1510 92.4  46 
 PAM  EE ES       13 4  1.74                             142   -0.1110 92.4  46 
 PAM  EZ I        13 4  3.41        10.3 0.22            146           92.4  46 
 PTB  HZ EP       13 3 47.25                             131   -0.5910  130 259 
 PTB  HN ES   4   13 4  4.55                             131   -1.74 0  130 259 
 PTB  HZ I        13 4 10.08         8.6 0.16            133            130 259 
 ZAR  HZ EP       13 3 54.41                             120    0.60 9  189 295 
 ZAR  HN ES       13 4 16.85                             120   -0.07 9  189 295 
 ZAR  HZ I        13 4 18.56         9.6 0.24            122            189 295 
                                                                                
