 2011 1217 1524  1.2 L   6.794 -73.062150.7  RSN  4 0.2 1.6LRSN                1
 GAP=148        0.36       3.9     5.6  5.6  0.4889E+00  0.2069E+01 -0.1007E+01E
 Epicentro: LOS SANTOS - SANTANDER                                             3
 ACTION:UPD 12-07-13 16:16 OP:ep   STATUS:               ID:20111217152401 L   I
 2011-12-17-1520-00M.COL___186                                                 6
 STAT SP IPHASW D HRMM SECON CODA AMPLIT PERI AZIMU VELO AIN AR TRES W  DIS CAZ7
 BAR2 SZ ES   2   1524 37.17                             170   -0.14 5 25.9 211 
 BAR2 SZ I        1524 43.79         8.7 0.59                          25.9 211 
 PAM  SZ EP   2   1524 23.86                             153    0.18 5 72.4  34 
 PAM  SN ES   2   1524 41.13                             153   -0.07 5 72.4  34 
 BRR  HZ EP   1   1524 23.20                             151   -0.19 7 79.7 296 
 BRR  HZ I        1524 38.40         9.7 0.43                          79.7 296 
 BRR  HN ES   2   1524 40.96                             151    0.28 5 79.7 296 
 RUS  HZ EP   2   1524 25.57                             145    0.18 5 99.7 181 
 RUS  HE ES   2   1524 44.22                             145   -0.03 5 99.7 181 
 RUS  HZ I        1524 45.77         4.4 0.48                          99.7 181 
                                                                                
