 2016  317 1101 22.7 L   6.800 -73.169142.5  RSN  8 0.3 1.8LRSN                1
 GAP=134        0.68       2.5     2.8  4.3 -0.8171E+00  0.4534E+01  0.9364E+00E
 Epicentro: LOS SANTOS - SANTANDER                                             3
 ACTION:UPD 16-05-13 21:25 OP:cam  STATUS:               ID:20160317110122 L   I
 OLDACT:REG 16-03-17 20:32 OP:cara STATUS:               ID:20160317105751     3
 2016-03-17-1057-51M.COL___291                                                 6
 STAT SP IPHASW D HRMM SECON CODA AMPLIT PERI AZIMU VELO AIN AR TRES W  DIS CAZ7
 BAR2 EZ EP       11 1 41.87                             170   -0.1010 23.0 184 
 BAR2 EZ ES       11 1 57.07                             170    0.1110 23.0 184 
 BAR2 EZ I        11 1 57.76        14.1 0.30            169           23.0 184 
 PAM  EZ IP     D 11 1 44.82                             150    0.1110 79.1  41 
 PAM  EZ I        11 1 44.93        12.8 0.18            154           79.1  41 
 PAM  EN ES       11 2  1.68                             150   -0.1610 79.1  41 
 RUS  HZ EP       11 1 46.05                             143   -0.1310  101 175 
 RUS  HE ES       11 2  4.43                             143   -0.0410  101 175 
 RUS  HZ I        11 2  5.95         7.0 0.22            144            101 175 
 PTB  HZ EP       11 1 48.74                             132   -0.47 9  145 259 
 PTB  HN ES       11 2 10.01                             132    0.15 9  145 259 
 PTB  HZ I        11 2 14.30         6.8 0.38            131            145 259 
 SPBC HZ EP       11 1 51.23                             129    0.39 9  162 218 
 SPBC HN ES       11 2 12.88                             129    0.13 9  162 218 
 SPBC HZ I        11 2 18.93         7.5 0.18            129            162 218 
 ZAR  HZ EP       11 1 55.23                             122    0.50 9  202 292 
 ZAR  HN ES       11 2 19.62                             122   -0.06 9  202 292 
 ZAR  HZ I        11 2 25.12        11.6 0.32            122            202 292 
 CHI  HZ EP       11 1 59.95                             116   -0.23 8  248 195 
 CHI  HN ES       11 2 29.64                             116    0.25 8  248 195 
 CHI  HZ I        11 2 32.58         3.5 0.32            118            248 195 
 GUY2CHZ EP       11 2  6.11                             112    0.15 7  299 234 
 GUY2CHN ES       11 2 39.00                             112   -0.67 7  299 234 
 GUY2CHZ I        11 2 50.14         2.1 0.58                           299 234 
                                                                                
