 2013 1017 1331  2.1 L   6.772 -73.127140.0  RSN 10 0.5 2.1LRSN                1
 GAP=140        1.23       5.1     4.9  7.5 -0.2067E+01  0.1163E+02  0.7502E+01E
 Epicentro: LOS SANTOS - SANTANDER                                             3
 ACTION:UPD 13-11-25 09:22 OP:ep   STATUS:               ID:20131017133102 L   I
 OLDACT:UP  13-10-17 16:27 OP:cam  STATUS:               ID:20131017132835     3
 OLDACT:REG 13-10-17 15:19 OP:cam  STATUS:               ID:20131017132835     3
 2013-10-17-1328-35M.COL___226                                                 6
 STAT SP IPHASW D HRMM SECON CODA AMPLIT PERI AZIMU VELO AIN AR TRES W  DIS CAZ7
 BAR2 SZ EP       1331 20.93                             171   -0.0710 20.8 197 
 BAR2 SZ ES       1331 35.52                             171   -0.2210 20.8 197 
 BAR2 SZ I        1331 36.66        53.2 0.20            167           20.8 197 
 BRR  HZ EP       1331 22.82                             150   -0.0210 74.5 300 
 BRR  HN ES       1331 39.65                             150    0.6410 74.5 300 
 BRR  HZ I        1331 43.51        26.8 0.48            145           74.5 300 
 PAM  SZ EP       1331 24.00                             149    0.2110 78.5  37 
 PAM  SN ES       1331 40.76                             149    0.0610 78.5  37 
 PAM  SZ I        1331 41.17        20.6 0.38            147           78.5  37 
 RUS  HZ EP       1331 24.93                             144   -0.1410 97.4 177 
 RUS  HN ES       1331 43.12                             144    0.1510 97.4 177 
 RUS  HZ I        1331 44.00        12.0 0.22            138           97.4 177 
 PTB  HZ EP       1331 27.54                             130   -1.22 9  149 260 
 PTB  HN ES       1331 48.57                             130   -0.97 9  149 260 
 PTB  HZ I        1331 50.72        27.5 0.16            124            149 260 
 SPBC HZ EP   1   1331 30.14                             128    0.06 7  162 220 
 SPBC HZ I        1331 56.60        12.1 0.26            122            162 220 
 ZAR  HZ EP   1   1331 34.55                             121    0.03 6  207 293 
 ZAR  HN ES       1332  0.09                             121    0.30 8  207 293 
 ZAR  HZ I        1332  8.49        14.9 0.12            115            207 293 
 NOR  HZ EP   1   1331 37.40                             117   -0.11 6  235 235 
 NOR  HN ES       1332  5.56                             117    0.44 8  235 235 
 NOR  HZ I        1332 10.46        10.4 0.30            112            235 235 
 CHI  HZ EP   1   1331 39.22                             116   -0.02 6  246 196 
 GUY2CHZ EP   1   1331 46.67                             111    1.21 5  301 235 
 GUY2CHE ES       1332 20.14                             111    0.88 7  301 235 
 GUY2CHZ I        1332 26.18         6.1 0.28                           301 235 
                                                                                
