 2016  617 1050 40.6 L   6.797 -73.089144.3  RSN  7 0.5 1.5LRSN                1
 GAP=144        1.31       5.5     6.7  9.5 -0.1508E+01  0.1210E+02  0.6754E+01E
 Epicentro: LOS SANTOS - SANTANDER                                             3
 ACTION:UPD 16-07-21 22:19 OP:rebc STATUS:               ID:20160617105040 L   I
 OLDACT:UP  16-06-20 15:45 OP:nlst STATUS:               ID:20160617105040 L   3
 OLDACT:UP  16-06-17 20:31 OP:dani STATUS:               ID:20160617104742     3
 OLDACT:UP  16-06-17 20:30 OP:dani STATUS:               ID:20160617104742     3
 OLDACT:REG 16-06-17 19:00 OP:dani STATUS:               ID:20160617104742     3
 2016-06-17-1047-42M.COL___337                                                 6
 STAT SP IPHASW D HRMM SECON CODA AMPLIT PERI AZIMU VELO AIN AR TRES W  DIS CAZ7
 BAR2 EZ EP       1051  0.29                             170    0.2110 24.9 205 
 BAR2 EZ ES       1051 15.36                             170    0.0910 24.9 205 
 BAR2 EZ I        1051 16.70        14.9 0.26                          24.9 205 
 PAM  EZ EP       1051  3.15                             152    0.7110 73.8  36 
 PAM  EE ES       1051 18.53                             152   -0.9510 73.8  36 
 PAM  EZ I        1051 23.17         2.8 0.32                          73.8  36 
 BRR  HZ EP       1051  2.27                             150    0.3510 76.9 297 
 BRR  HN ES       1051 19.18                             150    0.6310 76.9 297 
 RUS  HZ EP       1051  4.25                             144    0.0910  100 180 
 RUS  HE ES       1051 22.40                             144   -0.1410  100 180 
 RUS  HZ I        1051 24.14         3.3 0.48                           100 180 
 SPBC HZ EP       1051  8.57                             128   -0.77 9  167 221 
 SPBC HE ES       1051 31.94                             128    0.18 9  167 221 
 SPBC HZ I        1051 38.84         5.7 0.20                           167 221 
 ZAR  HE ES       1051 38.58                             121   -0.70 8  210 292 
 ZAR  HZ I        1051 44.49         4.3 0.28                           210 292 
 CHI  HZ EP   4   1051 19.94                             117    1.58 0  250 197 
 CHI  HN ES   2   1051 47.65                             117   -0.17 4  250 197 
                                                                                
