 2017  417 1327 32.4 L   6.851 -73.295119.3  RSN 12 0.4 1.9LRSN                1
 GAP=109        1.15       3.5     3.7  6.3  0.9006E+00  0.2879E+01  0.5312E+01E
 Epicentro: ZAPATOCA - SANTANDER                                               3
 ACTION:UPD 17-05-30 21:13 OP:jn   STATUS:               ID:20170417132732 L   I
 OLDACT:UP  17-04-20 22:00 OP:lv   STATUS:               ID:20170417131737d    3
 OLDACT:UP  17-04-20 22:00 OP:lv   STATUS:               ID:20170417131737d    3
 OLDACT:DUP 17-04-20 21:50 OP:lv   STATUS:               ID:20170417131737d    3
 2017-04-17-1318-00M.COL___362                                                 6
 STAT SP IPHASW D HRMM SECON CODA AMPLIT PERI AZIMU VELO AIN AR TRES W  DIS CAZ7
 BAR2 EZ EP       1327 48.90                             164   -0.1610 31.2 156 
 BAR2 EZ ES       1328  1.56                             164   -0.5110 31.2 156 
 BAR2 EZ I        1328  3.21        56.1 0.07            163           31.2 156 
 BRR  HZ EP       1327 49.23                             154   -0.4710 54.1 302 
 BRR  HN ES       1328  3.41                             154    0.2010 54.1 302 
 BRR  HZ I        1328  4.32      1012.3 0.03            153           54.1 302 
 PAM  EZ EP       1327 52.23                             142   -0.1810 85.1  51 
 PAM  EN ES       1328  8.78                             142    0.7510 85.1  51 
 RUS  HZ EP       1327 53.90                             135   -0.4110  109 168 
 RUS  HN ES       1328 11.64                             135    0.2310  109 168 
 RUS  HZ I        1328 14.23         3.3 0.18            134            109 168 
 PTB  HZ EP   9   1327 54.29                             128   -1.59 0  133 255 
 PTB  HN ES       1328 11.60                                   -1.0210  133 255 
 PTB  HZ I        1328 15.37         7.2 0.13            127            133 255 
 SPBC HZ EP       1327 57.95                             123   -0.52 9  158 213 
 SPBC HN ES       1328 19.05                             123    0.24 9  158 213 
 SPBC HZ I        1328 21.03        14.1 0.05            122            158 213 
 ZAR  HZ EP       1328  2.17                             118    0.81 9  187 292 
 ZAR  HN ES       1328 23.86                             118   -0.10 9  187 292 
 ZAR  HZ I        1328 28.07         6.6 0.15            118            187 292 
 YPLC HZ EP       1328  1.46                             118   -0.36 9  190 148 
 YPLC HN ES       1328 25.14                             118    0.36 9  190 148 
 YPLC HZ I        1328 27.94         6.2 0.35            118            190 148 
 NOR  HZ EP   4   1328  3.72                             113   -1.91 0  225 231 
 NOR  HN ES       1328 31.77                             113    0.20 8  225 231 
 NOR  HZ I        1328 37.23         1.8 0.14            113            225 231 
 CHI  HZ EP       1328  8.86                             111   -0.10 8  250 191 
 CHI  HE ES       1328 37.74                             111    0.25 8  250 191 
 CHI  HZ I        1328 39.59         1.3 0.10            110            250 191 
 URE  HZ EP   4   1328 12.05                             109    1.76 0  266 292 
 URE  HN ES   4   1328 37.73                             109   -2.13 0  266 292 
 URE  HZ I        1328 39.10         5.8 0.08            109            266 292 
 PRA  HZ EP   9   1328 26.11                             101    1.33 0  389 207 
 PRA  HN ES       1329  7.02                                    0.04 6  389 207 
 PRA  HZ I        1329 13.14         1.7 0.47            101            389 207 
 SJC  HZ EP   4   1328 23.16                             101   -2.41 0  396 328 
 SJC  HN ES   4   1329  3.32                             101   -3.73 0  396 328 
                                                                                
