 2011  617 1500 10.2 L   6.787 -73.087145.2  RSN  9 0.4 2.2LRSN                1
 GAP=165        0.92       4.7     7.3  8.7 -0.1530E+02  0.4841E+01  0.5039E+01E
 Epicentro: LOS SANTOS - SANTANDER                                             3
 ACTION:UP  11-07-14 19:06 OP:ep   STATUS:               ID:20110617150010 L   I
 2011-06-17-1459-03S.COL___135                                                 6
 STAT SP IPHASW D HRMM SECON CODA AMPLIT PERI AZIMU VELO SNR AR TRES W  DIS CAZ7
 BAR2 SZ EP       15 0 29.71                             170    -0.110   24 206 
 BAR2 SZ I        15 0 46.64        32.4 0.28                            24 206 
 BRR  HZ EP   1   15 0 31.62                             150    -0.1 7   78 297 
 BRR  HN ES   1   15 0 48.83                             150     0.4 7   78 297 
 BRR  HZ I        15 0 53.35        34.1 0.14                            78 297 
 RUS  HZ EP   1   15 0 33.59                             144    -0.2 7   99 180 
 RUS  HN ES   1   15 0 52.46                             144     0.3 7   99 180 
 RUS  HZ I        15 0 53.85        22.8 0.38                            99 180 
 GRA  SZ EP       15 0 35.58                             137     0.210  125  14 
 GRA  SZ ES   1   15 0 54.55                             137    -0.5 7  125  14 
 GRA  SZ I        15 0 56.17        18.7 0.34                           125  14 
 OCA  SZ EP   1   15 0 38.88                             129     0.2 7  163 351 
 OCA  SZ I        15 1  5.21        25.4 0.28                           163 351 
 NOR  SZ EP   1   15 0 45.78                             118    -0.6 6  239 236 
 NOR  SN ES   1   15 1 13.88                             118    -0.7 6  239 236 
 CHI  HZ EP   1   15 0 47.88                             117    -0.1 6  249 197 
 RREF HE ES   1   15 1 33.54                             110     0.4 5  326 230 
 RREF HZ I        15 1 39.56        10.9 0.39                           326 230 
 TOL  SZ EP   1   15 1  0.01                             109     1.1 5  347 226 
                                                                                
