 2013 1017 1217 22.5 L   6.781 -73.159144.0  RSN  6 0.6 1.8LRSN                1
 GAP=136        1.20       6.4     6.2  8.9 -0.4035E+01  0.5342E+01  0.3670E+01E
 Epicentro: LOS SANTOS - SANTANDER                                             3
 ACTION:UPD 13-11-25 09:22 OP:ep   STATUS:               ID:20131017121722 L   I
 OLDACT:UP  13-10-17 16:22 OP:cam  STATUS:               ID:20131017120835     3
 OLDACT:REG 13-10-17 15:09 OP:cam  STATUS:               ID:20131017120835     3
 2013-10-17-1208-35M.COL___222                                                 6
 STAT SP IPHASW D HRMM SECON CODA AMPLIT PERI AZIMU VELO AIN AR TRES W  DIS CAZ7
 BAR2 SZ EP       1217 41.66                             171   -0.2610 21.0 187 
 BAR2 SZ ES       1217 57.06                             171    0.0310 21.0 187 
 BAR2 SZ I        1217 57.54        23.7 0.38            171           21.0 187 
 BRR  HZ EP       1217 43.60                             152    0.1110 71.0 301 
 BRR  HN ES       1218  0.63                             152    0.8010 71.0 301 
 BRR  HZ I        1218  1.47        15.1 0.20            152           71.0 301 
 PAM  SZ EP       1217 44.62                             150   -0.1110 79.9  39 
 PAM  SN ES       1218  1.76                             150   -0.2710 79.9  39 
 PAM  SZ I        1218  3.67         7.9 0.54            152           79.9  39 
 RUS  HZ EP       1217 46.35                             144    0.3710 98.6 175 
 RUS  HE ES       1218  4.24                             144   -0.0210 98.6 175 
 RUS  HZ I        1218  5.54         6.4 0.42            146           98.6 175 
 PTB  HZ EP   1   1217 48.36                             132   -0.84 7  146 260 
 PTB  HN ES       1218  9.39                             132   -0.61 9  146 260 
 PTB  HZ I        1218 13.73         8.4 0.46            132            146 260 
 GUY2CHZ EP   2   1218  7.98                             112    2.18 4  299 235 
                                                                                
