 2012  217 1545 48.9 L   6.766 -73.170147.1  RSN  6 0.5 1.8LRSN                1
 GAP=178        0.96       8.4     7.1  9.0  0.1510E+02  0.6285E+01  0.3109E+01E
 ACTION:UP  12-03-07 16:31 OP:epov STATUS:               ID:20120217154548 L   I
 2012-02-17-1540-00M.COL___188                                                 6
 STAT SP IPHASW D HRMM SECON CODA AMPLIT PERI AZIMU VELO AIN AR TRES W  DIS CAZ7
 BAR2 SZ EP   1   1546  8.64                             172   -0.01 8 19.3 184 
 BAR2 SZ ES   1   1546 24.01        18.0 0.23            172   -0.02 8 19.3 184 
 BAR2 SZ I        1546 25.42        18.0 0.23                          19.3 184 
 GIR2 SZ EP   1   1546  8.43                             166   -0.43 8 34.7 356 
 BRR  HZ EP   1   1546  9.88                             153   -0.32 8 70.7 302 
 BRR  HZ I        1546 10.95        18.8 0.07                          70.7 302 
 BRR  HN ES   1   1546 27.72                             153    0.93 8 70.7 302 
 RUS  HZ EP   1   1546 12.71                             145    0.14 8 97.1 174 
 RUS  HE ES   1   1546 30.98                             145   -0.02 8 97.1 174 
 RUS  HZ I        1546 32.49         4.3 0.32                          97.1 174 
 PTB  HZ EP   1   1546 15.72                             133    0.02 7  144 260 
 PTB  HN ES       1546 36.01                             133   -0.5810  144 260 
 NOR  SZ EP   1   1546 25.18                             119    0.91 7  230 235 
                                                                                
