 2011 1017 1531 48.4 L   7.480 -73.155146.9  RSN  4 0.2 1.8LRSN                1
 GAP=231        0.36       8.3     6.0  6.8 -0.1561E+02  0.5481E+01 -0.1391E+02E
 Epicentro: EL PLAYON - SANTANDER                                              3
 ACTION:UPD 12-07-13 16:04 OP:ep   STATUS:               ID:20111017153148 L   I
 2011-10-17-1520-00M.COL___171                                                 6
 STAT SP IPHASW D HRMM SECON CODA AMPLIT PERI AZIMU VELO AIN AR TRES W  DIS CAZ7
 GIR2 SZ EP   3   1532  8.44                             162   -0.14 2 44.6 185 
 GIR2 SZ ES   3   1532 24.32                             162   -0.04 2 44.6 185 
 PAM  SZ EP   2   1532  9.59                             159    0.17 5 52.7 107 
 PAM  SN ES   2   1532 25.76                             159   -0.09 5 52.7 107 
 BRR  HZ EP   2   1532 10.02                             152    0.24 5 74.0 236 
 BRR  HZ I        1532 19.87        15.6 0.39                          74.0 236 
 BRR  HN ES   2   1532 26.37                             152   -0.12 5 74.0 236 
 BAR2 SZ EP   2   1532 11.31                             144   -0.38 5 98.3 182 
 BAR2 SZ I        1532 25.78         9.5 0.60                          98.3 182 
 BAR2 SZ ES   2   1532 30.10                             144    0.21 5 98.3 182 
                                                                                
