 2014  317 1749 35.2 L   6.829 -73.159146.9  RSN 22 0.5 2.6LRSN                1
 GAP= 80        0.88       2.5     3.2  4.7 -0.2408E+01  0.9975E+00  0.2137E+01E
 Epicentro: LOS SANTOS - SANTANDER                                             3
 OLDACT:REG 14-03-17 16:11 OP:fm   STATUS:               ID:20140317174816     3
 ACTION:UPD 14-04-09 23:18 OP:nd   STATUS:               ID:20140317174935 L   I
 OLDACT:UP  14-03-17 18:56 OP:fm   STATUS:               ID:20140317174816     3
 2014-03-17-1748-16M.COL___241                                                 6
 STAT SP IPHASW D HRMM SECON CODA AMPLIT PERI AZIMU VELO AIN AR TRES W  DIS CAZ7
 BAR2 SZ EP       1749 54.59                             169   -0.4710 26.3 186 
 BAR2 SZ ES   1   1750 10.38                             169   -0.15 7 26.3 186 
 BAR2 SZ I        1750 12.05        89.3 0.18            168           26.3 186 
 BRR  HZ EP       1749 56.39                             154    0.0510 68.4 297 
 BRR  HN ES       1750 13.51                             154    0.7010 68.4 297 
 BRR  SZ I        1750 17.62        31.5 0.24            150           68.4 297 
 PAM  SZ EP       1749 57.71                             151    0.2310 75.9  42 
 PAM  SN ES       1750 14.73                             151   -0.1010 75.9  42 
 PAM  SZ I        1750 16.30        74.2 0.62            155           75.9  42 
 PTB  HZ EP       1750  1.84                             132   -0.37 9  147 257 
 PTB  HN ES       1750 22.84                             132   -0.42 9  147 257 
 PTB  SZ I        1750 25.04        48.6 0.16            130            147 257 
 OCA  HZ EP       1750  3.98                             131    0.67 9  157 354 
 OCA  HN ES       1750 24.65                             131   -0.56 9  157 354 
 OCA  SZ I        1750 29.17        57.6 0.22            131            157 354 
 TAM  HN ES   2   1750 25.17                             130    0.13 5  157 106 
 SPBC HZ EP       1750  3.90                             129   -0.06 9  165 218 
 SPBC HE ES       1750 26.37                             129   -0.01 9  165 218 
 SPBC SZ I        1750 33.06        56.5 0.34            128            165 218 
 ZAR  HZ EP       1750  7.58                             123    0.10 9  201 291 
 ZAR  HN ES       1750 32.98                             123    0.35 9  201 291 
 ZAR  SZ I        1750 37.62        28.6 0.32            122            201 291 
 NOR  HZ EP       1750 11.27                             119    0.18 8  235 234 
 NOR  HN ES       1750 39.10                             119    0.03 8  235 234 
 NOR  SZ I        1750 47.03        25.0 0.24            118            235 234 
 SML  HZ EP   2   1750 12.33                             118    0.80 4  240 335 
 SML  HE ES   4   1750 39.78                             118   -0.07 0  240 335 
 SML  SZ I        1750 43.84        35.6 0.08            118            240 335 
 CHI  HZ EP       1750 13.48                             117    0.20 8  251 195 
 CHI  HE ES       1750 42.96                             117   -0.01 8  251 195 
 CHI  SZ I        1750 46.19        19.4 0.34            117            251 195 
 ROSC BZ EP   4   1750 15.17                             117    1.55 0  255 210 
 ROSC BN ES   4   1750 45.02                             117    1.44 0  255 210 
 ROSC SZ I        1750 52.15        28.1 0.40            116            255 210 
 HEL  HZ EP   2   1750 14.88                             115   -0.54 4  271 255 
 HEL  HN ES   2   1750 47.42                             115    0.64 4  271 255 
 HEL  SZ I        1750 54.01        19.9 0.24            114            271 255 
 URE  HN ES   2   1750 45.57                             114   -2.34 4  281 291 
 GUY2CHZ EP   4   1750 20.40                             112    1.44 0  302 234 
 GUY2CHN ES   4   1750 52.18                             112   -0.89 0  302 234 
 GUY2CSZ I        1751  2.91        28.1 0.46                           302 234 
 VIL  SZ EP       1750 19.05                             112    0.03 7  306 191 
 VIL  SN ES   2   1750 52.79                             112   -0.39 4  306 191 
 VIL  SZ I        1750 56.84        17.1 0.38            112            306 191 
 RREF HZ EP   4   1750 23.14                             111    1.61 0  323 229 
 RREF HN ES       1750 57.59                             111   -0.05 7  323 229 
 RREF SZ I        1751  6.78        22.7 0.64            111            323 229 
 DBB  SZ EP   4   1750 20.06                             110   -2.49 0  338 274 
 DBB  SZ ES   4   1750 58.43                             110   -1.03 0  338 274 
 DBB  SZ I        1751  4.45        27.2 1.06            109            338 274 
 COD  HZ EP       1750 22.75                             109   -0.51 7  345 355 
 COD  HE ES   2   1751  1.33                             109    0.60 3  345 355 
 COD  SZ I        1751  8.26         9.4 1.02            110            345 355 
 SDV  BZ EP   1   1750 24.93                             108   -0.28 5  360  51 
 SDV  BN ES   4   1751  1.31                             108   -2.88 0  360  51 
 SDV  SZ I        1751  4.88         7.4 0.55            109            360  51 
 ORTC HZ EP   2   1750 30.29                             106    0.91 3  397 216 
 ORTC HN ES   2   1751 12.70                             106    1.07 3  397 216 
 ORTC SZ I        1751 19.07        11.4 0.36            106            397 216 
 SJC  HZ EP   4   1750 29.05                             106   -1.36 0  406 327 
 SJC  HN ES   4   1751  9.90                             106   -3.55 0  406 327 
 SJC  SZ I        1751 15.55        16.7 4.20            106            406 327 
                                                                                
