 2010  817 1214 45.8 L   6.799 -73.064144.7  RSN  4 0.1 1.6LRSN                1
 GAP=241        0.40       6.0    10.7  5.7  0.5206E+02 -0.3459E+02 -0.1771E+02E
 Epicentro: LOS SANTOS - SANTANDER                                             3
 ACTION:UP  10-09-07 10:55 OP:vdl  STATUS:               ID:20100817121445 L   I
 2010-08-17-1211-10S.COL___111                                                 6
 STAT SP IPHASW D HRMM SECON CODA AMPLIT PERI AZIMU VELO SNR AR TRES W  DIS CAZ7
 BTL  SZ EP       1215  5.53                             169     0.210   26 300 
 BAR2 SZ EP       1215  5.36                             169     0.010   26 210 
 BAR2 SZ ES   1   1215 20.48                             169    -0.2 7   26 210 
 BAR2 SZ I        1215 21.60         7.8 0.25                            26 210 
 BRR  HZ EP   1   1215  7.17                             150    -0.2 7   79 295 
 BRR  HZ I        1215  7.47        14.1 0.13                            79 295 
 BRR  HE ES   1   1215 24.17                             150     0.1 7   79 295 
 RUS  HZ EP   1   1215  9.37                             144    -0.1 7  100 181 
 RUS  HN ES   1   1215 27.96                             144     0.1 7  100 181 
 RUS  HZ I        1215 29.27         4.1 0.53                           100 181 
                                                                                
