 2015  817 1649 31.3 L   6.784 -73.097149.7  RSN  5 0.3 1.7LRSN                1
 GAP=168        0.76       6.6     4.6  6.5  0.6576E+01  0.5264E+01 -0.4725E+01E
 Epicentro: LOS SANTOS - SANTANDER                                             3
 ACTION:UPD 15-09-15 23:02 OP:cam  STATUS:               ID:20150817164931 L   I
 OLDACT:REG 15-08-17 21:24 OP:spq  STATUS:               ID:20150817164748     3
 2015-08-17-1647-48M.COL___340                                                 6
 STAT SP IPHASW D HRMM SECON CODA AMPLIT PERI AZIMU VELO AIN AR TRES W  DIS CAZ7
 BAR2 EZ EP       1649 51.31                             171   -0.0810 23.1 204 
 BAR2 EZ ES   1   1650  6.46                             171   -0.61 7 23.1 204 
 BAR2 EZ I        1650  7.24         9.0 0.20            174           23.1 204 
 PAM  EZ EP       1649 54.06                             152    0.2410 75.6  36 
 PAM  EN ES   1   1650 11.66                             152    0.26 7 75.6  36 
 PAM  EZ I        1650 13.77         2.8 0.42            151           75.6  36 
 BRR  HZ EP     D 1649 53.22                             151    0.0410 76.8 298 
 BRR  HE ES       1650 10.40                             151    0.1410 76.8 298 
 BRR  HZ I        1650 11.24         9.6 0.20            149           76.8 298 
 ZAR  HZ EP       1650  4.35                             122   -0.22 8  210 292 
 ZAR  HE ES       1650 30.95                             122    0.41 8  210 292 
 ZAR  HZ I        1650 35.30         5.6 0.30            122            210 292 
 SML  HN ES   1   1650 36.89                             118   -0.75 6  248 334 
 SML  HZ I        1650 40.04         6.5 0.06            117            248 334 
                                                                                
