 2010  517 1723 34.3 L   6.798 -73.003144.3  RSN  4 0.1 1.7LRSN                1
 GAP=211        0.31       4.0     4.9  4.9 -0.9993E+01 -0.7445E+01  0.1983E+01E
 Epicentro: CEPITA - SANTANDER                                                 3
 ACTION:UP  10-08-24 10:05 OP:vdl  STATUS:               ID:20100517172334 L   I
 2010-05-17-1722-33S.COL___108                                                 6
 STAT SP IPHASW D HRMM SECON CODA AMPLIT PERI AZIMU VELO AIN AR TRES W  DIS CAZ7
 BAR2 SZ EP   2   1723 53.83                             168    -0.1 5   30 221 
 BAR2 SZ ES   2   1724  9.21                             168     0.0 5   30 221 
 BRR  HZ EP   1   1723 56.20                             148     0.1 7   86 294 
 BRR  HE ES   1   1724 13.17                             148     0.0 7   86 294 
 BRR  HZ I        1724 17.17         9.3 0.15                            86 294 
 GUE  SZ EP   2   1723 58.47                             140    -0.2 5  114   4 
 GRA  SZ EP   2   1723 59.26                             137     0.2 5  122  10 
 GRA  SZ ES   1   1724 18.45                             137     0.0 7  122  10 
                                                                                
