 2010 1217 1033 16.0 L   6.883 -72.938140.7  RSN  4 0.5 1.3LRSN                1
 GAP=262        1.24      15.6    28.6 14.1  0.3445E+03 -0.2250E+03 -0.9430E+02E
 Epicentro: GUACA - SANTANDER                                                  3
 ACTION:UP  11-01-14 15:25 OP:pat  STATUS:               ID:20101217103316 L   I
 2010-12-17-1028-03S.COL___136                                                 6
 STAT SP IPHASW D HRMM SECON CODA AMPLIT PERI AZIMU VELO SNR AR TRES W  DIS CAZ7
 BTL  SZ EP       1033 35.01                             165    -0.310   37 276 
 BTL  SZ ES   1   1033 49.96                             165    -0.5 7   37 276 
 BAR2 SZ EP       1033 35.75                             162     0.210   42 220 
 BAR2 SZ ES   1   1033 51.67                             162     0.9 7   42 220 
 BAR2 SZ I        1033 53.83         4.4 0.38                            42 220 
 BRR  HZ EP       1033 37.55                             146    -0.210   89 286 
 BRR  HZ I        1033 38.07         5.1 0.28                            89 286 
 BRR  HN ES   1   1033 54.92                             146     0.3 7   89 286 
 RUS  HZ EP       1033 40.38                             140     0.410  111 188 
 RUS  HN ES   1   1033 57.94                             140    -0.8 7  111 188 
 RUS  HZ I        1034  0.00         1.7 0.54                           111 188 
                                                                                
