 2011 1217 1040 19.1 L   6.777 -73.111145.5  RSN  9 0.3 2.0LRSN                1
 GAP=142        0.52       2.9     4.4  4.9 -0.4020E+01  0.4325E+01  0.1625E+01E
 Epicentro: LOS SANTOS - SANTANDER                                             3
 ACTION:UPD 12-07-13 16:16 OP:ep   STATUS:               ID:20111217104019 L   I
 2011-12-17-1040-00M.COL___185                                                 6
 STAT SP IPHASW D HRMM SECON CODA AMPLIT PERI AZIMU VELO AIN AR TRES W  DIS CAZ7
 BAR2 SZ EP       1040 38.26                             171   -0.3910 22.0 201 
 BAR2 SZ ES   2   1040 53.67                             171   -0.24 5 22.0 201 
 BAR2 SZ I        1040 56.33        27.3 0.25                          22.0 201 
 GIR2 SZ EP   1   1040 38.55                             166   -0.26 7 34.5 345 
 GIR2 SZ ES   2   1040 54.28                             166    0.08 5 34.5 345 
 BRR  HZ IP     D 1040 40.38                             151   -0.0810 75.8 299 
 BRR  HE ES   2   1040 57.43                             151    0.29 5 75.8 299 
 BRR  HZ I        1041  3.69        18.3 0.22                          75.8 299 
 PAM  SZ IP       1040 41.43                             151    0.1910 77.0  36 
 PAM  SN ES   2   1040 58.52                             151   -0.01 5 77.0  36 
 RUS  HZ EP   1   1040 42.43                             144   -0.18 7 97.9 178 
 RUS  HE ES   2   1041  1.49                             144    0.52 5 97.9 178 
 RUS  HZ I        1041  2.42        10.2 0.42                          97.9 178 
 OCA  SZ EP   1   1040 47.73                             129    0.08 7  163 352 
 OCA  SZ ES   2   1041 10.26                             129    0.33 5  163 352 
 OCA  SZ I        1041 13.70        12.5 0.48                           163 352 
 CTAU SZ EP       1040 52.42                             123    0.42 9  202 211 
 CTAU SZ ES   2   1041 17.45                             123   -0.24 4  202 211 
 HEL  HZ EP   2   1040 59.78                             114    0.16 4  275 257 
 HEL  HN ES   2   1041 30.89                             114   -0.36 4  275 257 
 HEL  HZ I        1041 38.71         5.7 0.36                           275 257 
 RREF HN ES   2   1041 41.69                             111    0.23 3  323 230 
 RREF HZ I        1041 53.19         4.6 0.28                           323 230 
                                                                                
