 2013  117 1127 58.8 L   6.771 -73.168149.6  RSN  6 0.4 1.4LRSN                1
 GAP=233        0.85       5.8     6.9  7.9  0.1934E+02  0.8009E+01  0.8295E+01E
 Epicentro: LOS SANTOS - SANTANDER                                             3
 ACTION:UPD 13-02-15 09:14 OP:ep   STATUS:               ID:20130117112758 L   I
 2013-01-17-1120-00M.COL___241                                                 6
 STAT SP IPHASW D HRMM SECON CODA AMPLIT PERI AZIMU VELO AIN AR TRES W  DIS CAZ7
 BAR2 SZ EP       1128 18.61                             172   -0.2110 19.8 185 
 BAR2 SZ ES   1   1128 34.39                             172   -0.04 7 19.8 185 
 BAR2 SZ I        1128 37.59         7.9 0.60            161           19.8 185 
 BRR  HZ EP     D 1128 20.64                             153    0.3110 70.7 302 
 BRR  HN ES   1   1128 37.84                             153    0.72 7 70.7 302 
 RUS  HZ EP   1   1128 22.37                             145   -0.34 7 97.6 174 
 RUS  HE ES   1   1128 41.01                             145   -0.35 7 97.6 174 
 RUS  HZ I        1128 42.45         2.6 0.40            141           97.6 174 
 PTB  HZ EP   1   1128 25.47                             134   -0.33 7  145 260 
 PTB  HN ES   1   1128 46.32                             134   -0.55 7  145 260 
 PTB  HZ I        1128 54.27         4.2 0.26            130            145 260 
 ZAR  HE ES   1   1128 56.59                             123   -0.21 6  203 293 
 CHI  HZ EP   1   1128 36.73                             118    0.43 6  245 195 
 CHI  HN ES   1   1129  6.32                             118    0.77 6  245 195 
 CHI  HZ I        1129 13.64         1.2 0.22            117            245 195 
                                                                                
