 2016  117 1506 30.0 L   6.232 -73.873 91.2  RSN  5 0.4 1.3LRSN                1
 GAP=125        0.97       4.5     3.1  9.7 -0.2483E+01 -0.1852E+01 -0.1158E+01E
 Epicentro: LANDAZURI - SANTANDER                                              3
 ACTION:UPD 16-03-09 23:26 OP:cam  STATUS:               ID:20160117150630 L   I
 OLDACT:DUP 16-01-17 22:07 OP:drio STATUS:               ID:20160117145749d    3
 2016-01-17-1457-48M.COL___328                                                 6
 STAT SP IPHASW D HRMM SECON CODA AMPLIT PERI AZIMU VELO AIN AR TRES W  DIS CAZ7
 SPBC HZ EP       15 6 45.56                             141    0.1410 67.8 199 
 SPBC HE ES       15 6 58.01                             141    0.5310 67.8 199 
 SPBC HZ I        15 7  0.30        10.4 0.70            144           67.8 199 
 PTB  HZ EP       15 6 45.41                             138   -0.3210 73.0 298 
 PTB  HE ES       15 6 58.07                             138    0.0410 73.0 298 
 PTB  HZ I        15 6 59.16         3.9 0.30            143           73.0 298 
 BAR2 EZ EP       15 6 47.70                             133    0.5310 86.2  62 
 BAR2 EZ ES       15 7  0.53                             133   -0.0710 86.2  62 
 BAR2 EZ I        15 7  2.93         5.5 0.46            137           86.2  62 
 RUS  HZ EP       15 6 48.42                             131    0.0910 95.1 113 
 RUS  HN ES       15 7  2.09                             131   -0.5810 95.1 113 
 NOR  HE ES       15 7  8.01                             120   -0.4010  133 236 
                                                                                
