 2012  517 1920 52.4 L   6.755 -73.128142.4  RSN  6 0.3 2.1LRSN                1
 GAP=141        0.70       4.1     5.5  5.9 -0.2074E+01 -0.1918E+00  0.6003E+01E
 Epicentro: LOS SANTOS - SANTANDER                                             3
 ACTION:UP  12-07-05 12:06 OP:pat  STATUS:               ID:20120517192052 L   I
 2012-05-17-1920-00M.COL___197                                                 6
 STAT SP IPHASW D HRMM SECON CODA AMPLIT PERI AZIMU VELO SNR AR TRES W  DIS CAZ7
 BAR2 SZ EP       1921 11.52                             172     0.010   19 199 
 BAR2 SZ ES   1   1921 26.14                             172    -0.3 7   19 199 
 BAR2 SZ I        1921 27.99        52.2 0.18                            19 199 
 BRR  HZ EP       1921 13.40                             150     0.010   75 301 
 BRR  HN ES   1   1921 30.37                             150     0.6 7   75 301 
 BRR  HZ I        1921 32.77        30.5 0.14                            75 301 
 PAM  SZ EP       1921 14.34                             149    -0.110   80  36 
 PAM  SN ES   1   1921 31.46                             149    -0.1 7   80  36 
 RUS  HZ EP       1921 15.46                             145     0.010   95 177 
 RUS  HN ES   1   1921 33.51                             145     0.1 7   95 177 
 RUS  HZ I        1921 35.22        13.7 0.28                            95 177 
 PTB  HZ EP   3   1921 18.26                             131    -0.9 2  149 261 
 PTB  HN ES   2   1921 39.16                             131    -0.9 5  149 261 
 PTB  HZ I        1921 46.80        13.2 0.38                           149 261 
 CHI  HZ EP       1921 29.54                             117     0.1 8  244 196 
 CHI  HZ I        1921 30.96         4.4 0.52                           244 196 
                                                                                
