 2010 1017 1733 10.3 L   5.925 -73.754115.4  RSN  7 0.3 1.5LRSN                1
 GAP=110        0.67       3.6     4.0  9.0 -0.7178E+01  0.3399E+00  0.4315E+01E
 Epicentro: GUAVATA - SANTANDER                                                3
 ACTION:UP  11-02-18 11:10 OP:tino STATUS:               ID:20101017173310 L   I
 2010-10-17-1731-08S.COL___126                                                 6
 STAT SP IPHASW D HRMM SECON CODA AMPLIT PERI AZIMU VELO SNR AR TRES W  DIS CAZ7
 RUS  HZ IP     D 1733 29.32                             145     0.210   74  93 
 RUS  HZ I        1733 29.58         6.7 0.19                            74  93 
 RUS  HN ES   3   1733 43.26                             145    -0.6 2   74  93 
 BAR2 SZ EP       1733 30.86                             137     0.310   97  41 
 BAR2 SZ ES   1   1733 46.14                             137    -0.2 7   97  41 
 BTL  SZ EP       1733 33.11                             130     0.310  122  26 
 NOR  SZ EP       1733 33.18                             128    -0.110  130 252 
 NOR  SN ES   1   1733 51.42                             128     0.2 7  130 252 
 BRR  HZ EP       1733 32.92                             128    -0.310  131   2 
 BRR  HN ES   1   1733 50.92                             128    -0.3 7  131   2 
 CHI  HZ EP   1   1733 34.66                             125    -0.4 7  143 179 
 CHI  HN ES   3   1733 53.90                             125    -0.4 2  143 179 
 CHI  HZ I        1733 56.68         3.3 0.24                           143 179 
 GRA  SZ ES   1   1734 12.35                             111    -0.2 6  241  26 
 GRA  SZ I        1734 15.01         5.0 0.40                           241  26 
                                                                                
