 2013  117 1732 13.8 L   6.835 -73.227145.7  RSN  6 0.4 1.8LRSN                1
 GAP=123        0.78       4.3     4.6  7.8 -0.1646E+01  0.4739E+01  0.4587E+01E
 Epicentro: ZAPATOCA - SANTANDER                                               3
 ACTION:UPD 13-02-15 09:14 OP:ep   STATUS:               ID:20130117173213 L   I
 2013-01-17-1730-00M.COL___241                                                 6
 STAT SP IPHASW D HRMM SECON CODA AMPLIT PERI AZIMU VELO AIN AR TRES W  DIS CAZ7
 BAR2 SZ EP   1   1732 33.56                             169    0.08 7 27.3 169 
 BAR2 SZ ES   1   1732 49.38                             169    0.52 7 27.3 169 
 BAR2 SZ I        1732 49.89        23.2 0.20            172           27.3 169 
 PAM  SZ EP       1732 36.44                             150    0.2610 80.7  46 
 PAM  SN ES   1   1732 53.40                             150   -0.26 7 80.7  46 
 PAM  SZ I        1732 55.80         6.5 0.68            151           80.7  46 
 RUS  HZ EP   1   1732 37.68                             142   -0.19 7  105 171 
 RUS  HN ES   1   1732 55.96                             142   -0.71 7  105 171 
 RUS  HZ I        1732 57.58         8.2 0.26            147            105 171 
 PTB  HN ES   1   1733  0.85                             134    0.36 7  140 257 
 PTB  HZ I        1733  3.73         7.2 0.68            132            140 257 
 ZAR  HN ES   1   1733  9.16                             124   -0.57 6  194 292 
 ZAR  HZ I        1733 18.10         5.9 0.16            122            194 292 
 CHI  HZ EP   1   1732 51.61                             117   -0.02 6  250 193 
 CHI  HN ES   1   1733 21.51                             117    0.34 6  250 193 
                                                                                
