 2012  317 1645 36.3 L   6.833 -73.231125.8  RSN  4 0.3 1.3LRSN                1
 GAP=229        0.68       9.9     6.5  8.5  0.1614E+02  0.1724E+01  0.1056E+02E
 ACTION:UP  12-03-31 23:20 OP:EP   STATUS:               ID:20120317164536 L   I
 2012-03-17-1640-00M.COL___202                                                 6
 STAT SP IPHASW D HRMM SECON CODA AMPLIT PERI AZIMU VELO SNR AR TRES W  DIS CAZ7
 BAR2 SZ EP   1   1645 53.95                             167     0.3 7   27 169 
 BAR2 SZ I        1645 59.31         2.2 0.19                            27 169 
 BRR  HZ EP   1   1645 54.21                             152    -0.5 7   61 300 
 BRR  HE ES       1646  9.10                             152     0.010   61 300 
 BRR  HZ I        1646 10.56        13.5 0.45                            61 300 
 PTB  HN ES   1   1646 19.95                             129    -0.1 7  139 257 
 PTB  HZ I        1646 23.25         2.3 0.13                           139 257 
 ZAR  HZ EP   1   1646  6.49                             119     0.1 6  194 292 
 ZAR  HN ES   1   1646 30.21                             119     0.3 6  194 292 
                                                                                
