 2012  117 1655 48.4 L   6.076 -73.585119.5  RSN 10 0.4 2.1LRSN                1
 GAP= 76        1.00       4.3     4.5  8.8 -0.4163E+01  0.1423E+02  0.2056E+01E
 Epicentro: CHIPATA - SANTANDER                                                3
 ACTION:UP  12-02-03 08:18 OP:REBC STATUS:               ID:20120117165548 L   I
 2012-01-17-1650-00M.COL___188                                                 6
 STAT SP IPHASW D HRMM SECON CODA AMPLIT PERI AZIMU VELO SNR AR TRES W  DIS CAZ7
 RUS  HZ EP   1   1656  6.80                             152     0.0 7   59 110 
 RUS  HN ES   1   1656 20.40                             152    -0.7 7   59 110 
 RUS  HZ I        1656 22.52        22.5 0.24                            59 110 
 BAR2 SZ EP       1656  7.45                             147     0.210   72  38 
 BAR2 SZ I        1656  8.01        51.7 0.08                            72  38 
 BAR2 SZ ES   1   1656 22.51                             147     0.6 7   72  38 
 BRR  HZ EP   1   1656 10.36                             133     0.1 7  115 353 
 BRR  HZ I        1656 11.39        19.5 0.09                           115 353 
 BRR  HN ES   1   1656 27.12                             133    -0.1 7  115 353 
 NOR  SZ EP   1   1656 14.37                             124     0.4 7  153 248 
 NOR  SN ES   1   1656 34.52                             124     0.6 7  153 248 
 CHI  HZ EP   1   1656 15.21                             123     0.0 7  161 186 
 CHI  HZ I        1656 15.87        17.5 0.23                           161 186 
 PAM  SZ EP   1   1656 16.23                             121    -0.1 7  171  35 
 PAM  SZ I        1656 17.20         5.0 0.18                           171  35 
 PAM  SN ES   1   1656 37.51                             121    -0.6 7  171  35 
 ZAR  HZ EP   1   1656 19.66                             115    -0.3 6  211 318 
 ZAR  HN ES   1   1656 44.67                             115     0.0 6  211 318 
 ZAR  HZ I        1656 48.48        14.1 0.36                           211 318 
 HEL  HN ES   1   1656 45.48                             115    -1.0 6  216 273 
 HEL  HZ I        1656 52.53         7.5 0.26                           216 273 
 OCA  SZ EP   1   1656 24.12                             112     0.5 6  241   7 
 OCA  SZ I        1656 59.20        17.2 0.19                           241   7 
 PRA  HZ EP   1   1656 29.68                             107    -0.4 5  298 209 
 PRA  HN ES   2   1657  2.58                             107     0.0 4  298 209 
                                                                                
