 2010  917 1251 45.9 L   7.288 -73.138127.7  RSN  4 0.5 1.8LRSN                1
 GAP=149        0.95      18.9    20.4 19.0 -0.3138E+03 -0.2080E+03  0.2288E+03E
 Epicentro: RIONEGRO - SANTANDER                                               3
 ACTION:UP  11-02-18 11:03 OP:tino STATUS:               ID:20100917125145 L   I
 2010-09-17-1247-38S.COL___121                                                 6
 STAT SP IPHASW D HRMM SECON CODA AMPLIT PERI AZIMU VELO SNR AR TRES W  DIS CAZ7
 GUE  SZ EP   1   1252  4.61                             152    -0.5 7   64  21 
 GUE  SZ ES   2   1252 19.27                             152    -0.9 5   64  21 
 BRR  HZ EP   1   1252  4.69                             151    -0.1 7   67 253 
 BRR  HN ES   2   1252 19.90                             151     0.3 5   67 253 
 BRR  HZ I        1252 20.67        14.7 0.36                            67 253 
 GRA  SZ EP   1   1252  6.20                             148     0.6 7   76  29 
 GRA  SZ ES   2   1252 21.61                             148     0.6 5   76  29 
 GRA  SZ I        1252 22.71        11.2 0.28                            76  29 
 RUS  HZ EP   2   1252 12.61                             126    -0.1 5  154 178 
                                                                                
