 2016 1217 1822 47.3 L   6.831 -73.193116.6  RSN  9 0.6 1.6LRSN                1
 GAP=106        1.53       6.2     4.7  9.7  0.3499E+01  0.1052E+02 -0.1059E+01E
 Epicentro: ZAPATOCA - SANTANDER                                               3
 ACTION:UPD 17-01-11 20:16 OP:rebc STATUS:               ID:20161217182247 L   I
 OLDACT:UP  16-12-17 23:48 OP:edw  STATUS:               ID:20161217181751     3
 OLDACT:UP  16-12-17 23:48 OP:edw  STATUS:               ID:20161217181751     3
 OLDACT:REG 16-12-17 20:18 OP:edw  STATUS:               ID:20161217181751     3
 2016-12-17-1818-00M.COL___387                                                 6
 STAT SP IPHASW D HRMM SECON CODA AMPLIT PERI AZIMU VELO AIN AR TRES W  DIS CAZ7
 BAR2 EZ EP       1823  3.42                             166   -0.1310 26.4 177 
 BAR2 EZ ES       1823 16.55                             166    0.3510 26.4 177 
 BAR2 EZ I        1823 20.14        13.3 0.26            168           26.4 177 
 BRR  HZ EP       1823  5.78                             149    0.7710 65.0 298 
 BRR  HE ES       1823 17.29                             149   -1.5010 65.0 298 
 BRR  HZ I        1823 20.21        13.6 0.26            150           65.0 298 
 PAM  EZ EP       1823  6.66                             144    0.0510 78.3  44 
 PAM  EN ES       1823 22.29                             144    0.6510 78.3  44 
 PAM  EZ I        1823 26.09         9.3 0.44            148           78.3  44 
 RUS  HZ EP       1823  8.48                             135   -0.2010  104 173 
 RUS  HN ES       1823 25.52                             135    0.2010  104 173 
 RUS  HZ I        1823 27.69         7.5 0.24            139            104 173 
 PTB  HZ EP       1823 11.12                             125   -0.54 9  143 257 
 PTB  HN ES       1823 30.78                             125    0.15 9  143 257 
 PTB  HZ I        1823 34.60         3.5 0.16            127            143 257 
 TAM  HZ EP   4   1823  9.23                             122   -4.27 0  161 106 
 TAM  HN ES       1823 33.39                             122   -0.51 9  161 106 
 ZAR  HZ EP       1823 17.38                             116   -0.01 9  198 292 
 ZAR  HN ES       1823 41.68                             116    0.85 9  198 292 
 ZAR  HZ I        1823 47.09         4.6 0.28            118            198 292 
 CHI  HZ EP   9   1823 22.20                             110   -1.63 0  251 194 
 CHI  HN ES       1823 51.63                             113    0.97 8  251 194 
 CHI  HZ I        1823 54.92         3.1 0.52            113            251 194 
 GUY2CHZ EP   2   1823 29.06                             106   -0.45 4  299 234 
 GUY2CHN ES   2   1824  2.55                             106    0.15 4  299 234 
 GUY2CHZ I        1824 10.19         1.6 0.34                           299 234 
                                                                                
