 2010  117 1202 32.7 L   6.812 -73.198138.1  RSN  8 0.4 2.0LRSN                1
 GAP=172        0.66       3.9     8.5  7.4  0.2538E+01  0.3527E+02  0.4805E+01E
 Epicentro: ZAPATOCA - SANTANDER                                               3
 ACTION:UP  10-08-24 09:44 OP:vdl  STATUS:               ID:20100117120232 L   I
 2010-01-17-1200-51S.COL___096                                                 6
 STAT SP IPHASW D HRMM SECON CODA AMPLIT PERI AZIMU VELO SNR AR TRES W  DIS CAZ7
 BAR2 SZ IP       12 2 51.49                             169     0.110   24 176 
 BAR2 SZ ES   2   12 3  5.62                             169    -0.4 5   24 176 
 GIR2 SZ EP   2   12 2 51.51                             167     0.1 5   29   1 
 GIR2 SZ ES   2   12 3  6.88                             167     0.9 5   29   1 
 RUS  BZ EP   1   12 2 55.48                             142    -0.4 7  103 173 
 RUS  BN ES   2   12 3 13.83                             142    -0.1 5  103 173 
 RUS  BZ I        12 3 15.61        12.8 0.43                           103 173 
 OCA  SZ EP   1   12 3  0.27                             128     0.0 7  158 355 
 OCA  SZ ES   2   12 3 21.05                             128    -0.7 5  158 355 
 CHI  HZ EP   1   12 3  9.86                             115    -0.1 6  249 194 
 CHI  HE ES   2   12 3 38.99                             115    -0.1 4  249 194 
 CHI  HZ I        12 3 45.91         4.5 0.50                           249 194 
 DBB  SZ EP   1   12 3 19.72                             108     0.5 5  334 274 
 DBB  SZ ES   2   12 3 54.60                             108    -0.9 3  334 274 
 TOL  SZ EP   1   12 3 20.65                             108     0.3 5  340 224 
 PRA  HZ EP   1   12 3 26.29                             105     0.5 4  390 209 
 PRA  HZ I        12 4 13.58         5.4 0.35                           390 209 
                                                                                
