 2014  917 1033 16.9 L   6.825 -73.092142.5  RSN  7 0.4 1.5LRSN                1
 GAP=206        0.85       4.7     5.4  7.3  0.1066E+02 -0.1202E+01 -0.7109E+01E
 Epicentro: LOS SANTOS - SANTANDER                                             3
 ACTION:UPD 14-10-03 23:05 OP:nd   STATUS:               ID:20140917103316 L   I
 OLDACT:REG 14-09-17 20:05 OP:spq  STATUS:               ID:20140917102818     3
 2014-09-17-1028-18M.COL___293                                                 6
 STAT SP IPHASW D HRMM SECON CODA AMPLIT PERI AZIMU VELO AIN AR TRES W  DIS CAZ7
 BAR2 SZ EP       1033 36.07                             169   -0.1410 27.7 201 
 BAR2 SZ ES   1   1033 50.94                             169   -0.36 7 27.7 201 
 BAR2 SZ I        1033 52.24         7.6 0.26            165           27.7 201 
 BRR  HZ EP       1033 37.90                             151   -0.0110 75.3 294 
 BRR  HN ES       1033 54.89                             151    0.5710 75.3 294 
 BRR  HZ I        1034  0.06        10.2 0.38            148           75.3 294 
 RUS  HZ EP       1033 40.48                             143   -0.0210  103 179 
 RUS  HN ES   1   1033 58.91                             143   -0.02 7  103 179 
 RUS  HZ I        1034  0.95         2.3 0.40            143            103 179 
 PTB  HZ EP   4   1033 42.88                             130   -1.29 0  154 258 
 PTB  HE ES       1034  4.84                             130   -0.62 9  154 258 
 PTB  HZ I        1034  8.69         3.2 0.16            130            154 258 
 SPBC HE ES   1   1034  8.85                             127    0.67 7  169 220 
 SPBC HZ I        1034 13.33         3.0 0.11            127            169 220 
 ZAR  HZ EP       1033 49.91                             121    0.33 8  209 291 
 ZAR  HE ES       1034 14.87                             121   -0.22 8  209 291 
 ZAR  HZ I        1034 20.33         2.9 0.46            122            209 291 
 SML  HE ES   1   1034 21.65                             117   -0.10 6  244 334 
                                                                                
