 2011  517 1246 15.3 L   6.767 -73.086135.0  RSN  8 0.3 1.9LRSN                1
 GAP=146        0.79       3.7     7.7  5.9 -0.6936E+01 -0.1391E+02  0.3940E+00E
 Epicentro: LOS SANTOS - SANTANDER                                             3
 ACTION:UP  11-06-29 08:54 OP:tino STATUS:               ID:20110517124615 L   I
 2011-05-17-1241-51S.COL___141                                                 6
 STAT SP IPHASW D HRMM SECON CODA AMPLIT PERI AZIMU VELO SNR AR TRES W  DIS CAZ7
 BAR2 SZ EP       1246 33.54                             170    -0.110   22 209 
 BAR2 SZ ES   1   1246 47.31                             170    -0.6 7   22 209 
 BAR2 SZ I        1246 50.40        24.3 0.24                            22 209 
 BTL  SZ ES   1   1246 48.78                             169     0.7 7   26 310 
 GIR2 SZ EP       1246 33.80                             164    -0.110   37 341 
 GIR2 SZ ES   1   1246 47.95                             164    -0.4 7   37 341 
 PAM  SZ EP   2   1246 36.66                             149     0.3 5   76  34 
 BRR  HZ EP       1246 35.50                             148    -0.310   79 299 
 BRR  HZ I        1246 35.95        21.3 0.07                            79 299 
 BRR  HN ES   1   1246 52.14                             148     0.4 7   79 299 
 RUS  HZ EP       1246 38.04                             143     0.310   97 180 
 RUS  HN ES   1   1246 55.34                             143     0.1 7   97 180 
 RUS  HZ I        1246 56.58         7.5 0.20                            97 180 
 BRI  SZ EP       1246 38.39                             139     0.110  110  17 
 BRI  SZ ES   1   1246 56.41                             139     0.1 7  110  17 
 GRA  SZ EP       1246 39.74                             134    -0.110  128  14 
 GRA  SZ ES   1   1246 58.92                             134     0.0 7  128  14 
 GRA  SZ I        1247  1.38        16.2 0.35                           128  14 
                                                                                
