 2014 1117 1156 30.0 L   6.760 -73.102150.7  RSN 12 0.5 2.1LRSN                1
 GAP=144        1.21       4.7     5.1  6.6 -0.6220E+01  0.8033E+01  0.8414E+01E
 Epicentro: LOS SANTOS - SANTANDER                                             3
 ACTION:UPD 14-12-19 15:43 OP:nd   STATUS:               ID:20141117115630 L   I
 OLDACT:REG 14-11-17 21:38 OP:fm   STATUS:               ID:20141117114746     3
 2014-11-17-1147-46M.COL___280                                                 6
 STAT SP IPHASW D HRMM SECON CODA AMPLIT PERI AZIMU VELO AIN AR TRES W  DIS CAZ7
 BAR2 SZ EP       1156 50.62                             172    0.4510 20.5 206 
 BAR2 SZ ES       1157  5.99                             172    0.0910 20.5 206 
 BAR2 SZ I        1157  8.34        26.9 0.26            168           20.5 206 
 BRR  HZ EP       1156 52.48                             151    0.4410 77.6 300 
 BRR  HN ES       1157  9.68                             151    0.4410 77.6 300 
 BRR  HZ I        1157 14.81        13.2 0.14            151           77.6 300 
 PAM  SZ EP       1156 52.91                             151    0.1410 78.0  35 
 PAM  SN ES       1157 10.51                             151   -0.0310 78.0  35 
 PAM  SZ I        1157 12.75        21.4 0.20            158           78.0  35 
 RUS  HZ EP       1156 53.05                             146   -0.8610 95.9 179 
 RUS  HE ES       1157 11.81                             146   -0.7610 95.9 179 
 RUS  HZ I        1157 14.42         9.4 0.44            147           95.9 179 
 PTB  HZ EP       1156 57.35                             132   -0.37 9  152 261 
 PTB  HN ES       1157 18.45                             132   -0.90 9  152 261 
 PTB  HZ I        1157 24.49        19.7 0.18            133            152 261 
 SPBC HN ES       1157 22.09                             130    0.73 9  163 221 
 SPBC HZ I        1157 27.48        32.0 0.12            131            163 221 
 NOR  HZ EP       1157  6.69                             119    0.53 8  236 236 
 NOR  HN ES       1157 34.48                             119    0.10 8  236 236 
 NOR  HZ I        1157 38.24        11.9 0.36            121            236 236 
 CHI  HZ EP       1157  7.86                             118    0.21 8  246 197 
 CHI  HN ES       1157 37.63                             118    0.61 8  246 197 
 CHI  HZ I        1157 46.65         5.1 0.60            120            246 197 
 HEL  HZ EP       1157 10.31                             115   -0.55 7  276 257 
 HEL  HN ES       1157 42.41                             115   -0.33 7  276 257 
 HEL  HZ I        1157 49.27         6.8 0.36            117            276 257 
 TOL  SZ EP       1157 18.86                             110    0.38 7  344 226 
 TOL  SN ES       1157 56.50                             110    0.19 7  344 226 
 MON  HN ES   4   1157 56.50                             109   -2.40 0  360 308 
 MON  HZ I        1157 59.58         2.3 0.32            111            360 308 
 PRA  HZ EP       1157 22.94                             107   -0.58 6  391 211 
 PRA  HN ES       1158  5.60                             107    0.33 6  391 211 
 PRA  HZ I        1158 12.09         7.0 0.60            109            391 211 
                                                                                
