 2010  117 1457 21.6 L   6.818 -73.003142.1  RSN  4 0.3 1.4LRSN                1
 GAP=221        0.59       6.1    27.0  7.9 -0.4393E+02 -0.2605E+02  0.1880E+02E
 Epicentro: CEPITA - SANTANDER                                                 3
 ACTION:UP  10-08-24 09:44 OP:vdl  STATUS:               ID:20100117145721 L   I
 2010-01-17-1455-14S.COL___096                                                 6
 STAT SP IPHASW D HRMM SECON CODA AMPLIT PERI AZIMU VELO SNR AR TRES W  DIS CAZ7
 BAR2 SZ EP   1   1457 40.87                             167    -0.1 7   32 219 
 BAR2 SZ ES   2   1457 55.44                             167    -0.7 5   32 219 
 GIR2 SZ EP   1   1457 40.85                             165    -0.1 7   36 324 
 GIR2 SZ ES   2   1457 56.74                             165     0.7 5   36 324 
 RUS  BZ EP   1   1457 45.34                             142     0.2 7  103 185 
 RUS  BN ES   2   1458  3.64                             142     0.1 5  103 185 
 RUS  BZ I        1458  4.92         4.6 0.36                           103 185 
 CHI  HZ EP   1   1457 59.76                             116     0.0 6  255 198 
 CHI  HE ES   2   1458 29.78                             116     0.2 4  255 198 
 CHI  HZ I        1458 31.24         1.7 0.35                           255 198 
                                                                                
