 2010  917 1948 34.3 L   6.556 -73.478114.0  RSN  5 0.2 1.7LRSN                1
 GAP=188        0.55       5.8    11.2  7.6  0.4020E+02 -0.1013E+02 -0.9642E+01E
 Epicentro: EL CARMEN DE CHUCURI - SANTANDER                                   3
 ACTION:UP  11-02-18 11:03 OP:tino STATUS:               ID:20100917194834 L   I
 2010-09-17-1946-12S.COL___121                                                 6
 STAT SP IPHASW D HRMM SECON CODA AMPLIT PERI AZIMU VELO SNR AR TRES W  DIS CAZ7
 BAR2 SZ IP     D 1948 50.61                             163     0.110   33  83 
 BAR2 SZ ES   2   1949  3.01                             163     0.0 5   33  83 
 BAR2 SZ I        1949  4.03        38.0 0.44                            33  83 
 BTL  SZ EP   1   1948 51.19                             156     0.1 7   46  30 
 BRR  HZ EP   1   1948 51.51                             148    -0.3 7   66 337 
 BRR  HZ I        1948 51.85        15.7 0.40                            66 337 
 BRR  HE ES   2   1949  5.58                             148     0.1 5   66 337 
 RUS  HZ EP   1   1948 54.15                             141     0.3 7   85 149 
 RUS  HE ES   2   1949  8.67                             141    -0.5 5   85 149 
 RUS  HZ I        1949 10.16         3.6 0.25                            85 149 
 GUE  SZ EP   1   1948 59.73                             123    -0.2 7  154  23 
                                                                                
