 2017  217 1548 56.3 L   6.824 -73.144151.0  RSN 12 0.6 2.3LRSN                1
 GAP=136        1.03       3.6     4.4  5.7  0.2713E+00  0.6454E+01  0.5756E+01E
 Epicentro: LOS SANTOS - SANTANDER                                             3
 ACTION:UPD 17-05-24 15:37 OP:jn   STATUS:               ID:20170217154856 L   I
 OLDACT:UP  17-02-18 00:28 OP:dani STATUS:               ID:20170217154746     3
 OLDACT:REG 17-02-17 20:42 OP:dani STATUS:               ID:20170217154746     3
 2017-02-17-1548-00M.COL___345                                                 6
 STAT SP IPHASW D HRMM SECON CODA AMPLIT PERI AZIMU VELO AIN AR TRES W  DIS CAZ7
 BAR2 EZ IP     C 1549 16.64                             170    0.0310 26.0 190 
 BAR2 EZ ES       1549 31.94                             170   -0.5210 26.0 190 
 BAR2 EZ I        1549 34.47        65.9 0.30            169           26.0 190 
 BRR  HZ EP       1549 18.31                             153    0.3510 70.2 297 
 BRR  HE ES       1549 35.46                             153    0.6110 70.2 297 
 BRR  HZ I        1549 38.87        40.6 0.31            150           70.2 297 
 PAM  EZ EP     D 1549 19.43                             152    0.4910 75.2  41 
 PAM  EN ES       1549 36.63                             152    0.0210 75.2  41 
 PAM  EZ I        1549 38.81        27.5 0.56            155           75.2  41 
 RUS  HZ EP       1549 20.61                             144   -0.1410  103 176 
 RUS  HE ES       1549 39.41                             144   -0.4210  103 176 
 RUS  HZ I        1549 40.77        12.6 0.24            145            103 176 
 PTB  HZ EP       1549 23.59                             133   -0.17 9  149 258 
 PTB  HN ES       1549 44.36                             133   -0.83 9  149 258 
 PTB  HZ I        1549 51.35        16.6 0.16            131            149 258 
 ZAR  HZ EP   3   1549 30.32                             123    1.31 2  203 291 
 ZAR  HN ES       1549 54.65                             123    0.13 9  203 291 
 ZAR  HZ I        1550  0.02        23.7 0.30            122            203 291 
 CHI  HZ EP       1549 35.00                             117    0.43 8  251 195 
 CHI  HN ES       1550  4.23                             117   -0.20 8  251 195 
 CHI  HZ I        1550  7.68        14.5 0.60            118            251 195 
 URE  HE ES   3   1550  8.21                             114   -1.50 2  283 291 
 PRA  HZ EP       1549 50.51                             107    0.23 6  394 209 
 PRA  HN ES       1550 32.38                             107   -0.01 6  394 209 
 PRA  HZ I        1550 38.93        12.1 0.38            108            394 209 
 ORTC HZ EP       1549 51.06                             107    0.40 6  398 216 
 ORTC HE ES       1550 34.19                             107    1.12 6  398 216 
 ORTC HZ I        1550 38.18         7.3 0.26            107            398 216 
 SJC  HZ EP       1549 50.83                             106   -0.95 6  407 327 
 SJC  HN ES   3   1550 32.55                             106   -2.52 1  407 327 
 SJC  HZ I        1550 44.10         3.6 0.44            107            407 327 
 CRJC HZ EP   3   1549 56.80                             104   -1.82 1  465   4 
 CRJC HE ES   4   1550 44.15                             104   -3.09 0  465   4 
                                                                                
