 2013  917 1451 10.0 L   6.791 -73.157143.5  RSN 14 0.4 2.5LRSN                1
 GAP= 71        0.85       2.6     2.5  4.2 -0.1411E+00  0.2280E+01  0.2168E+01E
 Epicentro: LOS SANTOS - SANTANDER                                             3
 ACTION:UPD 13-10-22 09:23 OP:ep   STATUS:               ID:20130917145110 L   I
 OLDACT:REG 13-09-17 14:35 OP:jn   STATUS:               ID:20130917144959     3
 2013-09-17-1449-59M.COL___269                                                 6
 STAT SP IPHASW D HRMM SECON CODA AMPLIT PERI AZIMU VELO AIN AR TRES W  DIS CAZ7
 BAR2 SZ IP     D 1451 29.20                             171   -0.0810 22.1 187 
 BAR2 SZ ES       1451 44.61                             171    0.2510 22.1 187 
 BAR2 SZ I        1451 47.94        39.0 0.14            169           22.1 187 
 BRR  HZ IP     C 1451 30.98                             152    0.1610 70.6 300 
 BRR  HN ES       1451 47.28                             152    0.1810 70.6 300 
 BRR  HZ I        1451 51.93        77.7 0.14            146           70.6 300 
 PAM  SZ EP       1451 32.12                             150    0.1010 78.9  40 
 PAM  SN ES       1451 49.00                             150   -0.2310 78.9  40 
 PAM  SZ I        1451 49.66        54.8 0.18            149           78.9  40 
 RUS  HZ EP       1451 33.26                             144   -0.1510 99.7 175 
 RUS  HN ES       1451 51.61                             144   -0.1010 99.7 175 
 RUS  HZ I        1451 53.39        35.5 0.21            142           99.7 175 
 PTB  HZ EP       1451 35.82                             132   -0.79 9  146 259 
 PTB  HN ES       1451 56.90                             132   -0.50 9  146 259 
 PTB  HZ I        1452  1.19        39.8 0.10            127            146 259 
 TAM  HZ EP       1451 37.60                             130    0.07 9  156 105 
 TAM  HN ES       1451 59.20                             130    0.15 9  156 105 
 TAM  HZ I        1451 59.75        35.4 0.30            129            156 105 
 SPBC HZ EP       1451 38.22                             129    0.09 9  162 219 
 SPBC HE ES       1451 59.52                             129   -0.58 9  162 219 
 SPBC HZ I        1452  6.38        52.2 0.56            125            162 219 
 ZAR  HZ EP   1   1451 41.83                             122   -0.34 6  203 293 
 ZAR  HN ES       1452  7.55                             122    0.25 9  203 293 
 ZAR  HZ I        1452 13.58        62.0 0.26            118            203 293 
 NOR  HZ EP       1451 45.72                             118    0.34 8  233 234 
 NOR  HN ES       1452 14.01                             118    1.00 8  233 234 
 NOR  HZ I        1452 15.39        37.1 0.20            115            233 234 
 SML  HE ES   1   1452 15.38                             117    0.38 6  244 336 
 CHI  HZ EP       1451 47.23                             117   -0.15 8  247 195 
 CHI  HN ES       1452 16.88                             117    0.30 8  247 195 
 CHI  HZ I        1452 22.18        13.4 0.30            114            247 195 
 ROSC BN ES   4   1452 18.35                             116    1.06 0  251 211 
 GUY2CHZ EP       1451 53.63                             112    0.35 7  300 235 
 GUY2CHZ I        1452 37.54        16.8 0.60                           300 235 
 DBB  SZ EP       1451 57.04                             109   -0.17 7  338 274 
 DBB  SZ I        1452 41.66        14.4 0.30            106            338 274 
 PRA  HZ EP       1452  3.03                             106   -0.19 6  391 209 
 PRA  HN ES   1   1452 44.88                             106    0.11 4  391 209 
 PRA  HZ I        1452 51.84        15.0 0.30            104            391 209 
                                                                                
