 2011  817 1521 11.5 L   6.782 -73.105142.9  RSN  4 0.2 1.8LRSN                1
 GAP=240        0.39       3.1     6.4  4.0  0.8624E+01  0.5967E+00  0.3123E+01E
 Epicentro: LOS SANTOS - SANTANDER                                             3
 ACTION:UPD 12-07-13 15:52 OP:ep   STATUS:               ID:20110817152111 L   I
 2011-08-17-1519-04S.COL___150                                                 6
 STAT SP IPHASW D HRMM SECON CODA AMPLIT PERI AZIMU VELO AIN AR TRES W  DIS CAZ7
 BAR2 SZ EP       1521 30.88                             171    0.1210 22.7 202 
 BAR2 SZ ES   1   1521 45.66                             171   -0.13 7 22.7 202 
 BAR2 SZ I        1521 48.53        14.6 0.21                          22.7 202 
 BRR  HZ EP   1   1521 32.78                             150    0.17 7 76.1 298 
 BRR  HN ES   1   1521 48.99                             150   -0.10 7 76.1 298 
 BRR  HZ I        1521 53.84        16.1 0.17                          76.1 298 
 RUS  HZ EP   1   1521 34.55                             144   -0.25 7 98.4 179 
 RUS  HN ES   1   1521 53.12                             144    0.14 7 98.4 179 
 RUS  HZ I        1521 54.58         7.0 0.25                          98.4 179 
 CHI  HZ EP   1   1521 48.80                             117   -0.16 6  248 196 
 CHI  HE ES   1   1522 18.25                             117    0.07 6  248 196 
 CHI  HZ I        1522 22.41         3.1 0.18                           248 196 
                                                                                
