 2017  217 1820 31.9 L   6.758 -73.139141.5  RSN  8 0.4 2.0LRSN                1
 GAP=139        0.89       3.4     3.7  5.6 -0.2444E+00  0.6706E+01  0.2402E+01E
 Epicentro: LOS SANTOS - SANTANDER                                             3
 ACTION:UPD 17-05-24 15:37 OP:jn   STATUS:               ID:20170217182031 L   I
 OLDACT:UP  17-02-18 00:49 OP:dani STATUS:               ID:20170217181748     3
 OLDACT:REG 17-02-17 21:27 OP:dani STATUS:               ID:20170217181748     3
 2017-02-17-1818-00M.COL___351                                                 6
 STAT SP IPHASW D HRMM SECON CODA AMPLIT PERI AZIMU VELO AIN AR TRES W  DIS CAZ7
 BAR2 EZ EP     C 1820 50.97                             172    0.0610 18.9 195 
 BAR2 EZ ES       1821  5.59                             172   -0.1710 18.9 195 
 BAR2 EZ I        1821  6.55        39.2 0.38            170           18.9 195 
 BRR  HZ EP       1820 52.87                             151    0.1310 74.1 301 
 BRR  HE ES       1821  9.38                             151    0.3710 74.1 301 
 BRR  HZ I        1821 14.65        19.5 0.34            150           74.1 301 
 PAM  EZ EP       1820 54.02                             149    0.1810 80.6  37 
 PAM  EN ES       1821 10.72                             149   -0.2410 80.6  37 
 PAM  EZ I        1821 11.34        18.7 0.38            153           80.6  37 
 RUS  HZ EP       1820 54.77                             144   -0.1010 95.9 176 
 RUS  HN ES       1821 13.05                             144    0.2410 95.9 176 
 RUS  HZ I        1821 14.18        12.4 0.24            145           95.9 176 
 PTB  HZ EP       1820 57.82                             131   -0.67 9  148 261 
 PTB  HN ES       1821 18.59                             131   -0.66 9  148 261 
 PTB  HZ I        1821 20.92        18.7 0.18            131            148 261 
 ZAR  HZ EP       1821  4.11                             121   -0.20 8  207 293 
 ZAR  HE ES       1821 30.33                             121    0.73 8  207 293 
 ZAR  HZ I        1821 34.56        11.7 0.32            122            207 293 
 NOR  HZ EP       1821  7.06                             118   -0.08 8  233 235 
 NOR  HE ES       1821 34.80                             118    0.16 8  233 235 
 NOR  HZ I        1821 36.87         9.3 0.16            119            233 235 
 CHI  HZ EP   3   1821 10.38                             117    1.50 2  244 196 
 CHI  HN ES       1821 38.04                             117    0.31 8  244 196 
 CHI  HZ I        1821 44.40         2.8 0.24            118            244 196 
                                                                                
