 2017  117 1924 27.4 L   6.815 -73.394119.3  RSN  5 0.3 1.2LRSN                1
 GAP=118        0.83       3.9     3.1  6.9  0.2917E+00  0.7810E+01 -0.5458E+01E
 Epicentro: SAN VICENTE DE CHUCURI - SANTANDER                                 3
 ACTION:UPD 17-05-22 16:00 OP:jn   STATUS:               ID:20170117192427 L   I
 OLDACT:UP  17-01-18 00:41 OP:cog  STATUS:               ID:20170117191741d    3
 OLDACT:DUP 17-01-18 00:33 OP:cog  STATUS:               ID:20170117191741d    3
 2017-01-17-1918-00M.COL___323                                                 6
 STAT SP IPHASW D HRMM SECON CODA AMPLIT PERI AZIMU VELO AIN AR TRES W  DIS CAZ7
 BAR2 EZ EP       1924 44.21                             163   -0.0110 34.0 136 
 BAR2 EZ ES       1924 57.39                             163    0.0910 34.0 136 
 PAM  EZ EP       1924 48.37                             139    0.0410 96.2  53 
 PAM  EE ES       1925  4.39                             139   -0.2310 96.2  53 
 PAM  EZ I        1925  8.60         3.5 0.32            143           96.2  53 
 RUS  HZ EP       1924 49.54                             135    0.2510  108 161 
 RUS  HN ES       1925  6.53                             135    0.2010  108 161 
 RUS  HZ I        1925  7.63         2.9 0.24            143            108 161 
 PTB  HZ EP       1924 49.46                             131   -0.3910  121 256 
 PTB  HN ES       1925  6.89                             131   -0.4410  121 256 
 PTB  HZ I        1925 11.98         2.2 0.26            134            121 256 
 ZAR  HZ EP       1924 55.35                             120   -0.16 9  178 295 
 ZAR  HE ES       1925 18.14                             120    0.73 9  178 295 
 ZAR  HZ I        1925 24.45         2.2 0.19            122            178 295 
                                                                                
