 2011  117 1607 13.4 L   6.788 -73.154134.9  RSN  4 0.2 1.5LRSN                1
 GAP=158        0.51       5.2     6.9 10.9 -0.2564E+02  0.5140E+02 -0.3854E+02E
 Epicentro: LOS SANTOS - SANTANDER                                             3
 ACTION:UP  11-02-08 08:41 OP:pat  STATUS:               ID:20110117160713 L   I
 2011-01-17-1600-00M.COL___135                                                 6
 STAT SP IPHASW D HRMM SECON CODA AMPLIT PERI AZIMU VELO SNR AR TRES W  DIS CAZ7
 BTL  SZ EP   1   16 7 32.03                             171     0.3 8   19 319 
 RUS  HZ EP   1   16 7 36.04                             142     0.0 8   99 175 
 RUS  HN ES   1   16 7 53.61                             142    -0.1 8   99 175 
 RUS  HZ I        16 7 56.82         4.0 0.24                            99 175 
 GRA  SZ EP       16 7 37.70                             134    -0.210  127  18 
 GRA  SZ I        16 7 58.59         7.0 0.27                           127  18 
 NOR  SZ EP       16 7 48.53                             116     0.1 8  233 235 
 NOR  SN ES   1   16 8 15.46                             116    -0.2 6  233 235 
                                                                                
