 2015  917 1431 12.9 L   6.785 -73.158151.0  RSN  7 0.4 1.8LRSN                1
 GAP=136        0.94       4.0     4.1  6.0 -0.4643E+00  0.5862E+01  0.1436E+00E
 Epicentro: LOS SANTOS - SANTANDER                                             3
 ACTION:UPD 15-10-28 16:26 OP:cam  STATUS:               ID:20150917143112 L   I
 OLDACT:REG 15-09-17 20:34 OP:drio STATUS:               ID:20150917142750     3
 2015-09-17-1427-50M.COL___349                                                 6
 STAT SP IPHASW D HRMM SECON CODA AMPLIT PERI AZIMU VELO AIN AR TRES W  DIS CAZ7
 BAR2 EZ EP       1431 33.02                             172   -0.1410 21.5 187 
 BAR2 EZ ES       1431 48.88                             172   -0.0510 21.5 187 
 BAR2 EZ I        1431 49.93         9.2 0.18            172           21.5 187 
 BRR  HZ EP       1431 34.92                             153    0.2910 70.8 300 
 BRR  HN ES       1431 52.42                             153    0.8710 70.8 300 
 BRR  HZ I        1432  0.05        12.1 0.56            151           70.8 300 
 PAM  EZ EP       1431 35.79                             151   -0.0410 79.5  40 
 PAM  EN ES       1431 53.26                             151   -0.4310 79.5  40 
 PAM  EZ I        1431 55.03         6.4 0.42            154           79.5  40 
 RUS  HZ EP       1431 37.36                             145    0.2710 99.0 175 
 RUS  HN ES       1431 55.79                             145   -0.1510 99.0 175 
 RUS  HZ I        1431 56.98         5.9 0.38            150           99.0 175 
 PTB  HZ EP       1431 39.87                             133   -0.32 9  146 259 
 PTB  HN ES       1432  1.00                             133   -0.45 9  146 259 
 PTB  HZ I        1432  3.09         8.1 0.30            134            146 259 
 SPBC HZ EP       1431 42.10                             131    0.46 9  161 219 
 SPBC HN ES       1432  3.92                             131   -0.11 9  161 219 
 SPBC HZ I        1432  6.81        11.4 0.22            133            161 219 
 ZAR  HZ EP       1431 45.62                             124   -0.04 9  203 293 
 ZAR  HN ES       1432 10.89                             124   -0.30 9  203 293 
 ZAR  HZ I        1432 18.08        13.1 0.28            125            203 293 
                                                                                
