 2015  817 1455 48.3 L   6.743 -73.086143.3  RSN  6 0.2 1.6LRSN                1
 GAP=147        0.51       4.1     3.8  5.2  0.7758E+01 -0.3440E+01 -0.9848E+01E
 Epicentro: JORDAN - SANTANDER                                                 3
 ACTION:UPD 15-09-15 23:02 OP:cam  STATUS:               ID:20150817145548 L   I
 OLDACT:REG 15-08-17 21:18 OP:spq  STATUS:               ID:20150817144748     3
 2015-08-17-1447-48M.COL___340                                                 6
 STAT SP IPHASW D HRMM SECON CODA AMPLIT PERI AZIMU VELO AIN AR TRES W  DIS CAZ7
 BAR2 EZ EP       1456  7.42                             172   -0.1010 19.8 213 
 BAR2 EZ ES   1   1456 22.42                             172   -0.12 7 19.8 213 
 BAR2 EZ I        1456 23.44         5.7 0.44            167           19.8 213 
 PAM  EZ EP       1456 10.49                             150    0.2110 78.6  33 
 BRR  HZ EP       1456  9.56                             149   -0.1010 80.0 300 
 BRR  HE ES       1456 26.62                             149    0.2610 80.0 300 
 BRR  HZ I        1456 28.85         6.5 0.34            145           80.0 300 
 RUS  HE ES   1   1456 29.11                             145   -0.15 7 94.0 180 
 RUS  HZ I        1456 30.73         4.2 0.34            145           94.0 180 
 ZAR  HZ EP   1   1456 21.75                             121    0.32 6  213 293 
 ZAR  HE ES       1456 47.18                             121   -0.12 8  213 293 
 ZAR  HZ I        1456 54.65         4.0 0.30            119            213 293 
 SML  HE ES   1   1456 54.41                             116   -0.45 6  252 335 
 SML  HZ I        1456 58.70         5.9 0.07            115            252 335 
                                                                                
