 2014  817 1938 48.3 L   6.796 -73.117149.4  RSN  9 0.5 2.0LRSN                1
 GAP=140        1.19       4.0     5.0  7.0 -0.2302E+01  0.9092E+01 -0.1594E+01E
 Epicentro: LOS SANTOS - SANTANDER                                             3
 ACTION:UPD 14-09-15 21:50 OP:nd   STATUS:               ID:20140817193848 L   I
 OLDACT:UP  14-08-17 23:41 OP:cam  STATUS:               ID:20140817193748     3
 OLDACT:UP  14-08-17 23:41 OP:cam  STATUS:               ID:20140817193748     3
 OLDACT:REG 14-08-17 23:36 OP:cam  STATUS:               ID:20140817193748     3
 2014-08-17-1937-48M.COL___266                                                 6
 STAT SP IPHASW D HRMM SECON CODA AMPLIT PERI AZIMU VELO AIN AR TRES W  DIS CAZ7
 BAR2 SZ EP     C 1939  8.43                             171    0.1110 23.7 198 
 BAR2 SZ ES       1939 23.36                             171   -0.6210 23.7 198 
 BAR2 SZ I        1939 26.08        19.3 0.28            169           23.7 198 
 BRR  HZ EP       1939 10.34                             152    0.3810 74.2 298 
 BRR  HN ES       1939 27.71                             152    0.8210 74.2 298 
 BRR  HZ I        1939 31.27        12.3 0.52            150           74.2 298 
 PAM  SZ EP     C 1939 11.17                             152    0.4110 75.7  38 
 PAM  SN ES       1939 28.53                             152    0.2210 75.7  38 
 PAM  SZ I        1939 30.51        17.5 0.18            156           75.7  38 
 RUS  HZ EP       1939 12.31                             145   -0.0110  100 178 
 RUS  HE ES       1939 30.58                             145   -0.5110  100 178 
 RUS  HZ I        1939 32.14         6.6 0.46            148            100 178 
 PTB  HZ EP       1939 15.45                             132   -0.34 9  151 259 
 PTB  HN ES       1939 36.59                             132   -0.67 9  151 259 
 PTB  HZ I        1939 43.98        12.4 0.34            132            151 259 
 SPBC HZ EP       1939 17.30                             130    0.11 9  165 220 
 SPBC HN ES       1939 40.37                             130    0.61 9  165 220 
 SPBC HZ I        1939 44.43        18.4 0.40            131            165 220 
 ZAR  HN ES       1939 47.34                             123    0.35 8  207 292 
 ZAR  HZ I        1939 52.71         8.4 0.30            123            207 292 
 NOR  HZ EP       1939 24.66                             119    0.22 8  237 235 
 NOR  HN ES       1939 52.59                             119   -0.08 8  237 235 
 NOR  HZ I        1939 59.52         8.0 0.24            120            237 235 
 SML  HZ EP       1939 24.69                             118   -0.57 8  245 335 
 SML  HE ES       1939 53.31                             118   -0.82 8  245 335 
 SML  HZ I        1939 58.07        17.0 0.10            120            245 335 
 HEL  HZ EP   4   1939 29.18                             115    0.20 0  275 256 
 GUY2CHZ EP   4   1939 33.58                             113    1.29 0  304 235 
 RREF HZ EP   4   1939 34.10                             111   -0.69 0  324 230 
 SJC  HZ EP   4   1939 42.69                             106   -1.48 0  411 327 
                                                                                
