 2015 1017 1150 29.1 L   6.790 -73.282138.0  RSN  4 0.5 1.7LRSN                1
 GAP=175        1.08       7.7     9.7 12.2  0.3893E+02  0.1623E+02 -0.4816E+02E
 Epicentro: ZAPATOCA - SANTANDER                                               3
 ACTION:UPD 15-12-22 20:40 OP:cam  STATUS:               ID:20151017115029 L   I
 OLDACT:REG 15-10-17 20:34 OP:stll STATUS:               ID:20151017114750     3
 2015-10-17-1147-50M.COL___337                                                 6
 STAT SP IPHASW D HRMM SECON CODA AMPLIT PERI AZIMU VELO AIN AR TRES W  DIS CAZ7
 BAR2 EZ EP       1150 47.56                             170   -0.2610 24.5 153 
 BAR2 EZ ES       1151  2.71                             170    0.2810 24.5 153 
 BAR2 EZ I        1151  4.06         7.9 0.16            165           24.5 153 
 RUS  HN ES       1151 10.06                             142   -0.1210  102 167 
 ZAR  HZ EP   1   1151  1.01                             123    1.36 7  191 294 
 ZAR  HN ES       1151 23.08                             123   -0.40 9  191 294 
 ZAR  HZ I        1151 35.70         4.3 0.48            121            191 294 
 SML  HZ EP       1151  4.37                             116   -0.39 8  239 339 
 SML  HN ES       1151 32.69                             116    0.11 8  239 339 
 SML  HZ I        1151 35.61         5.3 0.10            118            239 339 
                                                                                
