 2015 1017 1204 46.9 L   6.803 -73.137143.1  RSN 10 0.5 1.9LRSN                1
 GAP=137        1.10       3.1     4.7  6.0 -0.1300E+01  0.1004E+02  0.1111E+01E
 Epicentro: LOS SANTOS - SANTANDER                                             3
 ACTION:UPD 15-12-22 20:40 OP:cam  STATUS:               ID:20151017120446 L   I
 OLDACT:REG 15-10-17 20:35 OP:stll STATUS:               ID:20151017115750     3
 2015-10-17-1157-50M.COL___337                                                 6
 STAT SP IPHASW D HRMM SECON CODA AMPLIT PERI AZIMU VELO AIN AR TRES W  DIS CAZ7
 BAR2 EZ EP       12 5  6.14                             170   -0.0610 23.9 192 
 BAR2 EZ ES       12 5 20.85                             170   -0.4210 23.9 192 
 BAR2 EZ I        12 5 23.49        12.7 0.26            170           23.9 192 
 BRR  HZ EP       12 5  7.98                             152    0.2010 71.9 298 
 BRR  HE ES       12 5 24.51                             152    0.4310 71.9 298 
 BRR  HZ I        12 5 28.11        20.5 0.28            151           71.9 298 
 PAM  EZ EP       12 5  9.28                             150    0.5210 76.5  39 
 PAM  EN ES       12 5 26.13                             150    0.3110 76.5  39 
 PAM  EZ I        12 5 28.27         7.1 0.52            154           76.5  39 
 RUS  HZ EP       12 5 10.58                             143    0.1910  101 177 
 RUS  HN ES       12 5 28.34                             143   -0.3910  101 177 
 RUS  HZ I        12 5 29.85         8.9 0.26            146            101 177 
 SPBC HZ EP       12 5 15.13                             128   -0.13 9  164 219 
 SPBC HN ES       12 5 37.50                             128    0.10 9  164 219 
 SPBC HZ I        12 5 39.79        10.3 0.18            130            164 219 
 ZAR  HZ EP       12 5 19.82                             122    0.59 9  205 292 
 ZAR  HE ES       12 5 43.74                             122   -0.72 9  205 292 
 ZAR  HZ I        12 5 49.59         7.9 0.56            123            205 292 
 NOR  HZ EP       12 5 21.52                             118   -1.04 8  236 235 
 NOR  HN ES       12 5 50.57                             118    0.18 8  236 235 
 NOR  HZ I        12 5 54.67         6.7 0.24            119            236 235 
 SML  HZ EP       12 5 22.88                             117   -0.48 8  244 335 
 SML  HN ES       12 5 51.39                             117   -0.43 8  244 335 
 SML  HZ I        12 5 54.78         9.3 0.28            119            244 335 
 CHI  HZ EP       12 5 24.28                             116   -0.22 8  249 195 
 CHI  HE ES       12 5 53.65                             116   -0.19 8  249 195 
 CHI  HZ I        12 5 56.68         5.4 0.38            119            249 195 
 GUY2CHZ EP       12 5 30.94                             112    0.46 7  302 235 
 GUY2CHN ES       12 6  5.46                             112    0.98 7  302 235 
 GUY2CHZ I        12 6 13.82         3.1 0.54                           302 235 
                                                                                
