 2016  917 1820 46.0 L   6.812 -73.141147.3  RSN 17 0.4 2.8LRSN                1
 GAP=137        0.98       2.8     3.4  4.9 -0.1895E+01  0.4384E+01  0.1980E+01E
 Epicentro: LOS SANTOS - SANTANDER                                             3
 ACTION:UPD 17-08-17 21:13 OP:lp   STATUS:               ID:20160917182046 L   I
 OLDACT:REG 16-09-17 21:22 OP:dnl  STATUS:               ID:20160917181741     3
 2016-09-17-1818-00M.COL___360                                                 6
 STAT SP IPHASW D HRMM SECON CODA AMPLIT PERI AZIMU VELO AIN AR TRES W  DIS CAZ7
 BAR2 EZ IP     D 1821  5.94                             170    0.1010 24.7 191 
 BAR2 EZ ES       1821 21.23                             170   -0.0810 24.7 191 
 BAR2 EZ I        1821 22.58       164.0 0.18            169           24.7 191 
 BRR  HZ EP       1821  7.77                             153    0.4710 71.1 297 
 BRR  HN ES       1821 24.72                             153    0.8010 71.1 297 
 BRR  HZ I        1821 27.99       105.5 0.24            150           71.1 297 
 PAM  EZ EP     C 1821  8.74                             151    0.4510 76.0  40 
 PAM  EN ES       1821 25.86                             151    0.1810 76.0  40 
 PAM  EZ I        1821 29.19        68.2 0.52            155           76.0  40 
 RUS  HZ EP       1821  9.88                             144   -0.1110  102 176 
 RUS  HE ES       1821 28.39                             144   -0.3110  102 176 
 RUS  HZ I        1821 29.63        44.7 0.20            146            102 176 
 PTB  HZ EP       1821 12.53                             132   -0.63 9  149 258 
 PTB  HN ES       1821 33.65                             132   -0.69 9  149 258 
 PTB  HZ I        1821 41.16        64.9 0.24            131            149 258 
 OCA  HZ EP       1821 13.64                             130   -0.67 9  159 353 
 OCA  HN ES       1821 35.95                             130   -0.44 9  159 353 
 OCA  HZ I        1821 39.55       113.3 0.16            131            159 353 
 SPBC HZ EP       1821 14.83                             129    0.09 9  165 219 
 SPBC HN ES       1821 36.86                             129   -0.30 9  165 219 
 SPBC HZ I        1821 41.36       108.3 0.22            129            165 219 
 ZAR  HZ EP       1821 18.53                             123   -0.01 9  204 292 
 ZAR  HN ES       1821 43.82                             123   -0.11 9  204 292 
 ZAR  HZ I        1821 49.15        74.8 0.32            123            204 292 
 NOR  HZ EP       1821 22.10                             119    0.16 8  236 234 
 NOR  HE ES       1821 49.74                             119   -0.24 8  236 234 
 NOR  HZ I        1821 55.50        49.1 0.24            119            236 234 
 CHI  HZ EP       1821 24.13                             117    0.20 8  250 195 
 CHI  HN ES       1821 53.38                             117   -0.14 8  250 195 
 CHI  HZ I        1821 58.50        31.6 0.50            119            250 195 
 ROSC BZ EP   4   1821 25.92                             117    1.57 0  254 211 
 ROSC BE ES   4   1821 55.88                             117    1.61 0  254 211 
 ROSC BZ I        1822  0.64       109.1 0.40            118            254 211 
 HEL  HZ EP       1821 26.57                             115    0.19 8  273 256 
 HEL  HN ES       1821 58.09                             115    0.21 8  273 256 
 HEL  HZ I        1822  4.61        29.8 0.26            115            273 256 
 URE  HZ EP   9   1821 24.23                             114   -2.91 0  284 292 
 URE  HN ES       1821 56.40                                    0.08 7  284 292 
 URE  HZ I        1822  1.82        34.3 0.14            114            284 292 
 GUY2CHZ EP       1821 30.34                             112    0.53 7  302 235 
 GUY2CHE ES       1822  4.10                             112    0.12 7  302 235 
 GUY2CHZ I        1822 12.19        43.6 0.34                           302 235 
 ELA  HZ EP   4   1821 35.20                             110    2.14 0  330 229 
 ELA  HN ES       1822 10.66                             110    0.90 7  330 229 
 ELA  HZ I        1822 18.65        28.3 0.60            111            330 229 
 ANIL HZ EP   2   1821 34.89                             109   -1.12 3  359 224 
 ANIL HN ES   4   1822 16.35                             109    1.33 0  359 224 
 SJC  HZ EP   4   1821 40.14                             106   -1.38 0  408 327 
 SJC  HN ES   4   1822 21.12                             106   -3.70 0  408 327 
 SJC  HZ I        1822 35.77         9.0 0.66            107            408 327 
                                                                                
