 2010  117 1011 36.1 L   6.804 -73.186146.3  RSN  4 0.2 1.1LRSN                1
 GAP=175        0.38       4.4    23.8  5.7  0.1359E+02  0.6371E+02  0.9298E+01E
 Epicentro: ZAPATOCA - SANTANDER                                               3
 ACTION:UP  10-08-24 09:44 OP:vdl  STATUS:               ID:20100117101136 L   I
 2010-01-17-1010-29S.COL___096                                                 6
 STAT SP IPHASW D HRMM SECON CODA AMPLIT PERI AZIMU VELO SNR AR TRES W  DIS CAZ7
 BAR2 SZ EP   1   1011 55.65                             170    -0.1 7   23 179 
 BAR2 SZ ES   2   1012 10.82                             170    -0.3 5   23 179 
 GIR2 SZ EP   1   1011 55.75                             168     0.0 7   30 358 
 GIR2 SZ ES   2   1012 11.46                             168     0.3 5   30 358 
 RUS  BZ EP   1   1011 59.98                             144     0.1 7  101 174 
 RUS  BN ES   2   1012 18.64                             144     0.1 5  101 174 
 RUS  BZ I        1012 20.16         1.7 0.45                           101 174 
 CHI  HZ EP   1   1012 13.78                             117     0.1 6  248 194 
 CHI  HZ I        1012 49.40         0.9 0.65                           248 194 
                                                                                
