 2011  117 1817 14.6 L   6.846 -73.182140.3  RSN  4 0.4 1.7LRSN                1
 GAP=180        0.89       4.9    10.4 10.7 -0.1333E+02  0.5127E+02 -0.1239E+02E
 Epicentro: ZAPATOCA - SANTANDER                                               3
 ACTION:UP  11-02-08 08:41 OP:pat  STATUS:               ID:20110117181714 L   I
 2011-01-17-1800-00M.COL___136                                                 6
 STAT SP IPHASW D HRMM SECON CODA AMPLIT PERI AZIMU VELO SNR AR TRES W  DIS CAZ7
 BAR2 SZ EP   1   1817 34.20                             168     0.6 7   28 180 
 BAR2 SZ ES   1   1817 48.89                             168     0.4 7   28 180 
 BAR2 SZ I        1817 50.26        36.8 0.25                            28 180 
 RUS  HZ EP   1   1817 38.20                             141     0.0 7  106 174 
 RUS  HN ES   1   1817 56.00                             141    -0.6 7  106 174 
 RUS  HZ I        1817 57.65         6.4 0.19                           106 174 
 OCA  SZ EP   1   1817 41.57                             129    -0.4 7  155 354 
 OCA  SZ ES   1   1818  3.12                             129    -0.2 7  155 354 
 OCA  SZ I        1818  8.64        11.6 0.30                           155 354 
 NOR  SZ EP   1   1817 50.31                             117     0.3 6  235 233 
 NOR  SN ES   1   1818 17.35                             117    -0.2 6  235 233 
 NOR  SZ I        1818 23.58         0.8 0.16                           235 233 
                                                                                
