 2016  517 1619 29.3 L   6.619 -73.379 37.0  RSN  5 0.3 1.2LRSN                1
 GAP=108        0.82       2.3     2.4  5.4  0.6896E+00  0.4858E+01 -0.1891E+00E
 Epicentro: GALAN - SANTANDER                                                  3
 ACTION:UPD 16-08-18 17:46 OP:cam  STATUS:               ID:20160517161929 L   I
 OLDACT:REG 16-05-17 20:09 OP:drio STATUS:               ID:20160517161748     3
 2016-05-17-1617-48M.COL___310                                                 6
 STAT SP IPHASW D HRMM SECON CODA AMPLIT PERI AZIMU VELO AIN AR TRES W  DIS CAZ7
 BAR2 EZ EP       1619 36.07                             144   -0.1810 22.0  98 
 BAR2 EZ ES       1619 41.55                             144   -0.0810 22.0  98 
 BAR2 EZ I        1619 42.16        25.3 0.10            152           22.0  98 
 BRR  HZ EP       1619 40.52                             103   -0.0410 65.3 326 
 BRR  HE ES       1619 49.99                             103    0.6810 65.3 326 
 RUS  HZ EP       1619 43.93                              97    0.1410 86.7 158 
 RUS  HE ES       1619 55.41                              97    0.3510 86.7 158 
 RUS  HZ I        1619 56.00         6.2 0.22            100           86.7 158 
 PAM  EZ EP       1619 46.55                              95   -0.0710  110  43 
 PAM  EE ES       1619 59.87                              95   -0.2310  110  43 
 PTB  HZ EP       1619 47.06                              94   -0.2310  119 266 
 PTB  HN ES       1620  0.90                              94   -0.3910  119 266 
 PTB  HZ I        1620  6.59         3.2 0.50             95            119 266 
                                                                                
