 2014  117 1518 16.3 L   6.799 -73.145148.6  RSN 10 0.5 2.2LRSN                1
 GAP=137        1.22       3.5     4.9  7.3 -0.4284E+01  0.8451E+01 -0.2332E+00E
 Epicentro: LOS SANTOS - SANTANDER                                             3
 ACTION:UPD 14-03-13 09:56 OP:ep   STATUS:               ID:20140117151816 L   I
 OLDACT:REG 14-01-17 16:28 OP:carl STATUS:               ID:20140117151000     3
 2014-01-17-1510-00M.COL___285                                                 6
 STAT SP IPHASW D HRMM SECON CODA AMPLIT PERI AZIMU VELO AIN AR TRES W  DIS CAZ7
 BRR  HZ EP       1518 38.13                             153    0.4010 71.3 299 
 BRR  HN ES       1518 55.21                             153    0.7410 71.3 299 
 BRR  HZ I        1518 59.07        18.8 0.12            151           71.3 299 
 PAM  SZ EP       1518 39.03                             151    0.2410 77.4  39 
 PAM  SN ES       1518 56.41                             151    0.0610 77.4  39 
 PAM  SZ I        1518 58.42        20.2 0.46            155           77.4  39 
 RUS  HZ EP       1518 40.13                             144   -0.1610  101 176 
 RUS  HN ES       1518 58.40                             144   -0.6310  101 176 
 RUS  HZ I        1519  0.09        10.9 0.42            149            101 176 
 PTB  HZ EP       1518 42.99                             133   -0.48 9  148 259 
 PTB  HN ES       1519  3.72                             133   -0.97 9  148 259 
 PTB  HZ I        1519 10.09        18.7 0.24            134            148 259 
 OCA  HZ EP       1518 45.21                             130    0.40 9  160 353 
 OCA  HN ES       1519  6.88                             130   -0.19 9  160 353 
 OCA  HZ I        1519 14.65        19.0 0.34            133            160 353 
 SPBC HZ EP       1518 45.14                             130    0.16 9  163 219 
 SPBC HN ES       1519  7.77                             130    0.39 9  163 219 
 SPBC HZ I        1519 13.08        25.5 0.18            133            163 219 
 ZAR  HZ EP       1518 48.06                             123   -0.85 9  204 292 
 ZAR  HE ES       1519 14.54                             123    0.17 9  204 292 
 ZAR  HZ I        1519 20.56        19.1 0.30            125            204 292 
 NOR  HZ EP       1518 52.37                             119    0.20 8  235 234 
 NOR  HN ES       1519 19.91                             119   -0.25 8  235 234 
 NOR  HZ I        1519 24.07        11.0 0.26            122            235 234 
 SML  HZ EP       1518 52.65                             118   -0.42 8  244 335 
 SML  HN ES       1519 21.68                             118   -0.09 8  244 335 
 SML  HZ I        1519 25.91        32.1 0.10            120            244 335 
 GUY2CHZ EP       1519  0.75                             113    0.74 7  301 235 
 GUY2CHN ES       1519 35.04                             113    0.91 7  301 235 
 GUY2CHZ I        1519 43.13         8.5 0.76                           301 235 
                                                                                
