 2012  717 1713 31.7 L   6.792 -73.129147.7  RSN  9 0.4 2.1LRSN                1
 GAP=139        0.91       5.5     5.3  6.7  0.8760E+00  0.7999E+01  0.7451E+01E
 Epicentro: LOS SANTOS - SANTANDER                                             3
 ACTION:UPD 12-08-14 11:45 OP:ep   STATUS:               ID:20120717171331 L   I
 2012-07-17-1710-00M.COL___196                                                 6
 STAT SP IPHASW D HRMM SECON CODA AMPLIT PERI AZIMU VELO AIN AR TRES W  DIS CAZ7
 BAR2 SZ EP   1   1713 51.30                             171    -0.3 7   23 195 
 BAR2 SZ ES   1   1714  6.67                             171    -0.4 7   23 195 
 BAR2 SZ I        1714  9.27        41.0 0.28            175             23 195 
 BRR  HZ EP   1   1713 53.28                             152     0.1 7   73 298 
 BRR  HN ES       1714 10.31                             152     0.410   73 298 
 BRR  HZ I        1714 13.96        30.0 0.14            140             73 298 
 PAM  SZ EP   1   1713 54.40                             151     0.3 7   77  38 
 PAM  SN ES   2   1714 11.67                             151     0.1 5   77  38 
 RUS  HZ EP   1   1713 55.41                             144    -0.2 7  100 177 
 RUS  HE ES   1   1714 14.48                             144     0.3 7  100 177 
 RUS  HZ I        1714 15.36        19.4 0.24            145            100 177 
 PTB  HZ EP   1   1713 58.32                             132    -0.7 7  149 259 
 PTB  HN ES   1   1714 19.69                             132    -0.6 7  149 259 
 PTB  HZ I        1714 20.28        11.1 0.13            124            149 259 
 ZAR  HZ EP   1   1714  3.98                             122    -0.5 6  206 292 
 ZAR  HZ I        1714 35.19         9.3 0.28            113            206 292 
 NOR  SZ EP   1   1714  7.93                             119     0.3 6  236 235 
 NOR  SN ES   2   1714 35.29                             119    -0.4 4  236 235 
 CHI  HZ EP   1   1714  9.45                             118     0.0 6  248 196 
 CHI  HZ I        1714 10.30         8.1 0.17            113            248 196 
 CHI  HN ES   2   1714 39.58                             118     0.6 4  248 196 
 HEL  HZ EP   1   1714 13.03                             115     0.8 6  274 256 
 HEL  HN ES   1   1714 44.43                             115     0.6 6  274 256 
 HEL  HZ I        1714 50.29         9.0 0.38            108            274 256 
