 2012  917 1047 45.2 L   6.741 -73.187146.0  RSN  7 0.4 1.8LRSN                1
 GAP=228        0.62       5.3     5.7  7.0  0.1115E+02 -0.5377E+00  0.1579E+02E
 Epicentro: VILLANUEVA - SANTANDER                                             3
 ACTION:UPD 12-10-22 14:19 OP:ep   STATUS:               ID:20120917104745 L   I
 2012-09-17-1040-00M.COL___224                                                 6
 STAT SP IPHASW D HRMM SECON CODA AMPLIT PERI AZIMU VELO AIN AR TRES W  DIS CAZ7
 BAR2 SZ EP       1048  4.65                             173   -0.1210 16.4 178 
 BAR2 SZ ES   2   1048 19.34                             173   -0.67 5 16.4 178 
 BAR2 SZ I        1048 22.04        12.7 0.09                          16.4 178 
 BRR  HZ EP   1   1048  6.25                             153   -0.14 7 70.8 305 
 BRR  HN ES       1048 23.30                             153    0.4210 70.8 305 
 BRR  HZ I        1048 24.65        21.2 0.10                          70.8 305 
 RUS  HZ EP   2   1048  8.89                             146    0.31 5 94.5 173 
 RUS  HE ES   2   1048 26.89                             146    0.10 5 94.5 173 
 RUS  HZ I        1048 29.81         7.5 0.32                          94.5 173 
 PTB  HN ES   1   1048 32.26                             133   -0.12 7  142 261 
 ZAR  HN ES   2   1048 41.91                             123   -0.82 4  202 294 
 CHI  HZ EP   1   1048 22.01                             118   -0.13 6  241 195 
 CHI  HN ES   2   1048 51.18                             118    0.26 4  241 195 
 CHI  HZ I        1048 55.46         3.2 0.20                           241 195 
 PRA  HZ EP   2   1048 38.51                             107    0.67 3  384 209 
                                                                                
