 2013 1117 1322 32.1 L   6.796 -73.183139.8  RSN  4 0.2 1.5LRSN                1
 GAP=143        0.63       3.7     3.6  5.3 -0.4205E+01  0.5395E+01 -0.1957E+01E
 Epicentro: LOS SANTOS - SANTANDER                                             3
 ACTION:UPD 14-01-09 16:29 OP:ep   STATUS:               ID:20131117132232 L   I
 OLDACT:REG 13-11-17 15:30 OP:nd   STATUS:               ID:20131117132000     3
 2013-11-17-1320-00M.COL___279                                                 6
 STAT SP IPHASW D HRMM SECON CODA AMPLIT PERI AZIMU VELO AIN AR TRES W  DIS CAZ7
 BAR2 SZ EP       1322 50.93                             170   -0.0310 22.6 180 
 BAR2 SZ ES       1323  6.13                             170    0.4310 22.6 180 
 BAR2 SZ I        1323  7.10        13.2 0.20            172           22.6 180 
 PAM  SZ IP     C 1322 54.03                             149    0.2010 80.4  42 
 PAM  SN ES       1323 10.51                             149   -0.3010 80.4  42 
 PAM  SZ I        1323 13.21         7.5 0.68            151           80.4  42 
 RUS  HZ EP       1322 55.23                             143   -0.0010  101 174 
 RUS  HN ES       1323 13.08                             143   -0.2210  101 174 
 RUS  HZ I        1323 14.59         3.7 0.40            146            101 174 
 PTB  HZ EP       1322 58.25                             131    0.08 9  144 259 
 PTB  HN ES       1323 18.36                             131   -0.17 9  144 259 
 PTB  HZ I        1323 22.15         4.2 0.12            133            144 259 
                                                                                
