 2012  717 1729 59.3 L   6.807 -73.133145.1  RSN 11 0.5 2.6LRSN                1
 GAP= 71        1.00       4.7     4.8  7.4 -0.1270E+01  0.1222E+02 -0.5815E+00E
 Epicentro: LOS SANTOS - SANTANDER                                             3
 ACTION:UPD 12-08-14 11:45 OP:ep   STATUS:               ID:20120717172959 L   I
 2012-07-17-1728-51M.COL___211                                                 6
 STAT SP IPHASW D HRMM SECON CODA AMPLIT PERI AZIMU VELO AIN AR TRES W  DIS CAZ7
 BAR2 SZ EP   1   1730 18.87                             170     0.0 7   24 193 
 BAR2 SZ I        1730 19.39        93.8 0.19            169             24 193 
 BAR2 SZ ES   1   1730 34.27                             170     0.1 7   24 193 
 BRR  HZ IP       1730 20.68                             152     0.210   72 297 
 BRR  HE ES   1   1730 37.64                             152     0.7 7   72 297 
 PAM  SZ EP   1   1730 21.80                             151     0.4 7   76  39 
 PAM  SN ES   1   1730 38.68                             151     0.1 7   76  39 
 RUS  HZ EP   1   1730 22.91                             143    -0.1 7  101 177 
 RUS  HN ES   1   1730 41.17                             143    -0.4 7  101 177 
 PTB  HZ EP   1   1730 25.48                             132    -0.9 7  149 259 
 PTB  HN ES   1   1730 46.62                             132    -0.8 7  149 259 
 PTB  HZ I        1730 50.22        30.9 0.16            130            149 259 
 TAM  HN ES   2   1730 48.50                             131     0.2 5  154 105 
 OCA  HZ EP   1   1730 27.35                             130    -0.2 7  160 353 
 OCA  HE ES   1   1730 48.56                             130    -0.9 7  160 353 
 OCA  HZ I        1730 52.15        54.2 0.23            129            160 353 
 ZAR  HZ EP   1   1730 31.83                             122     0.0 6  205 292 
 ZAR  HN ES   1   1730 57.53                             122     0.4 6  205 292 
 ZAR  HZ I        1731  2.56        56.8 0.34            121            205 292 
 NOR  SZ EP   1   1730 35.26                             118     0.1 6  236 234 
 NOR  SN ES   2   1731  3.51                             118     0.4 4  236 234 
 HEL  HZ EP   1   1730 40.54                             114     0.9 6  274 256 
 HEL  HN ES   2   1731 11.70                             114     0.6 4  274 256 
 HEL  HZ I        1731 17.19        21.2 0.39            114            274 256 
 DBB  SZ EP   1   1730 46.84                             109    -0.1 5  341 274 
