 2010  817 1418 33.0 L   6.799 -73.032146.7  RSN  4 0.1 1.7LRSN                1
 GAP=246        0.40       6.2    11.3  5.9  0.5726E+02 -0.3898E+02 -0.2001E+02E
 Epicentro: CEPITA - SANTANDER                                                 3
 ACTION:UP  10-09-07 10:55 OP:vdl  STATUS:               ID:20100817141833 L   I
 2010-08-17-1415-49S.COL___111                                                 6
 STAT SP IPHASW D HRMM SECON CODA AMPLIT PERI AZIMU VELO SNR AR TRES W  DIS CAZ7
 BAR2 SZ EP   1   1418 52.86                             168     0.0 7   28 216 
 BAR2 SZ ES   1   1419  8.22                             168    -0.2 7   28 216 
 BAR2 SZ I        1419  9.24        12.9 0.06                            28 216 
 BTL  SZ EP       1418 53.07                             168     0.210   29 297 
 BRR  HZ EP   1   1418 54.92                             149    -0.1 7   83 294 
 BRR  HN ES   1   1419 12.07                             149     0.0 7   83 294 
 BRR  HZ I        1419 14.04        11.8 0.47                            83 294 
 RUS  HZ EP   1   1418 56.70                             144    -0.2 7  100 183 
 RUS  HE ES   1   1419 15.60                             144     0.1 7  100 183 
 RUS  HZ I        1419 17.34         5.4 0.37                           100 183 
                                                                                
