 2010  817 1231 25.9 L   6.796 -73.009139.8  RSN  9 0.4 1.8LRSN                1
 GAP=174        0.78       4.5     8.6  9.1 -0.1024E+02 -0.1806E+02  0.1453E+02E
 Epicentro: CEPITA - SANTANDER                                                 3
 ACTION:UP  10-09-07 10:55 OP:vdl  STATUS:               ID:20100817123125 L   I
 2010-08-17-1229-13S.COL___110                                                 6
 STAT SP IPHASW D HRMM SECON CODA AMPLIT PERI AZIMU VELO SNR AR TRES W  DIS CAZ7
 BAR2 SZ EP       1231 45.02                             168     0.010   30 220 
 BAR2 SZ I        1232  1.40        11.7 0.19                            30 220 
 BTL  SZ EP       1231 45.06                             167     0.010   32 295 
 BRR  HZ EP   1   1231 46.67                             148    -0.6 7   85 294 
 BRR  HZ I        1231 48.30        20.9 0.15                            85 294 
 BRR  HN ES   1   1232  4.00                             148     0.1 7   85 294 
 RUS  HZ EP       1231 49.09                             143     0.010  100 185 
 RUS  HZ I        1231 50.24         6.0 0.19                           100 185 
 RUS  HN ES   2   1232  7.28                             143     0.2 5  100 185 
 GUE  SZ EP   1   1231 49.92                             139     0.0 7  115   5 
 GRA  SZ EP   1   1231 50.55                             137     0.2 7  122  11 
 GRA  SZ I        1232 12.44         5.5 0.39                           122  11 
 CHI  HZ EP   1   1232  3.43                             116    -0.3 6  253 199 
 CHI  HZ I        1232  5.18         3.5 0.58                           253 199 
 CHI  HN ES   2   1232 33.20                             116     0.0 4  253 199 
 RREF HZ EP   1   1232 14.30                             109     1.2 5  333 231 
 RREF HZ I        1232 59.20         4.1 0.40                           333 231 
 PRA  HZ EP   1   1232 19.65                             105    -0.4 4  399 211 
 PRA  HE ES   1   1233  2.12                             105    -0.2 4  399 211 
 PRA  HZ I        1233  5.84         4.9 0.33                           399 211 
                                                                                
