 2012  217 1739 48.7 L   6.770 -73.164146.3  RSN  5 0.5 1.7LRSN                1
 GAP=136        0.94       6.7     6.5  9.2 -0.4011E+01  0.7099E+01  0.2445E+01E
 ACTION:UP  12-03-07 16:31 OP:epov STATUS:               ID:20120217173948 L   I
 2012-02-17-1740-00M.COL___188                                                 6
 STAT SP IPHASW D HRMM SECON CODA AMPLIT PERI AZIMU VELO AIN AR TRES W  DIS CAZ7
 BAR2 SZ EP   1   1740  8.02                             172   -0.29 7 19.8 186 
 BAR2 SZ ES   1   1740 23.36                             172   -0.26 7 19.8 186 
 BAR2 SZ I        1740 26.41        11.7 0.43                          19.8 186 
 BRR  HZ EP   1   1740 10.31                             153    0.43 7 71.1 302 
 BRR  HE ES   1   1740 27.29                             153    0.87 7 71.1 302 
 BRR  HZ I        1740 28.17        10.9 0.19                          71.1 302 
 PAM  SZ EP   1   1740 11.42                             150    0.24 7 81.2  39 
 PAM  SN ES   1   1740 28.13                             150   -0.60 7 81.2  39 
 RUS  HZ EP   1   1740 12.57                             145    0.31 7 97.5 175 
 RUS  HN ES   1   1740 30.90                             145    0.24 7 97.5 175 
 RUS  HZ I        1740 32.39         5.2 0.22                          97.5 175 
 PTB  HZ EP   1   1740 15.01                             133   -0.45 7  145 260 
 PTB  HN ES   1   1740 35.75                             133   -0.60 7  145 260 
                                                                                
