 2011 1017 1428 30.5 L   6.774 -73.131154.1  RSN  5 0.3 1.5LRSN                1
 GAP=140        0.47       5.1     5.3  7.9  0.6951E+01  0.9938E+01  0.2306E+01E
 Epicentro: LOS SANTOS - SANTANDER                                             3
 ACTION:UPD 12-07-13 16:04 OP:ep   STATUS:               ID:20111017142830 L   I
 2011-10-17-1423-19S.COL___167                                                 6
 STAT SP IPHASW D HRMM SECON CODA AMPLIT PERI AZIMU VELO AIN AR TRES W  DIS CAZ7
 BAR2 SZ EP   2   1428 51.09                             172   -0.04 5 20.9 196 
 BAR2 SZ I        1429  2.69         7.9 0.52                          20.9 196 
 BRR  HZ EP   2   1428 53.17                             153    0.42 5 74.0 300 
 BRR  HZ I        1428 53.43        12.2 0.43                          74.0 300 
 BRR  HN ES   2   1429 10.42                             153    0.35 5 74.0 300 
 PAM  SZ EP   2   1428 54.05                             152    0.33 5 78.7  37 
 PAM  SN ES   2   1429 11.37                             152   -0.43 5 78.7  37 
 RUS  HZ EP   2   1428 54.96                             146    0.04 5 97.6 177 
 RUS  HN ES   2   1429 13.80                             146   -0.13 5 97.6 177 
 RUS  HZ I        1429 14.34         2.2 0.40                          97.6 177 
 ZAR  HZ EP   2   1429  3.29                             124   -0.52 4  207 293 
 ZAR  HN ES   2   1429 29.52                             124   -0.23 4  207 293 
 ZAR  HZ I        1429 33.92         3.4 0.26                           207 293 
                                                                                
