 2016  317 1409 41.1 L   6.807 -73.176143.5  RSN  8 0.3 1.9LRSN                1
 GAP=132        0.64       2.4     2.7  4.1 -0.7148E+00  0.4002E+01  0.8422E+00E
 Epicentro: LOS SANTOS - SANTANDER                                             3
 ACTION:UPD 16-05-13 21:25 OP:cam  STATUS:               ID:20160317140941 L   I
 OLDACT:REG 16-03-17 21:11 OP:cara STATUS:               ID:20160317140750     3
 2016-03-17-1407-50M.COL___300                                                 6
 STAT SP IPHASW D HRMM SECON CODA AMPLIT PERI AZIMU VELO AIN AR TRES W  DIS CAZ7
 BAR2 EZ EP       1410  0.20                             170   -0.2410 23.7 182 
 BAR2 EZ ES       1410 15.31                             170   -0.2310 23.7 182 
 BAR2 EZ I        1410 18.15        14.4 0.22            169           23.7 182 
 PAM  EZ IP       1410  3.31                             150    0.1710 79.0  42 
 PAM  EZ I        1410  3.48        20.2 0.20            154           79.0  42 
 PAM  EN ES       1410 20.48                             150    0.1210 79.0  42 
 RUS  HZ EP       1410  4.54                             143   -0.1310  102 174 
 RUS  HN ES       1410 23.32                             143    0.2310  102 174 
 RUS  HZ I        1410 24.17         9.4 0.28            145            102 174 
 PTB  HZ EP       1410  7.32                             132   -0.25 9  145 258 
 PTB  HN ES       1410 28.11                             132   -0.13 9  145 258 
 PTB  HZ I        1410 29.08         8.1 0.16            132            145 258 
 SPBC HZ EP       1410  9.38                             129    0.13 9  162 218 
 SPBC HN ES       1410 31.29                             129    0.06 9  162 218 
 SPBC HZ I        1410 37.45        15.7 0.24            129            162 218 
 ZAR  HZ EP       1410 12.65                             122   -0.37 9  201 292 
 ZAR  HE ES       1410 38.40                             122    0.46 9  201 292 
 ZAR  HZ I        1410 47.11         7.4 0.24            123            201 292 
 CHI  HZ EP       1410 18.41                             117   -0.22 8  249 194 
 CHI  HN ES       1410 48.14                             117    0.22 8  249 194 
 CHI  HZ I        1410 53.41         3.3 0.36            118            249 194 
 GUY2CHZ EP       1410 24.90                             112    0.59 7  299 234 
 GUY2CHN ES       1410 57.81                             112   -0.23 7  299 234 
 GUY2CHZ I        1411  6.47         4.0 0.26                           299 234 
                                                                                
