 2014  917 1129 33.5 L   6.792 -73.109150.1  RSN  5 0.2 1.2LRSN                1
 GAP=204        0.47       3.7     3.9  5.6  0.7288E+01  0.2436E+01 -0.5285E+01E
 Epicentro: LOS SANTOS - SANTANDER                                             3
 ACTION:UPD 14-10-03 23:06 OP:nd   STATUS:               ID:20140917112933 L   I
 OLDACT:REG 14-09-17 20:11 OP:spq  STATUS:               ID:20140917112818     3
 2014-09-17-1128-18M.COL___293                                                 6
 STAT SP IPHASW D HRMM SECON CODA AMPLIT PERI AZIMU VELO AIN AR TRES W  DIS CAZ7
 BAR2 SZ EP       1129 53.95                             171    0.3310 23.6 200 
 BAR2 SZ ES   1   1130  9.15                             171   -0.19 7 23.6 200 
 BAR2 SZ I        1130 10.28         9.4 0.16            167           23.6 200 
 RUS  HZ EP   1   1129 57.40                             145   -0.17 7 99.5 178 
 RUS  HE ES   1   1130 16.40                             145    0.03 7 99.5 178 
 RUS  HZ I        1130 18.13         1.0 0.22            145           99.5 178 
 PTB  HZ EP       1130  0.94                             132   -0.19 9  152 259 
 PTB  HE ES   1   1130 22.74                             132    0.02 7  152 259 
 PTB  HZ I        1130 27.35         1.5 0.36            131            152 259 
 ZAR  HN ES       1130 32.56                             123    0.08 8  208 292 
 ZAR  HZ I        1130 36.94         1.3 0.11            123            208 292 
 SML  HN ES   1   1130 39.44                             118   -0.14 6  246 335 
 SML  HZ I        1130 40.71         1.2 0.09            119            246 335 
                                                                                
