 2017  417 1849 45.1 L   6.836 -73.119145.6  RSN  6 0.4 1.6LRSN                1
 GAP=138        0.97       5.0     4.4  7.7  0.2089E+01  0.3989E+01 -0.9122E-01E
 Epicentro: LOS SANTOS - SANTANDER                                             3
 ACTION:UPD 17-05-30 21:13 OP:jn   STATUS:               ID:20170417184945 L   I
 OLDACT:REG 17-04-17 21:32 OP:cog  STATUS:               ID:20170417184338     3
 2017-04-17-1848-00M.COL___374                                                 6
 STAT SP IPHASW D HRMM SECON CODA AMPLIT PERI AZIMU VELO AIN AR TRES W  DIS CAZ7
 BAR2 EZ EP       1850  4.51                             169   -0.2610 27.9 195 
 BAR2 EZ ES       1850 19.88                             169   -0.2710 27.9 195 
 BAR2 EZ I        1850 21.56         8.5 0.61            171           27.9 195 
 BRR  HZ EP       1850  6.45                             152    0.2110 72.1 295 
 BRR  HN ES       1850 23.48                             152    0.7110 72.1 295 
 BRR  HZ I        1850 36.46        16.1 0.36            152           72.1 295 
 PAM  EZ EP       1850  7.32                             152    0.3510 72.4  40 
 PAM  EN ES       1850 23.63                             152   -0.4310 72.4  40 
 PAM  EZ I        1850 25.78         3.6 0.55            156           72.4  40 
 RUS  HZ EP       1850  8.98                             143   -0.1010  104 178 
 RUS  HN ES       1850 28.13                             143    0.3210  104 178 
 RUS  HZ I        1850 29.24         3.5 0.36            150            104 178 
 PTB  HZ ES       1850 33.25                             131   -0.40 9  152 258 
 PTB  HZ I        1850 34.87         6.3 0.14            135            152 258 
 ZAR  HN ES       1850 42.79                             122   -0.25 8  205 291 
                                                                                
