 2017  117 1315 41.9 L   6.841 -73.345123.3  RSN  7 0.4 1.9LRSN                1
 GAP=106        0.91       3.4     4.0  5.9  0.3354E+01  0.8815E+01  0.5212E+01E
 Epicentro: SAN VICENTE DE CHUCURI - SANTANDER                                 3
 ACTION:UPD 17-05-22 16:00 OP:jn   STATUS:               ID:20170117131541 L   I
 OLDACT:REG 17-01-17 20:35 OP:cog  STATUS:               ID:20170117130749     3
 2017-01-17-1308-00M.COL___332                                                 6
 STAT SP IPHASW D HRMM SECON CODA AMPLIT PERI AZIMU VELO AIN AR TRES W  DIS CAZ7
 BAR2 EZ EP       1315 59.15                             164    0.0810 32.9 147 
 BAR2 HN ES       1316 12.41                             164   -0.0710 32.9 147 
 BRR  HZ EP       1315 59.46                             156    0.0410 50.1 306 
 BRR  HE ES       1316 13.63                             156    0.5110 50.1 306 
 BRR  HZ I        1316 14.53        27.1 0.15            155           50.1 306 
 PAM  EZ EP       1316  2.51                             142   -0.1410 90.1  52 
 PAM  EE ES       1316 18.78                             142   -0.0910 90.1  52 
 PAM  EZ I        1316 20.83        19.0 0.22            145           90.1  52 
 RUS  HZ EP       1316  4.13                             136   -0.0210  109 165 
 RUS  HN ES       1316 21.33                             136   -0.2110  109 165 
 PTB  HZ EP       1316  4.41                             131   -0.7310  127 255 
 PTB  HN ES   4   1316 21.61                             131   -1.69 0  127 255 
 PTB  HZ I        1316 26.62        15.4 0.18            130            127 255 
 ZAR  HZ EP       1316 10.99                             120    0.41 9  182 293 
 ZAR  HE ES       1316 32.67                             120   -0.31 9  182 293 
 ZAR  HZ I        1316 38.18        12.4 0.18            120            182 293 
 CHI  HZ EP       1316 19.18                             112    0.80 8  248 190 
 CHI  HN ES       1316 46.86                             112    0.00 8  248 190 
 CHI  HZ I        1316 52.11         3.4 0.46            113            248 190 
                                                                                
