 2010 1117 1308 37.8 L   6.816 -73.057138.0  RSN  4 0.2 1.5LRSN                1
 GAP=168        0.58       5.7    10.3  9.8  0.2985E+02 -0.7055E+02 -0.2169E+02E
 Epicentro: LOS SANTOS - SANTANDER                                             3
 ACTION:UP  10-12-17 16:53 OP:REBC STATUS:               ID:20101117130837 L   I
 2010-11-17-1304-15S.COL___127                                                 6
 STAT SP IPHASW D HRMM SECON CODA AMPLIT PERI AZIMU VELO SNR AR TRES W  DIS CAZ7
 BAR2 SZ ES   2   13 9 10.86                             168    -0.4 5   28 210 
 BAR2 SZ I        13 9 12.29         8.0 0.26                            28 210 
 BRR  HZ EP   1   13 8 58.24                             149    -0.3 7   79 294 
 BRR  HN ES       13 9 14.95                             149     0.110   79 294 
 RUS  HZ EP   1   13 9  0.87                             142     0.0 7  102 182 
 RUS  HN ES   2   13 9 19.24                             142     0.3 5  102 182 
 RUS  HZ I        13 9 20.61         4.5 0.28                           102 182 
 GRA  SZ EP   1   13 9  2.09                             136     0.1 7  121  13 
 GRA  SZ I        13 9  3.45         6.7 0.09                           121  13 
                                                                                
