 2017  117 1254 11.0 L   6.811 -73.359119.3  RSN  5 0.4 1.2LRSN                1
 GAP=117        1.14       5.4     4.4  9.4  0.2322E+00  0.1562E+02 -0.9961E+01E
 Epicentro: SAN VICENTE DE CHUCURI - SANTANDER                                 3
 ACTION:UPD 17-05-22 16:00 OP:jn   STATUS:               ID:20170117125411 L   I
 OLDACT:REG 17-01-17 20:33 OP:cog  STATUS:               ID:20170117124744     3
 2017-01-17-1248-00M.COL___332                                                 6
 STAT SP IPHASW D HRMM SECON CODA AMPLIT PERI AZIMU VELO AIN AR TRES W  DIS CAZ7
 BAR2 EZ EP       1254 27.81                             164    0.1110 31.0 141 
 BAR2 EZ ES       1254 40.86                             164    0.1510 31.0 141 
 PAM  EZ EP       1254 31.70                             140    0.0110 93.4  51 
 PAM  EE ES       1254 47.47                             140   -0.3410 93.4  51 
 PAM  EZ I        1254 49.52         2.5 0.24            144           93.4  51 
 RUS  HZ EP       1254 32.69                             136   -0.0410  106 163 
 RUS  HN ES       1254 50.13                             136    0.4710  106 163 
 RUS  HZ I        1254 52.95         1.2 0.17            140            106 163 
 PTB  HZ EP       1254 33.20                             130   -0.5810  125 256 
 PTB  HN ES       1254 50.78                             130   -0.7410  125 256 
 PTB  HZ I        1254 55.26         3.5 0.14            132            125 256 
 ZAR  HZ EP       1254 39.80                             119    0.29 9  182 295 
 ZAR  HE ES       1255  2.55                             119    0.83 9  182 295 
 ZAR  HZ I        1255  7.24         3.9 0.28            121            182 295 
                                                                                
