 2011 1217 1339 23.5 L   6.797 -73.084143.3  RSN  5 0.2 1.7LRSN                1
 GAP=145        0.43       3.3     6.1  5.6 -0.1729E+01 -0.8469E+01 -0.2588E+01E
 Epicentro: LOS SANTOS - SANTANDER                                             3
 ACTION:UPD 12-07-13 16:16 OP:ep   STATUS:               ID:20111217133923 L   I
 2011-12-17-1337-59S.COL___183                                                 6
 STAT SP IPHASW D HRMM SECON CODA AMPLIT PERI AZIMU VELO AIN AR TRES W  DIS CAZ7
 BAR2 SZ EP   2   1339 42.52                             170   -0.32 5 25.1 206 
 BAR2 SZ ES   2   1339 58.16                             170    0.21 5 25.1 206 
 BAR2 SZ I        1339 58.36        11.7 0.16                          25.1 206 
 GIR2 SZ EP   2   1339 42.51                             166   -0.40 5 33.5 339 
 GIR2 SZ ES   2   1339 57.71                             166   -0.36 5 33.5 339 
 PAM  SZ EP       1339 45.33                             151    0.1310 73.5  35 
 PAM  SN ES   2   1340  2.22                             151    0.08 5 73.5  35 
 BRR  HZ EP   2   1339 44.62                             150   -0.10 5 77.4 296 
 BRR  HN ES   2   1340  1.58                             150    0.29 5 77.4 296 
 BRR  HZ I        1340  2.41        15.8 0.14                          77.4 296 
 RUS  HZ EP   2   1339 47.26                             143    0.32 5100.0 180 
 RUS  HN ES   1   1340  5.13                             143   -0.11 7100.0 180 
 RUS  HZ I        1340  6.50         3.7 0.27                         100.0 180 
                                                                                
