 2010 1017 1240 43.9 L   7.313 -73.505 97.3  RSN  5 0.3 1.4LRSN                1
 GAP=146        0.50       4.5     6.3  7.5 -0.1924E+02 -0.1614E+02  0.6942E+01E
 Epicentro: SABANA DE TORRES - SANTANDER                                       3
 ACTION:UP  11-02-18 11:10 OP:tino STATUS:               ID:20101017124043 L   I
 2010-10-17-1237-54S.COL___126                                                 6
 STAT SP IPHASW D HRMM SECON CODA AMPLIT PERI AZIMU VELO SNR AR TRES W  DIS CAZ7
 BRR  HZ EP       1240 57.88                             160     0.210   32 225 
 BRR  HE ES   2   1241  8.44                             160     0.0 5   32 225 
 GUE  SZ EP       1241  1.82                             136     0.110   86  48 
 BAR2 SZ EP       1241  1.62                             135    -0.110   87 156 
 BAR2 SZ ES   3   1241 15.40                             135    -0.3 2   87 156 
 BAR2 SZ I        1241 17.00         8.5 0.49                            87 156 
 GRA  SZ EP       1241  2.72                             131    -0.110  100  51 
 GRA  SZ ES   1   1241 17.51                             131     0.0 7  100  51 
 GRA  SZ I        1241 19.32         6.9 0.28                           100  51 
 OCA  SZ ES   3   1241 16.99                             129    -1.2 2  104  11 
 OCA  SZ I        1241 20.44         4.4 0.16                           104  11 
                                                                                
