 2016  717 1144 35.3 L   6.780 -73.137145.7  RSN 15 0.5 2.2LRSN                1
 GAP=121        1.23       4.4     4.7  7.1 -0.2031E+00  0.1316E+02  0.2415E+00E
 Epicentro: LOS SANTOS - SANTANDER                                             3
 ACTION:UPD 17-03-29 16:52 OP:lp   STATUS:               ID:20160717114435 L   I
 OLDACT:UP  16-07-17 21:59 OP:dani STATUS:               ID:20160717113759     3
 OLDACT:UP  16-07-17 21:59 OP:dani STATUS:               ID:20160717113759     3
 OLDACT:UP  16-07-17 21:58 OP:dani STATUS:               ID:20160717113759     3
 OLDACT:UP  16-07-17 21:56 OP:dani STATUS:               ID:20160717113759     3
 OLDACT:REG 16-07-17 20:27 OP:dani STATUS:               ID:20160717113759     3
 2016-07-17-1137-59S.COL___314                                                 6
 STAT SP IPHASW D HRMM SECON CODA AMPLIT PERI AZIMU VELO AIN AR TRES W  DIS CAZ7
 BAR2 EZ EP       1144 54.71                             171   -0.1510 21.3 194 
 BAR2 EZ ES       1145  9.69                             171   -0.4510 21.3 194 
 BAR2 EZ I        1145 10.70        49.5 0.22            168           21.3 194 
 BRR  HZ EP       1144 56.58                             152    0.0510 73.2 300 
 BRR  HN ES       1145 13.57                             152    0.4610 73.2 300 
 BRR  HZ I        1145 16.48        31.6 0.34            151           73.2 300 
 PAM  EZ EP       1144 57.59                             150    0.0410 78.5  38 
 PAM  EN ES       1145 14.81                             150   -0.1210 78.5  38 
 PAM  EZ I        1145 17.02        51.9 0.68            154           78.5  38 
 RUS  HZ EP       1144 58.78                             144   -0.0810 98.3 177 
 RUS  HE ES       1145 17.29                             144    0.0410 98.3 177 
 RUS  HZ I        1145 18.32        15.2 0.34            143           98.3 177 
 PTB  HZ EP       1145  1.43                             132   -0.86 9  148 260 
 PTB  HN ES   4   1145 22.12                             132   -1.24 0  148 260 
 PTB  HZ I        1145 24.32        25.4 0.46            130            148 260 
 SPBC HZ EP       1145  3.77                             129    0.10 9  162 220 
 SPBC HN ES       1145 26.62                             129    0.81 9  162 220 
 SPBC HZ I        1145 28.74        13.3 0.34            128            162 220 
 ZAR  HZ EP       1145  8.63                             122    0.73 8  206 293 
 ZAR  HN ES       1145 33.38                             122    0.03 8  206 293 
 ZAR  HN ISg      1145 33.39                             122    0.04 8  206 293 
 ZAR  HZ I        1145 39.45        27.2 0.42            122            206 293 
 NOR  HZ EP       1145 11.98                             118    1.03 8  234 235 
 NOR  HE ES       1145 38.71                             118   -0.07 8  234 235 
 NOR  HZ I        1145 43.81        10.7 0.48            118            234 235 
 CHI  HZ EP   4   1145 13.98                             117    1.21 0  247 196 
 CHI  HE ES   4   1145 39.35                             117   -2.66 0  247 196 
 CHI  HZ I        1145 49.14         4.8 0.42            117            247 196 
 HEL  HZ EP   4   1145 17.82                             115    2.29 0  273 256 
 HEL  HN ES       1145 45.92                             115   -1.01 8  273 256 
 HEL  HZ I        1145 53.11         6.4 0.36            114            273 256 
 URE  HZ EP       1145 15.75                             113   -0.79 7  286 292 
 GUY2CHZ EP   4   1145 20.02                             112    1.19 0  301 235 
 GUY2CHN ES   4   1145 55.14                             112    2.34 0  301 235 
 GUY2CHZ I        1145 59.75         7.4 0.32                           301 235 
 PTGC HZ EP   9   1145 17.92                             112   -0.93 0  306 159 
 PTGC HE ES       1145 50.94                             111   -0.97 7  306 159 
 PTGC HZ I        1145 56.79        13.8 0.48            112            306 159 
 DBB  EZ ES   4   1145 58.49                             109   -1.53 0  341 275 
 PRA  HZ EP   9   1145 29.92                             106    1.30 0  391 210 
 PRA  HE ES       1146 11.19                             106   -0.34 6  391 210 
 PRA  HZ I        1146 17.49         5.0 0.52            106            391 210 
 SJC  HZ EP   9   1145 28.66                             105   -2.46 0  412 327 
 SJC  HN ES       1146 12.66                             105    0.44 6  412 327 
 SJC  HZ I        1146 14.98         3.4 0.40            106            412 327 
                                                                                
