 2011 1217 1058 12.2 L   6.864 -73.279120.4  RSN 12 0.2 2.4LRSN                1
 GAP=110        0.40       1.5     2.6  2.7 -0.8336E+00  0.1473E+01  0.5123E+00E
 Epicentro: ZAPATOCA - SANTANDER                                               3
 ACTION:UPD 12-07-13 16:16 OP:ep   STATUS:               ID:20111217105812 L   I
 2011-12-17-1050-00M.COL___186                                                 6
 STAT SP IPHASW D HRMM SECON CODA AMPLIT PERI AZIMU VELO AIN AR TRES W  DIS CAZ7
 GIR2 SZ IP       1058 28.71                             167    0.0410 25.5  22 
 GIR2 SZ ES   2   1058 41.17                             167   -0.37 5 25.5  22 
 BAR2 SZ IP       1058 29.15                             164    0.1510 31.9 160 
 BAR2 SZ ES   1   1058 42.09                             164   -0.05 7 31.9 160 
 BRR  HZ EP       1058 29.49                             154   -0.1610 54.8 299 
 BRR  HE ES   1   1058 43.66                             154    0.36 7 54.8 299 
 BRR  HZ I        1058 44.33       109.5 0.13                          54.8 299 
 PAM  SZ EP       1058 32.18                             144    0.0410 82.8  51 
 PAM  SE ES   2   1058 47.78                             144    0.06 5 82.8  51 
 RUS  HZ EP   1   1058 33.93                             135   -0.35 7  110 169 
 RUS  HN ES   2   1058 51.66                             135    0.13 5  110 169 
 OCA  SZ EP       1058 37.80                             125   -0.01 9  152 358 
 OCA  SZ ES   2   1058 57.68                             125   -0.13 5  152 358 
 OCA  SZ I        1058 58.88        81.1 0.27                           152 358 
 CTAU SZ EP   1   1058 43.82                             117    0.27 6  202 205 
 CHI  HZ EP       1058 49.05                             111    0.06 8  252 191 
 CHI  HN ES   1   1059 17.47                             111   -0.25 6  252 191 
 HEL  HZ EP   2   1058 50.03                             110    0.23 4  260 253 
 HEL  HN ES   2   1059 18.61                             110   -0.54 4  260 253 
 HEL  HZ I        1059 24.26         8.5 0.20                           260 253 
 GUY  SZ EP   2   1058 54.07                             107   -0.03 4  296 232 
 GUY  SZ I        1059 31.57        11.4 0.41                           296 232 
 RREF HZ EP   2   1058 56.72                             106    0.12 3  316 227 
 RREF HE ES   2   1059 31.42                             106    0.15 3  316 227 
 RREF HZ I        1059 42.05         6.4 0.28                           316 227 
 COD  HZ EP   2   1058 59.02                             104    0.32 3  340 357 
 COD  HE ES   2   1059 34.47                             104   -0.52 3  340 357 
 COD  HZ I        1059 43.18        18.1 0.41                           340 357 
                                                                                
