 2012  117 1739 54.8 L   6.772 -73.170139.4  RSN  6 0.4 1.4LRSN                1
 GAP=135        0.95       6.3     5.6  9.8  0.1231E+01  0.1458E+02 -0.3461E+01E
 Epicentro: LOS SANTOS - SANTANDER                                             3
 ACTION:UP  12-02-03 08:18 OP:REBC STATUS:               ID:20120117173954 L   I
 2012-01-17-1737-46S.COL___157                                                 6
 STAT SP IPHASW D HRMM SECON CODA AMPLIT PERI AZIMU VELO SNR AR TRES W  DIS CAZ7
 BAR2 SZ EP   1   1740 12.89                             171    -0.7 7   20 184 
 BAR2 SZ ES   1   1740 27.86                             171    -0.4 7   20 184 
 BAR2 SZ I        1740 31.39        10.8 0.10                            20 184 
 BRR  HZ EP   1   1740 15.72                             152     0.5 7   70 302 
 BRR  HZ I        1740 16.26        33.5 0.12                            70 302 
 BRR  HE ES   2   1740 31.59                             152     0.4 5   70 302 
 PAM  SZ EP   1   1740 16.56                             148    -0.1 7   81  40 
 PAM  SN ES   1   1740 33.73                             148     0.1 7   81  40 
 PAM  SZ I        1740 36.49         7.7 0.22                            81  40 
 RUS  HZ EP   1   1740 18.24                             143     0.5 7   98 174 
 RUS  HN ES   1   1740 35.94                             143     0.3 7   98 174 
 RUS  HZ I        1740 38.85         7.2 0.22                            98 174 
 PTB  HZ EP   1   1740 20.51                             131    -0.5 7  145 260 
 PTB  HN ES   1   1740 41.25                             131    -0.1 7  145 260 
 PTB  HZ I        1740 49.24         0.1 0.33                           145 260 
 ZAR  HN ES   1   1740 51.85                             121     0.2 6  203 293 
                                                                                
