 2011 1017 1048 56.1 L   6.740 -73.088148.0  RSN  7 0.2 1.9LRSN                1
 GAP=147        0.35       2.6     3.5  4.5 -0.4163E+00  0.4795E+01 -0.1148E+01E
 Epicentro: JORDAN - SANTANDER                                                 3
 ACTION:UPD 12-07-13 16:04 OP:ep   STATUS:               ID:20111017104856 L   I
 2011-10-17-1045-43S.COL___168                                                 6
 STAT SP IPHASW D HRMM SECON CODA AMPLIT PERI AZIMU VELO AIN AR TRES W  DIS CAZ7
 BAR2 SZ EP   2   1049 16.00                             172    0.09 5 19.4 213 
 BAR2 SZ ES   2   1049 31.35                             172   -0.03 5 19.4 213 
 BAR2 SZ I        1049 32.80        25.4 0.27                          19.4 213 
 PAM  SZ EP   2   1049 18.69                             151    0.06 5 78.9  33 
 PAM  SN ES   2   1049 36.16                             151   -0.06 5 78.9  33 
 BRR  HZ EP   1   1049 17.90                             150   -0.09 7 80.0 300 
 BRR  HZ I        1049 18.16        19.4 0.17                          80.0 300 
 BRR  HN ES   2   1049 35.29                             150    0.21 5 80.0 300 
 RUS  HZ EP   2   1049 19.89                             146    0.31 5 93.7 180 
 RUS  HN ES   2   1049 37.65                             146   -0.26 5 93.7 180 
 RUS  HZ I        1049 39.90         5.7 0.40                          93.7 180 
 OCA  SZ EP   2   1049 24.84                             129   -0.43 5  168 351 
 OCA  SZ ES   2   1049 48.38                             129    0.35 5  168 351 
 OCA  SZ I        1049 51.83         6.9 0.59                           168 351 
 ZAR  HZ EP   2   1049 29.60                             122    0.05 4  212 293 
 ZAR  HN ES   2   1049 55.36                             122   -0.29 4  212 293 
 ZAR  HZ I        1050  0.55         6.3 0.51                           212 293 
 RREF HN ES   2   1050 18.78                             111    0.25 3  322 231 
 RREF HZ I        1050 28.52         3.6 0.33                           322 231 
                                                                                
