 2011  517 1731 45.3 L   6.792 -73.098147.7  RSN  7 0.2 1.8LRSN                1
 GAP=143        0.64       4.5     7.9 10.3 -0.1449E+02 -0.4591E+02  0.1653E+02E
 Epicentro: LOS SANTOS - SANTANDER                                             3
 ACTION:UP  11-06-29 08:54 OP:tino STATUS:               ID:20110517173145 L   I
 2011-05-17-1726-17S.COL___141                                                 6
 STAT SP IPHASW D HRMM SECON CODA AMPLIT PERI AZIMU VELO SNR AR TRES W  DIS CAZ7
 BTL  SZ EP       1732  4.99                             171    -0.210   23 307 
 BAR2 SZ EP       1732  4.95                             170    -0.310   24 203 
 BAR2 SZ I        1732 21.74        13.6 0.38                            24 203 
 PAM  SZ EP       1732  7.84                             152     0.210   75  36 
 BRR  HZ EP       1732  6.81                             151    -0.210   76 297 
 BRR  HZ I        1732  7.10        14.5 0.19                            76 297 
 BRR  HN ES   1   1732 24.23                             151     0.4 7   76 297 
 RUS  HZ EP       1732  9.44                             144     0.210   99 179 
 RUS  HN ES   3   1732 27.67                             144    -0.1 2   99 179 
 BRI  SZ EP       1732  9.53                             142     0.210  108  18 
 GRA  SZ IP       1732 10.71                             138     0.010  125  15 
 GRA  SZ I        1732 11.84         6.7 0.45                           125  15 
 GRA  SZ ES   1   1732 30.23                             138    -0.3 7  125  15 
                                                                                
