 2015  317 1152 34.7 L   6.818 -73.186146.0  RSN  7 0.5 2.1LRSN                1
 GAP=136        1.15       4.7     6.0  7.0 -0.1101E+02  0.1076E+02 -0.7691E-01E
 Epicentro: ZAPATOCA - SANTANDER                                               3
 ACTION:UPD 15-04-30 16:26 OP:nd   STATUS:               ID:20150317115234 L   I
 OLDACT:UP  15-03-17 22:02 OP:cam  STATUS:               ID:20150317114750     3
 OLDACT:REG 15-03-17 21:09 OP:cam  STATUS:               ID:20150317114750     3
 2015-03-17-1147-50M.COL___263                                                 6
 STAT SP IPHASW D HRMM SECON CODA AMPLIT PERI AZIMU VELO AIN AR TRES W  DIS CAZ7
 BAR2 EZ IP     C 1152 54.21                             170   -0.2010 24.9 179 
 BAR2 EZ ES       1153  9.50                             170   -0.2710 24.9 179 
 BAR2 EZ I        1153 10.49        10.8 0.22            169           24.9 179 
 BRR  HZ EP   1   1152 56.06                             154    0.43 7 66.3 299 
 BRR  HN ES       1153 12.70                             154    0.7610 66.3 299 
 BRR  HN I        1153 13.88        36.1 0.30            149           66.3 299 
 PAM  SZ EP     D 1152 56.93                             151   -0.1210 78.9  43 
 PAM  SN ES       1153 14.47                             151    0.0110 78.9  43 
 PAM  SZ I        1153 16.39        10.7 0.20            154           78.9  43 
 PTB  HZ EP       1153  0.82                             133   -0.53 9  144 258 
 PTB  HN ES       1153 21.52                             133   -0.60 9  144 258 
 PTB  HZ I        1153 29.80        11.6 0.34            130            144 258 
 SPBC HZ EP       1153  3.12                             129    0.00 9  162 217 
 SPBC HN ES       1153 25.77                             129    0.50 9  162 217 
 SPBC HZ I        1153 32.28        17.7 0.30            129            162 217 
 SML  HZ EP       1153 10.75                             118   -0.22 8  240 336 
 SML  HN ES       1153 39.23                             118   -0.01 8  240 336 
 SML  HN I        1153 47.48        25.5 0.10            118            240 336 
 TOL  SZ EP       1153 24.09                             110    1.30 7  342 224 
 TOL  SN ES       1153 59.66                             110   -0.62 7  342 224 
 TOL  SZ I        1154  8.08         3.9 0.34            110            342 224 
                                                                                
