 2010  417 1615 54.9 L   5.898 -73.645116.7  RSN  7 0.3 1.9LRSN                1
 GAP=150        0.55       3.5     3.9  8.0 -0.4653E+01  0.1245E+02  0.1225E+02E
 Epicentro: PUENTE NACIONAL - SANTANDER                                        3
 ACTION:UPD 10-08-24 09:59 OP:vdl  STATUS:               ID:20100417161548 L   I
 2010-04-17-1612-50S.COL___100                                                 6
 STAT SP IPHASW D HRMM SECON CODA AMPLIT PERI AZIMU VELO AIN AR TRES W  DIS CAZ7
 BAR2 SZ EP       1616 14.88                             140     0.010   92  34 
 BAR2 SZ ES       1616 30.44                             140     0.010   92  34 
 BRR  HZ EP       1616 18.43                             128     0.110  134 357 
 BRR  HE ES   1   1616 36.51                             128     0.0 7  134 357 
 BRR  HZ I        1616 37.80        25.9 0.12                           134 357 
 CHI  HZ EP   3   1616 19.53                             127     0.0 2  141 184 
 CHI  HZ I        1616 22.61         5.7 0.42                           141 184 
 HEL  HZ EP   1   1616 26.76                             115    -0.1 6  211 279 
 HEL  HN ES   2   1616 51.09                             115    -0.7 4  211 279 
 HEL  HZ I        1616 55.26         6.3 0.30                           211 279 
 RREF BZ EP   1   1616 28.16                             114     0.1 6  219 240 
 RREF BN ES   1   1616 54.04                             114     0.1 6  219 240 
 RREF BZ I        1616 57.05         8.3 0.27                           219 240 
 PRA  HZ EP       1616 33.73                             108    -0.4 7  278 210 
 PRA  HN ES   2   1617  5.54                             108     0.9 4  278 210 
 PRA  HZ I        1617 11.15         6.9 0.29                           278 210 
 DBB  SZ EP   2   1616 38.09                             106     0.3 4  310 294 
 DBB  SZ ES   2   1617 11.82                             106     0.5 4  310 294 
                                                                                
