 2014 1017 1819 28.3 L   6.757 -73.150145.1  RSN  6 0.4 1.7LRSN                1
 GAP=138        0.89       4.7     4.3  6.6  0.1810E+01  0.8695E+01 -0.1764E+01E
 Epicentro: LOS SANTOS - SANTANDER                                             3
 ACTION:UPD 14-11-29 23:50 OP:nd   STATUS:               ID:20141017181928 L   I
 OLDACT:REG 14-10-17 21:10 OP:fm   STATUS:               ID:20141017181750     3
 2014-10-17-1817-50M.COL___265                                                 6
 STAT SP IPHASW D HRMM SECON CODA AMPLIT PERI AZIMU VELO AIN AR TRES W  DIS CAZ7
 BAR2 SZ EP   1   1819 47.35                             172   -0.38 7 18.6 191 
 BAR2 SZ ES   1   1820  2.83                             172   -0.08 7 18.6 191 
 BAR2 SZ I        1820  3.75        18.6 0.36            173           18.6 191 
 BRR  HZ EP       1819 49.68                             152    0.2310 73.1 302 
 BRR  HN ES       1820  6.57                             152    0.5910 73.1 302 
 BRR  HZ I        1820  8.29         9.2 0.16            150           73.1 302 
 PAM  SZ EP       1819 50.85                             149    0.1910 81.4  38 
 PAM  SN ES       1820  7.64                             149   -0.4810 81.4  38 
 PAM  SZ I        1820 10.09        10.3 0.64            151           81.4  38 
 RUS  HZ EP   1   1819 52.18                             145    0.56 7 95.9 176 
 RUS  HE ES       1820  9.82                             145   -0.0110 95.9 176 
 RUS  HZ I        1820 11.18         4.3 0.30            148           95.9 176 
 PTB  HZ EP       1819 54.54                             132   -0.52 9  146 261 
 PTB  HE ES   1   1820 15.65                             132   -0.30 7  146 261 
 PTB  HZ I        1820 17.55         7.1 0.18            132            146 261 
 ZAR  HZ EP       1820  1.07                             122    0.26 8  205 293 
 ZAR  HN ES       1820 25.97                             122   -0.22 8  205 293 
 ZAR  HZ I        1820 32.67         5.4 0.14            123            205 293 
                                                                                
