 2010  317 1319 45.1 L   6.806 -73.004143.4  RSN  9 0.3 2.2LRSN                1
 GAP=197        0.59       3.5     5.7  4.8  0.1648E+01  0.5115E+01  0.1313E+01E
 Epicentro: CEPITA - SANTANDER                                                 3
 ACTION:UP  10-08-24 09:54 OP:vdl  STATUS:               ID:20100317131945 L   I
 2010-03-17-1314-37S.COL___099                                                 6
 STAT SP IPHASW D HRMM SECON CODA AMPLIT PERI AZIMU VELO SNR AR TRES W  DIS CAZ7
 BAR2 SZ IP       1320  4.78                             167     0.110   31 220 
 BAR2 SZ ES   1   1320 19.82                             167     0.0 7   31 220 
 BRR  HZ IP       1320  6.60                             148    -0.310   85 293 
 BRR  HE ES   1   1320 23.70                             148    -0.1 7   85 293 
 BRR  HZ I        1320 27.84        42.9 0.16                            85 293 
 RUS  HZ EP   1   1320  8.70                             143     0.0 7  101 185 
 RUS  HE ES   1   1320 27.32                             143     0.2 7  101 185 
 RUS  HZ I        1320 28.21        17.7 0.22                           101 185 
 OCA  SZ EP   1   1320 13.59                             129     0.2 7  162 348 
 OCA  SZ I        1320 38.58        45.5 0.18                           162 348 
 CHI  HZ EP   2   1320 22.98                             116    -0.3 4  254 199 
 CHI  HN ES   2   1320 51.96                             116    -1.0 4  254 199 
 CHI  HZ I        1321  0.05         5.4 0.14                           254 199 
 HEL  HZ EP   2   1320 27.44                             113     0.5 4  287 256 
 HEL  HE ES   2   1320 59.79                             113     0.3 4  287 256 
 HEL  HZ I        1321  4.82         7.6 0.49                           287 256 
 RREF BZ EP   1   1320 33.03                             109     0.5 5  334 231 
 RREF BE ES   2   1321  9.85                             109     0.2 3  334 231 
 RREF BZ I        1321 13.91         7.1 0.20                           334 231 
 TOL  SZ EP   2   1320 34.31                             108    -0.3 3  355 226 
 PRA  HZ EP   1   1320 39.14                             106    -0.4 4  401 211 
 PRA  HN ES   2   1321 22.54                             106     0.5 3  401 211 
 PRA  HZ I        1321 27.91         5.9 0.43                           401 211 
                                                                                
