 2013  517 1203 31.3 L   6.704 -73.218142.2  RSN  6 0.3 1.8LRSN                1
 GAP=159        0.63       5.0     4.7  6.9  0.7013E+01 -0.3787E+01  0.1244E+01E
 Epicentro: VILLANUEVA - SANTANDER                                             3
 ACTION:UPD 13-06-20 09:51 OP:ep   STATUS:               ID:20130517120331 L   I
 2013-05-17-1200-00M.COL___253                                                 6
 STAT SP IPHASW D HRMM SECON CODA AMPLIT PERI AZIMU VELO AIN AR TRES W  DIS CAZ7
 BAR2 SZ EP   1   12 3 50.13                             175   -0.25 7 13.0 162 
 BAR2 SZ I        12 4  6.62         8.1 0.26            172           13.0 162 
 GIR2 SZ EP   1   12 3 50.43                             163   -0.49 7 41.5   4 
 BRR  HZ EP       12 3 52.17                             152    0.1010 70.5 309 
 BRR  HN ES       12 4  8.47                             152    0.2310 70.5 309 
 BRR  HN I        12 4 14.26        19.6 0.26            157           70.5 309 
 RUS  HZ EP   1   12 3 54.44                             146    0.37 7 90.9 171 
 RUS  HN ES   1   12 4 11.77                             146   -0.02 7 90.9 171 
 RUS  HZ I        12 4 14.92         2.7 0.34            147           90.9 171 
 PTB  HZ EP       12 3 57.31                             133    0.15 9  138 263 
 PTB  HN ES       12 4 17.01                             133   -0.28 9  138 263 
 PTB  HN I        12 4 23.14        12.8 0.28            138            138 263 
 SML  HN ES   4   12 4 35.29                             116   -2.18 0  250 338 
 SML  HN I        12 4 37.99        17.4 0.10            118            250 338 
                                                                                
