 2012  617 1423 38.7 L   6.587 -73.592103.5  RSN  9 0.5 2.1LRSN                1
 GAP= 64        1.06       4.0     4.5  9.2 -0.4775E+01  0.1528E+02 -0.4316E+01E
 Epicentro: EL CARMEN DE CHUCURI - SANTANDER                                   3
 ACTION:UPD 12-08-06 17:50 OP:ep   STATUS:               ID:20120617142338 L   I
 2012-06-17-1420-00M.COL___199                                                 6
 STAT SP IPHASW D HRMM SECON CODA AMPLIT PERI AZIMU VELO AIN AR TRES W  DIS CAZ7
 BAR2 SZ EP       1423 54.47                             155    0.2710 45.3  89 
 BAR2 SZ ES   1   1424  7.14                             155    0.87 7 45.3  89 
 RUS  HZ EP   1   1423 57.50                             134   -0.65 7 95.3 144 
 RUS  HN ES   1   1424 12.76                             134   -0.53 7 95.3 144 
 RUS  HZ I        1424 14.58        20.1 0.22                          95.3 144 
 PTB  HZ IP     C 1423 57.30                             134   -0.2310 95.7 267 
 PTB  HN ES   1   1424 12.08                             134   -0.12 7 95.7 267 
 PTB  HZ I        1424 15.45        30.8 0.14                          95.7 267 
 PAM  SZ EP   1   1424  1.04                             125   -0.29 7  129  50 
 PAM  SE ES   1   1424 18.68                             125   -0.28 7  129  50 
 ZAR  HZ EP   1   1424  6.25                             116    1.01 7  172 306 
 ZAR  HZ I        1424 31.01        67.7 0.49                           172 306 
 NOR  SZ EP   1   1424  5.75                             114   -0.55 7  181 231 
 NOR  SN ES   1   1424 27.14                             114   -0.67 7  181 231 
 NOR  SZ I        1424 31.66         1.8 0.17                           181 231 
 OCA  HZ EP   1   1424  6.63                             114   -0.25 7  185   9 
 OCA  HN ES   1   1424 28.66                             114   -0.18 7  185   9 
 OCA  HZ I        1424 35.41        60.1 0.38                           185   9 
 CHI  HZ EP   1   1424 11.70                             110    0.88 6  217 184 
 CHI  HE ES   1   1424 36.48                             110    0.62 6  217 184 
 CHI  HZ I        1424 40.14         5.2 0.40                           217 184 
 HEL  HZ EP   1   1424 11.43                             110    0.48 6  219 259 
 HEL  HZ I        1424 42.72        16.2 0.13                           219 259 
                                                                                
