 2013  217 1750  8.8 L   6.811 -73.173146.5  RSN 16 0.4 3.4LRSN 3.7WRSN        1
 SPEC AVERAGE  MO 14.7 ST 26.2 OM  3.4 f0 2.75 R0.5713 AL 2.55 WI 23.7 MW  3.7 3
 SPEC SD       MO  0.4 ST 30.0 OM  0.6 f00.698 R0.1513 AL      WI      MW  0.3 3
 GAP= 69        0.78       2.9     3.2  5.1  0.5871E-01 -0.1057E+00 -0.7005E+00E
 Epicentro: LOS SANTOS - SANTANDER                                             3
 SPEC VIL SH N MO 14.8 ST  5.0 OM  2.9 f0 1.76 R0.8352 AL 1.83 WI 35.7 MW  3.8 3
 SPEC VIL SH N T175123 K 0.000 GD  337 VS 4.20 DE 3.20 Q0300.0 QA 0.60 VS 4.20 3
 SPEC TAM HH N MO 14.1 ST  1.7 OM  2.4 f0 2.08 R0.7067 AL 1.97 WI 21.4 MW  3.4 3
 SPEC TAM HH N T175057 K 0.000 GD  215 VS 4.20 DE 3.20 Q0300.0 QA 0.60 VS 4.20 3
 SPEC RREFHH N MO 15.2 ST 92.4 OM  3.3 f0 3.37 R0.4362 AL 3.47 WI 28.5 MW  4.1 3
 SPEC RREFHH N T175131 K 0.000 GD  351 VS 4.20 DE 3.20 Q0300.0 QA 0.60 VS 4.20 3
 SPEC ROSCBH N MO 15.4 ST 42.7 OM  3.5 f0 2.38 R0.6176 AL 3.61 WI 18.7 MW  4.2 3
 SPEC ROSCBH N T175118 K 0.000 GD  291 VS 4.20 DE 3.20 Q0300.0 QA 0.60 VS 4.20 3
 SPEC OCA HH N MO 14.5 ST 19.3 OM  2.8 f0 3.45 R0.4261 AL 1.91 WI 20.2 MW  3.6 3
 SPEC OCA HH N T175057 K 0.000 GD  216 VS 4.20 DE 3.20 Q0300.0 QA 0.60 VS 4.20 3
 SPEC CHI HH N MO 14.3 ST  4.0 OM  2.4 f0 2.53 R0.5810 AL 2.62 WI 16.0 MW  3.4 3
 SPEC CHI HH N T175115 K 0.000 GD  288 VS 4.20 DE 3.20 Q0300.0 QA 0.60 VS 4.20 3
 SPEC BRR HH N MO 14.4 ST 17.9 OM  2.8 f0 3.71 R0.3962 AL 2.46 WI 25.2 MW  3.5 3
 SPEC BRR HH N T175045 K 0.000 GD  161 VS 4.20 DE 3.20 Q0300.0 QA 0.60 VS 4.20 3
 ACTION:UPD 13-03-12 09:33 OP:ep   STATUS:               ID:20130217175008 L   I
 2013-02-17-1749-48M.COL___195                                                 6
 STAT SP IPHASW D HRMM SECON CODA AMPLIT PERI AZIMU VELO AIN AR TRES W  DIS CAZ7
 BAR2 SZ EP       1750 28.60                             170    0.0610 24.2 182 
 BAR2 SZ ES   1   1750 43.57                             170   -0.36 7 24.2 182 
 BAR2 SZ I        1750 44.72       325.4 0.32            161           24.2 182 
 BRR  HZ IP     C 1750 30.41                             154    0.5610 68.0 299 
 BRR  HN ES   2   1750 47.34                             154    1.07 5 68.0 299 
 BRR  HN I        1750 48.09       808.0 0.24            138           68.0 299 
 PAM  SZ EP   1   1750 31.52                             150    0.36 7 78.5  42 
 PAM  SN ES   2   1750 48.40                             150   -0.20 5 78.5  42 
 PAM  SN I        1750 49.62       186.4 0.44            145           78.5  42 
 RUS  HZ EP     D 1750 32.57                             143   -0.1610  102 174 
 RUS  HN ES   2   1750 51.07                             143   -0.32 5  102 174 
 PTB  HZ EP   1   1750 35.24                             133   -0.34 7  145 258 
 PTB  HN ES       1750 55.91                             133   -0.56 9  145 258 
 PTB  HN I        1751  1.54       369.3 0.34            117            145 258 
 TAM  HZ IP     D 1750 37.10                             130    0.26 9  158 105 
 TAM  HN ES   2   1750 58.56                             130   -0.15 5  158 105 
 TAM  HN I        1750 59.55       148.2 0.30            121            158 105 
 OCA  HZ EP   1   1750 36.66                             130   -0.37 7  159 354 
 OCA  HN ES   2   1750 59.30                             130    0.26 5  159 354 
 OCA  HN I        1751  1.11       496.9 0.26            118            159 354 
 ZAR  HZ EP   1   1750 40.93                             123   -0.03 6  201 292 
 ZAR  HN ES   2   1751  6.50                             123    0.46 4  201 292 
 ZAR  HN I        1751 13.92       219.2 0.28            110            201 292 
 SML  HZ EP   1   1750 45.52                             118    0.30 6  241 336 
 SML  HN ES   2   1751 12.83                             118   -0.79 4  241 336 
 SML  HN I        1751 16.56       294.8 0.28            106            241 336 
 CHI  HZ EP   1   1750 46.81                             117    0.23 6  249 194 
 CHI  HN ES       1751 16.18                             117    0.13 8  249 194 
 CHI  HN I        1751 18.76       210.2 0.32            106            249 194 
 ROSC BZ EP   4   1750 48.77                             117    1.87 0  252 210 
 ROSC BZ I        1751 22.65        96.6 0.30            105            252 210 
 HEL  HZ EP   1   1750 49.59                             115    0.83 6  269 255 
 URE  HZ EP   1   1750 49.03                             114   -0.51 6  281 292 
 URE  HN I        1751 31.25       163.9 0.26            103            281 292 
 VIL  SZ EP   1   1750 52.11                             112   -0.21 5  304 191 
 VIL  SN ES   2   1751 26.40                             112    0.14 4  304 191 
 VIL  SN I        1751 32.34       177.2 0.46            102            304 191 
 RREF HZ EP   4   1750 56.66                             111    1.86 0  320 229 
 DBB  SZ EP   1   1750 56.08                             110    0.13 5  336 274 
 SDV  BZ EP       1750 58.23                             108   -0.83 6  362  51 
                                                                                
