 2013  817 1456 41.2 L   7.391 -73.166133.4  RSN  5 0.2 1.5LRSN                1
 GAP=183        0.55       5.8     3.8  5.6 -0.2961E+01  0.1031E+02 -0.7834E+01E
 Epicentro: EL PLAYON - SANTANDER                                              3
 ACTION:UPD 14-01-14 09:04 OP:ep   STATUS:               ID:20130817145641 L   I
 OLDACT:REG 13-08-17 15:19 OP:jn   STATUS:               ID:20130817145000     3
 2013-08-17-1450-00M.COL___268                                                 6
 STAT SP IPHASW D HRMM SECON CODA AMPLIT PERI AZIMU VELO AIN AR TRES W  DIS CAZ7
 PAM  SN ES   1   1457 16.12                             158    0.18 7 51.8  96 
 PAM  SZ I        1457 19.15         8.4 0.30            162           51.8  96 
 BRR  HZ EP       1457  1.05                             151    0.1810 68.0 243 
 BRR  HN ES       1457 15.93                             151   -0.2510 68.0 243 
 BRR  HZ I        1457 19.94        11.8 0.44            153           68.0 243 
 BAR2 SZ ES   1   1457 18.97                             144   -0.17 7 88.4 181 
 PTB  HZ EP       1457  9.53                             124    0.05 9  171 237 
 PTB  HE ES       1457 31.71                             124    0.19 9  171 237 
 PTB  HZ I        1457 36.17         1.9 0.16            128            171 237 
 ZAR  HZ EP   1   1457 10.63                             122   -0.50 7  187 274 
 ZAR  HN ES   1   1457 34.64                             122    0.19 7  187 274 
 ZAR  HZ I        1457 35.74         4.8 0.22            125            187 274 
                                                                                
