 2011  317 1321 20.6 L   6.783 -73.235143.3  RSN  6 0.5 1.8LRSN                1
 GAP=144        1.04       5.8    11.5  8.8 -0.3823E+02  0.1542E+02 -0.3843E+00E
 Epicentro: ZAPATOCA - SANTANDER                                               3
 ACTION:UP  11-06-16 14:34 OP:jfem STATUS:               ID:20110317132120 L   I
 2011-03-17-1316-42S.COL___138                                                 6
 STAT SP IPHASW D HRMM SECON CODA AMPLIT PERI AZIMU VELO SNR AR TRES W  DIS CAZ7
 BTL  SZ EP   1   1321 40.08                             174     0.2 7   15 346 
 BTL  SZ ES   1   1321 55.72                             174     0.9 7   15 346 
 BAR2 SZ EP       1321 39.98                             171     0.010   22 165 
 BAR2 SZ ES   1   1321 54.78                             171    -0.2 7   22 165 
 BAR2 SZ I        1321 57.06        14.4 0.29                            22 165 
 RUS  HZ EP   1   1321 44.35                             144     0.2 7  100 170 
 RUS  HN ES   1   1322  2.10                             144    -0.3 7  100 170 
 RUS  HZ I        1322  4.08         8.8 0.20                           100 170 
 GRA  SZ EP       1321 46.01                             135    -0.110  131  21 
 GRA  SZ ES   1   1322  5.32                             135    -0.6 7  131  21 
 GRA  SZ I        1322  6.84        13.4 0.34                           131  21 
 NOR  SN ES   1   1322 21.83                             119    -0.4 6  226 234 
 CHI  HZ EP   1   1321 58.50                             117     0.8 6  244 193 
 CHI  HN ES   1   1322 26.14                             117    -0.5 6  244 193 
 CHI  HZ I        1322 30.86         2.9 0.36                           244 193 
                                                                                
