 2011  417 1932 40.2 L   6.802 -73.162146.9  RSN  8 0.4 2.2LRSN                1
 GAP=112        0.91       5.5     6.2  7.6 -0.8967E+01  0.1904E+01  0.1249E+02E
 Epicentro: LOS SANTOS - SANTANDER                                             3
 ACTION:UP  11-06-22 15:31 OP:REBC STATUS:               ID:20110417193240 L   I
 2011-04-17-1930-31S.COL___133                                                 6
 STAT SP IPHASW D HRMM SECON CODA AMPLIT PERI AZIMU VELO SNR AR TRES W  DIS CAZ7
 BAR2 SZ EP   1   1933  0.09                             171     0.1 7   23 186 
 BAR2 SZ ES   1   1933 14.78                             171    -0.6 7   23 186 
 BAR2 SZ I        1933 16.57        65.5 0.27                            23 186 
 BRR  HZ EP   1   1933  1.91                             153     0.5 7   70 299 
 BRR  HE ES   1   1933 18.40                             153     0.5 7   70 299 
 BRR  HZ I        1933 19.52        55.0 0.11                            70 299 
 PAM  SZ EP       1933  2.93                             150     0.310   78  41 
 PAM  SN ES   1   1933 19.54                             150    -0.5 7   78  41 
 OCA  SZ EP   1   1933  8.30                             130    -0.3 7  160 354 
 OCA  SZ I        1933 33.49        19.1 0.29                           160 354 
 YOP  SZ EP   1   1933 10.68                             126     0.2 7  180 153 
 YOP  SN ES   2   1933 34.70                             126     0.7 4  180 153 
 YOP  SZ I        1933 36.49         8.4 0.39                           180 153 
 NOR  SZ EP   1   1933 15.16                             119    -0.7 6  233 234 
 NOR  SE ES   1   1933 43.67                             119     0.0 6  233 234 
 CHI  HZ EP   2   1933 17.58                             117    -0.4 4  248 195 
 CHI  HZ I        1933 54.14         8.7 0.32                           248 195 
 PRA  HZ EP   2   1933 33.40                             106    -0.3 3  391 209 
 PRA  HN ES   2   1934 15.09                             106    -0.3 3  391 209 
                                                                                
