 2012  717 1120 43.4 L   6.734 -73.177148.6  RSN  5 0.3 1.7LRSN                1
 GAP=229        0.79       7.2     6.4  8.3  0.2470E+02  0.4893E+01 -0.5730E+01E
 Epicentro: VILLANUEVA - SANTANDER                                             3
 ACTION:UPD 12-08-14 11:45 OP:ep   STATUS:               ID:20120717112043 L   I
 2012-07-17-1120-00M.COL___196                                                 6
 STAT SP IPHASW D HRMM SECON CODA AMPLIT PERI AZIMU VELO AIN AR TRES W  DIS CAZ7
 BAR2 SZ EP   1   1121  3.07                             174    -0.2 7   16 182 
 BAR2 SZ ES   1   1121 18.07                             174    -0.6 7   16 182 
 BAR2 SZ I        1121 19.41        20.4 0.13            173             16 182 
 BRR  HZ EP   1   1121  5.00                             153     0.1 7   72 305 
 BRR  HZ I        1121  6.49        12.9 0.11            149             72 305 
 BRR  HE ES   1   1121 22.16                             153     0.5 7   72 305 
 RUS  HZ EP   1   1121  7.02                             146     0.1 7   94 174 
 RUS  HN ES       1121 25.57                             146     0.310   94 174 
 RUS  HZ I        1121 26.52         5.3 0.12            147             94 174 
 PTB  HZ EP   1   1121 10.07                             134    -0.1 7  143 261 
 PTB  HN ES       1121 30.92                             134    -0.1 9  143 261 
 PTB  HZ I        1121 34.13         3.4 0.16            131            143 261 
 ZAR  HN ES   2   1121 41.37                             123     0.0 4  204 294 
 ZAR  HZ I        1121 47.48         4.5 0.13            121            204 294 
