 2011  517 1148 29.2 L   7.143 -72.992144.8  RSN  5 0.3 1.6LRSN                1
 GAP=180        0.53      12.1    20.1  7.8 -0.1982E+03 -0.6417E+02  0.1260E+02E
 Epicentro: TONA - SANTANDER                                                   3
 ACTION:UP  11-06-29 08:54 OP:tino STATUS:               ID:20110517114829 L   I
 2011-05-17-1147-27S.COL___141                                                 6
 STAT SP IPHASW D HRMM SECON CODA AMPLIT PERI AZIMU VELO SNR AR TRES W  DIS CAZ7
 GIR2 SZ EP       1148 48.67                             171     0.110   23 252 
 GIR2 SZ ES   1   1149  3.30                             171    -0.4 7   23 252 
 BAR2 SZ ES   3   1149  7.18                             154     0.6 2   64 199 
 BAR2 SZ I        1149  9.44        12.2 0.95                            64 199 
 BRI  SZ EP       1148 50.46                             154     0.210   67  19 
 BRR  HZ EP   3   1148 50.46                             150    -0.3 2   80 267 
 BRR  HN ES   3   1149  8.05                             150     0.5 2   80 267 
 GRA  SZ EP       1148 51.10                             148    -0.210   85  14 
 GRA  SZ ES   2   1149  8.71                             148     0.2 5   85  14 
 GRA  SZ I        1149 10.08         4.1 0.32                            85  14 
                                                                                
