 2013  317 1201 23.0 L   6.767 -73.137146.7  RSN  6 0.4 1.7LRSN                1
 GAP=139        0.84       7.3     5.8  7.6  0.1792E+02 -0.8124E-01 -0.7562E+01E
 Epicentro: LOS SANTOS - SANTANDER                                             3
 ACTION:UPD 13-04-09 14:03 OP:ep   STATUS:               ID:20130317120123 L   I
 2013-03-17-1200-00M.COL___244                                                 6
 STAT SP IPHASW D HRMM SECON CODA AMPLIT PERI AZIMU VELO AIN AR TRES W  DIS CAZ7
 BAR2 SZ EP       12 1 42.15                             172   -0.5110 19.9 195 
 BAR2 SZ ES   1   12 1 57.74                             172   -0.26 7 19.9 195 
 BAR2 SZ I        12 1 59.07        15.6 0.20            169           19.9 195 
 BRR  HZ EP   1   12 1 44.14                             152   -0.24 7 73.8 301 
 BRR  HN ES   1   12 2  1.66                             152    0.60 7 73.8 301 
 PAM  SN EP   1   12 1 45.37                             150   -0.06 7 79.7  37 
 RUS  HZ EP       12 1 47.07                             145    0.5110 96.9 176 
 RUS  HE ES   2   12 2  5.30                             145    0.36 5 96.9 176 
 RUS  HZ I        12 2  7.13         2.9 0.26            146           96.9 176 
 PTB  HZ EP   1   12 1 49.86                             132   -0.19 7  148 260 
 PTB  HN ES   1   12 2 10.63                             132   -0.53 7  148 260 
 PTB  HZ I        12 2 13.41         7.8 0.10            131            148 260 
 ZAR  HZ EP       12 1 55.87                             122    0.15 8  206 293 
 ZAR  HN ES   1   12 2 21.56                             122    0.30 6  206 293 
 ZAR  HZ I        12 2 29.30         5.3 0.12            122            206 293 
                                                                                
