 2012  217 1507 48.5 L   6.776 -73.163137.9  RSN 15 0.4 2.5LRSN                1
 GAP=135        0.84       3.5     4.0  5.0 -0.1257E+01  0.6363E+01  0.3668E+01E
 ACTION:UP  12-03-07 16:31 OP:epov STATUS:               ID:20120217150748 L   I
 2012-02-17-1500-00M.COL___188                                                 6
 STAT SP IPHASW D HRMM SECON CODA AMPLIT PERI AZIMU VELO AIN AR TRES W  DIS CAZ7
 BAR2 SZ IP       15 8  7.05                             171   -0.0410 20.4 186 
 BAR2 SZ ES   1   15 8 21.56                             171   -0.06 7 20.4 186 
 BAR2 SZ I        15 8 23.38        78.8 0.03                          20.4 186 
 GIR2 SZ EP       15 8  7.09                             166   -0.1810 33.7 354 
 GIR2 SZ ES   1   15 8 21.87                             166   -0.07 7 33.7 354 
 BRR  HZ IP     C 15 8  8.90                             151    0.1510 70.9 301 
 BRR  HN ES   1   15 8 25.59                             151    1.02 7 70.9 301 
 BRR  HZ I        15 8 27.41        60.9 0.13                          70.9 301 
 PAM  SZ EP       15 8  9.99                             148   -0.0710 80.7  39 
 PAM  SE ES   1   15 8 26.61                             148   -0.29 7 80.7  39 
 RUS  HZ EP       15 8 11.09                             143   -0.1710 98.1 175 
 RUS  HE ES   1   15 8 29.26                             143    0.22 7 98.1 175 
 RUS  HZ I        15 8 30.59        17.6 0.39                          98.1 175 
 PTB  HZ EP   1   15 8 13.60                             131   -0.98 7  145 260 
 PTB  HN ES   1   15 8 34.19                             131   -0.76 7  145 260 
 OCA  SZ EP   1   15 8 17.21                             127    0.80 7  163 354 
 ZAR  HZ EP   1   15 8 19.83                             121   -0.50 6  203 293 
 ZAR  HN ES   1   15 8 44.93                             121   -0.26 6  203 293 
 ZAR  HZ I        15 8 50.93        44.7 0.28                           203 293 
 NOR  SZ EP       15 8 23.56                             117    0.15 8  232 235 
 NOR  SN ES   1   15 8 51.12                             117    0.45 6  232 235 
 CHI  HZ EP   1   15 8 25.46                             116    0.06 6  246 195 
 CHI  HE ES   1   15 8 54.31                             116    0.10 6  246 195 
 HEL  HZ EP   1   15 8 27.97                             113   -0.04 6  270 256 
 HEL  HZ I        15 9  6.18        17.0 0.69                           270 256 
 GUY  SZ EP   1   15 8 31.85                             111    0.22 5  300 235 
 GUY  SZ I        15 9 13.52        21.8 0.31                           300 235 
 DBB  SZ EP   1   15 8 35.86                             108    0.42 5  338 275 
 TOL  SZ EP   1   15 8 36.69                             108    0.65 5  340 225 
 PRA  HZ EP   1   15 8 41.39                             105    0.05 4  389 210 
                                                                                
