 2010  817 1217 30.5 L   6.767 -73.060148.1  RSN  4 0.1 1.5LRSN                1
 GAP=174        0.31       2.6     4.5  3.4  0.6407E+01 -0.8516E+01 -0.4599E+01E
 Epicentro: LOS SANTOS - SANTANDER                                             3
 ACTION:UP  10-09-07 10:55 OP:vdl  STATUS:               ID:20100817121730 L   I
 2010-08-17-1213-10S.COL___111                                                 6
 STAT SP IPHASW D HRMM SECON CODA AMPLIT PERI AZIMU VELO SNR AR TRES W  DIS CAZ7
 BAR2 SZ EP       1217 50.27                             170    -0.110   24 215 
 BAR2 SZ ES       1218  5.90                             170     0.010   24 215 
 BAR2 SZ I        1218  6.43         8.5 0.37                            24 215 
 BRR  HZ EP       1217 52.51                             150     0.110   81 298 
 BRR  HZ I        1217 55.07        11.7 0.26                            81 298 
 BRR  HN ES       1218  9.57                             150     0.010   81 298 
 RUS  HZ EP   1   1217 54.13                             145     0.0 7   97 181 
 RUS  HN ES   1   1218 12.72                             145     0.1 7   97 181 
 RUS  HZ I        1218 14.57         2.2 0.42                            97 181 
 GUE  SZ EP       1217 55.57                             139     0.010  119   7 
                                                                                
