 2016  617 1107 22.4 L   6.838 -73.113148.0  RSN 13 0.4 2.2LRSN                1
 GAP=139        0.89       3.2     3.8  6.2 -0.2545E+01  0.1332E+01  0.9472E+01E
 Epicentro: LOS SANTOS - SANTANDER                                             3
 ACTION:UPD 16-07-21 22:19 OP:rebc STATUS:               ID:20160617110722 L   I
 OLDACT:UP  16-06-17 20:49 OP:dani STATUS:               ID:20160617105746d    3
 OLDACT:DUP 16-06-17 20:40 OP:dani STATUS:               ID:20160617105746d    3
 2016-06-17-1057-45M.COL___337                                                 6
 STAT SP IPHASW D HRMM SECON CODA AMPLIT PERI AZIMU VELO AIN AR TRES W  DIS CAZ7
 BAR2 EZ IP     C 11 7 42.30                             169   -0.1410 28.3 196 
 BAR2 EZ I        11 7 58.47        46.2 0.18                          28.3 196 
 PAM  EZ EP       11 7 45.07                             153    0.5110 71.8  40 
 PAM  EN ES       11 8  2.05                             153    0.2210 71.8  40 
 PAM  EZ I        11 8  2.55        15.2 0.40                          71.8  40 
 BRR  HZ EP       11 7 44.16                             153    0.2710 72.5 294 
 BRR  HN ES       11 8  0.87                             153    0.2410 72.5 294 
 BRR  HZ I        11 8  4.88        40.1 0.38                          72.5 294 
 RUS  HZ EP       11 7 46.36                             143   -0.3310  105 178 
 RUS  HE ES   4   11 8  4.64                             143   -0.98 0  105 178 
 RUS  HZ I        11 8  5.70         9.3 0.16                           105 178 
 PTB  HZ EP       11 7 49.36                             132   -0.61 9  152 258 
 PTB  HN ES       11 8 11.48                             132    0.02 9  152 258 
 PTB  HZ I        11 8 17.30        14.4 0.34                           152 258 
 OCA  HZ EP       11 7 50.03                             131   -0.53 9  157 352 
 OCA  HN ES       11 8 12.06                             131   -0.45 9  157 352 
 OCA  HZ I        11 8 15.41        42.4 0.54                           157 352 
 SPBC HZ EP       11 7 51.39                             129   -0.23 9  169 219 
 ZAR  HZ EP       11 7 55.62                             123    0.42 8  206 291 
 ZAR  HN ES       11 8 21.01                             123    0.25 8  206 291 
 ZAR  HZ I        11 8 26.78        18.5 0.16                           206 291 
 NOR  HZ EP       11 7 59.11                             118    0.25 8  240 234 
 NOR  HN ES       11 8 26.74                             118   -0.54 8  240 234 
 NOR  HZ I        11 8 30.19        15.7 0.56                           240 234 
 CHI  HZ EP       11 8  0.88                             117    0.08 8  254 196 
 CHI  HE ES       11 8 30.57                             117   -0.16 8  254 196 
 CHI  HZ I        11 8 37.41         6.3 0.62                           254 196 
 URE  HZ EP   4   11 8  1.45                             114   -2.35 0  286 291 
 URE  HE ES   4   11 8 34.30                             114   -1.78 0  286 291 
 URE  HZ I        11 8 34.92        10.0 0.14                           286 291 
 GUY2CHZ EP       11 8  7.23                             112    0.48 7  307 235 
 GUY2CHN ES   4   11 8 43.52                             112    2.21 0  307 235 
 GUY2CHZ I        11 8 47.73         6.3 0.36                           307 235 
 PRA  HZ EP       11 8 16.67                             107    0.01 6  397 210 
 PRA  HE ES       11 8 59.80                             107    0.83 6  397 210 
 PRA  HZ I        11 9  4.27         9.2 0.28                           397 210 
                                                                                
