 2014  817 1513 47.2 L   6.815 -73.077153.5  RSN  4 0.3 1.7LRSN                1
 GAP=232        0.78       3.8     8.8  6.2  0.1077E+01  0.2105E+01 -0.4198E+01E
 Epicentro: LOS SANTOS - SANTANDER                                             3
 ACTION:UPD 14-09-15 21:50 OP:nd   STATUS:               ID:20140817151347 L   I
 OLDACT:REG 14-08-17 20:33 OP:cam  STATUS:               ID:20140817151000     3
 2014-08-17-1510-00M.COL___285                                                 6
 STAT SP IPHASW D HRMM SECON CODA AMPLIT PERI AZIMU VELO AIN AR TRES W  DIS CAZ7
 BAR2 SZ EP       1514  8.06                             169    0.1910 27.3 205 
 BAR2 SZ ES       1514 23.66                             169   -0.3110 27.3 205 
 BAR2 SZ I        1514 25.71         5.5 0.30            167           27.3 205 
 BRR  HN ES       1514 27.46                             152    0.4910 77.3 295 
 SPBC HZ EP       1514 17.07                             130    0.16 9  169 221 
 SPBC HN ES       1514 39.78                             130   -0.28 9  169 221 
 SPBC HZ I        1514 43.96         4.9 0.26            129            169 221 
 SML  HZ EP       1514 24.51                             119    0.02 8  245 334 
 SML  HN ES       1514 53.11                             119   -0.45 8  245 334 
 SML  HZ I        1514 56.56         4.7 0.10            119            245 334 
                                                                                
