 2014  417 1941 45.2 L   6.802 -73.169145.1  RSN  8 0.6 1.8LRSN                1
 GAP=134        1.44       4.9     6.4  9.2 -0.9442E+01  0.1558E+02  0.4617E+00E
 Epicentro: LOS SANTOS - SANTANDER                                             3
 2014-04-17-1938-13M.COL___254                                                 6
 ACTION:UPD 14-05-13 23:09 OP:nd   STATUS:               ID:20140417194145 L   I
 OLDACT:REG 14-04-17 21:12 OP:stll STATUS:               ID:20140417193813     3
 STAT SP IPHASW D HRMM SECON CODA AMPLIT PERI AZIMU VELO AIN AR TRES W  DIS CAZ7
 BRR  HZ EP       1942  6.54                             153    0.3710 68.8 299 
 BRR  HN ES       1942 23.07                             153    0.5610 68.8 299 
 BRR  HZ I        1942 29.77         8.7 0.44            152           68.8 299 
 PAM  SZ EP       1942  7.64                             150    0.1810 78.8  41 
 PAM  SN ES       1942 24.71                             150   -0.0910 78.8  41 
 PAM  HZ I        1942 26.55         5.6 0.40            155           78.8  41 
 RUS  HZ EP       1942  8.38                             144   -0.5710  101 175 
 RUS  HN ES       1942 27.47                             144    0.0210  101 175 
 RUS  HZ I        1942 28.14         5.0 0.34            149            101 175 
 PTB  HZ EP       1942 11.32                             132   -0.60 9  145 259 
 PTB  HN ES       1942 32.59                             132   -0.15 9  145 259 
 PTB  HZ I        1942 38.12         8.3 0.28            134            145 259 
 SPBC HZ EP       1942 12.79                             129   -0.76 9  162 218 
 SPBC HN ES       1942 36.04                             129    0.41 9  162 218 
 SPBC HZ I        1942 39.29         9.4 0.36            132            162 218 
 NOR  HZ EP       1942 21.24                             119    0.52 8  233 234 
 NOR  HN ES       1942 48.35                             119   -0.04 8  233 234 
 NOR  HZ I        1942 53.75         5.2 0.30            121            233 234 
 SML  HZ EP       1942 21.97                             118    0.29 8  242 336 
 SML  HN ES       1942 49.32                             118   -0.79 8  242 336 
 SML  HZ I        1942 53.26         9.4 0.08            120            242 336 
 GUY2CHZ EP       1942 30.42                             112    1.83 7  299 234 
 GUY2CHN ES       1943  1.49                             112   -0.92 7  299 234 
 GUY2CHZ I        1943 17.67         4.2 2.82                           299 234 
                                                                                
