 2016  217 1420  6.0 L   6.778 -73.138147.1  RSN  9 0.4 1.8LRSN                1
 GAP=139        0.97       3.4     4.2  5.6 -0.1761E+01  0.7840E+01  0.3731E+01E
 Epicentro: LOS SANTOS - SANTANDER                                             3
 ACTION:UPD 16-03-04 21:26 OP:rebc STATUS:               ID:20160217142006 L   I
 OLDACT:REG 16-02-17 21:03 OP:ak   STATUS:               ID:20160217141748     3
 2016-02-17-1417-48M.COL___321                                                 6
 STAT SP IPHASW D HRMM SECON CODA AMPLIT PERI AZIMU VELO AIN AR TRES W  DIS CAZ7
 BAR2 EZ EP       1420 25.74                             171   -0.0510 21.1 193 
 BAR2 EZ ES       1420 41.11                             171   -0.0710 21.1 193 
 BAR2 EZ I        1420 42.42        17.8 0.08            169           21.1 193 
 BRR  HZ EP       1420 26.90                             152   -0.5410 73.1 300 
 BRR  HN ES       1420 44.69                             152    0.5610 73.1 300 
 BRR  HZ I        1420 45.24        11.6 0.17            151           73.1 300 
 PAM  EZ EP       1420 28.73                             151    0.2510 78.8  38 
 PAM  EN ES       1420 46.03                             151    0.0510 78.8  38 
 PAM  EZ I        1420 47.96         9.2 0.48            155           78.8  38 
 RUS  HZ EP       1420 29.14                             145   -0.6010 98.1 176 
 RUS  HN ES       1420 48.11                             145   -0.1210 98.1 176 
 RUS  HZ I        1420 49.90         6.6 0.22            145           98.1 176 
 SPBC HZ EP       1420 34.86                             130    0.35 9  162 220 
 SPBC HE ES       1420 57.03                             130    0.31 9  162 220 
 SPBC HZ I        1421  1.68        12.3 0.23            130            162 220 
 ZAR  HZ EP       1420 39.37                             122    0.62 8  206 293 
 ZAR  HN ES       1421  3.46                             122   -0.80 8  206 293 
 ZAR  HZ I        1421  9.13         7.6 0.15            123            206 293 
 NOR  HZ EP       1420 41.73                             119   -0.04 8  234 235 
 NOR  HE ES       1421  9.36                             119   -0.28 8  234 235 
 NOR  HZ I        1421 15.92         3.2 0.45            119            234 235 
 CHI  HZ EP       1420 43.36                             118   -0.22 8  247 196 
 CHI  HN ES       1421 13.20                             118    0.34 8  247 196 
 CHI  HZ I        1421 17.13         4.1 0.44            119            247 196 
 GUY2CHZ EP       1420 50.11                             113    0.48 7  300 235 
 GUY2CHN ES       1421 23.60                             113   -0.03 7  300 235 
 GUY2CHZ I        1421 32.08         4.1 0.34                           300 235 
                                                                                
