 2013 1217 1940 37.7 L   6.768 -73.162139.0  RSN  6 0.5 2.0LRSN                1
 GAP=136        1.19       5.9     5.4  8.7  0.6894E+00  0.8562E+01  0.1125E+01E
 Epicentro: LOS SANTOS - SANTANDER                                             3
 ACTION:UPD 14-01-13 10:18 OP:ep   STATUS:               ID:20131217194037 L   I
 OLDACT:REG 13-12-17 16:55 OP:jn   STATUS:               ID:20131217194000     3
 2013-12-17-1940-00M.COL___285                                                 6
 STAT SP IPHASW D HRMM SECON CODA AMPLIT PERI AZIMU VELO AIN AR TRES W  DIS CAZ7
 BAR2 SZ EP       1940 55.79                             171   -0.7010 19.6 187 
 BAR2 SZ ES       1941 10.96                             171   -0.1510 19.6 187 
 BAR2 SZ I        1941 12.84        29.8 0.20            172           19.6 187 
 BRR  HZ EP       1940 58.50                             151    0.3210 71.4 302 
 BRR  HN ES       1941 14.62                             151    0.5010 71.4 302 
 BRR  HZ I        1941 19.06        17.6 0.20            150           71.4 302 
 PAM  SZ EP       1940 59.54                             148    0.0510 81.2  39 
 PAM  SN ES       1941 16.18                             148   -0.2610 81.2  39 
 PAM  SZ I        1941 18.38        19.2 0.38            152           81.2  39 
 RUS  HZ EP       1941  0.61                             143    0.0210 97.2 175 
 RUS  HN ES       1941 19.01                             143    0.6010 97.2 175 
 PTB  HZ EP       1941  4.16                             131    0.21 9  145 260 
 PTB  HN ES       1941 23.48                             131   -0.91 9  145 260 
 PTB  HZ I        1941 29.63         8.1 0.18            132            145 260 
 ZAR  HN ES   1   1941 35.22                             121    0.55 6  204 293 
                                                                                
