 2017  117 1801 25.6 L   6.793 -73.106143.1  RSN  9 0.3 1.7LRSN                1
 GAP=142        0.73       2.9     3.2  4.2 -0.5600E+00  0.2500E+01  0.3305E+01E
 Epicentro: LOS SANTOS - SANTANDER                                             3
 ACTION:UPD 17-05-22 16:00 OP:jn   STATUS:               ID:20170117180125 L   I
 OLDACT:UP  17-01-18 00:19 OP:cog  STATUS:               ID:20170117175739     3
 OLDACT:REG 17-01-17 21:11 OP:cog  STATUS:               ID:20170117175739     3
 2017-01-17-1758-00M.COL___338                                                 6
 STAT SP IPHASW D HRMM SECON CODA AMPLIT PERI AZIMU VELO AIN AR TRES W  DIS CAZ7
 BAR2 EZ EP       18 1 44.69                             170   -0.2510 23.7 201 
 BAR2 HE ES       18 1 59.85                             170   -0.1710 23.7 201 
 BAR2 EZ I        18 2  0.92        19.0 0.16            168           23.7 201 
 PAM  EZ EP       18 1 47.68                             151    0.2510 75.3  37 
 PAM  EE ES       18 2  4.33                             151   -0.1210 75.3  37 
 PAM  EZ I        18 2  5.26         7.0 0.32            156           75.3  37 
 BRR  HZ EP       18 1 46.87                             151    0.1310 75.5 297 
 BRR  HE ES       18 2  3.70                             151    0.5010 75.5 297 
 BRR  HZ I        18 2 12.61        15.4 0.32            150           75.5 297 
 RUS  HZ EP       18 1 48.64                             143   -0.4010 99.6 179 
 RUS  HN ES       18 2  7.38                             143    0.0710 99.6 179 
 RUS  HZ I        18 2 10.45         3.2 0.44            145           99.6 179 
 PTB  HZ EP   9   18 1 51.51                             130   -1.25 0  152 259 
 PTB  HN ES       18 2 12.53                             131   -0.15 9  152 259 
 PTB  HZ I        18 2 14.79         9.1 0.16            131            152 259 
 ZAR  HN ES       18 2 23.50                             121   -0.38 8  208 292 
 NOR  HZ EP       18 2  1.39                             117   -0.15 8  238 235 
 NOR  HE ES       18 2 29.26                             117   -0.29 8  238 235 
 NOR  HZ I        18 2 35.15         4.5 0.04            119            238 235 
 CHI  HZ EP       18 2  3.15                             116   -0.07 8  249 196 
 CHI  HN ES       18 2 32.98                             116    0.43 8  249 196 
 CHI  HZ I        18 2 37.88         2.7 0.24            118            249 196 
 GUY2CHZ EP       18 2 10.10                             111    0.64 7  304 235 
 GUY2CHN ES   3   18 2 43.71                             111    0.05 2  304 235 
 GUY2CHZ  IAML    18 2 51.31         4.1 0.40                           304 235 
                                                                                
