 2015  817 1119 15.8 L   6.814 -73.124147.2  RSN  7 0.4 1.6LRSN                1
 GAP=185        0.87       3.9     6.4  7.4  0.3129E+01  0.6857E+01 -0.9546E+01E
 Epicentro: LOS SANTOS - SANTANDER                                             3
 ACTION:UPD 15-09-15 23:02 OP:cam  STATUS:               ID:20150817111915 L   I
 OLDACT:REG 15-08-17 21:03 OP:spq  STATUS:               ID:20150817111748     3
 2015-08-17-1117-48M.COL___307                                                 6
 STAT SP IPHASW D HRMM SECON CODA AMPLIT PERI AZIMU VELO AIN AR TRES W  DIS CAZ7
 BAR2 EZ EP       1119 35.81                             170    0.1210 25.4 195 
 BAR2 EZ ES   1   1119 50.88                             170   -0.29 7 25.4 195 
 BAR2 EZ I        1119 53.23         6.8 0.22            174           25.4 195 
 BRR  HZ EP     D 1119 37.59                             152    0.3610 72.6 297 
 BRR  HN ES       1119 54.53                             152    0.6310 72.6 297 
 BRR  HZ I        1119 55.57         9.6 0.54            150           72.6 297 
 RUS  HE ES   1   1119 58.26                             144   -0.29 7  102 177 
 RUS  HZ I        1119 59.48         2.8 0.24            149            102 177 
 OCA  HN ES   1   1120  5.60                             130   -0.63 7  159 352 
 OCA  HZ I        1120 12.22         8.0 0.27            129            159 352 
 SPBC HN ES       1120  6.93                             129   -0.30 9  166 219 
 SPBC HZ I        1120  9.60         3.8 0.23            132            166 219 
 ZAR  HZ EP       1119 48.38                             123   -0.17 8  206 291 
 ZAR  HE ES       1120 13.82                             123   -0.24 8  206 291 
 ZAR  HZ I        1120 19.14         5.8 0.40            123            206 291 
 SML  HZ EP       1119 52.87                             118    0.36 8  243 335 
 SML  HN ES   1   1120 20.59                             118   -0.51 6  243 335 
 SML  HZ I        1120 32.56         4.8 0.10            118            243 335 
                                                                                
