 2017  717 1133 51.8 L   6.770 -73.147139.7  RSN  5 0.3 1.2LRSN                1
 GAP=235        0.78       5.8     5.5  5.7  0.1994E+02  0.4211E+01 -0.2896E+01E
 Epicentro: LOS SANTOS - SANTANDER                                             3
 ACTION:UPD 17-08-30 15:34 OP:rebc STATUS:               ID:20170717113351 L   I
 OLDACT:DUP 17-07-17 22:56 OP:lv   STATUS:               ID:20170717112748d    3
 2017-07-17-1128-00M.COL___377                                                 6
 STAT SP IPHASW D HRMM SECON CODA AMPLIT PERI AZIMU VELO AIN AR TRES W  DIS CAZ7
 BAR2 EZ EP       1134 10.55                             171   -0.1310 20.0 191 
 BAR2 EZ ES       1134 25.25                             171   -0.1210 20.0 191 
 BRR  HZ EP       1134 12.35                             151   -0.0810 72.8 301 
 BRR  HN ES       1134 28.87                             151    0.3810 72.8 301 
 RUS  HZ EP       1134 15.28                             143    0.5210 97.3 176 
 RUS  HN ES       1134 32.26                             143   -0.3710 97.3 176 
 RUS  HZ I        1134 34.35         2.0 0.23            141           97.3 176 
 PTB  HZ EP       1134 18.17                             131   -0.09 9  147 260 
 PTB  HN ES       1134 39.14                             131    0.28 9  147 260 
 PTB  HZ I        1134 41.59         2.3 0.07            129            147 260 
 ZAR  HZ EP       1134 23.94                             121   -0.08 8  205 293 
 ZAR  HE ES       1134 48.69                             121   -0.44 8  205 293 
                                                                                
