 2011 1117 1523 57.7 L   6.761 -73.120145.7  RSN  5 0.2 1.8LRSN                1
 GAP=142        0.44       3.0     3.2  4.2  0.2255E+01  0.3222E+01 -0.6525E+00E
 Epicentro: LOS SANTOS - SANTANDER                                             3
 ACTION:UPD 12-07-13 16:10 OP:ep   STATUS:               ID:20111117152357 L   I
 2011-11-17-1521-54S.COL___179                                                 6
 STAT SP IPHASW D HRMM SECON CODA AMPLIT PERI AZIMU VELO AIN AR TRES W  DIS CAZ7
 BAR2 SZ EP   1   1524 17.37                             172    0.09 7 19.9 200 
 BAR2 SZ ES   1   1524 32.29                             172   -0.24 7 19.9 200 
 BAR2 SZ I        1524 33.46        15.0 0.39                          19.9 200 
 BRR  HZ EP   1   1524 19.32                             151    0.19 7 75.8 300 
 BRR  HZ I        1524 19.78        33.0 0.10                          75.8 300 
 BRR  HN ES   1   1524 36.16                             151    0.33 7 75.8 300 
 PAM  SZ EP   1   1524 20.19                             150    0.16 7 79.0  36 
 PAM  SZ I        1524 20.62         9.4 0.19                          79.0  36 
 PAM  SN ES   1   1524 37.23                             150   -0.20 7 79.0  36 
 RUS  HZ EP   1   1524 21.12                             145   -0.03 7 96.1 178 
 RUS  HN ES   1   1524 39.45                             145    0.03 7 96.1 178 
 RUS  HZ I        1524 40.83         5.2 0.26                          96.1 178 
 ZAR  HZ EP   1   1524 30.30                             122   -0.31 6  208 293 
 ZAR  HN ES   1   1524 56.12                             122   -0.14 6  208 293 
                                                                                
