 2013  617 1548 17.3 L   6.822 -73.135144.3  RSN 16 0.5 2.6LRSN                1
 GAP=112        0.98       2.7     3.4  5.0  0.5341E+00  0.4388E+01  0.4865E-01E
 Epicentro: LOS SANTOS - SANTANDER                                             3
 ACTION:UPD 14-01-08 09:55 OP:ep   STATUS:               ID:20130617154817 L   I
 OLDACT:REG 13-06-17 18:20 OP:cam  STATUS:               ID:20130617154820     3
 2013-06-17-1548-20M.COL___223                                                 6
 STAT SP IPHASW D HRMM SECON CODA AMPLIT PERI AZIMU VELO AIN AR TRES W  DIS CAZ7
 BAR2 SZ IP     C 1548 36.76                             169   -0.0210 26.0 192 
 BAR2 SZ ES       1548 51.83                             169   -0.1710 26.0 192 
 BAR2 SZ I        1548 52.64       104.2 0.16            168           26.0 192 
 GIR2 SZ EP     C 1548 36.82                             168    0.1110 29.1 347 
 GIR2 SZ ES   1   1548 51.94                             168    0.07 7 29.1 347 
 BRR  HZ IP     D 1548 38.60                             152    0.3510 71.1 296 
 BRR  HN ES       1548 55.33                             152    0.7110 71.1 296 
 BRR  HZ I        1548 58.60        66.3 0.26            148           71.1 296 
 RUS  HZ EP       1548 40.82                             143   -0.2310  103 177 
 RUS  HN ES       1548 59.30                             143   -0.3010  103 177 
 RUS  HZ I        1549  1.01        81.1 0.40            143            103 177 
 PTB  HZ EP       1548 43.87                             131   -0.40 9  149 258 
 PTB  HN ES   4   1549  4.10                             131   -1.23 0  149 258 
 PTB  HZ I        1549  7.33        66.4 0.40            129            149 258 
 TAM  HZ EP   1   1548 45.22                             130    0.44 7  155 106 
 TAM  HZ I        1548 45.40       124.5 0.38            132            155 106 
 TAM  HE ES       1549  6.37                             130    0.13 9  155 106 
 OCA  HZ EP   1   1548 45.01                             130   -0.24 7  158 353 
 OCA  HN ES       1549  6.52                             130   -0.55 9  158 353 
 OCA  HZ I        1549  9.98        45.7 0.36            129            158 353 
 ZAR  HZ EP   1   1548 51.17                             122    1.53 6  204 291 
 ZAR  HE ES   1   1549 15.45                             122    0.56 6  204 291 
 ZAR  HZ I        1549 21.27        52.4 0.32            120            204 291 
 NOR  HZ EP       1548 53.32                             118    0.15 8  237 234 
 NOR  HN ES       1549 20.74                             118   -0.43 8  237 234 
 NOR  HZ I        1549 24.63        23.5 0.18            117            237 234 
 SML  HZ EP       1548 53.01                             117   -0.61 8  242 335 
 SML  HE ES   1   1549 21.98                             117   -0.00 6  242 335 
 SML  HZ I        1549 25.05        51.9 0.10            116            242 335 
 CHI  HZ EP   1   1548 55.53                             117    0.35 6  251 195 
 CHI  HN ES       1549 24.45                             117   -0.30 8  251 195 
 CHI  HZ I        1549 27.84        18.3 0.22            116            251 195 
 HEL  HZ EP   2   1548 58.92                             114    1.32 4  274 255 
 HEL  HN ES   1   1549 29.19                             114    0.13 6  274 255 
 HEL  HZ I        1549 35.99        20.9 0.46            113            274 255 
 RREF HZ EP   4   1549  5.97                             110    2.34 0  324 229 
 RREF HN ES   4   1549 41.12                             110    1.32 0  324 229 
 RREF HZ I        1549 49.13        21.5 0.22            110            324 229 
 DBB  SZ EP   1   1549  4.89                             109    0.09 5  341 274 
 DBB  SZ ES   1   1549 40.57                             109   -1.31 5  341 274 
 COD  HZ EP   1   1549  4.94                             109   -0.37 5  346 354 
 COD  HE ES   1   1549 42.65                             109   -0.14 5  346 354 
 COD  HZ I        1549 51.25         4.7 0.38            108            346 354 
 PRA  HZ EP   1   1549 11.03                             106   -0.02 4  395 210 
 PRA  HN ES   1   1549 53.39                             106    0.38 4  395 210 
 PRA  HZ I        1549 59.24        15.1 0.26            106            395 210 
                                                                                
