 2016  917 1556 40.0 L   6.776 -73.164142.0  RSN  8 0.4 2.1LRSN                1
 GAP=135        1.03       3.8     4.4  7.0 -0.4492E+00  0.6181E+01  0.3474E+01E
 Epicentro: LOS SANTOS - SANTANDER                                             3
 ACTION:UPD 17-08-17 21:13 OP:lp   STATUS:               ID:20160917155640 L   I
 OLDACT:DUP 16-09-17 22:43 OP:dnl  STATUS:               ID:20160917154743d    3
 2016-09-17-1548-00M.COL___354                                                 6
 STAT SP IPHASW D HRMM SECON CODA AMPLIT PERI AZIMU VELO AIN AR TRES W  DIS CAZ7
 BAR2 EZ EP       1556 59.02                             171   -0.0610 20.4 186 
 BAR2 EZ ES       1557 13.41                             171   -0.5910 20.4 186 
 BAR2 EZ I        1557 15.25        56.5 0.32            170           20.4 186 
 BRR  HZ EP       1557  0.79                             152    0.1110 70.8 301 
 BRR  HN ES       1557 17.88                             152    1.0410 70.8 301 
 BRR  HZ I        1557 18.30        19.5 0.30            150           70.8 301 
 PAM  EZ EP       1557  1.85                             149   -0.1410 80.7  39 
 PAM  EN ES       1557 19.03                             149   -0.1310 80.7  39 
 PAM  EZ I        1557 21.50        25.5 0.64            152           80.7  39 
 RUS  HZ EP       1557  3.32                             144    0.1610 98.1 175 
 RUS  HE ES       1557 21.51                             144    0.2510 98.1 175 
 RUS  HN ES       1557 21.57                                           98.1 175 
 RUS  HZ I        1557 22.64        15.2 0.50            144           98.1 175 
 PTB  HZ EP       1557  5.95                             132   -0.45 9  145 260 
 PTB  HN ES       1557 26.51                             132   -0.50 9  145 260 
 PTB  HZ I        1557 32.28        18.3 0.32            131            145 260 
 SPBC HZ EP   2   1557  8.28                             129    0.43 5  160 219 
 SPBC HN ES       1557 29.84                             129    0.23 9  160 219 
 SPBC HZ I        1557 32.48        20.6 0.24            128            160 219 
 ZAR  HZ EP   2   1557 13.00                             122    0.92 4  203 293 
 ZAR  HE ES       1557 36.80                             122   -0.32 9  203 293 
 ZAR  HZ I        1557 43.64        18.5 0.30            121            203 293 
 CHI  HZ EP   2   1557 17.35                             117    0.23 4  246 195 
 CHI  HN ES       1557 46.01                             117   -0.08 8  246 195 
 CHI  HZ I        1557 51.87         5.4 0.30            117            246 195 
                                                                                
