 2011 1017 1913 44.0 L   7.621 -73.236112.0  RSN  5 0.3 1.6LRSN                1
 GAP=212        0.44      13.6     5.4  9.6 -0.1942E+02  0.2182E+02 -0.7162E+02E
 Epicentro: EL PLAYON - SANTANDER                                              3
 ACTION:UPD 12-07-13 16:04 OP:ep   STATUS:               ID:20111017191344 L   I
 2011-10-17-1900-00M.COL___171                                                 6
 STAT SP IPHASW D HRMM SECON CODA AMPLIT PERI AZIMU VELO AIN AR TRES W  DIS CAZ7
 GIR2 SZ EP   3   1914  0.80                             150   -0.31 2 60.1 176 
 GIR2 SZ ES   3   1914 14.03                             150   -0.41 2 60.1 176 
 PAM  SZ EP   2   1914  1.82                             147   -0.22 5 66.9 118 
 PAM  SN ES   2   1914 16.34                             147    0.25 5 66.9 118 
 BRR  HZ EP   2   1914  1.58                             143   -0.50 5 77.4 223 
 BRR  HN ES   2   1914 16.25                             143    0.08 5 77.4 223 
 BRR  HZ I        1914 17.78        14.1 0.77                          77.4 223 
 BAR2 SZ EP   2   1914  5.75                             131    0.29 5  114 177 
 BAR2 SZ I        1914 10.56         7.6 0.61                           114 177 
 ZAR  HZ EP   2   1914 12.18                             117    0.36 4  180 266 
 ZAR  HZ I        1914 32.82         2.7 0.19                           180 266 
                                                                                
