 2011  317 1628 49.2 L   6.805 -73.157142.8  RSN  7 0.4 2.0LRSN                1
 GAP=157        0.82       5.1     8.8  7.0 -0.2385E+02  0.1675E+02 -0.3526E+01E
 Epicentro: LOS SANTOS - SANTANDER                                             3
 ACTION:UP  11-06-16 14:34 OP:jfem STATUS:               ID:20110317162849 L   I
 2011-03-17-1625-09S.COL___138                                                 6
 STAT SP IPHASW D HRMM SECON CODA AMPLIT PERI AZIMU VELO SNR AR TRES W  DIS CAZ7
 BTL  SZ EP   1   1629  8.68                             173     0.3 7   18 316 
 BTL  SZ I        1629  9.56                                             18 316 
 BTL  SZ ES   1   1629 22.92                             173    -0.4 7   18 316 
 BAR2 SZ EP   1   1629  8.57                             170     0.1 7   24 187 
 BAR2 SZ ES   1   1629 23.30                             170    -0.2 7   24 187 
 BAR2 SZ I        1629 26.26        23.7 0.28                            24 187 
 GIR2 SZ EP       1629  8.68                             167     0.210   31 352 
 GIR2 SZ ES   2   1629 24.70                             167     1.2 5   31 352 
 RUS  HZ EP   1   1629 12.52                             143    -0.2 7  101 175 
 RUS  HN ES   1   1629 30.93                             143    -0.1 7  101 175 
 RUS  HZ I        1629 32.43        12.4 0.24                           101 175 
 GRA  SZ EP   1   1629 14.35                             136     0.2 7  126  18 
 GRA  SZ I        1629 15.50        18.4 0.31                           126  18 
 GRA  SZ ES   1   1629 32.94                             136    -0.7 7  126  18 
 OCA  SZ EP   3   1629 16.38                             129    -0.8 2  160 354 
 NOR  SZ EP   1   1629 24.64                             118     0.0 6  234 234 
 NOR  SN ES   1   1629 52.30                             118    -0.1 6  234 234 
                                                                                
