 2015  617 1208 25.4 L   6.802 -73.138143.5  RSN 15 0.5 2.5LRSN                1
 GAP=120        1.03       2.6     3.6  5.0 -0.1390E+01  0.5057E+01  0.2040E+01E
 Epicentro: LOS SANTOS - SANTANDER                                             3
 ACTION:UPD 15-09-10 22:13 OP:cam  STATUS:               ID:20150617120825 L   I
 OLDACT:REG 15-06-17 21:16 OP:stll STATUS:               ID:20150617115749     3
 2015-06-17-1157-49M.COL___318                                                 6
 STAT SP IPHASW D HRMM SECON CODA AMPLIT PERI AZIMU VELO AIN AR TRES W  DIS CAZ7
 BAR2 EZ EP       12 8 44.79                             170    0.0310 23.7 192 
 BAR2 EZ ES       12 8 59.74                             170   -0.1210 23.7 192 
 BAR2 EZ I        12 9  0.80        86.8 0.34            168           23.7 192 
 BRR  HZ EP       12 8 46.66                             152    0.3310 71.8 298 
 BRR  HZ I        12 8 47.03        72.3 0.20            150           71.8 298 
 BRR  HN ES       12 9  3.10                             152    0.4410 71.8 298 
 PAM  SZ EP       12 8 47.49                             151    0.1610 76.7  39 
 PAM  SN ES       12 9  4.61                             151    0.1810 76.7  39 
 PAM  SZ I        12 9  7.14        78.7 0.66            155           76.7  39 
 RUS  HZ EP       12 8 48.87                             143   -0.0710  101 177 
 RUS  HN ES       12 9  7.28                             143   -0.0210  101 177 
 RUS  HZ I        12 9  8.30        21.3 0.26            143            101 177 
 OCA  HN ES       12 9 15.08                             129   -0.37 9  160 353 
 ZAR  HZ EP       12 8 57.94                             122    0.18 9  205 292 
 ZAR  HN ES       12 9 23.16                             122    0.16 9  205 292 
 ZAR  HZ I        12 9 29.58        45.2 0.32            122            205 292 
 NOR  HZ EP       12 9  1.37                             118    0.29 8  235 235 
 NOR  HN ES       12 9 28.84                             118   -0.07 8  235 235 
 NOR  HZ I        12 9 33.90        19.0 0.50            118            235 235 
 SML  HZ EP       12 9  0.95                             117   -0.96 8  244 335 
 SML  HN ES       12 9 30.15                             117   -0.24 8  244 335 
 SML  HZ I        12 9 33.92        41.6 0.10            118            244 335 
 CHI  HZ EP       12 9  3.17                             117    0.15 8  249 195 
 CHI  HN ES       12 9 31.76                             117   -0.60 8  249 195 
 CHI  HZ I        12 9 41.92         8.7 0.62            117            249 195 
 HEL  HZ EP       12 9  6.46                             114    0.87 8  273 256 
 HEL  HN ES       12 9 36.02                             114   -0.91 8  273 256 
 HEL  HZ I        12 9 45.67        12.6 0.24            114            273 256 
 SOCV BZ EP       12 9  7.70                             112   -0.55 7  300  57 
 SOCV BN ES   4   12 9 38.85                             112   -2.83 0  300  57 
 GUY2CHZ EP       12 9  9.67                             112    0.68 7  302 235 
 GUY2CHN ES       12 9 42.73                             112   -0.26 7  302 235 
 GUY2CHZ I        12 9 51.25        12.1 0.36                           302 235 
 TOL  SZ EP       12 9 14.97                             109    1.33 7  344 225 
 TOL  SN ES       12 9 50.71                             109   -0.57 7  344 225 
 TOL  SZ I        12 9 57.88         8.1 0.62            109            344 225 
 MON  HZ EP   9   12 9 12.54                             108   -1.83 0  354 308 
 MON  HE ES       12 9 50.56                                   -0.17 6  354 308 
 MON  HZ I        12 9 51.71         9.1 0.18            109            354 308 
 PRA  HZ EP       12 9 18.77                             106   -0.14 6  393 210 
 PRA  HN ES       1210  0.18                             106   -0.47 6  393 210 
 PRA  HZ I        1210  7.72         8.6 0.46            106            393 210 
                                                                                
