 2015  517 1241 33.5 L   6.139 -73.768100.5  RSN  8 0.3 1.9LRSN                1
 GAP=102        0.86       2.8     3.0  6.7 -0.3500E+01  0.1079E+02 -0.4380E+01E
 Epicentro: LANDAZURI - SANTANDER                                              3
 ACTION:UPD 15-09-10 22:04 OP:cam  STATUS:               ID:20150517124133 L   I
 OLDACT:REG 15-05-17 20:34 OP:drio STATUS:               ID:20150517123748     3
 2015-05-17-1237-48M.COL___283                                                 6
 STAT SP IPHASW D HRMM SECON CODA AMPLIT PERI AZIMU VELO AIN AR TRES W  DIS CAZ7
 SPBC HZ EP       1241 49.54                             145   -0.0710 63.5 212 
 SPBC HN ES       1242  2.07                             145   -0.0810 63.5 212 
 SPBC HZ I        1242  3.24        27.7 0.30            148           63.5 212 
 RUS  HZ EP       1241 51.44                             138   -0.0210 80.5 110 
 RUS  HE ES       1242  5.32                             138   -0.1110 80.5 110 
 RUS  HZ I        1242  6.53        11.5 0.28            144           80.5 110 
 BAR2 EZ EP       1241 51.14                             138   -0.0810 81.9  52 
 BAR2 EZ ES       1242  5.27                             138    0.2710 81.9  52 
 BAR2 EZ I        1242  6.45        16.1 0.50            141           81.9  52 
 BRR  HZ EP       1241 52.83                             129   -0.3210  107   3 
 BRR  HN ES       1242  8.84                             129    0.4010  107   3 
 NOR  HZ EP       1241 56.17                             121   -0.08 9  138 243 
 NOR  HN ES       1242 13.30                             121   -0.67 9  138 243 
 NOR  HZ I        1242 17.34        25.9 0.18            124            138 243 
 ZAR  HZ EP       1242  1.78                             112   -0.38 9  192 321 
 ZAR  HE ES       1242 24.39                             112   -0.09 9  192 321 
 ZAR  HZ I        1242 28.50        11.9 0.50            114            192 321 
 GUY2CHZ EP       1242  4.58                             111    0.50 9  204 240 
 GUY2CHE ES       1242 28.63                             111    0.73 9  204 240 
 GUY2CHZ I        1242 33.91         5.9 0.58                           204 240 
 RREF HE ES       1242 32.23                             108    0.21 8  222 232 
                                                                                
