 2011 1217 1512 10.3 L   6.799 -73.112141.2  RSN 15 0.3 2.7LRSN                1
 GAP=128        0.48       2.4     3.6  4.0 -0.3585E+01  0.2642E+01  0.1228E+01E
 Epicentro: LOS SANTOS - SANTANDER                                             3
 ACTION:UPD 12-07-13 16:16 OP:ep   STATUS:               ID:20111217151210 L   I
 2011-12-17-1510-00M.COL___186                                                 6
 STAT SP IPHASW D HRMM SECON CODA AMPLIT PERI AZIMU VELO AIN AR TRES W  DIS CAZ7
 BAR2 SZ IP       1512 29.33                             170   -0.0810 24.1 199 
 BAR2 SZ ES   2   1512 43.73                             170   -0.57 5 24.1 199 
 BAR2 SZ I        1512 45.36       126.0 0.57                          24.1 199 
 GIR2 SZ EP       1512 29.34                             166   -0.1310 32.3 344 
 GIR2 SZ ES   2   1512 44.46                             166    0.05 5 32.3 344 
 BRR  HZ IP     C 1512 31.14                             151   -0.0310 74.6 297 
 BRR  HZ I        1512 33.20       183.8 0.13                          74.6 297 
 BRR  HE ES   2   1512 47.84                             151    0.41 5 74.6 297 
 PAM  SZ EP       1512 32.09                             151    0.1810 75.2  37 
 PAM  SN ES   2   1512 48.67                             151   -0.09 5 75.2  37 
 RUS  HZ EP   1   1512 33.50                             143   -0.09 7  100 178 
 RUS  HE ES   2   1512 52.12                             143    0.37 5  100 178 
 RUS  HZ I        1512 53.59        47.0 0.26                           100 178 
 BRI  SZ EP   2   1512 34.02                             141    0.33 5  107  19 
 BRI  SZ ES   2   1512 52.59                             141    0.68 5  107  19 
 OCA  SZ EP   1   1512 38.08                             128   -0.25 7  161 352 
 OCA  SZ ES   2   1512 59.59                             128   -0.60 5  161 352 
 OCA  SZ I        1513  2.76        65.0 0.33                           161 352 
 NOR  SZ EP   2   1512 45.56                             117   -0.54 4  238 235 
 NOR  SN ES   2   1513 13.36                             117   -0.65 4  238 235 
 CHI  HZ EP   2   1512 47.90                             116    0.04 4  249 196 
 CHI  HN ES   2   1513 17.18                             116    0.05 4  249 196 
 CHI  HZ I        1513 24.58        11.8 0.58                           249 196 
 ROSC BZ EP   2   1512 48.49                             115    0.10 4  255 212 
 ROSC BZ I        1513 25.51        42.4 0.44                           255 212 
 HEL  HZ EP   2   1512 51.24                             113    0.54 4  276 256 
 HEL  HE ES   2   1513 22.50                             113    0.31 4  276 256 
 HEL  HZ I        1513 28.39        20.2 0.26                           276 256 
 RREF HZ EP   2   1512 57.34                             110    0.77 3  324 230 
 RREF HN ES   2   1513 33.01                             110    0.35 3  324 230 
 RREF HZ I        1513 40.21        21.6 0.29                           324 230 
 COD  HZ EP   2   1512 58.84                             108    0.26 3  349 354 
 COD  HZ I        1513 37.83        24.3 0.73                           349 354 
 SDV  BZ EP   2   1512 59.42                             107   -0.45 3  358  50 
 SDV  BZ I        1513 41.58        12.3 0.65                           358  50 
 PRA  HZ EP   2   1513  4.08                             106    0.20 3  394 210 
 PRA  HN ES   2   1513 45.41                             106   -0.25 3  394 210 
                                                                                
