 2013  617 1536  8.0 L   6.828 -73.168142.0  RSN  5 0.3 1.6LRSN                1
 GAP=199        0.70       3.9     5.2  6.6  0.6674E+01  0.1161E+01 -0.1243E+02E
 Epicentro: LOS SANTOS - SANTANDER                                             3
 ACTION:UPD 14-01-08 09:55 OP:ep   STATUS:               ID:20130617153608 L   I
 OLDACT:REG 13-06-17 14:29 OP:cam  STATUS:               ID:20130617152959     3
 2013-06-17-1529-59M.COL___259                                                 6
 STAT SP IPHASW D HRMM SECON CODA AMPLIT PERI AZIMU VELO AIN AR TRES W  DIS CAZ7
 BAR2 SZ EP   1   1536 26.93                             169   -0.29 7 26.1 183 
 BAR2 SZ ES       1536 42.36                             169    0.1410 26.1 183 
 BAR2 SZ I        1536 44.76         8.6 0.33            169           26.1 183 
 BRR  HZ EP       1536 28.78                             153    0.2610 67.6 297 
 RUS  HZ EP       1536 31.34                             142   -0.2610  104 175 
 RUS  HE ES       1536 50.08                             142    0.0510  104 175 
 RUS  HZ I        1536 50.40         2.9 0.56            146            104 175 
 PTB  HZ EP   1   1536 35.23                             132    0.75 7  146 257 
 PTB  HN ES       1536 54.87                             132   -0.28 9  146 257 
 PTB  HZ I        1537  0.69         6.3 0.44            132            146 257 
 SML  HZ EP       1536 43.82                             117   -0.16 8  240 336 
 SML  HN ES       1537 11.97                             117   -0.08 8  240 336 
 SML  HZ I        1537 15.44         7.6 0.26            119            240 336 
                                                                                
