 2012  417 1229  4.1 L   6.771 -73.118143.8  RSN  6 0.2 2.0LRSN                1
 GAP=164        0.46       3.8     3.0  4.0 -0.4767E+01  0.4049E+01 -0.2954E+01E
 Epicentro: LOS SANTOS - SANTANDER                                             3
 ACTION:UPD 12-07-05 11:53 OP:tino STATUS:               ID:20120417122904 L   I
 2012-04-17-1224-44M.COL___166                                                 6
 STAT SP IPHASW D HRMM SECON CODA AMPLIT PERI AZIMU VELO AIN AR TRES W  DIS CAZ7
 BAR2 SZ EP   1   1229 23.43                             171     0.0 7   21 200 
 BAR2 SZ ES   1   1229 38.67                             171     0.1 7   21 200 
 BAR2 SZ I        1229 40.12        16.3 0.44                            21 200 
 BRR  HZ EP       1229 25.19                             151    -0.110   75 300 
 BRR  HZ I        1229 25.61        19.9 0.28                            75 300 
 BRR  HN ES   1   1229 41.96                             151     0.1 7   75 300 
 PAM  SZ EP       1229 26.21                             150     0.110   78  36 
 PAM  SE ES       1229 43.28                             150    -0.110   78  36 
 OCA  SZ EP       1229 32.53                             128    -0.1 9  164 352 
 ZAR  HZ EP   1   1229 37.37                             121     0.5 6  208 293 
 ZAR  HN ES   1   1230  2.20                             121    -0.2 6  208 293 
 ZAR  HZ I        1230  8.47         8.6 0.29                           208 293 
 NOR  SE ES   1   1230  7.44                             118    -0.2 6  235 236 
                                                                                
