 2016 1117 1958 25.8 L   6.726 -73.125150.0  RSN  5 0.4 1.7LRSN                1
 GAP=169        1.00       8.6     4.9  8.0 -0.9404E+01  0.7760E+01  0.3093E+01E
 Epicentro: JORDAN - SANTANDER                                                 3
 ACTION:UPD 17-10-26 21:09 OP:lp   STATUS:               ID:20161117195825 L   I
 OLDACT:REG 16-11-17 20:56 OP:edw  STATUS:               ID:20161117194745     3
 2016-11-17-1948-00M.COL___343                                                 6
 STAT SP IPHASW D HRMM SECON CODA AMPLIT PERI AZIMU VELO AIN AR TRES W  DIS CAZ7
 BAR2 EZ EP       1958 45.87                             174    0.0610 16.1 203 
 BAR2 EZ ES       1959  1.68                             174    0.2510 16.1 203 
 BAR2 EZ I        1959  2.68        11.6 0.28            173           16.1 203 
 BRR  HZ EP       1958 47.84                             151    0.0910 77.4 303 
 BRR  HN ES       1959  5.43                             151    0.5510 77.4 303 
 PAM  EZ EP       1958 49.03                             150    0.2610 82.5  35 
 PAM  EE ES       1959  6.03                             150   -0.6510 82.5  35 
 PAM  EZ I        1959  8.45         6.2 0.42            151           82.5  35 
 PTB  HZ EP       1958 53.15                             133   -0.04 9  149 262 
 PTB  HN ES       1959 13.91                             133   -0.65 9  149 262 
 PTB  HZ I        1959 18.65         5.0 0.30            132            149 262 
 ZAR  HE ES       1959 25.08                             123    0.07 8  209 294 
 ZAR  HZ I        1959 30.57         4.6 0.28            122            209 294 
                                                                                
