 2013  917 1234 25.0 L   6.763 -73.163144.5  RSN  7 0.4 1.8LRSN                1
 GAP=136        1.01       4.6     4.6  6.9 -0.1630E+01  0.5857E+01  0.3237E+01E
 Epicentro: LOS SANTOS - SANTANDER                                             3
 ACTION:UPD 13-10-22 09:23 OP:ep   STATUS:               ID:20130917123425 L   I
 OLDACT:REG 13-09-17 14:28 OP:jn   STATUS:               ID:20130917122959     3
 2013-09-17-1229-59M.COL___269                                                 6
 STAT SP IPHASW D HRMM SECON CODA AMPLIT PERI AZIMU VELO AIN AR TRES W  DIS CAZ7
 BAR2 SZ EP     C 1234 44.40                             172   -0.0510 19.0 187 
 BAR2 SZ ES       1234 59.80                             172    0.2210 19.0 187 
 BAR2 SZ I        1235  0.40        15.2 0.18            172           19.0 187 
 BRR  HZ EP       1234 46.46                             152    0.3710 71.7 302 
 BRR  HN ES       1235  3.03                             152    0.5310 71.7 302 
 PAM  SZ EP       1234 47.40                             149    0.0010 81.8  39 
 PAM  SN ES       1235  4.34                             149   -0.4910 81.8  39 
 PAM  SZ I        1235  6.38         9.6 0.44            151           81.8  39 
 RUS  HZ EP       1234 48.37                             145   -0.0210 96.6 175 
 RUS  HN ES       1235  6.63                             145    0.0310 96.6 175 
 RUS  HZ I        1235  7.59         5.4 0.24            146           96.6 175 
 PTB  HZ EP       1234 51.28                             132   -0.40 9  145 260 
 PTB  HN ES       1235 11.53                             132   -0.92 9  145 260 
 PTB  HZ I        1235 15.25        11.9 0.12            132            145 260 
 SPBC HZ EP       1234 53.45                             130    0.42 9  159 219 
 SPBC HN ES   1   1235 14.94                             130    0.08 7  159 219 
 SPBC HZ I        1235 17.73         6.1 0.26            130            159 219 
 ZAR  HN ES   1   1235 23.02                             122    0.39 6  204 293 
 ZAR  HZ I        1235 28.39         6.3 0.26            122            204 293 
                                                                                
