 2016  317 1245 49.4 L   6.802 -73.150146.0  RSN  9 0.3 2.3LRSN                1
 GAP=136        0.75       2.8     3.1  4.6 -0.1460E+01  0.5219E+01  0.1072E+01E
 Epicentro: LOS SANTOS - SANTANDER                                             3
 ACTION:UPD 16-05-13 21:25 OP:cam  STATUS:               ID:20160317124549 L   I
 OLDACT:REG 16-03-17 20:45 OP:cara STATUS:               ID:20160317123748     3
 2016-03-17-1237-48M.COL___297                                                 6
 STAT SP IPHASW D HRMM SECON CODA AMPLIT PERI AZIMU VELO AIN AR TRES W  DIS CAZ7
 BAR2 EZ IP     C 1246  9.06                             170   -0.0410 23.4 189 
 BAR2 EZ ES       1246 24.44                             170    0.0110 23.4 189 
 BAR2 EZ I        1246 26.07        37.2 0.28            167           23.4 189 
 PAM  EZ EP     C 1246 11.86                             151    0.1810 77.5  40 
 PAM  EZ I        1246 12.05        25.1 0.24            156           77.5  40 
 PAM  EN ES       1246 29.24                             151    0.2010 77.5  40 
 RUS  HZ EP       1246 12.92                             144   -0.3110  101 176 
 RUS  HN ES       1246 31.85                             144    0.0710  101 176 
 RUS  HZ I        1246 32.69        21.8 0.28            144            101 176 
 PTB  HZ EP       1246 15.77                             132   -0.62 9  147 259 
 PTB  HN ES       1246 37.11                             132   -0.30 9  147 259 
 PTB  HZ I        1246 41.65        33.3 0.30            131            147 259 
 SPBC HZ EP       1246 17.89                             129   -0.05 9  163 219 
 SPBC HN ES       1246 40.32                             129    0.15 9  163 219 
 SPBC HZ I        1246 44.70        34.1 0.20            129            163 219 
 ZAR  HZ EP       1246 21.76                             123   -0.09 9  204 292 
 ZAR  HN ES       1246 47.12                             123   -0.01 9  204 292 
 ZAR  HZ I        1246 53.94        45.3 0.38            123            204 292 
 NOR  HZ EP       1246 25.03                             119   -0.12 8  234 234 
 NOR  HE ES       1246 53.48                             119    0.47 8  234 234 
 NOR  HZ I        1247  0.89        19.5 0.28            119            234 234 
 CHI  HZ EP       1246 27.17                             117    0.02 8  249 195 
 CHI  HN ES       1246 56.20                             117   -0.37 8  249 195 
 CHI  HZ I        1247  5.78        10.0 0.70            118            249 195 
 GUY2CHZ EP       1246 33.90                             112    0.87 7  301 235 
 GUY2CHN ES       1247  7.43                             112    0.40 7  301 235 
 GUY2CHZ I        1247 17.62         9.4 0.66                           301 235 
                                                                                
