 2013  917 1121 31.8 L   6.741 -73.159150.6  RSN  8 0.3 1.8LRSN                1
 GAP=199        0.82       3.9     4.7  5.9  0.4915E+01  0.5021E+01  0.4297E+00E
 Epicentro: VILLANUEVA - SANTANDER                                             3
 ACTION:UPD 13-10-22 09:23 OP:ep   STATUS:               ID:20130917112131 L   I
 OLDACT:UP  13-09-17 14:58 OP:jn   STATUS:               ID:20130917111959     3
 OLDACT:REG 13-09-17 14:27 OP:jn   STATUS:               ID:20130917111959     3
 2013-09-17-1119-59M.COL___269                                                 6
 STAT SP IPHASW D HRMM SECON CODA AMPLIT PERI AZIMU VELO AIN AR TRES W  DIS CAZ7
 BAR2 SZ EP     C 1121 51.71                             173   -0.1410 16.7 189 
 BAR2 SZ ES       1122  7.60                             173    0.0710 16.7 189 
 BAR2 SZ I        1122  9.70         8.6 0.24            163           16.7 189 
 BRR  HZ EP       1121 53.69                             153    0.1510 73.3 304 
 BRR  HN ES       1122 10.88                             153    0.3410 73.3 304 
 BRR  HZ I        1122 12.07        11.0 0.18            147           73.3 304 
 RUS  HZ EP       1121 55.57                             147    0.0210 94.2 175 
 RUS  HN ES       1122 13.81                             147   -0.3010 94.2 175 
 RUS  HZ I        1122 15.33         3.1 0.36            143           94.2 175 
 PTB  HZ EP       1121 58.28                             134   -0.61 9  145 261 
 PTB  HN ES       1122 19.67                             134   -0.40 9  145 261 
 PTB  HZ I        1122 27.27        12.1 0.26            129            145 261 
 SPBC HZ EP       1122  0.71                             131    0.63 9  157 220 
 SPBC HN ES   1   1122 22.51                             131    0.33 7  157 220 
 SPBC HZ I        1122 30.76         7.0 0.24            127            157 220 
 ZAR  HN ES   1   1122 30.09                             123   -0.20 6  205 294 
 ZAR  HZ I        1122 36.68         8.6 0.34            121            205 294 
 NOR  HN ES   1   1122 35.25                             120    0.31 6  230 236 
 NOR  HZ I        1122 43.49         5.6 0.18            118            230 236 
 SML  HN ES   1   1122 38.54                             118    0.09 6  249 336 
                                                                                
