 2016  717 1049 36.1 L   6.839 -73.168151.7  RSN 12 0.5 1.6LRSN                1
 GAP=132        1.19       4.1     4.3  6.7 -0.3107E+01  0.9376E+01  0.1320E+01E
 Epicentro: ZAPATOCA - SANTANDER                                               3
 ACTION:UPD 17-03-29 16:52 OP:lp   STATUS:               ID:20160717104936 L   I
 OLDACT:UP  16-07-17 21:36 OP:dani STATUS:               ID:20160717104759     3
 OLDACT:UP  16-07-17 21:36 OP:dani STATUS:               ID:20160717104759     3
 OLDACT:UP  16-07-17 21:30 OP:dani STATUS:               ID:20160717104759     3
 OLDACT:UP  16-07-17 21:30 OP:dani STATUS:               ID:20160717104759     3
 OLDACT:UP  16-07-17 21:29 OP:dani STATUS:               ID:20160717104759     3
 OLDACT:REG 16-07-17 20:23 OP:dani STATUS:               ID:20160717104759     3
 2016-07-17-1047-59S.COL___308                                                 6
 STAT SP IPHASW D HRMM SECON CODA AMPLIT PERI AZIMU VELO AIN AR TRES W  DIS CAZ7
 BAR2 EZ EP       1049 56.37                             169   -0.1510 27.4 183 
 BAR2 EZ ES       1050 12.14                             169   -0.3210 27.4 183 
 BAR2 EZ I        1050 12.80         4.7 0.24            163           27.4 183 
 BRR  HZ EP       1049 58.35                             155    0.6910 67.0 296 
 BRR  HN ES       1050 14.84                             155    0.3510 67.0 296 
 BRR  HZ I        1050 20.33         4.0 0.12            152           67.0 296 
 PAM  EZ EP       1049 59.34                             152    0.4910 75.7  43 
 PAM  EE ES       1050 16.57                             152   -0.0310 75.7  43 
 PAM  EE ISg      1050 16.57                             152   -0.0310 75.7  43 
 PAM  EZ I        1050 18.34         6.7 0.50            151           75.7  43 
 RUS  HZ EP       1049 59.81                             144   -0.9410  105 175 
 RUS  HN ES       1050 20.01                             144    0.0210  105 175 
 RUS  HZ I        1050 20.92         4.3 0.28            136            105 175 
 PTB  HZ EP       1050  3.34                             134   -0.08 9  146 257 
 PTB  HN ES       1050 24.28                             134   -0.46 9  146 257 
 PTB  HZ I        1050 26.83         3.5 0.11            128            146 257 
 SPBC HZ EP       1050  5.58                             130    0.35 9  165 217 
 SPBC HN ES       1050 28.18                             130    0.22 9  165 217 
 SPBC HZ I        1050 34.80         5.4 0.26            123            165 217 
 ZAR  HN ES       1050 34.67                             124    0.82 9  200 291 
 ZAR  HZ I        1050 41.64         3.4 0.28            119            200 291 
 NOR  HE ES       1050 40.38                             120   -0.05 8  235 233 
 NOR  HZ I        1050 46.03         2.7 0.26            114            235 233 
 CHI  HZ EP       1050 15.07                             118    0.56 8  252 194 
 CHI  HZ I        1050 47.98         2.3 0.66                           252 194 
 HEL  HN ES       1050 47.26                             116   -0.72 8  271 255 
 GUY2CHZ EP   4   1050 23.00                             113    2.96 0  302 234 
 PRA  HZ EP   9   1050 32.37                             107    2.24 0  395 209 
 PRA  HE ES       1051 14.30                             106   -0.22 6  395 209 
 PRA  HZ I        1051 19.49         1.4 0.62                           395 209 
 SJC  HZ EP       1050 30.69                             107   -0.58 6  404 327 
 SJC  HE ES       1051 13.02                             107   -1.29 6  404 327 
 SJC  HZ I        1051 13.54         1.9 0.72                           404 327 
                                                                                
