 2013  617 1727  9.2 L   6.811 -73.151148.0  RSN  8 0.4 1.9LRSN                1
 GAP=200        0.88       3.4     4.7  5.7  0.3659E+01  0.5759E+01  0.4681E+00E
 Epicentro: LOS SANTOS - SANTANDER                                             3
 ACTION:UPD 14-01-08 09:55 OP:ep   STATUS:               ID:20130617172709 L   I
 OLDACT:REG 13-06-17 14:39 OP:cam  STATUS:               ID:20130617171959     3
 2013-06-17-1719-59M.COL___261                                                 6
 STAT SP IPHASW D HRMM SECON CODA AMPLIT PERI AZIMU VELO AIN AR TRES W  DIS CAZ7
 BAR2 SZ EP       1727 29.19                             170    0.0210 24.5 188 
 BAR2 SZ ES       1727 44.38                             170   -0.3310 24.5 188 
 BRR  HZ EP       1727 30.90                             153    0.3210 70.1 298 
 BRR  HE ES       1727 47.98                             153    0.7610 70.1 298 
 BRR  HZ I        1727 50.25        18.2 0.16            150           70.1 298 
 RUS  HZ EP       1727 33.22                             144   -0.0910  102 176 
 RUS  HN ES       1727 52.10                             144    0.0210  102 176 
 RUS  HZ I        1727 53.08         5.1 0.32            144            102 176 
 PTB  HZ EP       1727 35.92                             133   -0.45 9  147 258 
 PTB  HN ES       1727 56.98                             133   -0.55 9  147 258 
 PTB  HZ I        1727 58.70         9.7 0.18            131            147 258 
 ZAR  HN ES       1728  7.14                             123    0.06 9  203 292 
 NOR  HZ EP   1   1727 45.49                             119    0.35 6  235 234 
 NOR  HE ES       1728 13.41                             119    0.28 8  235 234 
 NOR  HZ I        1728 19.23         6.7 0.16            118            235 234 
 SML  HZ EP   1   1727 45.70                             118   -0.15 6  242 335 
 SML  HN ES       1728 14.02                             118   -0.39 8  242 335 
 SML  HZ I        1728 23.01        10.6 0.10            117            242 335 
 PRA  HZ EP   1   1728  3.69                             107    0.75 4  393 209 
 PRA  HN ES       1728 44.70                             107   -0.12 6  393 209 
 PRA  HZ I        1728 50.00         3.7 0.76            106            393 209 
                                                                                
