 2017  417 1352 27.0 L   6.799 -73.152142.5  RSN 11 0.4 2.3LRSN                1
 GAP=136        1.08       3.9     4.3  5.8 -0.2044E+01  0.5560E+01  0.4018E+01E
 Epicentro: LOS SANTOS - SANTANDER                                             3
 ACTION:UPD 17-05-30 21:13 OP:jn   STATUS:               ID:20170417135227 L   I
 OLDACT:UP  17-04-17 22:51 OP:cog  STATUS:               ID:20170417134750     3
 OLDACT:REG 17-04-17 20:10 OP:cog  STATUS:               ID:20170417134750     3
 2017-04-17-1348-00M.COL___362                                                 6
 STAT SP IPHASW D HRMM SECON CODA AMPLIT PERI AZIMU VELO AIN AR TRES W  DIS CAZ7
 BAR2 EZ EP       1352 46.04                             170   -0.2210 23.1 188 
 BAR2 EZ ES       1353  0.88                             170   -0.3810 23.1 188 
 BAR2 EZ I        1353  2.31        91.2 0.86            168           23.1 188 
 BRR  HZ EP       1352 47.93                             152    0.1410 70.6 299 
 BRR  HE ES       1353  4.87                             152    0.8910 70.6 299 
 BRR  HZ I        1353  8.59        35.4 0.12            152           70.6 299 
 PAM  EZ EP       1352 48.96                             151    0.0310 77.9  40 
 PAM  EE ES       1353  5.92                             151   -0.0910 77.9  40 
 PAM  EZ I        1353  8.24        52.3 0.74            155           77.9  40 
 RUS  HZ EP       1352 50.37                             143   -0.0810  101 176 
 RUS  HE ES       1353  9.11                             143    0.3810  101 176 
 RUS  HZ I        1353 10.17        22.3 0.22            144            101 176 
 PTB  HZ EP       1352 52.85                             132   -0.81 9  147 259 
 PTB  HN ES       1353 13.83                             132   -0.60 9  147 259 
 PTB  HZ I        1353 16.64        21.2 0.14            132            147 259 
 SPBC HZ EP       1352 55.32                             129    0.10 9  163 219 
 SPBC HN ES       1353 17.17                             129   -0.04 9  163 219 
 SPBC HZ I        1353 23.12        21.5 0.22            129            163 219 
 ZAR  HZ EP       1352 59.59                             122    0.40 9  203 292 
 ZAR  HE ES       1353 24.24                             122   -0.04 9  203 292 
 ZAR  HZ I        1353 30.50        24.7 0.28            123            203 292 
 NOR  HZ EP       1353  2.87                             118    0.38 8  234 234 
 NOR  HE ES       1353 30.13                             118   -0.03 8  234 234 
 NOR  HZ I        1353 32.03        10.2 0.24            119            234 234 
 CHI  HZ EP       1353  4.33                             117   -0.18 8  248 195 
 CHI  HN ES   3   1353 32.96                             117   -0.79 2  248 195 
 CHI  HZ I        1353 37.27         6.5 0.48            118            248 195 
 ROSC BZ EP   9   1353  6.81                             116    1.90 0  252 211 
 ROSC BN ES       1353 37.57                             116    1.20 8  252 211 
 ROSC BZ I        1353 42.77        15.8 0.55            117            252 211 
 HEL  HE ES   4   1353 36.37                             114   -1.79 0  271 256 
 PRA  HZ EP       1353 20.41                             106    0.03 6  392 209 
 PRA  HN ES       1354  2.43                             106    0.44 6  392 209 
                                                                                
