 2010  817 1841 30.2 L   6.778 -73.112143.6  RSN 22 0.5 4.0LRSN                1
 GAP=129        1.11       3.3     5.9  5.1 -0.8794E+01  0.4543E+01  0.2364E+01E
 Epicentro: LOS SANTOS - SANTANDER                                             3
 ACTION:UP  10-09-07 10:55 OP:vdl  STATUS:               ID:20100817184130 L   I
 2010-08-17-1840-46S.COL___111                                                 6
 STAT SP IPHASW D HRMM SECON CODA AMPLIT PERI AZIMU VELO SNR AR TRES W  DIS CAZ7
 CUC3 EZ EP       1841 53.93                                                    
 BAR2 SZ EP       1841 49.71                             171     0.110   22 201 
 BAR2 SZ ES       1842  4.65                             171     0.010   22 201 
 BAR2 SZ I        1842  6.51      3024.6 0.21                            22 201 
 GIR2 SZ IP       1841 49.79                             166     0.110   34 345 
 GIR2 SZ ES   2   1842  4.96                             166     0.0 5   34 345 
 BRR  HZ IP     C 1841 51.57                             151     0.210   76 299 
 BRR  HZ I        1841 51.94      1227.2 0.33                            76 299 
 BRR  HE ES       1842  7.74                             151    -0.210   76 299 
 BTN  SZ IP       1841 51.91                             148    -0.410   83   1 
 BTN  SZ ES   1   1842  9.18                             148    -0.3 7   83   1 
 RUS  HZ EP       1841 53.51                             144    -0.110   98 178 
 RUS  HN ES       1842 11.51                             144    -0.310   98 178 
 RUS  HZ I        1842 13.67       996.3 0.42                            98 178 
 BRI  SZ IP       1841 54.24                             140     0.310  109  19 
 BRI  SZ ES   2   1842 13.27                             140     0.8 5  109  19 
 GUE  SZ EP       1841 54.54                             138    -0.310  118  10 
 GRA  SZ IP       1841 56.50                             136     1.110  127  16 
 GRA  SZ ES   1   1842 14.97                             136     0.0 7  127  16 
 OCA  SZ EP       1841 57.99                             128    -0.6 9  163 352 
 OCA  SZ ES   1   1842 20.93                             128     0.1 7  163 352 
 OCA  SZ I        1842 26.96       767.6 0.16                           163 352 
 CHI  HZ EP   1   1842  7.34                             117    -0.3 6  247 196 
 CHI  HN ES   1   1842 36.49                             117    -0.4 6  247 196 
 CHI  HZ I        1842 45.31       354.4 0.48                           247 196 
 ROSC BZ EP       1842  9.17                             116     1.0 8  253 212 
 CVER SZ EP       1842 10.83                             114     0.4 8  271 203 
 CVER SZ I        1842 53.67       580.0 0.45                           271 203 
 HEL  HZ EP   1   1842 10.53                             114    -0.1 6  275 256 
 GUY  SZ EP   1   1842 14.66                             112     0.7 5  303 236 
 GUY  SN ES   2   1842 48.36                             112     0.3 4  303 236 
 GUY  SZ I        1842 54.84      1103.9 0.50                           303 236 
 RREF HZ EP       1842 16.80                             110     0.4 7  323 230 
 RREF HN ES   1   1842 52.15                             110    -0.3 5  323 230 
 RREF HZ I        1843  1.23       366.6 0.33                           323 230 
 DBB  SZ EP       1842 17.39                             109    -0.7 7  343 275 
 TOL  SZ EP   1   1842 18.48                             109     0.0 5  344 225 
 ANIL HZ EP   1   1842 20.86                             108     0.8 5  358 225 
 ANIL HN ES   1   1842 58.45                             108    -0.5 5  358 225 
 ANIL HZ I        1843  6.28       898.2 0.36                           358 225 
 SDV  BZ EP       1842 19.01                             108    -1.0 6  359  50 
 SDV  BZ I        1842 20.01       141.9 0.22                           359  50 
 PRA  HZ EP       1842 22.99                             106    -0.7 6  392 210 
 PRA  HE ES   1   1843  5.05                             106    -0.3 4  392 210 
 PRA  HZ I        1843 11.45       545.9 0.37                           392 210 
 PCON HZ EP   1   1842 50.61                              99     0.0 2  612 217 
                                                                                
