 2017  317 1922 49.6 L   6.778 -73.149150.3  RSN  8 0.4 1.7LRSN                1
 GAP=137        1.08       4.7     6.5  7.6 -0.9985E+01  0.5339E+01  0.1200E+02E
 Epicentro: LOS SANTOS - SANTANDER                                             3
 ACTION:UPD 17-05-25 18:41 OP:jn   STATUS:               ID:20170317192249 L   I
 OLDACT:UP  17-03-18 00:16 OP:edw  STATUS:               ID:20170317191746     3
 OLDACT:UP  17-03-18 00:15 OP:edw  STATUS:               ID:20170317191746     3
 OLDACT:UP  17-03-18 00:13 OP:edw  STATUS:               ID:20170317191746     3
 OLDACT:REG 17-03-17 21:36 OP:dnl  STATUS:               ID:20170317191746     3
 2017-03-17-1918-00M.COL___400                                                 6
 STAT SP IPHASW D HRMM SECON CODA AMPLIT PERI AZIMU VELO AIN AR TRES W  DIS CAZ7
 BAR2 EZ EP       1923  9.57                             172   -0.1910 20.9 190 
 BAR2 EZ ES       1923 24.79                             172   -0.6810 20.9 190 
 BAR2 EZ I        1923 25.73        23.3 0.24            170           20.9 190 
 BRR  HZ IP     D 1923 11.45                             153    0.1310 72.1 300 
 BRR  HN ES       1923 28.82                             153    0.5710 72.1 300 
 PAM  EZ IP     D 1923 12.49                             151    0.0310 79.5  39 
 PAM  EN ES       1923 29.87                             151   -0.3910 79.5  39 
 PAM  EZ I        1923 31.82         9.8 0.46            153           79.5  39 
 RUS  HZ EP       1923 13.70                             145    0.0410 98.2 176 
 RUS  HN ES       1923 33.02                             145    0.6110 98.2 176 
 RUS  HZ I        1923 33.32         5.6 0.34            146           98.2 176 
 ZAR  HZ EP   4   1923 25.38                             123    2.94 0  205 293 
 ZAR  HN ES   4   1923 45.83                             123   -2.20 0  205 293 
 ZAR  HZ I        1923 54.51         4.7 0.30            121            205 293 
 NOR  HZ EP   4   1923 23.59                             119   -1.86 0  233 235 
 NOR  HN ES       1923 53.05                             119   -0.34 8  233 235 
 NOR  HZ I        1923 58.08         2.2 0.16            118            233 235 
 CHI  HZ EP       1923 27.85                             118    0.53 8  246 195 
 CHI  HE ES       1923 56.86                             118    0.14 8  246 195 
 CHI  HZ I        1924  0.40         2.6 0.44            118            246 195 
 PRA  HZ EP   4   1923 39.00                             107   -4.05 0  390 210 
 PRA  HE ES       1924 23.82                             107   -0.89 6  390 210 
 PRA  HZ I        1924 28.44         2.5 0.56            107            390 210 
                                                                                
