 2014 1117 1727 19.8 L   6.769 -73.123148.9  RSN 20 0.5 2.5LRSN                1
 GAP=109        1.10       2.9     3.5  5.1 -0.2282E+01  0.3161E+01  0.3597E+01E
 Epicentro: LOS SANTOS - SANTANDER                                             3
 ACTION:UPD 14-12-19 15:43 OP:nd   STATUS:               ID:20141117172719 L   I
 OLDACT:REG 14-11-17 22:01 OP:fm   STATUS:               ID:20141117171751     3
 2014-11-17-1717-51M.COL___296                                                 6
 STAT SP IPHASW D HRMM SECON CODA AMPLIT PERI AZIMU VELO AIN AR TRES W  DIS CAZ7
 BAR2 SZ IP     D 1727 40.16                             172    0.4010 20.7 199 
 BAR2 SZ ES       1727 54.96                             172   -0.3710 20.7 199 
 BAR2 SZ I        1727 56.38       123.4 0.18            170           20.7 199 
 BRR  HZ IP     C 1727 42.06                             152    0.5510 75.1 300 
 BRR  HN ES       1727 59.15                             152    0.7110 75.1 300 
 BRR  HZ I        1728  2.06        58.8 0.28            148           75.1 300 
 PAM  SZ EP     C 1727 43.00                             151    0.5810 78.5  37 
 PAM  SN ES       1728  0.10                             151    0.0410 78.5  37 
 PAM  SZ I        1728  2.67        40.8 0.60            152           78.5  37 
 RUS  HZ EP       1727 43.98                             145    0.3610 97.0 177 
 RUS  HN ES       1728  2.53                             145    0.3410 97.0 177 
 RUS  HZ I        1728  3.62        44.6 0.22            145           97.0 177 
 PTB  HZ EP       1727 46.68                             132   -0.52 9  150 260 
 PTB  HN ES       1728  7.59                             132   -0.97 9  150 260 
 PTB  HZ I        1728 11.93        55.8 0.46            130            150 260 
 SPBC HZ EP       1727 48.97                             130    0.52 9  162 220 
 SPBC HN ES       1728 10.79                             130   -0.01 9  162 220 
 SPBC HZ I        1728 13.03        65.2 0.12            128            162 220 
 OCA  HZ EP       1727 48.00                             130   -0.70 9  164 352 
 OCA  HN ES       1728 10.87                             130   -0.38 9  164 352 
 OCA  HZ I        1728 15.19        43.3 0.36            128            164 352 
 NOR  HZ EP       1727 55.42                             119   -0.31 8  235 235 
 NOR  HN ES       1728 23.51                             119   -0.24 8  235 235 
 NOR  HZ I        1728 29.61        28.5 0.52            118            235 235 
 CHI  HZ EP       1727 57.92                             118    0.52 8  246 196 
 CHI  HN ES       1728 26.50                             118   -0.22 8  246 196 
 CHI  HZ I        1728 29.95        10.5 0.40            117            246 196 
 HEL  HZ EP       1728  0.25                             115   -0.11 8  274 257 
 HEL  HN ES       1728 31.81                             115   -0.18 8  274 257 
 HEL  HZ I        1728 39.01        25.7 0.30            114            274 257 
 PTGC HZ EP       1728  3.04                             113   -0.30 7  305 159 
 PTGC HN ES       1728 36.16                             113   -1.14 7  305 159 
 PTGC HZ I        1728 43.61        19.3 0.30            112            305 159 
 DBB  SZ EP       1728  7.83                             110    0.10 7  342 275 
 DBB  SZ ES   1   1728 45.02                             110   -0.09 5  342 275 
 TOL  SN ES       1728 46.34                             110    0.54 7  343 225 
 TOL  SZ I        1728 57.11        28.5 0.30            109            343 225 
 ANIL HN ES       1728 48.83                             109    0.29 6  357 225 
 ANIL HZ I        1728 59.68         3.2 0.24            108            357 225 
 MON  HZ EP   4   1728  7.30                             109   -2.10 0  358 309 
 MON  HN ES   4   1728 45.66                             109   -2.42 0  358 309 
 MON  HZ I        1729  2.53        13.6 0.34            108            358 309 
 SDV  BN ES   1   1728 48.23                             109   -0.91 5  361  50 
 SDV  BZ I        1728 51.86         4.8 0.25            109            361  50 
 PRA  HZ EP       1728 13.09                             107   -0.14 6  390 210 
 PRA  HN ES       1728 54.32                             107   -0.59 6  390 210 
 PRA  HZ I        1729  0.11         8.3 0.26            106            390 210 
 ORTC HZ EP       1728 14.25                             107    0.56 6  394 217 
 ORTC HN ES       1728 55.88                             107    0.16 6  394 217 
 ORTC HZ I        1729  2.55         7.9 0.20            106            394 217 
 PAL  HZ EP       1728 15.59                             106    0.47 6  406 240 
 PAL  HN ES       1728 57.95                             106   -0.32 6  406 240 
 PAL  HZ I        1729  4.43         7.4 0.52            106            406 240 
 SJC  HZ EP   4   1728 12.65                             106   -3.31 0  413 327 
 SJC  HN ES   4   1728 55.65                             106   -4.12 0  413 327 
 SJC  HZ I        1729  3.62         5.5 0.54            105            413 327 
                                                                                
