 2012 1017 1252 44.6 L   6.787 -73.168139.6  RSN  4 0.2 1.6LRSN                1
 GAP=134        0.50       4.3    11.0  6.7 -0.2755E+02  0.2294E+02 -0.5322E+01E
 Epicentro: LOS SANTOS - SANTANDER                                             3
 ACTION:UPD 12-11-22 17:04 OP:ep   STATUS:               ID:20121017125244 L   I
 2012-10-17-1250-00M.COL___231                                                 6
 STAT SP IPHASW D HRMM SECON CODA AMPLIT PERI AZIMU VELO AIN AR TRES W  DIS CAZ7
 BAR2 SZ ES   2   1253 18.55                             171    0.43 5 21.6 184 
 BRR  HZ EP   2   1253  4.74                             152   -0.23 5 69.8 301 
 BRR  HZ I        1253 22.77        13.9 0.27                          69.8 301 
 PAM  SZ EP       1253  6.53                             149    0.2310 80.1  40 
 PAM  SZ I        1253  6.80         4.9 0.29                          80.1  40 
 PAM  SN ES   1   1253 22.98                             149   -0.26 7 80.1  40 
 RUS  HZ EP       1253  7.56                             143   -0.0710 99.3 175 
 RUS  HE ES   1   1253 25.49                             143   -0.12 7 99.3 175 
 RUS  HE I        1253 27.36         6.4 0.19                          99.3 175 
                                                                                
