 2012  117 1111 43.3 L   6.381 -73.829 28.5  RSN  6 0.5 1.2LRSN                1
 GAP=141        1.11       5.8     3.5  9.4  0.4906E-01 -0.4410E+01  0.3522E+02E
 Epicentro: LANDAZURI - SANTANDER                                              3
 ACTION:DUP 12-02-03 08:18 OP:REBC STATUS:               ID:20120117111143 L   I
 2012-01-17-1110-00M.COL___188                                                 6
 STAT SP IPHASW D HRMM SECON CODA AMPLIT PERI AZIMU VELO SNR AR TRES W  DIS CAZ7
 PTB  HZ EP   1   1111 55.39                             102     0.1 7   72 284 
 PTB  HN ES   2   1112  4.95                             102     0.3 5   72 284 
 PTB  HZ I        1112  5.67         0.2 0.13                            72 284 
 BAR2 SZ EP   1   1111 55.85                             101    -0.2 7   75  72 
 BAR2 SZ ES   2   1112  5.04                             101    -1.0 5   75  72 
 BAR2 SZ I        1112  7.29         6.7 0.12                            75  72 
 BRR  HZ EP       1111 56.71                              99     0.010   81   9 
 BRR  HZ I        1111 56.90        63.9 0.12                            81   9 
 BRR  HN ES   1   1112  7.38                              99     0.3 7   81   9 
 RUS  HZ EP       1112  0.12                              61     0.610   99 123 
 RUS  HN ES   1   1112 12.03                              61     0.0 7   99 123 
 RUS  HZ I        1112 13.47        13.9 0.22                            99 123 
 PAM  SZ EP   1   1112  6.94                              61    -0.7 7  164  50 
 PAM  SN ES   2   1112 27.13                              61     0.6 5  164  50 
 PAM  SZ I        1112 28.86         5.3 0.21                           164  50 
 HEL  HN ES   1   1112 31.21                              61    -0.8 7  189 264 
                                                                                
