 2010 1117 1432  5.3 L   6.775 -73.095140.0  RSN 13 0.4 2.8LRSN                1
 GAP=165        1.00       3.7     5.9  7.6 -0.8068E+01  0.1510E+01  0.1454E+01E
 Epicentro: LOS SANTOS - SANTANDER                                             3
 ACTION:UP  10-12-17 16:53 OP:REBC STATUS:               ID:20101117143205 L   I
 2010-11-17-1429-20S.COL___127                                                 6
 STAT SP IPHASW D HRMM SECON CODA AMPLIT PERI AZIMU VELO SNR AR TRES W  DIS CAZ7
 BAR2 SZ IP       1432 24.31                             170     0.110   23 206 
 BAR2 SZ I        1432 24.65       157.1 0.70                            23 206 
 BAR2 SZ ES   2   1432 37.67                             170    -1.3 5   23 206 
 BRR  HZ EP       1432 26.24                             150     0.110   77 298 
 BRR  HN ES       1432 43.02                             150     0.510   77 298 
 BRR  HZ I        1432 44.37       210.5 0.12                            77 298 
 RUS  HZ EP       1432 28.28                             144     0.010   98 179 
 RUS  HN ES   1   1432 46.23                             144     0.1 7   98 179 
 RUS  HZ I        1432 48.02        72.6 0.55                            98 179 
 GUE  SZ EP       1432 29.58                             138     0.010  118   9 
 GRA  SZ EP       1432 30.41                             136     0.310  127  15 
 GRA  SZ ES   2   1432 49.73                             136     0.3 5  127  15 
 GRA  SZ I        1432 50.90       113.6 0.48                           127  15 
 OCA  SZ EP       1432 32.96                             128    -0.5 9  164 351 
 OCA  SZ ES   1   1432 54.85                             128    -0.6 7  164 351 
 OCA  SZ I        1432 58.09       136.7 0.04                           164 351 
 NOR  SZ EP   1   1432 40.81                             117    -0.2 6  238 236 
 NOR  SN ES   1   1433  8.11                             117    -0.8 6  238 236 
 CHI  HN ES   2   1433 11.76                             116     0.2 4  248 197 
 CHI  HZ I        1433 15.78        14.7 0.13                           248 197 
 ROSC BN ES   2   1433 13.63                             116     0.9 4  253 212 
 ROSC BZ I        1433 21.00        28.1 1.05                           253 212 
 HEL  HN ES   1   1433 17.45                             113     0.2 6  277 257 
 HEL  HZ I        1433 23.85        25.1 0.45                           277 257 
 RREF HN ES   2   1433 27.23                             110    -0.2 3  324 230 
 RREF HZ I        1433 33.08        16.1 0.71                           324 230 
 DBB  SZ EP   1   1432 53.46                             108     0.3 5  345 275 
 PRA  HN ES       1433 39.98                             106    -0.3 6  392 210 
 PRA  HZ I        1433 42.86        52.7 0.09                           392 210 
                                                                                
