 2016  117 1733 50.7 L   6.176 -73.672107.1  RSN 11 0.5 1.8LRSN                1
 GAP= 67        1.18       2.7     3.7  6.4 -0.1438E+01  0.6110E+01 -0.2562E+01E
 Epicentro: LA PAZ - SANTANDER                                                 3
 ACTION:UPD 16-03-09 23:26 OP:cam  STATUS:               ID:20160117173350 L   I
 OLDACT:UP  16-01-17 22:42 OP:drio STATUS:               ID:20160117172747     3
 OLDACT:REG 16-01-17 20:13 OP:drio STATUS:               ID:20160117172747     3
 2016-01-17-1727-47M.COL___325                                                 6
 STAT SP IPHASW D HRMM SECON CODA AMPLIT PERI AZIMU VELO AIN AR TRES W  DIS CAZ7
 BAR2 EZ EP       1734  8.49                             144    0.3210 71.1  50 
 BAR2 EZ ES       1734 22.06                             144    0.2810 71.1  50 
 BAR2 EZ I        1734 23.92        36.1 0.14            144           71.1  50 
 RUS  HZ EP       1734  8.60                             144   -0.0110 72.3 116 
 RUS  HN ES       1734 22.04                             144   -0.5410 72.3 116 
 SPBC HZ EP       1734  8.75                             143    0.6610 72.9 217 
 SPBC HN ES       1734 22.33                             143    0.6710 72.9 217 
 SPBC HZ I        1734 24.43        18.8 0.26            144           72.9 217 
 PTB  HZ EP       1734  9.15                             135   -0.6610 95.7 295 
 PTB  HE ES       1734 24.29                             135   -0.4310 95.7 295 
 PTB  HZ I        1734 27.65         7.9 0.22            134           95.7 295 
 NOR  HZ EP       1734 15.31                             121    0.30 9  149 243 
 NOR  HN ES       1734 33.30                             121   -0.66 9  149 243 
 NOR  HZ I        1734 36.30         6.7 0.18            122            149 243 
 CHI  HZ EP       1734 17.35                             117   -0.49 9  171 182 
 CHI  HN ES       1734 38.78                             117   -0.23 9  171 182 
 CHI  HZ I        1734 41.41         4.2 0.44            118            171 182 
 ZAR  HZ EP       1734 20.34                             113    0.28 9  196 318 
 ZAR  HN ES       1734 43.23                             113    0.28 9  196 318 
 ZAR  HZ I        1734 45.19         6.9 0.22            113            196 318 
 GUY2CHZ EP       1734 23.53                             111    0.72 8  215 241 
 GUY2CHN ES   4   1734 49.34                             111    1.49 0  215 241 
 GUY2CHZ I        1734 53.66         3.4 0.28                           215 241 
 OCA  HZ EP       1734 25.02                             109    0.74 8  231  10 
 OCA  HE ES       1734 50.13                             109   -0.33 8  231  10 
 OCA  HZ I        1735  0.69        10.7 0.20            109            231  10 
 SML  HZ EP       1734 30.67                             104   -0.68 7  294 351 
 SML  HE ES       1735  2.84                             104   -0.21 7  294 351 
 SML  HZ I        1735  7.05         4.1 0.10            104            294 351 
 PRA  HZ EP       1734 32.28                             103   -0.33 7  304 206 
 PRA  HN ES       1735  5.36                             103    0.07 7  304 206 
 PRA  HZ I        1735 11.01         4.1 0.26            104            304 206 
                                                                                
