 2015  817 1523 46.0 L   6.812 -73.093146.5  RSN  5 0.2 1.7LRSN                1
 GAP=205        0.56       5.3     7.5  6.1  0.3056E+02 -0.1171E+02 -0.1077E+02E
 Epicentro: LOS SANTOS - SANTANDER                                             3
 ACTION:UPD 15-09-15 23:02 OP:cam  STATUS:               ID:20150817152346 L   I
 OLDACT:REG 15-08-17 21:20 OP:spq  STATUS:               ID:20150817151748     3
 2015-08-17-1517-48M.COL___340                                                 6
 STAT SP IPHASW D HRMM SECON CODA AMPLIT PERI AZIMU VELO AIN AR TRES W  DIS CAZ7
 BAR2 EZ EP       1524  5.80                             169    0.0110 26.3 202 
 BAR2 EZ ES   1   1524 21.01                             169   -0.21 7 26.3 202 
 BAR2 EZ I        1524 22.37        11.4 0.16            173           26.3 202 
 BRR  HZ EP       1524  7.66                             151    0.1610 75.8 296 
 BRR  HN ES       1524 24.55                             151    0.2910 75.8 296 
 BRR  HZ I        1524 27.91        11.7 0.28            149           75.8 296 
 RUS  HZ EP   1   1524 10.10                             144    0.18 7  102 179 
 RUS  HN ES   1   1524 28.23                             144   -0.33 7  102 179 
 RUS  HZ I        1524 29.98         4.8 0.39            148            102 179 
 ZAR  HN ES   1   1524 44.50                             122   -0.25 6  209 291 
 ZAR  HZ I        1524 48.69         3.9 0.25            122            209 291 
 SML  HN ES   1   1524 51.12                             117   -0.40 6  245 334 
 SML  HZ I        1524 59.01         4.9 0.07            117            245 334 
                                                                                
