 2014  917 1001 14.0 L   6.804 -73.095145.6  RSN  7 0.4 1.4LRSN                1
 GAP=188        0.94       3.8     5.8  7.6  0.3587E+01  0.8815E+01 -0.3419E+01E
 Epicentro: LOS SANTOS - SANTANDER                                             3
 ACTION:UPD 14-10-03 23:05 OP:nd   STATUS:               ID:20140917100114 L   I
 OLDACT:REG 14-09-17 19:37 OP:spq  STATUS:               ID:20140917095818     3
 2014-09-17-0958-18M.COL___293                                                 6
 STAT SP IPHASW D HRMM SECON CODA AMPLIT PERI AZIMU VELO AIN AR TRES W  DIS CAZ7
 BAR2 SZ EP       10 1 33.82                             170    0.1610 25.3 202 
 BAR2 SZ ES   1   10 1 48.70                             170   -0.29 7 25.3 202 
 BAR2 SZ I        10 1 49.67         7.3 0.10            170           25.3 202 
 BRR  HZ EP       10 1 35.82                             151    0.4110 75.9 296 
 BRR  HE ES       10 1 52.66                             151    0.5510 75.9 296 
 BRR  HZ I        10 1 55.89         8.9 0.36            150           75.9 296 
 RUS  HZ EP   1   10 1 37.91                             144    0.15 7  101 179 
 RUS  HE ES       10 1 56.28                             144   -0.0010  101 179 
 RUS  HZ I        10 1 57.97         2.4 0.32            147            101 179 
 PTB  HZ EP       10 1 40.85                             131   -0.62 9  153 259 
 PTB  HE ES   1   10 2  2.53                             131   -0.36 7  153 259 
 PTB  HZ I        10 2  5.02         2.6 0.25            132            153 259 
 OCA  HN ES       10 2  3.82                             130   -0.61 9  161 351 
 OCA  HZ I        10 2  8.23         3.3 0.50            131            161 351 
 SPBC HN ES       10 2  5.12                             128   -0.25 9  167 220 
 SPBC HZ I        10 2  7.24         2.6 0.21            130            167 220 
 ZAR  HZ EP       10 1 47.37                             122    0.41 8  209 291 
 ZAR  HN ES       10 2 12.78                             122    0.12 8  209 291 
 ZAR  HZ I        10 2 17.67         2.0 0.26            123            209 291 
                                                                                
