 2010  917 1402 23.8 L   6.789 -73.117146.8  RSN  6 0.2 1.6LRSN                1
 GAP=162        0.43       3.3     7.2  6.1 -0.7299E+00 -0.1131E+02 -0.3259E+01E
 Epicentro: LOS SANTOS - SANTANDER                                             3
 ACTION:UP  11-02-18 11:03 OP:tino STATUS:               ID:20100917140223 L   I
 2010-09-17-1358-52S.COL___121                                                 6
 STAT SP IPHASW D HRMM SECON CODA AMPLIT PERI AZIMU VELO SNR AR TRES W  DIS CAZ7
 BTL  SZ EP   1   14 2 43.84                             171     0.3 7   22 311 
 BAR2 SZ EP   1   14 2 43.35                             171    -0.2 7   23 199 
 BAR2 SZ ES   2   14 2 58.76                             171    -0.2 5   23 199 
 BAR2 SZ I        14 3  1.61         7.1 0.64                            23 199 
 BRR  HZ EP   1   14 2 45.00                             152    -0.2 7   75 298 
 BRR  HE ES   2   14 3  2.17                             152     0.2 5   75 298 
 BRR  HZ I        14 3  7.78        15.1 0.46                            75 298 
 RUS  HZ EP   1   14 2 47.64                             144     0.1 7   99 178 
 RUS  HN ES   2   14 3  6.04                             144     0.0 5   99 178 
 RUS  HZ I        14 3  7.08         4.0 0.25                            99 178 
 GUE  SZ EP   1   14 2 48.63                             139     0.0 7  117  10 
 GRA  SZ EP   2   14 2 49.11                             137     0.0 5  126  16 
 GRA  SZ ES   2   14 3  8.90                             137     0.0 5  126  16 
 GRA  SZ I        14 3  9.98         4.6 0.27                           126  16 
                                                                                
