 2017  217 1221 41.7 L   6.810 -73.165143.6  RSN  7 0.5 1.7LRSN                1
 GAP=134        1.13       4.6     4.9  7.5  0.2093E+01  0.7070E+01  0.8529E+01E
 Epicentro: LOS SANTOS - SANTANDER                                             3
 ACTION:UPD 17-05-24 15:37 OP:jn   STATUS:               ID:20170217122141 L   I
 OLDACT:REG 17-02-17 20:28 OP:dani STATUS:               ID:20170217121749     3
 2017-02-17-1218-00M.COL___346                                                 6
 STAT SP IPHASW D HRMM SECON CODA AMPLIT PERI AZIMU VELO AIN AR TRES W  DIS CAZ7
 BAR2 EZ EP       1222  0.79                             170   -0.3310 24.1 184 
 BAR2 EZ ES       1222 16.06                             170   -0.1810 24.1 184 
 BAR2 EZ I        1222 16.85        18.3 0.30            168           24.1 184 
 BRR  HZ EP       1222  2.70                             153    0.1910 68.8 299 
 BRR  HN ES       1222 19.51                             153    0.7910 68.8 299 
 BRR  HZ I        1222 24.22        14.5 0.42            152           68.8 299 
 PAM  EZ EP       1222  3.87                             150    0.1110 78.0  41 
 PAM  EN ES       1222 20.92                             150   -0.0110 78.0  41 
 PAM  EZ I        1222 23.12         7.8 0.66            155           78.0  41 
 RUS  HZ EP       1222  5.32                             143   -0.0410  102 175 
 RUS  HN ES       1222 23.41                             143   -0.3810  102 175 
 RUS  HZ I        1222 24.76         6.0 0.25            144            102 175 
 PTB  HZ EP       1222  7.74                             132   -0.61 9  146 258 
 PTB  HN ES       1222 28.57                             132   -0.54 9  146 258 
 PTB  HZ I        1222 35.89         7.2 0.24            132            146 258 
 ZAR  HE ES       1222 38.86                             122    0.07 9  202 292 
 CHI  HZ EP       1222 19.66                             117    0.29 8  249 195 
 CHI  HN ES       1222 49.76                             117    1.04 8  249 195 
 CHI  HZ I        1222 56.40         2.9 0.38            118            249 195 
                                                                                
