 2012  717 1732 28.9 L   7.176 -73.068152.0  RSN  6 0.4 1.9LRSN                1
 GAP=146        0.91       7.4     6.3  9.2 -0.1115E+01  0.1188E+02  0.3970E+01E
 Epicentro: BUCARAMANGA - SANTANDER                                            3
 ACTION:UPD 12-08-14 11:45 OP:ep   STATUS:               ID:20120717173228 L   I
 2012-07-17-1728-51M.COL___211                                                 6
 STAT SP IPHASW D HRMM SECON CODA AMPLIT PERI AZIMU VELO AIN AR TRES W  DIS CAZ7
 PAM  SZ EP   1   1732 50.14                             163    -0.1 7   45  66 
 PAM  SE ES   1   1733  6.65                             163    -0.2 7   45  66 
 BAR2 SZ ES   1   1733  7.36                             155    -0.5 7   66 191 
 BRR  HZ EP   1   1732 50.84                             153     0.1 7   72 264 
 BRR  HE ES   1   1733  8.37                             153     0.6 7   72 264 
 BRR  HN I        1733 10.91        47.6 0.18            150             72 264 
 RUS  HZ EP   1   1732 56.99                             135     0.5 7  142 181 
 RUS  HN ES   1   1733 18.32                             135     0.3 7  142 181 
 RUS  HZ I        1733 20.29         2.4 0.42            136            142 181 
 PTB  HZ EP   1   1732 57.71                             129    -0.6 7  169 245 
 PTB  HN ES   1   1733 20.75                             129    -0.5 7  169 245 
 PTB  HZ I        1733 22.71         7.1 0.16            128            169 245 
 ZAR  HN ES   2   1733 27.14                             124     0.4 4  201 280 
 ZAR  HZ I        1733 33.61        10.0 0.21            123            201 280 
