 2012 1217 1545 53.1 L   6.838 -74.098 68.0  RSN  6 0.5 1.8LRSN                1
 GAP=169        1.00       6.5     4.4  9.5 -0.1759E+02 -0.4579E+01  0.1558E+02E
 Epicentro: PUERTO PARRA - SANTANDER                                           3
 ACTION:UPD 13-01-04 14:28 OP:ep   STATUS:               ID:20121217154553 L   I
 2012-12-17-1540-00M.COL___242                                                 6
 STAT SP IPHASW D HRMM SECON CODA AMPLIT PERI AZIMU VELO AIN AR TRES W  DIS CAZ7
 PTB  HZ EP   1   1546  4.34                             139   -0.66 7 51.5 230 
 PTB  HN ES   1   1546 13.95                             139   -0.31 7 51.5 230 
 PTB  HZ I        1546 14.81        17.5 0.13                          51.5 230 
 BRR  HZ EP   1   1546  4.75                             138   -0.27 7 52.0  55 
 BRR  HN ES   1   1546 14.81                             138    0.52 7 52.0  55 
 RUS  HN ES   1   1546 35.23                             107    0.57 7  153 133 
 PAM  SZ EP   1   1546 17.38                             106   -0.35 7  164  70 
 PAM  SN ES   1   1546 36.84                             106   -0.08 7  164  70 
 PAM  SZ I        1546 38.92        14.8 0.31                           164  70 
 NOR  HZ EP   1   1546 17.21                             106   -0.04 7  165 211 
 NOR  HN ES   1   1546 35.54                             106   -0.53 7  165 211 
 NOR  HZ I        1546 39.60        11.6 0.21                           165 211 
 HEL  HZ EP   1   1546 18.79                             105    0.08 7  174 246 
 HEL  HN ES   1   1546 39.88                             105    1.22 7  174 246 
 HEL  HZ I        1546 43.63         7.2 0.45                           174 246 
                                                                                
