 2017  217 1759  2.3 L   6.782 -73.137150.6  RSN  8 0.3 1.4LRSN                1
 GAP=139        0.90       4.1     3.8  6.0 -0.3026E+00  0.4450E+01  0.4778E+01E
 Epicentro: LOS SANTOS - SANTANDER                                             3
 ACTION:UPD 17-05-24 15:37 OP:jn   STATUS:               ID:20170217175902 L   I
 OLDACT:REG 17-02-17 21:26 OP:dani STATUS:               ID:20170217175747     3
 2017-02-17-1758-00M.COL___351                                                 6
 STAT SP IPHASW D HRMM SECON CODA AMPLIT PERI AZIMU VELO AIN AR TRES W  DIS CAZ7
 BAR2 EZ EP       1759 22.31                             171   -0.1610 21.6 194 
 BAR2 EZ ES       1759 38.30                             171    0.0910 21.6 194 
 BAR2 EZ I        1759 40.50         3.7 0.14            171           21.6 194 
 BRR  HZ EP       1759 24.25                             153    0.1810 73.0 300 
 BRR  HN ES       1759 41.70                             153    0.6510 73.0 300 
 PAM  EZ EP       1759 25.09                             151    0.0110 78.3  38 
 PAM  EE ES       1759 42.54                             151   -0.3110 78.3  38 
 PAM  EZ I        1759 44.55        10.1 0.58            155           78.3  38 
 RUS  HZ EP       1759 26.59                             145    0.2110 98.5 177 
 RUS  HN ES       1759 45.03                             145   -0.1410 98.5 177 
 RUS  HZ I        1759 47.64         2.3 0.26            147           98.5 177 
 PTB  HZ EP       1759 29.22                             133   -0.50 9  148 260 
 PTB  HN ES       1759 50.42                             133   -0.68 9  148 260 
 PTB  HZ I        1759 56.24         4.9 0.30            134            148 260 
 ZAR  HN ES       18 0  1.04                             123    0.12 8  206 293 
 NOR  HN ES       18 0  6.58                             120    0.24 8  234 235 
 CHI  HZ EP       1759 40.50                             118    0.41 8  247 196 
                                                                                
