 2014  817 1236 12.6 L   6.292 -73.576114.7  RSN  9 0.4 1.8LRSN                1
 GAP=165        0.96       3.4     4.5  6.6 -0.6386E+01  0.1390E+02 -0.4714E+01E
 Epicentro: SANTA HELENA DEL OPON - SANTANDER                                  3
 ACTION:UPD 14-09-15 21:50 OP:nd   STATUS:               ID:20140817123612 L   I
 OLDACT:UP  14-08-17 21:13 OP:cam  STATUS:               ID:20140817123000     3
 OLDACT:UP  14-08-17 21:13 OP:cam  STATUS:               ID:20140817123000     3
 OLDACT:REG 14-08-17 20:20 OP:cam  STATUS:               ID:20140817123000     3
 2014-08-17-1230-00M.COL___285                                                 6
 STAT SP IPHASW D HRMM SECON CODA AMPLIT PERI AZIMU VELO AIN AR TRES W  DIS CAZ7
 BAR2 SZ IP     C 1236 30.25                             153    0.4310 54.8  53 
 BAR2 SZ ES       1236 43.49                             153    0.2410 54.8  53 
 BAR2 SZ I        1236 44.93        49.8 0.34            154           54.8  53 
 SPBC HZ EP       1236 31.88                             139   -0.1110 89.5 218 
 SPBC HN ES       1236 46.64                             139   -0.4610 89.5 218 
 SPBC HZ I        1236 48.43        13.4 0.22            143           89.5 218 
 BRR  HZ EP     D 1236 31.85                             139   -0.1610 91.4 351 
 BRR  HN ES       1236 47.19                             139    0.0410 91.4 351 
 BRR  HN I        1236 58.79        12.2 0.18            137           91.4 351 
 PTB  HZ EP   4 D 1236 31.73                             136   -1.11 0  101 286 
 PTB  HZ I        1236 48.83        13.1 0.10            135            101 286 
 NOR  HZ EP       1236 39.15                             121    0.16 9  164 241 
 NOR  HE ES       1236 59.37                             121   -0.20 9  164 241 
 ZAR  HZ EP       1236 42.24                             116    0.09 9  194 313 
 ZAR  HN ES       1237  4.99                             116   -0.20 9  194 313 
 ZAR  HZ I        1237  8.01         7.1 0.24            117            194 313 
 HEL  HZ EP       1236 45.83                             113    0.76 8  216 267 
 HEL  HN ES       1237 11.11                             113    0.72 8  216 267 
 HEL  HZ I        1237 14.96         4.9 0.22            115            216 267 
 GUY2CHZ EP       1236 46.19                             112   -0.62 8  231 239 
 SML  HZ EP       1236 51.99                             107   -0.24 7  283 349 
 SML  HE ES       1237 22.49                             107   -0.64 7  283 349 
 SML  HZ I        1237 27.64         3.7 0.18            108            283 349 
                                                                                
