 2016 1117 1759 33.7 L   6.717 -73.116141.2  RSN  5 0.3 1.7LRSN                1
 GAP=174        0.81       6.7     3.9  6.3 -0.6103E+01  0.6011E+01  0.3427E+00E
 Epicentro: JORDAN - SANTANDER                                                 3
 ACTION:UPD 17-10-26 21:09 OP:lp   STATUS:               ID:20161117175933 L   I
 OLDACT:REG 16-11-17 20:43 OP:edw  STATUS:               ID:20161117175748     3
 2016-11-17-1758-00M.COL___343                                                 6
 STAT SP IPHASW D HRMM SECON CODA AMPLIT PERI AZIMU VELO AIN AR TRES W  DIS CAZ7
 BAR2 EZ EP       1759 53.12                             173    0.4210 15.6 208 
 BAR2 EZ ES       18 0  7.13                             173   -0.3510 15.6 208 
 BAR2 EZ I        18 0  8.80        11.4 0.18            174           15.6 208 
 BRR  HZ EP       1759 55.12                             149    0.2610 78.7 303 
 BRR  HN ES       18 0 11.87                             149    0.5410 78.7 303 
 BRR  HZ I        18 0 13.67        16.6 0.34            147           78.7 303 
 PAM  EZ EP       1759 55.74                             148   -0.0810 82.8  34 
 PAM  EN ES       18 0 12.79                             148   -0.2410 82.8  34 
 PAM  EZ I        18 0 15.40         5.8 0.62            148           82.8  34 
 PTB  HZ EP       18 0  0.28                             130   -0.23 9  150 263 
 PTB  HN ES       18 0 21.31                             130   -0.08 9  150 263 
 PTB  HZ I        18 0 24.01         6.7 0.18            131            150 263 
 ZAR  HZ EP   2   18 0  6.43                             120   -0.16 4  211 294 
 ZAR  HN ES       18 0 31.85                             120   -0.37 8  211 294 
 ZAR  HZ I        18 0 37.20         6.3 0.30            121            211 294 
                                                                                
