 2013  417 1650 52.5 L   6.802 -73.159142.8  RSN 10 0.4 2.5LRSN                1
 GAP=135        1.10       3.6     4.5  5.9 -0.6439E+01  0.1741E+01  0.4205E+01E
 Epicentro: LOS SANTOS - SANTANDER                                             3
 ACTION:UPD 13-05-22 14:39 OP:EP   STATUS:               ID:20130417165052 L   I
 2013-04-17-1648-48M.COL___206                                                 6
 STAT SP IPHASW D HRMM SECON CODA AMPLIT PERI AZIMU VELO AIN AR TRES W  DIS CAZ7
 BAR2 SZ EP       1651 11.72                             170   -0.0710 23.3 186 
 BAR2 SZ ES       1651 26.78                             170   -0.0410 23.3 186 
 BAR2 SZ I        1651 28.00       113.5 0.14            169           23.3 186 
 GIR2 SZ EP       1651 11.75                             167   -0.0710 30.9 353 
 GIR2 SZ ES       1651 26.17                             167   -0.7110 30.9 353 
 GIR2 SZ I        1651 27.84        28.1 0.12            167           30.9 353 
 BRR  HZ EP       1651 13.71                             152    0.4410 69.8 299 
 BRR  HN ES       1651 30.41                             152    0.9610 69.8 299 
 BRR  HN I        1651 31.10        94.3 0.20            151           69.8 299 
 PAM  SZ EP       1651 14.61                             150    0.1510 78.2  40 
 PAM  SZ I        1651 14.86        27.8 0.24            152           78.2  40 
 PAM  SN ES       1651 31.46                             150   -0.1210 78.2  40 
 RUS  HZ EP       1651 15.61                             143   -0.3910  101 175 
 RUS  HZ I        1651 16.59        13.7 0.48            143            101 175 
 RUS  HE ES       1651 34.34                             143    0.0310  101 175 
 PTB  HZ EP       1651 18.72                             132   -0.39 9  146 259 
 PTB  HN ES       1651 39.33                             132   -0.53 9  146 259 
 PTB  HN I        1651 42.21        39.0 0.24            131            146 259 
 CAPV BZ EP       1651 19.66                             131   -0.08 9  150  38 
 CAPV BZ ES       1651 41.67                             131    0.69 9  150  38 
 OCA  HN ES       1651 41.97                             129   -0.47 9  160 354 
 OCA  HN I        1651 44.79       112.4 0.28            129            160 354 
 NOR  HZ EP       1651 27.87                             118   -0.09 8  234 234 
 NOR  HE ES       1651 56.17                             118    0.57 8  234 234 
 NOR  HE I        1652  0.82        41.0 0.42            117            234 234 
 CHI  HZ EP       1651 30.04                             116    0.01 8  248 195 
 CHI  HN ES       1651 59.57                             116    0.28 8  248 195 
 CHI  HN I        1652  4.99        22.4 0.48            116            248 195 
                                                                                
