 2013  317 1538 34.9 L   6.806 -73.104155.1  RSN  4 0.2 1.6LRSN                1
 GAP=142        0.53       3.8     6.3  6.7 -0.2739E+01  0.6846E+01  0.1496E+01E
 Epicentro: LOS SANTOS - SANTANDER                                             3
 ACTION:UPD 13-04-09 14:03 OP:ep   STATUS:               ID:20130317153834 L   I
 2013-03-17-1530-00M.COL___244                                                 6
 STAT SP IPHASW D HRMM SECON CODA AMPLIT PERI AZIMU VELO AIN AR TRES W  DIS CAZ7
 BAR2 SZ EP       1538 55.80                             170    0.1110 25.2 200 
 BAR2 SZ I        1539 13.63         8.2 0.38            166           25.2 200 
 PAM  SZ EP       1538 58.08                             153    0.1510 74.0  37 
 PAM  SN ES   1   1539 15.69                             153   -0.20 7 74.0  37 
 PAM  SZ I        1539 18.07         6.7 0.56            156           74.0  37 
 BRR  HZ EP       1538 57.00                             153   -0.2810 75.0 296 
 BRR  HN ES   2   1539 15.23                             153    0.51 5 75.0 296 
 BRR  HZ I        1539 19.42         7.8 0.46            148           75.0 296 
 RUS  HZ EP       1538 59.72                             145    0.1110  101 179 
 RUS  HN ES   1   1539 18.70                             145   -0.18 7  101 179 
                                                                                
