 2014  717 1720 17.4 L   6.835 -73.148139.2  RSN 22 0.6 2.7LRSN 3.2WRSN        1
 SPEC AVERAGE  MO 13.9 ST0.320 OM  2.2 f0 1.75 R1.2389 AL 0.00 WI 40.0 MW  3.2 3
 SPEC SD       MO  0.2 ST  3.9 OM  0.3 f0 1.43 R0.4878 AL      WI      MW  0.1 3
 GAP= 70        1.28       2.8     3.2  6.0 -0.1846E+01  0.3867E+01  0.3363E+01E
 Epicentro: LOS SANTOS - SANTANDER                                             3
      41.0      73.0    -164.0  1.0  4.0  5.0  0.0  0.0           RSN FPFIT    F
 SPEC BAR2SH Z MO 14.1 ST0.794 OM  2.2 f0 2.23 R0.8628 AL-0.00 WI 40.0 MW  3.3 3
 SPEC BAR2SH Z T172049 K 0.000 GD  141 VS 5.20 DE 3.50 Q0750.0 QA 1.50 VS 5.20 3
 SPEC PAM SH Z MO 13.8 ST0.183 OM  1.9 f0 1.66 R1.1590 AL-0.00 WI 40.0 MW  3.2 3
 SPEC PAM SH Z T172054 K 0.000 GD  157 VS 5.20 DE 3.50 Q0750.0 QA 1.50 VS 5.20 3
 SPEC OCA HH Z MO 13.6 ST0.545 OM  1.6 f0 2.74 R0.7022 AL-0.00 WI 40.0 MW  3.0 3
 SPEC OCA HH Z T1721 5 K 0.000 GD  209 VS 5.20 DE 3.50 Q0750.0 QA 1.50 VS 5.20 3
 SPEC TAM HH Z MO 13.7 ST0.267 OM  1.7 f0 2.00 R0.9620 AL-0.00 WI 40.0 MW  3.1 3
 SPEC TAM HH Z T1721 3 K 0.000 GD  209 VS 5.20 DE 3.50 Q0750.0 QA 1.50 VS 5.20 3
 SPEC NOR HH Z MO 14.2 ST0.307 OM  2.0 f0 1.52 R1.2658 AL-0.00 WI 40.0 MW  3.4 3
 SPEC NOR HH Z T172118 K 0.000 GD  274 VS 5.20 DE 3.50 Q0750.0 QA 1.50 VS 5.20 3
 SPEC HEL HH Z MO 14.0 ST0.082 OM  1.8 f0 1.10 R1.7491 AL-0.00 WI 40.0 MW  3.3 3
 SPEC HEL HH Z T172126 K 0.000 GD  306 VS 5.20 DE 3.50 Q0750.0 QA 1.50 VS 5.20 3
 SPECGUY2CHH Z MO 14.1 ST  0.1 OM  1.8 f00.922 R  2.09 AL-0.00 WI 40.0 MW  3.3 3
 SPECGUY2CHH Z T172134 K       GD333.4 VS 5.20 DE 3.50 Q0750.0 QA 1.50 VS 5.20 3
 SPEC RREFHH Z MO 14.1 ST0.066 OM  1.8 f00.976 R1.9713 AL-0.00 WI 40.0 MW  3.3 3
 SPEC RREFHH Z T172137 K 0.000 GD  352 VS 5.20 DE 3.50 Q0750.0 QA 1.50 VS 5.20 3
 OLDACT:REG 14-07-17 21:10 OP:stll STATUS:               ID:20140717171820     3
 ACTION:UPD 15-03-16 20:44 OP:nd   STATUS:               ID:20140717172017 L   I
 OLDACT:UP  14-07-18 01:00 OP:stll STATUS:               ID:20140717171820     3
 2014-07-17-1718-20M.COL___272                                                 6
 STAT SP IPHASW D HRMM SECON CODA AMPLIT PERI AZIMU VELO AIN AR TRES W  DIS CAZ7
 BAR2 SZ IP     D 1720 36.54                             169    0.1810 27.1 188 
 BAR2 SZ I        1720 52.46       207.6 0.20            168           27.1 188 
 BRR  HZ EP     C 1720 38.46                             152    0.6910 69.2 296 
 BRR  HN ES       1720 54.26                             152    0.6410 69.2 296 
 BRR  HZ I        1720 59.87        54.6 0.12            148           69.2 296 
 PAM  SZ IP     D 1720 39.40                             150    0.6110 74.6  42 
 PAM  SZ I        1720 39.71       116.8 0.22            151           74.6  42 
 PAM  SN ES       1720 55.78                             150    0.3310 74.6  42 
 RUS  HZ EP     C 1720 40.49                             141   -0.3510  104 176 
 RUS  HZ I        1720 41.27        40.4 0.10            142            104 176 
 RUS  HN ES       1720 58.73                             141   -0.3610  104 176 
 PTB  HZ EP     D 1720 43.09                             130   -0.84 9  148 257 
 PTB  HN ES       1721  3.65                             130   -0.94 9  148 257 
 PTB  HZ I        1721  6.56        61.5 0.20            128            148 257 
 TAM  HZ IP     D 1720 44.90                             129    0.18 9  156 106 
 TAM  HZ I        1720 45.10        48.1 0.36            130            156 106 
 TAM  HN ES       1721  5.46                             129   -0.55 9  156 106 
 OCA  HZ EP       1720 45.08                             129    0.20 9  156 353 
 OCA  HN ES       1721  6.53                             129    0.25 9  156 353 
 OCA  HZ I        1721 10.17        32.5 0.40            127            156 353 
 SPBC HZ EP     C 1720 45.48                             127   -0.24 9  166 218 
 SPBC HZ I        1720 45.91        58.5 0.20            126            166 218 
 SPBC HN ES       1721  7.52                             127   -0.25 9  166 218 
 ZAR  HZ EP       1720 49.45                             121    0.16 9  202 291 
 ZAR  HN ES       1721 14.46                             121    0.32 9  202 291 
 ZAR  HZ I        1721 21.34        45.2 0.22            119            202 291 
 NOR  HZ EP       1720 52.58                             117   -0.44 8  237 234 
 NOR  HE ES       1721 20.40                             117   -0.37 8  237 234 
 NOR  HZ I        1721 26.15        30.1 0.18            115            237 234 
 SML  HZ EP       1720 53.03                             116   -0.28 8  240 335 
 SML  HN ES       1721 20.08                             116   -1.21 8  240 335 
 SML  HZ I        1721 30.16        34.8 0.10            115            240 335 
 CHI  HZ EP     C 1720 54.98                             115   -0.20 8  252 195 
 CHI  HN ES       1721 24.35                             115   -0.27 8  252 195 
 CHI  HZ I        1721 34.35        10.0 0.38            115            252 195 
 ROSC BZ EP       1720 56.27                             115    0.71 8  256 211 
 ROSC BE ES       1721 26.04                             115    0.75 8  256 211 
 ROSC BZ I        1721 31.26        39.8 0.35            114            256 211 
 HEL  HZ EP     D 1720 58.26                             113    0.85 8  273 255 
 HEL  HE ES       1721 27.81                             113   -0.77 8  273 255 
 HEL  HZ I        1721 35.45        24.4 0.28            112            273 255 
 SOCV BZ EP       1720 59.46                             111   -0.52 7  299  57 
 GUY2CHZ EP     D 1721  1.52                             111    0.54 7  303 234 
 GUY2CHN ES       1721 36.22                             111    1.28 7  303 234 
 GUY2CHZ I        1721 41.79        21.3 0.26                           303 234 
 RREF HZ EP     D 1721  4.18                             109    0.61 7  324 229 
 RREF HE ES       1721 39.24                             109   -0.31 7  324 229 
 RREF HZ I        1721 46.92        17.8 0.30            108            324 229 
 DBB  SZ EP       1721  3.57                             108   -1.03 7  339 274 
 DBB  SZ I        1721 44.96        48.0 0.58            107            339 274 
 TOL  SZ EP     C 1721  6.43                             108    0.70 6  346 224 
 TOL  SN ES       1721 43.54                             108    0.13 6  346 224 
 ANIL HZ EP     C 1721  8.24                             107    0.94 6  360 224 
 ANIL HN ES       1721 46.24                             107    0.05 6  360 224 
 ANIL HZ I        1721 54.51        33.2 0.26            106            360 224 
 PRA  HZ EP       1721 10.50                             105   -0.62 6  395 209 
 PRA  HN ES       1721 52.50                             105   -0.49 6  395 209 
 PRA  HZ I        1722  1.10        14.4 0.38            105            395 209 
 ORTC HZ EP       1721 11.25                             105   -0.24 6  398 216 
 ORTC HN ES       1721 53.57                             105   -0.08 6  398 216 
 ORTC HZ I        1721 59.71        10.2 0.28            104            398 216 
                                                                                
