 2016  317 1100 16.8 L   6.769 -73.184139.3  RSN  7 0.3 1.3LRSN                1
 GAP=133        0.67       2.7     2.8  4.6 -0.4607E+00  0.4803E+01  0.2506E+01E
 Epicentro: LOS SANTOS - SANTANDER                                             3
 ACTION:UPD 16-05-13 21:25 OP:cam  STATUS:               ID:20160317110016 L   I
 OLDACT:DUP 16-03-17 23:18 OP:cara STATUS:               ID:20160317105752d    3
 OLDACT:REG 16-03-17 20:32 OP:cara STATUS:               ID:20160317105751     3
 2016-03-17-1057-51M.COL___291                                                 6
 STAT SP IPHASW D HRMM SECON CODA AMPLIT PERI AZIMU VELO AIN AR TRES W  DIS CAZ7
 BAR2 EZ EP       11 0 35.94                             172    0.3910 19.5 180 
 BAR2 EZ ES       11 0 50.18                             172   -0.0210 19.5 180 
 BAR2 EZ I        11 0 54.78         4.6 0.36            170           19.5 180 
 PAM  EZ EP       11 0 38.52                             148   -0.1210 82.7  40 
 PAM  EZ I        11 0 38.78         5.9 0.24            154           82.7  40 
 PAM  EN ES       11 0 55.68                             148   -0.0210 82.7  40 
 RUS  HZ EP       11 0 39.20                             143   -0.4710 97.5 173 
 RUS  HN ES       11 0 57.58                             143    0.0610 97.5 173 
 RUS  HZ I        11 0 58.85         2.0 0.44            146           97.5 173 
 PTB  HZ EP       11 0 42.94                             131    0.16 9  143 260 
 PTB  HN ES       11 1  2.72                             131   -0.35 9  143 260 
 PTB  HZ I        11 1 10.32         2.4 0.40            132            143 260 
 ZAR  HN ES       11 1 13.63                             121    0.31 9  202 293 
 ZAR  HZ I        11 1 19.48         3.2 0.36            123            202 293 
 CHI  HZ EP       11 0 53.85                             116    0.21 8  244 194 
 CHI  HN ES       11 1 22.70                             116    0.31 8  244 194 
 CHI  HZ I        11 1 29.04         1.2 0.26            119            244 194 
 GUY2CHZ EP       11 0 59.15                             111   -0.33 7  296 235 
 GUY2CHE ES       11 1 32.71                             111   -0.07 7  296 235 
 GUY2CHZ I        11 1 43.26         1.3 0.38                           296 235 
                                                                                
