 2012  917 2340 40.0 L   7.380 -73.188131.1  RSN  7 0.2 2.2LRSN                1
 GAP=181        0.44       3.9     2.6  3.8  0.9775E+00  0.2329E+01  0.6550E+00E
 Epicentro: EL PLAYON - SANTANDER                                              3
 ACTION:UPD 12-10-22 14:19 OP:ep   STATUS:               ID:20120917234040 L   I
 2012-09-17-2340-00M.COL___227                                                 6
 STAT SP IPHASW D HRMM SECON CODA AMPLIT PERI AZIMU VELO AIN AR TRES W  DIS CAZ7
 GIR2 SZ EP   1   2340 57.87                             165   -0.17 7 33.3 181 
 GIR2 SZ ES   1   2341 11.89                             165   -0.19 7 33.3 181 
 PAM  SZ EP   1   2340 59.45                             157    0.05 7 54.1  95 
 PAM  SN ES   1   2341 14.72                             157    0.23 7 54.1  95 
 PAM  SZ I        2341 15.46        24.5 0.15                          54.1  95 
 BRR  HZ EP   1   2340 59.14                             152   -0.14 7 65.3 242 
 BRR  HN ES   1   2341 14.37                             152    0.09 7 65.3 242 
 BAR2 SZ EP   1   2341  0.98                             145   -0.05 7 87.1 180 
 BAR2 SZ ES   1   2341 17.28                             145   -0.12 7 87.1 180 
 BAR2 SZ I        2341 18.65        40.0 0.14                          87.1 180 
 RUS  HZ EP   1   2341  7.87                             125   -0.30 7  165 176 
 RUS  HN ES   2   2341 30.68                             125    0.58 5  165 176 
 PTB  HZ EP   1   2341  8.26                             124    0.40 7  168 237 
 PTB  HN ES   2   2341 29.45                             124   -0.11 5  168 237 
 PTB  HN I        2341 30.84        14.0 0.30                           168 237 
 ZAR  HE ES   1   2341 32.62                             122    0.06 7  185 274 
 ZAR  HZ I        2341 34.92        29.9 0.10                           185 274 
                                                                                
