 2012 1017 2023 27.0 L   6.765 -73.147142.0  RSN  6 0.3 2.2LRSN                1
 GAP=138        0.62       3.8     4.5  5.3  0.2655E+01  0.5178E+01 -0.1415E+01E
 Epicentro: LOS SANTOS - SANTANDER                                             3
 ACTION:UPD 12-11-22 17:04 OP:ep   STATUS:               ID:20121017202327 L   I
 2012-10-17-2020-00M.COL___230                                                 6
 STAT SP IPHASW D HRMM SECON CODA AMPLIT PERI AZIMU VELO AIN AR TRES W  DIS CAZ7
 BAR2 SZ EP       2023 46.06                             172   -0.0510 19.4 191 
 BAR2 SZ ES   1   2024  0.62                             172   -0.39 7 19.4 191 
 BAR2 SZ I        2024  1.76        34.5 0.30                          19.4 191 
 GIR2 SZ EP       2023 46.34                             165   -0.0110 35.1 352 
 BRR  HZ EP       2023 48.04                             151    0.1810 73.0 301 
 BRR  HN ES   1   2024  4.63                             151    0.51 7 73.0 301 
 BRR  HE I        2024  5.44       107.0 0.22                          73.0 301 
 PAM  SZ EP       2023 49.24                             149    0.2210 80.5  38 
 PAM  SN ES   1   2024  5.89                             149   -0.30 7 80.5  38 
 PAM  SN I        2024  7.23        25.0 0.50                          80.5  38 
 RUS  HZ EP       2023 50.21                             144    0.1010 96.7 176 
 RUS  HN ES   1   2024  8.15                             144    0.02 7 96.7 176 
 RUS  HN I        2024 10.12         8.6 0.20                          96.7 176 
 ZAR  HZ EP       2023 58.90                             121   -0.45 8  205 293 
 ZAR  HN ES   2   2024 24.43                             121   -0.15 4  205 293 
 ZAR  HN I        2024 31.70        13.3 0.26                           205 293 
                                                                                
