 2013  817 2231 22.1 L   6.803 -73.159146.0  RSN  8 0.4 2.1LRSN                1
 GAP=135        0.85       3.4     4.3  6.1  0.2879E+01  0.2860E+01  0.8320E+00E
 Epicentro: LOS SANTOS - SANTANDER                                             3
 ACTION:UPD 14-01-14 09:04 OP:ep   STATUS:               ID:20130817223122 L   I
 OLDACT:REG 13-08-18 01:13 OP:carl STATUS:               ID:20130817222959     3
 2013-08-17-2229-59M.COL___269                                                 6
 STAT SP IPHASW D HRMM SECON CODA AMPLIT PERI AZIMU VELO AIN AR TRES W  DIS CAZ7
 BAR2 SZ EP       2231 41.84                             170    0.0410 23.5 186 
 BAR2 SZ ES   1   2231 57.29                             170    0.15 7 23.5 186 
 BAR2 SZ I        2231 59.53        19.3 0.32            169           23.5 186 
 BRR  HZ EP   1   2231 43.33                             153    0.10 7 69.7 299 
 BRR  HN ES       2232  0.20                             153    0.5210 69.7 299 
 BRR  HN I        2232  1.09        73.6 0.28            152           69.7 299 
 PAM  SZ EP       2231 44.73                             151    0.3110 78.0  41 
 PAM  SN ES   1   2232  1.50                             151   -0.29 7 78.0  41 
 PAM  SZ I        2232  6.33         9.6 0.50            155           78.0  41 
 RUS  HZ EP       2231 45.87                             144   -0.0810  101 175 
 RUS  HN ES   1   2232  3.98                             144   -0.54 7  101 175 
 RUS  HZ I        2232  5.79         9.1 0.28            145            101 175 
 PTB  HZ EP       2231 48.87                             132   -0.13 9  146 259 
 PTB  HN ES   1   2232  9.07                             132   -0.89 7  146 259 
 PTB  HZ I        2232 15.96        10.9 0.40            132            146 259 
 ZAR  HN ES       2232 20.07                             123    0.42 9  203 292 
 ZAR  HN I        2232 27.32        46.8 0.36            124            203 292 
 SML  HZ EP   1   2231 58.38                             118   -0.30 6  243 336 
 SML  HE ES       2232 26.62                             118   -0.55 8  243 336 
 SML  HZ I        2232 28.90        16.9 0.28            119            243 336 
 CHI  HZ EP   1   2232  0.29                             117    0.44 6  249 195 
 CHI  HN ES   1   2232 29.52                             117    0.26 6  249 195 
 CHI  HZ I        2232 35.49         5.7 0.28            119            249 195 
                                                                                
