 2010  917 2314 54.0 L   6.512 -73.546102.8  RSN 15 0.4 3.4LRSN                1
 GAP= 66        0.98       3.2     4.7  7.4 -0.3101E+01  0.1818E+02  0.3698E+01E
 Epicentro: EL CARMEN DE CHUCURI - SANTANDER                                   3
 ACTION:UP  11-02-18 11:03 OP:tino STATUS:               ID:20100917231454 L   I
 2010-09-17-2312-42S.COL___121                                                 6
 STAT SP IPHASW D HRMM SECON CODA AMPLIT PERI AZIMU VELO SNR AR TRES W  DIS CAZ7
 BAR2 SZ IP       2315  9.21                             157     0.010   41  78 
 BAR2 SZ ES   1   2315 21.22                             157     0.2 7   41  78 
 BTL  SZ IP       2315  9.80                             150    -0.110   54  34 
 BRR  HZ IP     C 2315 10.01                             143    -0.510   68 344 
 BRR  HN ES   1   2315 23.61                             143     0.2 7   68 344 
 BRR  HZ I        2315 25.78       760.4 0.35                            68 344 
 GIR2 SZ IP       2315 11.75                             141     0.610   74  32 
 RUS  HZ IP     D 2315 12.13                             137    -0.410   85 143 
 RUS  HN ES   1   2315 26.85                             137    -0.1 7   85 143 
 RUS  HZ I        2315 29.33       500.8 0.43                            85 143 
 GRA  SZ IP       2315 20.65                             115    -0.1 9  173  28 
 GRA  SZ ES   1   2315 41.72                             115     0.1 7  173  28 
 GRA  SZ I        2315 45.71       415.0 0.47                           173  28 
 ROSC BZ IP     D 2315 25.37                             111     0.8 9  204 205 
 ROSC BN ES   1   2315 48.19                             111    -0.2 6  204 205 
 ROSC BZ I        2315 56.05       330.3 0.29                           204 205 
 CHI  HZ EP   1   2315 24.46                             111    -0.7 6  209 186 
 CHI  HE ES   1   2315 49.60                             111     0.1 6  209 186 
 CHI  HZ I        2315 55.30       216.6 0.49                           209 186 
 HEL  HZ EP   1   2315 26.02                             109    -0.6 6  222 261 
 HEL  HN ES   1   2315 51.70                             109    -0.4 6  222 261 
 HEL  HZ I        2315 55.68       185.2 0.38                           222 261 
 CVER SZ EP   1   2315 27.26                             108    -0.1 6  228 195 
 CVER SZ I        2316  0.34       354.4 0.40                           228 195 
 GUY  SZ EP   1   2315 29.99                             107     0.4 6  247 235 
 RREF HZ EP   1   2315 31.93                             105    -0.3 6  267 228 
 RREF HN ES   2   2316  2.70                             105     0.7 4  267 228 
 RREF HZ I        2316  8.92       245.1 0.38                           267 228 
 TOL  SZ EP   1   2315 34.48                             103     0.0 5  290 223 
 DBB  SZ EP       2315 35.39                             102     0.0 7  300 281 
 ANIL HZ EP   1   2315 36.91                             102     0.8 5  304 223 
                                                                                
