 2012  817 2138 55.6 L   6.785 -73.143144.0  RSN  9 0.4 2.4LRSN                1
 GAP= 72        0.75       3.6     3.1  5.9  0.3910E+00  0.3266E+01  0.1930E+01E
 Epicentro: LOS SANTOS - SANTANDER                                             3
 ACTION:UPD 12-09-10 11:56 OP:ep   STATUS:               ID:20120817213855 L   I
 2012-08-17-2137-59S.COL___216                                                 6
 STAT SP IPHASW D HRMM SECON CODA AMPLIT PERI AZIMU VELO AIN AR TRES W  DIS CAZ7
 BAR2 SZ EP   1   2139 14.93                             171   -0.02 7 21.7 192 
 BAR2 SZ ES   1   2139 30.32                             171    0.24 7 21.7 192 
 BAR2 SZ I        2139 30.93        96.8 0.25                          21.7 192 
 BRR  HZ EP   1   2139 16.85                             152    0.26 7 72.3 300 
 BRR  HN ES   1   2139 33.55                             152    0.56 7 72.3 300 
 BRR  HZ I        2139 38.16        74.3 0.14                          72.3 300 
 PAM  SZ EP   1   2139 17.97                             150    0.31 7 78.5  39 
 PAM  SZ I        2139 18.66       100.7 0.18                          78.5  39 
 PAM  SN ES   1   2139 34.68                             150   -0.22 7 78.5  39 
 RUS  HZ EP   1   2139 18.90                             144   -0.12 7 98.9 176 
 RUS  HN ES   1   2139 36.85                             144   -0.47 7 98.9 176 
 RUS  HZ I        2139 38.12        33.1 0.25                          98.9 176 
 PTB  HZ EP   1   2139 21.81                             132   -0.58 7  148 260 
 PTB  HN ES   1   2139 42.76                             132   -0.56 7  148 260 
 PTB  HZ I        2139 45.48        25.4 0.14                           148 260 
 TAM  HZ EP   1   2139 23.31                             130    0.28 7  154 104 
 TAM  HZ I        2139 23.62        29.8 0.18                           154 104 
 TAM  HE ES   1   2139 44.56                             130    0.10 7  154 104 
 OCA  HE ES   1   2139 45.44                             129   -0.57 7  162 353 
 ZAR  HZ EP   1   2139 27.60                             122   -0.40 6  205 293 
 ZAR  HN ES   1   2139 53.80                             122    0.51 6  205 293 
 NOR  SZ EP   1   2139 31.58                             118    0.46 6  234 235 
 NOR  SN ES   1   2139 59.17                             118    0.32 6  234 235 
 NOR  SZ I        2140  1.75        11.8 0.50                           234 235 
                                                                                
