 2015  317 2119 11.9 L   6.871 -73.193143.1  RSN  5 0.3 1.6LRSN                1
 GAP=151        0.54       5.3     5.1  5.5 -0.2009E+02  0.6012E+01  0.2132E+01E
 Epicentro: ZAPATOCA - SANTANDER                                               3
 ACTION:UPD 15-04-30 16:26 OP:nd   STATUS:               ID:20150317211911 L   I
 OLDACT:REG 15-03-18 02:53 OP:spq  STATUS:               ID:20150317211748     3
 2015-03-17-2117-48M.COL___269                                                 6
 STAT SP IPHASW D HRMM SECON CODA AMPLIT PERI AZIMU VELO AIN AR TRES W  DIS CAZ7
 BAR2 EZ ES   1   2119 46.26                             167   -0.32 7 30.8 178 
 BAR2 EZ I        2119 48.63         7.9 0.28            165           30.8 178 
 PAM  SZ EP       2119 33.77                             151    0.0710 75.2  46 
 PAM  SN ES       2119 50.81                             151    0.1110 75.2  46 
 PAM  SZ I        2119 54.08         3.4 0.50            154           75.2  46 
 PTB  HZ EP   1   2119 38.01                             132   -0.33 7  144 255 
 PTB  HN ES   1   2119 59.17                             132    0.21 7  144 255 
 PTB  HZ I        2120  0.69         4.3 0.10            134            144 255 
 SPBC HE ES   1   2120  2.78                             128    0.01 7  166 216 
 SPBC HZ I        2120  6.23         5.4 0.22            129            166 216 
 PRA  HZ EP   1   2120  5.43                             106   -0.39 4  396 208 
 PRA  HE ES   1   2120 48.59                             106    0.70 4  396 208 
 PRA  HZ I        2120 51.14         2.6 0.40            107            396 208 
                                                                                
