 2016  117 2028 45.8 L   6.808 -73.158130.2  RSN 12 0.5 1.7LRSN                1
 GAP=135        1.18       3.0     4.6  6.9 -0.2595E+01  0.1298E+02 -0.2185E+00E
 Epicentro: LOS SANTOS - SANTANDER                                             3
 ACTION:UPD 16-03-09 23:26 OP:cam  STATUS:               ID:20160117202845 L   I
 OLDACT:UP  16-01-18 09:30 OP:ak   STATUS:               ID:20160117201749d    3
 OLDACT:DUP 16-01-18 09:24 OP:ak   STATUS:               ID:20160117201749d    3
 OLDACT:REG 16-01-18 08:55 OP:y    STATUS:               ID:20160117201748     3
 2016-01-17-2017-48M.COL___328                                                 6
 STAT SP IPHASW D HRMM SECON CODA AMPLIT PERI AZIMU VELO AIN AR TRES W  DIS CAZ7
 BAR2 EZ EP       2029  2.67                             169   -0.9010 24.0 186 
 BAR2 EZ ES       2029 16.89                             169   -0.5410 24.0 186 
 BAR2 EZ I        2029 19.89        10.6 0.24            168           24.0 186 
 PAM  EZ EP       2029  7.06                             148    0.6710 77.6  41 
 PAM  EE ES       2029 22.88                             148    0.4310 77.6  41 
 RUS  HZ EP       2029  8.35                             140    0.2310  102 175 
 RUS  HN ES       2029 26.01                             140    0.4710  102 175 
 RUS  HZ I        2029 28.35         6.7 0.20            142            102 175 
 PTB  HZ EP       2029 11.06                             128   -0.37 9  147 258 
 PTB  HN ES       2029 31.16                             128   -0.26 9  147 258 
 PTB  HZ I        2029 34.24         6.5 0.12            129            147 258 
 OCA  HZ EP   2   2029 13.74                             126    0.90 5  159 354 
 OCA  HN ES       2029 33.87                             126   -0.07 9  159 354 
 OCA  HZ I        2029 38.57        12.1 0.32            129            159 354 
 SPBC HZ EP       2029 12.78                             125   -0.35 9  163 218 
 SPBC HN ES       2029 34.58                             125    0.13 9  163 218 
 SPBC HZ I        2029 40.75         8.1 0.13            127            163 218 
 ZAR  HZ EP   2   2029 17.46                             119    0.35 4  202 292 
 ZAR  HN ES       2029 42.24                             119    0.71 9  202 292 
 ZAR  HZ I        2029 48.38         8.0 0.22            120            202 292 
 NOR  HZ EP       2029 20.49                             115   -0.12 8  234 234 
 NOR  HE ES       2029 48.31                             115    0.55 8  234 234 
 NOR  HZ I        2029 52.58         3.3 0.14            117            234 234 
 SML  HZ EP       2029 20.49                             114   -0.95 8  242 335 
 SML  HN ES       2029 48.98                             114   -0.27 8  242 335 
 CHI  HZ EP       2029 22.62                             114   -0.11 8  249 195 
 CHI  HN ES       2029 51.04                             114   -0.51 8  249 195 
 CHI  HZ I        2029 59.16         2.2 0.48            116            249 195 
 HEL  HZ EP   2   2029 25.07                             112   -0.07 4  271 256 
 GUY2CHZ EP       2029 29.55                             109    0.89 7  301 234 
 GUY2CHN ES       2030  2.28                             109    0.18 7  301 234 
 GUY2CHZ I        2030 15.45         2.1 0.68                           301 234 
                                                                                
