 2016  217 2244  1.4 L   6.796 -73.156136.9  RSN  7 0.3 1.4LRSN                1
 GAP=135        0.40       3.5     3.3  5.1  0.2475E+01  0.2327E+01  0.5259E+01E
 Epicentro: LOS SANTOS - SANTANDER                                             3
 ACTION:UPD 16-03-04 21:27 OP:rebc STATUS:               ID:20160217224401 L   I
 OLDACT:REG 16-02-18 03:15 OP:dnl  STATUS:               ID:20160217223748     3
 2016-02-17-2237-48M.COL___337                                                 6
 STAT SP IPHASW D HRMM SECON CODA AMPLIT PERI AZIMU VELO AIN AR TRES W  DIS CAZ7
 BAR2 EZ EP   3   2244 19.86                             170   -0.14 3 22.7 187 
 BAR2 EZ ES   2   2244 34.45                             170   -0.02 5 22.7 187 
 BAR2 EZ I        2244 36.30         5.6 0.13            167           22.7 187 
 BRR  HZ EP   2   2244 21.82                             151    0.22 5 70.4 299 
 BRR  HN ES   2   2244 37.63                             151    0.32 5 70.4 299 
 PAM  EZ EP   2   2244 23.08                             149    0.29 5 78.4  40 
 PAM  EN ES   2   2244 38.94                             149   -0.50 5 78.4  40 
 PAM  EZ I        2244 41.20         3.4 0.20            154           78.4  40 
 RUS  HZ EP       2244 24.40                             142    0.0910  100 175 
 RUS  HN ES   2   2244 42.15                             142    0.01 5  100 175 
 RUS  HZ I        2244 45.19         3.6 0.30            144            100 175 
 PTB  HZ EP   2   2244 27.10                             130   -0.49 5  147 259 
 PTB  HN ES   2   2244 47.80                             130   -0.19 5  147 259 
 PTB  HZ I        2244 52.52         4.4 0.20            129            147 259 
 ZAR  HN ES   2   2244 58.08                             120    0.05 4  203 292 
 ZAR  HZ I        2245  4.38         3.7 0.15            121            203 292 
 CHI  HZ EP   2   2244 38.45                             115   -0.14 4  248 195 
 CHI  HN ES   4   2245  4.29                             115   -3.27 0  248 195 
 CHI  HZ I        2245 10.94         1.8 0.29            117            248 195 
                                                                                
