 2011 1017 2319 16.9 L   6.781 -73.104144.0  RSN  4 0.1 1.1LRSN                1
 GAP=143        0.38       2.6     3.4  4.8 -0.1067E+01  0.1767E+01  0.1647E+01E
 Epicentro: LOS SANTOS - SANTANDER                                             3
 ACTION:UPD 12-07-13 16:04 OP:ep   STATUS:               ID:20111017231916 L   I
 2011-10-17-2317-03S.COL___168                                                 6
 STAT SP IPHASW D HRMM SECON CODA AMPLIT PERI AZIMU VELO AIN AR TRES W  DIS CAZ7
 BRR  HZ EP       2319 38.03                             151   -0.1510 76.2 298 
 PAM  SZ EP   1   2319 38.88                             151   -0.01 7 76.2  36 
 PAM  SN ES   1   2319 56.04                             151    0.02 7 76.2  36 
 PAM  SZ I        2319 57.85         2.6 0.32                          76.2  36 
 BRR  HE ES   1   2319 54.90                             151    0.14 7 76.2 298 
 RUS  HZ EP   1   2319 40.58                             144    0.24 7 98.3 179 
 RUS  HN ES   1   2319 58.47                             144   -0.14 7 98.3 179 
 RUS  HZ I        2320  0.67         2.0 0.19                          98.3 179 
 NOR  SN ES   2   2320 20.89                             118    0.05 4  237 236 
                                                                                
