 2011  417 2332  5.9 L   6.138 -73.386122.4  RSN  7 0.3 1.9LRSN                1
 GAP=219        0.54       5.1     5.8  5.4 -0.1673E+02  0.4327E+01  0.1971E+01E
 Epicentro: SUAITA - SANTANDER                                                 3
 ACTION:UP  11-06-22 15:31 OP:REBC STATUS:               ID:20110417233205 L   I
 2011-04-17-2331-44S.COL___135                                                 6
 STAT SP IPHASW D HRMM SECON CODA AMPLIT PERI AZIMU VELO SNR AR TRES W  DIS CAZ7
 BAR2 SZ EP   1   2332 24.30                             154     0.3 7   55  24 
 BAR2 SZ I        2332 24.53        35.3 0.15                            55  24 
 BAR2 SZ ES   1   2332 38.07                             154     0.0 7   55  24 
 BTL  SZ ES   1   2332 41.53                             142    -0.3 7   87   9 
 GIR2 SZ EP   1   2332 27.49                             136     0.0 7  106  12 
 GIR2 SZ ES   2   2332 44.67                             136     0.4 5  106  12 
 BRR  HZ EP   1   2332 27.57                             134    -0.3 7  113 341 
 BRR  HZ I        2332 40.14        17.5 0.11                           113 341 
 BRR  HE ES   2   2332 45.27                             134     0.3 5  113 341 
 PAM  SZ EP   1   2332 32.58                             125     0.3 7  153  30 
 PAM  SZ I        2332 33.60         2.4 0.25                           153  30 
 PAM  SE ES   2   2332 52.21                             125    -0.6 5  153  30 
 NOR  SZ EP   2   2332 34.00                             121    -0.1 4  176 249 
 NOR  SN ES   2   2332 55.94                             121     0.0 4  176 249 
 OCA  SZ EP   1   2332 40.09                             113    -0.2 6  232   2 
 OCA  SZ ES   1   2333  7.20                             113     0.1 6  232   2 
 OCA  SZ I        2333 12.36        19.4 0.27                           232   2 
                                                                                
