 2016  417 2135 15.9 L   6.772 -73.154142.3  RSN  7 0.5 2.1LRSN                1
 GAP=137        1.32       4.6     5.9  9.1 -0.5475E+01  0.1819E+02 -0.7810E+01E
 Epicentro: LOS SANTOS - SANTANDER                                             3
 ACTION:UPD 16-05-05 14:22 OP:rebc STATUS:               ID:20160417213515 L   I
 OLDACT:ARG 16-04-18 13:26 OP:cara STATUS:               ID:20160417212746     3
 2016-04-17-2127-46M.COL___306                                                 6
 STAT SP IPHASW D HRMM SECON CODA AMPLIT PERI AZIMU VELO AIN AR TRES W  DIS CAZ7
 BAR2 EZ EP       2135 35.05                             172   -0.0110 20.1 189 
 BAR2 EZ ES       2135 50.37                             172    0.3810 20.1 189 
 BAR2 EZ I        2135 51.14        20.4 0.28            172           20.1 189 
 PAM  EZ IP     D 2135 38.16                             149    0.2210 80.4  39 
 PAM  EN ES       2135 55.16                             149    0.0410 80.4  39 
 PAM  EZ I        2135 57.67        25.8 0.44            152           80.4  39 
 RUS  HZ EP       2135 38.86                             144   -0.2410 97.6 175 
 RUS  HN ES       2135 57.30                             144    0.1110 97.6 175 
 RUS  HZ I        2135 58.32        19.7 0.34            148           97.6 175 
 PTB  HZ EP       2135 41.63                             131   -0.83 9  146 260 
 PTB  HN ES       2136  2.39                             131   -0.78 9  146 260 
 PTB  HZ I        2136  8.05         9.4 0.23            132            146 260 
 SPBC HZ EP       2135 43.83                             129   -0.03 9  160 219 
 SPBC HN ES       2136  5.80                             129    0.14 9  160 219 
 SPBC HZ I        2136  7.98        17.4 0.32            131            160 219 
 OCA  HZ EP       2135 44.07                             128   -0.16 9  163 354 
 OCA  HN ES       2136  5.70                             128   -0.62 9  163 354 
 OCA  HZ I        2136  8.82        30.0 0.42            130            163 354 
 ZAR  HZ EP       2135 49.51                             122    1.35 9  204 293 
 ZAR  HN ES       2136 13.97                             122    0.65 9  204 293 
 ZAR  HZ I        2136 19.27        14.7 0.18            123            204 293 
                                                                                
