 2010 1117 2333 58.7 L   6.811 -73.152150.5  RSN  4 0.2 1.3LRSN                1
 GAP=223        0.42       9.6    17.7 11.9  0.1398E+03 -0.1355E+03 -0.6781E+02E
 Epicentro: LOS SANTOS - SANTANDER                                             3
 ACTION:UP  10-12-17 16:53 OP:REBC STATUS:               ID:20101117233358 L   I
 2010-11-17-2330-48S.COL___128                                                 6
 STAT SP IPHASW D HRMM SECON CODA AMPLIT PERI AZIMU VELO SNR AR TRES W  DIS CAZ7
 BTL  SZ EP       2334 18.88                             173     0.110   17 313 
 BAR2 SZ EP   2   2334 18.49                             170    -0.4 5   25 188 
 BAR2 SZ I        2334 18.79         4.1 0.25                            25 188 
 BRR  HZ EP   1   2334 20.32                             154     0.0 7   70 298 
 BRR  HZ I        2334 32.52         7.5 0.47                            70 298 
 BRR  HN ES   2   2334 37.03                             154    -0.1 5   70 298 
 RUS  HZ EP   2   2334 22.97                             144     0.0 5  102 176 
 RUS  HZ I        2334 23.53         1.5 0.16                           102 176 
 RUS  HE ES   2   2334 42.03                             144     0.1 5  102 176 
                                                                                
