 2010 1217 2303 29.4 L   6.765 -73.022151.3  RSN  7 0.4 1.8LRSN                1
 GAP=248        0.73       5.4     8.5  7.4  0.1152E+02  0.1507E+02  0.1022E+02E
 Epicentro: CEPITA - SANTANDER                                                 3
 ACTION:UP  11-01-14 15:25 OP:pat  STATUS:               ID:20101217230329 L   I
 2010-12-17-2300-00M.COL___136                                                 6
 STAT SP IPHASW D HRMM SECON CODA AMPLIT PERI AZIMU VELO SNR AR TRES W  DIS CAZ7
 BAR2 SZ EP   1   23 3 50.12                             170     0.4 7   26 223 
 BAR2 SZ ES   2   23 4  5.56                             170    -0.1 5   26 223 
 BAR2 SZ I        23 4  6.67        12.1 0.23                            26 223 
 BRR  HZ IP     C 23 3 51.77                             149    -0.210   85 296 
 BRR  HZ I        23 3 52.04        18.8 0.12                            85 296 
 BRR  HN ES   1   23 4  9.51                             149    -0.1 7   85 296 
 RUS  HZ EP   1   23 3 53.87                             146     0.4 7   97 184 
 RUS  HN ES   1   23 4 12.05                             146    -0.1 7   97 184 
 RUS  HZ I        23 4 14.24         5.6 0.62                            97 184 
 NOR  SZ EP   2   23 4  6.41                             119     0.0 4  244 237 
 CHI  HZ EP   1   23 4  7.00                             118    -0.4 6  249 198 
 CHI  HN ES   2   23 4 36.34                             118    -0.8 4  249 198 
 CHI  HZ I        23 4 43.23         3.2 0.79                           249 198 
 HEL  HZ EP   2   23 4 11.35                             115     0.1 4  284 257 
 HEL  HZ I        23 4 20.07         3.7 0.58                           284 257 
 RREF HZ EP   2   23 4 16.05                             111    -0.6 3  330 231 
 RREF HE ES   1   23 4 54.27                             111     0.7 5  330 231 
 RREF HZ I        23 4 59.22         3.5 0.32                           330 231 
                                                                                
