 2014  417 2045 47.2 L   6.482 -73.638102.0  RSN 12 0.5 1.9LRSN                1
 GAP= 89        1.02       2.9     3.4  7.6 -0.2959E+01  0.7678E+01 -0.2585E+00E
 Epicentro: SANTA HELENA DEL OPON - SANTANDER                                  3
 ACTION:UPD 14-05-13 23:09 OP:nd   STATUS:               ID:20140417204547 L   I
 OLDACT:UP  14-04-18 05:45 OP:cam  STATUS:               ID:20140417203816     3
 OLDACT:REG 14-04-18 05:30 OP:cam  STATUS:               ID:20140417203816     3
 2014-04-17-2038-16M.COL___254                                                 6
 STAT SP IPHASW D HRMM SECON CODA AMPLIT PERI AZIMU VELO AIN AR TRES W  DIS CAZ7
 BRR  HZ EP       2046  3.35                             143   -0.3510 69.6 353 
 BRR  HN ES       2046 16.84                             143    0.2510 69.6 353 
 BRR  HZ I        2046 18.30        20.2 0.10            139           69.6 353 
 RUS  HZ EP       2046  5.92                             136   -0.0610 89.5 137 
 RUS  HN ES   1   2046 21.08                             136    0.45 7 89.5 137 
 PTB  HZ EP   4 D 2046  4.02                             135   -1.41 0 90.8 274 
 PTB  HN ES   4   2046 17.99                             135   -1.67 0 90.8 274 
 PTB  HZ I        2046 18.95        21.0 0.40            131           90.8 274 
 SPBC HZ EP       2046  6.31                             131   -0.3710  104 208 
 SPBC HN ES   1   2046 21.41                             131   -0.48 7  104 208 
 SPBC HZ I        2046 24.50        15.2 0.50            130            104 208 
 PAM  SZ EP   1   2046 11.25                             122    0.39 7  141  48 
 PAM  SE ES       2046 29.44                             122    0.12 9  141  48 
 PAM  SZ I        2046 30.77        11.0 0.38            121            141  48 
 NOR  HZ EP       2046 12.69                             116   -0.77 9  170 233 
 NOR  HN ES       2046 34.33                             116    0.38 9  170 233 
 NOR  HZ I        2046 38.09         9.7 0.14            115            170 233 
 ZAR  HZ EP       2046 13.41                             115   -0.55 9  175 310 
 ZAR  HN ES       2046 34.68                             115   -0.17 9  175 310 
 ZAR  HZ I        2046 37.83        20.3 0.38            113            175 310 
 OCA  HZ EP       2046 16.49                             112   -0.16 9  197  10 
 OCA  HN ES       2046 39.85                             112    0.21 9  197  10 
 OCA  HZ I        2046 44.27        15.5 0.30            111            197  10 
 HEL  HZ EP       2046 18.64                             110    0.09 8  212 261 
 HEL  HN ES       2046 43.70                             110    0.69 8  212 261 
 HEL  HZ I        2046 49.89         4.2 0.20            110            212 261 
 GUY2CHZ EP   1   2046 22.76                             108    1.21 6  236 234 
 GUY2CHE ES   4   2046 51.06                             108    2.71 0  236 234 
 GUY2CHZ I        2046 53.88         6.9 0.40                           236 234 
 RREF HZ EP   1   2046 24.51                             106    0.28 6  258 227 
 RREF HN ES   4   2046 55.01                             106    1.89 0  258 227 
 RREF HZ I        2046 58.29         6.0 0.22            106            258 227 
 SML  HZ EP   4   2046 22.39                             105   -1.41 0  261 349 
 SML  HE ES   4   2046 51.04                             105   -1.33 0  261 349 
 SML  HZ I        2047  3.97        11.7 0.22            106            261 349 
                                                                                
