 2010 1217 2124 57.9 L   6.781 -73.083144.9  RSN 10 0.3 2.6LRSN                1
 GAP=166        0.62       2.4     4.4  4.6 -0.4101E+01  0.2947E+01  0.1597E+01E
 Epicentro: LOS SANTOS - SANTANDER                                             3
 ACTION:UP  11-01-14 15:25 OP:pat  STATUS:               ID:20101217212457 L   I
 2010-12-17-2120-00M.COL___136                                                 6
 STAT SP IPHASW D HRMM SECON CODA AMPLIT PERI AZIMU VELO SNR AR TRES W  DIS CAZ7
 BAR2 SZ EP   1   2125 17.23                             170    -0.2 7   24 208 
 BAR2 SZ ES   1   2125 32.49                             170    -0.2 7   24 208 
 BAR2 SZ I        2125 34.98        94.6 0.32                            24 208 
 BRR  HZ IP     D 2125 19.20                             150    -0.210   78 297 
 BRR  HZ I        2125 19.35        80.9 0.23                            78 297 
 BRR  HE ES   1   2125 35.97                             150    -0.2 7   78 297 
 RUS  HZ EP       2125 21.44                             144     0.010   98 180 
 RUS  HN ES   1   2125 39.95                             144     0.2 7   98 180 
 RUS  HZ I        2125 41.52        37.5 0.39                            98 180 
 GRA  SZ IP       2125 23.20                             137     0.110  126  14 
 GRA  SZ ES   1   2125 42.88                             137     0.2 7  126  14 
 GRA  SZ I        2125 44.15        40.1 0.30                           126  14 
 OCA  SZ EP   1   2125 26.57                             129     0.1 7  163 351 
 OCA  SZ ES   1   2125 48.96                             129     0.3 7  163 351 
 OCA  SZ I        2125 53.61        44.7 0.18                           163 351 
 NOR  SZ EP   1   2125 33.29                             118    -0.8 6  239 236 
 NOR  SE ES   1   2126  2.35                             118     0.0 6  239 236 
 CHI  HZ EP   1   2125 35.59                             117     0.0 6  249 197 
 CHI  HE ES   1   2126  5.07                             117     0.2 6  249 197 
 CHI  HZ I        2126 11.45        15.6 0.28                           249 197 
 GUY  SN ES   2   2126 16.54                             112     0.1 4  306 236 
 GUY  SZ I        2126 22.93        34.7 0.34                           306 236 
 RREF HZ EP   1   2125 44.79                             110     0.3 5  326 230 
 RREF HE ES   1   2126 21.58                             110     0.8 5  326 230 
 RREF HZ I        2126 27.19        17.9 0.28                           326 230 
 PRA  HZ EP   1   2125 51.29                             106    -0.3 4  394 211 
 PRA  HN ES   1   2126 33.62                             106     0.1 4  394 211 
                                                                                
