 2015  117 2007 56.9 L   6.811 -73.143142.3  RSN 27 0.5 2.7LRSN                1
 GAP= 71        1.14       2.4     2.8  4.7 -0.1072E+01  0.3809E+01  0.8959E+00E
 Epicentro: LOS SANTOS - SANTANDER                                             3
 ACTION:UPD 15-03-02 15:40 OP:nd   STATUS:               ID:20150117200756 L   I
 OLDACT:REG 15-01-18 05:09 OP:fm   STATUS:               ID:20150117195746     3
 2015-01-17-1957-46M.COL___259                                                 6
 STAT SP IPHASW D HRMM SECON CODA AMPLIT PERI AZIMU VELO AIN AR TRES W  DIS CAZ7
 BAR2 EZ EP       20 8 16.33                             170    0.1410 24.5 190 
 BAR2 EZ ES       20 8 31.87                             170    0.6710 24.5 190 
 BAR2 EZ I        20 8 33.05       105.0 0.46            168           24.5 190 
 BRR  HZ EP     D 20 8 18.21                             152    0.5010 70.9 298 
 BRR  HE ES       20 8 34.34                             152    0.4410 70.9 298 
 BRR  HZ I        20 8 38.73        83.6 0.14            151           70.9 298 
 PAM  SZ EP       20 8 19.08                             151    0.3510 76.3  40 
 PAM  SE ES       20 8 36.00                             151    0.2810 76.3  40 
 PAM  SZ I        20 8 38.42        58.4 0.56            154           76.3  40 
 RUS  HZ EP       20 8 20.19                             143   -0.2510  102 176 
 RUS  HE ES       20 8 38.00                             143   -0.7710  102 176 
 RUS  HZ I        20 8 39.90        67.5 0.28            143            102 176 
 PTB  HZ EP       20 8 23.11                             131   -0.57 9  148 258 
 PTB  HE ES       20 8 44.00                             131   -0.54 9  148 258 
 PTB  HZ I        20 8 46.26        92.8 0.50            131            148 258 
 TAM  HZ EP       20 8 24.48                             130    0.13 9  155 105 
 TAM  HE ES       20 8 45.46                             130   -0.27 9  155 105 
 TAM  HZ I        20 8 47.48        26.3 0.46            132            155 105 
 OCA  HZ EP       20 8 24.86                             129   -0.02 9  159 353 
 OCA  HE ES       20 8 47.18                             129    0.51 9  159 353 
 OCA  HZ I        20 8 50.43        59.9 0.18            131            159 353 
 SPBC HZ EP       20 8 25.11                             128   -0.18 9  164 219 
 SPBC HE ES       20 8 47.02                             128   -0.38 9  164 219 
 SPBC HZ I        20 8 49.79        93.6 0.38            128            164 219 
 ZAR  HZ EP       20 8 28.93                             122   -0.22 9  204 292 
 ZAR  HN ES       20 8 53.87                             122   -0.40 9  204 292 
 ZAR  HZ I        20 8 59.90        96.0 0.36            122            204 292 
 NOR  HZ EP       20 8 32.12                             118   -0.46 8  236 234 
 NOR  HE ES       20 9  0.19                             118   -0.18 8  236 234 
 NOR  HZ I        20 9  3.99        51.7 0.18            118            236 234 
 SML  HZ EP       20 8 33.31                             117    0.03 8  243 335 
 SML  HE ES       20 9  0.73                             117   -0.89 8  243 335 
 SML  HZ I        20 9  6.47        55.4 0.34            118            243 335 
 CHI  HZ EP       20 8 34.35                             116   -0.24 8  250 195 
 CHI  HN ES       20 9  3.29                             116   -0.66 8  250 195 
 CHI  HZ I        20 9 13.61        20.4 0.34            117            250 195 
 ROSC BZ EP       20 8 36.17                             116    1.16 8  254 211 
 ROSC BE ES       20 9  5.43                             116    0.74 8  254 211 
 ROSC BZ I        20 9  9.84        44.0 0.40            116            254 211 
 HEL  HZ EP       20 8 37.76                             114    0.71 8  273 256 
 HEL  HN ES       20 9  8.00                             114   -0.33 8  273 256 
 HEL  HZ I        20 9 16.01        33.4 0.60            114            273 256 
 URE  HZ EP   4   20 8 35.25                             113   -2.58 0  284 292 
 URE  HE ES   4   20 9  6.33                             113   -3.40 0  284 292 
 URE  HZ I        20 9  9.35        36.7 0.12            114            284 292 
 VIL  SN ES   4   20 9 11.94                             111   -2.26 0  305 192 
 VIL  SZ I        20 9 21.35        31.4 0.48            112            305 192 
 PTGC HZ EP   4   20 8 39.18                             111   -1.58 0  310 159 
 PTGC HE ES   4   20 9 11.16                             111   -3.77 0  310 159 
 PTGC HZ I        20 9 14.93        22.8 0.20            112            310 159 
 RREF HZ EP       20 8 43.95                             110    0.90 7  323 229 
 RREF HE ES   4   20 9 20.64                             110    1.62 0  323 229 
 RREF HZ I        20 9 28.10        25.8 0.38            111            323 229 
 CBOC HZ EP       20 8 44.44                             109    0.65 7  334 252 
 CBOC HE ES       20 9 20.27                             109   -0.07 7  334 252 
 CBOC HZ I        20 9 27.43         8.1 0.18            110            334 252 
 DBB  SZ EP       20 8 44.81                             109    0.50 7  340 274 
 DBB  SZ ES       20 9 21.13                             109   -0.12 7  340 274 
 DBB  SZ I        20 9 22.33        87.4 0.26            109            340 274 
 TOL  SZ EP       20 8 45.92                             109    0.73 7  345 225 
 TOL  SE ES       20 9 22.84                             109    0.03 7  345 225 
 TOL  SZ I        20 9 29.79       188.6 0.94            109            345 225 
 ANIL HZ EP       20 8 46.62                             108   -0.12 6  358 224 
 ANIL HE ES       20 9 25.45                             108   -0.13 6  358 224 
 ANIL HZ I        20 9 33.35         6.7 0.44            108            358 224 
 ARGC HE ES       20 9 24.14                             108   -0.76 6  358 340 
 SDV  BZ EP       20 8 45.74                             108   -1.00 6  359  50 
 SDV  BN ES   4   20 9 23.41                             108   -2.17 0  359  50 
 SDV  BZ I        20 9 24.95         9.9 0.35            109            359  50 
 ORTC HE ES       20 9 32.67                             106   -0.28 6  397 216 
 ORTC HZ I        20 9 45.12        10.3 0.52            106            397 216 
 PAL  HZ EP       20 8 51.78                             105   -0.31 6  407 239 
 PAL  HN ES       20 9 35.73                             105    0.62 6  407 239 
 PAL  HZ I        20 9 40.62        10.4 0.50            106            407 239 
 SJC  HZ EP   4   20 8 50.53                             105   -1.77 0  408 327 
 SJC  HN ES   4   20 9 31.12                             105   -4.36 0  408 327 
 SJC  HZ I        20 9 39.67         7.5 0.60            106            408 327 
                                                                                
