 2012  417 2329 39.1 L   5.905 -73.789105.0  RSN 13 0.3 2.3LRSN                1
 GAP= 86        0.82       2.5     2.9  7.6 -0.2305E+01  0.7637E+01 -0.4451E-02E
 Epicentro: JESUS MARIA - SANTANDER                                            3
 ACTION:UPD 12-07-05 11:54 OP:tino STATUS:               ID:20120417232939 L   I
 2012-04-17-2327-59S.COL___195                                                 6
 STAT SP IPHASW D HRMM SECON CODA AMPLIT PERI AZIMU VELO AIN AR TRES W  DIS CAZ7
 RUS  HZ EP       2329 57.51                             141     0.210   78  91 
 RUS  HZ I        2329 58.05        45.7 0.28                            78  91 
 RUS  HN ES   1   2330 10.73                             141    -0.7 7   78  91 
 BAR2 SZ EP       2329 59.22                             132     0.310  101  41 
 BAR2 SZ ES   1   2330 14.42                             132     0.1 7  101  41 
 NOR  SZ EP   1   2330  0.72                             126    -0.2 7  125 253 
 NOR  SN ES   1   2330 17.72                             126    -0.2 7  125 253 
 ROSC BN ES   1   2330 20.44                             124     0.7 7  132 207 
 ROSC BZ I        2330 26.11        35.4 0.39                           132 207 
 BRR  HZ EP   1   2330  1.38                             124    -0.2 7  133   4 
 BRR  HN ES   1   2330 19.54                             124     0.4 7  133   4 
 BRR  HZ I        2330 21.98        52.1 0.09                           133   4 
 CHI  HZ EP   1   2330  2.80                             122    -0.2 7  141 177 
 CHI  HZ I        2330 27.06        16.1 0.32                           141 177 
 GUY  SZ EP   1   2330  8.99                             113     0.4 7  193 247 
 GUY  SZ I        2330 35.58        35.3 0.38                           193 247 
 HEL  HZ EP   1   2330  8.64                             113    -0.1 6  195 279 
 HEL  HN ES   1   2330 31.66                             113    -0.2 6  195 279 
 HEL  HZ I        2330 36.36        40.2 0.50                           195 279 
 VIL  SZ EP   1   2330  9.06                             112     0.2 6  198 177 
 VIL  SN ES   1   2330 31.92                             112    -0.1 6  198 177 
 VIL  SZ I        2330 35.75        15.3 0.43                           198 177 
 PAM  SZ EP   1   2330  9.24                             112    -0.1 6  199  37 
 PAM  SE ES   1   2330 32.54                             112    -0.4 6  199  37 
 PAM  SZ I        2330 36.16        13.4 0.32                           199  37 
 RREF HZ EP   1   2330  9.67                             112    -0.6 6  205 237 
 RREF HZ I        2330 40.66        26.5 0.25                           205 237 
 ZAR  HZ EP   1   2330  9.91                             111    -0.3 6  212 326 
 ZAR  HN ES   1   2330 34.59                             111     0.2 6  212 326 
 ZAR  HZ I        2330 38.90        35.8 0.14                           212 326 
 TOL  SZ EP   1   2330 12.40                             109     0.4 6  224 229 
 TOL  SZ ES   1   2330 37.15                             109    -0.4 6  224 229 
                                                                                
