 2016 1117 2237 50.2 L   6.718 -73.125139.9  RSN  4 0.3 1.3LRSN                1
 GAP=170        0.90       8.9     5.5  7.3 -0.2407E+02  0.3619E+01  0.6366E+01E
 Epicentro: JORDAN - SANTANDER                                                 3
 ACTION:UPD 17-10-26 21:09 OP:lp   STATUS:               ID:20161117223750 L   I
 OLDACT:REG 16-11-18 04:07 OP:dnl  STATUS:               ID:20161117222746     3
 2016-11-17-2228-00M.COL___346                                                 6
 STAT SP IPHASW D HRMM SECON CODA AMPLIT PERI AZIMU VELO AIN AR TRES W  DIS CAZ7
 BAR2 EZ EP       2238  9.34                             173    0.3710 15.3 204 
 BAR2 EZ ES       2238 23.62                             173   -0.0010 15.3 204 
 BAR2 EZ I        2238 25.76         6.4 0.20            172           15.3 204 
 BRR  HZ EP       2238 11.14                             149    0.0410 77.8 304 
 BRR  HN ES       2238 27.97                             149    0.5510 77.8 304 
 PAM  EZ EP       2238 12.19                             148    0.0410 83.3  34 
 PAM  EN ES       2238 28.83                             148   -0.4610 83.3  34 
 PAM  EZ I        2238 31.53         3.0 0.42            151           83.3  34 
 PTB  HZ EP       2238 16.67                             130   -0.08 9  149 262 
 PTB  HN ES       2238 36.94                             130   -0.53 9  149 262 
 PTB  HZ I        2238 42.41         2.9 0.48            131            149 262 
                                                                                
