 2017  417 2120  7.3 L   6.738 -73.169141.9  RSN  6 0.3 1.6LRSN                1
 GAP=230        0.70       4.1     3.8  5.5  0.5926E+01  0.6066E+01  0.2215E+01E
 Epicentro: VILLANUEVA - SANTANDER                                             3
 ACTION:UPD 17-05-30 21:13 OP:jn   STATUS:               ID:20170417212007 L   I
 OLDACT:REG 17-04-18 03:27 OP:edw  STATUS:               ID:20170417211220     3
 2017-04-17-2118-00M.COL___374                                                 6
 STAT SP IPHASW D HRMM SECON CODA AMPLIT PERI AZIMU VELO AIN AR TRES W  DIS CAZ7
 BAR2 EZ EP       2120 26.12                             173   -0.2210 16.2 185 
 BAR2 EZ ES       2120 41.14                             173   -0.0510 16.2 185 
 BAR2 EZ I        2120 42.71        10.0 0.26            174           16.2 185 
 BRR  HZ EP       2120 28.15                             151    0.0310 72.6 304 
 BRR  HN ES       2120 44.55                             151    0.2010 72.6 304 
 BRR  HZ I        2120 48.83         7.6 0.24            151           72.6 304 
 RUS  HZ EP       2120 30.54                             145    0.3410 94.0 174 
 RUS  HN ES       2120 48.04                             145   -0.0210 94.0 174 
 PTB  HZ EP       2120 33.25                             132   -0.37 9  144 261 
 PTB  HN ES       2120 53.71                             132   -0.44 9  144 261 
 PTB  HZ I        2120 57.63         4.7 0.38            134            144 261 
 ZAR  HN ES       2121  4.95                             121    0.27 9  204 294 
 NOR  HN ES       2121  9.69                             118    0.34 8  229 235 
                                                                                
