 2011  817 2209 53.7 L   6.088 -73.575121.0  RSN  4 0.1 1.8LRSN                1
 GAP=150        0.33       3.4     2.6  5.5 -0.2567E+01  0.6397E+01  0.5381E+01E
 Epicentro: CHIPATA - SANTANDER                                                3
 ACTION:UPD 12-07-13 15:52 OP:ep   STATUS:               ID:20110817220953 L   I
 2011-08-17-2208-34S.COL___149                                                 6
 STAT SP IPHASW D HRMM SECON CODA AMPLIT PERI AZIMU VELO AIN AR TRES W  DIS CAZ7
 RUS  HZ EP       2210 12.24                             153    0.0210 58.6 112 
 RUS  HZ I        2210 12.70         6.1 0.10                          58.6 112 
 RUS  HN ES   2   2210 26.82                             153    0.19 5 58.6 112 
 BAR2 SZ ES   1   2210 27.18                             148   -0.11 7 70.7  38 
 BAR2 SZ I        2210 28.81        37.9 0.52                          70.7  38 
 NOR  SZ EP       2210 19.58                             124    0.03 9  155 248 
 NOR  SN ES   1   2210 39.69                             124    0.02 7  155 248 
 CHI  HE ES   2   2210 41.69                             123   -0.20 5  162 186 
 CHI  HZ I        2210 44.83         6.7 0.32                           162 186 
                                                                                
