 2016 1217 2118 48.8 L   6.810 -73.131149.4  RSN  5 0.3 1.4LRSN                1
 GAP=138        0.82       3.5     4.6  7.0  0.2155E+01  0.5561E+01  0.8799E+01E
 Epicentro: LOS SANTOS - SANTANDER                                             3
 ACTION:UPD 17-01-11 20:16 OP:rebc STATUS:               ID:20161217211848 L   I
 OLDACT:REG 16-12-18 03:35 OP:lv   STATUS:               ID:20161217210745     3
 2016-12-17-2108-00M.COL___387                                                 6
 STAT SP IPHASW D HRMM SECON CODA AMPLIT PERI AZIMU VELO AIN AR TRES W  DIS CAZ7
 BRR  HZ EP       2119 10.47                             153    0.0810 72.1 297 
 BRR  HN ES       2119 27.71                             153    0.4810 72.1 297 
 PAM  EZ EP       2119 11.68                             152    0.3910 75.5  39 
 PAM  EE ES       2119 28.41                             152   -0.4210 75.5  39 
 PAM  EZ I        2119 30.74         5.2 0.42            154           75.5  39 
 RUS  HZ EP       2119 12.74                             144   -0.2310  102 177 
 RUS  HN ES       2119 31.85                             144    0.0110  102 177 
 RUS  HZ I        2119 32.39         3.3 0.32            145            102 177 
 ZAR  HE ES       2119 46.69                             123   -0.48 9  205 292 
 ZAR  HZ I        2119 54.71         2.2 0.10            122            205 292 
 CHI  HZ EP       2119 27.00                             118    0.14 8  250 195 
 CHI  HN ES       2119 56.46                             118   -0.09 8  250 195 
 CHI  HZ I        2119 59.67         1.2 0.29            118            250 195 
                                                                                
