 2016  217 2003 21.4 L   6.826 -73.214134.0  RSN  9 0.4 1.9LRSN                1
 GAP=127        0.53       3.2     3.6  5.9 -0.6290E+01  0.8050E+01  0.3019E-01E
 Epicentro: ZAPATOCA - SANTANDER                                               3
 ACTION:UPD 16-03-04 21:26 OP:rebc STATUS:               ID:20160217200321 L   I
 OLDACT:REG 16-02-18 03:09 OP:dnl  STATUS:               ID:20160217195748     3
 2016-02-17-1957-48M.COL___340                                                 6
 STAT SP IPHASW D HRMM SECON CODA AMPLIT PERI AZIMU VELO AIN AR TRES W  DIS CAZ7
 BAR2 EZ EP   2   20 3 39.61                             168   -0.10 5 26.1 172 
 BAR2 EZ ES   2   20 3 53.53                             168   -0.44 5 26.1 172 
 BAR2 EZ I        20 3 55.41        25.3 0.14            169           26.1 172 
 PAM  EZ EP     D 20 3 42.53                             148   -0.0710 80.3  45 
 PAM  EN ES       20 3 59.29                             148    0.1810 80.3  45 
 PAM  EZ I        20 4  1.82        12.3 0.46            152           80.3  45 
 RUS  HZ EP   2   20 3 44.20                             140   -0.13 5  104 172 
 RUS  HN ES   2   20 4  1.96                             140   -0.22 5  104 172 
 RUS  HZ I        20 4  3.75         7.2 0.28            144            104 172 
 PTB  HZ EP   2   20 3 46.71                             131   -0.12 5  141 257 
 PTB  HN ES   2   20 4  6.39                             131   -0.25 5  141 257 
 PTB  HZ I        20 4 10.06        15.8 0.14            130            141 257 
 SPBC HZ EP   3   20 3 48.34                             127   -0.49 2  161 216 
 SPBC HN ES       20 4 10.64                             127    0.45 9  161 216 
 SPBC HZ I        20 4 14.60        10.7 0.24            128            161 216 
 ZAR  HZ EP   2   20 3 52.93                             121    0.64 4  196 292 
 ZAR  HN ES   2   20 4 15.67                             121   -0.68 4  196 292 
 ZAR  HZ I        20 4 24.61         7.5 0.19            121            196 292 
 NOR  HZ EP   2   20 3 56.22                             117    0.19 4  230 233 
 NOR  HN ES   2   20 4 23.20                             117    0.19 4  230 233 
 NOR  HZ I        20 4 25.39         7.1 0.18            117            230 233 
 CHI  HZ EP   2   20 3 57.97                             115   -0.64 4  250 193 
 CHI  HN ES   2   20 4 27.19                             115   -0.42 4  250 193 
 CHI  HZ I        20 4 33.03         2.5 0.26            117            250 193 
 GUY2CHZ EP   4   20 4  5.13                             110    1.11 0  297 233 
 GUY2CHN ES   2   20 4 36.84                             110   -0.39 4  297 233 
 GUY2CHZ I        20 4 45.00         5.8 0.24                           297 233 
                                                                                
