 2016  317 2120 41.7 L   6.788 -73.153146.2  RSN  8 0.3 2.0LRSN                1
 GAP=136        0.73       3.2     3.2  5.0 -0.2032E+01  0.6703E+01 -0.8327E+00E
 Epicentro: LOS SANTOS - SANTANDER                                             3
 ACTION:UPD 16-05-13 21:25 OP:cam  STATUS:               ID:20160317212041 L   I
 OLDACT:REG 16-03-18 02:44 OP:drio STATUS:               ID:20160317211750     3
 2016-03-17-2117-50M.COL___322                                                 6
 STAT SP IPHASW D HRMM SECON CODA AMPLIT PERI AZIMU VELO AIN AR TRES W  DIS CAZ7
 BAR2 EZ EP       2121  1.28                             171   -0.0610 21.9 188 
 BAR2 EZ ES       2121 16.21                             171   -0.4710 21.9 188 
 BAR2 EZ I        2121 18.21        17.2 0.30            170           21.9 188 
 PAM  EZ EP       2121  3.97                             150   -0.0710 78.9  39 
 PAM  EE ES       2121 21.73                             150    0.2510 78.9  39 
 PAM  EZ I        2121 23.40        11.6 0.52            154           78.9  39 
 RUS  HZ EP       2121  5.39                             144   -0.0010 99.4 176 
 RUS  HE ES       2121 24.20                             144    0.3110 99.4 176 
 RUS  HZ I        2121 25.42         9.3 0.42            149           99.4 176 
 PTB  HZ EP       2121  8.11                             132   -0.48 9  147 259 
 PTB  HN ES       2121 29.26                             132   -0.32 9  147 259 
 PTB  HZ I        2121 36.75        13.1 0.34            133            147 259 
 SPBC HZ EP       2121 10.23                             129    0.16 9  162 219 
 SPBC HE ES       2121 32.46                             129    0.24 9  162 219 
 SPBC HZ I        2121 34.35        16.0 0.10            132            162 219 
 ZAR  HZ EP       2121 14.26                             122    0.13 9  204 293 
 ZAR  HE ES       2121 39.92                             122    0.48 9  204 293 
 ZAR  HZ I        2121 46.64        10.0 0.34            123            204 293 
 NOR  HZ EP       2121 17.09                             119   -0.20 8  233 235 
 NOR  HE ES   4   2121 43.21                             119   -1.85 0  233 235 
 NOR  HZ I        2121 49.41         9.1 0.24            121            233 235 
 GUY2CHZ EP   4   2121 27.23                             112    2.08 0  300 235 
 GUY2CHE ES       2121 59.24                             112    0.18 7  300 235 
 GUY2CHZ I        2122  6.72         4.2 0.60                           300 235 
                                                                                
