 2015  517 2233 46.2 L   6.794 -73.120148.6  RSN  6 0.4 1.7LRSN                1
 GAP=203        1.09       4.9     7.8  7.6  0.1168E+02  0.2003E+01 -0.5395E+01E
 Epicentro: LOS SANTOS - SANTANDER                                             3
 ACTION:UPD 15-09-10 22:04 OP:cam  STATUS:               ID:20150517223346 L   I
 OLDACT:UP  15-05-19 07:19 OP:DRIO STATUS:               ID:20150517223346 L   3
 OLDACT:REG 15-05-18 04:20 OP:stll STATUS:               ID:20150517222736     3
 2015-05-17-2227-36M.COL___286                                                 6
 STAT SP IPHASW D HRMM SECON CODA AMPLIT PERI AZIMU VELO AIN AR TRES W  DIS CAZ7
 BAR2 EZ EP       2234  6.43                             171    0.2410 23.4 197 
 BAR2 EZ ES       2234 21.14                             171   -0.6310 23.4 197 
 BAR2 EZ I        2234 24.36         8.2 0.24            170           23.4 197 
 BRR  HZ EP       2234  8.35                             152    0.5210 74.0 298 
 BRR  HZ I        2234  9.78        10.1 0.12            149           74.0 298 
 BRR  HN ES       2234 25.49                             152    0.8010 74.0 298 
 RUS  HZ EP       2234 10.05                             145   -0.1410 99.8 178 
 RUS  HZ I        2234 11.42         3.8 0.20            146           99.8 178 
 SPBC HZ EP       2234 15.30                             129    0.24 9  164 220 
 SPBC HN ES       2234 37.28                             129   -0.27 9  164 220 
 SPBC HZ I        2234 40.79         9.6 0.10            130            164 220 
 ZAR  HZ EP       2234 18.99                             123   -0.16 8  207 292 
 ZAR  HE ES       2234 44.54                             123   -0.29 8  207 292 
 ZAR  HZ I        2234 50.83         5.6 0.22            122            207 292 
 SML  HZ EP       2234 23.14                             118   -0.06 8  245 335 
 SML  HE ES       2234 51.40                             118   -0.64 8  245 335 
 SML  HZ I        2234 57.98         7.4 0.10            118            245 335 
                                                                                
