 2011  717 2346 15.1 L   6.868 -72.928139.4  RSN  4 0.3 1.4LRSN                1
 GAP=182        0.64       4.7     7.9  8.8 -0.9520E+01 -0.1608E+02  0.1183E+01E
 Epicentro: GUACA - SANTANDER                                                  3
 ACTION:UPD 12-07-25 14:01 OP:epov STATUS:               ID:20110717234615 L   I
 2011-07-17-2342-52S.COL___143                                                 6
 STAT SP IPHASW D HRMM SECON CODA AMPLIT PERI AZIMU VELO AIN AR TRES W  DIS CAZ7
 BAR2 SZ EP   2   2346 34.78                             163    0.27 5 41.5 223 
 BAR2 SZ ES   2   2346 49.35                             163   -0.29 5 41.5 223 
 BAR2 SZ I        2346 53.24         7.3 0.69                          41.5 223 
 BRR  HZ EP       2346 37.08                             145    0.2510 90.6 287 
 BRR  HZ I        2346 37.64         7.9 0.13                          90.6 287 
 BRR  HE ES   1   2346 53.56                             145   -0.21 7 90.6 287 
 RUS  HZ EP   2   2346 39.01                             140    0.10 5  109 189 
 RUS  HE ES   2   2346 57.48                             140    0.01 5  109 189 
 RUS  HZ I        2346 59.89         2.3 0.23                           109 189 
 GRA  SZ EP   1   2346 38.12                             139   -0.64 7  113   7 
 GRA  SZ ES   1   2346 57.57                             139    0.36 7  113   7 
 GRA  SZ I        2347  1.20         2.9 0.22                           113   7 
                                                                                
