 2010  617 2158 20.3 L   6.158 -73.652112.0  RSN  7 0.3 1.7LRSN                1
 GAP=149        0.62       3.8     9.3  9.1 -0.3478E+01  0.4634E+02  0.4675E+01E
 Epicentro: LA PAZ - SANTANDER                                                 3
 ACTION:UP  10-08-24 10:11 OP:vdl  STATUS:               ID:20100617215820 L   I
 2010-06-17-2154-55S.COL___115                                                 6
 STAT SP IPHASW D HRMM SECON CODA AMPLIT PERI AZIMU VELO SNR AR TRES W  DIS CAZ7
 RUS  HZ IP     D 2158 38.28                             147    -0.310   69 115 
 RUS  HZ I        2158 38.50         7.0 0.19                            69 115 
 RUS  HE ES   2   2158 52.54                             147    -0.2 5   69 115 
 BAR2 SZ EP   1   2158 38.21                             146     0.0 7   71  47 
 BAR2 SZ ES   1   2158 52.52                             146     0.3 7   71  47 
 BRR  HZ EP   2   2158 40.38                             134    -0.3 5  105 356 
 BRR  HZ I        2158 41.32        19.7 0.37                           105 356 
 BRR  HN ES   2   2158 56.48                             134    -0.1 5  105 356 
 ROSC BZ EP   2   2158 46.79                             121    -0.1 5  163 207 
 ROSC BZ I        2159 19.55         7.7 0.35                           163 207 
 CHI  HZ EP   2   2158 47.30                             120    -0.3 5  169 183 
 CHI  HZ I        2158 48.06         5.2 0.43                           169 183 
 CHI  HN ES   2   2159  9.70                             120     0.9 5  169 183 
 BRI  SZ EP   2   2158 50.69                             115     0.5 4  197  29 
 GUE  SZ EP   2   2158 51.20                             115     0.2 4  202  23 
                                                                                
