 2011  217 2016 39.6 L   6.754 -73.149144.0  RSN  7 0.3 1.8LRSN                1
 GAP=211        0.58       7.0     7.5  9.2 -0.2212E+02  0.4465E+02 -0.2198E+02E
 Epicentro: LOS SANTOS - SANTANDER                                             3
 ACTION:UP  11-03-28 15:09 OP:jfem STATUS:               ID:20110217201639 L   I
 2011-02-17-2015-18S.COL___137                                                 6
 STAT SP IPHASW D HRMM SECON CODA AMPLIT PERI AZIMU VELO SNR AR TRES W  DIS CAZ7
 BAR2 SZ EP   1   2016 58.52                             172    -0.4 7   18 192 
 BAR2 SZ ES   2   2017 14.13                             172     0.2 5   18 192 
 BAR2 SZ I        2017 16.73        15.3 0.30                            18 192 
 BTL  SZ EP   1   2016 59.07                             171     0.1 7   22 324 
 RUS  HZ EP   1   2017  2.64                             145    -0.1 7   96 176 
 RUS  HN ES   1   2017 21.07                             145     0.2 7   96 176 
 RUS  HZ I        2017 22.59         8.2 0.23                            96 176 
 NOR  SZ EP   1   2017 15.01                             119     0.2 6  232 236 
 NOR  SN ES   2   2017 41.75                             119    -0.6 4  232 236 
 NOR  SZ I        2017 45.84         0.9 0.28                           232 236 
 HEL  HZ EP   2   2017 20.19                             115     0.7 4  271 257 
 HEL  HZ I        2017 57.41         7.9 0.38                           271 257 
 GUY  SN ES   2   2017 56.67                             112     0.3 4  298 236 
 RREF HN ES   2   2018  0.57                             111    -0.3 3  318 230 
 RREF HZ I        2018  7.70         4.6 0.32                           318 230 
                                                                                
