 2017  617 2251 38.8 L   6.793 -73.159154.0  RSN  6 0.2 1.8LRSN                1
 GAP=279        0.72       4.9     6.0  7.6 -0.6753E+01 -0.6063E+01  0.1789E+01E
 Epicentro: LOS SANTOS - SANTANDER                                             3
 ACTION:UPD 17-09-14 16:52 OP:jn   STATUS:               ID:20170617225138 L   I
 OLDACT:DUP 17-06-18 08:42 OP:osc  STATUS:               ID:20170617223524d    3
 2017-06-17-2248-00M.COL___347                                                 6
 STAT SP IPHASW D HRMM SECON CODA AMPLIT PERI AZIMU VELO AIN AR TRES W  DIS CAZ7
 BRR  HZ EP       2252  1.02                             155    0.2110 70.3 300 
 BRR  HN ES       2252 18.13                             155    0.1610 70.3 300 
 BRR  HZ I        2252 22.09         6.0 0.10            160           70.3 300 
 PTB  HZ EP       2252  6.24                             135   -0.09 9  146 259 
 PTB  HE ES       2252 27.34                             135   -0.45 9  146 259 
 PTB  HZ I        2252 28.90         4.9 0.14            139            146 259 
 SPBC HZ EP   4   2252 19.91                             132   12.09 0  162 219 
 SPBC HE ES       2252 30.49                             132    0.05 9  162 219 
 SPBC HZ I        2252 34.71        16.3 0.34            134            162 219 
 ZAR  HZ EP   4   2252 14.57                             125    2.87 0  203 292 
 ZAR  HE ES       2252 37.38                             125    0.03 9  203 292 
 NOR  HZ EP   9   2252 13.00                             121   -1.87 0  233 234 
 NOR  HN ES       2252 41.78                                    0.66 8  233 234 
 NOR  HZ I        2252 46.53         4.2 0.18            124            233 234 
 HEL  HN ES       2252 50.91                             117    0.06 8  270 256 
                                                                                
