 2017  717 2032 56.2 L   6.817 -73.170138.0  RSN 11 0.5 2.0LRSN                1
 GAP=109        1.21       4.5     4.1  6.8  0.5420E+01  0.8667E+01  0.6141E+01E
 Epicentro: LOS SANTOS - SANTANDER                                             3
 ACTION:UPD 17-08-30 15:34 OP:rebc STATUS:               ID:20170717203256 L   I
 OLDACT:UP  17-07-18 03:17 OP:edw  STATUS:               ID:20170717202745     3
 OLDACT:UP  17-07-18 03:16 OP:edw  STATUS:               ID:20170717202745     3
 OLDACT:REG 17-07-18 02:52 OP:dhb  STATUS:               ID:20170717202745     3
 2017-07-17-2028-00M.COL___389                                                 6
 STAT SP IPHASW D HRMM SECON CODA AMPLIT PERI AZIMU VELO AIN AR TRES W  DIS CAZ7
 BAR2 EZ EP     D 2033 14.71                             169   -0.2210 24.8 183 
 BAR2 EZ ES       2033 29.40                             169   -0.1410 24.8 183 
 BAR2 EZ I        2033 30.56        38.4 0.32            168           24.8 183 
 BRR  HZ IP     C 2033 16.42                             152    0.1010 67.9 298 
 BRR  HE ES       2033 32.35                             152    0.3310 67.9 298 
 PAM  EZ EP     D 2033 17.56                             149   -0.0510 77.8  42 
 PAM  EN ES       2033 34.62                             149    0.3010 77.8  42 
 PAM  EZ I        2033 36.58        27.7 0.52            152           77.8  42 
 RUS  HZ EP       2033 19.18                             142   -0.1710  103 175 
 RUS  HN ES       2033 37.24                             142   -0.1610  103 175 
 RUS  HZ I        2033 39.19        10.4 0.18            142            103 175 
 PTB  HZ EP       2033 21.48                             131   -0.85 9  145 258 
 PTB  HN ES       2033 42.28                             131   -0.43 9  145 258 
 PTB  HZ I        2033 45.22         9.6 0.16            131            145 258 
 YPLC HZ EP       2033 25.27                             124   -0.46 9  180 151 
 YPLC HN ES       2033 49.13                             124    0.36 9  180 151 
 YPLC HZ I        2033 50.07        10.8 0.30            126            180 151 
 ZAR  HZ EP       2033 28.68                             121    0.87 9  201 292 
 ZAR  HN ES       2033 52.61                             121    0.14 9  201 292 
 ZAR  HZ I        2033 58.43        16.5 0.44            122            201 292 
 NOR  HZ EP       2033 31.12                             117   -0.25 8  234 234 
 NOR  HN ES       2033 59.78                             117    0.98 8  234 234 
 NOR  HZ I        2034  5.02         8.2 0.30            118            234 234 
 URE  HZ EP   4   2033 39.16                             112    2.62 0  281 292 
 URE  HN ES       2034  7.11                             112   -0.89 7  281 292 
 GUY2CHZ EP       2033 40.27                             111    0.94 7  300 234 
 GUY2CHZ I        2034 25.13         4.0 0.56                           300 234 
 SJC  HZ EP   4   2033 49.05                             105   -2.11 0  406 327 
 SJC  HN ES   4   2034 28.96                             105   -5.07 0  406 327 
 SJC  HZ I        2034 34.22         2.5 0.52            106            406 327 
                                                                                
