 2015  217 2110 38.9 L   6.803 -73.175141.9  RSN 11 0.6 2.1LRSN                1
 GAP=133        1.27       4.3     4.8  6.8 -0.2504E+01  0.9995E+01  0.6826E+01E
 Epicentro: LOS SANTOS - SANTANDER                                             3
 ACTION:UPD 15-04-30 21:27 OP:nd   STATUS:               ID:20150217211038 L   I
 OLDACT:REG 15-02-18 03:19 OP:stll STATUS:               ID:20150217210746     3
 2015-02-17-2107-46M.COL___305                                                 6
 STAT SP IPHASW D HRMM SECON CODA AMPLIT PERI AZIMU VELO AIN AR TRES W  DIS CAZ7
 BAR2 EZ EP       2110 58.24                             170    0.1610 23.3 182 
 BAR2 EZ ES       2111 13.39                             170    0.3610 23.3 182 
 BAR2 EZ I        2111 14.71        29.7 0.22            168           23.3 182 
 BRR  HZ EP       2111  0.00                             153    0.5210 68.2 300 
 BRR  HN ES       2111 15.49                             153   -0.0310 68.2 300 
 PAM  SZ IP     C 2111  0.93                             149    0.1010 79.2  41 
 PAM  SZ I        2111  1.39        50.2 0.18            154           79.2  41 
 PAM  SN ES       2111 18.15                             149    0.2310 79.2  41 
 RUS  HZ EP       2111  2.20                             143   -0.1310  101 174 
 RUS  HN ES       2111 19.99                             143   -0.6110  101 174 
 RUS  HZ I        2111 22.27        15.1 0.28            143            101 174 
 PTB  HZ EP       2111  4.72                             132   -0.57 9  145 258 
 PTB  HN ES       2111 25.78                             132   -0.08 9  145 258 
 PTB  HZ I        2111 28.46        12.8 0.16            131            145 258 
 SPBC HZ EP       2111  7.13                             128    0.17 9  161 218 
 SPBC HN ES       2111 28.94                             128    0.11 9  161 218 
 SPBC HZ I        2111 35.41        24.7 0.22            128            161 218 
 ZAR  HZ EP       2111 10.49                             122   -0.30 9  201 292 
 ZAR  HE ES       2111 35.16                             122   -0.49 9  201 292 
 ZAR  HZ I        2111 41.91        12.2 0.22            123            201 292 
 NOR  HZ EP       2111 13.55                             118   -0.62 8  232 234 
 NOR  HE ES       2111 41.56                             118   -0.10 8  232 234 
 NOR  HZ I        2111 48.92        10.5 0.20            118            232 234 
 CHI  HZ EP       2111 16.58                             116    0.23 8  248 194 
 CHI  HN ES       2111 44.73                             116   -0.82 8  248 194 
 CHI  HZ I        2111 51.92         7.5 0.34            117            248 194 
 GUY2CHZ EP       2111 22.22                             112    0.14 7  299 234 
 GUY2CHE ES       2111 55.52                             112   -0.22 7  299 234 
 GUY2CHZ I        2112  4.23         7.7 0.34                           299 234 
 TOL  SZ EP       2111 27.16                             109    0.37 7  342 224 
 TOL  SE ES       2112  6.55                             109    2.42 7  342 224 
                                                                                
