 2010  117 2345 37.0 L   6.834 -73.137135.0  RSN  7 0.3 2.4LRSN                1
 GAP=184        0.52       2.2     9.1  6.6 -0.3715E+01  0.3607E+02 -0.1834E+01E
 Epicentro: LOS SANTOS - SANTANDER                                             3
 ACTION:UP  10-08-24 09:44 OP:vdl  STATUS:               ID:20100117234537 L   I
 2010-01-17-2344-10S.COL___096                                                 6
 STAT SP IPHASW D HRMM SECON CODA AMPLIT PERI AZIMU VELO SNR AR TRES W  DIS CAZ7
 BAR2 SZ EP   2   2345 55.58                             168     0.2 5   27 191 
 BAR2 SZ ES   2   2346  9.82                             168     0.0 5   27 191 
 RUS  BZ EP   1   2345 59.83                             140    -0.1 8  104 177 
 RUS  BN ES   1   2346 17.79                             140    -0.1 8  104 177 
 OCA  SZ EP       2346  4.01                             128    -0.110  157 353 
 OCA  SZ ES   1   2346 25.44                             128     0.1 7  157 353 
 CHI  HZ EP   1   2346 14.80                             114     0.3 6  253 195 
 CHI  HN ES   1   2346 44.11                             114     0.3 6  253 195 
 RREF BZ EP   2   2346 24.15                             109     1.1 4  325 229 
 RREF BZ I        2347  7.68         8.8 0.43                           325 229 
 DBB  SZ EP   1   2346 23.87                             107    -0.3 5  340 274 
 PRA  HZ EP   2   2346 30.34                             104    -0.2 3  396 209 
 PRA  HE ES   1   2347 11.79                             104    -0.6 5  396 209 
 PRA  HZ I        2347 16.26         7.0 0.43                           396 209 
                                                                                
