 2016  717 2230 33.6 L   6.586 -73.408 89.2  RSN  4 0.3 0.8LRSN                1
 GAP=119        0.81       4.5     4.6  8.3  0.9245E+01  0.2059E+02  0.8447E+01E
 Epicentro: HATO - SANTANDER                                                   3
 ACTION:UPD 17-03-29 16:52 OP:lp   STATUS:               ID:20160717223033 L   I
 OLDACT:REG 16-07-18 03:11 OP:edw  STATUS:               ID:20160717222759     3
 2016-07-17-2227-59S.COL___319                                                 6
 STAT SP IPHASW D HRMM SECON CODA AMPLIT PERI AZIMU VELO AIN AR TRES W  DIS CAZ7
 BAR2 EZ EP       2230 46.65                             163    0.1410 25.0  88 
 BAR2 EZ ES       2230 57.02                             163    0.4310 25.0  88 
 BAR2 EZ I        2231  6.34         4.8 0.42            173           25.0  88 
 BRR  HZ EP       2230 48.39                             140   -0.2410 66.7 330 
 BRR  HN ES       2231  0.07                             140   -0.3110 66.7 330 
 RUS  HZ EP   4   2230 43.70                             133   -7.14 0 84.7 155 
 RUS  HN ES       2231  3.92                             133   -0.3810 84.7 155 
 RUS  HZ I        2231  4.90         0.8 0.24            145           84.7 155 
 PTB  HZ EP       2230 53.60                             123    0.3510  116 268 
 PTB  HE ES       2231  8.60                             123    0.0210  116 268 
 PTB  HZ I        2231 14.76         2.0 0.32            132            116 268 
                                                                                
