 2012 1217 2244 56.1 L   6.820 -73.135145.6  RSN 15 0.6 2.5LRSN 3.1WRSN        1
 SPEC AVERAGE  MO 13.7 ST  8.4 OM  2.3 f0 4.13 R0.3879 AL 2.35 WI 21.5 MW  3.1 3
 SPEC SD       MO  0.3 ST  7.8 OM  0.6 f0 1.23 R0.1115 AL      WI      MW  0.2 3
 GAP= 71        1.48       3.9     4.7  7.2  0.1088E+01  0.7298E+01  0.4261E+01E
 Epicentro: LOS SANTOS - SANTANDER                                             3
 SPEC ZAR HH N MO 13.8 ST 21.0 OM  2.0 f0 6.38 R0.2304 AL 2.27 WI 27.7 MW  3.1 3
 SPEC ZAR HH N T224553 K 0.000 GD  250 VS 4.20 DE 3.00 Q0230.0 QA 0.60 VS 4.20 3
 SPEC TAM HH Z MO 13.5 ST  2.0 OM  1.0 f0 3.65 R0.4027 AL 1.89 WI  9.0 MW  2.9 3
 SPEC TAM HH Z T224523 K 0.000 GD  212 VP 7.60 DE 3.00 Q0230.0 QA 0.60 VS 4.20 3
 SPEC RUS HH N MO 13.2 ST0.722 OM  1.6 f0 3.16 R0.4652 AL 2.06 WI 17.2 MW  2.8 3
 SPEC RUS HH N T224537 K 0.000 GD  178 VS 4.20 DE 3.00 Q0230.0 QA 0.60 VS 4.20 3
 SPEC NOR HH N MO 14.1 ST 18.7 OM  2.3 f0 4.71 R0.3121 AL 2.92 WI 28.3 MW  3.4 3
 SPEC NOR HH N T224557 K 0.000 GD  278 VS 4.20 DE 3.00 Q0230.0 QA 0.60 VS 4.20 3
 SPEC OCA HH N MO 14.1 ST  6.8 OM  2.4 f0 3.39 R0.4336 AL 2.19 WI 23.3 MW  3.3 3
 SPEC OCA HH N T224545 K 0.000 GD  214 VS 4.20 DE 3.00 Q0230.0 QA 0.60 VS 4.20 3
 SPEC CHI HH N MO 13.6 ST0.945 OM  1.8 f0 2.52 R0.5833 AL 1.80 WI 17.7 MW  3.0 3
 SPEC CHI HH N T2246 4 K 0.000 GD  290 VS 4.20 DE 3.00 Q0230.0 QA 0.60 VS 4.20 3
 SPEC BRR HH N MO 13.7 ST  8.7 OM  2.1 f0 5.10 R0.2882 AL 3.31 WI 27.5 MW  3.1 3
 SPEC BRR HH N T224534 K 0.000 GD  162 VS 4.20 DE 3.00 Q0230.0 QA 0.60 VS 4.20 3
 ACTION:UPD 13-01-04 14:28 OP:ep   STATUS:               ID:20121217224456 L   I
 2012-12-17-2240-00M.COL___242                                                 6
 STAT SP IPHASW D HRMM SECON CODA AMPLIT PERI AZIMU VELO AIN AR TRES W  DIS CAZ7
 BAR2 SZ EP       2245 15.79                             170    0.0710 25.7 192 
 BAR2 SZ ES       2245 30.77                             170   -0.2910 25.7 192 
 BAR2 SZ I        2245 31.79        68.3 0.26                          25.7 192 
 GIR2 SZ EP       2245 15.80                             168    0.1410 29.3 347 
 BRR  HZ EP       2245 17.56                             152    0.3710 71.2 297 
 BRR  HZ I        2245 17.86        36.0 0.26                          71.2 297 
 BRR  HN ES       2245 34.92                             152    1.2410 71.2 297 
 PAM  SZ IP     D 2245 18.46                             152    0.3410 74.9  40 
 PAM  SZ I        2245 18.68        62.5 0.22                          74.9  40 
 PAM  SN ES       2245 34.79                             152   -0.5310 74.9  40 
 RUS  HZ EP       2245 19.66                             143   -0.2910  103 177 
 RUS  HN ES       2245 38.23                             143   -0.3610  103 177 
 RUS  HN I        2245 40.03        37.6 0.40                           103 177 
 PTB  HZ EP       2245 22.37                             132   -0.79 9  149 258 
 PTB  HN ES       2245 43.07                             132   -1.23 9  149 258 
 PTB  HN I        2245 49.29        83.7 0.48                           149 258 
 TAM  HZ EP       2245 23.88                             131    0.21 9  155 106 
 TAM  HZ I        2245 24.21        12.7 0.36                           155 106 
 TAM  HN ES       2245 45.46                             131    0.25 9  155 106 
 OCA  HZ EP       2245 23.88                             130   -0.29 9  158 353 
 OCA  HN ES       2245 46.40                             130    0.31 9  158 353 
 OCA  HN I        2245 51.20       109.4 0.24                           158 353 
 ZAR  HN ES       2245 54.48                             122    0.63 9  204 291 
 NOR  HZ EP       2245 31.72                             118   -0.30 8  237 234 
 NOR  HN I        2246  3.98        31.3 0.18                           237 234 
 SML  HZ EP       2245 31.95                             118   -0.56 8  242 335 
 SML  HN ES       2246  0.16                             118   -0.79 8  242 335 
 SML  HN I        2246  8.22        42.3 0.10                           242 335 
 CHI  HZ EP       2245 34.01                             117    0.00 8  251 195 
 CHI  HE ES       2246  4.31                             117    0.69 8  251 195 
 CHI  HN I        2246  8.10        16.5 0.32                           251 195 
 HEL  HZ EP       2245 38.04                             115    1.59 8  274 255 
 HEL  HN I        2246 15.38        12.2 0.60                           274 255 
 TOL  SZ EP       2245 44.89                             109    0.31 6  346 225 
 PRA  HZ EP       2245 49.40                             106   -0.46 6  395 210 
 PRA  HN ES       2246 31.67                             106   -0.16 6  395 210 
 PRA  HN I        2246 37.05         8.4 0.46                           395 210 
                                                                                
