 2010 1217 2031 49.9 L   6.868 -73.288121.2  RSN  8 0.3 2.2LRSN                1
 GAP=134        0.61       2.5     4.7  5.1 -0.7816E+00  0.4257E+01  0.3763E+00E
 Epicentro: BETULIA - SANTANDER                                                3
 ACTION:UP  11-01-14 15:25 OP:pat  STATUS:               ID:20101217203149 L   I
 2010-12-17-2026-32S.COL___136                                                 6
 STAT SP IPHASW D HRMM SECON CODA AMPLIT PERI AZIMU VELO SNR AR TRES W  DIS CAZ7
 BAR2 SZ IP       2032  7.07                             164     0.310   33 159 
 BAR2 SZ ES   1   2032 19.70                             164    -0.3 7   33 159 
 BAR2 SZ I        2032 21.50       132.8 0.32                            33 159 
 BRR  HZ EP       2032  7.41                             154     0.010   54 300 
 BRR  HZ I        2032  7.98        24.7 0.12                            54 300 
 BRR  HN ES   1   2032 21.17                             154     0.1 7   54 300 
 RUS  HZ EP   1   2032 11.82                             135    -0.3 7  110 168 
 RUS  HE ES   1   2032 29.40                             135     0.0 7  110 168 
 GRA  SZ EP   2   2032 12.80                             131    -0.1 5  125  25 
 GRA  SZ ES   1   2032 31.26                             131     0.4 7  125  25 
 GRA  SZ I        2032 34.26        28.1 0.71                           125  25 
 OCA  SZ EP   1   2032 15.01                             125    -0.5 7  152 359 
 OCA  SZ ES   1   2032 35.33                             125    -0.2 7  152 359 
 OCA  SZ I        2032 39.18        29.4 0.24                           152 359 
 NOR  SZ EP   2   2032 23.37                             114     0.0 4  227 231 
 CHI  HZ EP   1   2032 26.95                             111     0.2 6  252 191 
 CHI  HZ I        2032 27.49         5.3 0.12                           252 191 
 HEL  HZ EP   2   2032 27.95                             111     0.5 4  259 253 
 HEL  HN ES   2   2032 56.48                             111    -0.2 4  259 253 
 HEL  HZ I        2033  1.13         9.8 0.57                           259 253 
                                                                                
