 2011  717 2037 36.1 L   6.770 -73.104147.9  RSN 18 0.3 3.3LRSN                1
 GAP=129        0.70       2.4     3.3  3.8 -0.3523E+01  0.1481E+01  0.1589E+01E
 Epicentro: LOS SANTOS - SANTANDER                                             3
 ACTION:UPD 12-07-25 14:01 OP:epov STATUS:               ID:20110717203736 L   I
 2011-07-17-2035-53S.COL___143                                                 6
 STAT SP IPHASW D HRMM SECON CODA AMPLIT PERI AZIMU VELO AIN AR TRES W  DIS CAZ7
 BAR2 SZ IP       2037 56.07                             171    0.1510 21.4 204 
 BAR2 SZ I        2037 56.66       443.6 0.32                          21.4 204 
 BAR2 SZ ES   1   2038 11.41                             171    0.01 7 21.4 204 
 BTL  SZ EP       2037 56.33                             170    0.3510 24.4 312 
 GIR2 SZ EP       2037 56.02                             166   -0.1010 35.5 344 
 BRR  HZ IP     C 2037 57.95                             151    0.1810 76.8 299 
 BRR  HZ I        2037 58.27       749.1 0.19                          76.8 299 
 BRR  HE ES       2038 14.98                             151    0.2910 76.8 299 
 PAM  SZ EP       2037 58.86                             151    0.3610 77.3  35 
 PAM  SN ES       2038 15.60                             151   -0.4010 77.3  35 
 RUS  HZ IP     C 2037 59.85                             145    0.0710 97.0 179 
 RUS  HN ES   1   2038 17.80                             145   -0.47 7 97.0 179 
 RUS  HZ I        2038 19.94       202.5 0.29                          97.0 179 
 BRI  SZ EP       2038  0.60                             141    0.3110  110  18 
 GRA  SZ IP       2038  1.89                             137    0.2310  128  15 
 GRA  SZ ES   1   2038 21.34                             137   -0.28 7  128  15 
 GRA  SZ I        2038 22.58       286.7 0.30                           128  15 
 OCA  SZ EP       2038  4.66                             129   -0.25 9  164 352 
 OCA  SZ ES   1   2038 27.18                             129   -0.23 7  164 352 
 OCA  SZ I        2038 30.71       200.0 0.54                           164 352 
 NOR  SZ EP   1   2038 11.32                             119   -0.80 6  237 236 
 NOR  SN ES   1   2038 39.99                             119   -0.25 6  237 236 
 CHI  HZ EP       2038 13.97                             118    0.29 8  247 196 
 CHI  HN ES   1   2038 42.69                             118   -0.32 6  247 196 
 CHI  HZ I        2038 49.37        67.7 0.40                           247 196 
 HEL  HZ EP   1   2038 16.51                             115   -0.29 6  276 257 
 HEL  HE ES   1   2038 48.20                             115   -0.36 6  276 257 
 RREF HZ EP   2   2038 22.29                             111   -0.17 3  323 230 
 RREF HE ES   1   2038 58.92                             111    0.28 5  323 230 
 RREF HZ I        2039  8.47       130.3 0.33                           323 230 
 TOL  SZ EP   1   2038 25.45                             110    0.93 5  344 226 
 DBB  SZ EP       2038 23.77                             109   -0.42 7  344 275 
 SDV  BZ EP       2038 25.42                             109   -0.62 6  359  49 
 PRA  HZ EP   1   2038 29.54                             107   -0.06 4  391 210 
 PRA  HN ES   1   2039 11.32                             107   -0.02 4  391 210 
 SJA  SZ EP   1   2038 30.37                             107   -0.07 4  398 194 
 SJA  SZ I        2039 20.93        78.6 0.17                           398 194 
                                                                                
