 2013  817 2221 47.3 L   6.833 -73.159143.0  RSN  9 0.5 2.0LRSN                1
 GAP=133        0.98       3.7     4.4  7.2  0.1821E+00  0.1146E+02  0.2009E+00E
 Epicentro: LOS SANTOS - SANTANDER                                             3
 ACTION:UPD 14-01-14 09:04 OP:ep   STATUS:               ID:20130817222147 L   I
 OLDACT:REG 13-08-18 01:12 OP:carl STATUS:               ID:20130817221959     3
 2013-08-17-2219-59M.COL___269                                                 6
 STAT SP IPHASW D HRMM SECON CODA AMPLIT PERI AZIMU VELO AIN AR TRES W  DIS CAZ7
 BAR2 SZ EP       2222  6.48                             169   -0.1510 26.8 185 
 BAR2 SZ ES   1   2222 21.26                             169   -0.47 7 26.8 185 
 BAR2 SZ I        2222 25.20        13.6 0.16            169           26.8 185 
 BRR  HZ IP       2222  8.19                             153    0.2610 68.2 296 
 BRR  HN ES   1   2222 24.93                             153    0.87 7 68.2 296 
 BRR  HN I        2222 25.44       103.5 0.26            153           68.2 296 
 PAM  SZ IP     C 2222  9.32                             151    0.2510 75.6  42 
 PAM  SE ES   1   2222 26.23                             151    0.16 7 75.6  42 
 RUS  HZ EP       2222 10.64                             142   -0.3710  104 175 
 RUS  HE ES       2222 29.77                             142    0.2310  104 175 
 RUS  HZ I        2222 31.04         6.2 0.28            145            104 175 
 PTB  HZ EP       2222 13.29                             132   -0.64 9  147 257 
 PTB  HN ES   1   2222 33.99                             132   -0.75 7  147 257 
 PTB  HZ I        2222 35.61        11.2 0.14            133            147 257 
 ZAR  HZ EP   1   2222 19.39                             122    0.15 6  201 291 
 ZAR  HN ES       2222 44.50                             122    0.32 9  201 291 
 ZAR  HZ I        2222 50.09        13.9 0.30            124            201 291 
 NOR  HZ EP       2222 23.40                             118    0.47 8  236 234 
 NOR  HE ES   1   2222 50.62                             118   -0.13 6  236 234 
 NOR  HZ I        2222 53.56         6.1 0.26            120            236 234 
 SML  HN ES       2222 50.76                             117   -0.65 8  240 335 
 GUY2CHZ EP   2   2222 31.67                             112    0.83 4  302 234 
 GUY2CHN ES       2223  5.11                             112    0.27 7  302 234 
 GUY2CHZ I        2223 16.17         3.5 0.52                           302 234 
                                                                                
