 2013  417 2257 51.7 L   6.777 -73.183137.8  RSN  7 0.4 1.5LRSN                1
 GAP=133        1.01       4.3     4.9  6.5 -0.8214E+00  0.5562E+01  0.5802E+00E
 Epicentro: LOS SANTOS - SANTANDER                                             3
 ACTION:UPD 13-05-22 14:39 OP:EP   STATUS:               ID:20130417225751 L   I
 2013-04-17-2250-00M.COL___247                                                 6
 STAT SP IPHASW D HRMM SECON CODA AMPLIT PERI AZIMU VELO AIN AR TRES W  DIS CAZ7
 BAR2 SZ EP   1   2258  9.63                             171   -0.64 7 20.4 180 
 BAR2 SZ ES       2258 24.47                             171   -0.3210 20.4 180 
 BAR2 SZ I        2258 27.64        15.4 0.30            171           20.4 180 
 GIR2 SZ EP       2258 10.55                             166    0.1010 33.4 358 
 GIR2 SZ ES       2258 24.65                             166   -0.4510 33.4 358 
 GIR2 SZ I        2258 27.22         5.9 0.42            168           33.4 358 
 BRR  HZ EP       2258 12.25                             152    0.4310 68.9 302 
 BRR  HN ES       2258 28.37                             152    0.8210 68.9 302 
 BRR  HZ I        2258 32.17         7.1 0.38            153           68.9 302 
 PAM  SZ EP       2258 13.40                             148    0.0710 82.0  41 
 PAM  SE ES       2258 30.22                             148   -0.0110 82.0  41 
 PAM  SZ I        2258 31.96         7.9 0.38            152           82.0  41 
 RUS  HZ EP       2258 14.73                             143    0.2610 98.4 174 
 RUS  HE ES       2258 32.46                             143    0.1910 98.4 174 
 RUS  HZ I        2258 35.56         3.6 0.24            145           98.4 174 
 PTB  HZ EP       2258 17.24                             131   -0.33 9  143 260 
 PTB  HN ES       2258 37.44                             131   -0.34 9  143 260 
 PTB  HZ I        2258 41.01         5.1 0.12            133            143 260 
 SML  HN ES   1   2258 55.80                             116   -0.41 6  244 336 
                                                                                
