 2010 1217 2257 53.2 L   6.777 -73.114152.6  RSN  4 0.1 1.7LRSN                1
 GAP=225        0.34       4.8     8.9  3.6  0.3305E+02 -0.8123E+01 -0.2813E+01E
 Epicentro: LOS SANTOS - SANTANDER                                             3
 ACTION:UP  11-01-14 15:25 OP:pat  STATUS:               ID:20101217225753 L   I
 2010-12-17-2254-22S.COL___136                                                 6
 STAT SP IPHASW D HRMM SECON CODA AMPLIT PERI AZIMU VELO SNR AR TRES W  DIS CAZ7
 BAR2 SZ EP   1   2258 13.54                             171    -0.1 7   22 201 
 BAR2 SZ ES   1   2258 29.39                             171    -0.2 7   22 201 
 BAR2 SZ I        2258 30.09        10.0 0.15                            22 201 
 BTL  SZ EP   1   2258 13.70                             171     0.1 7   23 313 
 BTL  SZ ES   1   2258 29.73                             171     0.1 7   23 313 
 BRR  HZ EP   1   2258 15.41                             152     0.1 7   76 299 
 BRR  HN ES   1   2258 32.54                             152    -0.1 7   76 299 
 BRR  HZ I        2258 33.99         8.7 0.48                            76 299 
 RUS  HZ EP   1   2258 17.36                             146    -0.1 7   98 178 
 RUS  HN ES   1   2258 36.46                             146     0.1 7   98 178 
                                                                                
