 2016 1017 2116 19.1 L   6.811 -73.208139.4  RSN  4 0.1 1.3LRSN                1
 GAP=146        0.36       2.1     1.9  3.6 -0.1702E+01  0.2637E+01  0.3960E-01E
 Epicentro: ZAPATOCA - SANTANDER                                               3
 ACTION:UPD 16-11-09 19:20 OP:rebc STATUS:               ID:20161017211619 L   I
 OLDACT:DUP 16-10-18 03:20 OP:lv   STATUS:               ID:20161017210745d    3
 2016-10-17-2108-00M.COL___359                                                 6
 STAT SP IPHASW D HRMM SECON CODA AMPLIT PERI AZIMU VELO AIN AR TRES W  DIS CAZ7
 PAM  EZ EP       2116 40.81                             148   -0.0810 81.0  44 
 PAM  EN ES       2116 57.96                             148    0.0910 81.0  44 
 PAM  EZ I        2116 59.98         4.0 0.48            152           81.0  44 
 RUS  HZ EP       2116 42.35                             142   -0.0410  103 172 
 RUS  HE ES       2117  0.52                             142   -0.0210  103 172 
 RUS  HZ I        2117  1.68         2.5 0.23            146            103 172 
 PTB  HZ EP       2116 44.83                             132   -0.14 9  141 258 
 PTB  HE ES       2117  5.11                             132   -0.03 9  141 258 
 PTB  HZ I        2117  8.42         2.6 0.15            134            141 258 
 NOR  HZ EP       2116 54.21                             118    0.25 8  230 233 
 NOR  HE ES       2117 21.17                             118    0.04 8  230 233 
 NOR  HZ I        2117 23.17         1.6 0.14            120            230 233 
                                                                                
