 2013  517 2110 16.0 L   6.816 -73.150148.7  RSN 15 0.4 2.8LRSN                1
 GAP= 55        0.92       3.5     2.7  4.4 -0.1723E+01  0.8709E+00  0.3831E+01E
 Epicentro: LOS SANTOS - SANTANDER                                             3
 ACTION:UPD 13-06-20 09:51 OP:ep   STATUS:               ID:20130517211016 L   I
 2013-05-17-2110-00M.COL___256                                                 6
 STAT SP IPHASW D HRMM SECON CODA AMPLIT PERI AZIMU VELO AIN AR TRES W  DIS CAZ7
 BAR2 SZ IP     C 2110 35.82                             170   -0.1510 25.0 188 
 BAR2 SZ ES       2110 51.10                             170   -0.4810 25.0 188 
 BAR2 SZ I        2110 52.55       168.2 0.20            168           25.0 188 
 GIR2 SZ EP     D 2110 35.90                             168   -0.0310 29.5 351 
 GIR2 SZ ES   1   2110 51.69                             168    0.18 7 29.5 351 
 GIR2 SZ I        2110 53.04       140.8 0.32            168           29.5 351 
 BRR  HZ IP     D 2110 37.65                             153    0.2910 70.0 297 
 BRR  HE ES       2110 54.67                             153    0.6210 70.0 297 
 BRR  HZ I        2110 57.93       144.3 0.26            152           70.0 297 
 PAM  SZ EP       2110 38.72                             151    0.3010 76.3  41 
 PAM  SN ES       2110 55.95                             151    0.0010 76.3  41 
 PAM  SZ I        2110 56.61        97.2 0.18            150           76.3  41 
 RUS  HZ IP     D 2110 39.70                             144   -0.4210  102 176 
 RUS  HE ES       2110 58.86                             144   -0.1110  102 176 
 RUS  HZ I        2110 59.59        54.3 0.30            141            102 176 
 PTB  HZ EP       2110 42.57                             133   -0.59 9  148 258 
 PTB  HN ES       2111  3.49                             133   -0.88 9  148 258 
 PTB  HZ I        2111 10.83        91.3 0.42            130            148 258 
 TAM  HZ EP     D 2110 44.26                             131    0.31 9  156 106 
 TAM  HZ I        2111  4.96        56.7 0.36            128            156 106 
 TAM  HN ES       2111  6.03                             131    0.25 9  156 106 
 YOP  SZ EP       2110 46.58                             127    0.20 9  181 153 
 NOR  HZ EP       2110 52.03                             119    0.10 8  235 234 
 NOR  HN ES       2111 20.46                             119    0.48 8  235 234 
 NOR  HZ I        2111 29.32        48.9 0.14            116            235 234 
 SML  HZ EP   2   2110 52.45                             118   -0.11 4  242 335 
 CHI  HZ EP   1   2110 54.36                             117    0.37 6  250 195 
 CHI  HN ES   1   2111 23.70                             117    0.05 6  250 195 
 CHI  HZ I        2111 26.92        43.8 0.42            115            250 195 
 HEL  HZ EP   1   2110 56.47                             115    0.15 6  272 255 
 HEL  HN ES       2111 28.47                             115    0.66 8  272 255 
 HEL  HZ I        2111 34.53        42.9 0.24            113            272 255 
 URE  HZ EP   2   2110 56.25                             114   -0.80 4  283 292 
 SDV  BZ EP       2111  5.42                             109   -0.60 6  360  50 
 PRA  HZ EP       2111  9.60                             107   -0.13 6  393 209 
 PRA  HN ES       2111 51.64                             107   -0.03 6  393 209 
 PRA  HZ I        2111 58.21        35.5 0.26            105            393 209 
                                                                                
