 2011  117 2331 17.9 L   6.771 -73.094142.6  RSN  7 0.5 2.1LRSN                1
 GAP=165        1.10       6.3    17.5 13.1 -0.5854E+02  0.8244E+02 -0.1220E+02E
 Epicentro: LOS SANTOS - SANTANDER                                             3
 ACTION:UP  11-02-08 08:41 OP:pat  STATUS:               ID:20110117233117 L   I
 2011-01-17-2331-03S.COL___134                                                 6
 STAT SP IPHASW D HRMM SECON CODA AMPLIT PERI AZIMU VELO SNR AR TRES W  DIS CAZ7
 BAR2 SZ EP   1   2331 36.61                             171    -0.5 8   22 206 
 BAR2 SZ ES   2   2331 52.44                             171     0.3 5   22 206 
 BAR2 SZ I        2331 53.17        23.4 0.44                            22 206 
 GIR2 SZ EP   1   2331 37.14                             165    -0.2 8   36 342 
 RUS  HZ EP   1   2331 40.79                             144    -0.3 8   97 179 
 RUS  HE ES   2   2331 59.16                             144     0.0 5   97 179 
 RUS  HZ I        2332  1.22         6.7 0.24                            97 179 
 GRA  SZ IP       2331 43.71                             136     0.710  127  15 
 GRA  SZ ES   2   2332  3.17                             136     0.6 5  127  15 
 GRA  SZ I        2332  4.60        23.0 0.57                           127  15 
 OCA  SZ EP   1   2331 45.46                             128    -0.9 7  164 351 
 OCA  SZ ES   2   2332  7.81                             128    -0.7 5  164 351 
 OCA  SZ I        2332 10.73        20.1 0.27                           164 351 
 CHI  HZ EP   1   2331 55.11                             116    -0.1 6  247 197 
 CHI  HN ES   2   2332 24.49                             116     0.1 4  247 197 
 CHI  HZ I        2332 33.85         7.1 0.49                           247 197 
 RREF HZ EP   1   2332  4.84                             110     0.7 5  324 230 
 RREF HE ES   2   2332 40.95                             110     0.7 4  324 230 
 RREF HZ I        2332 49.49         9.8 0.36                           324 230 
                                                                                
