 2014  817 2329 47.9 L   6.720 -73.199143.9  RSN  5 0.4 1.5LRSN                1
 GAP=225        0.99       7.7     8.2  9.7  0.3465E+02  0.3415E+02  0.1825E+01E
 Epicentro: VILLANUEVA - SANTANDER                                             3
 ACTION:UPD 14-09-15 21:50 OP:nd   STATUS:               ID:20140817232947 L   I
 OLDACT:REG 14-08-18 05:56 OP:carl STATUS:               ID:20140817232819     3
 2014-08-17-2328-19M.COL___260                                                 6
 STAT SP IPHASW D HRMM SECON CODA AMPLIT PERI AZIMU VELO AIN AR TRES W  DIS CAZ7
 BAR2 SZ ES       2330 21.80                             174   -0.3810 14.2 172 
 BAR2 SZ I        2330 22.66         4.4 0.36            176           14.2 172 
 BRR  HZ EP       2330  8.63                             152   -0.2210 71.0 307 
 BRR  HN ES       2330 25.81                             152    0.6410 71.0 307 
 BRR  HZ I        2330 30.82         5.5 0.20            149           71.0 307 
 RUS  HN ES       2330 28.85                             146    0.0310 92.4 172 
 PTB  HZ EP       2330 14.50                             133    0.43 9  140 262 
 PTB  HN ES       2330 34.39                             133   -0.07 9  140 262 
 PTB  HZ I        2330 36.72         3.5 0.36            134            140 262 
 ZAR  HN ES       2330 44.57                             122   -0.53 9  202 295 
 ZAR  HZ I        2330 51.63         4.1 0.24            123            202 295 
                                                                                
