 2015  717 2333  8.3 L   5.956 -73.756112.8  RSN 14 0.4 2.2LRSN                1
 GAP= 84        0.95       2.5     2.7  6.9 -0.3076E+01  0.8484E+01 -0.4896E+01E
 Epicentro: BOLIVAR - SANTANDER                                                3
 ACTION:UPD 15-09-08 21:49 OP:cam  STATUS:               ID:20150717233308 L   I
 OLDACT:UP  15-07-18 07:34 OP:ar   STATUS:               ID:20150717232748     3
 OLDACT:UP  15-07-18 07:33 OP:ar   STATUS:               ID:20150717232748     3
 OLDACT:REG 15-07-18 04:47 OP:ar   STATUS:               ID:20150717232748     3
 2015-07-17-2327-48M.COL___340                                                 6
 STAT SP IPHASW D HRMM SECON CODA AMPLIT PERI AZIMU VELO AIN AR TRES W  DIS CAZ7
 RUS  HZ IP     D 2333 27.01                             144    0.0310 74.8  95 
 RUS  HE ES       2333 41.24                             144   -0.2910 74.8  95 
 RUS  HZ I        2333 42.90        14.3 0.32            145           74.8  95 
 BAR2 EZ EP       2333 28.56                             137    0.3910 94.7  42 
 BAR2 EZ ES       2333 43.93                             137    0.2910 94.7  42 
 NOR  HZ EP       2333 31.12                             127   -0.0710  131 251 
 NOR  HN ES       2333 49.26                             127    0.2510  131 251 
 NOR  HZ I        2333 50.21        72.7 0.14            127            131 251 
 CHI  HZ EP       2333 32.88                             124   -0.37 9  147 179 
 CHI  HN ES       2333 52.16                             124   -0.53 9  147 179 
 CHI  HZ I        2333 56.92        10.6 0.24            124            147 179 
 PAM  EZ EP       2333 38.52                             116    0.32 9  192  37 
 PAM  EN ES       2334  1.50                             116   -0.00 9  192  37 
 PAM  EZ I        2334  6.92         9.9 0.24            117            192  37 
 GUY2CHZ EP       2333 38.78                             115    0.23 9  196 246 
 GUY2CHE ES       2334  2.74                             115    0.62 9  196 246 
 GUY2CHZ I        2334  6.56        16.8 0.76                           196 246 
 HEL  HZ EP       2333 38.72                             115    0.06 9  198 278 
 HEL  HN ES       2334  1.52                             115   -0.78 9  198 278 
 HEL  HZ I        2334  6.65        11.4 0.42            116            198 278 
 ZAR  HZ EP       2333 38.97                             113   -0.46 8  209 324 
 ZAR  HN ES       2334  3.23                             113   -0.45 8  209 324 
 ZAR  HZ I        2334  5.45        24.7 0.24            114            209 324 
 TOL  SZ EP       2333 42.37                             111    0.13 8  230 229 
 TOL  SN ES       2334  9.46                             111    0.77 8  230 229 
 TOL  SZ I        2334 12.85         7.0 0.22            112            230 229 
 ANIL HN ES       2334 11.29                             110   -0.11 8  244 228 
 ANIL HZ I        2334 18.65        22.8 0.38            110            244 228 
 OCA  HN ES       2334 14.06                             108    0.32 8  257  11 
 OCA  HZ I        2334 17.36        26.1 0.22            109            257  11 
 URE  HE ES   4   2334 14.77                             107   -3.27 0  279 315 
 URE  HZ I        2334 15.95        15.8 0.36            107            279 315 
 SML  HZ EP       2333 51.22                             104   -0.64 7  317 354 
 SML  HE ES       2334 25.99                             104    0.19 7  317 354 
 SML  HZ I        2334 27.13        14.5 0.10            105            317 354 
 MON  HE ES   4   2334 36.41                             101   -2.13 0  377 326 
 MON  HZ I        2334 38.62         4.8 0.36            101            377 326 
                                                                                
