 2012  517 2052 39.3 L   6.781 -73.160144.9  RSN  7 0.3 1.5LRSN                1
 GAP=136        0.68       4.2     3.9  6.7 -0.1057E+01  0.7219E+01  0.1502E+01E
 Epicentro: LOS SANTOS - SANTANDER                                             3
 ACTION:UP  12-07-05 12:06 OP:pat  STATUS:               ID:20120517205239 L   I
 2012-05-17-2050-00M.COL___197                                                 6
 STAT SP IPHASW D HRMM SECON CODA AMPLIT PERI AZIMU VELO SNR AR TRES W  DIS CAZ7
 BAR2 SZ ES   1   2053 14.17                             171     0.2 7   21 187 
 BRR  HZ EP   1   2053  0.47                             152     0.1 7   71 301 
 BRR  HN ES   1   2053 17.14                             152     0.4 7   71 301 
 BRR  HZ I        2053 19.82        13.7 0.35                            71 301 
 PAM  SZ EP   1   2053  1.66                             150     0.1 7   80  39 
 PAM  SN ES   1   2053 18.56                             150    -0.4 7   80  39 
 RUS  HZ EP   1   2053  3.08                             144     0.3 7   99 175 
 RUS  HZ I        2053  3.86         2.0 0.16                            99 175 
 RUS  HN ES   1   2053 21.07                             144    -0.1 7   99 175 
 PTB  HZ EP   1   2053  5.72                             132    -0.3 7  146 260 
 PTB  HN ES   1   2053 26.29                             132    -0.6 7  146 260 
 PTB  HZ I        2053 30.28         3.0 0.09                           146 260 
 ZAR  HE ES   1   2053 37.01                             122     0.2 6  203 293 
 ZAR  HZ I        2053 42.34         4.2 0.44                           203 293 
 NOR  SN ES   1   2053 42.48                             119     0.1 6  232 235 
                                                                                
