 2016 1217 2203 16.8 L   6.695 -73.523112.3  RSN  7 0.4 1.6LRSN                1
 GAP= 77        0.99       4.1     4.1  6.8  0.5596E+01  0.1089E+02  0.6276E+01E
 Epicentro: EL CARMEN - SANTANDER                                              3
 ACTION:UPD 17-01-11 20:16 OP:rebc STATUS:               ID:20161217220316 L   I
 OLDACT:REG 16-12-18 03:36 OP:lv   STATUS:               ID:20161217215745     3
 2016-12-17-2158-00M.COL___390                                                 6
 STAT SP IPHASW D HRMM SECON CODA AMPLIT PERI AZIMU VELO AIN AR TRES W  DIS CAZ7
 BAR2 EZ EP       22 3 33.22                             159    0.2410 39.3 107 
 BAR2 EZ ES       22 3 45.55                             159   -0.0510 39.3 107 
 BAR2 EZ I        22 3 47.21        15.6 0.17            158           39.3 107 
 BRR  HZ EP       22 3 33.10                             154   -0.0510 50.1 335 
 BRR  HN ES       22 3 45.82                             154   -0.0810 50.1 335 
 RUS  HZ EP       22 3 37.74                             135    0.2510  101 151 
 RUS  HN ES       22 3 53.90                             135    0.2810  101 151 
 RUS  HZ I        22 3 55.55         8.2 0.36            134            101 151 
 PTB  HZ EP       22 3 36.19                             134   -0.9510  105 261 
 PTB  HN ES   4   22 3 50.86                             134   -2.14 0  105 261 
 PTB  HZ I        22 3 52.36        11.0 0.07            133            105 261 
 PAM  EZ EP       22 3 38.70                             131   -0.0710  116  52 
 PAM  EN ES       22 3 55.70                             131   -0.2010  116  52 
 PAM  EZ I        22 3 59.49         6.7 0.28            131            116  52 
 ZAR  HZ EP       22 3 44.42                             119    0.63 9  172 301 
 ZAR  HN ES       22 4  5.17                             119    0.33 9  172 301 
 ZAR  HZ I        22 4  8.85         8.0 0.10            118            172 301 
 CHI  HZ EP       22 3 50.46                             111   -0.25 8  230 186 
 CHI  HE ES   4   22 4 18.37                             111    1.22 0  230 186 
 CHI  HZ I        22 4 23.24         2.0 0.51            110            230 186 
                                                                                
