 2016  117 2115 54.2 L   6.847 -73.125149.2  RSN 27 0.5 2.6LRSN                1
 GAP= 70        1.01       2.1     2.4  4.3 -0.1226E+01  0.2804E+01 -0.4344E+00E
 Epicentro: LOS SANTOS - SANTANDER                                             3
 ACTION:UPD 16-03-09 23:26 OP:cam  STATUS:               ID:20160117211554 L   I
 OLDACT:UP  16-02-23 20:53 OP:AR   STATUS:               ID:20160117211554 L   3
 OLDACT:REG 16-01-18 08:58 OP:ak   STATUS:               ID:20160117210747     3
 2016-01-17-2107-47M.COL___325                                                 6
 STAT SP IPHASW D HRMM SECON CODA AMPLIT PERI AZIMU VELO AIN AR TRES W  DIS CAZ7
 BAR2 EZ EP       2116 14.34                             169    0.0110 28.9 193 
 BAR2 EZ ES       2116 29.85                             169   -0.2010 28.9 193 
 BAR2 EZ I        2116 30.78        65.6 0.23            167           28.9 193 
 PAM  EZ EP     D 2116 17.03                             153    0.6010 71.9  41 
 PAM  EN ES       2116 34.12                             153    0.3210 71.9  41 
 PAM  EZ I        2116 36.62        44.4 0.50            157           71.9  41 
 RUS  HZ EP       2116 18.38                             143   -0.2410  106 178 
 RUS  HN ES       2116 37.29                             143   -0.4010  106 178 
 RUS  HZ I        2116 38.78        35.2 0.34            144            106 178 
 PTB  HZ EP       2116 20.94                             132   -0.77 9  151 257 
 PTB  HN ES       2116 42.70                             132   -0.50 9  151 257 
 PTB  HZ I        2116 45.62        39.7 0.16            132            151 257 
 TAM  HZ EP       2116 22.69                             132    0.65 9  154 107 
 TAM  HN ES       2116 44.07                             132    0.29 9  154 107 
 TAM  HZ I        2116 44.84        21.7 0.36            135            154 107 
 OCA  HZ EP   1   2116 22.85                             131    0.56 7  155 352 
 OCA  HN ES       2116 44.63                             131    0.40 9  155 352 
 OCA  HZ I        2116 49.77       117.0 0.20            133            155 352 
 SPBC HZ EP       2116 23.36                             129   -0.09 9  169 218 
 SPBC HN ES       2116 46.10                             129   -0.19 9  169 218 
 SPBC HZ I        2116 52.69        77.1 0.24            129            169 218 
 ZAR  HZ EP       2116 27.37                             123    0.51 9  204 291 
 ZAR  HN ES       2116 52.84                             123    0.48 9  204 291 
 SML  HZ EP       2116 30.88                             119    0.30 8  240 334 
 SML  HE ES       2116 58.89                             119   -0.09 8  240 334 
 SML  HZ I        2117  2.70        55.3 0.10            120            240 334 
 NOR  HZ EP       2116 30.35                             119   -0.27 8  240 234 
 NOR  HN ES       2116 58.77                             119   -0.29 8  240 234 
 NOR  HZ I        2117  5.53        36.2 0.16            119            240 234 
 CHI  HZ EP       2116 32.67                             117    0.01 8  254 195 
 CHI  HN ES       2117  2.46                             117   -0.24 8  254 195 
 CHI  HZ I        2117 12.16        15.7 0.42            118            254 195 
 ROSC BZ EP   9   2116 34.52                             117    1.43 0  258 211 
 ROSC BN ES       2117  5.55                                    0.67 8  258 211 
 ROSC BZ I        2117  9.43        37.3 0.45            117            258 211 
 HEL  HZ EP   1   2116 35.88                             115    0.93 6  276 255 
 HEL  HN ES       2117  6.89                             115    0.13 7  276 255 
 HEL  HZ I        2117 14.01        23.7 0.58            116            276 255 
 URE  HZ EP       2116 34.49                             114   -0.94 7  284 291 
 URE  HE ES   4   2117  6.24                             114   -1.38 0  284 291 
 URE  HZ I        2117 14.84        22.7 0.20            115            284 291 
 SOCV BZ EP       2116 35.87                             113   -0.96 7  296  57 
 SOCV BN ES   4   2117  7.56                             113   -2.55 0  296  57 
 GUY2CHZ EP       2116 39.07                             113    0.58 7  306 234 
 GUY2CHN ES       2117 13.59                             113    0.53 7  306 234 
 GUY2CHZ I        2117 20.93        21.6 0.28                           306 234 
 VIL  SZ EP       2116 37.72                             112   -0.65 7  309 192 
 VIL  SN ES       2117 12.55                             112   -0.30 7  309 192 
 LL6C HZ EP       2116 38.93                             111   -0.50 7  320 357 
 LL6C HE ES       2117 13.79                             111   -0.94 7  320 357 
 LL6C HZ I        2117 19.01         5.0 0.54            113            320 357 
 ELA  HZ EP   4   2116 44.24                             111    2.49 0  334 229 
 ELA  HN ES       2117 18.93                             111    0.06 7  334 229 
 ELA  HZ I        2117 33.99        14.8 0.40            111            334 229 
 CBOC HZ EP       2116 42.61                             110    0.95 7  337 251 
 CBOC HE ES       2117 18.74                             110    0.03 7  337 251 
 CBOC HZ I        2117 27.86         6.2 0.40            111            337 251 
 DBB  SZ EP       2116 41.97                             110   -0.04 7  341 273 
 DBB  SZ ES       2117 19.50                             110    0.18 7  341 273 
 DBB  SZ I        2117 21.05        34.3 0.40            111            341 273 
 SDV  BZ EP       2116 44.02                             109    0.28 6  355  51 
 SDV  BE ES   4   2117 20.40                             109   -2.01 0  355  51 
 ANIL HZ EP   2   2116 45.81                             109    1.09 3  363 224 
 ANIL HN ES       2117 24.64                             109    0.49 6  363 224 
 PRA  HZ EP   1   2116 48.31                             107   -0.16 4  398 209 
 PRA  HN ES       2117 30.77                             107   -0.06 6  398 209 
 PRA  HZ I        2117 37.21        21.4 0.47            108            398 209 
 ORTC HZ EP       2116 48.68                             107   -0.17 6  401 216 
 ORTC HN ES       2117 31.64                             107    0.13 6  401 216 
 ORTC HZ I        2117 38.68        11.3 0.30            107            401 216 
 SJC  HZ EP       2116 48.44                             106   -1.04 6  406 326 
 SJC  HN ES   4   2117 29.28                             106   -3.34 0  406 326 
 SJC  HZ I        2117 33.02         6.7 0.38            107            406 326 
 PAL  HZ EP       2116 50.27                             106    0.28 6  410 239 
 PAL  HN ES       2117 33.75                             106    0.22 6  410 239 
 PAL  HZ I        2117 39.29         4.8 0.20            107            410 239 
                                                                                
