 2012  317 2204 29.1 L   6.724 -73.135149.1  RSN  4 0.1 1.3LRSN                1
 GAP=141        0.33       3.1     2.6  4.5 -0.5298E+00 -0.3010E+01  0.3365E+00E
 ACTION:UP  12-03-31 23:20 OP:EP   STATUS:               ID:20120317220429 L   I
 2012-03-17-2200-00M.COL___202                                                 6
 STAT SP IPHASW D HRMM SECON CODA AMPLIT PERI AZIMU VELO SNR AR TRES W  DIS CAZ7
 BRR  HZ EP       22 4 50.99                             151     0.110   77 304 
 BRR  HE ES   1   22 5  7.87                             151    -0.1 7   77 304 
 BRR  HZ I        22 5 11.53        16.2 0.52                            77 304 
 PAM  SZ EP       22 4 52.07                             150     0.010   83  35 
 RUS  HZ EP   1   22 4 52.65                             147     0.0 7   92 176 
 RUS  HE ES   2   22 5 10.92                             147     0.0 5   92 176 
 RUS  HZ I        22 5 13.37         1.4 0.27                            92 176 
 PTB  HZ EP       22 4 56.22                             133    -0.1 9  148 262 
 PTB  HE ES   1   22 5 17.69                             133     0.1 7  148 262 
 PTB  HZ I        22 5 21.86         1.6 0.36                           148 262 
                                                                                
