 2014  517 2120  8.8 L   6.802 -73.146144.7  RSN 15 0.4 2.3LRSN                1
 GAP=136        0.87       2.8     3.6  5.1 -0.1266E+01  0.5260E+01  0.3073E+01E
 Epicentro: LOS SANTOS - SANTANDER                                             3
 ACTION:UPD 15-03-16 16:58 OP:nd   STATUS:               ID:20140517212008 L   I
 OLDACT:UP  14-05-18 05:19 OP:mh   STATUS:               ID:20140517211812     3
 OLDACT:UP  14-05-18 05:15 OP:mh   STATUS:               ID:20140517211812     3
 OLDACT:UP  14-05-18 05:15 OP:mh   STATUS:               ID:20140517211812     3
 OLDACT:REG 14-05-18 03:19 OP:mh   STATUS:               ID:20140517211812     3
 2014-05-17-2118-12M.COL___251                                                 6
 STAT SP IPHASW D HRMM SECON CODA AMPLIT PERI AZIMU VELO AIN AR TRES W  DIS CAZ7
 BRR  HZ EP   1   2120 29.32                             152   -0.47 7 71.1 298 
 BRR  HN ES       2120 46.55                             152    0.3610 71.1 298 
 BRR  HZ I        2120 53.06        32.7 0.25            152           71.1 298 
 PAM  SZ EP       2120 31.04                             151    0.1910 77.2  40 
 PAM  SN ES       2120 48.35                             151    0.2610 77.2  40 
 PAM  SZ I        2120 50.49        39.8 0.47            158           77.2  40 
 RUS  HZ EP   1   2120 32.21                             144   -0.21 7  101 176 
 RUS  HN ES       2120 50.84                             144   -0.0410  101 176 
 RUS  HZ I        2120 53.75        19.3 0.34            145            101 176 
 PTB  HZ EP       2120 35.19                             132   -0.45 9  148 259 
 PTB  HN ES       2120 56.36                             132   -0.25 9  148 259 
 PTB  HZ I        2120 57.99        20.7 0.14            133            148 259 
 SPBC HZ EP   1   2120 37.11                             129   -0.08 7  163 219 
 SPBC HN ES   1   2120 59.36                             129   -0.01 7  163 219 
 SPBC HZ I        2121  4.43        31.5 0.22            130            163 219 
 ZAR  HZ EP   1   2120 40.82                             122   -0.30 6  204 292 
 ZAR  HN ES   1   2121  6.21                             122   -0.16 6  204 292 
 ZAR  HZ I        2121 13.92        17.7 0.31            125            204 292 
 NOR  HZ EP       2120 44.30                             118   -0.14 8  235 234 
 NOR  HN ES   1   2121 12.25                             118   -0.01 6  235 234 
 NOR  HZ I        2121 16.62        15.1 0.10            120            235 234 
 SML  HZ EP   1   2120 44.85                             117   -0.45 6  243 335 
 SML  HN ES   1   2121 13.24                             117   -0.57 6  243 335 
 CHI  HZ EP   1   2120 46.01                             117   -0.41 6  249 195 
 CHI  HN ES       2121 15.21                             117   -0.58 8  249 195 
 CHI  HZ I        2121 21.32         6.5 0.31            119            249 195 
 ROSC BZ EP   1   2120 47.54                             116    0.70 6  253 211 
 ROSC BN ES   4   2121 20.15                             116    3.61 0  253 211 
 ROSC BZ I        2121 23.10        12.9 0.33            119            253 211 
 HEL  HZ EP       2120 49.99                             115    1.07 8  272 256 
 HEL  HN ES   1   2121 20.37                             115    0.13 6  272 256 
 URE  HZ EP   4   2120 47.59                             113   -2.17 0  284 292 
 URE  HN ES   4   2121 19.00                             113   -2.75 0  284 292 
 GUY2CHZ EP       2120 53.02                             112    0.69 7  301 235 
 GUY2CHE ES   1   2121 25.92                             112   -0.39 5  301 235 
 GUY2CHZ I        2121 33.77        11.3 0.05                           301 235 
 RREF HZ EP   1   2120 55.82                             111    0.95 5  322 229 
 RREF HN ES   4   2121 31.87                             111    1.04 0  322 229 
 RREF HZ I        2121 39.26        12.4 0.18            113            322 229 
 ORTC HZ EP       2121  2.31                             106   -0.35 6  396 216 
 ORTC HN ES       2121 45.11                             106    0.41 6  396 216 
 ORTC HZ I        2121 52.10         4.5 0.25            108            396 216 
 SJC  HZ EP   4   2121  2.16                             105   -2.10 0  409 327 
 SJC  HN ES   4   2121 40.74                             105   -6.81 0  409 327 
 SJC  HZ I        2121 48.87         3.8 0.30            108            409 327 
                                                                                
