 2012  117 2021 53.1 L   6.753 -73.175140.0  RSN  5 0.4 1.7LRSN                1
 GAP=135        0.67       9.4     5.2 11.6 -0.2068E+02  0.9362E+01  0.3464E+02E
 Epicentro: VILLANUEVA - SANTANDER                                             3
 ACTION:UP  12-02-03 08:18 OP:REBC STATUS:               ID:20120117202153 L   I
 2012-01-17-2020-00M.COL___187                                                 6
 STAT SP IPHASW D HRMM SECON CODA AMPLIT PERI AZIMU VELO SNR AR TRES W  DIS CAZ7
 BRR  HZ EP   1   2022 14.11                             151     0.5 7   71 303 
 BRR  HZ I        2022 15.74         9.7 0.28                            71 303 
 PAM  SZ EP   1   2022 15.21                             148     0.2 7   83  39 
 PAM  SN ES   1   2022 32.01                             148    -0.2 7   83  39 
 RUS  HZ EP   2   2022 15.42                             144    -0.5 5   96 174 
 PTB  HZ EP   1   2022 19.01                             131    -0.2 7  144 261 
 PTB  HN ES   1   2022 39.74                             131     0.2 7  144 261 
 ZAR  HZ EP   2   2022 24.93                             121    -0.1 4  203 294 
 ZAR  HE ES   2   2022 49.25                             121    -0.7 4  203 294 
 ZAR  HZ I        2022 58.95         5.8 0.43                           203 294 
                                                                                
