 2012  117 2231 23.6 L   6.792 -73.139149.2  RSN  7 0.5 1.8LRSN                1
 GAP=138        1.07       5.7     6.4 10.3  0.4231E+01  0.1311E+02  0.1279E+02E
 Epicentro: LOS SANTOS - SANTANDER                                             3
 ACTION:UP  12-02-03 08:18 OP:REBC STATUS:               ID:20120117223123 L   I
 2012-01-17-2230-00M.COL___187                                                 6
 STAT SP IPHASW D HRMM SECON CODA AMPLIT PERI AZIMU VELO SNR AR TRES W  DIS CAZ7
 BAR2 SZ EP   1   2231 43.49                             171    -0.1 7   23 192 
 BAR2 SZ I        2232  0.30        13.4 0.38                            23 192 
 BRR  HZ EP       2231 45.41                             153     0.310   72 299 
 BRR  HZ I        2231 45.66        32.7 0.15                            72 299 
 BRR  HE ES   1   2232  2.93                             153     0.9 7   72 299 
 PAM  SZ EP   1   2231 46.25                             151     0.1 7   78  39 
 PAM  SN ES   1   2232  3.52                             151    -0.3 7   78  39 
 RUS  HZ EP   1   2231 47.73                             145     0.1 7  100 176 
 RUS  HN ES   1   2232  5.72                             145    -0.6 7  100 176 
 RUS  HZ I        2232  7.36         6.9 0.30                           100 176 
 PTB  HZ EP   1   2231 50.42                             133    -0.5 7  148 259 
 PTB  HN ES   1   2232 11.46                             133    -0.7 7  148 259 
 ZAR  HZ EP   1   2231 56.09                             123    -0.3 6  205 292 
 ZAR  HE ES   1   2232 21.89                             123     0.0 6  205 292 
 CHI  HZ EP   1   2232  1.43                             118     0.0 6  248 195 
 CHI  HE ES   1   2232 31.89                             118     1.0 6  248 195 
 CHI  HZ I        2232 35.01         1.8 0.44                           248 195 
                                                                                
