 2011  717 2055 53.4 L   6.792 -73.105145.4  RSN  7 0.4 1.7LRSN                1
 GAP=142        0.88       5.1     7.9  8.0  0.3740E+01 -0.9923E+01 -0.3542E+01E
 Epicentro: LOS SANTOS - SANTANDER                                             3
 ACTION:UPD 12-07-25 14:01 OP:epov STATUS:               ID:20110717205553 L   I
 2011-07-17-2050-49S.COL___143                                                 6
 STAT SP IPHASW D HRMM SECON CODA AMPLIT PERI AZIMU VELO AIN AR TRES W  DIS CAZ7
 BTL  SZ EP   1   2056 13.42                             171    0.45 7 22.7 308 
 BAR2 SZ EP       2056 12.47                             170   -0.5110 23.7 201 
 BAR2 SZ ES   1   2056 29.04                             170    0.77 7 23.7 201 
 BAR2 SZ I        2056 29.57         7.9 0.42                          23.7 201 
 PAM  SZ EP   1   2056 15.88                             151    0.44 7 75.3  36 
 PAM  SN ES   1   2056 32.30                             151   -0.34 7 75.3  36 
 BRR  HZ EP       2056 14.63                             151   -0.1210 75.6 297 
 BRR  HN ES       2056 31.34                             151   -0.0710 75.6 297 
 BRR  HZ I        2056 35.24        14.1 0.21                          75.6 297 
 RUS  HZ EP   1   2056 17.35                             144    0.32 7 99.5 179 
 RUS  HE ES   1   2056 35.08                             144   -0.39 7 99.5 179 
 GRA  SZ EP   2   2056 18.12                             137   -0.44 5  125  15 
 GRA  SZ I        2056 39.21         6.4 0.44                           125  15 
 OCA  SZ EP   2   2056 22.58                             129    0.77 5  162 352 
 OCA  SZ ES   2   2056 43.72                             129   -0.25 5  162 352 
 OCA  SZ I        2056 47.92         8.3 0.38                           162 352 
                                                                                
