 2016  217 2245 22.8 L   6.864 -72.854123.2  RSN  6 0.4 1.6LRSN                1
 GAP=175        0.49       5.1     5.6  8.0  0.7468E+01  0.1640E+01  0.1099E+02E
 Epicentro: GUACA - SANTANDER                                                  3
 ACTION:UPD 16-03-04 21:27 OP:rebc STATUS:               ID:20160217224522 L   I
 OLDACT:DUP 16-02-18 04:47 OP:dnl  STATUS:               ID:20160217223749d    3
 OLDACT:REG 16-02-18 03:15 OP:dnl  STATUS:               ID:20160217223748     3
 2016-02-17-2237-48M.COL___337                                                 6
 STAT SP IPHASW D HRMM SECON CODA AMPLIT PERI AZIMU VELO AIN AR TRES W  DIS CAZ7
 PAM  EZ EP   3   2245 42.19                             155    0.89 2 55.3  18 
 PAM  EN ES   2   2245 55.52                             155   -0.23 5 55.3  18 
 PAM  EZ I        2245 57.78        24.0 0.17            154           55.3  18 
 BRR  HZ EP   2   2245 43.51                             139   -0.01 5 98.5 286 
 BRR  HN ES       2245 59.81                             139    0.1010 98.5 286 
 RUS  HZ EP   2   2245 45.52                             136    0.33 5  110 193 
 RUS  HN ES   2   2246  2.34                             136   -0.33 5  110 193 
 RUS  HZ I        2246  5.75         2.7 0.18            147            110 193 
 PTB  HZ EP   4   2245 48.25                             120   -3.11 0  181 259 
 PTB  HE ES   4   2246 10.13                             120   -3.54 0  181 259 
 PTB  HZ I        2246 16.88         5.9 0.16            125            181 259 
 ZAR  HZ EP   2   2245 56.37                             113   -0.56 4  232 288 
 ZAR  HE ES   4   2246 20.06                             113   -3.52 0  232 288 
 ZAR  HZ I        2246 30.07         3.9 0.10            118            232 288 
 CHI  HZ EP   4   2246 11.75                             110   10.51 0  266 202 
 CHI  HN ES   4   2246 16.82                             110   -14.4 0  266 202 
 CHI  HZ I        2246 19.12         3.1 0.20            119            266 202 
                                                                                
