 2015  117 2106 24.9 L   6.833 -73.137134.8  RSN  9 0.3 1.7LRSN                1
 GAP=136        0.82       2.7     3.6  6.6  0.6689E+00  0.9999E+01  0.3200E+01E
 Epicentro: LOS SANTOS - SANTANDER                                             3
 ACTION:UPD 15-03-02 15:40 OP:nd   STATUS:               ID:20150117210624 L   I
 OLDACT:REG 15-01-18 05:11 OP:fm   STATUS:               ID:20150117205744     3
 2015-01-17-2057-44M.COL___259                                                 6
 STAT SP IPHASW D HRMM SECON CODA AMPLIT PERI AZIMU VELO AIN AR TRES W  DIS CAZ7
 PAM  SN ES       21 7  2.03                             150   -0.0010 73.9  41 
 PAM  SZ I        21 7  6.16         5.1 0.20            157           73.9  41 
 RUS  HZ EP       21 6 47.94                             140    0.0510  104 177 
 RUS  HN ES       21 7  6.08                             140    0.2710  104 177 
 RUS  HZ I        21 7  9.64         3.3 0.32            145            104 177 
 PTB  HZ EP       21 6 51.14                             129   -0.04 9  149 258 
 PTB  HN ES       21 7 10.80                             129   -0.87 9  149 258 
 PTB  HZ I        21 7 16.79         6.5 0.14            132            149 258 
 SPBC HZ EP       21 6 53.04                             126    0.09 9  167 218 
 SPBC HE ES       21 7 15.17                             126    0.36 9  167 218 
 SPBC HZ I        21 7 20.44         8.0 0.14            129            167 218 
 ZAR  HE ES       21 7 21.83                             120    0.46 9  204 291 
 ZAR  HZ I        21 7 28.60         6.1 0.44            123            204 291 
 NOR  HZ EP       21 7  0.47                             116    0.10 8  238 234 
 NOR  HN ES       21 7 28.05                             116    0.04 8  238 234 
 NOR  HZ I        21 7 33.66         4.9 0.34            119            238 234 
 SML  HE ES       21 7 28.32                             115   -0.17 8  241 335 
 SML  HZ I        21 7 32.66        12.8 0.10            120            241 335 
 CHI  HZ EP       21 7  2.32                             114   -0.14 8  252 195 
 CHI  HE ES       21 7 31.19                             114   -0.55 8  252 195 
 CHI  HZ I        21 7 37.28         2.0 0.22            119            252 195 
 HEL  HZ EP   1   21 7  4.99                             112    0.18 6  274 255 
 HEL  HE ES   1   21 7 36.44                             112    0.51 6  274 255 
 HEL  HZ I        21 7 43.65         3.5 0.32            116            274 255 
                                                                                
