 2017  917 2318 22.4 L   6.802 -73.141133.9  RSN  5 0.3 1.7LRSN                1
 GAP=137        0.85       4.2     4.5  6.1  0.4185E+01  0.6863E+01 -0.1067E+01E
 Epicentro: LOS SANTOS - SANTANDER                                             3
 ACTION:UPD 17-10-05 19:13 OP:rebc STATUS:               ID:20170917231822 L   I
 OLDACT:REG 17-09-18 02:47 OP:dhb  STATUS:               ID:20170917231740     3
 2017-09-17-2318-00M.COL___409                                                 6
 STAT SP IPHASW D HRMM SECON CODA AMPLIT PERI AZIMU VELO AIN AR TRES W  DIS CAZ7
 BAR2 EZ EP       2318 41.25                             169    0.6110 23.6 191 
 BAR2 EZ ES       2318 54.50                             169   -0.3410 23.6 191 
 BAR2 EZ I        2318 55.88         9.7 0.20            170           23.6 191 
 BRR  HZ IP     C 2318 41.89                             150   -0.4410 71.6 298 
 BRR  HN ES       2318 57.96                             150    0.1110 71.6 298 
 BRR  HZ I        2319  1.58        11.2 0.65            148           71.6 298 
 PAM  EZ IP     D 2318 43.02                             149   -0.3410 76.9  39 
 PAM  EE ES       2318 59.93                             149    0.2410 76.9  39 
 PAM  EZ I        2319  2.11        12.6 0.35            151           76.9  39 
 RUS  HZ IP     D 2318 44.86                             141   -0.1810  101 176 
 RUS  HN ES       2319  2.81                             141    0.1310  101 176 
 RUS  HZ I        2319  4.05         5.6 0.40            145            101 176 
 ZAR  HZ EP       2318 54.47                             120    0.30 9  205 292 
 ZAR  HE ES       2319 18.91                             120   -0.03 9  205 292 
 ZAR  HZ I        2319 26.81         5.6 0.37            120            205 292 
                                                                                
