 2015  217 2315 60.0 L   6.808 -73.132140.0  RSN 20 0.6 2.2LRSN                1
 GAP= 54        1.64       3.9     5.5  7.3 -0.6453E+01  0.8969E+01  0.5165E+01E
 Epicentro: LOS SANTOS - SANTANDER                                             3
 ACTION:UPD 15-04-30 21:27 OP:nd   STATUS:               ID:20150217231560 L   I
 OLDACT:REG 15-02-18 03:25 OP:stll STATUS:               ID:20150217230750     3
 2015-02-17-2307-50M.COL___296                                                 6
 STAT SP IPHASW D HRMM SECON CODA AMPLIT PERI AZIMU VELO AIN AR TRES W  DIS CAZ7
 BAR2 EZ EP       2316 18.73                             170   -0.1910 24.5 193 
 BAR2 EZ ES       2316 33.21                             170   -0.5010 24.5 193 
 BAR2 EZ I        2316 36.28        27.9 0.30            168           24.5 193 
 BRR  HZ EP       2316 20.88                             151    0.3310 72.1 297 
 BRR  HN ES       2316 37.30                             151    0.7010 72.1 297 
 BRR  HZ I        2316 42.21        23.5 0.14            150           72.1 297 
 PAM  SZ IP     D 2316 22.10                             150    0.6310 75.8  39 
 PAM  SZ ES       2316 39.02                             150    0.7810 75.8  39 
 PAM  SZ I        2316 41.34        38.4 0.44            154           75.8  39 
 RUS  HZ EP       2316 23.26                             142    0.0510  101 177 
 RUS  HN ES       2316 41.01                             142   -0.3310  101 177 
 RUS  HZ I        2316 43.12        22.5 0.32            143            101 177 
 PTB  HZ EP       2316 25.30                             130   -1.32 9  149 259 
 PTB  HN ES       2316 46.66                             130   -0.75 9  149 259 
 PTB  HZ I        2316 48.64        12.7 0.30            130            149 259 
 TAM  HZ IP     D 2316 27.68                             129    0.61 9  154 105 
 OCA  HZ EP       2316 27.58                             128   -0.19 9  160 353 
 OCA  HN ES       2316 49.00                             128   -0.46 9  160 353 
 SPBC HZ EP       2316 28.16                             127   -0.02 9  165 219 
 SPBC HN ES       2316 49.78                             127   -0.41 9  165 219 
 SPBC HZ I        2316 52.78        32.3 0.38            128            165 219 
 NOR  HZ EP       2316 35.48                             117   -0.07 8  236 235 
 NOR  HE ES       2317  3.69                             117    0.38 8  236 235 
 NOR  HZ I        2317  5.80        14.5 0.16            118            236 235 
 SML  HZ EP       2316 35.76                             116   -0.50 8  244 335 
 SML  HN ES       2317  3.90                             116   -0.67 8  244 335 
 SML  HZ I        2317  8.82        25.0 0.10            118            244 335 
 CHI  HZ EP       2316 37.27                             115   -0.21 8  250 195 
 CHI  HZ I        2316 37.98         8.7 0.18            117            250 195 
 CHI  HN ES       2317  6.40                             115   -0.34 8  250 195 
 SOCV BZ EP   9   2316 42.23                             111   -0.32 0  300  57 
 SOCV BN ES       2317 13.23                                   -2.22 7  300  57 
 GUY2CHZ EP       2316 44.65                             111    1.14 7  303 235 
 GUY2CHN ES       2317 18.58                             111    1.11 7  303 235 
 GUY2CHZ I        2317 25.28         7.8 0.30                           303 235 
 PTGC HZ EP   9   2316 42.58                             110   -1.01 0  309 159 
 PTGC HE ES       2317 14.69                                   -1.92 7  309 159 
 RREF HZ EP       2316 46.32                             109    0.26 7  323 229 
 RREF HN ES       2317 22.13                             109    0.12 7  323 229 
 RREF HZ I        2317 31.39         8.4 0.46            110            323 229 
 TOL  SZ EP       2316 49.14                             108    0.96 7  345 225 
 TOL  SN ES       2317 25.38                             108   -0.42 7  345 225 
 TOL  SZ I        2317 32.59         6.8 0.48            109            345 225 
 MON  HZ EP   9   2316 45.24                             107   -3.58 0  354 308 
 MON  HN ES       2317 23.35                                   -0.00 6  354 308 
 MON  HZ I        2317 26.65         2.4 0.30            108            354 308 
 ANIL HZ EP       2316 50.01                             107    0.27 6  359 225 
 ANIL HN ES       2317 30.07                             107    1.50 6  359 225 
 ANIL HZ I        2317 37.11         2.0 0.24            108            359 225 
 PRA  HZ EP       2316 53.01                             105   -0.45 6  393 210 
 PRA  HN ES       2317 34.80                             105   -0.39 6  393 210 
 PRA  HZ I        2317 43.49         5.1 0.34            106            393 210 
 ORTC HZ EP       2316 52.80                             105   -1.08 6  397 216 
 ORTC HN ES       2317 35.79                             105   -0.14 6  397 216 
 ORTC HZ I        2317 40.64         4.1 0.30            106            397 216 
                                                                                
