 2015  417 2257 49.5 L   6.751 -73.141139.0  RSN  4 0.5 1.6LRSN                1
 GAP=158        1.11      11.1     5.9 13.3 -0.2057E+02  0.2538E+02  0.2709E+02E
 Epicentro: LOS SANTOS - SANTANDER                                             3
 ACTION:UPD 15-06-03 16:55 OP:cam  STATUS:               ID:20150417225749 L   I
 OLDACT:REG 15-04-18 06:03 OP:mh   STATUS:               ID:20150417224750     3
 2015-04-17-2247-50M.COL___269                                                 6
 STAT SP IPHASW D HRMM SECON CODA AMPLIT PERI AZIMU VELO AIN AR TRES W  DIS CAZ7
 BAR2 EZ EP       2258  8.58                             172    0.3310 18.1 195 
 BAR2 EZ I        2258 18.26         5.5 0.07            166           18.1 195 
 PAM  SZ EP       2258 11.04                             148   -0.2410 81.3  37 
 PAM  SN ES       2258 28.24                             148   -0.0010 81.3  37 
 PAM  SN I        2258 29.54        22.7 0.41            152           81.3  37 
 PAM  SZ I        2258 30.75         4.9 0.40                          81.3  37 
 PTB  HZ EP       2258 15.16                             130   -0.75 9  147 261 
 PTB  HN ES       2258 36.66                             130    0.16 9  147 261 
 PTB  HZ I        2258 38.95         4.7 0.21            131            147 261 
 ZAR  HZ EP       2258 22.67                             120    0.85 8  207 293 
 ZAR  HN ES       2258 46.73                             120   -0.27 8  207 293 
 ZAR  HZ I        2258 52.72         4.5 0.16            122            207 293 
                                                                                
