 2013  417 2002 52.9 L   6.841 -73.219140.8  RSN  6 0.5 1.7LRSN                1
 GAP=125        1.32       6.8     9.7 10.5 -0.8312E+01  0.5144E+01 -0.1938E+01E
 Epicentro: ZAPATOCA - SANTANDER                                               3
 ACTION:UPD 13-05-22 14:39 OP:EP   STATUS:               ID:20130417200252 L   I
 2013-04-17-2000-00M.COL___250                                                 6
 STAT SP IPHASW D HRMM SECON CODA AMPLIT PERI AZIMU VELO AIN AR TRES W  DIS CAZ7
 GIR2 SZ EP       20 3 11.36                             169   -0.4510 26.4   6 
 GIR2 SZ ES       20 3 25.69                             169   -0.9010 26.4   6 
 GIR2 SZ I        20 3 28.92        10.1 0.60            169           26.4   6 
 BAR2 SZ EP   1   20 3 12.24                             168    0.25 7 27.8 172 
 BAR2 SZ ES       20 3 27.86                             168    0.9510 27.8 172 
 BAR2 SZ I        20 3 28.70        17.3 0.26            170           27.8 172 
 BRR  HN ES   4   20 3 30.43                             155    1.80 0 61.9 298 
 PAM  SZ EP       20 3 15.19                             149    0.5210 79.5  46 
 PAM  SN ES   1   20 3 31.92                             149    0.23 7 79.5  46 
 PAM  SZ I        20 3 34.11        18.9 0.48            153           79.5  46 
 RUS  HZ EP       20 3 16.26                             141   -0.2610  106 172 
 RUS  HN ES       20 3 34.67                             141   -0.3110  106 172 
 RUS  HZ I        20 3 36.78         3.5 0.36            144            106 172 
 PTB  HN ES   1   20 3 39.31                             132    0.30 7  141 256 
 PTB  HZ I        20 3 43.20         5.7 0.14            133            141 256 
 SML  HE ES   2   20 3 56.28                             117    0.17 4  236 337 
                                                                                
