 2011  717 2158 56.7 L   6.875 -73.244112.4  RSN  7 0.4 1.8LRSN                1
 GAP=126        0.89       3.8     6.5  7.2 -0.2293E+01  0.4555E+00 -0.1001E+02E
 Epicentro: BETULIA - SANTANDER                                                3
 ACTION:UPD 12-07-25 14:01 OP:epov STATUS:               ID:20110717215856 L   I
 2011-07-17-2140-00M.COL___133                                                 6
 STAT SP IPHASW D HRMM SECON CODA AMPLIT PERI AZIMU VELO AIN AR TRES W  DIS CAZ7
 GIR2 SZ EP       2159 12.37                             168    0.2210 23.2  14 
 BAR2 SZ EP       2159 12.44                             163   -0.1310 32.0 168 
 BAR2 SZ ES       2159 25.11                             163    0.1410 32.0 168 
 BAR2 SZ I        2159 27.05        26.4 0.43                          32.0 168 
 BRR  HZ EP       2159 12.91                             151   -0.5410 57.7 296 
 BRR  HE ES   1   2159 26.69                             151    0.14 7 57.7 296 
 BRR  HZ I        2159 32.95        13.6 0.19                          57.7 296 
 PAM  SZ EP   1   2159 16.00                             143    0.42 7 79.1  49 
 PAM  SN ES   1   2159 30.47                             143    0.13 7 79.1  49 
 RUS  HZ EP   2   2159 17.74                             133   -0.40 5  110 171 
 RUS  HN ES   1   2159 34.94                             133    0.05 7  110 171 
 GRA  SZ EP       2159 18.57                             129   -0.2010  122  23 
 GRA  SZ ES   1   2159 35.10                             129   -0.91 7  122  23 
 GRA  SZ I        2159 39.87         7.1 0.29                           122  23 
 OCA  SZ EP       2159 22.28                             122    0.61 9  151 357 
 OCA  SZ ES   1   2159 41.43                             122    0.26 7  151 357 
 OCA  SZ I        2159 43.09        12.3 0.20                           151 357 
                                                                                
