 2010 1117 2158 11.4 L   6.827 -73.025148.0  RSN  5 0.1 1.6LRSN                1
 GAP=172        0.33       3.8     5.7  7.0  0.6322E+01 -0.2582E+02 -0.1350E+02E
 Epicentro: CEPITA - SANTANDER                                                 3
 ACTION:UP  10-12-17 16:53 OP:REBC STATUS:               ID:20101117215811 L   I
 2010-11-17-2156-41S.COL___129                                                 6
 STAT SP IPHASW D HRMM SECON CODA AMPLIT PERI AZIMU VELO SNR AR TRES W  DIS CAZ7
 BTL  SZ EP   2   2158 31.52                             169     0.1 5   29 291 
 BAR2 SZ EP   2   2158 31.62                             168     0.1 5   31 214 
 BAR2 SZ ES   3   2158 47.28                             168     0.1 2   31 214 
 BAR2 SZ I        2158 49.55         9.0 0.32                            31 214 
 BRR  HZ EP       2158 33.37                             150    -0.110   82 292 
 BRR  HZ I        2158 33.75        18.2 0.15                            82 292 
 BRR  HE ES   1   2158 50.69                             150     0.1 7   82 292 
 RUS  HZ EP   3   2158 36.10                             144     0.5 2  103 184 
 RUS  HE ES   2   2158 54.32                             144    -0.1 5  103 184 
 RUS  HZ I        2158 55.46         3.9 0.23                           103 184 
 GRA  SZ EP       2158 36.34                             139     0.010  120  12 
 GRA  SZ I        2158 37.75         4.9 0.19                           120  12 
                                                                                
