 2012 1217 2221 56.2 L   6.814 -73.128146.2  RSN 16 0.6 2.4LRSN 3.0WRSN        1
 SPEC AVERAGE  MO 13.6 ST  7.7 OM  3.2 f0 4.69 R0.3201 AL 2.59 WI 22.4 MW  3.0 3
 SPEC SD       MO  0.3 ST  4.2 OM  1.3 f00.687 R0.0461 AL      WI      MW  0.2 3
 GAP= 71        1.35       4.0     3.9  5.8  0.5284E-01  0.5712E+01  0.3715E+01E
 Epicentro: LOS SANTOS - SANTANDER                                             3
 SPEC ZAR HH N MO 13.7 ST 12.1 OM  1.9 f0 5.73 R0.2565 AL 2.24 WI 29.3 MW  3.1 3
 SPEC ZAR HH N T222253 K 0.000 GD  251 VS 4.20 DE 3.00 Q0230.0 QA 0.60 VS 4.20 3
 SPEC RUS HH N MO 13.2 ST  1.3 OM  1.6 f0 3.80 R0.3868 AL 2.33 WI 10.5 MW  2.8 3
 SPEC RUS HH N T222238 K 0.000 GD  178 VS 4.20 DE 3.00 Q0230.0 QA 0.60 VS 4.20 3
 SPEC NOR HH N MO 13.9 ST 10.9 OM  2.1 f0 4.58 R0.3210 AL 2.71 WI 20.4 MW  3.2 3
 SPEC NOR HH N T222259 K 0.000 GD  278 VS 4.20 DE 3.00 Q0230.0 QA 0.60 VS 4.20 3
 SPEC BRR HH N MO 13.7 ST  6.7 OM  2.1 f0 4.65 R0.3161 AL 3.10 WI 29.4 MW  3.1 3
 SPEC BRR HH N T222234 K 0.000 GD  163 VS 4.20 DE 3.00 Q0230.0 QA 0.60 VS 4.20 3
 ACTION:UPD 13-01-04 14:28 OP:ep   STATUS:               ID:20121217222156 L   I
 2012-12-17-2220-00M.COL___242                                                 6
 STAT SP IPHASW D HRMM SECON CODA AMPLIT PERI AZIMU VELO AIN AR TRES W  DIS CAZ7
 BAR2 SZ EP       2222 15.80                             170   -0.1010 25.2 194 
 BAR2 SZ ES       2222 30.85                             170   -0.4310 25.2 194 
 BAR2 SZ I        2222 33.35        68.2 0.28                          25.2 194 
 GIR2 SZ EP       2222 15.93                             168    0.0510 30.2 346 
 GIR2 SZ ES       2222 31.93                             168    0.6910 30.2 346 
 GIR2 SZ I        2222 32.71        15.1 0.12                          30.2 346 
 BRR  HZ EP       2222 17.64                             152    0.2010 72.2 297 
 BRR  HN ES       2222 34.87                             152    0.8610 72.2 297 
 BRR  HN I        2222 35.29        69.1 0.28                          72.2 297 
 PAM  SZ EP       2222 18.57                             152    0.2610 75.0  39 
 PAM  SZ I        2222 18.89        19.1 0.22                          75.0  39 
 PAM  SN ES       2222 35.56                             152    0.0010 75.0  39 
 RUS  HZ EP       2222 19.69                             144   -0.3910  102 177 
 RUS  HN ES       2222 38.50                             144   -0.2110  102 177 
 RUS  HN I        2222 40.04        51.7 0.30                           102 177 
 PTB  HZ EP       2222 22.41                             132   -0.98 9  150 258 
 PTB  HN ES       2222 43.70                             132   -0.90 9  150 258 
 PTB  HN I        2222 48.97        51.0 0.50                           150 258 
 TAM  HZ EP       2222 24.01                             131    0.25 9  154 106 
 TAM  HN ES       2222 45.09                             131   -0.18 9  154 106 
 ZAR  HZ EP       2222 28.24                             122   -0.55 8  205 292 
 ZAR  HE ES       2222 54.17                             122   -0.04 8  205 292 
 ZAR  HN I        2223  0.07        45.4 0.28                           205 292 
 NOR  HZ EP       2222 32.09                             118   -0.11 8  237 234 
 NOR  HN ES       2223  0.30                             118    0.01 8  237 234 
 NOR  HN I        2223  5.98        62.9 0.16                           237 234 
 SML  HZ EP       2222 32.79                             118    0.01 8  243 335 
 SML  HN ES       2223  0.23                             118   -1.09 8  243 335 
 CHI  HZ EP       2222 33.89                             117   -0.23 8  251 196 
 CHI  HN I        2223  7.76        13.2 0.46                           251 196 
 ROSC BZ EP       2222 35.84                             117    1.26 8  255 211 
 ROSC BZ I        2223 13.23        19.7 0.30                           255 211 
 HEL  HZ EP       2222 37.57                             115    0.90 8  274 256 
 HEL  HN ES       2223  9.18                             115    0.94 8  274 256 
 HEL  HN I        2223 14.53        13.2 0.38                           274 256 
 TOL  SZ EP       2222 45.55                             109    0.81 6  346 225 
 COD  HZ EP       2222 44.77                             109    0.34 6  347 354 
 PRA  HZ EP       2222 49.19                             106   -0.80 6  394 210 
 PRA  HE ES       2223 31.69                             106   -0.26 6  394 210 
 PRA  HN I        2223 35.87         6.7 0.50                           394 210 
                                                                                
