 2013  917 2334 31.7 L   6.791 -73.203149.4  RSN  6 0.4 1.6LRSN                1
 GAP=130        1.10       5.6     7.2  8.6  0.1513E+02 -0.7893E+01 -0.1640E+02E
 Epicentro: ZAPATOCA - SANTANDER                                               3
 ACTION:UPD 13-10-22 09:23 OP:ep   STATUS:               ID:20130917233431 L   I
 OLDACT:UP  13-09-17 22:40 OP:cam  STATUS:               ID:20130917232959     3
 OLDACT:REG 13-09-17 22:11 OP:cam  STATUS:               ID:20130917232959     3
 2013-09-17-2329-59M.COL___269                                                 6
 STAT SP IPHASW D HRMM SECON CODA AMPLIT PERI AZIMU VELO AIN AR TRES W  DIS CAZ7
 BAR2 SZ EP       2334 51.57                             171   -0.1410 22.1 174 
 BAR2 SZ ES       2335  6.70                             171   -0.6410 22.1 174 
 BAR2 SZ I        2335  7.41        12.7 0.32            175           22.1 174 
 BRR  HZ EP       2334 53.27                             155    0.3310 66.2 302 
 BRR  HE ES       2335 10.47                             155    0.9410 66.2 302 
 BRR  HZ I        2335 11.36         9.0 0.12            153           66.2 302 
 PAM  SZ EP   1   2334 54.57                             150    0.01 7 82.3  42 
 RUS  HZ EP       2334 55.97                             145    0.2210  100 172 
 RUS  HN ES       2335 14.58                             145    0.0510  100 172 
 RUS  HZ I        2335 16.03         2.7 0.44            147            100 172 
 PTB  HZ EP   1   2334 58.37                             134    0.01 7  141 259 
 PTB  HN ES       2335 18.73                             134   -0.45 9  141 259 
 PTB  HZ I        2335 20.23         3.9 0.20            135            141 259 
 SML  HZ EP   1   2335  8.30                             118   -0.02 6  242 337 
 SML  HE ES       2335 36.34                             118   -0.57 8  242 337 
 SML  HZ I        2335 44.34         4.8 0.26            118            242 337 
                                                                                
