 2010 1217 2348 14.5 L   6.713 -73.213147.2  RSN  4 0.3 1.5LRSN                1
 GAP=218        0.63       5.9     8.3  7.2  0.2222E+02  0.6501E+01  0.1078E+01E
 Epicentro: VILLANUEVA - SANTANDER                                             3
 ACTION:UP  11-01-14 15:25 OP:pat  STATUS:               ID:20101217234814 L   I
 2010-12-17-2346-15S.COL___134                                                 6
 STAT SP IPHASW D HRMM SECON CODA AMPLIT PERI AZIMU VELO SNR AR TRES W  DIS CAZ7
 BAR2 SZ EP   1   2348 33.86                             174    -0.3 7   14 167 
 BAR2 SZ ES   1   2348 49.06                             174    -0.4 7   14 167 
 BAR2 SZ I        2348 50.24         5.4 0.19                            14 167 
 BRR  HZ IP     C 2348 35.72                             153     0.010   70 308 
 BRR  HZ I        2348 36.04         7.7 0.12                            70 308 
 BRR  HN ES   1   2348 52.66                             153     0.3 7   70 308 
 RUS  HZ EP   1   2348 37.96                             146     0.2 7   92 171 
 RUS  HN ES   1   2348 56.21                             146     0.3 7   92 171 
 NOR  SE ES   2   2349 15.82                             120    -0.3 4  223 235 
                                                                                
