 2016  817 2303  1.6 L   6.793 -73.132149.6  RSN  8 0.3 1.9LRSN                1
 GAP=238        0.67       3.2     3.4  4.5  0.3356E+01  0.4412E+01  0.4375E+01E
 Epicentro: LOS SANTOS - SANTANDER                                             3
 ACTION:UPD 16-10-29 15:36 OP:rebc STATUS:               ID:20160817230301 L   I
 OLDACT:UP  16-08-18 04:29 OP:cara STATUS:               ID:20160817225759     3
 OLDACT:REG 16-08-18 03:58 OP:cara STATUS:               ID:20160817225759     3
 2016-08-17-2257-59S.COL___349                                                 6
 STAT SP IPHASW D HRMM SECON CODA AMPLIT PERI AZIMU VELO AIN AR TRES W  DIS CAZ7
 BAR2 EZ EP       23 3 21.59                             171   -0.1310 22.9 194 
 BAR2 HE ES       23 3 37.18                             171   -0.2010 22.9 194 
 BAR2 EZ I        23 3 38.35        11.6 0.28                          22.9 194 
 BRR  HZ EP       23 3 23.36                             153    0.0610 72.9 298 
 BRR  HN ES       23 3 40.80                             153    0.6110 72.9 298 
 BRR  HZ I        23 3 44.02        18.5 0.30                          72.9 298 
 RUS  HZ EP       23 3 25.51                             145   -0.2010 99.7 177 
 RUS  HN ES       23 3 44.50                             145    0.0210 99.7 177 
 RUS  HZ I        23 3 47.17         6.4 0.42                          99.7 177 
 PTB  HZ EP       23 3 28.89                             133   -0.16 9  149 259 
 PTB  HE ES       23 3 50.10                             133   -0.32 9  149 259 
 PTB  HZ I        23 3 55.47         8.0 0.32                           149 259 
 ZAR  HZ EP   4   23 3 37.49                             123    2.98 0  206 292 
 ZAR  HN ES       23 3 59.89                             123   -0.26 8  206 292 
 ZAR  HZ I        23 4  6.16         7.2 0.58                           206 292 
 NOR  HE ES       23 4  5.79                             119   -0.01 8  236 235 
 NOR  HZ I        23 4  8.28         5.7 0.28                           236 235 
 CHI  HZ EP       23 3 39.68                             118    0.16 8  248 196 
 CHI  HN ES       23 4  9.22                             118    0.15 8  248 196 
 CHI  HZ I        23 4 13.70         3.8 0.28                           248 196 
 GUY2CHZ EP       23 3 46.05                             113    0.53 7  302 235 
 GUY2CHE ES       23 4 19.76                             113    0.01 7  302 235 
 GUY2CHZ I        23 4 28.32         5.3 0.72                           302 235 
                                                                                
