 2017  417 2106 27.6 L   6.739 -73.156146.4  RSN  6 0.2 1.4LRSN                1
 GAP=138        0.57       3.5     3.0  4.8  0.7118E+00  0.1055E+00 -0.4510E+01E
 Epicentro: LOS SANTOS - SANTANDER                                             3
 ACTION:UPD 17-05-30 21:13 OP:jn   STATUS:               ID:20170417210627 L   I
 OLDACT:UP  17-04-18 03:54 OP:edw  STATUS:               ID:20170417205131     3
 OLDACT:REG 17-04-18 03:26 OP:edw  STATUS:               ID:20170417205131     3
 2017-04-17-2058-00M.COL___374                                                 6
 STAT SP IPHASW D HRMM SECON CODA AMPLIT PERI AZIMU VELO AIN AR TRES W  DIS CAZ7
 BAR2 EZ EP       21 6 47.28                             173    0.0510 16.4 190 
 BAR2 EZ ES       21 7  2.80                             173    0.2910 16.4 190 
 PAM  EZ EP     D 21 6 50.22                             149   -0.0810 83.4  37 
 PAM  EN ES   4   21 7  5.04                             149   -2.93 0 83.4  37 
 PAM  EZ I        21 7  7.76         3.1 0.34            151           83.4  37 
 RUS  HZ EP       21 6 51.17                             146    0.1810 93.9 175 
 RUS  HN ES       21 7  8.81                             146   -0.3910 93.9 175 
 RUS  HZ I        21 7 13.11         1.6 0.30            146           93.9 175 
 PTB  HZ EP   9   21 6 54.12                             133   -0.34 0  145 261 
 PTB  HN ES       21 7 14.98                             130   -0.06 9  145 261 
 PTB  HZ I        21 7 17.47         3.8 0.18            132            145 261 
 ZAR  HN ES       21 7 25.58                             122   -0.19 8  206 294 
 ZAR  HZ I        21 7 31.74         4.7 0.26            122            206 294 
 NOR  HN ES       21 7 30.53                             119    0.14 8  230 236 
                                                                                
