 2014 1117 2109 50.6 L   6.811 -73.196141.9  RSN  7 0.5 1.8LRSN                1
 GAP=130        1.17       5.0     5.3  7.4 -0.4944E+01  0.7070E+01  0.1046E+02E
 Epicentro: ZAPATOCA - SANTANDER                                               3
 ACTION:UPD 14-12-19 15:44 OP:nd   STATUS:               ID:20141117210950 L   I
 OLDACT:REG 14-11-18 04:22 OP:cam  STATUS:               ID:20141117210819     3
 2014-11-17-2108-19M.COL___292                                                 6
 STAT SP IPHASW D HRMM SECON CODA AMPLIT PERI AZIMU VELO AIN AR TRES W  DIS CAZ7
 BAR2 SZ EP       2110  9.81                             170    0.0110 24.3 177 
 BAR2 SZ ES       2110 24.90                             170    0.1410 24.3 177 
 BAR2 SZ I        2110 30.66        12.3 0.22            166           24.3 177 
 BRR  HZ EP       2110 11.44                             154    0.3910 65.8 300 
 BRR  HN ES       2110 27.49                             154    0.5110 65.8 300 
 BRR  HZ I        2110 31.44        19.5 0.32            157           65.8 300 
 PAM  SZ EP       2110 12.64                             149    0.0510 80.1  43 
 PAM  SN ES       2110 29.64                             149   -0.0910 80.1  43 
 PAM  SZ I        2110 30.17        15.3 0.20            157           80.1  43 
 RUS  HZ EP       2110 13.94                             142   -0.1810  102 173 
 RUS  HE ES       2110 32.13                             142   -0.3210  102 173 
 RUS  HZ I        2110 36.30         4.3 0.18            143            102 173 
 PTB  HZ EP       2110 15.93                             132   -0.87 9  143 258 
 PTB  HN ES       2110 36.30                             132   -0.92 9  143 258 
 PTB  HZ I        2110 39.77        15.3 0.22            135            143 258 
 NOR  HZ EP       2110 26.27                             118    0.55 8  231 233 
 NOR  HN ES       2110 53.85                             118    0.75 8  231 233 
 NOR  HZ I        2110 59.93         8.6 0.14            121            231 233 
 CHI  HZ EP       2110 28.16                             116    0.08 8  248 194 
 CHI  HN ES       2110 57.55                             116    0.24 8  248 194 
 CHI  HZ I        2111  5.31         3.8 0.40            119            248 194 
                                                                                
