 2013  117 2016 55.0 L   6.770 -73.144142.0  RSN  9 0.4 2.2LRSN                1
 GAP=138        1.03       3.3     4.3  6.8 -0.7172E+00  0.6574E+01  0.4689E+01E
 Epicentro: LOS SANTOS - SANTANDER                                             3
 ACTION:UPD 13-02-15 09:14 OP:ep   STATUS:               ID:20130117201655 L   I
 2013-01-17-2010-00M.COL___241                                                 6
 STAT SP IPHASW D HRMM SECON CODA AMPLIT PERI AZIMU VELO AIN AR TRES W  DIS CAZ7
 BAR2 SZ ES       2017 28.53                             172   -0.5210 20.1 192 
 BAR2 SZ I        2017 30.36        25.9 0.24            170           20.1 192 
 BRR  HZ EP       2017 16.25                             151    0.3710 73.0 301 
 BRR  HN ES       2017 32.77                             151    0.6310 73.0 301 
 BRR  HN I        2017 37.21        50.7 0.48            150           73.0 301 
 PAM  SZ EP       2017 17.03                             149    0.0310 79.9  38 
 PAM  SN ES       2017 33.78                             149   -0.3610 79.9  38 
 PAM  SN I        2017 36.15         9.1 0.54            153           79.9  38 
 RUS  HZ EP       2017 18.08                             144   -0.0910 97.2 176 
 RUS  HN ES       2017 36.58                             144    0.3610 97.2 176 
 RUS  HN I        2017 38.29        13.6 0.16            146           97.2 176 
 PTB  HZ EP       2017 20.95                             131   -0.71 9  147 260 
 PTB  HN ES       2017 41.92                             131   -0.50 9  147 260 
 PTB  HN I        2017 47.45        33.4 0.42            132            147 260 
 OCA  HE ES       2017 45.87                             128    0.39 9  164 353 
 OCA  HE I        2017 47.24        62.1 0.48            130            164 353 
 ZAR  HN ES       2017 52.53                             121   -0.10 8  206 293 
 ZAR  HN I        2017 55.59        14.2 0.12            122            206 293 
 NOR  HN ES       2017 58.17                             118    0.26 8  233 235 
 NOR  HN I        2018  3.12        22.4 0.14            119            233 235 
 CHI  HZ EP       2017 32.13                             117   -0.05 8  245 195 
 CHI  HN ES       2018  1.55                             117    0.40 8  245 195 
 CHI  HN I        2018  4.83         6.4 0.24            118            245 195 
                                                                                
