 2017  417 2200 35.0 L   6.801 -73.180137.8  RSN  6 0.4 1.3LRSN                1
 GAP=132        1.10       5.2     4.9  8.8 -0.3895E+01  0.1928E+02 -0.6701E+01E
 Epicentro: LOS SANTOS - SANTANDER                                             3
 ACTION:UPD 17-05-30 21:13 OP:jn   STATUS:               ID:20170417220035 L   I
 OLDACT:UP  17-04-18 04:26 OP:edw  STATUS:               ID:20170417215716     3
 OLDACT:REG 17-04-18 03:29 OP:edw  STATUS:               ID:20170417215716     3
 2017-04-17-2158-00M.COL___374                                                 6
 STAT SP IPHASW D HRMM SECON CODA AMPLIT PERI AZIMU VELO AIN AR TRES W  DIS CAZ7
 BAR2 EZ ES       22 1  8.60                             170    0.4110 23.1 181 
 PAM  EZ EP     C 22 0 56.72                             148    0.2310 79.8  42 
 PAM  EN ES       22 1 13.04                             148   -0.2410 79.8  42 
 PAM  EZ I        22 1 14.95         3.2 0.32            152           79.8  42 
 RUS  HZ EP       22 0 57.37                             142   -0.6110  101 174 
 RUS  HN ES       22 1 16.03                             142    0.1110  101 174 
 RUS  HZ I        22 1 20.15         1.8 0.30            144            101 174 
 PTB  HZ EP       22 1  0.66                             131   -0.29 9  144 258 
 PTB  HN ES       22 1 20.94                             131   -0.28 9  144 258 
 PTB  HZ I        22 1 24.11         5.1 0.34            133            144 258 
 ZAR  HZ EP       22 1  7.50                             121    0.97 9  200 293 
 ZAR  HN ES       22 1 30.72                             121   -0.43 9  200 293 
 ZAR  HZ I        22 1 34.73         3.2 0.26            123            200 293 
 NOR  HN ES       22 1 37.51                             117    0.33 8  232 234 
                                                                                
