 2016  817 2138 36.7 L   6.769 -73.385118.4  RSN  5 0.3 1.3LRSN                1
 GAP=135        0.73       3.4     3.4  5.3  0.3416E+01  0.4265E+01 -0.2008E-01E
 Epicentro: SAN VICENTE DE CHUCURI - SANTANDER                                 3
 ACTION:UPD 16-10-29 15:36 OP:rebc STATUS:               ID:20160817213836 L   I
 OLDACT:REG 16-08-18 03:42 OP:cara STATUS:               ID:20160817213759     3
 2016-08-17-2137-59S.COL___346                                                 6
 STAT SP IPHASW D HRMM SECON CODA AMPLIT PERI AZIMU VELO AIN AR TRES W  DIS CAZ7
 BAR2 EZ EP       2138 53.06                             165   -0.1310 29.7 131 
 BAR2 HE ES       2139  6.37                             165    0.2910 29.7 131 
 BAR2 EZ I        2139  7.90        12.1 0.28                          29.7 131 
 BRR  HN ES       2139  7.17                             155    0.0410 52.0 316 
 PAM  EZ EP       2138 58.09                             138    0.4310 98.6  50 
 PAM  EE ES       2139 13.68                             138   -0.3610 98.6  50 
 PAM  EZ I        2139 15.33         2.4 0.16                          98.6  50 
 RUS  HZ EP       2138 57.69                             137   -0.3010  102 161 
 RUS  HE ES       2139 14.63                             137    0.0110  102 161 
 RUS  HZ I        2139 18.96         2.5 0.20                           102 161 
 ZAR  HZ EP       2139  5.31                             119    0.29 9  181 296 
 ZAR  HN ES       2139 26.88                             119   -0.26 9  181 296 
                                                                                
