 2016  617 2300 15.6 L   6.773 -73.151148.5  RSN  6 0.3 1.7LRSN                1
 GAP=137        0.70       3.7     3.5  5.0 -0.1882E+01  0.1157E+01  0.6853E-01E
 Epicentro: LOS SANTOS - SANTANDER                                             3
 ACTION:UPD 16-07-21 22:20 OP:rebc STATUS:               ID:20160617230015 L   I
 OLDACT:REG 16-06-18 02:59 OP:cara STATUS:               ID:20160617225745     3
 2016-06-17-2257-45M.COL___349                                                 6
 STAT SP IPHASW D HRMM SECON CODA AMPLIT PERI AZIMU VELO AIN AR TRES W  DIS CAZ7
 BAR2 EZ IP       23 0 35.51                             172    0.0110 20.2 190 
 BAR2 EZ ES       23 0 50.78                             172   -0.2410 20.2 190 
 BAR2 EZ I        23 0 53.02        12.9 0.26                          20.2 190 
 BRR  HZ EP       23 0 37.33                             153    0.2310 72.1 301 
 BRR  HN ES       23 0 54.37                             153    0.5110 72.1 301 
 BRR  HZ I        23 0 58.28        19.1 0.38                          72.1 301 
 PAM  EZ IP       23 0 38.29                             150    0.0210 80.1  39 
 PAM  EN ES       23 0 55.71                             150   -0.2410 80.1  39 
 PAM  EZ I        23 0 57.49         8.4 0.54                          80.1  39 
 RUS  HZ EP       23 0 39.39                             145   -0.0210 97.6 176 
 RUS  HN ES       23 0 58.23                             145    0.2510 97.6 176 
 RUS  HZ I        23 0 59.40         2.8 0.26                          97.6 176 
 PTB  HZ EP       23 0 42.57                             133   -0.12 9  147 260 
 PTB  HN ES       23 1  3.36                             133   -0.45 9  147 260 
 PTB  HZ I        23 1 10.58         9.9 0.42                           147 260 
 GUY2CHZ EP   9   23 1  0.41                             113    1.32 0  299 235 
 GUY2CHN ES       23 1 34.50                                    0.18 7  299 235 
 GUY2CHZ I        23 1 42.00         2.8 0.44                           299 235 
                                                                                
