 2014 1017 2025 20.3 L   6.793 -73.172139.3  RSN  5 0.4 1.5LRSN                1
 GAP=134        1.06       5.5     5.2  7.7 -0.2598E+01  0.5262E+01  0.2080E+01E
 Epicentro: LOS SANTOS - SANTANDER                                             3
 ACTION:UPD 14-11-29 23:50 OP:nd   STATUS:               ID:20141017202520 L   I
 OLDACT:REG 14-10-18 06:04 OP:stll STATUS:               ID:20141017201744     3
 2014-10-17-2017-44M.COL___271                                                 6
 STAT SP IPHASW D HRMM SECON CODA AMPLIT PERI AZIMU VELO AIN AR TRES W  DIS CAZ7
 BAR2 SZ EP       2025 39.44                             170    0.2710 22.2 183 
 BAR2 SZ ES       2025 53.15                             170   -0.7110 22.2 183 
 BAR2 SZ I        2025 55.61        14.3 0.20            169           22.2 183 
 BRR  HZ EP       2025 41.09                             152    0.4210 69.1 300 
 BRR  HN ES       2025 56.61                             152    0.0810 69.1 300 
 PAM  SZ EP       2025 42.07                             149    0.0410 79.9  41 
 PAM  SZ I        2025 42.23         6.3 0.24            151           79.9  41 
 PAM  SN ES       2025 59.00                             149    0.0510 79.9  41 
 RUS  HZ EP       2025 43.05                             143   -0.3710  100 174 
 RUS  HN ES       2026  1.98                             143    0.5510  100 174 
 RUS  HZ I        2026  3.52         3.5 0.38            142            100 174 
 PTB  HZ EP       2025 45.93                             131   -0.58 9  145 259 
 PTB  HN ES       2026  7.14                             131    0.21 9  145 259 
 PTB  HZ I        2026  8.90         3.1 0.16            132            145 259 
                                                                                
