 2012 1017 2117 14.4 L   6.316 -73.584108.2  RSN  5 0.2 1.7LRSN                1
 GAP=221        0.50       3.7     6.6  6.0  0.1363E+02  0.1555E+02  0.3347E+01E
 Epicentro: SANTA HELENA DEL OPON - SANTANDER                                  3
 ACTION:UPD 12-11-22 17:04 OP:ep   STATUS:               ID:20121017211714 L   I
 2012-10-17-2110-00M.COL___230                                                 6
 STAT SP IPHASW D HRMM SECON CODA AMPLIT PERI AZIMU VELO AIN AR TRES W  DIS CAZ7
 BAR2 SZ EP       2117 31.09                             151    0.2410 53.9  56 
 BAR2 SZ ES   1   2117 43.44                             151   -0.24 7 53.9  56 
 BAR2 SZ I        2117 45.48        33.6 0.44                          53.9  56 
 RUS  HZ EP       2117 32.41                             144   -0.0110 72.6 130 
 RUS  HZ I        2117 32.75         4.4 0.22                          72.6 130 
 RUS  HN ES   1   2117 46.48                             144   -0.01 7 72.6 130 
 BRR  HZ EP       2117 32.68                             137   -0.2910 88.6 351 
 BRR  HZ I        2117 35.81        11.8 0.34                          88.6 351 
 BRR  HN ES   1   2117 47.70                             137    0.23 7 88.6 351 
 GIR2 SZ EP       2117 33.78                             135    0.1010 94.7  27 
 PAM  SN ES   2   2117 58.81                             122   -0.09 5  150  41 
                                                                                
