 2015  117 2136 18.1 L   6.801 -73.148147.7  RSN 24 0.5 2.7LRSN                1
 GAP= 55        1.09       2.4     2.9  4.7 -0.6285E+00  0.1990E+01  0.1363E+01E
 Epicentro: LOS SANTOS - SANTANDER                                             3
 ACTION:UPD 15-03-02 15:40 OP:nd   STATUS:               ID:20150117213618 L   I
 OLDACT:REG 15-01-18 05:11 OP:fm   STATUS:               ID:20150117212748     3
 2015-01-17-2127-48M.COL___256                                                 6
 STAT SP IPHASW D HRMM SECON CODA AMPLIT PERI AZIMU VELO AIN AR TRES W  DIS CAZ7
 BAR2 EZ EP     C 2136 38.17                             171    0.1810 23.4 189 
 BAR2 EZ ES       2136 53.14                             171   -0.3510 23.4 189 
 BAR2 EZ I        2136 54.78       298.8 0.22            171           23.4 189 
 BRR  HZ EP     C 2136 39.93                             153    0.4610 70.9 299 
 BRR  HE ES       2136 56.85                             153    0.7410 70.9 299 
 BRR  HZ I        2137  0.92        72.2 0.48            152           70.9 299 
 PAM  SZ IP     C 2136 40.88                             151    0.3310 77.5  40 
 PAM  SE ES       2136 58.47                             151    0.4210 77.5  40 
 PAM  SZ I        2137  1.29        43.4 0.44            154           77.5  40 
 RUS  HZ EP       2136 42.00                             144   -0.0810  101 176 
 RUS  HE ES       2136 59.99                             144   -0.7710  101 176 
 RUS  HZ I        2137  2.00       105.5 0.24            147            101 176 
 PTB  HZ EP       2136 44.93                             133   -0.30 9  148 259 
 PTB  HE ES       2137  6.05                             133   -0.32 9  148 259 
 PTB  HZ I        2137 11.62        64.7 0.28            133            148 259 
 TAM  HZ EP       2136 46.42                             131    0.44 9  155 105 
 TAM  HE ES       2137  7.72                             131    0.01 9  155 105 
 TAM  HZ I        2137  9.46        27.4 0.50            135            155 105 
 OCA  HZ EP       2136 46.14                             130   -0.43 9  160 353 
 OCA  HE ES       2137  8.21                             130   -0.55 9  160 353 
 OCA  HZ I        2137 12.42        46.7 0.20            132            160 353 
 SPBC HZ EP       2136 47.03                             129    0.27 9  163 219 
 SPBC HE ES       2137  9.43                             129    0.32 9  163 219 
 SPBC HZ I        2137 11.82       126.8 0.26            131            163 219 
 ZAR  HZ EP       2136 50.66                             123   -0.00 9  204 292 
 ZAR  HE ES       2137 15.62                             123   -0.43 9  204 292 
 ZAR  HZ I        2137 22.46        49.2 0.36            124            204 292 
 NOR  HZ EP       2136 54.03                             119    0.08 8  235 234 
 NOR  HE ES       2137 21.30                             119   -0.59 8  235 234 
 NOR  HZ I        2137 26.99        35.9 0.16            120            235 234 
 SML  HZ EP       2136 54.52                             118   -0.31 8  243 335 
 SML  HE ES       2137 24.15                             118    0.68 8  243 335 
 SML  HZ I        2137 28.34        58.8 0.10            119            243 335 
 CHI  HZ EP       2136 56.08                             117    0.15 8  249 195 
 CHI  HN ES       2137 25.05                             117   -0.38 8  249 195 
 CHI  HZ I        2137 34.22        25.7 0.30            119            249 195 
 ROSC BZ EP       2136 57.32                             117    0.98 8  253 211 
 ROSC BE ES       2137 26.35                             117    0.19 8  253 211 
 ROSC BZ I        2137 33.21        61.8 0.40            119            253 211 
 HEL  HZ EP       2136 58.44                             115    0.03 8  272 256 
 HEL  HE ES       2137 29.70                             115   -0.13 8  272 256 
 HEL  HZ I        2137 37.10        19.9 0.28            116            272 256 
 URE  HZ EP       2136 58.40                             114   -0.85 7  284 292 
 URE  HE ES   4   2137 28.85                             114   -2.48 0  284 292 
 URE  HZ I        2137 39.67        28.6 0.24            115            284 292 
 VIL  SZ EP       2137  1.57                             112   -0.07 7  303 192 
 VIL  SE ES       2137 35.89                             112    0.31 7  303 192 
 VIL  SZ I        2137 41.44        38.9 0.38            114            303 192 
 PTGC HZ EP       2137  1.19                             112   -0.90 7  309 159 
 PTGC HN ES   4   2137 33.10                             112   -3.29 0  309 159 
 PTGC HZ I        2137 36.28        20.4 0.48            114            309 159 
 RREF HZ EP   4   2137  5.33                             111    1.00 0  322 229 
 RREF HN ES   4   2137 43.26                             111    2.88 0  322 229 
 RREF HZ I        2137 45.23        32.0 0.28            113            322 229 
 CBOC HZ I        2137 51.07         8.4 0.38            111            333 252 
 TOL  SZ EP       2137  7.27                             110    0.83 7  343 225 
 TOL  SE ES       2137 44.46                             110    0.32 7  343 225 
 SDV  BZ EP       2137  7.59                             109   -0.66 6  361  50 
 SDV  BE ES   4   2137 45.43                             109   -1.92 0  361  50 
 SDV  BZ I        2137 48.54         5.4 0.45            111            361  50 
 ORTC HZ I        2137 33.19        25.6 0.18            108            395 216 
 SJC  HZ EP   4   2137 12.30                             106   -1.42 0  409 327 
 SJC  HE ES   4   2137 52.57                             106   -4.51 0  409 327 
 SJC  HZ I        2137 59.70        10.2 0.28            107            409 327 
 SMAR HZ I        2138 17.22        16.4 0.18            104            497 346 
                                                                                
