 2014  417 2141 33.9 L   6.808 -73.115148.6  RSN 10 0.4 1.9LRSN                1
 GAP=140        0.90       2.5     4.6  6.5 -0.1465E+00  0.4896E+01  0.1352E+01E
 Epicentro: LOS SANTOS - SANTANDER                                             3
 ACTION:UPD 14-05-13 23:09 OP:nd   STATUS:               ID:20140417214133 L   I
 OLDACT:UP  14-04-18 06:23 OP:cam  STATUS:               ID:20140417213820     3
 OLDACT:REG 14-04-18 05:32 OP:cam  STATUS:               ID:20140417213820     3
 2014-04-17-2138-20M.COL___254                                                 6
 STAT SP IPHASW D HRMM SECON CODA AMPLIT PERI AZIMU VELO AIN AR TRES W  DIS CAZ7
 BRR  HZ IP     C 2141 55.56                             152    0.0510 73.8 297 
 BRR  HN ES       2142 12.49                             152    0.1410 73.8 297 
 BRR  HZ I        2142 15.73        20.5 0.38            147           73.8 297 
 PAM  SZ IP     D 2141 56.76                             152    0.5010 74.6  38 
 PAM  SN ES       2142 13.74                             152    0.0410 74.6  38 
 PAM  SZ I        2142 15.72        14.3 0.50            153           74.6  38 
 RUS  HZ EP       2141 58.06                             144    0.0710  101 178 
 RUS  HN ES       2142 16.14                             144   -0.6310  101 178 
 PTB  HZ EP   4   2142  0.64                             132   -0.78 0  151 259 
 PTB  HN ES   4   2142 21.38                             132   -1.50 0  151 259 
 PTB  HZ I        2142 26.88         8.6 0.24            129            151 259 
 OCA  HZ EP   1   2142  1.77                             130   -0.62 7  160 352 
 OCA  HN ES       2142 24.97                             130    0.35 9  160 352 
 OCA  HZ I        2142 28.08        12.0 0.26            129            160 352 
 SPBC HZ EP     C 2142  3.14                             129    0.25 9  166 220 
 SPBC HN ES       2142 25.39                             129   -0.11 9  166 220 
 SPBC HZ I        2142 28.06         6.7 0.34            127            166 220 
 ZAR  HZ EP   4   2142  8.92                             122    2.10 0  207 292 
 ZAR  HE ES       2142 32.78                             122    0.28 8  207 292 
 ZAR  HZ I        2142 37.19         7.6 0.22            120            207 292 
 SML  HZ EP   1   2142 10.29                             118   -0.47 6  244 334 
 SML  HE ES       2142 38.70                             118   -0.80 8  244 334 
 SML  HZ I        2142 51.71         6.5 0.16            116            244 334 
 CHI  HZ EP   1   2142 11.93                             117   -0.02 6  250 196 
 CHI  HN ES       2142 41.92                             117    0.29 8  250 196 
 CHI  HZ I        2142 46.61         3.7 0.46            117            250 196 
 RREF HE ES   4   2142 59.63                             111    2.73 0  325 230 
 RREF HZ I        2143  5.18         2.9 0.34            110            325 230 
 SJC  HZ EP   4   2142 28.21                             106   -1.48 0  410 326 
                                                                                
