 2017  417 2236 46.2 L   6.797 -73.196143.2  RSN  4 0.0 1.1LRSN                1
 GAP=144        0.28       1.7     1.7  2.6 -0.9919E+00  0.3382E+00 -0.1414E+00E
 Epicentro: ZAPATOCA - SANTANDER                                               3
 ACTION:UPD 17-05-30 21:13 OP:jn   STATUS:               ID:20170417223646 L   I
 OLDACT:REG 17-04-18 03:30 OP:edw  STATUS:               ID:20170417222741     3
 2017-04-17-2228-00M.COL___374                                                 6
 STAT SP IPHASW D HRMM SECON CODA AMPLIT PERI AZIMU VELO AIN AR TRES W  DIS CAZ7
 BAR2 EZ EP       2237  5.54                             171   -0.0110 22.6 176 
 BAR2 EZ ES       2237 20.65                             171    0.0310 22.6 176 
 BAR2 EZ I        2237 21.47         3.3 0.06            171           22.6 176 
 PAM  EZ EP       2237  8.47                             149    0.0410 81.4  42 
 PAM  EN ES       2237 25.71                             149   -0.0310 81.4  42 
 PAM  EZ I        2237 27.24         2.1 0.44            149           81.4  42 
 RUS  HZ EP       2237  9.75                             143   -0.0110  101 173 
 RUS  HN ES       2237 28.09                             143   -0.0110  101 173 
 RUS  HZ I        2237 28.93         2.0 0.22            144            101 173 
 PTB  HE ES       2237 32.97                             133   -0.01 9  142 259 
                                                                                
