 2015  117 2141 20.8 L   6.736 -73.133140.4  RSN  5 0.4 1.7LRSN                1
 GAP=163        1.10       9.9     5.6  8.2 -0.1907E+02  0.1588E+02 -0.1078E+02E
 Epicentro: LOS SANTOS - SANTANDER                                             3
 ACTION:UPD 15-03-02 15:40 OP:nd   STATUS:               ID:20150117214120 L   I
 OLDACT:REG 15-01-18 05:12 OP:fm   STATUS:               ID:20150117213744     3
 2015-01-17-2137-44M.COL___262                                                 6
 STAT SP IPHASW D HRMM SECON CODA AMPLIT PERI AZIMU VELO AIN AR TRES W  DIS CAZ7
 BAR2 EZ ES       2141 54.56                             173    0.1410 16.8 199 
 BAR2 EZ I        2141 56.29        14.8 0.20            174           16.8 199 
 BRR  HZ EP       2141 42.23                             150    0.5310 76.0 303 
 BRR  HN ES       2141 58.49                             150    0.5210 76.0 303 
 BRR  HZ I        2142  2.01        10.5 0.16            149           76.0 303 
 PAM  SZ EP       2141 43.13                             148    0.3410 82.2  36 
 PAM  SE ES       2141 59.20                             148   -0.7110 82.2  36 
 PAM  SZ I        2142  2.47         6.6 0.62            150           82.2  36 
 PTB  HZ EP       2141 46.91                             131   -0.48 9  148 262 
 PTB  HE ES       2142  7.75                             131   -0.35 9  148 262 
 PTB  HZ I        2142 11.19         6.2 0.20            133            148 262 
 ZAR  HZ EP       2141 53.43                             121    0.07 8  208 294 
 ZAR  HN ES       2142 18.51                             121   -0.22 8  208 294 
 ZAR  HZ I        2142 21.16         4.7 0.26            122            208 294 
                                                                                
