 2017  817 2211  1.7 L   6.791 -73.102145.1  RSN  5 0.2 1.3LRSN                1
 GAP=143        0.53       3.8     4.1  4.8  0.8867E+01 -0.4115E+01 -0.5934E+01E
 Epicentro: LOS SANTOS - SANTANDER                                             3
 ACTION:UPD 17-09-04 20:21 OP:rebc STATUS:               ID:20170817221101 L   I
 OLDACT:UP  17-08-18 04:34 OP:dani STATUS:               ID:20170817220736     3
 OLDACT:REG 17-08-18 02:53 OP:dani STATUS:               ID:20170817220736     3
 2017-08-17-2208-00M.COL___407                                                 6
 STAT SP IPHASW D HRMM SECON CODA AMPLIT PERI AZIMU VELO AIN AR TRES W  DIS CAZ7
 BAR2 EZ ES       2211 36.19                             170   -0.2910 23.7 202 
 PAM  EZ EP       2211 23.84                             151    0.1510 75.2  36 
 PAM  EZ I        2211 43.03         4.6 0.56            130           75.2  36 
 BRR  HZ EP       2211 22.89                             151   -0.1410 76.0 297 
 BRR  HN ES       2211 39.85                             151    0.1710 76.0 297 
 BRR  HZ I        2211 43.87        13.0 0.24            147           76.0 297 
 RUS  HZ EP       2211 25.15                             144   -0.1210 99.3 179 
 RUS  HN ES       2211 43.91                             144    0.2410 99.3 179 
 RUS  HZ I        2211 45.40         1.0 0.24            146           99.3 179 
 ZAR  HE ES       2212  0.26                             121    0.01 8  209 292 
                                                                                
