 2012  117 2357 37.9 L   6.854 -73.336129.9  RSN  5 0.4 1.5LRSN                1
 GAP=206        1.02      11.6    11.5 12.6  0.7185E+02  0.5020E+02  0.3917E+02E
 Epicentro: ZAPATOCA - SANTANDER                                               3
 ACTION:UP  12-02-03 08:18 OP:REBC STATUS:               ID:20120117235737 L   I
 2012-01-17-2350-00M.COL___188                                                 6
 STAT SP IPHASW D HRMM SECON CODA AMPLIT PERI AZIMU VELO SNR AR TRES W  DIS CAZ7
 BAR2 SZ ES   2   2358  9.21                             165    -0.8 5   34 150 
 BAR2 SZ I        2358 10.39        21.2 0.38                            34 150 
 BRR  HZ EP       2357 56.78                             158     0.510   50 304 
 BRR  HN ES   1   2358 10.36                             158    -0.1 7   50 304 
 BRR  HZ I        2358 17.30        11.6 0.56                            50 304 
 RUS  HZ EP   2   2358  0.95                             138     0.0 5  110 165 
 RUS  HN ES   2   2358 19.27                             138     0.4 5  110 165 
 RUS  HZ I        2358 19.65         1.7 0.28                           110 165 
 PTB  HZ EP       2358  1.36                             133    -0.510  129 254 
 PTB  HN ES   2   2358 20.92                             133     0.4 5  129 254 
 ZAR  HN ES   2   2358 29.83                             122     0.0 4  182 293 
 ZAR  HZ I        2358 34.83         2.5 0.13                           182 293 
                                                                                
