 2016  218 0831 15.4 L   6.759 -73.543108.0  RSN  5 0.3 1.1LRSN                1
 GAP=141        0.89       5.3     4.6  6.7  0.1191E+02  0.9318E+01  0.6565E+01E
 Epicentro: EL CARMEN - SANTANDER                                              3
 ACTION:UPD 16-03-04 21:27 OP:rebc STATUS:               ID:20160218083115 L   I
 OLDACT:DUP 16-02-18 17:04 OP:drio STATUS:               ID:20160218082740d    3
 2016-02-18-0827-39M.COL___327                                                 6
 STAT SP IPHASW D HRMM SECON CODA AMPLIT PERI AZIMU VELO AIN AR TRES W  DIS CAZ7
 BRR  HZ EP        831 30.65                             157   -0.2210 42.8 334 
 BRR  HE ES        831 43.36                             157    0.4010 42.8 334 
 BRR  HZ I         831 43.83         4.3 0.40            156           42.8 334 
 BAR2 EZ EP        831 30.99                             156   -0.2910 43.9 115 
 BAR2 EZ ES        831 43.34                             156   -0.3510 43.9 115 
 BAR2 EZ I         831 44.80         6.4 0.18            163           43.9 115 
 PTB  HZ EP        831 35.00                             133   -0.2810  104 257 
 PTB  HN ES        831 50.65                             133   -0.1610  104 257 
 PTB  HZ I         831 57.16         2.5 0.36            130            104 257 
 RUS  HZ EP        831 36.36                             132    0.0110  108 152 
 RUS  HE ES        831 53.22                             132    0.5110  108 152 
 RUS  HZ I         831 54.34         2.0 0.22            134            108 152 
 ZAR  HZ EP        831 42.01                             118    0.48 9  166 299 
 ZAR  HN ES   4    832  4.36                             118    2.44 0  166 299 
 ZAR  HZ I         832  7.90         2.2 0.28            119            166 299 
                                                                                
