 2014  718 0221  6.4 L   6.800 -73.161143.9  RSN 21 0.4 2.2LRSN                1
 GAP=145        0.83       2.2     3.2  4.3 -0.2712E+01  0.2500E+01  0.1720E+01E
 Epicentro: LOS SANTOS - SANTANDER                                             3
 ACTION:UPD 15-03-16 20:44 OP:nd   STATUS:               ID:20140718022106 L   I
 OLDACT:REG 14-07-18 12:45 OP:fm   STATUS:               ID:20140718021816     3
 2014-07-18-0218-16M.COL___269                                                 6
 STAT SP IPHASW D HRMM SECON CODA AMPLIT PERI AZIMU VELO AIN AR TRES W  DIS CAZ7
 BAR2 SZ IP     D  221 25.87                             170    0.0310 23.1 186 
 BAR2 SZ ES   1    221 40.95                             170   -0.03 7 23.1 186 
 BAR2 SZ I         221 44.03        26.5 0.40            168           23.1 186 
 BRR  HZ IP     C  221 27.75                             153    0.4510 69.7 299 
 BRR  HN ES        221 44.18                             153    0.6010 69.7 299 
 BRR  HZ I         221 49.54        17.6 0.18            153           69.7 299 
 PAM  SZ EP        221 28.60                             150    0.0810 78.5  40 
 PAM  SN ES   1    221 45.38                             150   -0.37 7 78.5  40 
 PAM  SZ I         221 48.33        14.6 0.66            158           78.5  40 
 PTB  HZ EP        221 32.59                             132   -0.51 9  146 259 
 PTB  HE ES        221 53.31                             132   -0.59 9  146 259 
 PTB  HZ I         221 59.66        14.8 0.24            133            146 259 
 OCA  HZ EP        221 34.57                             129   -0.02 9  160 354 
 OCA  HE ES        221 56.35                             129   -0.20 9  160 354 
 OCA  HZ I         221 59.96        21.5 0.22            135            160 354 
 SPBC HZ IP     C  221 34.84                             129    0.15 9  162 219 
 SPBC HE ES        221 56.91                             129    0.18 9  162 219 
 SPBC HZ I         222  3.84        23.6 0.24            131            162 219 
 ZAR  HZ EP        221 38.51                             122   -0.09 9  202 292 
 ZAR  HN ES        222  3.79                             122    0.10 9  202 292 
 NOR  HZ EP        221 41.98                             118    0.07 8  233 234 
 NOR  HN ES        222 10.05                             118    0.47 8  233 234 
 NOR  HZ I         222 13.53        11.9 0.20            121            233 234 
 SML  HZ EP        221 42.96                             117    0.08 8  243 336 
 SML  HN ES        222 11.02                             117   -0.29 8  243 336 
 SML  HZ I         222 13.78        18.0 0.10            121            243 336 
 CHI  HN ES   1    222 13.08                             117   -0.19 6  248 195 
 CHI  HZ I         222 21.63         6.0 0.10            120            248 195 
 ROSC BZ EP   4    221 45.42                             116    1.06 0  252 211 
 ROSC BN ES        222 13.27                             116   -0.67 8  252 211 
 ROSC BZ I         222 21.65        11.7 0.40            119            252 211 
 HEL  HZ EP        221 47.18                             115    0.81 8  270 256 
 HEL  HN ES        222 16.79                             115   -0.73 8  270 256 
 HEL  HZ I         222 26.44         9.7 0.30            117            270 256 
 GUY2CHZ EP        221 50.40                             112    0.60 7  300 235 
 GUY2CHE ES        222 23.64                             112    0.01 7  300 235 
 GUY2CHZ I         222 32.69        10.0 0.76                           300 235 
 RREF HZ EP   1    221 51.70                             111   -0.65 5  320 229 
 RREF HN ES   1    222 28.67                             111    0.51 5  320 229 
 RREF HZ I         222 36.76         8.6 0.28            113            320 229 
 CBOC HZ EP        221 53.44                             110    0.35 7  332 252 
 CBOC HN ES        222 29.51                             110    0.03 7  332 252 
 CBOC HZ I         222 43.85         2.7 0.66            112            332 252 
 DBB  SZ EP        221 53.21                             109   -0.43 7  338 274 
 DBB  SZ ES   4    222 26.58                             109   -3.88 0  338 274 
 DBB  SZ I         222 32.38        15.6 0.46            112            338 274 
 TOL  SZ EP   1    221 54.12                             109   -0.36 5  342 224 
 TOL  SE ES   1    222 32.67                             109    0.72 5  342 224 
 TOL  SZ I         222 37.52        14.7 0.38            111            342 224 
 ANIL HN ES        222 34.76                             108    0.05 6  356 224 
 PRA  HZ EP        221 59.97                             106    0.18 6  391 209 
 PRA  HE ES        222 41.35                             106   -0.06 6  391 209 
 PRA  HZ I         222 48.24         5.1 0.30            109            391 209 
 ORTC HZ EP        221 59.98                             106   -0.19 6  394 216 
 ORTC HN ES        222 41.54                             106   -0.55 6  394 216 
 ORTC HZ I         222 48.85         4.3 0.38            109            394 216 
 SJC  HZ EP   4    221 59.82                             105   -2.01 0  408 327 
 SJC  HN ES   4    222 41.04                             105   -4.00 0  408 327 
 SJC  HZ I         222 44.59         2.4 0.38            108            408 327 
                                                                                
