 2017  118 0242 32.4 L   6.157 -73.786 92.7  RSN  7 0.5 1.3LRSN                1
 GAP= 67        1.17       3.4     3.9  9.9  0.2791E+01  0.1291E+02  0.8382E+01E
 Epicentro: LANDAZURI - SANTANDER                                              3
 ACTION:UPD 17-05-22 16:00 OP:jn   STATUS:               ID:20170118024232 L   I
 OLDACT:UP  17-01-18 13:56 OP:dani STATUS:               ID:20170118023742     3
 OLDACT:UP  17-01-18 13:56 OP:dani STATUS:               ID:20170118023742     3
 OLDACT:UP  17-01-18 13:56 OP:dani STATUS:               ID:20170118023742     3
 OLDACT:UP  17-01-18 13:55 OP:dani STATUS:               ID:20170118023742     3
 OLDACT:UP  17-01-18 13:55 OP:dani STATUS:               ID:20170118023742     3
 OLDACT:REG 17-01-18 12:39 OP:dani STATUS:               ID:20170118023742     3
 2017-01-18-0238-00M.COL___331                                                 6
 STAT SP IPHASW D HRMM SECON CODA AMPLIT PERI AZIMU VELO AIN AR TRES W  DIS CAZ7
 BAR2 EZ EP        242 49.44                             135    0.0810 82.3  54 
 BAR2 EZ ES        243  3.28                             135    0.6610 82.3  54 
 BAR2 EZ I         243  4.72         9.9 0.46            141           82.3  54 
 RUS  HZ EP        242 49.60                             135   -0.1710 83.1 111 
 RUS  HN ES        243  2.96                             135   -0.4010 83.1 111 
 RUS  HZ I         243  5.40         1.7 0.16            140           83.1 111 
 PTB  HZ EP   3    242 48.18                             134   -1.14 2 85.4 300 
 PTB  HE ES        243  1.92                             134   -0.6310 85.4 300 
 PTB  HZ I         243  4.90         6.7 0.42            137           85.4 300 
 BRR  HZ EP        242 50.72                             127   -0.4510  105   4 
 BRR  HN ES        243  5.92                             127    0.0710  105   4 
 BRR  HZ I         243 12.37         4.5 0.21            132            105   4 
 NOR  HZ EP   1    242 53.66                             120   -0.81 7  137 241 
 NOR  HE ES   1    243 12.58                             120    0.86 7  137 241 
 NOR  HZ I         243 14.89         3.8 0.17            122            137 241 
 CHI  HZ EP        242 58.20                             114   -0.28 9  169 178 
 CHI  HE ES        243 19.36                             114    0.50 9  169 178 
 CHI  HZ I         243 27.90         1.0 0.43            116            169 178 
 ZAR  HZ EP        243  0.82                             111    0.54 9  189 321 
 ZAR  HN ES        243 22.43                             111    0.37 9  189 321 
 ZAR  HZ I         243 25.84         5.5 0.37            114            189 321 
                                                                                
