 2010 1118 0718 48.5 L   7.416 -73.155131.6  RSN  4 0.2 1.7LRSN                1
 GAP=145        0.46       2.9     5.2  5.6 -0.5311E+01 -0.5773E+00 -0.5689E+00E
 Epicentro: EL PLAYON - SANTANDER                                              3
 ACTION:UP  10-12-17 16:53 OP:REBC STATUS:               ID:20101118071848 L   I
 2010-11-18-0717-52S.COL___129                                                 6
 STAT SP IPHASW D HRMM SECON CODA AMPLIT PERI AZIMU VELO SNR AR TRES W  DIS CAZ7
 GRA  SZ EP   1    719  7.82                             152    -0.2 7   65  37 
 GRA  SZ ES   1    719 23.17                             152    -0.1 7   65  37 
 GRA  SZ I         719 24.21        17.9 0.24                            65  37 
 BRR  HZ EP   1    719  7.90                             150    -0.2 7   70 241 
 BRR  HN ES   1    719 23.36                             150     0.0 7   70 241 
 BRR  HZ I         719 24.63         8.9 0.11                            70 241 
 BAR2 SZ EP   2    719 10.00                             143     0.1 5   91 182 
 BAR2 SZ ES   1    719 26.64                             143     0.1 7   91 182 
 BAR2 SZ I         719 27.66        11.2 0.29                            91 182 
 OCA  SZ EP   1    719 10.15                             143     0.3 7   93 349 
 OCA  SZ ES   1    719 26.55                             143     0.1 7   93 349 
 OCA  SZ I         719 28.98         5.5 0.23                            93 349 
                                                                                
