 2017  418 0228 41.2 L   6.725 -73.122146.8  RSN  5 0.4 1.1LRSN                1
 GAP=234        0.75       7.4     5.5  6.4  0.2330E+02  0.6774E+01  0.9870E+01E
 Epicentro: JORDAN - SANTANDER                                                 3
 ACTION:UPD 17-05-30 21:13 OP:jn   STATUS:               ID:20170418022841 L   I
 OLDACT:REG 17-04-18 12:40 OP:cog  STATUS:               ID:20170418022711     3
 2017-04-18-0228-00M.COL___368                                                 6
 STAT SP IPHASW D HRMM SECON CODA AMPLIT PERI AZIMU VELO AIN AR TRES W  DIS CAZ7
 BAR2 EZ EP        229  0.80                             174   -0.0710 16.1 205 
 BAR2 EZ ES        229 15.78                             174   -0.4010 16.1 205 
 BAR2 EZ I         229 22.57         2.0 0.43            170           16.1 205 
 BRR  HZ EP        229  3.03                             150    0.1510 77.7 303 
 BRR  HN ES        229 19.95                             150    0.1910 77.7 303 
 BRR  HZ I         229 20.35         3.7 0.72            156           77.7 303 
 RUS  HZ EP        229  4.79                             147    0.2810 92.1 177 
 RUS  HN ES   3    229 24.09                             147    1.44 2 92.1 177 
 RUS  HZ I         229 26.36         1.5 0.36            147           92.1 177 
 PTB  HZ EP        229  8.00                             132   -0.41 9  149 262 
 PTB  HN ES        229 29.45                             132   -0.14 9  149 262 
 PTB  HZ I         229 30.91         1.3 0.14            136            149 262 
 ZAR  HE ES        229 40.50                             121    0.34 8  210 294 
                                                                                
