 2013  818 0408  9.0 L   6.805 -73.177143.5  RSN  8 0.6 1.9LRSN                1
 GAP=132        1.50       6.1     6.3  9.3  0.4204E+01  0.7183E+01 -0.1599E+02E
 Epicentro: LOS SANTOS - SANTANDER                                             3
 ACTION:UPD 14-01-14 09:04 OP:ep   STATUS:               ID:20130818040809 L   I
 OLDACT:UP  13-08-19 05:25 OP:CF   STATUS:               ID:20130818040809 L   3
 OLDACT:DUP 13-08-18 12:44 OP:stll STATUS:               ID:20130818035851d    3
 2013-08-18-0358-50M.COL___201                                                 6
 STAT SP IPHASW D HRMM SECON CODA AMPLIT PERI AZIMU VELO AIN AR TRES W  DIS CAZ7
 BAR2 SZ EP        4 8 28.70                             170    0.3410 23.6 182 
 BAR2 SZ ES        4 8 42.44                             170   -1.0210 23.6 182 
 BAR2 SZ I         4 8 45.03        19.0 0.22            170           23.6 182 
 BRR  HZ EP        4 8 30.41                             153    0.6910 67.9 299 
 BRR  HN ES        4 8 47.15                             153    1.2710 67.9 299 
 BRR  HZ I         4 8 48.12         8.3 0.28            149           67.9 299 
 PAM  SZ EP        4 8 31.17                             150    0.0910 79.2  42 
 PAM  SZ I         4 8 31.74        18.0 0.20            152           79.2  42 
 PAM  SN ES        4 8 48.20                             150   -0.1010 79.2  42 
 RUS  HZ EP        4 8 32.52                             143   -0.0710  101 174 
 RUS  HN ES        4 8 51.02                             143    0.0310  101 174 
 RUS  HZ I         4 8 52.38         9.4 0.34            146            101 174 
 PTB  HZ EP   1    4 8 34.97                             132   -0.52 7  145 258 
 PTB  HN ES   1    4 8 55.30                             132   -0.85 7  145 258 
 PTB  HZ I         4 9  0.83         7.1 0.32            131            145 258 
 CAPV BZ EP        4 8 36.55                             131    0.18 9  151  39 
 ZAR  HZ EP        4 8 41.28                             122    0.33 9  201 292 
 ZAR  HN ES        4 9  5.82                             122   -0.05 9  201 292 
 ZAR  HN I         4 9 14.60        13.8 0.40            121            201 292 
 SML  HZ EP        4 8 44.89                             117   -0.40 8  242 336 
 SML  HN ES        4 9 12.57                             117   -1.02 8  242 336 
 SML  HZ I         4 9 21.03         6.2 0.10            117            242 336 
                                                                                
