 2013 1218 0153 10.0 L   6.823 -73.133143.1  RSN  5 0.4 1.4LRSN                1
 GAP=137        0.89       4.6     4.8  8.7 -0.7563E+01  0.1275E+02  0.4460E+00E
 Epicentro: LOS SANTOS - SANTANDER                                             3
 ACTION:UPD 14-01-13 10:18 OP:ep   STATUS:               ID:20131218015310 L   I
 OLDACT:REG 13-12-18 06:44 OP:jn   STATUS:               ID:20131218015000     3
 2013-12-18-0150-00M.COL___285                                                 6
 STAT SP IPHASW D HRMM SECON CODA AMPLIT PERI AZIMU VELO AIN AR TRES W  DIS CAZ7
 PAM  SZ EP        153 32.29                             151    0.5310 74.5  40 
 PAM  SN ES        153 48.44                             151   -0.3010 74.5  40 
 PAM  SZ I         153 51.81         4.8 0.20            155           74.5  40 
 RUS  HZ EP        153 33.55                             142   -0.1210  103 177 
 RUS  HN ES        153 52.36                             142    0.2310  103 177 
 RUS  HZ I         153 53.95         1.9 0.38            147            103 177 
 PTB  HZ EP        153 36.56                             131   -0.36 9  150 258 
 PTB  HN ES        153 57.60                             131   -0.33 9  150 258 
 PTB  HZ I         153 58.81         3.2 0.18            132            150 258 
 SPBC HZ EP        153 38.56                             128   -0.01 9  166 219 
 SPBC HN ES        154  0.87                             128    0.02 9  166 219 
 SPBC HZ I         154  6.91         5.2 0.22            131            166 219 
 ZAR  HE ES   2    154  8.89                             122    1.38 4  204 291 
 ZAR  HZ I         154 14.69         3.7 0.12            123            204 291 
                                                                                
