 2015  918 0651  6.4 L   6.794 -73.143139.8  RSN 19 0.4 2.2LRSN                1
 GAP=137        1.00       2.2     3.6  4.6 -0.1215E+01  0.4592E+01  0.6221E+00E
 Epicentro: LOS SANTOS - SANTANDER                                             3
 ACTION:UPD 15-10-28 16:27 OP:cam  STATUS:               ID:20150918065106 L   I
 OLDACT:UP  15-09-18 19:53 OP:mh   STATUS:               ID:20150918064748     3
 OLDACT:REG 15-09-18 12:38 OP:mh   STATUS:               ID:20150918064748     3
 2015-09-18-0647-48M.COL___352                                                 6
 STAT SP IPHASW D HRMM SECON CODA AMPLIT PERI AZIMU VELO AIN AR TRES W  DIS CAZ7
 BAR2 EZ EP        651 25.41                             170    0.1010 22.7 191 
 BAR2 EZ ES        651 40.15                             170    0.1010 22.7 191 
 BAR2 EZ I         651 41.24        44.0 0.18            169           22.7 191 
 BRR  HZ EP        651 27.38                             151    0.4310 71.7 299 
 BRR  HN ES        651 43.47                             151    0.5010 71.7 299 
 BRR  HZ I         651 48.35        26.2 0.14            149           71.7 299 
 PAM  EZ EP        651 28.29                             150    0.2710 77.8  39 
 PAM  EN ES        651 44.98                             150    0.1110 77.8  39 
 PAM  EZ I         651 47.40        20.1 0.58            153           77.8  39 
 RUS  HZ EP        651 29.38                             143   -0.1510 99.9 176 
 RUS  HN ES        651 47.47                             143   -0.0910 99.9 176 
 RUS  HZ I         651 48.87        16.8 0.50            144           99.9 176 
 PTB  HZ EP        651 32.27                             131   -0.64 9  148 259 
 PTB  HN ES        651 52.92                             131   -0.66 9  148 259 
 PTB  HZ I         651 56.05        19.0 0.24            130            148 259 
 OCA  HZ EP        651 33.64                             128   -0.69 9  161 353 
 OCA  HN ES        651 55.72                             128   -0.39 9  161 353 
 OCA  HZ I         651 58.65        58.8 0.48            129            161 353 
 SPBC HZ EP        651 34.58                             128    0.16 9  163 219 
 SPBC HN ES        651 56.17                             128   -0.10 9  163 219 
 SPBC HZ I         652  0.03        17.2 0.18            128            163 219 
 ZAR  HZ EP        651 38.42                             121   -0.10 9  205 292 
 ZAR  HN ES        652  3.90                             121    0.33 9  205 292 
 ZAR  HZ I         652 10.05        27.3 0.34            121            205 292 
 NOR  HZ EP        651 42.05                             117    0.27 8  234 235 
 NOR  HE ES        652  9.33                             117   -0.04 8  234 235 
 NOR  HZ I         652 11.64         9.6 0.42            118            234 235 
 SML  HZ EP   1    651 42.01                             116   -0.78 6  244 335 
 SML  HN ES        652 10.82                             116   -0.34 8  244 335 
 SML  HZ I         652 13.49        29.4 0.10            117            244 335 
 CHI  HZ EP        651 43.23                             116   -0.49 8  248 195 
 CHI  HN ES        652 12.34                             116   -0.48 8  248 195 
 CHI  HZ I         652 15.87         5.0 0.30            117            248 195 
 ROSC BZ EP        651 45.40                             115    1.24 8  252 211 
 ROSC BN ES   4    652 15.53                             115    1.93 0  252 211 
 ROSC BZ I         652 21.31        12.8 0.50            116            252 211 
 HEL  HZ EP        651 46.97                             113    0.64 8  272 256 
 HEL  HN ES        652 17.30                             113   -0.17 8  272 256 
 HEL  HZ I         652 23.71         5.8 0.28            114            272 256 
 URE  HZ EP   4    651 45.69                             112   -1.56 0  284 292 
 URE  HN ES   4    652 17.61                             112   -1.50 0  284 292 
 URE  HZ I         652 18.97        12.3 0.12            113            284 292 
 GUY2CHZ EP   4    651 51.21                             111    1.48 0  301 235 
 GUY2CHE ES   4    652 26.92                             111    3.41 0  301 235 
 GUY2CHZ I         652 31.29         5.6 0.50                           301 235 
 ARGC HZ EP        651 56.51                             107    0.58 6  360 340 
 ARGC HN ES        652 35.06                             107    0.51 6  360 340 
 ARGC HZ I         652 45.10         3.8 0.42            108            360 340 
 PRA  HZ EP        651 59.54                             105   -0.13 6  392 210 
 PRA  HN ES        652 41.23                             105    0.01 6  392 210 
 PRA  HZ I         652 46.96         9.2 0.32            106            392 210 
 ORTC HZ EP        651 59.77                             105   -0.31 6  395 216 
 ORTC HN ES        652 42.41                             105    0.46 6  395 216 
 ORTC HZ I         652 47.98         4.3 0.36            106            395 216 
 SJC  HZ EP   4    651 59.56                             105   -2.30 0  410 327 
 SJC  HN ES   4    652 41.19                             105   -3.93 0  410 327 
 SJC  HZ I         652 45.61         5.8 0.62            106            410 327 
                                                                                
