 2013 1018 0632 50.8 L   6.772 -73.159146.2  RSN  6 0.4 1.5LRSN                1
 GAP=234        0.95       5.4     5.7  6.9  0.1046E+02  0.6172E+01  0.2915E+01E
 Epicentro: LOS SANTOS - SANTANDER                                             3
 ACTION:UPD 13-11-25 09:22 OP:ep   STATUS:               ID:20131018063250 L   I
 OLDACT:REG 13-10-18 08:33 OP:jn   STATUS:               ID:20131018062842     3
 2013-10-18-0628-42M.COL___220                                                 6
 STAT SP IPHASW D HRMM SECON CODA AMPLIT PERI AZIMU VELO AIN AR TRES W  DIS CAZ7
 BAR2 SZ EP        633 10.06                             172   -0.3910 20.1 187 
 BAR2 SZ ES        633 25.26                             172   -0.5010 20.1 187 
 BAR2 SZ I         633 27.03         9.6 0.14            167           20.1 187 
 BRR  HZ EP        633 12.25                             152    0.2110 71.5 301 
 BRR  HE ES        633 29.16                             152    0.5710 71.5 301 
 BRR  HZ I         633 31.72         3.8 0.20            149           71.5 301 
 RUS  HZ EP        633 14.27                             145   -0.1410 97.6 175 
 RUS  HN ES        633 33.24                             145    0.4310 97.6 175 
 RUS  HZ I         633 34.28         3.2 0.32            145           97.6 175 
 PTB  HZ EP        633 17.58                             132   -0.07 9  146 260 
 PTB  HN ES        633 38.01                             132   -0.56 9  146 260 
 PTB  HZ I         633 40.00         3.0 0.42            130            146 260 
 SPBC HZ EP        633 19.33                             130    0.28 9  160 219 
 SPBC HN ES        633 41.19                             130    0.13 9  160 219 
 SPBC HZ I         633 48.45         4.3 0.20            128            160 219 
 ZAR  HN ES   1    633 48.67                             122    0.07 6  204 293 
 ZAR  HZ I         633 56.86         3.1 0.46            122            204 293 
                                                                                
