 2014  718 0732 42.8 L   6.826 -73.170141.2  RSN 19 0.5 2.2LRSN                1
 GAP=132        1.01       2.3     3.9  5.3 -0.1260E+01  0.7923E+01  0.5413E+00E
 Epicentro: LOS SANTOS - SANTANDER                                             3
 ACTION:UPD 15-03-16 20:44 OP:nd   STATUS:               ID:20140718073242 L   I
 OLDACT:REG 14-07-18 13:07 OP:fm   STATUS:               ID:20140718072818     3
 2014-07-18-0728-18M.COL___260                                                 6
 STAT SP IPHASW D HRMM SECON CODA AMPLIT PERI AZIMU VELO AIN AR TRES W  DIS CAZ7
 BAR2 SZ EP        733  1.87                             169   -0.0910 25.8 183 
 BAR2 SZ ES        733 16.97                             169    0.0810 25.8 183 
 BAR2 SZ I         733 19.55        52.2 0.28            168           25.8 183 
 PAM  SZ EP        733  4.78                             150    0.2510 77.0  42 
 PAM  SE ES        733 21.80                             150    0.3410 77.0  42 
 PAM  SZ I         733 24.82        22.8 0.36            155           77.0  42 
 RUS  HZ EP   1    733  6.19                             142   -0.17 7  104 175 
 RUS  HE ES        733 25.05                             142    0.3410  104 175 
 RUS  HZ I         733 25.82        15.2 0.30            144            104 175 
 PTB  HZ EP   1    733  8.47                             131   -0.77 7  146 258 
 PTB  HN ES        733 29.74                             131   -0.10 9  146 258 
 PTB  HZ I         733 32.09        10.6 0.14            130            146 258 
 OCA  HZ EP        733 10.01                             129   -0.48 9  157 354 
 OCA  HN ES        733 32.22                             129    0.15 9  157 354 
 OCA  HZ I         733 40.21        12.4 0.22            131            157 354 
 SPBC HZ EP        733 10.74                             128   -0.29 9  164 218 
 SPBC HN ES        733 32.55                             128   -0.48 9  164 218 
 SPBC HZ I         733 38.98        19.7 0.20            128            164 218 
 ZAR  HZ EP        733 14.67                             122    0.06 9  201 292 
 ZAR  HN ES        733 39.60                             122    0.20 9  201 292 
 ZAR  HZ I         733 45.16        17.1 0.80            122            201 292 
 NOR  HZ EP        733 18.30                             117    0.06 8  234 234 
 NOR  HN ES        733 45.58                             117   -0.28 8  234 234 
 NOR  HZ I         733 52.62         7.6 0.18            118            234 234 
 SML  HZ EP   1    733 18.57                             117   -0.23 6  240 336 
 SML  HN ES        733 46.01                             117   -0.84 8  240 336 
 SML  HZ I         733 48.82        20.3 0.10            118            240 336 
 CHI  HZ EP   1    733 20.49                             116   -0.01 6  251 194 
 CHI  HN ES        733 49.32                             116   -0.56 8  251 194 
 CHI  HZ I         733 55.55         7.7 0.26            118            251 194 
 ROSC BZ EP   1    733 21.88                             116    1.06 6  254 210 
 ROSC BN ES   4    733 53.08                             116    2.63 0  254 210 
 ROSC BZ I         733 56.49        17.3 0.40            117            254 210 
 HEL  HZ EP   4    733 24.16                             114    1.56 0  270 255 
 HEL  HN ES   4    733 57.18                             114    3.56 0  270 255 
 HEL  HZ I         734  2.06         5.5 0.36            115            270 255 
 GUY2CHZ EP        733 27.01                             111    0.84 7  301 234 
 GUY2CHE ES   4    734  3.43                             111    3.46 0  301 234 
 GUY2CHZ I         734 12.00         6.0 0.44                           301 234 
 VIL  SZ EP   1    733 25.41                             111   -0.88 5  306 191 
 VIL  SN ES        733 59.82                             111   -0.38 7  306 191 
 VIL  SZ I         734  2.60         9.4 0.36            113            306 191 
 RREF HZ EP   1    733 30.07                             110    1.32 5  322 229 
 RREF HN ES   4    734  6.74                             110    2.16 0  322 229 
 RREF HZ I         734  8.93         6.5 0.28            111            322 229 
 CBOC HZ EP        733 30.07                             109    0.71 7  332 251 
 CBOC HN ES        734  6.14                             109    0.48 7  332 251 
 CBOC HZ I         734 16.75         1.7 0.46            110            332 251 
 TOL  SZ EP        733 31.86                             108    0.94 7  344 224 
 TOL  SN ES   4    734  6.58                             108   -1.85 0  344 224 
 TOL  SZ I         734 16.33        13.8 0.46            110            344 224 
 ARGC HZ EP   4    733 30.57                             108   -1.33 0  356 341 
 ARGC HN ES        734 10.28                             108    0.11 6  356 341 
 ARGC HZ I         734 19.59         3.1 0.34            109            356 341 
 PRA  HZ EP   1    733 35.59                             106   -0.74 4  393 209 
 PRA  HN ES        734 17.86                             106   -0.20 6  393 209 
 PRA  HZ I         734 24.09         7.4 0.36            107            393 209 
 SJC  HZ EP   4    733 35.85                             105   -1.94 0  405 327 
                                                                                
