 2017  118 0534 48.5 L   6.815 -73.159143.0  RSN  5 0.2 1.0LRSN                1
 GAP=134        0.62       3.3     3.2  4.6 -0.1079E+01  0.2197E+01  0.6110E+00E
 Epicentro: LOS SANTOS - SANTANDER                                             3
 ACTION:UPD 17-05-22 16:00 OP:jn   STATUS:               ID:20170118053448 L   I
 OLDACT:REG 17-01-18 12:49 OP:dani STATUS:               ID:20170118052744     3
 2017-01-18-0528-00M.COL___331                                                 6
 STAT SP IPHASW D HRMM SECON CODA AMPLIT PERI AZIMU VELO AIN AR TRES W  DIS CAZ7
 BAR2 EZ ES        535 23.08                             170    0.2110 24.8 186 
 BRR  HZ EP        535  9.40                             153    0.2010 69.1 298 
 BRR  HN ES        535 25.54                             153    0.1710 69.1 298 
 BRR  HZ I         535 27.01         2.0 0.17            153           69.1 298 
 PAM  EZ EP        535 10.51                             150    0.1410 77.0  41 
 PAM  EN ES        535 27.10                             150   -0.3510 77.0  41 
 PAM  EZ I         535 29.19         1.9 0.36            153           77.0  41 
 RUS  HZ EP        535 12.27                             143    0.1910  102 175 
 RUS  HN ES        535 30.33                             143   -0.1710  102 175 
 RUS  HZ I         535 32.62         1.3 0.29            144            102 175 
 PTB  HZ EP        535 14.78                             132   -0.33 9  147 258 
 PTB  HE ES        535 35.76                             132   -0.13 9  147 258 
 PTB  HZ I         535 39.02         1.1 0.23            132            147 258 
                                                                                
