 2017  118 0933 11.2 L   6.749 -73.191147.7  RSN  4 0.3 0.9LRSN                1
 GAP=239        0.77       7.9     5.8  7.3  0.3016E+02  0.5228E+01 -0.8210E+01E
 Epicentro: VILLANUEVA - SANTANDER                                             3
 ACTION:UPD 17-05-22 16:00 OP:jn   STATUS:               ID:20170118093311 L   I
 OLDACT:REG 17-01-18 13:02 OP:dani STATUS:               ID:20170118092744     3
 2017-01-18-0928-00M.COL___325                                                 6
 STAT SP IPHASW D HRMM SECON CODA AMPLIT PERI AZIMU VELO AIN AR TRES W  DIS CAZ7
 BAR2 EZ EP        933 30.66                             173   -0.3410 17.4 177 
 BAR2 EZ ES        933 46.35                             173   -0.0710 17.4 177 
 BAR2 EZ I         933 47.96         1.9 0.27            169           17.4 177 
 RUS  HZ EP        933 35.10                             146    0.2710 95.4 173 
 RUS  HN ES        933 53.46                             146    0.2410 95.4 173 
 PTB  HZ EP        933 37.65                             134   -0.19 9  142 261 
 PTB  HN ES        933 58.25                             134   -0.33 9  142 261 
 PTB  HZ I         934  3.46         0.8 0.30            133            142 261 
 ZAR  HN ES        934  9.27                             123    0.49 9  202 294 
                                                                                
