 2017  218 0535 16.3 L   6.741 -73.186128.6  RSN  8 0.2 1.6LRSN                1
 GAP=228        0.58       3.0     3.4  4.1  0.5065E+01  0.6573E+01  0.3892E+01E
 Epicentro: VILLANUEVA - SANTANDER                                             3
 ACTION:UPD 17-05-24 15:37 OP:jn   STATUS:               ID:20170218053516 L   I
 OLDACT:REG 17-02-18 13:37 OP:cara STATUS:               ID:20170218052744     3
 2017-02-18-0528-00M.COL___351                                                 6
 STAT SP IPHASW D HRMM SECON CODA AMPLIT PERI AZIMU VELO AIN AR TRES W  DIS CAZ7
 BAR2 HZ ES        535 47.02                             172   -0.3010 16.4 179 
 BAR2 HZ I         535 49.83        17.8 0.20            169           16.4 179 
 BRR  HZ EP        535 35.86                             149    0.2710 70.9 305 
 BRR  HE ES   4    535 51.96                             149    1.31 0 70.9 305 
 BRR  HZ I         535 56.54        14.5 0.12            149           70.9 305 
 RUS  HZ EP        535 37.83                             142   -0.0910 94.5 173 
 RUS  HN ES        535 55.25                             142    0.4510 94.5 173 
 RUS  HZ I         535 57.58         5.7 0.26            144           94.5 173 
 PTB  HZ EP        535 41.13                             129   -0.26 9  142 261 
 PTB  HN ES        536  0.80                             129   -0.17 9  142 261 
 PTB  HZ I         536  4.03         5.2 0.26            129            142 261 
 ZAR  HE ES        536 12.02                             118    0.14 9  203 294 
 ZAR  HZ I         536 18.35         6.2 0.24            121            203 294 
 CHI  HZ EP        535 52.26                             114    0.00 8  241 195 
 CHI  HN ES        536 20.09                             114   -0.23 8  241 195 
 CHI  HZ I         536 25.65         1.9 0.22            117            241 195 
 CBOC HZ EP        536  1.77                             107   -0.06 7  327 253 
 CBOC HE ES        536 37.61                             107    0.26 7  327 253 
 CBOC HZ I         536 41.12         0.9 0.20            109            327 253 
 PRA  HZ EP        536  8.23                             104   -0.10 6  384 209 
 PRA  HE ES        536 49.01                             104    0.08 6  384 209 
 PRA  HZ I         536 56.93         2.0 0.30            106            384 209 
                                                                                
