 2011  618 0612 34.1 L   6.773 -73.045146.0  RSN  9 0.3 1.9LRSN                1
 GAP=168        0.60       3.1     6.5  5.9 -0.8882E+01  0.2552E+01  0.3081E+01E
 Epicentro: LOS SANTOS - SANTANDER                                             3
 ACTION:UP  11-07-14 19:06 OP:ep   STATUS:               ID:20110618061234 L   I
 2011-06-18-0609-30S.COL___135                                                 6
 STAT SP IPHASW D HRMM SECON CODA AMPLIT PERI AZIMU VELO SNR AR TRES W  DIS CAZ7
 BAR2 SZ IP        612 53.75                             170     0.010   25 217 
 BAR2 SZ ES   2    613  9.50                             170     0.3 5   25 217 
 BRR  HZ EP        612 55.62                             149    -0.310   82 297 
 BRR  HZ I         612 55.89        43.3 0.17                            82 297 
 BRR  HN ES   2    613 12.76                             149    -0.2 5   82 297 
 RUS  HZ EP   1    612 57.53                             145    -0.1 7   98 182 
 RUS  HN ES   2    613 15.85                             145    -0.2 5   98 182 
 RUS  HZ I         613 17.60         8.6 0.25                            98 182 
 BRI  SZ EP   1    612 58.23                             141     0.3 7  108  15 
 BRI  SZ ES   2    613 16.79                             141     0.2 5  108  15 
 BRI  SZ I         613 21.77         6.7 0.42                           108  15 
 GRA  SZ IP        612 59.54                             137     0.210  126  12 
 GRA  SZ ES   2    613 18.65                             137    -0.4 5  126  12 
 GRA  SZ I         613 21.44         8.8 0.42                           126  12 
 OCA  SZ EP   2    613  2.34                             129    -0.5 5  165 349 
 OCA  SZ ES   2    613 25.76                             129     0.5 5  165 349 
 OCA  SZ I         613 30.69        12.5 0.45                           165 349 
 CHI  HZ EP   1    613 11.63                             117    -0.2 6  249 198 
 CHI  HN ES   2    613 41.72                             117     0.4 4  249 198 
 CHI  HZ I         613 44.71         4.9 0.36                           249 198 
 RREF HZ EP   1    613 21.59                             110     0.6 5  328 231 
 RREF HN ES   2    613 58.30                             110     0.7 3  328 231 
 RREF HZ I         614  5.24         6.4 0.35                           328 231 
 PRA  HZ EP   2    613 27.84                             106    -0.1 3  395 211 
 PRA  HN ES   2    614  9.61                             106    -0.4 3  395 211 
                                                                                
