 2012  418 0045 42.3 L   6.733 -73.087138.2  RSN  5 0.2 1.3LRSN                1
 GAP=147        0.46       2.9     3.3  5.5  0.3943E+00  0.9033E+00  0.3903E+01E
 Epicentro: JORDAN - SANTANDER                                                 3
 ACTION:UPD 12-07-05 11:54 OP:tino STATUS:               ID:20120418004542 L   I
 2012-04-18-0040-00M.COL___187                                                 6
 STAT SP IPHASW D HRMM SECON CODA AMPLIT PERI AZIMU VELO AIN AR TRES W  DIS CAZ7
 BAR2 SZ EP   1    046  0.68                             172    -0.2 7   19 214 
 BAR2 SZ I         046 14.66         8.8 0.53                            19 214 
 PAM  SZ EP   1    046  3.91                             149     0.1 7   80  32 
 PAM  SZ I         046  4.34         4.4 0.17                            80  32 
 PAM  SN ES        046 20.62                             149     0.010   80  32 
 BRR  HZ EP   1    046  2.98                             148    -0.2 7   81 301 
 BRR  HZ I         046  5.00         6.7 0.15                            81 301 
 BRR  HN ES        046 19.59                             148     0.110   81 301 
 RUS  HZ EP   1    046  5.01                             144     0.3 7   93 180 
 RUS  HN ES   1    046 22.15                             144    -0.1 7   93 180 
 RUS  HZ I         046 25.40         1.4 0.23                            93 180 
 ZAR  HN ES   2    046 40.82                             119     0.0 4  213 293 
                                                                                
