 2017  718 0738 31.1 L   6.845 -73.137134.0  RSN  6 0.3 1.4LRSN                1
 GAP=242        0.60       4.2     4.5  6.8  0.7828E+01  0.1288E+02 -0.2354E+01E
 Epicentro: LOS SANTOS - SANTANDER                                             3
 ACTION:UPD 17-08-30 15:34 OP:rebc STATUS:               ID:20170718073831 L   I
 OLDACT:UP  17-07-18 16:42 OP:dnl  STATUS:               ID:20170718072741d    3
 OLDACT:DUP 17-07-18 16:40 OP:dnl  STATUS:               ID:20170718072741d    3
 OLDACT:REG 17-07-18 13:52 OP:dnl  STATUS:               ID:20170718072739     3
 2017-07-18-0728-00M.COL___368                                                 6
 STAT SP IPHASW D HRMM SECON CODA AMPLIT PERI AZIMU VELO AIN AR TRES W  DIS CAZ7
 BAR2 EZ EP   2    738 49.62                             167    0.18 5 28.4 190 
 BAR2 EZ ES        739  3.41                             167   -0.3310 28.4 190 
 BAR2 EZ I         739  7.51         4.2 0.44            173           28.4 190 
 BRR  HZ EP   2    738 51.17                             151    0.26 5 69.9 295 
 BRR  HN ES   4    739  8.49                             151    2.13 0 69.9 295 
 BRR  HZ I         739 12.22         4.8 0.50            152           69.9 295 
 RUS  HZ EP   2    738 53.85                             139   -0.24 5  105 177 
 RUS  HN ES        739 12.38                             139    0.3610  105 177 
 RUS  HZ I         739 14.90         2.7 0.36            148            105 177 
 PTB  HZ EP   2    738 56.74                             128   -0.59 5  150 257 
 PTB  HN ES        739 17.54                             128   -0.24 9  150 257 
 PTB  HZ I         739 20.15         2.6 0.40            133            150 257 
 SPBC HZ EP   2    738 58.99                             125   -0.18 5  168 218 
 SPBC HN ES        739 21.09                             125    0.03 9  168 218 
 SPBC HZ I         739 22.62         3.2 0.20            132            168 218 
 ZAR  HZ EP   2    739  2.88                             119    0.17 4  203 291 
 ZAR  HN ES        739 27.72                             119    0.35 9  203 291 
 ZAR  HZ I         739 33.38         5.2 0.30            124            203 291 
                                                                                
