 2017  218 0128 48.6 L   6.760 -73.155137.1  RSN  6 0.1 1.4LRSN                1
 GAP=138        0.42       2.0     2.1  2.9 -0.1416E+01  0.1928E+01  0.8454E+00E
 Epicentro: LOS SANTOS - SANTANDER                                             3
 ACTION:UPD 17-05-24 15:37 OP:jn   STATUS:               ID:20170218012848 L   I
 OLDACT:UP  17-02-18 14:41 OP:cara STATUS:               ID:20170218012741     3
 OLDACT:REG 17-02-18 13:12 OP:cara STATUS:               ID:20170218012741     3
 2017-02-18-0128-00M.COL___352                                                 6
 STAT SP IPHASW D HRMM SECON CODA AMPLIT PERI AZIMU VELO AIN AR TRES W  DIS CAZ7
 BAR2 EZ EP        129  7.25                             172    0.1410 18.8 189 
 BAR2 EZ ES        129 21.40                             172   -0.1410 18.8 189 
 BAR2 EZ I         129 24.72         3.0 0.12            169           18.8 189 
 PAM  EZ IP        129 10.14                             148   -0.0310 81.5  38 
 PAM  EN ES        129 26.99                             148    0.0010 81.5  38 
 PAM  EZ I         129 29.33         5.1 0.40            152           81.5  38 
 RUS  HZ EP        129 11.51                             143    0.3110 96.2 175 
 RUS  HZ ES        129 28.75                             143   -0.0610 96.2 175 
 RUS  HZ I         129 31.53         3.9 0.36            143           96.2 175 
 PTB  HZ EP        129 14.63                             130   -0.09 9  146 260 
 PTB  HN ES        129 35.15                             130    0.07 9  146 260 
 PTB  HZ I         129 37.17         4.7 0.24            132            146 260 
 NOR  HZ EP        129 23.39                             117   -0.09 8  231 235 
 NOR  HE ES        129 50.73                             117    0.04 8  231 235 
 NOR  HZ I         129 53.86         2.4 0.20            119            231 235 
 CHI  HZ EP        129 25.02                             116   -0.32 8  244 195 
 CHI  HN ES        129 54.05                             116    0.06 8  244 195 
 CHI  HZ I         130  0.44         1.5 0.46            117            244 195 
                                                                                
