 2017  618 0814 45.3 L   6.791 -73.153142.0  RSN  9 0.5 2.1LRSN                1
 GAP=211        1.09       4.9     4.9  7.8  0.8536E+01 -0.1296E+01  0.7850E+01E
 Epicentro: LOS SANTOS - SANTANDER                                             3
 ACTION:UPD 17-09-14 16:52 OP:jn   STATUS:               ID:20170618081445 L   I
 OLDACT:UP  17-06-18 16:02 OP:cog  STATUS:               ID:20170618080739     3
 OLDACT:REG 17-06-18 13:23 OP:cog  STATUS:               ID:20170618080739     3
 2017-06-18-0808-00M.COL___347                                                 6
 STAT SP IPHASW D HRMM SECON CODA AMPLIT PERI AZIMU VELO AIN AR TRES W  DIS CAZ7
 BRR  HZ IP     C  815  5.68                             152   -0.3410 70.9 300 
 BRR  HN ES        815 22.65                             152    0.4610 70.9 300 
 BRR  HZ I         815 27.64        20.5 0.14            147           70.9 300 
 PTB  HZ EP   9    815 10.68                             131   -1.18 0  147 259 
 PTB  HN ES        815 31.51                             131    0.11 9  147 259 
 PTB  HZ I         815 37.27        18.1 0.14            129            147 259 
 SPBC HZ EP        815 12.96                             129   -0.42 9  162 219 
 SPBC HN ES        815 34.81                             129   -0.48 9  162 219 
 SPBC HZ I         815 37.36        29.4 0.24            127            162 219 
 YPLC HZ IP     D  815 14.35                             126   -0.43 9  176 151 
 YPLC HN ES        815 38.41                             126    0.64 9  176 151 
 ZAR  HZ EP   4    815 17.41                             122   -0.04 0  204 292 
 ZAR  HE ES        815 41.97                             122   -0.57 9  204 292 
 ZAR  HZ I         815 48.49        22.2 0.42            120            204 292 
 NOR  HZ EP        815 20.72                             118    0.05 8  233 235 
 NOR  HN ES        815 48.44                             118    0.17 8  233 235 
 NOR  HZ I         815 54.27         9.0 0.20            117            233 235 
 CHI  HZ EP        815 22.26                             117   -0.40 8  247 195 
 CHI  HN ES        815 51.72                             117   -0.08 8  247 195 
 CHI  HZ I         815 53.74         7.5 0.40            117            247 195 
 HEL  HZ EP        815 26.17                             114    0.97 8  271 256 
 HEL  HN ES   4    815 57.91                             114    1.59 0  271 256 
 HEL  HZ I         816  4.08         7.2 0.26            113            271 256 
 CBOC HZ EP        815 32.77                             109    0.84 7  332 252 
 CBOC HN ES        816  8.52                             109    0.22 7  332 252 
 CBOC HZ I         816 23.21         2.0 0.28            109            332 252 
                                                                                
