 2016  118 0541 10.9 L   6.823 -72.891  4.0  RSN  5 0.5 0.8LRSN                1
 GAP=171        1.30       3.6     5.2  9.0 -0.1104E+02  0.9602E+01 -0.1307E+01E
 Epicentro: SAN ANDRES - SANTANDER                                             3
 ACTION:UPD 16-03-09 23:26 OP:cam  STATUS:               ID:20160118054110 L   I
 OLDACT:UP  16-01-18 16:39 OP:mh   STATUS:               ID:20160118053739     3
 OLDACT:REG 16-01-18 12:49 OP:mh   STATUS:               ID:20160118053739     3
 2016-01-18-0537-39M.COL___322                                                 6
 STAT SP IPHASW D HRMM SECON CODA AMPLIT PERI AZIMU VELO AIN AR TRES W  DIS CAZ7
 BAR2 EZ EP   1    541 17.89                              47   -0.11 7 41.1 232 
 BAR2 EZ ES        541 22.65                              47   -0.8710 41.1 232 
 BAR2 EZ I         541 23.32         6.0 0.32             47           41.1 232 
 PAM  EZ EP        541 21.60                              47    0.3510 60.9  20 
 PAM  EN ES        541 28.77                              47   -0.5410 60.9  20 
 RUS  HZ EP        541 28.63                              47    0.6810  105 192 
 RUS  HN ES        541 41.00                              47   -0.2210  105 192 
 RUS  HZ I         541 43.49         1.0 0.34             47            105 192 
 PTB  HZ EP        541 38.48                              47    0.28 9  176 260 
 PTB  HN ES        542  0.02                              47    0.55 9  176 260 
 PTB  HZ I         542  2.74         0.9 0.10             47            176 260 
 SML  HN ES   4    542 18.34                              37    1.42 0  255 329 
 SML  HZ I         542 23.18         1.2 0.13             37            255 329 
                                                                                
