 2016 1018 0453 50.6 L   6.835 -73.174143.3  RSN 12 0.5 1.8LRSN                1
 GAP=131        0.99       3.6     4.7  6.7 -0.5698E+01  0.9648E+01  0.1362E+01E
 Epicentro: ZAPATOCA - SANTANDER                                               3
 ACTION:UPD 16-11-09 19:20 OP:rebc STATUS:               ID:20161018045350 L   I
 OLDACT:UP  16-10-18 17:14 OP:and  STATUS:               ID:20161018044729     3
 OLDACT:UP  16-10-18 17:12 OP:and  STATUS:               ID:20161018044729     3
 OLDACT:UP  16-10-18 17:09 OP:and  STATUS:               ID:20161018044729     3
 OLDACT:UP  16-10-18 17:08 OP:and  STATUS:               ID:20161018044729     3
 OLDACT:REG 16-10-18 12:55 OP:y    STATUS:               ID:20161018044729     3
 2016-10-18-0448-00M.COL___335                                                 6
 STAT SP IPHASW D HRMM SECON CODA AMPLIT PERI AZIMU VELO AIN AR TRES W  DIS CAZ7
 BAR2 EZ EP        454  9.90                             169   -0.1510 26.9 182 
 BAR2 EZ ES        454 24.65                             169   -0.5410 26.9 182 
 BAR2 EZ I         454 26.26        12.2 0.22            169           26.9 182 
 BRR  HZ EP        454 11.61                             154    0.3510 66.6 297 
 BRR  HE ES   2    454 28.52                             154    1.17 5 66.6 297 
 BRR  HZ I         454 31.19         7.4 0.28            150           66.6 297 
 PAM  EZ EP        454 12.79                             151    0.2510 76.5  43 
 PAM  EN ES        454 29.89                             151    0.2610 76.5  43 
 PAM  EZ I         454 31.80         8.5 0.56            155           76.5  43 
 RUS  HZ EP        454 14.40                             142   -0.0610  105 174 
 RUS  HN ES        454 33.22                             142    0.1910  105 174 
 RUS  HZ I         454 34.38         7.2 0.38            146            105 174 
 PTB  HZ EP        454 16.39                             132   -0.81 9  145 257 
 PTB  HN ES        454 37.61                             132   -0.30 9  145 257 
 PTB  HZ I         454 43.26         7.0 0.14            132            145 257 
 OCA  HE ES        454 39.79                             130   -0.19 9  156 354 
 OCA  HZ I         454 44.52        14.4 0.28            131            156 354 
 SPBC HZ EP        454 18.84                             128   -0.22 9  164 217 
 SPBC HE EP        454 19.24                             129            164 217 
 SPBC HN ES        454 41.17                             128   -0.05 9  164 217 
 SPBC HZ I         454 47.90         9.3 0.18            130            164 217 
 NOR  HZ EP   2    454 25.93                             118   -0.27 4  234 233 
 NOR  HN ES        454 54.78                             118    0.84 8  234 233 
 NOR  HZ I         454 56.32         4.8 0.18            119            234 233 
 CHI  HZ EP   2    454 28.27                             116   -0.26 4  252 194 
 CHI  HE ES   2    454 57.81                             116   -0.27 4  252 194 
 ROSC BZ EP   2    454 30.20                             116    1.38 4  255 210 
 HEL  HZ EP   2    454 31.12                             114    0.62 4  270 255 
 HEL  HN ES   3    455  2.83                             114    1.25 2  270 255 
 HEL  HZ I         455  7.91         2.7 0.26            116            270 255 
 GUY2CHZ EP   4    454 35.54                             112    1.44 0  301 234 
 GUY2CHN ES   4    455 10.39                             112    2.39 0  301 234 
 GUY2CHZ I         455 16.20         3.4 0.28                           301 234 
 SJC  HN ES   4    455 24.79                             105   -3.56 0  404 327 
                                                                                
