 2015  218 0507 32.3 L   6.778 -73.146141.5  RSN 12 0.5 1.9LRSN                1
 GAP= 72        1.14       4.2     3.7  7.1 -0.3875E+01  0.1752E+01  0.7519E+01E
 Epicentro: LOS SANTOS - SANTANDER                                             3
 ACTION:UPD 15-04-30 21:27 OP:nd   STATUS:               ID:20150218050732 L   I
 OLDACT:DUP 15-02-18 18:13 OP:mh   STATUS:               ID:20150218045738d    3
 OLDACT:UP  15-02-18 18:12 OP:mh   STATUS:               ID:20150218045737     3
 OLDACT:UP  15-02-18 18:12 OP:mh   STATUS:               ID:20150218045737     3
 OLDACT:REG 15-02-18 12:16 OP:mh   STATUS:               ID:20150218045737     3
 2015-02-18-0457-37M.COL___296                                                 6
 STAT SP IPHASW D HRMM SECON CODA AMPLIT PERI AZIMU VELO AIN AR TRES W  DIS CAZ7
 BAR2 EZ EP        5 7 51.16                             171   -0.1810 20.9 191 
 BAR2 EZ I         5 8  9.90        11.9 0.60            168           20.9 191 
 BRR  HZ EP     D  5 7 53.16                             151    0.1310 72.4 300 
 BRR  HN ES        5 8  9.69                             151    0.4710 72.4 300 
 BRR  HZ I         5 8 13.11        14.1 0.40            152           72.4 300 
 PAM  SZ EP        5 7 54.21                             149    0.0610 79.3  38 
 PAM  SN ES        5 8 11.02                             149   -0.2010 79.3  38 
 PAM  SZ I         5 8 13.13        22.1 0.60            154           79.3  38 
 RUS  HZ EP        5 7 55.42                             144   -0.0010 98.1 176 
 RUS  HN ES   1    5 8 13.98                             144    0.50 7 98.1 176 
 RUS  HZ I         5 8 15.96        10.3 0.26            144           98.1 176 
 PTB  HZ EP        5 7 58.18                             131   -0.67 9  147 260 
 PTB  HN ES        5 8 18.61                             131   -0.97 9  147 260 
 PTB  HZ I         5 8 22.77        12.1 0.14            132            147 260 
 TAM  HZ EP        5 7 59.82                             130    0.27 9  154 104 
 TAM  HN ES        5 8 20.57                             130   -0.27 9  154 104 
 TAM  HZ I         5 8 22.07         3.9 0.18            133            154 104 
 SPBC HZ EP   4    5 8  0.44                             128    0.18 0  161 220 
 SPBC HN ES        5 8 22.04                             128   -0.05 9  161 220 
 SPBC HZ I         5 8 29.51        15.2 0.40            129            161 220 
 OCA  HZ EP        5 8  0.82                             128    0.34 9  163 353 
 OCA  HN ES   4    5 8 20.71                             128   -1.78 0  163 353 
 OCA  HZ I         5 8 23.88         6.1 0.12            132            163 353 
 NOR  HZ EP        5 8  7.73                             118    0.13 8  233 235 
 NOR  HN ES        5 8 36.24                             118    1.08 8  233 235 
 NOR  HZ I         5 8 41.63         7.4 0.14            119            233 235 
 CHI  HZ EP        5 8  9.42                             116   -0.05 8  246 195 
 CHI  HN ES        5 8 38.22                             116   -0.27 8  246 195 
 CHI  HZ I         5 8 44.70         4.9 0.38            118            246 195 
 GUY2CHZ EP        5 8 16.29                             112    0.77 7  300 235 
 GUY2CHN ES   4    5 8 51.05                             112    1.79 0  300 235 
 GUY2CHZ I         5 8 59.33         5.7 0.66                           300 235 
 RREF HZ EP        5 8 17.29                             110   -0.76 7  320 230 
 RREF HN ES   4    5 8 57.57                             110    3.82 0  320 230 
 RREF HZ I         5 9  3.23         5.7 0.28            111            320 230 
 CBOC HZ EP   4    5 8 16.83                             109   -2.09 0  333 252 
 CBOC HN ES   4    5 8 53.93                             109   -1.38 0  333 252 
                                                                                
