 2014  918 0438 56.8 L   6.728 -73.534105.9  RSN 13 0.5 2.1LRSN                1
 GAP=103        1.22       2.8     3.7  6.2 -0.1763E+01  0.9334E+01 -0.3596E+00E
 Epicentro: EL CARMEN - SANTANDER                                              3
 ACTION:UPD 14-10-03 23:06 OP:nd   STATUS:               ID:20140918043856 L   I
 OLDACT:REG 14-09-18 13:30 OP:carl STATUS:               ID:20140918043819     3
 2014-09-18-0438-19M.COL___287                                                 6
 STAT SP IPHASW D HRMM SECON CODA AMPLIT PERI AZIMU VELO AIN AR TRES W  DIS CAZ7
 BAR2 SZ IP     C  439 12.57                             157    0.2410 41.6 111 
 BAR2 SZ ES        439 24.61                             157    0.1410 41.6 111 
 BRR  HZ IP     C  439 12.36                             155    0.1410 46.3 335 
 BRR  HN EP        439 12.44                             155    0.2210 46.3 335 
 BRR  HN ES        439 25.07                             155    0.8110 46.3 335 
 BRR  HZ I         439 25.74        31.0 0.12            151           46.3 335 
 PTB  HZ IP     C  439 15.58                             132   -0.9510  104 259 
 PTB  HN ES        439 31.45                             132   -0.5010  104 259 
 PTB  HZ I         439 36.82        22.4 0.26            131            104 259 
 RUS  HZ EP        439 17.22                             132   -0.0310  105 152 
 RUS  HN ES        439 33.49                             132    0.2610  105 152 
 RUS  HZ I         439 34.20        33.3 0.18            135            105 152 
 SPBC HZ IP     C  439 19.01                             124   -0.4110  133 207 
 SPBC HN ES        439 36.26                             124   -0.8210  133 207 
 OCA  HZ EP        439 23.21                             117   -0.04 9  169   8 
 OCA  HN ES        439 43.10                             117   -0.80 9  169   8 
 OCA  HZ I         439 53.00        15.0 0.34            117            169   8 
 ZAR  HZ EP        439 23.26                             117    0.18 9  169 300 
 ZAR  HN ES        439 43.71                             117    0.10 9  169 300 
 ZAR  HZ I         439 47.76        21.8 0.34            117            169 300 
 NOR  HZ EP        439 25.61                             113   -0.52 9  196 229 
 NOR  HE ES        439 49.26                             113    0.23 9  196 229 
 NOR  HZ I         439 52.17        12.5 0.14            114            196 229 
 HEL  HZ EP        439 31.32                             109    1.09 8  229 255 
 HEL  HN ES        439 56.40                             109    0.07 8  229 255 
 HEL  HZ I         440  1.22         5.0 0.18            110            229 255 
 SML  HZ EP        439 30.44                             108   -0.27 8  237 346 
 SML  HE ES        439 57.05                             108   -0.14 8  237 346 
 SML  HZ I         440  3.60        20.2 0.28            108            237 346 
 GUY2CHZ EP        439 34.88                             106    0.61 8  262 231 
 GUY2CHN ES        440  3.02                             106   -0.51 8  262 231 
 GUY2CHZ I         440 12.18         5.0 0.42                           262 231 
 GUY2CHZ E         442  0.67                                            262 231 
 CBOC HZ EP        439 38.07                             104    0.85 7  290 251 
 CBOC HN ES        440  9.07                             104    0.30 7  290 251 
 CBOC HZ I         440 13.25         3.3 0.20            104            290 251 
 TOL  SZ EP        439 40.04                             103    0.45 7  309 220 
 TOL  SN ES        440 13.05                             103    0.06 7  309 220 
 TOL  SZ I         440 20.06        12.2 0.42            104            309 220 
                                                                                
