 2010  418 0929 37.4 L   6.819 -73.018139.7  RSN 11 0.5 2.2LRSN                1
 GAP=149        0.95       4.2     7.9  6.6 -0.1171E+02 -0.7500E+01  0.8945E+01E
 Epicentro: CEPITA - SANTANDER                                                 3
 ACTION:UP  10-08-24 09:59 OP:vdl  STATUS:               ID:20100418092945 L   I
 2010-04-18-0927-41S.COL___100                                                 6
 STAT SP IPHASW D HRMM SECON CODA AMPLIT PERI AZIMU VELO AIN AR TRES W  DIS CAZ7
 BAR2 SZ EP        929 56.62                             167     0.210   31 216 
 BAR2 SZ ES   1    930 10.71                             167    -0.6 7   31 216 
 BRR  HZ IP     C  929 58.84                             147     0.210   83 293 
 BRR  HZ I         929 59.04        55.1 0.19                            83 293 
 BRR  HN ES        930 15.55                             147     0.410   83 293 
 OCA  SZ EP        930  5.17                             128    -0.1 9  161 348 
 OCA  SZ ES   1    930 26.51                             128    -0.5 7  161 348 
 OCA  SZ I         930 30.21        38.4 0.95                           161 348 
 CHI  HZ EP   1    930 15.19                             115    -0.2 6  255 198 
 CHI  HN ES   1    930 44.67                             115    -0.4 6  255 198 
 CHI  HZ I         930 48.79         5.8 1.91                           255 198 
 ROSC BZ EP   1    930 17.23                             114     1.0 6  262 213 
 ROSC BN ES   2    930 47.10                             114     0.6 4  262 213 
 ROSC BZ I         930 54.80         6.3 1.06                           262 213 
 HEL  HZ EP   1    930 18.62                             112    -0.3 6  286 256 
 HEL  HZ I         930 54.38         6.5 0.53                           286 256 
 RREF BZ EP   1    930 24.31                             109    -0.4 5  334 231 
 RREF BN ES   1    931  1.89                             109     0.3 5  334 231 
 RREF BZ I         931  8.99         7.1 0.60                           334 231 
 SDV  BZ EP   1    930 26.39                             108     0.6 5  348  49 
 SDV  BZ I         930 27.06         6.8 0.10                           348  49 
 DBB  SZ EP   1    930 25.27                             107    -1.0 5  353 274 
 TOL  SZ EP   1    930 26.74                             107     0.0 5  355 226 
 PRA  HZ EP   1    930 31.50                             105    -0.2 4  401 211 
 PRA  HN ES   1    931 13.62                             105    -0.5 4  401 211 
 PRA  HZ I         931 19.49         6.3 0.32                           401 211 
                                                                                
