 2014  818 0722 24.5 L   6.852 -73.209139.5  RSN 11 0.6 2.2LRSN                1
 GAP=128        1.26       4.7     5.5  6.7 -0.1083E+02  0.1401E+02 -0.6605E+00E
 Epicentro: ZAPATOCA - SANTANDER                                               3
 ACTION:UPD 14-09-15 21:51 OP:nd   STATUS:               ID:20140818072224 L   I
 OLDACT:REG 14-08-18 14:36 OP:stll STATUS:               ID:20140818071819     3
 2014-08-18-0718-19M.COL___257                                                 6
 STAT SP IPHASW D HRMM SECON CODA AMPLIT PERI AZIMU VELO AIN AR TRES W  DIS CAZ7
 BAR2 SZ IP     C  722 43.26                             168   -0.2410 28.8 174 
 BAR2 SZ ES        722 58.21                             168   -0.1110 28.8 174 
 BAR2 SZ I         722 59.21        31.0 0.10            170           28.8 174 
 BRR  HZ IP     C  722 45.14                             155    0.6710 62.3 297 
 BRR  HN ES        723  0.76                             155    0.7110 62.3 297 
 BRR  HZ I         723  5.25        26.4 0.46            151           62.3 297 
 PAM  SZ EP     D  722 46.14                             149    0.0610 78.0  46 
 PAM  SZ I         722 46.33        53.9 0.22            153           78.0  46 
 PAM  SN ES        723  2.86                             149   -0.0510 78.0  46 
 PTB  HZ EP        722 50.05                             132   -0.39 9  142 256 
 PTB  HN ES        723 10.34                             132   -0.34 9  142 256 
 PTB  HZ I         723 13.27        20.9 0.12            131            142 256 
 SPBC HZ EP        722 52.19                             128   -0.35 9  163 216 
 SPBC HN ES        723 14.12                             128   -0.30 9  163 216 
 SPBC HZ I         723 16.75        15.4 0.26            129            163 216 
 SML  HZ EP        722 59.86                             117   -0.03 8  236 336 
 SML  HN ES        723 27.06                             117   -0.44 8  236 336 
 SML  HZ I         723 32.76        18.9 0.10            118            236 336 
 HEL  HZ EP        723  4.92                             114    1.12 8  267 254 
 HEL  HN ES        723 34.19                             114   -0.27 8  267 254 
 HEL  HZ I         723 42.30         7.6 0.44            115            267 254 
 GUY2CHZ EP        723  7.00                             111   -0.55 7  299 233 
 GUY2CHN ES        723 40.70                             111   -0.44 7  299 233 
 CBOC HZ EP        723 12.14                             109    1.54 7  329 251 
 CBOC HN ES        723 46.43                             109   -0.13 7  329 251 
 ORTC HZ EP        723 18.87                             105    0.60 6  396 215 
 ORTC HE ES        724  0.48                             105    0.26 6  396 215 
 ORTC HZ I         724  6.26         4.2 0.42            106            396 215 
 SJC  HZ EP        723 17.40                             105   -1.44 6  401 327 
 SJC  HN ES   4    723 59.39                             105   -1.84 0  401 327 
                                                                                
