 2015  518 0254 42.3 L   6.836 -73.123144.9  RSN 13 0.4 2.0LRSN                1
 GAP= 71        0.99       3.1     3.9  5.9 -0.1853E+01  0.3037E+01 -0.6762E+00E
 Epicentro: LOS SANTOS - SANTANDER                                             3
 ACTION:UPD 15-09-10 22:04 OP:cam  STATUS:               ID:20150518025442 L   I
 OLDACT:REG 15-05-18 12:30 OP:spq  STATUS:               ID:20150518024748     3
 2015-05-18-0247-48M.COL___283                                                 6
 STAT SP IPHASW D HRMM SECON CODA AMPLIT PERI AZIMU VELO AIN AR TRES W  DIS CAZ7
 BAR2 EZ EP        255  1.77                             169   -0.1410 27.7 194 
 BAR2 EZ ES   1    255 16.91                             169   -0.30 7 27.7 194 
 BAR2 EZ I         255 17.41        18.7 0.34            170           27.7 194 
 BRR  HZ EP     C  255  3.56                             152    0.1910 71.7 295 
 BRR  HN ES        255 20.39                             152    0.5810 71.7 295 
 BRR  HZ I         255 24.68        21.2 0.14            151           71.7 295 
 PAM  SZ EP        255  4.70                             152    0.5610 72.7  40 
 PAM  SN ES   1    255 21.41                             152    0.23 7 72.7  40 
 PAM  SZ I         255 23.71        30.2 0.66            154           72.7  40 
 RUS  HZ EP   1    255  6.14                             143   -0.09 7  104 178 
 RUS  HE ES   1    255 24.36                             143   -0.55 7  104 178 
 RUS  HZ I         255 25.88         5.7 0.34            146            104 178 
 TAM  HZ EP        255 10.15                             131    0.38 9  154 107 
 OCA  HZ EP        255  9.93                             130   -0.26 9  157 352 
 OCA  HN ES        255 31.51                             130   -0.44 9  157 352 
 OCA  HZ I         255 34.94        22.1 0.46            132            157 352 
 SPBC HE ES        255 33.30                             128   -0.39 9  168 219 
 SPBC HZ I         255 38.10         9.4 0.14            130            168 219 
 ZAR  HZ EP        255 14.52                             122   -0.25 9  205 291 
 ZAR  HE ES        255 40.79                             122    0.69 9  205 291 
 ZAR  HZ I         255 45.37        11.4 0.32            123            205 291 
 NOR  HZ EP   1    255 18.50                             118    0.06 6  239 234 
 NOR  HE ES        255 46.32                             118   -0.31 8  239 234 
 NOR  HZ I         255 47.90         8.5 0.18            120            239 234 
 SML  HZ EP        255 17.80                             118   -0.79 8  241 334 
 SML  HE ES   1    255 46.22                             118   -0.69 6  241 334 
 SML  HZ I         255 53.13         9.2 0.08            119            241 334 
 HEL  HZ EP   1    255 23.67                             114    0.83 6  276 255 
 GUY2CHZ EP   1    255 26.72                             112    0.37 5  306 234 
 GUY2CHN ES   1    256  0.91                             112    0.19 5  306 234 
 GUY2CHZ I         256  8.24         3.6 0.42                           306 234 
 MON  HZ EP   4    255 29.43                             108   -1.77 0  353 308 
 MON  HN ES   4    256  8.01                             108   -1.35 0  353 308 
 MON  HZ I         256  8.60         2.5 0.16            110            353 308 
 SJC  HZ EP   4    255 36.46                             106   -1.14 0  407 326 
                                                                                
