 2017  118 0041 50.7 L   6.774 -73.173144.0  RSN  8 0.6 1.6LRSN                1
 GAP=134        1.11       4.7     5.3  8.7  0.4274E+01 -0.3326E+00  0.7298E+01E
 Epicentro: LOS SANTOS - SANTANDER                                             3
 ACTION:UPD 17-05-22 16:00 OP:jn   STATUS:               ID:20170118004150 L   I
 OLDACT:UP  17-01-18 13:08 OP:dani STATUS:               ID:20170118003739     3
 OLDACT:UP  17-01-18 13:08 OP:dani STATUS:               ID:20170118003739     3
 OLDACT:REG 17-01-18 12:30 OP:dani STATUS:               ID:20170118003739     3
 2017-01-18-0038-00M.COL___331                                                 6
 STAT SP IPHASW D HRMM SECON CODA AMPLIT PERI AZIMU VELO AIN AR TRES W  DIS CAZ7
 BRR  HZ EP        042 11.66                             153    0.1210 70.0 302 
 BRR  HN ES        042 28.45                             153    0.6110 70.0 302 
 BRR  HZ I         042 31.84         9.0 0.28            151           70.0 302 
 PAM  EZ EP        042 12.55                             149   -0.3810 81.5  40 
 RUS  HZ EP        042 13.72                             144   -0.3210 98.0 174 
 RUS  HE ES        042 32.58                             144    0.2910 98.0 174 
 RUS  HZ I         042 33.38         5.0 0.27            145           98.0 174 
 PTB  HZ EP        042 16.67                             133   -0.49 9  144 260 
 PTB  HN ES        042 37.54                             133   -0.30 9  144 260 
 PTB  HZ I         042 39.95         2.9 0.17            132            144 260 
 ZAR  HZ EP   3    042 25.09                             123    2.28 2  202 293 
 ZAR  HE ES        042 47.64                             123   -0.25 9  202 293 
 ZAR  HZ I         042 52.78         4.4 0.26            123            202 293 
 NOR  HN ES        042 53.02                             119   -0.26 8  231 235 
 NOR  HZ I         043  0.44         2.0 0.21            119            231 235 
 CHI  HN EP        042 28.08                             117    0.21 8  245 195 
 CHI  HE ES        042 56.67                             117   -0.23 8  245 195 
 CHI  HN I         042 59.62         5.9 0.41            118            245 195 
 GUY2CHZ EP        042 34.96                             113    1.24 7  297 235 
                                                                                
