 2012  418 0631 37.7 L   6.799 -73.022148.8  RSN  9 0.4 1.8LRSN                1
 GAP=153        0.72       4.0     5.5  5.9 -0.4360E+01  0.8968E+01  0.1340E+01E
 Epicentro: CEPITA - SANTANDER                                                 3
 ACTION:UPD 12-07-05 11:54 OP:tino STATUS:               ID:20120418063137 L   I
 2012-04-18-0630-00M.COL___187                                                 6
 STAT SP IPHASW D HRMM SECON CODA AMPLIT PERI AZIMU VELO AIN AR TRES W  DIS CAZ7
 BAR2 SZ EP   1    631 57.63                             168    -0.2 7   29 218 
 BAR2 SZ ES   1    632 13.62                             168     0.1 7   29 218 
 BAR2 SZ I         632 14.10        18.1 0.23                            29 218 
 PAM  SZ EP   1    632  0.58                             154     0.8 7   70  31 
 PAM  SN ES   2    632 17.00                             154    -0.1 5   70  31 
 BRR  HZ EP   1    631 59.54                             149    -0.4 7   84 294 
 BRR  HE ES   1    632 16.96                             149    -0.3 7   84 294 
 BRR  HZ I         632 19.97        14.7 0.16                            84 294 
 RUS  HZ EP   1    632  1.55                             144    -0.2 7  100 184 
 RUS  HZ I         632  2.70         5.2 0.11                           100 184 
 RUS  HN ES   2    632 20.53                             144     0.0 5  100 184 
 OCA  SZ EP   1    632  6.38                             130    -0.1 7  163 348 
 OCA  SZ ES   2    632 29.22                             130     0.3 5  163 348 
 ZAR  HZ EP   1    632 11.40                             121    -0.3 6  217 291 
 CHI  HZ EP   2    632 15.44                             117    -0.6 4  252 198 
 CHI  HN ES   2    632 45.68                             117    -0.2 4  252 198 
 CHI  HZ I         632 48.85         2.4 0.26                           252 198 
 HEL  HZ EP   1    632 19.69                             114     0.1 6  285 257 
 HEL  HN ES   2    632 52.46                             114     0.3 4  285 257 
 HEL  HZ I         632 56.60         5.1 0.41                           285 257 
 GUY  SZ EP   1    632 23.03                             112     0.0 5  315 237 
 GUY  SN ES   1    632 59.18                             112     0.9 5  315 237 
 GUY  SZ I         633  7.37         3.8 0.54                           315 237 
                                                                                
