 2015  218 0243 40.0 L   6.243 -73.713111.7  RSN  4 0.4 1.4LRSN                1
 GAP=125        0.91       5.0     4.4 10.8 -0.1282E+01  0.1510E+02  0.2860E+02E
 Epicentro: LANDAZURI - SANTANDER                                              3
 ACTION:UPD 15-04-30 21:27 OP:nd   STATUS:               ID:20150218024340 L   I
 OLDACT:UP  15-02-18 17:51 OP:mh   STATUS:               ID:20150218023741     3
 OLDACT:REG 15-02-18 12:05 OP:mh   STATUS:               ID:20150218023741     3
 2015-02-18-0237-41M.COL___299                                                 6
 STAT SP IPHASW D HRMM SECON CODA AMPLIT PERI AZIMU VELO AIN AR TRES W  DIS CAZ7
 BAR2 EZ EP        243 58.00                             146    0.1810 70.3  57 
 BAR2 EZ ES        244 11.85                             146    0.0910 70.3  57 
 BAR2 EZ I         244 13.51         8.6 0.14            154           70.3  57 
 PTB  HZ EP        243 59.03                             139    0.1510 88.5 292 
 PTB  HN ES   1    244 13.00                             139   -0.63 7 88.5 292 
 PTB  HZ I         244 16.25         2.4 0.36            146           88.5 292 
 CHI  HZ EP        244  7.36                             118   -0.78 9  178 181 
 CHI  HN ES        244 30.33                             118    0.21 9  178 181 
 CHI  HZ I         244 36.69         4.8 0.94            122            178 181 
 GUY2CHZ EP        244 12.42                             113    0.17 8  215 238 
 GUY2CHE ES        244 37.80                             113    0.37 8  215 238 
 GUY2CHZ I         244 44.14                                            215 238 
                                                                                
