 2010 1218 0204 24.0 L   6.784 -73.011145.5  RSN  4 0.1 1.4LRSN                1
 GAP=247        0.38       5.8    10.7  5.1  0.5168E+02 -0.2956E+02 -0.1489E+02E
 Epicentro: CEPITA - SANTANDER                                                 3
 ACTION:UP  11-01-14 15:25 OP:pat  STATUS:               ID:20101218020424 L   I
 2010-12-18-0200-51S.COL___136                                                 6
 STAT SP IPHASW D HRMM SECON CODA AMPLIT PERI AZIMU VELO SNR AR TRES W  DIS CAZ7
 BAR2 SZ ES   1    2 4 58.99                             168    -0.1 7   29 222 
 BTL  SZ EP        2 4 43.94                             167     0.110   32 298 
 BRR  HZ EP        2 4 45.88                             148    -0.110   85 295 
 BRR  HZ I         2 4 47.44        10.4 0.34                            85 295 
 BRR  HN ES   1    2 5  3.26                             148     0.1 7   85 295 
 RUS  HZ EP        2 4 47.66                             144     0.010   99 185 
 RUS  HN ES   1    2 5  6.06                             144     0.0 7   99 185 
 RUS  HZ I         2 5  8.21         1.8 0.40                            99 185 
                                                                                
