 2015  318 0200  2.3 L   6.537 -73.535107.2  RSN  9 0.6 1.6LRSN                1
 GAP= 66        1.58       4.4     4.8  9.9 -0.4098E+01  0.1379E+02 -0.3197E+01E
 Epicentro: EL CARMEN - SANTANDER                                              3
 ACTION:UPD 15-04-30 16:26 OP:nd   STATUS:               ID:20150318020002 L   I
 OLDACT:DUP 15-03-18 15:11 OP:stll STATUS:               ID:20150318015751d    3
 OLDACT:REG 15-03-18 13:09 OP:stll STATUS:               ID:20150318015750     3
 2015-03-18-0157-50M.COL___272                                                 6
 STAT SP IPHASW D HRMM SECON CODA AMPLIT PERI AZIMU VELO AIN AR TRES W  DIS CAZ7
 BAR2 EZ IP     D  2 0 18.46                             158    0.5810 39.5  81 
 BAR2 EZ I         2 0 18.62        30.3 0.38            160           39.5  81 
 BAR2 EZ ES        2 0 30.31                             158    0.2610 39.5  81 
 BRR  HZ EP        2 0 19.28                             146    0.2210 66.0 343 
 BRR  HE ES        2 0 32.96                             146    0.8210 66.0 343 
 BRR  HZ I         2 0 33.93        10.1 0.42            146           66.0 343 
 RUS  HZ EP        2 0 21.60                             138    0.2810 87.0 145 
 RUS  HN ES        2 0 35.86                             138   -0.3210 87.0 145 
 RUS  HZ I         2 0 37.56         3.4 0.16            139           87.0 145 
 PTB  HZ EP     D  2 0 21.30                             133   -0.6410  102 270 
 PTB  HN ES        2 0 36.05                             133   -1.2310  102 270 
 PTB  HZ I         2 0 37.57        11.6 0.18            133            102 270 
 SPBC HZ EP        2 0 23.83                             129    0.6310  114 211 
 SPBC HE ES        2 0 39.44                             129   -0.0810  114 211 
 SPBC HZ I         2 0 41.68        14.0 0.18            130            114 211 
 PAM  SZ EP        2 0 24.90                             126   -0.1410  128  46 
 PAM  SZ I         2 0 26.20         2.4 0.60            127            128  46 
 PAM  SE ES        2 0 42.29                             126   -0.5110  128  46 
 ZAR  HZ EP        2 0 30.56                             116    0.65 9  180 306 
 ZAR  HE ES        2 0 52.34                             116    0.88 9  180 306 
 ZAR  HZ I         2 0 54.88         9.1 0.32            116            180 306 
 NOR  HZ EP        2 0 29.90                             115   -0.33 9  183 234 
 NOR  HE ES        2 0 51.99                             115   -0.04 9  183 234 
 NOR  HZ I         2 0 55.23         3.4 0.18            116            183 234 
 OCA  HE ES        2 0 52.54                             114   -1.09 9  190   7 
                                                                                
