 2015  918 0025 32.2 L   6.810 -73.125149.2  RSN 12 0.5 1.9LRSN                1
 GAP=139        1.11       3.4     4.5  5.9 -0.2473E+01  0.8407E+01  0.7842E+00E
 Epicentro: LOS SANTOS - SANTANDER                                             3
 ACTION:UPD 15-10-28 16:26 OP:cam  STATUS:               ID:20150918002532 L   I
 OLDACT:REG 15-09-18 12:15 OP:mh   STATUS:               ID:20150918001750     3
 2015-09-18-0017-50M.COL___352                                                 6
 STAT SP IPHASW D HRMM SECON CODA AMPLIT PERI AZIMU VELO AIN AR TRES W  DIS CAZ7
 BAR2 EZ EP   1    025 52.61                             170    0.33 7 24.9 195 
 BAR2 EZ ES        026  7.70                             170   -0.2410 24.9 195 
 BAR2 EZ I         026 11.23        14.2 0.32            170           24.9 195 
 BRR  HZ IP     C  025 54.49                             153    0.6810 72.7 297 
 BRR  HN ES        026 11.10                             153    0.4310 72.7 297 
 BRR  HZ I         026 12.94         7.8 0.14            151           72.7 297 
 PAM  EZ EP        025 53.72                             152   -0.9410 75.1  39 
 PAM  EN ES        026 12.71                             152    0.5410 75.1  39 
 PAM  EZ I         026 14.70        12.6 0.62            155           75.1  39 
 RUS  HZ EP        025 56.78                             144    0.4110  102 177 
 RUS  HN ES        026 14.76                             144   -0.4510  102 177 
 RUS  HZ I         026 16.13         6.2 0.22            147            102 177 
 PTB  HZ EP        025 59.36                             132   -0.32 9  150 259 
 PTB  HN ES        026 20.58                             132   -0.53 9  150 259 
 PTB  HZ I         026 23.14         8.3 0.16            132            150 259 
 SPBC HZ EP        026  1.54                             129    0.35 9  166 219 
 SPBC HN ES        026 23.66                             129   -0.14 9  166 219 
 SPBC HZ I         026 26.38        14.0 0.30            131            166 219 
 ZAR  HZ EP   1    026  5.36                             123    0.31 6  206 292 
 ZAR  HN ES        026 30.85                             123    0.18 8  206 292 
 ZAR  HZ I         026 36.19         8.0 0.64            123            206 292 
 NOR  HZ EP        026  8.10                             119   -0.31 8  237 235 
 NOR  HE ES        026 37.17                             119    0.53 8  237 235 
 NOR  HZ I         026 42.20         6.2 0.44            120            237 235 
 SML  HZ EP        026  8.98                             118   -0.04 8  244 335 
 SML  HN ES        026 37.01                             118   -0.73 8  244 335 
 SML  HZ I         026 40.89         9.4 0.24            119            244 335 
 URE  HZ EP   4    026 16.30                             114    2.66 0  286 292 
 URE  HN ES   4    026 43.58                             114   -2.37 0  286 292 
 URE  HZ I         026 50.52         5.2 0.14            115            286 292 
 GUY2CHZ EP        026 16.72                             113    0.46 7  304 235 
 GUY2CHN ES        026 50.24                             113   -0.38 7  304 235 
 GUY2CHZ I         027  1.05         3.1 0.44                           304 235 
 PRA  HZ EP   1    026 26.25                             107    0.16 4  394 210 
 PRA  HN ES        027  7.98                             107   -0.15 6  394 210 
 PRA  HZ I         027 12.25         1.6 0.28            108            394 210 
                                                                                
