 2012  518 0738 35.9 L   6.797 -73.144148.1  RSN  6 0.4 1.9LRSN                1
 GAP=137        1.05       6.7     8.5  9.2 -0.1879E+01  0.1597E+02  0.3466E+01E
 Epicentro: LOS SANTOS - SANTANDER                                             3
 ACTION:UP  12-07-05 12:06 OP:pat  STATUS:               ID:20120518073835 L   I
 2012-05-18-0730-00M.COL___200                                                 6
 STAT SP IPHASW D HRMM SECON CODA AMPLIT PERI AZIMU VELO SNR AR TRES W  DIS CAZ7
 BAR2 SZ EP        738 55.55                             171    -0.210   23 191 
 BAR2 SZ ES   1    739 10.97                             171    -0.3 7   23 191 
 BAR2 SZ I         739 13.44        14.0 0.25                            23 191 
 BRR  HZ EP        738 57.33                             153     0.110   72 299 
 BRR  HE ES   1    739 14.69                             153     0.7 7   72 299 
 BRR  HZ I         739 19.18        13.0 0.16                            72 299 
 PAM  SZ EP        738 58.68                             151     0.410   78  39 
 PAM  SN ES   1    739 15.34                             151    -0.5 7   78  39 
 RUS  HZ EP        739  0.12                             144     0.310  100 176 
 RUS  HN ES   1    739 18.55                             144     0.1 7  100 176 
 RUS  HZ I         739 20.13         9.3 0.36                           100 176 
 PTB  HZ EP        739  2.50                             132    -0.5 9  148 259 
 PTB  HZ I         739 27.86         7.6 0.14                           148 259 
 OCA  HN ES   3    739 26.02                             130    -0.6 2  161 353 
 OCA  HZ I         739 31.21        21.6 0.18                           161 353 
                                                                                
