 2014  918 0346 44.3 L   6.824 -73.086149.8  RSN 10 0.5 1.7LRSN                1
 GAP=189        1.19       3.5     7.0  7.5  0.2593E+01  0.1392E+02  0.5310E+00E
 Epicentro: LOS SANTOS - SANTANDER                                             3
 ACTION:UPD 14-10-03 23:06 OP:nd   STATUS:               ID:20140918034644 L   I
 OLDACT:REG 14-09-18 13:26 OP:carl STATUS:               ID:20140918033818     3
 2014-09-18-0338-18M.COL___287                                                 6
 STAT SP IPHASW D HRMM SECON CODA AMPLIT PERI AZIMU VELO AIN AR TRES W  DIS CAZ7
 BAR2 SZ EP        347  4.64                             169    0.1510 27.7 203 
 BAR2 SZ ES        347 20.07                             169   -0.1810 27.7 203 
 BAR2 SZ I         347 21.35        14.9 0.22            167           27.7 203 
 BRR  HZ EP        347  6.60                             152    0.4710 75.9 294 
 BRR  HN ES        347 23.83                             152    0.6610 75.9 294 
 BRR  HZ I         347 30.89         5.8 0.46            149           75.9 294 
 RUS  HZ EP        347  8.58                             144   -0.0210  103 180 
 RUS  HN ES        347 27.27                             144   -0.2910  103 180 
 RUS  HZ I         347 28.41         3.1 0.46            147            103 180 
 PTB  HZ EP        347 11.55                             132   -0.66 9  155 258 
 PTB  HN ES   4    347 32.38                             132   -1.61 0  155 258 
 PTB  HZ I         347 38.60         6.7 0.54            132            155 258 
 OCA  HN ES        347 35.39                             131    0.43 9  159 351 
 SPBC HZ EP        347 13.62                             129   -0.06 9  169 220 
 SPBC HN ES        347 36.20                             129   -0.41 9  169 220 
 SPBC HZ I         347 40.69         7.5 0.40            130            169 220 
 ZAR  HN ES        347 42.60                             123   -0.85 8  209 291 
 SML  HZ EP        347 21.25                             118    0.06 8  244 334 
 SML  HN ES        347 49.29                             118   -0.68 8  244 334 
 SML  HZ I         347 53.15         7.7 0.24            120            244 334 
 CHI  HN ES        347 52.65                             117    0.03 8  253 196 
 GUY2CHZ EP        347 29.15                             113    0.29 7  308 235 
 GUY2CHE ES        348  4.86                             113    1.24 7  308 235 
 GUY2CHZ I         348 11.01         3.7 0.66                           308 235 
                                                                                
