 2016 1218 0234 42.4 L   6.768 -73.169124.8  RSN  7 0.3 1.2LRSN                1
 GAP=135        0.81       3.4     3.3  5.8 -0.3435E+00  0.6473E+01  0.1587E+01E
 Epicentro: LOS SANTOS - SANTANDER                                             3
 ACTION:UPD 17-01-11 20:16 OP:rebc STATUS:               ID:20161218023442 L   I
 OLDACT:REG 16-12-18 14:24 OP:edw  STATUS:               ID:20161218022745     3
 2016-12-18-0228-00M.COL___381                                                 6
 STAT SP IPHASW D HRMM SECON CODA AMPLIT PERI AZIMU VELO AIN AR TRES W  DIS CAZ7
 BAR2 EZ EP   4    234 57.74                             171   -1.71 0 19.5 184 
 BAR2 EZ ES        235 12.33                             171   -0.4010 19.5 184 
 BAR2 EZ I         235 17.49         3.4 0.22            172           19.5 184 
 BRR  HZ EP        235  1.38                             148    0.0710 70.7 302 
 BRR  HN ES        235 16.31                             148    0.2610 70.7 302 
 BRR  HZ I         235 22.39         7.2 0.48            149           70.7 302 
 PAM  EZ EP        235  3.08                             145    0.3310 81.8  39 
 PAM  EN ES        235 18.33                             145   -0.2810 81.8  39 
 PAM  EZ I         235 20.45         2.6 0.18            151           81.8  39 
 RUS  HZ EP        235  3.69                             140   -0.2210 97.3 174 
 RUS  HN ES        235 21.05                             140    0.3810 97.3 174 
 RUS  HZ I         235 23.49         1.6 0.20            146           97.3 174 
 PTB  HZ EP        235  7.49                             127    0.04 9  145 260 
 PTB  HN ES        235 27.34                             127    0.37 9  145 260 
 PTB  HZ I         235 30.65         2.6 0.32            130            145 260 
 ZAR  HN ES        235 37.43                             117   -0.27 9  203 293 
 ZAR  HZ I         235 45.85         2.6 0.10            121            203 293 
 GUY2CHN ES        235 57.04                             108   -0.57 7  297 235 
 GUY2CHZ I         236  5.54         1.4 0.68                           297 235 
                                                                                
