 2015  418 0749 31.3 L   6.837 -73.136143.5  RSN  6 0.5 1.4LRSN                1
 GAP=184        1.27       4.9     8.4  9.2  0.1041E+02  0.1940E+01 -0.1116E+02E
 Epicentro: LOS SANTOS - SANTANDER                                             3
 ACTION:UPD 15-06-03 16:55 OP:cam  STATUS:               ID:20150418074931 L   I
 OLDACT:REG 15-04-18 15:52 OP:carl STATUS:               ID:20150418074748     3
 2015-04-18-0747-48M.COL___266                                                 6
 STAT SP IPHASW D HRMM SECON CODA AMPLIT PERI AZIMU VELO AIN AR TRES W  DIS CAZ7
 BAR2 EZ EP        749 50.28                             169   -0.5010 27.6 191 
 BAR2 EZ ES        750  5.53                             169   -0.4210 27.6 191 
 BAR2 EZ I         750  7.17         6.7 0.16            170           27.6 191 
 BRR  HZ EP        749 52.91                             152    0.7310 70.3 295 
 BRR  HN ES        750  9.39                             152    0.9410 70.3 295 
 BRR  HZ I         750 13.25         3.9 0.40            151           70.3 295 
 RUS  HZ EP        749 55.43                             142    0.2810  105 177 
 RUS  HN ES        750 13.75                             142    0.0110  105 177 
 RUS  HZ I         750 14.22         1.9 0.22            146            105 177 
 PTB  HZ EP        749 58.27                             131   -0.01 9  150 257 
 PTB  HN ES        750 18.68                             131   -0.63 9  150 257 
 PTB  HZ I         750 21.10         3.1 0.24            132            150 257 
 OCA  HN ES        750 20.46                             130   -0.28 9  156 353 
 SML  HZ EP        750  7.52                             117    0.05 8  240 335 
 SML  HN ES        750 35.22                             117   -0.44 8  240 335 
 SML  HZ I         750 39.20         3.3 0.10            119            240 335 
                                                                                
