 2016 1118 0700 10.7 L   6.810 -73.146146.0  RSN  7 0.3 1.5LRSN                1
 GAP=149        0.70       3.1     3.2  4.3 -0.1500E+01  0.2077E+01  0.3860E+01E
 Epicentro: LOS SANTOS - SANTANDER                                             3
 ACTION:UPD 17-10-26 21:09 OP:lp   STATUS:               ID:20161118070010 L   I
 OLDACT:UP  16-11-18 17:38 OP:and  STATUS:               ID:20161118065744     3
 OLDACT:UP  16-11-18 17:37 OP:and  STATUS:               ID:20161118065744     3
 OLDACT:REG 16-11-18 12:51 OP:and  STATUS:               ID:20161118065744     3
 2016-11-18-0658-00M.COL___343                                                 6
 STAT SP IPHASW D HRMM SECON CODA AMPLIT PERI AZIMU VELO AIN AR TRES W  DIS CAZ7
 BAR2 EZ EP        7 0 30.46                             170    0.0310 24.4 190 
 BAR2 EZ ES        7 0 45.32                             170   -0.4610 24.4 190 
 BAR2 EZ I         7 0 46.34         9.5 0.22            169           24.4 190 
 BRR  HZ EP     C  7 0 31.84                             153   -0.0510 70.7 298 
 BRR  HN ES        7 0 48.99                             153    0.6010 70.7 298 
 PAM  EZ EP        7 0 33.14                             151    0.2010 76.5  40 
 PAM  EE ES        7 0 50.21                             151   -0.0410 76.5  40 
 PAM  EZ I         7 0 52.26         6.2 0.46            152           76.5  40 
 PTB  HZ EP   9    7 0 36.80                             132   -0.96 0  148 258 
 PTB  HN ES        7 0 57.96                             132    0.10 9  148 258 
 PTB  HZ I         7 1  0.00         3.3 0.19            132            148 258 
 ZAR  HZ EP        7 0 42.94                             122   -0.23 9  204 292 
 ZAR  HN ES        7 1  8.03                             122   -0.42 9  204 292 
 ZAR  HZ I         7 1  9.94         2.2 0.14            123            204 292 
 NOR  HZ EP        7 0 46.62                             118    0.06 8  235 234 
 NOR  HE ES        7 1 14.63                             118    0.14 8  235 234 
 NOR  HZ I         7 1 15.54         2.3 0.15            119            235 234 
 CHI  HZ EP        7 0 48.63                             117    0.05 8  250 195 
 CHI  HN ES        7 1 18.12                             117    0.04 8  250 195 
 CHI  HZ I         7 1 21.02         1.7 0.24            117            250 195 
                                                                                
