 2016  718 0315 43.3 L   6.744 -73.142151.1  RSN  6 0.3 1.3LRSN                1
 GAP=140        0.78       3.4     4.1  5.7 -0.5085E+00  0.5107E+01  0.1028E+01E
 Epicentro: LOS SANTOS - SANTANDER                                             3
 ACTION:UPD 17-03-29 16:52 OP:lp   STATUS:               ID:20160718031543 L   I
 OLDACT:UP  16-07-18 17:47 OP:ar   STATUS:               ID:20160718030760d    3
 OLDACT:DUP 16-07-18 17:43 OP:ar   STATUS:               ID:20160718030760d    3
 2016-07-18-0307-59S.COL___319                                                 6
 STAT SP IPHASW D HRMM SECON CODA AMPLIT PERI AZIMU VELO AIN AR TRES W  DIS CAZ7
 BAR2 EZ ES        316 19.47                             173    0.2910 17.4 195 
 BAR2 EZ I         316 19.80         7.1 0.18            170           17.4 195 
 BRR  HZ EP        316  5.20                             152    0.0010 74.7 303 
 BRR  HN ES        316 22.50                             152    0.2010 74.7 303 
 BRR  HZ I         316 25.94         2.6 0.14            148           74.7 303 
 PAM  EZ EP        316  6.40                             150    0.0710 82.0  37 
 PAM  EN ES        316 23.90                             150   -0.4210 82.0  37 
 PAM  EZ I         316 25.52         2.8 0.50            154           82.0  37 
 RUS  HZ EP        316  6.96                             147   -0.1710 94.4 176 
 RUS  HN ES        316 26.05                             147    0.3210 94.4 176 
 RUS  HZ I         316 27.13         2.6 0.36            148           94.4 176 
 SPBC HZ EP        316 12.00                             131    0.23 9  159 221 
 SPBC HE ES        316 33.33                             131   -0.67 9  159 221 
 SPBC HZ I         316 40.14         3.5 0.16            130            159 221 
 ZAR  HZ EP   2    316 16.84                             123    0.48 4  207 294 
 ZAR  HN ES        316 42.16                             123   -0.01 8  207 294 
 ZAR  HZ I         316 50.45         2.0 0.28            122            207 294 
                                                                                
