 2017  418 0624 41.8 L   6.776 -73.344126.0  RSN  4 0.3 1.2LRSN                1
 GAP=187        0.62       6.0     3.9  5.6  0.8837E+01  0.7752E+01  0.2480E+01E
 Epicentro: ZAPATOCA - SANTANDER                                               3
 ACTION:UPD 17-05-30 21:13 OP:jn   STATUS:               ID:20170418062441 L   I
 OLDACT:UP  17-04-18 16:01 OP:cog  STATUS:               ID:20170418061456     3
 OLDACT:REG 17-04-18 12:56 OP:cog  STATUS:               ID:20170418061456     3
 2017-04-18-0618-00M.COL___368                                                 6
 STAT SP IPHASW D HRMM SECON CODA AMPLIT PERI AZIMU VELO AIN AR TRES W  DIS CAZ7
 BAR2 EZ EP        624 59.41                             167    0.2610 27.0 139 
 BAR2 EZ ES        625 12.70                             167    0.0210 27.0 139 
 BAR2 EZ I         625 13.64         9.3 0.24            170           27.0 139 
 BRR  HZ EP        624 59.87                             155   -0.0310 54.8 312 
 BRR  HN ES        625 13.82                             155   -0.1910 54.8 312 
 BRR  HZ I         625 14.80         4.5 0.10            154           54.8 312 
 PTB  HZ EP        625  4.70                             132   -0.4610  126 258 
 PTB  HN ES        625 23.54                             132    0.1610  126 258 
 PTB  HZ I         625 24.42         1.2 0.36            132            126 258 
 ZAR  HZ EP   3    625 11.65                             120    0.64 2  185 295 
 ZAR  HN ES        625 34.03                             120    0.23 9  185 295 
 ZAR  HZ I         625 36.55         1.1 0.21            121            185 295 
                                                                                
