 2012  418 0016 41.6 L   6.873 -72.842125.4  RSN  4 0.2 1.2LRSN                1
 GAP=177        0.52       4.3     6.7  7.2  0.9498E+01 -0.2672E+01  0.3599E+01E
 Epicentro: GUACA - SANTANDER                                                  3
 ACTION:UPD 12-07-05 11:54 OP:tino STATUS:               ID:20120418001641 L   I
 2012-04-18-0010-00M.COL___187                                                 6
 STAT SP IPHASW D HRMM SECON CODA AMPLIT PERI AZIMU VELO AIN AR TRES W  DIS CAZ7
 BAR2 SZ EP   1    016 59.81                             158     0.2 7   49 230 
 BAR2 SZ ES   2    017 13.40                             158    -0.4 5   49 230 
 BAR2 SZ I         017 16.67         6.0 0.15                            49 230 
 PAM  SZ I         017  3.96         3.8 0.27                            54  17 
 PAM  SN ES   2    017 14.90                             156     0.0 5   54  17 
 BRR  HZ EP   1    017  2.25                             139    -0.3 7  100 285 
 BRR  HN ES   1    017 19.22                             139     0.2 7  100 285 
 RUS  HZ EP   1    017  4.40                             136     0.1 7  112 194 
 RUS  HZ I         017  5.77         2.0 0.12                           112 194 
 RUS  HN ES   1    017 21.99                             136     0.0 7  112 194 
                                                                                
