 2017  718 0640 12.9 L   6.637 -73.246148.2  RSN  4 0.1 1.1LRSN                1
 GAP=187        0.34       7.8     7.4  6.1  0.5125E+02 -0.2802E+01 -0.1732E+02E
 Epicentro: BARICHARA - SANTANDER                                              3
 ACTION:UPD 17-08-30 15:34 OP:rebc STATUS:               ID:20170718064012 L   I
 OLDACT:REG 17-07-18 13:49 OP:dnl  STATUS:               ID:20170718063743     3
 2017-07-18-0638-00M.COL___371                                                 6
 STAT SP IPHASW D HRMM SECON CODA AMPLIT PERI AZIMU VELO AIN AR TRES W  DIS CAZ7
 BAR2 EZ EP   2    640 32.72                             177    0.08 5 8.55 125 
 BAR2 EZ I         640 53.93         2.9 0.50            145           8.55 125 
 RUS  HZ EP   2    640 35.54                             149   -0.27 5 84.2 168 
 RUS  HN ES        640 53.68                             149    0.0110 84.2 168 
 RUS  HZ I         640 55.00         1.7 0.50            134           84.2 168 
 PTB  HZ EP        640 38.97                             135    0.0610  134 265 
 PTB  HZ I         641  2.37         1.4 0.34            126            134 265 
 ZAR  HZ EP   2    640 45.41                             123    0.13 4  202 298 
 ZAR  HE ES        641 10.47                             123   -0.06 9  202 298 
 ZAR  HZ I         641 16.88         1.6 0.44            108            202 298 
                                                                                
