 2010 1018 0350  4.0 L   6.839 -72.980134.3  RSN  6 0.3 1.8LRSN                1
 GAP=177        0.69       3.4     7.0  6.7 -0.1540E+01 -0.6324E+01 -0.6138E+01E
 Epicentro: CEPITA - SANTANDER                                                 3
 ACTION:UP  11-02-18 11:10 OP:tino STATUS:               ID:20101018035004 L   I
 2010-10-18-0347-17S.COL___123                                                 6
 STAT SP IPHASW D HRMM SECON CODA AMPLIT PERI AZIMU VELO SNR AR TRES W  DIS CAZ7
 BAR2 SZ EP        350 22.72                             164     0.210   35 219 
 BAR2 SZ ES   1    350 36.74                             164    -0.3 7   35 219 
 BAR2 SZ I         350 38.59        16.8 0.36                            35 219 
 BRR  HZ IP     C  350 24.61                             145    -0.310   86 290 
 BRR  HN ES   1    350 41.54                             145     0.4 7   86 290 
 BRR  HZ I         350 44.06        20.3 0.20                            86 290 
 RUS  HZ EP   1    350 26.94                             140     0.0 7  105 186 
 RUS  HE ES        350 44.98                             140     0.110  105 186 
 RUS  HZ I         350 46.22         5.6 0.19                           105 186 
 GRA  SZ EP        350 27.68                             136     0.210  117  10 
 GRA  SZ ES   1    350 45.51                             136    -0.3 7  117  10 
 GRA  SZ I         350 48.41         8.0 0.56                           117  10 
 OCA  SZ EP   2    350 31.59                             127     0.3 5  159 346 
 OCA  SZ I         350 57.12         6.8 0.34                           159 346 
 HEL  HZ EP   2    350 45.14                             111    -0.6 4  291 256 
 HEL  HZ I         351 23.40         3.7 0.04                           291 256 
                                                                                
