 2012 1118 0528 49.6 L   6.768 -73.171149.4  RSN  4 0.3 1.1LRSN                1
 GAP=178        0.57       5.3     5.7  6.7  0.1140E+02  0.9274E+01  0.1121E+02E
 Epicentro: LOS SANTOS - SANTANDER                                             3
 ACTION:UPD 12-12-05 15:34 OP:}ep  STATUS:               ID:20121118052849 L   I
 2012-11-18-0527-39M.COL___205                                                 6
 STAT SP IPHASW D HRMM SECON CODA AMPLIT PERI AZIMU VELO AIN AR TRES W  DIS CAZ7
 GIR2 SZ ES   1    529 25.10                             166   -0.41 7 34.5 356 
 BRR  HZ EP   1    529 11.19                             153    0.11 7 70.6 302 
 BRR  HE ES   1    529 28.33                             153    0.48 7 70.6 302 
 BRR  HZ I         529 32.11         3.6 0.26                          70.6 302 
 RUS  HZ EP   1    529 13.46                             145    0.02 7 97.2 174 
 RUS  HN ES   1    529 32.17                             145    0.11 7 97.2 174 
 RUS  HZ I         529 34.17         1.1 0.34                          97.2 174 
 PTB  HZ EP   1    529 16.43                             133   -0.10 7  144 260 
 PTB  HN ES   1    529 37.32                             133   -0.25 7  144 260 
 PTB  HZ I         529 42.24         2.1 0.16                           144 260 
                                                                                
