 2013 1218 0524 42.1 L   5.848 -73.775112.4  RSN  5 0.5 1.3LRSN                1
 GAP=150        1.36       8.3     6.9 13.1  0.1483E+02 -0.1331E+02 -0.3476E+02E
 Epicentro: JESUS MARIA - SANTANDER                                            3
 ACTION:UPD 14-01-13 10:18 OP:ep   STATUS:               ID:20131218052442 L   I
 OLDACT:REG 13-12-18 07:25 OP:jn   STATUS:               ID:20131218052000     3
 2013-12-18-0520-00M.COL___285                                                 6
 STAT SP IPHASW D HRMM SECON CODA AMPLIT PERI AZIMU VELO AIN AR TRES W  DIS CAZ7
 SPBC HN ES   1    525 10.97                             159    0.45 7 39.4 237 
 SPBC HZ I         525 13.13         7.1 0.12            161           39.4 237 
 RUS  HZ EP        525  1.36                             143    0.5310 76.7  86 
 RUS  HN ES        525 15.04                             143   -0.4110 76.7  86 
 RUS  HZ I         525 17.32         3.8 0.28            146           76.7  86 
 BAR2 SZ EP        525  2.91                             134    0.1310  105  39 
 BAR2 SZ ES        525 18.63                             134   -0.2910  105  39 
 PTB  HN ES        525 18.21                             133   -0.5210  107 315 
 PTB  HZ I         525 18.50         4.0 0.10            136            107 315 
 BRR  HZ EP        525  5.04                             125   -0.65 9  139   3 
 BRR  HN ES        525 25.08                             125    0.97 9  139   3 
 BRR  HZ I         525 26.46         5.2 0.14            128            139   3 
                                                                                
