 2014  518 0812 35.4 L   6.731 -73.199155.7  RSN  5 0.4 0.9LRSN                1
 GAP=195        0.82       6.0     6.4  8.1  0.2363E+02 -0.2502E+01 -0.5907E+01E
 Epicentro: VILLANUEVA - SANTANDER                                             3
 ACTION:UPD 15-03-16 16:58 OP:nd   STATUS:               ID:20140518081235 L   I
 OLDACT:REG 14-05-18 13:09 OP:spq  STATUS:               ID:20140518080813     3
 2014-05-18-0808-13M.COL___245                                                 6
 STAT SP IPHASW D HRMM SECON CODA AMPLIT PERI AZIMU VELO AIN AR TRES W  DIS CAZ7
 BRR  HZ EP        812 57.69                             154    0.0710 70.2 306 
 BRR  HN ES        813 15.27                             154    0.3510 70.2 306 
 BRR  HZ I         813 17.47         1.4 0.18            155           70.2 306 
 RUS  HZ EP        813  0.17                             148    0.4510 93.7 172 
 RUS  HN ES        813 18.24                             148   -0.4110 93.7 172 
 RUS  HZ I         813 19.12         1.0 0.22            150           93.7 172 
 PTB  HZ EP        813  2.51                             136   -0.11 9  141 261 
 PTB  HN ES        813 23.59                             136   -0.23 9  141 261 
 PTB  HZ I         813 25.69         1.5 0.36            137            141 261 
 ZAR  HE ES        813 33.97                             125    0.02 9  202 295 
 SML  HE ES   2    813 41.47                             119   -1.06 4  248 337 
                                                                                
