 2017  218 0149  6.4 L   6.757 -73.153141.6  RSN  5 0.2 1.0LRSN                1
 GAP=138        0.66       3.9     4.2  6.0 -0.2193E+01  0.1131E+02 -0.8375E+00E
 Epicentro: LOS SANTOS - SANTANDER                                             3
 ACTION:UPD 17-05-24 15:37 OP:jn   STATUS:               ID:20170218014906 L   I
 OLDACT:REG 17-02-18 13:13 OP:cara STATUS:               ID:20170218014740     3
 2017-02-18-0148-00M.COL___352                                                 6
 STAT SP IPHASW D HRMM SECON CODA AMPLIT PERI AZIMU VELO AIN AR TRES W  DIS CAZ7
 BAR2 EZ ES        149 40.75                             172    0.4110 18.5 190 
 BRR  HZ EP        149 27.23                             151   -0.0110 72.9 302 
 PAM  EN ES        149 45.47                             149   -0.1910 81.6  38 
 RUS  HZ EP        149 29.67                             144    0.2210 95.9 175 
 RUS  HN ES        149 47.06                             144   -0.3410 95.9 175 
 RUS  HZ I         149 50.89         0.8 0.23            145           95.9 175 
 PTB  HZ EP        149 32.94                             131    0.02 9  146 261 
 PTB  HN ES        149 53.45                             131   -0.13 9  146 261 
 PTB  HZ I         150  1.01         3.0 0.34            131            146 261 
                                                                                
