 2013  818 0802 43.5 L   6.851 -73.315118.1  RSN  5 0.6 1.3LRSN                1
 GAP=109        1.58       8.1     7.2 12.9  0.3562E+01  0.2287E+02  0.2370E+02E
 Epicentro: ZAPATOCA - SANTANDER                                               3
 ACTION:UPD 14-01-14 09:04 OP:ep   STATUS:               ID:20130818080243 L   I
 OLDACT:REG 13-08-18 09:43 OP:stll STATUS:               ID:20130818075850     3
 2013-08-18-0758-50M.COL___201                                                 6
 STAT SP IPHASW D HRMM SECON CODA AMPLIT PERI AZIMU VELO AIN AR TRES W  DIS CAZ7
 BAR2 SZ EP        8 3  0.50                             164    0.4310 32.2 153 
 BAR2 SZ ES        8 3 13.40                             164    0.4010 32.2 153 
 BAR2 SZ I         8 3 14.74         7.8 0.28            166           32.2 153 
 BRR  HZ EP        8 3  0.76                             154    0.1710 52.2 303 
 BRR  HN ES        8 3 14.71                             154    0.7910 52.2 303 
 BRR  HZ I         8 3 15.87         3.5 0.12            155           52.2 303 
 PAM  SN ES        8 3 18.25                             142   -0.9310 86.8  52 
 PAM  SN I         8 3 22.07         4.7 0.32            144           86.8  52 
 RUS  HZ EP        8 3  5.86                             135    0.5010  109 166 
 RUS  HN ES        8 3 21.96                             135   -0.4510  109 166 
 RUS  HN I         8 3 23.91         2.4 0.26            137            109 166 
 PTB  HZ EP        8 3  6.72                             129    0.0210  131 255 
 PTB  HN ES        8 3 23.78                             129   -1.0210  131 255 
 PTB  HN I         8 3 27.80         7.4 0.26            131            131 255 
                                                                                
