 2016 1018 0213 35.4 L   6.791 -73.081146.3  RSN  5 0.3 1.2LRSN                1
 GAP=145        0.70       5.0     5.6  7.0 -0.1600E+02 -0.5994E+01  0.1322E+02E
 Epicentro: LOS SANTOS - SANTANDER                                             3
 ACTION:UPD 16-11-09 19:20 OP:rebc STATUS:               ID:20161018021335 L   I
 OLDACT:UP  16-10-18 15:13 OP:and  STATUS:               ID:20161018020736d    3
 OLDACT:DUP 16-10-18 15:07 OP:and  STATUS:               ID:20161018020736d    3
 2016-10-18-0208-00M.COL___344                                                 6
 STAT SP IPHASW D HRMM SECON CODA AMPLIT PERI AZIMU VELO AIN AR TRES W  DIS CAZ7
 PAM  EZ EP        213 57.35                             152   -0.0910 73.8  35 
 PAM  EN ES        214 14.75                             152    0.1010 73.8  35 
 PAM  EZ I         214 16.94         2.1 0.39            154           73.8  35 
 BRR  HZ EP        213 56.54                             151   -0.4310 78.0 297 
 BRR  HN ES        214 14.01                             151    0.1810 78.0 297 
 RUS  HN ES   2    214 17.45                             144   -0.14 5 99.3 180 
 RUS  HZ I         214 18.44         2.2 0.34            147           99.3 180 
 PTB  HZ EP   9    214  1.53                             131   -1.48 0  155 260 
 PTB  HN ES   2    214 22.93                             133   -0.16 5  155 260 
 PTB  HZ I         214 28.94         1.4 0.27            131            155 260 
 SPBC HZ EP        214  4.80                             128    0.53 9  167 221 
 SPBC HN ES        214 26.63                             128   -0.19 9  167 221 
 SPBC HZ I         214 26.94         4.1 0.24            130            167 221 
                                                                                
