 2017  418 0720 31.3 L   6.127 -73.553122.0  RSN  6 0.4 1.2LRSN                1
 GAP=111        1.05       4.8     4.8  7.7 -0.3271E+00  0.9946E+01 -0.6398E+01E
 Epicentro: AGUADA - SANTANDER                                                 3
 ACTION:UPD 17-05-30 21:13 OP:jn   STATUS:               ID:20170418072031 L   I
 OLDACT:REG 17-04-18 12:58 OP:cog  STATUS:               ID:20170418071719     3
 2017-04-18-0718-00M.COL___368                                                 6
 STAT SP IPHASW D HRMM SECON CODA AMPLIT PERI AZIMU VELO AIN AR TRES W  DIS CAZ7
 RUS  HZ EP        720 49.49                             153   -0.3910 58.1 117 
 RUS  HN ES        721  4.16                             153   -0.1910 58.1 117 
 RUS  HZ I         721  5.89         1.7 0.23            157           58.1 117 
 BAR2 EZ EP        720 50.04                             150    0.0810 65.7  39 
 BAR2 EZ ES        721  4.55                             150    0.0610 65.7  39 
 BAR2 EZ I         721  5.48         7.3 0.34            151           65.7  39 
 SPBC HZ EP        720 51.26                             145    0.7210 77.9 228 
 SPBC HN ES        721  5.76                             145    0.2310 77.9 228 
 PTB  HZ EP        720 52.32                             135   -0.6210  110 295 
 PTB  HN ES        721  9.32                             135   -0.4910  110 295 
 PTB  HZ I         721 12.50         2.8 0.12            136            110 295 
 BRR  HZ EP        720 52.78                             135   -0.1310  110 351 
 BRR  HE ES        721 10.22                             135    0.4710  110 351 
 BRR  HZ I         721 12.81         2.8 0.46            136            110 351 
 ZAR  HZ EP        721  3.19                             116    0.33 8  209 316 
 ZAR  HN ES   4    721 25.12                             116   -2.34 0  209 316 
                                                                                
