 2016  118 0400  3.7 L   6.811 -73.172137.8  RSN 22 0.4 2.6LRSN                1
 GAP= 69        0.98       2.3     2.6  4.7 -0.9067E+00  0.4156E+01  0.1415E+00E
 Epicentro: LOS SANTOS - SANTANDER                                             3
 ACTION:UPD 16-03-09 23:26 OP:cam  STATUS:               ID:20160118040003 L   I
 OLDACT:UP  16-02-23 20:53 OP:AR   STATUS:               ID:20160118040003 L   3
 OLDACT:UP  16-01-18 15:53 OP:mh   STATUS:               ID:20160118035750     3
 OLDACT:UP  16-01-18 15:53 OP:mh   STATUS:               ID:20160118035750     3
 OLDACT:UP  16-01-18 15:52 OP:mh   STATUS:               ID:20160118035750     3
 OLDACT:UP  16-01-18 15:52 OP:mh   STATUS:               ID:20160118035750     3
 OLDACT:UP  16-01-18 15:52 OP:mh   STATUS:               ID:20160118035750     3
 OLDACT:REG 16-01-18 12:46 OP:mh   STATUS:               ID:20160118035750     3
 2016-01-18-0357-50M.COL___325                                                 6
 STAT SP IPHASW D HRMM SECON CODA AMPLIT PERI AZIMU VELO AIN AR TRES W  DIS CAZ7
 BAR2 EZ IP     C  4 0 22.67                             170    0.2610 24.2 183 
 BAR2 EZ ES        4 0 36.97                             170   -0.0210 24.2 183 
 BAR2 EZ I         4 0 38.47       108.1 0.08            169           24.2 183 
 PAM  EZ IP     C  4 0 25.53                             149    0.3810 78.3  42 
 PAM  EN ES        4 0 42.29                             149    0.4210 78.3  42 
 PAM  EZ I         4 0 42.91        62.2 0.36            151           78.3  42 
 RUS  HZ EP        4 0 26.59                             142   -0.2110  102 174 
 RUS  HN ES        4 0 44.69                             142   -0.1210  102 174 
 RUS  HZ I         4 0 45.40        56.7 0.26            143            102 174 
 PTB  HZ EP        4 0 29.26                             131   -0.54 9  145 258 
 PTB  HN ES        4 0 49.81                             131   -0.34 9  145 258 
 PTB  HZ I         4 0 52.27        76.3 0.18            129            145 258 
 TAM  HZ EP     D  4 0 31.08                             128    0.01 9  158 105 
 TAM  HE ES        4 0 52.45                             128    0.04 9  158 105 
 TAM  HZ I         4 0 52.75        38.2 0.22            131            158 105 
 OCA  HZ EP        4 0 30.95                             128   -0.32 9  159 354 
 OCA  HN ES        4 0 52.08                             128   -0.68 9  159 354 
 OCA  HZ I         4 0 54.43       143.2 0.60            127            159 354 
 SPBC HZ EP     C  4 0 31.62                             127    0.09 9  162 218 
 SPBC HN ES        4 0 52.90                             127   -0.33 9  162 218 
 SPBC HZ I         4 0 55.07        68.1 0.68            126            162 218 
 ZAR  HZ EP        4 0 35.43                             121    0.11 9  201 292 
 ZAR  HN ES        4 1  0.42                             121    0.44 9  201 292 
 ZAR  HZ I         4 1  8.12        41.4 0.30            120            201 292 
 NOR  HZ EP        4 0 38.47                             117   -0.34 8  233 234 
 NOR  HN ES        4 1  6.58                             117    0.39 8  233 234 
 NOR  HZ I         4 1 11.91        31.1 0.26            116            233 234 
 SML  HZ EP        4 0 39.22                             116   -0.43 8  241 336 
 SML  HN ES        4 1  8.02                             116    0.34 8  241 336 
 SML  HZ I         4 1 28.35        16.0 0.10            115            241 336 
 CHI  HZ EP        4 0 40.82                             115   -0.21 8  249 194 
 CHI  HN ES        4 1 10.56                             115    0.42 8  249 194 
 CHI  HZ I         4 1 13.69        11.4 0.32            115            249 194 
 ROSC BZ EP   9    4 0 43.17                             115    1.81 0  252 210 
 ROSC BN ES        4 1 13.06                             115    0.52 8  252 210 
 ROSC BZ I         4 1 18.69        35.2 0.45            115            252 210 
 HEL  HZ EP        4 0 43.47                             113    0.22 8  270 255 
 HEL  HN ES        4 1 13.43                             113   -0.66 8  270 255 
 HEL  HZ I         4 1 22.81        24.5 0.30            113            270 255 
 URE  HZ EP   4    4 0 43.16                             112   -0.89 0  281 292 
 URE  HN ES   4    4 1 15.47                             112   -0.04 0  281 292 
 URE  HZ I         4 1 16.15        35.5 0.34            111            281 292 
 GUY2CHZ EP        4 0 47.54                             111    0.76 7  300 234 
 GUY2CHN ES   4    4 1 22.42                             111    2.05 0  300 234 
 GUY2CHZ I         4 1 27.88        19.7 0.26                           300 234 
 CBOC HZ EP        4 0 50.94                             108    0.91 7  331 252 
 CBOC HN ES        4 1 26.61                             108    0.45 7  331 252 
 CBOC HZ I         4 1 30.05         8.0 0.32            108            331 252 
 DBB  SZ EP        4 0 50.99                             108    0.46 7  336 274 
 ANIL HZ EP   9    4 0 55.07                             107    1.98 0  356 224 
 ANIL HN ES        4 1 32.66                             107   -0.92 6  356 224 
 ANIL HZ I         4 1 41.56        33.4 0.56            107            356 224 
 SDV  BZ EP   4    4 0 51.94                             107   -1.69 0  362  51 
 SDV  BN ES   4    4 1 29.16                             107   -3.41 0  362  51 
 PRA  HZ EP        4 0 56.10                             105   -0.83 6  392 209 
 PRA  HN ES        4 1 37.63                             105   -0.80 6  392 209 
 PRA  HZ I         4 1 48.83         8.8 0.30            105            392 209 
 ORTC HZ EP        4 0 57.23                             105   -0.06 6  395 216 
 ORTC HN ES        4 1 39.64                             105    0.57 6  395 216 
 ORTC HZ I         4 1 47.32         8.8 0.42            105            395 216 
 PAL  HZ EP   4    4 0 58.88                             105    0.48 0  404 239 
 PAL  HN ES   4    4 1 40.09                             105   -0.96 0  404 239 
 PAL  HZ I         4 1 43.35         7.7 0.62            104            404 239 
 SJC  HZ EP   4    4 0 57.17                             104   -1.54 0  407 327 
 SJC  HN ES   4    4 1 37.28                             104   -4.33 0  407 327 
 SJC  HZ I         4 1 42.93         8.3 0.56            104            407 327 
                                                                                
