 2012  718 0026 30.4 L   6.672 -73.189153.1  RSN  4 0.1 1.1LRSN                1
 GAP=222        0.29       3.8     3.4  4.5  0.8382E+01 -0.2257E+01 -0.5270E+01E
 Epicentro: VILLANUEVA - SANTANDER                                             3
 ACTION:UPD 12-08-14 11:45 OP:ep   STATUS:               ID:20120718002630 L   I
 2012-07-18-0020-00M.COL___197                                                 6
 STAT SP IPHASW D HRMM SECON CODA AMPLIT PERI AZIMU VELO AIN AR TRES W  DIS CAZ7
 BRR  HZ EP   1    026 52.62                             152     0.0 7   75 310 
 BRR  HN ES   2    027  9.85                             152     0.0 5   75 310 
 RUS  HZ EP   1    026 53.92                             149    -0.1 7   87 172 
 RUS  HE ES   1    027 12.45                             149     0.0 7   87 172 
 RUS  HZ I         027 13.31         3.1 0.46            144             87 172 
 PTB  HZ EP   1    026 57.47                             135     0.1 7  141 264 
 PTB  HN ES   1    027 18.40                             135     0.0 7  141 264 
 PTB  HZ I         027 24.29         1.3 0.21            130            141 264 
 ZAR  HN ES   2    027 29.29                             124     0.0 4  205 296 
