 2011  118 0154 19.7 L   7.375 -73.152131.2  RSN 10 0.4 2.0LRSN                1
 GAP=105        0.74       3.1     6.5  6.7 -0.6380E+01  0.8755E+01  0.6113E+01E
 Epicentro: RIONEGRO - SANTANDER                                               3
 ACTION:UP  11-02-08 08:41 OP:pat  STATUS:               ID:20110118015419 L   I
 2011-01-18-0151-26S.COL___134                                                 6
 STAT SP IPHASW D HRMM SECON CODA AMPLIT PERI AZIMU VELO SNR AR TRES W  DIS CAZ7
 GRA  SZ IP        154 39.57                             151     0.310   68  34 
 GRA  SZ ES   1    154 54.70                             151     0.1 7   68  34 
 GRA  SZ I         154 55.97        51.7 0.37                            68  34 
 BAR2 SZ EP   2    154 40.82                             145     0.2 5   87 182 
 BAR2 SZ ES   1    154 56.91                             145    -0.1 7   87 182 
 BAR2 SZ I         154 58.36        80.6 0.08                            87 182 
 OCA  SZ EP   1    154 41.03                             141    -0.3 7   97 349 
 OCA  SZ ES   1    154 58.21                             141     0.0 7   97 349 
 OCA  SZ I         154 59.82         8.1 0.17                            97 349 
 RUS  HZ EP   1    154 47.87                             126     0.1 7  164 177 
 RUS  HN ES   2    155  8.57                             126    -1.0 5  164 177 
 RUS  HZ I         155 10.97         5.8 0.26                           164 177 
 YOP  SE ES   2    155 23.77                             115     1.2 4  238 160 
 YOP  SZ I         155 24.97         9.4 0.63                           238 160 
 NOR  SZ EP   1    154 58.98                             111    -0.3 6  276 224 
 NOR  SN ES   2    155 30.44                             111     0.3 4  276 224 
 HEL  HZ EP   2    155  1.81                             110     0.2 4  294 244 
 HEL  HZ I         155  4.55         2.6 0.40                           294 244 
 CHI  HZ EP   2    155  3.71                             109     0.1 3  310 192 
 CHI  HE ES        155 37.48                             109    -0.4 7  310 192 
 CHI  HZ I         155 48.23         2.0 0.35                           310 192 
 SDV  BZ EP   1    155  4.62                             108    -0.3 5  324  59 
 SDV  BZ I         155 40.42         3.6 0.33                           324  59 
 RREF HZ EP   2    155 10.92                             105     0.5 3  366 222 
 RREF HE ES   2    155 50.48                             105     0.5 3  366 222 
 RREF HZ I         155 58.88         3.4 0.50                           366 222 
                                                                                
