 2017  718 0316 45.6 L   6.749 -73.222142.0  RSN  9 0.4 1.6LRSN                1
 GAP=202        0.96       4.9     4.6  7.8  0.1041E+02  0.1170E+02  0.1132E+02E
 Epicentro: ZAPATOCA - SANTANDER                                               3
 ACTION:UPD 17-08-30 15:34 OP:rebc STATUS:               ID:20170718031645 L   I
 OLDACT:UP  17-07-18 15:09 OP:dnl  STATUS:               ID:20170718030744     3
 OLDACT:REG 17-07-18 13:27 OP:dnl  STATUS:               ID:20170718030744     3
 2017-07-18-0308-00M.COL___371                                                 6
 STAT SP IPHASW D HRMM SECON CODA AMPLIT PERI AZIMU VELO AIN AR TRES W  DIS CAZ7
 BAR2 EZ EP        317  3.97                             172   -0.6910 17.9 166 
 BAR2 EZ ES        317 19.44                             172   -0.1010 17.9 166 
 BAR2 EZ I         317 21.72         9.9 0.32            167           17.9 166 
 BRR  HZ EP   2    317  5.91                             153   -0.19 5 67.1 306 
 BRR  HZ I         317 21.93         5.4 0.66            139           67.1 306 
 BRR  HE ES        317 22.58                             153    0.4910 67.1 306 
 RUS  HZ EP   2    317  8.42                             144   -0.21 5 96.0 171 
 RUS  HN ES        317 26.57                             144   -0.0410 96.0 171 
 RUS  HZ I         317 27.77         5.4 0.30            132           96.0 171 
 PTB  HZ EP   2    317 11.10                             133   -0.31 5  138 260 
 PTB  HN ES        317 30.91                             133   -0.63 9  138 260 
 PTB  HZ I         317 34.15         2.5 0.40            121            138 260 
 SPBC HZ EP        317 13.10                             130    0.22 9  154 218 
 SPBC HN ES        317 34.59                             130    0.41 9  154 218 
 SPBC HZ I         317 40.72         6.5 0.34            118            154 218 
 YPLC HZ EP   4    317 16.24                             126    1.19 0  176 148 
 YPLC HE ES        317 38.41                             126    0.38 9  176 148 
 YPLC HZ I         317 41.09         6.0 0.24            112            176 148 
 ZAR  HN ES        317 42.32                             122    0.43 9  199 295 
 NOR  HZ EP   2    317 20.75                             119    0.74 4  225 234 
 NOR  HE ES        317 46.55                             119   -0.31 8  225 234 
 NOR  HZ I         317 53.55         2.5 0.20            108            225 234 
 PTGC HZ EP   4    317 27.14                             111   -1.91 0  307 157 
 PTGC HZ I         317 53.44         3.9 0.36            102            307 157 
 SJC  HZ EP   4    317 38.13                             105   -2.92 0  409 328 
                                                                                
