 2017  718 0734  5.4 L   6.807 -73.171144.8  RSN  6 0.3 1.3LRSN                1
 GAP=235        0.63       3.7     4.1  5.2  0.3736E+01  0.4728E+01 -0.1459E+00E
 Epicentro: LOS SANTOS - SANTANDER                                             3
 ACTION:UPD 17-08-30 15:34 OP:rebc STATUS:               ID:20170718073405 L   I
 OLDACT:REG 17-07-18 13:52 OP:dnl  STATUS:               ID:20170718072739     3
 2017-07-18-0728-00M.COL___368                                                 6
 STAT SP IPHASW D HRMM SECON CODA AMPLIT PERI AZIMU VELO AIN AR TRES W  DIS CAZ7
 BAR2 EZ EP        734 24.82                             170   -0.0710 23.8 183 
 BAR2 EZ ES        734 39.98                             170   -0.1310 23.8 183 
 BAR2 EZ I         734 42.57         4.4 0.28            174           23.8 183 
 BRR  HZ EP        734 26.61                             153    0.3610 68.4 299 
 BRR  HN ES        734 42.77                             153    0.2310 68.4 299 
 BRR  HZ I         734 47.98         2.6 0.16            142           68.4 299 
 RUS  HZ EP   2    734 29.12                             143    0.02 5  102 175 
 RUS  HN ES        734 47.43                             143   -0.1710  102 175 
 RUS  HZ I         734 48.70         2.2 0.38            138            102 175 
 PTB  HZ EP        734 31.71                             132   -0.31 9  145 258 
 PTB  HN ES        734 52.64                             132   -0.17 9  145 258 
 PTB  HZ I         734 54.74         2.1 0.10            123            145 258 
 SPBC HZ EP   2    734 33.97                             129    0.29 5  162 218 
 SPBC HN ES        734 56.11                             129    0.34 9  162 218 
 SPBC HZ I         735  2.78         4.3 0.30            121            162 218 
 ZAR  HZ EP   3    734 37.61                             123    0.16 2  201 292 
 ZAR  HZ I         734 59.99         2.1 0.26            112            201 292 
 ZAR  HN ES   2    735  1.60                             123   -0.87 4  201 292 
                                                                                
