 2013  918 0318  2.5 L   6.800 -73.138149.3  RSN 10 0.5 2.3LRSN                1
 GAP=138        1.23       3.6     5.3  7.3 -0.9634E+00  0.9476E+01 -0.9589E+00E
 Epicentro: LOS SANTOS - SANTANDER                                             3
 ACTION:UPD 13-10-22 09:23 OP:ep   STATUS:               ID:20130918031802 L   I
 OLDACT:REG 13-09-18 07:34 OP:carl STATUS:               ID:20130918030959     3
 2013-09-18-0309-59M.COL___269                                                 6
 STAT SP IPHASW D HRMM SECON CODA AMPLIT PERI AZIMU VELO AIN AR TRES W  DIS CAZ7
 BAR2 SZ EP        318 22.71                             171    0.1210 23.5 192 
 BAR2 SZ ES        318 38.54                             171    0.3010 23.5 192 
 BAR2 SZ I         318 39.13        19.0 0.18            170           23.5 192 
 BRR  HZ EP        318 24.52                             153    0.4110 72.0 298 
 BRR  HE ES        318 41.58                             153    0.6410 72.0 298 
 BRR  HZ I         318 42.28        30.0 0.10            150           72.0 298 
 PAM  SZ EP        318 25.59                             152    0.4910 76.8  39 
 PAM  SN ES        318 42.51                             152   -0.1910 76.8  39 
 PAM  SZ I         318 44.63        27.5 0.46            154           76.8  39 
 RUS  HZ EP        318 26.70                             145    0.0710  100 177 
 RUS  HN ES        318 44.99                             145   -0.4310  100 177 
 RUS  HZ I         318 46.58        13.9 0.30            147            100 177 
 PTB  HZ EP        318 29.46                             133   -0.41 9  149 259 
 PTB  HN ES        318 50.61                             133   -0.58 9  149 259 
 PTB  HZ I         318 56.57        15.3 0.18            131            149 259 
 OCA  HN ES        318 52.77                             130   -0.68 9  160 353 
 OCA  HN I         318 55.31        71.4 0.20            131            160 353 
 SPBC HZ EP        318 31.81                             130    0.45 9  164 219 
 SPBC HN ES        318 53.83                             130   -0.01 9  164 219 
 SPBC HZ I         319  0.06        22.9 0.40            130            164 219 
 ZAR  HZ EP        318 36.14                             123    0.84 9  205 292 
 ZAR  HE ES        319  1.17                             123    0.31 9  205 292 
 ZAR  HZ I         319  6.53        22.2 0.48            122            205 292 
 SML  HZ EP        318 38.91                             118   -0.49 8  244 335 
 SML  HN ES   1    319  6.98                             118   -1.18 6  244 335 
 SML  HZ I         319 16.59        26.0 0.10            118            244 335 
 CHI  HN ES        319  9.31                             118   -0.72 8  249 195 
                                                                                
