 2010 1018 0202 59.4 L   6.079 -74.177 18.0  RSN  5 0.4 1.2LRSN                1
 GAP=110        0.81       4.3     4.3  8.2 -0.9148E+00 -0.1795E+02 -0.1411E+02E
 Epicentro: CIMITARRA - SANTANDER                                              3
 ACTION:UP  11-02-18 11:10 OP:tino STATUS:               ID:20101018020259 L   I
 2010-10-18-0159-46S.COL___126                                                 6
 STAT SP IPHASW D HRMM SECON CODA AMPLIT PERI AZIMU VELO SNR AR TRES W  DIS CAZ7
 NOR  SZ EP        2 3 14.95                             100     0.310   96 234 
 RUS  HZ EP   1    2 3 18.98                              56    -0.3 7  123 100 
 RUS  HN ES   2    2 3 34.55                              56    -0.2 5  123 100 
 RUS  HZ I         2 3 38.23         2.7 0.25                           123 100 
 BRR  HZ EP   1    2 3 18.80                              56    -0.2 7  125  24 
 BRR  HE ES   1    2 3 34.73                              56     0.4 7  125  24 
 BRR  HZ I         2 3 36.21         9.3 0.08                           125  24 
 HEL  HZ EP   2    2 3 21.68                              56    -1.0 5  150 275 
 HEL  HN ES   2    2 3 40.48                              56    -0.3 5  150 275 
 HEL  HZ I         2 3 42.19         4.2 0.15                           150 275 
 CHI  HN ES   2    2 3 45.16                              56     0.4 5  168 163 
 CHI  HZ I         2 3 46.23         2.0 0.49                           168 163 
                                                                                
