 2014  918 0330 17.6 L   6.728 -73.212150.0  RSN  4 0.2 1.4LRSN                1
 GAP=220        0.60       5.0     4.9  5.0  0.1274E+02  0.4952E+01  0.2579E+01E
 Epicentro: VILLANUEVA - SANTANDER                                             3
 ACTION:UPD 14-10-03 23:06 OP:nd   STATUS:               ID:20140918033017 L   I
 OLDACT:REG 14-09-18 13:25 OP:carl STATUS:               ID:20140918032819     3
 2014-09-18-0328-19M.COL___287                                                 6
 STAT SP IPHASW D HRMM SECON CODA AMPLIT PERI AZIMU VELO AIN AR TRES W  DIS CAZ7
 BAR2 SZ ES        330 52.93                             174   -0.3210 15.4 168 
 BAR2 SZ I         330 53.87        10.5 0.44            179           15.4 168 
 BRR  HZ EP        330 38.97                             154   -0.1710 69.3 307 
 BRR  HN ES        330 56.26                             154    0.3410 69.3 307 
 BRR  HZ I         331  5.48         4.3 0.48            152           69.3 307 
 RUS  HZ EP        330 41.52                             147    0.2110 93.5 171 
 RUS  HN ES        330 59.87                             147    0.0910 93.5 171 
 RUS  HZ I         331  0.45         2.1 0.52            155           93.5 171 
 PTB  HZ EP        330 44.08                             135   -0.11 9  139 261 
 PTB  HN ES        331  4.84                             135   -0.06 9  139 261 
 PTB  HZ I         331  6.86         3.5 0.44            137            139 261 
                                                                                
