 2011  118 0745  7.8 L   6.804 -73.215140.4  RSN  4 0.2 1.8LRSN                1
 GAP=184        0.60       3.0    14.6  7.7 -0.7770E+01  0.1906E+02 -0.6928E+01E
 Epicentro: ZAPATOCA - SANTANDER                                               3
 ACTION:UP  11-02-08 08:41 OP:pat  STATUS:               ID:20110118074507 L   I
 2011-01-18-0740-09S.COL___134                                                 6
 STAT SP IPHASW D HRMM SECON CODA AMPLIT PERI AZIMU VELO SNR AR TRES W  DIS CAZ7
 BAR2 SZ EP        745 27.11                             170     0.310   24 172 
 BAR2 SZ ES   2    745 41.71                             170     0.1 5   24 172 
 BAR2 SZ I         745 42.99        26.3 0.26                            24 172 
 RUS  HZ EP   1    745 30.83                             142    -0.3 7  102 172 
 RUS  HE ES   1    745 49.05                             142    -0.2 7  102 172 
 RUS  HZ I         745 50.68         5.2 0.24                           102 172 
 GRA  SZ IP        745 32.86                             135     0.110  128  21 
 GRA  SZ ES   1    745 52.05                             135    -0.1 7  128  21 
 OCA  SZ EP   1    745 35.31                             128    -0.2 7  159 356 
 OCA  SZ ES   1    745 57.10                             128    -0.1 7  159 356 
 OCA  SZ I         745 58.80         7.9 0.58                           159 356 
                                                                                
