 2013  218 0923 26.6 L   6.792 -73.165147.7  RSN  8 0.4 1.4LRSN                1
 GAP=134        0.83       3.7     4.8  7.3  0.2332E+01  0.6493E+01  0.1328E+01E
 Epicentro: LOS SANTOS - SANTANDER                                             3
 ACTION:UPD 13-03-12 09:34 OP:ep   STATUS:               ID:20130218092326 L   I
 2013-02-18-0920-00M.COL___240                                                 6
 STAT SP IPHASW D HRMM SECON CODA AMPLIT PERI AZIMU VELO AIN AR TRES W  DIS CAZ7
 BAR2 SZ EP   1    923 46.45                             171    0.01 7 22.2 185 
 BRR  HZ EP   1    923 48.30                             153    0.43 7 69.7 300 
 BRR  HN ES   1    924  5.11                             153    0.64 7 69.7 300 
 BRR  HZ I         924 10.78         5.7 0.42            153           69.7 300 
 PAM  SZ EP   1    923 49.27                             150    0.13 7 79.4  40 
 PAM  SE ES   1    924  6.46                             150   -0.26 7 79.4  40 
 PAM  SZ I         924  8.22         6.5 0.52            157           79.4  40 
 RUS  HZ EP   1    923 50.98                             144    0.49 7 99.9 175 
 RUS  HN ES   1    924  8.78                             144   -0.35 7 99.9 175 
 RUS  HZ I         924 11.06         2.6 0.34            147           99.9 175 
 PTB  HZ EP   1    923 53.31                             133   -0.21 7  145 259 
 PTB  HN ES   1    924 14.03                             133   -0.49 7  145 259 
 PTB  HZ I         924 16.84         2.4 0.12            134            145 259 
 ZAR  HZ EP   1    923 59.07                             123    0.07 6  202 293 
 ZAR  HN ES   1    924 24.66                             123    0.39 6  202 293 
 ZAR  HZ I         924 30.26         2.9 0.24            125            202 293 
 SML  HZ EP   1    924  2.70                             118   -0.62 6  244 336 
 SML  HN ES   1    924 31.31                             118   -0.65 6  244 336 
 CHI  HZ EP   1    924  4.88                             118    0.63 6  247 195 
 CHI  HE ES   1    924 32.97                             118   -0.66 6  247 195 
 CHI  HZ I         924 40.76         1.1 0.34            120            247 195 
                                                                                
