 2013  518 0702 51.1 L   6.782 -73.150153.3  RSN 12 0.4 1.9LRSN                1
 GAP=137        0.87       3.2     4.0  5.2 -0.1032E+01  0.6058E+01  0.1814E+01E
 Epicentro: LOS SANTOS - SANTANDER                                             3
 ACTION:UPD 13-06-20 09:51 OP:ep   STATUS:               ID:20130518070251 L   I
 2013-05-18-0700-00M.COL___256                                                 6
 STAT SP IPHASW D HRMM SECON CODA AMPLIT PERI AZIMU VELO AIN AR TRES W  DIS CAZ7
 BAR2 SZ EP        7 3 11.61                             172    0.0210 21.3 190 
 BAR2 SZ ES   1    7 3 27.35                             172   -0.24 7 21.3 190 
 BAR2 SZ I         7 3 28.51        16.3 0.36            170           21.3 190 
 GIR2 SZ EP        7 3 11.65                             167   -0.0610 33.2 352 
 GIR2 SZ ES        7 3 28.20                             167    0.4010 33.2 352 
 BRR  HZ EP     C  7 3 13.45                             154    0.3610 71.8 300 
 BRR  HE ES        7 3 30.67                             154    0.4210 71.8 300 
 BRR  HZ I         7 3 34.47         9.7 0.10            150           71.8 300 
 PAM  SZ EP        7 3 14.38                             152    0.1610 79.2  39 
 PAM  SN ES        7 3 31.78                             152   -0.4810 79.2  39 
 PAM  SZ I         7 3 34.14         9.7 0.64            154           79.2  39 
 RUS  HZ EP        7 3 15.80                             146    0.3410 98.6 176 
 RUS  HN ES        7 3 34.26                             146   -0.2110 98.6 176 
 RUS  HZ I         7 3 35.47         7.8 0.24            147           98.6 176 
 PTB  HZ EP        7 3 18.22                             134   -0.39 9  147 260 
 PTB  HN ES   1    7 3 39.65                             134   -0.43 7  147 260 
 PTB  HZ I         7 3 41.72         8.8 0.10            132            147 260 
 OCA  HN ES   1    7 3 42.35                             131   -0.51 7  162 353 
 OCA  HZ I         7 3 47.57         9.8 0.26            131            162 353 
 ZAR  HN ES   1    7 3 49.81                             124    0.01 6  204 293 
 ZAR  HZ I         7 3 56.67        14.9 0.30            123            204 293 
 NOR  HN ES   1    7 3 54.80                             120   -0.40 6  233 235 
 NOR  HZ I         7 4  0.11         4.7 0.18            119            233 235 
 SML  HZ EP   1    7 3 27.73                             119   -0.59 6  245 336 
 SML  HE ES   1    7 3 58.10                             119    0.74 6  245 336 
 HEL  HZ EP   1    7 3 30.84                             116   -0.76 6  271 256 
 HEL  HN ES   2    7 4  3.20                             116    0.01 4  271 256 
 HEL  HZ I         7 4 10.07         4.0 0.28            116            271 256 
 PRA  HZ EP   1    7 3 45.73                             108    1.07 4  390 210 
 PRA  HE ES   1    7 4 27.01                             108    0.57 4  390 210 
 PRA  HZ I         7 4 35.07         2.2 0.38            108            390 210 
                                                                                
