 2011 1218 0605 47.9 L   6.835 -73.288122.9  RSN  4 0.2 1.8LRSN                1
 GAP=135        0.40       3.8     7.3  4.4  0.1736E+02  0.3632E+01  0.4248E+00E
 Epicentro: ZAPATOCA - SANTANDER                                               3
 ACTION:UPD 12-07-13 16:16 OP:ep   STATUS:               ID:20111218060547 L   I
 2011-12-18-0600-00M.COL___188                                                 6
 STAT SP IPHASW D HRMM SECON CODA AMPLIT PERI AZIMU VELO AIN AR TRES W  DIS CAZ7
 GIR2 SZ EP        6 6  4.86                             166    0.0210 28.9  21 
 GIR2 SZ ES   2    6 6 17.86                             166   -0.16 5 28.9  21 
 BAR2 SZ EP        6 6  5.17                             166    0.1710 29.3 156 
 BAR2 SZ ES   1    6 6 18.24                             166   -0.06 7 29.3 156 
 BAR2 SZ I         6 6 19.44        23.7 0.20                          29.3 156 
 BRR  HZ EP        6 6  5.56                             154   -0.2010 55.7 303 
 BRR  HZ I         6 6  5.81        10.3 0.15                          55.7 303 
 BRR  HN ES   2    6 6 19.95                             154    0.30 5 55.7 303 
 RUS  HZ EP   1    6 6 10.13                             136    0.10 7  107 168 
 RUS  HE ES   1    6 6 27.15                             136   -0.10 7  107 168 
                                                                                
