 2012 1118 0937  2.0 L   6.799 -73.141152.1  RSN 10 0.4 1.8LRSN                1
 GAP=137        0.84       3.3     4.9  5.8  0.1341E+01  0.7244E+01  0.1098E+01E
 Epicentro: LOS SANTOS - SANTANDER                                             3
 ACTION:UPD 12-12-05 15:34 OP:}ep  STATUS:               ID:20121118093702 L   I
 2012-11-18-0930-00M.COL___234                                                 6
 STAT SP IPHASW D HRMM SECON CODA AMPLIT PERI AZIMU VELO AIN AR TRES W  DIS CAZ7
 BAR2 SZ EP   1    937 22.58                             171    0.20 7 23.3 191 
 BAR2 SZ ES   1    937 37.83                             171   -0.46 7 23.3 191 
 BAR2 SZ I         937 39.47        24.1 0.42                          23.3 191 
 GIR2 SZ EP   1    937 22.20                             168   -0.22 7 31.5 349 
 GIR2 SZ ES   1    937 37.97                             168   -0.39 7 31.5 349 
 BRR  HZ EP     C  937 24.41                             153    0.5510 71.8 298 
 BRR  HN ES   1    937 41.77                             153    0.86 7 71.8 298 
 BRR  HZ I         937 44.36         8.9 0.16                          71.8 298 
 PAM  SZ EP   1    937 25.45                             152    0.58 7 77.1  39 
 PAM  SN ES   1    937 42.77                             152    0.06 7 77.1  39 
 PAM  SZ I         937 44.70         7.5 0.32                          77.1  39 
 RUS  HZ EP   1    937 26.45                             145    0.10 7  100 176 
 RUS  HN ES   1    937 45.15                             145   -0.21 7  100 176 
 RUS  HZ I         937 46.91         6.2 0.40                           100 176 
 PTB  HZ EP   1    937 29.17                             133   -0.36 7  148 259 
 PTB  HN ES   1    937 50.64                             133   -0.37 7  148 259 
 PTB  HZ I         937 52.34        10.5 0.27                           148 259 
 OCA  HN ES   1    937 52.74                             131   -0.57 7  160 353 
 ZAR  HZ EP   1    937 34.40                             124   -0.51 6  205 292 
 ZAR  HE ES   1    938  0.95                             124    0.36 6  205 292 
 ZAR  HZ I         938  7.56         9.4 0.28                           205 292 
 SML  HZ EP   1    937 38.89                             119   -0.13 6  244 335 
 SML  HN ES   1    938  7.66                             119   -0.24 6  244 335 
 CHI  HZ EP   1    937 39.66                             118   -0.39 6  249 195 
 CHI  HN ES   1    938 10.03                             118    0.30 6  249 195 
 CHI  HZ I         938 19.50         2.6 0.34                           249 195 
 MON  HZ EP   4    937 49.66                             110   -1.64 0  354 308 
 MON  HN ES   4    938 27.65                             110   -2.12 0  354 308 
                                                                                
