 2011 1118 0620  6.7 L   6.780 -73.085149.0  RSN 15 0.3 2.7LRSN                1
 GAP=120        0.48       2.0     2.9  3.9 -0.7599E+00  0.1990E+01  0.9749E+00E
 Epicentro: LOS SANTOS - SANTANDER                                             3
 ACTION:UPD 12-07-13 16:10 OP:ep   STATUS:               ID:20111118062006 L   I
 2011-11-18-0618-33S.COL___179                                                 6
 STAT SP IPHASW D HRMM SECON CODA AMPLIT PERI AZIMU VELO AIN AR TRES W  DIS CAZ7
 BAR2 SZ IP        620 26.57                             171   -0.1110 23.3 207 
 BAR2 SZ ES   2    620 41.90                             171   -0.40 5 23.3 207 
 BAR2 SZ I         620 42.76       127.0 0.24                          23.3 207 
 PAM  SZ IP        620 29.56                             152    0.4710 75.2  35 
 PAM  SN ES   2    620 46.65                             152    0.06 5 75.2  35 
 BRR  HZ EP        620 28.59                             151    0.0310 78.1 298 
 BRR  HE ES   1    620 45.88                             151    0.24 7 78.1 298 
 BRR  HZ I         620 47.62       139.7 0.23                          78.1 298 
 RUS  HZ EP   1    620 30.37                             145   -0.19 7 98.1 180 
 RUS  HN ES   2    620 48.64                             145   -0.55 5 98.1 180 
 RUS  HZ I         620 50.00        41.3 0.22                          98.1 180 
 OCA  SZ EP   1    620 35.59                             130    0.07 7  163 351 
 OCA  SZ ES   2    620 57.76                             130   -0.27 5  163 351 
 OCA  SZ I         621  3.05        55.6 0.27                           163 351 
 YOP  SN ES   2    621  0.00                             128    0.30 4  174 155 
 ZAR  HZ EP   2    620 39.52                             122   -0.52 4  211 292 
 ZAR  HE ES   2    621  6.01                             122   -0.07 4  211 292 
 ZAR  HZ I         621 11.90        60.1 0.17                           211 292 
 NOR  SZ EP   2    620 42.45                             119   -0.58 4  239 236 
 NOR  SN ES   2    621 11.44                             119    0.05 4  239 236 
 CHI  HZ EP   1    620 44.42                             118   -0.08 6  248 197 
 CHI  HN ES   2    621 13.54                             118   -0.48 4  248 197 
 CHI  HZ I         621 20.49        16.3 0.22                           248 197 
 HEL  HZ EP   2    620 48.04                             115    0.35 4  278 257 
 HEL  HN ES   2    621 19.64                             115   -0.06 4  278 257 
 HEL  HZ I         621 25.52        26.1 0.27                           278 257 
 VIL  SZ EP   2    620 50.18                             113    0.04 4  303 193 
 VIL  SE ES   2    621 24.26                             113    0.21 4  303 193 
 VIL  SZ I         621 36.11        16.9 0.29                           303 193 
 GUY  SZ EP   2    620 51.71                             112    0.55 4  308 236 
 GUY  SN ES   2    621 26.18                             112    0.32 4  308 236 
 GUY  SZ I         621 34.32        56.4 0.38                           308 236 
 RREF HZ EP   2    620 53.80                             111    0.44 3  325 230 
 RREF HN ES   2    621 30.15                             111    0.37 3  325 230 
 RREF HZ I         621 36.00        35.0 0.24                           325 230 
 COD  HZ EP   1    620 54.82                             109   -0.68 5  351 354 
 COD  HN ES   2    621 33.10                             109   -0.50 3  351 354 
 COD  HZ I         621 43.93        25.9 0.62                           351 354 
 PRA  HZ EP   2    621  0.17                             107   -0.28 3  393 211 
 PRA  HN ES   2    621 42.69                             107    0.28 3  393 211 
                                                                                
