 2015  218 0449 26.2 L   6.813 -73.170132.0  RSN  5 0.4 1.3LRSN                1
 GAP=133        1.02       4.7     4.6 10.3 -0.3611E+01  0.1497E+02  0.3474E+01E
 Epicentro: LOS SANTOS - SANTANDER                                             3
 ACTION:UPD 15-04-30 21:27 OP:nd   STATUS:               ID:20150218044926 L   I
 OLDACT:UP  15-02-18 17:58 OP:mh   STATUS:               ID:20150218044737     3
 OLDACT:REG 15-02-18 12:16 OP:mh   STATUS:               ID:20150218044737     3
 2015-02-18-0447-37M.COL___299                                                 6
 STAT SP IPHASW D HRMM SECON CODA AMPLIT PERI AZIMU VELO AIN AR TRES W  DIS CAZ7
 PAM  SZ EP        449 47.38                             148    0.3810 78.0  42 
 PAM  SN ES        450  3.32                             148    0.0910 78.0  42 
 PAM  SZ I         450  5.18         3.2 0.18            157           78.0  42 
 RUS  HZ EP        449 48.14                             141   -0.6110  102 175 
 RUS  HN ES   1    450  6.03                             141   -0.31 7  102 175 
 RUS  HZ I         450  7.63         2.4 0.28            144            102 175 
 PTB  HZ EP   1    449 51.57                             129   -0.29 7  145 258 
 PTB  HN ES        450 11.86                             129   -0.02 9  145 258 
 PTB  HZ I         450 18.36         3.2 0.40            132            145 258 
 SPBC HZ EP        449 53.52                             126   -0.11 9  163 218 
 SPBC HN ES        450 15.83                             126    0.81 9  163 218 
 SPBC HZ I         450 23.90         3.2 0.42            129            163 218 
 ZAR  HZ EP   1    449 58.02                             120    0.56 6  201 292 
 ZAR  HN ES        450 21.40                             120   -0.45 9  201 292 
 ZAR  HZ I         450 26.13         2.5 0.22            123            201 292 
                                                                                
