 2012  718 0156 23.6 L   6.750 -73.118147.2  RSN  5 0.2 1.6LRSN                1
 GAP=237        0.49       5.3     5.2  5.4  0.1607E+02  0.3877E+01  0.3050E+00E
 Epicentro: LOS SANTOS - SANTANDER                                             3
 ACTION:UPD 12-08-14 11:45 OP:ep   STATUS:               ID:20120718015623 L   I
 2012-07-18-0150-00M.COL___197                                                 6
 STAT SP IPHASW D HRMM SECON CODA AMPLIT PERI AZIMU VELO AIN AR TRES W  DIS CAZ7
 BAR2 SZ EP   2    156 43.18                             172    -0.2 5   19 202 
 BAR2 SZ ES   1    156 58.54                             172    -0.2 7   19 202 
 BAR2 SZ I         156 59.87        12.7 0.25            175             19 202 
 BRR  HZ EP   1    156 45.24                             151     0.0 7   77 301 
 BRR  HN ES   1    157  2.41                             151     0.3 7   77 301 
 BRR  HZ I         157  6.59         9.0 0.24            152             77 301 
 RUS  HZ EP   1    156 47.04                             146    -0.1 7   95 178 
 RUS  HN ES   1    157  5.61                             146     0.1 7   95 178 
 RUS  HZ I         157  7.59         3.8 0.26            150             95 178 
 PTB  HZ EP   1    156 51.21                             132     0.3 7  150 261 
 PTB  HN ES   1    157 12.08                             132    -0.1 7  150 261 
 ZAR  HN ES   2    157 22.01                             122    -0.5 4  209 293 
