 2011  918 0226  9.0 L   5.869 -73.633124.8  RSN  6 0.3 1.8LRSN                1
 GAP=169        0.42       3.4     2.7  5.1 -0.4392E+01  0.5590E+01 -0.5872E+01E
 Epicentro: PUENTE NACIONAL - SANTANDER                                        3
 ACTION:UPD 12-07-13 15:58 OP:ep   STATUS:               ID:20110918022609 L   I
 2011-09-18-0220-00M.COL___173                                                 6
 STAT SP IPHASW D HRMM SECON CODA AMPLIT PERI AZIMU VELO AIN AR TRES W  DIS CAZ7
 RUS  HZ EP        226 28.00                             153   -0.0510 60.9  87 
 RUS  HN ES   1    226 42.77                             153   -0.11 7 60.9  87 
 BAR2 SZ EP        226 30.02                             141    0.0910 94.3  32 
 BAR2 SZ ES   2    226 46.08                             141   -0.16 5 94.3  32 
 BAR2 SZ I         226 47.73        13.6 0.40                          94.3  32 
 BRR  HZ EP        226 33.26                             129   -0.08 9  137 356 
 BRR  HN ES   2    226 52.71                             129    0.41 5  137 356 
 BRR  HZ I         226 56.78         7.4 0.12                           137 356 
 NOR  SZ EP        226 33.68                             128   -0.09 9  141 256 
 NOR  SE ES   1    226 53.27                             128    0.20 7  141 256 
 GIR2 SZ EP        226 34.10                             128    0.08 9  142  20 
 ZAR  HE ES   3    227  7.26                             115   -1.33 2  225 323 
                                                                                
