 2012  918 0623 45.9 L   6.757 -73.149149.6  RSN  7 0.3 1.6LRSN                1
 GAP=138        0.70       4.2     4.2  6.8  0.2565E+01  0.2193E+01 -0.4841E+01E
 Epicentro: LOS SANTOS - SANTANDER                                             3
 ACTION:UPD 12-10-22 14:19 OP:ep   STATUS:               ID:20120918062345 L   I
 2012-09-18-0620-00M.COL___227                                                 6
 STAT SP IPHASW D HRMM SECON CODA AMPLIT PERI AZIMU VELO AIN AR TRES W  DIS CAZ7
 BAR2 SZ EP        624  5.80                             173   -0.0810 18.6 191 
 BAR2 SZ ES   1    624 21.50                             173    0.02 7 18.6 191 
 BAR2 SZ I         624 23.78         9.5 0.36                          18.6 191 
 GIR2 SZ EP   1    624  5.92                             166   -0.21 7 35.9 352 
 BRR  HZ EP        624  7.65                             152    0.1010 73.3 302 
 BRR  HZ I         624  7.96        11.4 0.30                          73.3 302 
 BRR  HN ES   1    624 25.14                             152    0.68 7 73.3 302 
 PAM  SZ EP   1    624  8.59                             150   -0.14 7 81.3  38 
 PAM  SZ I         624  8.82        10.3 0.20                          81.3  38 
 PAM  SN ES   1    624 26.35                             150   -0.20 7 81.3  38 
 RUS  HZ EP   1    624 10.30                             146    0.63 7 95.9 176 
 RUS  HN ES        624 28.08                             146   -0.1610 95.9 176 
 RUS  HZ I         624 29.56         2.8 0.24                          95.9 176 
 PTB  HN ES   1    624 33.78                             133   -0.46 7  147 261 
 ZAR  HN ES   1    624 44.18                             123   -0.17 6  206 293 
                                                                                
