 2017  618 0456 39.8 L   6.777 -73.151148.0  RSN 11 0.5 2.2LRSN                1
 GAP=210        1.00       4.3     4.8  6.9  0.7052E+01 -0.6238E+01  0.2520E+01E
 Epicentro: LOS SANTOS - SANTANDER                                             3
 ACTION:UPD 17-09-14 16:52 OP:jn   STATUS:               ID:20170618045639 L   I
 OLDACT:UP  17-06-18 18:11 OP:cog  STATUS:               ID:20170618044736     3
 OLDACT:REG 17-06-18 12:59 OP:cog  STATUS:               ID:20170618044736     3
 2017-06-18-0448-00M.COL___341                                                 6
 STAT SP IPHASW D HRMM SECON CODA AMPLIT PERI AZIMU VELO AIN AR TRES W  DIS CAZ7
 BRR  HZ EP        457  1.10                             153   -0.1710 71.9 301 
 BRR  HN ES        457 18.32                             153    0.3310 71.9 301 
 BRR  HZ I         457 23.02        42.3 0.12            149           71.9 301 
 PTB  HZ EP   9    457  6.24                             133   -0.65 0  147 260 
 PTB  HE ES        457 27.37                             132    0.03 9  147 260 
 PTB  HZ I         457 30.58        17.6 0.12            130            147 260 
 SPBC HZ EP        457  7.94                             130   -0.35 9  161 219 
 SPBC HE ES        457 30.28                             130   -0.19 9  161 219 
 SPBC HZ I         457 34.06        39.8 0.42            128            161 219 
 YPLC HZ EP        457  9.24                             128   -0.37 9  175 151 
 YPLC HN ES        457 32.92                             128    0.10 9  175 151 
 YPLC HZ I         457 34.14        13.4 0.24            129            175 151 
 ZAR  HZ EP        457 12.60                             123    0.13 9  204 293 
 ZAR  HN ES        457 37.89                             123   -0.04 9  204 293 
 ZAR  HZ I         457 42.09        18.4 0.12            122            204 293 
 TABC EZ EP        457 16.59                             120    1.14 8  227 211 
 NOR  HZ EP        457 15.17                             119   -0.32 8  233 235 
 NOR  HN ES        457 42.55                             119   -0.74 8  233 235 
 NOR  HZ I         457 47.93        14.0 0.14            118            233 235 
 CHI  HZ EP        457 17.10                             118   -0.28 8  246 195 
 CHI  HN ES        457 47.27                             118    0.62 8  246 195 
 CHI  HZ I         457 51.97         4.2 0.28            118            246 195 
 HEL  HZ EP   9    457 21.23                             116    1.20 0  271 256 
 HEL  HN ES        457 53.03                             115    0.45 8  271 256 
 HEL  HZ I         457 57.66        10.3 0.34            115            271 256 
 URE  HZ EP   4    457 23.23                             114    2.17 0  284 292 
 URE  HN ES   4    457 51.74                             114   -1.48 0  284 292 
 URE  HZ I         457 53.37        16.3 0.12            114            284 292 
 CBOC HZ EP        457 27.05                             111    0.36 7  332 252 
 CBOC HE ES   4    458  1.58                             111   -1.65 0  332 252 
 CBOC HZ I         458 21.47         3.3 0.36            110            332 252 
                                                                                
