 2012  218 0601 34.6 L   6.768 -73.149146.6  RSN  6 0.3 1.4LRSN                1
 GAP=138        0.54       5.0     5.2  6.4 -0.2881E+01  0.1008E+01  0.3336E+01E
 ACTION:UP  12-03-07 16:31 OP:epov STATUS:               ID:20120218060134 L   I
 2012-02-18-0600-00M.COL___188                                                 6
 STAT SP IPHASW D HRMM SECON CODA AMPLIT PERI AZIMU VELO AIN AR TRES W  DIS CAZ7
 BAR2 SZ ES   2    6 2  9.44                             172   -0.19 5 19.8 191 
 BAR2 SZ I         6 2 11.75         5.6 0.40                          19.8 191 
 GIR2 SZ EP   2    6 1 54.39                             166   -0.10 5 34.7 352 
 GIR2 SZ ES   2    6 2  9.82                             166   -0.17 5 34.7 352 
 BRR  HZ EP   1    6 1 56.22                             152    0.28 7 72.6 301 
 BRR  HN ES   2    6 2 13.30                             152    0.73 5 72.6 301 
 BRR  HZ I         6 2 15.53         5.3 0.24                          72.6 301 
 PAM  SZ EP   1    6 1 57.09                             150   -0.02 7 80.4  38 
 PAM  SN ES   2    6 2 14.24                             150   -0.41 5 80.4  38 
 RUS  HZ EP   1    6 1 58.37                             145    0.16 7 97.1 176 
 RUS  HN ES   2    6 2 16.71                             145    0.11 5 97.1 176 
 RUS  HZ I         6 2 18.80         4.0 0.26                          97.1 176 
 PTB  HZ EP   2    6 2  0.96                             132   -0.60 5  147 260 
 PTB  HN ES   2    6 2 22.09                             132   -0.49 5  147 260 
                                                                                
