 2012 1218 0923  5.3 L   6.763 -73.136138.6  RSN  6 0.4 1.5LRSN                1
 GAP=139        0.90       4.5     4.3  7.1 -0.2892E+00  0.8356E+01 -0.1555E+01E
 Epicentro: LOS SANTOS - SANTANDER                                             3
 ACTION:UPD 13-01-04 14:28 OP:ep   STATUS:               ID:20121218092305 L   I
 2012-12-18-0920-00M.COL___242                                                 6
 STAT SP IPHASW D HRMM SECON CODA AMPLIT PERI AZIMU VELO AIN AR TRES W  DIS CAZ7
 BAR2 SZ EP        923 24.04                             172    0.0910 19.5 195 
 BAR2 SZ I         923 24.62        11.3 0.11                          19.5 195 
 BAR2 SZ ES   1    923 38.05                             172   -0.48 7 19.5 195 
 BRR  HZ EP        923 26.00                             150    0.1910 74.2 301 
 BRR  HZ I         923 26.30         8.4 0.21                          74.2 301 
 BRR  HN ES   1    923 42.80                             150    0.95 7 74.2 301 
 PAM  SZ EP        923 27.14                             149    0.2610 79.9  37 
 PAM  SN ES        923 43.33                             149   -0.4110 79.9  37 
 PAM  SZ I         923 45.86         3.9 0.20                          79.9  37 
 RUS  HZ EP        923 28.21                             143    0.2110 96.4 177 
 RUS  HN ES        923 45.83                             143    0.0910 96.4 177 
 RUS  HN I         923 48.04         4.8 0.15                          96.4 177 
 PTB  HZ EP        923 31.07                             130   -0.61 9  148 260 
 PTB  HN ES        923 52.16                             130   -0.13 9  148 260 
 PTB  HZ I         923 55.28         3.4 0.28                           148 260 
 ZAR  HZ EP   1    923 37.57                             120    0.05 6  207 293 
 ZAR  HN ES   1    924  2.52                             120   -0.16 6  207 293 
 ZAR  HZ I         924  8.34         3.9 0.49                           207 293 
                                                                                
