 2011 1218 0324  5.3 L   6.787 -73.103139.9  RSN 10 0.2 1.8LRSN                1
 GAP=143        0.35       2.6     3.3  3.8 -0.3313E+01  0.2819E+01  0.2026E+01E
 Epicentro: LOS SANTOS - SANTANDER                                             3
 ACTION:UPD 12-07-13 16:16 OP:ep   STATUS:               ID:20111218032405 L   I
 2011-12-18-0320-00M.COL___187                                                 6
 STAT SP IPHASW D HRMM SECON CODA AMPLIT PERI AZIMU VELO AIN AR TRES W  DIS CAZ7
 BAR2 SZ EP   1    324 24.04                             170   -0.14 7 23.3 202 
 BAR2 SZ ES   2    324 39.03                             170    0.09 5 23.3 202 
 BAR2 SZ I         324 40.54        13.4 0.26                          23.3 202 
 GIR2 SZ EP        324 24.16                             166   -0.1510 33.8 343 
 GIR2 SZ ES   2    324 38.92                             166   -0.24 5 33.8 343 
 PAM  SZ EP   1    324 27.05                             150    0.30 7 75.6  36 
 PAM  SN ES   2    324 43.92                             150    0.42 5 75.6  36 
 BRR  HZ EP   1    324 25.95                             150   -0.12 7 76.0 298 
 BRR  HZ I         324 26.35        19.4 0.16                          76.0 298 
 BRR  HE ES   2    324 42.35                             150    0.06 5 76.0 298 
 RUS  HZ EP   2    324 28.11                             143   -0.21 5 98.9 179 
 RUS  HN ES   2    324 46.21                             143   -0.09 5 98.9 179 
 NOR  SE ES   2    325  8.97                             117    0.11 4  238 235 
 CHI  HZ EP   2    324 42.88                             116    0.25 4  249 196 
 CHI  HN ES   2    325 11.80                             116    0.02 4  249 196 
 CHI  HZ I         325 19.24         2.3 0.32                           249 196 
 HEL  HZ EP   2    324 45.79                             113    0.13 4  276 256 
 HEL  HZ I         325 22.56         3.8 0.39                           276 256 
 GUY  SZ EP   2    324 49.00                             111   -0.22 4  307 236 
 GUY  SN ES   2    325 23.86                             111    0.35 4  307 236 
 GUY  SZ I         325 29.68         4.4 0.43                           307 236 
 RREF HN ES   2    325 27.75                             109    0.25 3  324 230 
 RREF HZ I         325 36.19         2.9 0.35                           324 230 
                                                                                
