 2010  218 0433 47.2 L   6.769 -73.082133.5  RSN  5 0.4 1.1LRSN                1
 GAP=189        0.57       8.0    70.9 12.8  0.3937E+03 -0.6039E+03 -0.3904E+02E
 Epicentro: LOS SANTOS - SANTANDER                                             3
 ACTION:UP  10-08-24 09:49 OP:vdl  STATUS:               ID:20100218043347 L   I
 2010-02-18-0427-55S.COL___094                                                 6
 STAT SP IPHASW D HRMM SECON CODA AMPLIT PERI AZIMU VELO SNR AR TRES W  DIS CAZ7
 BAR2 SZ EP        434  5.60                             169     0.310   23 210 
 BAR2 SZ ES   2    434 18.90                             169    -0.6 5   23 210 
 GIR2 SZ EP        434  5.54                             163     0.010   36 340 
 GIR2 SZ ES   3    434 20.37                             163     0.5 2   36 340 
 RUS  BZ EP        434  9.31                             142    -0.210   97 180 
 RUS  BN ES   3    434 27.84                             142     1.0 2   97 180 
 RUS  BZ I         434 29.73         2.9 0.21                            97 180 
 OCA  SZ EP   3    434 15.45                             125     0.4 2  165 351 
 OCA  SZ ES   3    434 36.03                             125    -0.7 2  165 351 
 CHI  HZ EP   3    434 24.24                             114     0.1 2  247 197 
 CHI  HZ I         434 31.51         0.8 0.92                           247 197 
                                                                                
