 2015  718 0841 26.9 L   6.819 -73.162138.2  RSN  8 0.4 1.6LRSN                1
 GAP=134        0.92       3.2     5.0  6.7 -0.1025E+00  0.1670E+02 -0.4980E+01E
 Epicentro: LOS SANTOS - SANTANDER                                             3
 ACTION:UPD 15-09-08 21:49 OP:cam  STATUS:               ID:20150718084126 L   I
 OLDACT:UP  15-07-18 18:29 OP:mh   STATUS:               ID:20150718083749     3
 OLDACT:REG 15-07-18 14:04 OP:mh   STATUS:               ID:20150718083749     3
 2015-07-18-0837-49M.COL___340                                                 6
 STAT SP IPHASW D HRMM SECON CODA AMPLIT PERI AZIMU VELO AIN AR TRES W  DIS CAZ7
 BAR2 EZ EP   1    841 45.35                             169   -0.27 7 25.2 185 
 BAR2 EZ ES        842  0.19                             169   -0.0710 25.2 185 
 BAR2 EZ I         842  2.09        14.6 0.05            170           25.2 185 
 PAM  EZ EP        841 48.42                             150    0.1710 77.0  42 
 PAM  EN ES        842  5.35                             150    0.4210 77.0  42 
 PAM  EZ I         842  5.97         3.8 0.18            153           77.0  42 
 RUS  HZ EP   1    841 49.78                             141   -0.27 7  103 175 
 RUS  HN ES        842  7.84                             141   -0.2910  103 175 
 RUS  HZ I         842  8.92         2.9 0.26            145            103 175 
 OCA  HZ EP        841 54.86                             128    0.48 9  158 354 
 OCA  HN ES        842 15.88                             128    0.05 9  158 354 
 OCA  HZ I         842 18.27        10.5 0.20            130            158 354 
 ZAR  HZ EP        841 58.49                             121   -0.08 9  202 292 
 ZAR  HN ES        842 23.26                             121   -0.04 9  202 292 
 ZAR  HZ I         842 29.18         3.9 0.38            122            202 292 
 SML  HZ EP        842  1.94                             116   -0.84 8  241 335 
 SML  HN ES        842 30.35                             116   -0.45 8  241 335 
 SML  HZ I         842 33.60         4.4 0.10            118            241 335 
 HEL  HE ES   2    842 38.26                             113    0.73 4  271 255 
 GUY2CHZ EP        842 10.94                             111    0.83 7  301 234 
 GUY2CHE ES   4    842 47.70                             111    3.87 0  301 234 
 GUY2CHZ I         842 51.88         1.8 0.56                           301 234 
                                                                                
