 2013 1218 0256 17.1 L   6.890 -72.867140.2  RSN  4 0.3 1.3LRSN                1
 GAP=224        0.68       9.4    20.3 12.0  0.1757E+03 -0.1925E+03 -0.8949E+02E
 Epicentro: GUACA - SANTANDER                                                  3
 ACTION:UPD 14-01-13 10:18 OP:ep   STATUS:               ID:20131218025617 L   I
 OLDACT:DUP 13-12-18 07:01 OP:jn   STATUS:               ID:20131218025001d    3
 2013-12-18-0250-00M.COL___285                                                 6
 STAT SP IPHASW D HRMM SECON CODA AMPLIT PERI AZIMU VELO AIN AR TRES W  DIS CAZ7
 BAR2 SZ ES   1    256 52.57                             161    0.31 7 47.9 227 
 BAR2 SZ I         256 55.37         8.6 0.30            165           47.9 227 
 BRR  HZ EP   1    256 39.52                             144    0.18 7 96.4 285 
 BRR  HN ES        256 56.70                             144    0.0410 96.4 285 
 BRR  HZ I         256 59.84         4.7 0.52            148           96.4 285 
 RUS  HZ EP        256 41.58                             140    0.3010  113 192 
 RUS  HN ES        256 59.66                             140   -0.4610  113 192 
 RUS  HZ I         257  1.11         1.7 0.38            145            113 192 
 SML  HZ EP   2    256 53.99                             116   -0.11 4  250 328 
 SML  HN ES   1    257 22.52                             116   -0.42 6  250 328 
                                                                                
