 2015 1218 0757  1.9 L   6.799 -73.158141.0  RSN  9 0.4 2.0LRSN                1
 GAP=146        0.92       3.1     4.0  5.2 -0.4258E+01  0.5884E+01 -0.1258E+01E
 Epicentro: LOS SANTOS - SANTANDER                                             3
 ACTION:UPD 16-02-04 15:05 OP:cam  STATUS:               ID:20151218075701 L   I
 OLDACT:REG 15-12-18 13:49 OP:cara STATUS:               ID:20151218074744     3
 2015-12-18-0747-44M.COL___337                                                 6
 STAT SP IPHASW D HRMM SECON CODA AMPLIT PERI AZIMU VELO AIN AR TRES W  DIS CAZ7
 BAR2 EZ IP        757 21.04                             170    0.0510 23.0 187 
 BAR2 EZ ES        757 35.51                             170   -0.3310 23.0 187 
 BAR2 EZ I         757 36.79         8.2 0.18            175           23.0 187 
 BRR  HZ IP     C  757 22.97                             152    0.4610 70.0 299 
 BRR  HN ES        757 38.97                             152    0.4210 70.0 299 
 BRR  HZ I         757 44.58         7.4 0.14            147           70.0 299 
 PAM  EZ IP     D  757 24.08                             150    0.3710 78.4  40 
 PAM  EN ES        757 40.78                             150    0.0910 78.4  40 
 PAM  EZ I         757 43.22        10.7 0.44            146           78.4  40 
 PTB  HZ EP        757 28.25                             131   -0.14 9  146 259 
 PTB  HN ES        757 48.76                             131   -0.26 9  146 259 
 PTB  HZ I         757 51.02         7.1 0.12            130            146 259 
 OCA  HZ EP        757 29.38                             128   -0.50 9  160 354 
 OCA  HZ I         757 45.63        20.6 0.48            125            160 354 
 OCA  HN ES        757 51.29                             128   -0.39 9  160 354 
 SPBC HZ  AMP      749 50.24       728.0 0.10                           162 219 
 SPBC HZ EP        757 30.10                             128    0.12 9  162 219 
 SPBC HN ES        757 51.62                             128   -0.23 9  162 219 
 ZAR  HZ EP        757 34.41                             121    0.46 9  203 292 
 ZAR  HN ES        757 59.29                             121    0.37 9  203 292 
 ZAR  HZ I         758  7.80         7.9 0.48            119            203 292 
 SML  HZ EP        757 37.56                             116   -0.70 8  243 336 
 SML  HE ES        758  6.53                             116   -0.05 8  243 336 
 SML  HZ I         758 12.81         6.6 0.10            114            243 336 
 GUY2CHZ EP        757 45.74                             111    0.55 7  300 235 
 GUY2CHN ES        758 18.37                             111   -0.56 7  300 235 
 GUY2CHZ I         758 28.66         1.8 0.66                           300 235 
                                                                                
