 2011  218 0707 55.8 L   6.761 -73.312140.6  RSN  5 0.2 1.3LRSN                1
 GAP=169        0.49       2.3    11.6  5.4 -0.9149E+01  0.3431E+02 -0.2514E+01E
 Epicentro: ZAPATOCA - SANTANDER                                               3
 ACTION:UP  11-03-28 15:09 OP:jfem STATUS:               ID:20110218070755 L   I
 2011-02-18-0704-23S.COL___137                                                 6
 STAT SP IPHASW D HRMM SECON CODA AMPLIT PERI AZIMU VELO SNR AR TRES W  DIS CAZ7
 BAR2 SZ EP   1    7 8 15.08                             170     0.3 9   23 143 
 BAR2 SZ ES   1    7 8 29.59                             170    -0.1 9   23 143 
 RUS  HZ EP   1    7 8 18.95                             143     0.0 9   99 165 
 RUS  HZ I         7 8 20.12         1.8 0.17                            99 165 
 RUS  HN ES   1    7 8 37.02                             143     0.0 9   99 165 
 GRA  SZ EP   1    7 8 21.83                             133     0.3 9  136  24 
 GRA  SZ ES   1    7 8 41.28                             133    -0.3 9  136  24 
 OCA  SZ EP   1    7 8 23.76                             128    -0.3 9  163 360 
 OCA  SZ ES   1    7 8 46.18                             128     0.1 9  163 360 
 OCA  SZ I         7 8 52.02         4.0 0.49                           163 360 
 CHI  HZ EP        7 8 32.14                             117    -0.210  240 191 
                                                                                
