 2014  718 0424 54.5 L   6.785 -73.201141.7  RSN 10 0.3 1.6LRSN                1
 GAP=198        0.69       3.3     4.6  5.0 -0.4574E+01  0.4649E+01  0.3699E+01E
 Epicentro: ZAPATOCA - SANTANDER                                               3
 ACTION:UPD 15-03-16 20:44 OP:nd   STATUS:               ID:20140718042454 L   I
 OLDACT:REG 14-07-18 12:51 OP:fm   STATUS:               ID:20140718041819     3
 2014-07-18-0418-19M.COL___269                                                 6
 STAT SP IPHASW D HRMM SECON CODA AMPLIT PERI AZIMU VELO AIN AR TRES W  DIS CAZ7
 BAR2 SZ EP        425 13.65                             171    0.0710 21.4 175 
 BAR2 SZ ES   1    425 28.24                             171   -0.24 7 21.4 175 
 BAR2 SZ I         425 30.23         8.1 0.25            168           21.4 175 
 BRR  HZ EP        425 15.27                             153    0.3310 66.8 302 
 BRR  HE ES        425 31.18                             153    0.2810 66.8 302 
 BRR  HZ I         425 33.43         4.2 0.28            148           66.8 302 
 PTB  HZ EP        425 20.23                             132   -0.32 9  141 259 
 PTB  HN ES   1    425 40.11                             132   -0.77 7  141 259 
 PTB  HZ I         425 44.86         3.6 0.12            129            141 259 
 SPBC HZ EP        425 21.98                             129   -0.21 9  158 218 
 SPBC HN ES        425 43.79                             129   -0.01 9  158 218 
 SPBC HZ I         425 46.87         4.2 0.30            128            158 218 
 NOR  HZ EP        425 29.43                             118    0.09 8  229 234 
 NOR  HN ES        425 56.95                             118    0.42 8  229 234 
 NOR  HZ I         426  4.73         3.0 0.18            117            229 234 
 SML  HE ES   1    425 58.76                             117   -0.32 6  243 337 
 SML  HZ I         426  3.10         6.6 0.10            117            243 337 
 HEL  HZ EP   1    425 33.72                             114   -0.07 6  266 256 
 HEL  HE ES   1    426  4.55                             114    0.10 6  266 256 
 HEL  HZ I         426 10.79         1.5 0.42            114            266 256 
 GUY2CHZ EP   1    425 37.76                             112    0.52 5  295 234 
 GUY2CHE ES   1    426 10.46                             112   -0.12 5  295 234 
 GUY2CHZ I         426 22.15         1.6 0.34                           295 234 
 RREF HN ES   1    426 15.54                             110    0.39 5  316 229 
 RREF HZ I         426 24.84         2.1 0.30            110            316 229 
 PRA  HE ES   1    426 27.84                             106   -0.74 4  388 209 
 PRA  HZ I         426 32.66         1.4 0.28            106            388 209 
                                                                                
