 2014 1118 0939 38.9 L   6.766 -73.103145.5  RSN  5 0.3 1.3LRSN                1
 GAP=144        0.67       4.1     4.2  6.0 -0.2200E+01 -0.1789E+01  0.4409E+01E
 Epicentro: LOS SANTOS - SANTANDER                                             3
 ACTION:UPD 14-12-19 15:44 OP:nd   STATUS:               ID:20141118093938 L   I
 OLDACT:REG 14-11-18 13:30 OP:fm   STATUS:               ID:20141118093748     3
 2014-11-18-0937-48M.COL___274                                                 6
 STAT SP IPHASW D HRMM SECON CODA AMPLIT PERI AZIMU VELO AIN AR TRES W  DIS CAZ7
 BAR2 SZ EP        939 58.36                             171   -0.0810 21.1 204 
 BAR2 SZ ES   1    940 13.73                             171    0.04 7 21.1 204 
 BAR2 SZ I         940 14.44         6.0 0.10            171           21.1 204 
 BRR  HZ EP        940  0.27                             150   -0.0810 77.1 299 
 BRR  HE ES        940 17.46                             150    0.3810 77.1 299 
 BRR  HZ I         940 18.51         5.2 0.44            150           77.1 299 
 PAM  SZ EP        940  1.38                             151    0.3010 77.5  35 
 PAM  SN ES        940 18.03                             151   -0.3610 77.5  35 
 PAM  SZ I         940 19.91         2.8 0.28            153           77.5  35 
 RUS  HZ EP        940  2.32                             145   -0.0110 96.6 179 
 RUS  HN ES   1    940 20.73                             145    0.12 7 96.6 179 
 RUS  HZ I         940 21.73         2.1 0.20            146           96.6 179 
 PTB  HN ES   1    940 26.95                             131   -0.53 7  152 261 
 PTB  HZ I         940 30.65         4.3 0.16            131            152 261 
                                                                                
