 2016  918 0214 17.4 L   6.794 -73.100151.5  RSN 17 0.5 2.2LRSN                1
 GAP=123        0.93       2.7     3.5  4.6 -0.2237E+01  0.3430E+01  0.4666E+00E
 Epicentro: LOS SANTOS - SANTANDER                                             3
 ACTION:UPD 17-08-17 21:13 OP:lp   STATUS:               ID:20160918021417 L   I
 OLDACT:UP  16-09-18 18:32 OP:and  STATUS:               ID:20160918020736     3
 OLDACT:UP  16-09-18 18:22 OP:and  STATUS:               ID:20160918020736     3
 OLDACT:UP  16-09-18 18:13 OP:and  STATUS:               ID:20160918020736     3
 OLDACT:UP  16-09-18 17:38 OP:and  STATUS:               ID:20160918020736     3
 OLDACT:UP  16-09-18 17:36 OP:and  STATUS:               ID:20160918020736     3
 OLDACT:REG 16-09-18 12:52 OP:and  STATUS:               ID:20160918020736     3
 2016-09-18-0208-00M.COL___360                                                 6
 STAT SP IPHASW D HRMM SECON CODA AMPLIT PERI AZIMU VELO AIN AR TRES W  DIS CAZ7
 BAR2 EZ IP     D  214 37.69                             171   -0.0910 24.1 202 
 BAR2 EZ ES        214 53.68                             171    0.0410 24.1 202 
 BAR2 EZ I         214 55.67        32.6 0.22            168           24.1 202 
 PAM  EZ EP        214 40.61                             152    0.4910 74.8  36 
 PAM  EN ES        214 57.98                             152    0.1610 74.8  36 
 PAM  EZ I         214 59.92        30.6 0.56            157           74.8  36 
 BRR  HZ IP     C  214 39.58                             152    0.1010 75.9 297 
 BRR  HE ES        214 57.16                             152    0.4910 75.9 297 
 BRR  HZ I         215  0.06        20.8 0.20            151           75.9 297 
 RUS  HZ IP     D  214 41.48                             145   -0.2210 99.7 179 
 RUS  HN ES        215  0.55                             145   -0.0810 99.7 179 
 RUS  HZ I         215  1.90        11.7 0.18            145           99.7 179 
 PTB  HZ EP        214 44.73                             132   -0.58 9  153 259 
 PTB  HN ES        215  6.01                             132   -1.04 9  153 259 
 PTB  HZ I         215 12.99        35.9 0.40            132            153 259 
 OCA  HZ EP        214 45.89                             131   -0.43 9  162 351 
 OCA  HN ES        215  9.08                             131    0.23 9  162 351 
 OCA  HZ I         215 13.61        41.1 0.22            133            162 351 
 SPBC HZ EP        214 46.59                             130   -0.05 9  166 220 
 SPBC HN ES        215  9.25                             130   -0.16 9  166 220 
 SPBC HZ I         215 15.82        25.9 0.26            130            166 220 
 ZAR  HZ EP        214 50.86                             123    0.10 8  209 292 
 ZAR  HN ES        215 16.47                             123   -0.28 8  209 292 
 ZAR  HZ I         215 23.94        19.2 0.32            123            209 292 
 NOR  HZ EP        214 54.13                             119    0.23 8  238 235 
 NOR  HN ES        215 22.05                             119   -0.30 8  238 235 
 NOR  HZ I         215 25.36        10.4 0.18            119            238 235 
 CHI  HZ EP        214 55.94                             118    0.40 8  249 196 
 CHI  HN ES   2    215 26.20                             118    0.93 4  249 196 
 CHI  HZ I         215 32.83         6.4 0.58            119            249 196 
 ROSC BZ EP   9    214 57.55                             118    1.45 0  255 212 
 ROSC BN ES        215 27.85                                    0.14 8  255 212 
 ROSC BZ I         215 35.39        12.9 0.40            118            255 212 
 HEL  HZ EP   2    214 58.84                             115    0.37 4  277 256 
 HEL  HN ES   2    215 30.23                             115   -0.24 4  277 256 
 HEL  HZ I         215 36.33         9.7 0.40            116            277 256 
 GUY2CHZ EP   4    215  3.75                             113    2.01 0  305 235 
 GUY2CHN ES        215 37.09                             113    0.80 7  305 235 
 GUY2CHZ I         215 42.64         9.2 0.34                           305 235 
 PTGC HZ EP   2    215  0.52                             113   -0.77 4  306 159 
 PTGC HN ES   3    215 34.19                             113   -1.31 2  306 159 
 PTGC HZ I         215 38.94         6.6 0.24            114            306 159 
 LL6C HZ EP   2    215  3.11                             111   -0.38 3  326 357 
 LL6C HN ES   2    215 38.94                             111   -0.47 3  326 357 
 CBOC HZ EP        215  6.02                             111    0.90 7  338 252 
 CBOC HN ES   3    215 43.96                             111    1.65 2  338 252 
 CBOC HZ I         215 47.19         3.0 0.21            111            338 252 
 ARGC HN ES   4    215 48.32                             109    1.62 0  362 340 
 SJC  HZ EP   4    215 11.87                             106   -1.71 0  412 326 
 SJC  HN ES   4    215 53.46                             106   -3.90 0  412 326 
 SJC  HZ I         215 57.95         4.2 0.16            108            412 326 
                                                                                
