 2013  218 0235 50.9 L   6.792 -73.141149.3  RSN  6 0.4 1.0LRSN                1
 GAP=137        0.72       4.2     5.2  7.9  0.1312E+01  0.1674E+02 -0.8112E+01E
 Epicentro: LOS SANTOS - SANTANDER                                             3
 ACTION:UPD 13-03-12 09:33 OP:ep   STATUS:               ID:20130218023550 L   I
 2013-02-18-0230-00M.COL___241                                                 6
 STAT SP IPHASW D HRMM SECON CODA AMPLIT PERI AZIMU VELO AIN AR TRES W  DIS CAZ7
 BAR2 SZ ES   1    236 26.30                             171   -0.25 7 22.6 192 
 PAM  SE ES   1    236 31.38                             151    0.25 7 77.7  39 
 PAM  SZ I         236 31.61         1.5 0.14            157           77.7  39 
 RUS  HZ EP   1    236 15.33                             145    0.41 7 99.7 176 
 RUS  HN ES   1    236 33.58                             145   -0.08 7 99.7 176 
 RUS  HZ I         236 36.86         1.2 0.30            145           99.7 176 
 PTB  HZ EP   1    236 17.95                             133   -0.22 7  148 259 
 PTB  HN ES   1    236 39.13                             133   -0.32 7  148 259 
 PTB  HZ I         236 44.97         2.3 0.56            133            148 259 
 ZAR  HE ES   1    236 50.02                             123    0.83 6  205 292 
 SML  HZ EP   1    236 27.49                             118   -0.32 6  245 335 
 SML  HN ES   1    236 56.21                             118   -0.41 6  245 335 
                                                                                
