 2011 1218 0918 15.3 L   6.772 -73.103143.5  RSN  7 0.3 1.7LRSN                1
 GAP=143        0.42       2.6     5.6  4.6  0.1492E+00  0.2918E+01  0.1839E+01E
 Epicentro: LOS SANTOS - SANTANDER                                             3
 ACTION:UPD 12-07-13 16:17 OP:ep   STATUS:               ID:20111218091815 L   I
 2011-12-18-0910-00M.COL___187                                                 6
 STAT SP IPHASW D HRMM SECON CODA AMPLIT PERI AZIMU VELO AIN AR TRES W  DIS CAZ7
 BAR2 SZ EP   1    918 34.64                             171    0.01 7 21.7 204 
 BAR2 SZ I         918 34.79        14.4 0.20                          21.7 204 
 BAR2 SZ ES   2    918 49.59                             171   -0.12 5 21.7 204 
 GIR2 SZ EP   1    918 34.74                             165   -0.09 7 35.4 344 
 GIR2 SZ ES   2    918 49.85                             165   -0.21 5 35.4 344 
 BRR  HZ IP     C  918 36.51                             150   -0.0310 76.8 299 
 BRR  HZ I         918 36.96        15.6 0.12                          76.8 299 
 BRR  HE ES   2    918 53.55                             150    0.44 5 76.8 299 
 PAM  SZ EP   2    918 37.48                             151    0.22 5 77.0  35 
 PAM  SN ES   2    918 54.47                             151    0.09 5 77.0  35 
 RUS  HZ EP   1    918 38.48                             144   -0.12 7 97.3 179 
 RUS  HZ I         918 39.46         3.7 0.11                          97.3 179 
 RUS  HE ES   2    918 57.09                             144    0.32 5 97.3 179 
 OCA  SZ EP   2    918 44.37                             128    0.58 5  164 352 
 OCA  SZ ES   2    919  5.43                             128   -0.58 5  164 352 
 OCA  SZ I         919  8.87         6.1 0.33                           164 352 
 CHI  HZ EP   2    918 52.68                             117   -0.02 4  247 196 
 CHI  HN ES   2    919 21.64                             117   -0.22 4  247 196 
 CHI  HZ I         919 27.87         2.0 0.31                           247 196 
                                                                                
