 2011  418 0233 42.5 L   6.791 -73.147144.3  RSN 14 0.3 2.8LRSN                1
 GAP=114        0.64       2.4     3.5  4.4 -0.2866E+01  0.2066E+01  0.3801E+01E
 Epicentro: LOS SANTOS - SANTANDER                                             3
 ACTION:UP  11-06-22 15:31 OP:REBC STATUS:               ID:20110418023342 L   I
 2011-04-18-0231-03S.COL___140                                                 6
 STAT SP IPHASW D HRMM SECON CODA AMPLIT PERI AZIMU VELO SNR AR TRES W  DIS CAZ7
 BAR2 SZ IP        234  1.92                             171     0.010   22 190 
 BAR2 SZ ES   1    234 16.61                             171    -0.4 7   22 190 
 BAR2 SZ I         234 18.60       199.5 0.19                            22 190 
 BRR  HZ EP   1    234  3.56                             152     0.1 7   72 299 
 BRR  HZ I         234  3.97       145.9 0.19                            72 299 
 BRR  HN ES   1    234 20.31                             152     0.4 7   72 299 
 PAM  SZ EP   1    234  4.68                             150     0.1 7   78  39 
 PAM  SN ES   1    234 21.59                             150    -0.2 7   78  39 
 BRI  SZ EP   1    234  6.38                             141     0.1 7  109  21 
 BRI  SZ ES   1    234 25.12                             141     0.2 7  109  21 
 BRI  SZ I         234 30.28        49.7 0.53                           109  21 
 GRA  SZ IP        234  7.72                             136     0.110  127  17 
 GRA  SZ ES   1    234 27.19                             136    -0.1 7  127  17 
 OCA  SZ EP   1    234 10.21                             129    -0.5 7  161 353 
 OCA  SZ ES   1    234 32.89                             129     0.1 7  161 353 
 YOP  SZ EP        234 12.56                             126     0.2 9  178 153 
 YOP  SN ES   2    234 36.00                             126     0.4 4  178 153 
 YOP  SZ I         234 37.55        34.6 0.31                           178 153 
 NOR  SZ EP   1    234 17.52                             118    -0.5 6  234 235 
 NOR  SN ES   1    234 45.78                             118     0.0 6  234 235 
 CHI  HZ EP   1    234 19.91                             117    -0.1 6  248 195 
 CHI  HZ I         234 20.71        31.0 0.27                           248 195 
 CHI  HE ES   1    234 48.95                             117    -0.3 6  248 195 
 VIL  SZ EP   1    234 25.18                             112    -0.5 5  302 192 
 VIL  SN ES   2    234 59.47                             112     0.1 4  302 192 
 VIL  SZ I         235  9.08        22.5 0.57                           302 192 
 GUY  SZ EP   1    234 26.72                             112     0.5 5  303 235 
 GUY  SN ES   1    235  0.42                             112     0.1 5  303 235 
 GUY  SZ I         235  9.60        77.5 0.42                           303 235 
 DBB  SZ EP   1    234 29.26                             109    -0.6 5  339 274 
 TOL  SZ EP   1    234 31.39                             109     0.8 5  343 225 
 PRA  HZ EP   1    234 35.73                             106    -0.1 4  391 210 
 PRA  HN ES   2    235 17.32                             106    -0.1 3  391 210 
                                                                                
