 2010  718 0156 50.8 L   6.795 -73.039145.9  RSN  8 0.3 2.0LRSN                1
 GAP=171        0.67       3.0     6.0  5.9 -0.6222E+01  0.2392E+01  0.1259E+01E
 Epicentro: CEPITA - SANTANDER                                                 3
 ACTION:UPD 10-12-01 15:18 OP:pat  STATUS:               ID:20100718015650 L   I
 2010-07-18-0152-29S.COL___120                                                 6
 STAT SP IPHASW D HRMM SECON CODA AMPLIT PERI AZIMU VELO AIN AR TRES W  DIS CAZ7
 BAR2 SZ EP   2    157 10.03                             169    -0.5 5   28 215 
 BAR2 SZ ES   2    157 25.84                             169    -0.1 5   28 215 
 BAR2 SZ I         157 27.16        20.4 0.24                            28 215 
 BRR  HZ IP     C  157 12.28                             149    -0.310   82 295 
 BRR  HE ES   1    157 29.60                             149     0.0 7   82 295 
 BRR  HZ I         157 33.60        16.6 0.26                            82 295 
 RUS  HZ EP   1    157 14.24                             144    -0.2 7  100 183 
 RUS  HE ES   1    157 33.19                             144     0.2 7  100 183 
 RUS  HZ I         157 34.24         5.4 0.31                           100 183 
 GRA  SZ IP        157 16.21                             138     0.410  123  12 
 GRA  SZ ES   1    157 35.41                             138     0.1 7  123  12 
 GRA  SZ I         157 39.09         8.4 0.44                           123  12 
 OCA  SZ EP   1    157 18.88                             129    -0.4 7  163 349 
 OCA  SZ ES   1    157 41.73                             129     0.2 7  163 349 
 OCA  SZ I         157 45.56         9.6 0.34                           163 349 
 GUY  SZ EP   2    157 35.45                             112     0.0 3  311 236 
 GUY  SN ES   2    158 10.85                             112     0.5 3  311 236 
 GUY  SZ I         158 17.78        14.2 0.33                           311 236 
 RREF HZ EP   2    157 38.74                             110     0.8 3  330 231 
 RREF HE ES   2    158 14.96                             110     0.3 3  330 231 
 RREF HZ I         158 22.62         5.2 0.29                           330 231 
 PRA  HZ EP   1    157 44.64                             106    -0.3 4  397 211 
 PRA  HN ES   2    158 27.65                             106     0.5 3  397 211 
 PRA  HZ I         158 32.08         5.1 0.33                           397 211 
                                                                                
