 2016  318 0541 23.3 L   6.801 -73.161143.0  RSN  8 0.3 1.8LRSN                1
 GAP=135        0.68       3.1     3.2  5.9 -0.2542E+01  0.8374E+01 -0.1393E+01E
 Epicentro: LOS SANTOS - SANTANDER                                             3
 ACTION:UPD 16-05-13 21:25 OP:cam  STATUS:               ID:20160318054123 L   I
 OLDACT:UP  16-03-18 17:22 OP:dnl  STATUS:               ID:20160318053750     3
 OLDACT:REG 16-03-18 13:08 OP:dnl  STATUS:               ID:20160318053750     3
 2016-03-18-0537-50M.COL___309                                                 6
 STAT SP IPHASW D HRMM SECON CODA AMPLIT PERI AZIMU VELO AIN AR TRES W  DIS CAZ7
 BAR2 EZ EP   2    541 42.46                             170   -0.16 5 23.2 186 
 BAR2 EZ ES   2    541 57.16                             170   -0.51 5 23.2 186 
 BAR2 EZ I         542  1.00        12.7 0.26            170           23.2 186 
 PAM  EZ EP        541 45.26                             150   -0.0410 78.3  41 
 PAM  EN ES        542  2.67                             150    0.2210 78.3  41 
 PAM  EZ I         542  4.63        21.9 0.56            156           78.3  41 
 RUS  HZ EP   2    541 47.12                             143    0.30 5  101 175 
 RUS  HN ES        542  5.24                             143    0.0910  101 175 
 RUS  HZ I         542  6.38         5.7 0.32            148            101 175 
 PTB  HZ EP        541 49.49                             132   -0.43 9  146 259 
 PTB  HN ES        542 10.47                             132   -0.19 9  146 259 
 PTB  HZ I         542 15.85         7.1 0.24            134            146 259 
 SPBC HZ EP        541 51.47                             129   -0.05 9  162 218 
 SPBC HN ES        542 13.34                             129   -0.18 9  162 218 
 SPBC HZ I         542 19.43        14.2 0.36            132            162 218 
 ZAR  HZ EP   2    541 55.59                             122    0.17 4  202 292 
 ZAR  HE ES        542 20.64                             122    0.18 9  202 292 
 ZAR  HZ I         542 26.12         7.9 0.30            125            202 292 
 GUY2CHE EP   2    542  6.08                             112   -0.58 4  300 235 
 GUY2CHZ ES        542 41.39                             112    0.93 7  300 235 
 GUY2CHE I         542 48.27         4.0 0.26                           300 235 
 MON  HZ EP   2    542 12.05                             108   -0.01 3  352 309 
 MON  HN ES   4    542 48.05                             108   -2.02 0  352 309 
 MON  HZ I         542 49.13         1.7 0.30            112            352 309 
                                                                                
