 2012  218 0011 25.7 L   6.752 -73.123144.7  RSN  9 0.4 1.8LRSN                1
 GAP=142        0.70       3.6     4.4  5.9 -0.1062E+01  0.7849E+01  0.2240E+01E
 ACTION:UP  12-03-07 16:31 OP:epov STATUS:               ID:20120218001125 L   I
 2012-02-18-0010-00M.COL___188                                                 6
 STAT SP IPHASW D HRMM SECON CODA AMPLIT PERI AZIMU VELO AIN AR TRES W  DIS CAZ7
 BAR2 SZ EP   1    011 45.04                             172   -0.11 7 18.9 200 
 BAR2 SZ ES   1    011 59.68                             172   -0.62 7 18.9 200 
 BAR2 SZ I         012  1.72        19.0 0.24                          18.9 200 
 BRR  HZ EP   1    011 47.14                             151    0.10 7 76.0 301 
 BRR  HE ES   1    012  4.37                             151    0.70 7 76.0 301 
 BRR  HZ I         012  5.61        18.8 0.19                          76.0 301 
 PAM  SZ EP   1    011 48.07                             150    0.08 7 80.0  36 
 PAM  SN ES   1    012  5.46                             150    0.11 7 80.0  36 
 RUS  HZ EP   1    011 48.88                             145   -0.11 7 95.1 177 
 RUS  HE ES        012  7.25                             145    0.1210 95.1 177 
 RUS  HZ I         012  8.77         7.0 0.49                          95.1 177 
 PTB  HZ EP   1    011 52.03                             132   -0.72 7  149 261 
 PTB  HE ES   2    012 13.16                             132   -0.67 5  149 261 
 ZAR  HZ EP   2    011 58.62                             122    0.07 4  208 293 
 ZAR  HE ES   2    012 24.15                             122   -0.01 4  208 293 
 ZAR  HZ I         012 26.23         7.3 0.29                           208 293 
 NOR  SN ES   1    012 29.34                             118    0.31 6  234 236 
 CHI  HZ EP   1    012  2.93                             117    0.05 6  244 196 
 CHI  HN ES   2    012 32.66                             117    0.79 4  244 196 
 CHI  HZ I         012 36.48         1.8 0.47                           244 196 
 RREF HN ES   2    012 47.64                             111    0.17 3  320 230 
 RREF HZ I         012 54.44         2.3 0.39                           320 230 
                                                                                
