 2015  818 0905 26.1 L   6.804 -73.109148.0  RSN  7 0.4 1.5LRSN                1
 GAP=187        0.88       3.2     5.8  6.6  0.1733E+01  0.3019E+00 -0.3591E+01E
 Epicentro: LOS SANTOS - SANTANDER                                             3
 ACTION:UPD 15-09-15 23:03 OP:cam  STATUS:               ID:20150818090526 L   I
 OLDACT:REG 15-08-18 13:48 OP:spq  STATUS:               ID:20150818085748     3
 2015-08-18-0857-48M.COL___319                                                 6
 STAT SP IPHASW D HRMM SECON CODA AMPLIT PERI AZIMU VELO AIN AR TRES W  DIS CAZ7
 BAR2 EZ EP        9 5 45.90                             170   -0.0910 24.7 199 
 BAR2 EZ ES   1    9 6  1.34                             170   -0.20 7 24.7 199 
 BAR2 EZ I         9 6  2.57         2.7 0.24            168           24.7 199 
 BRR  HZ EP        9 5 47.77                             152    0.1210 74.6 297 
 BRR  HE ES        9 6  5.24                             152    0.7610 74.6 297 
 BRR  HZ I         9 6  7.17         5.4 0.40            148           74.6 297 
 RUS  HZ EP   1    9 5 50.46                             144    0.41 7  101 178 
 RUS  HE ES   1    9 6  8.43                             144   -0.33 7  101 178 
 RUS  HZ I         9 6  9.19         1.8 0.28            146            101 178 
 OCA  HZ EP        9 5 55.00                             130    0.44 9  160 352 
 OCA  HE ES        9 6 16.30                             130   -0.49 9  160 352 
 OCA  HZ I         9 6 20.01         8.2 0.24            131            160 352 
 SPBC HZ EP        9 5 54.90                             129   -0.11 9  166 220 
 SPBC HN ES        9 6 17.29                             129   -0.29 9  166 220 
 SPBC HZ I         9 6 22.78         4.1 0.42            129            166 220 
 ZAR  HZ EP   1    9 5 59.22                             122    0.19 6  208 292 
 ZAR  HE ES        9 6 24.57                             122   -0.17 8  208 292 
 ZAR  HZ I         9 6 30.00         3.2 0.24            122            208 292 
 SML  HZ EP   1    9 6  2.87                             118   -0.09 6  245 334 
 SML  HE ES   1    9 6 30.99                             118   -0.76 6  245 334 
 SML  HZ I         9 6 35.52         3.0 0.22            118            245 334 
 SJC  HZ EP   4    9 6 20.30                             106   -1.62 0  411 326 
                                                                                
