 2012  118 0516 34.7 L   6.882 -73.186142.1  RSN  6 0.2 1.6LRSN                1
 GAP=127        0.55       3.8     3.6  5.0 -0.6106E+00  0.4283E+01 -0.6625E+00E
 Epicentro: BETULIA - SANTANDER                                                3
 ACTION:UP  12-02-03 08:18 OP:REBC STATUS:               ID:20120118051634 L   I
 2012-01-18-0510-00M.COL___187                                                 6
 STAT SP IPHASW D HRMM SECON CODA AMPLIT PERI AZIMU VELO SNR AR TRES W  DIS CAZ7
 BAR2 SZ EP   1    516 54.06                             167    -0.1 7   32 179 
 BAR2 SZ I         516 54.75         6.2 0.05                            32 179 
 BAR2 SZ ES   1    517  9.49                             167     0.2 7   32 179 
 BRR  HZ EP   1    516 55.40                             155     0.3 7   63 293 
 BRR  HZ I         516 56.64        14.4 0.17                            63 293 
 BRR  HN ES   1    517 11.01                             155     0.1 7   63 293 
 PAM  SZ EP   1    516 56.51                             151     0.2 7   74  47 
 PAM  SZ I         516 56.86         3.6 0.10                            74  47 
 PAM  SN ES   1    517 12.85                             151    -0.4 7   74  47 
 RUS  HZ EP   1    516 58.89                             140     0.0 7  110 174 
 RUS  HN ES   1    517 17.60                             140     0.0 7  110 174 
 RUS  HZ I         517 19.64         2.2 0.31                           110 174 
 PTB  HZ EP   1    517  0.87                             132    -0.3 7  145 255 
 PTB  HN ES   1    517 21.67                             132    -0.2 7  145 255 
 PTB  HZ I         517 26.71         0.0 0.15                           145 255 
 ZAR  HZ EP   1    517  6.23                             123     0.1 6  197 290 
 ZAR  HZ I         517 36.85        14.0 0.34                           197 290 
                                                                                
