 2013 1118 0859 33.2 L   6.808 -73.157145.4  RSN  9 0.5 1.9LRSN                1
 GAP=135        1.10       3.4     4.9  7.0  0.7608E+00  0.8521E+01  0.5523E+00E
 Epicentro: LOS SANTOS - SANTANDER                                             3
 ACTION:UPD 14-01-09 16:29 OP:ep   STATUS:               ID:20131118085933 L   I
 OLDACT:UP  13-11-18 13:47 OP:mh   STATUS:               ID:20131118085839     3
 OLDACT:REG 13-11-18 13:28 OP:mh   STATUS:               ID:20131118085839     3
 2013-11-18-0858-39M.COL___215                                                 6
 STAT SP IPHASW D HRMM SECON CODA AMPLIT PERI AZIMU VELO AIN AR TRES W  DIS CAZ7
 BAR2 SZ EP        859 52.81                             170    0.0510 24.0 187 
 BAR2 SZ ES   1    9 0  7.26                             170   -0.79 7 24.0 187 
 BAR2 SZ I         9 0  9.35        31.1 0.20            170           24.0 187 
 BRR  HZ EP        859 54.62                             153    0.4310 69.7 298 
 BRR  HN ES        9 0 11.54                             153    0.9510 69.7 298 
 BRR  HZ I         9 0 14.51        13.0 0.30            151           69.7 298 
 PAM  SZ EP   1    859 55.67                             151    0.32 7 77.5  41 
 PAM  SN ES        9 0 12.56                             151   -0.1010 77.5  41 
 PAM  SZ I         9 0 14.55        10.3 0.39            153           77.5  41 
 RUS  HZ EP   1    859 56.82                             143   -0.12 7  102 175 
 RUS  HN ES        9 0 15.31                             143   -0.1910  102 175 
 RUS  HZ I         9 0 17.29         6.2 0.25            145            102 175 
 PTB  HZ EP   1    859 59.61                             132   -0.39 7  147 258 
 PTB  HN ES        9 0 20.01                             132   -0.93 9  147 258 
 PTB  HZ I         9 0 23.28        10.9 0.16            132            147 258 
 SPBC HZ EP        9 0  1.85                             129    0.23 9  163 218 
 SPBC HN ES        9 0 24.28                             129    0.46 9  163 218 
 SPBC HZ I         9 0 28.67         9.5 0.25            129            163 218 
 ZAR  HZ EP        9 0  5.40                             122   -0.03 9  203 292 
 ZAR  HN ES        9 0 30.82                             122    0.22 9  203 292 
 ZAR  HZ I         9 0 36.36        10.5 0.10            122            203 292 
 SML  HZ EP   1    9 0  9.32                             117   -0.31 6  242 335 
 SML  HN ES        9 0 37.48                             117   -0.59 8  242 335 
 SML  HZ I         9 0 45.42        13.7 0.10            118            242 335 
 CHI  HZ EP   1    9 0 11.04                             117    0.15 6  249 195 
 CHI  HN ES        9 0 40.19                             117   -0.13 8  249 195 
 CHI  HZ I         9 0 47.53         4.0 0.55            118            249 195 
                                                                                
