 2014  218 0838 32.5 L   6.825 -73.172139.2  RSN  9 0.4 1.7LRSN                1
 GAP= 69        1.07       3.8     4.2  6.8  0.1227E+01  0.5824E+01 -0.3595E+01E
 Epicentro: LOS SANTOS - SANTANDER                                             3
 ACTION:UPD 14-03-10 08:11 OP:ep   STATUS:               ID:20140218083832 L   I
 OLDACT:DUP 14-02-18 11:37 OP:cam  STATUS:               ID:20140218083001d    3
 OLDACT:REG 14-02-18 10:02 OP:fm   STATUS:               ID:20140218083000     3
 2014-02-18-0830-00M.COL___212                                                 6
 STAT SP IPHASW D HRMM SECON CODA AMPLIT PERI AZIMU VELO AIN AR TRES W  DIS CAZ7
 BAR2 SZ EP        838 51.38                             169    0.0210 25.8 182 
 BAR2 SZ ES        839  5.49                             169   -0.6110 25.8 182 
 BAR2 SZ I         839  6.99        24.9 0.36            171           25.8 182 
 PAM  SZ IP     C  838 54.28                             150    0.3010 77.2  43 
 PAM  SN ES        839 11.14                             150    0.3910 77.2  43 
 PAM  SZ I         839 13.32         9.5 0.66            151           77.2  43 
 RUS  HZ EP        838 55.89                             141    0.0910  104 175 
 RUS  HN ES        839 14.43                             141    0.4310  104 175 
 RUS  HZ I         839 15.64         4.4 0.38            144            104 175 
 PTB  HZ EP        838 58.25                             131   -0.44 9  145 258 
 PTB  HN ES        839 18.68                             131   -0.46 9  145 258 
 PTB  HZ I         839 21.73         7.3 0.42            132            145 258 
 OCA  HN ES        839 21.25                             129   -0.19 9  157 354 
 TAM  HZ IP     D  838 59.77                             128   -0.20 9  159 106 
 ZAR  HZ EP        839  4.52                             121    0.42 9  200 292 
 ZAR  HN ES        839 29.74                             121    0.97 9  200 292 
 ZAR  HZ I         839 32.86         4.0 0.26            122            200 292 
 SML  HZ EP        839  7.85                             116   -0.47 8  240 336 
 SML  HE ES   1    839 35.71                             116   -0.58 6  240 336 
 SML  HZ I         839 40.92         4.2 0.10            117            240 336 
 CHI  HZ EP   2    839 10.03                             115    0.01 4  251 194 
 GUY2CHZ EP   4    839 17.02                             111    1.33 0  300 234 
                                                                                
