 2010  518 0733 21.2 L   7.381 -73.168134.4  RSN  4 0.4 1.5LRSN                1
 GAP=145        0.72       9.0    12.8 11.1 -0.7348E+02  0.8888E+01  0.1759E+01E
 Epicentro: EL PLAYON - SANTANDER                                              3
 ACTION:UP  10-08-24 10:05 OP:vdl  STATUS:               ID:20100518073321 L   I
 2010-05-18-0731-09S.COL___108                                                 6
 STAT SP IPHASW D HRMM SECON CODA AMPLIT PERI AZIMU VELO SNR AR TRES W  DIS CAZ7
 GUE  SZ EP   1    733 40.25                             156    -0.5 7   56  28 
 GUE  SZ ES   2    733 55.50                             156    -0.5 5   56  28 
 BRR  HZ EP   1    733 41.02                             152     0.2 7   67 243 
 BRR  HN ES   2    733 56.28                             152     0.0 5   67 243 
 BRR  HZ I         733 57.35         6.9 0.12                            67 243 
 GRA  SZ EP   2    733 41.95                             152     0.8 5   69  36 
 GRA  SZ ES   2    733 57.40                             152     0.6 5   69  36 
 BAR2 SZ EP   2    733 42.22                             145    -0.3 5   87 181 
 BAR2 SZ ES   2    733 59.18                             145     0.1 5   87 181 
                                                                                
