 2015  318 0453 33.1 L   6.806 -73.160138.7  RSN 11 0.6 1.7LRSN                1
 GAP=134        1.48       4.2     5.5  7.9 -0.4478E+01  0.1508E+02 -0.3148E+01E
 Epicentro: LOS SANTOS - SANTANDER                                             3
 ACTION:UPD 15-04-30 16:26 OP:nd   STATUS:               ID:20150318045333 L   I
 OLDACT:DUP 15-03-18 17:30 OP:stll STATUS:               ID:20150318044744d    3
 2015-03-18-0447-43M.COL___272                                                 6
 STAT SP IPHASW D HRMM SECON CODA AMPLIT PERI AZIMU VELO AIN AR TRES W  DIS CAZ7
 BAR2 EZ EP        453 51.71                             170   -0.1610 23.7 186 
 BAR2 EZ ES        454  6.49                             170   -0.0310 23.7 186 
 BAR2 EZ I         454  8.53         9.9 0.20            169           23.7 186 
 BRR  HZ EP        453 53.99                             152    0.6210 69.5 299 
 BRR  HN ES        454 10.20                             152    1.0110 69.5 299 
 BRR  HZ I         454 14.07         8.3 0.34            150           69.5 299 
 PAM  SZ EP        453 55.08                             149    0.5010 77.9  41 
 PAM  SZ I         453 55.23         8.6 0.20            154           77.9  41 
 PAM  SN ES        454 11.33                             149   -0.0210 77.9  41 
 RUS  HZ EP        453 56.18                             142   -0.0210  101 175 
 RUS  HZ I         453 57.26         4.4 0.16            144            101 175 
 RUS  HN ES        454 13.75                             142   -0.4810  101 175 
 PTB  HZ EP        453 59.02                             131   -0.32 9  146 258 
 PTB  HE ES        454 19.89                             131    0.06 9  146 258 
 PTB  HZ I         454 21.32         5.7 0.34            130            146 258 
 OCA  HZ EP        454  0.62                             128   -0.15 9  159 354 
 OCA  HN ES        454 21.95                             128   -0.42 9  159 354 
 OCA  HZ I         454 25.16        14.0 0.22            130            159 354 
 SPBC HZ EP        454  1.10                             128    0.10 9  163 218 
 SPBC HN ES        454 21.99                             128   -0.78 9  163 218 
 SPBC HZ I         454 30.67         7.4 0.20            128            163 218 
 ZAR  HZ EP        454  4.84                             121   -0.05 9  202 292 
 ZAR  HN ES        454 29.98                             121    0.28 9  202 292 
 ZAR  HZ I         454 36.54         6.1 0.22            122            202 292 
 SML  HZ EP        454  8.50                             116   -0.68 8  242 336 
 SML  HE ES        454 36.70                             116   -0.64 8  242 336 
 HEL  HZ EP        454 13.62                             113    0.84 8  271 256 
 HEL  HN ES        454 42.01                             113   -1.74 8  271 256 
 HEL  HZ I         454 52.73         2.4 0.26            114            271 256 
 GUY2CHZ EP        454 17.11                             111    0.85 7  300 234 
 GUY2CHN ES        454 51.10                             111    1.16 7  300 234 
 GUY2CHZ I         454 59.95         2.0 0.62                           300 234 
                                                                                
