 2017  218 0311  1.9 L   6.764 -73.152131.9  RSN  5 0.3 1.2LRSN                1
 GAP=138        0.70       3.2     3.9  5.1 -0.3465E+01  0.4692E+01  0.2652E+01E
 Epicentro: LOS SANTOS - SANTANDER                                             3
 ACTION:UPD 17-05-24 15:37 OP:jn   STATUS:               ID:20170218031101 L   I
 OLDACT:REG 17-02-18 13:24 OP:cara STATUS:               ID:20170218030744     3
 2017-02-18-0308-00M.COL___351                                                 6
 STAT SP IPHASW D HRMM SECON CODA AMPLIT PERI AZIMU VELO AIN AR TRES W  DIS CAZ7
 BAR2 EZ IP        311 19.97                             171    0.2310 19.2 190 
 BAR2 EZ ES        311 33.59                             171   -0.1010 19.2 190 
 BAR2 EZ I         311 35.90         6.9 0.12            170           19.2 190 
 PAM  EZ EP        311 23.03                             147    0.1810 80.9  38 
 PAM  EN ES        311 38.96                             147   -0.2610 80.9  38 
 PAM  EZ I         311 42.61         3.3 0.28            151           80.9  38 
 RUS  HZ EP        311 23.94                             142   -0.0310 96.6 175 
 RUS  HN ES        311 41.49                             142    0.2710 96.6 175 
 RUS  HZ I         311 47.31         0.9 0.20            144           96.6 175 
 PTB  HZ EP        311 27.26                             129   -0.34 9  146 260 
 PTB  HN ES        311 47.89                             129    0.21 9  146 260 
 PTB  HZ I         311 50.15         4.1 0.52            133            146 260 
 CHI  HZ EP        311 38.65                             114    0.28 8  245 195 
 CHI  HN ES        312  6.29                             114   -0.56 8  245 195 
                                                                                
