 2016 1218 0127 30.0 L   6.735 -73.164140.9  RSN  7 0.2 1.6LRSN                1
 GAP=137        0.56       2.5     2.3  4.0 -0.2235E+00  0.2631E+01  0.7895E+00E
 Epicentro: LOS SANTOS - SANTANDER                                             3
 ACTION:UPD 17-01-11 20:16 OP:rebc STATUS:               ID:20161218012730 L   I
 OLDACT:DUP 16-12-18 16:07 OP:cara STATUS:               ID:20161218011751d    3
 OLDACT:UP  16-12-18 16:01 OP:cara STATUS:               ID:20161218011750     3
 OLDACT:REG 16-12-18 14:18 OP:edw  STATUS:               ID:20161218011750     3
 2016-12-18-0118-00M.COL___381                                                 6
 STAT SP IPHASW D HRMM SECON CODA AMPLIT PERI AZIMU VELO AIN AR TRES W  DIS CAZ7
 BAR2 EZ EP        127 48.93                             173    0.0110 15.9 188 
 BAR2 EZ ES        128  3.62                             173   -0.0510 15.9 188 
 BAR2 EZ I         128  5.64        10.1 0.30            173           15.9 188 
 BRR  HZ EP        127 51.07                             151    0.3210 73.3 304 
 BRR  HN ES        128  7.23                             151    0.2910 73.3 304 
 BRR  HZ I         128  8.89         8.3 0.48            151           73.3 304 
 PAM  EZ IP        127 52.02                             148   -0.1210 84.3  37 
 PAM  EN ES        128  9.27                             148   -0.1410 84.3  37 
 PAM  EZ I         128 11.36         6.8 0.46            151           84.3  37 
 RUS  HZ EP        127 52.64                             145   -0.1310 93.5 175 
 RUS  HN ES        128 10.66                             145    0.1310 93.5 175 
 RUS  HZ I         128 12.52         4.9 0.34            147           93.5 175 
 PTB  HZ EP        127 56.36                             132    0.07 9  145 261 
 PTB  HN ES        128 16.34                             132   -0.45 9  145 261 
 PTB  HZ I         128 21.60         3.9 0.30            133            145 261 
 ZAR  HN ES        128 27.31                             121   -0.08 9  205 294 
 ZAR  HZ I         128 29.66         4.4 0.42            123            205 294 
 GUY2CHN ES        128 46.21                             112    0.14 7  295 236 
 GUY2CHN I         128 54.14         1.6 0.70                           295 236 
                                                                                
