 2012 1218 0453  8.1 L   6.793 -73.128148.5  RSN 13 0.4 2.4LRSN                1
 GAP= 72        0.80       2.4     3.0  4.3  0.6057E+00  0.2945E+01  0.1244E+01E
 Epicentro: LOS SANTOS - SANTANDER                                             3
 ACTION:UPD 13-01-04 14:28 OP:ep   STATUS:               ID:20121218045308 L   I
 2012-12-18-0450-00M.COL___242                                                 6
 STAT SP IPHASW D HRMM SECON CODA AMPLIT PERI AZIMU VELO AIN AR TRES W  DIS CAZ7
 BAR2 SZ IP        453 28.12                             171    0.0110 23.0 195 
 BAR2 SZ ES        453 43.56                             171   -0.1110 23.0 195 
 BAR2 SZ I         453 44.31        71.3 0.25                          23.0 195 
 GIR2 SZ EP        453 28.20                             167    0.0210 32.4 347 
 BRR  HZ EP        453 30.13                             152    0.4110 73.3 298 
 BRR  HE ES        453 47.06                             152    0.5210 73.3 298 
 BRR  HZ I         453 51.90        28.0 0.16                          73.3 298 
 PAM  SZ EP        453 30.96                             151    0.3410 76.7  38 
 PAM  SN ES        453 48.13                             151   -0.0210 76.7  38 
 PAM  SZ I         453 50.16        41.5 0.32                          76.7  38 
 RUS  HZ EP        453 32.02                             145   -0.0910 99.7 177 
 RUS  HE ES        453 50.35                             145   -0.4510 99.7 177 
 RUS  HE I         453 51.82        39.3 0.52                          99.7 177 
 PTB  HZ EP   1    453 35.07                             132   -0.43 7  150 259 
 PTB  HZ I         454  2.00        38.5 0.24                           150 259 
 TAM  HZ EP        453 36.24                             132    0.39 9  153 105 
 TAM  HZ I         453 36.42        32.4 0.35                           153 105 
 TAM  HE ES        453 57.51                             132    0.05 9  153 105 
 OCA  HZ EP        453 36.36                             130   -0.41 9  161 352 
 OCA  HE ES   1    453 58.37                             130   -0.72 7  161 352 
 OCA  HZ I         454  4.66        27.8 0.43                           161 352 
 ZAR  HZ EP   1    453 41.35                             123    0.36 6  206 292 
 ZAR  HE ES   1    454  6.29                             123   -0.32 6  206 292 
 ZAR  HZ I         454 12.56        24.3 0.14                           206 292 
 SML  HZ EP   1    453 44.35                             118   -0.75 6  245 335 
 SML  HN ES   1    454 14.10                             118    0.19 6  245 335 
 SML  HZ I         454 16.77        42.0 0.15                           245 335 
 CHI  HZ EP        453 46.02                             118    0.04 8  248 196 
 CHI  HZ I         453 47.06         9.3 0.19                           248 196 
 CHI  HN ES        454 15.24                             118   -0.25 8  248 196 
 ROSC BZ EP   4    453 47.82                             117    1.36 0  253 212 
 HEL  HZ EP   1    453 49.07                             115    0.38 6  274 256 
 HEL  HZ I         454 27.06        11.7 0.46                           274 256 
 MON  HZ EP   4    453 55.28                             109   -2.21 0  356 308 
 PRA  HZ EP        454  1.49                             107   -0.31 6  392 210 
 PRA  HN ES        454 44.22                             107    0.57 6  392 210 
 PRA  HZ I         454 49.92        12.4 0.36                           392 210 
                                                                                
