 2013  518 0533 29.0 L   6.826 -73.164140.6  RSN 13 0.4 1.9LRSN                1
 GAP=133        0.92       3.1     3.8  6.2 -0.1439E+01  0.9899E+01 -0.1406E+01E
 Epicentro: LOS SANTOS - SANTANDER                                             3
 ACTION:UPD 13-06-20 09:51 OP:ep   STATUS:               ID:20130518053329 L   I
 2013-05-18-0530-00M.COL___256                                                 6
 STAT SP IPHASW D HRMM SECON CODA AMPLIT PERI AZIMU VELO AIN AR TRES W  DIS CAZ7
 BAR2 SZ EP        533 48.06                             169   -0.0210 25.9 184 
 BAR2 SZ ES        534  2.86                             169   -0.0910 25.9 184 
 BAR2 SZ I         534  3.68         6.7 0.16            169           25.9 184 
 GIR2 SZ EP        533 48.06                             168    0.0710 28.2 353 
 GIR2 SZ ES   1    534  3.25                             168    0.46 7 28.2 353 
 GIR2 SZ I         534  4.54        14.8 0.42            164           28.2 353 
 BRR  HZ EP        533 49.93                             153    0.5110 68.0 297 
 BRR  HZ I         534 10.52        19.8 0.12            147           68.0 297 
 PAM  SZ EP        533 50.94                             150    0.3110 76.6  42 
 PAM  SN ES        534  7.65                             150    0.1610 76.6  42 
 PAM  SZ I         534  9.77        30.5 0.52            150           76.6  42 
 RUS  HZ EP        533 52.44                             142   -0.0410  104 175 
 RUS  HN ES        534 10.46                             142   -0.3310  104 175 
 RUS  HZ I         534 12.24         9.1 0.28            142            104 175 
 PTB  HZ EP        533 55.07                             131   -0.36 9  146 258 
 PTB  HN ES        534 15.67                             131   -0.36 9  146 258 
 PTB  HZ I         534 21.09         8.2 0.20            127            146 258 
 OCA  HZ EP   1    533 56.39                             129   -0.24 7  157 354 
 OCA  HN ES   1    534 17.42                             129   -0.76 7  157 354 
 OCA  HZ I         534 21.97        11.3 0.32            126            157 354 
 ZAR  HN ES   1    534 26.46                             122    0.84 6  201 292 
 ZAR  HZ I         534 31.75        16.2 0.32            118            201 292 
 NOR  HN ES   1    534 32.76                             117    0.68 6  235 234 
 NOR  HZ I         534 37.92         9.9 0.20            115            235 234 
 SML  HN ES   1    534 32.47                             117   -0.56 6  240 335 
 CHI  HN ES   1    534 35.70                             116   -0.34 6  251 195 
 HEL  HZ EP   1    534  9.71                             114    0.89 6  271 255 
 HEL  HN ES   1    534 39.73                             114   -0.14 6  271 255 
 HEL  HZ I         534 46.67         6.1 0.42            111            271 255 
 URE  HE ES   1    534 40.30                             113   -0.78 6  281 292 
                                                                                
