 2016  218 0859  4.4 L   6.639 -73.423132.3  RSN  8 0.5 1.4LRSN                1
 GAP= 76        1.30       4.6     5.9  8.1  0.4384E+01  0.1550E+02  0.1343E+01E
 Epicentro: EL CARMEN - SANTANDER                                              3
 ACTION:UPD 16-03-04 21:27 OP:rebc STATUS:               ID:20160218085904 L   I
 OLDACT:REG 16-02-18 12:47 OP:drio STATUS:               ID:20160218085749     3
 2016-02-18-0857-49M.COL___324                                                 6
 STAT SP IPHASW D HRMM SECON CODA AMPLIT PERI AZIMU VELO AIN AR TRES W  DIS CAZ7
 BAR2 EZ EP        859 22.45                             168   -0.0810 27.2 101 
 BAR2 EZ ES        859 36.14                             168   -0.5110 27.2 101 
 BAR2 EZ I         859 38.55        10.2 0.30            170           27.2 101 
 BRR  HZ EP        859 23.56                             154    0.0210 60.8 328 
 BRR  HN ES        859 38.96                             154    0.5210 60.8 328 
 RUS  HZ EP        859 26.38                             144    0.2310 90.7 155 
 RUS  HE ES        859 42.76                             144   -0.3210 90.7 155 
 RUS  HZ I         859 43.47         1.7 0.22            147           90.7 155 
 PAM  EZ EP        859 27.54                             138   -0.1910  111  46 
 PAM  EN ES        859 46.80                             138    0.9010  111  46 
 PAM  EZ I         859 49.52         2.4 0.58            140            111  46 
 PTB  HZ EP        859 26.54                             136   -0.8210  115 265 
 PTB  HN ES   4    859 43.86                             136   -1.39 0  115 265 
 PTB  HZ I         859 46.43         4.8 0.36            137            115 265 
 OCA  HZ EP        859 32.98                             123   -0.45 9  177   4 
 OCA  HE ES        859 55.46                             123   -0.59 9  177   4 
 ZAR  HZ EP        859 34.41                             122    0.43 9  184 301 
 ZAR  HN ES        859 57.26                             122    0.24 9  184 301 
 ZAR  HZ I         9 0  2.55         5.0 0.30            123            184 301 
 CHI  HZ EP        859 39.61                             117    0.81 8  225 189 
 CHI  HN ES   4    9 0  8.48                             117    2.88 0  225 189 
                                                                                
