 2010  418 0840 29.6 L   6.877 -73.079149.4  RSN 11 0.5 2.6LRSN                1
 GAP=146        1.02       4.8     8.8  9.3 -0.2116E+02 -0.2513E+02  0.1969E+02E
 Epicentro: LOS SANTOS - SANTANDER                                             3
 ACTION:UPD 10-08-24 09:59 OP:vdl  STATUS:               ID:20100418084036 L   I
 2010-04-18-0837-07S.COL___100                                                 6
 STAT SP IPHASW D HRMM SECON CODA AMPLIT PERI AZIMU VELO AIN AR TRES W  DIS CAZ7
 BAR2 SZ EP        840 49.40                             167    -0.510   34 200 
 BRR  HZ IP     C  840 51.64                             151     0.310   75 290 
 BRR  HZ I         840 51.92       118.8 0.41                            75 290 
 BRR  HE ES        841  8.58                             151     0.310   75 290 
 OCA  SZ EP        840 57.81                             131     0.3 9  153 350 
 OCA  SZ ES   1    841 18.82                             131    -0.5 7  153 350 
 OCA  SZ I         841 23.01        53.3 0.27                           153 350 
 CHI  HZ EP   2    841  8.14                             116    -0.5 4  259 196 
 CHI  HN ES   1    841 38.77                             116    -0.3 6  259 196 
 CHI  HZ I         841 40.51        15.4 0.46                           259 196 
 ROSC BZ EP   1    841  9.71                             116     0.6 6  264 211 
 ROSC BN ES        841 40.17                             116     0.2 8  264 211 
 ROSC BZ I         841 44.12        19.1 0.37                           264 211 
 HEL  HN ES   2    841 42.79                             114    -0.6 4  281 254 
 HEL  HZ I         841 47.35        13.6 0.22                           281 254 
 RREF BN ES   1    841 54.79                             110     0.5 5  333 229 
 RREF BZ I         841 57.92        14.7 1.23                           333 229 
 DBB  SZ EP        841 17.42                             109    -0.6 6  346 273 
 SDV  BZ EP   1    841 18.99                             109     0.5 5  349  50 
 SDV  BZ I         841 19.96        24.3 0.32                           349  50 
 TOL  SZ EP   1    841 19.91                             109     0.6 5  355 225 
 PRA  HZ EP   1    841 24.64                             106     0.1 4  403 210 
 PRA  HN ES   1    842  6.18                             106    -1.2 4  403 210 
 PRA  HZ I         842  9.39        10.5 0.81                           403 210 
                                                                                
