 2012  718 0505 57.5 L   6.681 -73.195152.8  RSN  5 0.3 1.3LRSN                1
 GAP=222        0.65       7.0     6.5  7.7  0.2109E+02  0.1176E+02 -0.4525E+01E
 Epicentro: VILLANUEVA - SANTANDER                                             3
 ACTION:UPD 12-08-14 11:45 OP:ep   STATUS:               ID:20120718050557 L   I
 2012-07-18-0500-00M.COL___197                                                 6
 STAT SP IPHASW D HRMM SECON CODA AMPLIT PERI AZIMU VELO AIN AR TRES W  DIS CAZ7
 BAR2 SZ EP   1    5 6 17.59                             176    -0.1 7   10 172 
 BAR2 SZ ES   1    5 6 33.10                             176    -0.5 7   10 172 
 BAR2 SZ I         5 6 34.02         5.6 0.22            167             10 172 
 BRR  HZ EP   1    5 6 19.76                             153     0.2 7   74 310 
 BRR  HN ES   1    5 6 37.00                             153     0.3 7   74 310 
 RUS  HN ES   1    5 6 39.85                             149     0.4 7   88 172 
 RUS  HZ I         5 6 41.65         2.6 0.36            144             88 172 
 PTB  HZ EP   1    5 6 24.14                             135    -0.2 7  140 264 
 PTB  HN ES   1    5 6 45.22                             135    -0.1 7  140 264 
 PTB  HZ I         5 6 51.46         1.9 0.18            131            140 264 
 ZAR  HN ES   2    5 6 56.22                             124     0.1 4  204 296 
