 2015  318 0302 58.3 L   6.754 -73.151148.9  RSN  4 0.4 0.7LRSN                1
 GAP=138        1.16       6.4     6.1 10.2 -0.4390E+01  0.5234E+01  0.7583E+01E
 Epicentro: LOS SANTOS - SANTANDER                                             3
 ACTION:UPD 15-04-30 16:26 OP:nd   STATUS:               ID:20150318030258 L   I
 OLDACT:DUP 15-03-18 17:01 OP:stll STATUS:               ID:20150318025740d    3
 2015-03-18-0257-39M.COL___272                                                 6
 STAT SP IPHASW D HRMM SECON CODA AMPLIT PERI AZIMU VELO AIN AR TRES W  DIS CAZ7
 BRR  HZ EP        3 3 20.04                             152    0.1210 73.2 302 
 BRR  HE ES        3 3 37.54                             152    0.7710 73.2 302 
 PAM  SZ EP        3 3 20.92                             150   -0.2110 81.7  38 
 PAM  SN ES        3 3 38.53                             150   -0.3810 81.7  38 
 RUS  HZ EP        3 3 22.57                             146    0.5410 95.6 175 
 RUS  HN ES        3 3 40.37                             146   -0.1510 95.6 175 
 RUS  HZ I         3 3 42.73         0.6 0.34            145           95.6 175 
 PTB  HZ EP        3 3 25.28                             133   -0.13 9  146 261 
 PTB  HN ES        3 3 45.86                             133   -0.68 9  146 261 
 PTB  HZ I         3 3 47.71         1.0 0.54            134            146 261 
                                                                                
