 2017  918 0021 14.1 L   6.788 -73.125142.5  RSN  4 0.2 1.3LRSN                1
 GAP=140        0.60       3.2     4.7  4.9 -0.2786E+00 -0.1498E+01  0.6328E+00E
 Epicentro: LOS SANTOS - SANTANDER                                             3
 ACTION:UPD 17-10-05 19:13 OP:rebc STATUS:               ID:20170918002114 L   I
 OLDACT:REG 17-09-18 12:25 OP:and  STATUS:               ID:20170918001741     3
 2017-09-18-0018-00M.COL___439                                                 6
 STAT SP IPHASW D HRMM SECON CODA AMPLIT PERI AZIMU VELO AIN AR TRES W  DIS CAZ7
 BAR2 EZ EP        021 33.75                             171    0.4310 22.6 196 
 BAR2 EZ ES        021 48.07                             171   -0.2410 22.6 196 
 BAR2 EZ I         021 48.74         5.3 0.10            171           22.6 196 
 BRR  HZ EP        021 34.79                             151   -0.2610 73.8 299 
 BRR  HN ES        021 51.53                             151    0.1410 73.8 299 
 BRR  HZ I         021 55.12         4.4 0.28            151           73.8 299 
 PAM  EZ IP     D  021 35.90                             150   -0.0410 77.0  38 
 PAM  EN ES        021 53.00                             150    0.0210 77.0  38 
 PAM  EZ I         021 55.01         3.2 0.62            152           77.0  38 
 RUS  HZ EP        021 37.30                             143   -0.1310 99.2 177 
 RUS  HN ES        021 55.69                             143    0.0710 99.2 177 
 RUS  HZ I         021 56.99         2.2 0.32            146           99.2 177 
                                                                                
