 2017  418 0330  4.5 L   6.810 -73.141146.4  RSN 13 0.5 1.8LRSN                1
 GAP=112        0.95       3.3     3.9  5.9 -0.4526E-01  0.6807E+01  0.4630E+01E
 Epicentro: LOS SANTOS - SANTANDER                                             3
 ACTION:UPD 17-05-30 21:13 OP:jn   STATUS:               ID:20170418033004 L   I
 OLDACT:UP  17-04-18 14:43 OP:cog  STATUS:               ID:20170418032739     3
 OLDACT:REG 17-04-18 12:44 OP:cog  STATUS:               ID:20170418032739     3
 2017-04-18-0328-00M.COL___368                                                 6
 STAT SP IPHASW D HRMM SECON CODA AMPLIT PERI AZIMU VELO AIN AR TRES W  DIS CAZ7
 BAR2 EZ EP        330 24.01                             170   -0.2110 24.5 191 
 BAR2 EZ ES        330 39.28                             170   -0.3210 24.5 191 
 BAR2 EZ I         330 40.27        11.6 0.26            171           24.5 191 
 BRR  HZ EP        330 25.87                             153    0.1710 71.2 298 
 BRR  HZ I         330 45.27        15.3 0.32            147           71.2 298 
 PAM  EZ EP        330 26.97                             151    0.2710 76.2  40 
 PAM  EN ES        330 44.17                             151    0.1510 76.2  40 
 PAM  EZ I         330 46.22        18.4 0.52            150           76.2  40 
 RUS  HZ EP        330 28.25                             144   -0.1210  102 176 
 RUS  HN ES        330 47.01                             144    0.0110  102 176 
 RUS  HZ I         330 47.79         5.4 0.26            146            102 176 
 PTB  HZ EP        330 31.14                             132   -0.43 9  148 258 
 PTB  HN ES   3    330 51.65                             132   -1.04 2  148 258 
 PTB  HZ I         330 53.85         4.5 0.08            129            148 258 
 SPBC HZ EP        330 33.35                             129    0.21 9  164 219 
 SPBC HN ES        330 54.79                             129   -0.70 9  164 219 
 SPBC HZ I         331  0.86         9.3 0.10            128            164 219 
 YPLC HZ EP   3    330 33.10                             126   -1.29 2  177 152 
 YPLC HN ES        330 58.35                             126    0.63 9  177 152 
 ZAR  HZ EP   4    330 40.95                             122    3.97 0  204 292 
 ZAR  HN ES        331  2.58                             122    0.25 9  204 292 
 NOR  HE ES        331  8.85                             118    0.50 8  236 234 
 NOR  HZ I         331 15.56         3.3 0.16            117            236 234 
 CHI  HZ EP        330 42.78                             117    0.43 8  250 195 
 CHI  HN ES        331 11.95                             117    0.08 8  250 195 
 CHI  HZ I         331 15.05         3.7 0.38            117            250 195 
 PTGC HZ EP        330 47.30                             111   -1.16 7  309 159 
 PTGC HN ES   4    331 20.79                             111   -1.97 0  309 159 
 PRA  HZ EP        330 58.09                             106   -0.08 6  393 210 
 PRA  HN ES        331 40.65                             106    0.61 6  393 210 
 ORTC HN ES   3    331 42.11                             106    1.37 1  397 216 
                                                                                
