 2016  418 0606 31.0 L   6.792 -73.132150.2  RSN 16 0.6 2.4LRSN                1
 GAP=120        1.10       3.5     3.9  5.7 -0.5873E+01  0.2288E+01 -0.5172E+00E
 Epicentro: LOS SANTOS - SANTANDER                                             3
 ACTION:UPD 16-05-05 14:22 OP:rebc STATUS:               ID:20160418060631 L   I
 OLDACT:ARG 16-04-18 12:56 OP:cara STATUS:               ID:20160418055744     3
 2016-04-18-0557-44M.COL___297                                                 6
 STAT SP IPHASW D HRMM SECON CODA AMPLIT PERI AZIMU VELO AIN AR TRES W  DIS CAZ7
 BAR2 EZ IP     D  6 6 51.33                             171    0.2010 22.8 194 
 BAR2 EZ ES        6 7  6.57                             171   -0.2810 22.8 194 
 BAR2 EZ I         6 7  7.53        61.3 0.22            169           22.8 194 
 PAM  EZ EP        6 6 54.46                             152    0.8110 77.1  38 
 PAM  EN ES        6 7 11.67                             152    0.3410 77.1  38 
 PAM  EZ I         6 7 14.11        48.3 0.62            154           77.1  38 
 RUS  HZ EP        6 6 54.45                             145   -0.6510 99.6 177 
 RUS  HN ES   1    6 7 13.83                             145   -0.09 7 99.6 177 
 RUS  HZ I         6 7 14.84        25.0 0.34            144           99.6 177 
 PTB  HZ EP        6 6 58.23                             133   -0.20 9  149 259 
 PTB  HE ES   1    6 7 19.09                             133   -0.76 7  149 259 
 PTB  HZ I         6 7 22.71        30.3 0.10            131            149 259 
 OCA  HZ EP        6 6 59.70                             130   -0.03 9  161 353 
 OCA  HN ES        6 7 22.43                             130    0.27 9  161 353 
 OCA  HZ I         6 7 26.14        62.3 0.48            131            161 353 
 SPBC HZ EP        6 7  0.24                             130    0.39 9  164 220 
 SPBC HE ES        6 7 22.80                             130    0.43 9  164 220 
 SPBC HZ I         6 7 25.46        37.3 0.20            129            164 220 
 ZAR  HZ EP   1    6 7  4.67                             123    0.77 6  206 292 
 ZAR  HN ES        6 7 29.05                             123   -0.52 8  206 292 
 NOR  HZ EP   1    6 7  7.19                             119    0.14 6  235 235 
 NOR  HN ES   1    6 7 35.24                             119    0.05 6  235 235 
 NOR  HZ I         6 7 42.84        20.3 0.22            119            235 235 
 CHI  HZ EP   1    6 7  7.87                             118   -1.01 6  248 196 
 CHI  HN ES   1    6 7 38.30                             118   -0.15 6  248 196 
 CHI  HZ I         6 7 48.01         7.9 0.52            118            248 196 
 HEL  HZ EP   1    6 7 11.86                             116    0.30 6  273 256 
 SOCV BZ EP        6 7 14.50                             113    0.36 7  300  57 
 SOCV BN ES        6 7 46.97                             113   -0.83 7  300  57 
 GUY2CHZ EP   4    6 7 16.79                             113    1.91 0  302 235 
 GUY2CHN ES   4    6 7 52.63                             113    3.50 0  302 235 
 GUY2CHZ I         6 7 57.42        12.5 0.28                           302 235 
 CBOC HZ EP   1    6 7 19.03                             111    0.81 5  335 252 
 CBOC HN ES   1    6 7 54.27                             111   -0.80 5  335 252 
 CBOC HZ I         6 8  6.68         3.7 0.40            110            335 252 
 SDV  BZ EP        6 7 20.99                             109   -0.12 6  360  50 
 ORTC HZ EP        6 7 25.47                             107    0.39 6  396 216 
 ORTC HN ES        6 8  7.72                             107    0.44 6  396 216 
 ORTC HZ I         6 8 13.95         5.9 0.44            107            396 216 
 PAL  HZ EP   4    6 7 26.89                             107    0.50 0  407 239 
 PAL  HN ES   4    6 8  9.91                             107    0.29 0  407 239 
 CRJC HZ EP        6 7 31.99                             104   -1.70 5  468   3 
 CRJC HE ES   4    6 8 18.91                             104   -3.70 0  468   3 
 CRJC HZ I         6 8 24.19         5.4 0.14            104            468   3 
                                                                                
