 2013 1218 0837  9.0 L   6.316 -72.999177.0  RSN  4 0.4 1.3LRSN                1
 GAP=225        0.87       6.7    10.8  8.6  0.7720E+01 -0.3953E+01  0.8356E+00E
 Epicentro: COROMORO - SANTANDER                                               3
 ACTION:UPD 14-01-13 10:19 OP:ep   STATUS:               ID:20131218083708 L   I
 OLDACT:UP  13-12-26 10:49 OP:ep   STATUS:               ID:20131218083708 L   3
 OLDACT:REG 13-12-18 07:30 OP:jn   STATUS:               ID:20131218083000     3
 2013-12-18-0830-00M.COL___285                                                 6
 STAT SP IPHASW D HRMM SECON CODA AMPLIT PERI AZIMU VELO AIN AR TRES W  DIS CAZ7
 BAR2 SZ EP   1    837 32.66                             168   -0.06 8 36.7 326 
 BAR2 SZ ES   1    837 50.37                             168   -0.81 8 36.7 326 
 RUS  HZ EP   1    837 33.70                             164    0.28 8 47.8 191 
 RUS  HN ES   1    837 52.86                             164    0.42 8 47.8 191 
 RUS  HZ I         837 54.51         2.5 0.28            166           47.8 191 
 BRR  HZ EP        837 36.60                             145    0.1910  118 318 
 BRR  HN ES        837 57.97                             145    0.2110  118 318 
 BRR  HZ I         838  1.15         2.9 0.34            146            118 318 
 SPBC HZ EP   1    837 37.50                             140   -0.67 7  140 238 
 SPBC HE ES   1    838  1.00                             140    0.10 7  140 238 
                                                                                
