 2010  118 0115 37.9 L   6.815 -72.966146.0  RSN  7 0.4 2.2LRSN                1
 GAP=201        0.67       3.1     7.2  6.5 -0.6403E+01  0.1847E+02  0.3074E-01E
 Epicentro: CEPITA - SANTANDER                                                 3
 ACTION:UP  10-08-24 09:44 OP:vdl  STATUS:               ID:20100118011537 L   I
 2010-01-18-0110-46S.COL___096                                                 6
 STAT SP IPHASW D HRMM SECON CODA AMPLIT PERI AZIMU VELO SNR AR TRES W  DIS CAZ7
 BAR2 SZ ES   2    116 12.60                             166    -0.8 5   34 224 
 GIR2 SZ EP   1    115 57.92                             164     0.1 8   38 319 
 GIR2 SZ ES   1    116 13.73                             164     0.4 8   38 319 
 RUS  BZ EP        116  1.67                             143    -0.210  103 187 
 RUS  BN ES        116 20.57                             143     0.110  103 187 
 RUS  BZ I         116 21.89        12.7 0.36                           103 187 
 OCA  SZ EP   1    116  6.27                             129    -0.1 7  162 346 
 OCA  SZ ES   1    116 28.62                             129     0.0 7  162 346 
 RREF BN ES        117  3.01                             110    -0.4 7  338 231 
 RREF BZ I         117  8.21        10.1 0.19                           338 231 
 ANIL BN ES   1    117  9.91                             108     0.2 5  373 227 
 PRA  HN ES   1    117 16.44                             106     0.9 4  404 212 
                                                                                
