 2012  318 0934  7.8 L   5.998 -73.747 96.9  RSN  5 0.2 1.4LRSN                1
 GAP=150        0.57       3.4     3.1  8.4 -0.1275E+01  0.1332E+02 -0.7679E+01E
 ACTION:UP  12-03-31 23:20 OP:EP   STATUS:               ID:20120318093407 L   I
 2012-03-18-0930-00M.COL___202                                                 6
 STAT SP IPHASW D HRMM SECON CODA AMPLIT PERI AZIMU VELO SNR AR TRES W  DIS CAZ7
 RUS  HZ EP   1    934 24.91                             140     0.0 7   74  99 
 RUS  HN ES   1    934 37.98                             140    -0.3 7   74  99 
 RUS  HZ I         934 41.33         2.6 0.16                            74  99 
 BAR2 SZ EP   1    934 26.16                             134     0.2 7   91  44 
 BAR2 SZ ES   1    934 40.27                             134     0.2 7   91  44 
 BAR2 SZ I         934 42.61        11.6 0.33                            91  44 
 BRR  HZ EP   1    934 28.38                             124    -0.3 7  123   2 
 BRR  HN ES   1    934 45.09                             124     0.1 7  123   2 
 BRR  HZ I         934 47.00         5.6 0.11                           123   2 
 NOR  SN ES   1    934 47.15                             122     0.1 7  133 249 
 ZAR  HZ EP   1    934 38.09                             111     0.2 6  206 323 
 ZAR  HN ES   1    935  0.90                             111    -0.4 6  206 323 
 ZAR  HZ I         935  2.73         2.7 0.16                           206 323 
                                                                                
