 2010  318 0704 40.8 L   6.823 -73.074146.6  RSN 12 0.5 2.7LRSN                1
 GAP=131        0.93       4.0     6.2  5.9 -0.4737E+01  0.3168E+01  0.1450E+01E
 Epicentro: LOS SANTOS - SANTANDER                                             3
 ACTION:UP  10-08-24 09:54 OP:vdl  STATUS:               ID:20100318070440 L   I
 2010-03-18-0703-08S.COL___098                                                 6
 STAT SP IPHASW D HRMM SECON CODA AMPLIT PERI AZIMU VELO SNR AR TRES W  DIS CAZ7
 BAR2 SZ EP   1    7 5  0.82                             169     0.1 7   28 205 
 BAR2 SZ ES   1    7 5 15.34                             169    -0.8 7   28 205 
 BRR  HZ IP        7 5  2.55                             151     0.110   77 294 
 BRR  HE ES   1    7 5 19.74                             151     0.5 7   77 294 
 BRR  HZ I         7 5 20.87        68.4 0.13                            77 294 
 RUS  HZ EP        7 5  4.75                             143    -0.110  103 181 
 RUS  HN ES   1    7 5 24.09                             143     0.5 7  103 181 
 RUS  HZ I         7 5 24.69        71.4 0.25                           103 181 
 OCA  SZ EP   1    7 5  9.46                             130     0.4 7  159 350 
 OCA  SZ ES   1    7 5 30.78                             130    -0.3 7  159 350 
 OCA  SZ I         7 5 35.56        87.1 0.16                           159 350 
 CHI  HZ EP   1    7 5 19.00                             117    -0.1 6  253 197 
 CHI  HE ES   2    7 5 48.51                             117    -0.4 4  253 197 
 CHI  HZ I         7 5 51.66        25.4 0.55                           253 197 
 HEL  HZ EP   1    7 5 21.88                             114    -0.1 6  280 256 
 HEL  HZ I         7 5 59.04        20.9 0.31                           280 256 
 RREF BZ EP        7 5 28.05                             110     0.2 7  329 230 
 RREF BE ES   2    7 6  4.39                             110    -0.2 3  329 230 
 RREF BZ I         7 6 12.97        24.5 0.27                           329 230 
 DBB  SZ EP        7 5 28.47                             109    -0.8 6  347 274 
 TOL  SZ EP   1    7 5 30.66                             109     0.7 5  351 225 
 SDV  BZ EP        7 5 30.35                             109     0.3 6  353  50 
 SDV  BZ I         7 5 31.32        10.3 0.17                           353  50 
 SDV  B1 ES   2    7 6  7.57                             109    -0.8 3  353  50 
 ANIL BZ EP   1    7 5 32.20                             108     0.7 5  365 225 
 ANIL BZ I         7 6 17.87        54.1 0.35                           365 225 
 PRA  HZ EP   1    7 5 34.34                             106    -0.8 4  398 210 
 PRA  HN ES   2    7 6 16.81                             106    -0.6 3  398 210 
 PRA  HZ I         7 6 22.91        16.7 0.31                           398 210 
                                                                                
