 2013  818 0519 39.7 L   6.823 -73.147143.5  RSN 10 0.5 1.7LRSN                1
 GAP=135        1.23       4.2     5.6  7.4 -0.5382E+00  0.1825E+02  0.1300E+01E
 Epicentro: LOS SANTOS - SANTANDER                                             3
 ACTION:UPD 14-01-14 09:04 OP:ep   STATUS:               ID:20130818051939 L   I
 OLDACT:REG 13-08-18 09:23 OP:stll STATUS:               ID:20130818051839     3
 2013-08-18-0518-39M.COL___204                                                 6
 STAT SP IPHASW D HRMM SECON CODA AMPLIT PERI AZIMU VELO AIN AR TRES W  DIS CAZ7
 BAR2 SZ EP        519 59.09                             169   -0.0610 25.8 189 
 BAR2 SZ ES        520 14.40                             169    0.1110 25.8 189 
 BAR2 SZ I         520 15.58        12.5 0.26            168           25.8 189 
 BRR  HZ EP        520  0.93                             153    0.3610 69.9 297 
 BRR  HN ES        520 17.46                             153    0.6410 69.9 297 
 BRR  HZ I         520 22.06         9.0 0.18            146           69.9 297 
 PAM  SZ EP        520  1.86                             151    0.2610 75.5  41 
 PAM  SN ES        520 18.86                             151    0.2010 75.5  41 
 PAM  SZ I         520 21.44         6.9 0.64            149           75.5  41 
 RUS  HZ EP        520  3.27                             143   -0.1810  103 176 
 RUS  HN ES        520 21.45                             143   -0.5010  103 176 
 RUS  HZ I         520 23.09         5.2 0.32            140            103 176 
 PTB  HZ EP        520  5.95                             131   -0.61 9  148 258 
 SPBC HZ EP        520  8.10                             128   -0.14 9  165 218 
 SPBC HN ES        520 29.87                             128   -0.61 9  165 218 
 ZAR  HZ EP        520 11.57                             122   -0.36 9  203 291 
 ZAR  HN ES        520 36.57                             122   -0.47 9  203 291 
 ZAR  HZ I         520 41.98         4.5 0.52            117            203 291 
 SML  HN ES        520 43.50                             117   -0.75 8  241 335 
 HEL  HZ EP        520 20.56                             114    0.67 8  273 255 
 HEL  HZ I         520 57.83         3.7 0.44            110            273 255 
 GUY2CHZ EP        520 24.38                             112    0.99 7  303 234 
 GUY2CHN ES        520 58.49                             112    1.04 7  303 234 
 GUY2CHZ I         521  4.33         3.1 0.52                           303 234 
                                                                                
