 2011  918 0641 16.4 L   6.795 -73.141142.5  RSN 10 0.4 2.1LRSN                1
 GAP=137        0.87       3.9     5.1  5.2 -0.1878E+01  0.9679E+01  0.8103E+00E
 Epicentro: LOS SANTOS - SANTANDER                                             3
 ACTION:UPD 12-07-13 15:58 OP:ep   STATUS:               ID:20110918064116 L   I
 2011-09-18-0640-00M.COL___173                                                 6
 STAT SP IPHASW D HRMM SECON CODA AMPLIT PERI AZIMU VELO AIN AR TRES W  DIS CAZ7
 BTL  SZ EP        641 35.64                             171    0.0310 19.6 314 
 BTL  SZ ES   1    641 51.12                             171    0.55 7 19.6 314 
 BAR2 SZ EP        641 35.53                             170   -0.1410 22.9 192 
 BAR2 SZ ES   1    641 50.30                             170   -0.37 7 22.9 192 
 BAR2 SZ I         641 51.55        21.3 0.22                          22.9 192 
 GIR2 SZ EP        641 35.58                             167   -0.1710 31.9 349 
 GIR2 SZ ES   1    641 51.05                             167    0.24 7 31.9 349 
 BRR  HZ EP        641 37.39                             151    0.1010 72.0 299 
 BRR  HZ I         641 39.34        42.4 0.12                          72.0 299 
 BRR  HE ES   1    641 54.07                             151    0.53 7 72.0 299 
 PAM  SZ EP        641 38.30                             151   -0.0210 77.5  39 
 PAM  SE ES   1    641 55.15                             151   -0.23 7 77.5  39 
 RUS  HZ EP        641 39.55                             143   -0.2810100.0 176 
 RUS  HE ES   1    641 57.92                             143   -0.15 7100.0 176 
 OCA  SZ EP        641 44.69                             129    0.13 9  161 353 
 OCA  SZ ES   1    642  6.23                             129   -0.27 7  161 353 
 OCA  SZ I         642  9.32        11.7 0.33                           161 353 
 ZAR  HZ EP        641 48.10                             121   -0.65 9  205 292 
 ZAR  HN ES   2    642 13.35                             121   -0.61 4  205 292 
 ZAR  HZ I         642 22.20        10.6 0.38                           205 292 
 HEL  HZ EP        641 57.19                             114    0.65 8  272 256 
 HEL  HE ES   2    642 27.39                             114   -0.42 4  272 256 
 HEL  HZ I         642 34.59         6.2 0.30                           272 256 
 GUY  SZ EP        642  1.28                             111    1.10 7  304 235 
 GUY  SE ES   2    642 33.55                             111   -0.75 4  304 235 
 GUY  SZ I         642 40.80         7.6 0.34                           304 235 
                                                                                
