 2012  218 0333 52.5 L   6.770 -73.107150.0  RSN 17 0.4 2.5LRSN                1
 GAP=143        0.56       2.5     3.2  4.3 -0.1273E+01  0.2925E+01  0.3784E+01E
 ACTION:UP  12-03-07 16:31 OP:epov STATUS:               ID:20120218033352 L   I
 2012-02-18-0330-00M.COL___188                                                 6
 STAT SP IPHASW D HRMM SECON CODA AMPLIT PERI AZIMU VELO AIN AR TRES W  DIS CAZ7
 BAR2 SZ EP   1    334 12.38                             171   -0.20 7 21.3 203 
 BAR2 SZ ES   2    334 28.05                             171   -0.21 5 21.3 203 
 BAR2 SZ I         334 29.35        46.2 0.47                          21.3 203 
 GIR2 SZ EP   1    334 12.69                             166   -0.08 7 35.5 344 
 GIR2 SZ ES   2    334 28.45                             166   -0.15 5 35.5 344 
 BRR  HZ EP   1    334 14.40                             152    0.01 7 76.6 299 
 BRR  HZ I         334 14.75        37.7 0.13                          76.6 299 
 BRR  HN ES   1    334 32.32                             152    0.83 7 76.6 299 
 PAM  SZ EP   1    334 15.39                             152    0.24 7 77.4  36 
 PAM  SE ES   2    334 32.57                             152   -0.26 5 77.4  36 
 RUS  HZ EP   1    334 16.29                             146   -0.11 7 97.0 178 
 RUS  HN ES   2    334 35.14                             146    0.08 5 97.0 178 
 RUS  HZ I         334 36.49        32.5 0.54                          97.0 178 
 PTB  HZ EP   2    334 19.56                             132   -0.56 5  151 260 
 PTB  HE ES   2    334 41.36                             132   -0.32 5  151 260 
 OCA  SZ EP   2    334 21.55                             130    0.07 5  164 352 
 OCA  SZ ES   2    334 44.00                             130   -0.11 5  164 352 
 ZAR  HZ EP   1    334 24.87                             123   -0.87 6  209 293 
 ZAR  HN ES   2    334 51.59                             123   -0.10 4  209 293 
 ZAR  HZ I         334 57.40        35.7 0.41                           209 293 
 NOR  SZ EP   1    334 28.24                             119   -0.39 6  236 236 
 NOR  SN ES   2    334 56.66                             119   -0.17 4  236 236 
 CHI  HZ EP   1    334 30.46                             118    0.26 6  247 196 
 CHI  HN ES   1    334 59.56                             118   -0.06 6  247 196 
 CHI  HZ I         335  8.11        16.3 0.56                           247 196 
 ROSC BZ EP   2    334 30.81                             118    0.04 4  252 212 
 ROSC BN ES   2    335  0.17                             118   -0.47 4  252 212 
 ROSC BZ I         335  7.00        22.6 0.39                           252 212 
 HEL  HZ EP   1    334 33.87                             115    0.58 6  275 257 
 HEL  HN ES   1    335  5.03                             115   -0.08 6  275 257 
 HEL  HZ I         335 10.76        17.2 0.33                           275 257 
 VIL  SZ EP   2    334 36.11                             113    0.28 4  301 193 
 VIL  SN ES   2    335  9.68                             113    0.04 4  301 193 
 GUY  SZ EP   2    334 37.14                             113    0.40 4  305 236 
 GUY  SN ES   2    335 11.16                             113   -0.10 4  305 236 
 GUY  SZ I         335 18.57        29.4 0.48                           305 236 
 RREF HZ EP   1    334 39.58                             112    0.64 5  323 230 
 RREF HN ES   2    335 15.41                             112    0.23 3  323 230 
 RREF HZ I         335 23.44        17.5 0.25                           323 230 
 TOL  SZ EP   2    334 41.64                             110    0.65 3  344 226 
 TOL  SZ ES   2    335 18.59                             110   -0.23 3  344 226 
 PRA  HZ EP   1    334 46.03                             107   -0.03 4  391 210 
 PRA  HE ES   2    335 28.04                             107    0.18 3  391 210 
                                                                                
