 2012  418 0804 13.7 L   6.850 -73.180132.4  RSN  5 0.3 1.3LRSN                1
 GAP=130        0.62       4.9     5.6  8.2  0.9167E+01  0.1315E+02 -0.4756E+01E
 Epicentro: ZAPATOCA - SANTANDER                                               3
 ACTION:UPD 12-07-05 11:54 OP:tino STATUS:               ID:20120418080413 L   I
 2012-04-18-0800-00M.COL___187                                                 6
 STAT SP IPHASW D HRMM SECON CODA AMPLIT PERI AZIMU VELO AIN AR TRES W  DIS CAZ7
 BAR2 SZ EP   1    8 4 31.84                             167     0.0 7   29 181 
 BAR2 SZ ES   1    8 4 45.71                             167    -0.3 7   29 181 
 BAR2 SZ I         8 4 48.74         9.3 0.69                            29 181 
 BRR  HZ EP   1    8 4 33.40                             152     0.4 7   65 296 
 PAM  SZ EP   2    8 4 34.44                             149     0.1 5   76  44 
 PAM  SN ES   2    8 4 50.54                             149     0.0 5   76  44 
 RUS  HZ EP   1    8 4 36.15                             139    -0.4 7  106 174 
 RUS  HN ES   1    8 4 54.84                             139     0.4 7  106 174 
 RUS  HZ I         8 4 56.33         2.3 0.36                           106 174 
 ZAR  HN ES   1    8 5  8.79                             120    -0.1 6  198 291 
                                                                                
