 2013  118 0340 41.8 L   6.705 -73.228152.0  RSN  5 0.4 1.4LRSN                1
 GAP=220        0.73       5.2     6.9  8.3  0.1942E+02  0.1292E+01  0.6592E+01E
 Epicentro: VILLANUEVA - SANTANDER                                             3
 ACTION:UPD 13-02-15 09:15 OP:ep   STATUS:               ID:20130118034041 L   I
 2013-01-18-0340-00M.COL___241                                                 6
 STAT SP IPHASW D HRMM SECON CODA AMPLIT PERI AZIMU VELO AIN AR TRES W  DIS CAZ7
 BRR  HZ EP        341  3.22                             154   -0.2810 69.5 310 
 BRR  HN ES   1    341 20.69                             154    0.24 7 69.5 310 
 RUS  HZ EP   1    341  5.55                             148    0.05 7 91.3 170 
 RUS  HE ES   1    341 24.12                             148    0.10 7 91.3 170 
 RUS  HZ I         341 25.02         3.2 0.26            142           91.3 170 
 PTB  HZ EP   1    341  8.04                             136   -0.28 7  137 262 
 PTB  HN ES   1    341 29.27                             136    0.24 7  137 262 
 PTB  HZ I         341 31.47         5.0 0.38            131            137 262 
 ZAR  HE ES   1    341 39.51                             125   -0.01 6  200 296 
 CHI  HZ EP   1    341 19.38                             120    0.89 6  236 194 
 CHI  HN ES   1    341 46.48                             120   -0.66 6  236 194 
 CHI  HZ I         341 54.63         1.5 0.28            117            236 194 
                                                                                
