 2012  618 0721  1.2 L   6.807 -73.143146.3  RSN 10 0.5 2.3LRSN                1
 GAP=137        0.92       4.0     4.9  6.8 -0.3181E+01  0.1309E+02  0.1718E+01E
 Epicentro: LOS SANTOS - SANTANDER                                             3
 ACTION:UPD 12-08-06 17:50 OP:ep   STATUS:               ID:20120618072100 L   I
 2012-06-18-0720-00M.COL___199                                                 6
 STAT SP IPHASW D HRMM SECON CODA AMPLIT PERI AZIMU VELO AIN AR TRES W  DIS CAZ7
 BAR2 SZ EP        721 20.91                             170    0.0210 24.1 190 
 BAR2 SZ ES   1    721 36.35                             170    0.08 7 24.1 190 
 BAR2 SZ I         721 38.53        37.4 0.28            168           24.1 190 
 PAM  SZ IP        721 23.72                             151    0.3110 76.6  40 
 PAM  SZ I         721 23.93        32.3 0.20            155           76.6  40 
 PAM  SN ES   1    721 41.20                             151    0.45 7 76.6  40 
 RUS  HZ EP        721 24.77                             144   -0.2710  101 176 
 RUS  HE ES   1    721 43.64                             144   -0.01 7  101 176 
 RUS  HZ I         721 44.34        21.9 0.36            147            101 176 
 PTB  HZ EP        721 27.64                             132   -0.60 9  148 259 
 PTB  HN ES   2    721 48.86                             132   -0.47 5  148 259 
 PTB  HZ I         721 54.38        22.4 0.44            131            148 259 
 OCA  HZ EP        721 29.03                             130   -0.44 9  160 353 
 OCA  HE ES   2    721 51.17                             130   -0.36 5  160 353 
 OCA  HZ I         721 56.72        62.7 0.18            131            160 353 
 ZAR  HZ EP   2    721 34.21                             122    0.54 4  204 292 
 ZAR  HE ES   1    721 58.68                             122   -0.32 6  204 292 
 NOR  SZ EP        721 36.98                             118   -0.04 8  235 234 
 NOR  SE ES   1    722  4.89                             118   -0.08 6  235 234 
 NOR  SZ I         722 12.29         1.1 0.20            119            235 234 
 CHI  HZ EP        721 39.14                             117    0.14 8  249 195 
 CHI  HZ I         721 41.48         8.4 0.30            119            249 195 
 CHI  HN ES   2    722  7.93                             117   -0.56 4  249 195 
 HEL  HZ EP        721 42.75                             115    1.27 8  273 256 
 HEL  HN ES   2    722 14.02                             115    1.12 4  273 256 
 HEL  HZ I         722 19.21        13.1 0.34            115            273 256 
 PRA  HZ EP        721 54.55                             107   -0.27 6  393 210 
 PRA  HZ I         721 56.42        39.6 0.18            108            393 210 
                                                                                
