 2013  518 0104 14.6 L   6.263 -73.731 40.1  RSN 14 0.5 2.3LRSN                1
 GAP= 60        0.96       2.5     2.4  5.9 -0.1246E+01  0.2286E+01  0.2450E+01E
 Epicentro: LANDAZURI - SANTANDER                                              3
 ACTION:UPD 13-06-20 09:51 OP:ep   STATUS:               ID:20130518010414 L   I
 2013-05-18-0100-00M.COL___256                                                 6
 STAT SP IPHASW D HRMM SECON CODA AMPLIT PERI AZIMU VELO AIN AR TRES W  DIS CAZ7
 BAR2 SZ EP     D  1 4 31.14                             140    0.4310 70.8  59 
 BAR2 SZ ES        1 4 43.58                             140    0.3210 70.8  59 
 BAR2 SZ I         1 4 45.61       154.8 0.14            131           70.8  59 
 RUS  HZ EP     D  1 4 32.06                             136    0.0110 82.6 120 
 RUS  HE ES   1    1 4 46.24                             136    0.59 7 82.6 120 
 RUS  HZ I         1 4 47.57        35.8 0.24            125           82.6 120 
 PTB  HZ EP        1 4 31.22                             134   -0.4810 85.9 291 
 PTB  HN ES        1 4 44.81                             134   -0.2110 85.9 291 
 PTB  HZ I         1 4 45.69        47.4 0.09            128           85.9 291 
 BRR  HZ IP     C  1 4 32.44                             131    0.0710 93.4   1 
 BRR  HN ES        1 4 46.49                             131    0.2810 93.4   1 
 BRR  HZ I         1 4 48.19        87.3 0.12            124           93.4   1 
 GIR2 SZ EP        1 4 34.07                             127    0.0910  108  33 
 GIR2 SZ ES        1 4 49.15                             127    0.0710  108  33 
 NOR  HZ EP   1    1 4 37.75                             118   -0.33 7  148 239 
 NOR  HE ES   1    1 4 55.92                             118   -0.46 7  148 239 
 NOR  HZ I         1 4 59.15        59.0 0.18            111            148 239 
 PAM  SZ EP        1 4 40.02                             115   -0.51 9  165  44 
 PAM  SE ES   1    1 5  0.37                             115   -0.38 7  165  44 
 PAM  SZ I         1 5  2.22        29.9 0.18            108            165  44 
 CHI  HN ES   1    1 5  3.75                             113   -0.03 7  181 180 
 CHI  HZ I         1 5  7.97        21.1 0.23            106            181 180 
 ZAR  HZ EP        1 4 41.98                             112   -0.18 9  184 318 
 ZAR  HN ES   1    1 5  3.84                             112    0.19 7  184 318 
 ZAR  HZ I         1 5  7.97        47.3 0.40            106            184 318 
 GUY2CHZ EP        1 4 46.51                             109    0.26 8  214 238 
 GUY2CHE ES   1    1 5 12.30                             109    1.37 6  214 238 
 GUY2CHZ I         1 5 18.47        22.8 0.22                           214 238 
 TAM  HZ EP   1    1 4 45.31                             109   -0.54 6  215  85 
 TAM  HZ I         1 5  8.87        27.6 0.24            103            215  85 
 TAM  HN ES   1    1 5  9.36                             109   -0.85 6  215  85 
 OCA  HN ES   1    1 5 12.66                             108    0.58 6  223  12 
 SML  HZ EP   1    1 4 52.80                             104   -1.11 6  283 352 
 SML  HE ES   1    1 5 25.06                             104    0.49 6  283 352 
 PRA  HZ EP   1    1 4 56.94                             103   -0.25 5  310 204 
 PRA  HN ES   1    1 5 30.41                             103    0.02 5  310 204 
 PRA  HZ I         1 5 36.54        13.9 0.26             98            310 204 
                                                                                
