 2016 1218 0632 25.7 L   6.752 -73.157151.6  RSN  4 0.2 0.9LRSN                1
 GAP=232        0.59       4.8     4.6  4.8  0.1078E+02  0.1636E+01  0.6777E-01E
 Epicentro: LOS SANTOS - SANTANDER                                             3
 ACTION:UPD 17-01-11 20:16 OP:rebc STATUS:               ID:20161218063225 L   I
 OLDACT:DUP 16-12-18 18:10 OP:edw  STATUS:               ID:20161218062743d    3
 OLDACT:REG 16-12-18 14:48 OP:edw  STATUS:               ID:20161218062742     3
 2016-12-18-0628-00M.COL___381                                                 6
 STAT SP IPHASW D HRMM SECON CODA AMPLIT PERI AZIMU VELO AIN AR TRES W  DIS CAZ7
 BAR2 EZ EP        632 45.51                             173   -0.3910 17.9 189 
 BAR2 EZ ES        633  1.62                             173   -0.0610 17.9 189 
 BAR2 EZ I         633  2.00         1.5 0.15            168           17.9 189 
 BRR  HZ EP        632 47.47                             153   -0.0610 72.8 303 
 BRR  HE ES        633  4.84                             153    0.2510 72.8 303 
 RUS  HZ EP        632 49.91                             146    0.2810 95.4 175 
 RUS  HN ES        633  8.35                             146    0.0210 95.4 175 
 RUS  HZ I         633  9.31         1.4 0.26            144           95.4 175 
 PTB  HZ EP        632 53.05                             134    0.13 9  146 261 
 PTB  HN ES        633 13.99                             134   -0.19 9  146 261 
 PTB  HZ I         633 18.63         0.8 0.28            131            146 261 
                                                                                
