 2017  218 0317 22.0 L   6.763 -73.173141.4  RSN  8 0.3 1.4LRSN                1
 GAP=135        0.75       3.3     3.8  4.7  0.4108E+01  0.1850E+01  0.7476E+00E
 Epicentro: LOS SANTOS - SANTANDER                                             3
 ACTION:UPD 17-05-24 15:37 OP:jn   STATUS:               ID:20170218031722 L   I
 OLDACT:DUP 17-02-18 15:21 OP:cara STATUS:               ID:20170218030747d    3
 OLDACT:REG 17-02-18 13:24 OP:cara STATUS:               ID:20170218030744     3
 2017-02-18-0308-00M.COL___351                                                 6
 STAT SP IPHASW D HRMM SECON CODA AMPLIT PERI AZIMU VELO AIN AR TRES W  DIS CAZ7
 BAR2 EZ EP        317 41.13                             172    0.0810 18.9 183 
 BAR2 EZ ES        317 56.45                             172    0.5610 18.9 183 
 BAR2 EZ I         318  1.42         5.6 0.26            168           18.9 183 
 BRR  HZ EP        317 42.54                             152   -0.1410 70.7 303 
 BRR  HN ES        317 58.31                             152   -0.4710 70.7 303 
 PAM  EZ IP        317 44.17                             148    0.0710 82.5  39 
 PAM  EZ I         318  1.72         5.2 0.28            135           82.5  39 
 RUS  HZ EP        317 45.15                             144    0.0810 96.7 174 
 RUS  HN ES        318  2.64                             144   -0.4110 96.7 174 
 RUS  HZ I         318  6.92         2.3 0.42            133           96.7 174 
 PTB  HZ EP        317 48.25                             132   -0.05 9  144 260 
 PTB  HN ES        318  8.75                             132   -0.04 9  144 260 
 PTB  HZ I         318 11.16         5.6 0.14            123            144 260 
 ZAR  HZ EP        317 54.09                             122    0.03 9  203 294 
 ZAR  HN ES        318 19.40                             122    0.34 9  203 294 
 ZAR  HZ I         318 25.53         5.1 0.40            113            203 294 
 NOR  HZ EP   4    317 59.04                             118    2.06 0  230 235 
 NOR  HZ I         318 30.64         2.6 0.26            110            230 235 
 CHI  HZ EP        317 58.69                             117   -0.27 8  244 195 
 CHI  HN ES        318 28.10                             117    0.32 8  244 195 
 CHI  HZ I         318 34.60         1.2 0.30            109            244 195 
                                                                                
