 2017  218 0739 35.5 L   6.781 -73.121146.5  RSN  4 0.2 0.8LRSN                1
 GAP=239        0.61       4.9     4.9  5.6  0.1238E+02 -0.2436E+01 -0.1599E+01E
 Epicentro: LOS SANTOS - SANTANDER                                             3
 ACTION:UPD 17-05-24 15:37 OP:jn   STATUS:               ID:20170218073935 L   I
 OLDACT:REG 17-02-18 13:51 OP:cara STATUS:               ID:20170218073741     3
 2017-02-18-0738-00M.COL___345                                                 6
 STAT SP IPHASW D HRMM SECON CODA AMPLIT PERI AZIMU VELO AIN AR TRES W  DIS CAZ7
 BAR2 EZ EP        739 54.93                             171   -0.2610 22.0 198 
 BAR2 EZ ES        740 10.27                             171   -0.2810 22.0 198 
 BAR2 EZ I         740 11.59         1.8 0.22            173           22.0 198 
 BRR  HZ EP        739 56.98                             151    0.0610 74.6 299 
 BRR  HN ES        740 13.93                             151    0.3010 74.6 299 
 BRR  HZ I         740 16.30         1.3 0.36            153           74.6 299 
 RUS  HZ EP        739 59.28                             145    0.1210 98.4 178 
 RUS  HN ES        740 17.83                             145    0.2110 98.4 178 
 RUS  HZ I         740 18.79         1.0 0.26            147           98.4 178 
 PTB  HE ES        740 23.80                             132   -0.18 9  150 260 
                                                                                
