 2015  418 0405 30.1 L   6.802 -73.072145.9  RSN  9 0.4 2.1LRSN                1
 GAP=190        1.12       3.8     5.9  7.1 -0.2224E+01  0.1003E+02  0.8787E+00E
 Epicentro: LOS SANTOS - SANTANDER                                             3
 ACTION:UPD 15-06-03 16:55 OP:cam  STATUS:               ID:20150418040530 L   I
 OLDACT:REG 15-04-18 15:49 OP:carl STATUS:               ID:20150418035740     3
 2015-04-18-0357-40M.COL___272                                                 6
 STAT SP IPHASW D HRMM SECON CODA AMPLIT PERI AZIMU VELO AIN AR TRES W  DIS CAZ7
 BAR2 EZ IP     D  4 5 50.07                             169    0.2410 26.2 208 
 BAR2 EZ ES        4 6  4.53                             169   -0.6710 26.2 208 
 BAR2 EZ I         4 6  7.85        13.5 0.42            165           26.2 208 
 BRR  HZ EP        4 5 52.08                             150    0.3810 78.3 296 
 BRR  HN ES        4 6  9.54                             150    1.0110 78.3 296 
 BRR  HZ I         4 6 13.25        19.8 0.14            145           78.3 296 
 RUS  HZ EP        4 5 54.00                             144    0.1110  101 181 
 RUS  HN ES        4 6 12.70                             144    0.2810  101 181 
 PTB  HZ EP   4    4 5 56.27                             130   -1.57 0  156 259 
 PTB  HN ES   4    4 6 18.07                             130   -1.38 0  156 259 
 PTB  HZ I         4 6 23.95        17.3 0.28            129            156 259 
 OCA  HZ EP        4 5 58.39                             129   -0.15 9  161 350 
 OCA  HN ES        4 6 20.13                             129   -0.57 9  161 350 
 OCA  HZ I         4 6 25.06        23.9 0.42            130            161 350 
 SPBC HZ EP        4 5 59.05                             128   -0.09 9  169 221 
 SPBC HN ES        4 6 21.21                             128   -0.57 9  169 221 
 SPBC HZ I         4 6 24.63        16.3 0.10            129            169 221 
 ZAR  HZ EP   4    4 6  2.79                             121   -0.56 0  212 291 
 ZAR  HN ES        4 6 29.03                             121   -0.24 8  212 291 
 ZAR  HZ I         4 6 38.86        10.3 0.36            121            212 291 
 NOR  HZ EP        4 6  6.55                             118   -0.04 8  241 236 
 NOR  HN ES        4 6 34.57                             118   -0.46 8  241 236 
 NOR  HZ I         4 6 41.88         8.2 0.56            118            241 236 
 GUY2CHZ EP        4 6 14.65                             112    0.15 7  308 236 
 GUY2CHE ES        4 6 49.50                             112    0.38 7  308 236 
 GUY2CHZ I         4 6 57.03         3.9 0.30                           308 236 
                                                                                
