 2010  618 0127 41.9 L   6.733 -73.138149.7  RSN  6 0.4 1.7LRSN                1
 GAP=157        0.79       7.4    15.3 12.9  0.2808E+02 -0.9585E+02 -0.4672E+02E
 Epicentro: JORDAN - SANTANDER                                                 3
 ACTION:UP  10-08-24 10:11 OP:vdl  STATUS:               ID:20100618012741 L   I
 2010-06-18-0125-03S.COL___115                                                 6
 STAT SP IPHASW D HRMM SECON CODA AMPLIT PERI AZIMU VELO SNR AR TRES W  DIS CAZ7
 BAR2 SZ EP   2    128  1.41                             174    -0.5 5   16 198 
 BAR2 SZ ES   2    128 17.22                             174    -0.2 5   16 198 
 BRR  HZ EP   1    128  3.51                             152    -0.2 8   76 303 
 BRR  HN ES   2    128 20.75                             152     0.0 5   76 303 
 BRR  HZ I         128 23.15         7.4 0.16                            76 303 
 RUS  HZ EP   1    128  5.54                             147     0.0 8   93 176 
 RUS  HN ES   2    128 24.10                             147     0.2 5   93 176 
 RUS  HZ I         128 29.68         8.1 0.41                            93 176 
 BRI  SZ EP   2    128  6.23                             140    -0.4 5  115  19 
 GUE  SZ EP        128  8.12                             138     0.610  124  11 
 GRA  SZ EP   2    128  7.24                             136    -0.8 5  133  16 
                                                                                
