 2014  118 0423  1.5 L   6.808 -73.146154.2  RSN 11 0.4 2.0LRSN                1
 GAP=183        1.00       3.0     5.5  5.9 -0.1189E+01  0.3849E+01 -0.2706E+01E
 Epicentro: LOS SANTOS - SANTANDER                                             3
 ACTION:UPD 14-03-13 09:56 OP:ep   STATUS:               ID:20140118042301 L   I
 OLDACT:UP  14-01-18 13:03 OP:cam  STATUS:               ID:20140118042000     3
 OLDACT:REG 14-01-18 10:19 OP:cam  STATUS:               ID:20140118042000     3
 2014-01-18-0420-00M.COL___285                                                 6
 STAT SP IPHASW D HRMM SECON CODA AMPLIT PERI AZIMU VELO AIN AR TRES W  DIS CAZ7
 BAR2 SZ EP        423 21.97                             171   -0.1910 24.2 190 
 BAR2 SZ ES        423 38.17                             171   -0.1010 24.2 190 
 BAR2 SZ I         423 39.73        23.6 0.24            171           24.2 190 
 BRR  HZ EP        423 23.93                             154    0.3910 70.8 298 
 BRR  HE ES        423 41.45                             154    0.7210 70.8 298 
 BRR  HZ I         423 43.47        12.8 0.14            153           70.8 298 
 RUS  HZ EP        423 26.07                             145   -0.0810  101 176 
 RUS  HN ES        423 44.86                             145   -0.5110  101 176 
 RUS  HZ I         423 47.05         6.8 0.48            147            101 176 
 PTB  HZ EP        423 28.98                             134   -0.20 9  148 259 
 PTB  HN ES        423 50.23                             134   -0.54 9  148 259 
 OCA  HZ EP   1    423 31.06                             132    0.66 7  159 353 
 OCA  HN ES        423 52.73                             132   -0.21 9  159 353 
 OCA  HZ I         423 56.68        10.5 0.36            132            159 353 
 SPBC HZ EP        423 30.94                             131    0.22 9  164 219 
 SPBC HE ES        423 54.23                             131    0.72 9  164 219 
 SPBC HZ I         423 56.17        16.3 0.16            131            164 219 
 ZAR  HZ EP   2    423 34.59                             124    0.12 4  204 292 
 NOR  HZ EP   2    423 38.13                             120    0.35 4  235 234 
 NOR  HN ES        424  5.45                             120   -0.63 8  235 234 
 NOR  HZ I         424 10.02         8.5 0.22            121            235 234 
 SML  HZ EP        423 38.53                             119    0.01 8  243 335 
 SML  HE ES        424  7.34                             119   -0.06 8  243 335 
 SML  HZ I         424 14.08        14.7 0.28            120            243 335 
 CHI  HZ EP   2    423 40.30                             119    0.53 4  249 195 
 CHI  HE ES   1    424  9.86                             119    0.25 6  249 195 
 CHI  HZ I         424 14.25         3.8 0.56            120            249 195 
 GUY2CHZ EP   4    423 46.70                             114    1.14 0  302 235 
 SJC  HZ EP     C  423 56.28                             107   -0.98 6  408 327 
 SJC  HN ES   4    424 37.69                             107   -3.07 0  408 327 
                                                                                
