 2011  218 0612  8.9 L   6.790 -73.117145.0  RSN  7 0.3 1.9LRSN                1
 GAP=162        0.70       2.7     6.2  6.0 -0.7958E+01  0.1550E+02 -0.9355E+00E
 Epicentro: LOS SANTOS - SANTANDER                                             3
 ACTION:UP  11-03-28 15:09 OP:jfem STATUS:               ID:20110218061208 L   I
 2011-02-18-0608-23S.COL___137                                                 6
 STAT SP IPHASW D HRMM SECON CODA AMPLIT PERI AZIMU VELO SNR AR TRES W  DIS CAZ7
 BAR2 SZ EP   1    612 28.36                             171    -0.1 8   23 199 
 BAR2 SZ ES   1    612 43.60                             171    -0.1 8   23 199 
 BAR2 SZ I         612 46.67        23.8 0.41                            23 199 
 RUS  HZ EP   1    612 32.48                             144     0.0 8   99 178 
 RUS  HN ES   1    612 51.37                             144     0.5 8   99 178 
 RUS  HZ I         612 52.20        10.0 0.20                            99 178 
 GRA  SZ IP        612 34.24                             137     0.110  126  16 
 GRA  SZ ES   1    612 53.89                             137     0.1 7  126  16 
 GRA  SZ I         612 55.14        12.4 0.29                           126  16 
 OCA  SZ EP   1    612 37.04                             129    -0.3 7  162 352 
 OCA  SZ ES        612 59.39                             129    -0.1 9  162 352 
 OCA  SZ I         613  3.15         9.5 0.31                           162 352 
 NOR  SZ IP        612 44.78                             118    -0.1 8  237 235 
 NOR  SN ES   1    613 12.55                             118    -0.3 6  237 235 
 CHI  HZ EP   1    612 46.75                             117     0.2 6  248 196 
 CHI  HN ES        613 15.33                             117    -0.6 8  248 196 
 CHI  HZ I         613 19.75         6.1 0.55                           248 196 
 RREF HZ EP        612 55.66                             110     0.4 7  323 230 
 RREF HN ES   1    613 32.00                             110     0.7 5  323 230 
                                                                                
