 2013 1018 0850 16.0 L   6.753 -73.353 99.6  RSN  6 0.5 1.5LRSN                1
 GAP=165        1.24       8.0     5.4 15.2 -0.1725E+02  0.1869E+02  0.2006E+02E
 Epicentro: ZAPATOCA - SANTANDER                                               3
 ACTION:UPD 13-11-25 09:22 OP:ep   STATUS:               ID:20131018085016 L   I
 OLDACT:REG 13-10-18 08:59 OP:jn   STATUS:               ID:20131018084840     3
 2013-10-18-0848-40M.COL___220                                                 6
 STAT SP IPHASW D HRMM SECON CODA AMPLIT PERI AZIMU VELO AIN AR TRES W  DIS CAZ7
 BRR  HZ EP        850 31.70                             149    0.3410 55.8 315 
 BRR  HZ I         850 52.85         5.6 0.20            159           55.8 315 
 PAM  SZ EP   1    850 34.64                             133   -0.65 7 97.1  48 
 PAM  SE ES        850 50.45                             133    0.1410 97.1  48 
 PAM  SZ I         850 52.97         7.4 0.30            134           97.1  48 
 PTB  HZ EP        850 36.66                             125   -0.6110  124 259 
 PTB  HN ES        850 53.27                             125   -0.5510  124 259 
 PTB  HZ I         850 58.45         9.0 0.46            120            124 259 
 SPBC HZ EP        850 40.38                             120    0.82 9  145 213 
 SPBC HZ I         851  7.94         4.4 0.44            112            145 213 
 OCA  HZ EP   1    850 41.71                             117    0.01 7  164   1 
 ZAR  HZ EP        850 43.51                             114   -0.32 9  185 296 
 ZAR  HN ES        851  6.15                             114    0.63 9  185 296 
 ZAR  HZ I         851 11.10         6.1 0.58            114            185 296 
                                                                                
