 2012  718 0742 25.9 L   6.773 -73.147148.7  RSN 10 0.3 1.9LRSN                1
 GAP=138        0.78       3.3     4.0  5.9 -0.9559E+00  0.6469E+01  0.1406E+01E
 Epicentro: LOS SANTOS - SANTANDER                                             3
 ACTION:UPD 12-08-14 11:45 OP:ep   STATUS:               ID:20120718074225 L   I
 2012-07-18-0740-00M.COL___197                                                 6
 STAT SP IPHASW D HRMM SECON CODA AMPLIT PERI AZIMU VELO AIN AR TRES W  DIS CAZ7
 BAR2 SZ EP   1    742 45.86                             172     0.1 7   20 191 
 BAR2 SZ ES   1    743  1.14                             172    -0.2 7   20 191 
 BAR2 SZ I         743  2.57        44.1 0.22            168             20 191 
 BRR  HZ EP   1    742 47.76                             153     0.4 7   73 301 
 BRR  HN ES   1    743  5.11                             153     0.9 7   73 301 
 BRR  HZ I         743  7.65        16.3 0.22            151             73 301 
 PAM  SZ EP   1    742 48.65                             151     0.1 7   80  38 
 PAM  SN ES   1    743  5.99                             151    -0.2 7   80  38 
 RUS  HZ EP   1    742 49.34                             145    -0.3 7   98 176 
 RUS  HN ES   1    743  8.14                             145    -0.1 7   98 176 
 RUS  HZ I         743  9.66         9.0 0.34            145             98 176 
 PTB  HZ EP   1    742 52.70                             133    -0.3 7  147 260 
 PTB  HN ES   1    743 13.88                             133    -0.3 7  147 260 
 PTB  HZ I         743 16.39         7.0 0.18            131            147 260 
 OCA  HZ EP   1    742 55.01                             130     0.3 7  163 353 
 OCA  HN ES   1    743 16.78                             130    -0.4 7  163 353 
 OCA  HZ I         743 19.48        19.0 0.31            131            163 353 
 ZAR  HZ EP   1    742 58.43                             123    -0.2 6  205 293 
 ZAR  HE ES   1    743 23.64                             123    -0.5 6  205 293 
 ZAR  HZ I         743 30.04         7.6 0.23            123            205 293 
 NOR  SN ES   2    743 29.34                             119    -0.1 4  233 235 
 CHI  HZ EP   1    743  3.78                             118     0.4 6  246 195 
 CHI  HN ES   1    743 32.86                             118     0.2 6  246 195 
 CHI  HZ I         743 41.77         4.4 0.56            118            246 195 
 HEL  HZ EP   1    743  6.11                             115     0.0 6  271 256 
 HEL  HE ES   1    743 37.73                             115     0.2 6  271 256 
 HEL  HZ I         743 44.10         3.3 0.34            115            271 256 
