 2014 1118 0255 55.9 L   6.873 -73.316140.2  RSN  6 0.5 1.3LRSN                1
 GAP=102        1.22       4.9     6.7  8.9  0.1439E+01 -0.5736E+01 -0.8197E+01E
 Epicentro: BETULIA - SANTANDER                                                3
 ACTION:UPD 14-12-19 15:44 OP:nd   STATUS:               ID:20141118025555 L   I
 OLDACT:DUP 14-11-18 15:23 OP:fm   STATUS:               ID:20141118024743d    3
 2014-11-18-0247-42M.COL___286                                                 6
 STAT SP IPHASW D HRMM SECON CODA AMPLIT PERI AZIMU VELO AIN AR TRES W  DIS CAZ7
 BAR2 SZ EP        256 15.31                             166    0.1510 34.4 155 
 BAR2 SZ ES        256 29.92                             166   -0.2610 34.4 155 
 BAR2 SZ I         256 31.28        12.3 0.22            167           34.4 155 
 BRR  HZ EP        256 15.62                             159    0.2010 50.8 301 
 BRR  HN ES        256 31.03                             159    0.3910 50.8 301 
 BRR  HZ I         256 32.02         4.8 0.34            158           50.8 301 
 PAM  SZ EP        256 19.11                             147    1.0510 85.5  53 
 RUS  HZ EP        256 19.39                             140   -0.5610  111 167 
 RUS  HN ES        256 38.57                             140   -0.1410  111 167 
 RUS  HZ I         256 41.89         1.9 0.26            141            111 167 
 PTB  HZ EP        256 21.17                             134    0.2110  131 254 
 PTB  HN ES        256 40.40                             134   -0.0910  131 254 
 PTB  HZ I         256 45.72         1.5 0.46            134            131 254 
 OCA  HZ EP        256 22.41                             130   -0.52 9  151 360 
 OCA  HN ES        256 43.41                             130   -0.59 9  151 360 
 OCA  HZ I         256 47.40         3.8 0.34            132            151 360 
                                                                                
