 2017  118 0916 55.5 L   6.794 -73.142151.8  RSN 18 0.5 2.1LRSN                1
 GAP= 72        1.14       3.6     3.2  5.3  0.2354E+00  0.3903E+01  0.4288E+01E
 Epicentro: LOS SANTOS - SANTANDER                                             3
 ACTION:UPD 17-05-22 16:00 OP:jn   STATUS:               ID:20170118091655 L   I
 OLDACT:UP  17-01-18 16:40 OP:edw  STATUS:               ID:20170118090744d    3
 OLDACT:DUP 17-01-18 16:28 OP:edw  STATUS:               ID:20170118090744d    3
 OLDACT:UP  17-01-18 16:27 OP:edw  STATUS:               ID:20170118090743     3
 OLDACT:UP  17-01-18 16:26 OP:edw  STATUS:               ID:20170118090743     3
 OLDACT:REG 17-01-18 13:01 OP:dani STATUS:               ID:20170118090743     3
 2017-01-18-0908-00M.COL___325                                                 6
 STAT SP IPHASW D HRMM SECON CODA AMPLIT PERI AZIMU VELO AIN AR TRES W  DIS CAZ7
 BAR2 EZ IP     D  917 15.90                             171    0.0510 22.8 191 
 BAR2 EZ ES        917 31.28                             171   -0.4410 22.8 191 
 BAR2 EZ I         917 33.76        51.8 0.28            168           22.8 191 
 BRR  HZ EP        917 17.73                             153    0.3810 71.8 299 
 BRR  HN ES        917 34.90                             153    0.5210 71.8 299 
 BRR  HZ I         917 38.78        31.4 0.30            152           71.8 299 
 PAM  EZ EP     C  917 18.73                             152    0.3410 77.7  39 
 PAM  EN ES        917 36.15                             152   -0.0810 77.7  39 
 PAM  EZ I         917 39.01        16.3 0.28            157           77.7  39 
 RUS  HZ IP     D  917 19.86                             145    0.0510 99.9 176 
 RUS  HN ES        917 38.59                             145   -0.1810 99.9 176 
 RUS  HZ I         917 39.83        32.0 0.28            144           99.9 176 
 PTB  HZ EP   9    917 22.67                             133   -0.33 0  148 259 
 PTB  HN ES        917 43.76                             133   -0.35 9  148 259 
 PTB  HZ I         917 46.29        11.4 0.06            132            148 259 
 TAM  HZ EP        917 23.30                             132   -0.32 9  155 105 
 TAM  HN ES        917 45.94                             132    0.39 9  155 105 
 ZAR  HZ EP        917 28.54                             123    0.13 9  205 292 
 ZAR  HN ES        917 53.89                             123   -0.19 9  205 292 
 ZAR  HZ I         917 59.76        15.0 0.34            124            205 292 
 NOR  HZ IP     C  917 32.17                             120    0.58 8  235 235 
 NOR  HN ES        917 59.47                             120   -0.26 8  235 235 
 NOR  HZ I         918  5.47         9.5 0.20            119            235 235 
 CHI  HZ IP     C  917 34.22                             118    0.73 8  248 195 
 CHI  HN ES        918  3.46                             118    0.34 8  248 195 
 CHI  HZ I         918  9.59         6.6 0.32            118            248 195 
 ROSC BZ EP   4    917 35.50                             118    1.57 0  252 211 
 ROSC BN ES   4    918  8.31                             118    4.42 0  252 211 
 ROSC BZ I         918 10.60        23.6 0.40            118            252 211 
 URE  HZ EP        917 36.28                             115   -0.66 7  284 292 
 URE  HN ES   4    918  6.13                             115   -3.13 0  284 292 
 URE  HZ I         918 14.31         7.3 0.16            115            284 292 
 GUY2CHZ EP   4    917 40.84                             113    1.45 0  301 235 
 GUY2CHN ES        918 13.25                             113   -0.37 7  301 235 
 GUY2CHZ I         918 22.13         9.1 0.34                           301 235 
 PTGC HZ EP        917 39.03                             113   -0.53 7  308 159 
 PTGC HN ES        918 12.64                             113   -1.28 7  308 159 
 PTGC HZ I         918 20.74         6.4 0.42            114            308 159 
 LL6C HZ EP   4    917 22.76                             111   -18.8 0  326 358 
 LL6C HN ES   4    917 58.93                             111   -18.5 0  326 358 
 ELA  HZ EP   4    917 45.04                             111    2.44 0  329 230 
 ELA  HN ES   4    918 24.57                             111    5.23 0  329 230 
 ELA  HZ I         918 28.59         5.9 0.58            111            329 230 
 CBOC HZ EP   4    917 43.92                             111    1.22 0  334 252 
 CBOC HN ES        918 18.62                             111   -0.88 7  334 252 
 CBOC HZ I         918 30.92         2.3 0.46            111            334 252 
 ORTC HZ EP        917 50.56                             107    0.96 6  395 216 
 ORTC HN ES        918 32.09                             107    0.29 6  395 216 
 ORTC HZ I         918 37.17         4.0 0.28            108            395 216 
 PAL  HZ EP        917 51.57                             107    0.70 6  406 239 
 PAL  HN ES        918 34.46                             107    0.41 6  406 239 
 PAL  HZ I         918 37.85         2.2 0.20            107            406 239 
 SJC  HZ EP        917 49.88                             106   -1.48 6  410 327 
 SJC  HN ES   4    918 31.10                             106   -3.82 0  410 327 
 SJC  HZ I         918 35.27         2.2 0.26            107            410 327 
                                                                                
