 2014  518 0133 44.7 L   6.725 -73.731 15.5  RSN  5 0.3 0.9LRSN                1
 GAP=139        0.83       2.1     2.6  4.2  0.4753E+00  0.4370E+01  0.1095E+01E
 Epicentro: EL CARMEN DE CHUCURI - SANTANDER                                   3
 ACTION:UPD 15-03-16 16:58 OP:nd   STATUS:               ID:20140518013344 L   I
 OLDACT:UP  14-05-18 15:09 OP:spq  STATUS:               ID:20140518012818     3
 OLDACT:UP  14-05-18 15:08 OP:spq  STATUS:               ID:20140518012818     3
 OLDACT:REG 14-05-18 12:20 OP:spq  STATUS:               ID:20140518012818     3
 2014-05-18-0128-18M.COL___248                                                 6
 STAT SP IPHASW D HRMM SECON CODA AMPLIT PERI AZIMU VELO AIN AR TRES W  DIS CAZ7
 BRR  HZ IP     D  133 51.91                             107   -0.0610 42.3   3 
 BRR  HN ES        133 57.61                             107   -0.0210 42.3   3 
 BRR  HZ I         133 58.15        14.4 0.13             47           42.3   3 
 PTB  HZ EP        133 58.17                              98    0.1710 82.7 256 
 PTB  HN ES        134  8.19                              98   -0.1610 82.7 256 
 PTB  HZ I         134  8.87         5.7 0.14             47           82.7 256 
 RUS  HZ EP        134  3.94                              96    0.3410  117 142 
 RUS  HE ES   1    134 17.64                              96   -0.68 7  117 142 
 RUS  HZ I         134 24.34         1.6 0.20             47            117 142 
 ZAR  HZ EP        134  8.34                              56    0.51 9  151 304 
 ZAR  HE ES        134 25.40                              56   -0.46 9  151 304 
 ZAR  HZ I         134 26.72         2.3 0.15             47            151 304 
 NOR  HE ES   1    134 32.64                              56    0.17 7  180 224 
 NOR  HZ I         134 39.50         1.0 0.04             37            180 224 
                                                                                
