 2015  818 0520 11.1 L   6.787 -73.166150.9  RSN  6 0.3 1.3LRSN                1
 GAP=199        0.60       2.8     4.7  4.5  0.4368E+01  0.1569E+01 -0.2512E+01E
 Epicentro: LOS SANTOS - SANTANDER                                             3
 ACTION:UPD 15-09-15 23:03 OP:cam  STATUS:               ID:20150818052011 L   I
 OLDACT:REG 15-08-18 12:39 OP:spq  STATUS:               ID:20150818051738     3
 2015-08-18-0517-38M.COL___322                                                 6
 STAT SP IPHASW D HRMM SECON CODA AMPLIT PERI AZIMU VELO AIN AR TRES W  DIS CAZ7
 BAR2 EZ ES   1    520 47.16                             172    0.06 7 21.6 185 
 BAR2 EZ I         520 47.32         3.8 0.30            165           21.6 185 
 BRR  HZ EP        520 32.78                             154    0.0210 69.9 300 
 BRR  HN ES        520 49.93                             154    0.3010 69.9 300 
 BRR  HZ I         520 53.93         2.6 0.26            149           69.9 300 
 RUS  HZ EP   1    520 35.54                             145    0.25 7 99.3 175 
 RUS  HE ES   1    520 53.69                             145   -0.45 7 99.3 175 
 RUS  HZ I         520 55.55         2.3 0.38            144           99.3 175 
 SPBC HZ EP        520 39.82                             131    0.04 9  161 219 
 SPBC HE ES        521  2.04                             131   -0.09 9  161 219 
 SPBC HZ I         521  9.34         3.6 0.18            129            161 219 
 ZAR  HZ EP        520 43.61                             124   -0.14 9  203 293 
 ZAR  HE ES        521  9.17                             124   -0.02 9  203 293 
 ZAR  HZ I         521 14.25         2.4 0.32            123            203 293 
 SML  HZ EP        520 48.34                             118    0.26 8  244 336 
 SML  HN ES   1    521 16.20                             118   -0.71 6  244 336 
                                                                                
