 2013  318 0311 14.3 L   6.789 -73.165149.5  RSN  7 0.4 2.3LRSN                1
 GAP=145        0.82       4.8     4.5  6.4  0.1150E+01  0.4389E+01 -0.6238E+01E
 Epicentro: LOS SANTOS - SANTANDER                                             3
 ACTION:UPD 13-04-09 14:03 OP:ep   STATUS:               ID:20130318031114 L   I
 2013-03-18-0310-00M.COL___243                                                 6
 STAT SP IPHASW D HRMM SECON CODA AMPLIT PERI AZIMU VELO AIN AR TRES W  DIS CAZ7
 BAR2 SZ EP        311 34.37                             171   -0.0310 21.9 185 
 BAR2 SZ ES        311 49.73                             171   -0.3210 21.9 185 
 BAR2 SZ I         311 50.88        26.3 0.40            170           21.9 185 
 BRR  HZ EP     C  311 36.27                             154    0.4310 69.9 300 
 BRR  HN ES        311 53.06                             154    0.4610 69.9 300 
 BRR  HN I         311 53.99        37.9 0.30            149           69.9 300 
 PAM  SZ EP        311 37.22                             151    0.1210 79.7  40 
 PAM  SN ES   1    311 54.74                             151   -0.10 7 79.7  40 
 PAM  SN I         311 55.36        20.7 0.46            153           79.7  40 
 PTB  HZ EP        311 40.97                             133   -0.45 9  145 259 
 PTB  HN ES   2    312  2.09                             133   -0.44 5  145 259 
 PTB  HE I         312  7.65        15.8 0.36            131            145 259 
 OCA  HZ EP   1    311 43.42                             130    0.38 7  161 354 
 OCA  HN ES   2    312  5.19                             130   -0.23 5  161 354 
 OCA  HN I         312  8.28        57.6 0.20            130            161 354 
 ZAR  HN ES        312 12.45                             123    0.18 9  203 293 
 ZAR  HN I         312 20.81        14.4 0.12            122            203 293 
 SML  HN ES        312 19.36                             118   -0.60 8  244 336 
                                                                                
