 2015 1118 0233 57.1 L   6.806 -73.112146.6  RSN  9 0.4 1.7LRSN                1
 GAP=141        0.87       2.9     3.9  5.4 -0.1550E+01  0.7634E+01 -0.2692E+00E
 Epicentro: LOS SANTOS - SANTANDER                                             3
 ACTION:UPD 15-12-28 16:11 OP:cam  STATUS:               ID:20151118023357 L   I
 OLDACT:REG 15-11-18 12:38 OP:ak   STATUS:               ID:20151118022737     3
 2015-11-18-0227-37M.COL___313                                                 6
 STAT SP IPHASW D HRMM SECON CODA AMPLIT PERI AZIMU VELO AIN AR TRES W  DIS CAZ7
 BAR2 EZ EP        234 16.44                             170   -0.4110 24.9 198 
 BAR2 EZ ES        234 32.17                             170   -0.1010 24.9 198 
 BAR2 EZ I         234 32.87         7.9 0.28            169           24.9 198 
 BRR  HZ EP        234 18.64                             152    0.1410 74.2 297 
 BRR  HN ES        234 35.75                             152    0.5510 74.2 297 
 PAM  EZ EP        234 19.62                             152    0.3910 74.5  38 
 PAM  EE ES        234 36.54                             152    0.0410 74.5  38 
 PAM  EZ I         234 38.52         7.8 0.44            154           74.5  38 
 RUS  HZ EP        234 20.94                             144   -0.0210  101 178 
 RUS  HE ES        234 39.09                             144   -0.4910  101 178 
 RUS  HZ I         234 41.59         4.5 0.36            145            101 178 
 SPBC HZ EP        234 26.18                             129    0.25 9  166 220 
 SPBC HN ES        234 48.66                             129    0.24 9  166 220 
 SPBC HZ I         234 53.92         5.1 0.15            129            166 220 
 ZAR  HZ EP   1    234 30.61                             122    0.69 6  207 292 
 ZAR  HE ES        234 55.17                             122   -0.36 8  207 292 
 ZAR  HZ I         234 57.54         5.2 0.11            122            207 292 
 NOR  HZ EP        234 33.53                             118    0.30 8  238 235 
 NOR  HE ES        235  1.18                             118   -0.25 8  238 235 
 NOR  HZ I         235  6.44         4.9 0.05            119            238 235 
 SML  HZ EP   1    234 33.15                             117   -0.72 6  245 334 
 SML  HE ES        235  2.07                             117   -0.49 8  245 334 
 SML  HZ I         235 10.11         6.1 0.22            118            245 334 
 GUY2CHZ EP   4    234 43.09                             112    1.97 0  305 235 
 GUY2CHN ES        235 15.47                             112   -0.00 7  305 235 
 GUY2CHZ I         235 25.12         2.4 0.74                           305 235 
                                                                                
