 2013  218 0407 23.0 L   6.793 -73.088150.9  RSN  7 0.4 1.3LRSN                1
 GAP=144        0.74       4.1     4.7  7.4  0.1840E+00  0.7434E+01 -0.7231E+00E
 Epicentro: LOS SANTOS - SANTANDER                                             3
 ACTION:UPD 13-03-12 09:33 OP:ep   STATUS:               ID:20130218040723 L   I
 2013-02-18-0405-41M.COL___184                                                 6
 STAT SP IPHASW D HRMM SECON CODA AMPLIT PERI AZIMU VELO AIN AR TRES W  DIS CAZ7
 BAR2 SZ ES   1    4 7 58.89                             170   -0.16 7 24.6 205 
 PAM  SZ EP   1    4 7 45.56                             153    0.02 7 74.1  35 
 PAM  SN ES   1    4 8  2.96                             153   -0.19 7 74.1  35 
 PAM  SZ I         4 8  5.40         5.4 0.32            156           74.1  35 
 BRR  HZ EP   1    4 7 45.17                             151    0.16 7 77.2 297 
 BRR  HN ES   1    4 8  2.88                             151    0.68 7 77.2 297 
 BRR  HZ I         4 8  6.81         3.1 0.12            153           77.2 297 
 RUS  HZ EP   1    4 7 47.41                             145    0.25 7 99.6 180 
 RUS  HN ES   1    4 8  6.11                             145    0.08 7 99.6 180 
 RUS  HZ I         4 8  7.42         2.3 0.32            149           99.6 180 
 PTB  HZ EP   1    4 7 50.65                             132   -0.25 7  154 260 
 PTB  HN ES   1    4 8 11.91                             132   -0.79 7  154 260 
 PTB  HZ I         4 8 14.45         3.2 0.16            135            154 260 
 OCA  HN ES   1    4 8 14.02                             130   -0.32 7  162 351 
 ZAR  HN ES   1    4 8 22.88                             123    0.44 6  210 292 
                                                                                
