 2013  218 0033  3.8 L   6.792 -73.158144.0  RSN  7 0.4 2.0LRSN                1
 GAP=135        0.80       3.5     5.3  6.3  0.3443E+00  0.6071E+01  0.4239E+00E
 Epicentro: LOS SANTOS - SANTANDER                                             3
 ACTION:UPD 13-03-12 09:33 OP:ep   STATUS:               ID:20130218003303 L   I
 2013-02-18-0030-00M.COL___241                                                 6
 STAT SP IPHASW D HRMM SECON CODA AMPLIT PERI AZIMU VELO AIN AR TRES W  DIS CAZ7
 BAR2 SZ EP   1    033 23.24                             171    0.03 7 22.2 187 
 BAR2 SZ ES   1    033 37.78                             171   -0.55 7 22.2 187 
 BAR2 SZ I         033 39.67        38.9 0.20            167           22.2 187 
 BRR  HZ EP   1    033 25.17                             152    0.44 7 70.5 300 
 BRR  HN ES   1    033 41.94                             152    0.90 7 70.5 300 
 BRR  HZ I         033 42.78        18.6 0.12            151           70.5 300 
 PAM  SZ EP   1    033 26.15                             150    0.21 7 79.0  40 
 PAM  SN ES   1    033 43.00                             150   -0.19 7 79.0  40 
 PAM  SZ I         033 45.19        16.7 0.48            156           79.0  40 
 RUS  HZ EP   1    033 27.24                             144   -0.09 7 99.7 175 
 RUS  HN ES   1    033 45.69                             144    0.02 7 99.7 175 
 PTB  HZ EP   1    033 29.80                             132   -0.70 7  146 259 
 PTB  HN ES   1    033 50.98                             132   -0.33 7  146 259 
 PTB  HZ I         033 58.08        10.8 0.44            131            146 259 
 SML  HZ EP   1    033 40.32                             117   -0.05 6  244 336 
 SML  HN ES   1    034  8.57                             117   -0.31 6  244 336 
 CHI  HZ EP   1    033 41.58                             117    0.31 6  247 195 
 CHI  HN ES   1    034 10.73                             117    0.24 6  247 195 
 CHI  HZ I         034 18.39         3.7 0.36            117            247 195 
                                                                                
