 2017  118 0039 37.6 L   6.737 -73.226152.7  RSN  4 0.1 1.3LRSN                1
 GAP=223        0.45       3.7     3.7  4.5  0.9153E+01 -0.2571E+00 -0.8978E+00E
 Epicentro: VILLANUEVA - SANTANDER                                             3
 ACTION:UPD 17-05-22 16:00 OP:jn   STATUS:               ID:20170118003937 L   I
 OLDACT:DUP 17-01-18 13:09 OP:dani STATUS:               ID:20170118003740d    3
 OLDACT:UP  17-01-18 13:08 OP:dani STATUS:               ID:20170118003739     3
 OLDACT:UP  17-01-18 13:08 OP:dani STATUS:               ID:20170118003739     3
 OLDACT:REG 17-01-18 12:30 OP:dani STATUS:               ID:20170118003739     3
 2017-01-18-0038-00M.COL___331                                                 6
 STAT SP IPHASW D HRMM SECON CODA AMPLIT PERI AZIMU VELO AIN AR TRES W  DIS CAZ7
 BRR  HZ EP        039 59.23                             155   -0.1210 67.6 307 
 BRR  HN ES        040 16.26                             155   -0.0210 67.6 307 
 BRR  HZ I         040 19.02         6.9 0.44            156           67.6 307 
 RUS  HZ EP        040  1.89                             147    0.2210 94.7 170 
 RUS  HN ES        040 20.38                             147   -0.0410 94.7 170 
 RUS  HZ I         040 21.69         2.4 0.38            149           94.7 170 
 PTB  HZ EP        040  4.10                             136   -0.21 9  138 261 
 PTB  HN ES        040 25.11                             136   -0.01 9  138 261 
 PTB  HZ I         040 27.87         1.4 0.25            137            138 261 
 ZAR  HE ES        040 35.47                             125    0.21 9  199 295 
                                                                                
