 2015  518 0655 24.7 L   6.820 -73.108145.7  RSN  4 0.4 1.4LRSN                1
 GAP=206        0.97       7.1     8.4 10.2  0.6532E+01  0.1661E+02 -0.1019E+02E
 Epicentro: LOS SANTOS - SANTANDER                                             3
 ACTION:UPD 15-09-10 22:05 OP:cam  STATUS:               ID:20150518065524 L   I
 OLDACT:DUP 15-05-18 17:26 OP:spq  STATUS:               ID:20150518064739d    3
 2015-05-18-0647-38M.COL___286                                                 6
 STAT SP IPHASW D HRMM SECON CODA AMPLIT PERI AZIMU VELO AIN AR TRES W  DIS CAZ7
 BAR2 EZ EP   1    655 44.47                             169    0.12 7 26.5 198 
 BAR2 EZ ES   1    655 59.11                             169   -0.60 7 26.5 198 
 BAR2 EZ I         656  0.34         5.3 0.17            170           26.5 198 
 BRR  HZ EP        655 45.97                             152    0.0110 73.9 296 
 BRR  HN ES        656  3.21                             152    0.6410 73.9 296 
 BRR  HZ I         656  5.50         4.3 0.30            148           73.9 296 
 OCA  HN ES        656 14.62                             130   -0.15 9  159 352 
 OCA  HZ I         656 18.36         4.4 0.32            129            159 352 
 ZAR  HZ EP   1    655 57.79                             122    0.38 6  207 291 
 ZAR  HE ES        656 22.39                             122   -0.57 8  207 291 
 ZAR  HZ I         656 28.61         2.4 0.44            122            207 291 
                                                                                
