 2011  118 0823  1.0 L   6.829 -73.220132.4  RSN  4 0.3 1.5LRSN                1
 GAP=184        0.56       3.9    16.7  8.4 -0.2425E+02  0.2255E+02 -0.1032E+02E
 Epicentro: ZAPATOCA - SANTANDER                                               3
 ACTION:UP  11-02-08 08:41 OP:pat  STATUS:               ID:20110118082301 L   I
 2011-01-18-0818-02S.COL___134                                                 6
 STAT SP IPHASW D HRMM SECON CODA AMPLIT PERI AZIMU VELO SNR AR TRES W  DIS CAZ7
 BAR2 SZ EP   2    823 18.97                             168    -0.1 5   27 171 
 BAR2 SZ ES   2    823 33.55                             168     0.4 5   27 171 
 BAR2 SZ I         823 34.94        12.2 0.26                            27 171 
 RUS  HZ EP   2    823 23.46                             140    -0.3 5  105 172 
 RUS  HN ES   2    823 41.38                             140    -0.1 5  105 172 
 RUS  HZ I         823 42.52         3.7 0.18                           105 172 
 GRA  SZ IP        823 25.07                             134     0.010  125  21 
 GRA  SZ ES   1    823 43.76                             134     0.0 7  125  21 
 GRA  SZ I         823 45.62         4.8 0.37                           125  21 
 OCA  SZ EP   2    823 28.49                             127     0.6 5  156 356 
 OCA  SZ ES   2    823 48.34                             127    -0.5 5  156 356 
 OCA  SZ I         823 51.15         4.4 0.66                           156 356 
                                                                                
