 2012  918 0657 28.6 L   6.793 -73.155144.0  RSN 18 0.5 3.6LRSN 3.6WRSN        1
 SPEC AVERAGE  MO 14.5 ST 34.4 OM  3.5 f0 3.64 R0.4374 AL 3.01 WI  6.6 MW  3.6 3
 SPEC SD       MO  0.3 ST 37.8 OM  0.8 f0 1.12 R0.1112 AL      WI      MW  0.2 3
 GAP= 65        1.01       3.9     3.5  5.9  0.1670E+01  0.3609E+01  0.7932E+01E
 Epicentro: LOS SANTOS - SANTANDER                                             3
 SPEC YOP SH N MO 14.7 ST 13.8 OM  3.0 f0 2.65 R0.5547 AL 2.33 WI  6.1 MW  3.8 3
 SPEC YOP SH N T 65822 K 0.000 GD  229 VS 4.20 DE 3.00 Q0230.0 QA 0.60 VS 4.20 3
 SPEC RUS HH Z MO 14.1 ST  4.8 OM  2.5 f0 2.99 R0.4916 AL 2.53 WI  3.0 MW  3.4 3
 SPEC RUS HH Z T 65810 K 0.000 GD  175 VS 4.20 DE 3.00 Q0230.0 QA 0.60 VS 4.20 3
 SPEC RUS HH N MO 14.9 ST127.0 OM  3.3 f0 4.83 R0.3043 AL 2.56 WI  4.0 MW  3.9 3
 SPEC RUS HH N T 65810 K 0.000 GD  175 VS 4.20 DE 3.00 Q0230.0 QA 0.60 VS 4.20 3
 SPEC TAM HH N MO 14.3 ST  5.4 OM  2.6 f0 2.71 R0.5424 AL 3.12 WI  4.9 MW  3.5 3
 SPEC TAM HH N T 65817 K 0.000 GD  212 VS 4.20 DE 3.00 Q0230.0 QA 0.60 VS 4.20 3
 SPEC PAM SH N MO 14.3 ST 53.1 OM  2.7 f0 5.85 R0.2513 AL 5.64 WI  3.8 MW  3.5 3
 SPEC PAM SH N T 658 7 K 0.000 GD  164 VS 4.20 DE 3.00 Q0230.0 QA 0.60 VS 4.20 3
 SPEC HEL HH N MO 14.3 ST 18.7 OM  2.4 f0 4.22 R0.3483 AL 2.14 WI  8.2 MW  3.4 3
 SPEC HEL HH N T 65840 K 0.000 GD  306 VS 4.20 DE 3.00 Q0230.0 QA 0.60 VS 4.20 3
 SPEC CHI HH N MO 14.8 ST 28.4 OM  3.0 f0 3.13 R0.4696 AL 2.55 WI  7.3 MW  3.8 3
 SPEC CHI HH N T 65835 K 0.000 GD  286 VS 4.20 DE 3.00 Q0230.0 QA 0.60 VS 4.20 3
 SPEC ROSCBH Z MO 14.9 ST 24.2 OM  3.1 f0 2.74 R0.5365 AL 3.24 WI 15.8 MW  3.9 3
 SPEC ROSCBH Z T 65833 K 0.000 GD  290 VS 4.20 DE 3.00 Q0230.0 QA 0.60 VS 4.20 3
 ACTION:UPD 12-10-22 14:19 OP:ep   STATUS:               ID:20120918065728 L   I
 2012-09-18-0656-42M.COL___205                                                 6
 STAT SP IPHASW D HRMM SECON CODA AMPLIT PERI AZIMU VELO AIN AR TRES W  DIS CAZ7
 BAR2 SZ IP     D  657 47.99                             171   -0.0310 22.4 188 
 BAR2 SZ I         657 48.39      1147.3 0.36                          22.4 188 
 BAR2 SZ ES   1    658  2.69                             171   -0.47 7 22.4 188 
 GIR2 SZ IP        657 48.04                             167   -0.0610 31.9 352 
 BRR  HZ IP     C  657 49.84                             152    0.2910 70.6 299 
 BRR  HE ES        658  6.72                             152    0.8510 70.6 299 
 BRR  HZ I         658 10.90      1176.6 0.14                          70.6 299 
 PAM  SZ EP        657 50.69                             150   -0.0410 78.6  40 
 PAM  SN ES   1    658  7.65                             150   -0.32 7 78.6  40 
 PAM  SZ I         658 10.10       687.8 0.52                          78.6  40 
 RUS  HZ IP     C  657 51.86                             144   -0.2910 99.9 175 
 RUS  HN ES   1    658 10.37                             144   -0.14 7 99.9 175 
 RUS  HZ I         658 11.66       348.0 0.46                          99.9 175 
 GRA  SZ IP   9 D  657 55.75                             136    1.95 0  127  18 
 GRA  SZ ES   9    658 15.38                                   -0.01 0  127  18 
 GRA  SZ I         658 18.23       798.0 0.40                           127  18 
 PTB  HN ES   1    658 14.82                             132   -1.36 7  147 259 
 TAM  HZ IP        657 56.17                             130   -0.07 9  156 105 
 TAM  HE ES   1    658 17.73                             130   -0.05 7  156 105 
 TAM  HZ I         658 18.62       112.8 0.48                           156 105 
 YOP  SZ EP     D  657 58.59                             126    0.07 9  179 153 
 YOP  SN ES   1    658 22.64                             126    0.80 7  179 153 
 YOP  SZ I         658 23.60       284.6 0.24                           179 153 
 ZAR  HZ EP        658  0.52                             122   -0.36 9  203 292 
 ZAR  HN ES   1    658 26.32                             122    0.28 6  203 292 
 ZAR  HZ I         658 32.09       603.8 0.32                           203 292 
 NOR  SZ EP        658  3.95                             118   -0.16 8  233 234 
 NOR  SN ES   1    658 31.94                             118    0.15 6  233 234 
 NOR  SZ I         658 35.25       212.2 0.30                           233 234 
 CHI  HZ EP   1    658  5.80                             117   -0.32 6  248 195 
 CHI  HE ES   1    658 35.53                             117    0.17 6  248 195 
 CHI  HZ I         658 37.90       107.2 0.28                           248 195 
 ROSC BZ EP        658  7.51                             116    0.99 8  252 211 
 ROSC BZ I         658 41.89       372.3 0.45                           252 211 
 HEL  HZ EP   1    658  8.00                             114   -0.61 6  271 256 
 HEL  HZ I         658 47.42       198.6 0.24                           271 256 
 HEL  HE I         658 47.80       221.8 0.30                           271 256 
 VIL  SZ EP   1    658 11.08                             112   -0.77 5  302 191 
 VIL  SN ES   1    658 45.24                             112   -0.33 5  302 191 
 VIL  SN I         658 51.49       402.8 0.40                           302 191 
 VIL  SZ I         658 53.20       200.2 0.46                           302 191 
 GUY  SZ EP   1    658 12.23                             112   -0.04 5  302 235 
 RREF HZ EP   1    658 14.93                             111    0.39 5  320 229 
 RREF HZ I         658 57.67       303.4 0.26                           320 229 
 ANIL HZ EP   1    658 19.18                             108    0.97 5  356 224 
                                                                                
