 2015  318 0803 23.6 L   6.801 -73.147143.0  RSN 10 0.6 1.6LRSN                1
 GAP= 71        1.46       4.8     5.4  8.2 -0.9416E+00  0.4749E+01 -0.1770E+01E
 Epicentro: LOS SANTOS - SANTANDER                                             3
 ACTION:UPD 15-04-30 16:26 OP:nd   STATUS:               ID:20150318080323 L   I
 OLDACT:REG 15-03-18 13:38 OP:stll STATUS:               ID:20150318075737     3
 2015-03-18-0757-37M.COL___272                                                 6
 STAT SP IPHASW D HRMM SECON CODA AMPLIT PERI AZIMU VELO AIN AR TRES W  DIS CAZ7
 BAR2 EZ EP        8 3 42.90                             170    0.0010 23.4 190 
 BAR2 EZ ES        8 3 57.85                             170   -0.1110 23.4 190 
 BAR2 EZ I         8 3 58.90         7.2 0.36            173           23.4 190 
 BRR  HZ EP        8 3 44.78                             152    0.3410 71.0 299 
 BRR  HN ES        8 4  1.88                             152    1.1810 71.0 299 
 PAM  SZ EP        8 3 45.71                             150    0.1810 77.4  40 
 PAM  SZ I         8 3 45.96         6.1 0.26            150           77.4  40 
 PAM  SN ES        8 4  2.45                             150   -0.1810 77.4  40 
 RUS  HZ EP        8 3 47.52                             143    0.4310  101 176 
 RUS  HN ES        8 4  5.34                             143   -0.0710  101 176 
 RUS  HZ I         8 4  6.20         4.6 0.22            147            101 176 
 PTB  HZ EP        8 3 49.80                             131   -0.53 9  148 259 
 PTB  HN ES        8 4 10.52                             131   -0.66 9  148 259 
 PTB  HZ I         8 4 13.55         5.4 0.28            131            148 259 
 TAM  HZ EP        8 3 51.05                             130   -0.03 9  155 105 
 TAM  HZ I         8 3 51.15         8.2 0.20            133            155 105 
 OCA  HN ES        8 4 12.68                             129   -0.92 9  160 353 
 OCA  HZ I         8 4 22.71         8.6 0.30            128            160 353 
 SPBC HZ EP        8 3 52.01                             128    0.13 9  163 219 
 SPBC HN ES        8 4 13.26                             128   -0.68 9  163 219 
 ZAR  HZ EP        8 3 57.07                             122    1.22 9  204 292 
 ZAR  HE ES        8 4 21.08                             122    0.08 9  204 292 
 ZAR  HZ I         8 4 29.93         4.6 0.28            121            204 292 
 SML  HZ EP        8 3 59.34                             117   -0.72 8  244 335 
                                                                                
