 2012  218 0106 18.2 L   7.288 -73.283126.0  RSN  7 0.3 2.0LRSN                1
 GAP=167        0.46       4.0     2.7  4.2  0.5288E+00  0.3258E+01  0.1040E+01E
 ACTION:UP  12-03-07 16:31 OP:epov STATUS:               ID:20120218010618 L   I
 2012-02-18-0100-00M.COL___188                                                 6
 STAT SP IPHASW D HRMM SECON CODA AMPLIT PERI AZIMU VELO AIN AR TRES W  DIS CAZ7
 GIR2 SZ EP   1    1 6 35.27                             168   -0.09 7 25.2 157 
 GIR2 SZ ES   2    1 6 48.37                             168   -0.38 5 25.2 157 
 BRR  HZ EP        1 6 35.97                             156   -0.1710 51.4 247 
 BRR  HZ I         1 6 36.25        41.3 0.14                          51.4 247 
 BRR  HE ES   1    1 6 50.05                             156   -0.07 7 51.4 247 
 PAM  SZ EP   1    1 6 37.52                             151   -0.04 7 64.7  85 
 PAM  SN ES   1    1 6 52.85                             151    0.19 7 64.7  85 
 BAR2 SZ EP   1    1 6 38.33                             146    0.30 7 77.7 172 
 BAR2 SZ ES   2    1 6 53.67                             146    0.18 5 77.7 172 
 BAR2 SZ I         1 6 54.87        26.4 0.17                          77.7 172 
 PTB  HZ EP   1    1 6 44.20                             126   -0.03 7  154 238 
 PTB  HN ES   2    1 7  4.34                             126   -0.19 5  154 238 
 RUS  HZ EP   1    1 6 44.78                             126   -0.29 7  156 172 
 RUS  HN ES   2    1 7  6.44                             126    0.42 5  156 172 
 ZAR  HZ EP   1    1 6 46.45                             122    0.05 7  175 278 
 ZAR  HE ES   2    1 7  9.09                             122    0.70 4  175 278 
 ZAR  HZ I         1 7 12.02         8.1 0.24                           175 278 
                                                                                
