 2014  818 0403 45.6 L   6.808 -73.155146.2  RSN  7 0.4 1.5LRSN                1
 GAP=182        1.04       3.5     6.4  7.0  0.1603E+01  0.4068E+01 -0.3730E+01E
 Epicentro: LOS SANTOS - SANTANDER                                             3
 ACTION:UPD 14-09-15 21:50 OP:nd   STATUS:               ID:20140818040345 L   I
 OLDACT:REG 14-08-18 14:30 OP:stll STATUS:               ID:20140818035819     3
 2014-08-18-0358-19M.COL___263                                                 6
 STAT SP IPHASW D HRMM SECON CODA AMPLIT PERI AZIMU VELO AIN AR TRES W  DIS CAZ7
 BAR2 SZ EP        4 4  5.44                             170    0.0910 24.0 187 
 BAR2 SZ ES        4 4 20.50                             170   -0.2110 24.0 187 
 BAR2 SZ I         4 4 23.11         5.8 0.26            168           24.0 187 
 BRR  HZ EP        4 4  7.38                             153    0.6110 69.8 298 
 BRR  HN ES        4 4 23.77                             153    0.5210 69.8 298 
 BRR  HZ I         4 4 26.69         4.5 0.56            148           69.8 298 
 RUS  HZ EP        4 4  9.47                             144   -0.0410  102 175 
 RUS  HZ I         4 4 10.26         2.1 0.42            145            102 175 
 RUS  HE ES        4 4 27.62                             144   -0.5110  102 175 
 PTB  HZ EP        4 4 12.71                             132    0.14 9  147 258 
 PTB  HN ES        4 4 33.14                             132   -0.44 9  147 258 
 PTB  HZ I         4 4 40.93         4.2 0.28            130            147 258 
 OCA  HN ES        4 4 36.27                             130    0.33 9  159 353 
 SPBC HZ EP        4 4 14.33                             129    0.15 9  163 219 
 SPBC HN ES        4 4 36.67                             129    0.23 9  163 219 
 SPBC HZ I         4 4 41.38         5.2 0.22            128            163 219 
 SML  HZ EP        4 4 21.89                             118   -0.28 8  242 335 
 SML  HN ES        4 4 49.69                             118   -0.96 8  242 335 
 SML  HZ I         4 4 58.03         4.5 0.24            118            242 335 
                                                                                
