 2012 1218 0635 29.7 L   6.955 -73.387127.8  RSN  4 0.2 1.2LRSN                1
 GAP=171        0.46       3.4     5.4  4.4 -0.4716E+01  0.4057E+01 -0.4006E+01E
 Epicentro: SAN VICENTE DE CHUCURI - SANTANDER                                 3
 ACTION:UPD 13-01-04 14:28 OP:ep   STATUS:               ID:20121218063529 L   I
 2012-12-18-0630-00M.COL___242                                                 6
 STAT SP IPHASW D HRMM SECON CODA AMPLIT PERI AZIMU VELO AIN AR TRES W  DIS CAZ7
 BRR  HZ EP        635 47.44                             162    0.1510 39.6 295 
 BRR  HZ I         635 47.70         3.0 0.13                          39.6 295 
 BRR  HE ES        636  1.15                             162    0.1210 39.6 295 
 BAR2 SZ ES   2    636  1.77                             159   -0.36 5 46.1 151 
 BAR2 SZ I         636  3.32         8.0 0.25                          46.1 151 
 PTB  HZ EP        635 53.39                             132    0.1210  127 249 
 PTB  HN ES   1    636 11.40                             132   -0.28 7  127 249 
 PTB  HZ I         636 13.21         1.7 0.30                           127 249 
 SML  HZ EP   1    636  2.20                             116   -0.27 6  218 340 
 SML  HN ES   1    636 27.97                             116   -0.08 6  218 340 
                                                                                
