 2015 1118 0142 42.2 L   6.799 -73.118149.4  RSN 10 0.4 1.9LRSN                1
 GAP=140        0.96       2.9     4.2  5.3 -0.1844E+01  0.8314E+01  0.4417E+00E
 Epicentro: LOS SANTOS - SANTANDER                                             3
 ACTION:UPD 15-12-28 16:11 OP:cam  STATUS:               ID:20151118014242 L   I
 OLDACT:REG 15-11-18 12:34 OP:ak   STATUS:               ID:20151118013748     3
 2015-11-18-0137-48M.COL___313                                                 6
 STAT SP IPHASW D HRMM SECON CODA AMPLIT PERI AZIMU VELO AIN AR TRES W  DIS CAZ7
 BAR2 EZ EP        143  2.76                             170    0.4610 24.0 197 
 BAR2 EZ ES        143 17.59                             170   -0.3710 24.0 197 
 BAR2 EZ I         143 18.93        20.0 0.18            170           24.0 197 
 BRR  HZ EP        143  4.29                             152    0.3710 74.0 297 
 BRR  HE ES        143 21.52                             152    0.6810 74.0 297 
 BRR  HZ I         143 22.69         6.5 0.18            151           74.0 297 
 PAM  EZ EP        143  5.14                             152    0.4210 75.5  38 
 PAM  EE ES        143 22.33                             152    0.0710 75.5  38 
 PAM  EZ I         143 24.85         9.0 0.64            154           75.5  38 
 RUS  HZ EP        143  6.01                             145   -0.3110  100 178 
 RUS  HE ES        143 24.81                             145   -0.3010  100 178 
 RUS  HZ I         143 26.23         8.6 0.26            146            100 178 
 SPBC HZ EP        143 11.25                             130    0.07 9  165 220 
 SPBC HN ES        143 33.16                             130   -0.61 9  165 220 
 SPBC HZ I         143 36.07        18.3 0.28            130            165 220 
 ZAR  HZ EP        143 14.95                             123   -0.26 8  207 292 
 ZAR  HN ES        143 40.59                             123   -0.34 8  207 292 
 ZAR  HZ I         143 45.97         3.6 0.07            123            207 292 
 NOR  HZ EP        143 18.50                             119    0.07 8  237 235 
 NOR  HE ES        143 47.04                             119    0.37 8  237 235 
 NOR  HZ I         143 49.86         6.7 0.18            119            237 235 
 SML  HZ EP        143 18.77                             118   -0.44 8  245 335 
 SML  HN ES        143 47.38                             118   -0.67 8  245 335 
 SML  HZ I         143 51.64         8.3 0.11            119            245 335 
 GUY2CHZ EP   1    143 26.68                             113    0.40 5  304 235 
 GUY2CHE ES        144  1.16                             113    0.51 7  304 235 
 GUY2CHZ I         144 12.53         3.4 0.62                           304 235 
 PRA  HZ EP        143 35.81                             107   -0.24 6  393 210 
 PRA  HE ES        144 17.97                             107   -0.05 6  393 210 
 PRA  HZ I         144 24.01         1.8 0.40            108            393 210 
                                                                                
