 2016  318 0332 26.9 L   6.853 -73.165149.7  RSN 28 0.6 2.9LRSN                1
 GAP= 52        1.23       2.7     2.9  5.4 -0.2075E+01  0.2728E+01 -0.1156E+01E
 Epicentro: ZAPATOCA - SANTANDER                                               3
 ACTION:UPD 16-05-13 21:25 OP:cam  STATUS:               ID:20160318033227 L   I
 OLDACT:UP  16-03-28 15:35 OP:Mher STATUS:               ID:20160318033227 L   3
 OLDACT:REG 16-03-18 12:56 OP:dnl  STATUS:               ID:20160318032745     3
 2016-03-18-0327-45M.COL___315                                                 6
 STAT SP IPHASW D HRMM SECON CODA AMPLIT PERI AZIMU VELO AIN AR TRES W  DIS CAZ7
 BAR2 EZ EP     D  332 47.50                             169    0.3710 28.9 184 
 BAR2 EZ ES        333  2.17                             169   -0.7410 28.9 184 
 BAR2 EZ I         333  3.74       150.7 0.22            169           28.9 184 
 PAM  EZ EP     D  332 50.37                             152    1.0010 74.4  44 
 PAM  EN ES        333  7.33                             152    0.4410 74.4  44 
 PAM  EZ I         333  9.73       195.0 0.52            155           74.4  44 
 RUS  HZ EP        332 51.52                             143    0.0410  107 175 
 RUS  HN ES        333 10.20                             143   -0.4510  107 175 
 RUS  HZ I         333 11.28       106.2 0.24            145            107 175 
 PTB  HZ EP        332 54.02                             133   -0.11 9  147 256 
 PTB  HE ES        333 15.23                             133   -0.13 9  147 256 
 PTB  HZ I         333 18.91        64.8 0.16            132            147 256 
 OCA  HZ EP        332 55.48                             131    0.51 9  154 354 
 OCA  HN ES        333 17.06                             131    0.21 9  154 354 
 OCA  HZ I         333 22.08       101.7 0.15            132            154 354 
 TAM  HZ IP     D  332 55.97                             131    0.73 9  159 107 
 TAM  HN ES        333 17.35                             131    0.02 9  159 107 
 SPBC HZ EP        332 56.21                             129    0.18 9  167 217 
 SPBC HN ES        333 18.17                             129   -0.56 9  167 217 
 SPBC HZ I         333 21.33       140.3 0.11            129            167 217 
 ZAR  HZ EP        333  0.00                             124    0.81 9  200 291 
 ZAR  HN ES        333 24.71                             124    0.34 9  200 291 
 ZAR  HZ I         333 31.27        58.7 0.20            123            200 291 
 NOR  HZ EP        333  3.42                             119    0.36 8  236 233 
 NOR  HN ES        333 31.38                             119    0.13 8  236 233 
 NOR  HZ I         333 34.05        64.9 0.16            119            236 233 
 CHI  HZ EP        333  5.64                             117    0.25 8  254 194 
 CHI  HE ES        333 34.77                             117   -0.63 8  254 194 
 CHI  HZ I         333 38.55        48.3 0.42            118            254 194 
 ROSC BZ EP   4    333  6.88                             117    1.20 0  257 210 
 ROSC BN ES        333 35.43                             117   -0.49 8  257 210 
 ROSC BZ I         333 45.76        63.8 0.35            118            257 210 
 HEL  HZ EP   4    333  8.52                             115    1.25 0  272 254 
 HEL  HN ES        333 38.58                             115   -0.16 8  272 254 
 HEL  HZ I         333 45.58        36.3 0.26            115            272 254 
 URE  HZ EP        333  7.38                             115   -0.33 7  280 291 
 URE  HE ES   4    333 38.20                             115   -1.34 0  280 291 
 URE  HZ I         333 50.34        47.4 0.28            114            280 291 
 SOCV BZ EP        333  9.44                             113   -0.54 7  300  58 
 SOCV BN ES   4    333 41.01                             113   -2.57 0  300  58 
 GUY2CHZ EP   4    333 12.50                             113    1.60 0  303 234 
 GUY2CHN ES        333 45.79                             113    0.59 7  303 234 
 GUY2CHZ I         333 53.69        35.6 0.24                           303 234 
 VIL  SZ EP        333 11.23                             112    0.12 7  309 191 
 VIL  SN ES        333 45.52                             112   -0.07 7  309 191 
 PTGC HZ EP        333 10.80                             112   -0.85 7  315 159 
 PTGC HN ES   4    333 44.24                             112   -2.31 0  315 159 
 PTGC HZ I         333 45.90        55.0 0.30            113            315 159 
 LL6C HZ EP        333 12.15                             111    0.05 7  319 358 
 LL6C HN ES   4    333 46.06                             111   -1.29 0  319 358 
 LL6C HZ I         333 53.37        17.3 0.52            112            319 358 
 ELA  HZ EP   4    333 16.39                             111    2.20 0  331 228 
 ELA  HN ES        333 50.84                             111   -0.22 7  331 228 
 ELA  HZ I         334  0.25        20.4 0.22            111            331 228 
 CBOC HZ EP   4    333 15.42                             110    1.45 0  333 251 
 CBOC HN ES        333 50.03                             110   -0.65 7  333 251 
 MON  HZ EP        333 14.56                             109   -0.90 6  348 308 
 MON  HN ES        333 52.66                             109   -0.66 6  348 308 
 MON  HZ I         333 54.96        11.6 0.18            110            348 308 
 SDV  BZ EP        333 17.15                             109    0.29 6  358  51 
 SDV  BN ES        333 53.89                             109   -1.93 6  358  51 
 SDV  BZ I         333 57.78        15.2 0.35            110            358  51 
 ANIL HZ EP   4    333 18.73                             109    1.54 0  360 224 
 ANIL HE ES        333 57.23                             109    0.83 6  360 224 
 ANIL HZ I         334  4.40        88.9 0.32            109            360 224 
 ORTC HZ EP        333 21.74                             107    0.36 6  399 215 
 ORTC HE ES        334  4.80                             107    0.93 6  399 215 
 ORTC HZ I         334  8.89        21.5 0.28            107            399 215 
 SJC  HZ EP        333 21.20                             106   -0.69 6  403 327 
 SJC  HN ES   4    334  2.40                             106   -2.37 0  403 327 
 SJC  HZ I         334  7.65         9.9 0.32            107            403 327 
 CRJC HZ EP        333 27.82                             104   -1.02 5  462   4 
 CRJC HE ES   4    334 13.46                             104   -3.69 0  462   4 
 CRJC HZ I         334 18.73        16.8 0.14            105            462   4 
 GUA  SZ EP   4    333 29.85                             103   -1.05 0  480 173 
 GUA  SE ES   4    334 15.23                             103   -5.58 0  480 173 
 GUA  SZ I         334 20.88        35.0 0.14            104            480 173 
 SMAR HZ EP   2    333 31.83                             103   -0.32 2  491 346 
 SMAR HN ES   4    334 19.23                             103   -3.80 0  491 346 
 SMAR HZ I         334 24.06        10.9 0.09            103            491 346 
                                                                                
