 2010 1218 0620 47.0 L   6.809 -73.042146.9  RSN  7 0.3 1.6LRSN                1
 GAP=170        0.76       3.2     8.6  5.6 -0.4835E+01 -0.1246E+02  0.2555E+01E
 Epicentro: LOS SANTOS - SANTANDER                                             3
 ACTION:UP  11-01-14 15:25 OP:pat  STATUS:               ID:20101218062047 L   I
 2010-12-18-0619-53S.COL___136                                                 6
 STAT SP IPHASW D HRMM SECON CODA AMPLIT PERI AZIMU VELO SNR AR TRES W  DIS CAZ7
 BTL  SZ IP        621  7.31                             169     0.410   28 296 
 BTL  SZ ES   1    621 22.60                             169     0.2 7   28 296 
 BAR2 SZ IP        621  7.14                             168     0.210   29 213 
 BAR2 SZ ES   1    621 22.04                             168    -0.4 7   29 213 
 BAR2 SZ I         621 23.40        13.2 0.38                            29 213 
 BRR  HZ IP     D  621  8.91                             150     0.010   81 294 
 BRR  HN ES   1    621 25.61                             150    -0.3 7   81 294 
 BRR  HZ I         621 27.64        11.9 0.14                            81 294 
 RUS  HZ EP        621 11.19                             144     0.310  101 183 
 RUS  HZ I         621 12.35         5.2 0.16                           101 183 
 RUS  HN ES   2    621 29.45                             144    -0.1 5  101 183 
 GRA  SZ IP        621 11.79                             138    -0.210  122  12 
 GRA  SZ ES   1    621 31.26                             138    -0.3 7  122  12 
 GRA  SZ I         621 36.62         4.2 0.55                           122  12 
 OCA  SZ EP        621 15.40                             130    -0.1 9  161 349 
 OCA  SZ ES   1    621 37.88                             130     0.2 7  161 349 
 CHI  HZ EP        621 24.70                             117    -0.5 8  253 198 
 CHI  HN ES   2    621 55.06                             117     0.0 4  253 198 
 CHI  HZ I         622  1.40         2.6 0.59                           253 198 
                                                                                
