 2011 1018 0303 49.3 L   6.795 -73.144142.1  RSN 11 0.2 2.4LRSN                1
 GAP=137        0.36       1.9     2.6  3.5 -0.1040E+01  0.3000E+01  0.9429E+00E
 Epicentro: LOS SANTOS - SANTANDER                                             3
 ACTION:UPD 12-07-13 16:04 OP:ep   STATUS:               ID:20111018030349 L   I
 2011-10-18-0301-00S.COL___168                                                 6
 STAT SP IPHASW D HRMM SECON CODA AMPLIT PERI AZIMU VELO AIN AR TRES W  DIS CAZ7
 BAR2 SZ IP        3 4  8.42                             170   -0.0610 22.8 191 
 BAR2 SZ ES   2    3 4 23.01                             170   -0.43 5 22.8 191 
 BAR2 SZ I         3 4 25.92        58.3 0.27                          22.8 191 
 BRR  HZ IP     D  3 4 10.25                             152    0.1710 71.6 299 
 BRR  HN ES   2    3 4 26.46                             152    0.18 5 71.6 299 
 BRR  HZ I         3 4 29.62        38.8 0.25                          71.6 299 
 PAM  SZ EP   1    3 4 11.32                             150    0.17 7 77.7  39 
 PAM  SN ES   2    3 4 28.22                             150    0.04 5 77.7  39 
 RUS  HZ EP   1    3 4 12.44                             143   -0.21 7  100 176 
 RUS  HN ES   2    3 4 31.21                             143    0.35 5  100 176 
 RUS  HZ I         3 4 32.35        28.7 0.28                           100 176 
 OCA  SZ EP   1    3 4 17.20                             129   -0.18 7  161 353 
 OCA  SZ ES   2    3 4 39.08                             129   -0.21 5  161 353 
 OCA  SZ I         3 4 43.66        27.9 0.35                           161 353 
 ZAR  HZ EP   2    3 4 21.19                             121   -0.36 4  204 292 
 ZAR  HN ES   2    3 4 47.03                             121    0.33 4  204 292 
 ZAR  HZ I         3 4 51.92        26.2 0.59                           204 292 
 NOR  SZ EP   1    3 4 25.11                             118    0.31 6  235 235 
 NOR  SN ES   2    3 4 52.16                             118   -0.33 4  235 235 
 ROSC BZ EP   2    3 4 27.24                             116    0.06 4  252 211 
 ROSC BE ES   2    3 4 56.78                             116    0.05 4  252 211 
 ROSC BZ I         3 5  5.57        19.2 0.71                           252 211 
 HEL  HZ EP   2    3 4 29.06                             114   -0.27 4  272 256 
 HEL  HN ES   2    3 5  0.25                             114   -0.31 4  272 256 
 HEL  HZ I         3 5  7.95        12.4 0.46                           272 256 
 RREF HZ EP   2    3 4 35.24                             110   -0.02 3  322 229 
 RREF HN ES   2    3 5 11.18                             110    0.07 3  322 229 
 RREF HZ I         3 5 20.53        14.9 0.25                           322 229 
 PRA  HZ EP   1    3 4 42.70                             106    0.05 4  392 210 
 PRA  HN ES   2    3 5 24.26                             106    0.00 3  392 210 
                                                                                
