 2014  118 0525 49.0 L   6.797 -73.191147.4  RSN  6 0.2 1.6LRSN                1
 GAP=197        0.53       3.4     4.0  5.3  0.5466E+01  0.3181E+01 -0.3405E+01E
 Epicentro: ZAPATOCA - SANTANDER                                               3
 ACTION:UPD 14-03-13 09:56 OP:ep   STATUS:               ID:20140118052549 L   I
 OLDACT:REG 14-01-18 10:19 OP:cam  STATUS:               ID:20140118052000     3
 2014-01-18-0520-00M.COL___285                                                 6
 STAT SP IPHASW D HRMM SECON CODA AMPLIT PERI AZIMU VELO AIN AR TRES W  DIS CAZ7
 BAR2 SZ EP   1    526  8.69                             171   -0.15 7 22.7 177 
 BAR2 SZ ES        526 24.37                             171    0.0810 22.7 177 
 BAR2 SZ I         526 25.10         9.4 0.24            168           22.7 177 
 RUS  HZ EP   1    526 13.09                             144    0.14 7  101 173 
 PTB  HZ EP   1    526 15.59                             133   -0.09 7  143 259 
 PTB  HN ES   1    526 35.99                             133   -0.47 7  143 259 
 PTB  HZ I         526 43.55         3.4 0.32            131            143 259 
 ZAR  HE ES        526 46.53                             123    0.40 9  199 293 
 SML  HZ EP   2    526 25.72                             118    0.17 4  242 336 
 SML  HN ES        526 53.82                             118   -0.21 8  242 336 
 SML  HZ I         526 57.62         3.5 0.26            119            242 336 
 CHI  HZ EP   2    526 26.72                             118    0.08 4  247 194 
                                                                                
