 2013  518 0644 21.9 L   6.806 -73.147146.0  RSN 11 0.4 2.0LRSN                1
 GAP= 71        1.01       3.7     3.3  5.4  0.1967E+01  0.2075E+01 -0.2995E+00E
 Epicentro: LOS SANTOS - SANTANDER                                             3
 ACTION:UPD 13-06-20 09:51 OP:ep   STATUS:               ID:20130518064421 L   I
 2013-05-18-0640-00M.COL___256                                                 6
 STAT SP IPHASW D HRMM SECON CODA AMPLIT PERI AZIMU VELO AIN AR TRES W  DIS CAZ7
 BAR2 SZ EP        644 41.37                             170   -0.1910 23.9 189 
 BAR2 SZ ES        644 56.59                             170   -0.3110 23.9 189 
 BAR2 SZ I         644 58.22        31.7 0.16            171           23.9 189 
 GIR2 SZ EP        644 41.63                             168    0.0610 30.6 350 
 GIR2 SZ ES        644 57.32                             168    0.4010 30.6 350 
 GIR2 SZ I         644 58.62        21.5 0.22            165           30.6 350 
 BRR  HZ IP     C  644 43.37                             153    0.3310 70.8 298 
 BRR  HE ES        645  0.30                             153    0.7710 70.8 298 
 BRR  HZ I         645  4.71        18.3 0.16            151           70.8 298 
 PAM  SZ EP        644 44.53                             151    0.4210 77.0  40 
 PAM  SE ES   1    645  1.15                             151   -0.28 7 77.0  40 
 PAM  SZ I         645  3.76        15.8 0.50            153           77.0  40 
 RUS  HZ EP        644 45.54                             144   -0.1710  101 176 
 RUS  HE ES        645  4.31                             144    0.0310  101 176 
 RUS  HZ I         645  5.27        10.9 0.22            147            101 176 
 PTB  HZ EP        644 48.60                             132   -0.28 9  148 259 
 PTB  HN ES        645  9.50                             132   -0.42 9  148 259 
 PTB  HZ I         645 12.32        14.4 0.16            132            148 259 
 TAM  HZ EP        644 50.00                             131    0.39 9  155 105 
 TAM  HN ES        645 10.77                             131   -0.46 9  155 105 
 OCA  HN ES   1    645 11.48                             130   -0.73 7  160 353 
 OCA  HZ I         645 16.93        12.5 0.44            130            160 353 
 ZAR  HN ES   1    645 19.01                             122   -0.59 6  204 292 
 ZAR  HZ I         645 24.95        16.2 0.42            123            204 292 
 SML  HZ EP   1    644 57.92                             118   -0.54 6  243 335 
 SML  HE ES        645 26.83                             118   -0.16 8  243 335 
 HEL  HZ EP        645  2.94                             115    0.82 8  272 256 
 HEL  HN ES   1    645 33.20                             115   -0.30 6  272 256 
 HEL  HZ I         645 39.71         6.2 0.30            116            272 256 
                                                                                
