 2013  218 0328 32.3 L   6.810 -73.126150.6  RSN  5 0.4 1.1LRSN                1
 GAP=139        0.81       6.1     5.7  9.3 -0.3822E+01  0.3648E+01  0.8738E+01E
 Epicentro: LOS SANTOS - SANTANDER                                             3
 ACTION:UPD 13-03-12 09:33 OP:ep   STATUS:               ID:20130218032832 L   I
 2013-02-18-0325-49M.COL___184                                                 6
 STAT SP IPHASW D HRMM SECON CODA AMPLIT PERI AZIMU VELO AIN AR TRES W  DIS CAZ7
 BAR2 SZ EP   1    328 52.59                             170    0.06 7 24.8 195 
 BRR  HZ EP   1    328 54.39                             153    0.35 7 72.6 297 
 BRR  HN ES   1    329 11.62                             153    0.61 7 72.6 297 
 BRR  HZ I         329 16.08         2.5 0.48            133           72.6 297 
 PAM  SZ EP   1    328 55.16                             152    0.26 7 75.2  39 
 PAM  SN ES   1    329 11.90                             152   -0.62 7 75.2  39 
 PAM  SZ I         329 14.07         2.1 0.56            141           75.2  39 
 RUS  HZ EP   1    328 56.41                             145   -0.18 7  102 177 
 RUS  HN ES   1    329 15.76                             145    0.23 7  102 177 
 RUS  HZ I         329 16.19         0.9 0.30            134            102 177 
 PTB  HZ EP   1    328 59.68                             133   -0.19 7  150 259 
 PTB  HZ I         329 20.60         2.9 0.76            116            150 259 
 PTB  HN ES   1    329 20.75                             133   -0.63 7  150 259 
                                                                                
