 2014 1218 0124 11.9 L   6.947 -73.204131.0  RSN  8 0.5 1.7LRSN                1
 GAP=178        1.14       3.5     5.1 10.1 -0.2296E+00  0.3523E+01  0.2953E+01E
 Epicentro: BETULIA - SANTANDER                                                3
 ACTION:UPD 15-02-10 17:04 OP:nd   STATUS:               ID:20141218012411 L   I
 OLDACT:REG 14-12-18 12:55 OP:fm   STATUS:               ID:20141218011744     3
 2014-12-18-0117-44M.COL___296                                                 6
 STAT SP IPHASW D HRMM SECON CODA AMPLIT PERI AZIMU VELO AIN AR TRES W  DIS CAZ7
 RUS  HZ EP        124 36.04                             136    0.4410  117 173 
 RUS  HN ES        124 53.56                             136   -0.5210  117 173 
 RUS  HZ I         124 55.44         5.3 0.26            145            117 173 
 OCA  HZ EP        124 37.20                             129   -0.2810  143 355 
 OCA  HE ES        124 57.74                             129    0.3110  143 355 
 OCA  HZ I         125  7.71         6.3 0.30            135            143 355 
 PTB  HZ EP        124 37.56                             129    0.0610  146 252 
 PTB  HE ES        124 57.42                             129   -0.0410  146 252 
 PTB  HZ I         125  7.32         7.8 0.44            133            146 252 
 SPBC HZ EP        124 40.69                             124    0.45 9  172 214 
 SPBC HN ES        125  2.84                             124    0.50 9  172 214 
 SPBC HZ I         125  7.88         8.6 0.20            131            172 214 
 ZAR  HN ES        125  5.41                             120   -0.40 9  192 288 
 ZAR  HZ I         125 15.40         7.3 0.42            125            192 288 
 NOR  HZ EP        124 46.65                             115   -0.70 8  239 230 
 NOR  HE ES        125 15.92                             115    0.93 8  239 230 
 NOR  HZ I         125 18.16         3.2 0.28            121            239 230 
 CHI  HZ EP        124 50.07                             112   -0.35 8  263 193 
 CHI  HE ES        125 20.00                             112   -0.46 8  263 193 
 CHI  HZ I         125 23.27         2.1 0.34            120            263 193 
 HEL  HZ EP        124 51.76                             112    0.55 8  270 252 
 HEL  HN ES        125 21.12                             112   -0.74 8  270 252 
 HEL  HZ I         125 30.16         2.9 0.28            117            270 252 
                                                                                
