 2013  818 0253 17.4 L   5.733 -73.896103.5  RSN 14 0.5 2.0LRSN                1
 GAP= 93        1.17       3.5     3.1  8.2 -0.3693E+01  0.7912E+01 -0.1374E+02E
 Epicentro: ALBANIA - SANTANDER                                                3
 ACTION:UPD 14-01-14 09:04 OP:ep   STATUS:               ID:20130818025317 L   I
 OLDACT:UP  13-08-19 05:25 OP:CF   STATUS:               ID:20130818025317 L   3
 OLDACT:DUP 13-08-18 12:12 OP:stll STATUS:               ID:20130818024849d    3
 OLDACT:REG 13-08-18 09:15 OP:stll STATUS:               ID:20130818024848     3
 2013-08-18-0248-48M.COL___198                                                 6
 STAT SP IPHASW D HRMM SECON CODA AMPLIT PERI AZIMU VELO AIN AR TRES W  DIS CAZ7
 SPBC HZ EP        253 32.36                             167    0.6710 21.5 245 
 SPBC HZ I         253 32.72        48.3 0.10            171           21.5 245 
 SPBC HN ES        253 43.13                             167    0.2810 21.5 245 
 RUS  HZ EP        253 37.03                             135    0.5410 91.7  79 
 RUS  HN ES        253 51.25                             135   -0.1510 91.7  79 
 RUS  HZ I         253 55.59         5.5 0.40            135           91.7  79 
 ROSC BN ES        253 53.57                             130   -0.4210  109 205 
 NOR  HZ EP        253 37.67                             129    0.1810  109 260 
 NOR  HN ES        253 52.99                             129   -0.1910  109 260 
 NOR  HZ I         253 55.82        50.0 0.34            132            109 260 
 PTB  HZ EP        253 36.77                             130   -0.5910  109 325 
 PTB  HN ES   4    253 50.95                             130   -2.00 0  109 325 
 PTB  HZ I         253 55.69        20.4 0.18            130            109 325 
 CHI  HN ES        253 55.90                             126   -0.5410  123 172 
 CHI  HZ I         254  1.81        14.2 0.28            129            123 172 
 BAR2 SZ EP        253 39.65                             126    0.5510  124  40 
 BAR2 SZ ES        253 55.42                             126   -0.6210  124  40 
 BAR2 SZ I         254  2.60        10.9 0.26            126            124  40 
 BRR  HZ EP        253 42.16                             119    0.31 9  153   8 
 BRR  HN ES        254  1.22                             119    0.28 9  153   8 
 BRR  HZ I         254  5.18        25.5 0.14            119            153   8 
 GUY2CHN ES        254  6.07                             116    0.38 9  172 251 
 GUY2CHZ I         254  8.48         8.7 0.26                           172 251 
 HEL  HN ES        254  8.98                             114    0.48 9  188 286 
 HEL  HZ I         254 13.35         8.1 0.46            115            188 286 
 ZAR  HZ EP        253 48.92                             109   -0.58 8  222 331 
 ZAR  HN ES        254 13.95                             109   -0.60 8  222 331 
 ZAR  HZ I         254 15.55        11.4 0.44            110            222 331 
 CBOC HN ES        254 17.40                             108   -0.22 8  235 274 
 OCA  HN ES   4    254 28.95                             104    1.03 0  284  13 
 OCA  HZ I         254 37.60         7.2 0.42            104            284  13 
 SML  HN ES   4    254 37.42                             100   -1.94 0  340 357 
 SML  HZ I         254 45.12         9.7 0.10            101            340 357 
                                                                                
