 2015  518 0139 54.7 L   6.800 -73.087148.9  RSN  9 0.4 1.8LRSN                1
 GAP=189        0.83       3.2     5.6  6.0  0.4250E+01  0.9243E+00 -0.2571E+01E
 Epicentro: LOS SANTOS - SANTANDER                                             3
 ACTION:UPD 15-09-10 22:04 OP:cam  STATUS:               ID:20150518013954 L   I
 OLDACT:REG 15-05-18 12:25 OP:spq  STATUS:               ID:20150518013749     3
 2015-05-18-0137-49M.COL___288                                                 6
 STAT SP IPHASW D HRMM SECON CODA AMPLIT PERI AZIMU VELO AIN AR TRES W  DIS CAZ7
 BAR2 EZ EP        140 14.75                             170    0.0410 25.3 205 
 BAR2 EZ ES   1    140 29.65                             170   -0.70 7 25.3 205 
 BAR2 EZ I         140 30.71        25.1 0.36            169           25.3 205 
 BRR  HZ EP        140 16.56                             151    0.0810 76.9 296 
 BRR  HE ES        140 33.74                             151    0.2410 76.9 296 
 BRR  HZ I         140 36.79        17.6 0.30            149           76.9 296 
 RUS  HZ EP        140 18.68                             145   -0.0310  100 180 
 RUS  HN ES   1    140 37.52                             145    0.05 7  100 180 
 RUS  HZ I         140 38.32         3.7 0.30            148            100 180 
 OCA  HZ EP   1    140 23.03                             130   -0.27 7  161 351 
 OCA  HE ES        140 46.15                             130    0.51 9  161 351 
 OCA  HZ I         140 52.94        14.9 0.28            131            161 351 
 SPBC HZ EP        140 23.76                             129   -0.04 9  167 221 
 SPBC HE ES   1    140 46.97                             129    0.45 7  167 221 
 SPBC HZ I         140 51.45         6.3 0.05            130            167 221 
 ZAR  HZ EP        140 28.41                             122    0.48 8  210 291 
 ZAR  HN ES        140 53.28                             122   -0.60 8  210 291 
 ZAR  HZ I         140 59.43         9.9 0.24            122            210 291 
 SML  HZ EP        140 31.25                             118   -0.51 8  246 334 
 SML  HE ES   1    141  0.66                             118   -0.04 6  246 334 
 SML  HZ I         141  5.88         7.2 0.10            118            246 334 
 GUY2CHZ EP   4    140 41.34                             113    2.32 0  307 235 
 GUY2CHE ES   4    141 14.87                             113    1.26 0  307 235 
 GUY2CHZ I         141 22.43         1.9 0.42                           307 235 
 MON  HN ES   4    141 21.26                             109   -1.89 0  359 308 
 MON  HZ I         141 24.70         1.1 0.40            110            359 308 
                                                                                
