 2012  618 0622 53.0 L   6.792 -73.160140.9  RSN  6 0.5 1.8LRSN                1
 GAP=135        0.91       5.4     5.7  8.6 -0.5784E+01  0.1340E+02 -0.5401E+01E
 Epicentro: LOS SANTOS - SANTANDER                                             3
 ACTION:UPD 12-08-06 17:50 OP:ep   STATUS:               ID:20120618062252 L   I
 2012-06-18-0620-00M.COL___199                                                 6
 STAT SP IPHASW D HRMM SECON CODA AMPLIT PERI AZIMU VELO AIN AR TRES W  DIS CAZ7
 BAR2 SZ IP        623 12.14                             170    0.1610 22.2 186 
 BAR2 SZ ES   1    623 26.64                             170   -0.18 7 22.2 186 
 BAR2 SZ I         623 27.85        19.9 0.36            174           22.2 186 
 PAM  SZ EP        623 15.16                             149    0.4010 79.1  40 
 PAM  SN ES   1    623 31.90                             149    0.13 7 79.1  40 
 PAM  SZ I         623 34.27         6.7 0.44            151           79.1  40 
 RUS  HZ EP        623 16.20                             143    0.0210 99.8 175 
 RUS  HE ES   2    623 34.21                             143   -0.08 5 99.8 175 
 RUS  HZ I         623 35.24         7.4 0.24            149           99.8 175 
 PTB  HZ EP        623 18.83                             131   -0.55 9  146 259 
 PTB  HN ES   1    623 40.00                             131    0.02 7  146 259 
 PTB  HZ I         623 43.43         5.8 0.10            133            146 259 
 OCA  HZ EP   1    623 20.52                             128   -0.44 7  161 354 
 OCA  HE ES   2    623 41.55                             128   -1.25 5  161 354 
 OCA  HZ I         623 47.90        14.0 0.16            129            161 354 
 ZAR  HZ EP   2    623 26.22                             121    1.24 4  203 293 
 ZAR  HE ES   2    623 50.92                             121    0.97 4  203 293 
                                                                                
