 2012  518 0228 18.5 L   6.763 -73.154144.7  RSN  7 0.3 1.8LRSN                1
 GAP=137        0.69       5.2     5.1  8.9 -0.3379E+01  0.1025E+02  0.1135E+02E
 Epicentro: LOS SANTOS - SANTANDER                                             3
 ACTION:UP  12-07-05 12:06 OP:pat  STATUS:               ID:20120518022818 L   I
 2012-05-18-0220-00M.COL___200                                                 6
 STAT SP IPHASW D HRMM SECON CODA AMPLIT PERI AZIMU VELO SNR AR TRES W  DIS CAZ7
 BAR2 SZ EP        228 38.10                             172     0.210   19 190 
 BAR2 SZ I         228 54.40        22.0 0.18                            19 190 
 BRR  HZ EP        228 39.87                             152     0.210   73 302 
 BRR  HN ES   2    228 56.76                             152     0.7 5   73 302 
 BRR  HZ I         228 59.29        13.9 0.20                            73 302 
 PAM  SZ EP        228 41.00                             149     0.210   81  38 
 PAM  SN ES   1    228 57.76                             149    -0.5 7   81  38 
 RUS  HZ EP        228 41.74                             145    -0.110   97 175 
 RUS  HN ES   2    229  0.29                             145     0.2 5   97 175 
 RUS  HZ I         229  1.90         5.3 0.30                            97 175 
 PTB  HZ EP        228 45.01                             132    -0.2 9  146 260 
 PTB  HE ES   2    229  5.66                             132    -0.4 5  146 260 
 ZAR  HN ES   3    229 15.32                             122    -1.0 2  205 293 
 CHI  HN ES   3    229 24.97                             117     0.3 2  244 195 
                                                                                
