 2016  118 0146 15.1 L   6.797 -73.143151.5  RSN  9 0.4 1.5LRSN                1
 GAP=137        0.85       2.7     3.7  5.6 -0.7120E+00  0.5910E+01  0.1993E+00E
 Epicentro: LOS SANTOS - SANTANDER                                             3
 ACTION:UPD 16-03-09 23:26 OP:cam  STATUS:               ID:20160118014615 L   I
 OLDACT:UP  16-01-18 14:08 OP:mh   STATUS:               ID:20160118013746     3
 OLDACT:REG 16-01-18 12:43 OP:mh   STATUS:               ID:20160118013746     3
 2016-01-18-0137-46M.COL___328                                                 6
 STAT SP IPHASW D HRMM SECON CODA AMPLIT PERI AZIMU VELO AIN AR TRES W  DIS CAZ7
 BAR2 EZ EP   1    146 35.03                             171   -0.42 7 23.0 191 
 BAR2 EZ ES        146 50.99                             171   -0.3010 23.0 191 
 BAR2 EZ I         146 53.88         6.4 0.35            170           23.0 191 
 PAM  EZ EP        146 38.13                             152    0.1610 77.5  39 
 PAM  EN ES        146 56.00                             152    0.2210 77.5  39 
 PAM  EZ I         146 57.95         2.5 0.20            155           77.5  39 
 RUS  HZ EP     C  146 39.68                             145    0.2610  100 176 
 RUS  HN ES        146 58.47                             145    0.1010  100 176 
 RUS  HZ I         147  0.67         2.7 0.54            146            100 176 
 PTB  HZ EP   1    146 42.40                             133   -0.19 7  148 259 
 PTB  HN ES        147  3.71                             133   -0.30 9  148 259 
 PTB  HZ I         147  5.29         5.7 0.36            134            148 259 
 SPBC HZ EP        146 44.51                             130    0.44 9  163 219 
 SPBC HN ES        147  7.10                             130    0.47 9  163 219 
 SPBC HZ I         147 10.56         6.6 0.18            131            163 219 
 ZAR  HN ES        147 13.81                             124    0.18 9  204 292 
 ZAR  HZ I         147 20.20         4.8 0.48            125            204 292 
 SML  HZ EP   1    146 52.61                             119    0.47 6  244 335 
 SML  HN ES        147 20.53                             119   -0.47 8  244 335 
 CHI  HZ EP        146 52.39                             118   -0.74 8  248 195 
 CHI  HN ES        147 22.33                             118   -0.43 8  248 195 
 CHI  HZ I         147 28.18         1.3 0.50            120            248 195 
 GUY2CHZ EP   4    147  0.34                             113    1.32 0  301 235 
 GUY2CHE ES   1    147 33.64                             113    0.40 5  301 235 
 GUY2CHZ I         147 45.06         1.9 0.68                           301 235 
                                                                                
