 2015  118 0550 45.6 L   5.957 -73.717117.6  RSN  7 0.5 1.4LRSN                1
 GAP= 85        1.26       3.8     5.0  8.4  0.2216E+01  0.7914E+01 -0.2534E+01E
 Epicentro: GUAVATA - SANTANDER                                                3
 ACTION:UPD 15-03-02 15:40 OP:nd   STATUS:               ID:20150118055045 L   I
 OLDACT:REG 15-01-18 16:23 OP:carl STATUS:               ID:20150118054736     3
 2015-01-18-0547-36M.COL___259                                                 6
 STAT SP IPHASW D HRMM SECON CODA AMPLIT PERI AZIMU VELO AIN AR TRES W  DIS CAZ7
 SPBC HZ EP        551  3.06                             155    0.3010 51.8 230 
 SPBC HN ES        551 16.56                             155    0.4210 51.8 230 
 SPBC HZ I         551 23.42         8.9 0.10            156           51.8 230 
 RUS  HZ EP        551  3.99                             147   -0.4610 70.5  96 
 RUS  HN ES        551 18.81                             147   -0.3410 70.5  96 
 RUS  HZ I         551 22.42         3.6 0.26            155           70.5  96 
 BAR2 EZ EP        551  5.64                             139   -0.0110 91.8  40 
 BAR2 EZ ES        551 20.95                             139   -0.3310 91.8  40 
 BAR2 EZ I         551 22.53        17.2 0.48            146           91.8  40 
 PTB  HZ EP        551  5.73                             135   -0.6310  104 308 
 PTB  HN ES        551 22.14                             135   -0.4110  104 308 
 PTB  HZ I         551 26.02         5.8 0.10            139            104 308 
 BRR  HZ EP        551  9.45                             129    1.0310  127   0 
 BRR  HN ES        551 27.03                             129    0.8210  127   0 
 BRR  HZ I         551 29.77         6.2 0.24            135            127   0 
 CHI  HZ EP        551 10.99                             125    0.12 9  147 181 
 CHI  HN ES        551 30.66                             125    0.09 9  147 181 
 CHI  HZ I         551 32.45         1.2 0.22            131            147 181 
 ZAR  HZ EP        551 16.89                             114   -0.33 8  212 323 
 ZAR  HN ES        551 41.58                             114   -0.30 8  212 323 
 ZAR  HZ I         551 48.28         2.8 0.48            119            212 323 
                                                                                
