 2013  418 0515 18.5 L   6.767 -73.153148.9  RSN  6 0.3 1.5LRSN                1
 GAP=137        0.79       4.0     5.0  5.7 -0.1411E+00  0.4974E+01 -0.5384E+00E
 Epicentro: LOS SANTOS - SANTANDER                                             3
 ACTION:UPD 13-05-22 14:39 OP:EP   STATUS:               ID:20130418051518 L   I
 2013-04-18-0510-00M.COL___250                                                 6
 STAT SP IPHASW D HRMM SECON CODA AMPLIT PERI AZIMU VELO AIN AR TRES W  DIS CAZ7
 GIR2 SZ EP        515 38.61                             166   -0.0510 34.8 353 
 GIR2 SZ ES        515 54.33                             166   -0.0510 34.8 353 
 GIR2 SZ I         515 55.60         7.0 0.13            167           34.8 353 
 BRR  HZ EP     D  515 40.38                             153    0.3110 72.3 301 
 BRR  HN ES   1    515 57.54                             153    0.66 7 72.3 301 
 BRR  HZ I         516  1.23         5.8 0.17            152           72.3 301 
 PAM  SZ IP     C  515 41.50                             150    0.2310 80.7  38 
 PAM  SE ES   1    515 58.41                             150   -0.61 7 80.7  38 
 PAM  SZ I         516  0.60         4.3 0.48            155           80.7  38 
 RUS  HZ EP     D  515 42.63                             145    0.3010 97.0 175 
 RUS  HN ES   1    516  0.72                             145   -0.18 7 97.0 175 
 RUS  HZ I         516  2.63         4.7 0.28            148           97.0 175 
 PTB  HZ EP        515 45.26                             133   -0.35 9  146 260 
 PTB  HN ES   1    516  6.35                             133   -0.40 7  146 260 
 PTB  HZ I         516 11.26         3.8 0.24            134            146 260 
 SML  HZ EP        515 55.27                             118   -0.38 8  247 336 
 SML  HE ES   1    516 24.82                             118    0.22 6  247 336 
                                                                                
