 2017  518 0449 19.9 L   7.254 -73.343148.5  RSN  5 0.3 1.2LRSN                1
 GAP=163        0.62       6.3     3.0  5.3 -0.5577E+01  0.4128E+01  0.4177E+01E
 Epicentro: LEBRIJA - SANTANDER                                                3
 ACTION:UPD 17-06-16 13:37 OP:jn   STATUS:               ID:20170518044919 L   I
 OLDACT:UP  17-06-01 16:40 OP:nlst STATUS:               ID:20170518044919 L   3
 OLDACT:UP  17-05-18 13:39 OP:edw  STATUS:               ID:20170518044740d    3
 OLDACT:DUP 17-05-18 13:34 OP:edw  STATUS:               ID:20170518044740d    3
 OLDACT:UP  17-05-18 13:32 OP:edw  STATUS:               ID:20170518044739     3
 OLDACT:UP  17-05-18 13:32 OP:edw  STATUS:               ID:20170518044739     3
 OLDACT:REG 17-05-18 12:29 OP:edw  STATUS:               ID:20170518044739     3
 2017-05-18-0448-00M.COL___347                                                 6
 STAT SP IPHASW D HRMM SECON CODA AMPLIT PERI AZIMU VELO AIN AR TRES W  DIS CAZ7
 BRR  HZ EP   3    449 40.24                             163    0.12 2 43.9 248 
 BRR  HN ES   1    449 55.76                             163   -0.10 7 43.9 248 
 BRR  HZ I         450 12.57         9.4 0.22            157           43.9 248 
 PAM  EZ EP        449 42.16                             153    0.0410 71.7  82 
 PAM  EN ES        449 59.42                             153   -0.0010 71.7  82 
 PAM  EZ I         450  1.02         1.9 0.46            165           71.7  82 
 PTB  HZ EP        449 47.44                             133    0.44 9  146 237 
 PTB  HN ES        450  7.93                             133   -0.17 9  146 237 
 PTB  HZ I         450 21.47         1.3 0.50            136            146 237 
 ZAR  HZ EP        449 48.66                             128   -0.47 9  169 279 
 ZAR  HN ES        450 12.15                             128    0.26 9  169 279 
 ZAR  HZ I         450 18.64         1.5 0.32            135            169 279 
 NOR  HZ EP        449 57.59                             117   -0.09 8  252 222 
                                                                                
