 2011  618 0614 10.5 L   6.774 -73.089147.9  RSN  9 0.3 1.8LRSN                1
 GAP=162        0.49       2.9     6.1  7.4 -0.6688E+01 -0.2864E+00  0.3367E+00E
 Epicentro: LOS SANTOS - SANTANDER                                             3
 ACTION:UP  11-07-14 19:06 OP:ep   STATUS:               ID:20110618061410 L   I
 2011-06-18-0609-30S.COL___135                                                 6
 STAT SP IPHASW D HRMM SECON CODA AMPLIT PERI AZIMU VELO SNR AR TRES W  DIS CAZ7
 BAR2 SZ EP   1    614 30.22                             171    -0.1 7   23 207 
 BRR  HZ IP     C  614 32.19                             151    -0.110   78 298 
 BRR  HZ I         614 32.46        17.4 0.21                            78 298 
 BRR  HE ES   2    614 49.70                             151     0.4 5   78 298 
 RUS  HZ EP   2    614 34.32                             145     0.1 5   97 180 
 RUS  HZ I         614 35.74         4.4 0.51                            97 180 
 RUS  HN ES   2    614 52.36                             145    -0.4 5   97 180 
 BRI  SZ EP   1    614 34.83                             142     0.2 7  109  17 
 GRA  SZ EP   2    614 36.01                             137     0.0 5  127  14 
 GRA  SZ ES   2    614 56.17                             137     0.2 5  127  14 
 GRA  SZ I         614 58.61         6.9 0.27                           127  14 
 OCA  SZ EP   1    614 39.33                             129     0.0 7  164 351 
 OCA  SZ ES   2    615  1.37                             129    -0.4 5  164 351 
 OCA  SZ I         615  6.64        10.8 0.34                           164 351 
 CHI  HE ES   2    615 18.09                             118     0.5 4  248 197 
 CHI  HZ I         615 22.50         2.8 0.60                           248 197 
 RREF HN ES   2    615 32.98                             111    -0.4 3  325 230 
 RREF HZ I         615 38.73         3.6 0.14                           325 230 
 PRA  HN ES   2    615 46.47                             107     0.4 3  393 211 
                                                                                
