 2012 1218 0403 21.5 L   6.010 -73.744104.9  RSN  8 0.3 1.9LRSN                1
 GAP= 79        0.68       2.4     2.9  6.7  0.1853E+01  0.1059E+02  0.6636E+01E
 Epicentro: BOLIVAR - SANTANDER                                                3
 ACTION:UPD 13-01-04 14:28 OP:ep   STATUS:               ID:20121218040321 L   I
 2012-12-18-0400-00M.COL___242                                                 6
 STAT SP IPHASW D HRMM SECON CODA AMPLIT PERI AZIMU VELO AIN AR TRES W  DIS CAZ7
 RUS  HZ EP        4 3 39.47                             142    0.1610 74.3 100 
 RUS  HN ES   1    4 3 53.04                             142   -0.18 7 74.3 100 
 RUS  HN I         4 3 55.52        12.5 0.40                          74.3 100 
 BAR2 SZ EP        4 3 40.49                             136    0.3310 89.4  44 
 BAR2 SZ ES        4 3 54.70                             136   -0.0410 89.4  44 
 BAR2 SZ I         4 3 56.85        28.7 0.25                          89.4  44 
 PTB  HZ EP        4 3 39.92                             133   -0.7010 98.2 307 
 PTB  HN ES   1    4 3 55.60                             133    0.05 7 98.2 307 
 PTB  HZ I         4 3 58.14        12.1 0.09                          98.2 307 
 BRR  HZ EP        4 3 42.82                             126    0.0610  121   2 
 BRR  HN ES        4 3 59.49                             126    0.1310  121   2 
 BRR  HZ I         4 4  3.39        12.8 0.10                           121   2 
 CHI  HZ EP        4 3 46.40                             120   -0.11 9  153 180 
 CHI  HN ES   1    4 4  6.04                             120    0.01 7  153 180 
 HEL  HZ EP        4 3 51.85                             112    0.37 9  199 276 
 HEL  HE ES   1    4 4 15.27                             112    0.39 6  199 276 
 HEL  HZ I         4 4 20.00        10.4 0.42                           199 276 
 ZAR  HZ EP   1    4 3 51.37                             111   -0.38 6  205 323 
 ZAR  HN ES   1    4 4 15.24                             111   -0.12 6  205 323 
 ZAR  HZ I         4 4 20.15         9.0 0.09                           205 323 
 PRA  HZ EP        4 4  0.95                             104    0.00 7  284 207 
 PRA  HZ I         4 4 38.76         4.7 0.28                           284 207 
 MON  HZ EP   4    4 4  8.92                              99   -2.57 0  372 325 
                                                                                
