 2013  718 0111 38.8 L   6.689 -73.246141.0  RSN  4 0.3 1.6LRSN                1
 GAP=216        0.62       7.1     7.2  9.6  0.2108E+02  0.1159E+02  0.1537E+01E
 Epicentro: BARICHARA - SANTANDER                                              3
 ACTION:UPD 13-08-12 10:38 OP:ep   STATUS:               ID:20130718011138 L   I
 OLDACT:REG 13-07-18 07:35 OP:mh   STATUS:               ID:20130718010959     3
 2013-07-18-0109-59M.COL___265                                                 6
 STAT SP IPHASW D HRMM SECON CODA AMPLIT PERI AZIMU VELO AIN AR TRES W  DIS CAZ7
 BRR  HZ EP   1    111 59.22                             152   -0.12 7 69.1 312 
 BRR  HN ES   1    112 15.60                             152    0.26 7 69.1 312 
 BRR  HN I         112 16.70        20.6 0.18            150           69.1 312 
 RUS  HN ES   2    112 18.48                             146   -0.44 5 89.9 168 
 RUS  HN I         112 20.80         3.5 0.38            146           89.9 168 
 PTB  HZ EP   1    112  4.62                             134    0.38 7  135 263 
 PTB  HN ES   1    112 24.17                             134    0.11 7  135 263 
 PTB  HZ I         112 28.06         2.1 0.50            131            135 263 
 ZAR  HE ES   1    112 34.56                             122   -0.53 6  199 297 
 ZAR  HE I         112 41.40         8.8 0.40            121            199 297 
                                                                                
