 2012 1218 0120 31.9 L   6.806 -73.134143.7  RSN  4 0.4 1.5LRSN                1
 GAP=138        0.86       5.0     5.4  8.5 -0.1350E+01  0.6531E+01 -0.5351E+00E
 Epicentro: LOS SANTOS - SANTANDER                                             3
 ACTION:UPD 13-01-04 14:28 OP:ep   STATUS:               ID:20121218012031 L   I
 2012-12-18-0120-00M.COL___242                                                 6
 STAT SP IPHASW D HRMM SECON CODA AMPLIT PERI AZIMU VELO AIN AR TRES W  DIS CAZ7
 BRR  HZ EP        120 53.18                             152    0.2810 72.1 298 
 BRR  HZ I         121  7.08        10.2 0.44                          72.1 298 
 BRR  HE ES   1    121  9.76                             152    0.50 7 72.1 298 
 PAM  SZ EP        120 54.14                             151    0.3010 76.1  39 
 PAM  SZ I         120 54.63         4.2 0.21                          76.1  39 
 PAM  SN ES   1    121 10.20                             151   -0.74 7 76.1  39 
 RUS  HZ EP        120 55.37                             143   -0.1410  101 177 
 RUS  HN ES        121 14.05                             143    0.1410  101 177 
 RUS  HN I         121 15.93         3.8 0.31                           101 177 
 PTB  HZ EP        120 58.56                             131   -0.29 9  149 259 
 PTB  HE ES   1    121 19.44                             131   -0.42 7  149 259 
 PTB  HZ I         121 21.73         3.2 0.20                           149 259 
                                                                                
