 2017  318 0227 45.9 L   6.782 -73.171139.4  RSN  6 0.4 1.2LRSN                1
 GAP=134        0.84       5.7     5.0  6.7 -0.1570E+02  0.5025E+01  0.4901E+01E
 Epicentro: LOS SANTOS - SANTANDER                                             3
 ACTION:UPD 17-05-25 18:41 OP:jn   STATUS:               ID:20170318022745 L   I
 OLDACT:DUP 17-03-18 15:09 OP:cog  STATUS:               ID:20170318021741d    3
 2017-03-18-0218-00M.COL___400                                                 6
 STAT SP IPHASW D HRMM SECON CODA AMPLIT PERI AZIMU VELO AIN AR TRES W  DIS CAZ7
 BAR2 EZ EP        228  4.49                             171   -0.2610 21.1 183 
 BAR2 EZ ES        228 18.93                             171   -0.4910 21.1 183 
 BAR2 EZ I         228 21.30         5.5 0.34            172           21.1 183 
 PAM  EZ EP        228  7.71                             148    0.0310 80.7  40 
 PAM  EN ES        228 24.95                             148    0.3110 80.7  40 
 PAM  EZ I         228 26.92         2.9 0.22            152           80.7  40 
 RUS  HZ EP        228  9.31                             143    0.3810 98.9 174 
 RUS  HN ES   3    228 27.36                             143    0.49 2 98.9 174 
 RUS  HZ I         228 28.53         1.0 0.14            148           98.9 174 
 PTB  HZ EP        228 11.87                             131   -0.23 9  145 259 
 PTB  HN ES        228 32.49                             131   -0.02 9  145 259 
 PTB  HZ I         228 39.97         3.2 0.34            132            145 259 
 SPBC HZ EP        228 13.32                             128   -0.31 9  160 219 
 SPBC HN ES        228 35.70                             128    0.46 9  160 219 
 ZAR  HN ES   3    228 44.46                             121    1.84 2  202 293 
                                                                                
