 2013  618 0016  5.1 L   6.784 -73.216153.3  RSN  4 0.3 1.4LRSN                1
 GAP=194        0.68       4.8     7.4  8.3  0.1597E+02 -0.1390E+02 -0.1507E+02E
 Epicentro: ZAPATOCA - SANTANDER                                               3
 ACTION:UPD 14-01-08 09:55 OP:ep   STATUS:               ID:20130618001605 L   I
 OLDACT:REG 13-06-18 07:17 OP:carl STATUS:               ID:20130618000959     3
 2013-06-18-0009-59M.COL___261                                                 6
 STAT SP IPHASW D HRMM SECON CODA AMPLIT PERI AZIMU VELO AIN AR TRES W  DIS CAZ7
 BRR  HZ EP   1    016 26.90                             156    0.18 7 65.4 303 
 BRR  HE ES   1    016 44.10                             156    0.48 7 65.4 303 
 RUS  HZ EP   1    016 29.77                             146    0.28 7 99.6 171 
 RUS  HN ES   1    016 48.06                             146   -0.48 7 99.6 171 
 RUS  HZ I         016 50.02         1.0 0.30            147           99.6 171 
 PTB  HZ EP   1    016 32.18                             135    0.23 7  140 259 
 PTB  HN ES   1    016 52.64                             135   -0.28 7  140 259 
 PTB  HZ I         016 55.21         5.0 0.14            136            140 259 
 SML  HZ EP   1    016 41.78                             119   -0.18 6  242 337 
 SML  HN ES   1    017 10.27                             119   -0.47 6  242 337 
 SML  HZ I         017 13.11         4.6 0.24            120            242 337 
                                                                                
