 2012  318 0408 58.6 L   6.774 -73.158146.7  RSN  5 0.2 1.3LRSN                1
 GAP=136        0.66       5.0     4.5  7.5 -0.2912E+01  0.1172E+01  0.3816E+01E
 ACTION:UP  12-03-31 23:20 OP:EP   STATUS:               ID:20120318040858 L   I
 2012-03-18-0406-44M.COL___172                                                 6
 STAT SP IPHASW D HRMM SECON CODA AMPLIT PERI AZIMU VELO SNR AR TRES W  DIS CAZ7
 BAR2 SZ EP   1    4 9 18.10                             172    -0.2 7   20 188 
 BAR2 SZ I         4 9 34.63         4.5 0.18                            20 188 
 BRR  HZ EP   1    4 9 19.76                             153    -0.1 7   71 301 
 BRR  HN ES        4 9 36.67                             153     0.210   71 301 
 BRR  HZ I         4 9 39.58         4.1 0.19                            71 301 
 PAM  SZ EP   1    4 9 21.44                             150     0.4 7   80  39 
 PAM  SZ I         4 9 21.64         4.1 0.16                            80  39 
 PAM  SN ES   1    4 9 38.27                             150    -0.4 7   80  39 
 RUS  HN ES   1    4 9 40.77                             145     0.1 7   98 175 
 RUS  HZ I         4 9 42.98         3.2 0.28                            98 175 
 PTB  HZ EP   1    4 9 25.47                             133     0.0 7  146 260 
 PTB  HN ES   1    4 9 46.12                             133    -0.3 7  146 260 
 PTB  HZ I         4 9 48.25         1.4 0.20                           146 260 
                                                                                
