 2017  618 0750 35.7 L   6.813 -73.144148.9  RSN  6 0.4 1.7LRSN                1
 GAP=258        0.91       4.6     9.4  8.2 -0.7792E+01 -0.3695E+02  0.1080E+02E
 Epicentro: LOS SANTOS - SANTANDER                                             3
 ACTION:UPD 17-09-14 16:52 OP:jn   STATUS:               ID:20170618075035 L   I
 OLDACT:UP  17-06-18 15:46 OP:cog  STATUS:               ID:20170618074738     3
 OLDACT:REG 17-06-18 13:22 OP:cog  STATUS:               ID:20170618074738     3
 2017-06-18-0748-00M.COL___347                                                 6
 STAT SP IPHASW D HRMM SECON CODA AMPLIT PERI AZIMU VELO AIN AR TRES W  DIS CAZ7
 BRR  HZ EP        750 56.52                             153   -0.6510 70.7 297 
 BRR  HN ES        751 14.34                             153    0.4310 70.7 297 
 PTB  HZ EP   9    751  2.01                             133   -0.96 0  148 258 
 PTB  HN ES        751 23.23                             133   -0.05 9  148 258 
 PTB  HZ I         751 25.85         3.6 0.20            124            148 258 
 SPBC HZ EP        751  4.13                             130   -0.44 9  164 219 
 SPBC HN ES        751 26.73                             130   -0.35 9  164 219 
 SPBC HZ I         751 29.08         8.5 0.10            123            164 219 
 ZAR  HZ EP        751  8.57                             123    0.25 9  204 292 
 ZAR  HE ES   3    751 34.17                             123    0.41 2  204 292 
 ZAR  HZ I         751 40.24         4.2 0.20            116            204 292 
 NOR  HZ EP        751 12.02                             119    0.29 8  236 234 
 NOR  HN ES        751 39.70                             119   -0.12 8  236 234 
 NOR  HZ I         751 44.78         3.5 0.28            113            236 234 
 CHI  HZ EP        751 14.27                             118    0.53 8  250 195 
 CHI  HN ES        751 43.76                             118    0.35 8  250 195 
                                                                                
