 2011  818 0630  2.1 L   6.834 -72.996143.5  RSN  5 0.4 1.6LRSN                1
 GAP=198        0.77       3.9    10.7  7.3  0.6531E+01 -0.7310E+01 -0.5669E+00E
 Epicentro: CEPITA - SANTANDER                                                 3
 ACTION:UPD 12-07-13 15:52 OP:ep   STATUS:               ID:20110818063002 L   I
 2011-08-18-0628-55S.COL___149                                                 6
 STAT SP IPHASW D HRMM SECON CODA AMPLIT PERI AZIMU VELO AIN AR TRES W  DIS CAZ7
 BAR2 SZ EP   1    630 21.83                             166    0.10 7 33.8 218 
 BAR2 SZ ES   1    630 36.92                             166   -0.12 7 33.8 218 
 BAR2 SZ I         630 38.69        13.4 0.19                          33.8 218 
 BRR  HZ EP   1    630 23.87                             147    0.03 7 84.6 291 
 BRR  HN ES   1    630 41.19                             147    0.40 7 84.6 291 
 BRR  HZ I         630 43.59         9.8 0.18                          84.6 291 
 RUS  HZ EP   1    630 26.31                             142    0.37 7  105 185 
 RUS  HN ES   1    630 44.28                             142   -0.24 7  105 185 
 RUS  HZ I         630 46.40         4.0 0.26                           105 185 
 OCA  SZ EP   1    630 30.73                             129    0.57 7  159 347 
 OCA  SZ ES   1    630 51.19                             129   -0.85 7  159 347 
 PRA  HZ EP   1    630 56.42                             105   -0.50 4  404 211 
 PRA  HN ES   1    631 39.27                             105   -0.41 4  404 211 
                                                                                
