 2016  518 0125 56.6 L   6.764 -73.180152.9  RSN  6 0.3 1.4LRSN                1
 GAP=231        0.84       4.6     5.5  7.0  0.2831E+01 -0.8572E+00  0.5998E+01E
 Epicentro: LOS SANTOS - SANTANDER                                             3
 ACTION:UPD 16-08-18 17:46 OP:cam  STATUS:               ID:20160518012556 L   I
 OLDACT:UP  16-05-18 14:06 OP:mh   STATUS:               ID:20160518011742     3
 OLDACT:REG 16-05-18 12:51 OP:mh   STATUS:               ID:20160518011742     3
 2016-05-18-0117-42M.COL___304                                                 6
 STAT SP IPHASW D HRMM SECON CODA AMPLIT PERI AZIMU VELO AIN AR TRES W  DIS CAZ7
 BAR2 EZ EP        126 16.75                             173   -0.2610 19.0 181 
 BAR2 EZ I         126 39.88         3.1 0.31            170           19.0 181 
 BRR  HZ EP        126 18.92                             154    0.4610 70.0 303 
 BRR  HN ES        126 35.58                             154    0.0810 70.0 303 
 BRR  HZ I         126 40.91         6.6 0.26            152           70.0 303 
 RUS  HZ EP        126 20.31                             146   -0.5010 96.9 174 
 RUS  HN ES        126 39.90                             146    0.2110 96.9 174 
 RUS  HZ I         126 40.31         2.5 0.26            146           96.9 174 
 PTB  HZ EP        126 23.87                             135    0.10 9  143 260 
 PTB  HN ES        126 44.44                             135   -0.51 9  143 260 
 PTB  HZ I         126 46.90         4.4 0.36            136            143 260 
 SPBC HN ES        126 47.74                             132    0.32 9  158 219 
 PRA  HZ EP        126 50.11                             108    0.36 6  387 209 
 PRA  HE ES        127 31.14                             108   -0.07 6  387 209 
 PRA  HZ I         127 38.06         1.1 0.22            106            387 209 
                                                                                
