 2012 1018 0000 23.6 L   6.225 -73.914 96.5  RSN  5 0.3 2.0LRSN                1
 GAP=124        0.58       3.4     3.5  9.4  0.4914E+01  0.2267E+02  0.1717E+02E
 Epicentro: CIMITARRA - SANTANDER                                              3
 ACTION:UPD 12-11-22 17:04 OP:ep   STATUS:               ID:20121018000023 L   I
 2012-10-18-0000-00M.COL___224                                                 6
 STAT SP IPHASW D HRMM SECON CODA AMPLIT PERI AZIMU VELO AIN AR TRES W  DIS CAZ7
 BAR2 SZ EP        0 0 41.77                             133    0.1510 90.5  63 
 BAR2 SZ ES        0 0 55.66                             133   -0.0410 90.5  63 
 BAR2 SZ I         0 0 57.42        20.4 0.22                          90.5  63 
 RUS  HZ EP        0 0 42.46                             131   -0.2710 99.0 112 
 RUS  HN ES   2    0 0 57.74                             131    0.06 5 99.0 112 
 BRR  HZ EP        0 0 42.15                             130   -0.0310  100  13 
 BRR  HE ES        0 0 56.87                             130    0.1810  100  13 
 BRR  HZ I         0 0 59.82        18.0 0.16                           100  13 
 ZAR  HZ EP   1    0 0 50.49                             114    0.47 7  175 323 
 ZAR  HN ES   1    0 1 10.05                             114   -0.61 7  175 323 
 ZAR  HN I         0 1 12.82        16.7 0.13                           175 323 
 GUY  SZ EP   1    0 0 53.29                             112    0.10 6  197 236 
 GUY  SN ES   2    0 1 16.44                             112    0.14 4  197 236 
 GUY  SZ I         0 1 19.88        15.4 0.33                           197 236 
                                                                                
