 2011  218 0552 23.7 L   6.764 -73.093153.3  RSN  6 0.3 1.5LRSN                1
 GAP=165        0.86       3.7     9.0  7.8 -0.1507E+02  0.1504E+02 -0.3433E+01E
 Epicentro: LOS SANTOS - SANTANDER                                             3
 ACTION:UP  11-03-28 15:09 OP:jfem STATUS:               ID:20110218055223 L   I
 2011-02-18-0546-46S.COL___137                                                 6
 STAT SP IPHASW D HRMM SECON CODA AMPLIT PERI AZIMU VELO SNR AR TRES W  DIS CAZ7
 BAR2 SZ EP        552 44.95                             172     0.710   22 208 
 BAR2 SZ ES   1    552 59.96                             172    -0.3 7   22 208 
 BAR2 SZ I         553  0.84        10.1 0.44                            22 208 
 RUS  HZ EP        552 47.94                             146     0.010   96 179 
 RUS  HN ES   1    553  6.86                             146     0.0 7   96 179 
 RUS  HZ I         553  7.86         2.9 0.20                            96 179 
 GRA  SZ IP        552 49.79                             138     0.010  128  14 
 GRA  SZ I         552 51.26         5.6 0.34                           128  14 
 GRA  SZ ES   1    553  9.88                             138    -0.3 7  128  14 
 OCA  SZ EP        552 52.82                             130    -0.2 9  165 351 
 OCA  SZ ES   1    553 16.06                             130     0.1 7  165 351 
 OCA  SZ I         553 20.68         4.8 0.37                           165 351 
 NOR  SZ EP   2    553  0.04                             120    -0.1 4  237 236 
 NOR  SN ES   1    553 28.75                             120     0.1 6  237 236 
 CHI  HZ EP   1    553  1.48                             119    -0.1 6  246 197 
 CHI  HZ I         553  5.76         1.3 0.13                           246 197 
 CHI  HN ES   1    553 30.52                             119    -0.7 6  246 197 
                                                                                
