 2014  818 0307 35.7 L   6.811 -73.156148.3  RSN  6 0.5 1.4LRSN                1
 GAP=193        1.15       4.5     8.6  8.2 -0.9106E+01  0.7512E+01 -0.4688E+01E
 Epicentro: LOS SANTOS - SANTANDER                                             3
 ACTION:UPD 14-09-15 21:50 OP:nd   STATUS:               ID:20140818030735 L   I
 OLDACT:REG 14-08-18 14:28 OP:stll STATUS:               ID:20140818025818     3
 2014-08-18-0258-18M.COL___263                                                 6
 STAT SP IPHASW D HRMM SECON CODA AMPLIT PERI AZIMU VELO AIN AR TRES W  DIS CAZ7
 BAR2 SZ EP        3 7 55.78                             170    0.1310 24.3 187 
 BAR2 SZ I         3 7 55.80         3.1 0.40            168           24.3 187 
 BAR2 SZ ES        3 8 10.54                             170   -0.6710 24.3 187 
 BRR  HZ EP        3 7 57.53                             153    0.5010 69.6 298 
 BRR  HN ES        3 8 14.57                             153    0.9010 69.6 298 
 PTB  HZ EP        3 8  2.85                             133    0.06 9  147 258 
 PTB  HN ES        3 8 23.58                             133   -0.34 9  147 258 
 PTB  HZ I         3 8 31.23         1.8 0.40            130            147 258 
 OCA  HN ES        3 8 26.17                             130   -0.05 9  159 353 
 OCA  HZ I         3 8 31.49         3.6 0.40            131            159 353 
 SPBC HZ EP        3 8  4.60                             129    0.19 9  163 218 
 SPBC HN ES        3 8 26.58                             129   -0.22 9  163 218 
 SPBC HZ I         3 8 32.60         3.1 0.24            129            163 218 
 SML  HZ EP        3 8 12.13                             118   -0.17 8  242 335 
 SML  HN ES        3 8 40.14                             118   -0.70 8  242 335 
 SML  HZ I         3 8 43.61         3.5 0.32            118            242 335 
                                                                                
