 2017  418 0701 56.2 L   6.721 -72.510  4.0  RSN 10 0.4 1.7LRSN                1
 GAP=189        1.06       2.5     5.3  5.4  0.5941E+01  0.1391E+02  0.5173E+01E
 Epicentro: CARCASI - SANTANDER                                                3
 ACTION:UPD 17-05-30 21:13 OP:jn   STATUS:               ID:20170418070156 L   I
 OLDACT:UP  17-04-18 17:29 OP:dnl  STATUS:               ID:20170418065660d    3
 OLDACT:UP  17-04-18 17:29 OP:dnl  STATUS:               ID:20170418065660d    3
 OLDACT:DUP 17-04-18 16:04 OP:cog  STATUS:               ID:20170418065660d    3
 2017-04-18-0658-00M.COL___368                                                 6
 STAT SP IPHASW D HRMM SECON CODA AMPLIT PERI AZIMU VELO AIN AR TRES W  DIS CAZ7
 PAM  EZ EP        7 2  8.35                              47    0.1810 71.5 343 
 PAM  EE ES        7 2 16.85                              47   -0.6310 71.5 343 
 PAM  EZ I         7 2 22.91        21.8 0.14             47           71.5 343 
 BAR2 EZ EP   9    7 2  6.17                              47   -2.37 0 75.7 259 
 BAR2 EZ ES        7 2 14.94                              47   -0.8310 75.7 259 
 BAR2 EZ I         7 2 15.55        32.4 0.24             47           75.7 259 
 RUS  HZ EP   4    7 2 10.85                              47   -3.36 0  111 215 
 RUS  HE ES   4    7 2 22.97                              47   -5.27 0  111 215 
 RUS  HZ I         7 2 23.21         8.0 0.46             47            111 215 
 BRR  HZ EP        7 2 18.44                              47    0.47 9  140 288 
 BRR  HE ES   4    7 2 36.06                              47    1.13 0  140 288 
 BRR  HZ I         7 2 40.22        17.2 0.24             47            140 288 
 YPLC HZ EP        7 2 19.09                              47   -0.10 9  147 174 
 YPLC HE ES        7 2 36.57                              47   -0.54 9  147 174 
 YPLC HZ I         7 2 42.21        18.3 0.28             47            147 174 
 PTB  HZ EP        7 2 28.86                              37    0.33 8  216 265 
 PTB  HN ES   4    7 2 54.38                              37    0.66 0  216 265 
 CHI  HZ EP        7 2 35.18                              37   -0.30 8  268 210 
 CHI  HN ES        7 3  6.07                              37   -0.03 8  268 210 
 CHI  HZ I         7 3 14.63         4.0 0.66             37            268 210 
 ZAR  HZ EP   9    7 2 38.24                              37    2.61 0  273 288 
 ZAR  HN ES        7 3  8.85                              37   -0.12 8  273 288 
 ZAR  HZ I         7 3 11.24         4.9 0.30             37            273 288 
 PTGC HZ EP        7 2 37.36                              37    0.63 7  282 171 
 PTGC HN ES        7 3  8.65                              37    0.33 7  282 171 
 PTGC HZ I         7 3 14.67         6.7 0.26             37            282 171 
 NOR  HZ EP   4    7 2 40.40                              37    2.50 0  291 244 
 NOR  HN ES        7 3 10.45                              37    0.04 7  291 244 
 NOR  HZ I         7 3 17.87         1.9 0.36             37            291 244 
                                                                                
