 2014  118 0922  6.0 L   6.771 -73.161145.1  RSN  7 0.3 1.8LRSN                1
 GAP=136        0.70       3.2     3.2  5.7 -0.2304E+01  0.6087E+01 -0.4529E+01E
 Epicentro: LOS SANTOS - SANTANDER                                             3
 ACTION:UPD 14-03-13 09:56 OP:ep   STATUS:               ID:20140118092206 L   I
 OLDACT:REG 14-01-18 10:24 OP:cam  STATUS:               ID:20140118092000     3
 2014-01-18-0920-00M.COL___285                                                 6
 STAT SP IPHASW D HRMM SECON CODA AMPLIT PERI AZIMU VELO AIN AR TRES W  DIS CAZ7
 BAR2 SZ EP        922 25.68                             172    0.1910 19.9 187 
 BAR2 SZ ES        922 40.97                             172    0.2810 19.9 187 
 BAR2 SZ I         922 41.97        15.4 0.20            170           19.9 187 
 PAM  SZ EP        922 28.67                             149    0.3110 80.9  39 
 PAM  SN ES        922 45.57                             149   -0.2310 80.9  39 
 PAM  SZ I         922 45.85         9.8 0.20            153           80.9  39 
 RUS  HZ EP   1    922 29.69                             144    0.22 7 97.5 175 
 RUS  HN ES        922 47.39                             144   -0.3810 97.5 175 
 RUS  HZ I         922 49.64         3.1 0.24            145           97.5 175 
 PTB  HZ EP   1    922 32.42                             132   -0.28 7  145 260 
 PTB  HN ES        922 53.42                             132   -0.11 9  145 260 
 PTB  HZ I         922 56.37         9.0 0.30            131            145 260 
 SPBC HZ EP   2    922 34.72                             129    0.61 5  160 219 
 SPBC HN ES        922 55.92                             129   -0.11 9  160 219 
 SPBC HZ I         923  2.67        10.1 0.20            129            160 219 
 ZAR  HZ EP   4    922 39.40                             122    1.04 0  204 293 
 ZAR  HN ES        923  3.79                             122    0.18 9  204 293 
 ZAR  HZ I         923  9.55         6.5 0.34            122            204 293 
 SML  HZ EP   1    922 42.18                             117   -0.64 6  246 336 
 SML  HE ES   4    923  9.37                             117   -2.18 0  246 336 
 SML  HZ I         923 14.19         6.9 0.30            117            246 336 
                                                                                
