 2015  518 0559 39.5 L   6.568 -73.434119.3  RSN 14 0.4 1.9LRSN                1
 GAP= 81        0.75       2.1     2.5  4.6 -0.4752E+00  0.2874E+01 -0.1255E+01E
 Epicentro: HATO - SANTANDER                                                   3
 ACTION:UPD 15-09-10 22:05 OP:cam  STATUS:               ID:20150518055939 L   I
 OLDACT:REG 15-05-18 12:50 OP:spq  STATUS:               ID:20150518055748     3
 2015-05-18-0557-48M.COL___286                                                 6
 STAT SP IPHASW D HRMM SECON CODA AMPLIT PERI AZIMU VELO AIN AR TRES W  DIS CAZ7
 BAR2 EZ EP        559 55.97                             166   -0.1510 27.9  85 
 BAR2 EZ ES   1    6 0  8.89                             166   -0.16 7 27.9  85 
 BAR2 EZ I         6 0 10.67        27.0 0.34            169           27.9  85 
 BRR  HZ EP        559 57.49                             149   -0.1310 67.0 333 
 BRR  HN ES        6 0 12.03                             149    0.3010 67.0 333 
 BRR  HZ I         6 0 20.40         9.0 0.07            149           67.0 333 
 RUS  HZ EP   1    559 59.31                             143   -0.20 7 84.2 153 
 RUS  HN ES   1    6 0 15.48                             143    0.40 7 84.2 153 
 RUS  HZ I         6 0 16.28         9.8 0.28            150           84.2 153 
 SPBC HZ EP        6 0  2.52                             131    0.2710  124 215 
 SPBC HN ES        6 0 19.96                             131   -0.0110  124 215 
 SPBC HZ I         6 0 21.74        13.8 0.10            136            124 215 
 TAM  HZ EP   1    6 0  7.95                             119   -0.14 7  182  95 
 TAM  HE ES   1    6 0 30.40                             119    0.03 7  182  95 
 TAM  HZ I         6 0 34.27        11.4 0.41            124            182  95 
 OCA  HZ EP        6 0  8.24                             119   -0.31 9  185   4 
 OCA  HE ES        6 0 31.03                             119   -0.15 9  185   4 
 OCA  HZ I         6 0 38.00        14.5 0.16            122            185   4 
 ZAR  HZ EP        6 0  8.63                             118    0.01 9  188 303 
 ZAR  HE ES        6 0 31.52                             118    0.21 9  188 303 
 ZAR  HZ I         6 0 37.39        10.1 0.34            121            188 303 
 NOR  HZ EP        6 0  9.79                             117    0.43 9  194 235 
 NOR  HN ES        6 0 31.77                             117   -0.84 9  194 235 
 NOR  HZ I         6 0 37.16         8.1 0.18            122            194 235 
 HEL  HZ EP   1    6 0 15.03                             112    0.66 6  236 260 
 HEL  HE ES   1    6 0 41.18                             112   -0.36 6  236 260 
 HEL  HZ I         6 0 46.00         3.1 0.36            116            236 260 
 SML  HZ EP   1    6 0 16.19                             110   -0.12 6  257 344 
 SML  HE ES   1    6 0 45.48                             110    0.48 6  257 344 
 SML  HZ I         6 0 49.29        11.5 0.10            113            257 344 
 GUY2CHZ EP   4    6 0 19.08                             110    1.74 0  260 235 
 GUY2CHN ES   4    6 0 50.45                             110    3.63 0  260 235 
 GUY2CHZ I         6 0 54.31         3.7 0.26                           260 235 
 CBOC HZ EP   1    6 0 21.66                             107    0.61 5  296 255 
 MON  HZ EP   4    6 0 25.19                             104   -1.65 0  347 315 
 MON  HE ES   1    6 1  3.13                             104   -0.61 5  347 315 
 MON  HZ I         6 1  5.47         1.9 0.36            107            347 315 
 SJC  HE ES   4    6 1 15.32                             101   -3.09 0  415 333 
 SJC  HZ I         6 1 17.38         2.8 0.84            103            415 333 
                                                                                
