 2017  618 0007 43.8 L   6.821 -73.167152.2  RSN 21 0.5 3.0LRSN 3.4WRSN        1
 SPEC AVERAGE  MO 14.2 ST0.764 OM  2.3 f0 1.74 R1.5201 AL 0.00 WI 30.0 MW  3.4 3
 SPEC SD       MO  0.2 ST  1.1 OM  0.3 f0 1.18 R0.6574 AL      WI      MW  0.2 3
 GAP=139        1.03       3.4     2.9  5.9  0.3334E+01  0.9468E+00  0.2430E+00E
 Epicentro: LOS SANTOS - SANTANDER                                             3
 SPEC BRR HH Z MO 13.8 ST  1.7 OM  1.9 f0 3.45 R0.5577 AL-0.00 WI 30.0 MW  3.2 3
 SPEC BRR HH Z T 0 821 K 0.000 GD  166 VS 5.20 DE 3.50 Q0750.0 QA 1.50 VS 5.20 3
 SPEC YPLCHH Z MO 14.5 ST0.244 OM  2.4 f0 1.09 R1.7651 AL-0.00 WI 30.0 MW  3.6 3
 SPEC YPLCHH Z T 0 836 K 0.000 GD  235 VS 5.20 DE 3.50 Q0750.0 QA 1.50 VS 5.20 3
 SPEC ZAR HH Z MO 13.9 ST  3.3 OM  1.8 f0 4.03 R0.4774 AL-0.00 WI 30.0 MW  3.2 3
 SPEC ZAR HH Z T 0 839 K 0.000 GD  252 VS 5.20 DE 3.50 Q0750.0 QA 1.50 VS 5.20 3
 SPEC VIL EH Z MO 14.3 ST0.158 OM  2.1 f0 1.05 R1.8324 AL-0.00 WI 30.0 MW  3.5 3
 SPEC VIL EH Z T 0 9 0 K 0.000 GD  340 VS 5.20 DE 3.50 Q0750.0 QA 1.50 VS 5.20 3
 SPEC PTGCHH Z MO 14.4 ST0.206 OM  2.1 f0 1.14 R1.6877 AL-0.00 WI 30.0 MW  3.5 3
 SPEC PTGCHH Z T 0 858 K 0.000 GD  347 VS 5.20 DE 3.50 Q0750.0 QA 1.50 VS 5.20 3
 SPEC CBOCHH Z MO 14.3 ST0.087 OM  2.0 f00.908 R2.1189 AL-0.00 WI 30.0 MW  3.5 3
 SPEC CBOCHH Z T 0 9 7 K 0.000 GD  365 VS 5.20 DE 3.50 Q0750.0 QA 1.50 VS 5.20 3
 SPEC ORTCHH Z MO 14.1 ST0.288 OM  1.8 f0 1.50 R1.2827 AL-0.00 WI 30.0 MW  3.4 3
 SPEC ORTCHH Z T 0 920 K 0.000 GD  424 VS 5.20 DE 3.50 Q0750.0 QA 1.50 VS 5.20 3
 SPEC MACCHH Z MO 14.4 ST0.085 OM  2.0 f00.789 R2.4385 AL-0.00 WI 30.0 MW  3.6 3
 SPEC MACCHH Z T 0 942 K 0.000 GD  544 VS 5.20 DE 3.50 Q0750.0 QA 1.50 VS 5.20 3
 OLDACT:UP  17-06-18 14:02 OP:cog  STATUS:               ID:20170618000742     3
 OLDACT:UP  17-06-18 14:01 OP:cog  STATUS:               ID:20170618000742     3
 OLDACT:REG 17-06-18 12:38 OP:cog  STATUS:               ID:20170618000742     3
 ACTION:UPD 17-09-14 16:52 OP:jn   STATUS:               ID:20170618000743 L   I
 OLDACT:UP  17-06-18 14:03 OP:cog  STATUS:               ID:20170618000742     3
 2017-06-18-0008-00M.COL___341                                                 6
 STAT SP IPHASW D HRMM SECON CODA AMPLIT PERI AZIMU VELO AIN AR TRES W  DIS CAZ7
 BRR  HZ EP        0 8  5.79                             155    0.3410 68.0 298 
 BRR  HN ES        0 8 23.01                             155    0.6510 68.0 298 
 BRR  HZ I         0 8 24.79        90.7 0.32            152           68.0 298 
 PTB  HZ EP        0 8 10.79                             134   -0.32 9  146 258 
 PTB  HN ES        0 8 31.64                             134   -0.80 9  146 258 
 PTB  HZ I         0 8 36.53        64.4 0.50            130            146 258 
 TAM  HZ IP     D  0 8 12.38                             131    0.16 9  158 106 
 TAM  HN ES        0 8 34.00                             131   -0.42 9  158 106 
 SPBC HZ EP        0 8 12.99                             130    0.19 9  164 218 
 SPBC HN ES        0 8 35.30                             130   -0.15 9  164 218 
 SPBC HZ I         0 8 37.46       208.9 0.26            126            164 218 
 YPLC HZ EP        0 8 14.38                             127    0.04 9  180 151 
 YPLC HN ES        0 8 38.34                             127    0.15 9  180 151 
 YPLC HZ I         0 8 39.35       155.3 0.28            124            180 151 
 ZAR  HZ EP        0 8 16.60                             124    0.27 9  201 292 
 ZAR  HN ES        0 8 41.37                             124   -0.37 9  201 292 
 TABC EZ EP   3    0 8 21.51                             120    1.51 2  231 210 
 TABC EZ I         0 8 54.66        60.6 0.30            117            231 210 
 NOR  HZ EP        0 8 19.92                             120    0.09 8  234 234 
 NOR  HN ES        0 8 48.46                             120    0.51 8  234 234 
 CHI  HZ EP        0 8 22.22                             118    0.21 8  250 195 
 CHI  HN ES        0 8 51.23                             118   -0.61 8  250 195 
 CHI  HZ I         0 8 54.99        61.9 0.48            115            250 195 
 HEL  HZ EP   3    0 8 25.76                             116    1.63 2  270 255 
 HEL  HE ES        0 8 55.27                             116   -0.35 8  270 255 
 HEL  HZ I         0 9  1.63        40.7 0.52            113            270 255 
 URE  HZ EP        0 8 23.90                             115   -0.92 7  281 292 
 URE  HN ES        0 8 57.41                             115    0.56 7  281 292 
 VIL  EZ EP        0 8 27.66                             113   -0.03 7  305 191 
 VIL  EN ES        0 9  2.16                             113    0.21 7  305 191 
 VIL  EZ I         0 9  4.70        79.5 0.46            110            305 191 
 PTGC HZ EP   3    0 8 27.21                             112   -1.05 2  312 158 
 PTGC HE ES   4    0 9  0.48                             112   -2.48 0  312 158 
 PTGC HZ I         0 9  5.46        72.0 0.28            110            312 158 
 CBOC HZ EP   9    0 8 32.24                             111    1.45 0  332 252 
 CBOC HN ES        0 9  9.21                             111    0.29 7  332 252 
 CBOC HZ I         0 9 12.09        14.2 0.20            108            332 252 
 DBB  EZ EP        0 8 31.60                             111    0.37 7  337 274 
 DBB  EN ES        0 9  7.23                             111   -1.02 7  337 274 
 DBB  EZ I         0 9  8.71        20.9 0.40            108            337 274 
 ARGC HN ES   4    0 9 15.86                             109    3.87 0  356 341 
 APAC HZ EP        0 8 37.87                             107    0.03 6  395 288 
 APAC HN ES        0 9 21.13                             107    1.11 6  395 288 
 APAC HZ I         0 9 24.80        22.4 0.36            105            395 288 
 ORTC HZ EP        0 8 38.50                             107    0.52 6  396 216 
 ORTC HN ES   4    0 9 21.94                             107    1.68 0  396 216 
 PAL  HZ EP        0 8 39.69                             107    0.63 6  405 239 
 PAL  HN ES   4    0 9 16.40                             107   -5.78 0  405 239 
 SJC  HZ EP        0 8 38.21                             107   -0.96 6  406 327 
 SJC  HN ES   4    0 9 19.24                             107   -3.14 0  406 327 
 CRJC HZ EP   4    0 8 44.49                             104   -1.70 0  465   4 
 CRJC HN ES   4    0 9 31.83                             104   -3.06 0  465   4 
 CRJC HZ I         0 9 39.33        20.3 0.20            103            465   4 
 MACC HZ EP   9    0 8 51.16                             102   -1.72 0  523 188 
 MACC HN ES        0 9 43.98                                   -1.08 4  523 188 
                                                                                
