 2017  818 0411 23.9 L   6.797 -73.131142.7  RSN 24 0.4 2.3LRSN                1
 GAP= 75        0.89       2.4     2.3  4.0 -0.1118E+00  0.2735E+01  0.2137E+01E
 Epicentro: LOS SANTOS - SANTANDER                                             3
 ACTION:UPD 17-09-04 20:21 OP:rebc STATUS:               ID:20170818041123 L   I
 OLDACT:REG 17-08-18 13:29 OP:lv   STATUS:               ID:20170818040740     3
 2017-08-18-0408-00M.COL___407                                                 6
 STAT SP IPHASW D HRMM SECON CODA AMPLIT PERI AZIMU VELO AIN AR TRES W  DIS CAZ7
 BAR2 EZ IP     C  411 42.85                             170   -0.3510 23.3 194 
 BAR2 EZ ES        411 57.79                             170   -0.4310 23.3 194 
 BAR2 EZ I         411 58.95        53.3 0.23            171           23.3 194 
 BRR  HZ EP        411 44.73                             151   -0.1210 72.8 298 
 BRR  HE ES        412  1.94                             151    0.7910 72.8 298 
 BRR  HZ I         412  5.14        36.5 0.10            144           72.8 298 
 PAM  EZ IP     C  411 45.79                             150    0.0110 76.6  38 
 PAM  EN ES        412  2.81                             150   -0.0110 76.6  38 
 PAM  EZ I         412  5.07        24.2 0.30            142           76.6  38 
 RUS  HZ EP        411 46.90                             143   -0.4610  100 177 
 RUS  HN ES        412  5.37                             143   -0.2510  100 177 
 RUS  HZ I         412  6.46        20.8 0.26            138            100 177 
 TAM  HZ IP     C  411 51.28                             130    0.06 9  153 105 
 TAM  HN ES        412 12.96                             130    0.46 9  153 105 
 TAM  HZ I         412 14.25        11.7 0.56            123            153 105 
 SPBC HZ EP        411 52.41                             128    0.13 9  164 219 
 SPBC HN ES        412 14.21                             128   -0.17 9  164 219 
 SPBC HZ I         412 18.91        33.3 0.23            121            164 219 
 YPLC HZ IP     C  411 53.35                             126   -0.06 9  176 152 
 YPLC HN ES        412 16.56                             126    0.17 9  176 152 
 YPLC HZ I         412 20.14        12.9 0.34            119            176 152 
 ZAR  HZ EP        411 56.52                             121    0.17 8  206 292 
 ZAR  HE ES        412 21.12                             121   -0.52 8  206 292 
 ZAR  HZ I         412 27.17        20.9 0.24            114            206 292 
 TABC EZ EP   4    412  0.95                             118    1.38 0  230 211 
 TABC EZ ES        412 27.88                             118    0.53 8  230 211 
 TABC EZ I         412 34.56        27.0 0.66            112            230 211 
 NOR  HZ EP        411 59.31                             118   -0.30 8  236 235 
 NOR  HN ES        412 27.53                             118    0.09 8  236 235 
 NOR  HZ I         412 32.01        16.4 0.18            111            236 235 
 CHI  HZ EP        412  1.25                             116   -0.23 8  249 196 
 CHI  HN ES        412 31.29                             116    0.53 8  249 196 
 CHI  HZ I         412 37.57        12.1 0.52            110            249 196 
 ROSC BZ EP   9    412  3.02                             116    1.07 0  253 211 
 ROSC BN ES        412 31.94                                   -0.73 8  253 211 
 ROSC BZ I         412 37.16        23.3 0.70            110            253 211 
 HEL  HZ EP        412  5.10                             114    0.94 8  274 256 
 HEL  HN ES        412 35.55                             114    0.02 8  274 256 
 HEL  HZ I         412 42.08        15.1 0.56            107            274 256 
 URE  HZ EP   4    412  3.62                             113   -1.42 0  285 292 
 URE  HN ES   4    412 33.82                             113   -3.28 0  285 292 
 URE  HZ I         412 35.43        18.0 0.12            106            285 292 
 GUY2CHZ EP        412  7.58                             111    0.05 7  302 235 
 GUY2CHN ES        412 41.45                             111   -0.09 7  302 235 
 GUY2CHZ I         412 50.58         7.7 0.32                           302 235 
 VIL  EZ EP        412  6.94                             111   -0.28 7  303 192 
 VIL  EN ES        412 40.18                             111   -0.80 7  303 192 
 VIL  EZ I         412 51.56        15.8 0.36            106            303 192 
 PTGC HZ EP   9    412  6.16                             111   -1.40 0  308 159 
 PTGC HN ES        412 40.02                                   -0.16 7  308 159 
 PTGC HZ I         412 42.22         6.1 0.36            105            308 159 
 LL6C HZ EP   4    412  7.49                             110   -2.07 0  325 357 
 LL6C HZ I         412 49.96         3.8 0.28            103            325 357 
 DBB  EZ EP        412 11.46                             109   -0.02 7  341 274 
 DBB  EN ES   4    412 46.54                             109   -2.02 0  341 274 
 DBB  EZ I         412 49.08         5.5 0.14            103            341 274 
 ANIL HE ES   4    412 53.65                             108    1.08 0  358 225 
 PRA  HZ EP        412 17.53                             106    0.11 6  393 210 
 PRA  HN ES        412 59.23                             106    0.11 6  393 210 
 PRA  HZ I         413  5.06        14.3 0.28            101            393 210 
 ORTC HZ EP        412 17.49                             106   -0.35 6  396 216 
 ORTC HN ES        413  0.85                             106    0.98 6  396 216 
 ORTC HZ I         413  8.63         8.7 0.33            100            396 216 
 PAL  HZ EP        412 18.91                             105   -0.23 6  407 239 
 PAL  HZ I         413  9.56         2.9 0.32            100            407 239 
 SJC  HZ EP   4    412 16.81                             105   -2.73 0  410 327 
 SJC  HN ES   4    412 57.62                             105   -5.28 0  410 327 
 SJC  HZ I         413  2.61         4.9 0.56             99            410 327 
 URI  HZ EP   9    412 33.38                             100   -3.49 0  557  13 
 URI  HN ES        413 30.47                                    0.20 3  557  13 
                                                                                
