 2015  318 0549 13.7 L   6.773 -73.154145.1  RSN  5 0.2 1.2LRSN                1
 GAP=234        0.67       4.1     4.6  5.5  0.5390E+01  0.4544E+01  0.1442E+01E
 Epicentro: LOS SANTOS - SANTANDER                                             3
 ACTION:UPD 15-04-30 16:26 OP:nd   STATUS:               ID:20150318054913 L   I
 OLDACT:REG 15-03-18 13:28 OP:stll STATUS:               ID:20150318054749     3
 2015-03-18-0547-49M.COL___272                                                 6
 STAT SP IPHASW D HRMM SECON CODA AMPLIT PERI AZIMU VELO AIN AR TRES W  DIS CAZ7
 BAR2 EZ ES        549 48.10                             172   -0.3010 20.2 189 
 BAR2 EZ I         549 48.90         4.5 0.36            171           20.2 189 
 BRR  HZ EP        549 34.96                             152    0.1410 71.9 301 
 BRR  HN ES        549 51.61                             152    0.3210 71.9 301 
 RUS  HZ EP        549 37.28                             144    0.1010 97.7 175 
 RUS  HN ES        549 55.48                             144   -0.0210 97.7 175 
 RUS  HZ I         549 56.61         2.0 0.34            144           97.7 175 
 PTB  HZ EP        549 40.16                             132   -0.32 9  146 260 
 PTB  HN ES        550  1.11                             132   -0.26 9  146 260 
 PTB  HZ I         550  3.14         1.9 0.28            132            146 260 
 SPBC HN ES        550  4.17                             129    0.32 9  160 219 
                                                                                
