 2017  918 0508 56.3 L   6.805 -73.047143.5  RSN  4 0.3 1.2LRSN                1
 GAP=248        0.54       6.7     9.7  5.2  0.5459E+02 -0.1597E+02 -0.1098E+02E
 Epicentro: LOS SANTOS - SANTANDER                                             3
 ACTION:UPD 17-10-05 19:13 OP:rebc STATUS:               ID:20170918050856 L   I
 OLDACT:UP  17-09-18 17:24 OP:and  STATUS:               ID:20170918050738     3
 OLDACT:UP  17-09-18 17:24 OP:and  STATUS:               ID:20170918050738     3
 OLDACT:UP  17-09-18 17:22 OP:and  STATUS:               ID:20170918050738     3
 OLDACT:REG 17-09-18 12:59 OP:and  STATUS:               ID:20170918050738     3
 2017-09-18-0508-00M.COL___430                                                 6
 STAT SP IPHASW D HRMM SECON CODA AMPLIT PERI AZIMU VELO AIN AR TRES W  DIS CAZ7
 BAR2 EZ EP        5 9 15.91                             168    0.1310 27.9 212 
 BAR2 EZ ES        5 9 30.73                             168   -0.2210 27.9 212 
 BAR2 EZ I         5 9 32.17         5.2 0.38            159           27.9 212 
 BRR  HZ EP        5 9 17.62                             149   -0.1710 80.7 295 
 BRR  HN ES        5 9 34.78                             149    0.2310 80.7 295 
 BRR  HZ I         5 9 36.11         3.2 0.48            143           80.7 295 
 RUS  HZ EP        5 9 19.86                             143   -0.0110  101 182 
 RUS  HN ES        5 9 38.32                             143    0.0710  101 182 
 RUS  HZ I         5 9 40.23         2.8 0.26            139            101 182 
 ZAR  HZ EP   3    5 9 30.89                             120    1.24 2  214 291 
 ZAR  HN ES   2    5 9 55.15                             120   -0.51 4  214 291 
 ZAR  HZ I         5 9 58.96         0.8 0.15            118            214 291 
                                                                                
