 2017  118 0338 38.8 L   6.803 -73.101144.9  RSN  4 0.3 1.3LRSN                1
 GAP=142        0.77       5.6     9.2  7.7  0.2537E+02 -0.3330E+02 -0.1563E+02E
 Epicentro: LOS SANTOS - SANTANDER                                             3
 ACTION:UPD 17-05-22 16:00 OP:jn   STATUS:               ID:20170118033838 L   I
 OLDACT:UP  17-03-29 22:39 OP:nlst STATUS:               ID:20170118033838 L   3
 OLDACT:DUP 17-01-18 14:45 OP:dani STATUS:               ID:20170118033743d    3
 OLDACT:UP  17-01-18 14:44 OP:dani STATUS:               ID:20170118033742     3
 OLDACT:UP  17-01-18 14:44 OP:dani STATUS:               ID:20170118033742     3
 OLDACT:REG 17-01-18 12:42 OP:dani STATUS:               ID:20170118033742     3
 2017-01-18-0338-00M.COL___331                                                 6
 STAT SP IPHASW D HRMM SECON CODA AMPLIT PERI AZIMU VELO AIN AR TRES W  DIS CAZ7
 BAR2 EZ EP   1    338 58.18                             170   -0.16 7 25.0 201 
 BAR2 EZ ES        339 13.15                             170   -0.4510 25.0 201 
 BAR2 EZ I         339 14.11         6.6 0.27            165           25.0 201 
 PAM  EZ EP        339  0.94                             152    0.2410 74.0  37 
 BRR  HZ EP        338 59.79                             151   -0.2910 75.4 296 
 BRR  HN ES        339 17.02                             151    0.3310 75.4 296 
 BRR  HZ I         339 22.56         6.0 0.40            146           75.4 296 
 RUS  HZ EP        339  2.42                             144   -0.0410  101 179 
 RUS  HN ES        339 21.23                             144    0.3010  101 179 
 RUS  HZ I         339 22.60         1.7 0.25            144            101 179 
                                                                                
