 2015  718 0936 23.6 L   6.814 -73.576112.2  RSN  4 0.1 1.2LRSN                1
 GAP=146        0.35       2.2     2.1  4.0  0.2572E+01  0.4314E+01  0.8204E+00E
 Epicentro: EL CARMEN - SANTANDER                                              3
 ACTION:UPD 15-09-08 21:49 OP:cam  STATUS:               ID:20150718093623 L   I
 OLDACT:UP  15-07-30 15:27 OP:cam  STATUS:               ID:20150718093623 L   3
 OLDACT:UP  15-07-30 07:12 OP:AK   STATUS:               ID:20150718093623 L   3
 OLDACT:UP  15-07-18 18:52 OP:mh   STATUS:               ID:20150718092749     3
 OLDACT:REG 15-07-18 14:06 OP:mh   STATUS:               ID:20150718092749     3
 2015-07-18-0927-49M.COL___340                                                 6
 STAT SP IPHASW D HRMM SECON CODA AMPLIT PERI AZIMU VELO AIN AR TRES W  DIS CAZ7
 BAR2 EZ EP        936 40.43                             154    0.1510 49.9 119 
 BAR2 EZ ES        936 53.37                             154    0.0810 49.9 119 
 BAR2 EZ I         936 54.52         3.9 0.08            159           49.9 119 
 PAM  EN ES   1    937  2.13                             132   -0.13 7  113  59 
 RUS  HZ EP        936 45.51                             131   -0.0510  116 152 
 RUS  HN ES        937  2.60                             131   -0.0910  116 152 
 RUS  HZ I         937  3.92         3.6 0.34            134            116 152 
 ZAR  HZ EP        936 49.42                             121    0.06 9  160 298 
 ZAR  HN ES        937  9.37                             121   -0.08 9  160 298 
 ZAR  HZ I         937 12.58         2.0 0.10            123            160 298 
                                                                                
