 2010  718 0809 16.8 L   7.504 -73.515100.4  RSN  4 0.2 1.4LRSN                1
 GAP=169        0.65       5.4     7.4  7.6 -0.2358E+02 -0.4178E+01 -0.5503E+01E
 Epicentro: SABANA DE TORRES - SANTANDER                                       3
 ACTION:UPD 10-12-01 15:18 OP:pat  STATUS:               ID:20100718080916 L   I
 2010-07-18-0805-43S.COL___119                                                 6
 STAT SP IPHASW D HRMM SECON CODA AMPLIT PERI AZIMU VELO AIN AR TRES W  DIS CAZ7
 BRR  HZ EP   1    8 9 31.49                             152    -0.3 7   49 206 
 BRR  HE ES   1    8 9 43.63                             152     0.2 7   49 206 
 BRR  HZ I         8 9 45.16        10.2 0.16                            49 206 
 GUE  SZ EP   1    8 9 33.63                             141    -0.3 7   74  61 
 GUE  SZ I         8 9 34.01         2.9 0.09                            74  61 
 GUE  SZ ES   1    8 9 47.41                             141     0.0 7   74  61 
 OCA  SZ IP        8 9 34.76                             137     0.210   84  15 
 OCA  SZ ES   1    8 9 48.12                             137    -0.2 7   84  15 
 OCA  SZ I         8 9 51.73        12.5 0.49                            84  15 
 GRA  SZ IP        8 9 35.10                             135     0.110   89  62 
 GRA  SZ I         8 9 50.53         8.1 0.27                            89  62 
                                                                                
