 2012 1218 0621 45.5 L   6.785 -73.108149.3  RSN  5 0.3 1.3LRSN                1
 GAP=142        0.65       4.0     5.5  7.0  0.2950E+01  0.9583E+01  0.9371E+01E
 Epicentro: LOS SANTOS - SANTANDER                                             3
 ACTION:UPD 13-01-04 14:28 OP:ep   STATUS:               ID:20121218062145 L   I
 2012-12-18-0620-00M.COL___242                                                 6
 STAT SP IPHASW D HRMM SECON CODA AMPLIT PERI AZIMU VELO AIN AR TRES W  DIS CAZ7
 BAR2 SZ EP   1    622  5.35                             171   -0.18 7 22.9 201 
 BAR2 SZ I         622 23.33         6.3 0.30                          22.9 201 
 BRR  HZ EP   1    622  7.48                             152    0.21 7 75.7 298 
 BRR  HN ES        622 24.42                             152    0.1510 75.7 298 
 PAM  SE ES        622 25.41                             152   -0.1610 76.1  36 
 RUS  HZ EP        622  9.82                             145    0.3710 98.7 178 
 RUS  HN ES        622 28.04                             145   -0.1110 98.7 178 
 RUS  HN I         622 28.95         2.4 0.21                          98.7 178 
 PTB  HZ EP   1    622 12.54                             132   -0.55 7  152 260 
 PTB  HZ I         622 39.32         2.3 0.29                           152 260 
                                                                                
