 2010  718 0639 25.7 L   6.787 -73.073146.0  RSN  9 0.4 2.2LRSN                1
 GAP=196        0.69       5.6     7.9  6.9 -0.2808E+02 -0.8580E+01  0.8786E+01E
 Epicentro: LOS SANTOS - SANTANDER                                             3
 ACTION:UPD 10-12-01 15:18 OP:pat  STATUS:               ID:20100718063925 L   I
 2010-07-18-0636-29S.COL___119                                                 6
 STAT SP IPHASW D HRMM SECON CODA AMPLIT PERI AZIMU VELO AIN AR TRES W  DIS CAZ7
 BAR2 SZ IP        639 45.32                             170     0.010   25 210 
 BAR2 SZ ES   2    640  0.57                             170    -0.1 5   25 210 
 BAR2 SZ I         640  3.33        23.9 0.26                            25 210 
 GIR2 SZ EP   2    639 44.51                             166    -1.0 5   35 338 
 BRR  HZ IP     C  639 47.32                             150     0.010   79 297 
 BRR  HE ES   1    640  4.36                             150     0.2 7   79 297 
 BRR  HZ I         640  6.94        47.2 0.11                            79 297 
 GUE  SZ EP   1    639 50.37                             140     0.0 7  117   8 
 GUE  SZ I         639 52.24         8.6 0.11                           117   8 
 GRA  SZ IP        639 51.12                             137     0.310  125  14 
 GRA  SZ ES   1    640 10.78                             137     0.3 7  125  14 
 GRA  SZ I         640 13.04        21.8 0.29                           125  14 
 OCA  SZ EP   1    639 53.80                             129    -0.4 7  163 350 
 OCA  SZ I         640 20.84        14.1 0.23                           163 350 
 HEL  HZ EP   2    640  6.38                             114    -0.3 4  280 256 
 HEL  HZ I         640 44.00         7.1 0.40                           280 256 
 RREF HZ EP   2    640 12.13                             111    -0.3 3  327 230 
 RREF HE ES   2    640 48.87                             111     0.0 3  327 230 
 RREF HZ I         640 57.88        10.2 0.37                           327 230 
 PRA  HZ EP   2    640 20.19                             107     0.7 3  395 211 
 PRA  HN ES   2    641  2.16                             107     0.6 3  395 211 
 PRA  HZ I         641  5.27         8.4 0.42                           395 211 
                                                                                
