 2016 1118 0737 56.4 L   6.757 -73.158145.0  RSN  4 0.3 1.2LRSN                1
 GAP=246        0.72       8.0     5.2  5.7  0.1588E+02  0.6514E+01 -0.3955E+01E
 Epicentro: LOS SANTOS - SANTANDER                                             3
 ACTION:UPD 17-10-26 21:09 OP:lp   STATUS:               ID:20161118073756 L   I
 OLDACT:REG 16-11-18 12:53 OP:and  STATUS:               ID:20161118072741     3
 2016-11-18-0728-00M.COL___343                                                 6
 STAT SP IPHASW D HRMM SECON CODA AMPLIT PERI AZIMU VELO AIN AR TRES W  DIS CAZ7
 BAR2 EZ EP        738 15.48                             172   -0.3310 18.4 188 
 BAR2 EZ IS        738 31.29                             172    0.3110 18.4 188 
 BRR  HZ EP        738 17.58                             152    0.0810 72.4 302 
 BRR  HN ES        738 33.77                             152   -0.2110 72.4 302 
 PTB  HZ EP        738 22.82                             132   -0.25 9  146 261 
 PTB  HN ES        738 43.95                             132    0.05 9  146 261 
 PTB  HZ I         738 45.96         1.1 0.38            131            146 261 
 ZAR  HZ EP        738 29.37                             122    0.55 9  205 294 
 ZAR  HN ES        738 54.03                             122   -0.10 9  205 294 
 ZAR  HZ I         738 59.24         2.2 0.40            121            205 294 
                                                                                
