 2011  618 0406 57.0 L   6.781 -73.057140.2  RSN 12 0.3 2.0LRSN                1
 GAP=166        0.65       3.3     5.7  5.6 -0.9271E+01 -0.4166E+01  0.7036E+01E
 Epicentro: LOS SANTOS - SANTANDER                                             3
 ACTION:UP  11-07-14 19:06 OP:ep   STATUS:               ID:20110618040657 L   I
 2011-06-18-0403-26S.COL___135                                                 6
 STAT SP IPHASW D HRMM SECON CODA AMPLIT PERI AZIMU VELO SNR AR TRES W  DIS CAZ7
 BAR2 SZ IP        4 7 16.05                             169     0.110   25 214 
 BAR2 SZ ES   2    4 7 30.83                             169     0.1 5   25 214 
 BAR2 SZ I         4 7 31.99        31.8 0.20                            25 214 
 BTL  SZ ES   2    4 7 30.93                             168     0.0 5   28 303 
 GIR2 SZ EP   1    4 7 16.22                             165     0.1 7   36 335 
 GIR2 SZ ES   2    4 7 30.90                             165    -0.2 5   36 335 
 BRR  HZ EP   1    4 7 17.97                             148    -0.1 7   81 297 
 BRR  HE ES   1    4 7 34.85                             148     0.3 7   81 297 
 BRR  HZ I         4 7 38.06        21.6 0.33                            81 297 
 RUS  HZ EP   1    4 7 20.06                             143     0.1 7   98 182 
 RUS  HN ES   2    4 7 38.04                             143     0.1 5   98 182 
 RUS  HZ I         4 7 39.68        13.0 0.38                            98 182 
 BRI  SZ EP   1    4 7 20.95                             140     0.7 7  107  16 
 BRI  SZ ES   1    4 7 38.40                             140     0.0 7  107  16 
 BRI  SZ I         4 7 41.08        16.6 0.54                           107  16 
 GRA  SZ EP   1    4 7 21.87                             136     0.2 7  125  13 
 GRA  SZ ES   1    4 7 40.21                             136    -0.7 7  125  13 
 GRA  SZ I         4 7 44.49        15.8 0.44                           125  13 
 OCA  SZ ES   2    4 7 46.87                             128    -0.3 5  164 350 
 OCA  SZ I         4 7 52.72        11.3 0.45                           164 350 
 NOR  SN ES   2    4 8  1.13                             116    -0.2 4  242 236 
 CHI  HZ EP   1    4 7 33.85                             116    -0.6 6  249 197 
 CHI  HE ES   2    4 8  3.47                             116    -0.2 4  249 197 
 CHI  HZ I         4 8  7.12         5.4 0.43                           249 197 
 RREF HZ EP   2    4 7 43.39                             109    -0.2 3  328 231 
 RREF HN ES   2    4 8 20.09                             109     0.2 3  328 231 
 RREF HZ I         4 8 27.16         4.6 0.23                           328 231 
 PRA  HZ EP   2    4 7 50.72                             105     0.1 3  395 211 
 PRA  HN ES   2    4 8 32.61                             105     0.1 3  395 211 
                                                                                
