 2017  218 0725 37.7 L   6.289 -73.665104.0  RSN  5 0.2 1.3LRSN                1
 GAP=163        0.63       3.5     2.9  5.4  0.5076E+01  0.6191E+01  0.1854E+01E
 Epicentro: SANTA HELENA DEL OPON - SANTANDER                                  3
 ACTION:UPD 17-05-24 15:37 OP:jn   STATUS:               ID:20170218072537 L   I
 OLDACT:DUP 17-02-18 18:17 OP:cara STATUS:               ID:20170218071741d    3
 OLDACT:REG 17-02-18 13:49 OP:cara STATUS:               ID:20170218071740     3
 2017-02-18-0718-00M.COL___345                                                 6
 STAT SP IPHASW D HRMM SECON CODA AMPLIT PERI AZIMU VELO AIN AR TRES W  DIS CAZ7
 BAR2 EZ IP        725 54.39                             146    0.1010 63.1  58 
 BAR2 EZ ES        726  7.63                             146    0.3910 63.1  58 
 BAR2 EZ I         726  8.96         7.8 0.36            149           63.1  58 
 RUS  HZ EP        725 55.74                             141    0.0210 77.9 124 
 RUS  HN ES        726  9.52                             141   -0.2710 77.9 124 
 BRR  HZ EP        725 56.20                             135    0.1210 90.7 357 
 BRR  HN ES        726  9.98                             135   -0.4410 90.7 357 
 BRR  HZ I         726 14.88         4.1 0.56            136           90.7 357 
 PTB  HZ EP        725 56.23                             135    0.0310 91.8 288 
 PTB  HN ES        726 10.73                             135    0.0910 91.8 288 
 PTB  HZ I         726 13.85         3.6 0.26            136           91.8 288 
 ZAR  HZ EP        726  5.74                             114   -0.19 9  187 315 
 ZAR  HN ES        726 28.10                             114    0.14 9  187 315 
 ZAR  HZ I         726 33.50         3.2 0.36            116            187 315 
                                                                                
