 2011  918 0623 55.3 L   6.789 -73.140138.9  RSN  6 0.2 1.6LRSN                1
 GAP=138        0.39       3.0     3.6  4.5 -0.3604E+00 -0.8468E-02  0.4901E+01E
 Epicentro: LOS SANTOS - SANTANDER                                             3
 ACTION:UPD 12-07-13 15:58 OP:ep   STATUS:               ID:20110918062355 L   I
 2011-09-18-0621-52S.COL___170                                                 6
 STAT SP IPHASW D HRMM SECON CODA AMPLIT PERI AZIMU VELO AIN AR TRES W  DIS CAZ7
 BTL  SZ EP        624 14.15                             171    0.0710 20.1 315 
 GIR2 SZ EP        624 14.07                             166   -0.1610 32.6 350 
 GIR2 SZ ES   1    624 28.89                             166   -0.08 7 32.6 350 
 BRR  HE ES   2    624 32.23                             151    0.44 5 72.4 299 
 PAM  SZ EP        624 16.98                             149    0.1210 77.9  39 
 PAM  SN ES   1    624 33.55                             149   -0.10 7 77.9  39 
 RUS  HZ EP        624 18.37                             143    0.0510 99.3 176 
 RUS  HE ES   2    624 36.13                             143   -0.13 5 99.3 176 
 ZAR  HN ES   2    624 52.22                             121   -0.29 4  205 292 
 ZAR  HZ I         624 57.84         4.0 0.24                           205 292 
                                                                                
