 2013  118 0709 53.7 L   6.411 -73.480127.4  RSN  4 0.1 0.9LRSN                1
 GAP=161        0.35       2.7     2.4  4.0  0.2483E+01  0.2552E-02  0.2460E+01E
 Epicentro: CHIMA - SANTANDER                                                  3
 ACTION:UPD 13-02-15 09:15 OP:ep   STATUS:               ID:20130118070953 L   I
 2013-01-18-0710-00M.COL___241                                                 6
 STAT SP IPHASW D HRMM SECON CODA AMPLIT PERI AZIMU VELO AIN AR TRES W  DIS CAZ7
 RUS  HZ EP        710 13.63                             149   -0.0810 72.2 143 
 RUS  HN ES   2    710 29.37                             149    0.09 5 72.2 143 
 RUS  HN I         710 31.31         0.9 0.31            144           72.2 143 
 BRR  HZ EP        710 13.70                             145    0.1010 81.2 342 
 BRR  HZ I         710 28.05         2.0 0.58                          81.2 342 
 BRR  HE ES        710 29.05                             145   -0.0410 81.2 342 
 PTB  HZ EP        710 15.69                             137   -0.0710  109 278 
 PTB  HN ES        710 32.98                             137    0.0510  109 278 
 PTB  HZ I         710 36.76         1.4 0.17            130            109 278 
 ZAR  HZ EP   2    710 24.30                             119    0.35 4  194 308 
 ZAR  HZ I         710 31.48         0.9 0.36            111            194 308 
 ZAR  HN ES   2    710 47.21                             119   -0.30 4  194 308 
                                                                                
