 2012  818 0556 42.4 L   6.884 -73.505108.8  RSN  7 0.5 2.3LRSN                1
 GAP= 93        1.18       4.8     5.1  8.9  0.6279E+01  0.9829E+01 -0.6971E+00E
 Epicentro: SAN VICENTE DE CHUCURI - SANTANDER                                 3
 ACTION:UPD 12-09-10 11:56 OP:ep   STATUS:               ID:20120818055642 L   I
 2012-08-18-0550-00M.COL___217                                                 6
 STAT SP IPHASW D HRMM SECON CODA AMPLIT PERI AZIMU VELO AIN AR TRES W  DIS CAZ7
 BRR  HZ IP     D  556 57.52                             161   -0.0910 33.6 317 
 BRR  HZ I         556 57.89       176.0 0.10                          33.6 317 
 BRR  HE ES        557  9.25                             161   -0.2110 33.6 317 
 BAR2 SZ EP   1    556 59.15                             154    0.53 7 48.1 132 
 BAR2 SZ ES   1    557 11.45                             154    0.19 7 48.1 132 
 BAR2 SZ I         557 12.57       133.0 0.17                          48.1 132 
 PAM  SZ EP   1    557  3.38                             134    0.49 7  102  60 
 PAM  SE ES   1    557 18.82                             134   -0.04 7  102  60 
 PAM  SZ I         557 20.71        17.8 0.15                           102  60 
 PTB  HZ EP        557  1.99                             130   -1.1310  112 250 
 PTB  HZ I         557 17.66        18.3 0.18                           112 250 
 RUS  HZ EP   1    557  4.75                             129    0.31 7  119 157 
 RUS  HZ I         557  5.93        19.8 0.12                           119 157 
 RUS  HN ES        557 21.64                             129    0.0110  119 157 
 OCA  HZ EP   1    557  7.05                             121   -0.15 7  151   8 
 OCA  HN ES   1    557 25.97                             121   -0.56 7  151   8 
 OCA  HZ I         557 27.82        73.2 0.18                           151   8 
 ZAR  HZ EP   1    557  8.84                             119    0.50 7  164 294 
 ZAR  HN ES        557 29.38                             119    0.81 9  164 294 
 ZAR  HZ I         557 31.12        18.6 0.08                           164 294 
                                                                                
