 2012  918 0356 43.7 L   6.768 -73.184145.7  RSN  5 0.3 1.5LRSN                1
 GAP=175        0.72       5.9     6.5  8.3  0.1002E+02 -0.4920E+01  0.5691E+01E
 Epicentro: VILLANUEVA - SANTANDER                                             3
 ACTION:UPD 12-10-22 14:19 OP:ep   STATUS:               ID:20120918035643 L   I
 2012-09-18-0350-00M.COL___227                                                 6
 STAT SP IPHASW D HRMM SECON CODA AMPLIT PERI AZIMU VELO AIN AR TRES W  DIS CAZ7
 BAR2 SZ EP        357  3.14                             172   -0.0910 19.4 180 
 BAR2 SZ I         357 19.04         7.8 0.26                          19.4 180 
 GIR2 SZ EP   1    357  2.92                             166   -0.52 7 34.4 358 
 GIR2 SZ ES   1    357 18.58                             166   -0.26 7 34.4 358 
 BRR  HZ EP        357  5.03                             153    0.3010 69.4 303 
 BRR  HN ES   1    357 21.64                             153    0.50 7 69.4 303 
 BRR  HN I         357 22.39        26.9 0.16                          69.4 303 
 BRR  HZ I         357 22.95         5.1 0.20                          69.4 303 
 RUS  HZ EP   1    357  7.42                             145    0.22 7 97.4 173 
 RUS  HN ES   1    357 25.60                             145    0.05 7 97.4 173 
 RUS  HZ I         357 27.27         2.0 0.36                          97.4 173 
 PTB  HN ES   1    357 30.50                             133   -0.41 7  143 260 
                                                                                
