 2017  418 0732  1.6 L   6.806 -73.142144.1  RSN 19 0.5 2.5LRSN                1
 GAP=112        1.06       3.1     3.5  4.9  0.2548E+00  0.4078E+01  0.3427E+01E
 Epicentro: LOS SANTOS - SANTANDER                                             3
 ACTION:UPD 17-05-30 21:13 OP:jn   STATUS:               ID:20170418073201 L   I
 OLDACT:UP  17-04-18 16:23 OP:cog  STATUS:               ID:20170418072553     3
 OLDACT:REG 17-04-18 12:59 OP:cog  STATUS:               ID:20170418072553     3
 2017-04-18-0728-00M.COL___368                                                 6
 STAT SP IPHASW D HRMM SECON CODA AMPLIT PERI AZIMU VELO AIN AR TRES W  DIS CAZ7
 BAR2 EZ EP        732 20.83                             170   -0.2510 24.0 191 
 BAR2 EZ ES        732 35.34                             170   -0.9010 24.0 191 
 BAR2 EZ I         732 36.97        87.5 0.38            166           24.0 191 
 BRR  HZ EP        732 22.71                             152    0.1110 71.3 298 
 BRR  HN ES        732 39.77                             152    0.8110 71.3 298 
 BRR  HZ I         732 42.91        44.9 0.28            151           71.3 298 
 PAM  EZ EP        732 23.82                             151    0.1910 76.7  40 
 PAM  EN ES        732 40.92                             151    0.1410 76.7  40 
 PAM  EZ I         732 43.09        65.2 0.52            157           76.7  40 
 RUS  HZ EP        732 24.78                             143   -0.4810  101 176 
 RUS  HN ES        732 43.91                             143    0.2210  101 176 
 RUS  HZ I         732 45.17        32.1 0.44            142            101 176 
 PTB  HZ EP   9    732 27.60                             132   -0.91 0  148 259 
 PTB  HN ES        732 48.74                             131    0.18 9  148 259 
 PTB  HZ I         732 50.59        34.3 0.40            131            148 259 
 SPBC HZ EP        732 29.86                             129   -0.21 9  164 219 
 SPBC HN ES        732 52.18                             129   -0.07 9  164 219 
 SPBC HZ I         732 56.54        59.1 0.25            127            164 219 
 YPLC HZ EP        732 31.28                             126   -0.06 9  177 152 
 YPLC HN ES        732 55.21                             126    0.70 9  177 152 
 YPLC HZ I         732 58.13        18.7 0.30            127            177 152 
 ZAR  HZ EP        732 33.48                             122   -0.50 9  204 292 
 ZAR  HN ES        732 58.96                             122   -0.26 9  204 292 
 NOR  HZ EP        732 37.02                             118   -0.32 8  235 234 
 NOR  HE ES        733  5.61                             118    0.42 8  235 234 
 NOR  HZ I         733 14.24        20.2 0.42            118            235 234 
 CHI  HZ EP        732 39.11                             117   -0.20 8  249 195 
 CHI  HN ES        733  8.32                             117   -0.39 8  249 195 
 CHI  HZ I         733 11.91        23.3 0.60            117            249 195 
 ROSC BZ EP   9    732 40.87                             116    1.13 0  253 211 
 ROSC BN ES        733 11.72                             116    1.13 8  253 211 
 ROSC BZ I         733 15.38        52.4 0.40            116            253 211 
 HEL  HZ EP   3    732 43.12                             114    1.30 2  273 256 
 HEL  HE ES   3    733 12.20                             114   -0.96 2  273 256 
 HEL  HZ I         733 18.96        19.4 0.28            115            273 256 
 VIL  EN ES        733 19.03                             112    0.11 7  304 192 
 VIL  EZ I         733 28.60        32.6 0.42            112            304 192 
 PTGC HZ EP   9    732 43.94                             111   -1.52 0  309 159 
 PTGC HN ES        733 17.78                             111   -0.35 7  309 159 
 PTGC HZ I         733 20.14        18.7 0.38            112            309 159 
 ELA  HZ EP   4    732 51.46                             110    2.97 0  330 229 
 ELA  HE ES        733 25.90                             110    0.86 7  330 229 
 ELA  HZ I         733 33.62        13.9 0.54            110            330 229 
 CBOC HZ EP        732 49.23                             110    0.69 7  334 252 
 CBOC HE ES        733 24.56                             110   -0.57 7  334 252 
 CBOC HZ I         733 30.47         4.9 0.38            110            334 252 
 ANIL HZ EP        732 52.22                             108    0.76 6  358 224 
 ANIL HE ES   4    733 33.16                             108    2.84 0  358 224 
 PRA  HZ EP        732 54.99                             106   -0.19 6  393 210 
 PRA  HE ES   3    733 36.21                             106   -0.74 1  393 210 
 PRA  HZ I         733 42.82        15.7 0.26            107            393 210 
 ORTC HZ EP        732 55.61                             106    0.03 6  396 216 
 ORTC HN ES   3    733 37.71                             106    0.05 1  396 216 
 ORTC HZ I         733 42.29        13.4 0.24            106            396 216 
                                                                                
