 2012  518 0711 48.1 L   6.765 -73.123141.0  RSN  8 0.4 1.8LRSN                1
 GAP=141        0.91       3.9     7.3  7.2 -0.5127E+01  0.2275E+02 -0.1620E+00E
 Epicentro: LOS SANTOS - SANTANDER                                             3
 ACTION:UP  12-07-05 12:06 OP:pat  STATUS:               ID:20120518071148 L   I
 2012-05-18-0710-00M.COL___200                                                 6
 STAT SP IPHASW D HRMM SECON CODA AMPLIT PERI AZIMU VELO SNR AR TRES W  DIS CAZ7
 BAR2 SZ EP        712  7.20                             171     0.110   20 199 
 BAR2 SZ ES   1    712 21.56                             171    -0.3 7   20 199 
 BRR  HZ EP        712  9.24                             150     0.310   75 300 
 BRR  HN ES   2    712 25.74                             150     0.5 5   75 300 
 BRR  HZ I         712 30.40        15.9 0.14                            75 300 
 PAM  SZ EP        712 10.22                             149     0.310   79  36 
 PAM  SN ES   1    712 26.74                             149    -0.1 7   79  36 
 RUS  HZ EP        712 11.06                             144     0.010   97 177 
 RUS  HZ I         712 11.76         7.7 0.46                            97 177 
 RUS  HN ES   1    712 29.10                             144     0.1 7   97 177 
 PTB  HZ EP        712 14.47                             130    -0.3 9  149 260 
 PTB  HZ I         712 38.48         9.4 0.10                           149 260 
 OCA  HZ EP        712 16.44                             128     0.0 9  164 352 
 OCA  HN ES   2    712 37.08                             128    -1.4 5  164 352 
 CHI  HZ EP        712 24.57                             116    -0.6 8  246 196 
 CHI  HN ES   1    712 54.29                             116     0.2 6  246 196 
 CHI  HZ I         713  1.15         3.8 0.30                           246 196 
 HEL  HZ EP        712 28.56                             114     0.4 8  274 257 
                                                                                
