 2017  418 0608 25.6 L   6.792 -73.174142.9  RSN 10 0.4 1.8LRSN                1
 GAP=109        1.04       3.5     3.5  6.0  0.1113E+01  0.3438E+01  0.6085E+01E
 Epicentro: LOS SANTOS - SANTANDER                                             3
 ACTION:UPD 17-05-30 21:13 OP:jn   STATUS:               ID:20170418060825 L   I
 OLDACT:UP  17-04-18 15:59 OP:cog  STATUS:               ID:20170418055741d    3
 OLDACT:DUP 17-04-18 15:50 OP:cog  STATUS:               ID:20170418055741d    3
 2017-04-18-0558-00M.COL___368                                                 6
 STAT SP IPHASW D HRMM SECON CODA AMPLIT PERI AZIMU VELO AIN AR TRES W  DIS CAZ7
 BAR2 EZ EP        6 8 44.82                             171   -0.0010 22.1 182 
 BAR2 EZ ES        6 8 59.50                             171   -0.3510 22.1 182 
 BAR2 EZ I         6 9  0.83        21.8 0.30            170           22.1 182 
 BRR  HZ IP     C  6 8 46.51                             153    0.2410 68.9 300 
 BRR  HN ES        6 9  3.19                             153    0.7610 68.9 300 
 BRR  HZ I         6 9  6.90        12.9 0.24            153           68.9 300 
 PAM  EZ EP        6 8 47.75                             149    0.1110 80.1  41 
 PAM  EE ES        6 9  4.81                             149   -0.0510 80.1  41 
 PAM  EZ I         6 9  8.00         6.2 0.46            154           80.1  41 
 RUS  HZ EP        6 8 49.07                             143    0.0910 99.9 174 
 RUS  HN ES        6 9  7.33                             143    0.0710 99.9 174 
 RUS  HZ I         6 9  8.40         7.0 0.18            145           99.9 174 
 PTB  HZ EP        6 8 51.51                             132   -0.49 9  144 259 
 PTB  HN ES        6 9 12.70                             132    0.08 9  144 259 
 PTB  HZ I         6 9 17.54         8.3 0.34            133            144 259 
 SPBC HZ EP        6 8 53.81                             129    0.22 9  161 218 
 SPBC HE ES        6 9 15.85                             129    0.40 9  161 218 
 SPBC HZ I         6 9 18.22        12.6 0.12            130            161 218 
 YPLC HZ EP        6 8 55.14                             126   -0.08 9  178 150 
 YPLC HN ES        6 9 17.62                             126   -0.74 9  178 150 
 YPLC HZ I         6 9 20.26         6.2 0.26            128            178 150 
 ZAR  HZ EP   3    6 8 57.47                             122   -0.08 2  201 293 
 ZAR  HN ES        6 9 21.55                             122   -0.96 9  201 293 
 NOR  HZ EP        6 9  1.00                             118    0.21 8  232 234 
 NOR  HN ES        6 9 27.72                             118   -0.55 8  232 234 
 NOR  HZ I         6 9 34.28         5.2 0.22            120            232 234 
 CHI  HZ EP        6 9  3.64                             117    0.72 8  247 195 
 CHI  HN ES        6 9 32.19                             117    0.13 8  247 195 
 CHI  HZ I         6 9 37.35         4.4 0.40            118            247 195 
 ROSC BZ ES   4    6 9 34.54                             116    1.87 0  250 211 
                                                                                
