 2015  218 0550 40.1 L   6.781 -73.135148.5  RSN 10 0.4 1.6LRSN                1
 GAP=139        1.09       3.4     4.7  6.7 -0.6316E+00  0.6574E+01  0.4204E+01E
 Epicentro: LOS SANTOS - SANTANDER                                             3
 ACTION:UPD 15-04-30 21:27 OP:nd   STATUS:               ID:20150218055040 L   I
 OLDACT:UP  15-02-18 19:03 OP:mh   STATUS:               ID:20150218054736     3
 OLDACT:REG 15-02-18 12:17 OP:mh   STATUS:               ID:20150218054736     3
 2015-02-18-0547-36M.COL___299                                                 6
 STAT SP IPHASW D HRMM SECON CODA AMPLIT PERI AZIMU VELO AIN AR TRES W  DIS CAZ7
 BAR2 EZ EP   1    550 59.46                             171   -0.53 7 21.5 194 
 BAR2 EZ ES   1    551 15.19                             171   -0.34 7 21.5 194 
 BAR2 EZ I         551 16.69        13.4 0.08            171           21.5 194 
 BRR  HZ EP        551  2.01                             152    0.3910 73.2 300 
 BRR  HN ES        551 19.22                             152    0.7810 73.2 300 
 BRR  HZ I         551 22.38         5.8 0.36            143           73.2 300 
 PAM  SZ EP        551  3.02                             151    0.4010 78.3  38 
 PAM  SN ES        551 20.02                             151   -0.2010 78.3  38 
 PAM  SZ I         551 22.51         4.6 0.56            139           78.3  38 
 RUS  HZ EP        551  4.08                             145    0.1510 98.4 177 
 RUS  HN ES        551 22.69                             145    0.1410 98.4 177 
 RUS  HZ I         551 24.19         4.0 0.16            136           98.4 177 
 PTB  HZ EP        551  7.06                             132   -0.26 9  149 260 
 PTB  HN ES        551 28.00                             132   -0.58 9  149 260 
 PTB  HZ I         551 35.15         4.4 0.30            122            149 260 
 SPBC HZ EP        551  9.05                             130    0.36 9  162 220 
 SPBC HN ES        551 31.15                             130    0.13 9  162 220 
 SPBC HZ I         551 36.59         6.0 0.10            120            162 220 
 OCA  HN ES        551 30.52                             130   -0.68 9  162 353 
 OCA  HZ I         551 33.05         5.9 0.24            118            162 353 
 ZAR  HZ EP        551 13.49                             123    0.61 8  206 293 
 ZAR  HN ES        551 38.23                             123   -0.24 8  206 293 
 ZAR  HZ I         551 43.32         4.3 0.36            112            206 293 
 CHI  HZ EP        551 16.90                             118   -0.83 8  247 196 
 CHI  HN ES        551 47.00                             118   -0.11 8  247 196 
 CHI  HZ I         551 54.67         2.2 0.48            108            247 196 
 GUY2CHZ EP   1    551 23.84                             113    0.07 5  301 235 
 GUY2CHN ES   4    551 59.39                             113    1.53 0  301 235 
 MON  HZ EP   4    551 26.76                             109   -2.66 0  356 309 
 MON  HN ES   4    552  5.58                             109   -2.35 0  356 309 
                                                                                
