 2013 1018 0238 11.0 L   6.798 -73.179147.9  RSN  7 0.5 1.5LRSN                1
 GAP=198        1.16       5.7     7.4  9.5  0.1436E+02  0.1197E+02 -0.3997E+01E
 Epicentro: LOS SANTOS - SANTANDER                                             3
 ACTION:UPD 13-11-25 09:22 OP:ep   STATUS:               ID:20131018023811 L   I
 OLDACT:DUP 13-10-18 09:45 OP:jn   STATUS:               ID:20131018022837d    3
 OLDACT:DUP 13-10-18 09:39 OP:jn   STATUS:               ID:20131018022836d    3
 2013-10-18-0228-35M.COL___226                                                 6
 STAT SP IPHASW D HRMM SECON CODA AMPLIT PERI AZIMU VELO AIN AR TRES W  DIS CAZ7
 BAR2 SZ ES        238 45.91                             171   -0.4410 22.7 181 
 BAR2 SZ I         238 46.84        17.7 0.30            168           22.7 181 
 BRR  HZ EP     C  238 32.59                             154    0.4110 68.1 300 
 BRR  HN ES        238 49.50                             154    0.7810 68.1 300 
 BRR  HZ I         238 53.57         6.9 0.50            151           68.1 300 
 RUS  HZ EP        238 35.02                             144    0.0810  101 174 
 RUS  HN ES        238 53.52                             144   -0.1110  101 174 
 RUS  HZ I         238 54.43         2.9 0.30            145            101 174 
 PTB  HZ EP        238 37.52                             133   -0.27 9  144 259 
 PTB  HN ES        238 57.93                             133   -0.77 9  144 259 
 PTB  HZ I         239  4.17         2.8 0.18            132            144 259 
 SPBC HN ES        239  1.98                             130    0.40 9  161 218 
 SPBC HZ I         239  6.10         4.0 0.42            130            161 218 
 ZAR  HE ES   1    239  8.62                             123    0.25 6  201 293 
 SML  HE ES   1    239 15.43                             118   -0.70 6  242 336 
                                                                                
