 2013 1218 0347 32.8 L   6.792 -73.158146.0  RSN  8 0.4 1.8LRSN                1
 GAP=135        1.09       4.0     5.0  8.2 -0.2784E+01  0.5406E+01 -0.4581E+00E
 Epicentro: LOS SANTOS - SANTANDER                                             3
 ACTION:UPD 14-01-13 10:18 OP:ep   STATUS:               ID:20131218034732 L   I
 OLDACT:REG 13-12-18 06:46 OP:jn   STATUS:               ID:20131218034000     3
 2013-12-18-0340-00M.COL___285                                                 6
 STAT SP IPHASW D HRMM SECON CODA AMPLIT PERI AZIMU VELO AIN AR TRES W  DIS CAZ7
 BAR2 SZ EP     D  347 52.63                             171    0.1610 22.3 187 
 BAR2 SZ ES        348  7.92                             171    0.1310 22.3 187 
 BAR2 SZ I         348  8.84        29.3 0.18            172           22.3 187 
 BRR  HZ EP        347 54.50                             153    0.5310 70.4 300 
 BRR  HN ES        348 11.17                             153    0.7210 70.4 300 
 BRR  HZ I         348 19.05         8.2 0.16            150           70.4 300 
 PAM  SZ EP        347 55.41                             150    0.2410 78.9  40 
 PAM  SN ES        348 12.53                             150   -0.0610 78.9  40 
 PAM  SZ I         348 14.83         7.2 0.62            153           78.9  40 
 RUS  HZ EP        347 56.53                             144   -0.0310 99.8 175 
 RUS  HN ES        348 14.65                             144   -0.4110 99.8 175 
 RUS  HZ I         348 16.43         7.6 0.32            150           99.8 175 
 PTB  HZ EP   1    347 59.68                             132   -0.00 7  146 259 
 PTB  HN ES        348 20.04                             132   -0.58 9  146 259 
 OCA  HN ES        348 22.44                             130   -0.94 9  161 354 
 OCA  HZ I         348 26.84         8.2 0.16            131            161 354 
 SPBC HN ES        348 23.26                             129   -0.07 9  162 219 
 ZAR  HN ES   1    348 30.62                             123    0.18 6  203 293 
 ZAR  HZ I         348 37.16         7.8 0.52            124            203 293 
                                                                                
