 2012 1218 0033 30.6 L   6.054 -73.724110.6  RSN 14 0.4 2.2LRSN                1
 GAP= 76        0.81       2.6     2.3  5.4 -0.1297E+01  0.1438E+01  0.3323E+01E
 Epicentro: BOLIVAR - SANTANDER                                                3
 ACTION:UPD 13-01-04 14:28 OP:ep   STATUS:               ID:20121218003330 L   I
 2012-12-18-0030-00M.COL___242                                                 6
 STAT SP IPHASW D HRMM SECON CODA AMPLIT PERI AZIMU VELO AIN AR TRES W  DIS CAZ7
 RUS  HZ IP     D  033 48.98                             144    0.1010 73.1 104 
 RUS  HN I         033 49.99        19.8 0.28                          73.1 104 
 RUS  HN ES   1    034  2.98                             144   -0.18 7 73.1 104 
 BAR2 SZ IP        033 49.76                             140    0.3910 84.5  45 
 BAR2 SZ ES        034  4.18                             140    0.1510 84.5  45 
 BAR2 SZ I         034  5.35       133.6 0.15                          84.5  45 
 PTB  HZ EP        033 49.62                             135   -0.4910 97.2 304 
 PTB  HN ES        034  4.95                             135   -0.4010 97.2 304 
 PTB  HZ I         034  7.85        24.9 0.13                          97.2 304 
 GIR2 SZ EP        033 53.44                             127    0.3710  128  27 
 NOR  HZ EP   1    033 53.75                             125   -0.22 7  138 247 
 NOR  HN ES   1    034 12.93                             125    0.69 7  138 247 
 NOR  HZ I         034 15.29        49.6 0.21                           138 247 
 CHI  HZ EP        033 56.37                             121   -0.08 9  157 180 
 CHI  HE ES   2    034 16.54                             121   -0.11 5  157 180 
 PAM  SZ EP        033 59.21                             117    0.07 9  182  38 
 PAM  SN ES   1    034 21.27                             117   -0.17 7  182  38 
 PAM  SZ I         034 25.32        13.2 0.27                           182  38 
 HEL  HZ EP        034  1.70                             114    0.66 9  200 274 
 HEL  HN ES   1    034 24.37                             114   -0.44 6  200 274 
 HEL  HZ I         034 26.10        11.0 0.29                           200 274 
 ZAR  HZ EP   1    034  0.14                             114   -0.68 6  203 322 
 ZAR  HN ES   1    034 24.69                             114    0.27 6  203 322 
 ZAR  HZ I         034 26.21        17.8 0.33                           203 322 
 TAM  HZ EP        034  2.03                             112   -0.57 8  218  79 
 TAM  HZ I         034 26.53        14.7 0.25                           218  79 
 RREF HZ EP   1    034  3.79                             112    0.16 6  220 235 
 TOL  SZ EP        034  5.64                             109    0.14 8  240 228 
 OCA  HN ES   1    034 33.78                             109    0.28 6  246  10 
 OCA  HZ I         034 39.90        12.2 0.30                           246  10 
 PRA  HZ EP        034 10.64                             105   -0.19 7  289 207 
 PRA  HZ I         034 13.59        10.9 0.16                           289 207 
 PRA  HE ES   1    034 42.22                             105   -0.02 5  289 207 
                                                                                
