 2012 1218 0237 10.6 L   6.714 -73.171148.9  RSN  4 0.2 1.5LRSN                1
 GAP=228        0.49       4.5     4.7  5.3  0.1102E+02 -0.2208E+01  0.1892E+01E
 Epicentro: VILLANUEVA - SANTANDER                                             3
 ACTION:UPD 13-01-04 14:28 OP:ep   STATUS:               ID:20121218023710 L   I
 2012-12-18-0230-00M.COL___242                                                 6
 STAT SP IPHASW D HRMM SECON CODA AMPLIT PERI AZIMU VELO AIN AR TRES W  DIS CAZ7
 BAR2 SZ EP        237 30.20                             175   -0.2310 13.5 185 
 BAR2 SZ I         237 47.85         6.9 0.26                          13.5 185 
 BRR  HZ EP        237 32.31                             152    0.0910 73.9 306 
 BRR  HZ I         237 42.18         7.2 0.55                          73.9 306 
 BRR  HN ES        237 49.15                             152    0.0510 73.9 306 
 RUS  HZ EP        237 34.28                             147    0.2810 91.3 174 
 RUS  HN ES   1    237 52.15                             147   -0.12 7 91.3 174 
 PTB  HZ EP        237 37.23                             134   -0.19 9  143 262 
 PTB  HE ES   1    237 58.43                             134    0.07 7  143 262 
 PTB  HZ I         238  5.60         3.8 0.27                           143 262 
                                                                                
