 2017  618 0821 31.9 L   6.786 -73.083141.1  RSN  5 0.5 1.5LRSN                1
 GAP=284        1.11       6.8     9.2  9.4 -0.3207E+01 -0.1891E+02  0.1138E+02E
 Epicentro: LOS SANTOS - SANTANDER                                             3
 ACTION:UPD 17-09-14 16:52 OP:jn   STATUS:               ID:20170618082131 L   I
 OLDACT:UP  17-06-18 16:05 OP:cog  STATUS:               ID:20170618081736     3
 OLDACT:REG 17-06-18 13:23 OP:cog  STATUS:               ID:20170618081736     3
 2017-06-18-0818-00M.COL___341                                                 6
 STAT SP IPHASW D HRMM SECON CODA AMPLIT PERI AZIMU VELO AIN AR TRES W  DIS CAZ7
 BRR  HZ EP        821 53.08                             150    0.1410 78.1 297 
 BRR  HN ES        822  9.75                             150    0.3910 78.1 297 
 BRR  HZ I         822 13.05         4.2 0.32            147           78.1 297 
 PTB  HZ EP   9    821 57.79                             130   -1.29 0  154 260 
 PTB  HN ES        822 18.87                             129   -0.14 9  154 260 
 PTB  HZ I         822 25.99         3.5 0.38            129            154 260 
 SPBC HZ EP        822  0.07                             127   -0.28 9  167 221 
 SPBC HN ES        822 22.20                             127   -0.35 9  167 221 
 SPBC HZ I         822 25.26         5.8 0.12            128            167 221 
 ZAR  HZ EP        822  4.98                             120    0.22 8  211 292 
 ZAR  HN ES        822 29.43                             120   -0.98 8  211 292 
 ZAR  HZ I         822 35.17         4.5 0.28            121            211 292 
 HEL  HE ES   4    822 45.92                             113    1.60 0  278 256 
 CBOC HZ EP        822 19.44                             109    0.12 7  340 253 
 CBOC HN ES        822 57.41                             109    1.09 7  340 253 
 CBOC HZ I         822 59.33         0.9 0.44            110            340 253 
                                                                                
