 2010  818 0116 50.7 L   6.312 -73.545110.9  RSN  7 0.4 1.8LRSN                1
 GAP= 82        1.02       5.1     9.5 14.3  0.3745E+01  0.1054E+03  0.1531E+02E
 Epicentro: CONTRATACION - SANTANDER                                           3
 ACTION:UP  10-09-07 10:55 OP:vdl  STATUS:               ID:20100818011650 L   I
 2010-08-18-0112-54S.COL___111                                                 6
 STAT SP IPHASW D HRMM SECON CODA AMPLIT PERI AZIMU VELO SNR AR TRES W  DIS CAZ7
 BAR2 SZ EP        117  7.54                             154     0.310   51  52 
 BAR2 SZ ES   1    117 20.47                             154     0.3 7   51  52 
 BAR2 SZ I         117 21.75        46.7 0.50                            51  52 
 RUS  HZ EP        117  8.78                             146     0.010   69 132 
 RUS  HN ES   1    117 22.95                             146     0.1 7   69 132 
 RUS  HZ I         117 24.48         5.9 0.55                            69 132 
 BRR  HZ EP        117  9.21                             138    -0.410   90 348 
 BRR  HE ES   2    117 24.22                             138    -0.2 5   90 348 
 BRR  HZ I         117 33.89        16.6 1.49                            90 348 
 CHI  HN ES   1    117 41.67                             116    -0.8 7  187 186 
 CHI  HZ I         117 47.23         2.4 0.36                           187 186 
 HEL  HZ EP   1    117 23.14                             112    -0.3 6  220 267 
 HEL  HE ES   3    117 48.80                             112    -0.1 2  220 267 
 HEL  HZ I         117 50.48         4.0 0.04                           220 267 
 RREF HZ EP        117 28.22                             108     0.6 8  253 232 
 RREF HN ES   2    117 56.91                             108     0.6 4  253 232 
 RREF HZ I         118  1.74         7.2 0.15                           253 232 
 PRA  HZ I         118 20.12         3.6 0.15                           323 207 
                                                                                
