 2013  418 0709 15.6 L   6.808 -73.104147.4  RSN 13 0.4 2.1LRSN                1
 GAP=142        0.94       3.0     5.1  5.5  0.1373E+01  0.9320E+01  0.1972E+01E
 Epicentro: LOS SANTOS - SANTANDER                                             3
 ACTION:UPD 13-05-22 14:39 OP:EP   STATUS:               ID:20130418070915 L   I
 2013-04-18-0707-50M.COL___215                                                 6
 STAT SP IPHASW D HRMM SECON CODA AMPLIT PERI AZIMU VELO AIN AR TRES W  DIS CAZ7
 BAR2 SZ IP        7 9 35.33                             170   -0.1710 25.3 200 
 BAR2 SZ ES        7 9 50.73                             170   -0.2610 25.3 200 
 BAR2 SZ I         7 9 51.88        36.0 0.34            167           25.3 200 
 GIR2 SZ EP        7 9 35.52                             167    0.0210 31.6 342 
 GIR2 SZ I         7 9 52.45        12.1 0.12            166           31.6 342 
 PAM  SZ IP     C  7 9 38.12                             152    0.3110 73.8  37 
 PAM  SN ES   1    7 9 55.50                             152    0.38 7 73.8  37 
 PAM  SZ I         7 9 57.51        14.6 0.18            156           73.8  37 
 BRR  HZ EP        7 9 37.28                             151    0.1210 74.9 296 
 BRR  HN ES   1    7 9 54.67                             151    0.70 7 74.9 296 
 BRR  HZ I         7 9 58.99        17.6 0.12            149           74.9 296 
 RUS  HZ EP        7 9 39.20                             144   -0.3810  101 179 
 RUS  HN ES   1    7 9 57.82                             144   -0.45 7  101 179 
 RUS  HZ I         7 9 59.15        10.4 0.40            145            101 179 
 PTB  HZ EP   2    7 9 42.26                             131   -0.89 5  152 259 
 PTB  HN ES   4    710  1.28                             131   -3.35 0  152 259 
 OCA  HZ EP        7 9 43.77                             130   -0.27 9  160 351 
 OCA  HN ES   1    710  6.41                             130    0.20 7  160 351 
 OCA  HZ I         710 10.28        19.0 0.30            131            160 351 
 ZAR  HZ EP        7 9 47.96                             122   -0.63 8  208 291 
 ZAR  HN ES        710 14.05                             122   -0.25 8  208 291 
 ZAR  HZ I         710 19.72        16.6 0.30            122            208 291 
 SML  HZ EP        7 9 52.09                             118   -0.39 8  245 334 
 SML  HE ES   1    710 21.35                             118    0.13 6  245 334 
 SML  HZ I         710 23.87        33.4 0.24            118            245 334 
 CHI  HZ EP        7 9 53.59                             117   -0.05 8  251 196 
 CHI  HE ES   1    710 23.76                             117    0.47 6  251 196 
 CHI  HZ I         710 28.93         4.9 0.64            118            251 196 
 ROSC BZ EP        7 9 55.01                             117    0.83 8  256 212 
 ROSC BE ES   4    710 25.76                             117    1.52 0  256 212 
 ROSC BZ I         710 29.84        13.9 0.60            117            256 212 
 HEL  HZ EP        7 9 57.38                             115    0.94 7  277 256 
 HEL  HN ES   4    710 29.50                             115    1.22 0  277 256 
 HEL  HZ I         710 35.97         6.9 0.36            115            277 256 
 PRA  HZ EP        710  9.84                             107    0.28 6  395 210 
 PRA  HN ES   1    710 51.09                             107   -0.53 4  395 210 
 PRA  HZ I         710 59.92         7.3 0.36            107            395 210 
                                                                                
