 2013  318 0546  4.5 L   6.270 -73.559132.0  RSN  5 0.3 1.8LRSN                1
 GAP=237        0.58       7.0     4.4  6.3 -0.2589E+01 -0.8682E+01  0.5913E+01E
 Epicentro: EL GUACAMAYO - SANTANDER                                           3
 ACTION:UPD 13-04-09 14:03 OP:ep   STATUS:               ID:20130318054604 L   I
 2013-03-18-0540-00M.COL___243                                                 6
 STAT SP IPHASW D HRMM SECON CODA AMPLIT PERI AZIMU VELO AIN AR TRES W  DIS CAZ7
 BAR2 SZ EP        546 23.55                             156   -0.0710 54.8  49 
 BRR  HZ EP        546 25.76                             142    0.0210 94.1 350 
 BRR  HN ES        546 42.21                             142   -0.1010 94.1 350 
 BRR  HN I         546 43.21         9.7 0.32             56           94.1 350 
 PTB  HN ES        546 43.83                             140    0.1710  104 287 
 ZAR  HZ EP        546 35.00                             120   -0.36 9  197 313 
 ZAR  HN ES   2    546 59.42                             120   -0.01 4  197 313 
 ZAR  HN I         547  7.19         3.8 0.40             56            197 313 
 OCA  HZ EP   1    546 38.53                             117    0.61 6  219   7 
 OCA  HN I         546 56.41        11.0 0.26             56            219   7 
                                                                                
