 2017  418 0101  9.5 L   6.768 -73.115140.8  RSN 11 0.6 1.9LRSN                1
 GAP=116        1.38       4.4     4.9  7.2  0.2291E+01  0.2679E+01  0.7270E+01E
 Epicentro: LOS SANTOS - SANTANDER                                             3
 ACTION:UPD 17-05-30 21:13 OP:jn   STATUS:               ID:20170418010109 L   I
 OLDACT:UP  17-04-18 13:41 OP:cog  STATUS:               ID:20170418005647     3
 OLDACT:REG 17-04-18 12:26 OP:cog  STATUS:               ID:20170418005647     3
 2017-04-18-0058-00M.COL___367                                                 6
 STAT SP IPHASW D HRMM SECON CODA AMPLIT PERI AZIMU VELO AIN AR TRES W  DIS CAZ7
 BAR2 EZ EP        1 1 28.39                             171   -0.1010 20.8 201 
 BAR2 EZ ES        1 1 43.02                             171   -0.2710 20.8 201 
 BAR2 EZ I         1 1 44.19        30.0 0.18            169           20.8 201 
 BRR  HZ EP        1 1 30.24                             150   -0.1510 75.8 300 
 BRR  HN ES        1 1 46.99                             150    0.3110 75.8 300 
 BRR  HZ I         1 1 51.05        14.7 0.36            150           75.8 300 
 PAM  EZ EP        1 1 31.14                             150   -0.0910 78.1  36 
 PAM  EN ES        1 1 48.11                             150   -0.0710 78.1  36 
 PAM  EZ I         1 1 50.32        25.9 0.58            153           78.1  36 
 RUS  HZ EP        1 1 32.16                             144   -0.3410 96.9 178 
 RUS  HN ES        1 1 50.55                             144    0.1110 96.9 178 
 RUS  HZ I         1 1 51.84        12.1 0.26            144           96.9 178 
 PTB  HZ EP   9    1 1 34.92                             130   -1.40 0  150 260 
 PTB  HN ES        1 1 55.88                             131    0.05 9  150 260 
 PTB  HZ I         1 1 58.36        10.7 0.28            130            150 260 
 SPBC HE ES        1 1 59.16                             128   -0.31 9  163 221 
 YPLC HZ EP        1 1 38.59                             126    0.11 9  172 152 
 YPLC HN ES        1 2  1.66                             126    0.58 9  172 152 
 ZAR  HN EP        1 1 43.82                             121    1.73 8  208 293 
 ZAR  HE ES        1 2  7.10                             121   -0.41 8  208 293 
 NOR  HZ EP        1 1 44.59                             117   -0.44 8  235 236 
 NOR  HN ES        1 2 12.11                             117   -0.63 8  235 236 
 NOR  HZ I         1 2 20.13         4.8 0.16            118            235 236 
 CHI  HZ EP        1 1 46.58                             116   -0.08 8  246 196 
 CHI  HE ES        1 2 16.78                             116    1.14 8  246 196 
 CHI  HZ I         1 2 19.94         2.4 0.24            117            246 196 
 PTGC HZ EP        1 1 51.44                             111   -1.19 7  304 159 
 PTGC HN ES   4    1 2 23.80                             111   -2.47 0  304 159 
 PTGC HZ I         1 2 29.24         8.9 0.28            112            304 159 
                                                                                
