 2011 1018 0549 38.7 L   6.779 -73.142140.3  RSN  4 0.2 1.2LRSN                1
 GAP=138        0.37       3.8     4.5  5.9  0.8115E+01  0.1165E+02  0.5169E+01E
 Epicentro: LOS SANTOS - SANTANDER                                             3
 ACTION:UPD 12-07-13 16:04 OP:ep   STATUS:               ID:20111018054938 L   I
 2011-10-18-0545-45S.COL___168                                                 6
 STAT SP IPHASW D HRMM SECON CODA AMPLIT PERI AZIMU VELO AIN AR TRES W  DIS CAZ7
 BRR  HZ EP   1    549 59.39                             151    0.01 7 72.7 300 
 BRR  HZ I         549 59.83         4.9 0.10                          72.7 300 
 BRR  HE ES   2    550 15.69                             151    0.21 5 72.7 300 
 PAM  SN ES   2    550 17.31                             149   -0.10 5 78.9  38 
 RUS  HZ EP   1    550  1.96                             143    0.19 7 98.2 176 
 RUS  HZ I         550  2.43         1.9 0.34                          98.2 176 
 RUS  HN ES   2    550 19.46                             143   -0.29 5 98.2 176 
 ZAR  HZ EP   1    550 10.79                             121   -0.17 6  205 293 
 ZAR  HN ES   2    550 36.08                             121   -0.01 4  205 293 
 ZAR  HZ I         550 42.90         1.8 0.58                           205 293 
                                                                                
