 2017  918 0805 37.6 L   6.806 -73.147140.1  RSN  4 0.5 1.4LRSN                1
 GAP=238        1.24      15.6    16.2  9.8  0.2172E+03  0.1388E+02 -0.3237E+01E
 Epicentro: LOS SANTOS - SANTANDER                                             3
 ACTION:UPD 17-10-05 19:13 OP:rebc STATUS:               ID:20170918080537 L   I
 OLDACT:REG 17-09-18 14:14 OP:leo  STATUS:               ID:20170918075736     3
 2017-09-18-0758-00M.COL___423                                                 6
 STAT SP IPHASW D HRMM SECON CODA AMPLIT PERI AZIMU VELO AIN AR TRES W  DIS CAZ7
 BAR2 EZ EP        8 5 56.02                             170   -0.5010 23.9 189 
 BAR2 EZ ES        8 6 11.16                             170   -0.1510 23.9 189 
 BAR2 EZ I         8 6 12.91         5.4 0.40            166           23.9 189 
 BRR  HZ EP     C  8 5 57.67                             152   -0.4010 70.8 298 
 BRR  HN ES        8 6 14.74                             152    0.6710 70.8 298 
 BRR  HZ I         8 6 18.02         4.0 0.16            148           70.8 298 
 RUS  HZ EP        8 6  1.62                             142    0.8110  101 176 
 RUS  HN ES   1    8 6 18.46                             142   -0.48 7  101 176 
 RUS  HZ I         8 6 19.72         5.5 0.32            143            101 176 
 ZAR  HZ EP        8 6  9.74                             121    0.14 9  204 292 
 ZAR  HE ES        8 6 34.24                             121   -0.35 9  204 292 
 ZAR  HZ I         8 6 39.61         3.3 0.18            121            204 292 
                                                                                
