 2010 1218 0512 28.5 L   6.844 -73.008139.3  RSN  6 0.3 1.6LRSN                1
 GAP=173        0.60       4.2     8.4  7.5  0.9209E+01 -0.3272E+02 -0.1135E+02E
 Epicentro: CEPITA - SANTANDER                                                 3
 ACTION:UP  11-01-14 15:25 OP:pat  STATUS:               ID:20101218051228 L   I
 2010-12-18-0508-52S.COL___136                                                 6
 STAT SP IPHASW D HRMM SECON CODA AMPLIT PERI AZIMU VELO SNR AR TRES W  DIS CAZ7
 BTL  SZ IP        512 47.83                             168     0.410   30 286 
 BTL  SZ ES   3    513  2.73                             168     0.4 2   30 286 
 BAR2 SZ EP        512 47.74                             166     0.210   34 215 
 BAR2 SZ ES   1    513  2.46                             166     0.0 7   34 215 
 BAR2 SZ I         513  3.66         7.8 0.24                            34 215 
 BRR  HZ IP     D  512 49.48                             147    -0.210   83 291 
 BRR  HZ I         512 49.86        11.7 0.09                            83 291 
 BRR  HN ES   1    513  6.18                             147     0.0 7   83 291 
 RUS  HZ EP   1    512 51.83                             141    -0.1 7  106 185 
 RUS  HN ES   2    513  9.69                             141    -0.6 5  106 185 
 RUS  HZ I         513 11.79         2.7 0.22                           106 185 
 GRA  SZ EP        512 52.43                             138     0.010  117  11 
 GRA  SZ I         513 17.00        10.2 0.26                           117  11 
 OCA  SZ EP   3    512 55.66                             128    -0.4 2  158 347 
 OCA  SZ ES   2    513 17.05                             128    -0.5 5  158 347 
                                                                                
