 2016  918 0657 32.0 L   6.845 -73.149144.3  RSN 20 0.4 2.4LRSN                1
 GAP= 69        0.98       2.8     2.8  4.8 -0.1868E+01  0.3482E+01  0.2409E-01E
 Epicentro: LOS SANTOS - SANTANDER                                             3
 ACTION:UPD 17-08-17 21:13 OP:lp   STATUS:               ID:20160918065732 L   I
 OLDACT:UP  16-09-18 14:48 OP:dnl  STATUS:               ID:20160918064747d    3
 OLDACT:UP  16-09-18 14:47 OP:dnl  STATUS:               ID:20160918064747d    3
 OLDACT:DUP 16-09-18 14:31 OP:dnl  STATUS:               ID:20160918064747d    3
 OLDACT:REG 16-09-18 13:12 OP:y    STATUS:               ID:20160918064746     3
 2016-09-18-0648-00M.COL___354                                                 6
 STAT SP IPHASW D HRMM SECON CODA AMPLIT PERI AZIMU VELO AIN AR TRES W  DIS CAZ7
 BAR2 EZ EP        657 51.64                             169    0.0810 28.1 188 
 BAR2 EZ ES        658  6.14                             169   -0.6810 28.1 188 
 BAR2 EZ I         658  7.25        35.4 0.30            170           28.1 188 
 BRR  HZ EP        657 53.32                             153    0.4710 68.7 295 
 BRR  HN ES        658 10.08                             153    0.9710 68.7 295 
 BRR  HZ I         658 13.96        47.0 0.10            149           68.7 295 
 PAM  EZ EP     C  657 54.51                             152    0.6610 73.9  42 
 PAM  EN ES        658 10.99                             152    0.0910 73.9  42 
 PAM  EZ I         658 13.32        74.8 0.36            152           73.9  42 
 RUS  HZ EP        657 55.86                             142   -0.1110  106 176 
 RUS  HE ES        658 14.42                             142   -0.2510  106 176 
 RUS  HZ I         658 15.84        21.9 0.26            145            106 176 
 PTB  HZ EP        657 58.42                             132   -0.49 9  148 257 
 PTB  HN ES        658 19.61                             132   -0.29 9  148 257 
 PTB  HZ I         658 25.16       111.0 0.94            130            148 257 
 OCA  HZ EP        657 59.56                             130   -0.17 9  155 353 
 OCA  HN ES        658 21.03                             130   -0.34 9  155 353 
 OCA  HZ I         658 26.33        73.1 0.28            129            155 353 
 TAM  HZ IP     C  658  0.01                             130    0.29 9  157 107 
 TAM  HE ES        658 21.30                             130   -0.04 9  157 107 
 TAM  HZ I         658 22.26        15.1 0.62            133            157 107 
 SPBC HZ EP        658  0.54                             128   -0.19 9  167 218 
 SPBC HN ES        658 22.76                             128   -0.39 9  167 218 
 SPBC HZ I         658 27.74        45.9 0.10            128            167 218 
 ZAR  HZ EP        658  4.22                             122    0.09 9  202 291 
 ZAR  HE ES   4    658 30.53                             122    1.34 0  202 291 
 ZAR  HZ I         658 34.97        46.2 0.40            121            202 291 
 NOR  HZ EP        658  7.90                             118   -0.02 8  237 233 
 NOR  HE ES        658 36.54                             118    0.59 8  237 233 
 NOR  HZ I         658 37.78        29.8 0.20            118            237 233 
 CHI  HZ EP   2    658 10.07                             116   -0.05 4  253 195 
 CHI  HN ES        658 40.08                             116    0.22 8  253 195 
 CHI  HZ I         658 45.85         9.7 0.58            117            253 195 
 ROSC BZ EP   4    658 11.90                             116    1.42 0  257 210 
 ROSC BN ES   4    658 42.28                             116    1.78 0  257 210 
 ROSC BZ I         658 47.38        22.4 0.45            116            257 210 
 HEL  HZ EP   2    658 12.07                             114   -0.17 4  273 255 
 HEL  HE ES        658 43.41                             114   -0.21 8  273 255 
 HEL  HZ I         658 50.09        20.0 0.32            114            273 255 
 URE  HZ EP   4    658 11.44                             113   -1.32 0  282 291 
 URE  HN ES   4    658 42.23                             113   -2.32 0  282 291 
 URE  HZ I         658 57.25        15.8 0.16            113            282 291 
 GUY2CHZ EP   4    658 18.12                             112    2.29 0  304 234 
 GUY2CHN ES        658 49.81                             112   -0.21 7  304 234 
 GUY2CHZ I         658 55.95        12.4 0.58                           304 234 
 PTGC HZ EP   4    658 15.12                             111   -1.21 0  313 159 
 PTGC HN ES   4    658 48.20                             111   -2.70 0  313 159 
 PTGC HZ I         658 50.86        17.7 0.22            112            313 159 
 LL6C HZ EP        658 16.28                             110   -0.79 7  320 358 
 LL6C HN ES   4    658 54.93                             110    2.70 0  320 358 
 LL6C HZ I         659  4.62         7.6 0.60            110            320 358 
 CBOC HZ EP        658 19.46                             110    0.47 7  335 251 
 CBOC HE ES        658 55.84                             110    0.19 7  335 251 
 CBOC HZ I         658 59.33         5.5 0.38            109            335 251 
 ARGC HZ EP   4    658 22.16                             108    1.11 0  354 340 
 ARGC HN ES   4    659  0.43                             108    1.13 0  354 340 
 ARGC HZ I         659  5.68         5.0 0.18            108            354 340 
 SJC  HZ EP   2    658 26.15                             106   -0.85 3  405 327 
 SJC  HN ES   4    659  6.96                             106   -2.95 0  405 327 
 SJC  HZ I         659 10.49         8.8 0.48            105            405 327 
                                                                                
