 2013  818 0324 50.5 L   7.410 -73.196132.4  RSN  8 0.4 1.7LRSN                1
 GAP=113        1.06       3.5     4.6  7.3  0.1581E+00 -0.1313E+01 -0.2931E+01E
 Epicentro: EL PLAYON - SANTANDER                                              3
 ACTION:UPD 14-01-14 09:04 OP:ep   STATUS:               ID:20130818032450 L   I
 OLDACT:UP  13-08-19 05:25 OP:CF   STATUS:               ID:20130818032450 L   3
 OLDACT:DUP 13-08-18 12:37 OP:stll STATUS:               ID:20130818031845d    3
 2013-08-18-0318-44M.COL___198                                                 6
 STAT SP IPHASW D HRMM SECON CODA AMPLIT PERI AZIMU VELO AIN AR TRES W  DIS CAZ7
 BRR  HZ EP        325 10.24                             152    0.3410 66.0 240 
 BRR  HN ES        325 25.27                             152    0.2310 66.0 240 
 BRR  HZ I         325 26.06        15.0 0.10            151           66.0 240 
 BAR2 SZ EP        325 12.09                             144    0.2610 90.4 179 
 BAR2 SZ ES        325 28.42                             144   -0.0510 90.4 179 
 BAR2 SZ I         325 29.67        24.0 0.14            145           90.4 179 
 OCA  HZ EP        325 11.56                             143   -0.3210 92.7 352 
 OCA  HN ES        325 28.36                             143   -0.2110 92.7 352 
 OCA  HZ I         325 30.65         7.2 0.42            144           92.7 352 
 CAPV BZ EP        325 13.97                             138    0.6810  110  63 
 RUS  HZ EP        325 18.99                             125   -0.03 9  168 176 
 RUS  HN ES        325 40.57                             125   -0.71 9  168 176 
 RUS  HZ I         325 42.32         1.7 0.34            126            168 176 
 PTB  HZ EP        325 18.75                             125    0.25 9  169 235 
 PTB  HZ I         325 19.55         4.2 0.14            125            169 235 
 PTB  HE ES        325 40.06                             125   -0.29 9  169 235 
 SML  HZ EP        325 18.82                             122   -0.91 9  182 328 
 SML  HN ES   4    325 40.65                             122   -1.89 0  182 328 
 SML  HZ I         325 42.40        10.9 0.10            123            182 328 
 ZAR  HZ EP        325 20.17                             122    0.21 9  184 273 
 ZAR  HN ES        325 43.28                             122    0.33 9  184 273 
 ZAR  HZ I         325 48.08         6.5 0.34            123            184 273 
                                                                                
