 2011 1018 0157 30.0 L   6.839 -73.087143.7  RSN  8 0.3 1.8LRSN                1
 GAP=142        0.42       2.6     3.4  5.2 -0.1055E+01  0.5586E+01  0.1887E+01E
 Epicentro: LOS SANTOS - SANTANDER                                             3
 ACTION:UPD 12-07-13 16:04 OP:ep   STATUS:               ID:20111018015730 L   I
 2011-10-18-0153-36S.COL___168                                                 6
 STAT SP IPHASW D HRMM SECON CODA AMPLIT PERI AZIMU VELO AIN AR TRES W  DIS CAZ7
 PAM  SZ EP   2    157 52.12                             153    0.54 5 70.0  38 
 PAM  SN ES   2    158  8.53                             153    0.13 5 70.0  38 
 BRR  HZ EP   1    157 51.16                             151   -0.01 7 75.2 293 
 BRR  HN ES   2    158  8.08                             151    0.41 5 75.2 293 
 BRR  HZ I         158 12.44        25.3 0.14                          75.2 293 
 RUS  HZ EP   1    157 53.73                             142   -0.12 7  105 180 
 RUS  HN ES   2    158 12.07                             142   -0.38 5  105 180 
 RUS  HZ I         158 13.25         3.5 0.40                           105 180 
 OCA  SZ EP   1    157 57.93                             130    0.08 7  157 351 
 OCA  SZ ES   2    158 18.97                             130   -0.59 5  157 351 
 OCA  SZ I         158 23.18         7.7 0.35                           157 351 
 ZAR  HZ EP   2    158  2.58                             121   -0.21 4  209 290 
 ZAR  HN ES   2    158 27.99                             121   -0.37 4  209 290 
 ZAR  HZ I         158 33.15        11.0 0.45                           209 290 
 NOR  SN ES   2    158 35.17                             117    0.28 4  242 235 
 HEL  HZ EP   1    158 11.01                             114    0.08 6  279 255 
 HEL  HN ES   2    158 42.98                             114    0.12 4  279 255 
 HEL  HZ I         158 48.59         3.5 0.34                           279 255 
 PRA  HZ EP   2    158 24.19                             106   -0.08 3  399 210 
 PRA  HE ES   2    159  6.64                             106    0.05 3  399 210 
                                                                                
