 2012 1218 0024 38.4 L   7.370 -73.125 11.1  RSN  9 0.4 1.8LRSN                1
 GAP=107        0.97       2.1     2.3  4.4  0.9786E-02  0.3638E+01  0.2358E+00E
 Epicentro: RIONEGRO - SANTANDER                                               3
 ACTION:UPD 13-01-04 14:28 OP:ep   STATUS:               ID:20121218002438 L   I
 2012-12-18-0020-00M.COL___242                                                 6
 STAT SP IPHASW D HRMM SECON CODA AMPLIT PERI AZIMU VELO AIN AR TRES W  DIS CAZ7
 GIR2 SZ IP        024 44.02                             103   -0.2510 33.1 193 
 PAM  SZ EP        024 46.98                             100    0.2710 47.1  94 
 PAM  SN ES        024 53.35                             100    0.1410 47.1  94 
 PAM  SZ I         024 54.22        50.7 0.21                          47.1  94 
 BRR  HZ EP        024 50.14                              96    0.3510 71.0 246 
 BRR  HN ES        024 59.03                              96    0.3410 71.0 246 
 BAR2 SZ EP        024 52.21                              95   -0.1310 86.3 184 
 BAR2 SZ ES   1    025  2.44                              95   -0.79 7 86.3 184 
 BAR2 SZ I         025  3.28        23.5 0.18                          86.3 184 
 OCA  HZ EP   1    024 53.77                              94   -0.31 7 98.4 347 
 OCA  HN ES        025  5.84                              94   -0.4910 98.4 347 
 OCA  HZ I         025  9.34        15.5 0.36                          98.4 347 
 RUS  HZ EP        025  4.65                              56    0.59 9  163 178 
 RUS  HN ES   1    025 23.76                              56   -0.32 7  163 178 
 RUS  HN I         025 29.38        13.7 0.51                           163 178 
 PTB  HZ EP   1    025  5.51                              56    0.78 7  173 238 
 PTB  HN ES   1    025 24.56                              56   -0.72 7  173 238 
 PTB  HZ I         025 25.90        13.1 0.25                           173 238 
 SML  HN ES   1    025 28.88                              56    0.07 7  189 327 
 SML  HZ I         025 32.45        31.7 0.12                           189 327 
 ZAR  HZ EP   1    025  6.60                              56   -0.41 7  192 274 
 ZAR  HN ES   1    025 29.70                              56    0.36 7  192 274 
 ZAR  HZ I         025 31.46         9.8 0.34                           192 274 
                                                                                
