 2015  218 0630  7.4 L   6.800 -73.174142.6  RSN  9 0.4 1.7LRSN                1
 GAP=141        1.03       3.8     4.8  6.2 -0.4722E+01  0.4973E+01  0.3879E+01E
 Epicentro: LOS SANTOS - SANTANDER                                             3
 ACTION:UPD 15-04-30 21:27 OP:nd   STATUS:               ID:20150218063007 L   I
 OLDACT:UP  15-02-18 19:23 OP:mh   STATUS:               ID:20150218062747d    3
 OLDACT:DUP 15-02-18 19:18 OP:mh   STATUS:               ID:20150218062747d    3
 OLDACT:REG 15-02-18 12:42 OP:mh   STATUS:               ID:20150218062746     3
 2015-02-18-0627-46M.COL___299                                                 6
 STAT SP IPHASW D HRMM SECON CODA AMPLIT PERI AZIMU VELO AIN AR TRES W  DIS CAZ7
 BAR2 EZ EP   1    630 26.68                             170    0.05 7 23.0 182 
 BAR2 EZ ES        630 41.39                             170   -0.2510 23.0 182 
 BAR2 EZ I         630 42.39        10.1 0.30            170           23.0 182 
 BRR  HZ EP        630 28.57                             153    0.5310 68.4 300 
 BRR  HN ES        630 44.97                             153    0.8310 68.4 300 
 BRR  HZ I         630 49.82         8.3 0.07            152           68.4 300 
 PAM  SZ EP        630 29.57                             150    0.1810 79.4  41 
 PAM  SN ES        630 46.39                             150   -0.1610 79.4  41 
 PAM  SZ I         630 48.69        15.2 0.58            154           79.4  41 
 PTB  HZ EP        630 33.58                             132   -0.24 9  145 259 
 PTB  HN ES        630 53.71                             132   -0.72 9  145 259 
 PTB  HZ I         630 57.12         7.5 0.16            132            145 259 
 OCA  HZ EP   1    630 34.87                             129   -0.55 7  160 354 
 OCA  HN ES   1    630 56.64                             129   -0.64 7  160 354 
 OCA  HZ I         630 59.98         9.6 0.38            131            160 354 
 SPBC HZ EP   1    630 35.96                             129    0.50 7  161 218 
 SPBC HN ES        630 57.34                             129   -0.02 9  161 218 
 SPBC HZ I         631  4.21         5.3 0.10            130            161 218 
 ZAR  HZ EP        630 39.66                             122    0.34 9  201 292 
 ZAR  HN ES   1    631  3.97                             122   -0.26 6  201 292 
 ZAR  HZ I         631  9.11         9.4 0.18            123            201 292 
 CHI  HZ EP        630 44.28                             117   -0.55 8  248 194 
 CHI  HN ES        631 14.21                             117    0.18 8  248 194 
 CHI  HZ I         631 17.98         1.2 0.38            119            248 194 
 GUY2CHZ EP   1    630 51.01                             112    0.45 5  299 234 
 GUY2CHN ES   4    631 25.33                             112    1.09 0  299 234 
                                                                                
