 2010  818 0921  7.2 L   6.529 -73.711104.0  RSN  6 0.4 1.4LRSN                1
 GAP=132        1.08       8.0     9.9 18.9 -0.5286E+02  0.1363E+03 -0.9420E+02E
 Epicentro: SANTA HELENA DEL OPON - SANTANDER                                  3
 ACTION:UP  10-09-07 10:56 OP:vdl  STATUS:               ID:20100818092107 L   I
 2010-08-18-0919-18S.COL___111                                                 6
 STAT SP IPHASW D HRMM SECON CODA AMPLIT PERI AZIMU VELO SNR AR TRES W  DIS CAZ7
 BAR2 SZ ES   1    921 36.21                             148     0.0 7   59  83 
 BAR2 SZ I         921 38.09        15.6 0.10                            59  83 
 BTL  SZ EP        921 24.25                             145     0.310   65  49 
 RUS  HN ES   1    921 42.31                             133    -0.1 7   99 135 
 RUS  HZ I         921 43.56         2.7 0.19                            99 135 
 GUE  SZ EP        921 33.92                             117     0.3 9  168  31 
 GUE  SZ ES   1    921 53.46                             117    -0.9 7  168  31 
 GUE  SZ I         921 55.96         3.0 0.19                           168  31 
 HEL  HE ES   2    922  2.17                             111     0.5 4  205 260 
 HEL  HZ I         922  6.35         2.7 0.96                           205 260 
 RREF HN ES   1    922 12.14                             106    -0.6 6  255 225 
 RREF HZ I         922 19.55         1.8 0.21                           255 225 
                                                                                
