 2014  918 0104  7.1 L   6.800 -73.162146.3  RSN  6 0.5 1.7LRSN                1
 GAP=135        1.19       4.9     6.0  7.9  0.9018E+00  0.8175E+01 -0.7997E+01E
 Epicentro: LOS SANTOS - SANTANDER                                             3
 ACTION:UPD 14-10-03 23:06 OP:nd   STATUS:               ID:20140918010407 L   I
 OLDACT:REG 14-09-18 13:09 OP:carl STATUS:               ID:20140918005815     3
 2014-09-18-0058-15M.COL___284                                                 6
 STAT SP IPHASW D HRMM SECON CODA AMPLIT PERI AZIMU VELO AIN AR TRES W  DIS CAZ7
 BAR2 SZ EP        1 4 26.52                             171   -0.3110 23.0 186 
 BAR2 SZ ES        1 4 42.23                             171    0.0410 23.0 186 
 BAR2 SZ I         1 4 42.82        14.5 0.20            172           23.0 186 
 BRR  HZ EP        1 4 28.72                             153    0.4610 69.7 299 
 BRR  HN ES        1 4 45.58                             153    0.8410 69.7 299 
 BRR  HZ I         1 4 50.47         8.1 0.44            152           69.7 299 
 PAM  SZ EP        1 4 29.73                             150    0.2510 78.6  41 
 PAM  SN ES        1 4 46.61                             150   -0.3010 78.6  41 
 PAM  SZ I         1 4 48.97         9.6 0.62            153           78.6  41 
 RUS  HZ EP        1 4 31.18                             144    0.2310  101 175 
 RUS  HN ES        1 4 49.08                             144   -0.4410  101 175 
 RUS  HZ I         1 4 50.47         4.4 0.28            148            101 175 
 PTB  HZ EP        1 4 34.41                             132    0.42 9  146 259 
 PTB  HN ES        1 4 54.23                             132   -0.71 9  146 259 
 PTB  HZ I         1 4 57.76         5.3 0.28            134            146 259 
 SML  HZ EP        1 4 43.60                             118   -0.11 8  243 336 
 SML  HE ES        1 5 11.52                             118   -0.73 8  243 336 
 SML  HZ I         1 5 15.17         7.1 0.10            119            243 336 
 MON  HZ EP   4    1 4 54.45                             109   -1.55 0  352 309 
 MON  HN ES   4    1 5 32.23                             109   -1.88 0  352 309 
                                                                                
