 2013  618 0725 53.0 L   6.824 -73.076148.0  RSN 11 0.5 1.8LRSN                1
 GAP=190        0.88       3.2     7.4  7.0 -0.2361E+01  0.1809E+02  0.2564E+01E
 Epicentro: LOS SANTOS - SANTANDER                                             3
 ACTION:UPD 14-01-08 09:55 OP:ep   STATUS:               ID:20130618072553 L   I
 OLDACT:REG 13-06-18 08:09 OP:carl STATUS:               ID:20130618071959     3
 2013-06-18-0719-59M.COL___261                                                 6
 STAT SP IPHASW D HRMM SECON CODA AMPLIT PERI AZIMU VELO AIN AR TRES W  DIS CAZ7
 BAR2 SZ EP   1    726 13.19                             169    0.19 8 28.1 205 
 BAR2 SZ ES   1    726 29.01                             169    0.40 8 28.1 205 
 BAR2 SZ I         726 29.39        25.9 0.16            170           28.1 205 
 GIR2 SZ EP   1    726 13.10                             167    0.17 8 31.1 335 
 GIR2 SZ I         726 29.13         7.0 0.10            166           31.1 335 
 BRR  HZ EP   1    726 15.14                             151    0.42 8 76.9 294 
 BRR  HN ES   1    726 32.12                             151    0.46 8 76.9 294 
 BRR  HZ I         726 35.92        10.9 0.14            150           76.9 294 
 RUS  HZ EP   1    726 16.99                             143   -0.15 8  103 180 
 RUS  HE ES   1    726 35.10                             143   -0.87 8  103 180 
 RUS  HZ I         726 36.82         3.4 0.52            142            103 180 
 PTB  HZ EP   4    726 19.64                             131   -1.24 0  156 258 
 PTB  HN ES   4    726 40.96                             131   -1.67 0  156 258 
 PTB  HZ I         726 44.77         6.1 0.24            129            156 258 
 OCA  HE ES        726 42.99                             130   -0.4710  159 350 
 OCA  HZ I         726 46.70         9.3 0.12            127            159 350 
 NOR  HZ EP   1    726 29.68                             118   -0.01 7  242 235 
 NOR  HE ES   1    726 57.28                             118   -1.03 7  242 235 
 NOR  HZ I         727  2.91         6.2 0.50            116            242 235 
 SML  HZ EP   1    726 29.70                             118   -0.15 6  245 333 
 SML  HN ES   1    726 58.58                             118   -0.02 6  245 333 
 SML  HZ I         727  4.79         7.5 0.10            115            245 333 
 CHI  HN ES   1    727  1.92                             117    0.71 6  253 197 
 CHI  HZ I         727  8.37         3.0 0.24            115            253 197 
 GUY2CHZ EP        726 38.20                             112    0.62 8  309 235 
 GUY2CHE ES   1    727 12.39                             112    0.02 6  309 235 
 GUY2CHZ I         727 19.66         5.2 0.36                           309 235 
 PRA  HZ EP   1    726 47.14                             106   -0.16 5  398 210 
 PRA  HN ES   1    727 29.33                             106   -0.33 5  398 210 
 PRA  HZ I         727 36.23         3.9 0.28            105            398 210 
                                                                                
