 2015 1218 0529 33.1 L   6.887 -72.977146.9  RSN  4 0.3 1.5LRSN                1
 GAP=244        0.73       3.9     7.3  5.5 -0.9229E+00  0.8114E+01 -0.3391E+01E
 Epicentro: GUACA - SANTANDER                                                  3
 ACTION:UPD 16-02-04 15:05 OP:cam  STATUS:               ID:20151218052933 L   I
 OLDACT:UP  15-12-18 16:08 OP:cara STATUS:               ID:20151218052745     3
 OLDACT:UP  15-12-18 15:57 OP:cara STATUS:               ID:20151218052745     3
 OLDACT:UP  15-12-18 15:36 OP:cara STATUS:               ID:20151218052745     3
 OLDACT:UP  15-12-18 15:35 OP:cara STATUS:               ID:20151218052745     3
 OLDACT:UP  15-12-18 15:34 OP:cara STATUS:               ID:20151218052745     3
 OLDACT:UP  15-12-18 15:33 OP:cara STATUS:               ID:20151218052745     3
 OLDACT:UP  15-12-18 15:31 OP:cara STATUS:               ID:20151218052745     3
 OLDACT:UP  15-12-18 15:30 OP:cara STATUS:               ID:20151218052745     3
 OLDACT:REG 15-12-18 13:33 OP:cara STATUS:               ID:20151218052745     3
 2015-12-18-0527-45M.COL___340                                                 6
 STAT SP IPHASW D HRMM SECON CODA AMPLIT PERI AZIMU VELO AIN AR TRES W  DIS CAZ7
 BAR2 EZ EP        529 53.44                             164    0.1310 39.7 215 
 BAR2 EZ ES        530  8.69                             164   -0.3710 39.7 215 
 BAR2 EZ I         530  9.53         4.6 0.24            164           39.7 215 
 BRR  HZ EP        529 55.70                             148    0.5110 84.8 287 
 BRR  HE ES        530 12.55                             148    0.1410 84.8 287 
 BRR  HZ I         530 15.61         3.3 0.25            146           84.8 287 
 SML  HZ EP        530  9.64                             118   -0.15 8  244 330 
 SML  HN ES        530 38.15                             118   -0.24 8  244 330 
 SML  HZ I         530 42.19         4.3 0.10            118            244 330 
 GUY2CHZ EP        530 18.71                             111   -0.41 7  322 235 
 GUY2CHE ES        530 55.07                             111    0.06 7  322 235 
 GUY2CHZ I         531  0.37         1.8 0.72                           322 235 
                                                                                
