 2011  318 0831 41.0 L   6.810 -73.318142.3  RSN  6 0.3 1.1LRSN                1
 GAP=194        0.59       5.5    20.4  9.4 -0.8306E+02  0.8918E+02 -0.1231E+02E
 Epicentro: ZAPATOCA - SANTANDER                                               3
 ACTION:UP  11-06-16 14:34 OP:jfem STATUS:               ID:20110318083141 L   I
 2011-03-18-0829-24S.COL___135                                                 6
 STAT SP IPHASW D HRMM SECON CODA AMPLIT PERI AZIMU VELO SNR AR TRES W  DIS CAZ7
 BTL  SZ EP        831 59.71                             174    -0.310   13  25 
 BTL  SZ ES   3    832 14.61                             174    -0.3 2   13  25 
 BAR2 SZ EP   1    832  0.58                             168     0.3 7   28 148 
 BAR2 SZ I         832  0.73         3.2 0.19                            28 148 
 BAR2 SZ ES   2    832 15.53                             168     0.1 5   28 148 
 GIR2 SZ ES   3    832 15.88                             166     0.5 2   33  25 
 RUS  HZ EP   2    832  4.60                             142    -0.1 5  105 166 
 RUS  HN ES   2    832 22.79                             142    -0.4 5  105 166 
 RUS  HZ I         832 24.17         1.9 0.32                           105 166 
 GRA  SZ EP   2    832  6.52                             135     0.1 5  132  26 
 GRA  SZ ES   1    832 26.49                             135     0.2 7  132  26 
 GRA  SZ I         832 27.06         3.2 0.36                           132  26 
 CHI  HZ EP   2    832 18.27                             117     0.1 4  245 191 
 CHI  HZ I         832 19.64         0.7 0.15                           245 191 
 CHI  HE ES   2    832 47.91                             117     0.8 4  245 191 
                                                                                
