 2016 1118 0715 25.9 L   6.766 -73.122140.7  RSN  7 0.4 1.5LRSN                1
 GAP=123        0.91       6.2     4.0  6.0 -0.4338E+00  0.3873E+01  0.8444E+01E
 Epicentro: LOS SANTOS - SANTANDER                                             3
 ACTION:UPD 17-10-26 21:09 OP:lp   STATUS:               ID:20161118071525 L   I
 OLDACT:UP  16-11-18 17:49 OP:and  STATUS:               ID:20161118070643     3
 OLDACT:REG 16-11-18 12:51 OP:and  STATUS:               ID:20161118070643     3
 2016-11-18-0707-00M.COL___343                                                 6
 STAT SP IPHASW D HRMM SECON CODA AMPLIT PERI AZIMU VELO AIN AR TRES W  DIS CAZ7
 BAR2 EZ ES        715 59.78                             171    0.1110 20.3 199 
 BRR  HZ IP     C  715 46.67                             150   -0.1010 75.3 300 
 BRR  HN ES        716  3.57                             150    0.5410 75.3 300 
 BRR  HZ I         716  7.32         4.3 0.15            150           75.3 300 
 PAM  EZ EP        715 47.67                             149   -0.0110 78.8  36 
 PAM  EN ES        716  4.31                             149   -0.3410 78.8  36 
 PAM  EZ I         716  6.62         6.5 0.50            153           78.8  36 
 PTB  HZ EP        715 52.03                             130   -0.62 9  150 260 
 PTB  HN ES        716 13.19                             130   -0.31 9  150 260 
 PTB  HZ I         716 16.50         2.7 0.26            132            150 260 
 ZAR  HZ EP        715 58.92                             121    0.48 8  208 293 
 ZAR  HN ES        716 23.83                             121    0.02 8  208 293 
 ZAR  HZ I         716 27.57         5.0 0.34            122            208 293 
 PTGC HZ EP        716  9.52                             111    0.48 7  304 159 
 SJC  HZ EP   4    716 19.02                             105   -2.84 0  414 327 
 SJC  HN ES   4    717  1.22                             105   -4.28 0  414 327 
 SJC  HZ I         717  3.24         1.2 0.54            106            414 327 
                                                                                
