 2010  918 0848 17.4 L   6.777 -73.148141.6  RSN  8 0.4 2.0LRSN                1
 GAP=159        0.91       4.1     7.1  8.4 -0.8647E+01 -0.4587E+01 -0.3739E+00E
 Epicentro: LOS SANTOS - SANTANDER                                             3
 ACTION:UP  11-02-18 11:03 OP:tino STATUS:               ID:20100918084817 L   I
 2010-09-18-0846-43S.COL___121                                                 6
 STAT SP IPHASW D HRMM SECON CODA AMPLIT PERI AZIMU VELO SNR AR TRES W  DIS CAZ7
 BTL  SZ EP        848 36.50                             171     0.110   20 320 
 GIR2 SZ EP        848 36.49                             166    -0.110   34 351 
 GIR2 SZ ES   2    848 51.73                             166     0.1 5   34 351 
 BRR  HZ IP     C  848 38.30                             151     0.210   72 300 
 BRR  HZ I         848 38.65        41.6 0.10                            72 300 
 BRR  HN ES   1    848 54.80                             151     0.5 7   72 300 
 RUS  HZ EP        848 40.37                             144    -0.210   98 176 
 RUS  HE ES   1    848 58.57                             144     0.0 7   98 176 
 RUS  HZ I         848 59.64         9.9 0.29                            98 176 
 GUE  SZ EP        848 42.56                             138     0.710  119  12 
 GRA  SZ EP        848 42.26                             135    -0.210  128  17 
 GRA  SZ ES   2    849  1.24                             135    -0.8 5  128  17 
 GRA  SZ I         849  4.14         9.7 0.36                           128  17 
 OCA  SZ EP   1    848 45.90                             128     0.3 7  163 353 
 OCA  SZ ES   1    849  6.80                             128    -0.8 7  163 353 
 OCA  SZ I         849 11.39        10.0 0.14                           163 353 
 NOR  HZ EP   1    848 52.44                             118    -0.3 6  233 235 
 NOR  HE ES   1    849 19.95                             118    -0.3 6  233 235 
                                                                                
