 2011  718 0032 29.5 L   6.769 -73.094141.9  RSN 11 0.4 1.9LRSN                1
 GAP=145        0.69       3.1     5.7  5.9 -0.2598E+01  0.3704E+01  0.3142E+01E
 Epicentro: LOS SANTOS - SANTANDER                                             3
 ACTION:UPD 12-07-25 14:01 OP:epov STATUS:               ID:20110718003229 L   I
 2011-07-18-0030-55S.COL___143                                                 6
 STAT SP IPHASW D HRMM SECON CODA AMPLIT PERI AZIMU VELO AIN AR TRES W  DIS CAZ7
 BAR2 SZ EP   2    032 48.26                             171   -0.33 5 21.9 207 
 BAR2 SZ ES   1    033  3.36                             171   -0.16 7 21.9 207 
 BAR2 SZ I         033  4.75        28.8 0.44                          21.9 207 
 BTL  SZ EP        032 48.69                             169    0.0210 25.3 311 
 PAM  SN ES   2    033  7.79                             150   -0.40 5 76.6  35 
 BRR  HZ EP   1    032 50.31                             150   -0.27 7 77.9 299 
 BRR  HE ES   1    033  6.96                             150   -0.10 7 77.9 299 
 BRR  HZ I         033 11.37        26.1 0.14                          77.9 299 
 RUS  HZ EP        032 52.61                             144    0.0510 97.0 179 
 RUS  HE ES   2    033 10.76                             144    0.17 5 97.0 179 
 RUS  HZ I         033 12.18         4.9 0.25                          97.0 179 
 BRI  SZ EP   2    032 53.59                             140    0.51 5  110  17 
 OCA  SZ EP   1    032 57.24                             128   -0.62 7  164 351 
 OCA  SZ ES   1    033 20.86                             128    0.84 7  164 351 
 OCA  SZ I         033 23.45        17.5 0.24                           164 351 
 NOR  SE ES   2    033 32.39                             117   -0.80 4  237 236 
 CHI  HZ EP   2    033  6.61                             116   -0.15 4  247 197 
 CHI  HN ES   1    033 36.57                             116    0.72 6  247 197 
 CHI  HZ I         033 44.08         4.6 0.46                           247 197 
 HEL  HZ EP   2    033 10.40                             113    0.39 4  277 257 
 HEL  HN ES   2    033 42.01                             113    0.38 4  277 257 
 PRA  HZ EP   2    033 22.11                             106   -0.73 3  392 211 
 PRA  HN ES   2    034  4.48                             106    0.01 3  392 211 
                                                                                
