 2017  818 0309 40.3 L   6.752 -73.118138.0  RSN  7 0.3 2.0LRSN                1
 GAP=142        0.78       3.7     4.0  5.8  0.1300E+01  0.4528E+01  0.2049E+01E
 Epicentro: LOS SANTOS - SANTANDER                                             3
 ACTION:UPD 17-09-04 20:21 OP:rebc STATUS:               ID:20170818030940 L   I
 OLDACT:UP  17-08-22 21:28 OP:nlst STATUS:               ID:20170818030940 L   3
 OLDACT:REG 17-08-18 13:20 OP:lv   STATUS:               ID:20170818030736     3
 2017-08-18-0308-00M.COL___407                                                 6
 STAT SP IPHASW D HRMM SECON CODA AMPLIT PERI AZIMU VELO AIN AR TRES W  DIS CAZ7
 BAR2 EZ EP        3 9 58.70                             172   -0.2010 19.1 202 
 BAR2 EZ ES   1    310 13.09                             172   -0.33 7 19.1 202 
 BRR  HZ EP        310  0.59                             149   -0.3310 76.4 301 
 BRR  HZ I         310 15.04        22.2 0.66            142           76.4 301 
 BRR  HE ES        310 17.59                             149    0.5810 76.4 301 
 PAM  EZ EP        310  1.73                             149   -0.1010 79.7  35 
 PAM  EZ I         310  6.91        17.7 0.62            140           79.7  35 
 PAM  EN ES        310 18.77                             149    0.1410 79.7  35 
 RUS  HZ EP        310  3.09                             144    0.2110 95.2 178 
 RUS  HZ I         310  9.56        18.3 0.94            138           95.2 178 
 RUS  HN ES        310 20.40                             144   -0.1110 95.2 178 
 ZAR  HE ES        310 37.64                             120   -0.42 8  209 293 
 NOR  HZ EP        310 15.96                             117    0.44 8  234 236 
 NOR  HN ES   4    310 41.56                             117   -1.44 0  234 236 
 HEL  HE EP   4    310 21.92                             113    1.62 0  274 257 
 GUY2CHZ EP   9    310 25.50                             111    2.01 0  301 236 
 GUY2CHN ES        310 59.13                                   -0.07 7  301 236 
                                                                                
