 2015  418 0754 13.9 L   6.875 -73.367127.0  RSN  8 0.5 1.8LRSN                1
 GAP=145        1.18       4.0     6.1  8.0 -0.1499E+01  0.3156E+01 -0.1248E+01E
 Epicentro: SAN VICENTE DE CHUCURI - SANTANDER                                 3
 ACTION:UPD 15-06-03 16:55 OP:cam  STATUS:               ID:20150418075413 L   I
 OLDACT:DUP 15-04-18 16:32 OP:carl STATUS:               ID:20150418074749d    3
 2015-04-18-0747-48M.COL___266                                                 6
 STAT SP IPHASW D HRMM SECON CODA AMPLIT PERI AZIMU VELO AIN AR TRES W  DIS CAZ7
 BAR2 EZ EP        754 31.90                             163    0.1510 37.3 147 
 BAR2 EZ ES        754 45.45                             163   -0.1810 37.3 147 
 BRR  HZ EP        754 32.28                             159    0.5410 46.0 304 
 BRR  HN ES        754 46.39                             159    0.7710 46.0 304 
 BRR  HZ I         754 47.33        28.2 0.10            151           46.0 304 
 RUS  HZ EP        754 36.60                             136   -0.3310  113 164 
 RUS  HE ES        754 54.64                             136   -0.2210  113 164 
 PTB  HZ IP     C  754 37.17                             132   -0.2510  126 253 
 PTB  HN ES        754 54.98                             132   -0.7510  126 253 
 PTB  HZ I         754 58.85         8.6 0.10            127            126 253 
 OCA  HZ EP        754 40.09                             127    0.14 9  151   2 
 OCA  HN ES        754 59.60                             127   -0.63 9  151   2 
 OCA  HZ I         755  4.89        21.9 0.64            125            151   2 
 SPBC HZ EP        754 40.96                             126    0.58 9  156 210 
 SPBC HN ES        755  1.12                             126    0.13 9  156 210 
 SPBC HZ I         755  4.91         9.6 0.12            123            156 210 
 HEL  HZ EP   4    754 52.84                             113    1.97 0  251 253 
 HEL  HN ES   4    755 21.43                             113    1.77 0  251 253 
 HEL  HZ I         755 29.59         1.7 0.32            110            251 253 
 GUY2CHZ EP   4    754 56.62                             110    1.52 0  287 231 
 GUY2CHN ES   4    755 27.17                             110   -0.02 0  287 231 
 GUY2CHZ I         755 33.03         2.3 0.30                           287 231 
                                                                                
