 2015  518 0834 48.8 L   6.817 -73.107146.0  RSN  5 0.4 1.6LRSN                1
 GAP=187        0.96       4.3     7.1  9.8  0.3254E+01 -0.8312E+01 -0.7388E+01E
 Epicentro: LOS SANTOS - SANTANDER                                             3
 ACTION:UPD 15-09-10 22:05 OP:cam  STATUS:               ID:20150518083448 L   I
 OLDACT:REG 15-05-18 13:14 OP:spq  STATUS:               ID:20150518082746     3
 2015-05-18-0827-46M.COL___286                                                 6
 STAT SP IPHASW D HRMM SECON CODA AMPLIT PERI AZIMU VELO AIN AR TRES W  DIS CAZ7
 BRR  HZ EP        835 10.43                             152    0.2610 74.2 296 
 BRR  HN ES        835 27.31                             152    0.4910 74.2 296 
 BRR  HZ I         835 30.50         4.8 0.10            149           74.2 296 
 RUS  HZ EP   1    835 12.94                             143    0.22 7  102 179 
 RUS  HE ES   1    835 31.05                             143   -0.30 7  102 179 
 RUS  HZ I         835 32.57         2.7 0.22            144            102 179 
 OCA  HZ EP        835 16.71                             130   -0.32 9  159 352 
 OCA  HE ES        835 38.77                             130   -0.27 9  159 352 
 OCA  HZ I         835 41.57         7.2 0.16            132            159 352 
 SPBC HN ES   1    835 39.88                             128   -0.41 7  167 220 
 SPBC HZ I         835 47.14         5.5 0.12            128            167 220 
 ZAR  HZ EP   1    835 22.52                             122    0.89 6  207 291 
 ZAR  HE ES        835 46.66                             122   -0.55 8  207 291 
 ZAR  HZ I         835 51.98         4.7 0.52            122            207 291 
                                                                                
