 2010  918 0613 46.8 L   6.791 -73.090141.4  RSN  7 0.5 1.8LRSN                1
 GAP=191        1.14       9.7    14.3 13.2 -0.5581E+02 -0.6976E+02 -0.2599E+00E
 Epicentro: LOS SANTOS - SANTANDER                                             3
 ACTION:UP  11-02-18 11:03 OP:tino STATUS:               ID:20100918061346 L   I
 2010-09-18-0611-44S.COL___121                                                 6
 STAT SP IPHASW D HRMM SECON CODA AMPLIT PERI AZIMU VELO SNR AR TRES W  DIS CAZ7
 BAR2 SZ ES   2    614 20.41                             169    -0.5 5   24 205 
 BTL  SZ EP        614  6.31                             169     0.410   24 306 
 BAR2 SZ I         614 21.49        14.4 0.31                            24 205 
 BRR  HZ EP   1    614  7.54                             149    -0.3 7   77 297 
 BRR  HN ES   1    614 24.69                             149     0.4 7   77 297 
 BRR  HZ I         614 25.71        12.5 0.17                            77 297 
 GUE  SZ EP        614 10.39                             138    -0.710  116   9 
 GRA  SZ EP        614 11.88                             136     0.310  125  15 
 GRA  SZ ES   1    614 30.79                             136    -0.2 7  125  15 
 GRA  SZ I         614 33.52         7.7 0.36                           125  15 
 OCA  SZ EP        614 15.52                             128     0.6 9  162 351 
 OCA  SZ ES   1    614 36.51                             128    -0.4 7  162 351 
 OCA  SZ I         614 39.56         8.1 0.39                           162 351 
 NOR  HN ES   3    614 49.88                             116    -1.0 2  239 236 
                                                                                
