 2015  318 0740 19.7 L   6.836 -73.155141.8  RSN 25 0.6 3.2LRSN                1
 GAP= 56        1.81       4.1     4.6  7.8 -0.1885E+01  0.9730E+01  0.4739E+01E
 Epicentro: LOS SANTOS - SANTANDER                                             3
       2.0      43.0     138.0  5.0  5.0 14.0  0.1  0.1           RSN FPFIT    F
 ACTION:UPD 15-04-30 16:26 OP:nd   STATUS:               ID:20150318074019 L   I
 OLDACT:REG 15-03-18 13:36 OP:stll STATUS:               ID:20150318073735     3
 2015-03-18-0737-35M.COL___260                                                 6
 STAT SP IPHASW D HRMM SECON CODA AMPLIT PERI AZIMU VELO AIN AR TRES W  DIS CAZ7
 BAR2 EZ IP     C  740 39.19                             168    0.2110 27.1 186 
 BAR2 EZ ES        740 53.68                             168   -0.3010 27.1 186 
 BAR2 EZ I         740 55.55       448.4 0.26            168           27.1 186 
 BRR  HZ IP     C  740 41.04                             153    0.7310 68.5 296 
 BRR  HN ES        740 57.73                             153    1.3910 68.5 296 
 BRR  HZ I         741  1.85       168.8 0.12            147           68.5 296 
 PAM  SZ IP     D  740 41.95                             151    0.5610 75.0  42 
 PAM  SZ I         740 42.25       321.1 0.22            152           75.0  42 
 PAM  SN ES        740 58.69                             151    0.4110 75.0  42 
 RUS  HZ IP     C  740 43.08                             141   -0.3210  105 176 
 RUS  HZ I         740 44.24       116.1 0.10            141            105 176 
 RUS  HN ES        741  1.24                             141   -0.6110  105 176 
 PTB  HZ EP     D  740 45.81                             131   -0.56 9  148 257 
 PTB  HN ES        741  6.40                             131   -0.74 9  148 257 
 PTB  HZ I         741 14.26       154.7 0.26            127            148 257 
 OCA  HZ EP     D  740 47.30                             129   -0.06 9  156 353 
 OCA  HN ES        741  8.66                             129   -0.24 9  156 353 
 OCA  HZ I         741 13.32       337.7 0.18            127            156 353 
 TAM  HZ IP     C  740 47.55                             129    0.25 9  157 106 
 TAM  HE ES        741  8.11                             129   -0.68 9  157 106 
 TAM  HZ I         741  9.58        68.2 0.30            130            157 106 
 SPBC HZ IP     C  740 48.07                             127   -0.10 9  166 218 
 SPBC HE ES        741 10.54                             127    0.19 9  166 218 
 SPBC HZ I         741 13.50       158.4 0.50            125            166 218 
 ZAR  HZ EP        740 51.72                             122    0.04 9  202 291 
 ZAR  HN ES        741 16.98                             122    0.39 9  202 291 
 ZAR  HZ I         741 22.78       188.3 0.50            119            202 291 
 NOR  HZ EP        740 55.43                             117    0.03 8  236 234 
 NOR  HE ES        741 22.74                             117   -0.48 8  236 234 
 NOR  HZ I         741 28.46       127.6 0.18            115            236 234 
 SML  HZ EP        740 55.24                             117   -0.47 8  240 335 
 SML  HN ES        741 22.64                             117   -1.12 8  240 335 
 SML  HZ I         741 27.52       219.5 0.10            115            240 335 
 ROSC BZ EP     C  740 58.67                             115    0.71 8  256 210 
 ROSC BN ES        741 28.16                             115    0.39 8  256 210 
 ROSC BZ I         741 35.09        97.5 0.45            114            256 210 
 HEL  HZ EP        740 59.92                             114    0.16 8  272 255 
 HEL  HE ES        741 31.55                             114    0.58 8  272 255 
 HEL  HZ I         741 38.15        72.5 0.36            112            272 255 
 URE  HZ EP   9    740 59.18                             113   -1.17 0  281 291 
 URE  HN ES        741 29.35                                   -1.50 7  281 291 
 URE  HZ I         741 35.66        80.6 0.14            111            281 291 
 GUY2CHZ EP     C  741  3.43                             111    0.10 7  303 234 
 GUY2CHE ES        741 37.82                             111    0.48 7  303 234 
 GUY2CHZ I         741 45.67        80.6 0.42                           303 234 
 PTGC HZ EP   9 C  741  2.28                             110   -1.60 0  313 159 
 PTGC HZ I         741  2.72        99.0 0.24            110            313 159 
 PTGC HN ES        741 35.03                                   -1.68 7  313 159 
 CBOC HZ EP     D  741  7.00                             109    0.48 7  334 251 
 CBOC HZ I         741  8.18        31.0 0.22            107            334 251 
 CBOC HN ES        741 41.68                             109   -1.34 7  334 251 
 DBB  SZ EP        741  6.88                             109   -0.03 7  338 274 
 DBB  SZ I         741 51.57       116.1 0.26            107            338 274 
 MON  HZ EP   9    741  6.25                             108   -1.96 0  350 308 
 MON  HN ES        741 42.69                                   -1.37 6  350 308 
 MON  HZ I         741 47.25        28.8 0.32            106            350 308 
 ARGC HZ EP   9    741  9.44                             108    0.67 0  355 340 
 ARGC HE ES        741 46.70                                   -0.99 6  355 340 
 ARGC HZ I         741 54.77        25.3 0.52            106            355 340 
 SDV  BZ IP   9 D  741  8.79                             107   -0.64 0  359  51 
 SDV  BZ I         741  9.50        50.8 0.20            107            359  51 
 SDV  BN ES        741 44.78                                   -2.77 6  359  51 
 PRA  HZ EP        741 12.76                             105   -0.71 6  395 209 
 PRA  HN ES        741 54.74                             105   -0.64 6  395 209 
 PRA  HZ I         742  1.86        74.0 0.30            104            395 209 
 ORTC HZ EP        741 13.51                             105   -0.32 6  398 216 
 ORTC HN ES        741 56.54                             105    0.52 6  398 216 
 ORTC HZ I         742  3.52        36.9 0.40            104            398 216 
 SJC  HZ EP   9 C  741 13.11                             105   -1.61 0  405 327 
 SJC  HN ES        741 53.67                                   -2.32 6  405 327 
 SJC  HZ I         741 58.88        30.2 0.48            104            405 327 
 CRJC HZ EP   9    741 19.61                             103   -2.06 0  464   4 
 CRJC HE ES        742  5.38                                   -2.53 5  464   4 
 CRJC HZ I         742 10.16        23.6 0.44            102            464   4 
                                                                                
