 2013 1118 0438 14.6 L   6.788 -73.149138.0  RSN  8 0.4 1.5LRSN                1
 GAP=137        0.97       3.4     4.5  9.0 -0.3040E+01  0.1248E+02 -0.3716E+01E
 Epicentro: LOS SANTOS - SANTANDER                                             3
 ACTION:UPD 14-01-09 16:29 OP:ep   STATUS:               ID:20131118043814 L   I
 OLDACT:REG 13-11-18 07:40 OP:mh   STATUS:               ID:20131118043000     3
 2013-11-18-0430-00M.COL___279                                                 6
 STAT SP IPHASW D HRMM SECON CODA AMPLIT PERI AZIMU VELO AIN AR TRES W  DIS CAZ7
 BAR2 SZ EP   1    438 33.50                             171    0.27 7 22.0 190 
 BRR  HZ EP   1    438 35.52                             151    0.63 7 71.5 300 
 PAM  SZ EP   1    438 36.50                             149    0.46 7 78.6  39 
 PAM  SN ES        438 53.10                             149    0.3110 78.6  39 
 RUS  HZ EP        438 37.64                             143    0.1710 99.3 176 
 RUS  HN ES        438 55.08                             143   -0.2510 99.3 176 
 PTB  HZ EP        438 40.72                             130   -0.13 9  147 259 
 PTB  HN ES        439  1.22                             130   -0.13 9  147 259 
 PTB  HZ I         439  4.65         3.9 0.18            131            147 259 
 OCA  HZ EP        438 41.83                             128   -0.57 9  161 353 
 OCA  HN ES        439  3.45                             128   -0.66 9  161 353 
 OCA  HZ I         439  7.06         4.4 0.34            130            161 353 
 SPBC HZ EP   1    438 42.41                             127    0.05 7  162 219 
 SPBC HN ES        439  3.73                             127   -0.31 9  162 219 
 SPBC HZ I         439  8.45         4.4 0.24            129            162 219 
 ZAR  HN ES        439 12.13                             121    0.67 9  204 293 
                                                                                
