 2017  518 0621 20.9 L   6.807 -73.185151.1  RSN 15 0.5 2.0LRSN                1
 GAP=108        1.07       4.3     3.6  7.5  0.1802E+01  0.3167E+01  0.1613E+02E
 Epicentro: ZAPATOCA - SANTANDER                                               3
 ACTION:UPD 17-06-16 13:37 OP:jn   STATUS:               ID:20170518062120 L   I
 OLDACT:UP  17-05-18 14:16 OP:edw  STATUS:               ID:20170518061729     3
 OLDACT:UP  17-05-18 14:15 OP:edw  STATUS:               ID:20170518061729     3
 OLDACT:REG 17-05-18 12:38 OP:edw  STATUS:               ID:20170518061729     3
 2017-05-18-0618-00M.COL___347                                                 6
 STAT SP IPHASW D HRMM SECON CODA AMPLIT PERI AZIMU VELO AIN AR TRES W  DIS CAZ7
 BRR  HZ EP     D  621 42.74                             155    0.3510 67.0 300 
 BRR  HN ES        621 59.90                             155    0.7410 67.0 300 
 BRR  HZ I         622  1.69        12.9 0.32            153           67.0 300 
 PAM  EZ EP     C  621 43.97                             151    0.1710 79.6  42 
 PAM  EN ES        622  1.15                             151   -0.5310 79.6  42 
 PAM  EZ I         622  3.12        26.8 0.50            157           79.6  42 
 PTB  HZ EP        621 47.48                             134   -0.45 9  144 258 
 PTB  HN ES        622  8.30                             134   -0.72 9  144 258 
 PTB  HZ I         622 15.70         9.5 0.44            134            144 258 
 SPBC HZ EP        621 49.68                             131    0.08 9  161 218 
 SPBC HN ES   4    622 10.35                             131   -1.66 0  161 218 
 YPLC HZ EP        621 51.34                             127   -0.01 9  180 150 
 YPLC HN ES        622 15.56                             127    0.45 9  180 150 
 YPLC HZ I         622 16.26        16.8 0.28            130            180 150 
 ZAR  HZ EP        621 53.39                             124    0.15 9  200 292 
 ZAR  HN ES        622 18.36                             124   -0.12 9  200 292 
 ZAR  HZ I         622 24.30         7.5 0.34            125            200 292 
 NOR  HZ EP        621 57.15                             120    0.55 8  232 234 
 NOR  HN ES        622 24.56                             120    0.10 8  232 234 
 NOR  HZ I         622 26.28         7.4 0.16            121            232 234 
 CHI  HZ EP        621 59.18                             118    0.33 8  248 194 
 CHI  HN ES        622 28.09                             118   -0.37 8  248 194 
 CHI  HZ I         622 31.89         6.2 0.54            120            248 194 
 ROSC BZ EP   4    622  1.03                             118    1.90 0  251 210 
 ROSC BN ES   4    622 27.15                             118   -1.82 0  251 210 
 ROSC BZ I         622 34.75         9.5 0.45            119            251 210 
 HEL  HZ EP   4    622  3.36                             116    2.43 0  268 255 
 HEL  HN ES        622 31.89                             116   -0.27 8  268 255 
 HEL  HZ I         622 39.70         5.3 0.36            117            268 255 
 PTGC HZ EP     C  622  4.15                             112   -1.10 7  311 158 
 PTGC HN ES   4    622 36.45                             112   -3.41 0  311 158 
 PTGC HZ I         622 39.25         7.3 0.34            114            311 158 
 LL6C HN EP   4    621 45.98                             111   -20.7 0  324 358 
 LL6C HN ES   4    622 21.08                             111   -21.4 0  324 358 
 CBOC HZ EP   4    622  9.12                             111    1.54 0  330 252 
 CBOC HN ES   4    622 45.93                             111    1.93 0  330 252 
 CBOC HZ I         622 50.39         1.6 0.20            112            330 252 
 ORTC HZ EP        622 15.07                             107    0.30 6  394 216 
 ORTC HN ES   4    622 58.60                             107    1.80 0  394 216 
 ORTC HZ I         623  2.14         3.1 0.50            108            394 216 
 PAL  HZ EP   4    622 14.13                             107   -1.70 0  402 239 
 PAL  HN ES   2    622 59.57                             107    0.87 3  402 239 
 PAL  HZ I         623  2.52         2.7 0.22            108            402 239 
 SJC  HZ EP   4    622 15.12                             107   -1.15 0  406 327 
 SJC  HN ES   4    622 56.48                             107   -2.99 0  406 327 
 SJC  HZ I         623  2.56         1.8 0.30            108            406 327 
                                                                                
