 2017  218 0711 11.1 L   6.727 -73.168140.0  RSN  6 0.4 1.1LRSN                1
 GAP=137        0.91       3.6     4.9  6.4  0.2145E+01  0.6070E+01  0.5830E+01E
 Epicentro: VILLANUEVA - SANTANDER                                             3
 ACTION:UPD 17-05-24 15:37 OP:jn   STATUS:               ID:20170218071111 L   I
 OLDACT:DUP 17-02-18 18:09 OP:cara STATUS:               ID:20170218070645d    3
 OLDACT:REG 17-02-18 13:49 OP:cara STATUS:               ID:20170218070644     3
 2017-02-18-0707-00M.COL___345                                                 6
 STAT SP IPHASW D HRMM SECON CODA AMPLIT PERI AZIMU VELO AIN AR TRES W  DIS CAZ7
 BAR2 EZ EP        711 30.03                             173    0.1410 15.0 186 
 BAR2 EZ ES        711 45.12                             173    0.5710 15.0 186 
 BAR2 EZ I         711 47.77         4.4 0.28            170           15.0 186 
 BRR  HZ EP        711 32.04                             151    0.2810 73.4 305 
 BRR  HN ES        711 47.94                             151    0.0710 73.4 305 
 BRR  HZ I         711 54.59         3.1 0.50            150           73.4 305 
 PAM  EZ EP        711 33.03                             147   -0.1810 85.2  37 
 PAM  EN ES        711 50.01                             147   -0.4410 85.2  37 
 PAM  EZ I         711 52.45         1.4 0.34            154           85.2  37 
 RUS  HZ EP        711 33.94                             145    0.2210 92.7 174 
 RUS  HN ES        711 51.07                             145   -0.3010 92.7 174 
 RUS  HZ I         711 53.98         1.2 0.34            147           92.7 174 
 ZAR  HN ES        712  8.00                             121   -0.38 9  205 294 
 ZAR  HZ I         712 13.71         1.4 0.22            122            205 294 
 CHI  HZ EP        711 48.02                             117    0.45 8  240 195 
 CHI  HN ES        712 15.42                             117   -0.59 8  240 195 
 CHI  HZ I         712 23.42         1.1 0.38            119            240 195 
                                                                                
