 2012  918 0724 21.1 L   6.772 -73.177145.6  RSN  5 0.3 1.4LRSN                1
 GAP=232        0.54       5.6     5.1  5.6  0.1828E+02  0.1262E+01 -0.4748E+01E
 Epicentro: LOS SANTOS - SANTANDER                                             3
 ACTION:UPD 12-10-22 14:19 OP:ep   STATUS:               ID:20120918072421 L   I
 2012-09-18-0720-00M.COL___227                                                 6
 STAT SP IPHASW D HRMM SECON CODA AMPLIT PERI AZIMU VELO AIN AR TRES W  DIS CAZ7
 BAR2 SZ EP   1    724 40.69                             172    0.09 7 19.8 182 
 BAR2 SZ ES   1    724 55.64                             172   -0.20 7 19.8 182 
 BAR2 SZ I         724 56.68         7.2 0.40                          19.8 182 
 BRR  HZ EP   1    724 42.44                             153    0.33 7 69.8 302 
 BRR  HN ES   1    724 58.39                             153   -0.13 7 69.8 302 
 RUS  HZ EP   1    724 44.50                             144   -0.09 7 97.7 174 
 RUS  HN ES   1    725  3.12                             144    0.18 7 97.7 174 
 RUS  HZ I         725  4.89         2.9 0.28                          97.7 174 
 PTB  HN ES   1    725  8.27                             133   -0.12 7  144 260 
 ZAR  HZ EP   1    724 52.77                             123   -0.52 6  202 293 
 ZAR  HN ES   1    725 18.83                             123    0.40 6  202 293 
                                                                                
