 2017  718 0749  1.7 L   6.728 -73.173144.0  RSN  6 0.4 1.4LRSN                1
 GAP=229        0.85       6.8     6.7  8.7  0.2616E+02  0.1576E+02 -0.3622E+01E
 Epicentro: VILLANUEVA - SANTANDER                                             3
 ACTION:UPD 17-08-30 15:34 OP:rebc STATUS:               ID:20170718074901 L   I
 OLDACT:UP  17-07-18 16:46 OP:dnl  STATUS:               ID:20170718074740     3
 OLDACT:REG 17-07-18 13:53 OP:dnl  STATUS:               ID:20170718074740     3
 2017-07-18-0748-00M.COL___368                                                 6
 STAT SP IPHASW D HRMM SECON CODA AMPLIT PERI AZIMU VELO AIN AR TRES W  DIS CAZ7
 BAR2 EZ EP   2    749 20.65                             174   -0.36 5 15.1 184 
 BAR2 EZ ES        749 35.77                             174   -0.2810 15.1 184 
 BAR2 EZ I         749 38.54         5.8 0.36            166           15.1 184 
 BRR  HZ EP        749 22.50                             152   -0.2910 72.9 305 
 BRR  HN ES        749 39.80                             152    0.5910 72.9 305 
 BRR  HZ I         749 42.83         4.8 0.60            149           72.9 305 
 RUS  HZ EP   2    749 25.69                             146    0.92 5 92.9 174 
 RUS  HN ES        749 42.72                             146   -0.0110 92.9 174 
 RUS  HZ I         749 44.48         2.6 0.32            146           92.9 174 
 PTB  HZ EP   2    749 28.66                             133    0.49 5  143 262 
 PTB  HN ES        749 48.76                             133   -0.02 9  143 262 
 PTB  HZ I         749 55.48         1.8 0.40            131            143 262 
 ZAR  HN ES        749 59.02                             122   -0.33 9  204 295 
 ZAR  HZ I         750  4.22         3.3 0.36            123            204 295 
 SJC  HZ EP   4    749 54.50                             105   -3.34 0  414 328 
 SJC  HN ES   4    750 36.09                             105   -5.51 0  414 328 
 SJC  HZ I         750 37.73         1.3 0.74            108            414 328 
                                                                                
