 2010  618 0444 33.9 L   6.781 -73.045144.3  RSN 13 0.5 2.3LRSN                1
 GAP=134        1.17       4.9     7.5  7.5 -0.1588E+02 -0.1262E+01  0.3684E+01E
 Epicentro: LOS SANTOS - SANTANDER                                             3
 ACTION:UP  10-08-24 10:11 OP:vdl  STATUS:               ID:20100618044433 L   I
 2010-06-18-0442-07S.COL___115                                                 6
 STAT SP IPHASW D HRMM SECON CODA AMPLIT PERI AZIMU VELO SNR AR TRES W  DIS CAZ7
 BAR2 SZ IP        444 53.36                             169    -0.110   26 216 
 BAR2 SZ ES   1    445  8.70                             169     0.1 7   26 216 
 BRR  HZ IP     D  444 55.29                             149    -0.310   82 296 
 BRR  HE ES   1    445 12.44                             149     0.0 7   82 296 
 BRR  HZ I         445 15.42        43.4 0.21                            82 296 
 RUS  HZ IP     C  444 57.21                             144    -0.210   98 182 
 RUS  HE ES   1    445 15.91                             144     0.3 7   98 182 
 RUS  HZ I         445 17.55        21.8 0.41                            98 182 
 BRI  SZ IP        444 56.98                             141    -0.610  107  15 
 BRI  SZ ES   1    445 15.16                             141    -0.8 7  107  15 
 GUE  SZ IP        444 59.50                             139     1.010  117   7 
 GRA  SZ IP        444 59.24                             137     0.310  125  12 
 GRA  SZ ES   1    445 19.16                             137     0.7 7  125  12 
 OCA  SZ EP   1    445  2.32                             129    -0.2 7  164 349 
 CHI  HZ EP   1    445 11.08                             117    -0.6 6  250 198 
 CHI  HZ I         445 47.01         9.0 0.26                           250 198 
 ROSC BZ EP   1    445 12.88                             116     0.5 6  257 213 
 ROSC BZ I         445 51.27        18.6 0.41                           257 213 
 CVER SZ EP   1    445 14.62                             114     0.1 6  275 205 
 HEL  HZ EP   1    445 14.75                             113    -0.5 6  282 257 
 HEL  HN ES   1    445 47.26                             113    -0.2 6  282 257 
 HEL  HZ I         445 52.45        15.8 0.35                           282 257 
 TOL  SZ EP   1    445 23.84                             109     1.0 5  350 226 
 SDV  BZ IP     D  445 22.68                             108    -0.4 6  353  49 
 SDV  BZ I         446  1.99         5.4 0.51                           353  49 
                                                                                
