 2011  518 0831 40.4 L   6.811 -73.103140.0  RSN 11 0.4 2.2LRSN                1
 GAP=141        0.82       3.5     5.4  5.9 -0.8952E+01  0.8321E+01 -0.4004E+00E
 Epicentro: LOS SANTOS - SANTANDER                                             3
 ACTION:UP  11-06-29 08:54 OP:tino STATUS:               ID:20110518083140 L   I
 2011-05-18-0830-05S.COL___141                                                 6
 STAT SP IPHASW D HRMM SECON CODA AMPLIT PERI AZIMU VELO SNR AR TRES W  DIS CAZ7
 BTL  SZ EP   1    831 59.27                             171    -0.1 7   22 303 
 BAR2 SZ EP        831 59.49                             169     0.110   26 200 
 BAR2 SZ I         832  0.12        28.7 0.25                            26 200 
 BAR2 SZ ES   1    832 13.92                             169    -0.3 7   26 200 
 PAM  SZ EP        832  2.02                             151     0.210   73  37 
 PAM  SE ES   1    832 18.75                             151     0.3 7   73  37 
 BRR  HZ IP     C  832  1.19                             150     0.010   75 296 
 BRR  HZ I         832  1.45        41.5 0.13                            75 296 
 BRR  HE ES   1    832 17.92                             150     0.6 7   75 296 
 RUS  HZ EP   1    832  3.42                             142    -0.3 7  102 179 
 RUS  HE ES   1    832 21.74                             142    -0.1 7  102 179 
 RUS  HZ I         832 26.09         8.2 0.33                           102 179 
 BRI  SZ EP   1    832  3.54                             141     0.0 7  106  19 
 GRA  SZ IP        832  4.82                             136    -0.110  123  16 
 GRA  SZ ES        832 24.12                             136     0.110  123  16 
 GRA  SZ I         832 25.37        47.8 0.36                           123  16 
 OCA  SZ EP   1    832  7.63                             128    -0.6 7  160 351 
 OCA  SZ ES   1    832 29.34                             128    -0.6 7  160 351 
 OCA  SZ I         832 30.84        15.4 0.29                           160 351 
 NOR  SZ EP   1    832 16.68                             117     0.4 6  239 235 
 NOR  SN ES   1    832 43.53                             117    -0.8 6  239 235 
 HEL  HZ EP   1    832 21.55                             113     0.7 6  277 256 
 HEL  HZ I         832 59.11        12.2 0.50                           277 256 
 RREF HZ EP   1    832 27.31                             109     0.5 5  326 230 
 RREF HE ES   2    833  2.84                             109    -0.2 3  326 230 
 RREF HZ I         833 11.92         7.8 0.34                           326 230 
                                                                                
