 2013  318 0854 54.1 L   6.801 -73.116155.1  RSN  7 0.5 1.7LRSN                1
 GAP=140        0.97       5.0     5.8  9.0  0.4437E+01  0.8882E+01 -0.1030E+02E
 Epicentro: LOS SANTOS - SANTANDER                                             3
 ACTION:UPD 13-04-09 14:03 OP:ep   STATUS:               ID:20130318085455dL   I
 2013-03-18-0850-00M.COL___243                                                 6
 STAT SP IPHASW D HRMM SECON CODA AMPLIT PERI AZIMU VELO AIN AR TRES W  DIS CAZ7
 BAR2 SZ EP        855 14.99                             171    0.1610 24.2 198 
 BAR2 SZ I         855 16.03         8.1 0.40            170           24.2 198 
 BRR  HN ES   1    855 34.25                             153    0.46 7 74.0 297 
 BRR  HN I         855 36.88        10.7 0.16            150           74.0 297 
 PAM  SN ES   1    855 35.30                             153    0.12 7 75.3  38 
 PAM  SN I         855 36.06         6.0 0.48            156           75.3  38 
 RUS  HZ EP   1    855 18.71                             146   -0.02 7  100 178 
 RUS  HN ES        855 37.57                             146   -0.4110  100 178 
 RUS  HN I         855 39.66         2.2 0.14            149            100 178 
 PTB  HZ EP        855 21.96                             133   -0.13 9  151 259 
 PTB  HN ES        855 44.15                             133    0.20 9  151 259 
 PTB  HE I         855 49.15         4.5 0.19            133            151 259 
 ZAR  HE ES   1    855 53.16                             124   -0.30 6  207 292 
 ZAR  HE I         855 59.96        11.4 0.38            124            207 292 
 SML  HZ EP        855 32.07                             119    0.71 8  245 335 
 SML  HN ES   1    855 59.18                             119   -1.28 6  245 335 
 SML  HN I         856  4.72         7.0 0.30            120            245 335 
                                                                                
