 2017  218 0435 37.3 L   6.762 -73.170138.5  RSN  9 0.3 1.6LRSN                1
 GAP=135        0.80       2.9     3.2  4.8  0.2087E+00  0.4683E+01  0.2514E+01E
 Epicentro: LOS SANTOS - SANTANDER                                             3
 ACTION:UPD 17-05-24 15:37 OP:jn   STATUS:               ID:20170218043537 L   I
 OLDACT:REG 17-02-18 13:32 OP:cara STATUS:               ID:20170218042745     3
 2017-02-18-0428-00M.COL___351                                                 6
 STAT SP IPHASW D HRMM SECON CODA AMPLIT PERI AZIMU VELO AIN AR TRES W  DIS CAZ7
 BAR2 EZ EP        435 56.14                             172    0.1310 18.8 184 
 BAR2 EZ ES        436 10.41                             172   -0.1610 18.8 184 
 BAR2 EZ I         436 13.70        12.6 0.30            171           18.8 184 
 BRR  HZ EP        435 57.82                             151    0.1210 71.0 303 
 BRR  HN ES        436 14.06                             151    0.4910 71.0 303 
 BRR  HZ I         436 17.51         7.1 0.36            152           71.0 303 
 PAM  EZ EP        435 58.86                             148   -0.2410 82.3  39 
 PAM  EN ES        436 16.11                             148    0.0410 82.3  39 
 PAM  EZ I         436 18.64         7.6 0.62            152           82.3  39 
 RUS  HZ EP        436  0.14                             143    0.0510 96.6 174 
 RUS  HN ES        436 17.84                             143    0.0010 96.6 174 
 RUS  HZ I         436 19.77         5.6 0.36            145           96.6 174 
 PTB  HZ EP        436  2.91                             131   -0.50 9  144 260 
 PTB  HN ES        436 23.08                             131   -0.66 9  144 260 
 PTB  HZ I         436 26.71         3.8 0.40            132            144 260 
 ZAR  HZ EP        436  9.44                             121    0.21 9  203 294 
 ZAR  HN ES        436 34.01                             121   -0.09 9  203 294 
 ZAR  HZ I         436 39.60         4.5 0.26            123            203 294 
 NOR  HE ES        436 39.73                             117    0.42 8  230 235 
 NOR  HZ I         436 42.72         2.8 0.24            119            230 235 
 CHI  HZ EP        436 13.83                             116   -0.30 8  244 195 
 CHI  HE ES        436 43.05                             116    0.23 8  244 195 
 CHI  HZ I         436 48.54         1.7 0.36            118            244 195 
 CBOC HN EP        436 24.09                             109    0.57 7  330 253 
                                                                                
