 2012  818 0624 51.8 L   6.799 -73.131151.6  RSN  8 0.4 1.9LRSN                1
 GAP=138        0.82       3.9     3.8  8.1 -0.2097E+01  0.6915E+01  0.1065E+01E
 Epicentro: LOS SANTOS - SANTANDER                                             3
 ACTION:UPD 12-09-10 11:56 OP:ep   STATUS:               ID:20120818062451 L   I
 2012-08-18-0620-00M.COL___217                                                 6
 STAT SP IPHASW D HRMM SECON CODA AMPLIT PERI AZIMU VELO AIN AR TRES W  DIS CAZ7
 BAR2 SZ EP   1    625 12.06                             171   -0.07 7 23.6 194 
 BAR2 SZ I         625 29.16        22.2 0.30                          23.6 194 
 BRR  HZ EP   1    625 13.99                             153    0.33 7 72.6 298 
 BRR  HZ I         625 14.25        25.9 0.15                          72.6 298 
 BRR  HN ES   1    625 31.45                             153    0.74 7 72.6 298 
 PAM  SZ EP   1    625 14.94                             152    0.36 7 76.4  39 
 PAM  SN ES        625 32.49                             152    0.1410 76.4  39 
 PAM  SZ I         625 34.22         7.1 0.29                          76.4  39 
 RUS  HZ EP   1    625 15.96                             145   -0.15 7  100 177 
 RUS  HN ES   1    625 34.92                             145   -0.16 7  100 177 
 RUS  HZ I         625 36.36         6.0 0.45                           100 177 
 PTB  HZ EP   2    625 19.25                             133   -0.14 5  149 259 
 PTB  HZ I         625 40.17         8.8 0.59                           149 259 
 PTB  HN ES        625 40.39                             133   -0.52 9  149 259 
 OCA  HZ EP   1    625 20.76                             131    0.17 7  161 353 
 OCA  HN ES        625 42.43                             131   -0.62 9  161 353 
 OCA  HZ I         625 47.98        17.0 0.36                           161 353 
 ZAR  HE ES        625 50.54                             123    0.03 8  206 292 
 HEL  HE ES   1    626  4.75                             116    0.53 6  274 256 
 HEL  HZ I         626 11.04         3.4 0.32                           274 256 
                                                                                
