 2016  418 0339 34.0 L   6.843 -73.155143.2  RSN  5 0.3 1.6LRSN                1
 GAP=182        0.82       3.2     5.2  6.6 -0.2838E+01  0.6459E+01 -0.4522E+01E
 Epicentro: LOS SANTOS - SANTANDER                                             3
 ACTION:UPD 16-05-05 14:22 OP:rebc STATUS:               ID:20160418033934 L   I
 OLDACT:ARG 16-04-18 12:56 OP:cara STATUS:               ID:20160418033744     3
 2016-04-18-0337-44M.COL___297                                                 6
 STAT SP IPHASW D HRMM SECON CODA AMPLIT PERI AZIMU VELO AIN AR TRES W  DIS CAZ7
 BAR2 EZ EP        339 53.65                             168    0.2710 27.8 186 
 BAR2 EZ ES        340  8.05                             168   -0.4810 27.8 186 
 BAR2 EZ I         340 10.23         9.3 0.20            170           27.8 186 
 RUS  HZ EP        339 57.99                             142    0.1810  105 176 
 RUS  HN ES        340 16.52                             142    0.1110  105 176 
 RUS  HZ I         340 17.20         3.5 0.18            145            105 176 
 PTB  HZ EP        340  0.67                             131   -0.05 9  148 257 
 PTB  HN ES        340 21.49                             131   -0.10 9  148 257 
 PTB  HZ I         340 23.27         4.0 0.18            132            148 257 
 OCA  HZ EP        340  1.34                             130   -0.28 9  155 353 
 OCA  HE ES        340 23.56                             130    0.37 9  155 353 
 OCA  HZ I         340 26.91         9.2 0.28            131            155 353 
 SPBC HZ EP        340  2.06                             128   -0.49 9  166 218 
 SPBC HN ES        340 25.32                             128    0.46 9  166 218 
 SPBC HZ I         340 28.89         7.5 0.18            130            166 218 
                                                                                
