 2010  618 0907 29.7 L   6.437 -73.690101.3  RSN  6 0.3 1.2LRSN                1
 GAP=131        0.66       3.3     5.8  6.7  0.7723E+00  0.8388E+01 -0.6646E+00E
 Epicentro: SANTA HELENA DEL OPON - SANTANDER                                  3
 ACTION:UP  10-08-24 10:11 OP:vdl  STATUS:               ID:20100618090729 L   I
 2010-06-18-0904-41S.COL___115                                                 6
 STAT SP IPHASW D HRMM SECON CODA AMPLIT PERI AZIMU VELO SNR AR TRES W  DIS CAZ7
 BAR2 SZ EP        9 7 45.76                             148     0.110   59  73 
 BAR2 SZ ES   1    9 7 58.41                             148     0.2 7   59  73 
 BRR  HZ EP   1    9 7 46.17                             141    -0.3 7   74 358 
 BRR  HN ES   1    9 7 59.49                             141    -0.1 7   74 358 
 RUS  HZ EP        9 7 48.66                             135     0.210   90 132 
 RUS  HN ES   2    9 8  2.34                             135    -0.8 5   90 132 
 RUS  HZ I         9 8  3.51         2.4 0.32                            90 132 
 GUE  SZ EP        9 7 56.58                             115    -0.3 9  176  29 
 GUE  SZ ES   1    9 8 17.93                             115    -0.2 7  176  29 
 GRA  SZ ES   1    9 8 20.48                             113     0.4 7  188  31 
 HEL  HZ EP   2    9 8  0.73                             111     0.5 4  205 262 
 HEL  HZ I         9 8 26.88         2.3 0.66                           205 262 
                                                                                
