 2012  718 0422 30.5 L   6.780 -73.160145.6  RSN  8 0.5 1.9LRSN                1
 GAP=136        1.17       7.6     7.9 10.9  0.1445E+02  0.2894E+02  0.1842E+01E
 Epicentro: LOS SANTOS - SANTANDER                                             3
 ACTION:UPD 12-08-14 11:45 OP:ep   STATUS:               ID:20120718042230 L   I
 2012-07-18-0420-00M.COL___197                                                 6
 STAT SP IPHASW D HRMM SECON CODA AMPLIT PERI AZIMU VELO AIN AR TRES W  DIS CAZ7
 BAR2 SZ EP   1    422 49.87                             171    -0.2 7   21 187 
 BAR2 SZ ES   1    423  4.42                             171    -0.9 7   21 187 
 BAR2 SZ I         423  6.46        11.4 0.35            168             21 187 
 BRR  HZ EP   1    422 52.16                             153     0.5 7   71 301 
 BRR  HN ES   1    423  8.82                             153     0.7 7   71 301 
 BRR  HZ I         423 13.01        16.2 0.16            149             71 301 
 PAM  SE ES   2    423  9.86                             150    -0.5 5   80  39 
 RUS  HZ EP   1    422 54.32                             144     0.2 7   99 175 
 RUS  HN ES   1    423 13.24                             144     0.7 7   99 175 
 RUS  HZ I         423 14.54        11.4 0.34            146             99 175 
 PTB  HZ EP   1    422 56.36                             132    -0.9 7  146 260 
 PTB  HN ES   1    423 18.01                             132    -0.2 7  146 260 
 PTB  HZ I         423 20.05         8.1 0.15            131            146 260 
 OCA  HE ES   2    423 21.51                             129     0.3 5  162 354 
 ZAR  HZ EP   1    423  2.82                             122    -0.1 6  203 293 
 ZAR  HN ES   1    423 28.19                             122     0.1 6  203 293 
 ZAR  HZ I         423 34.80         9.9 0.50            123            203 293 
 HEL  HZ EP   2    423 10.92                             115     0.4 4  270 256 
 HEL  HN ES   2    423 41.51                             115    -0.2 4  270 256 
 HEL  HZ I         423 48.63         7.4 0.38            115            270 256 
