 2011  618 0224 50.3 L   6.793 -73.115141.3  RSN 14 0.3 2.6LRSN                1
 GAP=141        0.65       2.9     5.0  4.2 -0.7212E+01  0.1015E+01  0.2088E+01E
 Epicentro: LOS SANTOS - SANTANDER                                             3
 ACTION:UP  11-07-14 19:06 OP:ep   STATUS:               ID:20110618022450 L   I
 2011-06-18-0222-10S.COL___135                                                 6
 STAT SP IPHASW D HRMM SECON CODA AMPLIT PERI AZIMU VELO SNR AR TRES W  DIS CAZ7
 BTL  SZ IP        225  9.74                             171     0.310   22 309 
 BTL  SZ ES   2    225 23.88                             171    -0.4 5   22 309 
 BAR2 SZ IP        225  9.48                             170     0.010   23 199 
 BAR2 SZ ES   1    225 23.84                             170    -0.5 7   23 199 
 BAR2 SZ I         225 27.23        92.1 0.34                            23 199 
 GIR2 SZ EP   1    225  9.47                             166    -0.1 7   33 345 
 GIR2 SZ ES   2    225 23.96                             166    -0.5 5   33 345 
 BRR  HZ IP     D  225 11.25                             150     0.010   75 298 
 BRR  HZ I         225 11.70       110.3 0.12                            75 298 
 BRR  HE ES   1    225 28.12                             150     0.6 7   75 298 
 PAM  SZ EP   1    225 12.32                             150     0.3 7   76  37 
 PAM  SN ES   2    225 29.27                             150     0.4 5   76  37 
 RUS  HZ EP   2    225 13.58                             143     0.0 5  100 178 
 RUS  HN ES   2    225 31.62                             143    -0.1 5  100 178 
 RUS  HZ I         225 34.52        39.0 0.33                           100 178 
 BRI  SZ EP        225 13.90                             140     0.110  108  19 
 BRI  SZ ES   1    225 31.67                             140    -0.4 7  108  19 
 BRI  SZ I         225 39.04        55.9 0.55                           108  19 
 GRA  SZ IP        225 15.15                             136     0.010  126  16 
 GRA  SZ ES   1    225 34.59                             136     0.1 7  126  16 
 GRA  SZ I         225 35.56        73.3 0.33                           126  16 
 OCA  SZ EP   1    225 17.90                             128    -0.5 7  162 352 
 OCA  SZ ES   2    225 40.10                             128    -0.2 5  162 352 
 OCA  SZ I         225 45.17        49.0 0.31                           162 352 
 NOR  SZ EP   1    225 25.87                             117    -0.2 6  237 235 
 NOR  SN ES   2    225 53.75                             117    -0.2 4  237 235 
 CHI  HZ EP   1    225 27.99                             116     0.2 6  249 196 
 CHI  HE ES   2    225 57.33                             116     0.3 4  249 196 
 CHI  HZ I         226  3.64        18.9 0.36                           249 196 
 VIL  SN ES   2    226  6.90                             111    -0.3 4  303 192 
 VIL  SZ I         226 14.74        19.4 0.77                           303 192 
 DBB  SZ EP   2    225 37.71                             108    -0.3 3  343 274 
 PRA  HZ EP   1    225 43.28                             106    -0.5 4  393 210 
 PRA  HN ES   2    226 25.71                             106     0.2 3  393 210 
                                                                                
