 2015  718 0848 13.0 L   6.867 -73.324114.2  RSN  4 0.3 1.4LRSN                1
 GAP=153        0.83       4.6     6.1  9.3  0.1158E+01  0.2723E+02 -0.1982E+02E
 Epicentro: BETULIA - SANTANDER                                                3
 ACTION:UPD 15-09-08 21:49 OP:cam  STATUS:               ID:20150718084813 L   I
 OLDACT:UP  15-07-18 18:34 OP:mh   STATUS:               ID:20150718083750d    3
 OLDACT:DUP 15-07-18 18:30 OP:mh   STATUS:               ID:20150718083750d    3
 OLDACT:UP  15-07-18 18:29 OP:mh   STATUS:               ID:20150718083749     3
 OLDACT:REG 15-07-18 14:04 OP:mh   STATUS:               ID:20150718083749     3
 2015-07-18-0837-49M.COL___340                                                 6
 STAT SP IPHASW D HRMM SECON CODA AMPLIT PERI AZIMU VELO AIN AR TRES W  DIS CAZ7
 BAR2 EZ EP        848 29.44                             162    0.3010 34.2 153 
 BAR2 EZ ES        848 41.57                             162   -0.2010 34.2 153 
 BAR2 EZ I         848 44.06         6.9 0.45            169           34.2 153 
 OCA  HE ES        848 57.86                             123    0.08 9  152   0 
 OCA  HZ I         848 59.69         4.7 0.36            125            152   0 
 ZAR  HZ EP        848 40.63                             117   -0.62 9  183 292 
 ZAR  HN ES        849  3.71                             117    0.39 9  183 292 
 ZAR  HZ I         849  5.96         1.9 0.44            120            183 292 
 SML  HZ EP        848 46.68                             111    0.31 8  229 339 
 SML  HN ES        849 12.14                             111   -0.29 8  229 339 
 SML  HZ I         849 18.11                             114            229 339 
                                                                                
