 2010  118 0633  3.3 L   6.832 -72.982140.3  RSN  9 0.4 2.1LRSN                1
 GAP=200        0.90       3.7     9.2  6.9 -0.1339E+02  0.1812E+02  0.2150E+01E
 Epicentro: CEPITA - SANTANDER                                                 3
 ACTION:UP  10-08-24 09:44 OP:vdl  STATUS:               ID:20100118063303 L   I
 2010-01-18-0631-01S.COL___096                                                 6
 STAT SP IPHASW D HRMM SECON CODA AMPLIT PERI AZIMU VELO SNR AR TRES W  DIS CAZ7
 BAR2 SZ EP        633 22.72                             165     0.110   35 220 
 BAR2 SZ ES   1    633 36.92                             165    -0.7 7   35 220 
 GIR2 SZ EP        633 22.74                             165     0.210   36 320 
 GIR2 SZ ES   2    633 37.72                             165     0.3 5   36 320 
 RUS  BZ EP        633 26.77                             141    -0.110  104 186 
 RUS  BN ES   1    633 45.49                             141     0.3 7  104 186 
 RUS  BZ I         633 47.20        16.8 0.26                           104 186 
 OCA  SZ EP        633 31.14                             128    -0.1 9  160 347 
 OCA  SZ ES   1    633 52.81                             128    -0.1 7  160 347 
 CHI  HZ EP        633 41.57                             115    -0.1 8  257 199 
 CHI  HN ES   1    634 10.98                             115    -0.6 6  257 199 
 CHI  HZ I         634 17.66         5.5 0.47                           257 199 
 ROSC BZ EP        633 43.18                             114     0.6 8  265 214 
 ROSC BN ES        634 13.64                             114     0.5 8  265 214 
 ROSC BZ I         634 17.78         5.9 0.51                           265 214 
 HEL  HZ EP   2    633 45.26                             112    -0.1 4  290 256 
 RREF BN ES        634 28.25                             109    -0.1 7  338 231 
 RREF BZ I         634 33.10         6.2 0.41                           338 231 
 PRA  HZ EP        633 57.05                             105    -1.1 6  404 212 
 PRA  HE ES   2    634 41.16                             105     0.3 3  404 212 
 PRA  HZ I         634 46.23         6.0 0.32                           404 212 
                                                                                
