 2013  418 0441 41.2 L   6.774 -73.164145.2  RSN  7 0.5 1.1LRSN                1
 GAP=135        1.07       5.7     8.5 10.4  0.6582E+01 -0.2042E+02 -0.2068E+01E
 Epicentro: LOS SANTOS - SANTANDER                                             3
 ACTION:UPD 13-05-22 14:39 OP:EP   STATUS:               ID:20130418044141 L   I
 2013-04-18-0440-00M.COL___250                                                 6
 STAT SP IPHASW D HRMM SECON CODA AMPLIT PERI AZIMU VELO AIN AR TRES W  DIS CAZ7
 BRR  HZ EP        442  2.44                             153    0.1310 70.9 301 
 BRR  HN ES        442 19.43                             153    0.6910 70.9 301 
 BRR  HZ I         442 23.89         3.4 0.13            153           70.9 301 
 PAM  SZ EP   2    442  3.64                             150    0.03 5 80.9  39 
 RUS  HZ EP        442  4.95                             145    0.2110 97.9 175 
 RUS  HN ES   2    442 22.45                             145   -0.62 5 97.9 175 
 RUS  HZ I         442 23.32         1.5 0.48            149           97.9 175 
 PTB  HZ EP        442  7.46                             133   -0.47 9  145 260 
 PTB  HN ES   1    442 28.22                             133   -0.54 7  145 260 
 PTB  HZ I         442 31.06         2.2 0.16            135            145 260 
 OCA  HN ES   1    442 30.92                             129   -1.07 7  163 354 
 ZAR  HN ES   2    442 38.80                             123    0.01 4  203 293 
 SML  HZ EP        442 18.60                             117    0.57 8  245 336 
 SML  HN ES   2    442 46.35                             117   -0.37 4  245 336 
                                                                                
