 2012  718 0707 38.0 L   6.798 -73.157145.7  RSN  7 0.4 1.8LRSN                1
 GAP=135        0.97       5.6     6.0  9.5 -0.5152E+01  0.1983E+02 -0.1619E+02E
 Epicentro: LOS SANTOS - SANTANDER                                             3
 ACTION:UPD 12-08-14 11:45 OP:ep   STATUS:               ID:20120718070738 L   I
 2012-07-18-0700-00M.COL___197                                                 6
 STAT SP IPHASW D HRMM SECON CODA AMPLIT PERI AZIMU VELO AIN AR TRES W  DIS CAZ7
 BAR2 SZ EP   1    7 7 57.84                             171     0.2 7   23 187 
 BAR2 SZ ES   1    7 8 13.16                             171     0.3 7   23 187 
 BAR2 SZ I         7 8 13.79         6.6 0.23            171             23 187 
 BRR  HZ EP   1    7 7 59.73                             153     0.7 7   70 299 
 BRR  HZ I         7 8  1.91        21.2 0.14            149             70 299 
 BRR  HN ES   2    7 8 16.35                             153     0.8 5   70 299 
 PAM  SZ EP   1    7 8  0.69                             150     0.4 7   78  40 
 PAM  SN ES   1    7 8 17.40                             150    -0.2 7   78  40 
 RUS  HN ES   1    7 8 19.71                             144    -0.5 7  100 175 
 RUS  HZ I         7 8 20.80         3.1 0.31            146            100 175 
 PTB  HZ EP   1    7 8  4.73                             132    -0.1 7  146 259 
 PTB  HN ES   1    7 8 25.25                             132    -0.5 7  146 259 
 PTB  HZ I         7 8 28.55         5.9 0.13            131            146 259 
 OCA  HZ EP   1    7 8  5.95                             129    -0.4 7  160 354 
 OCA  HN ES   1    7 8 27.81                             129    -0.6 7  160 354 
 OCA  HZ I         7 8 31.17        17.7 0.16            129            160 354 
 ZAR  HZ EP   1    7 8 10.33                             122     0.0 6  203 292 
 ZAR  HN ES   1    7 8 35.69                             122     0.2 6  203 292 
 ZAR  HZ I         7 8 41.94         8.5 0.19            121            203 292 
