 2017  118 0936  4.0 L   6.838 -73.092148.7  RSN  4 0.2 1.0LRSN                1
 GAP=249        0.49       5.9     5.1  5.0  0.2214E+02 -0.9990E+01 -0.1422E+02E
 Epicentro: LOS SANTOS - SANTANDER                                             3
 ACTION:UPD 17-05-22 16:00 OP:jn   STATUS:               ID:20170118093604 L   I
 OLDACT:UP  17-01-18 16:58 OP:edw  STATUS:               ID:20170118092745d    3
 OLDACT:DUP 17-01-18 16:55 OP:edw  STATUS:               ID:20170118092745d    3
 OLDACT:REG 17-01-18 13:02 OP:dani STATUS:               ID:20170118092744     3
 2017-01-18-0928-00M.COL___325                                                 6
 STAT SP IPHASW D HRMM SECON CODA AMPLIT PERI AZIMU VELO AIN AR TRES W  DIS CAZ7
 BAR2 EZ EP        936 24.34                             168    0.2310 29.0 200 
 BAR2 EZ ES        936 39.67                             168   -0.1210 29.0 200 
 BAR2 EZ I         936 40.41         2.2 0.21            167           29.0 200 
 RUS  HZ EP        936 28.08                             143   -0.2510  105 179 
 RUS  HN ES        936 47.43                             143    0.1310  105 179 
 RUS  HZ I         936 47.71         1.9 0.26            143            105 179 
 PTB  HZ EP   9    936 30.23                             131   -1.59 0  154 258 
 PTB  HN ES        936 51.98                             136    0.06 9  154 258 
 PTB  HZ I         936 54.47         0.7 0.16            131            154 258 
 ZAR  HN ES        937  2.83                             122   -0.00 8  208 290 
                                                                                
