 2010  818 0511  0.9 L   6.788 -73.049145.4  RSN 10 0.3 1.8LRSN                1
 GAP=170        0.80       3.0     7.1  7.7 -0.8105E+01 -0.7699E+01  0.3207E+01E
 Epicentro: LOS SANTOS - SANTANDER                                             3
 ACTION:UP  10-09-07 10:55 OP:vdl  STATUS:               ID:20100818051101 L   I
 2010-08-18-0507-47S.COL___111                                                 6
 STAT SP IPHASW D HRMM SECON CODA AMPLIT PERI AZIMU VELO SNR AR TRES W  DIS CAZ7
 BTL  SZ EP        511 20.67                             169     0.110   28 301 
 BRR  HZ EP        511 22.25                             149    -0.310   81 296 
 BRR  HN ES   1    511 39.48                             149     0.0 7   81 296 
 BRR  HZ I         511 40.79        10.3 0.23                            81 296 
 RUS  HZ EP        511 24.93                             144     0.510   99 182 
 RUS  HN ES   1    511 42.90                             144     0.0 7   99 182 
 RUS  HZ I         511 43.86         6.9 0.31                            99 182 
 GUE  SZ EP        511 25.34                             139    -0.210  116   7 
 GUE  SZ ES   3    511 44.85                             139     0.1 2  116   7 
 GUE  SZ I         511 46.92         5.6 1.50                           116   7 
 GRA  SZ EP        511 26.11                             137     0.210  124  13 
 GRA  SZ I         511 48.67         9.6 0.70                           124  13 
 OCA  SZ EP        511 29.48                             129     0.1 9  163 349 
 OCA  SZ ES   1    511 51.65                             129    -0.1 7  163 349 
 OCA  SZ I         511 54.71        16.1 0.03                           163 349 
 CHI  HZ EP   1    511 38.37                             117    -0.4 6  250 198 
 CHI  HN ES   1    512  7.55                             117    -0.7 6  250 198 
 CHI  HZ I         512 13.25         3.0 0.34                           250 198 
 ROSC BN ES   2    512  9.61                             116     0.0 4  257 213 
 ROSC BZ I         512 16.92         5.0 0.16                           257 213 
 RREF HN ES   1    512 25.23                             110     0.8 5  329 231 
 RREF HZ I         512 27.78         4.2 0.53                           329 231 
 PRA  HZ EP   1    511 55.25                             106     0.4 4  396 211 
 PRA  HN ES   1    512 36.37                             106    -0.6 4  396 211 
 PRA  HZ I         512 43.51         3.9 0.06                           396 211 
                                                                                
