 2016  218 0632 15.1 L   6.785 -73.134150.4  RSN 10 0.4 1.6LRSN                1
 GAP=139        1.05       3.3     4.2  5.7 -0.2483E+01  0.5138E+01  0.1086E+01E
 Epicentro: LOS SANTOS - SANTANDER                                             3
 ACTION:UPD 16-03-04 21:27 OP:rebc STATUS:               ID:20160218063215 L   I
 OLDACT:REG 16-02-18 12:41 OP:drio STATUS:               ID:20160218062735     3
 2016-02-18-0627-35M.COL___327                                                 6
 STAT SP IPHASW D HRMM SECON CODA AMPLIT PERI AZIMU VELO AIN AR TRES W  DIS CAZ7
 BAR2 EZ EP        632 35.40                             171    0.1410 22.0 194 
 BAR2 EZ ES        632 50.72                             171   -0.2710 22.0 194 
 BAR2 EZ I         632 52.61         7.0 0.22            170           22.0 194 
 BRR  HZ EP        632 37.11                             153    0.2610 73.1 299 
 BRR  HE ES        632 54.65                             153    0.8310 73.1 299 
 BRR  HZ I         632 57.50         5.9 0.16            151           73.1 299 
 PAM  EZ EP        632 37.98                             151    0.1510 77.9  38 
 PAM  EN ES        632 55.47                             151   -0.1010 77.9  38 
 PAM  EZ I         632 57.32         6.2 0.54            155           77.9  38 
 RUS  HZ EP        632 38.97                             145   -0.2210 98.9 177 
 RUS  HE ES        632 57.55                             145   -0.4310 98.9 177 
 RUS  HZ I         632 59.40         2.6 0.18            147           98.9 177 
 PTB  HZ EP        632 42.31                             133   -0.22 9  149 260 
 PTB  HN ES        633  3.28                             133   -0.65 9  149 260 
 PTB  HZ I         633  8.88         8.2 0.42            132            149 260 
 OCA  HZ EP        632 44.01                             130    0.08 9  162 353 
 OCA  HE ES        633  6.57                             130    0.14 9  162 353 
 OCA  HZ I         633 14.18         7.7 0.42            132            162 353 
 SPBC HZ EP        632 44.07                             130    0.16 9  163 220 
 SPBC HE ES        633  6.56                             130    0.17 9  163 220 
 SPBC HZ I         633  9.64         7.1 0.12            131            163 220 
 ZAR  HZ EP        632 47.31                             123   -0.72 8  206 292 
 ZAR  HE ES        633 13.22                             123   -0.50 8  206 292 
 ZAR  HZ I         633 18.76         5.1 0.46            123            206 292 
 NOR  HZ EP        632 51.03                             119   -0.08 8  235 235 
 NOR  HE ES        633 20.12                             119    0.92 8  235 235 
 NOR  HZ I         633 27.25         4.6 0.30            120            235 235 
 CHI  HZ EP        632 53.32                             118    0.40 8  247 196 
 CHI  HN ES   4    633 23.67                             118    1.24 0  247 196 
 CHI  HZ I         633 30.32         1.9 0.56            120            247 196 
                                                                                
