 2014  118 0228 12.6 L   6.802 -73.142152.0  RSN 11 0.4 2.0LRSN                1
 GAP= 71        0.92       3.2     3.7  5.7  0.4237E+00  0.1708E+01  0.2428E+01E
 Epicentro: LOS SANTOS - SANTANDER                                             3
 ACTION:UPD 14-03-13 09:56 OP:ep   STATUS:               ID:20140118022812 L   I
 OLDACT:REG 14-01-18 10:14 OP:cam  STATUS:               ID:20140118022000     3
 2014-01-18-0220-00M.COL___285                                                 6
 STAT SP IPHASW D HRMM SECON CODA AMPLIT PERI AZIMU VELO AIN AR TRES W  DIS CAZ7
 BAR2 SZ EP   1    228 32.53                             171   -0.48 7 23.6 191 
 BAR2 SZ ES   1    228 48.84                             171   -0.07 7 23.6 191 
 BAR2 SZ I         228 49.78        23.3 0.18            171           23.6 191 
 BRR  HZ EP   1    228 34.81                             154    0.34 7 71.5 298 
 BRR  HE ES        228 52.38                             154    0.8810 71.5 298 
 BRR  HZ I         228 57.73         9.7 0.18            154           71.5 298 
 PAM  SZ EP        228 35.64                             152    0.1510 77.0  39 
 PAM  SN ES        228 53.34                             152    0.0210 77.0  39 
 PAM  SZ I         228 54.92        12.9 0.56            155           77.0  39 
 RUS  HZ EP   1    228 37.07                             145    0.06 7  101 176 
 RUS  HE ES   1    228 55.67                             145   -0.35 7  101 176 
 RUS  HZ I         228 58.14         8.4 0.32            147            101 176 
 PTB  HZ EP        228 40.30                             134    0.15 9  148 259 
 PTB  HN ES   1    229  0.91                             134   -0.71 7  148 259 
 PTB  HZ I         229  2.62        14.9 0.10            135            148 259 
 TAM  HZ IP     C  228 40.86                             132    0.08 9  155 105 
 ZAR  HE ES        229 11.19                             124    0.02 9  204 292 
 NOR  HZ EP   2    228 48.87                             120    0.10 4  235 234 
 NOR  HE ES   1    229 17.26                             120    0.29 6  235 234 
 NOR  HZ I         229 20.88         6.4 0.18            122            235 234 
 SML  HZ EP        228 49.31                             119   -0.30 8  244 335 
 SML  HN ES        229 17.63                             119   -0.83 8  244 335 
 SML  HZ I         229 20.68        16.8 0.10            121            244 335 
 CHI  HZ EP        228 50.86                             119    0.15 8  249 195 
 CHI  HN ES        229 19.98                             119   -0.43 8  249 195 
 GUY2CHZ EP   2    228 57.63                             114    1.05 4  302 235 
 GUY2CHZ I         229 38.28         3.9 0.58                           302 235 
                                                                                
