 2017  918 0736 55.9 L   6.794 -73.147145.1  RSN  5 0.3 1.5LRSN                1
 GAP=237        0.70       4.1     4.7  5.1  0.8795E+01  0.8392E+01  0.2502E+01E
 Epicentro: LOS SANTOS - SANTANDER                                             3
 ACTION:UPD 17-10-05 19:13 OP:rebc STATUS:               ID:20170918073655 L   I
 OLDACT:UP  17-09-18 16:14 OP:leo  STATUS:               ID:20170918072743d    3
 OLDACT:UP  17-09-18 16:10 OP:leo  STATUS:               ID:20170918072743d    3
 OLDACT:DUP 17-09-18 16:02 OP:leo  STATUS:               ID:20170918072743d    3
 OLDACT:UP  17-09-18 15:55 OP:leo  STATUS:               ID:20170918072742     3
 OLDACT:UP  17-09-18 15:53 OP:leo  STATUS:               ID:20170918072742     3
 OLDACT:UP  17-09-18 15:51 OP:leo  STATUS:               ID:20170918072742     3
 OLDACT:REG 17-09-18 13:52 OP:leo  STATUS:               ID:20170918072742     3
 2017-09-18-0728-00M.COL___423                                                 6
 STAT SP IPHASW D HRMM SECON CODA AMPLIT PERI AZIMU VELO AIN AR TRES W  DIS CAZ7
 BAR2 HZ EP        737 15.11                             171   -0.3310 22.7 190 
 BAR2 HZ ES        737 30.65                             171   -0.0310 22.7 190 
 BAR2 HZ I         737 30.97         8.0 0.24            166           22.7 190 
 BRR  HZ EP     C  737 16.80                             152   -0.1910 71.4 299 
 BRR  HN ES        737 33.85                             152    0.4210 71.4 299 
 BRR  HZ I         737 37.69         7.4 0.32            149           71.4 299 
 RUS  HZ EP        737 19.74                             144    0.2010100.0 176 
 RUS  HN ES        737 37.89                             144   -0.0910100.0 176 
 RUS  HZ I         737 39.23         2.7 0.30            144          100.0 176 
 ZAR  HZ EP        737 28.37                             122    0.06 9  204 292 
 ZAR  HN ES        737 53.28                             122   -0.31 9  204 292 
 ZAR  HZ I         737 58.48         5.3 0.34            122            204 292 
 NOR  HZ EP        737 32.05                             118    0.51 8  234 235 
 NOR  HN ES        737 59.13                             118   -0.21 8  234 235 
 NOR  HZ I         738  5.50         2.6 0.34            118            234 235 
                                                                                
