 2012  418 0448 11.1 L   6.754 -73.132143.6  RSN  9 0.4 2.4LRSN                1
 GAP=140        0.85       3.4     5.6  6.3  0.7867E+00  0.1128E+02  0.1138E+01E
 Epicentro: LOS SANTOS - SANTANDER                                             3
 ACTION:UPD 12-07-05 11:54 OP:tino STATUS:               ID:20120418044811 L   I
 2012-04-18-0440-00M.COL___187                                                 6
 STAT SP IPHASW D HRMM SECON CODA AMPLIT PERI AZIMU VELO AIN AR TRES W  DIS CAZ7
 BAR2 SZ EP   1    448 30.62                             172     0.2 7   19 197 
 BAR2 SZ ES   1    448 44.87                             172    -0.6 7   19 197 
 BAR2 SZ I         448 47.54        51.1 0.21                            19 197 
 BRR  HZ EP   1    448 32.63                             151     0.4 7   75 301 
 BRR  HZ I         448 32.99        96.0 0.09                            75 301 
 BRR  HN ES   1    448 49.53                             151     0.8 7   75 301 
 PAM  SZ EP   1    448 33.60                             149     0.3 7   80  36 
 PAM  SZ I         448 33.88        24.6 0.20                            80  36 
 PAM  SN ES   1    448 50.22                             149    -0.4 7   80  36 
 RUS  HZ EP   1    448 34.46                             145     0.2 7   95 177 
 RUS  HN ES        448 52.40                             145     0.110   95 177 
 RUS  HZ I         448 54.20        33.0 0.34                            95 177 
 OCA  SZ EP   1    448 39.48                             128    -0.3 7  166 353 
 OCA  SZ ES   1    449  2.05                             128     0.0 7  166 353 
 ZAR  HZ EP   1    448 43.48                             121    -0.3 6  207 293 
 ZAR  HN ES   1    449  8.68                             121    -0.6 6  207 293 
 ZAR  HZ I         449 14.89        36.8 0.37                           207 293 
 NOR  SZ EP   1    448 46.69                             118     0.2 6  233 236 
 NOR  SN ES   2    449 14.03                             118    -0.1 4  233 236 
 CHI  HZ EP   1    448 47.46                             117    -0.7 6  244 196 
 CHI  HN ES   2    449 16.90                             117    -0.2 4  244 196 
 PRA  HZ EP   1    449  4.67                             106     0.5 4  388 210 
                                                                                
