 2014 1018 0543 38.6 L   6.661 -73.465122.3  RSN  4 0.5 1.8LRSN                1
 GAP=197        0.97       7.4     7.6 11.5  0.1108E+01  0.5268E+02 -0.3045E+02E
 Epicentro: EL CARMEN - SANTANDER                                              3
 ACTION:UPD 14-11-29 23:50 OP:nd   STATUS:               ID:20141018054338 L   I
 OLDACT:DUP 14-10-18 16:56 OP:mher STATUS:               ID:20141018053741d    3
 2014-10-18-0537-40M.COL___277                                                 6
 STAT SP IPHASW D HRMM SECON CODA AMPLIT PERI AZIMU VELO AIN AR TRES W  DIS CAZ7
 BAR2 SZ EP   1    543 56.35                             165    0.71 7 32.2 104 
 BAR2 SZ ES        544  8.55                             165   -0.4010 32.2 104 
 BAR2 SZ I         544  9.69        46.4 0.24             47           32.2 104 
 OCA  HN ES        544 28.78                             121    0.11 9  175   5 
 ZAR  HZ EP        544  7.04                             120    0.10 9  179 301 
 ZAR  HN ES        544 29.32                             120    0.25 9  179 301 
 ZAR  HZ I         544 31.11         3.5 0.40             47            179 301 
 MON  HZ EP        544 23.99                             105   -0.83 7  337 314 
 MON  HZ I         545  1.62         1.5 0.24             36            337 314 
                                                                                
