 2012  718 0436 42.4 L   6.710 -73.202151.6  RSN  5 0.2 1.6LRSN                1
 GAP=223        0.43       4.5     4.1  4.3  0.9898E+01  0.3456E+01  0.1085E+01E
 Epicentro: VILLANUEVA - SANTANDER                                             3
 ACTION:UPD 12-08-14 11:45 OP:ep   STATUS:               ID:20120718043642 L   I
 2012-07-18-0430-00M.COL___197                                                 6
 STAT SP IPHASW D HRMM SECON CODA AMPLIT PERI AZIMU VELO AIN AR TRES W  DIS CAZ7
 BAR2 SZ EP   1    437  2.28                             175    -0.3 8   13 171 
 BAR2 SZ ES   1    437 18.27                             175     0.0 8   13 171 
 BAR2 SZ I         437 19.82        11.8 0.28            176             13 171 
 BRR  HZ EP   1    437  4.13                             153     0.0 8   71 308 
 BRR  HN ES   1    437 21.31                             153     0.1 8   71 308 
 BRR  HZ I         437 25.71        10.0 0.20            153             71 308 
 RUS  HZ EP   1    437  6.38                             148     0.3 8   91 172 
 RUS  HN ES   1    437 24.47                             148    -0.1 8   91 172 
 RUS  HZ I         437 26.17         4.4 0.38            152             91 172 
 PTB  HZ EP        437  9.09                             135     0.010  140 262 
 PTB  HN ES   1    437 29.99                             135     0.0 7  140 262 
 PTB  HZ I         437 32.77         3.9 0.13            137            140 262 
 ZAR  HN ES   2    437 40.49                             124     0.0 5  202 295 
