 2011  518 0413  6.9 L   6.770 -73.133142.1  RSN 19 0.3 3.7LRSN                1
 GAP=140        0.60       2.5     3.5  3.7 -0.4544E+01  0.2566E+01  0.1445E+01E
 Epicentro: LOS SANTOS - SANTANDER                                             3
 ACTION:UP  11-06-29 08:54 OP:tino STATUS:               ID:20110518041307 L   I
 2011-05-18-0411-32S.COL___141                                                 6
 STAT SP IPHASW D HRMM SECON CODA AMPLIT PERI AZIMU VELO SNR AR TRES W  DIS CAZ7
 BAR2 SZ EP        413 26.07                             171     0.010   20 196 
 BAR2 SZ ES   1    413 40.77                             171    -0.2 7   20 196 
 BAR2 SZ I         413 42.40      1593.0 0.35                            20 196 
 BTL  SZ EP        413 26.32                             171     0.210   22 318 
 BTL  SZ ES   2    413 41.49                             171     0.4 5   22 318 
 BRR  HZ IP     C  413 27.97                             151     0.110   74 300 
 BRR  HE ES   1    413 44.22                             151     0.0 7   74 300 
 BRR  HZ I         413 49.54       881.6 0.19                            74 300 
 PAM  SZ IP        413 28.96                             150     0.110   79  37 
 PAM  SE ES   2    413 45.53                             150    -0.4 5   79  37 
 RUS  HZ IP     D  413 29.98                             144    -0.110   97 177 
 RUS  HN ES   2    413 47.98                             144    -0.2 5   97 177 
 RUS  HZ I         413 49.64       597.8 0.47                            97 177 
 BRI  SZ IP        413 30.77                             140     0.110  111  19 
 BRI  SZ I         413 51.26       892.4 0.78                           111  19 
 GUE  SZ EP   1    413 32.29                             138     0.7 7  119  11 
 GRA  SZ IP        413 32.04                             135    -0.110  129  16 
 GRA  SZ ES   1    413 51.51                             135    -0.2 7  129  16 
 GRA  SZ I         413 53.99       690.7 0.28                           129  16 
 OCA  SZ EP   1    413 34.94                             128    -0.4 7  164 353 
 OCA  SZ ES   2    413 56.85                             128    -0.6 5  164 353 
 OCA  SZ I         414  0.69       920.4 0.37                           164 353 
 NOR  SZ EP   1    413 42.21                             118    -0.2 6  234 235 
 NOR  SN ES   2    414  9.97                             118     0.0 4  234 235 
 HEL  HZ EP   1    413 46.56                             114    -0.5 6  273 257 
 HEL  HN ES   2    414 17.82                             114    -0.5 4  273 257 
 HEL  HZ I         414 25.36       202.4 0.47                           273 257 
 VIL  SZ EP   1    413 49.39                             112    -0.5 5  300 192 
 VIL  SN ES   2    414 24.02                             112     0.7 4  300 192 
 VIL  SZ I         414 32.65       202.0 0.48                           300 192 
 GUY  SZ EP   1    413 50.54                             112     0.0 5  303 236 
 GUY  SE ES   2    414 25.04                             112     0.5 4  303 236 
 GUY  SZ I         414 30.68       314.2 0.51                           303 236 
 RREF HZ EP   1    413 52.82                             110     0.0 5  321 230 
 RREF HN ES   2    414 29.00                             110     0.4 3  321 230 
 RREF HZ I         414 36.35       253.6 0.47                           321 230 
 DBB  SZ EP   1    413 54.59                             109     0.1 5  341 275 
 TOL  SZ EP   1    413 55.52                             109     0.6 5  342 225 
 TOL  SZ ES   2    414 32.39                             109     0.1 3  342 225 
 ANIL HZ EP   1    413 56.51                             108     0.1 5  356 225 
 ANIL HN ES   1    414 34.86                             108    -0.2 5  356 225 
 PRA  HZ EP   2    413 59.70                             106    -0.4 3  390 210 
 SJA  SZ EP   2    414  0.08                             106    -0.9 3  397 193 
 SJA  SZ I         414 52.71       274.6 0.32                           397 193 
                                                                                
