 2012  918 0618 50.0 L   6.703 -73.141146.7  RSN  4 0.4 1.5LRSN                1
 GAP=208        0.89      12.8     8.6 10.1  0.5474E+00  0.5332E+01  0.2326E+02E
 Epicentro: VILLANUEVA - SANTANDER                                             3
 ACTION:UPD 12-10-22 14:19 OP:ep   STATUS:               ID:20120918061850 L   I
 2012-09-18-0610-00M.COL___227                                                 6
 STAT SP IPHASW D HRMM SECON CODA AMPLIT PERI AZIMU VELO AIN AR TRES W  DIS CAZ7
 BAR2 SZ EP   1    619  9.67                             175    0.11 7 13.0 200 
 BAR2 SZ ES   1    619 25.08                             175    0.25 7 13.0 200 
 BAR2 SZ I         619 25.74         8.8 0.20                          13.0 200 
 GIR2 SZ EP   2    619  9.67                             163   -0.43 5 42.0 352 
 GIR2 SZ ES   1    619 25.02                             163   -0.77 7 42.0 352 
 BRR  HZ EP        619 11.75                             150    0.1610 77.3 305 
 BRR  HN ES        619 28.88                             150    0.4410 77.3 305 
 BRR  HZ I         619 31.83         5.3 0.36                          77.3 305 
 PTB  HE ES   1    619 37.38                             132   -0.54 7  147 263 
                                                                                
