 2017  218 0811 40.2 L   6.772 -73.161143.1  RSN  8 0.3 1.3LRSN                1
 GAP=136        0.70       2.6     3.6  4.5  0.1045E+01  0.6293E+01  0.2639E+01E
 Epicentro: LOS SANTOS - SANTANDER                                             3
 ACTION:UPD 17-05-24 15:37 OP:jn   STATUS:               ID:20170218081140 L   I
 OLDACT:REG 17-02-18 13:52 OP:cara STATUS:               ID:20170218080748     3
 2017-02-18-0808-00M.COL___345                                                 6
 STAT SP IPHASW D HRMM SECON CODA AMPLIT PERI AZIMU VELO AIN AR TRES W  DIS CAZ7
 BAR2 EZ EP        811 59.49                             172    0.0510 20.0 187 
 BAR2 EZ ES        812 14.06                             172   -0.3910 20.0 187 
 BAR2 EZ I         812 17.18         4.8 0.30            167           20.0 187 
 BRR  HZ EP        812  1.15                             152    0.0910 71.3 301 
 BRR  HN ES        812 17.85                             152    0.5210 71.3 301 
 BRR  HZ I         812 21.61         2.9 0.66            144           71.3 301 
 PAM  EZ EP        812  2.39                             149    0.0510 80.9  39 
 PAM  EN ES        812 19.37                             149   -0.2410 80.9  39 
 PAM  EZ I         812 21.54         4.3 0.52            150           80.9  39 
 RUS  HZ EP        812  3.82                             144    0.3510 97.6 175 
 RUS  HN ES        812 21.73                             144    0.1110 97.6 175 
 RUS  HZ I         812 23.22         2.3 0.28            141           97.6 175 
 PTB  HZ EP        812  6.24                             132   -0.50 9  145 260 
 PTB  HZ I         812 32.24         2.0 0.12            125            145 260 
 ZAR  HZ EP        812 12.53                             122    0.10 9  204 293 
 ZAR  HN ES        812 37.41                             122   -0.16 9  204 293 
 ZAR  HZ I         812 43.44         2.3 0.28            117            204 293 
 CHI  HZ EP   4    812 17.88                             117    0.51 0  245 195 
 CHI  HN ES        812 46.29                             117   -0.07 8  245 195 
 CHI  HZ I         812 52.48         0.8 0.32            113            245 195 
 PRA  HZ EP        812 33.20                             106   -0.00 6  388 210 
 PRA  HE ES        813 14.49                             106   -0.06 6  388 210 
 PRA  HZ I         813 21.54         1.3 0.50            103            388 210 
                                                                                
