 2010 1018 0049 41.2 L   6.763 -73.078146.0  RSN  4 0.2 1.7LRSN                1
 GAP=242        0.44       4.7    10.4  7.4  0.2719E+02 -0.2429E+02  0.9497E+00E
 Epicentro: LOS SANTOS - SANTANDER                                             3
 ACTION:UP  11-02-18 11:10 OP:tino STATUS:               ID:20101018004941 L   I
 2010-10-18-0040-00M.COL___113                                                 6
 STAT SP IPHASW D HRMM SECON CODA AMPLIT PERI AZIMU VELO SNR AR TRES W  DIS CAZ7
 BAR2 SZ EP   1    050  0.97                             171     0.2 7   22 212 
 BAR2 SZ I         050 17.48        15.1 0.19                            22 212 
 BRR  HZ IP     C  050  2.65                             150    -0.210   80 299 
 BRR  HZ I         050  2.91        25.4 0.23                            80 299 
 BRR  HE ES   1    050 19.93                             150     0.2 7   80 299 
 RUS  HZ EP   2    050  4.67                             145     0.0 5   96 180 
 RUS  HN ES   2    050 22.85                             145    -0.1 5   96 180 
 RUS  HZ I         050 24.60         3.9 0.28                            96 180 
 CHI  HZ EP   2    050 18.92                             118     0.2 4  247 197 
 CHI  HN ES   2    050 47.82                             118    -0.1 4  247 197 
 CHI  HZ I         050 57.68         2.1 0.62                           247 197 
                                                                                
