 2017  818 0204 53.2 L   6.803 -73.130140.1  RSN  6 0.3 1.6LRSN                1
 GAP=138        0.88       4.0     4.2  6.2  0.8562E+00  0.9212E+01  0.7842E+00E
 Epicentro: LOS SANTOS - SANTANDER                                             3
 ACTION:UPD 17-09-04 20:21 OP:rebc STATUS:               ID:20170818020453 L   I
 OLDACT:REG 17-08-18 13:00 OP:lv   STATUS:               ID:20170818015737     3
 2017-08-18-0158-00M.COL___404                                                 6
 STAT SP IPHASW D HRMM SECON CODA AMPLIT PERI AZIMU VELO AIN AR TRES W  DIS CAZ7
 BAR2 EZ EP        2 5 11.91                             170   -0.2110 24.0 194 
 BAR2 EZ ES        2 5 26.46                             170   -0.4410 24.0 194 
 BAR2 EZ I         2 5 27.72         8.1 0.14            172           24.0 194 
 BRR  HZ EP        2 5 13.85                             151    0.0710 72.6 298 
 BRR  HN ES        2 5 30.45                             151    0.6010 72.6 298 
 BRR  HZ I         2 5 36.23         9.1 0.13            150           72.6 298 
 PAM  EZ IP     C  2 5 14.93                             150    0.2410 76.1  39 
 PAM  EE ES        2 5 31.56                             150    0.0810 76.1  39 
 PAM  EZ I         2 5 34.11         6.2 0.52            152           76.1  39 
 RUS  HZ EP        2 5 16.36                             142   -0.0110  101 177 
 RUS  HN ES        2 5 34.43                             142   -0.0410  101 177 
 ZAR  HZ EP        2 5 25.26                             121   -0.14 8  206 292 
 ZAR  HN ES        2 5 49.89                             121   -0.65 8  206 292 
 ZAR  HZ I         2 5 53.12         5.6 0.10            123            206 292 
 GUY2CHZ EP   4    2 5 38.86                             111    2.17 0  303 235 
 GUY2CHN ES        2 6 11.20                             111    0.56 7  303 235 
 GUY2CHZ I         2 6 17.32         1.9 0.28                           303 235 
 PTGC HN ES   4    2 6  8.76                             110   -1.95 0  308 159 
                                                                                
