 2010  618 0831 56.9 L   6.765 -73.059137.4  RSN  5 0.4 1.3LRSN                1
 GAP=203        0.90       7.3    11.6  9.3 -0.3230E+02 -0.3833E+02  0.1561E+01E
 Epicentro: LOS SANTOS - SANTANDER                                             3
 ACTION:UP  10-08-24 10:11 OP:vdl  STATUS:               ID:20100618083156 L   I
 2010-06-18-0830-24S.COL___115                                                 6
 STAT SP IPHASW D HRMM SECON CODA AMPLIT PERI AZIMU VELO SNR AR TRES W  DIS CAZ7
 BAR2 SZ EP        832 15.59                             170     0.010   24 216 
 BAR2 SZ ES   1    832 30.00                             170    -0.1 7   24 216 
 BRR  HZ EP   1    832 17.37                             148    -0.5 7   82 298 
 BRR  HN ES   1    832 34.12                             148     0.0 7   82 298 
 BRR  HZ I         832 37.56         4.0 0.18                            82 298 
 BTN  SZ EP        832 18.65                             147     0.210   84 357 
 BTN  SZ ES   1    832 35.71                             147     0.5 7   84 357 
 GUE  SZ EP   2    832 22.24                             137     1.2 5  119   7 
 GRA  SZ EP        832 21.33                             135    -0.210  127  13 
 GRA  SZ ES   1    832 40.10                             135    -0.6 7  127  13 
                                                                                
