 2013  118 0455 55.4 L   6.804 -73.167137.7  RSN  8 0.3 1.6LRSN                1
 GAP=134        0.56       2.5     3.4  5.4  0.5545E-02  0.5656E+01  0.1762E+01E
 Epicentro: LOS SANTOS - SANTANDER                                             3
 ACTION:UPD 13-02-15 09:15 OP:ep   STATUS:               ID:20130118045556dL   I
 2013-01-18-0450-00M.COL___241                                                 6
 STAT SP IPHASW D HRMM SECON CODA AMPLIT PERI AZIMU VELO AIN AR TRES W  DIS CAZ7
 BAR2 SZ EP   1    456 14.16                             170    0.09 7 23.5 184 
 BAR2 SZ ES   1    456 28.67                             170    0.04 7 23.5 184 
 BRR  HZ EP   1    456 16.06                             152    0.50 7 68.9 299 
 BRR  HE ES   4    456 32.88                             152    1.60 0 68.9 299 
 BRR  HZ I         456 35.94        12.5 0.44            149           68.9 299 
 PAM  SZ EP   1    456 17.05                             149    0.21 7 78.5  41 
 PAM  SN ES   1    456 33.43                             149   -0.13 7 78.5  41 
 PAM  SZ I         456 36.10        10.1 0.46            155           78.5  41 
 RUS  HZ EP   1    456 18.24                             142   -0.18 7  101 175 
 RUS  HN ES   1    456 36.31                             142   -0.07 7  101 175 
 RUS  HZ I         456 38.73         3.1 0.34            144            101 175 
 PTB  HZ EP   1    456 20.87                             131   -0.65 7  146 258 
 PTB  HN ES   1    456 41.79                             131   -0.11 7  146 258 
 PTB  HZ I         456 45.56         5.4 0.22            130            146 258 
 OCA  HN ES   1    456 44.42                             128   -0.16 7  160 354 
 ZAR  HN ES   1    456 52.04                             121    0.23 6  202 292 
 ZAR  HZ I         457  0.81         6.0 0.13            122            202 292 
 CHI  HZ EP   1    456 32.61                             115   -0.04 6  249 195 
 CHI  HN ES   1    457  2.04                             115    0.33 6  249 195 
 CHI  HZ I         457  8.36         1.3 0.30            118            249 195 
                                                                                
