 2010 1018 0804 18.0 L   6.796 -73.105148.9  RSN  4 0.1 1.3LRSN                1
 GAP=187        0.34       7.2    14.0 10.0  0.8303E+02 -0.9874E+02 -0.5229E+02E
 Epicentro: LOS SANTOS - SANTANDER                                             3
 ACTION:UP  11-02-18 11:10 OP:tino STATUS:               ID:20101018080418 L   I
 2010-10-18-0802-00S.COL___120                                                 6
 STAT SP IPHASW D HRMM SECON CODA AMPLIT PERI AZIMU VELO SNR AR TRES W  DIS CAZ7
 BAR2 SZ EP   2    8 4 37.82                             170    -0.2 5   24 201 
 BAR2 SZ I         8 4 55.46         4.7 0.18                            24 201 
 BRR  HZ EP        8 4 39.68                             152     0.010   75 297 
 BRR  HE ES   2    8 4 56.73                             152     0.1 5   75 297 
 BRR  HZ I         8 4 58.73         4.7 0.39                            75 297 
 RUS  HZ EP   2    8 4 42.15                             145     0.2 5  100 179 
 RUS  HN ES   2    8 5  0.72                             145     0.0 5  100 179 
 RUS  HZ I         8 5  1.61         1.3 0.12                           100 179 
 OCA  SZ EP   2    8 4 46.73                             130     0.1 5  161 352 
 OCA  SZ I         8 5 10.77         2.9 0.56                           161 352 
                                                                                
