 2017  818 0250 54.1 L   6.754 -73.078142.0  RSN  7 0.4 1.5LRSN                1
 GAP=220        0.78       4.2     4.7  5.4  0.5994E+01  0.2786E+01  0.1005E+02E
 Epicentro: LOS SANTOS - SANTANDER                                             3
 ACTION:UPD 17-09-04 20:21 OP:rebc STATUS:               ID:20170818025054 L   I
 OLDACT:UP  17-08-18 15:34 OP:lv   STATUS:               ID:20170818024744     3
 OLDACT:REG 17-08-18 13:07 OP:lv   STATUS:               ID:20170818024744     3
 2017-08-18-0248-00M.COL___407                                                 6
 STAT SP IPHASW D HRMM SECON CODA AMPLIT PERI AZIMU VELO AIN AR TRES W  DIS CAZ7
 BAR2 EZ EP        251 13.39                             171    0.1710 21.2 213 
 BAR2 EZ ES        251 28.04                             171   -0.1110 21.2 213 
 BAR2 EZ I         251 29.50         9.3 0.26            168           21.2 213 
 BRR  HZ IP     D  251 15.12                             149   -0.2510 80.2 299 
 BRR  HE ES        251 31.80                             149   -0.1810 80.2 299 
 BRR  HZ I         251 35.23         6.8 0.32            149           80.2 299 
 RUS  HZ EP        251 17.60                             145    0.5210 95.2 180 
 RUS  HN ES        251 35.29                             145    0.2710 95.2 180 
 RUS  HZ I         251 37.04         2.2 0.26            145           95.2 180 
 NOR  HZ ES        251 57.87                             117   -0.05 8  238 237 
 PTGC HZ EP        251 36.45                             111   -0.48 7  301 160 
 PTGC HN ES        252  9.97                             111   -0.37 7  301 160 
 GUY2CHZ EP   2    251 38.75                             111    0.86 4  304 236 
 GUY2CHN ES   2    252 12.34                             111    0.29 4  304 236 
 GUY2CHZ I         252 18.79         1.5 0.29                           304 236 
 PRA  HZ EP        251 47.85                             106    0.45 6  391 211 
 PRA  HE ES        252 28.21                             106   -0.77 6  391 211 
 PRA  HZ I         252 35.07         1.5 0.26            107            391 211 
                                                                                
