 2016 1118 0418 14.0 L   6.824 -73.151144.4  RSN 16 0.5 2.0LRSN                1
 GAP= 82        1.10       4.4     3.5  5.7 -0.1375E+01  0.5346E+01  0.7440E+01E
 Epicentro: LOS SANTOS - SANTANDER                                             3
 ACTION:UPD 17-10-26 21:09 OP:lp   STATUS:               ID:20161118041814 L   I
 OLDACT:UP  16-11-18 15:01 OP:and  STATUS:               ID:20161118040741     3
 OLDACT:UP  16-11-18 15:00 OP:and  STATUS:               ID:20161118040741     3
 OLDACT:UP  16-11-18 14:57 OP:and  STATUS:               ID:20161118040741     3
 OLDACT:UP  16-11-18 14:55 OP:and  STATUS:               ID:20161118040741     3
 OLDACT:UP  16-11-18 14:53 OP:and  STATUS:               ID:20161118040741     3
 OLDACT:REG 16-11-18 12:39 OP:and  STATUS:               ID:20161118040741     3
 2016-11-18-0408-00M.COL___343                                                 6
 STAT SP IPHASW D HRMM SECON CODA AMPLIT PERI AZIMU VELO AIN AR TRES W  DIS CAZ7
 BAR2 EZ EP        418 33.35                             169   -0.1710 25.8 188 
 BAR2 EZ ES        418 48.03                             169   -0.7210 25.8 188 
 BAR2 EZ I         418 49.44        55.5 0.16            166           25.8 188 
 BRR  HZ EP        418 35.30                             153    0.4010 69.5 297 
 BRR  HN ES        418 52.11                             153    0.9010 69.5 297 
 BRR  HZ I         418 56.65        24.4 0.10            154           69.5 297 
 PAM  EZ EP     D  418 36.19                             151    0.2210 75.7  41 
 PAM  EN ES        418 53.15                             151    0.0410 75.7  41 
 PAM  EZ I         418 55.30        24.4 0.52            156           75.7  41 
 PTB  HZ EP        418 40.09                             132   -0.76 9  148 258 
 PTB  HN ES        419  1.08                             132   -0.72 9  148 258 
 PTB  HZ I         419  3.61        18.7 0.24            132            148 258 
 TAM  HZ IP     D  418 41.69                             130    0.01 9  156 106 
 TAM  HN ES        419  3.13                             130   -0.15 9  156 106 
 ZAR  HZ EP        418 46.37                             122    0.17 9  203 292 
 ZAR  HN ES   3    419 12.27                             122    0.96 2  203 292 
 ZAR  HZ I         419 18.00         9.1 0.16            124            203 292 
 NOR  HZ EP        418 50.57                             118    0.81 8  236 234 
 CHI  HZ EP        418 51.72                             116   -0.16 8  251 195 
 CHI  HN ES        419 22.02                             116    0.59 8  251 195 
 CHI  HZ I         419 31.22         3.8 0.33            117            251 195 
 URE  HZ EP        418 55.01                             113    0.18 7  282 291 
 URE  HN ES   4    419 25.17                             113   -1.51 0  282 291 
 PTGC HZ EP   4    418 56.62                             111   -1.47 0  311 159 
 PTGC HN ES   4    419 29.84                             111   -2.65 0  311 159 
 PTGC HZ I         419 41.12         5.5 0.44            112            311 159 
 LL6C HZ EP   9    418 38.98                             110   -20.4 0  322 358 
 LL6C HN ES   4    419 15.73                                    1.38 0  322 358 
 CBOC HZ EP   4    419  2.29                             109    1.41 0  334 252 
 CBOC HN ES        419 37.05                             109   -0.41 7  334 252 
 CBOC HZ I         419 39.35         2.2 0.40            110            334 252 
 PRA  HZ EP        419  7.36                             106   -0.34 6  394 209 
 PRA  HN ES        419 50.10                             106    0.50 6  394 209 
 PRA  HZ I         419 54.57         3.4 0.32            107            394 209 
 ORTC HZ EP        419  8.45                             106    0.37 6  397 216 
 ORTC HN ES   4    419 52.40                             106    2.14 0  397 216 
 ORTC HZ I         419 56.48         2.2 0.30            107            397 216 
 PAL  HZ EP        419  9.39                             105    0.18 6  407 239 
 PAL  HN ES        419 52.03                             105   -0.25 6  407 239 
 PAL  HZ I         419 58.22         3.2 0.30            106            407 239 
 SJC  HZ EP        419  8.32                             105   -0.89 6  407 327 
 SJC  HN ES   4    419 49.61                             105   -2.68 0  407 327 
 SJC  HZ I         419 53.67         2.6 0.36            107            407 327 
 CRJC HZ IP   3 C  419 14.25                             103   -1.90 1  465   4 
 URI  HZ EP   4    419 24.23                             100   -2.44 0  554  13 
                                                                                
