 2016  318 0452 55.4 L   6.918 -72.967120.3  RSN  4 0.3 1.4LRSN                1
 GAP=259        0.56       5.9     5.7  9.9  0.2355E+02 -0.7818E+01 -0.2587E+02E
 Epicentro: SANTA BARBARA - SANTANDER                                          3
 ACTION:UPD 16-05-13 21:25 OP:cam  STATUS:               ID:20160318045255 L   I
 OLDACT:REG 16-03-18 13:03 OP:dnl  STATUS:               ID:20160318044748     3
 2016-03-18-0447-48M.COL___309                                                 6
 STAT SP IPHASW D HRMM SECON CODA AMPLIT PERI AZIMU VELO AIN AR TRES W  DIS CAZ7
 RUS  HZ EP   2    453 17.23                             134   -0.67 5  114 186 
 RUS  HE ES        453 35.56                             134    0.1210  114 186 
 RUS  HZ I         453 39.21         1.9 0.27            137            114 186 
 PTB  HN EP   2    453 23.04                             121    0.36 5  170 256 
 PTB  HE ES        453 43.63                             121   -0.32 9  170 256 
 PTB  HN I         453 44.27         4.5 0.20            124            170 256 
 SPBC HZ EP        453 24.57                             119    0.11 9  186 221 
 SPBC HN ES        453 47.22                             119    0.09 9  186 221 
 SPBC HZ I         453 53.61         4.6 0.26            122            186 221 
 ZAR  HN ES        453 53.37                             114    0.13 8  218 287 
 ZAR  HZ I         454  0.15         2.3 0.29            117            218 287 
                                                                                
