 2010  618 0636 32.7 L   6.533 -73.557113.4  RSN  8 0.3 1.4LRSN                1
 GAP=160        0.66       3.4     7.0  5.5  0.5877E+01  0.6462E+00 -0.5691E+01E
 Epicentro: EL CARMEN DE CHUCURI - SANTANDER                                   3
 ACTION:UP  10-08-24 10:11 OP:vdl  STATUS:               ID:20100618063632 L   I
 2010-06-18-0632-59S.COL___115                                                 6
 STAT SP IPHASW D HRMM SECON CODA AMPLIT PERI AZIMU VELO SNR AR TRES W  DIS CAZ7
 BAR2 SZ EP        636 49.19                             158     0.010   42  81 
 BAR2 SZ ES   1    637  1.95                             158     0.0 7   42  81 
 BRR  HZ EP        636 50.03                             148    -0.110   66 345 
 BRR  HZ I         636 57.64        11.6 0.10                            66 345 
 BRR  HN ES   1    637  3.84                             148     0.1 7   66 345 
 RUS  HZ EP   1    636 52.35                             140    -0.1 7   88 143 
 RUS  HE ES   1    637  7.74                             140    -0.1 7   88 143 
 RUS  HZ I         637  7.74         1.5 0.19                            88 143 
 BRI  SZ EP   1    636 59.01                             122     0.7 7  155  33 
 BRI  SZ ES   2    637 17.60                             122    -0.6 5  155  33 
 GUE  SZ IP        636 59.03                             121     0.1 9  160  26 
 GRA  SZ EP   1    636 59.95                             119     0.1 7  171  29 
 OCA  SZ EP        637  1.59                             116    -0.4 9  190   8 
 OCA  SZ I         637 29.29         6.0 0.29                           190   8 
 CHI  HE ES   2    637 29.66                             113     0.1 4  211 185 
 CHI  HZ I         637 40.39         2.5 0.80                           211 185 
                                                                                
