 2012 1118 0739 25.4 L   6.776 -73.155142.8  RSN  8 0.4 1.6LRSN                1
 GAP=136        0.81       4.4     4.7  6.8  0.2210E+01  0.7229E+01 -0.9409E+00E
 Epicentro: LOS SANTOS - SANTANDER                                             3
 ACTION:UPD 12-12-05 15:34 OP:}ep  STATUS:               ID:20121118073925 L   I
 2012-11-18-0738-06M.COL___208                                                 6
 STAT SP IPHASW D HRMM SECON CODA AMPLIT PERI AZIMU VELO AIN AR TRES W  DIS CAZ7
 BAR2 SZ EP   1    739 44.63                             171    0.05 7 20.6 188 
 BAR2 SZ ES   1    739 59.24                             171   -0.33 7 20.6 188 
 BAR2 SZ I         740  0.29        10.5 0.24                          20.6 188 
 GIR2 SZ EP   1    739 44.78                             166    0.03 7 33.7 353 
 GIR2 SZ ES   1    739 59.85                             166   -0.02 7 33.7 353 
 BRR  HZ EP   1    739 46.53                             152    0.32 7 71.6 301 
 BRR  HN ES   1    740  3.36                             152    0.89 7 71.6 301 
 BRR  HZ I         740  8.22         7.0 0.24                          71.6 301 
 PAM  SZ EP   1    739 47.58                             149    0.15 7 80.1  39 
 PAM  SN ES   1    740  4.40                             149   -0.24 7 80.1  39 
 PAM  SZ I         740  6.48        10.1 0.52                          80.1  39 
 RUS  HZ EP   1    739 48.67                             144    0.03 7 98.0 175 
 RUS  HN ES   1    740  6.76                             144   -0.03 7 98.0 175 
 RUS  HZ I         740  8.64         4.3 0.40                          98.0 175 
 PTB  HZ EP   1    739 52.07                             132    0.12 7  146 260 
 PTB  HN ES   1    740 11.89                             132   -0.79 7  146 260 
 PTB  HZ I         740 15.54         3.9 0.24                           146 260 
 ZAR  HN ES   1    740 23.10                             122    0.33 6  204 293 
 ZAR  HZ I         740 29.49         3.9 0.38                           204 293 
 SML  HE ES   1    740 29.83                             117   -0.81 6  246 336 
                                                                                
