 2016  718 0725 19.4 L   6.786 -73.129139.3  RSN 10 0.4 1.9LRSN                1
 GAP= 99        1.07       4.2     3.2  5.8 -0.3963E+00  0.4237E+01  0.2571E+01E
 Epicentro: LOS SANTOS - SANTANDER                                             3
 ACTION:UPD 17-03-29 16:52 OP:lp   STATUS:               ID:20160718072519 L   I
 OLDACT:REG 16-07-18 16:21 OP:ar   STATUS:               ID:20160718071759     3
 2016-07-18-0717-59S.COL___311                                                 6
 STAT SP IPHASW D HRMM SECON CODA AMPLIT PERI AZIMU VELO AIN AR TRES W  DIS CAZ7
 BAR2 EZ EP        725 37.94                             170   -0.2410 22.2 195 
 BAR2 EZ ES        725 52.60                             170   -0.2610 22.2 195 
 BAR2 EZ I         725 53.71        18.5 0.16            171           22.2 195 
 BRR  HZ EP        725 39.73                             151   -0.2110 73.6 299 
 BRR  HN ES        725 56.49                             151    0.4910 73.6 299 
 BRR  HZ I         725 59.56        17.2 0.38            150           73.6 299 
 PAM  EZ EP        725 40.86                             150   -0.0310 77.5  38 
 PAM  EN ES        725 57.60                             150   -0.0910 77.5  38 
 PAM  EZ I         725 59.69        15.9 0.42            152           77.5  38 
 RUS  HZ EP        725 42.13                             143   -0.2210 98.9 177 
 RUS  HN ES        726  0.83                             143    0.5510 98.9 177 
 RUS  HZ I         726  2.07        13.2 0.38            145           98.9 177 
 PTB  HZ EP        725 44.92                             130   -1.02 9  149 260 
 PTB  HN ES        726  6.40                             130   -0.27 9  149 260 
 PTB  HZ I         726 10.71        13.7 0.28            131            149 260 
 TAM  HZ EP        725 46.32                             129   -0.00 9  153 105 
 TAM  HN ES        726  7.65                             129    0.30 9  153 105 
 SPBC HZ EP        725 46.99                             128   -0.37 9  163 220 
 SPBC HN ES        726  8.92                             128   -0.28 9  163 220 
 SPBC HZ I         726 11.09        14.9 0.18            129            163 220 
 ZAR  HZ EP        725 52.26                             121    0.64 8  206 292 
 ZAR  HN ES        726 16.93                             121    0.14 8  206 292 
 ZAR  HZ I         726 21.05         7.2 0.28            121            206 292 
 HEL  HZ EP        726  0.17                             113    0.77 8  273 256 
 HEL  HN ES   4    726 32.22                             113    1.59 0  273 256 
 HEL  HZ I         726 35.47         3.3 0.24            114            273 256 
 GUY2CHZ EP        726  2.80                             111    0.06 7  302 235 
 GUY2CHZ I         726 37.11         1.1 0.26                           302 235 
 GUY2CHN ES        726 37.32                             111    0.75 7  302 235 
                                                                                
