 2015  918 0552 18.1 L   6.822 -73.109152.5  RSN  8 0.5 1.5LRSN                1
 GAP=159        1.17       5.8     6.5  9.1 -0.5839E+01  0.2567E+02 -0.6946E+01E
 Epicentro: LOS SANTOS - SANTANDER                                             3
 ACTION:UPD 15-10-28 16:27 OP:cam  STATUS:               ID:20150918055218 L   I
 OLDACT:UP  15-09-18 18:47 OP:mh   STATUS:               ID:20150918054748     3
 OLDACT:UP  15-09-18 18:46 OP:mh   STATUS:               ID:20150918054748     3
 OLDACT:REG 15-09-18 12:33 OP:mh   STATUS:               ID:20150918054748     3
 2015-09-18-0547-48M.COL___352                                                 6
 STAT SP IPHASW D HRMM SECON CODA AMPLIT PERI AZIMU VELO AIN AR TRES W  DIS CAZ7
 BAR2 EZ EP        552 38.69                             170    0.0910 26.6 198 
 BAR2 EZ ES        552 54.06                             170   -0.5310 26.6 198 
 BAR2 EZ I         552 54.71         3.4 0.42            170           26.6 198 
 PAM  EN ES        552 59.00                             153    0.5210 73.0  38 
 PAM  EZ I         552 59.46         2.9 0.20            151           73.0  38 
 BRR  HZ EP        552 40.72                             153    0.6110 73.7 295 
 BRR  HN ES        552 57.10                             153   -0.1810 73.7 295 
 BRR  HZ I         553  2.35         4.0 0.32            146           73.7 295 
 PTB  HZ EP        552 45.38                             133   -0.63 9  152 258 
 PTB  HN ES        553  7.98                             133    0.19 9  152 258 
 PTB  HZ I         553 10.41         3.4 0.22            131            152 258 
 OCA  HZ EP   4    552 50.38                             131    3.61 0  158 352 
 OCA  HN ES        553  8.94                             131   -0.19 9  158 352 
 OCA  HZ I         553 13.85         6.6 0.26            129            158 352 
 ZAR  HZ EP        552 51.18                             123   -0.10 8  207 291 
 ZAR  HN ES        553 17.90                             123    0.74 8  207 291 
 ZAR  HZ I         553 24.76         3.3 0.10            122            207 291 
 SML  HE ES        553 23.19                             119   -0.70 8  243 334 
 SML  HZ I         553 35.40         4.0 0.10            118            243 334 
 GUY2CHE ES   4    553 40.31                             113    3.10 0  306 235 
 GUY2CHZ I         553 46.23         1.7 0.37                           306 235 
                                                                                
