 2014  918 0200  5.8 L   6.783 -73.150151.1  RSN 10 0.5 1.7LRSN                1
 GAP=182        1.28       3.8     6.8  8.0  0.4367E+01  0.7602E+01 -0.3227E+01E
 Epicentro: LOS SANTOS - SANTANDER                                             3
 ACTION:UPD 14-10-03 23:06 OP:nd   STATUS:               ID:20140918020005 L   I
 OLDACT:REG 14-09-18 13:22 OP:carl STATUS:               ID:20140918015819     3
 2014-09-18-0158-19M.COL___287                                                 6
 STAT SP IPHASW D HRMM SECON CODA AMPLIT PERI AZIMU VELO AIN AR TRES W  DIS CAZ7
 BAR2 SZ EP        2 0 26.10                             172    0.0510 21.4 190 
 BAR2 SZ ES        2 0 41.33                             172   -0.5010 21.4 190 
 BAR2 SZ I         2 0 43.82        17.9 0.24            169           21.4 190 
 BRR  HZ EP        2 0 28.10                             153    0.5310 71.7 300 
 BRR  HN ES        2 0 45.48                             153    0.9410 71.7 300 
 BRR  HZ I         2 0 48.20         8.6 0.52            150           71.7 300 
 RUS  HZ EP        2 0 30.43                             145    0.4610 98.7 176 
 RUS  HN ES        2 0 48.59                             145   -0.2110 98.7 176 
 RUS  HZ I         2 0 49.99         3.6 0.24            148           98.7 176 
 PTB  HZ EP        2 0 33.03                             133   -0.12 9  147 260 
 PTB  HN ES        2 0 53.93                             133   -0.54 9  147 260 
 PTB  HZ I         2 1  1.32         6.2 0.60            132            147 260 
 SPBC HZ EP        2 0 35.33                             130    0.76 9  161 219 
 SPBC HE ES        2 0 57.01                             130    0.02 9  161 219 
 SPBC HZ I         2 0 58.99         6.9 0.18            131            161 219 
 OCA  HE ES        2 0 57.04                             130   -0.21 9  162 353 
 ZAR  HZ EP        2 0 38.84                             123    0.20 9  204 293 
 ZAR  HE ES        2 1  4.33                             123    0.08 9  204 293 
 ZAR  HZ I         2 1 10.66         6.0 0.36            124            204 293 
 SML  HZ EP        2 0 42.15                             118   -0.76 8  245 336 
 SML  HN ES        2 1 11.28                             118   -0.56 8  245 336 
 SML  HZ I         2 1 15.47         7.0 0.10            120            245 336 
 CHI  HN ES        2 1 12.21                             118   -0.87 8  247 195 
 GUY2CHZ EP   4    2 0 51.31                             113    1.80 0  300 235 
 GUY2CHN ES   4    2 1 26.68                             113    3.08 0  300 235 
 GUY2CHZ I         2 1 34.09         1.7 0.66                           300 235 
                                                                                
