 2013  118 0959 18.5 L   6.781 -73.145147.7  RSN  9 0.2 2.2LRSN                1
 GAP= 99        0.60       2.4     2.1  3.9  0.3137E+00  0.4380E+00  0.2022E+01E
 Epicentro: LOS SANTOS - SANTANDER                                             3
 ACTION:UPD 13-02-15 09:15 OP:ep   STATUS:               ID:20130118095918 L   I
 2013-01-18-0957-36M.COL___183                                                 6
 STAT SP IPHASW D HRMM SECON CODA AMPLIT PERI AZIMU VELO AIN AR TRES W  DIS CAZ7
 BAR2 SZ EP   1    959 38.34                             171    0.02 7 21.3 191 
 BAR2 SZ ES   1    959 53.75                             171   -0.04 7 21.3 191 
 BAR2 SZ I         959 54.78        79.5 0.17            161           21.3 191 
 BRR  HZ EP        959 40.15                             152    0.2310 72.3 300 
 BRR  HE ES        959 57.11                             152    0.4810 72.3 300 
 BRR  HZ I        10 0  0.02        14.9 0.25            143           72.3 300 
 PAM  SZ EP        959 41.08                             151    0.0710 78.9  39 
 PAM  SZ I         959 41.38        26.6 0.20            151           78.9  39 
 PAM  SN ES        959 58.32                             151   -0.2610 78.9  39 
 RUS  HZ EP        959 42.15                             145   -0.1410 98.5 176 
 RUS  HN ES       10 0  0.60                             145   -0.2610 98.5 176 
 RUS  HN I        10 0  2.91        58.5 0.31            134           98.5 176 
 PTB  HZ EP   1    959 45.13                             132   -0.46 7  147 260 
 PTB  HE ES       10 0  6.59                             132   -0.14 9  147 260 
 PTB  HZ I        10 0 12.00        11.8 0.22            121            147 260 
 TAM  HZ EP        959 46.43                             131    0.16 9  155 104 
 TAM  HZ I         959 46.63        15.4 0.26            126            155 104 
 TAM  HN ES       10 0  7.98                             131    0.04 9  155 104 
 ZAR  HZ EP   1    959 50.86                             123   -0.30 6  205 293 
 ZAR  HN ES   1   10 0 16.41                             123   -0.22 6  205 293 
 ZAR  HZ I        10 0 22.30         8.9 0.21            114            205 293 
 CHI  HZ EP        959 56.30                             118    0.21 8  247 195 
 CHI  HZ I         959 57.19         7.2 0.21            109            247 195 
 CHI  HN ES       10 0 25.65                             118    0.24 8  247 195 
 ROSC BZ EP   4    959 57.96                             117    1.43 0  251 211 
 ROSC BZ I        10 0 36.21        14.4 0.47            109            251 211 
                                                                                
