 2017  718 0535 12.8 L   6.749 -73.189138.4  RSN  8 0.6 1.7LRSN                1
 GAP=205        1.36       6.1     5.7  8.6  0.1565E+02  0.5247E+01  0.4432E+01E
 Epicentro: VILLANUEVA - SANTANDER                                             3
 ACTION:UPD 17-08-30 15:34 OP:rebc STATUS:               ID:20170718053512 L   I
 OLDACT:REG 17-07-18 13:46 OP:dnl  STATUS:               ID:20170718052739     3
 2017-07-18-0528-00M.COL___371                                                 6
 STAT SP IPHASW D HRMM SECON CODA AMPLIT PERI AZIMU VELO AIN AR TRES W  DIS CAZ7
 BAR2 EZ IP     C  535 31.17                             173   -0.3110 17.4 178 
 BAR2 EZ ES        535 45.69                             173   -0.3210 17.4 178 
 BAR2 EZ I         535 46.93        17.4 0.22            173           17.4 178 
 BRR  HZ IP     C  535 33.10                             151   -0.0410 70.1 304 
 BRR  HN ES        535 49.87                             151    0.9110 70.1 304 
 BRR  HZ I         535 53.81         9.9 0.48            152           70.1 304 
 RUS  HZ EP        535 35.10                             144   -0.4010 95.4 173 
 RUS  HN ES        535 53.21                             144    0.0410 95.4 173 
 RUS  HZ I         535 54.40         6.6 0.26            145           95.4 173 
 PTB  HZ EP   2    535 37.92                             131   -0.78 5  142 261 
 PTB  HN ES        535 57.75                             131   -1.11 9  142 261 
 PTB  HZ I         536  1.16         7.7 0.18            133            142 261 
 SPBC HZ EP        535 40.18                             129    0.10 9  156 219 
 SPBC HN ES        536  1.20                             129   -0.13 9  156 219 
 YPLC HZ EP        535 41.43                             125   -0.44 9  174 149 
 YPLC HN ES        536  5.19                             125    0.69 9  174 149 
 YPLC HZ I         536  7.97         8.0 0.24            127            174 149 
 ZAR  HZ EP        535 45.35                             121    0.75 9  202 294 
 ZAR  HN ES        536  9.15                             121   -0.21 9  202 294 
 ZAR  HZ I         536 11.69         4.8 0.26            122            202 294 
 NOR  HZ EP   2    535 47.84                             118    0.45 4  228 235 
 NOR  HN ES        536 15.26                             118    0.93 8  228 235 
 NOR  HZ I         536 17.10         4.8 0.14            119            228 235 
                                                                                
