 2011  118 0606  4.6 L   6.784 -73.036146.1  RSN  7 0.3 1.7LRSN                1
 GAP=171        0.62       3.0     6.8  6.1 -0.7386E+01  0.1776E+02 -0.2135E+01E
 Epicentro: CEPITA - SANTANDER                                                 3
 ACTION:UP  11-02-08 08:41 OP:pat  STATUS:               ID:20110118060604 L   I
 2011-01-18-0604-02S.COL___133                                                 6
 STAT SP IPHASW D HRMM SECON CODA AMPLIT PERI AZIMU VELO SNR AR TRES W  DIS CAZ7
 BAR2 SZ EP   1    6 6 24.11                             169    -0.2 7   27 218 
 BAR2 SZ ES   1    6 6 39.67                             169    -0.1 7   27 218 
 BAR2 SZ I         6 6 40.91        11.6 0.34                            27 218 
 RUS  HZ EP   2    6 6 28.06                             145    -0.2 5   99 183 
 RUS  HN ES   1    6 6 46.93                             145     0.2 7   99 183 
 RUS  HZ I         6 6 48.45         6.2 0.66                            99 183 
 GRA  SZ EP   2    6 6 30.10                             137     0.3 5  124  12 
 GRA  SZ ES   2    6 6 49.11                             137    -0.3 5  124  12 
 GRA  SZ I         6 6 51.00         4.8 0.30                           124  12 
 OCA  SZ EP   1    6 6 33.07                             129    -0.2 7  164 349 
 OCA  SZ ES   1    6 6 55.96                             129     0.3 7  164 349 
 OCA  SZ I         6 6 59.66         7.5 0.26                           164 349 
 CHI  HZ EP   1    6 6 42.05                             117    -0.4 6  250 198 
 CHI  HE ES   2    6 7 12.21                             117     0.1 4  250 198 
 CHI  HZ I         6 7 15.62         2.0 0.59                           250 198 
 HEL  HZ EP   2    6 6 45.98                             114    -0.1 4  283 257 
 HEL  HN ES   2    6 7 18.01                             114    -0.4 4  283 257 
 HEL  HZ I         6 7 23.89         2.4 0.43                           283 257 
 RREF HZ EP   1    6 6 52.49                             110     0.8 5  330 231 
 RREF HN ES   1    6 7 28.42                             110     0.0 5  330 231 
 RREF HZ I         6 7 34.16         3.6 0.50                           330 231 
                                                                                
