 2011  218 0841 30.7 L   6.637 -73.726104.2  RSN  4 0.3 1.0LRSN                1
 GAP=195        0.79       7.2    13.9 17.8  0.1466E+01  0.2196E+03  0.1598E+02E
 Epicentro: EL CARMEN DE CHUCURI - SANTANDER                                   3
 ACTION:UP  11-03-28 15:09 OP:jfem STATUS:               ID:20110218084130 L   I
 2011-02-18-0836-58S.COL___137                                                 6
 STAT SP IPHASW D HRMM SECON CODA AMPLIT PERI AZIMU VELO SNR AR TRES W  DIS CAZ7
 BTL  SZ EP        841 47.31                             148     0.310   60  58 
 BAR2 SZ EP   1    841 46.42                             147    -0.7 7   60  95 
 BAR2 SZ ES        841 59.90                             147     0.010   60  95 
 BAR2 SZ I         842  7.37         3.7 0.31                            60  95 
 RUS  HZ EP   1    841 51.55                             130     0.2 7  109 139 
 RUS  HN ES   1    842  7.53                             130     0.0 7  109 139 
 RUS  HZ I         842 11.96         1.3 0.13                           109 139 
 RREF HZ EP        842  8.32                             106     0.0 8  263 223 
 RREF HZ I         842 59.00         1.0 0.31                           263 223 
                                                                                
