 2015  218 0634 14.4 L   6.883 -73.304124.8  RSN  9 0.4 1.6LRSN                1
 GAP= 61        0.88       2.8     3.3  5.3 -0.2255E+01  0.2022E+01  0.3424E+01E
 Epicentro: BETULIA - SANTANDER                                                3
 ACTION:UPD 15-04-30 21:27 OP:nd   STATUS:               ID:20150218063414 L   I
 OLDACT:UP  15-02-18 19:26 OP:mh   STATUS:               ID:20150218062748d    3
 OLDACT:DUP 15-02-18 19:18 OP:mh   STATUS:               ID:20150218062748d    3
 OLDACT:REG 15-02-18 12:42 OP:mh   STATUS:               ID:20150218062746     3
 2015-02-18-0627-46M.COL___299                                                 6
 STAT SP IPHASW D HRMM SECON CODA AMPLIT PERI AZIMU VELO AIN AR TRES W  DIS CAZ7
 BAR2 EZ EP   1    634 32.51                             163    0.67 7 34.9 157 
 BAR2 EZ ES        634 45.55                             163    0.0910 34.9 157 
 BRR  HZ EP        634 32.40                             156    0.2110 51.4 299 
 BRR  HN ES        634 45.62                             156   -0.4510 51.4 299 
 BRR  HZ I         634 49.59         8.2 0.36            157           51.4 299 
 PAM  SZ EP   1    634 34.81                             144   -0.04 7 83.7  53 
 PAM  SN ES   1    634 51.10                             144    0.28 7 83.7  53 
 PAM  SZ I         634 54.67         4.8 0.18            147           83.7  53 
 PTB  HZ EP   1    634 37.82                             130   -0.50 7  133 253 
 PTB  HN ES   1    634 57.84                             130    0.86 7  133 253 
 PTB  HZ I         634 59.40         9.0 0.12            132            133 253 
 OCA  HZ EP        634 39.96                             126   -0.17 9  150 359 
 OCA  HN ES        635  0.30                             126    0.10 9  150 359 
 OCA  HZ I         635  4.29         9.1 0.48            129            150 359 
 SPBC HZ EP   1    634 41.08                             124   -0.02 7  161 212 
 SPBC HN ES        635  1.46                             124   -0.47 9  161 212 
 SPBC HZ I         635  4.51         5.6 0.10            127            161 212 
 TAM  HZ EP   4    634 39.86                             122   -2.60 0  174 106 
 TAM  HN ES        635  3.99                             122   -0.37 9  174 106 
 CHI  HZ EP        634 52.12                             112    0.54 8  254 191 
 CHI  HN ES        635 20.82                             112    0.22 8  254 191 
 CHI  HZ I         635 26.11         1.4 0.28            114            254 191 
 GUY2CHZ EP        634 55.63                             109   -0.51 7  293 231 
 GUY2CHN ES        635 28.72                             109    0.02 7  293 231 
 GUY2CHZ I         635 36.12         2.1 0.32                           293 231 
                                                                                
