 2017  218 0428 46.9 L   6.895 -73.126158.5  RSN  6 0.3 1.4LRSN                1
 GAP=134        0.87       4.7     4.0  5.9  0.2204E+01  0.5360E+01 -0.9314E+00E
 Epicentro: PIEDECUESTA - SANTANDER                                            3
 ACTION:UPD 17-05-24 15:37 OP:jn   STATUS:               ID:20170218042846 L   I
 OLDACT:UP  17-02-18 16:34 OP:cara STATUS:               ID:20170218042746d    3
 OLDACT:DUP 17-02-18 16:29 OP:cara STATUS:               ID:20170218042746d    3
 OLDACT:REG 17-02-18 13:32 OP:cara STATUS:               ID:20170218042745     3
 2017-02-18-0428-00M.COL___351                                                 6
 STAT SP IPHASW D HRMM SECON CODA AMPLIT PERI AZIMU VELO AIN AR TRES W  DIS CAZ7
 BAR2 EZ EP        429  7.70                             167   -0.5810 34.1 191 
 BAR2 EZ ES        429 25.16                             167    0.1910 34.1 191 
 BAR2 EZ I         429 26.05         3.5 0.36            168           34.1 191 
 PAM  EZ EP        429  9.99                             156    0.0310 68.0  44 
 PAM  HN ES        429 27.70                             156   -0.2710 68.0  44 
 PAM  EZ I         429 29.31         6.6 0.68            158           68.0  44 
 BRR  HZ EP        429  9.67                             155    0.3810 68.9 290 
 BRR  HN ES        429 27.18                             155    0.4110 68.9 290 
 BRR  HZ I         429 29.23         8.5 0.14            153           68.9 290 
 RUS  HZ EP        429 13.06                             143    0.4310  111 178 
 RUS  HN ES        429 32.55                             143   -0.1610  111 178 
 RUS  HZ I         429 35.16         0.9 0.30            146            111 178 
 PTB  HZ EP        429 15.51                             134    0.21 9  152 255 
 PTB  HN ES        429 37.04                             134   -0.43 9  152 255 
 PTB  HZ I         429 39.05         2.3 0.20            134            152 255 
 ZAR  HZ EP        429 19.75                             125   -0.26 9  202 289 
 ZAR  HN ES        429 45.82                             125   -0.04 9  202 289 
 ZAR  HZ I         429 54.31         3.7 0.32            125            202 289 
                                                                                
