 2012  818 0837 34.0 L   6.785 -73.123147.7  RSN  9 0.5 2.2LRSN                1
 GAP=140        0.98       4.0     4.2  6.8 -0.4155E+01  0.9439E+01  0.1604E+01E
 Epicentro: LOS SANTOS - SANTANDER                                             3
 ACTION:UPD 12-09-10 11:56 OP:ep   STATUS:               ID:20120818083734 L   I
 2012-08-18-0830-00M.COL___217                                                 6
 STAT SP IPHASW D HRMM SECON CODA AMPLIT PERI AZIMU VELO AIN AR TRES W  DIS CAZ7
 BAR2 SZ EP   1    837 53.78                             171   -0.01 7 22.3 197 
 BAR2 SZ ES   1    838  9.28                             171    0.02 7 22.3 197 
 BAR2 SZ I         838 12.07        50.7 0.21                          22.3 197 
 BRR  HZ EP   1    837 55.70                             152    0.23 7 74.2 299 
 BRR  HN ES        838 12.88                             152    0.6210 74.2 299 
 BRR  HZ I         838 16.37        27.0 0.20                          74.2 299 
 PAM  SZ EP   1    837 56.60                             151    0.24 7 77.2  37 
 PAM  SZ I         837 56.83        33.7 0.20                          77.2  37 
 PAM  SN ES        838 13.99                             151    0.1610 77.2  37 
 RUS  HZ EP   1    837 57.67                             145   -0.09 7 98.8 177 
 RUS  HN ES   1    838 16.05                             145   -0.28 7 98.8 177 
 RUS  HZ I         838 19.43        10.6 0.31                          98.8 177 
 PTB  HZ EP   1    838  0.76                             132   -0.50 7  150 260 
 PTB  HN ES        838 21.91                             132   -0.66 9  150 260 
 OCA  HZ EP   1    838  2.74                             130    0.14 7  162 352 
 OCA  HN ES        838 24.42                             130   -0.52 9  162 352 
 OCA  HZ I         838 29.28        35.7 0.17                           162 352 
 ZAR  HZ EP   1    838  6.51                             122   -0.31 6  207 292 
 ZAR  HN ES        838 32.15                             122   -0.31 8  207 292 
 ZAR  HZ I         838 38.21        12.9 0.19                           207 292 
 NOR  SZ EP   1    838  9.82                             119   -0.08 6  236 235 
 NOR  SN ES        838 37.69                             119   -0.25 8  236 235 
 NOR  SZ I         838 41.60        17.8 0.19                           236 235 
 HEL  HZ EP   1    838 15.51                             115    1.03 6  274 256 
 HEL  HN ES        838 47.08                             115    0.99 8  274 256 
 HEL  HZ I         838 52.12         6.4 0.29                           274 256 
                                                                                
