 2017  118 0900 17.8 L   6.764 -73.117142.2  RSN  6 0.4 1.6LRSN                1
 GAP=142        1.10       5.6     5.5  7.1  0.6145E+01  0.3337E+01 -0.4079E+01E
 Epicentro: LOS SANTOS - SANTANDER                                             3
 ACTION:UPD 17-05-22 16:00 OP:jn   STATUS:               ID:20170118090017 L   I
 OLDACT:UP  17-01-18 15:23 OP:edw  STATUS:               ID:20170118085744     3
 OLDACT:REG 17-01-18 13:00 OP:dani STATUS:               ID:20170118085744     3
 2017-01-18-0858-00M.COL___325                                                 6
 STAT SP IPHASW D HRMM SECON CODA AMPLIT PERI AZIMU VELO AIN AR TRES W  DIS CAZ7
 BAR2 EZ EP     C  9 0 36.84                             171   -0.0710 20.4 201 
 BAR2 EZ ES        9 0 50.91                             171   -0.9310 20.4 201 
 BRR  HZ EP        9 0 38.71                             150   -0.1010 75.9 300 
 BRR  HN ES        9 0 55.85                             150    0.6310 75.9 300 
 PAM  EZ EP     D  9 0 39.87                             150    0.2010 78.5  36 
 PAM  EN ES        9 0 56.79                             150    0.0310 78.5  36 
 PAM  EZ I         9 0 59.17         5.8 0.46            150           78.5  36 
 RUS  HZ EP        9 0 40.96                             144    0.0910 96.5 178 
 RUS  HN ES        9 0 59.35                             144    0.4610 96.5 178 
 RUS  HZ I         9 1  0.23         5.0 0.20            146           96.5 178 
 PTB  HZ EP   9    9 0 43.95                             131   -0.72 0  150 261 
 PTB  HN ES        9 1  4.77                             131   -0.16 9  150 261 
 PTB  HZ I         9 1  6.90         4.6 0.14            131            150 261 
 ZAR  HZ EP        9 0 49.85                             121   -0.60 8  209 293 
 ZAR  HN ES        9 1 16.09                             121    0.15 8  209 293 
 ZAR  HZ I         9 1 20.85         5.2 0.26            121            209 293 
 CHI  HN ES   4    9 1 25.94                             117    1.99 0  246 196 
                                                                                
