 2015  618 0803  0.2 L   6.692 -73.145141.9  RSN  8 0.3 1.8LRSN                1
 GAP=212        0.76       3.6     4.2  4.8  0.7875E+01  0.4951E+01  0.5691E+01E
 Epicentro: VILLANUEVA - SANTANDER                                             3
 ACTION:UPD 15-09-10 22:13 OP:cam  STATUS:               ID:20150618080300 L   I
 OLDACT:UP  15-06-18 18:07 OP:drio STATUS:               ID:20150618075745d    3
 OLDACT:DUP 15-06-18 17:32 OP:drio STATUS:               ID:20150618075745d    3
 2015-06-18-0757-44M.COL___306                                                 6
 STAT SP IPHASW D HRMM SECON CODA AMPLIT PERI AZIMU VELO AIN AR TRES W  DIS CAZ7
 BAR2 EZ EP        8 3 19.15                             175   -0.0210 11.7 201 
 BAR2 EZ ES        8 3 33.59                             175   -0.3810 11.7 201 
 BAR2 EZ I         8 3 35.16        13.6 0.42            172           11.7 201 
 BRR  HZ EP        8 3 21.31                             150    0.0010 77.7 306 
 BRR  HN ES        8 3 38.19                             150    0.4110 77.7 306 
 BRR  HZ I         8 3 41.86        14.8 0.12            151           77.7 306 
 RUS  HZ EP        8 3 22.58                             147   -0.1410 88.6 176 
 RUS  HE ES        8 3 40.61                             147    0.3210 88.6 176 
 RUS  HZ I         8 3 43.89         7.9 0.38            147           88.6 176 
 ZAR  HZ EP        8 3 33.44                             121    0.54 8  209 295 
 ZAR  HN ES        8 3 57.82                             121   -0.58 8  209 295 
 ZAR  HZ I         8 4  0.49         8.9 0.12            123            209 295 
 NOR  HE ES        8 4  1.93                             118   -0.18 8  228 237 
 PTGC HZ EP        8 3 42.43                             112   -0.18 7  298 158 
 PTGC HE ES        8 4 15.61                             112   -0.08 7  298 158 
 MON  HZ EP   4    8 3 48.03                             107   -1.90 0  361 310 
 MON  HN ES   4    8 4 25.94                             107   -2.79 0  361 310 
 MON  HZ I         8 4 26.35         2.8 0.20            109            361 310 
 PRA  HZ EP        8 3 52.31                             106   -0.06 6  382 210 
 PRA  HN ES        8 4 33.37                             106    0.31 6  382 210 
 PRA  HZ I         8 4 37.24         1.7 0.34            108            382 210 
                                                                                
