 2013  918 0526 44.9 L   6.807 -73.163151.4  RSN  5 0.5 1.7LRSN                1
 GAP=236        1.28       8.5    10.6 10.2  0.2462E+02  0.2939E+02  0.6605E+01E
 Epicentro: LOS SANTOS - SANTANDER                                             3
 ACTION:UPD 13-10-22 09:23 OP:ep   STATUS:               ID:20130918052644 L   I
 OLDACT:REG 13-09-18 07:43 OP:carl STATUS:               ID:20130918051959     3
 2013-09-18-0519-59M.COL___269                                                 6
 STAT SP IPHASW D HRMM SECON CODA AMPLIT PERI AZIMU VELO AIN AR TRES W  DIS CAZ7
 BAR2 SZ EP        527  4.93                             171   -0.2610 23.9 185 
 BAR2 SZ ES        527 20.54                             171   -0.5010 23.9 185 
 BAR2 SZ I         527 21.72         7.3 0.20            163           23.9 185 
 BRR  HZ EP        527  7.06                             154    0.5310 69.1 299 
 BRR  HN ES        527 23.99                             154    0.5810 69.1 299 
 BRR  HN I         527 24.53        27.0 0.40            150           69.1 299 
 RUS  HN ES        527 28.34                             145    0.0810  102 175 
 RUS  HN I         527 29.50         9.1 0.36            142            102 175 
 PTB  HZ EP        527 11.44                             134   -0.72 9  146 258 
 PTB  HE ES   1    527 32.58                             134   -0.86 7  146 258 
 PTB  HZ I         527 37.67         4.5 0.14            130            146 258 
 SPBC HZ EP        527 14.12                             130    0.36 9  163 218 
 SPBC HN ES   1    527 36.99                             130    0.70 7  163 218 
 SPBC HZ I         527 42.19         3.6 0.22            127            163 218 
                                                                                
