 2013 1218 0713 25.8 L   6.809 -73.148149.5  RSN  6 0.3 1.4LRSN                1
 GAP=201        0.88       3.6     5.7  6.1  0.4309E+01  0.4118E+00 -0.4895E+01E
 Epicentro: LOS SANTOS - SANTANDER                                             3
 ACTION:UPD 14-01-13 10:19 OP:ep   STATUS:               ID:20131218071325 L   I
 OLDACT:REG 13-12-18 07:28 OP:jn   STATUS:               ID:20131218071000     3
 2013-12-18-0710-00M.COL___285                                                 6
 STAT SP IPHASW D HRMM SECON CODA AMPLIT PERI AZIMU VELO AIN AR TRES W  DIS CAZ7
 BAR2 SZ EP        713 45.90                             170    0.0510 24.2 189 
 BAR2 SZ ES        714  1.27                             170   -0.2510 24.2 189 
 BAR2 SZ I         714  2.06         8.7 0.16            169           24.2 189 
 BRR  HZ EP     C  713 47.79                             153    0.5210 70.6 298 
 BRR  HN ES        714  4.56                             153    0.5110 70.6 298 
 BRR  HZ I         714  7.49         3.6 0.18            151           70.6 298 
 RUS  HZ EP        713 49.78                             144   -0.1610  102 176 
 RUS  HN ES        714  8.58                             144   -0.2210  102 176 
 RUS  HZ I         714  9.38         2.4 0.22            146            102 176 
 PTB  HZ EP   1    713 52.90                             133   -0.12 7  148 258 
 PTB  HN ES        714 13.72                             133   -0.57 9  148 258 
 PTB  HZ I         714 19.70         3.5 0.24            132            148 258 
 SPBC HZ EP        713 54.63                             130    0.04 9  164 219 
 SPBC HE ES        714 17.49                             130    0.40 9  164 219 
 SPBC HZ I         714 18.19         4.0 0.20            130            164 219 
 SML  HZ EP        714  2.53                             118    0.04 8  243 335 
 SML  HN ES        714 30.67                             118   -0.47 8  243 335 
                                                                                
