 2015  418 0259 54.4 L   6.812 -73.151149.4  RSN 14 0.4 2.6LRSN                1
 GAP=135        0.95       2.6     3.7  4.9 -0.2044E+01  0.5731E+01 -0.2941E+00E
 Epicentro: LOS SANTOS - SANTANDER                                             3
 ACTION:UPD 15-06-03 16:55 OP:cam  STATUS:               ID:20150418025954 L   I
 OLDACT:REG 15-04-18 15:48 OP:carl STATUS:               ID:20150418025739     3
 2015-04-18-0257-39M.COL___272                                                 6
 STAT SP IPHASW D HRMM SECON CODA AMPLIT PERI AZIMU VELO AIN AR TRES W  DIS CAZ7
 BAR2 EZ IP     C  3 0 14.45                             170   -0.0510 24.6 188 
 BAR2 EZ ES        3 0 29.86                             170   -0.3110 24.6 188 
 BAR2 EZ I         3 0 30.70       102.0 0.42            168           24.6 188 
 BRR  HZ IP     C  3 0 16.31                             153    0.4210 70.0 298 
 BRR  HN ES        3 0 33.25                             153    0.6110 70.0 298 
 BRR  HZ I         3 0 35.93        53.4 0.18            149           70.0 298 
 PAM  SZ IP     C  3 0 17.36                             152    0.3910 76.7  41 
 PAM  SN ES        3 0 34.46                             152   -0.1110 76.7  41 
 PAM  SZ I         3 0 35.01        45.3 0.28            156           76.7  41 
 RUS  HZ IP     C  3 0 18.31                             144   -0.3110  102 176 
 RUS  HN ES        3 0 37.37                             144   -0.1310  102 176 
 RUS  HZ I         3 0 39.00        19.1 0.32            146            102 176 
 PTB  HZ EP        3 0 20.95                             133   -0.70 9  147 258 
 PTB  HN ES        3 0 42.35                             133   -0.54 9  147 258 
 PTB  HZ I         3 0 47.90        55.8 0.22            130            147 258 
 OCA  HZ EP        3 0 23.00                             131    0.13 9  159 353 
 OCA  HN ES        3 0 44.92                             131   -0.15 9  159 353 
 OCA  HZ I         3 0 49.43        82.2 0.32            131            159 353 
 SPBC HZ EP        3 0 23.36                             130    0.11 9  164 219 
 SPBC HN ES        3 0 46.19                             130    0.44 9  164 219 
 SPBC HZ I         3 0 49.81        65.1 0.30            129            164 219 
 ZAR  HZ EP        3 0 27.07                             123    0.09 9  203 292 
 ZAR  HN ES        3 0 52.78                             123    0.39 9  203 292 
 ZAR  HZ I         3 0 58.52        60.4 0.30            122            203 292 
 NOR  HZ EP        3 0 30.33                             119   -0.05 8  235 234 
 NOR  HN ES        3 0 58.85                             119    0.40 8  235 234 
 NOR  HZ I         3 1  4.07        47.3 0.56            119            235 234 
 SML  HZ EP        3 0 30.81                             118   -0.27 8  242 335 
 SML  HN ES        3 0 59.30                             118   -0.38 8  242 335 
 SML  HZ I         3 1  5.23        48.8 0.10            118            242 335 
 ROSC BZ EP   4    3 0 34.10                             117    1.28 0  254 211 
 ROSC BN ES   4    3 1  2.76                             117   -0.03 0  254 211 
 HEL  HZ EP   4    3 0 34.46                             115   -0.32 0  272 255 
 HEL  HN ES   4    3 1  5.67                             115   -0.60 0  272 255 
 HEL  HZ I         3 1 12.45        19.0 0.50            115            272 255 
 GUY2CHZ EP   4    3 0 38.69                             113    0.47 0  301 234 
 GUY2CHN ES   4    3 1 12.39                             113   -0.01 0  301 234 
 GUY2CHZ I         3 1 20.77        44.9 0.38                           301 234 
 CBOC HZ EP        3 0 42.22                             110    0.76 7  333 252 
 CBOC HN ES        3 1 17.17                             110   -0.99 7  333 252 
 CBOC HZ I         3 1 32.20        10.1 0.44            110            333 252 
 ORTC HZ EP        3 0 48.68                             107    0.14 6  396 216 
 ORTC HE ES        3 1 30.89                             107    0.12 6  396 216 
 ORTC HZ I         3 1 38.29        12.8 0.54            107            396 216 
                                                                                
