 2017  118 0320  3.1 L   6.766 -73.135146.8  RSN 11 0.4 1.9LRSN                1
 GAP=121        0.84       3.0     3.5  4.7  0.1049E+01  0.2796E+01  0.4808E+01E
 Epicentro: LOS SANTOS - SANTANDER                                             3
 ACTION:UPD 17-05-22 16:00 OP:jn   STATUS:               ID:20170118032003 L   I
 OLDACT:UP  17-01-18 14:24 OP:dani STATUS:               ID:20170118031745     3
 OLDACT:REG 17-01-18 12:41 OP:dani STATUS:               ID:20170118031745     3
 2017-01-18-0318-00M.COL___331                                                 6
 STAT SP IPHASW D HRMM SECON CODA AMPLIT PERI AZIMU VELO AIN AR TRES W  DIS CAZ7
 BAR2 EZ EP     C  320 22.81                             172   -0.0110 19.9 195 
 BAR2 HN ES        320 38.17                             172   -0.0110 19.9 195 
 BAR2 EZ I         320 40.56        25.0 0.30            167           19.9 195 
 BRR  HZ EP     C  320 24.56                             152    0.0110 74.1 301 
 BRR  HN ES        320 41.69                             152    0.4310 74.1 301 
 BRR  HZ I         320 42.41        13.4 0.28            151           74.1 301 
 PAM  EZ EP        320 25.72                             150    0.1310 79.6  37 
 PAM  EN ES        320 42.87                             150   -0.2410 79.6  37 
 PAM  EZ I         320 45.84         9.5 0.34            156           79.6  37 
 RUS  HZ EP     D  320 26.71                             145    0.0010 96.8 177 
 RUS  HN ES        320 45.31                             145    0.2010 96.8 177 
 RUS  HZ I         320 46.82         7.9 0.24            144           96.8 177 
 PTB  HZ EP        320 29.87                             132   -0.35 9  148 260 
 PTB  HN ES   3    320 50.52                             132   -0.83 2  148 260 
 PTB  HZ I         320 56.93         8.4 0.46            131            148 260 
 ZAR  HZ EP   3    320 37.22                             122    1.32 2  207 293 
 ZAR  HE ES        321  1.07                             122   -0.39 8  207 293 
 ZAR  HZ I         321  5.96         9.8 0.28            123            207 293 
 NOR  HZ EP        320 38.87                             119    0.08 8  233 235 
 NOR  HN ES        321  6.15                             119   -0.45 8  233 235 
 NOR  HZ I         321 13.59         4.5 0.20            119            233 235 
 CHI  HZ EP        320 41.05                             118    0.53 8  245 196 
 CHI  HN ES        321 10.23                             118    0.54 8  245 196 
 CHI  HZ I         321 15.55         3.9 0.15            118            245 196 
 ROSC BZ EP   9    320 43.26                             117    2.24 0  250 212 
 ROSC BN ES        321 12.12                             116   -0.70 8  250 212 
 ROSC BZ I         321 17.63        12.8 0.42            117            250 212 
 PTGC HZ EP        320 45.98                             112   -0.60 7  305 159 
 PTGC HN ES        321 19.89                             112   -0.59 7  305 159 
 PTGC HZ I         321 24.92         4.3 0.21            113            305 159 
 ORTC HZ EP        320 57.36                             107    0.55 6  393 217 
 ORTC HN ES   3    321 40.58                             107    1.90 1  393 217 
 ORTC HZ I         321 44.15         2.5 0.21            107            393 217 
                                                                                
