 2015  918 0520  0.9 L   6.812 -73.196140.6  RSN  7 0.3 1.5LRSN                1
 GAP=130        0.68       2.3     3.5  6.1 -0.2180E+01  0.6669E+01 -0.4426E+01E
 Epicentro: ZAPATOCA - SANTANDER                                               3
 ACTION:UPD 15-10-28 16:27 OP:cam  STATUS:               ID:20150918052000 L   I
 OLDACT:UP  15-09-18 18:32 OP:mh   STATUS:               ID:20150918051750d    3
 OLDACT:UP  15-09-18 18:32 OP:mh   STATUS:               ID:20150918051750d    3
 OLDACT:UP  15-09-18 18:31 OP:mh   STATUS:               ID:20150918051750d    3
 OLDACT:DUP 15-09-18 18:29 OP:mh   STATUS:               ID:20150918051750d    3
 2015-09-18-0517-49M.COL___352                                                 6
 STAT SP IPHASW D HRMM SECON CODA AMPLIT PERI AZIMU VELO AIN AR TRES W  DIS CAZ7
 PAM  EZ EP        520 23.15                             149    0.4310 80.1  43 
 PAM  EN ES        520 39.79                             149    0.0410 80.1  43 
 PAM  EZ I         520 41.75         6.4 0.44            154           80.1  43 
 RUS  HZ EP        520 24.28                             142    0.0110  102 173 
 RUS  HN ES        520 42.39                             142   -0.1210  102 173 
 RUS  HZ I         520 43.04         2.9 0.28            146            102 173 
 PTB  HZ EP        520 27.10                             132    0.14 9  143 258 
 PTB  HN ES        520 47.73                             132    0.43 9  143 258 
 PTB  HZ I         520 49.94         3.0 0.26            132            143 258 
 OCA  HZ EP        520 28.53                             129   -0.09 9  158 355 
 OCA  HN ES        520 49.99                             129   -0.26 9  158 355 
 OCA  HZ I         520 54.84         9.1 0.20            131            158 355 
 SPBC HN ES        520 50.06                             128   -0.45 9  161 217 
 SPBC HZ I         520 59.95         3.1 0.28            130            161 217 
 SML  HZ EP        520 36.64                             117   -0.20 8  240 336 
 SML  HN ES        521  4.77                             117   -0.12 8  240 336 
 SML  HZ I         521 11.88         5.0 0.28            119            240 336 
 URE  HZ E      C  518 30.95                                            278 292 
                                                                                
