 2012  318 0736 56.4 L   6.535 -73.636105.8  RSN  6 0.3 1.4LRSN                1
 GAP=131        0.81       4.8     3.7  7.7  0.9641E+00  0.5190E+01 -0.1107E+01E
 ACTION:UP  12-03-31 23:20 OP:EP   STATUS:               ID:20120318073656 L   I
 2012-03-18-0730-00M.COL___202                                                 6
 STAT SP IPHASW D HRMM SECON CODA AMPLIT PERI AZIMU VELO SNR AR TRES W  DIS CAZ7
 BAR2 SZ EP   1    737 12.84                             153     0.5 7   51  83 
 BAR2 SZ ES   1    737 24.53                             153    -0.3 7   51  83 
 BAR2 SZ I         737 27.11        22.7 0.47                            51  83 
 BRR  HZ EP   1    737 13.22                             146     0.4 7   64 352 
 BRR  HN ES   1    737 26.14                             146     0.4 7   64 352 
 BRR  HZ I         737 31.64         5.6 0.07                            64 352 
 PTB  HZ EP        737 14.82                             136    -0.110   91 270 
 PTB  HE ES   1    737 29.07                             136    -0.3 7   91 270 
 PTB  HZ I         737 30.02         4.6 0.10                            91 270 
 RUS  HZ EP   1    737 16.07                             136     0.2 7   94 139 
 RUS  HN ES   1    737 31.05                             136     0.0 7   94 139 
 RUS  HZ I         737 32.86         3.2 0.18                            94 139 
 PAM  SZ EP   1    737 19.43                             124    -0.4 7  136  49 
 PAM  SN ES   1    737 37.89                             124    -0.3 7  136  49 
 PAM  SZ I         737 41.25         3.2 0.42                           136  49 
 ZAR  HZ EP   1    737 22.86                             117    -0.1 7  172 308 
 ZAR  HZ I         737 49.83         5.3 0.14                           172 308 
                                                                                
