 2013  118 0430 43.0 L   6.755 -73.185142.4  RSN  6 0.3 1.3LRSN                1
 GAP=134        0.67       4.4     3.9  6.4  0.1563E+01  0.4985E+01 -0.4839E+00E
 Epicentro: VILLANUEVA - SANTANDER                                             3
 ACTION:UPD 13-02-15 09:15 OP:ep   STATUS:               ID:20130118043043 L   I
 2013-01-18-0430-00M.COL___241                                                 6
 STAT SP IPHASW D HRMM SECON CODA AMPLIT PERI AZIMU VELO AIN AR TRES W  DIS CAZ7
 BAR2 SZ EP   1    431  2.17                             172    0.06 7 18.0 179 
 BAR2 SZ ES   1    431 16.64                             172   -0.39 7 18.0 179 
 BRR  HZ EP     C  431  3.96                             152    0.2610 70.1 304 
 BRR  HN ES   1    431 20.34                             152    0.47 7 70.1 304 
 BRR  HZ I         431 24.86         5.7 0.29            154           70.1 304 
 PAM  SZ EP   1    431  5.21                             148   -0.04 7 84.0  40 
 PAM  SN ES   1    431 22.52                             148   -0.11 7 84.0  40 
 PAM  SZ I         431 24.72         2.6 0.60            152           84.0  40 
 RUS  HZ EP   1    431  6.32                             144    0.25 7 96.0 173 
 RUS  HN ES   1    431 23.95                             144   -0.14 7 96.0 173 
 RUS  HZ I         431 25.82         3.9 0.24            149           96.0 173 
 PTB  HZ EP   1    431  8.78                             132   -0.43 7  143 260 
 PTB  HN ES   1    431 29.98                             132    0.32 7  143 260 
 PTB  HZ I         431 31.48         3.1 0.20            136            143 260 
 ZAR  HN ES   1    431 39.34                             122   -0.63 6  202 294 
                                                                                
