 2015  318 0215  3.4 L   6.760 -73.085147.1  RSN  4 0.3 1.1LRSN                1
 GAP=146        0.89       6.9    12.2 13.1  0.4704E+02 -0.9937E+02 -0.4080E+02E
 Epicentro: LOS SANTOS - SANTANDER                                             3
 ACTION:UPD 15-04-30 16:26 OP:nd   STATUS:               ID:20150318021503 L   I
 OLDACT:UP  15-03-18 15:25 OP:stll STATUS:               ID:20150318020741d    3
 OLDACT:DUP 15-03-18 15:22 OP:stll STATUS:               ID:20150318020741d    3
 2015-03-18-0207-39M.COL___272                                                 6
 STAT SP IPHASW D HRMM SECON CODA AMPLIT PERI AZIMU VELO AIN AR TRES W  DIS CAZ7
 BAR2 EZ EP        215 22.91                             171   -0.3010 21.5 210 
 PAM  SZ EP        215 25.86                             151    0.0810 76.9  34 
 PAM  SZ I         215 26.13         2.4 0.22            151           76.9  34 
 BRR  HZ EP        215 24.82                             150   -0.3910 79.2 299 
 BRR  HN ES        215 42.47                             150    0.2810 79.2 299 
 RUS  HZ EP        215 27.56                             145    0.5510 96.0 180 
 RUS  HN ES        215 45.17                             145   -0.2210 96.0 180 
                                                                                
