 2010  818 0414 39.6 L   6.780 -73.034143.2  RSN  9 0.4 1.9LRSN                1
 GAP=171        0.96       4.5     7.0  7.7 -0.1002E+02 -0.1512E+01  0.1711E+01E
 Epicentro: CEPITA - SANTANDER                                                 3
 ACTION:UP  10-09-07 10:55 OP:vdl  STATUS:               ID:20100818041439 L   I
 2010-08-18-0410-41S.COL___111                                                 6
 STAT SP IPHASW D HRMM SECON CODA AMPLIT PERI AZIMU VELO SNR AR TRES W  DIS CAZ7
 BAR2 SZ EP        414 58.92                             169    -0.110   27 218 
 BAR2 SZ ES   1    415 13.92                             169    -0.2 7   27 218 
 BAR2 SZ I         415 15.66        18.5 0.46                            27 218 
 BRR  HZ EP        415  0.71                             148    -0.510   83 296 
 BRR  HZ I         415  1.00        22.6 0.18                            83 296 
 BRR  HN ES        415 18.24                             148     0.210   83 296 
 RUS  HZ EP   1    415  2.95                             144     0.0 7   98 183 
 RUS  HN ES   1    415 21.42                             144     0.3 7   98 183 
 RUS  HZ I         415 22.67         6.6 0.43                            98 183 
 GUE  SZ EP   1    415  3.67                             139    -0.4 7  117   6 
 GUE  SZ I         415  5.43         3.6 0.08                           117   6 
 GRA  SZ EP        415  4.63                             137     0.110  125  12 
 GRA  SZ I         415  5.80        10.2 0.18                           125  12 
 GRA  SZ ES   1    415 24.63                             137     0.6 7  125  12 
 OCA  SZ ES   2    415 30.39                             128     0.0 5  164 349 
 OCA  SZ I         415 34.08         8.8 0.18                           164 349 
 HEL  HN ES   2    415 52.92                             113    -0.3 4  284 257 
 HEL  HZ I         415 57.23         3.9 0.17                           284 257 
 RREF HZ EP   1    415 27.62                             110     1.0 5  330 231 
 RREF HN ES   1    416  3.60                             110     0.4 5  330 231 
 RREF HZ I         416  7.37         4.4 0.31                           330 231 
 PRA  HN ES   2    416 14.99                             106    -0.7 3  396 211 
 PRA  HZ I         416 20.55         5.5 0.56                           396 211 
                                                                                
