 2011  918 0256 30.2 L   6.772 -73.113150.0  RSN  4 0.3 1.4LRSN                1
 GAP=142        0.49       3.8     5.7  6.3  0.4594E+01  0.6629E+01  0.7498E+01E
 Epicentro: LOS SANTOS - SANTANDER                                             3
 ACTION:UPD 12-07-13 15:58 OP:ep   STATUS:               ID:20110918025630 L   I
 2011-09-18-0240-00M.COL___173                                                 6
 STAT SP IPHASW D HRMM SECON CODA AMPLIT PERI AZIMU VELO AIN AR TRES W  DIS CAZ7
 GIR2 SZ ES   3    257  5.09                             166   -1.24 2 35.0 345 
 BRR  HZ EP        256 52.01                             152   -0.0910 75.9 299 
 BRR  HZ I         256 54.07         4.1 0.12                          75.9 299 
 BRR  HE ES   1    257  9.35                             152    0.19 7 75.9 299 
 PAM  SN ES   1    257 10.71                             152    0.11 7 77.6  36 
 RUS  HZ EP        256 54.10                             146   -0.0710 97.3 178 
 RUS  HE ES   1    257 12.98                             146    0.13 7 97.3 178 
                                                                                
