 2014  618 0745 40.3 L   6.886 -73.292125.1  RSN  8 0.5 1.6LRSN                1
 GAP=161        1.07       3.5     5.1 10.8 -0.9666E+00  0.7353E+01 -0.6450E+01E
 Epicentro: BETULIA - SANTANDER                                                3
 ACTION:UPD 14-07-01 22:54 OP:nd   STATUS:               ID:20140618074540 L   I
 OLDACT:UP  14-06-18 16:28 OP:mh   STATUS:               ID:20140618073817     3
 OLDACT:REG 14-06-18 12:34 OP:mh   STATUS:               ID:20140618073817     3
 2014-06-18-0738-17M.COL___256                                                 6
 STAT SP IPHASW D HRMM SECON CODA AMPLIT PERI AZIMU VELO AIN AR TRES W  DIS CAZ7
 BAR2 SZ EP     C  745 58.12                             163    0.3910 34.7 160 
 BAR2 SZ I         746 12.41        13.6 0.25            165           34.7 160 
 RUS  HZ EP        746  3.33                             135    0.3310  112 168 
 RUS  HN ES   1    746 20.69                             135   -0.05 7  112 168 
 RUS  HZ I         746 21.90         4.5 0.07            140            112 168 
 PTB  HZ EP        746  3.43                             130   -0.9010  134 253 
 PTB  HZ IP     D  746  3.44                             130   -0.8910  134 253 
 PTB  HN ES        746 23.37                             130    0.2510  134 253 
 PTB  HZ I         746 25.87                             135            134 253 
 OCA  HZ EP   1    746  6.04                             126    0.05 7  150 359 
 OCA  HN ES        746 25.72                             126   -0.34 9  150 359 
 OCA  HZ I         746 30.28         7.5 0.14            132            150 359 
 SPBC HZ EP        746  7.49                             124    0.41 9  161 212 
 SPBC HN ES   1    746 27.56                             124   -0.45 7  161 212 
 SPBC HZ I         746 33.90         4.5 0.24            129            161 212 
 ZAR  HZ EP        746  9.80                             120    0.34 9  186 291 
 ZAR  HN ES   1    746 32.82                             120    0.58 7  186 291 
 ZAR  HZ I         746 36.70         5.0 0.14            125            186 291 
 SML  HZ EP        746 14.32                             114    0.21 8  229 338 
 SML  HN ES   1    746 40.50                             114   -0.03 6  229 338 
 HEL  HZ EP   1    746 18.28                             111    0.26 6  259 253 
 HEL  HN ES   1    746 47.85                             111    0.37 6  259 253 
 HEL  HZ I         746 52.54         1.8 0.27            116            259 253 
                                                                                
