 2013  618 0838 12.7 L   6.786 -73.197133.9  RSN  5 0.3 1.4LRSN                1
 GAP=178        0.59       3.6     5.2  7.4  0.1793E+01  0.9817E+01 -0.4929E+01E
 Epicentro: ZAPATOCA - SANTANDER                                               3
 ACTION:UPD 14-01-08 09:55 OP:ep   STATUS:               ID:20130618083812 L   I
 OLDACT:REG 13-06-18 08:28 OP:carl STATUS:               ID:20130618082959     3
 2013-06-18-0829-59M.COL___261                                                 6
 STAT SP IPHASW D HRMM SECON CODA AMPLIT PERI AZIMU VELO AIN AR TRES W  DIS CAZ7
 BAR2 SZ EP   1    838 30.91                             170    0.05 7 21.5 176 
 BAR2 SZ ES   1    838 44.85                             170   -0.17 7 21.5 176 
 BAR2 SZ I         838 46.95         4.5 0.28            170           21.5 176 
 BRR  HZ EP   1    838 32.95                             152    0.62 7 67.1 302 
 BRR  HN ES   4    838 50.20                             152    2.56 0 67.1 302 
 BRR  HZ I         838 50.67         5.9 0.32            145           67.1 302 
 RUS  HZ EP   1    838 34.96                             141   -0.26 7 99.6 173 
 RUS  HN ES   1    838 52.97                             141    0.18 7 99.6 173 
 RUS  HZ I         838 54.13         4.8 0.34            149           99.6 173 
 PTB  HZ EP   1    838 37.90                             130   -0.27 7  142 259 
 PTB  HN ES   1    838 58.00                             130   -0.04 7  142 259 
 PTB  HZ I         839  8.99         4.0 0.24            129            142 259 
 OCA  HN ES   1    839  1.49                             127   -0.17 7  161 355 
 OCA  HZ I         839 11.91         3.8 0.28            127            161 355 
                                                                                
