 2017  918 0418 57.9 L   6.729 -73.277123.9  RSN  4 0.2 0.8LRSN                1
 GAP=194        0.59       5.9     6.9  4.8  0.3478E+02  0.1138E+02  0.5615E+01E
 Epicentro: ZAPATOCA - SANTANDER                                               3
 ACTION:UPD 17-10-05 19:13 OP:rebc STATUS:               ID:20170918041857 L   I
 OLDACT:REG 17-09-18 12:49 OP:and  STATUS:               ID:20170918040742     3
 2017-09-18-0408-00M.COL___430                                                 6
 STAT SP IPHASW D HRMM SECON CODA AMPLIT PERI AZIMU VELO AIN AR TRES W  DIS CAZ7
 BAR2 EZ EP        419 14.89                             171    0.0610 18.3 145 
 BAR2 EZ ES        419 28.24                             171    0.2310 18.3 145 
 BAR2 EZ I         419 29.72         2.7 0.14            171           18.3 145 
 BRR  HZ IP     D  419 15.88                             151   -0.4210 63.8 311 
 BRR  HN ES        419 30.59                             151   -0.0410 63.8 311 
 BRR  HZ I         419 31.55         2.3 0.16            152           63.8 311 
 RUS  HZ EP        419 19.31                             140    0.1610 94.9 167 
 RUS  HN ES        419 35.50                             140   -0.2010 94.9 167 
 RUS  HZ I         419 36.99         0.7 0.26            141           94.9 167 
 ZAR  HZ EP        419 28.21                             118    0.24 9  194 296 
 ZAR  HN ES        419 51.44                             118    0.04 9  194 296 
                                                                                
