 2013 1018 0234 39.4 L   6.769 -73.137144.5  RSN  8 0.5 1.6LRSN                1
 GAP=201        1.18       5.6     6.4  8.6  0.6600E+01  0.1148E+02  0.3221E+01E
 Epicentro: LOS SANTOS - SANTANDER                                             3
 ACTION:UPD 13-11-25 09:22 OP:ep   STATUS:               ID:20131018023439 L   I
 OLDACT:DUP 13-10-18 09:39 OP:jn   STATUS:               ID:20131018022836d    3
 2013-10-18-0228-35M.COL___226                                                 6
 STAT SP IPHASW D HRMM SECON CODA AMPLIT PERI AZIMU VELO AIN AR TRES W  DIS CAZ7
 BAR2 SZ EP        234 58.79                             172   -0.0010 20.2 194 
 BAR2 SZ ES        235 13.26                             172   -0.6810 20.2 194 
 BAR2 SZ I         235 14.91        14.4 0.14            168           20.2 194 
 BRR  HZ EP        235  0.69                             151    0.1610 73.7 301 
 BRR  HN ES        235 17.70                             151    0.6710 73.7 301 
 BRR  HZ I         235 19.25         6.9 0.22            151           73.7 301 
 RUS  HZ EP        235  2.72                             145   -0.0310 97.1 176 
 RUS  HN ES        235 21.47                             145    0.4810 97.1 176 
 RUS  HZ I         235 22.31         2.2 0.20            145           97.1 176 
 PTB  HZ EP        235  5.58                             132   -0.68 9  148 260 
 PTB  HN ES        235 26.44                             132   -0.80 9  148 260 
 PTB  HZ I         235 31.29         4.8 0.14            131            148 260 
 SPBC HZ EP        235  7.59                             129    0.01 9  161 220 
 SPBC HN ES        235 29.60                             129    0.02 9  161 220 
 SPBC HZ I         235 35.12         5.9 0.10            129            161 220 
 ZAR  HN ES   1    235 37.71                             122    0.33 6  206 293 
 NOR  HN ES        235 43.28                             118    0.68 8  233 235 
 SML  HN ES   2    235 45.57                             117    0.45 4  247 335 
                                                                                
