 2010 1218 0858 17.5 L   6.812 -73.058143.5  RSN  4 0.1 1.2LRSN                1
 GAP=209        0.42       7.2    12.5  5.4  0.7805E+02 -0.3621E+02 -0.1895E+02E
 Epicentro: LOS SANTOS - SANTANDER                                             3
 ACTION:UP  11-01-14 15:25 OP:pat  STATUS:               ID:20101218085817 L   I
 2010-12-18-0856-00S.COL___135                                                 6
 STAT SP IPHASW D HRMM SECON CODA AMPLIT PERI AZIMU VELO SNR AR TRES W  DIS CAZ7
 BAR2 SZ EP        858 37.09                             168     0.110   28 210 
 BAR2 SZ ES   1    858 52.13                             168    -0.1 7   28 210 
 BAR2 SZ I         858 53.05         5.3 0.51                            28 210 
 GIR2 SZ EP   3    858 36.88                             166    -0.1 2   33 333 
 BRR  HZ EP        858 38.75                             149    -0.210   79 294 
 BRR  HN ES   1    858 55.79                             149     0.2 7   79 294 
 RUS  HZ EP        858 41.28                             143     0.110  102 182 
 RUS  HN ES   1    858 59.44                             143    -0.1 7  102 182 
 RUS  HZ I         859  0.81         1.4 0.39                           102 182 
                                                                                
