 2016  218 0946 49.3 L   6.776 -73.127143.3  RSN  8 0.4 1.6LRSN                1
 GAP=140        1.05       3.5     5.1  6.2 -0.8912E+00  0.6878E+01  0.1193E+01E
 Epicentro: LOS SANTOS - SANTANDER                                             3
 ACTION:UPD 16-03-04 21:27 OP:rebc STATUS:               ID:20160218094649 L   I
 OLDACT:REG 16-02-18 12:49 OP:drio STATUS:               ID:20160218093747     3
 2016-02-18-0937-47M.COL___324                                                 6
 STAT SP IPHASW D HRMM SECON CODA AMPLIT PERI AZIMU VELO AIN AR TRES W  DIS CAZ7
 BAR2 EZ EP        947  8.47                             171   -0.1210 21.3 197 
 BAR2 EZ ES        947 23.20                             171   -0.4310 21.3 197 
 BAR2 EZ I         947 24.28         8.2 0.36            170           21.3 197 
 BRR  HZ EP        947 10.34                             151   -0.0210 74.3 300 
 BRR  HE ES        947 27.35                             151    0.5610 74.3 300 
 PAM  EZ EP        947 11.70                             150    0.4110 78.1  37 
 PAM  EE ES        947 28.39                             150   -0.0610 78.1  37 
 PAM  EZ I         947 30.40        10.6 0.46            152           78.1  37 
 RUS  HZ EP        947 12.48                             144   -0.1210 97.8 177 
 RUS  HN ES        947 31.23                             144    0.4410 97.8 177 
 RUS  HZ I         947 32.66         4.4 0.36            144           97.8 177 
 SPBC HZ EP        947 17.58                             129    0.04 9  162 220 
 SPBC HE ES        947 39.03                             129   -0.54 9  162 220 
 SPBC HZ I         947 42.73         6.7 0.20            128            162 220 
 OCA  HZ EP        947 16.93                             129   -0.76 9  163 353 
 OCA  HE ES   4    947 38.61                             129   -1.22 0  163 353 
 OCA  HZ I         947 43.95         9.6 0.20            129            163 353 
 ZAR  HZ EP        947 21.83                             121   -0.05 8  207 293 
 ZAR  HE ES        947 47.46                             121    0.16 8  207 293 
 ZAR  HZ I         947 53.28         4.4 0.32            121            207 293 
 CHI  HZ EP        947 27.53                             117    0.89 8  247 196 
 CHI  HN ES        947 55.37                             117   -0.40 8  247 196 
 CHI  HZ I         948  4.24         1.6 0.38            117            247 196 
                                                                                
