 2011 1118 0546 57.1 L   6.800 -73.086142.2  RSN 12 0.3 2.2LRSN                1
 GAP=144        0.42       2.1     3.1  4.1 -0.1055E+01  0.3773E+01  0.8128E+00E
 Epicentro: LOS SANTOS - SANTANDER                                             3
 ACTION:UPD 12-07-13 16:10 OP:ep   STATUS:               ID:20111118054657 L   I
 2011-11-18-0542-31S.COL___179                                                 6
 STAT SP IPHASW D HRMM SECON CODA AMPLIT PERI AZIMU VELO AIN AR TRES W  DIS CAZ7
 BAR2 SZ IP        547 16.30                             169   -0.0410 25.4 205 
 BAR2 SZ ES   2    547 31.15                             169   -0.21 5 25.4 205 
 BAR2 SZ I         547 33.08        23.9 0.40                          25.4 205 
 PAM  SZ EP   1    547 19.16                             151    0.47 7 73.3  36 
 PAM  SN ES   2    547 35.81                             151    0.27 5 73.3  36 
 BRR  HZ EP        547 18.20                             150   -0.0110 77.0 296 
 BRR  HZ I         547 18.55        23.3 0.14                          77.0 296 
 BRR  HN ES   2    547 34.99                             150    0.31 5 77.0 296 
 RUS  HZ EP   1    547 20.31                             143   -0.17 7  100 180 
 RUS  HE ES   2    547 38.42                             143   -0.31 5  100 180 
 RUS  HZ I         547 42.02         7.8 0.21                           100 180 
 OCA  SZ EP   2    547 25.31                             129    0.10 5  161 351 
 OCA  SZ ES   2    547 46.84                             129   -0.31 5  161 351 
 OCA  SZ I         547 51.74        21.6 0.27                           161 351 
 ZAR  HZ EP   2    547 29.92                             121   -0.03 4  210 291 
 ZAR  HE ES   2    547 54.85                             121   -0.73 4  210 291 
 ZAR  HZ I         548  0.79        15.1 0.23                           210 291 
 NOR  SZ EP   2    547 33.28                             117    0.07 4  240 235 
 NOR  SN ES   2    548  1.46                             117    0.08 4  240 235 
 CHI  HZ EP   2    547 34.62                             116   -0.18 4  250 197 
 CHI  HZ I         547 37.11         7.4 0.46                           250 197 
 CHI  HN ES   2    548  4.06                             116   -0.15 4  250 197 
 HEL  HZ EP   2    547 38.52                             113    0.68 4  278 256 
 HEL  HN ES   2    548  9.82                             113    0.19 4  278 256 
 HEL  HZ I         548 15.57         9.4 0.39                           278 256 
 RREF HZ EP   2    547 43.63                             110   -0.04 3  327 230 
 RREF HN ES   2    548 20.35                             110    0.36 3  327 230 
 RREF HZ I         548 27.95         7.5 0.53                           327 230 
 COD  HZ EP   2    547 44.82                             108   -0.59 3  349 354 
 COD  HZ I         547 46.68        14.3 0.63                           349 354 
 COD  HN ES   2    548 22.64                             108   -0.45 3  349 354 
 PRA  HZ EP   1    547 51.07                             106    0.18 4  395 210 
 PRA  HN ES   2    548 32.68                             106   -0.16 3  395 210 
                                                                                
