 2017  318 0149 52.3 L   6.755 -73.158140.3  RSN  5 0.3 1.3LRSN                1
 GAP=232        0.72       4.0     5.1  5.7  0.9540E+01  0.6391E+01  0.2990E+01E
 Epicentro: LOS SANTOS - SANTANDER                                             3
 ACTION:UPD 17-05-25 18:41 OP:jn   STATUS:               ID:20170318014952 L   I
 OLDACT:UP  17-03-18 15:09 OP:cog  STATUS:               ID:20170318014744     3
 OLDACT:REG 17-03-18 13:13 OP:cog  STATUS:               ID:20170318014744     3
 2017-03-18-0148-00M.COL___400                                                 6
 STAT SP IPHASW D HRMM SECON CODA AMPLIT PERI AZIMU VELO AIN AR TRES W  DIS CAZ7
 BAR2 EZ EP        150 10.95                             172   -0.2610 18.2 188 
 BAR2 EZ ES        150 25.66                             172   -0.2710 18.2 188 
 BAR2 EZ I         150 28.29         6.5 0.46            165           18.2 188 
 BRR  HZ EP        150 13.13                             151    0.1610 72.5 303 
 BRR  HN ES        150 29.18                             151    0.1110 72.5 303 
 RUS  HZ EP        150 15.02                             144   -0.1810 95.7 175 
 RUS  HN ES        150 33.55                             144    0.5210 95.7 175 
 RUS  HZ I         150 34.27         1.6 0.24            143           95.7 175 
 SPBC HZ EP        150 20.14                             129    0.18 9  158 220 
 SPBC HN ES        150 41.18                             129   -0.33 9  158 220 
 SPBC HZ I         150 48.11         5.2 0.10            126            158 220 
 ZAR  HZ EP   4    150 26.39                             121    1.89 0  205 294 
 ZAR  HN ES        150 49.67                             121    0.08 9  205 294 
 ZAR  HZ I         150 54.69         2.0 0.48            121            205 294 
                                                                                
