 2011  918 0050 43.1 L   6.776 -73.078138.7  RSN  7 0.3 2.0LRSN                1
 GAP=146        0.61       3.6     5.1  5.6 -0.4501E+01  0.2915E+01  0.8448E+01E
 Epicentro: LOS SANTOS - SANTANDER                                             3
 ACTION:UPD 12-07-13 15:58 OP:ep   STATUS:               ID:20110918005043 L   I
 2011-09-18-0049-28S.COL___170                                                 6
 STAT SP IPHASW D HRMM SECON CODA AMPLIT PERI AZIMU VELO AIN AR TRES W  DIS CAZ7
 BTL  SZ EP        051  1.90                             169   -0.0910 26.2 307 
 GIR2 SZ EP        051  1.68                             165   -0.4410 35.8 339 
 GIR2 SZ ES   2    051 16.98                             165    0.07 5 35.8 339 
 PAM  SZ EP        051  4.61                             150    0.1410 75.0  34 
 PAM  SN ES   1    051 21.50                             150    0.39 7 75.0  34 
 BRR  HE ES   1    051 20.18                             149   -0.11 7 79.0 298 
 RUS  HZ EP        051  5.80                             143   -0.2010 97.7 180 
 RUS  HE ES   1    051 24.02                             143    0.19 7 97.7 180 
 RUS  HZ I         051 25.84        17.5 0.26                          97.7 180 
 CHI  HZ EP        051 20.54                             116    0.13 8  248 197 
 CHI  HE ES   2    051 49.04                             116   -0.44 4  248 197 
 CHI  HZ I         051 56.54         5.9 0.64                           248 197 
 GUY  SZ EP        051 27.72                             110    0.49 7  308 236 
 GUY  SN ES   2    052  2.02                             110    0.40 4  308 236 
 GUY  SZ I         052  9.93         6.5 0.72                           308 236 
                                                                                
