 2015  118 0434 46.1 L   6.851 -73.137139.1  RSN  7 0.4 1.3LRSN                1
 GAP=135        1.06       3.7     5.1  6.6 -0.2503E+01  0.8206E+01 -0.3086E+01E
 Epicentro: LOS SANTOS - SANTANDER                                             3
 ACTION:UPD 15-03-02 15:40 OP:nd   STATUS:               ID:20150118043446 L   I
 OLDACT:REG 15-01-18 16:20 OP:carl STATUS:               ID:20150118042743     3
 2015-01-18-0427-43M.COL___259                                                 6
 STAT SP IPHASW D HRMM SECON CODA AMPLIT PERI AZIMU VELO AIN AR TRES W  DIS CAZ7
 BAR2 EZ ES        435 19.43                             168   -0.4310 29.1 190 
 BRR  HZ EP        435  6.44                             152    0.0110 69.5 294 
 BRR  HN ES        435 23.01                             152    0.7110 69.5 294 
 PAM  SZ EP        435  8.06                             151    0.7410 72.5  42 
 PAM  SN ES        435 23.40                             151   -0.4610 72.5  42 
 PAM  SZ I         435 27.13         4.2 0.52            154           72.5  42 
 RUS  HZ EP        435  9.48                             141   -0.1510  106 177 
 RUS  HN ES        435 28.09                             141    0.1110  106 177 
 RUS  HZ I         435 29.99         1.4 0.24            143            106 177 
 PTB  HZ EP        435 12.15                             130   -0.58 9  150 257 
 PTB  HN ES        435 33.21                             130   -0.29 9  150 257 
 PTB  HZ I         435 37.37         2.1 0.46            131            150 257 
 SPBC HZ EP        435 14.60                             126    0.01 9  168 218 
 SPBC HN ES        435 37.16                             126    0.36 9  168 218 
 SPBC HZ I         435 41.46         3.2 0.10            128            168 218 
 SML  HZ EP        435 21.90                             116    0.06 8  239 335 
 SML  HE ES        435 49.52                             116   -0.20 8  239 335 
 SML  HZ I         435 52.92         3.1 0.16            118            239 335 
                                                                                
