 2015  818 0740 23.5 L   6.806 -73.097146.0  RSN 16 0.5 2.0LRSN                1
 GAP=188        0.98       2.8     4.6  5.5 -0.1819E+01  0.6384E+01  0.7133E+00E
 Epicentro: LOS SANTOS - SANTANDER                                             3
 ACTION:UPD 15-09-15 23:03 OP:cam  STATUS:               ID:20150818074023 L   I
 OLDACT:REG 15-08-18 13:39 OP:spq  STATUS:               ID:20150818073748     3
 2015-08-18-0737-48M.COL___322                                                 6
 STAT SP IPHASW D HRMM SECON CODA AMPLIT PERI AZIMU VELO AIN AR TRES W  DIS CAZ7
 BAR2 EZ EP        740 43.20                             170   -0.0310 25.5 202 
 BAR2 EZ ES   1    740 58.24                             170   -0.36 7 25.5 202 
 BAR2 EZ I         741  0.87        21.3 0.24            167           25.5 202 
 BRR  HZ EP     D  740 45.06                             151    0.1010 75.7 296 
 BRR  HE ES        741  2.49                             151    0.8210 75.7 296 
 BRR  HZ I         741  5.96         9.8 0.36            149           75.7 296 
 RUS  HZ EP        740 47.05                             144   -0.2810  101 179 
 RUS  HE ES        741  6.11                             144    0.2110  101 179 
 RUS  HZ I         741  8.65         7.3 0.40            146            101 179 
 OCA  HZ EP        740 51.26                             130   -0.60 9  160 351 
 OCA  HN ES        741 14.34                             130    0.38 9  160 351 
 OCA  HZ I         741 19.84        20.4 0.24            132            160 351 
 SPBC HZ EP        740 52.14                             129   -0.28 9  167 220 
 SPBC HN ES        741 14.47                             129   -0.48 9  167 220 
 SPBC HZ I         741 16.92        16.1 0.28            129            167 220 
 ZAR  HZ EP        740 56.49                             122    0.01 8  209 291 
 ZAR  HE ES        741 21.84                             122   -0.34 8  209 291 
 ZAR  HZ I         741 28.38         8.7 0.14            123            209 291 
 NOR  HZ EP        740 59.87                             118    0.09 8  239 235 
 NOR  HE ES        741 27.64                             118   -0.42 8  239 235 
 NOR  HZ I         741 31.76         7.1 0.18            119            239 235 
 SML  HZ EP        740 59.51                             118   -0.84 8  245 334 
 SML  HE ES   1    741 29.56                             118    0.49 6  245 334 
 SML  HZ I         741 31.39        14.4 0.10            119            245 334 
 ROSC BZ EP        741  2.90                             117    0.87 8  256 212 
 ROSC BN ES   4    741 34.33                             117    2.27 0  256 212 
 ROSC BZ I         741 40.73         8.3 0.40            118            256 212 
 HEL  HZ EP   4    741  5.50                             115    1.15 0  277 256 
 HEL  HN ES   1    741 35.75                             115   -0.44 6  277 256 
 HEL  HZ I         741 41.78         4.7 0.26            115            277 256 
 GUY2CHZ EP        741  7.95                             112    0.26 7  306 235 
 GUY2CHE ES   1    741 41.65                             112   -0.48 5  306 235 
 GUY2CHZ I         741 51.95         4.9 0.50                           306 235 
 PTGC HZ EP   4    741  6.18                             112   -1.07 0  307 160 
 PTGC HN ES   4    741 39.80                             112   -1.55 0  307 160 
 PTGC HZ I         741 40.66         5.6 0.30            115            307 160 
 CBOC HZ EP   1    741 11.82                             110    0.76 5  339 252 
 CBOC HE ES   1    741 48.07                             110   -0.07 5  339 252 
 CBOC HZ I         741 55.36         1.4 0.40            111            339 252 
 TOL  SZ EP   1    741 12.17                             109   -0.11 5  348 225 
 TOL  SE ES        741 50.73                             109    0.42 6  348 225 
 TOL  SZ I         741 55.07         2.8 0.46            111            348 225 
 ORTC HZ EP   1    741 18.27                             106    0.38 4  399 217 
 ORTC HN ES        742  0.95                             106    0.65 6  399 217 
 ORTC HZ I         742  7.08         3.1 0.50            108            399 217 
 SJC  HZ EP   4    741 17.72                             106   -1.66 0  412 326 
 SJC  HN ES   4    741 59.89                             106   -3.05 0  412 326 
 SJC  HZ I         742  1.86         2.0 0.78            107            412 326 
                                                                                
