 2015  518 0312 49.9 L   6.838 -73.098148.0  RSN  9 0.3 1.6LRSN                1
 GAP=188        0.65       2.4     4.3  5.1 -0.7223E+00  0.3047E+01 -0.2788E+01E
 Epicentro: LOS SANTOS - SANTANDER                                             3
 ACTION:UPD 15-09-10 22:04 OP:cam  STATUS:               ID:20150518031249 L   I
 OLDACT:REG 15-05-18 12:31 OP:spq  STATUS:               ID:20150518030749     3
 2015-05-18-0307-49M.COL___286                                                 6
 STAT SP IPHASW D HRMM SECON CODA AMPLIT PERI AZIMU VELO AIN AR TRES W  DIS CAZ7
 BAR2 EZ EP        313  9.91                             169    0.0310 28.8 199 
 BAR2 EZ ES   1    313 25.45                             169   -0.04 7 28.8 199 
 BAR2 EZ I         313 26.38         6.5 0.14            167           28.8 199 
 BRR  HZ EP   1    313 11.71                             152    0.30 7 74.1 294 
 BRR  HN ES        313 28.64                             152    0.4110 74.1 294 
 BRR  HZ I         313 30.95         6.2 0.46            148           74.1 294 
 RUS  HN ES   1    313 32.93                             143   -0.11 7  105 179 
 RUS  HZ I         313 33.53         4.8 0.24            145            105 179 
 OCA  HZ EP   1    313 18.19                             131    0.17 7  157 351 
 OCA  HN ES        313 39.77                             131   -0.22 9  157 351 
 OCA  HZ I         313 45.49         8.6 0.46            131            157 351 
 SPBC HZ EP   1    313 19.13                             128   -0.03 7  170 219 
 SPBC HE ES        313 41.73                             128   -0.28 9  170 219 
 SPBC HZ I         313 47.80         7.3 0.22            128            170 219 
 ZAR  HZ EP   1    313 23.59                             122    0.79 6  207 291 
 ZAR  HE ES        313 48.35                             122   -0.14 8  207 291 
 ZAR  HZ I         313 56.48         3.2 0.28            122            207 291 
 NOR  HN ES   1    313 54.83                             118   -0.15 6  241 234 
 NOR  HZ I         313 58.74         3.0 0.32            118            241 234 
 SML  HZ EP        313 26.21                             118   -0.24 8  242 334 
 SML  HE ES   1    313 54.44                             118   -0.54 6  242 334 
 SML  HZ I         314  0.66         3.6 0.10            118            242 334 
 GUY2CHZ EP   4    313 37.13                             112    2.80 0  308 235 
 MON  HN ES   4    314 15.67                             109   -1.89 0  355 307 
 MON  HZ I         314 17.91         0.7 0.68            109            355 307 
                                                                                
