 2013  918 0726 23.5 L   6.811 -73.155146.0  RSN 10 0.4 1.8LRSN                1
 GAP=182        1.05       3.1     5.2  6.4  0.2667E+00  0.5615E+01 -0.6500E+00E
 Epicentro: LOS SANTOS - SANTANDER                                             3
 ACTION:UPD 13-10-22 09:23 OP:ep   STATUS:               ID:20130918072623 L   I
 OLDACT:REG 13-09-18 07:44 OP:carl STATUS:               ID:20130918071959     3
 2013-09-18-0719-59M.COL___269                                                 6
 STAT SP IPHASW D HRMM SECON CODA AMPLIT PERI AZIMU VELO AIN AR TRES W  DIS CAZ7
 BAR2 SZ EP        726 43.36                             170    0.2010 24.4 187 
 BAR2 SZ ES        726 57.80                             170   -0.7110 24.4 187 
 BAR2 SZ I         726 59.94        11.7 0.34            170           24.4 187 
 BRR  HZ EP        726 45.12                             153    0.5510 69.8 298 
 BRR  HN ES        727  1.50                             153    0.4710 69.8 298 
 BRR  HZ I         727  5.37         9.4 0.26            152           69.8 298 
 RUS  HZ EP        726 47.32                             143   -0.0210  102 176 
 RUS  HN ES   1    727  6.15                             143    0.19 7  102 176 
 RUS  HZ I         727  6.99         6.1 0.26            146            102 176 
 PTB  HZ EP        726 49.60                             132   -0.80 9  147 258 
 PTB  HN ES        727 11.12                             132   -0.28 9  147 258 
 PTB  HZ I         727 12.92         8.0 0.42            133            147 258 
 OCA  HN ES        727 13.81                             130    0.12 9  159 353 
 SPBC HZ EP        726 52.23                             129    0.21 9  163 218 
 SPBC HN ES        727 14.63                             129    0.34 9  163 218 
 SPBC HZ I         727 18.52         9.6 0.48            130            163 218 
 ZAR  HZ EP        726 56.12                             123    0.32 9  203 292 
 ZAR  HN ES        727 21.44                             123    0.43 9  203 292 
 ZAR  HZ I         727 27.40         6.1 0.34            124            203 292 
 NOR  HZ EP        726 58.82                             118   -0.39 8  235 234 
 NOR  HN ES        727 26.82                             118   -0.26 8  235 234 
 SML  HZ EP        727  0.08                             118    0.13 8  242 335 
 SML  HN ES        727 27.60                             118   -0.81 8  242 335 
 CHI  HN ES   1    727 31.04                             117    0.26 6  250 195 
                                                                                
