 2013  718 0436  2.6 L   6.775 -73.131141.7  RSN  8 0.4 2.1LRSN                1
 GAP=184        0.89       3.8     5.3  6.8 -0.1783E+01  0.4643E+01  0.1123E+01E
 Epicentro: LOS SANTOS - SANTANDER                                             3
 ACTION:UPD 13-08-12 10:38 OP:ep   STATUS:               ID:20130718042960dL   I
 OLDACT:DUP 13-07-18 10:00 OP:mher STATUS:               ID:20130718042960dL   3
 OLDACT:UPD 13-07-18 09:48 OP:stll STATUS:               ID:20130718042959 L   3
 2013-07-18-0429-59M.COL___267                                                 6
 STAT SP IPHASW D HRMM SECON CODA AMPLIT PERI AZIMU VELO AIN AR TRES W  DIS CAZ7
 BAR2 SZ EP   1    436 21.93                             171    0.22 7 21.0 196 
 BAR2 SZ ES   1    436 36.58                             171   -0.02 7 21.0 196 
 BAR2 SZ I         436 38.36        11.8 0.18            169           21.0 196 
 GIR2 SZ EP        436 21.99                             166    0.1010 34.3 348 
 GIR2 SZ ES   1    436 36.83                             166   -0.09 7 34.3 348 
 GIR2 SZ I         436 39.27        10.4 0.10            166           34.3 348 
 BRR  HZ EP        436 23.75                             151    0.2710 73.9 300 
 BRR  HN ES        436 40.27                             151    0.5110 73.9 300 
 BRR  HN I         436 41.10        39.6 0.32            150           73.9 300 
 RUS  HZ EP   1    436 25.98                             144    0.22 7 97.8 177 
 RUS  HN ES        436 43.39                             144   -0.4210 97.8 177 
 RUS  HN I         436 46.19         6.9 0.74            145           97.8 177 
 PTB  HZ EP   1    436 28.82                             131   -0.52 7  149 260 
 PTB  HN ES        436 49.44                             131   -0.76 9  149 260 
 PTB  HN I         436 54.75        32.3 0.50            130            149 260 
 SPBC HZ EP   1    436 30.96                             128    0.27 7  162 220 
 SPBC HN ES   1    436 53.33                             128    0.73 7  162 220 
 OCA  HZ EP   2    436 30.31                             128   -0.57 5  163 353 
 OCA  HN ES   1    436 52.71                             128   -0.23 7  163 353 
 OCA  HN I         436 54.58        35.8 0.26            130            163 353 
 NOR  HE ES   1    437  5.81                             118    0.07 6  234 235 
 NOR  HN I         437 11.85        15.0 0.16            118            234 235 
                                                                                
