 2013  218 0013 25.1 L   6.803 -73.174143.2  RSN  8 0.4 1.7LRSN                1
 GAP=133        0.82       3.8     4.7  6.9  0.7405E+00  0.5134E+01 -0.6296E+01E
 Epicentro: LOS SANTOS - SANTANDER                                             3
 ACTION:UPD 13-03-12 09:33 OP:ep   STATUS:               ID:20130218001325 L   I
 2013-02-18-0010-00M.COL___241                                                 6
 STAT SP IPHASW D HRMM SECON CODA AMPLIT PERI AZIMU VELO AIN AR TRES W  DIS CAZ7
 BAR2 SZ EP   1    013 44.53                             170    0.16 7 23.3 182 
 BAR2 SZ ES   1    013 59.37                             170   -0.07 7 23.3 182 
 BAR2 SZ I         014  0.70        20.6 0.16            171           23.3 182 
 BRR  HZ EP   1    013 46.43                             153    0.67 7 68.3 300 
 BRR  HN ES   1    014  2.49                             153    0.58 7 68.3 300 
 BRR  HZ I         014  6.66        11.9 0.38            152           68.3 300 
 PAM  SZ EP   1    013 47.50                             150    0.40 7 79.2  41 
 PAM  SE ES   1    014  4.36                             150    0.06 7 79.2  41 
 PAM  SZ I         014  6.29         9.4 0.44            154           79.2  41 
 RUS  HZ EP   1    013 48.60                             143    0.01 7  101 174 
 RUS  HN ES   1    014  6.25                             143   -0.70 7  101 174 
 RUS  HZ I         014  8.60         3.4 0.54            147            101 174 
 PTB  HZ EP   1    013 51.45                             132   -0.08 7  145 258 
 PTB  HN ES   1    014 11.99                             132   -0.20 7  145 258 
 PTB  HZ I         014 14.78         5.9 0.16            133            145 258 
 OCA  HZ EP   1    013 52.82                             129   -0.28 7  160 354 
 OCA  HN ES   1    014 14.62                             129   -0.35 7  160 354 
 ZAR  HE ES   1    014 22.07                             122    0.12 6  201 292 
 ZAR  HZ I         014 28.13         8.4 0.38            124            201 292 
 SML  HZ EP   1    014  1.66                             117    0.30 6  242 336 
 SML  HE ES   1    014 28.69                             117   -0.99 6  242 336 
                                                                                
