 2017  818 0740 44.7 L   6.816 -73.179151.3  RSN  5 0.3 1.4LRSN                1
 GAP=132        0.70       3.9     4.5  6.4  0.2045E+01 -0.7018E+00  0.2415E+01E
 Epicentro: ZAPATOCA - SANTANDER                                               3
 ACTION:UPD 17-09-04 20:21 OP:rebc STATUS:               ID:20170818074044 L   I
 OLDACT:UP  17-08-18 14:45 OP:mg   STATUS:               ID:20170818073740     3
 OLDACT:UP  17-08-18 14:43 OP:mg   STATUS:               ID:20170818073740     3
 OLDACT:REG 17-08-18 12:35 OP:mg   STATUS:               ID:20170818073740     3
 2017-08-18-0738-00M.COL___407                                                 6
 STAT SP IPHASW D HRMM SECON CODA AMPLIT PERI AZIMU VELO AIN AR TRES W  DIS CAZ7
 BAR2 EZ EP   1    741  4.86                             170   -0.20 7 24.8 181 
 BAR2 EZ ES   1    741 20.57                             170   -0.35 7 24.8 181 
 BAR2 EZ I         741 20.87         4.9 0.20            168           24.8 181 
 BRR  HZ EP   4    741  2.53                             155   -3.74 0 67.2 299 
 BRR  HZ I         741 22.66         9.8 0.30            142           67.2 299 
 BRR  HN ES        741 23.51                             155    0.4410 67.2 299 
 PAM  EZ IP     C  741  7.82                             151    0.2210 78.4  42 
 PAM  EN ES        741 25.25                             151   -0.1910 78.4  42 
 PAM  EZ I         741 26.93         4.6 0.44            145           78.4  42 
 RUS  HZ EP        741  9.22                             144    0.0410  103 174 
 RUS  HN ES        741 28.29                             144    0.0410  103 174 
 RUS  HZ I         741 29.10         2.0 0.38            139            103 174 
 ZAR  HN ES   1    741 41.84                             124   -0.57 6  200 292 
 ZAR  HZ I         741 49.00         3.3 0.24            114            200 292 
                                                                                
