 2012 1018 0024 11.3 L   6.726 -73.084155.1  RSN  5 0.3 1.8LRSN                1
 GAP=197        0.56       7.6     9.7  8.9  0.5198E+02 -0.4222E+02 -0.1601E+02E
 Epicentro: JORDAN - SANTANDER                                                 3
 ACTION:UPD 12-11-22 17:04 OP:ep   STATUS:               ID:20121018002411 L   I
 2012-10-18-0020-00M.COL___224                                                 6
 STAT SP IPHASW D HRMM SECON CODA AMPLIT PERI AZIMU VELO AIN AR TRES W  DIS CAZ7
 BAR2 SZ EP        024 31.69                             172   -0.2410 18.4 216 
 BAR2 SZ I         024 49.13        11.2 0.30                          18.4 216 
 GIR2 SZ EP        024 32.19                             165   -0.1310 40.8 343 
 BRR  HZ EP        024 34.21                             151    0.2210 81.2 301 
 BRR  HE ES        024 51.81                             151    0.0910 81.2 301 
 BRR  HE I         024 54.88        40.4 0.23                          81.2 301 
 RUS  HZ EP   1    024 35.73                             148    0.35 7 92.2 180 
 RUS  HN ES   2    024 53.96                             148   -0.23 5 92.2 180 
 RUS  HZ I         024 56.31         3.2 0.42                          92.2 180 
 ZAR  HN ES   2    025 11.33                             123   -0.50 4  214 293 
 ZAR  HZ I         025 16.83         5.3 0.30                           214 293 
                                                                                
