 2015  518 0643 31.6 L   6.816 -73.107143.2  RSN 17 0.4 2.1LRSN                1
 GAP=122        0.91       2.7     3.9  5.1 -0.2005E+01  0.4505E+01  0.2043E+01E
 Epicentro: LOS SANTOS - SANTANDER                                             3
 ACTION:UPD 15-09-10 22:05 OP:cam  STATUS:               ID:20150518064331 L   I
 OLDACT:REG 15-05-18 12:57 OP:spq  STATUS:               ID:20150518063740     3
 2015-05-18-0637-40M.COL___283                                                 6
 STAT SP IPHASW D HRMM SECON CODA AMPLIT PERI AZIMU VELO AIN AR TRES W  DIS CAZ7
 BAR2 EZ EP        643 51.00                             169    0.0110 26.1 199 
 BAR2 EZ ES   1    644  5.79                             169   -0.32 7 26.1 199 
 BAR2 EZ I         644  7.24        31.5 0.20            167           26.1 199 
 PAM  SZ EP        643 53.97                             152    0.6610 73.4  38 
 PAM  SN ES   1    644 10.50                             152    0.26 7 73.4  38 
 PAM  SZ I         644 12.49        15.7 0.18            156           73.4  38 
 BRR  HZ IP     C  643 52.83                             151    0.1810 74.2 296 
 BRR  HN ES        644  9.61                             151    0.5410 74.2 296 
 BRR  HZ I         644 13.58        15.6 0.12            151           74.2 296 
 RUS  HZ EP   1    643 55.09                             143   -0.13 7  102 178 
 RUS  HE ES   1    644 13.62                             143   -0.02 7  102 178 
 RUS  HZ I         644 15.37        10.8 0.32            144            102 178 
 OCA  HZ EP        643 59.43                             129   -0.18 9  159 352 
 OCA  HN ES        644 20.78                             129   -0.67 9  159 352 
 OCA  HZ I         644 25.20        25.3 0.28            132            159 352 
 SPBC HZ EP        644  0.04                             128   -0.26 9  167 220 
 SPBC HE ES        644 22.23                             128   -0.45 9  167 220 
 SPBC HZ I         644 28.14        17.4 0.20            128            167 220 
 ZAR  HZ EP        644  4.02                             121   -0.21 8  207 291 
 ZAR  HN ES        644 29.86                             121    0.19 8  207 291 
 ZAR  HZ I         644 34.71        10.8 0.36            123            207 291 
 NOR  HZ EP        644  7.50                             117   -0.17 8  239 235 
 NOR  HE ES        644 35.31                             117   -0.49 8  239 235 
 NOR  HZ I         644 37.07        12.7 0.20            118            239 235 
 SML  HZ EP   1    644  7.76                             117   -0.35 6  244 334 
 SML  HN ES   1    644 36.18                             117   -0.41 6  244 334 
 SML  HZ I         644 40.30        10.2 0.10            119            244 334 
 ROSC BZ EP        644 10.82                             116    0.82 8  256 212 
 ROSC BE ES   4    644 42.89                             116    2.95 0  256 212 
 ROSC BZ I         644 47.99         9.0 0.30            117            256 212 
 HEL  HZ EP   1    644 12.69                             114    0.49 6  277 256 
 HEL  HE ES   4    644 45.17                             114    1.31 0  277 256 
 HEL  HZ I         644 49.48         7.8 0.42            115            277 256 
 GUY2CHZ EP   1    644 15.87                             111    0.26 5  306 235 
 GUY2CHN ES   1    644 50.16                             111    0.24 5  306 235 
 GUY2CHZ I         644 56.34         5.5 0.38                           306 235 
 PTGC HZ EP   1    644 14.42                             111   -0.95 5  309 160 
 PTGC HN ES   4    644 47.80                             111   -1.70 0  309 160 
 PTGC HZ I         644 54.91        15.5 0.38            113            309 160 
 CBOC HZ EP   1    644 19.76                             109    0.82 5  338 252 
 CBOC HN ES   1    644 55.45                             109   -0.41 5  338 252 
 CBOC HZ I         645  2.90         1.7 0.26            110            338 252 
 MON  HN ES   4    644 57.15                             108   -1.97 0  356 308 
 MON  HZ I         644 57.65         2.2 0.20            109            356 308 
 ORTC HZ EP        644 25.75                             106   -0.15 6  399 217 
 ORTC HE ES   1    645  9.13                             106    0.88 4  399 217 
 ORTC HZ I         645 12.46         2.7 0.22            107            399 217 
 SJC  HZ EP   4    644 25.67                             105   -1.52 0  410 326 
 SJC  HE ES   4    645  6.97                             105   -3.57 0  410 326 
 SJC  HZ I         645  9.70         1.6 0.44            107            410 326 
                                                                                
