 2014  718 0926 15.3 L   6.802 -73.158135.7  RSN 12 0.5 1.9LRSN                1
 GAP=146        0.95       3.2     4.6  7.7 -0.5221E+01  0.7465E+01 -0.2767E+01E
 Epicentro: LOS SANTOS - SANTANDER                                             3
 ACTION:UPD 15-03-16 20:44 OP:nd   STATUS:               ID:20140718092615 L   I
 OLDACT:DUP 14-07-18 14:47 OP:fm   STATUS:               ID:20140718091816d    3
 2014-07-18-0918-15M.COL___257                                                 6
 STAT SP IPHASW D HRMM SECON CODA AMPLIT PERI AZIMU VELO AIN AR TRES W  DIS CAZ7
 BAR2 SZ EP        926 33.93                             170    0.2110 23.4 187 
 BAR2 SZ ES   1    926 48.29                             170    0.21 7 23.4 187 
 BAR2 SZ I         926 49.93        30.5 0.24            170           23.4 187 
 PAM  SZ EP        926 36.87                             149    0.3810 78.0  40 
 PAM  SZ I         926 55.98        16.5 0.32            144           78.0  40 
 PTB  HZ EP        926 40.89                             130   -0.46 9  147 259 
 PTB  HN ES        927  0.93                             130   -0.73 9  147 259 
 PTB  HZ I         927  3.81         9.6 0.28            130            147 259 
 OCA  HZ EP   1    926 42.46                             127   -0.35 7  160 354 
 OCA  HN ES        927  3.91                             127   -0.35 9  160 354 
 OCA  HZ I         927  6.23        11.2 0.48            124            160 354 
 SPBC HZ EP   1    926 42.75                             127   -0.23 7  163 219 
 SPBC HE ES        927  4.72                             127    0.15 9  163 219 
 SPBC HZ I         927  8.35         5.7 0.26            126            163 219 
 ZAR  HZ EP        926 47.00                             120    0.03 9  203 292 
 ZAR  HN ES        927 12.60                             120    0.93 9  203 292 
 ZAR  HZ I         927 20.80         7.7 0.30            119            203 292 
 NOR  HN ES   1    927 17.06                             116   -0.65 6  234 234 
 SML  HZ EP   1    926 50.66                             115   -0.63 6  243 336 
 SML  HE ES        927 19.48                             115    0.11 8  243 336 
 SML  HZ I         927 28.63        12.4 0.26            113            243 336 
 HEL  HZ EP   1    926 55.05                             113    0.17 6  271 256 
 HEL  HN ES   1    927 26.02                             113    0.27 6  271 256 
 HEL  HZ I         927 34.64         3.0 0.26            112            271 256 
 GUY2CHZ EP   1    926 59.18                             110    0.83 5  300 235 
 GUY2CHN ES   1    927 32.29                             110    0.36 5  300 235 
 GUY2CHZ I         927 39.32         2.6 0.24                           300 235 
 PRA  HN ES   1    927 49.78                             105   -0.10 4  392 209 
 PRA  HZ I         927 54.60         2.0 0.32            103            392 209 
 SJC  HZ EP   4    927  8.91                             104   -1.53 0  408 327 
 SJC  HN ES   4    927 49.49                             104   -3.96 0  408 327 
 SJC  HZ I         927 53.95         3.0 0.34            102            408 327 
                                                                                
