 2016  618 0228 50.0 L   6.045 -73.302174.9  RSN 12 0.4 1.7LRSN                1
 GAP=112        0.94       3.3     4.3  6.3  0.4072E+00  0.6615E+00  0.1812E+01E
 Epicentro: GAMBITA - SANTANDER                                                3
 ACTION:UPD 16-07-21 22:20 OP:rebc STATUS:               ID:20160618022850 L   I
 OLDACT:UP  16-06-18 14:37 OP:dani STATUS:               ID:20160618022745     3
 OLDACT:UP  16-06-18 14:36 OP:dani STATUS:               ID:20160618022745     3
 OLDACT:UP  16-06-18 14:34 OP:dani STATUS:               ID:20160618022745     3
 OLDACT:UP  16-06-18 14:34 OP:dani STATUS:               ID:20160618022745     3
 OLDACT:UP  16-06-18 14:33 OP:dani STATUS:               ID:20160618022745     3
 OLDACT:UP  16-06-18 14:33 OP:dani STATUS:               ID:20160618022745     3
 OLDACT:UP  16-06-18 14:32 OP:dani STATUS:               ID:20160618022745     3
 OLDACT:UP  16-06-18 14:28 OP:dani STATUS:               ID:20160618022745     3
 OLDACT:REG 16-06-18 12:30 OP:dani STATUS:               ID:20160618022745     3
 2016-06-18-0227-45M.COL___346                                                 6
 STAT SP IPHASW D HRMM SECON CODA AMPLIT PERI AZIMU VELO AIN AR TRES W  DIS CAZ7
 RUS  HZ EP        229 13.47                             170   -0.1710 29.5 125 
 RUS  HE ES        229 31.90                             170   -0.1810 29.5 125 
 RUS  HZ I         229 33.04         3.9 0.28                          29.5 125 
 BAR2 EZ EP        229 13.75                             160   -0.5510 61.9  12 
 BAR2 EZ I         229 33.45         9.8 0.20                          61.9  12 
 SPBC HZ EP        229 16.03                             150    0.2010 95.7 243 
 SPBC HE ES        229 36.18                             150    0.2010 95.7 243 
 SPBC HZ I         229 38.35         8.2 0.16                          95.7 243 
 BRR  HZ EP        229 18.16                             143    0.4110  126 339 
 BRR  HN ES        229 40.07                             143    0.6810  126 339 
 BRR  HZ I         229 42.70         8.1 0.20                           126 339 
 PTB  HZ EP        229 18.56                             140   -0.21 9  139 293 
 PTB  HE ES        229 40.97                             140   -0.24 9  139 293 
 PTB  HZ I         229 44.17         8.2 0.54                           139 293 
 CHI  HZ EP        229 21.59                             135    0.23 9  164 197 
 CHI  HE ES        229 45.53                             135   -0.29 9  164 197 
 CHI  HZ I         229 48.29         2.4 0.24                           164 197 
 NOR  HN ES        229 48.34                             132    0.57 9  182 253 
 NOR  HZ I         229 54.86         5.8 0.16                           182 253 
 ZAR  HE ES        229 56.49                             124   -0.34 8  235 313 
 GUY2CHZ EP   9    229 30.95                             123    1.68 0  246 248 
 GUY2CHN ES   2    230  1.34                             122   -0.24 4  246 248 
 GUY2CHZ I         230 15.48         1.8 0.32                           246 248 
 HEL  HN ES        229 59.09                             123   -0.76 8  247 274 
 CBOC HN ES   4    230  6.61                             117   -2.89 0  301 266 
 CBOC HZ I         230 10.06         1.7 0.10                           301 266 
 PRA  HZ EP        229 36.07                             116    0.35 7  312 214 
 PRA  HN ES        230 11.43                             116    0.06 7  312 214 
 PRA  HZ I         230 13.94         3.4 0.22                           312 214 
                                                                                
