 2012 1218 0652 37.8 L   6.777 -73.125148.2  RSN 11 0.5 2.0LRSN                1
 GAP=140        1.16       3.4     4.7  6.2  0.5318E+00  0.8784E+01  0.1756E+01E
 Epicentro: LOS SANTOS - SANTANDER                                             3
 ACTION:UPD 13-01-04 14:28 OP:ep   STATUS:               ID:20121218065237 L   I
 2012-12-18-0650-00M.COL___242                                                 6
 STAT SP IPHASW D HRMM SECON CODA AMPLIT PERI AZIMU VELO AIN AR TRES W  DIS CAZ7
 BAR2 SZ EP        652 57.86                             171    0.2010 21.4 197 
 BAR2 SZ ES        653 12.86                             171   -0.3110 21.4 197 
 BAR2 SZ I         653 14.33        15.0 0.28                          21.4 197 
 BRR  HZ EP        652 59.86                             152    0.4910 74.4 299 
 BRR  HN ES        653 16.88                             152    0.6710 74.4 299 
 BRR  HN I         653 21.28        18.8 0.18                          74.4 299 
 PAM  SZ EP        653  0.76                             151    0.4710 78.0  37 
 PAM  SN ES        653 17.52                             151   -0.3210 78.0  37 
 PAM  SN I         653 18.65        13.7 0.24                          78.0  37 
 RUS  HZ EP        653  1.76                             145    0.1810 97.9 177 
 RUS  HN ES        653 20.44                             145    0.2910 97.9 177 
 RUS  HN I         653 20.98         7.5 0.36                          97.9 177 
 PTB  HZ EP        653  4.59                             132   -0.51 9  150 260 
 PTB  HN ES        653 25.75                             132   -0.66 9  150 260 
 PTB  HN I         653 31.28        13.7 0.26                           150 260 
 OCA  HN ES        653 28.31                             130   -0.66 9  163 352 
 OCA  HN I         653 32.15        29.6 0.18                           163 352 
 ZAR  HZ EP        653 11.17                             122    0.47 8  207 293 
 ZAR  HN ES        653 36.31                             122   -0.06 8  207 293 
 ZAR  HN I         653 39.74         9.3 0.10                           207 293 
 CHI  HZ EP        653 14.51                             118   -0.91 8  247 196 
 SML  HN I         653 46.45        16.9 0.10                           247 335 
 CHI  HN I         653 48.98         5.7 0.24                           247 196 
 SML  HZ EP        653 14.73                             118   -0.16 8  247 335 
 CHI  HN ES        653 44.57                             118   -0.20 8  247 196 
 SML  HN ES        653 43.96                             118    0.12 8  247 335 
 HEL  HZ EP        653 17.71                             115   -0.58 8  274 256 
 HEL  HN ES        653 50.54                             115    0.65 8  274 256 
 PRA  HZ EP        653 32.01                             107    0.75 6  391 210 
 PRA  HN I         654 17.07         2.3 0.44                           391 210 
                                                                                
