 2010  718 0952 57.5 L   6.801 -73.063138.6  RSN  5 0.4 1.4LRSN                1
 GAP=168        0.72       5.8    12.8 11.3  0.9669E+01 -0.6817E+02 -0.1943E+02E
 Epicentro: LOS SANTOS - SANTANDER                                             3
 ACTION:UPD 10-12-01 15:18 OP:pat  STATUS:               ID:20100718095257 L   I
 2010-07-18-0951-11S.COL___120                                                 6
 STAT SP IPHASW D HRMM SECON CODA AMPLIT PERI AZIMU VELO AIN AR TRES W  DIS CAZ7
 GIR2 SZ EP   2    953 15.45                             166    -1.0 5   34 335 
 GIR2 SZ ES   2    953 30.89                             166    -0.3 5   34 335 
 BRR  HZ EP   1    953 18.20                             149    -0.2 8   79 295 
 BRR  HE ES   2    953 35.06                             149     0.4 5   79 295 
 RUS  HZ EP   2    953 20.86                             142     0.3 5  100 181 
 RUS  HN ES   2    953 38.62                             142     0.1 5  100 181 
 RUS  HZ I         953 39.77         2.3 0.33                           100 181 
 GRA  SZ IP        953 22.21                             136     0.310  123  13 
 GRA  SZ I         953 23.34         4.2 0.32                           123  13 
 OCA  SZ EP   2    953 25.02                             128    -0.4 5  161 350 
 OCA  SZ ES   2    953 47.37                             128     0.2 5  161 350 
 OCA  SZ I         953 52.95         4.4 0.34                           161 350 
                                                                                
