 2016  418 0559 31.1 L   6.581 -73.467113.5  RSN  7 0.3 1.8LRSN                1
 GAP=126        0.64       2.5     3.2  5.1 -0.2520E+01  0.9009E+01  0.7117E-01E
 Epicentro: EL CARMEN - SANTANDER                                              3
 ACTION:UPD 16-05-05 14:22 OP:rebc STATUS:               ID:20160418055931 L   I
 OLDACT:DUP 16-04-18 15:36 OP:jn   STATUS:               ID:20160418054749d    3
 2016-04-18-0547-48M.COL___297                                                 6
 STAT SP IPHASW D HRMM SECON CODA AMPLIT PERI AZIMU VELO AIN AR TRES W  DIS CAZ7
 BAR2 EZ IP     C  559 47.09                             163    0.0310 31.5  88 
 BAR2 EZ ES        559 59.39                             163   -0.1610 31.5  88 
 BAR2 EZ I         6 0  0.95        57.4 0.52            165           31.5  88 
 PTB  HZ EP   4    559 49.87                             133   -2.05 0  110 268 
 PTB  HN ES   4    6 0  4.63                             133   -3.57 0  110 268 
 PAM  EZ EP        559 53.95                             130    0.5010  119  45 
 PAM  EE ES   1    6 0 10.88                             130   -0.03 7  119  45 
 PAM  EZ I         6 0 12.46         5.6 0.56            132            119  45 
 OCA  HZ EP        559 59.31                             117   -0.30 9  184   5 
 OCA  HN ES        6 0 21.71                             117   -0.17 9  184   5 
 OCA  HZ I         6 0 25.58        16.7 0.58            118            184   5 
 ZAR  HZ EP        559 59.18                             117   -0.21 9  184 303 
 ZAR  HN ES        6 0 21.69                             117    0.19 9  184 303 
 ZAR  HZ I         6 0 23.78         9.4 0.34            118            184 303 
 GUY2CHZ EP        6 0  8.75                             109    0.38 8  258 235 
 GUY2CHE ES   1    6 0 37.87                             109    0.39 6  258 235 
 GUY2CHZ I         6 0 40.74         1.8 0.24                           258 235 
 CBOC HZ EP        6 0 11.84                             106   -0.16 7  293 254 
 ORTC HZ EP        6 0 19.19                             102   -0.06 6  355 214 
 ORTC HN ES        6 0 56.33                             102   -0.51 6  355 214 
 ORTC HZ I         6 1  1.43         1.6 0.52            103            355 214 
                                                                                
