 2013  318 0938 29.2 L   6.750 -73.186150.2  RSN  5 0.3 1.7LRSN                1
 GAP=196        0.65       4.4     5.2  7.3  0.7721E+01 -0.9826E+01 -0.9002E+01E
 Epicentro: VILLANUEVA - SANTANDER                                             3
 ACTION:UPD 13-04-09 14:03 OP:ep   STATUS:               ID:20130318093829 L   I
 2013-03-18-0937-41M.COL___197                                                 6
 STAT SP IPHASW D HRMM SECON CODA AMPLIT PERI AZIMU VELO AIN AR TRES W  DIS CAZ7
 BRR  HZ EP        938 50.92                             154    0.1410 70.3 304 
 BRR  HN ES   1    939  7.59                             154   -0.02 7 70.3 304 
 BRR  HN I         939 12.23         9.0 0.18            152           70.3 304 
 RUS  HZ EP   1    938 53.35                             146    0.32 7 95.5 173 
 RUS  HN ES   2    939 11.59                             146   -0.04 5 95.5 173 
 RUS  HN I         939 12.96         3.2 0.20            155           95.5 173 
 PTB  HZ EP        938 55.77                             134   -0.29 9  142 261 
 PTB  HN ES        939 16.69                             134   -0.32 9  142 261 
 PTB  HN I         939 22.23         8.3 0.34            137            142 261 
 ZAR  HZ EP   1    939  2.12                             124    0.38 6  202 294 
 ZAR  HN ES        939 27.54                             124    0.41 9  202 294 
 ZAR  HN I         939 35.47         5.4 0.18            126            202 294 
 SML  HZ EP   1    939  5.87                             118   -0.55 6  247 337 
 SML  HN ES   1    939 35.38                             118   -0.08 6  247 337 
 SML  HN I         939 43.46         6.0 0.10            121            247 337 
                                                                                
