 2016 1218 0633 36.6 L   6.814 -73.157141.3  RSN  9 0.2 1.4LRSN                1
 GAP=134        0.57       2.2     2.5  3.4  0.4560E+00  0.1879E+01  0.1289E+01E
 Epicentro: LOS SANTOS - SANTANDER                                             3
 ACTION:UPD 17-01-11 20:16 OP:rebc STATUS:               ID:20161218063336 L   I
 OLDACT:UP  16-12-18 18:11 OP:edw  STATUS:               ID:20161218062742     3
 OLDACT:UP  16-12-18 18:10 OP:edw  STATUS:               ID:20161218062742     3
 OLDACT:REG 16-12-18 14:48 OP:edw  STATUS:               ID:20161218062742     3
 2016-12-18-0628-00M.COL___381                                                 6
 STAT SP IPHASW D HRMM SECON CODA AMPLIT PERI AZIMU VELO AIN AR TRES W  DIS CAZ7
 BAR2 EZ EP        633 55.62                             170   -0.0910 24.6 186 
 BAR2 EZ ES        634 10.57                             170   -0.0610 24.6 186 
 BAR2 EZ I         634 11.87         6.4 0.22            171           24.6 186 
 BRR  HZ EP        633 57.24                             152    0.0910 69.4 298 
 BRR  HN ES        634 13.27                             152    0.0810 69.4 298 
 BRR  HZ I         634 17.71         2.1 0.10            151           69.4 298 
 PAM  EZ EP        633 58.59                             150    0.2810 77.1  41 
 PAM  EN ES        634 15.13                             150   -0.1310 77.1  41 
 PAM  EZ I         634 17.81         6.4 0.46            152           77.1  41 
 RUS  HZ EP        634  0.15                             142    0.1210  102 175 
 RUS  HN ES        634 18.50                             142    0.2010  102 175 
 RUS  HZ I         634 19.40         6.5 0.24            145            102 175 
 PTB  HZ EP   9    634  2.58                             131   -0.53 0  147 258 
 PTB  HN ES        634 23.29                             131    0.03 9  147 258 
 PTB  HZ I         634 24.54         1.9 0.24            131            147 258 
 ZAR  HZ EP        634  8.39                             122   -0.18 9  202 292 
 ZAR  HN ES        634 33.18                             122   -0.33 9  202 292 
 ZAR  HZ I         634 40.87         2.8 0.10            122            202 292 
 CHI  HZ EP        634 13.94                             116   -0.23 8  250 195 
 CHI  HN ES        634 43.09                             116   -0.39 8  250 195 
 CHI  HZ I         634 46.58         1.2 0.26            118            250 195 
 GUY2CHZ EP   4    634 18.84                             111   -1.14 0  301 234 
 GUY2CHN ES   4    634 55.70                             111    1.88 0  301 234 
 GUY2CHZ I         635  1.65         1.4 0.30                           301 234 
 LL6C HZ EP   4    634  1.36                             110   -20.6 0  323 358 
 LL6C HN ES   4    634 18.89                             110   -38.4 0  323 358 
 CBOC HN ES        635  0.24                             109    0.62 7  333 252 
                                                                                
