 2013  118 0432 30.2 L   6.830 -73.358126.6  RSN  5 0.2 1.0LRSN                1
 GAP=104        0.39       2.8     3.3  4.4  0.1576E+01  0.4816E+01  0.3095E+01E
 Epicentro: ZAPATOCA - SANTANDER                                               3
 ACTION:UPD 13-02-15 09:15 OP:ep   STATUS:               ID:20130118043230 L   I
 2013-01-18-0430-00M.COL___241                                                 6
 STAT SP IPHASW D HRMM SECON CODA AMPLIT PERI AZIMU VELO AIN AR TRES W  DIS CAZ7
 BAR2 SZ EP   1    432 47.84                             165    0.01 7 32.8 144 
 BAR2 SZ ES   1    433  1.50                             165   -0.05 7 32.8 144 
 BRR  HZ EP   1    432 48.17                             157    0.02 7 49.6 308 
 BRR  HN ES   1    433  2.28                             157    0.16 7 49.6 308 
 BRR  HZ I         433  4.80         3.7 0.56            129           49.6 308 
 PAM  SN ES   1    433  7.97                             142   -0.09 7 92.0  52 
 RUS  HZ EP   1    432 53.05                             137    0.28 7  108 164 
 RUS  HE ES   1    433 10.24                             137   -0.10 7  108 164 
 RUS  HZ I         433 11.30         0.7 0.17            121            108 164 
 PTB  HZ EP   1    432 53.39                             132   -0.24 7  126 255 
 PTB  HZ I         433 15.63         2.1 0.14            110            126 255 
                                                                                
