 2016  318 0826 45.5 L   6.799 -73.195137.9  RSN  5 0.2 1.3LRSN                1
 GAP=144        0.49       2.8     2.9  4.3 -0.4331E+01  0.5292E+01 -0.2740E+01E
 Epicentro: ZAPATOCA - SANTANDER                                               3
 ACTION:UPD 16-05-13 21:25 OP:cam  STATUS:               ID:20160318082645 L   I
 OLDACT:UP  16-03-28 15:35 OP:Mher STATUS:               ID:20160318082645 L   3
 OLDACT:UP  16-03-18 17:39 OP:mh   STATUS:               ID:20160318081747     3
 OLDACT:UP  16-03-18 17:38 OP:mh   STATUS:               ID:20160318081747     3
 OLDACT:UP  16-03-18 17:37 OP:mh   STATUS:               ID:20160318081747     3
 OLDACT:REG 16-03-18 13:30 OP:dnl  STATUS:               ID:20160318081747     3
 2016-03-18-0817-47M.COL___309                                                 6
 STAT SP IPHASW D HRMM SECON CODA AMPLIT PERI AZIMU VELO AIN AR TRES W  DIS CAZ7
 BAR2 EZ IP     C  827  4.27                             170    0.0810 22.9 176 
 BAR2 EZ ES        827 18.80                             170    0.0410 22.9 176 
 BAR2 EZ I         827 20.09         5.2 0.54            170           22.9 176 
 PAM  EZ EP        827  7.16                             148    0.0310 81.0  42 
 PAM  EN ES        827 23.86                             148   -0.1410 81.0  42 
 PAM  EZ I         827 25.24         3.6 0.14            151           81.0  42 
 RUS  HN ES        827 26.62                             142    0.1310  101 173 
 RUS  HZ I         827 27.52         2.8 0.34            144            101 173 
 PTB  HZ EP        827 11.24                             131   -0.12 9  142 258 
 PTB  HE ES        827 31.72                             131    0.21 9  142 258 
 PTB  HZ I         827 34.40         3.4 0.17            132            142 258 
 OCA  HE ES   4    827 28.39                             128   -6.37 0  160 355 
 SPBC HZ EP   1    827 13.32                             128    0.23 7  160 217 
 SPBC HE ES        827 34.22                             128   -0.38 9  160 217 
 SPBC HZ I         827 38.58                             129            160 217 
 GUY2CHN ES   4    828  4.32                             111    2.72 0  297 234 
                                                                                
