 2012  418 0248 37.6 L   6.760 -73.068149.9  RSN  4 0.2 1.6LRSN                1
 GAP=149        0.50       3.6     4.8  5.3  0.1441E+01 -0.4507E+01  0.1306E+01E
 Epicentro: LOS SANTOS - SANTANDER                                             3
 ACTION:UPD 12-07-05 11:54 OP:tino STATUS:               ID:20120418024837 L   I
 2012-04-18-0240-00M.COL___187                                                 6
 STAT SP IPHASW D HRMM SECON CODA AMPLIT PERI AZIMU VELO AIN AR TRES W  DIS CAZ7
 BAR2 SZ EP   1    248 57.80                             171     0.0 7   23 214 
 BAR2 SZ I         248 58.19        13.6 0.12                            23 214 
 BAR2 SZ ES   1    249 13.14                             171    -0.3 7   23 214 
 PAM  SZ EP   1    249  0.15                             152    -0.1 7   76  32 
 PAM  SE ES   1    249 17.92                             152     0.1 7   76  32 
 PAM  SZ I         249 19.95         4.3 0.41                            76  32 
 BRR  HZ EP   1    248 59.52                             150    -0.3 7   81 298 
 BRR  HN ES        249 17.22                             150     0.110   81 298 
 BRR  HZ I         249 19.60        13.2 0.12                            81 298 
 RUS  HZ EP   1    249  1.69                             146     0.2 7   96 181 
 RUS  HE ES   1    249 20.11                             146     0.0 7   96 181 
 RUS  HZ I         249 23.33         3.9 0.25                            96 181 
                                                                                
