 2011 1018 0247 53.8 L   6.725 -73.102146.1  RSN  8 0.2 1.9LRSN                1
 GAP=146        0.40       2.7     3.0  4.3 -0.6332E+00  0.1789E+01  0.1275E+01E
 Epicentro: JORDAN - SANTANDER                                                 3
 ACTION:UPD 12-07-13 16:04 OP:ep   STATUS:               ID:20111018024753 L   I
 2011-10-18-0246-22S.COL___168                                                 6
 STAT SP IPHASW D HRMM SECON CODA AMPLIT PERI AZIMU VELO AIN AR TRES W  DIS CAZ7
 BAR2 SZ EP   1    248 13.29                             173   -0.05 7 17.2 211 
 BAR2 SZ ES   2    248 28.43                             173   -0.17 5 17.2 211 
 BAR2 SZ I         248 30.71        16.5 0.43                          17.2 211 
 BRR  HZ EP   1    248 15.35                             150   -0.11 7 79.6 302 
 BRR  HN ES   1    248 32.70                             150    0.33 7 79.6 302 
 BRR  HZ I         248 34.54        15.4 0.13                          79.6 302 
 PAM  SZ EP   1    248 16.18                             150   -0.08 7 81.1  33 
 PAM  SN ES   2    248 33.49                             150   -0.30 5 81.1  33 
 RUS  HZ EP   1    248 17.29                             146    0.32 7 92.1 179 
 RUS  HN ES   2    248 34.98                             146   -0.08 5 92.1 179 
 RUS  HZ I         248 37.32         5.6 0.24                          92.1 179 
 OCA  SZ EP   2    248 22.84                             128   -0.11 5  169 352 
 OCA  SZ ES   2    248 45.97                             128    0.26 5  169 352 
 OCA  SZ I         248 52.35         9.4 0.40                           169 352 
 ZAR  HN ES   2    248 52.48                             121   -0.51 4  212 294 
 ZAR  HZ I         248 57.85        10.7 0.41                           212 294 
 NOR  SZ EP   2    248 29.22                             119   -0.24 4  234 237 
 NOR  SN ES   2    248 57.04                             119   -0.25 4  234 237 
 HEL  HZ EP   2    248 34.55                             115    0.22 4  275 258 
 HEL  HN ES   2    249  6.07                             115    0.12 4  275 258 
 HEL  HZ I         249 13.93         3.6 0.35                           275 258 
                                                                                
