 2017  518 0447 54.0 L   6.754 -73.144140.7  RSN  6 0.4 1.4LRSN                1
 GAP=183        0.96       8.2     5.1  8.7 -0.1906E+02  0.4620E+01  0.1594E+02E
 Epicentro: LOS SANTOS - SANTANDER                                             3
 ACTION:UPD 17-06-16 13:37 OP:jn   STATUS:               ID:20170518044754 L   I
 OLDACT:UP  17-05-18 13:32 OP:edw  STATUS:               ID:20170518044739     3
 OLDACT:UP  17-05-18 13:32 OP:edw  STATUS:               ID:20170518044739     3
 OLDACT:REG 17-05-18 12:29 OP:edw  STATUS:               ID:20170518044739     3
 2017-05-18-0448-00M.COL___347                                                 6
 STAT SP IPHASW D HRMM SECON CODA AMPLIT PERI AZIMU VELO AIN AR TRES W  DIS CAZ7
 BRR  HZ EP     C  448 15.30                             151    0.5010 73.9 302 
 BRR  HN ES        448 31.33                             151    0.3310 73.9 302 
 BRR  HZ I         448 36.83         6.4 0.12            151           73.9 302 
 PAM  EZ EP     C  448 16.39                             148    0.4310 81.2  37 
 PAM  EN ES        448 32.60                             148   -0.4610 81.2  37 
 PAM  EZ I         448 35.68         3.8 0.48            153           81.2  37 
 PTB  HZ EP        448 19.94                             131   -0.59 9  147 261 
 PTB  HN ES        448 40.84                             131   -0.35 9  147 261 
 PTB  HZ I         448 43.42         2.6 0.50            133            147 261 
 SPBC HN ES   2    448 43.88                             129    0.44 5  159 220 
 ZAR  HZ EP        448 26.14                             121   -0.24 8  206 293 
 ZAR  HN ES        448 51.67                             121    0.07 8  206 293 
 ZAR  HZ I         448 56.70         3.0 0.54            124            206 293 
 NOR  HZ EP   4    448 30.88                             118    1.70 0  232 235 
 NOR  HN ES   2    448 56.82                             118    0.23 4  232 235 
 NOR  HZ I         449  0.89         2.2 0.14            121            232 235 
                                                                                
