 2015  918 0759 54.2 L   6.795 -73.109152.0  RSN  5 0.4 1.5LRSN                1
 GAP=222        1.10       7.8     5.7  8.6 -0.1313E+02  0.9907E+01 -0.4055E+01E
 Epicentro: LOS SANTOS - SANTANDER                                             3
 ACTION:UPD 15-10-28 16:27 OP:cam  STATUS:               ID:20150918075954 L   I
 OLDACT:REG 15-09-18 12:41 OP:mh   STATUS:               ID:20150918075738     3
 2015-09-18-0757-38M.COL___352                                                 6
 STAT SP IPHASW D HRMM SECON CODA AMPLIT PERI AZIMU VELO AIN AR TRES W  DIS CAZ7
 BRR  HZ EP        8 0 16.72                             152    0.5010 75.0 297 
 BRR  HN ES        8 0 33.77                             152    0.3610 75.0 297 
 BRR  HZ I         8 0 36.79         4.3 0.36            151           75.0 297 
 PAM  EZ EP        8 0 17.21                             153    0.2610 75.3  37 
 PAM  EN ES        8 0 34.35                             153   -0.3510 75.3  37 
 PAM  EZ I         8 0 36.24         4.2 0.52            154           75.3  37 
 PTB  HZ EP        8 0 22.07                             133    0.05 9  152 259 
 PTB  HN ES        8 0 42.89                             133   -0.84 9  152 259 
 PTB  HZ I         8 0 45.74         2.4 0.16            133            152 259 
 ZAR  HZ EP        8 0 27.60                             123    0.15 8  208 292 
 ZAR  HN ES        8 0 53.88                             123    0.49 8  208 292 
 ZAR  HZ I         8 0 58.27         3.4 0.24            124            208 292 
 SML  HZ EP        8 0 30.70                             118   -0.70 8  246 334 
 SML  HN ES        8 1  0.26                             118   -0.17 8  246 334 
 SML  HZ I         8 1  3.08         2.8 0.10            119            246 334 
                                                                                
