 2013  518 0649 45.1 L   6.786 -73.134147.9  RSN 10 0.4 1.7LRSN                1
 GAP=139        0.95       3.4     4.5  5.8 -0.1061E+00  0.6337E+01 -0.1229E+01E
 Epicentro: LOS SANTOS - SANTANDER                                             3
 ACTION:UPD 13-06-20 09:51 OP:ep   STATUS:               ID:20130518064945 L   I
 2013-05-18-0646-51M.COL___227                                                 6
 STAT SP IPHASW D HRMM SECON CODA AMPLIT PERI AZIMU VELO AIN AR TRES W  DIS CAZ7
 BAR2 SZ EP        650  4.92                             171   -0.0310 22.1 194 
 BAR2 SZ ES   1    650 19.78                             171   -0.67 7 22.1 194 
 BAR2 SZ I         650 22.29         9.4 0.24            169           22.1 194 
 GIR2 SZ EP        650  5.05                             167   -0.0110 33.0 348 
 GIR2 SZ ES        650 20.73                             167    0.0910 33.0 348 
 BRR  HZ EP        650  6.84                             152    0.2610 73.1 299 
 BRR  HN ES        650 23.86                             152    0.5310 73.1 299 
 BRR  HZ I         650 26.97         6.2 0.30            149           73.1 299 
 PAM  SZ EP        650  7.80                             151    0.2510 77.7  38 
 PAM  SN ES        650 24.90                             151   -0.1810 77.7  38 
 PAM  SZ I         650 26.96        10.1 0.58            155           77.7  38 
 RUS  HZ EP        650  9.32                             145    0.3810 99.0 177 
 RUS  HN ES        650 27.58                             145    0.0410 99.0 177 
 RUS  HZ I         650 29.00         6.4 0.44            147           99.0 177 
 PTB  HZ EP        650 11.80                             132   -0.52 9  149 260 
 PTB  HN ES   1    650 32.75                             132   -0.81 7  149 260 
 PTB  HZ I         650 37.30         6.0 0.10            131            149 260 
 OCA  HE ES   1    650 35.51                             130   -0.55 7  162 353 
 OCA  HZ I         650 39.37         4.7 0.17            131            162 353 
 ZAR  HE ES   1    650 43.67                             123    0.25 6  206 292 
 ZAR  HZ I         650 52.98         5.8 0.20            122            206 292 
 NOR  HN ES   1    650 49.36                             119    0.42 6  235 235 
 NOR  HZ I         650 53.53         5.2 0.18            119            235 235 
 SML  HZ EP        650 21.41                             118   -0.64 8  246 335 
 SML  HE ES        650 51.34                             118    0.47 8  246 335 
                                                                                
