 2013  518 1241 46.5 L   6.750 -73.141148.1  RSN  9 0.5 1.9LRSN                1
 GAP=185        1.08       4.1     6.0  7.7  0.4118E+01  0.1098E+02 -0.1566E+00E
 Epicentro: LOS SANTOS - SANTANDER                                             3
 ACTION:UPD 13-06-20 09:51 OP:ep   STATUS:               ID:20130518124146 L   I
 2013-05-18-1240-00M.COL___256                                                 6
 STAT SP IPHASW D HRMM SECON CODA AMPLIT PERI AZIMU VELO AIN AR TRES W  DIS CAZ7
 BAR2 SZ IP     C 1242  6.46                             173    0.1310 18.0 195 
 BAR2 SZ ES   1   1242 21.26                             173   -0.52 7 18.0 195 
 BAR2 SZ I        1242 23.91        14.9 0.36            167           18.0 195 
 GIR2 SZ EP   1   1242  6.65                             165    0.02 7 36.8 351 
 GIR2 SZ ES   1   1242 22.54                             165    0.23 7 36.8 351 
 GIR2 SZ I        1242 24.03        17.2 0.34            164           36.8 351 
 BRR  HZ EP       1242  8.55                             152    0.4510 74.5 302 
 BRR  HN ES   1   1242 25.70                             152    0.76 7 74.5 302 
 BRR  HZ I        1242 26.35        16.9 0.22            148           74.5 302 
 RUS  HZ EP   1   1242 10.25                             146    0.14 7 95.0 176 
 RUS  HN ES   1   1242 28.27                             146   -0.23 7 95.0 176 
 RUS  HZ I        1242 29.81        15.9 0.30            147           95.0 176 
 PTB  HZ EP       1242 13.13                             133   -0.51 9  147 261 
 PTB  HN ES       1242 33.74                             133   -1.05 9  147 261 
 PTB  HZ I        1242 40.07         8.9 0.38            131            147 261 
 ZAR  HZ EP   1   1242 19.22                             123   -0.17 6  207 294 
 ZAR  HN ES       1242 45.54                             123    0.51 8  207 294 
 ZAR  HZ I        1242 53.72        11.0 0.32            122            207 294 
 NOR  HZ EP   1   1242 21.73                             119   -0.36 6  232 236 
 NOR  HE ES   1   1242 50.70                             119    0.86 6  232 236 
 NOR  HZ I        1242 57.31         7.0 0.16            119            232 236 
 CHI  HN ES       1242 53.28                             118    0.43 8  243 196 
 SML  HZ EP   1   1242 23.40                             117   -0.45 6  249 336 
 SML  HN ES       1242 52.88                             117   -0.08 8  249 336 
                                                                                
