 2012  218 1256 39.7 L   6.797 -73.118142.6  RSN 18 0.5 3.3LRSN                1
 GAP=104        1.00       3.6     4.0  5.4 -0.1002E+01  0.3992E+01  0.5708E+01E
 ACTION:UP  12-03-07 16:31 OP:epov STATUS:               ID:20120218125639 L   I
 2012-02-18-1250-00M.COL___188                                                 6
 STAT SP IPHASW D HRMM SECON CODA AMPLIT PERI AZIMU VELO AIN AR TRES W  DIS CAZ7
 BAR2 SZ IP       1256 58.96                             170    0.0310 23.8 198 
 BAR2 SZ ES   1   1257 13.51                             170   -0.44 7 23.8 198 
 BAR2 SZ I        1257 15.03       615.1 0.22                          23.8 198 
 GIR2 SZ IP       1256 59.08                             166    0.0810 32.2 345 
 GIR2 SZ ES   1   1257 13.59                             166   -0.48 7 32.2 345 
 BRR  HZ IP     D 1257  0.91                             151    0.2610 74.1 298 
 BRR  HE ES       1257 17.64                             151    0.6310 74.1 298 
 BRR  HZ I        1257 22.04       757.4 0.08                          74.1 298 
 PAM  SZ IP       1257  1.82                             150    0.3710 75.7  38 
 PAM  SN ES   1   1257 18.56                             150    0.12 7 75.7  38 
 RUS  HZ EP   1   1257  2.84                             143   -0.24 7  100 178 
 RUS  HN ES   1   1257 20.56                             143   -0.78 7  100 178 
 RUS  HZ I        1257 22.25       161.1 0.28                           100 178 
 PTB  HZ EP   1   1257  5.51                             131   -1.15 7  151 259 
 YOP  SZ EP       1257  9.68                             126    0.35 9  177 154 
 YOP  SN ES   1   1257 33.14                             126    0.68 7  177 154 
 YOP  SZ I        1257 36.38       156.0 0.33                           177 154 
 ZAR  HZ EP   1   1257 11.94                             121   -0.29 6  207 292 
 ZAR  HN ES   1   1257 37.91                             121    0.29 6  207 292 
 ZAR  HZ I        1257 45.88       343.9 0.35                           207 292 
 NOR  SZ EP       1257 15.70                             118    0.22 8  237 235 
 NOR  SE ES       1257 42.58                             118   -0.82 8  237 235 
 CHI  HZ EP   1   1257 17.31                             116    0.05 6  249 196 
 CHI  HE ES   1   1257 46.82                             116    0.25 6  249 196 
 CHI  HZ I        1257 53.14        52.5 0.38                           249 196 
 HEL  HZ EP   1   1257 19.47                             114   -0.58 6  275 256 
 HEL  HZ I        1257 59.83       117.5 0.23                           275 256 
 GUY  SZ EP   1   1257 24.54                             111    0.87 5  306 235 
 GUY  SN ES   1   1257 58.37                             111    0.38 5  306 235 
 GUY  SZ I        1258  5.67        78.3 0.31                           306 235 
 RREF HN ES   1   1258  2.40                             110    0.39 5  324 230 
 TOL  SZ EP   1   1257 29.06                             109    1.03 5  345 225 
 COD  HZ EP   1   1257 27.20                             108   -0.80 5  349 354 
 COD  HZ I        1258 17.12        76.8 0.26                           349 354 
 SDV  BZ EP   1   1257 28.77                             108   -0.57 5  358  50 
 SDV  BZ E        1257 28.78                                            358  50 
 SDV  BZ I        1258  8.82        74.2 0.46                           358  50 
 PRA  HZ EP   1   1257 32.94                             106   -0.30 4  393 210 
 PRA  HE ES   1   1258 14.80                             106   -0.21 4  393 210 
 SJA  SZ EP   1   1257 33.11                             106   -1.06 4  400 193 
                                                                                
