 2010  618 1310 30.6 L   6.797 -73.099144.6  RSN  5 0.2 1.7LRSN                1
 GAP=164        0.41       3.2     6.8  6.0 -0.9120E+00 -0.8667E+01 -0.1099E+01E
 Epicentro: LOS SANTOS - SANTANDER                                             3
 ACTION:UP  10-08-24 10:11 OP:vdl  STATUS:               ID:20100618131030 L   I
 2010-06-18-1306-31S.COL___118                                                 6
 STAT SP IPHASW D HRMM SECON CODA AMPLIT PERI AZIMU VELO SNR AR TRES W  DIS CAZ7
 BAR2 SZ EP   1   1310 49.87                             170    -0.2 7   25 202 
 BAR2 SZ ES   2   1311  4.90                             170    -0.4 5   25 202 
 BRR  HZ EP   1   1310 51.74                             151    -0.1 7   76 297 
 BRR  HZ I        1310 52.07        23.3 0.14                            76 297 
 BRR  HE ES   2   1311  8.76                             151     0.3 5   76 297 
 RUS  HZ EP   1   1310 54.34                             144     0.2 7  100 179 
 RUS  HN ES   2   1311 12.82                             144     0.3 5  100 179 
 RUS  HZ I        1311 14.44         3.6 0.39                           100 179 
 GUE  SZ EP   2   1310 55.02                             139    -0.1 5  116  10 
 GUE  SZ ES   3   1311 14.28                             139     0.0 2  116  10 
 GRA  SZ EP   2   1310 55.61                             137     0.0 5  125  15 
 GRA  SZ ES   2   1311 15.38                             137     0.2 5  125  15 
                                                                                
