 2010  218 1812 40.0 L   6.788 -73.165144.8  RSN  7 0.2 2.2LRSN                1
 GAP=180        0.44       2.9    10.7  5.1 -0.2868E+01  0.3466E+02  0.1141E+01E
 Epicentro: LOS SANTOS - SANTANDER                                             3
 ACTION:UP  10-08-24 09:49 OP:vdl  STATUS:               ID:20100218181240 L   I
 2010-02-18-1800-00S.COL___098                                                 6
 STAT SP IPHASW D HRMM SECON CODA AMPLIT PERI AZIMU VELO SNR AR TRES W  DIS CAZ7
 BAR2 SZ EP       1812 59.36                             171    -0.110   22 185 
 BAR2 SZ ES   1   1813 14.46                             171    -0.2 7   22 185 
 GIR2 SZ EP   1   1812 59.73                             167     0.2 7   32 354 
 RUS  BZ EP   1   1813  3.47                             144    -0.1 7   99 175 
 RUS  BN ES   1   1813 22.23                             144     0.3 7   99 175 
 RUS  BZ I        1813 23.13        19.4 0.28                            99 175 
 OCA  SZ EP   3   1813  8.37                             129     0.1 2  161 354 
 OCA  SZ ES   2   1813 30.46                             129     0.0 5  161 354 
 CHI  HZ EP       1813 17.41                             117     0.0 8  247 195 
 CHI  HE ES   2   1813 46.37                             117    -0.3 4  247 195 
 CHI  HZ I        1813 54.80         7.8 0.57                           247 195 
 RREF BZ EP   1   1813 26.14                             111     0.3 5  319 229 
 RREF BZ I        1814 11.26         9.3 0.53                           319 229 
 PRA  HZ EP   1   1813 32.86                             106    -0.3 4  390 209 
 PRA  HZ I        1814 21.09         9.2 0.37                           390 209 
                                                                                
