 2012  518 1810 16.1 L   6.747 -73.173145.0  RSN  5 0.4 1.7LRSN                1
 GAP=135        0.93       6.5     6.3  9.0 -0.3700E+01  0.6879E+01  0.2014E+01E
 Epicentro: VILLANUEVA - SANTANDER                                             3
 ACTION:UP  12-07-05 12:06 OP:pat  STATUS:               ID:20120518181016 L   I
 2012-05-18-1810-00M.COL___200                                                 6
 STAT SP IPHASW D HRMM SECON CODA AMPLIT PERI AZIMU VELO SNR AR TRES W  DIS CAZ7
 BAR2 SZ EP   1   1810 35.79                             173     0.3 7   17 183 
 BAR2 SZ ES   1   1810 50.28                             173    -0.4 7   17 183 
 BAR2 SZ I        1810 51.51        14.5 0.18                            17 183 
 BRR  HZ EP   1   1810 37.42                             152     0.2 7   72 304 
 BRR  HN ES   1   1810 54.42                             152     0.8 7   72 304 
 BRR  HZ I        1810 55.64        14.7 0.14                            72 304 
 PAM  SZ EP   1   1810 38.57                             149    -0.1 7   84  39 
 PAM  SN ES   1   1810 55.80                             149    -0.4 7   84  39 
 RUS  HZ EP   1   1810 39.59                             145     0.2 7   95 174 
 RUS  HN ES   1   1810 57.71                             145     0.2 7   95 174 
 RUS  HZ I        1810 59.66         5.0 0.36                            95 174 
 PTB  HZ EP   1   1810 42.24                             133    -0.4 7  144 261 
 PTB  HN ES   1   1811  2.85                             133    -0.5 7  144 261 
 PTB  HZ I        1811  3.69         4.5 0.19                           144 261 
                                                                                
