 2017  918 1214 36.8 L   6.736 -73.119142.8  RSN  5 0.3 1.5LRSN                1
 GAP=235        0.64       3.7     4.8  5.1  0.2285E+01  0.6718E+01  0.6483E+01E
 Epicentro: JORDAN - SANTANDER                                                 3
 ACTION:UPD 17-10-05 19:13 OP:rebc STATUS:               ID:20170918121436 L   I
 OLDACT:REG 17-09-18 20:01 OP:lv   STATUS:               ID:20170918120739     3
 2017-09-18-1208-00M.COL___444                                                 6
 STAT SP IPHASW D HRMM SECON CODA AMPLIT PERI AZIMU VELO AIN AR TRES W  DIS CAZ7
 BAR2 EZ EP       1214 55.65                             173   -0.3110 17.4 204 
 BAR2 EZ ES       1215 10.71                             173   -0.2010 17.4 204 
 BAR2 EZ I        1215 12.05        10.1 0.22            169           17.4 204 
 BRR  HZ EP       1214 57.79                             150   -0.1910 77.3 302 
 BRR  HN ES       1215 14.85                             150    0.3510 77.3 302 
 RUS  HZ EP       1214 59.89                             145    0.1510 93.4 178 
 RUS  HN ES       1215 17.83                             145    0.1910 93.4 178 
 RUS  HZ I        1215 19.33         2.3 0.18            143           93.4 178 
 NOR  HN ES       1215 39.62                             118   -0.16 8  233 236 
 PRA  HZ EP       1215 30.19                             106    0.52 6  387 210 
 PRA  HN ES       1216 10.72                             106   -0.19 6  387 210 
 PRA  HZ I        1216 18.14         1.9 0.28            106            387 210 
                                                                                
