 2010  718 1125 43.4 L   6.802 -73.046138.4  RSN  9 0.4 1.9LRSN                1
 GAP=167        0.93       3.5     8.1  8.2 -0.2456E+00 -0.2195E+02 -0.5056E+01E
 Epicentro: LOS SANTOS - SANTANDER                                             3
 ACTION:UPD 10-12-01 15:18 OP:pat  STATUS:               ID:20100718112543 L   I
 2010-07-18-1120-41S.COL___120                                                 6
 STAT SP IPHASW D HRMM SECON CODA AMPLIT PERI AZIMU VELO AIN AR TRES W  DIS CAZ7
 BAR2 SZ ES   2   1126 16.72                             168    -0.3 5   28 213 
 BAR2 SZ I        1126 17.92        20.8 0.17                            28 213 
 BRR  HZ EP       1126  4.16                             148    -0.210   81 295 
 BRR  HN ES       1126 21.22                             148     0.510   81 295 
 BRR  HZ I        1126 25.50        20.0 0.05                            81 295 
 RUS  HZ EP       1126  6.37                             142    -0.110  101 182 
 RUS  HN ES       1126 24.33                             142    -0.110  101 182 
 RUS  HZ I        1126 25.35         7.2 0.54                           101 182 
 BRI  SZ EP   2   1126  6.92                             141     0.6 5  105  15 
 GUE  SZ EP       1126  7.64                             138     0.310  115   7 
 GUE  SZ ES   2   1126 25.94                             138     0.0 5  115   7 
 GUE  SZ I        1126 27.40         3.8 0.21                           115   7 
 GRA  SZ EP       1126  8.06                             136     0.310  123  13 
 GRA  SZ I        1126 28.65        14.9 0.68                           123  13 
 OCA  SZ EP       1126 11.27                             128    -0.1 9  162 349 
 OCA  SZ ES       1126 32.39                             128    -0.7 9  162 349 
 OCA  SZ I        1126 35.94        11.4 0.80                           162 349 
 RREF HN ES   2   1127  7.24                             109     0.5 3  330 231 
 RREF HZ I        1127 11.66         2.8 0.33                           330 231 
 PRA  HZ EP   2   1126 36.72                             105    -0.7 3  398 211 
 PRA  HN ES   2   1127 19.29                             105    -0.2 3  398 211 
 PRA  HZ I        1127 23.84         3.6 0.09                           398 211 
                                                                                
