 2014 1018 1641 46.0 L   6.794 -73.141148.1  RSN  7 0.5 2.1LRSN                1
 GAP=137        1.25       5.2     5.6  7.9  0.3350E+01  0.9959E+01 -0.8555E+01E
 Epicentro: LOS SANTOS - SANTANDER                                             3
 ACTION:UPD 14-11-29 23:50 OP:nd   STATUS:               ID:20141018164146 L   I
 OLDACT:UP  14-10-19 00:43 OP:cam  STATUS:               ID:20141018163813     3
 OLDACT:REG 14-10-18 21:09 OP:cam\ STATUS:               ID:20141018163813     3
 2014-10-18-1638-13M.COL___276                                                 6
 STAT SP IPHASW D HRMM SECON CODA AMPLIT PERI AZIMU VELO AIN AR TRES W  DIS CAZ7
 BAR2 SZ EP     D 1642  6.08                             171    0.1610 22.8 191 
 BAR2 SZ ES       1642 21.07                             171   -0.3710 22.8 191 
 BAR2 SZ I        1642 23.62         9.6 0.24            170           22.8 191 
 BRR  HZ EP     C 1642  7.80                             153    0.3310 71.9 299 
 BRR  HN ES       1642 24.80                             153    0.6110 71.9 299 
 BRR  HN I        1642 25.22        46.0 0.26            150           71.9 299 
 PAM  SZ EP     D 1642  8.96                             151    0.4610 77.6  39 
 PAM  SE ES       1642 25.84                             151   -0.1910 77.6  39 
 PAM  SZ I        1642 26.38        17.5 0.22            154           77.6  39 
 RUS  HZ EP       1642 10.05                             144    0.0910 99.9 176 
 RUS  HN ES       1642 28.60                             144   -0.0310 99.9 176 
 PTB  HZ EP       1642 12.70                             132   -0.52 9  148 259 
 PTB  HN ES       1642 33.69                             132   -0.73 9  148 259 
 PTB  HZ I        1642 39.48        12.8 0.26            132            148 259 
 ZAR  HZ EP       1642 19.45                             123    0.76 9  205 292 
 ZAR  HN ES       1642 44.73                             123    0.56 9  205 292 
 ZAR  HZ I        1642 49.99        12.9 0.62            123            205 292 
 SML  HZ EP       1642 21.89                             118   -0.98 8  244 335 
 SML  HE ES       1642 51.10                             118   -0.50 8  244 335 
 SML  HZ I        1642 54.38        13.3 0.10            119            244 335 
                                                                                
