 2014 1218 1950 40.7 L   6.799 -73.423116.8  RSN  4 0.2 1.2LRSN                1
 GAP=157        0.49       3.4     2.4  5.1 -0.1713E+01  0.2195E+01 -0.1067E+01E
 Epicentro: SAN VICENTE DE CHUCURI - SANTANDER                                 3
 ACTION:UPD 15-02-10 17:05 OP:nd   STATUS:               ID:20141218195040 L   I
 OLDACT:REG 14-12-18 20:59 OP:spq  STATUS:               ID:20141218194750     3
 2014-12-18-1947-50M.COL___296                                                 6
 STAT SP IPHASW D HRMM SECON CODA AMPLIT PERI AZIMU VELO AIN AR TRES W  DIS CAZ7
 BAR2 EZ EP       1950 57.41                             162    0.1510 35.0 131 
 BAR2 EZ ES   1   1951 10.23                             162    0.08 7 35.0 131 
 BAR2 EZ I        1951 11.64         4.7 0.36            167           35.0 131 
 PAM  SZ EP   1   1951  1.28                             137   -0.41 7 99.8  53 
 PAM  SN ES   1   1951 18.15                             137    0.12 7 99.8  53 
 PAM  SZ I        1951 20.50         3.4 0.38            141           99.8  53 
 RUS  HZ EP       1951  2.38                             135    0.0710  107 159 
 RUS  HE ES   1   1951 18.94                             135   -0.20 7  107 159 
 RUS  HZ I        1951 20.33         1.1 0.28            140            107 159 
 PTB  HZ EP       1951  2.79                             131    0.1710  118 256 
 PTB  HE ES       1951 19.54                             131   -0.1610  118 256 
 PTB  HZ I        1951 23.94         5.3 0.14            134            118 256 
                                                                                
