 2014 1118 1728 48.5 L   6.740 -73.102140.6  RSN  6 0.6 1.8LRSN                1
 GAP=175        1.59      10.2     9.2 11.1 -0.5559E+02  0.5927E+01  0.3099E+02E
 Epicentro: JORDAN - SANTANDER                                                 3
 ACTION:UPD 14-12-19 15:44 OP:nd   STATUS:               ID:20141118172848 L   I
 OLDACT:ARG 14-11-18 23:39 OP:stll STATUS:               ID:20141118172745     3
 2014-11-18-1727-45M.COL___271                                                 6
 STAT SP IPHASW D HRMM SECON CODA AMPLIT PERI AZIMU VELO AIN AR TRES W  DIS CAZ7
 BAR2 SZ EP       1729  7.69                             172    0.2310 18.6 208 
 BAR2 SZ ES       1729 21.05                             172   -1.1610 18.6 208 
 BAR2 SZ I        1729 24.23        15.7 0.22            170           18.6 208 
 BRR  HZ EP       1729  9.65                             149    0.0710 78.6 301 
 BRR  HN ES       1729 26.59                             149    0.6010 78.6 301 
 PAM  SZ EP       1729 10.66                             149    0.3010 79.8  34 
 PAM  SN ES       1729 27.66                             149    0.2910 79.8  34 
 PAM  SZ I        1729 29.78        10.8 0.46            152           79.8  34 
 PTB  HZ EP       1729 14.40                             130   -1.03 9  151 262 
 PTB  HN ES       1729 35.95                             130   -0.44 9  151 262 
 SPBC HZ EP       1729 16.73                             128    0.27 9  161 222 
 SPBC HN ES       1729 39.02                             128    0.78 9  161 222 
 NOR  HZ EP       1729 23.33                             117   -0.67 8  235 236 
 NOR  HN ES       1729 52.40                             117    0.75 8  235 236 
 NOR  HZ I        1729 58.79         6.4 0.24            118            235 236 
                                                                                
