 2016  718 1533 49.1 L   6.781 -73.144143.4  RSN 18 0.4 2.8LRSN                1
 GAP=138        0.97       3.0     3.5  4.7 -0.8316E+00  0.5455E+01  0.3698E+01E
 Epicentro: LOS SANTOS - SANTANDER                                             3
 ACTION:UPD 17-03-29 16:52 OP:lp   STATUS:               ID:20160718153349 L   I
 OLDACT:REG 16-07-18 20:36 OP:lv   STATUS:               ID:20160718152759     3
 2016-07-18-1527-59S.COL___310                                                 6
 STAT SP IPHASW D HRMM SECON CODA AMPLIT PERI AZIMU VELO AIN AR TRES W  DIS CAZ7
 BAR2 EZ IP     D 1534  8.15                             171   -0.2110 21.3 191 
 BAR2 EZ ES       1534 22.90                             171   -0.5310 21.3 191 
 BAR2 EZ I        1534 25.97       100.5 0.15            167           21.3 191 
 BRR  HZ IP     D 1534 10.02                             152    0.0010 72.4 300 
 BRR  HN ES       1534 27.19                             152    0.8210 72.4 300 
 BRR  HZ I        1534 31.32        83.9 0.17            150           72.4 300 
 PAM  EZ EP       1534 11.04                             150   -0.0710 78.9  38 
 PAM  EE ES       1534 28.30                             150   -0.0210 78.9  38 
 PAM  EZ I        1534 30.36       140.6 0.18            157           78.9  38 
 RUS  HZ IP     D 1534 12.05                             144   -0.3710 98.5 176 
 RUS  HE ES       1534 31.01                             144    0.3610 98.5 176 
 RUS  HZ I        1534 32.86        37.7 0.18            145           98.5 176 
 SPBC HZ EP       1534 16.99                             129   -0.24 9  162 220 
 SPBC HN ES       1534 39.22                             129    0.01 9  162 220 
 SPBC HZ I        1534 42.52       114.7 0.16            129            162 220 
 ZAR  HZ EP       1534 20.93                             122   -0.52 9  205 293 
 ZAR  HN ES       1534 46.37                             122   -0.35 9  205 293 
 ZAR  HZ I        1534 52.84        65.1 0.19            123            205 293 
 NOR  HZ EP       1534 24.06                             118   -0.47 8  234 235 
 NOR  HN ES       1534 52.34                             118    0.13 8  234 235 
 NOR  HZ I        1534 58.10        63.2 0.14            119            234 235 
 CHI  HZ EP       1534 26.54                             117    0.13 8  247 195 
 CHI  HE ES       1534 55.43                             117   -0.12 8  247 195 
 CHI  HZ I        1535  1.82        24.6 0.31            118            247 195 
 ROSC BZ EP       1534 27.94                             116    1.08 8  251 211 
 ROSC BN ES   4   1534 58.76                             116    2.41 0  251 211 
 ROSC BZ I        1535  5.96        86.3 0.37            118            251 211 
 HEL  HZ EP       1534 29.57                             114    0.46 8  272 256 
 HEL  HN ES       1535  1.07                             114    0.71 8  272 256 
 HEL  HZ I        1535  6.88        43.9 0.44            115            272 256 
 URE  HZ EP   4   1534 28.78                             113   -1.34 0  285 292 
 URE  HE ES   4   1534 59.78                             113   -2.37 0  285 292 
 URE  HZ I        1535  9.07        31.0 0.15            114            285 292 
 GUY2CHZ EP       1534 32.31                             112   -0.13 7  300 235 
 GUY2CHE ES   4   1535  9.18                             112    2.91 0  300 235 
 GUY2CHZ I        1535 15.43        55.5 0.68                           300 235 
 VIL  EZ EP       1534 32.39                             112    0.25 7  301 192 
 VIL  EE ES       1535  5.67                             112   -0.07 7  301 192 
 VIL  EZ I        1535 12.07        35.2 0.47            113            301 192 
 ELA  HZ EP   9   1534 37.73                             110    2.06 0  328 230 
 ELA  HE ES       1535 14.76                                    0.67 7  328 230 
 ELA  HZ I        1535 21.03        41.5 0.46            111            328 230 
 CBOC HZ EP       1534 36.24                             110    0.42 7  333 252 
 CBOC HE ES       1535 11.74                             110   -0.56 7  333 252 
 CBOC HZ I        1535 20.52        15.5 0.30            111            333 252 
 ANIL HZ EP   9   1534 40.50                             108    1.89 0  356 225 
 ANIL HN ES       1535 19.05                                   -0.10 6  356 225 
 PRA  HZ EP       1534 42.71                             106    0.42 6  390 210 
 PRA  HN ES       1535 23.73                             106   -0.09 6  390 210 
 PRA  HZ I        1535 30.70        29.2 0.25            108            390 210 
 PAL  HZ EP       1534 43.88                             106   -0.15 6  405 239 
 PAL  HE ES       1535 25.98                             106   -0.93 6  405 239 
 PAL  HZ I        1535 30.45        15.5 0.21            107            405 239 
                                                                                
