 2010  818 1111 58.3 L   6.788 -73.115138.8  RSN  8 0.3 1.9LRSN                1
 GAP=162        0.86       4.3     7.8  6.2 -0.1605E+01 -0.6364E+01  0.3277E+01E
 Epicentro: LOS SANTOS - SANTANDER                                             3
 ACTION:UP  10-09-07 10:56 OP:vdl  STATUS:               ID:20100818111158 L   I
 2010-08-18-1110-12S.COL___117                                                 6
 STAT SP IPHASW D HRMM SECON CODA AMPLIT PERI AZIMU VELO SNR AR TRES W  DIS CAZ7
 BTL  SZ EP       1112 16.95                             171    -0.110   22 311 
 BTL  SZ ES   1   1112 31.63                             171    -0.1 7   22 311 
 BAR2 SZ EP       1112 16.89                             170    -0.210   23 199 
 BAR2 SZ ES   1   1112 31.71                             170     0.0 7   23 199 
 BRR  HZ EP       1112 18.66                             151    -0.310   75 298 
 BRR  HE ES       1112 35.08                             151     0.110   75 298 
 BRR  HZ I        1112 36.30        23.5 0.07                            75 298 
 RUS  HZ EP       1112 20.95                             143    -0.310   99 178 
 RUS  HZ I        1112 22.12         9.3 0.14                            99 178 
 RUS  HE ES   1   1112 39.79                             143     0.6 7   99 178 
 GUE  SZ EP       1112 22.85                             138     0.410  117  10 
 GUE  SZ I        1112 42.77         4.8 0.13                           117  10 
 GRA  SZ ES   1   1112 42.19                             136     0.0 7  126  16 
 GRA  SZ I        1112 57.26        11.0 1.02                           126  16 
 RREF HZ EP   1   1112 45.15                             110     0.8 5  323 230 
 RREF HZ I        1113 29.86         5.1 0.55                           323 230 
 PRA  HZ EP   1   1112 51.43                             106    -0.2 4  393 210 
 PRA  HZ I        1113 37.64         6.2 0.76                           393 210 
                                                                                
