 2012 1218 1941 19.1 L   6.799 -73.146142.3  RSN  6 0.4 1.6LRSN                1
 GAP=137        0.72       5.1     5.2  7.3 -0.4324E+01 -0.3073E+01  0.1137E+02E
 Epicentro: LOS SANTOS - SANTANDER                                             3
 ACTION:UPD 13-01-04 14:28 OP:ep   STATUS:               ID:20121218194119 L   I
 2012-12-18-1940-00M.COL___242                                                 6
 STAT SP IPHASW D HRMM SECON CODA AMPLIT PERI AZIMU VELO AIN AR TRES W  DIS CAZ7
 BAR2 SZ EP   1   1941 38.19                             170   -0.09 7 23.3 190 
 BAR2 SZ ES   1   1941 52.89                             170   -0.38 7 23.3 190 
 BAR2 SZ I        1941 56.13        11.5 0.42                          23.3 190 
 BRR  HE ES   1   1941 56.66                             152    0.61 7 71.2 299 
 BRR  HZ I        1942  4.11        10.4 0.38                          71.2 299 
 PAM  SZ EP   1   1941 41.24                             150    0.32 7 77.4  40 
 PAM  SN ES   1   1941 57.60                             150   -0.36 7 77.4  40 
 RUS  HZ EP   1   1941 42.35                             143   -0.12 7  101 176 
 RUS  HN ES   1   1942  1.14                             143    0.41 7  101 176 
 PTB  HN ES   1   1942  6.15                             131   -0.42 7  148 259 
 PTB  HZ I        1942 12.74         3.6 0.38                           148 259 
 CHI  HZ EP   1   1941 56.52                             116   -0.05 6  249 195 
                                                                                
