 2014  718 1431 37.1 L   6.871 -73.193139.6  RSN 19 0.6 2.6LRSN                1
 GAP= 71        1.32       3.4     3.9  5.8 -0.1745E+01  0.6700E+01  0.3210E+01E
 Epicentro: ZAPATOCA - SANTANDER                                               3
 ACTION:UPD 15-03-16 20:45 OP:nd   STATUS:               ID:20140718143137 L   I
 OLDACT:REG 14-07-18 21:16 OP:stll STATUS:               ID:20140718142817     3
 2014-07-18-1428-17M.COL___272                                                 6
 STAT SP IPHASW D HRMM SECON CODA AMPLIT PERI AZIMU VELO AIN AR TRES W  DIS CAZ7
 BAR2 SZ IP     C 1431 56.28                             167    0.0810 30.9 178 
 BAR2 SZ ES       1432 11.32                             167    0.2410 30.9 178 
 BAR2 SZ I        1432 13.06       112.3 0.62            167           30.9 178 
 BRR  HZ IP     C 1431 57.65                             154    0.4910 63.0 294 
 BRR  HE ES       1432 13.24                             154    0.4610 63.0 294 
 BRR  HZ I        1432 15.98        59.1 0.12            148           63.0 294 
 PAM  SZ IP     C 1431 58.78                             150    0.2310 75.1  46 
 PAM  SZ I        1431 58.83        96.8 0.16            151           75.1  46 
 PAM  SN ES       1432 15.25                             150   -0.0210 75.1  46 
 RUS  HZ EP       1432  0.68                             140   -0.2310  109 174 
 RUS  HN ES       1432 19.12                             140   -0.3410  109 174 
 RUS  HZ I        1432 21.53        24.2 0.24            140            109 174 
 PTB  HZ IP     C 1432  2.75                             131   -0.54 9  144 255 
 PTB  HN ES       1432 23.84                             131    0.14 9  144 255 
 PTB  HZ I        1432 25.84        56.0 0.56            127            144 255 
 TAM  HZ IP     D 1432  4.76                             128   -0.25 9  162 107 
 SPBC HZ EP       1432  5.45                             127   -0.01 9  166 216 
 SPBC HN ES       1432 28.01                             127    0.45 9  166 216 
 SPBC HZ I        1432 31.82        54.4 0.22            125            166 216 
 ZAR  HZ EP       1432  8.34                             122   -0.03 9  196 291 
 ZAR  HZ I        1432 10.48        72.6 0.26            119            196 291 
 ZAR  HN ES       1432 33.01                             122    0.26 9  196 291 
 SML  HZ EP       1432 11.56                             117   -0.83 8  234 336 
 SML  HE ES       1432 38.82                             117   -1.09 8  234 336 
 SML  HZ I        1432 47.51        33.2 0.10            115            234 336 
 NOR  HZ EP       1432 12.42                             117   -0.14 8  235 232 
 NOR  HN ES       1432 39.41                             117   -0.80 8  235 232 
 NOR  HZ I        1432 45.51        30.2 0.18            115            235 232 
 CHI  HZ EP       1432 14.74                             115   -0.45 8  255 194 
 CHI  HN ES       1432 44.32                             115   -0.56 8  255 194 
 HEL  HZ EP       1432 18.61                             114    1.91 8  269 254 
 HEL  HN ES       1432 47.20                             114   -0.37 8  269 254 
 HEL  HZ I        1432 55.46        36.1 0.30            111            269 254 
 GUY2CHZ EP       1432 21.59                             111    1.08 7  302 233 
 GUY2CHN ES       1432 54.49                             111    0.14 7  302 233 
 GUY2CHZ I        1433  3.49        21.9 0.66                           302 233 
 RREF HZ EP       1432 23.72                             110    0.56 7  323 228 
 RREF HE ES       1432 58.97                             110   -0.10 7  323 228 
 RREF HZ I        1433 11.51        17.8 0.38            108            323 228 
 CBOC HZ EP       1432 23.89                             109    0.37 7  331 251 
 CBOC HN ES       1432 58.20                             109   -1.50 7  331 251 
 DBB  SZ EP       1432 24.00                             109    0.30 7  334 273 
 DBB  SZ I        1433  4.13        39.8 0.34            107            334 273 
 TOL  SZ EP       1432 26.45                             108    1.07 6  346 223 
 TOL  SN ES       1433  2.48                             108   -0.54 6  346 223 
 PRA  HZ EP       1432 30.65                             105   -0.30 6  396 208 
 PRA  HN ES       1433 12.47                             105   -0.47 6  396 208 
 PRA  HZ I        1433 17.96        12.3 0.26            104            396 208 
 ORTC HZ EP       1432 32.07                             105    0.83 6  399 215 
 ORTC HN ES       1433 13.45                             105   -0.00 6  399 215 
 ORTC HZ I        1433 18.17         9.4 0.34            104            399 215 
                                                                                
