 2013 1118 1614  5.3 L   6.794 -73.162143.9  RSN 11 0.4 1.9LRSN                1
 GAP=135        0.92       3.7     4.1  5.4 -0.4240E+01  0.3766E+01  0.5356E+01E
 Epicentro: LOS SANTOS - SANTANDER                                             3
 ACTION:UPD 14-01-09 16:29 OP:ep   STATUS:               ID:20131118161405 L   I
 OLDACT:DUP 13-11-18 16:15 OP:nd   STATUS:               ID:20131118161001d    3
 2013-11-18-1610-00M.COL___279                                                 6
 STAT SP IPHASW D HRMM SECON CODA AMPLIT PERI AZIMU VELO AIN AR TRES W  DIS CAZ7
 BAR2 SZ EP       1614 24.54                             171   -0.1610 22.5 186 
 BAR2 SZ ES       1614 39.68                             171   -0.1410 22.5 186 
 BAR2 SZ I        1614 42.56        28.2 0.36            168           22.5 186 
 BRR  HZ EP       1614 26.69                             153    0.5110 69.9 300 
 BRR  HN ES       1614 43.14                             153    0.6810 69.9 300 
 BRR  HZ I        1614 46.10         9.6 0.12            152           69.9 300 
 PAM  SZ EP       1614 27.42                             150   -0.0110 79.0  40 
 PAM  SN ES       1614 44.52                             150   -0.1510 79.0  40 
 PAM  SZ I        1614 46.79        11.5 0.54            155           79.0  40 
 RUS  HZ EP       1614 28.90                             144    0.0610  100 175 
 RUS  HN ES       1614 46.96                             144   -0.2410  100 175 
 RUS  HZ I        1614 48.92         8.5 0.38            144            100 175 
 PTB  HZ EP       1614 31.24                             132   -0.71 9  146 259 
 PTB  HN ES       1614 52.25                             132   -0.48 9  146 259 
 PTB  HZ I        1614 54.86        12.3 0.16            132            146 259 
 SPBC HZ EP       1614 33.43                             129   -0.08 9  162 219 
 SPBC HN ES       1614 55.61                             129    0.11 9  162 219 
 SPBC HZ I        1615  0.59        15.3 0.24            129            162 219 
 NOR  HZ EP   2   1614 40.51                             118   -0.22 4  233 234 
 NOR  HN ES       1615  7.94                             118   -0.42 8  233 234 
 NOR  HZ I        1615 12.88         8.7 0.20            119            233 234 
 CHI  HZ EP       1614 42.79                             117   -0.00 8  248 195 
 CHI  HN ES       1615 12.67                             117    0.65 8  248 195 
 CHI  HZ I        1615 18.30         3.0 0.70            118            248 195 
 GUY2CHZ EP   2   1614 48.61                             112   -0.01 4  299 235 
 GUY2CHN ES   4   1615 22.80                             112    0.39 0  299 235 
 GUY2CHZ I        1615 29.96         4.6 0.30                           299 235 
 RREF HZ EP       1614 51.77                             111    0.60 7  320 229 
 RREF HN ES   2   1615 27.70                             111    0.77 3  320 229 
 RREF HZ I        1615 35.54         5.8 0.24            112            320 229 
 SJC  HZ EP   4   1614 58.70                             105   -2.06 0  409 327 
 SJC  HN ES   4   1615 40.18                             105   -3.82 0  409 327 
 SJC  HZ I        1615 45.30         2.3 0.38            107            409 327 
                                                                                
