 2014  218 1237 14.2 L   6.803 -73.169140.7  RSN  6 0.3 1.7LRSN                1
 GAP=133        0.83       3.4     3.8  5.8  0.6189E+00  0.7779E+01  0.1809E+01E
 Epicentro: LOS SANTOS - SANTANDER                                             3
 *PTGC                                                                         3
 ACTION:UPD 14-03-10 08:11 OP:ep   STATUS:               ID:20140218123714 L   I
 OLDACT:DUP 14-02-18 16:34 OP:carl STATUS:               ID:20140218123001d    3
 2014-02-18-1230-00M.COL___212                                                 6
 STAT SP IPHASW D HRMM SECON CODA AMPLIT PERI AZIMU VELO AIN AR TRES W  DIS CAZ7
 BAR2 SZ EP       1237 33.11                             170   -0.1210 23.4 184 
 BAR2 SZ ES       1237 48.00                             170   -0.0710 23.4 184 
 BAR2 SZ I        1237 49.07        22.1 0.36            169           23.4 184 
 PAM  SZ EP       1237 36.01                             149    0.0410 78.8  41 
 PAM  SN ES       1237 53.05                             149    0.1010 78.8  41 
 PAM  SZ I        1237 55.32         9.9 0.46            152           78.8  41 
 RUS  HZ EP       1237 37.38                             142   -0.1310  101 175 
 RUS  HN ES       1237 55.73                             142    0.0510  101 175 
 RUS  HZ I        1237 56.50         3.5 0.30            143            101 175 
 PTB  HZ EP       1237 40.78                             131    0.24 9  145 258 
 PTB  HN ES       1238  0.52                             131   -0.56 9  145 258 
 PTB  HZ I        1238  3.13         5.3 0.10            131            145 258 
 ZAR  HZ EP       1237 45.53                             122   -0.54 9  202 292 
 ZAR  HN ES       1238 11.65                             122    0.74 9  202 292 
 ZAR  HZ I        1238 17.24         6.5 0.42            121            202 292 
 CHI  HZ EP       1237 51.61                             116    0.01 8  248 195 
 CHI  HN ES       1238 21.21                             116    0.44 8  248 195 
 CHI  HZ I        1238 28.39         2.0 0.48            116            248 195 
                                                                                
