 2013  818 1245 42.0 L   6.488 -73.720 98.2  RSN  7 0.5 1.5LRSN                1
 GAP= 98        1.36       5.4     4.2 12.7  0.2779E+01  0.9630E+01  0.1151E+02E
 Epicentro: SANTA HELENA DEL OPON - SANTANDER                                  3
 ACTION:UPD 14-01-14 09:04 OP:ep   STATUS:               ID:20130818124542 L   I
 OLDACT:REG 13-08-18 14:45 OP:jn   STATUS:               ID:20130818123959     3
 2013-08-18-1239-59M.COL___269                                                 6
 STAT SP IPHASW D HRMM SECON CODA AMPLIT PERI AZIMU VELO AIN AR TRES W  DIS CAZ7
 BAR2 SZ EP       1245 58.16                             146    0.3710 60.5  79 
 BAR2 SZ ES       1246 10.51                             146    0.3710 60.5  79 
 BAR2 SZ I        1246 11.83        11.4 0.20            148           60.5  79 
 BRR  HN ES       1246 11.04                             142    0.4910 68.4   1 
 BRR  HZ I        1246 11.86        11.8 0.12            144           68.4   1 
 PTB  HZ EP       1245 58.63                             137   -0.4610 81.6 274 
 PTB  HN ES       1246 11.50                             137   -0.9610 81.6 274 
 PTB  HZ I        1246 13.45         9.5 0.46            137           81.6 274 
 RUS  HZ EP       1246  1.09                             133    0.0510 96.5 133 
 RUS  HE ES       1246 15.88                             133   -0.0410 96.5 133 
 RUS  HZ I        1246 17.88         2.6 0.18            133           96.5 133 
 PAM  SN ES       1246 24.14                             120   -0.73 9  147  50 
 PAM  SZ I        1246 25.67         5.4 0.26            121            147  50 
 NOR  HN ES   1   1246 27.74                             117    0.71 7  163 231 
 NOR  HZ I        1246 31.35         6.1 0.16            117            163 231 
 ZAR  HN ES       1246 28.41                             116    0.59 9  168 312 
 ZAR  HZ I        1246 31.18         5.1 0.50            116            168 312 
                                                                                
