 2016  318 1101 41.9 L   6.811 -73.171143.7  RSN  5 0.2 1.7LRSN                1
 GAP=133        0.64       3.4     3.0  5.4 -0.1888E+00  0.5017E+01 -0.1398E+01E
 Epicentro: LOS SANTOS - SANTANDER                                             3
 ACTION:UPD 16-05-13 21:25 OP:cam  STATUS:               ID:20160318110141 L   I
 OLDACT:REG 16-03-18 22:45 OP:cara STATUS:               ID:20160318105748     3
 2016-03-18-1057-48M.COL___307                                                 6
 STAT SP IPHASW D HRMM SECON CODA AMPLIT PERI AZIMU VELO AIN AR TRES W  DIS CAZ7
 BAR2 EZ IP       11 2  1.34                             170    0.0310 24.2 183 
 BAR2 EZ ES       11 2 16.67                             170    0.2310 24.2 183 
 BAR2 EZ I        11 2 17.81        18.6 0.28            171           24.2 183 
 PAM  EZ IP       11 2  4.21                             150    0.2510 78.3  42 
 PAM  EZ I        11 2  4.39        25.7 0.22            152           78.3  42 
 PAM  EE ES       11 2 20.81                             150   -0.3510 78.3  42 
 RUS  HZ IP       11 2  5.40                             143   -0.1610  102 175 
 RUS  HE ES       11 2 24.15                             143    0.1410  102 175 
 RUS  HZ I        11 2 25.44         4.1 0.42            145            102 175 
 PTB  HZ EP       11 2  8.39                             132   -0.09 9  145 258 
 PTB  HN ES       11 2 28.85                             132   -0.35 9  145 258 
 PTB  HZ I        11 2 30.35         4.4 0.16            132            145 258 
 ZAR  HN ES       11 2 39.18                             122    0.32 9  201 292 
 ZAR  HZ I        11 2 45.53         4.5 0.30            122            201 292 
                                                                                
