 2013  818 1206 49.0 L   6.770 -73.142148.0  RSN  8 0.5 1.5LRSN                1
 GAP=138        1.16       4.6     5.4  8.4 -0.1171E+01  0.1314E+02 -0.2143E+01E
 Epicentro: LOS SANTOS - SANTANDER                                             3
 ACTION:UPD 14-01-14 09:04 OP:ep   STATUS:               ID:20130818120649 L   I
 OLDACT:REG 13-08-18 14:43 OP:jn   STATUS:               ID:20130818115959     3
 2013-08-18-1159-59M.COL___269                                                 6
 STAT SP IPHASW D HRMM SECON CODA AMPLIT PERI AZIMU VELO AIN AR TRES W  DIS CAZ7
 BAR2 SZ EP   1   12 7  8.91                             172    0.03 7 20.2 193 
 BAR2 SZ ES       12 7 24.12                             172   -0.2310 20.2 193 
 BAR2 SZ I        12 7 26.71         7.6 0.28            171           20.2 193 
 BRR  HZ EP       12 7 11.17                             152    0.6310 73.2 301 
 BRR  HN ES       12 7 28.07                             152    0.7610 73.2 301 
 BRR  HZ I        12 7 32.32         5.2 0.12            153           73.2 301 
 PAM  SZ EP       12 7 11.82                             150    0.1910 79.7  38 
 PAM  SN ES       12 7 29.26                             150    0.0110 79.7  38 
 PAM  SZ I        12 7 31.12         4.0 0.22            155           79.7  38 
 RUS  HZ EP       12 7 12.90                             145    0.1210 97.3 176 
 RUS  HN ES       12 7 30.67                             145   -0.6210 97.3 176 
 RUS  HZ I        12 7 34.60         2.9 0.34            147           97.3 176 
 PTB  HZ EP       12 7 15.98                             132   -0.19 9  148 260 
 PTB  HN ES   1   12 7 36.91                             132   -0.42 7  148 260 
 PTB  HZ I        12 7 40.42         3.7 0.12            134            148 260 
 ZAR  HE ES   1   12 7 46.78                             123   -0.57 6  206 293 
 NOR  HE ES       12 7 53.02                             119    0.45 8  233 235 
 NOR  HZ I        12 7 56.68         5.1 0.20            121            233 235 
 SML  HE ES       12 7 54.13                             117   -0.93 8  247 336 
                                                                                
