 2016  618 1047 26.0 L   6.607 -73.187 19.3  RSN  6 0.5 1.6LRSN                1
 GAP=127        1.04       3.3     3.6  3.2 -0.3627E+01  0.5826E+01  0.5277E+00E
 Epicentro: BARICHARA - SANTANDER                                              3
 ACTION:UPD 16-07-21 22:20 OP:rebc STATUS:               ID:20160618104726 L   I
 OLDACT:REG 16-06-18 20:41 OP:dnl  STATUS:               ID:20160618103743     3
 2016-06-18-1037-43M.COL___337                                                 6
 STAT SP IPHASW D HRMM SECON CODA AMPLIT PERI AZIMU VELO AIN AR TRES W  DIS CAZ7
 BAR2 EZ EP       1047 29.33                             175   -0.1910 1.68 161 
 BAR2 EZ ES       1047 32.29                             175   -0.0110 1.68 161 
 BAR2 EZ I        1047 32.94       102.5 0.22                          1.68 161 
 BRR  HZ IP     C 1047 39.07                             101    0.1310 80.2 314 
 BRR  HN ES       1047 49.37                             101    0.3110 80.2 314 
 BRR  HZ I        1047 50.12        12.0 0.10                          80.2 314 
 PAM  EZ EP       1047 42.19                             100    0.1810 97.3  34 
 PAM  EN ES       1047 54.41                             100   -0.1210 97.3  34 
 PAM  EZ I        1047 56.17        16.4 0.14                          97.3  34 
 PTB  HZ EP       1047 47.22                              56   -0.28 9  141 267 
 PTB  HN ES       1048  3.49                              56   -0.80 9  141 267 
 PTB  HZ I        1048  5.31        14.7 0.23                           141 267 
 SPBC HZ EP   2   1047 47.19                              56   -0.83 5  144 223 
 SPBC HN ES       1048  6.03                              56    0.81 9  144 223 
 SPBC HZ I        1048  9.12        13.0 0.22                           144 223 
 ZAR  HZ EP   4   1047 57.72                              56    1.68 0  209 298 
 ZAR  HN ES   2   1048 20.15                              56    0.65 4  209 298 
 ZAR  HZ I        1048 23.27         3.7 0.32                           209 298 
                                                                                
