 2015  618 1609 26.1 L   6.834 -73.135139.2  RSN  7 0.6 2.2LRSN                1
 GAP=202        1.44       5.4     8.5  9.3  0.1187E+02  0.2644E+02 -0.1737E+01E
 Epicentro: LOS SANTOS - SANTANDER                                             3
 ACTION:UPD 15-09-10 22:13 OP:cam  STATUS:               ID:20150618160926 L   I
 OLDACT:REG 15-06-18 20:51 OP:stll STATUS:               ID:20150618160748     3
 2015-06-18-1607-48M.COL___306                                                 6
 STAT SP IPHASW D HRMM SECON CODA AMPLIT PERI AZIMU VELO AIN AR TRES W  DIS CAZ7
 BAR2 EZ IP     C 16 9 45.19                             168    0.1410 27.3 191 
 BAR2 EZ I        16 9 45.64        39.5 0.14            165           27.3 191 
 BAR2 EZ ES       16 9 59.43                             168   -0.3810 27.3 191 
 BRR  HZ IP     C 16 9 46.99                             152    0.4710 70.5 295 
 BRR  HZ I        16 9 47.10        41.9 0.20            147           70.5 295 
 BRR  HN ES       1610  3.51                             152    1.0810 70.5 295 
 RUS  HZ EP       16 9 49.26                             141   -0.2510  104 177 
 RUS  HZ I        16 9 49.84        12.9 0.32            140            104 177 
 RUS  HN ES       1610  7.44                             141   -0.3110  104 177 
 ZAR  HZ EP       16 9 58.85                             121    0.74 9  204 291 
 ZAR  HN ES       1610 22.28                             121   -0.78 9  204 291 
 ZAR  HZ I        1610 28.97        21.9 0.48            119            204 291 
 SML  HZ EP       1610  1.70                             116   -0.36 8  241 335 
 SML  HN ES       1610 29.32                             116   -0.78 8  241 335 
 GUY2CHN ES       1610 42.96                             111   -0.89 7  304 234 
 GUY2CHZ I        1610 53.74         7.1 0.72                           304 234 
 TOL  SZ EP       1610 15.29                             108    0.76 6  347 224 
 TOL  SE ES       1610 52.63                             108    0.35 6  347 224 
 TOL  SZ I        1610 59.49         6.3 0.54            107            347 224 
                                                                                
