 2016  418 1030  1.6 L   6.806 -73.165149.5  RSN  4 0.2 1.5LRSN                1
 GAP=276        0.63       5.6     4.2  5.4  0.2167E+01  0.4621E+01 -0.4108E+01E
 Epicentro: LOS SANTOS - SANTANDER                                             3
 ACTION:UPD 16-05-05 14:22 OP:rebc STATUS:               ID:20160418103001 L   I
 OLDACT:DUP 16-04-19 00:17 OP:ar   STATUS:               ID:20160418102751d    3
 2016-04-18-1027-49M.COL___285                                                 6
 STAT SP IPHASW D HRMM SECON CODA AMPLIT PERI AZIMU VELO AIN AR TRES W  DIS CAZ7
 BAR2 EZ EP       1030 21.81                             171    0.1510 23.7 185 
 BAR2 EZ ES       1030 37.30                             171   -0.0310 23.7 185 
 BAR2 EZ I        1030 39.03         6.7 0.28            165           23.7 185 
 RUS  HZ EP       1030 25.39                             144   -0.3710  101 175 
 RUS  HN ES       1030 44.74                             144    0.1310  101 175 
 RUS  HZ I        1030 45.95         3.2 0.22            142            101 175 
 PTB  HZ EP       1030 28.50                             133   -0.18 9  146 258 
 PTB  HE ES       1030 49.85                             133    0.04 9  146 258 
 PTB  HZ I        1030 51.73         3.5 0.40            132            146 258 
 SPBC HZ EP       1030 30.75                             130    0.46 9  162 218 
 SPBC HN ES       1030 52.50                             130   -0.18 9  162 218 
 SPBC HZ I        1030 58.56         6.7 0.10            129            162 218 
                                                                                
