 2013  918 1530  9.1 L   6.533 -73.438118.0  RSN  4 0.3 1.6LRSN                1
 GAP=193        0.67       6.7     4.7  8.9 -0.1099E+00  0.4047E+00  0.2031E+02E
 Epicentro: HATO - SANTANDER                                                   3
 ACTION:UPD 13-10-22 09:23 OP:ep   STATUS:               ID:20130918153009 L   I
 OLDACT:REG 13-09-18 15:35 OP:jn   STATUS:               ID:20130918152959     3
 2013-09-18-1529-59M.COL___269                                                 6
 STAT SP IPHASW D HRMM SECON CODA AMPLIT PERI AZIMU VELO AIN AR TRES W  DIS CAZ7
 BAR2 SZ EP   1   1530 25.95                             165    0.43 7 29.0  77 
 BAR2 SZ I        1530 40.27         7.6 0.58            146           29.0  77 
 BRR  HZ EP       1530 26.80                             147   -0.4310 70.3 335 
 BRR  HE ES       1530 41.45                             147    0.0510 70.3 335 
 PTB  HZ EP       1530 30.67                             133    0.0910  113 270 
 PTB  HN ES       1530 47.25                             133   -0.1210  113 270 
 PTB  HZ I        1530 48.88         5.8 0.12            131            113 270 
 ZAR  HN ES       1531  1.28                             118    0.24 9  189 304 
 ZAR  HZ I        1531  6.06         6.3 0.28            113            189 304 
                                                                                
