 2010  218 1635  5.9 L   6.786 -73.099139.8  RSN  9 0.4 3.0LRSN                1
 GAP=130        0.85       3.6     6.4  6.4 -0.6091E+01  0.1219E+02 -0.3025E+01E
 Epicentro: LOS SANTOS - SANTANDER                                             3
 ACTION:UP  10-08-24 09:49 OP:vdl  STATUS:               ID:20100218163505 L   I
 2010-02-18-1631-37S.COL___093                                                 6
 STAT SP IPHASW D HRMM SECON CODA AMPLIT PERI AZIMU VELO SNR AR TRES W  DIS CAZ7
 BAR2 SZ IP       1635 25.10                             170     0.310   23 204 
 BAR2 SZ ES   1   1635 38.82                             170    -0.8 7   23 204 
 RUS  BZ EP       1635 29.03                             143     0.110   99 179 
 RUS  BE ES   1   1635 47.25                             143     0.3 7   99 179 
 RUS  BZ I        1635 48.46       100.9 0.33                            99 179 
 OCA  SZ EP       1635 33.86                             128    -0.1 9  163 351 
 OCA  SZ ES   1   1635 56.45                             128     0.6 7  163 351 
 OCA  SZ I        1635 59.10       292.4 0.28                           163 351 
 CHI  HZ EP       1635 43.16                             116    -0.1 8  249 196 
 CHI  HN ES   2   1636 13.15                             116     0.7 4  249 196 
 CHI  HZ I        1636 14.73        20.4 0.25                           249 196 
 HEL  HZ EP   1   1635 46.77                             113     0.4 6  277 256 
 HEL  HN ES   2   1636 16.96                             113    -0.9 4  277 256 
 RREF BZ EP   1   1635 52.57                             109     0.4 5  325 230 
 RREF BN ES   2   1636 28.72                             109     0.5 3  325 230 
 RREF BZ I        1636 36.79        39.8 0.32                           325 230 
 DBB  SZ IP       1635 53.64                             108    -0.1 7  345 274 
 SDV  BZ IP       1635 55.02                             107    -0.4 6  357  49 
 PRA  HZ EP   1   1635 58.63                             105    -0.8 4  393 210 
 PRA  HE ES   1   1636 40.84                             105    -0.2 4  393 210 
 PRA  HZ I        1636 47.59        48.5 0.36                           393 210 
                                                                                
