 2012  818 1652  3.3 L   6.760 -73.087140.8  RSN  4 0.2 1.7LRSN                1
 GAP=146        0.41       2.7     4.1  4.2 -0.8984E+00 -0.2347E+01 -0.1437E+00E
 Epicentro: LOS SANTOS - SANTANDER                                             3
 ACTION:UPD 12-09-10 11:57 OP:ep   STATUS:               ID:20120818165203 L   I
 2012-08-18-1650-00M.COL___217                                                 6
 STAT SP IPHASW D HRMM SECON CODA AMPLIT PERI AZIMU VELO AIN AR TRES W  DIS CAZ7
 BAR2 SZ EP       1652 22.36                             171    0.0610 21.3 210 
 BAR2 SZ I        1652 22.53        11.9 0.21                          21.3 210 
 BAR2 SZ ES   1   1652 37.14                             171    0.03 7 21.3 210 
 PAM  SZ EP       1652 25.15                             150    0.1810 77.0  34 
 PAM  SZ I        1652 25.62         7.2 0.18                          77.0  34 
 PAM  SN ES   1   1652 41.69                             150   -0.19 7 77.0  34 
 BRR  HZ EP   1   1652 24.08                             149   -0.31 7 79.0 299 
 BRR  HZ I        1652 34.22        11.4 0.35                          79.0 299 
 BRR  HN ES   1   1652 40.96                             149    0.12 7 79.0 299 
 RUS  HZ EP   1   1652 26.21                             144   -0.02 7 95.9 180 
 RUS  HE ES   1   1652 44.07                             144   -0.05 7 95.9 180 
                                                                                
