 2013  418 1216 40.1 L   6.702 -73.203138.0  RSN  6 0.3 1.5LRSN                1
 GAP=131        0.82       4.4     4.5  5.5  0.2071E+01  0.1022E+01  0.6608E+00E
 Epicentro: VILLANUEVA - SANTANDER                                             3
 ACTION:UPD 13-05-22 14:39 OP:EP   STATUS:               ID:20130418121640 L   I
 2013-04-18-1208-35M.COL___218                                                 6
 STAT SP IPHASW D HRMM SECON CODA AMPLIT PERI AZIMU VELO AIN AR TRES W  DIS CAZ7
 BAR2 SZ EP       1216 58.61                             175   -0.0110 12.3 169 
 BAR2 SZ ES       1217 12.68                             175   -0.3810 12.3 169 
 BAR2 SZ I        1217 15.19         9.1 0.28            169           12.3 169 
 GIR2 SZ EP       1216 59.58                             162    0.3810 41.7   1 
 GIR2 SZ ES       1217 14.14                             162    0.0510 41.7   1 
 BRR  HZ EP       1217  0.65                             151    0.1910 71.9 309 
 BRR  HN ES       1217 16.70                             151    0.3610 71.9 309 
 PAM  SZ EP       1217  1.77                             145   -0.5510 89.8  38 
 PAM  SZ I        1217 21.06         3.6 0.50            133           89.8  38 
 RUS  HZ EP       1217  2.69                             145    0.3210 90.4 172 
 RUS  HN ES       1217 19.82                             145    0.0910 90.4 172 
 RUS  HN I        1217 22.31         4.9 0.30            141           90.4 172 
 PTB  HZ EP       1217  5.48                             132   -0.23 9  140 263 
 PTB  HN ES       1217 25.41                             132   -0.27 9  140 263 
 PTB  HN I        1217 27.66         5.0 0.18            130            140 263 
                                                                                
