 2017  218 1130 16.1 L   6.765 -73.152144.4  RSN 18 0.6 2.8LRSN                1
 GAP= 71        1.03       3.7     2.8  4.8  0.1746E+01  0.3700E+01  0.2231E+01E
 Epicentro: LOS SANTOS - SANTANDER                                             3
 ACTION:UPD 17-05-24 15:37 OP:jn   STATUS:               ID:20170218113016 L   I
 OLDACT:UP  17-02-18 22:21 OP:dani STATUS:               ID:20170218112742     3
 OLDACT:UP  17-02-18 22:21 OP:dani STATUS:               ID:20170218112742     3
 OLDACT:REG 17-02-18 21:20 OP:dani STATUS:               ID:20170218112742     3
 2017-02-18-1128-00M.COL___346                                                 6
 STAT SP IPHASW D HRMM SECON CODA AMPLIT PERI AZIMU VELO AIN AR TRES W  DIS CAZ7
 BAR2 EZ EP     D 1130 35.57                             172    0.0510 19.4 190 
 BAR2 EZ ES       1130 50.24                             172   -0.4010 19.4 190 
 BAR2 EZ I        1130 51.40       190.0 0.25            167           19.4 190 
 BRR  HZ IP     C 1130 37.49                             152    0.2910 72.5 301 
 BRR  HE ES       1130 54.34                             152    0.7010 72.5 301 
 BRR  HZ I        1130 58.17        88.8 0.12            151           72.5 301 
 PAM  EZ EP     D 1130 38.50                             150    0.1010 80.8  38 
 PAM  EN ES       1130 55.25                             150   -0.5310 80.8  38 
 PAM  EZ I        1130 57.76       240.3 0.60            155           80.8  38 
 RUS  HZ EP       1130 39.51                             145    0.0410 96.8 176 
 RUS  HN ES       1130 58.04                             145    0.3610 96.8 176 
 RUS  HZ I        1130 59.73        49.6 0.34            143           96.8 176 
 PTB  HZ EP       1130 42.24                             132   -0.61 9  146 260 
 PTB  HN ES       1131  3.02                             132   -0.69 9  146 260 
 PTB  HZ I        1131  5.45        92.8 0.30            131            146 260 
 TAM  HZ IP     D 1130 43.91                             130    0.25 9  155 104 
 TAM  HE ES       1131  5.09                             130   -0.06 9  155 104 
 ZAR  HZ EP       1130 48.96                             122    0.39 9  205 293 
 ZAR  HN ES       1131 14.52                             122    0.65 9  205 293 
 ZAR  HZ I        1131 22.42        73.6 0.50            122            205 293 
 CHI  HZ EP       1130 53.85                             117    0.53 8  245 195 
 CHI  HN ES   3   1131 20.98                             117   -1.36 2  245 195 
 CHI  HZ I        1131 29.78        14.6 0.38            117            245 195 
 ROSC BZ EP   9   1130 55.80                             117    2.03 0  249 211 
 ROSC BN ES       1131 25.99                                    0.82 8  249 211 
 ROSC BZ I        1131 33.37        27.2 0.27            117            249 211 
 URE  HZ EP       1130 56.64                             113   -0.58 7  285 293 
 URE  HE ES   3   1131 26.96                             113   -2.31 2  285 293 
 URE  HZ I        1131 29.77        54.2 0.13            114            285 293 
 PTGC HZ EP       1130 58.86                             112   -0.68 7  305 158 
 PTGC HE ES   3   1131 31.75                             112   -1.65 2  305 158 
 PTGC HZ I        1131 34.35        38.8 0.36            112            305 158 
 LL6C HN EP   9   1130 41.99                             110   -20.2 0  329 358 
 LL6C HN ES   4   1131 21.40                             110    3.47 0  329 358 
 CBOC HZ EP   3   1131  3.79                             110    1.02 2  332 253 
 CBOC HN ES       1131 38.73                             110   -0.43 7  332 253 
 CBOC HZ I        1131 44.21         7.9 0.38            110            332 253 
 DBB  EZ EP       1131  3.81                             109    0.31 7  339 275 
 DBB  EN ES       1131 40.26                             109   -0.20 7  339 275 
 DBB  EZ I        1131 43.14        26.7 0.32            110            339 275 
 ANIL HZ EP   9   1131  7.18                             108    1.68 0  354 225 
 ANIL HE ES       1131 46.27                             109    0.57 6  354 225 
 ANIL HZ I        1131 53.59        35.6 0.23            109            354 225 
 PRA  HZ EP       1131  9.59                             106    0.43 6  388 210 
 PRA  HN ES       1131 50.72                             106    0.18 6  388 210 
 PRA  HZ I        1131 56.27        23.3 0.28            107            388 210 
 APAC HZ EP       1131  9.93                             106   -0.40 6  399 289 
 APAC HN ES       1131 53.16                             106    0.55 6  399 289 
 APAC HZ I        1131 55.25        21.6 0.47            107            399 289 
 SJC  HZ EP   3   1131 10.01                             105   -1.96 1  412 327 
 SJC  HN ES   4   1131 51.73                             105   -3.81 0  412 327 
 SJC  HZ I        1131 55.67        18.2 0.42            106            412 327 
 CRJC HZ EP   4   1131 16.27                             103   -2.77 0  472   4 
 CRJC HN ES   4   1132  3.28                             103   -4.84 0  472   4 
 CRJC HZ I        1132  8.37        13.0 0.20            104            472   4 
                                                                                
