 2012  218 1523 40.4 L   6.766 -73.179141.8  RSN  6 0.4 1.6LRSN                1
 GAP=134        0.86       5.7     5.5  7.9 -0.4275E+01  0.3047E+01 -0.2393E+01E
 ACTION:UP  12-03-07 16:31 OP:epov STATUS:               ID:20120218152340 L   I
 2012-02-18-1520-00M.COL___188                                                 6
 STAT SP IPHASW D HRMM SECON CODA AMPLIT PERI AZIMU VELO AIN AR TRES W  DIS CAZ7
 BAR2 SZ EP       1523 59.66                             172    0.1610 19.2 181 
 BAR2 SZ ES   1   1524 14.23                             172   -0.15 7 19.2 181 
 BAR2 SZ I        1524 16.19         6.2 0.11                          19.2 181 
 GIR2 SZ EP   1   1523 59.65                             165   -0.08 7 34.7 357 
 BRR  HZ EP       1524  1.47                             152    0.3910 70.0 303 
 BRR  HE ES   1   1524 17.89                             152    0.71 7 70.0 303 
 BRR  HZ I        1524 24.47        15.8 0.33                          70.0 303 
 PAM  SZ EP       1524  2.58                             148    0.0310 82.6  40 
 PAM  SN ES   1   1524 19.13                             148   -0.67 7 82.6  40 
 RUS  HZ EP   1   1524  3.58                             144    0.04 7 97.1 174 
 RUS  HN ES   1   1524 21.71                             144    0.15 7 97.1 174 
 RUS  HZ I        1524 23.32         4.9 0.22                          97.1 174 
 PTB  HZ EP   1   1524  6.15                             132   -0.53 7  143 260 
 PTB  HN ES   1   1524 26.51                             132   -0.65 7  143 260 
                                                                                
