 2017  518 1501 12.0 L   6.815 -73.166142.6  RSN  9 0.5 2.1LRSN                1
 GAP=169        1.09       5.2     5.1  7.7 -0.1150E+02  0.4741E+01  0.9335E+01E
 Epicentro: LOS SANTOS - SANTANDER                                             3
 ACTION:UPD 17-06-16 13:37 OP:jn   STATUS:               ID:20170518150112 L   I
 OLDACT:REG 17-05-18 20:27 OP:lv   STATUS:               ID:20170518145747     3
 2017-05-18-1458-00M.COL___356                                                 6
 STAT SP IPHASW D HRMM SECON CODA AMPLIT PERI AZIMU VELO AIN AR TRES W  DIS CAZ7
 BRR  HZ EP       15 1 32.70                             153    0.0210 68.4 298 
 BRR  HN ES       15 1 49.28                             153    0.4910 68.4 298 
 BRR  HZ I        15 1 53.75        21.4 0.09            153           68.4 298 
 PAM  EZ EP       15 1 33.80                             151   -0.1210 77.6  42 
 PAM  EN ES       15 1 50.69                             151   -0.3110 77.6  42 
 PAM  EZ I        15 1 52.94        17.7 0.49            156           77.6  42 
 PTB  HZ EP   9   15 1 37.63                             132   -0.94 0  146 258 
 PTB  HN ES       15 1 58.68                                    0.35 9  146 258 
 PTB  HZ I        15 2  1.52        12.6 0.21            133            146 258 
 SPBC HE ES       15 2  2.40                             129    0.09 9  163 218 
 ZAR  HZ EP       15 1 44.26                             122    0.27 9  201 292 
 ZAR  HN ES       15 2  8.97                             122    0.05 9  201 292 
 ZAR  HZ I        15 2 12.07        14.1 0.28            124            201 292 
 NOR  HZ EP       15 1 47.38                             118   -0.11 8  234 234 
 NOR  HN ES       15 2 14.44                             118   -0.70 8  234 234 
 NOR  HZ I        15 2 19.44        10.8 0.10            119            234 234 
 ROSC BZ EP   4   15 1 52.07                             116    2.06 0  253 210 
 ROSC BE ES       15 2 20.45                             116    0.82 8  253 210 
 ROSC BZ I        15 2 27.30        11.7 0.14            118            253 210 
 HEL  HZ EP       15 1 52.38                             115    0.49 8  270 255 
 HEL  HN ES       15 2 21.86                             115   -1.11 8  270 255 
 HEL  HZ I        15 2 30.55         8.5 0.31            116            270 255 
 CBOC HZ EP   4   15 1 59.53                             110    0.90 0  332 252 
 CBOC HN ES   4   15 2 32.84                             110   -2.13 0  332 252 
 CBOC HZ I        15 2 38.86         1.9 0.22            111            332 252 
 SJC  HZ EP   4   15 2  5.26                             106   -1.92 0  407 327 
 SJC  HN ES   4   15 2 47.57                             106   -2.63 0  407 327 
                                                                                
