 2017  718 1223 39.2 L   6.768 -73.160146.2  RSN  4 0.2 1.2LRSN                1
 GAP=233        0.52       4.2     4.0  4.2  0.8242E+01  0.1462E+01  0.2659E+00E
 Epicentro: LOS SANTOS - SANTANDER                                             3
 ACTION:UPD 17-08-30 15:34 OP:rebc STATUS:               ID:20170718122339 L   I
 OLDACT:REG 17-07-18 20:23 OP:lv   STATUS:               ID:20170718121743     3
 2017-07-18-1218-00M.COL___371                                                 6
 STAT SP IPHASW D HRMM SECON CODA AMPLIT PERI AZIMU VELO AIN AR TRES W  DIS CAZ7
 BAR2 EZ EP       1223 58.82                             172   -0.0310 19.6 187 
 BAR2 EZ ES       1224 13.84                             172   -0.3010 19.6 187 
 BAR2 EZ I        1224 15.97         4.2 0.11            170           19.6 187 
 BRR  HZ EP       1224  0.61                             152    0.1610 71.6 302 
 BRR  HN ES       1224 17.16                             152    0.1610 71.6 302 
 RUS  HZ EP       1224  2.87                             145    0.0810 97.2 175 
 RUS  HN ES       1224 21.31                             145    0.1610 97.2 175 
 RUS  HZ I        1224 22.30         2.1 0.22            145           97.2 175 
 PTB  HZ EP       1224  5.74                             133   -0.30 9  146 260 
 PTB  HN ES       1224 26.98                             133    0.04 9  146 260 
 PTB  HZ I        1224 29.49         1.5 0.08            133            146 260 
                                                                                
