 2013 1118 1146 54.4 L   6.715 -73.151150.6  RSN  6 0.3 1.6LRSN                1
 GAP=230        0.65       4.7     6.1  4.9  0.1289E+02  0.7795E+01  0.4179E+01E
 Epicentro: VILLANUEVA - SANTANDER                                             3
 ACTION:UPD 14-01-09 16:29 OP:ep   STATUS:               ID:20131118114654 L   I
 OLDACT:REG 13-11-18 14:26 OP:nd   STATUS:               ID:20131118114000     3
 2013-11-18-1140-00M.COL___279                                                 6
 STAT SP IPHASW D HRMM SECON CODA AMPLIT PERI AZIMU VELO AIN AR TRES W  DIS CAZ7
 BAR2 SZ EP       1147 14.18                             174   -0.2910 14.0 194 
 BAR2 SZ ES       1147 30.21                             174    0.0910 14.0 194 
 BAR2 SZ I        1147 32.90         7.2 0.14            172           14.0 194 
 BRR  HZ EP       1147 16.63                             152    0.3010 75.6 305 
 BRR  HN ES       1147 33.45                             152    0.0310 75.6 305 
 BRR  HZ I        1147 36.43        10.4 0.34            149           75.6 305 
 RUS  HZ EP       1147 18.07                             147    0.0710 91.3 175 
 RUS  HN ES       1147 36.27                             147   -0.1310 91.3 175 
 RUS  HZ I        1147 38.40         3.0 0.32            150           91.3 175 
 PTB  HZ EP       1147 21.12                             133   -0.46 9  146 262 
 PTB  HN ES   2   1147 42.59                             133   -0.19 5  146 262 
 PTB  HZ I        1147 45.01         4.3 0.48            132            146 262 
 SPBC HZ EP       1147 22.96                             132    0.38 9  156 221 
 SPBC HN ES   2   1147 44.75                             132    0.20 5  156 221 
 SPBC HZ I        1147 50.95         6.1 0.18            132            156 221 
 SML  HZ EP   4   1147 32.29                             117    0.09 0  252 336 
 SML  HN ES   4   1147 59.36                             117   -2.32 0  252 336 
 SML  HZ I        1148  8.78         3.9 0.10            118            252 336 
                                                                                
