 2011  918 1853  9.0 L   6.817 -73.131148.0  RSN  7 0.3 1.7LRSN                1
 GAP=138        0.42       4.4     4.7  5.7  0.4451E+01  0.2436E+01  0.1073E+01E
 Epicentro: LOS SANTOS - SANTANDER                                             3
 ACTION:UPD 12-07-13 15:58 OP:ep   STATUS:               ID:20110918185309 L   I
 2011-09-18-1851-57S.COL___171                                                 6
 STAT SP IPHASW D HRMM SECON CODA AMPLIT PERI AZIMU VELO AIN AR TRES W  DIS CAZ7
 BTL  SZ EP   2   1853 28.93                             172    0.11 5 18.8 307 
 BTL  SZ ES   2   1853 44.41                             172    0.14 5 18.8 307 
 BAR2 SZ EP   2   1853 28.75                             170   -0.19 5 25.5 193 
 BAR2 SZ ES   2   1853 43.79                             170   -0.70 5 25.5 193 
 BAR2 SZ I        1853 44.81        11.3 0.46                          25.5 193 
 GIR2 SZ EP   3   1853 28.75                             168   -0.15 2 29.7 347 
 GIR2 SZ ES   3   1853 44.72                             168    0.31 2 29.7 347 
 BRR  HZ EP   2   1853 30.47                             153    0.05 5 71.8 297 
 BRR  HZ I        1853 30.60        17.4 0.18                          71.8 297 
 BRR  HE ES   2   1853 47.61                             153    0.48 5 71.8 297 
 PAM  SZ EP   2   1853 31.40                             152    0.10 5 74.9  40 
 PAM  SN ES   2   1853 48.58                             152   -0.12 5 74.9  40 
 RUS  HZ EP   2   1853 33.21                             144    0.11 5  102 177 
 RUS  HE ES   2   1853 52.12                             144    0.23 5  102 177 
 RUS  HZ I        1853 52.75         3.5 0.29                           102 177 
 ZAR  HN ES   2   1854  6.82                             123   -0.34 4  205 291 
 ZAR  HZ I        1854 12.13         5.5 0.23                           205 291 
                                                                                
