 2014 1118 1608 24.4 L   6.787 -73.195142.4  RSN  5 0.5 1.7LRSN                1
 GAP=131        1.24       6.5     6.2  9.1 -0.3627E+01  0.6788E+01  0.2704E+01E
 Epicentro: ZAPATOCA - SANTANDER                                               3
 ACTION:UPD 14-12-19 15:44 OP:nd   STATUS:               ID:20141118160824 L   I
 OLDACT:ARG 14-11-18 23:39 OP:stll STATUS:               ID:20141118155747     3
 2014-11-18-1557-47M.COL___280                                                 6
 STAT SP IPHASW D HRMM SECON CODA AMPLIT PERI AZIMU VELO AIN AR TRES W  DIS CAZ7
 BAR2 SZ EP       16 8 43.59                             171    0.0010 21.6 176 
 BAR2 SZ ES       16 8 58.14                             171   -0.4110 21.6 176 
 BAR2 SZ I        16 8 59.46        15.3 0.30            170           21.6 176 
 BRR  HZ EP       16 8 45.34                             153    0.3910 67.2 302 
 BRR  HN ES       16 9  1.93                             153    0.9410 67.2 302 
 PAM  SZ EP       16 8 46.56                             149    0.0210 82.0  42 
 PAM  SN ES       16 9  3.27                             149   -0.5410 82.0  42 
 PAM  SZ I        16 9  5.43        11.5 0.50            152           82.0  42 
 RUS  HZ EP       16 8 47.94                             143    0.1810 99.7 173 
 RUS  HN ES       16 9  6.28                             143    0.3110 99.7 173 
 RUS  HZ I        16 9  8.15         3.7 0.16            145           99.7 173 
 PTB  HZ EP       16 8 50.28                             132   -0.30 9  142 259 
 PTB  HN ES       16 9 10.29                             132   -0.71 9  142 259 
 PTB  HZ I        16 9 16.75         6.1 0.42            132            142 259 
                                                                                
