 2014 1118 1117 23.6 L   6.862 -73.359115.0  RSN 25 0.8 3.0LRSN                1
 GAP= 51        2.18       5.3     5.3  9.8 -0.5401E+01  0.1198E+02  0.1399E+02E
 Epicentro: SAN VICENTE DE CHUCURI - SANTANDER                                 3
 ACTION:UPD 14-12-19 15:44 OP:nd   STATUS:               ID:20141118111723 L   I
 OLDACT:ARG 14-11-18 23:39 OP:stll STATUS:               ID:20141118110748     3
 2014-11-18-1107-48M.COL___277                                                 6
 STAT SP IPHASW D HRMM SECON CODA AMPLIT PERI AZIMU VELO AIN AR TRES W  DIS CAZ7
 BAR2 SZ IP     C 1117 40.29                             162    0.3910 35.7 147 
 BAR2 SZ ES       1117 53.12                             162    0.4710 35.7 147 
 BRR  HZ IP     C 1117 40.67                             156    0.6010 47.5 305 
 BRR  HZ I        1117 40.94       423.8 0.14            148           47.5 305 
 BRR  HN ES       1117 54.73                             156    1.7910 47.5 305 
 PAM  SZ EP     C 1117 43.41                             140   -0.1510 90.0  54 
 PAM  SN ES       1117 59.06                             140   -0.0910 90.0  54 
 PAM  SZ I        1118  3.70       270.0 0.52            138           90.0  54 
 RUS  HZ IP     D 1117 44.88                             133   -0.5010  112 164 
 RUS  HN ES       1118  2.51                             133    0.1110  112 164 
 RUS  HZ I        1118  3.96       128.1 0.22            132            112 164 
 PTB  HZ IP     C 1117 45.53                             129   -0.5810  126 254 
 PTB  HN ES       1118  1.64                             129   -2.0710  126 254 
 PTB  HZ I        1118  7.51       251.5 0.28            124            126 254 
 OCA  HZ EP     C 1117 48.32                             123   -0.54 9  152   2 
 OCA  HE ES       1118  8.43                             123   -0.16 9  152   2 
 OCA  HZ I        1118 13.93       328.8 0.20            119            152   2 
 SPBC HZ EP       1117 49.18                             122    0.09 9  155 211 
 SPBC HE ES       1118  8.98                             122   -0.02 9  155 211 
 SPBC HZ I        1118 13.79       117.7 0.40            119            155 211 
 TAM  HZ IP     D 1117 51.18                             118   -0.41 9  180 105 
 TAM  HZ I        1117 51.30       142.3 0.20            117            180 105 
 TAM  HN ES       1118 12.44                             118   -1.01 9  180 105 
 NOR  HZ EP       1117 56.58                             113    0.50 8  220 229 
 NOR  HE ES       1118 20.02                             113   -1.43 8  220 229 
 NOR  HZ I        1118 28.10        50.1 0.20            110            220 229 
 CHI  HZ EP       1118  0.18                             110    0.23 8  250 190 
 CHI  HE ES       1118 27.94                             110   -0.39 8  250 190 
 CHI  HZ I        1118 30.07        26.0 0.40            107            250 190 
 HEL  HZ EP     D 1118  1.39                             110    1.40 8  251 253 
 HEL  HN ES       1118 27.75                             110   -0.66 8  251 253 
 HEL  HZ I        1118 34.56        58.3 0.40            106            251 253 
 URE  HZ EP   9   1117 59.64                             109   -0.85 0  259 292 
 URE  HN ES       1118 28.43                                   -0.01 8  259 292 
 CBOC HE ES       1118 41.07                             105    0.15 7  314 250 
 DBB  SZ EP       1118  7.36                             105    0.23 7  315 273 
 DBB  SZ I        1118 46.78       150.0 0.42            101            315 273 
 PTGC HZ EP   9   1118  6.03                             104   -2.04 0  324 155 
 PTGC HE ES       1118 39.94                                   -0.81 7  324 155 
 PTGC HZ I        1118 42.50        50.3 0.42            102            324 155 
 MON  HZ EP   9   1118  7.51                             104   -1.35 0  331 310 
 MON  HN ES       1118 43.10                                    0.26 7  331 310 
 MON  HZ I        1118 45.57        38.8 0.40            100            331 310 
 TOL  SZ EP       1118 10.36                             104    0.90 7  333 221 
 TOL  SN ES       1118 44.90                             104   -0.36 7  333 221 
 ARGC HZ EP   9   1118 11.40                             103    0.83 0  345 344 
 ARGC HE ES       1118 47.32                                   -0.75 7  345 344 
 ARGC HZ I        1118 57.81        41.1 0.26            100            345 344 
 ANIL HZ EP       1118 12.47                             103    1.41 6  346 221 
 ANIL HN ES       1118 48.33                             103    0.22 6  346 221 
 SDV  BZ EP   9   1118 13.12                             101   -1.19 0  375  53 
 SDV  BN ES       1118 49.97                                   -2.74 6  375  53 
 SDV  BZ I        1118 52.56        32.9 0.50             99            375  53 
 PRA  HZ EP       1118 15.86                             101    0.26 6  387 206 
 PRA  HN ES       1118 56.19                             101   -0.01 6  387 206 
 PRA  HZ I        1119  3.18        26.3 0.28             98            387 206 
 ORTC HZ EP       1118 16.45                             101    0.77 6  388 213 
 ORTC HE ES       1118 57.13                             101    0.79 6  388 213 
 ORTC HZ I        1119  4.25        17.7 0.44             98            388 213 
 SJC  HZ IP   9 D 1118 14.41                             101   -1.67 0  391 329 
 SJC  HZ I        1118 15.14        30.9 0.14             98            391 329 
 SJC  HN ES       1118 53.13                                   -2.25 6  391 329 
 SMAR HZ EP   9   1118 27.17                              97   -0.19 0  485 349 
 SMAR HE ES       1119 13.76                                   -3.17 5  485 349 
 URI  HZ EP   9   1118 33.49                              96   -2.43 0  556  16 
 URI  HN ES       1119 24.73                                   -5.20 3  556  16 
                                                                                
