 2014  918 1534 32.0 L   6.829 -73.172142.9  RSN  6 0.3 1.5LRSN                1
 GAP=132        0.67       3.8     3.5  5.4 -0.4843E+01 -0.7275E+00  0.6684E+01E
 Epicentro: ZAPATOCA - SANTANDER                                               3
 ACTION:UPD 14-10-03 23:06 OP:nd   STATUS:               ID:20140918153432 L   I
 OLDACT:UP  14-09-19 01:47 OP:spq  STATUS:               ID:20140918152819d    3
 OLDACT:DUP 14-09-19 01:42 OP:spq  STATUS:               ID:20140918152819d    3
 2014-09-18-1528-18M.COL___278                                                 6
 STAT SP IPHASW D HRMM SECON CODA AMPLIT PERI AZIMU VELO AIN AR TRES W  DIS CAZ7
 BAR2 SZ EP   1   1534 51.10                             169   -0.23 7 26.1 182 
 BAR2 SZ ES   1   1535  6.88                             169    0.46 7 26.1 182 
 BAR2 SZ I        1535  7.58         7.9 0.28            167           26.1 182 
 BRR  HE ES       1535  8.14                             153   -0.5310 67.1 297 
 BRR  HZ I        1535 10.19        11.5 0.26            154           67.1 297 
 PAM  SZ EP       1534 54.02                             150    0.1510 76.9  43 
 PAM  SN ES       1535 11.06                             150    0.1210 76.9  43 
 PAM  SZ I        1535 13.16         4.1 0.52            155           76.9  43 
 RUS  HZ EP       1534 55.55                             142   -0.1510  104 175 
 RUS  HN ES   1   1535 14.06                             142   -0.15 7  104 175 
 RUS  HZ I        1535 16.14         3.0 0.28            142            104 175 
 PTB  HZ EP   1   1534 58.71                             132    0.19 7  146 257 
 PTB  HE ES       1535 19.56                             132    0.35 9  146 257 
 PTB  HZ I        1535 22.34         4.3 0.12            133            146 257 
 SPBC HZ EP       1535  0.26                             128   -0.07 9  164 217 
 SPBC HE ES       1535 22.46                             128    0.03 9  164 217 
 SPBC HZ I        1535 29.47         4.4 0.32            129            164 217 
                                                                                
