 2013 1118 1304 43.8 L   6.797 -73.149145.4  RSN 12 0.4 1.9LRSN                1
 GAP=136        1.06       3.4     4.2  5.7 -0.1090E+01  0.5991E+01  0.1067E+01E
 Epicentro: LOS SANTOS - SANTANDER                                             3
 ACTION:UPD 14-01-09 16:29 OP:ep   STATUS:               ID:20131118130443 L   I
 OLDACT:REG 13-11-18 14:31 OP:nd   STATUS:               ID:20131118130000     3
 2013-11-18-1300-00M.COL___279                                                 6
 STAT SP IPHASW D HRMM SECON CODA AMPLIT PERI AZIMU VELO AIN AR TRES W  DIS CAZ7
 BAR2 SZ IP     D 13 5  3.48                             171    0.0710 23.0 189 
 BAR2 SZ ES       13 5 19.06                             171    0.3810 23.0 189 
 BAR2 SZ I        13 5 19.80        14.5 0.12            169           23.0 189 
 BRR  HZ IP     D 13 5  5.46                             152    0.5310 71.0 299 
 BRR  HN ES       13 5 20.85                             152   -0.5310 71.0 299 
 BRR  HZ I        13 5 27.20        14.4 0.24            151           71.0 299 
 PAM  SZ EP       13 5  6.36                             151    0.3210 77.9  40 
 PAM  SN ES       13 5 22.90                             151   -0.4610 77.9  40 
 PAM  SZ I        13 5 25.66        12.2 0.48            156           77.9  40 
 RUS  HZ EP       13 5  7.33                             144   -0.2010  100 176 
 RUS  HN ES       13 5 26.37                             144    0.3610  100 176 
 RUS  HZ I        13 5 27.52         3.7 0.38            146            100 176 
 PTB  HZ EP       13 5 10.19                             132   -0.54 9  147 259 
 PTB  HN ES       13 5 31.37                             132   -0.34 9  147 259 
 PTB  HZ I        13 5 37.35        11.7 0.22            132            147 259 
 SPBC HZ EP       13 5 12.44                             129    0.18 9  163 219 
 SPBC HN ES       13 5 34.68                             129    0.25 9  163 219 
 SPBC HZ I        13 5 39.47        15.1 0.16            130            163 219 
 ZAR  HZ EP       13 5 16.28                             122    0.05 9  204 292 
 ZAR  HN ES       13 5 42.50                             122    1.00 9  204 292 
 ZAR  HZ I        13 5 47.84         9.3 0.30            123            204 292 
 NOR  HZ EP       13 5 19.06                             118   -0.43 8  234 234 
 NOR  HN ES       13 5 47.11                             118   -0.19 8  234 234 
 NOR  HZ I        13 5 51.32         5.4 0.20            120            234 234 
 SML  HZ EP       13 5 20.60                             117    0.15 8  244 335 
 SML  HN ES   2   13 5 47.76                             117   -1.25 4  244 335 
 SML  HZ I        13 5 50.40        15.4 0.10            119            244 335 
 CHI  HZ EP       13 5 21.57                             117    0.09 8  248 195 
 CHI  HN ES       13 5 50.27                             117   -0.56 8  248 195 
 CHI  HZ I        13 5 59.55         2.4 0.54            119            248 195 
 GUY2CHZ EP   4   13 5 29.33                             112    1.95 0  301 235 
 GUY2CHN ES   4   13 6  4.87                             112    3.54 0  301 235 
 GUY2CHZ I        13 6 10.34         6.4 0.76                           301 235 
 SJC  HZ EP   4   13 5 37.59                             106   -1.80 0  409 327 
 SJC  HN ES   4   13 6 18.73                             106   -3.99 0  409 327 
 SJC  HZ I        13 6 23.62         1.4 0.52            107            409 327 
                                                                                
