 2016  218 1425 54.2 L   6.864 -73.353120.7  RSN 15 0.5 2.2LRSN                1
 GAP= 94        1.19       2.9     3.5  6.2 -0.1090E+01  0.8206E+01  0.1781E+01E
 Epicentro: SAN VICENTE DE CHUCURI - SANTANDER                                 3
 ACTION:UPD 16-03-04 21:27 OP:rebc STATUS:               ID:20160218142554 L   I
 OLDACT:UP  16-02-18 23:40 OP:ak   STATUS:               ID:20160218141750     3
 OLDACT:UP  16-02-18 23:40 OP:ak   STATUS:               ID:20160218141750     3
 OLDACT:REG 16-02-18 21:01 OP:ak   STATUS:               ID:20160218141750     3
 2016-02-18-1417-50M.COL___330                                                 6
 STAT SP IPHASW D HRMM SECON CODA AMPLIT PERI AZIMU VELO AIN AR TRES W  DIS CAZ7
 BAR2 EZ IP     D 1426 11.55                             163    0.3210 35.5 148 
 BAR2 EZ ES       1426 24.29                             163   -0.2010 35.5 148 
 BRR  HZ EP       1426 11.97                             157    0.5710 47.9 304 
 BRR  HN ES       1426 25.37                             157    0.5710 47.9 304 
 BRR  HZ I        1426 26.39        95.4 0.05            155           47.9 304 
 PAM  EZ EP       1426 14.60                             141   -0.1210 89.3  54 
 PAM  EN ES       1426 30.88                             141    0.1810 89.3  54 
 PAM  EZ I        1426 33.28        22.9 0.29            146           89.3  54 
 RUS  HZ EP       1426 16.40                             135   -0.1410  112 164 
 RUS  HN ES       1426 33.38                             135   -0.5510  112 164 
 PTB  HZ IP     D 1426 16.76                             130   -0.5410  127 254 
 PTB  HN ES       1426 34.83                             130   -0.4610  127 254 
 PTB  HZ I        1426 38.65        42.0 0.46            130            127 254 
 OCA  HZ EP       1426 19.85                             125   -0.05 9  152   1 
 OCA  HN ES       1426 39.34                             125   -0.58 9  152   1 
 SPBC HZ EP       1426 20.20                             124    0.00 9  156 211 
 SPBC HN ES       1426 40.10                             124   -0.35 9  156 211 
 SPBC HZ I        1426 43.74                             125            156 211 
 ZAR  HZ EP       1426 23.17                             120    0.56 9  180 293 
 ZAR  HN ES       1426 45.71                             120    0.97 9  180 293 
 ZAR  HZ I        1426 51.56        23.4 0.28            121            180 293 
 NOR  HZ EP       1426 27.38                             114    0.27 8  221 229 
 NOR  HN ES       1426 53.31                             114    0.56 8  221 229 
 NOR  HZ I        1427  0.50         9.5 0.20            115            221 229 
 CHI  HZ EP       1426 31.39                             111    0.49 8  251 190 
 CHI  HN ES       1426 60.00                             111    0.50 8  251 190 
 HEL  HZ EP   4   1426 32.87                             111    1.88 0  252 253 
 HEL  HN ES   2   1427  0.30                             111    0.64 4  252 253 
 HEL  HZ I        1427  6.39         8.2 0.36            112            252 253 
 URE  HZ EP       1426 30.84                             110   -0.62 8  260 292 
 URE  HN ES       1426 59.59                             110   -0.90 8  260 292 
 URE  HZ I        1427  1.18        13.2 0.16            111            260 292 
 GUY2CHZ EP   4   1426 37.93                             108    2.75 0  287 231 
 GUY2CHN ES       1427  6.47                             108   -0.65 7  287 231 
 GUY2CHZ I        1427 15.22         8.0 0.36                           287 231 
 CBOC HZ EP   4   1426 39.37                             106    1.41 0  314 250 
 CBOC HN ES       1427 11.41                             106   -0.66 7  314 250 
 CBOC HZ I        1427 16.22         5.5 0.26            107            314 250 
 ANIL HN ES       1427 19.67                             104    0.47 6  347 221 
                                                                                
