 2017  718 1034 51.6 L   7.358 -73.212126.9  RSN  9 0.3 1.8LRSN                1
 GAP= 93        0.73       3.7     2.8  4.4  0.1924E+01  0.2752E+01  0.2170E+01E
 Epicentro: RIONEGRO - SANTANDER                                               3
 ACTION:UPD 17-08-30 15:34 OP:rebc STATUS:               ID:20170718103451 L   I
 OLDACT:UP  17-07-18 21:47 OP:lv   STATUS:               ID:20170718102740d    3
 OLDACT:DUP 17-07-18 21:39 OP:lv   STATUS:               ID:20170718102740d    3
 2017-07-18-1028-00M.COL___368                                                 6
 STAT SP IPHASW D HRMM SECON CODA AMPLIT PERI AZIMU VELO AIN AR TRES W  DIS CAZ7
 PAM  EZ EP       1035 10.35                             155   -0.2510 56.6  92 
 PAM  HN ES       1035 25.40                             155   -0.0310 56.6  92 
 BRR  HZ IP     D 1035  9.95                             152   -0.2310 61.8 243 
 BRR  HN ES       1035 24.95                             152    0.2810 61.8 243 
 BRR  HE ES       1035 25.14                             152           61.8 243 
 BAR2 EZ EP       1035 11.95                             144   -0.0410 84.7 178 
 BAR2 EZ ES       1035 27.98                             144    0.0710 84.7 178 
 RUS  HZ EP       1035 19.29                             125    0.09 9  163 175 
 RUS  HN ES       1035 40.88                             125    0.15 9  163 175 
 PTB  HZ EP       1035 18.28                             124   -0.49 9  165 237 
 PTB  HN ES       1035 39.49                             124   -0.48 9  165 237 
 ZAR  HZ EP       1035 21.25                             121    0.67 9  182 275 
 ZAR  HE ES       1035 43.35                             121    0.16 9  182 275 
 ZAR  HZ I        1035 46.17         8.2 0.14            120            182 275 
 YPLC HZ EP       1035 26.70                             114    0.27 8  236 157 
 YPLC HN ES   4   1035 55.39                             114    1.78 0  236 157 
 LL6C HZ EP   9   1035 27.11                             111   -2.31 0  263 359 
 LL6C HN ES       1035 56.35                                   -0.26 8  263 359 
 NOR  HZ EP       1035 30.33                             111    0.03 8  270 223 
 NOR  HN ES   3   1035 59.72                             111   -0.78 2  270 223 
 NOR  HZ I        1036  6.20         4.0 0.16            110            270 223 
 SJC  HZ EP   4   1035 37.48                             105   -2.64 0  355 322 
 SJC  HN ES   4   1036 15.29                             105   -2.68 0  355 322 
                                                                                
