 2014  718 1101 25.4 L   6.834 -73.163140.6  RSN 13 0.5 2.4LRSN                1
 GAP=133        1.16       3.1     4.4  6.6 -0.2964E+01  0.1348E+02 -0.1034E+01E
 Epicentro: LOS SANTOS - SANTANDER                                             3
 ACTION:UPD 15-03-16 20:44 OP:nd   STATUS:               ID:20140718110125 L   I
 OLDACT:REG 14-07-18 21:04 OP:stll STATUS:               ID:20140718105817     3
 2014-07-18-1058-17M.COL___260                                                 6
 STAT SP IPHASW D HRMM SECON CODA AMPLIT PERI AZIMU VELO AIN AR TRES W  DIS CAZ7
 BAR2 SZ IP     D 11 1 44.81                             169    0.2910 26.8 185 
 BAR2 SZ I        11 1 44.82        91.3 0.38            171           26.8 185 
 BAR2 SZ ES       11 1 59.65                             169    0.2410 26.8 185 
 PAM  SZ EP       11 1 47.56                             150    0.5510 75.8  42 
 PAM  SZ I        11 1 47.91       106.7 0.20            153           75.8  42 
 PAM  SN ES       11 2  4.23                             150    0.3910 75.8  42 
 RUS  HZ EP       11 1 48.89                             142   -0.0810  104 175 
 RUS  HE ES       11 2  6.64                             142   -0.6910  104 175 
 RUS  HZ I        11 2  8.72        19.0 0.26            146            104 175 
 PTB  HZ EP       11 1 51.52                             131   -0.36 9  147 257 
 PTB  HN ES       11 2 12.20                             131   -0.31 9  147 257 
 PTB  HZ I        11 2 15.92        26.4 0.14            132            147 257 
 OCA  HN ES       11 2 14.09                             129   -0.37 9  156 354 
 OCA  HZ I        11 2 21.12        15.3 0.16            130            156 354 
 SPBC HZ EP       11 1 53.90                             127    0.19 9  165 218 
 SPBC HN ES       11 2 15.55                             127   -0.21 9  165 218 
 SPBC HZ I        11 2 18.33        25.9 0.22            130            165 218 
 ZAR  HZ EP       11 1 57.50                             122    0.29 9  201 291 
 ZAR  HN ES       11 2 22.89                             122    0.89 9  201 291 
 ZAR  HZ I        11 2 28.54        32.5 0.32            122            201 291 
 NOR  HZ EP       11 2  1.14                             117    0.21 8  235 233 
 NOR  HE ES       11 2 28.43                             117   -0.19 8  235 233 
 NOR  HZ I        11 2 30.96        16.5 0.22            119            235 233 
 SML  HZ EP       11 2  0.84                             117   -0.48 8  240 335 
 SML  HN ES       11 2 28.44                             117   -0.87 8  240 335 
 SML  HZ I        11 2 34.22        26.8 0.10            118            240 335 
 HEL  HZ EP       11 2  5.72                             114    0.44 8  271 255 
 HEL  HN ES       11 2 36.34                             114   -0.02 8  271 255 
 HEL  HZ I        11 2 43.84         9.2 0.24            115            271 255 
 URE  HZ EP       11 2  5.09                             113   -0.81 7  281 291 
 GUY2CHZ EP       11 2  9.37                             111    0.50 7  302 234 
 GUY2CHN ES       11 2 43.57                             111    0.81 7  302 234 
 GUY2CHZ I        11 2 50.53         6.5 0.24                           302 234 
 PRA  HZ EP       11 2 19.50                             105    0.45 6  394 209 
 PRA  HN ES       11 2 59.60                             105   -1.27 6  394 209 
                                                                                
