 2012  318 1041 28.4 L   6.730 -73.185149.8  RSN  4 0.4 1.5LRSN                1
 GAP=227        0.94      10.0     9.5 10.1  0.4637E+02  0.9670E+01  0.2613E+01E
 ACTION:UP  12-03-31 23:20 OP:EP   STATUS:               ID:20120318104128 L   I
 2012-03-18-1040-00M.COL___200                                                 6
 STAT SP IPHASW D HRMM SECON CODA AMPLIT PERI AZIMU VELO SNR AR TRES W  DIS CAZ7
 BAR2 SZ EP   1   1041 48.17                             174    -0.2 7   15 179 
 BAR2 SZ ES   1   1042  3.22                             174    -0.7 7   15 179 
 BAR2 SZ I        1042  4.91         8.6 0.37                            15 179 
 BRR  HZ EP   1   1041 50.15                             153     0.2 7   72 306 
 BRR  HE ES   1   1042  7.38                             153     0.5 7   72 306 
 RUS  HZ EP   1   1041 52.30                             147     0.3 7   93 173 
 RUS  HN ES   1   1042 10.83                             147     0.4 7   93 173 
 RUS  HZ I        1042 12.54         3.8 0.46                            93 173 
 PTB  HZ EP   1   1041 54.71                             134    -0.5 7  142 262 
 PTB  HE ES   1   1042 16.01                             134    -0.1 7  142 262 
 PTB  HZ I        1042 17.88         3.7 0.19                           142 262 
                                                                                
