 2016  818 1631 28.8 L   6.797 -73.155144.0  RSN  8 0.5 2.0LRSN                1
 GAP=135        1.18       5.6     5.1  8.8  0.1517E-01  0.1788E+02  0.1281E+02E
 Epicentro: LOS SANTOS - SANTANDER                                             3
 ACTION:UPD 16-10-29 15:36 OP:rebc STATUS:               ID:20160818163128 L   I
 OLDACT:REG 16-08-18 20:32 OP:dnl  STATUS:               ID:20160818161741     3
 2016-08-18-1628-00M.COL___365                                                 6
 STAT SP IPHASW D HRMM SECON CODA AMPLIT PERI AZIMU VELO AIN AR TRES W  DIS CAZ7
 BAR2 EZ EP       1631 48.15                             171   -0.1010 22.8 187 
 BAR2 EZ ES       1632  2.77                             171   -0.6110 22.8 187 
 BAR2 EZ I        1632  4.40        29.2 0.24                          22.8 187 
 BRR  HZ EP   2   1631 49.89                             153    0.14 5 70.4 299 
 BRR  HN ES       1632  7.02                             153    0.9610 70.4 299 
 BRR  HZ I        1632 15.25        20.5 0.42                          70.4 299 
 PAM  EZ EP   2   1631 51.20                             150    0.28 5 78.3  40 
 PAM  EE ES       1632  8.20                             150    0.0510 78.3  40 
 PAM  EZ I        1632 10.34        22.6 0.50                          78.3  40 
 RUS  HZ EP       1631 52.22                             144   -0.1810  100 175 
 RUS  HN ES       1632 11.19                             144    0.4210  100 175 
 RUS  HZ I        1632 11.94        15.7 0.24                           100 175 
 PTB  HZ EP       1631 54.93                             132   -0.63 9  147 259 
 PTB  HN ES       1632 15.83                             132   -0.57 9  147 259 
 PTB  HZ I        1632 18.54        13.5 0.78                           147 259 
 ZAR  HZ EP   4   1632  5.57                             122    4.49 0  203 292 
 ZAR  HE ES       1632 26.05                             122   -0.17 9  203 292 
 ZAR  HZ I        1632 30.76         7.7 0.32                           203 292 
 NOR  HZ EP   2   1632  4.44                             118    0.09 4  234 234 
 NOR  HN ES       1632 31.87                             118   -0.18 8  234 234 
 NOR  HZ I        1632 40.09         7.9 0.20                           234 234 
 GUY2CHZ EP   2   1632 13.30                             112    1.06 4  300 235 
 GUY2CHN ES       1632 47.06                             112    0.96 7  300 235 
 GUY2CHZ I        1632 53.39         4.3 0.64                           300 235 
                                                                                
