 2013  718 1043 30.2 L   6.785 -73.175149.7  RSN  6 0.4 1.7LRSN                1
 GAP=178        0.94       4.6     6.3  6.6  0.1007E+02 -0.4276E+00 -0.8765E+01E
 Epicentro: LOS SANTOS - SANTANDER                                             3
 ACTION:UPD 13-08-12 10:38 OP:ep   STATUS:               ID:20130718104330 L   I
 OLDACT:REG 13-07-18 14:28 OP:nd   STATUS:               ID:20130718103959     3
 2013-07-18-1039-59M.COL___266                                                 6
 STAT SP IPHASW D HRMM SECON CODA AMPLIT PERI AZIMU VELO AIN AR TRES W  DIS CAZ7
 BAR2 SZ EP       1043 50.30                             172    0.0710 21.4 182 
 BAR2 SZ ES       1044  5.28                             172   -0.6010 21.4 182 
 BAR2 SZ I        1044  6.52        10.1 0.20            170           21.4 182 
 GIR2 SZ EP       1043 50.30                             167   -0.0310 32.5 356 
 GIR2 SZ ES   2   1044  5.66                             167   -0.41 5 32.5 356 
 GIR2 SZ I        1044  6.91        10.3 0.10            164           32.5 356 
 BRR  HZ IP     C 1043 52.11                             154    0.4810 69.2 301 
 BRR  HN ES       1044  9.10                             154    0.7310 69.2 301 
 BRR  HZ I        1044 12.99        11.2 0.26            149           69.2 301 
 RUS  HZ EP       1043 54.21                             145    0.0010 99.3 174 
 RUS  HN ES       1044 13.19                             145    0.2310 99.3 174 
 RUS  HZ I        1044 14.06         5.8 0.26            148           99.3 174 
 PTB  HZ EP       1043 56.87                             134   -0.27 9  144 259 
 PTB  HN ES       1044 17.85                             134   -0.33 9  144 259 
 PTB  HZ I        1044 25.32         6.6 0.34            131            144 259 
 SML  HZ EP       1044  6.89                             118   -0.14 8  244 336 
 SML  HN ES       1044 35.52                             118   -0.26 8  244 336 
 SML  HZ I        1044 44.06         5.9 0.10            118            244 336 
                                                                                
