 2015 1218 1718 31.8 L   6.810 -73.153145.6  RSN 12 0.4 2.1LRSN                1
 GAP=135        0.97       2.7     3.7  5.2 -0.2315E+01  0.6064E+01 -0.1286E+01E
 Epicentro: LOS SANTOS - SANTANDER                                             3
 ACTION:UPD 16-02-04 15:05 OP:cam  STATUS:               ID:20151218171831 L   I
 OLDACT:REG 15-12-18 20:53 OP:ar   STATUS:               ID:20151218171749     3
 2015-12-18-1717-49M.COL___340                                                 6
 STAT SP IPHASW D HRMM SECON CODA AMPLIT PERI AZIMU VELO AIN AR TRES W  DIS CAZ7
 BAR2 EZ EP       1718 51.36                             170   -0.0910 24.3 188 
 BAR2 EZ ES       1719  6.22                             170   -0.5510 24.3 188 
 BAR2 EZ I        1719  7.64        29.5 0.40            170           24.3 188 
 BRR  HZ EP       1718 53.36                             153    0.4810 70.0 298 
 BRR  HN ES       1719 10.19                             153    0.8710 70.0 298 
 BRR  HZ I        1719 14.50        17.1 0.12            150           70.0 298 
 PAM  EZ EP       1718 54.32                             151    0.3310 77.0  41 
 PAM  EN ES       1719 11.50                             151    0.2110 77.0  41 
 PAM  EZ I        1719 13.42        22.6 0.52            155           77.0  41 
 RUS  HZ EP       1718 55.28                             144   -0.3610  102 176 
 RUS  HN ES       1719 14.30                             144    0.0810  102 176 
 RUS  HZ I        1719 15.03        15.6 0.22            148            102 176 
 PTB  HZ EP       1718 58.51                             132   -0.21 9  147 258 
 PTB  HN ES       1719 19.34                             132   -0.37 9  147 258 
 PTB  HZ I        1719 26.29        13.0 0.54            132            147 258 
 OCA  HZ EP       1719  0.24                             130    0.24 9  159 353 
 OCA  HN ES       1719 21.59                             130   -0.40 9  159 353 
 OCA  HZ I        1719 25.21        22.8 0.24            131            159 353 
 SPBC HZ EP       1719  0.37                             129    0.03 9  164 219 
 SPBC HN ES       1719 22.65                             129    0.06 9  164 219 
 SPBC HZ I        1719 24.97        30.1 0.20            131            164 219 
 ZAR  HZ EP       1719  4.03                             123   -0.10 9  203 292 
 ZAR  HE ES       1719 29.58                             123    0.24 9  203 292 
 ZAR  HZ I        1719 35.39         8.2 0.28            123            203 292 
 NOR  HZ EP       1719  8.03                             119    0.49 8  235 234 
 NOR  HN ES       1719 35.07                             119   -0.34 8  235 234 
 NOR  HZ I        1719 40.20         9.9 0.24            120            235 234 
 SML  HZ EP       1719  7.83                             118   -0.46 8  242 335 
 SML  HN ES       1719 36.03                             118   -0.70 8  242 335 
 SML  HZ I        1719 40.57        15.2 0.10            119            242 335 
 HEL  HZ EP   2   1719 12.85                             115    0.88 4  272 256 
 HEL  HN ES   2   1719 44.05                             115    0.76 4  272 256 
 HEL  HZ I        1719 50.45         6.1 0.46            116            272 256 
 GUY2CHZ EP   2   1719 16.07                             112    0.65 4  301 235 
 GUY2CHN ES       1719 49.12                             112   -0.31 7  301 235 
 GUY2CHZ I        1720  1.93         4.8 0.46                           301 235 
                                                                                
