 2011 1018 1250 22.1 L   6.802 -73.207143.4  RSN  6 0.4 1.6LRSN                1
 GAP=129        0.91       5.4     5.1 10.3  0.3656E+01  0.1607E+02  0.5877E+01E
 Epicentro: ZAPATOCA - SANTANDER                                               3
 ACTION:UPD 12-07-13 16:04 OP:ep   STATUS:               ID:20111018125022 L   I
 2011-10-18-1248-02S.COL___167                                                 6
 STAT SP IPHASW D HRMM SECON CODA AMPLIT PERI AZIMU VELO AIN AR TRES W  DIS CAZ7
 BAR2 SZ EP   1   1250 41.25                             170   -0.21 9 23.3 173 
 BAR2 SZ I        1250 54.69        11.5 0.72                          23.3 173 
 BRR  HZ EP   1   1250 43.35                             154    0.67 9 65.2 301 
 BRR  HZ I        1250 45.04        15.3 0.06                          65.2 301 
 BRR  HN ES   1   1250 59.20                             154    0.49 9 65.2 301 
 PAM  SZ EP   1   1250 44.44                             149    0.10 9 81.7  43 
 PAM  SN ES   1   1251  1.64                             149   -0.04 9 81.7  43 
 PAM  SZ I        1251  3.69         4.0 0.47                          81.7  43 
 RUS  HZ EP   1   1250 45.36                             143   -0.34 9  101 172 
 RUS  HN ES   1   1251  3.85                             143   -0.24 9  101 172 
 RUS  HZ I        1251  6.65         3.1 0.38                           101 172 
 ZAR  HZ EP   1   1250 54.15                             123    0.40 7  198 293 
 ZAR  HE ES       1251 17.64                             123   -0.7910  198 293 
 ZAR  HZ I        1251 26.02         7.2 0.38                           198 293 
 NOR  SN ES   1   1251 24.91                             119    0.47 7  229 233 
                                                                                
