 2012 1118 1841 51.7 L   6.798 -73.138144.7  RSN 14 0.5 2.6LRSN 3.1WRSN        1
 SPEC AVERAGE  MO 13.7 ST  6.4 OM  2.6 f0 3.66 R0.4497 AL 2.41 WI 25.6 MW  3.1 3
 SPEC SD       MO  0.3 ST  5.8 OM  0.7 f0 1.25 R0.1453 AL      WI      MW  0.2 3
 GAP= 72        1.17       3.2     3.9  5.5  0.1484E+01  0.6897E+01  0.3849E+01E
 Epicentro: LOS SANTOS - SANTANDER                                             3
 SPEC RUS HH N MO 13.3 ST0.311 OM  1.7 f0 2.22 R0.6622 AL 1.83 WI 14.6 MW  2.8 3
 SPEC RUS HH N T184232 K 0.000 GD  175 VS 4.20 DE 3.00 Q0230.0 QA 0.60 VS 4.20 3
 SPEC HEL HH N MO 13.6 ST  1.4 OM  1.7 f0 3.06 R0.4804 AL 1.52 WI 34.6 MW  3.0 3
 SPEC HEL HH N T1843 3 K 0.000 GD  308 VS 4.20 DE 3.00 Q0230.0 QA 0.60 VS 4.20 3
 SPEC OCA HH N MO 14.1 ST  9.1 OM  2.4 f0 3.73 R0.3941 AL 2.51 WI 24.3 MW  3.3 3
 SPEC OCA HH N T184241 K 0.000 GD  216 VS 4.20 DE 3.00 Q0230.0 QA 0.60 VS 4.20 3
 SPEC BRR HH N MO 13.8 ST 14.6 OM  2.2 f0 5.61 R0.2620 AL 3.77 WI 29.0 MW  3.1 3
 SPEC BRR HH N T184230 K 0.000 GD  161 VS 4.20 DE 3.00 Q0230.0 QA 0.60 VS 4.20 3
 ACTION:UPD 12-12-05 15:34 OP:}ep  STATUS:               ID:20121118184151 L   I
 2012-11-18-1840-00M.COL___234                                                 6
 STAT SP IPHASW D HRMM SECON CODA AMPLIT PERI AZIMU VELO AIN AR TRES W  DIS CAZ7
 BAR2 SZ EP       1842 11.25                             170    0.0910 23.3 192 
 BAR2 SZ ES       1842 26.47                             170    0.1010 23.3 192 
 BAR2 SZ I        1842 28.88        67.4 0.30                          23.3 192 
 GIR2 SZ EP       1842 11.31                             167    0.0910 31.7 349 
 GIR2 SZ ES       1842 25.41                             167   -1.0610 31.7 349 
 BRR  HZ IP     C 1842 13.12                             152    0.3810 72.1 298 
 BRR  HN ES       1842 30.16                             152    0.9710 72.1 298 
 BRR  HN I        1842 30.85        93.8 0.28                          72.1 298 
 PAM  SZ EP       1842 13.96                             151    0.2210 77.0  39 
 PAM  SN ES       1842 31.26                             151    0.3010 77.0  39 
 PAM  SN I        1842 32.25        54.6 0.72                          77.0  39 
 RUS  HZ EP       1842 15.08                             144   -0.2010  100 177 
 RUS  HN ES       1842 33.35                             144   -0.3610  100 177 
 RUS  HN I        1842 35.38        37.9 0.40                           100 177 
 TAM  HZ EP       1842 19.46                             130    0.30 9  154 105 
 TAM  HN ES       1842 40.72                             130    0.10 9  154 105 
 TAM  HN I        1842 41.74        71.9 0.40                           154 105 
 OCA  HN ES       1842 41.98                             129    0.02 9  161 353 
 OCA  HN I        1842 45.56       122.2 0.30                           161 353 
 ZAR  HZ EP       1842 24.66                             122    0.53 9  205 292 
 ZAR  HN ES       1842 49.35                             122   -0.11 9  205 292 
 ZAR  HN I        1842 53.14        33.1 0.46                           205 292 
 NOR  HZ EP       1842 27.23                             118   -0.16 8  235 235 
 NOR  HN I        1843  1.19        48.6 0.16                           235 235 
 SML  HZ EP       1842 27.80                             117   -0.49 8  244 335 
 SML  HN ES       1842 55.84                             117   -1.02 8  244 335 
 SML  HN I        1843  2.22        81.6 0.12                           244 335 
 CHI  HZ EP       1842 29.35                             117    0.05 8  249 195 
 CHI  HZ I        1842 30.03         8.2 0.18                           249 195 
 CHI  HN ES       1842 58.24                             117   -0.41 8  249 195 
 HEL  HZ EP       1842 32.45                             114    0.55 8  273 256 
 HEL  HN I        1843 12.07         9.2 0.44                           273 256 
 GUY  SZ EP       1842 34.71                             112   -0.84 7  304 235 
 GUY  SN ES       1843 10.10                             112    0.32 7  304 235 
 PRA  HZ EP       1842 45.30                             106    0.13 6  392 210 
                                                                                
