 2017  318 1505 26.1 L   6.575 -73.563116.0  RSN  9 0.6 2.0LRSN                1
 GAP= 87        1.36       5.4     4.6  8.4 -0.4153E+01  0.1321E+02 -0.2149E+00E
 Epicentro: EL CARMEN - SANTANDER                                              3
 ACTION:UPD 17-05-25 18:42 OP:jn   STATUS:               ID:20170318150526 L   I
 OLDACT:UP  17-03-19 00:46 OP:dnl  STATUS:               ID:20170318145748     3
 OLDACT:UP  17-03-19 00:45 OP:dnl  STATUS:               ID:20170318145748     3
 OLDACT:REG 17-03-18 23:00 OP:dnl  STATUS:               ID:20170318145748     3
 2017-03-18-1458-00M.COL___409                                                 6
 STAT SP IPHASW D HRMM SECON CODA AMPLIT PERI AZIMU VELO AIN AR TRES W  DIS CAZ7
 BAR2 EZ IP     D 15 5 42.90                             159    0.0610 42.2  87 
 BAR2 EZ ES       15 5 55.68                             159   -0.2010 42.2  87 
 BRR  HZ EP       15 5 43.73                             150    0.2510 61.1 344 
 BRR  HN ES       15 5 57.65                             150    0.6210 61.1 344 
 BRR  HZ I        15 6  1.06        30.1 0.56            147           61.1 344 
 RUS  HZ EP       15 5 45.95                             139   -0.4510 92.3 145 
 RUS  HE ES       15 6  2.86                             139    0.6510 92.3 145 
 RUS  HZ I        15 6  3.11        11.8 0.36            145           92.3 145 
 PTB  HZ IP     C 15 5 45.74                             137   -0.5310 98.8 268 
 PTB  HE ES       15 6  1.11                             137   -0.8810 98.8 268 
 PTB  HZ I        15 6  4.13        20.7 0.16            136           98.8 268 
 PAM  EZ EP       15 5 49.42                             129   -0.0610  127  48 
 PAM  EN ES       15 6  7.28                             129   -0.4210  127  48 
 PAM  EZ I        15 6 11.48         9.1 0.60            131            127  48 
 ZAR  HZ EP       15 5 54.82                             119    1.13 9  175 305 
 ZAR  HE ES   4   15 6 17.33                             119    2.13 0  175 305 
 ZAR  HZ I        15 6 19.42        23.9 0.52            119            175 305 
 NOR  HZ EP       15 5 54.17                             118   -0.38 9  183 232 
 NOR  HN ES       15 6 17.14                             118    0.41 9  183 232 
 NOR  HZ I        15 6 18.58        15.6 0.30            120            183 232 
 GUY2CHZ EP   2   15 6  3.56                             110    1.06 4  249 233 
 GUY2CHN ES   4   15 6 32.62                             110    1.74 0  249 233 
 GUY2CHZ  IAML    15 6 40.69         7.7 0.42                           249 233 
 URE  HZ EP       15 6  2.13                             110   -0.27 8  253 301 
 URE  HN ES   4   15 6 29.66                             110   -1.04 0  253 301 
 URE  HZ I        15 6 39.25         9.6 0.20            110            253 301 
                                                                                
