 2015 1118 1838 10.0 L   6.824 -73.131142.4  RSN 12 0.5 2.3LRSN                1
 GAP=137        1.08       3.4     5.0  7.1 -0.3793E+01  0.1642E+02 -0.3532E+01E
 Epicentro: LOS SANTOS - SANTANDER                                             3
 ACTION:UPD 15-12-28 16:11 OP:cam  STATUS:               ID:20151118183810 L   I
 OLDACT:REG 15-11-18 21:17 OP:dnl  STATUS:               ID:20151118182750     3
 2015-11-18-1827-50M.COL___304                                                 6
 STAT SP IPHASW D HRMM SECON CODA AMPLIT PERI AZIMU VELO AIN AR TRES W  DIS CAZ7
 BAR2 EZ EP       1838 29.20                             169   -0.1110 26.3 192 
 BAR2 EZ ES       1838 43.53                             169   -0.8310 26.3 192 
 BAR2 EZ I        1838 46.40        22.8 0.18            167           26.3 192 
 BRR  HZ EP       1838 31.25                             152    0.4310 71.4 296 
 BRR  HN ES   2   1838 47.54                             152    0.50 5 71.4 296 
 BRR  HZ I        1838 53.59        23.6 0.14            145           71.4 296 
 PAM  EZ EP     C 1838 32.05                             151    0.3610 74.3  40 
 PAM  EN ES       1838 49.35                             151    0.7510 74.3  40 
 PAM  EZ I        1838 51.34        15.8 0.46            154           74.3  40 
 RUS  HZ EP       1838 33.34                             142   -0.2910  103 177 
 RUS  HN ES       1838 52.10                             142    0.0510  103 177 
 RUS  HZ I        1838 52.94        13.6 0.40            149            103 177 
 OCA  HZ EP   2   1838 38.01                             129    0.18 5  158 352 
 OCA  HE ES   2   1838 58.56                             129   -0.97 5  158 352 
 OCA  HZ I        1839  5.31        51.4 0.20            130            158 352 
 SPBC HZ EP       1838 38.28                             128   -0.28 9  166 219 
 SPBC HN ES       1839  0.50                             128   -0.32 9  166 219 
 SPBC HZ I        1839  3.15        24.5 0.32            130            166 219 
 ZAR  HZ EP   2   1838 42.03                             121   -0.27 4  205 291 
 ZAR  HE ES       1839  7.28                             121   -0.20 9  205 291 
 ZAR  HZ I        1839 14.45        29.7 0.26            121            205 291 
 NOR  HZ EP   2   1838 45.59                             117   -0.28 4  238 234 
 NOR  HE ES       1839 14.38                             117    0.55 8  238 234 
 NOR  HZ I        1839 21.21        12.2 0.36            119            238 234 
 SML  HZ EP       1838 45.50                             117   -0.77 8  242 335 
 SML  HE ES       1839 14.56                             117    0.02 8  242 335 
 SML  HZ I        1839 20.65        22.3 0.26            118            242 335 
 URE  HZ EP   2   1838 50.09                             113   -0.89 4  284 291 
 URE  HE ES   4   1839 20.42                             113   -2.52 0  284 291 
 URE  HZ I        1839 33.46        14.2 0.26            114            284 291 
 GUY2CHZ EP       1838 54.38                             111    0.58 7  304 235 
 GUY2CHN ES       1839 28.67                             111    0.72 7  304 235 
 GUY2CHZ I        1839 37.30         6.5 0.46                           304 235 
 MON  HZ EP   4   1838 56.74                             108   -2.10 0  353 308 
 MON  HN ES   4   1839 35.41                             108   -1.52 0  353 308 
 MON  HZ I        1839 50.70         7.4 0.46            109            353 308 
                                                                                
