 2017  418 1939 20.3 L   6.749 -73.123148.3  RSN  7 0.4 1.8LRSN                1
 GAP=142        1.03       4.7     5.0  8.0 -0.3571E-01  0.1487E+02  0.5463E+01E
 Epicentro: LOS SANTOS - SANTANDER                                             3
 ACTION:UPD 17-05-30 21:13 OP:jn   STATUS:               ID:20170418193920 L   I
 OLDACT:REG 17-04-18 22:16 OP:dani STATUS:               ID:20170418193605     3
 2017-04-18-1938-00M.COL___374                                                 6
 STAT SP IPHASW D HRMM SECON CODA AMPLIT PERI AZIMU VELO AIN AR TRES W  DIS CAZ7
 BAR2 EZ EP       1939 40.12                             172    0.0110 18.5 201 
 BAR2 EZ I        1939 56.48                             171           18.5 201 
 BRR  HZ EP       1939 41.97                             151    0.0010 76.2 301 
 BRR  HE ES       1939 59.22                             151    0.3210 76.2 301 
 PAM  EZ EP       1939 43.07                             150    0.1510 80.4  36 
 PAM  EN ES       1940  0.00                             150   -0.6010 80.4  36 
 PAM  EZ I        1940  2.77        11.6 0.30            147           80.4  36 
 RUS  HZ EP       1939 44.12                             146    0.2610 94.8 177 
 RUS  HN ES       1940  2.53                             146    0.2710 94.8 177 
 PTB  HZ EP       1939 46.93                             132   -0.64 9  149 261 
 PTB  HN ES   4   1940  7.39                             132   -1.48 0  149 261 
 ZAR  HZ EP       1939 53.40                             122    0.07 8  209 293 
 ZAR  HE ES       1940 19.56                             122    0.43 8  209 293 
 NOR  HZ EP       1939 56.51                             119    0.50 8  233 236 
 NOR  HN ES       1940 23.05                             119   -0.84 8  233 236 
                                                                                
