 2013  118 1013 14.4 L   6.846 -73.184143.7  RSN  8 0.5 1.5LRSN                1
 GAP=130        1.03       4.5     5.6  8.7  0.3374E+00  0.4740E+01  0.8522E+01E
 Epicentro: ZAPATOCA - SANTANDER                                               3
 ACTION:UPD 13-02-15 09:15 OP:ep   STATUS:               ID:20130118101314 L   I
 2013-01-18-1010-00M.COL___241                                                 6
 STAT SP IPHASW D HRMM SECON CODA AMPLIT PERI AZIMU VELO AIN AR TRES W  DIS CAZ7
 BAR2 SZ EP   1   1013 34.17                             168    0.26 7 28.1 180 
 BAR2 SZ ES   1   1013 49.17                             168    0.06 7 28.1 180 
 BAR2 SZ I        1013 50.12        10.3 0.26            168           28.1 180 
 BRR  HZ EP   1   1013 35.68                             154    0.67 7 65.1 296 
 BRR  HN ES   1   1013 51.44                             154    0.38 7 65.1 296 
 PAM  SZ EP       1013 36.77                             151    0.4110 76.4  44 
 PAM  SN ES   1   1013 53.78                             151    0.31 7 76.4  44 
 PAM  SZ I        1013 55.71         6.2 0.54            153           76.4  44 
 RUS  HZ EP     D 1013 37.99                             142   -0.3910  106 174 
 RUS  HN ES   1   1013 56.30                             142   -0.76 7  106 174 
 RUS  HZ I        1013 58.44         3.8 0.40            143            106 174 
 PTB  HZ EP   1   1013 40.67                             132   -0.27 7  145 257 
 PTB  HN ES   1   1014  1.38                             132   -0.25 7  145 257 
 PTB  HZ I        1014  4.14         5.7 0.24            131            145 257 
 OCA  HN ES   1   1014  2.38                             130   -1.22 7  155 354 
 ZAR  HN ES   1   1014 11.06                             123    0.20 6  198 291 
 ZAR  HZ I        1014 17.90         3.2 0.28            122            198 291 
 CHI  HZ EP   1   1013 52.38                             116   -0.05 6  253 194 
 CHI  HN ES   1   1014 22.71                             116    0.63 6  253 194 
 CHI  HZ I        1014 25.18         1.5 0.32            117            253 194 
                                                                                
