 2017  118 1032 18.1 L   6.791 -73.156145.9  RSN  9 0.5 1.9LRSN                1
 GAP=136        1.21       4.8     5.6  7.5  0.3118E+00  0.1425E+02  0.1032E+02E
 Epicentro: LOS SANTOS - SANTANDER                                             3
 ACTION:UPD 17-05-22 16:01 OP:jn   STATUS:               ID:20170118103218 L   I
 OLDACT:UP  17-01-18 22:29 OP:cog  STATUS:               ID:20170118102744     3
 OLDACT:REG 17-01-18 20:12 OP:cog  STATUS:               ID:20170118102744     3
 2017-01-18-1028-00M.COL___331                                                 6
 STAT SP IPHASW D HRMM SECON CODA AMPLIT PERI AZIMU VELO AIN AR TRES W  DIS CAZ7
 BAR2 EZ IP     D 1032 37.72                             171   -0.0610 22.2 188 
 BAR2 EZ ES       1032 52.21                             171   -0.8810 22.2 188 
 BAR2 EZ I        1032 55.46        18.6 0.30            170           22.2 188 
 BRR  HZ EP       1032 39.83                             153    0.5410 70.7 300 
 BRR  HZ I        1032 56.32        10.4 0.30            149           70.7 300 
 BRR  HN ES       1032 56.71                             153    0.9310 70.7 300 
 PAM  EZ EP       1032 40.56                             150    0.0910 78.8  40 
 PAM  EN ES       1032 57.79                             150   -0.0910 78.8  40 
 PAM  EZ I        1032 59.83        18.9 0.54            151           78.8  40 
 RUS  HZ EP       1032 41.61                             144   -0.2410 99.7 175 
 RUS  HE ES       1033  0.72                             144    0.3810 99.7 175 
 RUS  HZ I        1033  1.95         4.8 0.42            145           99.7 175 
 PTB  HZ EP       1032 44.56                             132   -0.45 9  146 259 
 PTB  HN ES   3   1033  5.44                             132   -0.53 2  146 259 
 PTB  HZ I        1033 13.10        13.0 0.46            130            146 259 
 ZAR  HE ES       1033 15.09                             122   -0.71 9  203 293 
 NOR  HZ EP       1032 53.47                             119   -0.26 8  233 234 
 NOR  HE ES       1033 21.47                             119   -0.01 8  233 234 
 NOR  HZ I        1033 25.21         5.7 0.51            117            233 234 
 CHI  HZ EP       1032 55.51                             117   -0.21 8  247 195 
 CHI  HE ES       1033 25.28                             117    0.25 8  247 195 
 CHI  HZ I        1033 33.04         3.0 0.56            117            247 195 
 GUY2CHZ EP       1033  2.40                             112    0.80 7  300 235 
 GUY2CHE ES   4   1033 38.57                             112    3.08 0  300 235 
 GUY2CHZ  IAML    1033 44.65         6.2 0.68                           300 235 
 ELA  HN ES   4   1033 44.03                             110    2.78 0  328 229 
                                                                                
