 2014  718 1526 44.1 L   7.514 -73.160146.5  RSN  6 0.1 1.8LRSN                1
 GAP=123        0.44       3.0     2.4  4.7 -0.2464E+00 -0.9396E+00 -0.5980E+01E
 Epicentro: EL PLAYON - SANTANDER                                              3
 ACTION:UPD 15-03-16 20:45 OP:nd   STATUS:               ID:20140718152644 L   I
 OLDACT:DUP 14-07-19 01:28 OP:stll STATUS:               ID:20140718151821d    3
 2014-07-18-1518-20M.COL___272                                                 6
 STAT SP IPHASW D HRMM SECON CODA AMPLIT PERI AZIMU VELO AIN AR TRES W  DIS CAZ7
 PAM  SZ EP       1527  5.18                             159   -0.0310 54.4 111 
 PAM  SZ I        1527  5.45        19.5 0.42            158           54.4 111 
 BRR  HZ EP       1527  5.75                             151    0.1510 75.8 234 
 BRR  HN ES       1527 22.54                             151    0.1810 75.8 234 
 BRR  HZ I        1527 25.79        13.6 0.18            158           75.8 234 
 OCA  HZ EP       1527  6.07                             149   -0.1410 82.0 348 
 OCA  HZ I        1527 23.68         7.0 0.22            139           82.0 348 
 BAR2 SZ EP       1527  7.89                             143    0.2110  102 181 
 BAR2 SZ ES       1527 25.86                             143   -0.2010  102 181 
 PTB  HZ EP       1527 14.03                             126   -0.09 9  179 233 
 PTB  HZ I        1527 14.22         5.3 0.18            133            179 233 
 PTB  HE ES       1527 37.41                             126   -0.11 9  179 233 
 ZAR  HE ES       1527 38.93                             125   -0.02 9  187 269 
                                                                                
