 2012 1118 1607 58.7 L   6.826 -73.137145.0  RSN 17 0.5 2.6LRSN                1
 GAP= 71        1.25       3.3     4.4  5.4 -0.3582E+00  0.5964E+01  0.3399E+01E
 Epicentro: LOS SANTOS - SANTANDER                                             3
 ACTION:UPD 12-12-05 15:34 OP:}ep  STATUS:               ID:20121118160758 L   I
 2012-11-18-1600-00M.COL___234                                                 6
 STAT SP IPHASW D HRMM SECON CODA AMPLIT PERI AZIMU VELO AIN AR TRES W  DIS CAZ7
 BAR2 SZ IP     C 16 8 18.22                             169   -0.0810 26.3 191 
 BAR2 SZ ES       16 8 33.34                             169   -0.2510 26.3 191 
 BAR2 SZ I        16 8 34.64        75.4 0.18                          26.3 191 
 GIR2 SZ EP       16 8 18.23                             168    0.0210 28.6 347 
 GIR2 SZ ES       16 8 33.61                             168    0.1810 28.6 347 
 BRR  HZ IP     C 16 8 20.09                             153    0.3510 70.7 296 
 BRR  HN ES       16 8 37.15                             153    1.0110 70.7 296 
 BRR  HN I        16 8 40.55        99.3 0.20                          70.7 296 
 PAM  SZ EP       16 8 20.97                             152    0.3110 74.6  40 
 PAM  SN ES       16 8 38.01                             152    0.2110 74.6  40 
 PAM  SN I        16 8 39.58        44.9 0.46                          74.6  40 
 RUS  HZ EP       16 8 22.16                             143   -0.4210  103 177 
 RUS  HN ES       16 8 40.84                             143   -0.3610  103 177 
 RUS  HZ I        16 8 42.43        25.0 0.40                           103 177 
 PTB  HZ EP       16 8 25.22                             131   -0.52 9  149 258 
 PTB  HN ES       16 8 46.26                             131   -0.57 9  149 258 
 PTB  HN I        16 8 50.63        38.0 0.24                           149 258 
 TAM  HZ IP     D 16 8 26.45                             130    0.15 9  155 106 
 TAM  HZ I        16 8 26.60        36.7 0.20                           155 106 
 OCA  HZ EP       16 8 27.05                             130    0.36 9  158 353 
 OCA  HN ES       16 8 48.23                             130   -0.29 9  158 353 
 OCA  HN I        16 8 52.63       108.2 0.28                           158 353 
 ZAR  HZ EP       16 8 30.94                             122   -0.13 9  204 291 
 ZAR  HE ES       16 8 56.13                             122   -0.20 9  204 291 
 ZAR  HN I        16 9  4.13        31.3 0.18                           204 291 
 NOR  HZ EP       16 8 34.30                             118   -0.35 8  237 234 
 NOR  HN I        16 9  8.46        60.3 0.18                           237 234 
 SML  HZ EP       16 8 34.40                             118   -0.64 8  241 335 
 SML  HN ES       16 9  2.38                             118   -1.01 8  241 335 
 SML  HN I        16 9  7.37        49.3 0.30                           241 335 
 CHI  HZ EP       16 8 36.15                             117   -0.54 8  252 195 
 CHI  HN ES       16 9  5.66                             117   -0.65 8  252 195 
 CHI  HN I        16 9  7.76        22.0 0.56                           252 195 
 ROSC BZ EP       16 8 38.24                             116    1.14 8  256 211 
 ROSC BZ I        16 9 12.04        21.0 0.40                           256 211 
 HEL  HZ EP       16 8 39.87                             114    0.82 8  274 255 
 HEL  HN I        16 9 16.05        14.9 0.30                           274 255 
 GUY  SZ EP       16 8 43.56                             112    0.75 7  306 235 
 GUY  SN ES       16 9 17.88                             112    0.66 7  306 235 
 GUY  SN I        16 9 26.64        58.6 0.32                           306 235 
 RREF HZ EP       16 8 45.74                             110    0.63 7  324 229 
 RREF HZ I        16 9 29.49        11.8 0.26                           324 229 
 PRA  HZ EP       16 8 52.20                             106   -0.34 6  395 209 
 PRA  HN I        16 9 39.38         8.9 0.50                           395 209 
                                                                                
