 2012  718 1723  9.8 L   6.794 -73.135152.0  RSN 21 0.5 4.0LRSN                1
 GAP= 55        1.09       3.3     3.5  5.8 -0.8116E+00  0.4234E+01  0.1818E+01E
 Epicentro: LOS SANTOS - SANTANDER                                             3
 SPEC SD       MO  0.1 ST183.0 OM  0.6 f0 1.08 R0.0996 AL      WI      MW  0.1 3
 SPEC TAM HH N MO 14.9 ST 26.4 OM  3.2 f0 2.88 R0.5104 AL 3.26 WI 16.6 MW  3.9 3
 SPEC TAM HH N T172359 K 0.000 GD  216 VS 4.20 DE 3.00 Q0230.0 QA 0.60 VS 4.20 3
 SPEC PTB HH N MO 15.3 ST191.1 OM  3.6 f0 4.12 R0.3568 AL 2.28 WI 12.0 MW  4.1 3
 SPEC PTB HH N T172357 K 0.000 GD  212 VS 4.20 DE 3.00 Q0230.0 QA 0.60 VS 4.20 3
 SPEC RUS HH N MO 15.2 ST158.6 OM  3.6 f0 4.08 R0.3603 AL 1.51 WI 14.1 MW  4.1 3
 SPEC RUS HH N T172351 K 0.000 GD  181 VS 4.20 DE 3.00 Q0230.0 QA 0.60 VS 4.20 3
 SPEC HEL HH N MO 15.3 ST 54.4 OM  3.4 f0 2.78 R0.5288 AL 1.69 WI 24.5 MW  4.1 3
 SPEC HEL HH N T172420 K 0.000 GD  312 VS 4.20 DE 3.00 Q0230.0 QA 0.60 VS 4.20 3
 SPEC CHI HH N MO 15.1 ST 55.7 OM  3.3 f0 3.10 R0.4742 AL 2.32 WI 35.3 MW  4.0 3
 SPEC CHI HH N T172413 K 0.000 GD  290 VS 4.20 DE 3.00 Q0230.0 QA 0.60 VS 4.20 3
 SPEC BRR HH N MO 15.3 ST561.7 OM  3.7 f0 5.91 R0.2487 AL 2.99 WI 15.2 MW  4.1 3
 SPEC BRR HH N T172349 K 0.000 GD  168 VS 4.20 DE 3.00 Q0230.0 QA 0.60 VS 4.20 3
 ACTION:UP  12-07-18 12:31 OP:carl STATUS:               ID:20120718171944     I
 ACTION:UPD 12-08-14 11:45 OP:ep   STATUS:               ID:20120718172309 L   I
 2012-07-18-1719-44M.COL___206                                                 6
 STAT SP IPHASW D HRMM SECON CODA AMPLIT PERI AZIMU VELO AIN AR TRES W  DIS CAZ7
 BAR2 SZ IP       1723 30.18                             171     0.010   23 193 
 BAR2 SZ ES   1   1723 45.62                             171    -0.5 7   23 193 
 BRR  HZ IP       1723 32.11                             153     0.410   73 299 
 BRR  HZ I        1723 32.44      3303.4 0.22            152             73 299 
 BRR  HN ES   1   1723 49.75                             153     1.0 7   73 299 
 PAM  SZ IP       1723 32.96                             152     0.310   77  39 
 PAM  SN ES   1   1723 50.32                             152    -0.2 7   77  39 
 RUS  HZ IP     D 1723 33.95                             145    -0.210  100 177 
 RUS  HN ES   1   1723 52.68                             145    -0.4 7  100 177 
 RUS  HZ I        1723 54.53       790.5 0.44            146            100 177 
 PTB  HZ EP       1723 36.73                             133    -0.7 9  149 259 
 PTB  HN ES   1   1723 58.19                             133    -0.7 7  149 259 
 PTB  HZ I        1724  5.56      1487.7 0.45            133            149 259 
 TAM  HZ IP     D 1723 38.34                             132     0.5 9  154 105 
 TAM  HZ I        1723 38.81      1761.0 0.36            136            154 105 
 TAM  HE ES   1   1724  0.16                             132     0.4 7  154 105 
 OCA  HZ EP   1   1723 38.45                             131    -0.2 7  161 353 
 OCA  HN ES   1   1724  1.50                             131     0.3 7  161 353 
 OCA  HZ I        1724  4.78      2457.2 0.21            133            161 353 
 YOP  SZ EP   1   1723 40.62                             128     0.4 7  178 154 
 YOP  SN ES   2   1724  3.90                             128     0.0 4  178 154 
 ZAR  HZ EP   1   1723 42.55                             123    -0.3 6  205 292 
 ZAR  HN ES   2   1724  9.82                             123     1.3 4  205 292 
 ZAR  HZ I        1724 14.70      1351.7 0.37            124            205 292 
 NOR  SZ EP   1   1723 45.95                             120     0.0 6  235 235 
 NOR  SN ES   1   1724 14.27                             120     0.1 6  235 235 
 CHI  HZ EP       1723 47.76                             118    -0.1 8  248 195 
 CHI  HN ES   1   1724 16.39                             118    -1.1 6  248 195 
 CHI  HZ I        1724 28.25       280.4 0.59            120            248 195 
 HEL  HZ EP       1723 50.08                             116    -0.4 8  273 256 
 HEL  HN ES   1   1724 21.80                             116    -0.4 6  273 256 
 HEL  HZ I        1724 29.15       672.7 0.31            116            273 256 
 URE  HZ EP   1   1723 50.79                             115    -0.6 6  285 292 
 URE  HE ES   2   1724 24.81                             115     1.1 4  285 292 
 VIL  SZ EP   1   1723 53.11                             113    -0.4 5  303 192 
 VIL  SE ES   1   1724 27.78                             113     0.2 5  303 192 
 VIL  SZ I        1724 31.94       135.6 0.50            114            303 192 
 DBB  SZ EP       1723 57.56                             110    -0.1 7  341 274 
 TOL  SZ EP       1723 59.65                             110     1.3 7  344 225 
 COD  HZ EP   1   1723 57.76                             110    -0.8 5  349 354 
 COD  HE ES   1   1724 35.94                             110    -0.6 5  349 354 
 COD  HZ I        1724 42.42       289.3 0.35            111            349 354 
 SDV  BZ EP       1723 59.59                             109    -0.5 6  360  50 
 PRA  HZ EP   1   1724  3.89                             107     0.3 4  392 210 
 PAL  HZ EP   1   1724  5.96                             107     0.7 4  406 239 
 PAL  HN ES       1724 49.21                             107     0.7 6  406 239 
 HORQ SZ EP   1   1724 21.42                             102     1.0 3  533 227 
