 2017  618 1809 53.6 L   6.819 -73.150152.5  RSN 17 0.4 2.7LRSN                1
 GAP=139        0.78       2.7     2.2  4.6  0.1145E+01  0.4138E+00  0.1097E+01E
 Epicentro: LOS SANTOS - SANTANDER                                             3
 ACTION:UPD 17-09-14 16:53 OP:jn   STATUS:               ID:20170618180953 L   I
 OLDACT:REG 17-06-18 21:02 OP:osc  STATUS:               ID:20170618180731     3
 2017-06-18-1808-00M.COL___338                                                 6
 STAT SP IPHASW D HRMM SECON CODA AMPLIT PERI AZIMU VELO AIN AR TRES W  DIS CAZ7
 BRR  HZ IP     C 1810 15.80                             154    0.3910 69.8 297 
 BRR  HN ES       1810 32.59                             154    0.1810 69.8 297 
 BRR  HZ I        1810 35.49        51.2 0.26            151           69.8 297 
 PTB  HZ EP       1810 20.62                             134   -0.51 9  148 258 
 PTB  HE ES       1810 42.44                             134   -0.15 9  148 258 
 PTB  HZ I        1810 43.19        34.2 0.26            131            148 258 
 TAM  HZ IP     D 1810 22.11                             132    0.20 9  156 106 
 TAM  HN ES       1810 43.68                             132   -0.31 9  156 106 
 SPBC HZ EP       1810 22.69                             130   -0.06 9  165 218 
 SPBC HE ES       1810 45.32                             130   -0.17 9  165 218 
 SPBC HZ I        1810 50.73        84.2 0.18            128            165 218 
 YPLC HZ EP       1810 24.14                             128    0.04 9  179 152 
 YPLC HN ES       1810 47.94                             128    0.06 9  179 152 
 YPLC HZ I        1810 48.95        59.1 0.24            128            179 152 
 ZAR  HZ EP       1810 26.64                             124    0.27 9  203 292 
 ZAR  HN ES       1810 51.78                             124   -0.15 9  203 292 
 ZAR  HZ I        1810 59.10        48.5 0.26            123            203 292 
 NOR  HZ EP       1810 29.82                             120   -0.00 8  236 234 
 NOR  HN ES       1810 58.58                             120    0.51 8  236 234 
 NOR  HZ I        1811  3.51        53.2 0.40            119            236 234 
 CHI  HZ EP       1810 32.06                             118    0.17 8  251 195 
 CHI  HN ES       1811  1.65                             118   -0.10 8  251 195 
 CHI  HZ I        1811  5.37        17.7 0.26            118            251 195 
 ROSC BZ EP   4   1810 33.81                             118    1.54 0  254 211 
 ROSC BN ES   4   1811  5.33                             118    2.90 0  254 211 
 ROSC BZ I        1811 11.70        53.9 0.35            117            254 211 
 HEL  HZ EP   9   1810 35.46                             116    1.28 0  272 255 
 HEL  HN ES       1811  7.31                                    0.21 8  272 255 
 HEL  HZ I        1811 12.78        25.7 0.26            115            272 255 
 VIL  EZ EP       1810 37.47                             113   -0.09 7  305 191 
 VIL  EN ES       1811 11.84                             113   -0.00 7  305 191 
 VIL  EZ I        1811 16.95        23.1 0.48            113            305 191 
 PTGC HZ EP   4   1810 36.90                             113   -1.11 0  311 159 
 PTGC HN ES   4   1811 10.19                             113   -2.46 0  311 159 
 PTGC HZ I        1811 14.96        21.6 0.38            113            311 159 
 CBOC HZ EP       1810 41.35                             111    0.52 7  334 252 
 CBOC HN ES       1811 17.58                             111   -0.08 7  334 252 
 CBOC HZ I        1811 31.69        11.6 0.44            111            334 252 
 DBB  EZ EP       1810 41.62                             111    0.33 7  339 274 
 DBB  EE ES   2   1811 17.66                             111   -0.83 3  339 274 
 DBB  EZ I        1811 24.99        10.0 0.24            110            339 274 
 ORTC HZ EP   9   1810 48.99                             107    1.06 0  397 216 
 ORTC HE ES       1811 32.01                                    0.65 6  397 216 
 ORTC HZ I        1811 36.98        14.2 0.44            107            397 216 
 PAL  HZ EP       1810 49.77                             107    0.69 6  406 239 
 PAL  HN ES       1811 31.10                             107   -1.24 6  406 239 
 PAL  HZ I        1811 38.51        13.2 0.48            107            406 239 
 SJC  HZ EP       1810 48.26                             107   -0.90 6  407 327 
 SJC  HN ES   4   1811 29.51                             107   -2.98 0  407 327 
 SJC  HZ I        1811 32.91         7.1 0.34            107            407 327 
                                                                                
