 2012  418 1622  0.6 L   6.789 -73.076142.8  RSN  4 0.2 1.7LRSN                1
 GAP=146        0.48       3.8     6.1  5.6  0.8567E+01 -0.1471E+02 -0.6557E+01E
 Epicentro: LOS SANTOS - SANTANDER                                             3
 ACTION:UPD 12-07-05 11:54 OP:tino STATUS:               ID:20120418162200 L   I
 2012-04-18-1620-00M.COL___187                                                 6
 STAT SP IPHASW D HRMM SECON CODA AMPLIT PERI AZIMU VELO AIN AR TRES W  DIS CAZ7
 BAR2 SZ EP       1622 19.83                             170    -0.110   25 208 
 BAR2 SZ ES   1   1622 34.90                             170    -0.1 7   25 208 
 BAR2 SZ I        1622 36.09         8.4 0.47                            25 208 
 PAM  SZ EP       1622 22.32                             151     0.010   74  34 
 BRR  HZ EP       1622 21.67                             150    -0.210   79 297 
 BRR  HZ I        1622 34.01        10.8 0.32                            79 297 
 BRR  HE ES   1   1622 38.68                             150     0.2 7   79 297 
 RUS  HZ EP       1622 24.16                             144     0.210   99 180 
 RUS  HN ES   1   1622 42.02                             144    -0.1 7   99 180 
                                                                                
