 2012 1018 1034 21.5 L   6.807 -73.090152.6  RSN  7 0.4 1.9LRSN                1
 GAP=143        0.73       4.5     4.8  5.9  0.4193E+00  0.9999E+01  0.3966E+01E
 Epicentro: LOS SANTOS - SANTANDER                                             3
 ACTION:UPD 12-11-22 17:04 OP:ep   STATUS:               ID:20121018103421 L   I
 2012-10-18-1030-00M.COL___224                                                 6
 STAT SP IPHASW D HRMM SECON CODA AMPLIT PERI AZIMU VELO AIN AR TRES W  DIS CAZ7
 BAR2 SZ EP   1   1034 41.96                             170   -0.06 7 25.8 203 
 BAR2 SZ I        1034 42.22        15.6 0.19                          25.8 203 
 BAR2 SZ ES   1   1034 58.30                             170    0.28 7 25.8 203 
 GIR2 SZ EP   1   1034 42.24                             167    0.21 7 32.2 339 
 GIR2 SZ ES   1   1034 58.24                             167    0.21 7 32.2 339 
 PAM  SZ EP   1   1034 44.33                             153    0.10 7 73.0  36 
 PAM  SN ES   1   1035  1.93                             153    0.00 7 73.0  36 
 PAM  SN I        1035  3.69        13.7 0.50                          73.0  36 
 BRR  HZ EP   1   1034 43.92                             152    0.22 7 76.3 296 
 BRR  HZ I        1034 44.37        12.0 0.13                          76.3 296 
 BRR  HN ES   1   1035  1.06                             152    0.06 7 76.3 296 
 RUS  HZ EP   1   1034 45.73                             145   -0.26 7  101 180 
 RUS  HN ES   1   1035  4.44                             145   -0.63 7  101 180 
 RUS  HN I        1035  6.52         8.4 0.24                           101 180 
 ZAR  HZ EP   1   1034 54.46                             123   -0.52 6  210 291 
 ZAR  HN ES   1   1035 20.39                             123   -0.68 6  210 291 
 ZAR  HN I        1035 26.25         9.5 0.15                           210 291 
 GUY  SZ EP   1   1035  7.07                             113    0.74 5  309 236 
 GUY  SN ES   1   1035 41.98                             113    0.70 5  309 236 
                                                                                
