 2012  218 1702  5.4 L   6.783 -73.165148.8  RSN  7 0.5 1.7LRSN                1
 GAP=135        0.96       6.6     5.4  9.7 -0.2428E+01  0.5279E+01  0.1110E+02E
 ACTION:UP  12-03-07 16:31 OP:epov STATUS:               ID:20120218170205 L   I
 2012-02-18-1700-00M.COL___188                                                 6
 STAT SP IPHASW D HRMM SECON CODA AMPLIT PERI AZIMU VELO AIN AR TRES W  DIS CAZ7
 BAR2 SZ EP       17 2 25.23                             172   -0.0910 21.2 185 
 BAR2 SZ I        17 2 42.93        11.1 0.26                          21.2 185 
 BRR  HZ EP       17 2 27.31                             153    0.5110 70.3 301 
 BRR  HN ES   1   17 2 44.34                             153    0.83 7 70.3 301 
 BRR  HZ I        17 2 46.75        15.3 0.09                          70.3 301 
 PAM  SZ EP   1   17 2 27.73                             150   -0.34 7 80.1  40 
 PAM  SN ES   1   17 2 45.39                             150   -0.39 7 80.1  40 
 RUS  HZ EP   1   17 2 29.13                             145   -0.17 7 98.9 175 
 RUS  HN ES   1   17 2 48.09                             145    0.13 7 98.9 175 
 RUS  HZ I        17 2 51.03         3.0 0.33                          98.9 175 
 PTB  HZ EP   1   17 2 32.07                             133   -0.30 7  145 259 
 PTB  HE ES       17 2 52.90                             133   -0.53 9  145 259 
 ZAR  HN ES   2   17 3  2.66                             123   -0.59 4  203 293 
 ZAR  HZ I        17 3 10.25         6.4 0.44                           203 293 
 NOR  SZ EP   1   17 2 41.68                             119    0.70 6  232 235 
                                                                                
