 2017  718 1446 30.4 L   6.860 -73.144142.2  RSN 26 0.6 2.7LRSN 3.2WRSN        1
 SPEC AVERAGE  MO 13.9 ST 91.3 OM  2.0 f0 9.02 R1.1337 AL 0.00 WI 30.0 MW  3.2 3
 SPEC SD       MO  0.5 ST287.3 OM  0.5 f0 22.5 R0.8304 AL      WI      MW  0.3 3
 GAP= 65        1.19       3.6     3.0  6.0 -0.4821E+00  0.5491E+01  0.3871E+01E
 Epicentro: LOS SANTOS - SANTANDER                                             3
 SPEC RUS HH Z MO 14.2 ST0.241 OM  2.2 f0 1.39 R1.3842 AL 0.00 WI 30.0 MW  3.4 3
 SPEC RUS HH Z T144710 K 0.000 GD  177 VS 5.20 DE 3.50 Q0750.0 QA 1.50 VS 3.50 3
 SPEC YPLCHN Z MO 14.5 ST999.9 OM  2.4 f0 80.0 R0.0240 AL 0.00 WI 30.0 MW  3.6 3
 SPEC YPLCHN Z T144721 K 0.000 GD  231 VS 5.20 DE 3.50 Q0750.0 QA 1.50 VS 3.50 3
 SPEC ZAR HH Z MO 13.9 ST  1.9 OM  1.8 f0 3.36 R0.5726 AL 0.00 WI 30.0 MW  3.2 3
 SPEC ZAR HH Z T144726 K 0.000 GD  247 VS 5.20 DE 3.50 Q0750.0 QA 1.50 VS 3.50 3
 SPEC NOR HH Z MO 13.6 ST0.722 OM  1.4 f0 3.19 R0.6031 AL 0.00 WI 30.0 MW  3.0 3
 SPEC NOR HH Z T144732 K 0.000 GD  278 VS 5.20 DE 3.50 Q0750.0 QA 1.50 VS 3.50 3
 SPEC ROSCBH Z MO 14.1 ST0.126 OM  1.9 f0 1.19 R1.6168 AL 0.00 WI 30.0 MW  3.3 3
 SPEC ROSCBH Z T144738 K 0.000 GD  295 VS 5.20 DE 3.50 Q0750.0 QA 1.50 VS 3.50 3
 SPEC HEL HH Z MO 13.9 ST0.108 OM  1.7 f0 1.30 R1.4800 AL 0.00 WI 30.0 MW  3.2 3
 SPEC HEL HH Z T144740 K 0.000 GD  308 VS 5.20 DE 3.50 Q0750.0 QA 1.50 VS 3.50 3
 SPECGUY2CHH Z MO 14.2 ST0.066 OM  2.0 f00.851 R2.2609 AL 0.00 WI 30.0 MW  3.4 3
 SPECGUY2CHH Z T144747 K 0.000 GD  336 VS 5.20 DE 3.50 Q0750.0 QA 1.50 Q1 0.00 3
 SPEC VIL EH Z MO 13.9 ST0.211 OM  1.7 f0 1.57 R1.2255 AL 0.00 WI 30.0 MW  3.2 3
 SPEC VIL EH Z T144747 K 0.000 GD  341 VS 5.20 DE 3.50 Q0750.0 QA 1.50 VS 3.50 3
 SPEC CBOCHH Z MO 14.2 ST0.032 OM  1.9 f00.699 R2.7525 AL 0.00 WI 30.0 MW  3.4 3
 SPEC CBOCHH Z T144752 K 0.000 GD  364 VS 5.20 DE 3.50 Q0750.0 QA 1.50 VS 3.50 3
 SPEC DBB EH Z MO 13.7 ST0.335 OM  1.4 f0 2.25 R0.8551 AL 0.00 WI 30.0 MW  3.1 3
 SPEC DBB EH Z T144752 K 0.000 GD  367 VS 5.20 DE 3.50 Q0750.0 QA 1.50 VS 3.50 3
 SPEC SJC HH Z MO 13.8 ST0.154 OM  1.5 f0 1.53 R1.2575 AL 0.00 WI 30.0 MW  3.2 3
 SPEC SJC HH Z T1448 4 K 0.000 GD  428 VS 5.20 DE 3.50 Q0750.0 QA 1.50 VS 3.50 3
 SPEC CRJCHH Z MO 13.7 ST0.637 OM  1.3 f0 2.75 R0.6996 AL 0.00 WI 30.0 MW  3.1 3
 SPEC CRJCHH Z T144816 K 0.000 GD  482 VS 5.20 DE 3.50 Q0750.0 QA 1.50 VS 3.50 3
 2017-07-18-1438-00M.COL___386                                                 6
 OLDACT:DUP 17-07-18 23:59 OP:lv   STATUS:               ID:20170718143739d    3
 ACTION:UPD 17-08-30 15:34 OP:rebc STATUS:               ID:20170718144630 L   I
 STAT SP IPHASW D HRMM SECON CODA AMPLIT PERI AZIMU VELO AIN AR TRES W  DIS CAZ7
 BAR2 EZ EP       1446 49.73                             168    0.0310 29.9 188 
 BAR2 EZ ES       1447  4.45                             168   -0.3510 29.9 188 
 BAR2 EZ I        1447  5.83       158.1 0.14            167           29.9 188 
 BRR  HZ EP       1446 51.76                             152    0.8010 68.5 294 
 BRR  HZ I        1447 13.04       139.1 0.25            153           68.5 294 
 PAM  EZ EP       1446 52.56                             151    0.6810 72.3  43 
 PAM  EN ES       1447  9.49                             151    0.8210 72.3  43 
 PAM  EZ I        1447 11.87       155.4 0.49            152           72.3  43 
 RUS  HZ EP       1446 53.80                             141   -0.4410  107 176 
 RUS  HZ I        1447 13.15        65.6 0.19            141            107 176 
 PTB  HZ EP       1446 56.65                             131   -0.53 9  149 256 
 PTB  HN ES       1447 17.38                             131   -0.72 9  149 256 
 PTB  HZ I        1447 20.79        41.2 0.18            131            149 256 
 TAM  HZ EP       1446 58.15                             129    0.25 9  157 107 
 TAM  HN ES       1447 19.22                             129   -0.17 9  157 107 
 TAM  HZ I        1447 20.76        48.8 0.13            129            157 107 
 SPBC HZ EP       1446 58.80                             127   -0.29 9  169 218 
 SPBC HN ES   4   1447 20.26                             127   -1.24 0  169 218 
 YPLC HZ IP     C 1447  0.24                             125   -0.22 9  183 152 
 YPLC HN ES       1447 23.05                             125   -0.89 9  183 152 
 YPLC HZ I        1447 26.68        44.1 0.20            125            183 152 
 ZAR  HZ EP   4   1447  4.02                             122    1.69 0  202 290 
 ZAR  HN ES       1447 27.72                             122    0.44 9  202 290 
 TABC EZ EP       1447  7.00                             118    0.49 8  236 210 
 TABC EZ ES       1447 34.56                             118   -0.16 8  236 210 
 TABC EZ I        1447 39.26        42.5 0.45            118            236 210 
 NOR  HZ EP       1447  6.46                             117    0.15 8  239 233 
 NOR  HN ES       1447 34.13                             117   -0.23 8  239 233 
 ROSC BZ EP   9   1447 10.19                             115    1.28 0  259 210 
 ROSC BN ES       1447 39.84                                   -0.43 8  259 210 
 ROSC BZ I        1447 43.70        36.4 0.19            115            259 210 
 HEL  HZ EP   4   1447 12.18                             114    1.59 0  274 254 
 HEL  HN ES       1447 41.51                             114   -0.47 8  274 254 
 HEL  HZ I        1447 49.35        30.3 0.22            114            274 254 
 URE  HZ EP       1447 10.42                             113   -0.58 7  282 291 
 URE  HN ES   4   1447 40.71                             113   -2.00 0  282 291 
 URE  HZ I        1447 43.95        62.2 0.11            113            282 291 
 GUY2CHZ EP       1447 14.62                             111    0.37 7  305 234 
 GUY2CHN ES       1447 49.05                             111    0.56 7  305 234 
 GUY2CHZ I        1447 57.23        24.4 0.33                           305 234 
 VIL  EZ EP       1447 14.04                             111   -0.31 7  310 191 
 VIL  EN ES       1447 49.00                             111    0.34 7  310 191 
 VIL  EZ I        1447 57.71        40.5 0.34            111            310 191 
 PTGC HZ EP   4   1447 13.09                             110   -1.65 0  315 159 
 PTGC HN ES   4   1447 46.70                             110   -2.67 0  315 159 
 PTGC HZ I        1447 53.51        27.3 0.47            111            315 159 
 LL6C HZ EP       1447 14.77                             110   -0.37 7  318 357 
 LL6C HN ES   3   1447 45.48                             110   -4.60 2  318 357 
 CBOC HZ EP       1447 17.90                             109    0.52 7  336 251 
 CBOC HN ES       1447 53.85                             109   -0.22 7  336 251 
 CBOC HZ I        1447 57.63         9.4 0.15            109            336 251 
 DBB  EZ EP       1447 18.01                             109    0.35 7  339 273 
 DBB  EN ES   4   1447 53.79                             109   -0.77 0  339 273 
 DBB  EZ I        1447 56.33        35.5 0.23            109            339 273 
 ARGC HZ EP   9   1447 21.18                             108    2.02 0  353 340 
 ARGC HN ES       1447 58.58                                   -0.67 6  353 340 
 ORTC HZ EP       1447 25.01                             105    0.22 6  401 216 
 ORTC HN ES       1448  8.25                             105    0.99 6  401 216 
 ORTC HZ I        1448 12.90                             106            401 216 
 SJC  HZ EP   4   1447 24.14                             105   -1.02 0  404 326 
 SJC  HN ES   4   1448  5.87                             105   -2.04 0  404 326 
 SJC  HZ I        1448  6.59         6.8 0.48            106            404 326 
 PAL  HZ EP       1447 26.09                             105    0.27 6  409 238 
 CRJC HZ EP   9   1447 30.55                             103   -1.41 0  461   4 
 CRJC HN ES       1448 17.69                                   -0.92 5  461   4 
 CRJC HZ I        1448 22.66        11.9 0.35            103            461   4 
 YOT  HZ EP       1447 32.57                             102   -1.27 5  476 228 
 SMAR HZ EP   4   1447 36.03                             102    0.66 0  491 346 
 SMAR HN ES   4   1448 22.64                             102   -3.44 0  491 346 
                                                                                
