 2012 1018 1127 29.6 L   6.704 -73.489108.9  RSN  4 0.2 1.2LRSN                1
 GAP=147        0.53       7.8     8.3  8.3  0.5784E+02  0.4319E+02  0.3942E+02E
 Epicentro: EL CARMEN DE CHUCURI - SANTANDER                                   3
 ACTION:UPD 12-11-22 17:04 OP:ep   STATUS:               ID:20121018112729 L   I
 2012-10-18-1120-00M.COL___224                                                 6
 STAT SP IPHASW D HRMM SECON CODA AMPLIT PERI AZIMU VELO AIN AR TRES W  DIS CAZ7
 BAR2 SZ EP   1   1127 45.27                             160    0.03 7 36.1 110 
 BAR2 SZ ES   1   1127 57.82                             160    0.37 7 36.1 110 
 BRR  HN ES   1   1127 57.73                             153   -0.37 7 50.9 331 
 RUS  HZ EP   1   1127 49.80                             134   -0.11 7  100 153 
 RUS  HZ I        1127 50.47         2.1 0.10                           100 153 
 RUS  HN ES   1   1128  5.65                             134   -0.11 7  100 153 
 RUS  HN I        1128  7.60         4.5 0.38                           100 153 
 ZAR  HN ES   1   1128 18.02                             117    0.23 7  175 300 
 ZAR  HN I        1128 21.73         3.3 0.26                           175 300 
                                                                                
