 2011  318 1950 17.9 L   6.794 -73.143144.0  RSN 11 0.4 2.3LRSN                1
 GAP=136        0.83       2.9     4.7  5.3 -0.9727E+00  0.5625E+01  0.3396E+01E
 Epicentro: LOS SANTOS - SANTANDER                                             3
 ACTION:UP  11-06-16 14:34 OP:jfem STATUS:               ID:20110318195017 L   I
 2011-03-18-1948-44S.COL___135                                                 6
 STAT SP IPHASW D HRMM SECON CODA AMPLIT PERI AZIMU VELO SNR AR TRES W  DIS CAZ7
 BTL  SZ EP   1   1950 37.36                             172     0.1 7   19 315 
 BTL  SZ ES   1   1950 52.86                             172     0.5 7   19 315 
 BAR2 SZ EP   1   1950 37.10                             171    -0.2 7   23 191 
 BAR2 SZ ES   1   1950 51.95                             171    -0.5 7   23 191 
 BAR2 SZ I        1950 53.93        79.7 0.26                            23 191 
 GIR2 SZ EP   1   1950 37.34                             167     0.0 7   32 350 
 GIR2 SZ ES   1   1950 53.09                             167     0.5 7   32 350 
 RUS  HZ EP       1950 41.20                             144    -0.210  100 176 
 RUS  HN ES   1   1950 59.41                             144    -0.4 7  100 176 
 RUS  HZ I        1951  1.20        17.0 0.21                           100 176 
 GRA  SZ EP   1   1950 43.02                             136     0.0 7  126  17 
 GRA  SZ ES   1   1951  2.74                             136     0.1 7  126  17 
 GRA  SZ I        1951  6.99        22.8 0.43                           126  17 
 OCA  SZ EP   1   1950 45.81                             129    -0.3 7  161 353 
 OCA  SZ ES   1   1951  7.73                             129    -0.4 7  161 353 
 OCA  SZ I        1951 13.07        24.7 0.37                           161 353 
 YOP  SZ EP       1950 47.89                             126     0.1 9  178 153 
 YOP  SN ES   1   1951 11.32                             126     0.3 7  178 153 
 YOP  SZ I        1951 12.93        15.7 0.42                           178 153 
 NOR  SZ EP   1   1950 53.10                             118    -0.4 6  235 235 
 NOR  SN ES   1   1951 20.67                             118    -0.6 6  235 235 
 CHI  HZ EP   1   1950 55.48                             117     0.0 6  248 195 
 CHI  HN ES   1   1951 24.93                             117     0.2 6  248 195 
 CHI  HZ I        1951 30.74        10.4 0.56                           248 195 
 HEL  HZ EP   1   1950 58.45                             114     0.4 6  272 256 
 HEL  HN ES   1   1951 29.68                             114     0.3 6  272 256 
 HEL  HZ I        1951 37.52        18.0 0.30                           272 256 
 GUY  SZ EP   1   1951  2.36                             112     0.9 5  301 235 
 GUY  SZ I        1951 44.98        32.9 0.43                           301 235 
                                                                                
