 2016 1018 1531 13.8 L   6.805 -73.111149.1  RSN 20 0.5 2.5LRSN                1
 GAP=103        1.06       4.1     4.0  4.8 -0.4539E+01  0.2326E+01  0.3079E+01E
 Epicentro: LOS SANTOS - SANTANDER                                             3
 ACTION:UPD 16-11-09 19:20 OP:rebc STATUS:               ID:20161018153113 L   I
 OLDACT:UP  16-10-19 00:46 OP:ar   STATUS:               ID:20161018152737     3
 OLDACT:UP  16-10-19 00:27 OP:ar   STATUS:               ID:20161018152737     3
 OLDACT:UP  16-10-19 00:27 OP:ar   STATUS:               ID:20161018152737     3
 OLDACT:REG 16-10-18 21:54 OP:ar   STATUS:               ID:20161018152737     3
 2016-10-18-1528-00M.COL___338                                                 6
 STAT SP IPHASW D HRMM SECON CODA AMPLIT PERI AZIMU VELO AIN AR TRES W  DIS CAZ7
 BAR2 EZ IP     D 1531 33.94                             170    0.0910 24.8 199 
 BAR2 EZ ES       1531 49.21                             170   -0.2910 24.8 199 
 BAR2 EZ I        1531 51.75        78.8 0.32            166           24.8 199 
 BRR  HZ EP       1531 35.65                             152    0.1710 74.3 297 
 BRR  HN ES       1531 52.88                             152    0.4910 74.3 297 
 BRR  HZ I        1531 56.89        51.7 0.28            149           74.3 297 
 PAM  EZ EP       1531 36.88                             152    0.6810 74.6  38 
 PAM  EE ES       1531 53.27                             152   -0.4110 74.6  38 
 PAM  EZ I        1531 57.19        24.2 0.48            157           74.6  38 
 RUS  HZ EP       1531 37.91                             144    0.0110  101 178 
 RUS  HN ES       1531 56.79                             144    0.0910  101 178 
 RUS  HZ I        1531 57.57        20.9 0.24            144            101 178 
 PTB  HZ EP       1531 40.91                             132   -0.47 9  152 259 
 PTB  HE ES       1532  2.41                             132   -0.49 9  152 259 
 PTB  HZ I        1532  7.82        30.1 0.28            130            152 259 
 SPBC HZ EP       1531 42.60                             129   -0.22 9  166 220 
 SPBC HN ES       1532  5.45                             129   -0.00 9  166 220 
 SPBC HZ I        1532  9.70        53.4 0.24            128            166 220 
 NOR  HZ EP       1531 50.07                             119   -0.02 8  238 235 
 NOR  HE ES   4   1532 17.51                             119   -0.88 0  238 235 
 NOR  HZ I        1532 27.30        18.4 0.42            118            238 235 
 CHI  HZ EP       1531 52.10                             118    0.25 8  250 196 
 CHI  HN ES   4   1532 21.43                             118   -0.09 0  250 196 
 CHI  HZ I        1532 24.86        18.7 0.64            118            250 196 
 ROSC BZ EP   4   1531 50.38                             117   -1.98 0  255 212 
 ROSC BN ES   4   1532 24.57                             117    2.12 0  255 212 
 ROSC BZ I        1532 28.53        47.9 0.40            117            255 212 
 HEL  HZ EP       1531 55.54                             115    0.94 7  276 256 
 HEL  HN ES       1532 26.26                             115   -0.17 7  276 256 
 HEL  HZ I        1532 31.95        16.3 0.30            115            276 256 
 SOCV BZ EP       1531 56.72                             113    0.11 7  298  57 
 GUY2CHZ EP       1531 58.97                             113    1.02 7  305 235 
 GUY2CHN ES   4   1532 36.48                             113    4.10 0  305 235 
 GUY2CHZ I        1532 40.12        19.2 0.34                           305 235 
 PTGC HZ EP       1531 57.05                             112   -0.65 7  308 159 
 PTGC HN ES   4   1532 30.67                             112   -1.28 0  308 159 
 PTGC HZ I        1532 39.27        16.5 0.44            113            308 159 
 ELA  HE ES   4   1532 40.69                             111    2.59 0  332 230 
 ELA  HZ I        1532 46.50        14.6 0.52            110            332 230 
 CBOC HZ EP       1532  1.08                             110   -0.20 7  337 252 
 CBOC HE ES   4   1532 36.41                             110   -1.91 0  337 252 
 CBOC HZ I        1532 48.66         4.4 0.52            110            337 252 
 ANIL HZ EP   9   1532  6.68                             109    2.60 0  360 225 
 ANIL HN ES       1532 46.14                             108    0.24 6  360 225 
 PRA  HZ EP       1532  7.63                             107   -0.08 6  394 210 
 PRA  HN ES       1532 49.24                             107   -0.52 6  394 210 
 PRA  HZ I        1532 55.95        19.4 0.36            107            394 210 
 PAL  HZ EP       1532  9.96                             106    0.48 6  409 239 
 PAL  HN ES   4   1532 51.26                             106   -1.66 0  409 239 
 PAL  HZ I        1532 56.92         3.6 0.28            106            409 239 
 SJC  HZ EP       1532  8.05                             106   -1.61 6  411 326 
 SJC  HN ES   4   1532 50.69                             106   -2.55 0  411 326 
 SJC  HZ I        1533  3.70         4.6 0.62            107            411 326 
 CRJC HZ EP   4   1532 14.36                             104   -1.94 0  467   3 
 CRJC HN ES   4   1533  2.36                             104   -2.69 0  467   3 
 CRJC HZ I        1533  3.39         5.6 0.14            105            467   3 
 URI  HZ EP   4   1532 23.80                             101   -2.91 0  555  13 
 URI  HE ES   4   1533 17.75                             101   -5.83 0  555  13 
                                                                                
