 2016  418 1609 52.4 L   6.781 -73.147145.8  RSN 11 0.5 1.9LRSN                1
 GAP=119        1.20       4.4     4.5  6.9 -0.5493E+01  0.7234E+01 -0.8290E-01E
 Epicentro: LOS SANTOS - SANTANDER                                             3
 ACTION:UPD 16-05-05 14:22 OP:rebc STATUS:               ID:20160418160952 L   I
 OLDACT:ARG 16-04-18 20:49 OP:ar   STATUS:               ID:20160418160748     3
 2016-04-18-1607-48M.COL___298                                                 6
 STAT SP IPHASW D HRMM SECON CODA AMPLIT PERI AZIMU VELO AIN AR TRES W  DIS CAZ7
 BAR2 EZ EP       1610 12.04                             171    0.0610 21.2 191 
 BAR2 EZ ES       1610 27.00                             171   -0.2610 21.2 191 
 BAR2 EZ I        1610 28.57        22.3 0.30            170           21.2 191 
 PAM  EZ EP       1610 14.99                             150    0.2810 79.1  39 
 PAM  EN ES       1610 32.93                             150    0.8110 79.1  39 
 PAM  EZ I        1610 34.49        11.2 0.23            153           79.1  39 
 RUS  HZ EP       1610 15.74                             144   -0.2510 98.5 176 
 RUS  HE ES       1610 34.17                             144   -0.2310 98.5 176 
 RUS  HZ I        1610 35.64         8.8 0.56            147           98.5 176 
 PTB  HZ EP       1610 18.32                             132   -0.99 9  147 260 
 PTB  HN ES       1610 39.72                             132   -0.59 9  147 260 
 PTB  HZ I        1610 45.37         7.9 0.13            131            147 260 
 SPBC HZ EP       1610 21.17                             129    0.45 9  161 219 
 SPBC HN ES       1610 42.50                             129   -0.33 9  161 219 
 SPBC HZ I        1610 44.36        12.0 0.19            130            161 219 
 ZAR  HZ EP       1610 25.39                             122    0.48 9  205 293 
 ZAR  HE ES       1610 50.10                             122   -0.17 9  205 293 
 ZAR  HZ I        1610 56.29        11.6 0.13            122            205 293 
 NOR  HZ EP       1610 28.52                             119    0.55 8  233 235 
 NOR  HE ES       1610 56.01                             119    0.28 8  233 235 
 NOR  HZ I        1611  4.52         5.0 0.20            119            233 235 
 CHI  HZ EP       1610 29.76                             117   -0.10 8  247 195 
 CHI  HE ES       1610 59.43                             117    0.34 8  247 195 
 CHI  HZ I        1611  4.54         3.9 0.37            119            247 195 
 URE  HZ I        1611 12.35         4.8 0.18            114            285 292 
 GUY2CHZ EP   2   1610 35.10                             112   -0.75 4  300 235 
 GUY2CHN ES       1611 10.63                             112    0.88 7  300 235 
 GUY2CHZ I        1611 19.40         2.6 0.34                           300 235 
 SOCV BZ EP       1610 34.73                             112   -0.84 7  303  57 
 SOCV BE ES   4   1611  6.95                             112   -2.31 0  303  57 
                                                                                
