 2012  418 1509 42.5 L   6.651 -73.241154.0  RSN  4 0.1 1.6LRSN                1
 GAP=181        0.42       5.7     6.6  4.4  0.3138E+02  0.1268E+01  0.4487E+00E
 Epicentro: BARICHARA - SANTANDER                                              3
 ACTION:UPD 12-07-05 11:54 OP:tino STATUS:               ID:20120418150942 L   I
 2012-04-18-1504-46M.COL___184                                                 6
 STAT SP IPHASW D HRMM SECON CODA AMPLIT PERI AZIMU VELO AIN AR TRES W  DIS CAZ7
 BAR2 SZ EP       1510  2.93                             176     0.010    9 135 
 BAR2 SZ ES   1   1510 18.68                             176    -0.2 7    9 135 
 BAR2 SZ I        1510 19.43         7.5 0.66                             9 135 
 BRR  HZ EP       1510  4.72                             153     0.110   72 314 
 BRR  HZ I        1510  8.41        11.1 0.29                            72 314 
 BRR  HE ES       1510 22.04                             153     0.110   72 314 
 RUS  HZ EP   1   1510  6.11                             150     0.0 7   86 168 
 RUS  HN ES   1   1510 24.66                             150     0.1 7   86 168 
 ZAR  HE ES   1   1510 40.62                             125    -0.2 6  201 298 
 ZAR  HZ I        1510 47.88         2.4 0.30                           201 298 
                                                                                
