 2013 1218 1824 12.2 L   7.528 -73.218122.6  RSN  4 0.4 1.7LRSN                1
 GAP=149        0.88       6.0     5.8 12.0 -0.1123E+02  0.5094E+02 -0.3606E+02E
 Epicentro: EL PLAYON - SANTANDER                                              3
 ACTION:UPD 14-01-13 10:19 OP:ep   STATUS:               ID:20131218182412 L   I
 OLDACT:REG 13-12-18 15:48 OP:nd   STATUS:               ID:20131218182000     3
 2013-12-18-1820-00M.COL___285                                                 6
 STAT SP IPHASW D HRMM SECON CODA AMPLIT PERI AZIMU VELO AIN AR TRES W  DIS CAZ7
 PAM  SZ EP       1824 31.22                             152    0.2110 60.9 110 
 PAM  SZ ES       1824 45.66                             152   -0.0010 60.9 110 
 PAM  SN ES       1824 46.29                             152           60.9 110 
 PAM  SZ I        1824 47.90         8.3 0.22            160           60.9 110 
 PTB  HZ EP       1824 39.82                             121   -0.39 9  175 231 
 PTB  HN ES       1825  1.68                             121   -0.34 9  175 231 
 PTB  HZ I        1825  6.48         2.9 0.14            122            175 231 
 ZAR  HN EP       1824 41.49                             120    0.67 9  181 269 
 ZAR  HE ES   2   1825  3.87                             120    0.76 4  181 269 
 ZAR  HN I        1825 10.89        14.6 0.36            119            181 269 
 SJC  HZ EP       1824 58.68                             105   -0.16 7  339 321 
 SJC  HZ I        1825 20.60         1.8 0.76            104            339 321 
 SJC  HN ES       1825 34.65                             105   -0.54 7  339 321 
                                                                                
