 2015  818 1810 43.6 L   6.811 -73.132145.9  RSN 18 0.5 2.7LRSN                1
 GAP= 71        1.03       2.5     2.9  4.8 -0.1232E+00  0.5481E+01  0.2054E+01E
 Epicentro: LOS SANTOS - SANTANDER                                             3
 ACTION:UPD 15-09-15 23:03 OP:cam  STATUS:               ID:20150818181043 L   I
 OLDACT:REG 15-08-18 21:09 OP:ar   STATUS:               ID:20150818180749     3
 2015-08-18-1807-49M.COL___333                                                 6
 STAT SP IPHASW D HRMM SECON CODA AMPLIT PERI AZIMU VELO AIN AR TRES W  DIS CAZ7
 BAR2 EZ EP       1811  2.98                             170   -0.2410 24.9 193 
 BAR2 EZ ES       1811 18.10                             170   -0.4710 24.9 193 
 BAR2 EZ I        1811 20.62       127.6 0.30            169           24.9 193 
 BRR  HZ IP     C 1811  4.84                             152    0.0910 72.0 297 
 BRR  HN ES       1811 22.20                             152    0.9110 72.0 297 
 BRR  HZ I        1811 24.46        57.4 0.40            151           72.0 297 
 PAM  EZ IP     C 1811  5.75                             151    0.0910 75.4  39 
 PAM  EN ES       1811 22.86                             151   -0.0510 75.4  39 
 PAM  EZ I        1811 24.98        65.0 0.20            151           75.4  39 
 RUS  HZ EP       1811  6.88                             143   -0.5110  102 177 
 RUS  HE ES       1811 25.63                             143   -0.3610  102 177 
 RUS  HZ I        1811 26.75        44.5 0.40            142            102 177 
 TAM  HZ EP       1811 11.17                             131    0.04 9  154 106 
 TAM  HZ I        1811 31.90        40.8 0.40            129            154 106 
 TAM  HN ES       1811 32.85                             131    0.21 9  154 106 
 OCA  HZ EP       1811 11.51                             130   -0.26 9  159 353 
 OCA  HE ES       1811 34.32                             130    0.54 9  159 353 
 OCA  HZ I        1811 39.41       135.2 0.28            129            159 353 
 ZAR  HZ EP       1811 16.14                             122    0.04 9  205 292 
 ZAR  HE ES       1811 41.06                             122   -0.43 9  205 292 
 ZAR  HZ I        1811 51.77        55.0 0.36            121            205 292 
 NOR  HZ EP       1811 19.22                             118   -0.28 8  237 234 
 NOR  HN ES       1811 47.24                             118   -0.30 8  237 234 
 NOR  HZ I        1811 50.56        49.2 0.36            117            237 234 
 SML  HZ EP       1811 19.90                             117   -0.23 8  243 335 
 SML  HN ES       1811 48.62                             117   -0.04 8  243 335 
 CHI  HZ EP       1811 21.08                             117   -0.35 8  250 195 
 CHI  HN ES       1811 51.37                             117    0.40 8  250 195 
 CHI  HZ I        1812  0.02        21.0 0.74            115            250 195 
 ROSC BZ EP       1811 22.71                             116    0.83 8  255 211 
 ROSC BE ES   4   1811 53.44                             116    1.67 0  255 211 
 ROSC BZ I        1812  0.60        55.0 0.45            115            255 211 
 HEL  HZ EP       1811 24.45                             115    0.48 8  274 256 
 HEL  HE ES   1   1811 54.62                             115   -0.87 6  274 256 
 HEL  HZ I        1812  1.57        22.6 0.36            113            274 256 
 URE  HZ EP   2   1811 22.94                             113   -1.79 4  285 292 
 URE  HN ES   4   1811 54.50                             113   -2.36 0  285 292 
 URE  HZ I        1812  4.81        29.0 0.24            112            285 292 
 GUY2CHZ EP       1811 27.88                             112    0.49 7  303 235 
 GUY2CHN ES   2   1812  2.54                             112    0.96 4  303 235 
 GUY2CHZ I        1812  9.64        34.6 0.26                           303 235 
 CBOC HZ EP       1811 31.39                             110    0.71 7  335 252 
 CBOC HN ES       1812  7.75                             110    0.31 7  335 252 
 CBOC HZ I        1812 16.59        14.4 0.84            109            335 252 
 DBB  SZ EP       1811 30.61                             109   -0.59 7  341 274 
 DBB  SZ ES       1812  7.65                             109   -0.71 7  341 274 
 DBB  SZ I        1812  9.50        65.5 0.48            108            341 274 
 TOL  SZ EP       1811 32.44                             109    0.40 6  345 225 
 TOL  SN ES       1812 10.18                             109    0.32 6  345 225 
 TOL  SZ I        1812 15.36        19.5 0.26            108            345 225 
 ORTC HZ EP       1811 37.28                             106   -0.42 6  397 216 
 ORTC HN ES       1812 20.59                             106    0.66 6  397 216 
 ORTC HZ I        1812 26.52        21.1 0.38            105            397 216 
 CRJC HZ EP   4   1811 43.23                             103   -2.66 0  466   3 
 CRJC HN ES   4   1812 31.63                             103   -2.89 0  466   3 
                                                                                
