 2013  218 1856 56.3 L   6.780 -73.165142.3  RSN  4 0.2 1.7LRSN                1
 GAP=140        0.41       2.2     2.4  4.0 -0.1515E+01  0.1664E+01  0.1830E+01E
 Epicentro: LOS SANTOS - SANTANDER                                             3
 ACTION:UPD 13-03-12 09:34 OP:ep   STATUS:               ID:20130218185656 L   I
 2013-02-18-1850-00M.COL___241                                                 6
 STAT SP IPHASW D HRMM SECON CODA AMPLIT PERI AZIMU VELO AIN AR TRES W  DIS CAZ7
 PAM  SZ EP       1857 18.30                             149   -0.0810 80.5  40 
 PAM  SN ES       1857 35.50                             149   -0.0710 80.5  40 
 PAM  SN I        1857 36.66         7.0 0.68            151           80.5  40 
 RUS  HZ EP       1857 19.66                             144    0.0610 98.5 175 
 RUS  HN ES       1857 37.89                             144    0.1510 98.5 175 
 RUS  HN I        1857 39.82        13.0 0.32            143           98.5 175 
 PTB  HZ EP   1   1857 23.03                             132    0.23 7  145 260 
 PTB  HN ES       1857 43.41                             132   -0.03 9  145 260 
 CHI  HZ EP       1857 33.53                             117   -0.02 8  246 195 
 CHI  HN ES   1   1858  2.16                             117   -0.41 6  246 195 
 CHI  HN I        1858  7.10         4.1 0.52            117            246 195 
                                                                                
