 2015  518 1628 15.1 L   6.802 -73.147142.8  RSN 12 0.5 2.0LRSN                1
 GAP=136        1.23       3.5     4.9  6.8 -0.1948E+01  0.1297E+02  0.7696E+00E
 Epicentro: LOS SANTOS - SANTANDER                                             3
 ACTION:UPD 15-09-10 22:05 OP:cam  STATUS:               ID:20150518162815 L   I
 OLDACT:DUP 15-05-19 00:32 OP:ak   STATUS:               ID:20150518161748d    3
 2015-05-18-1617-46M.COL___283                                                 6
 STAT SP IPHASW D HRMM SECON CODA AMPLIT PERI AZIMU VELO AIN AR TRES W  DIS CAZ7
 BAR2 EZ EP       1628 34.37                             170   -0.0510 23.6 190 
 BAR2 EZ ES       1628 49.47                             170    0.0110 23.6 190 
 BAR2 EZ I        1628 50.70        26.7 0.22            168           23.6 190 
 BRR  HZ EP       1628 36.41                             152    0.4510 71.0 298 
 BRR  HN ES       1628 53.19                             152    0.9910 71.0 298 
 BRR  HZ I        1628 56.61        15.6 0.14            151           71.0 298 
 PAM  SZ IP     D 1628 37.50                             150    0.4710 77.2  40 
 PAM  SN ES       1628 54.08                             150   -0.0310 77.2  40 
 PAM  SZ I        1628 56.63        16.8 0.50            156           77.2  40 
 RUS  HZ EP       1628 38.57                             143   -0.0510  101 176 
 RUS  HN ES       1628 56.23                             143   -0.7110  101 176 
 RUS  HZ I        1628 58.24        11.5 0.26            145            101 176 
 SPBC HZ EP       1628 43.57                             128    0.14 9  163 219 
 SPBC HN ES       1629  5.23                             128   -0.26 9  163 219 
 SPBC HZ I        1629 10.07        18.9 0.14            129            163 219 
 ZAR  HZ EP       1628 48.10                             122    0.72 9  204 292 
 ZAR  HN ES       1629 11.92                             122   -0.60 9  204 292 
 ZAR  HZ I        1629 17.79        12.4 0.36            123            204 292 
 NOR  HZ EP       1628 50.67                             118   -0.04 8  235 234 
 NOR  HN ES       1629 18.69                             118    0.24 8  235 234 
 NOR  HZ I        1629 26.42         7.9 0.16            119            235 234 
 SML  HZ EP       1628 50.67                             117   -0.90 8  243 335 
 SML  HE ES       1629 19.04                             117   -0.95 8  243 335 
 CHI  HZ EP   1   1628 52.52                             117   -0.18 6  249 195 
 CHI  HN ES       1629 21.68                             117   -0.32 8  249 195 
 CHI  HZ I        1629 25.51        10.4 0.35            119            249 195 
 HEL  HZ EP   1   1628 55.52                             114    0.32 6  272 256 
 HEL  HN ES       1629 25.72                             114   -0.73 8  272 256 
 HEL  HZ I        1629 32.55         7.6 0.30            116            272 256 
 GUY2CHZ EP       1628 59.31                             112    0.69 7  301 235 
 GUY2CHN ES       1629 32.91                             112    0.38 7  301 235 
 GUY2CHZ I        1629 40.74         6.1 0.34                           301 235 
 MON  HN ES   4   1629 39.00                             108   -3.11 0  353 308 
 MON  HZ I        1629 42.43         2.6 0.35            110            353 308 
                                                                                
