 2011  918 1547 47.6 L   6.825 -73.079145.8  RSN  5 0.2 1.6LRSN                1
 GAP=205        0.32       4.7     5.7  4.8  0.1704E+02  0.2743E+01  0.1365E+01E
 Epicentro: LOS SANTOS - SANTANDER                                             3
 ACTION:UPD 12-07-13 15:58 OP:ep   STATUS:               ID:20110918154747 L   I
 2011-09-18-1544-03S.COL___163                                                 6
 STAT SP IPHASW D HRMM SECON CODA AMPLIT PERI AZIMU VELO AIN AR TRES W  DIS CAZ7
 BAR2 SZ EP   2   1548  7.43                             169    0.05 5 28.2 204 
 BAR2 SZ ES   2   1548 22.61                             169   -0.17 5 28.2 204 
 BAR2 SZ I        1548 24.14         7.9 0.18                          28.2 204 
 GIR2 SZ EP   2   1548  7.49                             167    0.18 5 30.7 336 
 GIR2 SZ ES   2   1548 22.49                             167   -0.15 5 30.7 336 
 BRR  HZ EP   2   1548  9.11                             151    0.00 5 76.6 294 
 BRR  HE ES   2   1548 26.07                             151    0.23 5 76.6 294 
 BRR  HZ I        1548 29.34        15.1 0.44                          76.6 294 
 RUS  HZ EP   2   1548 11.39                             143   -0.19 5  103 180 
 RUS  HE ES   2   1548 30.41                             143    0.16 5  103 180 
 RUS  HZ I        1548 31.75         3.5 0.48                           103 180 
 ZAR  HE ES   2   1548 46.32                             122   -0.15 4  210 291 
 ZAR  HZ I        1548 51.23         4.5 0.30                           210 291 
                                                                                
