 2012  818 1127 19.8 L   6.763 -73.148145.0  RSN  8 0.3 2.1LRSN                1
 GAP=138        0.64       3.5     3.2  5.1 -0.1695E+01  0.4651E+01  0.2919E+01E
 Epicentro: LOS SANTOS - SANTANDER                                             3
 ACTION:UPD 12-09-10 11:57 OP:ep   STATUS:               ID:20120818112719 L   I
 2012-08-18-1120-00M.COL___217                                                 6
 STAT SP IPHASW D HRMM SECON CODA AMPLIT PERI AZIMU VELO AIN AR TRES W  DIS CAZ7
 BAR2 SZ EP       1127 39.13                             172   -0.1110 19.3 191 
 BAR2 SZ ES   1   1127 54.13                             172   -0.30 7 19.3 191 
 BAR2 SZ I        1127 57.55        30.9 0.21                          19.3 191 
 BRR  HZ EP       1127 41.25                             152    0.3010 73.0 301 
 BRR  HE ES   1   1127 58.16                             152    0.70 7 73.0 301 
 BRR  HZ I        1128  0.59        24.3 0.17                          73.0 301 
 PAM  SZ EP       1127 42.10                             150   -0.0210 80.7  38 
 PAM  SZ I        1127 42.30        20.9 0.26                          80.7  38 
 PAM  SN ES       1127 59.34                             150   -0.2010 80.7  38 
 RUS  HZ EP       1127 43.21                             145    0.0410 96.5 176 
 RUS  HN ES   1   1128  1.70                             145    0.29 7 96.5 176 
 PTB  HZ EP   1   1127 46.22                             132   -0.38 7  147 260 
 PTB  HN ES   1   1128  7.02                             132   -0.49 7  147 260 
 ZAR  HN ES   1   1128 17.54                             122   -0.15 6  205 293 
 ZAR  HZ I        1128 23.74         9.0 0.18                           205 293 
 NOR  SZ EP   1   1127 55.18                             119   -0.01 6  232 235 
 NOR  SN ES   1   1128 22.82                             119    0.01 6  232 235 
 NOR  SZ I        1128 27.55        10.8 0.22                           232 235 
 HEL  HZ EP   1   1128  0.09                             115    0.27 6  271 257 
 HEL  HZ I        1128 36.87         4.6 0.37                           271 257 
                                                                                
