 2015  418 1236 38.7 L   6.783 -73.144149.1  RSN  9 0.4 1.8LRSN                1
 GAP=236        0.96       5.3     5.3  7.1  0.3310E+01  0.4033E+01  0.7126E+01E
 Epicentro: LOS SANTOS - SANTANDER                                             3
 ACTION:UPD 15-06-03 16:55 OP:cam  STATUS:               ID:20150418123638 L   I
 OLDACT:REG 15-04-18 20:50 OP:spq  STATUS:               ID:20150418122746     3
 2015-04-18-1227-46M.COL___266                                                 6
 STAT SP IPHASW D HRMM SECON CODA AMPLIT PERI AZIMU VELO AIN AR TRES W  DIS CAZ7
 BAR2 EZ EP       1236 58.58                             171   -0.1610 21.5 191 
 BAR2 EZ ES   1   1237 13.87                             171   -0.46 7 21.5 191 
 BAR2 EZ I        1237 15.29        24.4 0.16            168           21.5 191 
 BRR  HZ EP       1237  0.49                             153    0.1710 72.3 300 
 BRR  HN ES       1237 17.77                             153    0.6310 72.3 300 
 BRR  HZ I        1237 20.90        16.5 0.38            150           72.3 300 
 RUS  HZ EP       1237  2.55                             145   -0.1410 98.6 176 
 RUS  HN ES   1   1237 21.64                             145    0.28 7 98.6 176 
 RUS  HZ I        1237 22.94         4.1 0.21            147           98.6 176 
 PTB  HZ EP       1237  5.30                             133   -0.67 9  148 260 
 PTB  HN ES       1237 26.52                             133   -0.69 9  148 260 
 PTB  HZ I        1237 32.42         7.2 0.24            132            148 260 
 SPBC HZ EP       1237  7.54                             130    0.17 9  162 219 
 SPBC HN ES       1237 29.91                             130    0.21 9  162 219 
 SPBC HZ I        1237 34.97        12.3 0.22            130            162 219 
 ZAR  HN ES   1   1237 37.04                             123   -0.02 6  205 293 
 ZAR  HZ I        1237 45.35         5.8 0.24            123            205 293 
 NOR  HZ EP   1   1237 14.75                             119    0.18 6  234 235 
 NOR  HN ES       1237 42.81                             119    0.30 8  234 235 
 NOR  HZ I        1237 46.18         5.1 0.34            120            234 235 
 GUY2CHZ EP   1   1237 23.13                             113    0.73 5  300 235 
 GUY2CHE ES   4   1238  0.27                             113    3.81 0  300 235 
 GUY2CHZ I        1238 10.51         3.4 0.54                           300 235 
 MON  HN ES   4   1238  4.61                             109   -1.87 0  355 309 
 MON  HZ I        1238  5.88         1.3 0.30            111            355 309 
 SJC  HZ EP   4   1237 33.20                             106   -1.42 0  411 327 
                                                                                
