 2014  918 1827 59.7 L   6.770 -73.120132.3  RSN  4 0.1 1.5LRSN                1
 GAP=141        0.45       2.3     3.7  3.8 -0.1023E+01  0.3552E+00 -0.2272E+00E
 Epicentro: LOS SANTOS - SANTANDER                                             3
 ACTION:UPD 14-10-03 23:06 OP:nd   STATUS:               ID:20140918182759 L   I
 OLDACT:REG 14-09-18 22:25 OP:spq  STATUS:               ID:20140918181818     3
 2014-09-18-1818-18M.COL___287                                                 6
 STAT SP IPHASW D HRMM SECON CODA AMPLIT PERI AZIMU VELO AIN AR TRES W  DIS CAZ7
 BAR2 SZ ES       1828 31.63                             171   -0.0810 20.8 199 
 BAR2 SZ I        1828 33.57        15.4 0.05            142           20.8 199 
 BRR  HZ EP       1828 19.47                             149   -0.2410 75.3 300 
 BRR  HN ES   1   1828 35.51                             149    0.23 7 75.3 300 
 BRR  HZ I        1829  0.52         8.9 0.19            125           75.3 300 
 PAM  SZ EP       1828 20.59                             148   -0.0110 78.2  36 
 PAM  SN ES       1828 36.91                             148    0.0510 78.2  36 
 PAM  SZ I        1828 39.58         8.5 0.44            141           78.2  36 
 RUS  HZ EP       1828 22.13                             142    0.2010 97.1 178 
 RUS  HN ES       1828 39.18                             142   -0.0510 97.1 178 
 RUS  HZ I        1828 41.72         2.7 0.32            139           97.1 178 
                                                                                
