 2015  618 1700 33.7 L   7.499 -73.420106.9  RSN  5 0.3 1.9LRSN                1
 GAP=158        0.91       3.0     4.7  7.5  0.1822E+01  0.6569E+01 -0.4229E+01E
 Epicentro: SABANA DE TORRES - SANTANDER                                       3
 ACTION:UPD 15-09-10 22:13 OP:cam  STATUS:               ID:20150618170033 L   I
 OLDACT:REG 15-06-18 20:54 OP:stll STATUS:               ID:20150618165748     3
 2015-06-18-1657-48M.COL___307                                                 6
 STAT SP IPHASW D HRMM SECON CODA AMPLIT PERI AZIMU VELO AIN AR TRES W  DIS CAZ7
 BRR  HZ EP       17 0 49.96                             151    0.3310 54.0 217 
 BRR  HN ES       17 1  2.11                             151    0.0110 54.0 217 
 BRR  HZ I        17 1  3.61        13.9 0.26            152           54.0 217 
 OCA  HZ EP       17 0 52.51                             139    0.6710 82.5   8 
 OCA  HN ES       17 1  5.99                             139   -0.0410 82.5   8 
 OCA  HZ I        17 1  8.39        48.1 0.20            143           82.5   8 
 BAR2 EZ EP       17 0 53.82                             132    0.0710  104 165 
 BAR2 EZ ES       17 1  9.00                             132   -0.4310  104 165 
 BAR2 EZ I        17 1 12.73        12.4 0.16            135            104 165 
 ZAR  HZ EP       17 0 58.90                             119   -0.02 9  159 270 
 ZAR  HN ES       17 1 18.77                             119    0.14 9  159 270 
 ZAR  HZ I        17 1 21.57        14.8 0.16            122            159 270 
 SML  HZ EP       17 0 58.50                             119   -0.63 9  161 334 
 SML  HN ES       17 1 18.78                             119   -0.23 9  161 334 
                                                                                
