 2013 1018 1606  2.8 L   6.776 -73.175149.1  RSN  5 0.5 1.6LRSN                1
 GAP=134        1.20       6.7     6.4  9.6 -0.5499E+01  0.2701E+00  0.7298E+01E
 Epicentro: LOS SANTOS - SANTANDER                                             3
 ACTION:UPD 13-11-25 09:22 OP:ep   STATUS:               ID:20131018160602 L   I
 OLDACT:UP  13-10-18 16:57 OP:cam  STATUS:               ID:20131018155846     3
 OLDACT:REG 13-10-18 16:15 OP:cam  STATUS:               ID:20131018155846     3
 2013-10-18-1558-46M.COL___226                                                 6
 STAT SP IPHASW D HRMM SECON CODA AMPLIT PERI AZIMU VELO AIN AR TRES W  DIS CAZ7
 BAR2 SZ EP       16 6 22.78                             172    0.0410 20.3 182 
 BAR2 SZ ES       16 6 37.78                             172   -0.5410 20.3 182 
 BRR  HE ES       16 6 41.84                             153    0.9210 69.8 302 
 PAM  SZ EP       16 6 25.76                             150    0.1710 81.5  40 
 PAM  SN ES       16 6 42.97                             150   -0.4110 81.5  40 
 PAM  SZ I        16 6 45.10         8.7 0.24            151           81.5  40 
 RUS  HZ EP       16 6 26.74                             145    0.0610 98.2 174 
 RUS  HN ES       16 6 45.72                             145    0.3910 98.2 174 
 RUS  HZ I        16 6 46.77         4.9 0.44            146           98.2 174 
 PTB  HZ EP   1   16 6 29.47                             133   -0.21 7  144 260 
 PTB  HN ES       16 6 50.08                             133   -0.60 9  144 260 
 PTB  HZ I        16 6 52.52         7.2 0.10            134            144 260 
                                                                                
