 2014  318 1651 38.1 L   6.760 -73.147145.0  RSN  5 0.1 1.7LRSN                1
 GAP=138        0.40       2.1     1.9  3.4 -0.1046E+00  0.2565E+01 -0.1122E+01E
 Epicentro: LOS SANTOS - SANTANDER                                             3
 OLDACT:REG 14-03-18 15:23 OP:fm   STATUS:               ID:20140318164805     3
 OLDACT:UP  14-03-18 17:37 OP:fm   STATUS:               ID:20140318164805     3
 OLDACT:UP  14-03-18 17:36 OP:fm   STATUS:               ID:20140318164805     3
 ACTION:UPD 14-04-09 23:18 OP:nd   STATUS:               ID:20140318165138 L   I
 OLDACT:UP  14-03-18 17:52 OP:fm   STATUS:               ID:20140318164805     3
 2014-03-18-1648-05M.COL___238                                                 6
 STAT SP IPHASW D HRMM SECON CODA AMPLIT PERI AZIMU VELO AIN AR TRES W  DIS CAZ7
 BAR2 SZ ES   1   1652 12.97                             172    0.21 7 18.9 192 
 BAR2 SZ I        1652 14.12        23.6 0.38            171           18.9 192 
 PAM  SZ EP       1652  0.41                             149   -0.0710 81.0  38 
 PAM  SN ES       1652 17.86                             149   -0.0510 81.0  38 
 PAM  SZ I        1652 19.44        13.1 0.52            153           81.0  38 
 RUS  HZ EP       1652  1.73                             145    0.2410 96.2 176 
 RUS  HN ES       1652 19.55                             145   -0.1610 96.2 176 
 RUS  SZ I        1652 20.04         3.7 0.94            149           96.2 176 
 PTB  HZ EP       1652  4.87                             132   -0.07 9  147 261 
 PTB  HN ES       1652 25.77                             132   -0.09 9  147 261 
 PTB  SZ I        1652 32.50         5.4 0.44            132            147 261 
 ZAR  HZ EP       1652 10.65                             122   -0.03 8  206 293 
 ZAR  HN ES       1652 36.18                             122    0.11 8  206 293 
 ZAR  SZ I        1652 42.84         5.4 0.52            123            206 293 
                                                                                
