 2014 1118 1033 45.0 L   5.823 -73.898 95.4  RSN  4 0.3 1.1LRSN                1
 GAP=237        0.68      12.7     6.7 15.1  0.3606E+02  0.4377E+02 -0.7725E+02E
 Epicentro: ALBANIA - SANTANDER                                                3
 ACTION:UPD 14-12-19 15:44 OP:nd   STATUS:               ID:20141118103345 L   I
 OLDACT:ARG 14-11-18 23:39 OP:stll STATUS:               ID:20141118102746     3
 2014-11-18-1027-46M.COL___277                                                 6
 STAT SP IPHASW D HRMM SECON CODA AMPLIT PERI AZIMU VELO AIN AR TRES W  DIS CAZ7
 RUS  HZ EP       1034  3.47                             134    0.1410 90.5  85 
 RUS  HZ I        1034  3.69         4.0 0.20            144           90.5  85 
 RUS  HN ES       1034 17.64                             134    0.0310 90.5  85 
 PTB  HZ EP       1034  3.51                             130   -0.0910  100 322 
 PTB  HZ I        1034  7.93         3.1 0.38            132            100 322 
 BAR2 SZ EP       1034  5.01                             126   -0.4210  116  43 
 BRR  HZ EP       1034  8.32                             119    0.36 9  143   8 
                                                                                
