 2015  918 1722  8.0 L   6.770 -73.159142.0  RSN 11 0.5 2.0LRSN                1
 GAP=136        1.21       3.4     4.6  6.3 -0.1603E+01  0.8700E+01  0.1144E+01E
 Epicentro: LOS SANTOS - SANTANDER                                             3
 ACTION:UPD 15-10-28 16:27 OP:cam  STATUS:               ID:20150918172208 L   I
 OLDACT:DUP 15-09-18 23:44 OP:drio STATUS:               ID:20150918171749d    3
 2015-09-18-1717-48M.COL___352                                                 6
 STAT SP IPHASW D HRMM SECON CODA AMPLIT PERI AZIMU VELO AIN AR TRES W  DIS CAZ7
 BAR2 EZ EP       1722 27.31                             172    0.1710 19.8 187 
 BAR2 EZ ES       1722 42.13                             172    0.0810 19.8 187 
 BAR2 EZ I        1722 43.27        14.3 0.20            171           19.8 187 
 BRR  HZ EP       1722 29.31                             152    0.5110 71.6 301 
 BRR  HE ES       1722 45.35                             152    0.3610 71.6 301 
 PAM  EZ EP       1722 29.91                             149   -0.1610 81.0  39 
 PAM  EN ES       1722 47.12                             149   -0.1410 81.0  39 
 RUS  HZ EP       1722 31.35                             144    0.1710 97.3 175 
 RUS  HN ES       1722 49.05                             144   -0.1910 97.3 175 
 RUS  HZ I        1722 51.30         8.9 0.48            146           97.3 175 
 PTB  HZ EP       1722 34.04                             132   -0.46 9  146 260 
 PTB  HN ES       1722 54.75                             132   -0.40 9  146 260 
 PTB  HZ I        1722 57.65         8.3 0.20            131            146 260 
 SPBC HZ EP       1722 36.29                             129    0.39 9  160 219 
 SPBC HN ES       1722 56.74                             129   -0.90 9  160 219 
 SPBC HZ I        1723  3.07        14.8 0.10            129            160 219 
 ZAR  HZ EP       1722 41.01                             122    0.79 9  204 293 
 ZAR  HN ES       1723  6.12                             122    0.79 9  204 293 
 ZAR  HZ I        1723 12.21        17.4 0.32            122            204 293 
 NOR  HZ EP       1722 42.41                             118   -0.79 8  231 235 
 NOR  HE ES       1723 10.94                             118    0.31 8  231 235 
 CHI  HZ EP       1722 45.54                             117    0.42 8  245 195 
 CHI  HE ES       1723 14.62                             117    0.56 8  245 195 
 CHI  HZ I        1723 18.04         3.0 0.58            118            245 195 
 SML  HZ EP       1722 43.74                             116   -0.97 8  246 336 
 SML  HN ES       1723 12.86                             116   -0.47 8  246 336 
 SML  HZ I        1723 20.37        13.7 0.10            117            246 336 
 GUY2CHZ EP       1722 51.40                             112    0.29 7  298 235 
 GUY2CHN ES       1723 24.10                             112   -0.60 7  298 235 
 GUY2CHZ I        1723 32.29         5.4 0.30                           298 235 
                                                                                
