 2015 1218 1654 59.6 L   6.811 -73.133147.9  RSN  8 0.5 1.9LRSN                1
 GAP=138        1.11       4.5     5.4  7.9 -0.5887E+01  0.1200E+02  0.4566E+00E
 Epicentro: LOS SANTOS - SANTANDER                                             3
 ACTION:UPD 16-02-04 15:05 OP:cam  STATUS:               ID:20151218165459 L   I
 OLDACT:REG 15-12-18 20:52 OP:ar   STATUS:               ID:20151218164746     3
 2015-12-18-1647-46M.COL___334                                                 6
 STAT SP IPHASW D HRMM SECON CODA AMPLIT PERI AZIMU VELO AIN AR TRES W  DIS CAZ7
 BAR2 EZ EP       1655 19.45                             170   -0.0710 24.8 193 
 BAR2 EZ ES       1655 34.84                             170   -0.2210 24.8 193 
 BAR2 EZ I        1655 37.06        13.8 0.24            171           24.8 193 
 BRR  HZ EP       1655 21.61                             153    0.5910 71.9 297 
 BRR  HN ES       1655 38.60                             153    0.8710 71.9 297 
 BRR  HZ I        1655 41.91        17.1 0.40            150           71.9 297 
 PAM  EZ EP       1655 22.22                             152    0.2810 75.5  39 
 PAM  EN ES       1655 39.25                             152   -0.1110 75.5  39 
 PAM  EZ I        1655 41.20         6.7 0.48            153           75.5  39 
 RUS  HZ EP   2   1655 23.33                             144   -0.32 5  102 177 
 RUS  HN ES       1655 42.44                             144    0.0410  102 177 
 RUS  HZ I        1655 43.29         6.0 0.26            148            102 177 
 PTB  HZ EP   2   1655 27.47                             132    0.58 5  149 258 
 PTB  HN ES       1655 47.39                             132   -0.79 9  149 258 
 PTB  HZ I        1655 49.62         8.6 0.34            132            149 258 
 OCA  HN ES       1655 49.38                             130   -0.74 9  159 353 
 OCA  HZ I        1655 55.42        19.5 0.28            130            159 353 
 ZAR  HZ EP   2   1655 32.45                             123    0.18 4  205 292 
 ZAR  HE ES   2   1655 57.89                             123    0.13 4  205 292 
 ZAR  HZ I        1656  4.37         7.5 0.44            123            205 292 
 NOR  HZ EP       1655 35.20                             119   -0.45 8  237 234 
 NOR  HN ES       1656  3.94                             119    0.16 8  237 234 
 NOR  HZ I        1656  8.74         6.5 0.22            120            237 234 
                                                                                
