 2012  218 1509 55.9 L   6.798 -73.138143.1  RSN  6 0.2 1.9LRSN                1
 GAP=238        0.51       5.1     4.2  6.2  0.1107E+01  0.8421E+01 -0.9219E+01E
 ACTION:UP  12-03-07 16:31 OP:epov STATUS:               ID:20120218150955 L   I
 2012-02-18-1507-00S.MAN___181                                                 6
 STAT SP IPHASW D HRMM SECON CODA AMPLIT PERI AZIMU VELO AIN AR TRES W  DIS CAZ7
 BAR2 SZ EP   1   1510 15.20                             170    0.04 7 23.3 192 
 BAR2 SZ ES   1   1510 30.02                             170   -0.20 7 23.3 192 
 BAR2 SZ I        1510 30.87        13.8 0.42                          23.3 192 
 BRR  HZ EP   1   1510 17.12                             152    0.35 7 72.1 298 
 BRR  HZ I        1510 38.00        21.3 0.16                          72.1 298 
 RUS  HZ EP   1   1510 19.30                             143   -0.02 7  100 177 
 RUS  HN ES   1   1510 37.76                             143    0.13 7  100 177 
 RUS  HZ I        1510 39.41         8.9 0.20                           100 177 
 PTB  HZ EP   1   1510 22.12                             131   -0.56 7  149 259 
 PTB  HN ES   1   1510 43.67                             131    0.06 7  149 259 
 ZAR  HZ EP   2   1510 28.38                             122    0.16 4  205 292 
 ZAR  HZ I        1510 58.90         9.9 0.36                           205 292 
 NOR  SN ES   1   1510 59.43                             118    0.14 6  235 235 
                                                                                
