 2016 1118 1132 52.6 L   6.826 -73.149153.7  RSN  5 0.3 1.6LRSN                1
 GAP=147        0.66       7.6     4.6  5.3 -0.2042E+02  0.5693E+01 -0.4950E+01E
 Epicentro: LOS SANTOS - SANTANDER                                             3
 ACTION:UPD 17-10-26 21:09 OP:lp   STATUS:               ID:20161118113252 L   I
 OLDACT:UP  16-11-18 21:27 OP:edw  STATUS:               ID:20161118112745     3
 OLDACT:UP  16-11-18 21:25 OP:edw  STATUS:               ID:20161118112745     3
 OLDACT:REG 16-11-18 20:14 OP:edw  STATUS:               ID:20161118112745     3
 2016-11-18-1128-00M.COL___334                                                 6
 STAT SP IPHASW D HRMM SECON CODA AMPLIT PERI AZIMU VELO AIN AR TRES W  DIS CAZ7
 BAR2 EZ ES       1133 29.29                             170   -0.0310 26.1 188 
 BRR  HZ EP       1133 14.94                             154    0.4410 69.5 297 
 BRR  HE ES       1133 31.83                             154    0.2310 69.5 297 
 PAM  EZ EP       1133 15.54                             152    0.0110 75.5  41 
 PAM  HE ES       1133 33.19                             152   -0.2510 75.5  41 
 PTB  HZ EP       1133 20.15                             134   -0.07 9  148 258 
 PTB  HN ES       1133 41.44                             134   -0.34 9  148 258 
 PTB  HZ I        1133 44.14         4.7 0.28            133            148 258 
 CHI  HN ES   4   1133 59.86                             118   -1.13 0  251 195 
 SJC  HZ EP   2   1133 47.52                             107   -0.58 3  407 327 
 SJC  HN ES   4   1134 29.89                             107   -1.53 0  407 327 
                                                                                
