 2015  518 1023 13.2 L   6.879 -73.227115.0  RSN  4 0.3 1.2LRSN                1
 GAP=195        0.74       7.6    13.7  8.3  0.8936E+02 -0.5624E+02 -0.4163E+02E
 Epicentro: BETULIA - SANTANDER                                                3
 ACTION:UPD 15-09-10 22:05 OP:cam  STATUS:               ID:20150518102313 L   I
 OLDACT:REG 15-05-18 20:43 OP:ak   STATUS:               ID:20150518101736     3
 2015-05-18-1017-36M.COL___285                                                 6
 STAT SP IPHASW D HRMM SECON CODA AMPLIT PERI AZIMU VELO AIN AR TRES W  DIS CAZ7
 BAR2 EZ IP     C 1023 29.76                             163    0.3410 32.1 171 
 BAR2 EZ ES       1023 41.76                             163   -0.3010 32.1 171 
 BAR2 EZ I        1023 44.22         6.0 0.22            166           32.1 171 
 BRR  HZ EP       1023 30.05                             151   -0.3110 59.2 295 
 BRR  HE ES       1023 43.83                             151    0.1010 59.2 295 
 BRR  HZ I        1023 45.29         3.3 0.20            154           59.2 295 
 RUS  HE ES   1   1023 52.08                             133    0.24 7  110 172 
 RUS  HZ I        1023 53.25         1.4 0.20            136            110 172 
 SML  HZ EP   1   1023 46.48                             111   -0.50 6  232 336 
 SML  HN ES       1024 13.66                             111    0.34 8  232 336 
 SML  HZ I        1024 16.22         2.2 0.10            113            232 336 
                                                                                
