 2015  518 1138 51.3 L   6.677 -73.183142.9  RSN  4 0.2 1.4LRSN                1
 GAP=231        0.52       4.0     4.0  4.6  0.2968E+01  0.8801E+01  0.3246E+01E
 Epicentro: VILLANUEVA - SANTANDER                                             3
 ACTION:UPD 15-09-10 22:05 OP:cam  STATUS:               ID:20150518113851 L   I
 OLDACT:REG 15-05-18 20:51 OP:ak   STATUS:               ID:20150518113749     3
 2015-05-18-1137-49M.COL___287                                                 6
 STAT SP IPHASW D HRMM SECON CODA AMPLIT PERI AZIMU VELO AIN AR TRES W  DIS CAZ7
 BAR2 EZ EP       1139 10.49                             176    0.1110 9.35 180 
 BAR2 EZ ES       1139 24.98                             176   -0.2810 9.35 180 
 BAR2 EZ I        1139 27.74         3.8 0.26            175           9.35 180 
 BRR  HZ EP       1139 12.49                             150    0.1110 75.4 309 
 BRR  HN ES       1139 29.02                             150    0.1910 75.4 309 
 BRR  HZ I        1139 30.90         4.1 0.09            148           75.4 309 
 ZAR  HZ EP       1139 23.70                             121   -0.05 8  206 296 
 ZAR  HN ES       1139 48.86                             121   -0.20 8  206 296 
 ZAR  HZ I        1139 55.14         2.6 0.20            122            206 296 
 GUY2CHZ EP   2   1139 32.93                             112   -0.59 4  290 236 
 GUY2CHE ES       1140  6.70                             112    0.24 7  290 236 
 GUY2CHZ I        1140 17.67         2.9 0.56                           290 236 
                                                                                
