 2016 1018 1851 46.4 L   6.799 -73.149142.9  RSN  7 0.5 1.8LRSN                1
 GAP=136        1.19       5.1     5.6  7.5 -0.4684E+01  0.8792E+01  0.1112E+02E
 Epicentro: LOS SANTOS - SANTANDER                                             3
 ACTION:UPD 16-11-09 19:20 OP:rebc STATUS:               ID:20161018185146 L   I
 OLDACT:REG 16-10-18 22:38 OP:ar   STATUS:               ID:20161018184736     3
 2016-10-18-1848-00M.COL___332                                                 6
 STAT SP IPHASW D HRMM SECON CODA AMPLIT PERI AZIMU VELO AIN AR TRES W  DIS CAZ7
 BAR2 EZ EP       1852  5.47                             170   -0.2610 23.2 189 
 BAR2 EZ ES       1852 20.40                             170   -0.3710 23.2 189 
 BAR2 EZ I        1852 21.54        14.3 0.28            169           23.2 189 
 BRR  HZ EP       1852  7.44                             152    0.1710 71.0 299 
 BRR  HE ES       1852 24.36                             152    0.8410 71.0 299 
 BRR  HZ I        1852 25.94         9.9 0.18            152           71.0 299 
 PAM  EZ EP       1852  8.43                             150    0.0610 77.7  40 
 PAM  EN ES       1852 25.42                             150   -0.0610 77.7  40 
 PAM  EZ I        1852 27.61        17.0 0.52            154           77.7  40 
 RUS  HZ EP       1852 10.13                             143    0.2210  101 176 
 RUS  HN ES       1852 28.38                             143    0.1610  101 176 
 RUS  HZ I        1852 29.28         8.5 0.26            144            101 176 
 PTB  HZ EP       1852 12.29                             131   -0.86 9  147 259 
 PTB  HN ES       1852 33.22                             131   -0.76 9  147 259 
 PTB  HZ I        1852 38.97         6.5 0.32            132            147 259 
 CHI  HZ EP       1852 23.80                             116   -0.17 8  248 195 
 CHI  HN ES       1852 53.27                             116    0.03 8  248 195 
 CHI  HZ I        1853  0.01         4.0 0.66            117            248 195 
 GUY2CHZ EP       1852 30.58                             112    0.69 7  301 235 
 GUY2CHN ES       1853  4.52                             112    0.75 7  301 235 
 GUY2CHZ I        1853  9.70         2.6 0.38                           301 235 
                                                                                
