 2012  318 1724  2.4 L   6.780 -73.153143.9  RSN  8 0.4 2.3LRSN                1
 GAP=136        0.97       5.4     5.2  7.8 -0.3137E+01  0.1116E+02 -0.2755E+01E
 ACTION:UP  12-03-31 23:20 OP:EP   STATUS:               ID:20120318172402 L   I
 2012-03-18-1720-00M.COL___202                                                 6
 STAT SP IPHASW D HRMM SECON CODA AMPLIT PERI AZIMU VELO SNR AR TRES W  DIS CAZ7
 BAR2 SZ EP       1724 22.03                             171     0.210   21 189 
 BAR2 SZ ES   1   1724 36.85                             171    -0.1 7   21 189 
 BAR2 SZ I        1724 38.25        56.7 0.25                            21 189 
 BRR  HZ EP   1   1724 23.63                             152     0.2 7   72 300 
 BRR  HN ES   1   1724 40.63                             152     0.9 7   72 300 
 BRR  HZ I        1724 41.86        43.2 0.18                            72 300 
 PAM  SZ EP   1   1724 24.64                             150     0.0 7   80  39 
 PAM  SN ES   1   1724 41.29                             150    -0.6 7   80  39 
 RUS  HZ EP   1   1724 26.07                             144     0.2 7   98 175 
 RUS  HN ES   1   1724 44.15                             144     0.0 7   98 175 
 RUS  HZ I        1724 46.38        18.0 0.34                            98 175 
 PTB  HZ EP   1   1724 28.47                             132    -0.7 7  146 260 
 PTB  HN ES   1   1724 49.27                             132    -0.7 7  146 260 
 PTB  HZ I        1724 51.68        14.3 0.29                           146 260 
 OCA  SZ EP   1   1724 30.44                             129    -0.4 7  162 354 
 ZAR  HZ EP   1   1724 35.22                             122     0.4 6  204 293 
 ZAR  HN ES   1   1725  0.08                             122     0.1 6  204 293 
 ZAR  HZ I        1725  6.36        26.3 0.61                           204 293 
 NOR  SZ EP   1   1724 38.24                             118     0.4 6  233 235 
 NOR  SN ES   1   1725  5.14                             118    -0.3 6  233 235 
                                                                                
