 2015  518 1149 37.0 L   6.740 -73.274143.7  RSN  7 0.6 1.6LRSN                1
 GAP=198        1.32       6.7     7.6  9.6  0.1723E+02  0.3195E+02  0.9999E+01E
 Epicentro: ZAPATOCA - SANTANDER                                               3
 ACTION:UPD 15-09-10 22:05 OP:cam  STATUS:               ID:20150518114937 L   I
 OLDACT:REG 15-05-18 20:52 OP:ak   STATUS:               ID:20150518114746     3
 2015-05-18-1147-46M.COL___280                                                 6
 STAT SP IPHASW D HRMM SECON CODA AMPLIT PERI AZIMU VELO AIN AR TRES W  DIS CAZ7
 BAR2 EZ EP       1149 56.03                             172   -0.2710 19.2 148 
 BAR2 EZ ES       1150 10.93                             172   -0.4310 19.2 148 
 BAR2 EZ I        1150 12.26         9.4 0.24            168           19.2 148 
 BRR  HZ EP       1149 57.71                             155    0.2210 63.2 310 
 BRR  HN ES       1150 14.25                             155    0.7810 63.2 310 
 BRR  HZ I        1150 16.73         7.0 0.23            150           63.2 310 
 RUS  HZ EP   1   1150  0.37                             144    0.15 7 96.0 167 
 RUS  HN ES       1150 17.73                             144   -0.6010 96.0 167 
 RUS  HZ I        1150 19.68         5.3 0.26            145           96.0 167 
 SPBC HZ EP       1150  4.73                             131    0.69 9  149 216 
 SPBC HN ES       1150 25.85                             131    0.73 9  149 216 
 SPBC HZ I        1150 30.96         5.9 0.08            129            149 216 
 ZAR  HZ EP   1   1150  8.29                             123    0.04 6  194 296 
 ZAR  HN ES       1150 31.82                             123   -0.81 9  194 296 
 ZAR  HZ I        1150 38.51         2.4 0.13            123            194 296 
 HEL  HZ EP   1   1150 15.90                             116    0.49 6  257 256 
 HEL  HN ES       1150 44.76                             116   -0.61 8  257 256 
 HEL  HZ I        1150 57.60         2.0 0.48            115            257 256 
 GUY2CHZ EP   1   1150 18.02                             113   -0.76 6  286 234 
 GUY2CHZ I        1151  2.23         2.4 0.32                           286 234 
                                                                                
