 2011 1118 1245 35.7 L   6.804 -73.148142.6  RSN 10 0.3 2.4LRSN                1
 GAP=113        0.62       2.5     3.3  4.6  0.6353E+00  0.3703E+01  0.2088E+01E
 Epicentro: LOS SANTOS - SANTANDER                                             3
 ACTION:UPD 12-07-13 16:11 OP:ep   STATUS:               ID:20111118124535 L   I
 2011-11-18-1242-23S.COL___179                                                 6
 STAT SP IPHASW D HRMM SECON CODA AMPLIT PERI AZIMU VELO AIN AR TRES W  DIS CAZ7
 BAR2 SZ IP       1245 54.96                             170   -0.0210 23.7 189 
 BAR2 SZ ES   1   1246  9.51                             170   -0.49 7 23.7 189 
 BAR2 SZ I        1246 11.23        69.2 0.38                          23.7 189 
 BRR  HZ EP   1   1245 56.82                             152    0.31 7 70.8 298 
 BRR  HN ES   1   1246 13.50                             152    0.78 7 70.8 298 
 BRR  HZ I        1246 14.47        98.2 0.08                          70.8 298 
 PAM  SZ EP   1   1245 57.73                             150    0.13 7 77.2  40 
 PAM  SE ES   1   1246 14.78                             150    0.12 7 77.2  40 
 RUS  HZ EP   1   1245 59.03                             143   -0.17 7  101 176 
 RUS  HZ I        1246  0.19        24.2 0.16                           101 176 
 RUS  HN ES   1   1246 17.18                             143   -0.32 7  101 176 
 OCA  SZ EP   1   1246  3.56                             129   -0.20 7  160 353 
 OCA  SZ ES   1   1246 25.28                             129   -0.33 7  160 353 
 OCA  SZ I        1246 29.94        35.8 0.36                           160 353 
 YOP  SZ EP   1   1246  5.79                             125    0.20 7  179 153 
 YOP  SN ES   2   1246 29.52                             125    0.64 4  179 153 
 YOP  SZ I        1246 31.95        17.6 0.32                           179 153 
 ZAR  HZ EP   1   1246  7.57                             122   -0.36 6  204 292 
 ZAR  HN ES   1   1246 32.88                             122   -0.17 6  204 292 
 ZAR  HZ I        1246 39.60        34.7 0.44                           204 292 
 NOR  SZ EP   1   1246 11.66                             118    0.38 6  235 234 
 NOR  SN ES   1   1246 38.91                             118   -0.10 6  235 234 
 CHI  HZ EP   1   1246 13.27                             116   -0.02 6  249 195 
 CHI  HZ I        1246 49.18         9.5 0.46                           249 195 
 RREF HZ EP   2   1246 21.61                             110   -0.13 3  322 229 
 RREF HN ES   2   1246 57.61                             110   -0.03 3  322 229 
                                                                                
