 2010  718 1933 17.3 L   6.863 -73.259121.1  RSN  4 0.1 1.7LRSN                1
 GAP=146        0.44       2.3     4.2  4.2  0.1726E+01 -0.5104E+01 -0.2609E+01E
 Epicentro: ZAPATOCA - SANTANDER                                               3
 ACTION:UPD 10-12-01 15:18 OP:pat  STATUS:               ID:20100718193317 L   I
 2010-07-18-1927-27S.COL___120                                                 6
 STAT SP IPHASW D HRMM SECON CODA AMPLIT PERI AZIMU VELO AIN AR TRES W  DIS CAZ7
 BAR2 SZ EP       1933 34.38                             165     0.210   31 165 
 BAR2 SZ ES       1933 47.26                             165    -0.110   31 165 
 BAR2 SZ I        1933 48.59        28.0 0.41                            31 165 
 BRR  HZ EP       1933 34.75                             153    -0.210   57 298 
 BRR  HN ES       1933 48.87                             153     0.110   57 298 
 BRR  HZ I        1933 49.88        13.9 0.53                            57 298 
 RUS  HZ EP   2   1933 39.40                             135     0.0 5  109 170 
 RUS  HN ES   1   1933 56.65                             135     0.0 7  109 170 
 GUE  SZ EP       1933 39.56                             134     0.010  113  19 
 GUE  SZ ES   1   1933 56.83                             134     0.0 7  113  19 
 GUE  SZ I        1933 57.67         4.7 0.14                           113  19 
                                                                                
