 2012 1118 1808 53.2 L   6.753 -73.154147.1  RSN  6 0.5 1.7LRSN                1
 GAP=138        1.26       6.5     6.5  8.5 -0.4104E+01  0.7256E+01  0.8058E+01E
 Epicentro: LOS SANTOS - SANTANDER                                             3
 ACTION:UPD 12-12-05 15:34 OP:}ep  STATUS:               ID:20121118180853 L   I
 2012-11-18-1800-00M.COL___234                                                 6
 STAT SP IPHASW D HRMM SECON CODA AMPLIT PERI AZIMU VELO AIN AR TRES W  DIS CAZ7
 BAR2 SZ EP       18 9 12.74                             173   -0.1310 18.1 190 
 BAR2 SZ ES       18 9 28.70                             173    0.4710 18.1 190 
 BAR2 SZ I        18 9 29.70        10.1 0.26                          18.1 190 
 GIR2 SZ ES       18 9 28.23                             165   -0.5010 36.2 353 
 BRR  HZ EP       18 9 15.06                             152    0.4910 73.0 302 
 BRR  HN ES       18 9 32.08                             152    0.8210 73.0 302 
 BRR  HN I        18 9 32.79        15.6 0.20                          73.0 302 
 PAM  SZ EP       18 9 16.11                             150    0.3010 82.0  38 
 PAM  SN ES       18 9 32.85                             150   -0.6110 82.0  38 
 RUS  HZ EP       18 9 16.62                             145   -0.0810 95.5 175 
 RUS  HN ES       18 9 35.12                             145    0.0710 95.5 175 
 RUS  HN I        18 9 36.70         7.2 0.28                          95.5 175 
 PTB  HZ EP       18 9 19.94                             133   -0.15 9  146 261 
 PTB  HN ES       18 9 40.29                             133   -0.79 9  146 261 
 PTB  HN I        18 9 44.57         4.5 0.22                           146 261 
                                                                                
