 2015  518 1035  5.9 L   6.818 -73.098135.4  RSN 18 0.5 2.4LRSN                1
 GAP=129        1.01       2.2     3.6  5.2 -0.2503E+01  0.3314E+01 -0.1268E+01E
 Epicentro: LOS SANTOS - SANTANDER                                             3
 ACTION:UPD 15-09-10 22:05 OP:cam  STATUS:               ID:20150518103505 L   I
 OLDACT:DUP 15-05-18 21:35 OP:ak   STATUS:               ID:20150518102749d    3
 2015-05-18-1027-48M.COL___285                                                 6
 STAT SP IPHASW D HRMM SECON CODA AMPLIT PERI AZIMU VELO AIN AR TRES W  DIS CAZ7
 BAR2 EZ IP     C 1035 24.84                             168    0.5310 26.7 200 
 BAR2 EZ ES       1035 38.76                             168    0.0510 26.7 200 
 BAR2 EZ I        1035 40.98        57.8 0.20            168           26.7 200 
 BRR  HZ IP     D 1035 26.66                             150    0.5510 74.9 295 
 BRR  HZ I        1035 48.47        51.4 0.14            149           74.9 295 
 RUS  HZ EP       1035 28.98                             141    0.2510  102 179 
 RUS  HE ES       1035 47.04                             141    0.4610  102 179 
 RUS  HZ I        1035 49.09        30.4 0.38            144            102 179 
 OCA  HZ IP     D 1035 32.98                             128   -0.27 9  159 351 
 OCA  HN ES       1035 54.55                             128   -0.07 9  159 351 
 OCA  HZ I        1036  0.01        75.5 0.30            130            159 351 
 SPBC HZ EP       1035 34.37                             126    0.31 9  168 220 
 SPBC HN ES       1035 55.57                             126   -0.49 9  168 220 
 SPBC HZ I        1036  5.28        38.2 0.17            128            168 220 
 ZAR  HZ EP       1035 37.66                             120   -0.42 8  208 291 
 ZAR  HN ES       1036  3.44                             120    0.23 8  208 291 
 ZAR  HZ I        1036  5.52        31.7 0.13            121            208 291 
 NOR  HZ IP     C 1035 41.50                             116   -0.10 8  240 235 
 NOR  HN ES       1036  8.84                             116   -0.64 8  240 235 
 NOR  HZ I        1036 14.75        22.6 0.22            118            240 235 
 SML  HZ EP       1035 41.35                             115   -0.61 8  244 334 
 SML  HN ES       1036  9.66                             115   -0.46 8  244 334 
 SML  HZ I        1036 15.68        37.4 0.10            117            244 334 
 CHI  HZ IP       1035 43.38                             115    0.01 8  252 196 
 CHI  HZ EP   1   1035 43.38                             115    0.01 6  252 196 
 CHI  HE ES       1036 11.93                             115   -0.70 8  252 196 
 CHI  HZ I        1036 15.89        10.8 0.12            117            252 196 
 ROSC BZ EP       1035 43.75                             114   -0.17 8  257 212 
 ROSC BN ES       1036 12.81                             114   -0.81 8  257 212 
 ROSC BZ I        1036 21.67        16.9 0.40            116            257 212 
 HEL  HZ EP       1035 47.09                             112    0.91 7  278 256 
 HEL  HN ES       1036 17.15                             112   -0.49 7  278 256 
 HEL  HZ I        1036 24.10        10.5 0.44            114            278 256 
 LL2C HZ EP       1035 49.16                             110    0.34 7  305 353 
 LL2C HN ES       1036 22.87                             110    0.54 7  305 353 
 GUY2CHZ EP   1   1035 49.98                             110    0.36 5  307 235 
 GUY2CHE ES       1036 23.58                             110   -0.19 7  307 235 
 GUY2CHZ I        1036 32.39        10.0 0.40                           307 235 
 RREF HZ EP       1035 53.01                             109    0.83 7  327 230 
 RREF HN ES   1   1036 29.13                             109    0.82 5  327 230 
 RREF HZ I        1036 33.93         4.8 0.26            110            327 230 
 SDV  BZ EP       1035 54.65                             107   -0.25 6  355  50 
 SDV  BE ES       1036 32.21                             107   -0.94 6  355  50 
 SDV  BZ I        1036 36.52         5.9 0.72            109            355  50 
 ANIL HZ EP   1   1035 56.14                             106    0.26 5  362 225 
 ANIL HN ES       1036 34.58                             106   -0.31 6  362 225 
 ANIL HZ I        1036 40.00        27.0 0.30            108            362 225 
 ORTC HZ EP       1036  0.29                             104    0.29 6  400 217 
 ORTC HE ES       1036 42.43                             104    0.20 6  400 217 
 ORTC HZ I        1036 48.19         6.4 0.28            106            400 217 
 SJC  HZ EP   4   1035 59.29                             104   -1.94 0  410 326 
 SJC  HN ES   4   1036 40.34                             104   -4.08 0  410 326 
 SJC  HZ I        1036 44.32        12.1 0.48            106            410 326 
 CRJC HZ EP   4   1036  5.46                             102   -2.34 0  465   3 
 CRJC HN ES   4   1036 52.59                             102   -3.53 0  465   3 
                                                                                
