 2012 1218 1428 11.8 L   6.853 -73.325121.6  RSN  9 0.5 1.8LRSN                1
 GAP= 99        1.08       4.5     5.9  8.2 -0.1039E+01  0.1351E+02 -0.4175E+01E
 Epicentro: ZAPATOCA - SANTANDER                                               3
 ACTION:UPD 13-01-04 14:28 OP:ep   STATUS:               ID:20121218142811 L   I
 2012-12-18-1426-36M.COL___228                                                 6
 STAT SP IPHASW D HRMM SECON CODA AMPLIT PERI AZIMU VELO AIN AR TRES W  DIS CAZ7
 GIR2 SZ EP   1   1428 28.96                             166    0.43 8 28.9  30 
 GIR2 SZ ES   1   1428 41.29                             166   -0.30 8 28.9  30 
 GIR2 SZ I        1428 43.17        26.1 0.32                          28.9  30 
 BAR2 SZ EP   1   1428 29.28                             164    0.48 8 32.9 151 
 BAR2 SZ ES   1   1428 41.80                             164   -0.27 8 32.9 151 
 BAR2 SZ I        1428 43.57        59.1 0.26                          32.9 151 
 BRR  HZ EP   1   1428 29.78                             156    0.56 8 51.1 303 
 BRR  HE ES   1   1428 43.71                             156    0.90 8 51.1 303 
 BRR  HZ I        1428 44.59        19.5 0.14                          51.1 303 
 PAM  SZ EP   1   1428 32.82                             142    0.59 8 87.6  52 
 PAM  SE ES   1   1428 47.36                             142   -0.81 8 87.6  52 
 PAM  SZ I        1428 51.41         9.8 0.30                          87.6  52 
 RUS  HZ EP   1   1428 34.20                             135    0.20 8  110 166 
 RUS  HN ES   1   1428 51.32                             135    0.00 8  110 166 
 RUS  HZ I        1428 52.85         4.8 0.16                           110 166 
 PTB  HZ EP     C 1428 34.61                             130   -0.5610  130 255 
 PTB  HE ES   1   1428 52.96                             130   -0.44 7  130 255 
 OCA  HN ES   1   1428 57.37                             125   -0.42 7  153   0 
 ZAR  HN ES   4   1429  4.91                             119    1.90 0  183 293 
 ZAR  HZ I        1429  8.40         6.5 0.38                           183 293 
 SML  HZ EP   1   1428 44.97                             113   -0.74 6  231 339 
 SML  HN ES   1   1429 12.75                             113    0.59 6  231 339 
                                                                                
