 2017  718 1937  1.8 L   7.406 -73.155127.1  RSN  5 0.2 1.7LRSN                1
 GAP=264        0.58       4.3     4.0  8.9  0.8654E+01 -0.7636E+01 -0.1089E+02E
 Epicentro: EL PLAYON - SANTANDER                                              3
 ACTION:UPD 17-08-30 15:34 OP:rebc STATUS:               ID:20170718193701 L   I
 OLDACT:DUP 17-07-19 01:16 OP:lv   STATUS:               ID:20170718192739d    3
 2017-07-18-1928-00M.COL___374                                                 6
 STAT SP IPHASW D HRMM SECON CODA AMPLIT PERI AZIMU VELO AIN AR TRES W  DIS CAZ7
 RUS  HZ EP       1937 29.97                             124    0.0910  168 177 
 RUS  HN ES       1937 51.89                             124    0.0810  168 177 
 PTB  HZ EP       1937 29.61                             123   -0.1810  173 236 
 PTB  HE ES       1937 51.19                             123   -0.4510  173 236 
 PTB  HZ I        1937 54.32         4.8 0.10            118            173 236 
 ZAR  HZ EP       1937 31.43                             120    0.0510  188 273 
 ZAR  HN ES       1937 54.75                             120    0.2710  188 273 
 NOR  HZ EP       1937 41.20                             110   -0.22 8  278 223 
 NOR  HN ES       1938 12.72                             110    0.38 8  278 223 
 NOR  HZ I        1938 18.44         4.0 0.31            107            278 223 
 GUY2CHZ EP   4   1937 51.05                             106    1.54 0  343 226 
 GUY2CHN ES       1938 26.82                             106    0.07 7  343 226 
 GUY2CHZ I        1938 36.27         2.4 0.31                           343 226 
                                                                                
