 2014 1218 1755  4.5 L   6.803 -73.192142.4  RSN  4 0.1 1.4LRSN                1
 GAP=144        0.40       2.9     2.4  3.9 -0.2037E+01  0.1777E+01 -0.9088E+00E
 Epicentro: ZAPATOCA - SANTANDER                                               3
 ACTION:UPD 15-02-10 17:05 OP:nd   STATUS:               ID:20141218175504 L   I
 OLDACT:DUP 14-12-19 00:21 OP:spq  STATUS:               ID:20141218174750d    3
 OLDACT:REG 14-12-18 20:47 OP:spq  STATUS:               ID:20141218174748     3
 2014-12-18-1747-48M.COL___296                                                 6
 STAT SP IPHASW D HRMM SECON CODA AMPLIT PERI AZIMU VELO AIN AR TRES W  DIS CAZ7
 BAR2 EZ EP   1   1755 23.90                             170    0.15 7 23.3 177 
 BAR2 EZ ES   1   1755 38.96                             170    0.22 7 23.3 177 
 BAR2 EZ I        1755 40.49         6.2 0.22            172           23.3 177 
 PAM  SZ EP       1755 26.70                             149    0.1210 80.5  43 
 PAM  SN ES   1   1755 43.53                             149   -0.24 7 80.5  43 
 PAM  SZ I        1755 45.99         3.9 0.42            151           80.5  43 
 RUS  HZ EP       1755 28.00                             143   -0.0010  101 173 
 RUS  HN ES   1   1755 46.16                             143   -0.15 7  101 173 
 RUS  HZ I        1755 47.44         3.5 0.30            146            101 173 
 PTB  HZ EP       1755 30.65                             132   -0.11 9  143 258 
 PTB  HN ES       1755 51.22                             132   -0.01 9  143 258 
 PTB  HZ I        1755 53.91         4.9 0.14            134            143 258 
                                                                                
