 2017  118 1230 45.7 L   6.789 -73.202143.1  RSN  5 0.2 1.4LRSN                1
 GAP=130        0.47       2.5     2.1  4.0 -0.7737E-01  0.2541E+01 -0.8541E+00E
 Epicentro: ZAPATOCA - SANTANDER                                               3
 ACTION:UPD 17-05-22 16:01 OP:jn   STATUS:               ID:20170118123045 L   I
 OLDACT:REG 17-01-18 21:12 OP:cog  STATUS:               ID:20170118122747     3
 2017-01-18-1228-00M.COL___337                                                 6
 STAT SP IPHASW D HRMM SECON CODA AMPLIT PERI AZIMU VELO AIN AR TRES W  DIS CAZ7
 BAR2 EZ EP       1231  5.07                             171    0.0710 21.8 174 
 BAR2 EZ ES       1231 19.89                             171   -0.1410 21.8 174 
 BAR2 EZ I        1231 22.63         7.3 0.24            172           21.8 174 
 PAM  EZ EP       1231  7.94                             149   -0.0210 82.4  42 
 PAM  EE ES       1231 25.29                             149   -0.0210 82.4  42 
 PAM  EZ I        1231 26.98         5.1 0.56            151           82.4  42 
 RUS  HZ EP       1231  9.29                             143    0.1310 99.9 172 
 RUS  HN ES       1231 27.57                             143    0.1310 99.9 172 
 RUS  HZ I        1231 28.81         3.5 0.32            146           99.9 172 
 PTB  HZ EP       1231 11.57                             133   -0.33 9  141 259 
 PTB  HN ES       1231 32.25                             133   -0.06 9  141 259 
 PTB  HZ I        1231 34.06         1.9 0.14            135            141 259 
 ZAR  HN ES       1231 42.48                             122    0.28 9  199 293 
                                                                                
