 2014  118 1033 27.8 L   6.813 -73.170145.1  RSN  7 0.3 1.7LRSN                1
 GAP=133        0.76       2.6     3.7  5.0 -0.1850E+01  0.7049E+01 -0.8136E+00E
 Epicentro: LOS SANTOS - SANTANDER                                             3
 ACTION:UPD 14-03-13 09:56 OP:ep   STATUS:               ID:20140118103327 L   I
 OLDACT:REG 14-01-18 15:32 OP:carl STATUS:               ID:20140118103000     3
 2014-01-18-1030-00M.COL___285                                                 6
 STAT SP IPHASW D HRMM SECON CODA AMPLIT PERI AZIMU VELO AIN AR TRES W  DIS CAZ7
 BAR2 SZ EP       1033 47.39                             170   -0.0210 24.4 183 
 BAR2 SZ ES       1034  2.20                             170   -0.4810 24.4 183 
 BAR2 SZ I        1034  6.72         9.9 0.18            171           24.4 183 
 PAM  SZ EP       1033 50.23                             150    0.2110 78.0  42 
 PAM  SN ES       1034  7.75                             150    0.4210 78.0  42 
 PAM  SZ I        1034  9.78         9.5 0.46            153           78.0  42 
 RUS  HZ EP       1033 51.71                             143    0.0610  102 175 
 RUS  HN ES       1034  9.90                             143   -0.3210  102 175 
 RUS  HZ I        1034 11.17         4.1 0.28            146            102 175 
 PTB  HZ EP       1033 54.47                             132   -0.07 9  145 258 
 PTB  HN ES       1034 15.68                             132    0.31 9  145 258 
 PTB  HZ I        1034 17.40         6.9 0.16            133            145 258 
 NOR  HZ EP       1034  3.33                             118   -0.06 8  233 234 
 NOR  HE ES       1034 31.08                             118   -0.04 8  233 234 
 NOR  HZ I        1034 35.61         3.6 0.20            120            233 234 
 SML  HZ EP       1034  3.61                             117   -0.56 8  241 336 
 SML  HN ES       1034 32.57                             117    0.07 8  241 336 
 SML  HZ I        1034 37.38         9.1 0.10            119            241 336 
 CHI  HZ EP       1034  5.49                             117   -0.09 8  249 194 
 CHI  HN ES       1034 35.58                             117    0.57 8  249 194 
 CHI  HZ I        1034 38.95         1.4 0.22            119            249 194 
                                                                                
