 2012 1218 1558 23.0 L   5.835 -73.685117.7  RSN  7 0.2 1.4LRSN                1
 GAP= 98        0.41       2.0     2.1  4.6 -0.6536E+00  0.2020E+01  0.3134E+00E
 Epicentro: PUENTE NACIONAL - SANTANDER                                        3
 ACTION:UPD 13-01-04 14:28 OP:ep   STATUS:               ID:20121218155823 L   I
 2012-12-18-1556-36M.COL___228                                                 6
 STAT SP IPHASW D HRMM SECON CODA AMPLIT PERI AZIMU VELO AIN AR TRES W  DIS CAZ7
 RUS  HZ EP   1   1558 41.84                             149    0.18 7 67.0  84 
 RUS  HN ES   1   1558 56.17                             149   -0.02 7 67.0  84 
 RUS  HZ I        1558 57.56         3.4 0.34                          67.0  84 
 BAR2 SZ ES   1   1558 59.92                             137   -0.07 7  101  34 
 PTB  HN ES   1   1559  1.70                             132   -0.07 7  116 312 
 PTB  HZ I        1559  4.54         4.3 0.13                           116 312 
 CHI  HZ EP   1   1558 47.14                             128    0.14 7  133 182 
 CHI  HN ES   1   1559  5.51                             128   -0.17 7  133 182 
 CHI  HZ I        1559  8.81         2.4 0.38                           133 182 
 NOR  HZ EP   1   1558 46.26                             128   -0.37 7  135 257 
 NOR  HN ES   1   1559  5.33                             128    0.31 7  135 257 
 NOR  HZ I        1559  9.85         9.0 0.18                           135 257 
 BRR  HZ EP   1   1558 47.15                             126   -0.01 7  141 359 
 GIR2 SZ EP   1   1558 48.14                             125    0.07 7  148  22 
                                                                                
