 2014 1218 1223 42.3 L   6.827 -73.176141.8  RSN  6 0.3 1.5LRSN                1
 GAP=131        0.62       3.3     3.1  5.4 -0.2422E+01  0.4905E+01 -0.2327E+01E
 Epicentro: ZAPATOCA - SANTANDER                                               3
 ACTION:UPD 15-02-10 17:05 OP:nd   STATUS:               ID:20141218122342 L   I
 OLDACT:REG 14-12-18 20:15 OP:spq  STATUS:               ID:20141218121746     3
 2014-12-18-1217-46M.COL___292                                                 6
 STAT SP IPHASW D HRMM SECON CODA AMPLIT PERI AZIMU VELO AIN AR TRES W  DIS CAZ7
 BAR2 EZ EP       1224  1.51                             169   -0.0310 26.0 181 
 BAR2 EZ ES   1   1224 16.72                             169    0.19 7 26.0 181 
 BAR2 EZ I        1224 17.91         6.9 0.20            171           26.0 181 
 PAM  SZ EP       1224  4.38                             150    0.2610 77.3  43 
 PAM  SE ES   1   1224 20.88                             150   -0.24 7 77.3  43 
 PAM  SZ I        1224 22.85         3.3 0.40            153           77.3  43 
 RUS  HZ EP   1   1224  5.89                             142   -0.05 7  104 174 
 RUS  HE ES   1   1224 24.18                             142   -0.17 7  104 174 
 RUS  HZ I        1224 25.65         3.9 0.22            147            104 174 
 PTB  HZ EP       1224  8.20                             132   -0.53 9  145 257 
 PTB  HN ES       1224 29.11                             132   -0.21 9  145 257 
 PTB  HZ I        1224 31.82         3.9 0.16            132            145 257 
 SPBC HZ EP       1224 10.74                             128    0.18 9  163 217 
 SPBC HN ES       1224 32.80                             128    0.23 9  163 217 
 SPBC HZ I        1224 35.24         4.9 0.22            130            163 217 
 ZAR  HZ EP   1   1224 14.26                             122    0.18 6  200 292 
 ZAR  HE ES   1   1224 39.24                             122    0.40 6  200 292 
 ZAR  HZ I        1224 46.52         4.0 0.44            123            200 292 
                                                                                
