 2017  718 1535 32.6 L   6.745 -73.152140.0  RSN  8 0.4 1.8LRSN                1
 GAP=232        1.08       5.3     5.5  6.9  0.7312E+01  0.1412E+02  0.5320E+01E
 Epicentro: LOS SANTOS - SANTANDER                                             3
 ACTION:UPD 17-08-30 15:34 OP:rebc STATUS:               ID:20170718153532 L   I
 OLDACT:REG 17-07-18 20:37 OP:lv   STATUS:               ID:20170718152741     3
 2017-07-18-1528-00M.COL___386                                                 6
 STAT SP IPHASW D HRMM SECON CODA AMPLIT PERI AZIMU VELO AIN AR TRES W  DIS CAZ7
 BAR2 EZ EP       1535 51.10                             173   -0.3410 17.3 191 
 BAR2 EZ ES       1536  5.72                             173   -0.4010 17.3 191 
 BAR2 EZ I        1536  8.36         9.1 0.12            172           17.3 191 
 BRR  HZ EP       1535 53.14                             151   -0.1510 73.7 303 
 BRR  HE ES       1536 10.12                             151    0.7010 73.7 303 
 RUS  HZ EP       1535 55.55                             144    0.1810 94.6 175 
 RUS  HN ES       1536 13.49                             144    0.3710 94.6 175 
 PTB  HZ EP       1535 58.00                             131   -0.96 9  146 261 
 PTB  HN ES       1536 19.13                             131   -0.37 9  146 261 
 PTB  HZ I        1536 21.56         5.5 0.25            131            146 261 
 SPBC HN ES   3   1536 21.38                             129   -0.31 2  158 220 
 ZAR  HZ EP       1536  5.20                             121    0.33 8  206 294 
 ZAR  HE ES       1536 30.15                             121    0.12 8  206 294 
 ZAR  HZ I        1536 35.98        10.7 0.06            121            206 294 
 NOR  HZ EP       1536  7.73                             118    0.15 8  231 236 
 NOR  HN ES       1536 35.09                             118    0.24 8  231 236 
 NOR  HZ I        1536 37.61        10.8 0.05            119            231 236 
 GUY2CHZ EP       1536 16.23                             112    0.72 7  297 236 
 GUY2CHN ES       1536 48.69                             112   -0.27 7  297 236 
 GUY2CHZ I        1536 55.41         2.3 0.18                           297 236 
                                                                                
