 2015  618 1637  5.8 L   6.815 -73.176143.1  RSN 13 0.6 2.4LRSN                1
 GAP=180        1.46       4.3     6.6  8.3 -0.6202E+01  0.1207E+02  0.7126E+01E
 Epicentro: ZAPATOCA - SANTANDER                                               3
 ACTION:UPD 15-09-10 22:13 OP:cam  STATUS:               ID:20150618163705 L   I
 OLDACT:REG 15-06-18 20:52 OP:stll STATUS:               ID:20150618162748     3
 2015-06-18-1627-48M.COL___306                                                 6
 STAT SP IPHASW D HRMM SECON CODA AMPLIT PERI AZIMU VELO AIN AR TRES W  DIS CAZ7
 BAR2 EZ IP     D 1637 25.12                             170    0.0010 24.6 182 
 BAR2 EZ I        1637 25.44        67.2 0.10            168           24.6 182 
 BAR2 EZ ES       1637 40.23                             170    0.0310 24.6 182 
 BRR  HZ IP     D 1637 27.00                             154    0.5610 67.5 299 
 BRR  HN ES       1637 43.08                             154    0.5310 67.5 299 
 BRR  HZ I        1637 47.86        30.5 0.30            151           67.5 299 
 RUS  HZ EP       1637 28.80                             143   -0.6110  102 174 
 RUS  HZ I        1637 30.17        15.6 0.56            145            102 174 
 OCA  HZ EP       1637 34.61                             129    0.91 9  158 354 
 OCA  HN ES       1637 55.04                             129   -0.43 9  158 354 
 OCA  HZ I        1638  0.21        34.6 0.24            132            158 354 
 ZAR  HZ EP       1637 37.52                             122   -0.15 9  200 292 
 ZAR  HN ES       1638  3.11                             122    0.56 9  200 292 
 ZAR  HZ I        1638  8.94        24.0 0.30            123            200 292 
 NOR  HZ EP       1637 41.31                             118    0.14 8  233 234 
 NOR  HE ES       1638  7.97                             118   -0.81 8  233 234 
 NOR  HZ I        1638 16.96        15.5 0.16            119            233 234 
 SML  HZ EP       1637 41.49                             117   -0.46 8  241 336 
 SML  HE ES       1638  8.78                             117   -1.38 8  241 336 
 HEL  HZ EP       1637 46.54                             114    0.99 8  269 255 
 HEL  HN ES       1638 16.17                             114   -0.40 8  269 255 
 HEL  HZ I        1638 23.37         9.9 0.58            115            269 255 
 GUY2CHZ EP       1637 49.11                             112    0.04 7  299 234 
 GUY2CHN ES       1638 22.84                             112    0.01 7  299 234 
 GUY2CHZ I        1638 31.61        15.6 0.48                           299 234 
 TOL  SZ EP       1637 54.58                             109    0.78 7  342 224 
 TOL  SN ES       1638 32.00                             109    0.75 7  342 224 
 MON  HZ EP   9   1637 52.55                             108   -1.71 0  350 309 
 MON  HE ES       1638 28.69                                   -1.68 6  350 309 
 ANIL HN ES       1638 33.63                             108   -0.39 6  356 224 
 ANIL HZ I        1638 46.06        20.5 0.44            109            356 224 
 PRA  HZ EP       1637 58.68                             106   -0.51 6  392 209 
 PRA  HE ES       1638 39.96                             106   -0.88 6  392 209 
 PRA  HZ I        1638 45.89         6.4 0.26            108            392 209 
                                                                                
