 2014  318 1240  2.1 L   6.762 -73.101147.5  RSN  6 0.4 1.8LRSN                1
 GAP=144        0.79       4.2     4.6  7.1 -0.1413E+01  0.1894E+02 -0.2491E+01E
 Epicentro: LOS SANTOS - SANTANDER                                             3
 OLDACT:REG 14-03-18 15:05 OP:fm   STATUS:               ID:20140318123806     3
 ACTION:UPD 14-04-09 23:18 OP:nd   STATUS:               ID:20140318124002 L   I
 OLDACT:UP  14-03-18 18:50 OP:fm   STATUS:               ID:20140318123806     3
 2014-03-18-1238-06M.COL___229                                                 6
 STAT SP IPHASW D HRMM SECON CODA AMPLIT PERI AZIMU VELO AIN AR TRES W  DIS CAZ7
 BAR2 SZ EP       1240 21.81                             172   -0.1210 20.8 206 
 BAR2 SZ ES       1240 37.48                             172    0.1110 20.8 206 
 BAR2 SZ I        1240 39.71        23.3 0.28            165           20.8 206 
 PAM  SN ES       1240 42.15                             151    0.1010 77.7  35 
 RUS  HZ EP   1   1240 25.59                             145   -0.16 7 96.1 179 
 RUS  HN ES       1240 44.13                             145   -0.0310 96.1 179 
 RUS  SZ I        1240 58.26         5.0 1.42            144           96.1 179 
 PTB  HZ EP       1240 29.34                             132   -0.28 9  152 261 
 PTB  HN ES   1   1240 50.18                             132   -0.88 7  152 261 
 PTB  SZ I        1240 54.24         5.2 0.26            133            152 261 
 ZAR  HZ EP       1240 35.55                             122    0.21 8  210 293 
 ZAR  HN ES       1241  1.39                             122    0.16 8  210 293 
 ZAR  SZ I        1241  6.72         7.0 0.32            126            210 293 
 NOR  HN ES       1241  6.91                             119    0.67 8  236 236 
                                                                                
