 2014  718 1724  4.6 L   7.473 -73.305116.0  RSN 21 0.5 2.8LRSN                1
 GAP= 73        1.15       2.6     3.1  5.1 -0.4390E+00  0.4563E+01  0.2646E+01E
 Epicentro: EL PLAYON - SANTANDER                                              3
 ACTION:UPD 15-03-16 20:45 OP:nd   STATUS:               ID:20140718172404 L   I
 OLDACT:REG 14-07-18 22:01 OP:stll STATUS:               ID:20140718171819     3
 2014-07-18-1718-19M.COL___272                                                 6
 STAT SP IPHASW D HRMM SECON CODA AMPLIT PERI AZIMU VELO AIN AR TRES W  DIS CAZ7
 BRR  HZ IP     D 1724 22.24                             151    0.3110 60.5 228 
 BRR  HN ES       1724 35.81                             151    0.3610 60.5 228 
 BRR  HZ I        1724 36.79       170.1 0.14            145           60.5 228 
 PAM  SZ EP       1724 22.93                             148   -0.2010 68.4 102 
 PAM  SN ES       1724 38.05                             148    0.4610 68.4 102 
 PAM  SZ I        1724 40.24       108.6 0.50            149           68.4 102 
 OCA  HZ IP     D 1724 24.06                             141    0.2410 84.7 359 
 OCA  HN ES       1724 39.18                             141    0.3710 84.7 359 
 OCA  HZ I        1724 41.80        73.4 0.24            139           84.7 359 
 BAR2 SZ IP     C 1724 25.18                             137    0.1710 98.3 172 
 BAR2 SZ ES       1724 40.76                             137   -0.1810 98.3 172 
 BAR2 SZ I        1724 42.22       422.7 0.20            134           98.3 172 
 PTB  HZ EP       1724 30.58                             121   -0.39 9  164 231 
 PTB  HN ES       1724 51.07                             121   -0.47 9  164 231 
 PTB  HZ I        1724 56.45        64.5 0.28            117            164 231 
 SML  HZ EP       1724 31.28                             120   -0.26 9  169 330 
 SML  HE ES       1724 51.82                             120   -0.73 9  169 330 
 SML  HZ I        1724 53.71       118.1 0.10            117            169 330 
 ZAR  HZ IP     C 1724 31.91                             120    0.15 9  171 271 
 ZAR  HE ES       1724 53.18                             120    0.23 9  171 271 
 RUS  HZ EP       1724 32.32                             119   -0.60 9  176 172 
 RUS  HE ES       1724 53.53                             119   -1.48 9  176 172 
 TAM  HZ EP       1724 35.43                             115    0.23 9  203 124 
 TAM  HZ I        1724 35.77        57.4 0.46            114            203 124 
 SPBC HZ EP       1724 36.71                             113   -0.30 8  218 203 
 SPBC HN ES       1725  2.18                             113   -0.11 8  218 203 
 SPBC HZ I        1725 10.94        61.1 0.20            110            218 203 
 URE  HZ EP       1724 39.35                             110   -0.88 8  248 277 
 NOR  HZ EP       1724 42.80                             108   -0.39 8  273 219 
 NOR  HE ES       1725 13.66                             108    0.37 8  273 219 
 NOR  HZ I        1725 20.84        48.5 0.26            105            273 219 
 HEL  HZ EP       1724 45.00                             107    0.16 7  284 240 
 HEL  HN ES       1725 16.37                             107    0.14 7  284 240 
 HEL  HZ I        1725 22.72        35.3 0.28            104            284 240 
 SOCV BZ EP       1724 44.65                             107    0.15 7  285  71 
 SOCV BN ES   4   1725 14.40                             107   -1.22 0  285  71 
 CHI  HZ EP       1724 49.71                             105    0.81 7  318 189 
 CHI  HN ES       1725 23.71                             105    0.26 7  318 189 
 CHI  HZ I        1725 30.25        15.0 0.46            103            318 189 
 DBB  SZ EP       1724 49.04                             104   -0.26 7  325 261 
 DBB  SZ I        1725 35.37        52.2 0.46            102            325 261 
 GUY2CHZ EP       1724 50.83                             104   -0.44 7  337 223 
 GUY2CHN ES       1725 27.41                             104   -0.26 7  337 223 
 GUY2CHZ I        1725 35.08        27.2 0.54                           337 223 
 CBOC HZ EP       1724 52.54                             103    0.35 6  348 239 
 RREF HZ EP       1724 55.40                             102    0.85 6  363 219 
 RREF HN ES       1725 33.93                             102    0.42 6  363 219 
 RREF HZ I        1725 41.80        20.9 0.44            100            363 219 
 TOL  SZ EP       1724 58.57                             101    1.25 6  390 215 
 TOL  SN ES       1725 38.69                             101    0.25 6  390 215 
 ORTC HZ EP       1725  5.41                              99    1.32 5  449 209 
 ORTC HN ES       1725 51.14                              99    0.65 5  449 209 
 ORTC HZ I        1726  2.13        16.1 0.48             96            449 209 
                                                                                
