 2014 1218 1720 10.1 L   6.739 -73.173141.6  RSN  5 0.3 1.4LRSN                1
 GAP=136        0.79       4.9     3.8  7.7  0.6371E+00  0.6306E+01 -0.3322E+01E
 Epicentro: VILLANUEVA - SANTANDER                                             3
 ACTION:UPD 15-02-10 17:05 OP:nd   STATUS:               ID:20141218172010 L   I
 OLDACT:REG 14-12-18 20:45 OP:spq  STATUS:               ID:20141218171747     3
 2014-12-18-1717-47M.COL___296                                                 6
 STAT SP IPHASW D HRMM SECON CODA AMPLIT PERI AZIMU VELO AIN AR TRES W  DIS CAZ7
 BAR2 EZ EP   1   1720 29.17                             173    0.07 7 16.3 184 
 BAR2 EZ ES   1   1720 44.39                             173    0.47 7 16.3 184 
 BAR2 EZ I        1720 46.02         6.8 0.24            175           16.3 184 
 PAM  SZ EP       1720 32.36                             148    0.0510 84.5  38 
 PAM  SE ES   1   1720 49.21                             148   -0.44 7 84.5  38 
 PAM  SZ I        1720 51.76         3.8 0.32            150           84.5  38 
 RUS  HZ EP       1720 33.27                             145    0.3010 94.1 174 
 RUS  HE ES   1   1720 50.66                             145   -0.16 7 94.1 174 
 RUS  HZ I        1720 52.91         3.1 0.32            149           94.1 174 
 PTB  HZ EP       1720 35.99                             132   -0.35 9  144 261 
 PTB  HN ES       1720 56.43                             132   -0.39 9  144 261 
 PTB  HZ I        1720 57.90         3.4 0.12            134            144 261 
 ZAR  HZ EP   4   1720 43.72                             121    1.46 0  204 294 
 ZAR  HN ES       1721  7.82                             121    0.47 9  204 294 
 ZAR  HZ I        1721 13.87         4.0 0.34            123            204 294 
                                                                                
