 2013  618 1642 29.2 L   6.820 -73.186140.0  RSN  4 0.1 1.6LRSN                1
 GAP=198        0.37       3.2     3.1  7.1  0.4215E+01 -0.4569E+01 -0.1487E+02E
 Epicentro: ZAPATOCA - SANTANDER                                               3
 ACTION:UPD 14-01-08 09:55 OP:ep   STATUS:               ID:20130618164229 L   I
 OLDACT:UP  13-06-18 18:12 OP:cam  STATUS:               ID:20130618163959     3
 OLDACT:REG 13-06-18 15:30 OP:cam  STATUS:               ID:20130618163959     3
 2013-06-18-1639-59M.COL___261                                                 6
 STAT SP IPHASW D HRMM SECON CODA AMPLIT PERI AZIMU VELO AIN AR TRES W  DIS CAZ7
 BAR2 SZ EP   1   1642 48.21                             169    0.07 8 25.1 179 
 RUS  HZ EP   1   1642 52.65                             142    0.11 7  103 174 
 RUS  HZ I        1642 53.39         3.6 0.10            145            103 174 
 RUS  HN ES       1643 10.72                             142   -0.0510  103 174 
 PTB  HZ EP   1   1642 55.02                             132   -0.28 7  144 258 
 PTB  HN ES       1643 15.78                             132    0.09 9  144 258 
 PTB  HZ I        1643 20.74         4.2 0.16            131            144 258 
 SML  HZ EP   2   1643  5.30                             117    0.25 4  240 336 
 SML  HE ES   1   1643 32.96                             117   -0.09 6  240 336 
 SML  HZ I        1643 36.50         6.1 0.34            117            240 336 
                                                                                
