 2011 1218 1613  8.9 L   6.780 -73.098141.0  RSN  5 0.2 1.8LRSN                1
 GAP=144        0.50       3.1     4.7  4.8 -0.3020E+00 -0.1536E+01  0.1152E+00E
 Epicentro: LOS SANTOS - SANTANDER                                             3
 ACTION:UPD 12-07-13 16:17 OP:ep   STATUS:               ID:20111218161308 L   I
 2011-12-18-1610-00M.COL___188                                                 6
 STAT SP IPHASW D HRMM SECON CODA AMPLIT PERI AZIMU VELO AIN AR TRES W  DIS CAZ7
 BAR2 SZ EP   1   1613 27.89                             170   -0.03 7 22.8 204 
 BAR2 SZ ES   1   1613 42.44                             170   -0.34 7 22.8 204 
 BAR2 SZ I        1613 44.21        31.1 0.24                          22.8 204 
 GIR2 SZ EP   1   1613 27.94                             165   -0.14 7 34.7 342 
 PAM  SZ EP       1613 30.73                             150    0.2310 75.9  35 
 PAM  SN ES   1   1613 47.31                             150   -0.05 7 75.9  35 
 BRR  HZ EP       1613 29.70                             150   -0.1510 76.9 298 
 BRR  HN ES   1   1613 46.48                             150    0.26 7 76.9 298 
 BRR  HZ I        1613 50.86        15.5 0.17                          76.9 298 
 RUS  HZ EP       1613 31.90                             143   -0.0810 98.1 179 
 RUS  HE ES   1   1613 50.30                             143    0.30 7 98.1 179 
 RUS  HZ I        1613 52.13         4.9 0.41                          98.1 179 
                                                                                
