 2012 1218 1631 14.1 L   6.763 -73.186136.3  RSN 10 0.4 2.0LRSN                1
 GAP=133        0.71       3.6     3.9  5.7 -0.1104E+01  0.8182E+01  0.2664E+01E
 Epicentro: VILLANUEVA - SANTANDER                                             3
 ACTION:UPD 13-01-04 14:28 OP:ep   STATUS:               ID:20121218163114 L   I
 2012-12-18-1630-00M.COL___242                                                 6
 STAT SP IPHASW D HRMM SECON CODA AMPLIT PERI AZIMU VELO AIN AR TRES W  DIS CAZ7
 BAR2 SZ EP   1   1631 32.50                             172    0.00 7 18.9 179 
 BAR2 SZ ES   1   1631 46.91                             172    0.06 7 18.9 179 
 BAR2 SZ I        1631 48.80        46.7 0.23                          18.9 179 
 GIR2 SZ EP   1   1631 32.56                             165   -0.19 7 34.9 359 
 GIR2 SZ ES   1   1631 47.27                             165   -0.03 7 34.9 359 
 GIR2 SZ I        1631 49.76        16.4 0.28                          34.9 359 
 BRR  HZ EP     C 1631 34.37                             151    0.2510 69.5 303 
 BRR  HN ES   4   1631 51.19                             151    1.44 0 69.5 303 
 BRR  HZ I        1631 55.37        28.4 0.20                          69.5 303 
 PAM  SZ EP   1   1631 35.29                             147   -0.40 7 83.4  40 
 PAM  SN ES   1   1631 52.33                             147   -0.21 7 83.4  40 
 PAM  SZ I        1631 54.78        12.1 0.22                          83.4  40 
 RUS  HZ EP   1   1631 36.48                             143   -0.17 7 96.9 173 
 RUS  HE ES   1   1631 54.83                             143    0.59 7 96.9 173 
 RUS  HZ I        1631 56.14        14.0 0.34                          96.9 173 
 PTB  HZ EP   1   1631 39.55                             131   -0.28 7  143 260 
 PTB  HN ES   1   1631 59.53                             131   -0.37 7  143 260 
 PTB  HZ I        1632  3.79        17.1 0.12                           143 260 
 ZAR  HN ES   1   1632 10.98                             121    0.67 6  202 294 
 ZAR  HZ I        1632 16.44        18.5 0.25                           202 294 
 NOR  HZ EP   1   1631 49.07                             117    0.43 6  229 235 
 NOR  HN ES   1   1632 14.81                             117   -0.77 6  229 235 
 NOR  HZ I        1632 23.39        10.5 0.18                           229 235 
 CHI  HZ EP   1   1631 50.95                             116    0.23 6  244 194 
 CHI  HZ I        1632 24.03         3.4 0.26                           244 194 
 SML  HN ES   2   1632 19.07                             115    0.32 4  246 337 
                                                                                
