 2013  118 1423 14.5 L   6.799 -73.144148.4  RSN  8 0.4 2.0LRSN                1
 GAP=137        0.82       4.1     4.3  6.2 -0.8176E+00  0.5336E+01  0.5750E+01E
 Epicentro: LOS SANTOS - SANTANDER                                             3
 ACTION:UPD 13-02-15 09:15 OP:ep   STATUS:               ID:20130118142314 L   I
 2013-01-18-1420-00M.COL___241                                                 6
 STAT SP IPHASW D HRMM SECON CODA AMPLIT PERI AZIMU VELO AIN AR TRES W  DIS CAZ7
 BAR2 SZ EP       1423 34.35                             171   -0.0610 23.2 190 
 BAR2 SZ ES   1   1423 50.18                             171    0.22 7 23.2 190 
 BAR2 SZ I        1423 50.71        46.0 0.18            168           23.2 190 
 BRR  HN ES   1   1423 53.42                             153    0.78 7 71.4 299 
 PAM  SZ EP       1423 37.17                             151    0.2110 77.4  39 
 PAM  SN ES   1   1423 54.30                             151   -0.21 7 77.4  39 
 PAM  SZ I        1423 56.63        12.3 0.60            155           77.4  39 
 RUS  HZ EP   1   1423 38.27                             144   -0.19 7  100 176 
 RUS  HN ES   1   1423 56.63                             144   -0.55 7  100 176 
 RUS  HZ I        1423 58.44        10.8 0.24            145            100 176 
 PTB  HZ EP   1   1423 41.15                             133   -0.51 7  148 259 
 PTB  HN ES   1   1424  2.11                             133   -0.76 7  148 259 
 PTB  HZ I        1424  7.13        10.6 0.20            131            148 259 
 ZAR  HZ EP   1   1423 46.88                             123   -0.22 6  204 292 
 ZAR  HN ES   1   1424 12.37                             123   -0.19 6  204 292 
 ZAR  HZ I        1424 21.03        12.0 0.32            122            204 292 
 NOR  HZ EP   1   1423 50.77                             119    0.42 6  235 235 
 NOR  HN ES   1   1424 18.88                             119    0.54 6  235 235 
 NOR  HZ I        1424 23.32        11.9 0.56            119            235 235 
 CHI  HZ EP       1423 52.49                             118    0.19 8  249 195 
 CHI  HN ES   1   1424 22.20                             118    0.39 6  249 195 
 CHI  HZ I        1424 27.55         4.4 0.40            118            249 195 
                                                                                
