 2014 1018 1425  6.1 L   6.750 -73.198145.2  RSN  5 0.4 1.9LRSN                1
 GAP=228        1.14       8.7     7.9  9.2  0.4290E+02  0.1141E+02  0.1677E+01E
 Epicentro: VILLANUEVA - SANTANDER                                             3
 ACTION:UPD 14-11-29 23:50 OP:nd   STATUS:               ID:20141018142506 L   I
 OLDACT:UP  14-10-18 23:50 OP:cam  STATUS:               ID:20141018141815     3
 OLDACT:UP  14-10-18 23:50 OP:cam  STATUS:               ID:20141018141815     3
 OLDACT:REG 14-10-18 20:56 OP:cam\ STATUS:               ID:20141018141815     3
 2014-10-18-1418-15M.COL___276                                                 6
 STAT SP IPHASW D HRMM SECON CODA AMPLIT PERI AZIMU VELO AIN AR TRES W  DIS CAZ7
 BAR2 SZ EP       1425 25.30                             173   -0.2410 17.6 174 
 BAR2 SZ ES       1425 40.22                             173   -0.4910 17.6 174 
 BAR2 SZ I        1425 41.35        23.9 0.16            172           17.6 174 
 BRR  HZ EP       1425 27.16                             153    0.1110 69.1 305 
 BRR  HE ES       1425 44.12                             153    0.7210 69.1 305 
 BRR  HE I        1425 44.73        41.3 0.20            153           69.1 305 
 RUS  HZ EP       1425 29.97                             145    0.5410 95.7 172 
 RUS  HN ES       1425 47.44                             145   -0.2010 95.7 172 
 RUS  HZ I        1425 48.74         4.6 0.24            145           95.7 172 
 PTB  HZ EP       1425 32.15                             133   -0.24 9  141 261 
 PTB  HN ES       1425 53.24                             133    0.32 9  141 261 
 PTB  HN I        1425 55.00         9.2 0.68            133            141 261 
 ZAR  HN ES       1426  2.47                             123   -0.70 9  201 294 
                                                                                
