 2015  818 1046 21.7 L   6.919 -73.053134.1  RSN  4 0.5 1.6LRSN                1
 GAP=230        0.79       8.2    12.2  9.8  0.6198E+02 -0.2661E+02 -0.5250E+02E
 Epicentro: PIEDECUESTA - SANTANDER                                            3
 ACTION:UPD 15-09-15 23:03 OP:cam  STATUS:               ID:20150818104621 L   I
 OLDACT:REG 15-08-18 20:27 OP:ar   STATUS:               ID:20150818103748     3
 2015-08-18-1037-48M.COL___319                                                 6
 STAT SP IPHASW D HRMM SECON CODA AMPLIT PERI AZIMU VELO AIN AR TRES W  DIS CAZ7
 BAR2 EZ EP       1046 40.12                             163   -0.2810 38.8 202 
 BAR2 EZ ES       1046 54.98                             163    0.0110 38.8 202 
 BAR2 EZ I        1046 55.88         7.0 0.32            157           38.8 202 
 BRR  HZ EP   2 C 1046 42.05                             149    0.15 5 75.8 286 
 BRR  HE ES   2   1046 58.50                             149    0.85 5 75.8 286 
 ZAR  HZ EP   2   1046 54.76                             119    0.77 4  209 288 
 ZAR  HN ES   2   1047 18.22                             119   -0.93 4  209 288 
 ZAR  HZ I        1047 26.95         3.6 0.26            116            209 288 
 SML  HZ EP       1046 57.30                             116    0.37 8  237 332 
 SML  HE ES       1047 24.10                             116   -0.29 8  237 332 
 SML  HZ I        1047 32.94         4.4 0.10            114            237 332 
                                                                                
