 2012 1218 1823 32.0 L   6.721 -73.190149.9  RSN  5 0.5 1.3LRSN                1
 GAP=226        0.88      10.5     8.2 10.9  0.5050E+02  0.6367E+01 -0.2915E+02E
 Epicentro: VILLANUEVA - SANTANDER                                             3
 ACTION:UPD 13-01-04 14:28 OP:ep   STATUS:               ID:20121218182332 L   I
 2012-12-18-1820-00M.COL___242                                                 6
 STAT SP IPHASW D HRMM SECON CODA AMPLIT PERI AZIMU VELO AIN AR TRES W  DIS CAZ7
 BAR2 SZ EP   1   1823 51.91                             174   -0.04 7 14.2 176 
 BAR2 SZ ES   1   1824  7.04                             174   -0.49 7 14.2 176 
 BRR  HZ EP   1   1823 53.93                             153    0.34 7 71.8 307 
 RUS  HZ EP   1   1823 55.79                             147    0.23 7 92.3 173 
 RUS  HE ES   1   1824 14.39                             147    0.43 7 92.3 173 
 RUS  HZ I        1824 15.59         1.9 0.18                          92.3 173 
 PTB  HZ EP   1   1823 57.81                             134   -0.90 7  141 262 
 PTB  HN ES   1   1824 19.52                             134   -0.05 7  141 262 
 PTB  HZ I        1824 21.86         4.8 0.22                           141 262 
 ZAR  HN ES   1   1824 30.52                             123    0.51 6  203 295 
                                                                                
