 2011  418 1315 51.8 L   6.790 -73.111147.8  RSN 16 0.5 3.3LRSN                1
 GAP=117        0.97       3.5     5.9  6.6 -0.8436E+01  0.3051E+01  0.8761E+01E
 Epicentro: LOS SANTOS - SANTANDER                                             3
 ACTION:UP  11-06-22 15:31 OP:REBC STATUS:               ID:20110418131551 L   I
 2011-04-18-1314-02S.COL___137                                                 6
 STAT SP IPHASW D HRMM SECON CODA AMPLIT PERI AZIMU VELO SNR AR TRES W  DIS CAZ7
 BAR2 SZ IP       1316 11.65                             170     0.010   23 200 
 BAR2 SZ ES   1   1316 26.52                             170    -0.6 7   23 200 
 BAR2 SZ I        1316 29.38       390.0 0.26                            23 200 
 BRR  HZ IP       1316 13.58                             151     0.210   75 298 
 BRR  HN ES   1   1316 31.14                             151     0.9 7   75 298 
 BRR  HZ I        1316 32.68       440.3 0.16                            75 298 
 PAM  SZ EP       1316 14.52                             152     0.410   76  37 
 PAM  SN ES   2   1316 31.68                             152     0.1 5   76  37 
 BRI  SZ EP   1   1316 16.17                             142     0.3 7  108  19 
 BRI  SZ ES   1   1316 34.20                             142    -0.4 7  108  19 
 BRI  SZ I        1316 37.90       259.9 0.24                           108  19 
 GUE  SZ EP   1   1316 16.79                             140     0.1 7  117  10 
 GRA  SZ IP       1316 17.45                             137     0.210  126  16 
 GRA  SZ ES   1   1316 36.78                             137    -0.3 7  126  16 
 GRA  SZ I        1316 38.34       355.9 0.52                           126  16 
 OCA  SZ EP   1   1316 19.69                             130    -0.7 7  162 352 
 OCA  SZ ES   1   1316 42.20                             130    -0.5 7  162 352 
 YOP  SZ EP   1   1316 21.90                             127     0.2 7  176 154 
 YOP  SN ES   2   1316 44.68                             127    -0.4 4  176 154 
 YOP  SZ I        1316 50.93        98.8 0.33                           176 154 
 NOR  SZ EP   1   1316 27.31                             118    -0.6 6  237 235 
 NOR  SN ES   2   1316 55.32                             118    -0.7 4  237 235 
 CHI  HZ EP       1316 29.74                             117     0.1 8  249 196 
 CHI  HN ES   2   1316 59.33                             117     0.2 4  249 196 
 CHI  HZ I        1317  2.58       100.9 0.57                           249 196 
 ROSC BZ EP   1   1316 31.01                             117     0.9 6  254 212 
 ROSC BN ES   1   1317  0.71                             117     0.7 6  254 212 
 ROSC BZ I        1317  5.50       185.9 0.46                           254 212 
 VIL  SZ EP       1316 34.64                             112    -0.6 7  303 192 
 VIL  SN ES   2   1317  8.13                             112    -1.0 4  303 192 
 GUY  SZ EP   1   1316 36.24                             112     0.2 5  306 236 
 GUY  SN ES   2   1317  9.84                             112    -0.7 4  306 236 
 DBB  SZ EP   1   1316 39.04                             109    -0.8 5  343 274 
 TOL  SZ EP   2   1316 40.84                             109     0.5 3  345 225 
 PRA  HZ EP   2   1316 44.69                             107    -0.8 3  393 210 
 PRA  HN ES   1   1317 27.75                             107     0.4 4  393 210 
                                                                                
