 2014 1218 1816 17.9 L   6.807 -73.149145.5  RSN 15 0.4 2.0LRSN                1
 GAP= 71        0.86       3.1     2.4  4.8 -0.7210E+00  0.2027E+01  0.3211E+01E
 Epicentro: LOS SANTOS - SANTANDER                                             3
 ACTION:UPD 15-02-10 17:05 OP:nd   STATUS:               ID:20141218181617 L   I
 OLDACT:DUP 14-12-19 00:59 OP:spq  STATUS:               ID:20141218180750d    3
 2014-12-18-1807-46M.COL___296                                                 6
 STAT SP IPHASW D HRMM SECON CODA AMPLIT PERI AZIMU VELO AIN AR TRES W  DIS CAZ7
 BAR2 EZ EP       1816 37.43                             170   -0.0710 24.0 189 
 BAR2 EZ ES   1   1816 52.80                             170    0.00 7 24.0 189 
 BAR2 EZ I        1816 53.91        19.1 0.54            168           24.0 189 
 BRR  HZ EP       1816 39.27                             153    0.3010 70.5 298 
 BRR  HN ES       1816 56.21                             153    0.7910 70.5 298 
 BRR  HZ I        1817  0.64        18.9 0.24            152           70.5 298 
 PAM  SZ EP       1816 40.15                             151    0.1010 77.0  40 
 PAM  SN ES       1816 57.08                             151   -0.2710 77.0  40 
 PAM  SZ I        1816 59.27        21.7 0.56            155           77.0  40 
 RUS  HZ EP       1816 41.47                             144   -0.2010  101 176 
 RUS  HE ES   1   1817  0.39                             144    0.17 7  101 176 
 RUS  HZ I        1817  1.90        15.2 0.30            144            101 176 
 PTB  HZ EP       1816 44.21                             132   -0.61 9  148 259 
 PTB  HN ES       1817  5.33                             132   -0.49 9  148 259 
 PTB  HZ I        1817  7.40        12.0 0.16            132            148 259 
 TAM  HZ EP       1816 45.60                             130    0.01 9  156 105 
 TAM  HN ES       1817  7.20                             130   -0.00 9  156 105 
 TAM  HZ I        1817  7.80        16.3 0.28            134            156 105 
 OCA  HZ EP   1   1816 45.56                             130   -0.54 7  159 353 
 SPBC HZ EP       1816 46.26                             129   -0.14 9  164 219 
 SPBC HE ES       1817  8.48                             129   -0.16 9  164 219 
 SPBC HZ I        1817 11.37        22.5 0.13            129            164 219 
 ZAR  HZ EP       1816 50.63                             122    0.38 9  203 292 
 ZAR  HN ES       1817 15.27                             122   -0.23 9  203 292 
 ZAR  HZ I        1817 21.30        16.2 0.30            123            203 292 
 NOR  HZ EP       1816 54.09                             118    0.47 8  235 234 
 NOR  HE ES       1817 21.29                             118   -0.20 8  235 234 
 NOR  HZ I        1817 27.11         9.0 0.26            119            235 234 
 CHI  HZ EP       1816 55.77                             117    0.13 8  249 195 
 CHI  HN ES   1   1817 25.15                             117    0.07 6  249 195 
 CHI  HZ I        1817 31.32         5.4 0.26            118            249 195 
 HEL  HN ES   1   1817 28.87                             115   -0.54 6  272 256 
 HEL  HZ I        1817 36.87         5.8 0.56            115            272 256 
 CBOC HZ EP   4   1817  6.01                             110    1.23 0  334 252 
 CBOC HE ES       1817 41.67                             110    0.32 7  334 252 
 CBOC HZ I        1817 50.04         1.4 0.26            111            334 252 
 TOL  SZ EP       1817  6.99                             109    0.83 7  344 225 
 TOL  SN ES   4   1817 45.85                             109    2.03 0  344 225 
 MON  HZ EP   4   1817  4.81                             109   -1.98 0  353 308 
 MON  HN ES   4   1817 42.84                             109   -2.10 0  353 308 
 MON  HZ I        1817 45.77         2.7 0.60            110            353 308 
                                                                                
