 2016 1018 1742 47.1 L   6.810 -73.186146.3  RSN  5 0.4 1.5LRSN                1
 GAP=145        0.94       4.7     5.5  7.0 -0.7192E+01  0.8314E+01  0.5072E+01E
 Epicentro: ZAPATOCA - SANTANDER                                               3
 ACTION:UPD 16-11-09 19:20 OP:rebc STATUS:               ID:20161018174247 L   I
 OLDACT:REG 16-10-18 22:01 OP:ar   STATUS:               ID:20161018173734     3
 2016-10-18-1738-00M.COL___338                                                 6
 STAT SP IPHASW D HRMM SECON CODA AMPLIT PERI AZIMU VELO AIN AR TRES W  DIS CAZ7
 BAR2 EZ EP       1743  7.79                             170    0.9410 24.1 179 
 BAR2 EZ ES       1743 22.17                             170   -0.0510 24.1 179 
 PAM  EZ EP       1743  9.57                             150    0.0310 79.5  43 
 PAM  EE ES       1743 26.66                             150   -0.3510 79.5  43 
 PAM  EZ I        1743 28.76         7.6 0.52            154           79.5  43 
 RUS  HZ EP       1743 11.07                             143    0.0110  102 174 
 RUS  HE ES       1743 29.65                             143   -0.0610  102 174 
 RUS  HZ I        1743 30.60         4.2 0.24            143            102 174 
 PTB  HZ EP       1743 13.53                             133   -0.25 9  144 258 
 PTB  HN ES       1743 34.58                             133    0.03 9  144 258 
 PTB  HZ I        1743 39.62         3.1 0.18            132            144 258 
 CHI  HZ EP       1743 24.36                             117   -0.51 8  249 194 
 CHI  HN ES       1743 54.27                             117   -0.02 8  249 194 
 CHI  HZ I        1744  4.11         2.3 0.32            117            249 194 
                                                                                
