 2015  218 1540  7.2 L   6.810 -73.171139.5  RSN 17 0.5 2.4LRSN                1
 GAP=133        1.19       2.8     4.1  5.7 -0.1382E+01  0.8285E+01  0.2019E+01E
 Epicentro: LOS SANTOS - SANTANDER                                             3
 ACTION:UPD 15-04-30 21:27 OP:nd   STATUS:               ID:20150218154007 L   I
 OLDACT:REG 15-02-18 20:43 OP:fm   STATUS:               ID:20150218153746     3
 2015-02-18-1537-46M.COL___296                                                 6
 STAT SP IPHASW D HRMM SECON CODA AMPLIT PERI AZIMU VELO AIN AR TRES W  DIS CAZ7
 BAR2 EZ IP     C 1540 26.32                             170    0.2110 24.2 183 
 BAR2 EZ ES       1540 40.30                             170   -0.5510 24.2 183 
 BAR2 EZ I        1540 42.83        59.2 0.40            169           24.2 183 
 BRR  HZ EP     C 1540 28.27                             152    0.7610 68.2 299 
 BRR  HE ES       1540 44.83                             152    1.4810 68.2 299 
 BRR  HZ I        1540 49.49        42.5 0.46            151           68.2 299 
 PAM  SZ EP     C 1540 29.15                             149    0.3310 78.3  42 
 PAM  SE ES       1540 45.40                             149   -0.2810 78.3  42 
 PAM  SZ I        1540 48.67        50.6 0.60            154           78.3  42 
 RUS  HZ EP       1540 30.70                             142    0.2510  102 175 
 RUS  HE ES       1540 48.25                             142   -0.3410  102 175 
 RUS  HZ I        1540 49.68        23.5 0.22            144            102 175 
 PTB  HZ EP       1540 32.94                             131   -0.50 9  145 258 
 PTB  HE ES       1540 53.56                             131   -0.34 9  145 258 
 PTB  HZ I        1540 56.68        33.7 0.18            131            145 258 
 OCA  HZ EP       1540 34.66                             128   -0.24 9  159 354 
 OCA  HE ES       1540 55.89                             128   -0.61 9  159 354 
 OCA  HZ I        1540 59.85        30.2 0.26            131            159 354 
 SPBC HZ EP       1540 35.18                             128    0.02 9  162 218 
 SPBC HE ES       1540 57.03                             128    0.08 9  162 218 
 SPBC HZ I        1540 58.41        25.7 0.16            129            162 218 
 ZAR  HZ EP       1540 39.23                             121    0.29 9  201 292 
 ZAR  HE ES       1541  3.99                             121    0.30 9  201 292 
 ZAR  HZ I        1541 11.39        33.7 0.66            122            201 292 
 NOR  HZ EP       1540 42.90                             117    0.49 8  233 234 
 NOR  HN ES       1541  9.38                             117   -0.49 8  233 234 
 NOR  HZ I        1541 15.23        17.6 0.20            119            233 234 
 SML  HE ES       1541 10.58                             116   -0.78 8  241 336 
 SML  HZ I        1541 15.33        32.5 0.10            118            241 336 
 CHI  HZ EP       1540 44.82                             116    0.21 8  249 194 
 CHI  HN ES       1541 13.67                             116   -0.12 8  249 194 
 CHI  HZ I        1541 20.88         5.8 0.30            118            249 194 
 URE  HZ EP       1540 47.47                             113   -0.17 7  281 292 
 URE  HN ES       1541 18.60                             113   -0.58 7  281 292 
 URE  HZ I        1541 20.62        21.2 0.14            114            281 292 
 GUY2CHZ EP       1540 50.87                             111    0.52 7  300 234 
 GUY2CHE ES       1541 23.64                             111   -0.36 7  300 234 
 GUY2CHZ I        1541 32.99        14.9 0.32                           300 234 
 RREF HZ EP       1540 53.05                             110    0.12 7  320 229 
 RREF HN ES       1541 28.66                             110    0.07 7  320 229 
 RREF HZ I        1541 39.25         8.1 0.30            111            320 229 
 DBB  SZ EP   1   1540 54.88                             108    0.77 5  337 274 
 TOL  SE ES       1541 32.18                             108   -0.26 7  342 224 
 TOL  SZ I        1541 38.18         6.2 0.48            110            342 224 
 PRA  HZ EP       1540 59.74                             105   -0.74 6  392 209 
 PRA  HE ES       1541 41.85                             105   -0.18 6  392 209 
 PRA  HZ I        1541 46.47         6.0 0.66            107            392 209 
                                                                                
