 2011  418 1947 49.2 L   6.245 -73.643111.3  RSN  5 0.2 1.3LRSN                1
 GAP=188        0.42       7.3     6.5 10.9 -0.2999E+02 -0.1875E+02  0.4743E+02E
 Epicentro: LA PAZ - SANTANDER                                                 3
 ACTION:UP  11-06-22 15:31 OP:REBC STATUS:               ID:20110418194749 L   I
 2011-04-18-1946-07S.COL___139                                                 6
 STAT SP IPHASW D HRMM SECON CODA AMPLIT PERI AZIMU VELO SNR AR TRES W  DIS CAZ7
 BAR2 SZ EP   2   1948  6.61                             148     0.0 5   64  53 
 BAR2 SZ ES   3   1948 20.41                                     0.2 2   64  53 
 BAR2 SZ I        1948 21.98        11.4 0.12                            64  53 
 BRR  HZ EP   1   1948  8.89                             135     0.2 7   96 355 
 BRR  HZ I        1948 17.46         7.4 0.10                            96 355 
 BRR  HN ES   2   1948 23.68                             135    -0.2 5   96 355 
 GIR2 SZ EP   3   1948 10.36                                     0.7 2  105  28 
 NOR  SZ EP   1   1948 14.39                             121    -0.1 7  155 241 
 NOR  SZ I        1948 36.81         0.7 0.17                           155 241 
 PAM  SZ EP   1   1948 15.34                             120    -0.2 7  160  41 
                                                                                
