 2015  418 1812 15.1 L   6.812 -73.138146.6  RSN  6 0.3 1.7LRSN                1
 GAP=137        0.62       3.9     3.1  5.7 -0.1672E+01  0.3697E+01  0.2698E+00E
 Epicentro: LOS SANTOS - SANTANDER                                             3
 ACTION:UPD 15-06-03 16:55 OP:cam  STATUS:               ID:20150418181215 L   I
 OLDACT:REG 15-04-18 21:25 OP:spq  STATUS:               ID:20150418180749     3
 2015-04-18-1807-49M.COL___278                                                 6
 STAT SP IPHASW D HRMM SECON CODA AMPLIT PERI AZIMU VELO AIN AR TRES W  DIS CAZ7
 BAR2 EZ ES   1   1812 50.53                             170    0.23 7 24.8 191 
 BAR2 EZ I        1812 50.79         7.2 0.24            173           24.8 191 
 BRR  HZ EP   1   1812 36.56                             153    0.19 7 71.3 297 
 BRR  HE ES   1   1812 53.36                             153    0.42 7 71.3 297 
 BRR  HZ I        1812 59.72        10.7 0.62            150           71.3 297 
 PAM  SZ EP       1812 37.46                             151    0.1310 75.8  40 
 PAM  SN ES       1812 54.32                             151   -0.3410 75.8  40 
 PAM  SZ I        1812 56.31        13.9 0.44            152           75.8  40 
 RUS  HZ EP   1   1812 39.00                             144   -0.05 7  102 177 
 RUS  HN ES   1   1812 57.82                             144    0.11 7  102 177 
 PTB  HZ EP   1   1812 42.25                             132   -0.01 7  149 258 
 PTB  HN ES       1813  2.98                             132   -0.44 9  149 258 
 PTB  HZ I        1813  4.12         3.2 0.18            133            149 258 
 ZAR  HE ES   1   1813 13.23                             122    0.21 6  204 292 
 ZAR  HZ I        1813 17.83         5.4 0.24            123            204 292 
                                                                                
