 2015 1218 1310 26.6 L   6.799 -73.142148.5  RSN 14 0.5 2.3LRSN                1
 GAP=137        1.00       3.0     4.4  5.3 -0.1476E+01  0.5744E+01  0.1465E+01E
 Epicentro: LOS SANTOS - SANTANDER                                             3
 ACTION:UPD 16-02-04 15:05 OP:cam  STATUS:               ID:20151218131026 L   I
 OLDACT:UP  15-12-18 22:06 OP:ar   STATUS:               ID:20151218130749     3
 OLDACT:REG 15-12-18 20:33 OP:ar   STATUS:               ID:20151218130749     3
 2015-12-18-1307-49M.COL___337                                                 6
 STAT SP IPHASW D HRMM SECON CODA AMPLIT PERI AZIMU VELO AIN AR TRES W  DIS CAZ7
 BAR2 EZ EP       1310 46.40                             171   -0.1410 23.3 191 
 BAR2 EZ ES       1311  1.92                             171   -0.1910 23.3 191 
 BAR2 EZ I        1311  3.26        31.7 0.42            168           23.3 191 
 BRR  HZ EP       1310 48.35                             153    0.3010 71.6 298 
 BRR  HN ES       1311  5.81                             153    1.0210 71.6 298 
 BRR  HZ I        1311 10.49        27.2 0.16            149           71.6 298 
 PAM  EZ EP       1310 49.33                             151    0.2510 77.2  39 
 PAM  EN ES       1311  6.64                             151    0.0110 77.2  39 
 PAM  EZ I        1311 10.46        13.7 0.54            156           77.2  39 
 RUS  HZ EP       1310 50.62                             144    0.0310  100 176 
 RUS  HN ES       1311  9.15                             144   -0.1710  100 176 
 RUS  HZ I        1311  9.96        16.5 0.26            147            100 176 
 PTB  HZ EP       1310 53.06                             133   -0.74 9  148 259 
 PTB  HN ES       1311 14.44                             133   -0.60 9  148 259 
 PTB  HZ I        1311 19.18        23.3 0.46            131            148 259 
 OCA  HZ EP   2   1310 54.90                             130   -0.22 5  160 353 
 OCA  HN ES   2   1311 17.32                             130   -0.06 5  160 353 
 OCA  HZ I        1311 22.37        58.9 0.22            132            160 353 
 SPBC HZ EP   2   1310 55.45                             130    0.14 5  163 219 
 SPBC HE ES   2   1311 17.65                             130   -0.06 5  163 219 
 SPBC HZ I        1311 24.52        40.0 0.22            130            163 219 
 ZAR  HE ES   2   1311 25.28                             123    0.56 4  204 292 
 ZAR  HZ I        1311 30.15        29.2 0.58            123            204 292 
 NOR  HZ EP       1311  2.46                             119   -0.04 8  235 235 
 NOR  HN ES       1311 30.13                             119   -0.38 8  235 235 
 NOR  HZ I        1311 38.31        14.3 0.36            120            235 235 
 SML  HZ EP       1311  3.38                             118   -0.01 8  244 335 
 SML  HE ES       1311 31.35                             118   -0.75 8  244 335 
 SML  HZ I        1311 36.11        30.7 0.10            119            244 335 
 CHI  HZ EP       1311  4.55                             118    0.12 8  249 195 
 CHI  HN ES       1311 34.10                             118    0.14 8  249 195 
 CHI  HZ I        1311 39.71         8.3 0.30            119            249 195 
 HEL  HZ EP   2   1311  8.47                             115    1.50 4  272 256 
 HEL  HE ES   4   1311 40.46                             115    1.99 0  272 256 
 HEL  HZ I        1311 46.38         7.2 0.26            116            272 256 
 GUY2CHZ EP   2   1311 11.71                             113    1.36 4  301 235 
 GUY2CHN ES   4   1311 48.22                             113    3.74 0  301 235 
 GUY2CHZ I        1311 53.49         8.1 0.32                           301 235 
 PRA  HZ EP       1311 20.73                             107    0.52 6  392 210 
 PRA  HN ES   2   1312  2.18                             107    0.14 3  392 210 
 PRA  HZ I        1312  5.68         8.5 0.24            108            392 210 
                                                                                
