 2012  918 1132 38.3 L   6.827 -73.308123.0  RSN  6 0.2 1.9LRSN                1
 GAP=127        0.52       3.8     3.6  4.1  0.4532E+01 -0.4300E+00 -0.2198E+01E
 Epicentro: ZAPATOCA - SANTANDER                                               3
 ACTION:UPD 12-10-22 14:19 OP:ep   STATUS:               ID:20120918113238 L   I
 2012-09-18-1130-00M.COL___227                                                 6
 STAT SP IPHASW D HRMM SECON CODA AMPLIT PERI AZIMU VELO AIN AR TRES W  DIS CAZ7
 BAR2 SZ IP       1132 55.67                             166    0.3210 29.4 152 
 BAR2 SZ ES       1133  8.47                             166   -0.1910 29.4 152 
 GIR2 SZ EP       1132 55.19                             165   -0.0510 30.6  24 
 BRR  HZ EP       1132 55.95                             155   -0.0910 54.3 305 
 BRR  HN ES       1133  9.98                             155    0.1010 54.3 305 
 BRR  HZ I        1133 10.78        47.5 0.20                          54.3 305 
 PAM  SZ EP       1132 58.92                             142    0.0310 87.9  50 
 PAM  SZ I        1132 59.87         8.9 0.25                          87.9  50 
 PAM  SN ES   2   1133 14.89                             142   -0.06 5 87.9  50 
 RUS  HZ EP   1   1133  0.52                             137    0.17 7  106 166 
 RUS  HE ES   2   1133 17.30                             137   -0.25 5  106 166 
 ZAR  HZ EP   1   1133  6.93                             119   -0.53 7  186 293 
 ZAR  HN ES   2   1133 30.68                             119    0.47 4  186 293 
 ZAR  HZ I        1133 34.29         6.7 0.09                           186 293 
                                                                                
