 2013  618 1422 58.3 L   6.668 -73.265149.8  RSN  4 0.4 1.6LRSN                1
 GAP=178        0.98       7.8     7.5  8.9  0.2677E+02  0.1105E+02  0.2200E+01E
 Epicentro: GALAN - SANTANDER                                                  3
 ACTION:UPD 14-01-08 09:55 OP:ep   STATUS:               ID:20130618142258 L   I
 OLDACT:UP  13-06-18 17:55 OP:cam  STATUS:               ID:20130618141959     3
 OLDACT:REG 13-06-18 15:09 OP:cam  STATUS:               ID:20130618141959     3
 2013-06-18-1419-59M.COL___261                                                 6
 STAT SP IPHASW D HRMM SECON CODA AMPLIT PERI AZIMU VELO AIN AR TRES W  DIS CAZ7
 BAR2 SZ EP   1   1423 17.60                             175   -0.67 7 12.4 132 
 BAR2 SZ ES       1423 33.31                             175   -0.5210 12.4 132 
 BAR2 SZ I        1423 33.99         7.5 0.21            178           12.4 132 
 BRR  HZ EP       1423 19.89                             154    0.0910 69.3 315 
 BRR  HN ES       1423 37.09                             154    0.5310 69.3 315 
 BRR  HZ I        1423 41.64        11.8 0.42            153           69.3 315 
 RUS  HZ EP   1   1423 21.91                             148    0.28 7 88.0 167 
 RUS  HN ES       1423 40.16                             148    0.3610 88.0 167 
 RUS  HZ I        1423 41.38         3.6 0.34            152           88.0 167 
 PTB  HZ EP   1   1423 24.38                             136    0.09 7  132 264 
 PTB  HN ES       1423 44.23                             136   -0.3110  132 264 
 PTB  HZ I        1423 46.42         4.7 0.10            137            132 264 
                                                                                
