 2015  318 1751 57.8 L   6.682 -73.135143.3  RSN  5 0.4 1.6LRSN                1
 GAP=174        0.99       9.8     5.9  7.5 -0.2714E+02  0.7218E+01  0.2659E+01E
 Epicentro: VILLANUEVA - SANTANDER                                             3
 ACTION:UPD 15-04-30 16:27 OP:nd   STATUS:               ID:20150318175157 L   I
 OLDACT:REG 15-03-18 23:32 OP:cam  STATUS:               ID:20150318174749     3
 2015-03-18-1747-49M.COL___281                                                 6
 STAT SP IPHASW D HRMM SECON CODA AMPLIT PERI AZIMU VELO AIN AR TRES W  DIS CAZ7
 BAR2 EZ EP       1752 17.47                             175    0.5410 11.3 208 
 BAR2 EZ ES       1752 31.79                             175   -0.0810 11.3 208 
 BAR2 EZ I        1752 33.54         8.4 0.12            161           11.3 208 
 BRR  HZ EP       1752 19.08                             149   -0.0610 79.2 306 
 BRR  HN ES       1752 36.44                             149    0.6410 79.2 306 
 BRR  HZ I        1752 40.10         9.5 0.26            127           79.2 306 
 PAM  SZ IP       1752 20.41                             147    0.0610 87.1  33 
 PAM  SN ES       1752 37.44                             147   -0.5210 87.1  33 
 PAM  SZ I        1752 39.32         6.6 0.48            129           87.1  33 
 PTB  HZ EP       1752 24.28                             132   -0.19 9  147 264 
 PTB  HN ES       1752 44.79                             132   -0.51 9  147 264 
 PTB  HZ I        1752 46.72         4.8 0.24            116            147 264 
 ZAR  HZ EP   1   1752 30.76                             121    0.04 6  210 295 
 ZAR  HZ I        1753  4.05         5.3 0.22            107            210 295 
                                                                                
