 2011  518 1810 34.0 L   6.780 -73.106140.7  RSN  5 0.2 1.5LRSN                1
 GAP=143        0.63       3.8     5.8  6.7 -0.6570E+01 -0.7154E+01  0.4663E+01E
 Epicentro: LOS SANTOS - SANTANDER                                             3
 ACTION:UP  11-06-29 08:54 OP:tino STATUS:               ID:20110518181034 L   I
 2011-05-18-1806-25S.COL___138                                                 6
 STAT SP IPHASW D HRMM SECON CODA AMPLIT PERI AZIMU VELO SNR AR TRES W  DIS CAZ7
 BRR  HZ EP       1810 54.58                             150    -0.310   76 298 
 BRR  HN ES   1   1811 11.35                             150     0.2 7   76 298 
 BRR  HZ I        1811 15.40        11.0 0.14                            76 298 
 PAM  SZ EP       1810 55.63                             150     0.110   76  36 
 PAM  SN ES   1   1811 12.14                             150    -0.3 7   76  36 
 RUS  HZ EP       1810 57.02                             143     0.010   98 179 
 RUS  HN ES   2   1811 15.16                             143     0.1 5   98 179 
 RUS  HZ I        1811 17.20         2.1 0.31                            98 179 
 BRI  SZ EP       1810 57.80                             140     0.410  109  18 
 GRA  SZ EP       1810 58.64                             136    -0.210  127  15 
 GRA  SZ ES   1   1811 18.27                             136     0.0 7  127  15 
 GRA  SZ I        1811 19.19         4.8 0.31                           127  15 
                                                                                
