 2014  418 1719  2.8 L   6.832 -73.108148.9  RSN 18 0.6 2.4LRSN                1
 GAP= 72        1.29       3.1     3.5  6.2 -0.3618E+01  0.2665E+01  0.3141E+01E
 Epicentro: LOS SANTOS - SANTANDER                                             3
 ACTION:UPD 14-05-13 23:09 OP:nd   STATUS:               ID:20140418171902 L   I
 OLDACT:REG 14-04-18 21:46 OP:stll STATUS:               ID:20140418171813     3
 2014-04-18-1718-13M.COL___239                                                 6
 STAT SP IPHASW D HRMM SECON CODA AMPLIT PERI AZIMU VELO AIN AR TRES W  DIS CAZ7
 PAM  SZ EP       1719 25.58                             153    0.5210 72.0  39 
 PAM  SZ I        1719 25.91        29.9 0.24            155           72.0  39 
 PAM  SN ES       1719 42.74                             153    0.3310 72.0  39 
 BRR  HZ EP       1719 24.86                             152    0.4410 73.4 295 
 BRR  HZ I        1719 26.41        34.9 0.16            150           73.4 295 
 BRR  HN ES       1719 41.86                             152    0.5810 73.4 295 
 RUS  HZ EP       1719 26.79                             144   -0.3210  104 178 
 RUS  HE ES       1719 45.53                             144   -0.5310  104 178 
 TAM  HZ EP       1719 30.76                             132    0.30 9  152 107 
 TAM  HN ES       1719 52.75                             132    0.72 9  152 107 
 TAM  HZ I        1719 53.43        14.5 0.40            135            152 107 
 PTB  HZ EP       1719 29.68                             132   -0.79 9  153 258 
 PTB  HN ES       1719 50.91                             132   -1.13 9  153 258 
 PTB  HZ I        1719 58.28        51.1 0.42            132            153 258 
 OCA  HZ EP       1719 31.33                             131    0.23 9  157 351 
 OCA  HN ES       1719 53.51                             131    0.35 9  157 351 
 OCA  HZ I        1719 57.78        37.2 0.24            132            157 351 
 SPBC HZ EP       1719 31.83                             129   -0.23 9  169 219 
 SPBC HN ES       1719 54.43                             129   -0.44 9  169 219 
 SPBC HZ I        1720  0.97        48.4 0.32            129            169 219 
 NOR  HZ EP       1719 38.71                             119   -0.60 8  240 234 
 NOR  HE ES       1720  6.81                             119   -0.96 8  240 234 
 NOR  HZ I        1720 10.49        29.6 0.18            119            240 234 
 SML  HZ EP       1719 39.32                             118   -0.15 8  242 334 
 SML  HN ES       1720  7.83                             118   -0.23 8  242 334 
 SML  HZ I        1720 19.49        31.2 0.18            119            242 334 
 CHI  HZ EP       1719 40.75                             117   -0.42 8  253 196 
 CHI  HZ I        1719 43.51        10.9 0.30            119            253 196 
 CHI  HE ES       1720 10.68                             117   -0.41 8  253 196 
 ROSC BZ EP       1719 42.21                             117    0.54 8  258 211 
 ROSC BN ES       1720 12.18                             117    0.21 8  258 211 
 ROSC BZ I        1720 20.52        28.2 0.45            118            258 211 
 HEL  HZ EP       1719 44.30                             115    0.57 7  277 255 
 HEL  HN ES       1720 15.63                             115   -0.01 7  277 255 
 HEL  HZ I        1720 21.09        14.1 0.36            115            277 255 
 GUY2CHZ EP       1719 47.45                             112    0.27 7  307 235 
 GUY2CHN ES       1720 22.34                             112    0.56 7  307 235 
 GUY2CHZ I        1720 27.76        15.8 0.34                           307 235 
 RREF HZ EP       1719 50.18                             111    0.47 7  327 229 
 RREF HN ES       1720 26.92                             111    0.63 7  327 229 
 RREF HZ I        1720 35.11        15.4 0.28            112            327 229 
 SDV  BZ EP       1719 52.11                             109   -0.24 6  355  50 
 SDV  BZ I        1719 53.20         3.9 0.35            111            355  50 
 SDV  BN ES       1720 29.23                             109   -1.76 6  355  50 
 ANIL HZ EP       1719 54.45                             109    1.08 6  363 225 
 ANIL HE ES       1720 33.76                             109    0.97 6  363 225 
 PRA  HZ EP       1719 56.77                             107   -0.27 6  397 210 
 PRA  HE ES       1720 38.96                             107   -0.37 6  397 210 
 PRA  HZ I        1720 44.08         9.4 0.22            108            397 210 
 ORTC HZ EP       1719 57.64                             107    0.18 6  401 216 
 ORTC HN ES       1720 40.15                             107    0.07 6  401 216 
 ORTC HZ I        1720 45.46         6.7 0.44            107            401 216 
                                                                                
