 2014 1118 1102 57.3 L   6.805 -73.169142.4  RSN  8 0.6 2.0LRSN                1
 GAP= 70        1.57       5.1     7.0  9.2 -0.3791E+01 -0.2686E+01  0.6145E+01E
 Epicentro: LOS SANTOS - SANTANDER                                             3
 ACTION:UPD 14-12-19 15:44 OP:nd   STATUS:               ID:20141118110257 L   I
 OLDACT:ARG 14-11-18 23:39 OP:stll STATUS:               ID:20141118105747     3
 2014-11-18-1057-47M.COL___277                                                 6
 STAT SP IPHASW D HRMM SECON CODA AMPLIT PERI AZIMU VELO AIN AR TRES W  DIS CAZ7
 BAR2 SZ EP       11 3 16.82                             170    0.2610 23.5 184 
 BAR2 SZ ES       11 3 31.15                             170   -0.4110 23.5 184 
 BAR2 SZ I        11 3 33.09        17.1 0.24            170           23.5 184 
 BRR  HZ EP       11 3 18.51                             153    0.5410 68.7 299 
 BRR  HN ES       11 3 35.33                             153    1.2510 68.7 299 
 BRR  HZ I        11 3 40.56        15.7 0.16            153           68.7 299 
 PAM  SZ EP       11 3 19.70                             150    0.4410 78.6  41 
 PAM  SN ES       11 3 35.87                             150   -0.5010 78.6  41 
 PAM  SZ I        11 3 38.55        28.2 0.46            153           78.6  41 
 RUS  HZ EP       11 3 21.19                             143    0.3910  101 175 
 RUS  HN ES       11 3 39.29                             143    0.1810  101 175 
 RUS  HZ I        11 3 41.00        11.7 0.26            145            101 175 
 PTB  HZ EP       11 3 24.00                             132    0.19 9  145 258 
 PTB  HN ES       11 3 43.82                             132   -0.64 9  145 258 
 PTB  HZ I        11 3 47.58        11.8 0.12            133            145 258 
 TAM  HZ EP       11 3 25.25                             129    0.26 9  158 105 
 TAM  HZ I        11 3 25.62        26.6 0.22            133            158 105 
 OCA  HZ EP       11 3 24.95                             129   -0.35 9  159 354 
 OCA  HN ES       11 3 46.09                             129   -1.03 9  159 354 
 OCA  HZ I        11 3 48.04        10.3 0.22            131            159 354 
 CHI  HZ EP       11 3 34.73                             116   -0.10 8  248 195 
 CHI  HN ES       11 4  2.87                             116   -1.20 8  248 195 
 CHI  HZ I        11 4  8.30         2.5 0.20            118            248 195 
                                                                                
