 2015  618 1418 45.9 L   6.808 -73.200141.2  RSN  5 0.4 1.6LRSN                1
 GAP=129        0.94       6.0    12.8  9.3  0.4334E+02 -0.4166E+01 -0.2710E+02E
 Epicentro: ZAPATOCA - SANTANDER                                               3
 ACTION:UPD 15-09-10 22:13 OP:cam  STATUS:               ID:20150618141845 L   I
 OLDACT:REG 15-06-18 20:45 OP:stll STATUS:               ID:20150618140748     3
 2015-06-18-1407-48M.COL___300                                                 6
 STAT SP IPHASW D HRMM SECON CODA AMPLIT PERI AZIMU VELO AIN AR TRES W  DIS CAZ7
 BAR2 EZ EP       1419  5.03                             170    0.0710 23.9 175 
 BAR2 EZ ES       1419 19.91                             170    0.0610 23.9 175 
 BAR2 EZ I        1419 21.11        10.2 0.22            170           23.9 175 
 BRR  HZ EP       1419  6.92                             154    0.7210 65.5 300 
 PAM  SZ EP       1419  7.95                             149    0.1510 80.7  43 
 RUS  HZ EP       1419  9.29                             142    0.0210  102 173 
 RUS  HN ES       1419 27.06                             142   -0.4810  102 173 
 RUS  HZ I        1419 28.52         5.7 0.34            143            102 173 
 SML  HZ EP       1419 21.47                             117   -0.41 8  240 337 
 SML  HN ES       1419 49.56                             117   -0.42 8  240 337 
                                                                                
