 2015  918 1513 10.5 L   6.772 -73.129137.9  RSN  9 0.5 2.0LRSN                1
 GAP=159        1.21       4.0     5.2  7.2 -0.2893E+01  0.9741E+01  0.5886E+01E
 Epicentro: LOS SANTOS - SANTANDER                                             3
 ACTION:UPD 15-10-28 16:27 OP:cam  STATUS:               ID:20150918151310 L   I
 OLDACT:REG 15-09-18 21:06 OP:drio STATUS:               ID:20150918150749     3
 2015-09-18-1507-49M.COL___352                                                 6
 STAT SP IPHASW D HRMM SECON CODA AMPLIT PERI AZIMU VELO AIN AR TRES W  DIS CAZ7
 BAR2 EZ EP       1513 29.31                             171    0.1810 20.7 196 
 BAR2 EZ ES       1513 43.12                             171   -0.5410 20.7 196 
 BAR2 EZ I        1513 45.37        18.9 0.16            166           20.7 196 
 BRR  HZ EP       1513 31.31                             150    0.3210 74.3 300 
 BRR  HN ES       1513 47.99                             150    1.0310 74.3 300 
 BRR  HZ I        1513 51.93        25.4 0.22            146           74.3 300 
 PAM  EZ EP       1513 32.19                             149    0.2310 78.7  37 
 PAM  EN ES       1513 48.54                             149   -0.1710 78.7  37 
 PTB  HZ EP       1513 36.11                             130   -0.84 9  149 260 
 PTB  HN ES       1513 56.77                             130   -0.80 9  149 260 
 PTB  HZ I        1514 12.39        14.4 0.18            129            149 260 
 SPBC HZ EP       1513 38.22                             127   -0.06 9  162 220 
 SPBC HN ES       1514  0.16                             127    0.21 9  162 220 
 SPBC HZ I        1514  6.07        12.5 0.10            128            162 220 
 ZAR  HZ EP       1513 42.64                             120   -0.10 8  207 293 
 ZAR  HN ES       1514  8.30                             120    0.41 8  207 293 
 ZAR  HZ I        1514 13.34        14.3 0.42            121            207 293 
 CHI  HZ EP       1513 47.70                             116    0.21 8  246 196 
 CHI  HN ES       1514 16.25                             116   -0.10 8  246 196 
 CHI  HZ I        1514 20.94         2.7 0.34            118            246 196 
 SML  HZ EP   4   1513 45.44                             115   -1.65 0  247 335 
 SML  HE ES       1514 14.96                             115   -0.67 8  247 335 
 SML  HZ I        1514 20.53        10.1 0.10            118            247 335 
 GUY2CHZ EP       1513 54.29                             111    0.57 7  301 235 
 GUY2CHE ES       1514 27.59                             111    0.16 7  301 235 
 GUY2CHZ I        1514 34.70         4.3 0.22                           301 235 
 SJC  HZ EP   4   1514  3.87                             104   -2.37 0  413 327 
 SJC  HE ES   4   1514 45.98                             104   -3.73 0  413 327 
                                                                                
