 2011  918 1147 11.7 L   6.842 -73.157154.8  RSN 10 0.3 1.9LRSN                1
 GAP=133        0.41       3.3     3.4  5.9 -0.1078E+01  0.5714E+01  0.7543E+01E
 Epicentro: LOS SANTOS - SANTANDER                                             3
 ACTION:UPD 12-07-13 15:58 OP:ep   STATUS:               ID:20110918114711 L   I
 2011-09-18-1144-39S.COL___170                                                 6
 STAT SP IPHASW D HRMM SECON CODA AMPLIT PERI AZIMU VELO AIN AR TRES W  DIS CAZ7
 BTL  SZ EP   1   1147 32.57                             174    0.28 7 14.9 305 
 BRR  HZ EP   2   1147 33.64                             155   -0.03 5 68.0 296 
 BRR  HZ I        1147 49.00         6.3 0.12                          68.0 296 
 BRR  HE ES   2   1147 50.99                             155    0.19 5 68.0 296 
 PAM  SZ EP   2   1147 34.78                             153    0.04 5 74.7  43 
 PAM  SN ES   2   1147 52.57                             153   -0.14 5 74.7  43 
 RUS  HZ EP   2   1147 36.18                             144   -0.50 5  105 176 
 RUS  HN ES   2   1147 55.78                             144   -0.38 5  105 176 
 RUS  HZ I        1147 56.92        10.3 0.33                           105 176 
 ZAR  HN ES   2   1148  9.98                             125   -0.04 4  201 291 
 ZAR  HZ I        1148 16.07         9.9 0.12                           201 291 
 NOR  SN ES   2   1148 16.86                             120    0.28 4  236 233 
 CHI  HZ EP   2   1147 50.43                             118    0.07 4  253 195 
 CHI  HN ES   2   1148 21.30                             118    0.79 4  253 195 
 CHI  HZ I        1148 23.10         5.5 0.51                           253 195 
 HEL  HZ EP   2   1147 52.10                             116   -0.29 4  272 255 
 HEL  HN ES   2   1148 23.85                             116   -0.27 4  272 255 
 HEL  HZ I        1148 33.01         4.8 0.31                           272 255 
 RREF HZ EP   2   1147 58.40                             112   -0.08 3  324 229 
 RREF HN ES   2   1148 34.46                             112   -0.51 3  324 229 
 RREF HZ I        1148 40.51         5.8 0.70                           324 229 
 PRA  HZ EP   2   1148  6.18                             108    0.24 3  395 209 
 PRA  HN ES   2   1148 48.29                             108    0.04 3  395 209 
                                                                                
