 2010  818 1913 29.0 L   6.804 -73.002139.2  RSN  5 0.4 1.6LRSN                1
 GAP=181        0.97       8.1    15.9 12.3  0.7007E+02 -0.1032E+03 -0.4587E+02E
 Epicentro: CEPITA - SANTANDER                                                 3
 ACTION:UP  10-09-07 10:56 OP:vdl  STATUS:               ID:20100818191328 L   I
 2010-08-18-1909-42S.COL___116                                                 6
 STAT SP IPHASW D HRMM SECON CODA AMPLIT PERI AZIMU VELO SNR AR TRES W  DIS CAZ7
 BAR2 SZ EP       1913 47.83                             167    -0.210   31 220 
 BAR2 SZ ES   1   1914  2.22                             167    -0.6 7   31 220 
 BAR2 SZ I        1914  5.11        11.9 0.39                            31 220 
 GIR2 SZ EP   1   1913 48.45                             164     0.4 7   37 325 
 BRR  HZ IP     D 1913 49.97                             147    -0.310   85 293 
 BRR  HZ I        1913 50.18        25.1 0.16                            85 293 
 BRR  HE ES   1   1914  7.37                             147     0.4 7   85 293 
 RUS  HZ EP       1913 52.10                             142     0.010  101 185 
 RUS  HE ES   1   1914 10.67                             142     0.5 7  101 185 
 RUS  HZ I        1914 11.88         4.9 0.50                           101 185 
 GUE  SZ EP   1   1913 53.05                             139     0.2 7  114   4 
 GUE  SZ I        1914 17.20         2.8 0.11                           114   4 
                                                                                
