 2015  918 1126  5.4 L   6.912 -73.092134.7  RSN  4 0.3 1.6LRSN                1
 GAP=223        0.72       5.9     6.5  6.4  0.1966E+02 -0.4786E+01 -0.2032E+02E
 Epicentro: PIEDECUESTA - SANTANDER                                            3
 ACTION:UPD 15-10-28 16:27 OP:cam  STATUS:               ID:20150918112605 L   I
 OLDACT:REG 15-09-18 20:38 OP:drio STATUS:               ID:20150918111749     3
 2015-09-18-1117-49M.COL___355                                                 6
 STAT SP IPHASW D HRMM SECON CODA AMPLIT PERI AZIMU VELO AIN AR TRES W  DIS CAZ7
 BAR2 EZ EP       1126 23.78                             164   -0.3310 36.8 196 
 BAR2 EZ ES       1126 38.76                             164    0.0910 36.8 196 
 BAR2 EZ I        1126 40.46         8.2 0.20            163           36.8 196 
 BRR  HZ EP       1126 25.79                             150    0.3610 71.8 287 
 BRR  HN ES       1126 40.98                             150   -0.0510 71.8 287 
 ZAR  HZ EP       1126 37.72                             120    0.41 8  205 288 
 ZAR  HE ES       1127  1.88                             120   -0.30 8  205 288 
 ZAR  HZ I        1127  8.49         3.0 0.36            119            205 288 
 SML  HZ EP       1126 40.14                             116   -0.38 8  235 333 
 SML  HN ES       1127  8.04                             116    0.16 8  235 333 
 SML  HZ I        1127 11.65         5.1 0.28            116            235 333 
                                                                                
