 2017  218 1910 23.5 L   6.831 -73.152150.3  RSN  9 0.5 1.7LRSN                1
 GAP=134        1.22       4.5     4.8  7.0  0.2618E+01  0.1149E+02  0.4214E+01E
 Epicentro: LOS SANTOS - SANTANDER                                             3
 ACTION:UPD 17-05-24 15:37 OP:jn   STATUS:               ID:20170218191023 L   I
 OLDACT:UP  17-02-19 01:27 OP:dani STATUS:               ID:20170218190745     3
 OLDACT:UP  17-02-19 01:26 OP:dani STATUS:               ID:20170218190745     3
 OLDACT:REG 17-02-18 21:52 OP:dani STATUS:               ID:20170218190745     3
 2017-02-18-1908-00M.COL___354                                                 6
 STAT SP IPHASW D HRMM SECON CODA AMPLIT PERI AZIMU VELO AIN AR TRES W  DIS CAZ7
 BAR2 EZ EP       1910 43.84                             170    0.0710 26.6 187 
 BAR2 EZ ES       1910 59.43                             170   -0.1310 26.6 187 
 BAR2 EZ I        1911  0.48        11.8 0.16            168           26.6 187 
 BRR  HZ EP       1910 45.80                             154    0.7410 69.1 296 
 BRR  HN ES       1911  2.51                             154    0.6710 69.1 296 
 BRR  HZ I        1911  6.59        10.3 0.21            152           69.1 296 
 PAM  EZ EP       1910 46.42                             152    0.3110 75.2  42 
 PAM  EN ES       1911  3.34                             152   -0.3810 75.2  42 
 PAM  EZ I        1911  6.04         3.9 0.48            158           75.2  42 
 RUS  HZ EP       1910 47.83                             144   -0.1510  104 176 
 RUS  HN ES       1911  6.45                             144   -0.5910  104 176 
 RUS  HZ I        1911  7.57         5.1 0.29            146            104 176 
 PTB  HZ EP       1910 50.77                             133   -0.11 9  148 257 
 PTB  HN ES       1911 11.68                             133   -0.53 9  148 257 
 PTB  HZ I        1911 19.24         5.7 0.40            133            148 257 
 ZAR  HZ EP       1910 55.20                             124   -0.89 9  202 291 
 ZAR  HN ES       1911 22.14                             124    0.66 9  202 291 
 ZAR  HZ I        1911 28.05         5.8 0.22            124            202 291 
 NOR  HZ EP       1910 59.98                             119    0.30 8  236 234 
 NOR  HN ES       1911 28.23                             119    0.35 8  236 234 
 NOR  HZ I        1911 33.20         5.0 0.19            120            236 234 
 CHI  HZ EP       1911  2.05                             118    0.23 8  252 195 
 CHI  HN ES       1911 32.08                             118    0.40 8  252 195 
 CHI  HZ I        1911 37.09         2.1 0.24            120            252 195 
 URE  HZ EP       1911  4.47                             115   -0.15 7  282 291 
 URE  HN ES       1911 35.64                             115   -1.03 7  282 291 
                                                                                
