 2017  818 1214 16.6 L   6.234 -73.599 52.0  RSN  9 0.3 1.7LRSN                1
 GAP= 96        0.56       2.1     2.0  6.2 -0.1387E+01  0.8009E+01 -0.4560E+01E
 Epicentro: LA PAZ - SANTANDER                                                 3
 ACTION:UPD 17-09-04 20:21 OP:rebc STATUS:               ID:20170818121416 L   I
 OLDACT:UP  17-08-18 21:36 OP:and  STATUS:               ID:20170818120538     3
 OLDACT:UP  17-08-18 21:35 OP:and  STATUS:               ID:20170818120538     3
 OLDACT:UP  17-08-18 21:35 OP:and  STATUS:               ID:20170818120538     3
 OLDACT:UP  17-08-18 21:35 OP:and  STATUS:               ID:20170818120538     3
 OLDACT:UP  17-08-18 21:35 OP:and  STATUS:               ID:20170818120538     3
 OLDACT:REG 17-08-18 20:20 OP:and  STATUS:               ID:20170818120538     3
 2017-08-18-1208-00M.COL___407                                                 6
 STAT SP IPHASW D HRMM SECON CODA AMPLIT PERI AZIMU VELO AIN AR TRES W  DIS CAZ7
 BAR2 EZ IP     C 1214 28.56                             125    0.2510 60.7  49 
 BAR2 EZ ES       1214 37.35                             125   -0.1110 60.7  49 
 RUS  HZ IP     D 1214 29.40                             122   -0.0610 68.4 123 
 RUS  HN ES       1214 39.44                             122   -0.0610 68.4 123 
 RUS  HZ I        1214 43.25        10.8 0.16            127           68.4 123 
 SPBC HZ EP   9   1214 31.85                             115    1.28 0 83.0 219 
 SPBC HN ES       1214 43.19                             117    0.4410 83.0 219 
 SPBC HZ I        1214 46.68        47.4 0.10            119           83.0 219 
 BRR  HZ IP     C 1214 32.27                             110    0.1610 97.3 353 
 BRR  HE ES   2   1214 44.69                             110    0.47 5 97.3 353 
 BRR  HZ I        1214 45.28        53.7 0.14            117           97.3 353 
 PAM  EZ EP       1214 39.88                             100   -0.07 9  158  39 
 PAM  EN ES   3   1214 59.14                             100    0.96 2  158  39 
 PAM  EZ I        1215  0.93         8.1 0.20            105            158  39 
 NOR  HZ EP   2   1214 39.28                             100   -0.33 5  159 242 
 NOR  HN ES       1214 57.54                             100   -0.02 9  159 242 
 NOR  HZ I        1215  2.17         6.5 0.26            104            159 242 
 ZAR  HZ EP       1214 44.00                              97   -0.17 9  197 315 
 ZAR  HN ES   2   1215  4.83                              97   -0.86 4  197 315 
 ZAR  HZ I        1215  5.84        10.1 0.24            101            197 315 
 HEL  HZ EP   2   1214 47.11                              96    0.42 4  214 269 
 HEL  HN ES       1215 10.18                              96    0.02 8  214 269 
 HEL  HZ I        1215 11.28         4.5 0.38            100            214 269 
 GUY2CHZ EP   9   1214 49.84                              96    1.60 0  225 240 
 GUY2CHN ES       1215 14.48                              95   -0.05 8  225 240 
 GUY2CHZ I        1215 17.65         4.5 0.20                           225 240 
                                                                                
