 2016  518 1310  5.8 L   6.815 -73.142140.8  RSN 18 0.4 2.5LRSN                1
 GAP= 71        0.94       2.7     3.1  5.1 -0.1632E+01  0.5451E+01  0.2169E+01E
 Epicentro: LOS SANTOS - SANTANDER                                             3
 ACTION:UPD 16-08-18 17:47 OP:cam  STATUS:               ID:20160518131005 L   I
 OLDACT:UP  16-05-18 22:03 OP:drio STATUS:               ID:20160518130742     3
 OLDACT:REG 16-05-18 21:07 OP:drio STATUS:               ID:20160518130742     3
 2016-05-18-1307-42M.COL___298                                                 6
 STAT SP IPHASW D HRMM SECON CODA AMPLIT PERI AZIMU VELO AIN AR TRES W  DIS CAZ7
 BAR2 EZ EP       1310 24.80                             169   -0.0710 25.0 190 
 BAR2 EZ ES       1310 39.91                             169    0.1610 25.0 190 
 BAR2 EZ I        1310 40.82        68.8 0.18            166           25.0 190 
 BRR  HZ EP       1310 26.74                             152    0.3510 70.8 297 
 BRR  HE ES   4   1310 43.48                             152    1.02 0 70.8 297 
 BRR  HZ I        1310 47.56        40.7 0.10            148           70.8 297 
 PAM  EZ EP       1310 27.75                             150    0.3510 75.8  40 
 PAM  EE ES       1310 44.59                             150    0.3410 75.8  40 
 PAM  EZ I        1310 46.53        95.7 0.46            155           75.8  40 
 RUS  HZ EP       1310 28.91                             142   -0.2810  102 176 
 RUS  HE ES       1310 47.09                             142   -0.3510  102 176 
 RUS  HZ I        1310 49.03        57.0 0.40            144            102 176 
 PTB  HZ EP       1310 31.70                             131   -0.74 9  149 258 
 PTB  HN ES   4   1310 52.17                             131   -1.05 0  149 258 
 PTB  HZ I        1310 55.85        38.4 0.16            129            149 258 
 TAM  HZ EP       1310 33.15                             129    0.06 9  155 106 
 TAM  HN ES       1310 54.63                             129    0.25 9  155 106 
 OCA  HZ EP       1310 33.24                             129   -0.34 9  159 353 
 OCA  HN ES       1310 54.56                             129   -0.68 9  159 353 
 SPBC HZ EP       1310 33.87                             128   -0.21 9  165 219 
 SPBC HE ES       1310 55.79                             128   -0.34 9  165 219 
 SPBC HZ I        1311  2.71        48.0 0.22            127            165 219 
 ZAR  HZ EP   4   1310 38.99                             121    1.09 0  204 292 
 ZAR  HE ES       1311  3.61                             121    0.67 9  204 292 
 ZAR  HZ I        1311  8.65        31.5 0.44            121            204 292 
 NOR  HZ EP       1310 41.33                             117   -0.06 8  236 234 
 NOR  HN ES       1311  9.35                             117    0.20 8  236 234 
 NOR  HZ I        1311 17.57        21.3 0.14            117            236 234 
 CHI  HZ EP       1310 43.33                             116   -0.09 8  250 195 
 CHI  HN ES   4   1311 12.01                             116   -0.75 0  250 195 
 CHI  HZ I        1311 15.81        10.3 0.32            117            250 195 
 ROSC BZ EP       1310 44.35                             115    0.51 8  254 211 
 ROSC BE ES       1311 13.12                             115   -0.38 8  254 211 
 ROSC BZ I        1311 19.33        24.5 0.40            116            254 211 
 HEL  HZ EP   4   1310 47.09                             114    1.23 0  273 255 
 HEL  HN ES   4   1311 16.05                             114   -1.05 0  273 255 
 HEL  HZ I        1311 24.08        19.2 0.44            114            273 255 
 CBOC HZ EP       1310 53.06                             109    0.44 7  335 252 
 CBOC HE ES   4   1311 27.08                             109   -2.06 0  335 252 
 CBOC HZ I        1311 41.13         5.6 0.36            109            335 252 
 ANIL HZ EP   4   1310 57.17                             107    1.58 0  359 224 
 ANIL HE ES   4   1311 36.30                             107    1.87 0  359 224 
 ANIL HZ I        1311 40.94        37.0 0.32            108            359 224 
 PRA  HZ EP       1310 58.88                             106   -0.47 6  394 210 
 PRA  HN ES       1311 41.46                             106    0.34 6  394 210 
 PRA  HZ I        1311 46.73        10.2 0.26            106            394 210 
 ORTC HZ EP       1311  0.03                             105    0.29 6  397 216 
 ORTC HN ES       1311 42.84                             105    1.02 6  397 216 
 ORTC HZ I        1311 48.03         7.9 0.44            106            397 216 
 CRJC HZ EP   4   1311  5.45                             103   -2.51 0  466   4 
 CRJC HE ES   4   1311 50.14                             103   -6.31 0  466   4 
 CRJC HZ I        1312  5.03         4.4 0.34            104            466   4 
                                                                                
