 2012  518 1541 18.1 L   6.770 -73.153143.1  RSN  7 0.4 1.9LRSN                1
 GAP=137        0.91       5.7     5.4  8.1  0.3570E+01  0.8162E+01  0.7916E+01E
 Epicentro: LOS SANTOS - SANTANDER                                             3
 ACTION:UP  12-07-05 12:06 OP:pat  STATUS:               ID:20120518154118 L   I
 2012-05-18-1540-00M.COL___200                                                 6
 STAT SP IPHASW D HRMM SECON CODA AMPLIT PERI AZIMU VELO SNR AR TRES W  DIS CAZ7
 BAR2 SZ EP   1   1541 37.34                             172     0.0 7   20 190 
 BAR2 SZ ES   1   1541 51.99                             172    -0.3 7   20 190 
 BAR2 SZ I        1541 54.00        23.0 0.19                            20 190 
 BRR  HZ EP   1   1541 39.17                             152     0.2 7   72 301 
 BRR  HZ I        1541 39.41        23.2 0.13                            72 301 
 BRR  HN ES   1   1541 56.18                             152     0.9 7   72 301 
 PAM  SZ EP   1   1541 40.34                             149     0.2 7   80  38 
 PAM  SE ES   1   1541 57.00                             149    -0.4 7   80  38 
 RUS  HZ EP   1   1541 41.36                             144     0.1 7   97 175 
 RUS  HN ES   1   1541 59.49                             144     0.0 7   97 175 
 RUS  HZ I        1542  1.29         6.7 0.47                            97 175 
 PTB  HZ EP   1   1541 44.08                             132    -0.6 7  146 260 
 PTB  HE ES   1   1542  5.14                             132    -0.3 7  146 260 
 PTB  HZ I        1542  7.76         7.0 0.17                           146 260 
 ZAR  HN ES   1   1542 15.38                             122    -0.2 6  205 293 
 CHI  HZ EP   1   1541 55.65                             117     0.4 6  245 195 
 CHI  HZ I        1542 28.62         4.8 0.53                           245 195 
                                                                                
