 2012  518 1054 36.4 L   7.277 -73.659 28.2  RSN  7 0.4 1.6LRSN                1
 GAP= 99        0.93       3.8     3.2  3.6 -0.1861E+01 -0.1089E+01 -0.3960E+01E
 Epicentro: SABANA DE TORRES - SANTANDER                                       3
 ACTION:UP  12-07-05 12:06 OP:pat  STATUS:               ID:20120518105436 L   I
 2012-05-18-1050-00M.COL___200                                                 6
 STAT SP IPHASW D HRMM SECON CODA AMPLIT PERI AZIMU VELO SNR AR TRES W  DIS CAZ7
 BRR  HZ EP       1054 41.66                             141    -0.210   20 197 
 BRR  HZ I        1054 41.92        71.6 0.13                            20 197 
 BRR  HN ES   1   1054 46.52                             141     0.4 7   20 197 
 BAR2 SZ EP   1   1054 50.85                              61    -0.6 7   92 145 
 BAR2 SZ I        1055  2.95        11.3 0.13                            92 145 
 PAM  SZ EP   1   1054 53.36                              61    -0.2 7  106  86 
 PAM  SN ES   1   1055  6.82                              61    -0.1 7  106  86 
 OCA  HZ EP   1   1054 54.02                              61     0.1 7  113  19 
 OCA  HE ES   2   1055  7.88                              61     0.3 5  113  19 
 PTB  HZ EP   1   1054 54.28                              61    -0.4 7  120 227 
 PTB  HN ES   1   1055  8.58                              61    -0.4 7  120 227 
 PTB  HZ I        1055  9.00         7.9 0.19                           120 227 
 ZAR  HN ES   1   1055 12.57                              61     0.4 7  134 280 
 RUS  HZ EP   1   1055  1.65                              61     0.7 7  166 157 
 RUS  HN ES   1   1055 20.78                              61     0.6 7  166 157 
 RUS  HZ I        1055 22.48         9.0 0.27                           166 157 
                                                                                
