 2012 1118 1107 26.6 L   6.824 -73.177147.2  RSN 19 0.6 2.5LRSN                1
 GAP= 69        1.37       3.2     4.8  6.2 -0.2519E+01  0.6056E+01  0.3607E+01E
 Epicentro: LOS SANTOS - SANTANDER                                             3
 ACTION:UPD 12-12-05 15:34 OP:}ep  STATUS:               ID:20121118110726 L   I
 2012-11-18-1100-00M.COL___234                                                 6
 STAT SP IPHASW D HRMM SECON CODA AMPLIT PERI AZIMU VELO AIN AR TRES W  DIS CAZ7
 BAR2 SZ IP       11 7 46.48                             170    0.0510 25.7 181 
 BAR2 SZ I        11 7 46.83        62.6 0.34                          25.7 181 
 BAR2 SZ ES       11 8  1.36                             170   -0.5510 25.7 181 
 GIR2 SZ EP       11 7 46.54                             169    0.1910 28.2 356 
 GIR2 SZ ES       11 8  1.18                             169   -0.5810 28.2 356 
 BRR  HZ IP     C 11 7 48.28                             154    0.6310 66.9 298 
 BRR  HN ES       11 8  5.21                             154    1.1310 66.9 298 
 BRR  HN I        11 8  8.50        84.6 0.16                          66.9 298 
 PAM  SZ EP       11 7 49.17                             151    0.2010 77.7  43 
 PAM  SN ES       11 8  6.47                             151    0.0510 77.7  43 
 PAM  SN I        11 8  7.82        41.2 0.28                          77.7  43 
 RUS  HZ EP       11 7 50.48                             143   -0.2110  104 174 
 RUS  HN I        11 8 11.05        25.3 0.38                           104 174 
 PTB  HZ EP       11 7 52.96                             133   -0.45 9  145 258 
 PTB  HN I        11 8 19.52        31.5 0.38                           145 258 
 OCA  HZ EP       11 7 54.57                             130   -0.15 9  157 354 
 OCA  HN ES       11 8 16.51                             130   -0.16 9  157 354 
 OCA  HN I        11 8 23.34        66.6 0.20                           157 354 
 TAM  HZ EP       11 7 54.87                             130    0.12 9  159 106 
 TAM  HZ I        11 7 55.02        22.6 0.36                           159 106 
 ZAR  HZ EP       11 7 59.71                             123    1.02 9  200 292 
 ZAR  HE ES       11 8 24.48                             123    0.75 9  200 292 
 ZAR  HN I        11 8 29.55        36.6 0.52                           200 292 
 SML  HZ EP       11 8  2.86                             118   -0.01 8  240 336 
 SML  HN ES       11 8 30.70                             118   -0.47 8  240 336 
 SML  HN I        11 8 37.69        44.3 0.10                           240 336 
 CHI  HZ EP       11 8  4.95                             117    0.40 8  250 194 
 CHI  HN ES       11 8 34.27                             117    0.11 8  250 194 
 CHI  HN I        11 8 36.90        30.1 0.58                           250 194 
 ROSC BN ES       11 8 34.51                             117   -0.17 8  253 210 
 ROSC BZ I        11 8 40.26        23.2 0.40                           253 210 
 HEL  HN ES       11 8 35.80                             115   -1.96 8  269 255 
 RREF HN ES       11 8 49.30                             111    0.65 7  321 229 
 RREF HZ I        11 8 55.25         5.3 0.26                           321 229 
 COD  HZ EP       11 8 14.21                             109   -0.47 7  345 355 
 COD  HE ES       11 8 51.32                             109   -0.86 7  345 355 
 COD  HN I        11 8 56.72         4.2 0.32                           345 355 
 ANIL HE ES       11 8 55.17                             109   -0.06 6  357 224 
 ANIL HZ I        11 9  4.12        21.1 0.52                           357 224 
 PRA  HZ EP       11 8 20.57                             107    0.34 6  393 209 
 PRA  HN ES       11 9  1.20                             107   -0.87 6  393 209 
 PRA  HN I        11 9  6.58         6.9 0.54                           393 209 
 SJA  SZ EP       11 8 22.07                             106    0.66 6  402 192 
 SJA  SZ ES       11 9  3.91                             106   -0.25 6  402 192 
 SJA  SZ I        11 9  5.14        14.8 0.42                           402 192 
 SJC  HN EP   1   11 8 21.23                             106   -0.48 4  405 327 
                                                                                
