 2011 1118 1558 34.6 L   6.783 -73.179140.0  RSN 10 0.3 2.6LRSN                1
 GAP=133        0.58       2.6     3.7  5.1 -0.1707E+01  0.9065E+01 -0.6728E+00E
 Epicentro: LOS SANTOS - SANTANDER                                             3
 ACTION:UPD 12-07-13 16:11 OP:ep   STATUS:               ID:20111118155834 L   I
 2011-11-18-1556-00S.COL___177                                                 6
 STAT SP IPHASW D HRMM SECON CODA AMPLIT PERI AZIMU VELO AIN AR TRES W  DIS CAZ7
 BAR2 SZ EP       1558 53.45                             171   -0.0510 21.1 181 
 BAR2 SZ ES   1   1559  8.08                             171   -0.16 7 21.1 181 
 BAR2 SZ I        1559 10.27        62.3 0.38                          21.1 181 
 BRR  HZ IP     C 1558 55.35                             152    0.3410 68.9 301 
 BRR  HZ I        1558 55.68       157.3 0.17                          68.9 301 
 PAM  SZ EP       1558 56.24                             149   -0.2210 81.2  41 
 PAM  SZ I        1558 56.52        26.0 0.21                          81.2  41 
 PAM  SN ES   1   1559 13.59                             149    0.09 7 81.2  41 
 RUS  HZ EP   1   1558 57.65                             143   -0.04 7 99.0 174 
 RUS  HN ES   1   1559 15.92                             143    0.24 7 99.0 174 
 RUS  HZ I        1559 17.33       292.8 0.23                          99.0 174 
 OCA  SZ EP   1   1559  2.36                             128   -0.27 7  162 355 
 OCA  SZ ES   1   1559 24.67                             128    0.20 7  162 355 
 OCA  SZ I        1559 29.96        60.8 0.29                           162 355 
 ZAR  HZ EP   1   1559  5.86                             121   -0.55 6  201 293 
 ZAR  HN ES   1   1559 31.35                             121    0.14 6  201 293 
 ZAR  HZ I        1559 38.64        35.5 0.38                           201 293 
 NOR  SZ EP   1   1559  9.69                             118    0.12 6  231 234 
 NOR  SN ES   1   1559 36.22                             118   -0.61 6  231 234 
 HEL  HZ EP   2   1559 14.85                             114    0.77 4  268 256 
 HEL  HZ I        1559 51.86        18.0 0.34                           268 256 
 RREF HZ EP   1   1559 20.43                             110    0.39 5  318 229 
 PRA  HZ EP   1   1559 27.65                             106    0.12 4  389 209 
                                                                                
