 2017  118 1557 25.0 L   6.804 -73.159148.5  RSN 10 0.4 2.3LRSN                1
 GAP=135        0.94       3.4     3.7  5.2 -0.1106E+01  0.5314E+01  0.3103E+01E
 Epicentro: LOS SANTOS - SANTANDER                                             3
 ACTION:UPD 17-05-22 16:01 OP:jn   STATUS:               ID:20170118155725 L   I
 OLDACT:UP  17-01-19 00:00 OP:cog  STATUS:               ID:20170118154745d    3
 OLDACT:UP  17-01-18 23:53 OP:cog  STATUS:               ID:20170118154745d    3
 OLDACT:DUP 17-01-18 23:46 OP:cog  STATUS:               ID:20170118154745d    3
 2017-01-18-1548-00M.COL___337                                                 6
 STAT SP IPHASW D HRMM SECON CODA AMPLIT PERI AZIMU VELO AIN AR TRES W  DIS CAZ7
 BAR2 EZ EP       1557 44.69                             170   -0.2410 23.6 186 
 BAR2 EZ ES       1558  0.54                             170    0.0410 23.6 186 
 BAR2 EZ I        1558  0.95        40.8 0.18            168           23.6 186 
 BRR  HZ EP       1557 46.56                             154    0.2310 69.7 299 
 BRR  HE ES       1558  3.87                             154    0.8810 69.7 299 
 PAM  EZ EP       1557 47.65                             151    0.1410 78.0  41 
 PAM  EN ES       1558  4.73                             151   -0.3610 78.0  41 
 PAM  EZ I        1558  6.87        32.0 0.52            154           78.0  41 
 RUS  HZ EP       1557 48.68                             144   -0.3510  101 175 
 RUS  HE ES       1558  7.77                             144   -0.0310  101 175 
 RUS  HZ I        1558  8.47        33.9 0.28            143            101 175 
 PTB  HZ EP       1557 52.17                             133    0.13 9  146 259 
 PTB  HN ES       1558 12.70                             133   -0.45 9  146 259 
 PTB  HZ I        1558 14.45        16.0 0.14            133            146 259 
 ZAR  HZ EP       1557 57.39                             123   -0.05 9  203 292 
 ZAR  HE ES       1558 22.10                             123   -0.66 9  203 292 
 NOR  HZ EP       1558  0.75                             119   -0.01 8  234 234 
 NOR  HN ES       1558 29.12                             119    0.44 8  234 234 
 NOR  HZ I        1558 33.39         9.2 0.22            119            234 234 
 CHI  HZ EP       1558  2.90                             118    0.07 8  249 195 
 CHI  HN ES       1558 32.40                             118    0.04 8  249 195 
 CHI  HZ I        1558 35.69        11.1 0.61            117            249 195 
 ROSC BZ EP   9   1558  5.66                             117    2.46 0  252 211 
 ROSC BE ES       1558 35.78                                    0.30 8  252 211 
 ROSC BZ I        1558 39.39        25.5 0.40            117            252 211 
 GUY2CHZ EP       1558  9.29                             113    0.69 7  300 235 
 GUY2CHN ES       1558 42.16                             113   -0.47 7  300 235 
 ELA  HE ES   4   1558 49.96                             111    1.55 0  328 229 
                                                                                
