 2015  718 1102  0.9 L   6.776 -73.163146.6  RSN  5 0.1 1.5LRSN                1
 GAP=135        0.37       2.0     2.4  3.6  0.6455E+00  0.2805E+01 -0.1790E+01E
 Epicentro: LOS SANTOS - SANTANDER                                             3
 ACTION:UPD 15-09-08 21:49 OP:cam  STATUS:               ID:20150718110200 L   I
 OLDACT:REG 15-07-18 20:23 OP:spq  STATUS:               ID:20150718105744     3
 2015-07-18-1057-44M.COL___340                                                 6
 STAT SP IPHASW D HRMM SECON CODA AMPLIT PERI AZIMU VELO AIN AR TRES W  DIS CAZ7
 BAR2 EZ EP       11 2 20.58                             172    0.0110 20.5 186 
 BAR2 EZ ES   1   11 2 35.88                             172   -0.04 7 20.5 186 
 BAR2 EZ I        11 2 37.26         7.8 0.36            171           20.5 186 
 PAM  EZ EP     D 11 2 23.52                             150    0.1310 80.6  39 
 PAM  EE ES       11 2 40.98                             150    0.0410 80.6  39 
 PAM  EZ I        11 2 42.73         4.7 0.52            154           80.6  39 
 RUS  HZ EP   1   11 2 24.60                             145    0.05 7 98.1 175 
 RUS  HE ES   1   11 2 42.82                             145   -0.18 7 98.1 175 
 RUS  HZ I        11 2 44.77         2.1 0.60            148           98.1 175 
 ZAR  HE ES       11 2 58.75                             123    0.15 9  203 293 
 ZAR  HZ I        11 3  5.22         4.1 0.26            123            203 293 
 SML  HZ EP       11 2 37.60                             117   -0.13 8  245 336 
 SML  HN ES   1   11 3  6.15                             117   -0.32 6  245 336 
 SML  HZ I        11 3  8.91         3.3 0.08            119            245 336 
                                                                                
