 2016  918 1028 59.7 L   6.769 -73.152139.8  RSN  7 0.4 1.6LRSN                1
 GAP=137        1.12       4.6     4.7  7.1 -0.7233E+00  0.9015E+01  0.3033E+00E
 Epicentro: LOS SANTOS - SANTANDER                                             3
 ACTION:UPD 17-08-17 21:13 OP:lp   STATUS:               ID:20160918102859 L   I
 OLDACT:REG 16-09-18 22:28 OP:ar   STATUS:               ID:20160918102734     3
 2016-09-18-1028-00M.COL___366                                                 6
 STAT SP IPHASW D HRMM SECON CODA AMPLIT PERI AZIMU VELO AIN AR TRES W  DIS CAZ7
 BAR2 EZ EP       1029 18.45                             172   -0.0610 19.8 190 
 BAR2 EZ ES       1029 33.23                             172    0.0310 19.8 190 
 BAR2 EZ I        1029 34.65        15.7 0.16            169           19.8 190 
 BRR  HZ EP       1029 20.28                             151    0.0410 72.3 301 
 BRR  HN ES       1029 36.70                             151    0.4210 72.3 301 
 BRR  HZ I        1029 38.02         5.2 0.06            150           72.3 301 
 PAM  EZ EP       1029 21.40                             149   -0.0410 80.5  38 
 PAM  EN ES       1029 38.36                             149   -0.0610 80.5  38 
 PAM  EZ I        1029 38.86         6.2 0.30            153           80.5  38 
 RUS  HZ EP       1029 22.33                             144   -0.2610 97.2 176 
 RUS  HE ES       1029 40.44                             144   -0.0210 97.2 176 
 RUS  HZ I        1029 42.39         2.7 0.14            144           97.2 176 
 PTB  HZ EP       1029 25.26                             131   -0.77 9  146 260 
 PTB  HN ES       1029 45.85                             131   -0.75 9  146 260 
 PTB  HZ I        1029 48.10         4.3 0.12            130            146 260 
 SPBC HZ EP       1029 27.60                             128    0.18 9  160 220 
 SPBC HN ES       1029 49.71                             128    0.65 9  160 220 
 SPBC HZ I        1029 56.67        10.2 0.06            128            160 220 
 ZAR  HZ EP       1029 32.80                             121    1.00 9  205 293 
 ZAR  HN ES       1029 56.69                             121   -0.18 9  205 293 
 ZAR  HZ I        1030  3.19         6.0 0.40            121            205 293 
                                                                                
