 2014 1018 1313  5.6 L   6.490 -73.606109.4  RSN  4 0.1 1.5LRSN                1
 GAP=135        0.44       2.6     2.2  4.1  0.2397E+01  0.2449E+01  0.2788E+01E
 Epicentro: SANTA HELENA DEL OPON - SANTANDER                                  3
 ACTION:UPD 14-11-29 23:50 OP:nd   STATUS:               ID:20141018131305 L   I
 OLDACT:UP  14-10-18 23:41 OP:cam  STATUS:               ID:20141018130821d    3
 OLDACT:DUP 14-10-18 23:32 OP:cam  STATUS:               ID:20141018130821d    3
 OLDACT:UP  14-10-18 23:28 OP:cam  STATUS:               ID:20141018130820     3
 OLDACT:UP  14-10-18 23:28 OP:cam  STATUS:               ID:20141018130820     3
 OLDACT:REG 14-10-18 20:52 OP:cam\ STATUS:               ID:20141018130820     3
 2014-10-18-1308-20M.COL___279                                                 6
 STAT SP IPHASW D HRMM SECON CODA AMPLIT PERI AZIMU VELO AIN AR TRES W  DIS CAZ7
 BAR2 SZ EP     C 1313 21.95                             155    0.0310 48.2  76 
 BAR2 SZ ES       1313 34.43                             155   -0.1810 48.2  76 
 BRR  HZ EP       1313 22.72                             145   -0.1410 69.2 350 
 BRR  HN ES       1313 36.50                             145    0.2010 69.2 350 
 BRR  HN I        1313 40.50        20.1 0.50            147           69.2 350 
 RUS  HZ EP       1313 25.16                             139    0.2010 87.8 139 
 RUS  HN ES       1313 40.01                             139   -0.0110 87.8 139 
 RUS  HZ I        1313 42.17         3.5 0.34            142           87.8 139 
 PTB  HZ EP       1313 24.69                             136   -0.1410 94.2 273 
 PTB  HN ES       1313 39.82                             136    0.0310 94.2 273 
                                                                                
