 2010  718 1520 10.4 L   6.773 -73.081148.9  RSN  5 0.0 1.8LRSN                1
 GAP=189        0.30       3.6     7.5  6.0  0.2146E+02 -0.3674E+02 -0.1603E+02E
 Epicentro: LOS SANTOS - SANTANDER                                             3
 ACTION:UPD 10-12-01 15:18 OP:pat  STATUS:               ID:20100718152010 L   I
 2010-07-18-1515-43S.COL___119                                                 6
 STAT SP IPHASW D HRMM SECON CODA AMPLIT PERI AZIMU VELO AIN AR TRES W  DIS CAZ7
 BAR2 SZ EP       1520 30.38                             171     0.010   23 209 
 BAR2 SZ I        1520 30.78        13.3 0.28                            23 209 
 GIR2 SZ EP   1   1520 30.50                             166    -0.1 7   36 340 
 BRR  HZ EP       1520 32.35                             151     0.010   79 298 
 BRR  HN ES       1520 49.45                             151     0.010   79 298 
 BRR  HZ I        1520 52.06        16.5 0.04                            79 298 
 RUS  HZ EP   1   1520 34.24                             145     0.0 7   97 180 
 RUS  HN ES   1   1520 52.90                             145     0.1 7   97 180 
 RUS  HZ I        1520 54.05         6.0 0.19                            97 180 
 OCA  SZ EP       1520 39.41                             130     0.1 9  164 351 
 OCA  SZ I        1521  6.10        10.5 0.59                           164 351 
                                                                                
