 2013  318 1011 41.0 L   6.772 -73.177150.0  RSN  5 0.3 1.8LRSN                1
 GAP=198        0.70       3.9     4.4  6.1  0.7217E+01  0.7282E+00 -0.1059E+02E
 Epicentro: LOS SANTOS - SANTANDER                                             3
 ACTION:UPD 13-04-09 14:03 OP:ep   STATUS:               ID:20130318101141 L   I
 2013-03-18-1010-00M.COL___243                                                 6
 STAT SP IPHASW D HRMM SECON CODA AMPLIT PERI AZIMU VELO AIN AR TRES W  DIS CAZ7
 BAR2 SZ EP       1012  1.32                             172    0.2410 19.9 182 
 BAR2 SZ ES       1012 16.43                             172   -0.3110 19.9 182 
 BAR2 SZ I        1012 17.39         8.8 0.46            172           19.9 182 
 RUS  HZ EP       1012  5.31                             145    0.3310 97.8 174 
 RUS  HN ES       1012 23.66                             145   -0.0210 97.8 174 
 RUS  HN I        1012 24.86         5.6 0.20            147           97.8 174 
 PTB  HZ EP       1012  7.79                             134   -0.17 9  144 260 
 PTB  HN ES       1012 28.93                             134   -0.07 9  144 260 
 PTB  HN I        1012 34.30         8.9 0.42            133            144 260 
 ZAR  HZ EP   2   1012 13.13                             123   -0.39 4  202 293 
 ZAR  HE ES       1012 39.14                             123    0.25 9  202 293 
 SML  HZ EP       1012 17.45                             118   -0.56 8  245 336 
 SML  HN ES       1012 47.21                             118    0.33 8  245 336 
 SML  HN I        1012 50.38         7.7 0.10            119            245 336 
                                                                                
