 2015 1118 1213  5.4 L   6.795 -73.115145.4  RSN 13 0.4 1.9LRSN                1
 GAP=141        0.99       3.2     4.5  5.9 -0.1603E+01  0.1012E+02  0.8312E+00E
 Epicentro: LOS SANTOS - SANTANDER                                             3
 ACTION:UPD 15-12-28 16:11 OP:cam  STATUS:               ID:20151118121305 L   I
 OLDACT:UP  15-12-03 20:24 OP:cam  STATUS:               ID:20151118121305 L   3
 OLDACT:UP  15-11-19 06:52 OP:CARA STATUS:               ID:20151118121305 L   3
 OLDACT:UP  15-11-19 01:55 OP:dnl  STATUS:               ID:20151118120750     3
 OLDACT:REG 15-11-18 20:57 OP:dnl  STATUS:               ID:20151118120750     3
 2015-11-18-1207-50M.COL___307                                                 6
 STAT SP IPHASW D HRMM SECON CODA AMPLIT PERI AZIMU VELO AIN AR TRES W  DIS CAZ7
 BAR2 EZ EP       1213 24.84                             170   -0.1310 23.6 198 
 BAR2 EZ ES       1213 39.55                             170   -0.6910 23.6 198 
 BAR2 EZ I        1213 42.63        13.3 0.28            169           23.6 198 
 BRR  HZ EP       1213 27.04                             151    0.3710 74.5 298 
 BRR  HE ES       1213 44.06                             151    0.7810 74.5 298 
 BRR  HZ I        1213 47.34        10.2 0.38            149           74.5 298 
 PAM  EZ EP       1213 27.86                             151    0.4110 75.7  37 
 PAM  EZ E        1213 27.86                                           75.7  37 
 PAM  EN ES       1213 44.93                             151    0.2610 75.7  37 
 PAM  EZ I        1213 47.08        15.3 0.60            155           75.7  37 
 RUS  HZ EP       1213 28.96                             144   -0.0810 99.8 178 
 RUS  HE ES       1213 47.21                             144   -0.2810 99.8 178 
 RUS  HZ I        1213 48.55         7.5 0.26            147           99.8 178 
 SPBC HZ EP       1213 33.91                             129   -0.10 9  165 220 
 SPBC HE ES   2   1213 56.23                             129   -0.12 5  165 220 
 SPBC HZ I        1213 58.12        10.3 0.18            130            165 220 
 ZAR  HZ EP   2   1213 37.96                             122   -0.19 4  207 292 
 ZAR  HE ES       1214  3.32                             122   -0.39 8  207 292 
 ZAR  HZ I        1214  9.12        14.1 0.18            122            207 292 
 NOR  HZ EP       1213 40.98                             118   -0.37 8  237 235 
 NOR  HE ES       1214  9.75                             118    0.34 8  237 235 
 NOR  HZ I        1214 14.48         6.6 0.24            119            237 235 
 SML  HZ EP       1213 41.88                             117   -0.32 8  246 335 
 SML  HN ES       1214 10.43                             117   -0.48 8  246 335 
 SML  HZ I        1214 14.63        12.0 0.22            118            246 335 
 URE  HZ EP   4   1213 49.31                             113    2.50 0  287 292 
 URE  HE ES   4   1214 17.01                             113   -2.12 0  287 292 
 URE  HZ I        1214 28.91         7.7 0.18            114            287 292 
 GUY2CHZ EP   2   1213 49.72                             112    0.47 4  304 235 
 GUY2CHN ES       1214 23.26                             112   -0.21 7  304 235 
 GUY2CHZ I        1214 33.56         4.5 0.56                           304 235 
 MON  HZ EP   4   1213 51.52                             108   -3.20 0  357 308 
 MON  HE ES   4   1214 31.24                             108   -1.96 0  357 308 
 MON  HZ I        1214 32.94         1.2 0.37            109            357 308 
 PRA  HE ES       1214 41.92                             106    1.05 6  393 210 
 PRA  HZ I        1214 45.22         4.0 0.37            108            393 210 
 SJC  HZ EP   4   1213 59.32                             105   -1.89 0  412 327 
 SJC  HN ES   4   1214 40.90                             105   -3.85 0  412 327 
 SJC  HZ I        1214 44.70         1.6 0.38            107            412 327 
                                                                                
