 2017  518 1112 39.4 L   6.732 -73.117137.6  RSN  5 0.4 1.7LRSN                1
 GAP=187        0.87       5.6     5.0  8.6 -0.9720E+01  0.9809E+01  0.2882E+01E
 Epicentro: JORDAN - SANTANDER                                                 3
 ACTION:UPD 17-06-16 13:37 OP:jn   STATUS:               ID:20170518111239 L   I
 OLDACT:REG 17-05-18 20:04 OP:lv   STATUS:               ID:20170518110738     3
 2017-05-18-1108-00M.COL___353                                                 6
 STAT SP IPHASW D HRMM SECON CODA AMPLIT PERI AZIMU VELO AIN AR TRES W  DIS CAZ7
 BRR  HZ EP       1112 59.75                             149   -0.3510 77.8 302 
 BRR  HN ES       1113 16.51                             149    0.2910 77.8 302 
 BRR  HZ I        1113 18.25        14.1 0.32            148           77.8 302 
 PAM  EZ EP       1113  0.88                             148   -0.1510 81.4  34 
 PAM  EN ES       1113 17.92                             148    0.0410 81.4  34 
 PTB  HN ES   4   1113 25.17                             130   -1.41 0  150 262 
 PTB  HZ I        1113 28.39         2.9 0.21            129            150 262 
 SPBC HN ES       1113 28.43                             128   -0.00 9  160 222 
 SPBC HZ I        1113 32.77         7.5 0.19            127            160 222 
 ZAR  HZ EP       1113 12.68                             120    0.71 8  210 294 
 ZAR  HN ES       1113 36.89                             120   -0.47 8  210 294 
 ZAR  HZ I        1113 42.15         4.2 0.06            120            210 294 
                                                                                
