 2011 1118 1217 36.3 L   6.801 -73.134145.1  RSN  5 0.3 1.7LRSN                1
 GAP=138        0.53       4.7     4.2  5.9  0.4001E+00  0.2772E+01 -0.3234E+00E
 Epicentro: LOS SANTOS - SANTANDER                                             3
 ACTION:UPD 12-07-13 16:11 OP:ep   STATUS:               ID:20111118121736 L   I
 2011-11-18-1214-43S.COL___179                                                 6
 STAT SP IPHASW D HRMM SECON CODA AMPLIT PERI AZIMU VELO AIN AR TRES W  DIS CAZ7
 BAR2 SZ EP   2   1217 55.84                             170   -0.05 5 23.7 193 
 BAR2 SZ ES   2   1218 11.06                             170   -0.09 5 23.7 193 
 BAR2 SZ I        1218 11.73         7.6 0.21                          23.7 193 
 BRR  HZ EP       1217 57.39                             152   -0.0810 72.2 298 
 BRR  HN ES   1   1218 14.40                             152    0.44 7 72.2 298 
 BRR  HZ I        1218 18.47        16.6 0.14                          72.2 298 
 PAM  SZ EP       1217 58.53                             151    0.1110 76.5  39 
 PAM  SZ I        1217 58.72         5.1 0.16                          76.5  39 
 PAM  SN ES   1   1218 15.47                             151   -0.19 7 76.5  39 
 RUS  HZ EP   2   1217 59.89                             144   -0.14 5  101 177 
 RUS  HN ES   2   1218 18.41                             144   -0.10 5  101 177 
 RUS  HZ I        1218 20.07         4.2 0.21                           101 177 
 ZAR  HZ EP   2   1218  9.31                             122    0.46 4  205 292 
 ZAR  HE ES   2   1218 33.34                             122   -0.87 4  205 292 
 ZAR  HZ I        1218 39.22         7.6 0.38                           205 292 
                                                                                
