 2011  218 1010 35.6 L   6.834 -73.248150.3  RSN  5 0.3 1.3LRSN                1
 GAP=177        0.87       5.4    22.1 10.8 -0.1780E+02  0.1502E+02  0.1656E+02E
 Epicentro: ZAPATOCA - SANTANDER                                               3
 ACTION:UP  11-03-28 15:09 OP:jfem STATUS:               ID:20110218101035 L   I
 2011-02-18-1008-47S.COL___137                                                 6
 STAT SP IPHASW D HRMM SECON CODA AMPLIT PERI AZIMU VELO SNR AR TRES W  DIS CAZ7
 BTL  SZ EP       1010 55.97                             176     0.410   10 347 
 BTL  SZ ES   1   1011 11.32                             176     0.1 7   10 347 
 BAR2 SZ EP       1010 55.67                             169    -0.210   28 165 
 BAR2 SZ I        1010 56.80         5.5 0.37                            28 165 
 RUS  HZ EP       1010 59.99                             143    -0.210  106 170 
 RUS  HZ I        1011  1.20         1.1 0.19                           106 170 
 GRA  SZ ES   1   1011 21.42                             138     0.1 7  126  23 
 GRA  SZ I        1011 22.62         3.2 0.24                           126  23 
 OCA  SZ EP   1   1011  4.23                             132     0.4 7  156 357 
 OCA  SZ ES   1   1011 25.27                             132    -0.6 7  156 357 
 OCA  SZ I        1011 29.92         3.3 0.25                           156 357 
                                                                                
