 2016 1118 1234 51.3 L   6.764 -73.127153.8  RSN  5 0.3 1.5LRSN                1
 GAP=162        0.74       6.8     5.1  6.7 -0.1856E+02  0.7695E+01  0.9410E+01E
 Epicentro: LOS SANTOS - SANTANDER                                             3
 ACTION:UPD 17-10-26 21:09 OP:lp   STATUS:               ID:20161118123451 L   I
 OLDACT:UP  16-11-18 22:39 OP:edw  STATUS:               ID:20161118122746d    3
 OLDACT:UP  16-11-18 22:38 OP:edw  STATUS:               ID:20161118122746d    3
 OLDACT:DUP 16-11-18 22:37 OP:edw  STATUS:               ID:20161118122746d    3
 OLDACT:REG 16-11-18 20:24 OP:edw  STATUS:               ID:20161118122745     3
 2016-11-18-1228-00M.COL___337                                                 6
 STAT SP IPHASW D HRMM SECON CODA AMPLIT PERI AZIMU VELO AIN AR TRES W  DIS CAZ7
 BAR2 EZ EP       1235 11.77                             172   -0.0310 19.9 198 
 BAR2 EZ ES       1235 28.03                             172    0.2110 19.9 198 
 BAR2 EZ I        1235 28.84        11.4 0.82            171           19.9 198 
 BRR  HZ EP       1235 13.88                             153    0.3810 75.0 300 
 BRR  HN ES       1235 31.11                             153    0.2710 75.0 300 
 PAM  EN ES       1235 32.13                             152   -0.4010 79.2  37 
 PTB  HZ EP       1235 18.96                             133   -0.06 9  149 261 
 PTB  HN ES       1235 40.24                             133   -0.43 9  149 261 
 PTB  HZ I        1235 45.24         2.2 0.11            133            149 261 
 NOR  HN ES       1235 55.58                             120   -0.03 8  234 236 
                                                                                
