 2013 1118 1612 25.4 L   6.221 -73.774 94.5  RSN  9 0.5 1.7LRSN                1
 GAP= 69        1.28       3.7     4.1  9.7 -0.1926E+01  0.5335E+01  0.8471E+01E
 Epicentro: LANDAZURI - SANTANDER                                              3
 ACTION:UPD 14-01-09 16:29 OP:ep   STATUS:               ID:20131118161225 L   I
 OLDACT:REG 13-11-18 14:42 OP:nd   STATUS:               ID:20131118161000     3
 2013-11-18-1610-00M.COL___279                                                 6
 STAT SP IPHASW D HRMM SECON CODA AMPLIT PERI AZIMU VELO AIN AR TRES W  DIS CAZ7
 SPBC HZ EP     D 1612 41.45                             140    0.0510 71.1 208 
 SPBC HN ES       1612 53.94                             140    0.0410 71.1 208 
 SPBC HZ I        1612 57.06        14.3 0.34            140           71.1 208 
 BAR2 SZ EP     D 1612 42.31                             138    0.2210 77.2  58 
 BAR2 SZ ES       1612 55.40                             138    0.2610 77.2  58 
 BAR2 SZ I        1612 56.91        28.4 0.26            144           77.2  58 
 PTB  HZ EP       1612 41.51                             135   -0.8010 83.3 295 
 PTB  HN ES       1612 54.79                             135   -0.7310 83.3 295 
 PTB  HZ I        1612 58.84        21.1 0.30            136           83.3 295 
 RUS  HZ EP       1612 42.77                             135   -0.3010 84.6 115 
 RUS  HN ES       1612 56.75                             135   -0.1410 84.6 115 
 RUS  HZ I        1612 58.25         7.8 0.34            139           84.6 115 
 BRR  HZ IP     C 1612 43.68                             130    0.0510 98.2   4 
 BRR  HN ES       1612 58.61                             130    0.7310 98.2   4 
 BRR  HZ I        1613  0.37        13.2 0.12            134           98.2   4 
 NOR  HZ EP   2   1612 48.23                             119    0.13 5  141 239 
 NOR  HN ES   2   1613  5.99                             119    0.16 5  141 239 
 NOR  HZ I        1613 10.66        18.9 0.14            120            141 239 
 CHI  HZ EP       1612 52.01                             114   -0.37 9  176 178 
 CHI  HN ES       1613 13.35                             114   -0.10 9  176 178 
 CHI  HZ I        1613 19.38         2.9 0.32            115            176 178 
 GUY2CHZ EP   4   1612 56.60                             110    0.50 0  208 238 
 GUY2CHN ES   4   1613 20.62                             110    0.55 0  208 238 
 GUY2CHZ I        1613 25.77         6.7 0.46                           208 238 
 RREF HZ EP   4   1612 59.24                             108    0.67 0  227 230 
 RREF HN ES       1613 25.85                             108    1.38 8  227 230 
 RREF HZ I        1613 31.57         6.4 0.38            108            227 230 
                                                                                
