 2011 1018 1347  7.7 L   6.790 -73.140147.2  RSN  6 0.4 1.9LRSN                1
 GAP=138        0.71       4.3     4.4  6.8 -0.2185E+01  0.9181E+01  0.4344E+01E
 Epicentro: LOS SANTOS - SANTANDER                                             3
 ACTION:UPD 12-07-13 16:04 OP:ep   STATUS:               ID:20111018134707 L   I
 2011-10-18-1343-05S.COL___161                                                 6
 STAT SP IPHASW D HRMM SECON CODA AMPLIT PERI AZIMU VELO AIN AR TRES W  DIS CAZ7
 BAR2 SZ EP   1   1347 27.51                             171   -0.01 9 22.4 192 
 BAR2 SZ ES   1   1347 42.77                             171   -0.19 9 22.4 192 
 BAR2 SZ I        1347 45.40        20.9 0.25                          22.4 192 
 BRR  HZ EP   1   1347 29.44                             152    0.34 9 72.2 299 
 BRR  HN ES   1   1347 46.44                             152    0.68 9 72.2 299 
 BRR  HZ I        1347 48.46        21.1 0.15                          72.2 299 
 PAM  SZ EP   1   1347 30.25                             151    0.12 9 77.8  39 
 PAM  SN ES   1   1347 47.37                             151   -0.23 9 77.8  39 
 RUS  HZ EP   1   1347 31.39                             144   -0.16 9 99.5 176 
 RUS  HN ES   1   1347 50.03                             144   -0.10 9 99.5 176 
 RUS  HZ I        1347 51.91         5.4 0.35                          99.5 176 
 ZAR  HE ES   1   1348  4.95                             123   -0.88 8  205 292 
 NOR  SZ EP   1   1347 43.72                             119    0.19 7  235 235 
 NOR  SE ES       1348 11.51                             119    0.0510  235 235 
                                                                                
