 2013  618 1104 20.7 L   6.819 -73.157144.5  RSN 14 0.4 2.5LRSN                1
 GAP=111        0.95       2.5     3.1  5.1  0.4518E-01  0.6049E+00  0.1121E+01E
 Epicentro: LOS SANTOS - SANTANDER                                             3
 ACTION:UPD 14-01-08 09:55 OP:ep   STATUS:               ID:20130618110420 L   I
 OLDACT:UP  13-06-18 16:09 OP:cam  STATUS:               ID:20130618105960d    3
 OLDACT:DUP 13-06-18 15:59 OP:cam  STATUS:               ID:20130618105960d    3
 OLDACT:UP  13-06-18 15:59 OP:cam  STATUS:               ID:20130618105959     3
 OLDACT:REG 13-06-18 14:37 OP:cam  STATUS:               ID:20130618105959     3
 2013-06-18-1059-59M.COL___261                                                 6
 STAT SP IPHASW D HRMM SECON CODA AMPLIT PERI AZIMU VELO AIN AR TRES W  DIS CAZ7
 BAR2 SZ IP     D 11 4 40.17                             170   -0.0510 25.2 186 
 BAR2 SZ ES       11 4 55.20                             170   -0.2410 25.2 186 
 BAR2 SZ I        11 4 56.72        98.8 0.21            169           25.2 186 
 BRR  HZ EP       11 4 42.22                             153    0.6310 69.1 297 
 BRR  HN ES       11 4 58.68                             153    0.7910 69.1 297 
 BRR  HZ I        11 4 59.98        40.4 0.14            150           69.1 297 
 RUS  HZ EP       11 4 44.12                             143   -0.3710  103 175 
 RUS  HE ES   1   11 5  2.54                             143   -0.50 7  103 175 
 RUS  HZ I        11 5  4.16        39.8 0.26            143            103 175 
 PTB  HZ EP       11 4 47.02                             132   -0.47 9  147 258 
 PTB  HN ES       11 5  8.10                             132   -0.29 9  147 258 
 PTB  HZ I        11 5 15.12        44.5 0.48            130            147 258 
 TAM  HZ EP       11 4 48.63                             130    0.19 9  157 106 
 TAM  HN ES       11 5 10.25                             130    0.17 9  157 106 
 TAM  HZ I        11 5 10.70        27.1 0.34            132            157 106 
 OCA  HZ EP   2   11 4 49.41                             130    0.71 5  158 354 
 OCA  HN ES       11 5 10.18                             130   -0.36 9  158 354 
 OCA  HZ I        11 5 13.43        54.9 0.22            130            158 354 
 YOP  SZ EP       11 4 50.92                             126    0.03 9  181 153 
 NOR  HZ IP     C 11 4 56.54                             118    0.16 8  235 234 
 NOR  HN ES       11 5 23.73                             118   -0.48 8  235 234 
 NOR  HZ I        11 5 29.29        43.5 0.48            117            235 234 
 SML  HZ EP       11 4 56.75                             117   -0.24 8  241 335 
 SML  HN ES       11 5 24.97                             117   -0.33 8  241 335 
 SML  HZ I        11 5 27.12        42.5 0.36            117            241 335 
 CHI  HZ EP       11 4 58.40                             117   -0.11 8  250 195 
 CHI  HN ES       11 5 28.34                             117    0.33 8  250 195 
 ROSC BZ EP   4   11 5  0.47                             116    1.59 0  254 211 
 ROSC BN ES   4   11 5 31.21                             116    2.56 0  254 211 
 HEL  HZ EP   4   11 5  2.04                             115    1.27 0  271 255 
 HEL  HN ES   4   11 5 33.22                             115    1.19 0  271 255 
 HEL  HZ I        11 5 39.30        18.4 0.54            114            271 255 
 RREF HN ES       11 5 43.33                             111    0.51 7  322 229 
 COD  HZ EP   1   11 5  8.05                             109   -0.72 5  346 355 
 COD  HN ES   1   11 5 47.19                             109    0.92 5  346 355 
 COD  HZ I        11 5 52.15         5.3 0.72            109            346 355 
 PRA  HZ EP   1   11 5 14.12                             106   -0.20 4  393 209 
 PRA  HN ES   1   11 5 57.15                             106    1.01 4  393 209 
 PRA  HZ I        11 6  5.09        22.7 0.50            106            393 209 
                                                                                
