 2014 1218 1535  8.0 L   6.830 -73.411112.0  RSN  9 0.4 1.6LRSN                1
 GAP= 84        0.95       4.1     4.0  6.8  0.3305E+01  0.6801E+01  0.5724E+00E
 Epicentro: SAN VICENTE DE CHUCURI - SANTANDER                                 3
 ACTION:UPD 15-02-10 17:05 OP:nd   STATUS:               ID:20141218153508 L   I
 OLDACT:REG 14-12-18 20:28 OP:spq  STATUS:               ID:20141218152746     3
 2014-12-18-1527-46M.COL___296                                                 6
 STAT SP IPHASW D HRMM SECON CODA AMPLIT PERI AZIMU VELO AIN AR TRES W  DIS CAZ7
 BAR2 EZ EP     C 1535 24.40                             161    0.4010 36.4 136 
 BAR2 EZ ES   1   1535 36.58                             161    0.09 7 36.4 136 
 BAR2 EZ I        1535 37.78        13.2 0.18            160           36.4 136 
 BRR  HZ EP       1535 24.00                             156   -0.0410 45.3 313 
 BRR  HN ES       1535 36.61                             156    0.0410 45.3 313 
 BRR  HZ I        1535 37.41        29.8 0.40            158           45.3 313 
 PAM  SZ EP       1535 28.06                             137   -0.1810 96.7  54 
 PAM  SN ES   1   1535 43.59                             137   -0.47 7 96.7  54 
 PAM  SZ I        1535 46.19         3.1 0.20            139           96.7  54 
 RUS  HZ EP       1535 29.74                             133    0.3510  110 161 
 RUS  HE ES   1   1535 46.32                             133    0.22 7  110 161 
 PTB  HZ EP     D 1535 28.77                             129   -0.9210  120 255 
 PTB  HE ES   4   1535 44.46                             129   -2.16 0  120 255 
 PTB  HZ I        1535 46.22         4.3 0.16            130            120 255 
 SPBC HN ES   1   1535 51.64                             123   -0.33 7  149 209 
 SPBC HZ I        1535 58.79         4.4 0.40            123            149 209 
 OCA  HN ES   4   1535 51.64                             121   -1.72 0  156   4 
 OCA  HZ I        1535 53.15        14.4 0.24            124            156   4 
 ZAR  HZ EP       1535 35.47                             118    0.10 9  176 295 
 ZAR  HE ES       1535 57.20                             118    0.46 9  176 295 
 ZAR  HZ I        1535 59.61         4.5 0.18            119            176 295 
 SJC  HZ EP   1   1536  1.07                             100    0.61 4  391 330 
 SJC  HN ES   4   1536 37.46                             100   -3.94 0  391 330 
 SJC  HZ I        1536 40.58         2.1 0.80            101            391 330 
                                                                                
