 2013 1118 1100 36.6 L   6.800 -73.185142.4  RSN  9 0.4 1.7LRSN                1
 GAP=132        0.98       3.6     4.6  6.3 -0.3144E+01  0.4485E+01  0.2956E+01E
 Epicentro: LOS SANTOS - SANTANDER                                             3
 ACTION:UPD 14-01-09 16:29 OP:ep   STATUS:               ID:20131118110036 L   I
 OLDACT:REG 13-11-18 14:24 OP:nd   STATUS:               ID:20131118110000     3
 2013-11-18-1100-00M.COL___279                                                 6
 STAT SP IPHASW D HRMM SECON CODA AMPLIT PERI AZIMU VELO AIN AR TRES W  DIS CAZ7
 BAR2 SZ EP       11 0 55.80                             170   -0.0310 22.9 179 
 BAR2 SZ ES       11 1 10.93                             170    0.1110 22.9 179 
 BAR2 SZ I        11 1 12.53        24.9 0.26            171           22.9 179 
 BRR  HZ EP       11 0 57.81                             153    0.6210 67.4 300 
 BRR  HN ES       11 1 13.36                             153    0.1210 67.4 300 
 BRR  HZ I        11 1 17.87         7.4 0.32            153           67.4 300 
 PAM  SZ EP     D 11 0 58.81                             149    0.1610 80.2  42 
 PAM  SN ES       11 1 15.90                             149    0.0610 80.2  42 
 PAM  SZ I        11 1 19.04         4.2 0.40            152           80.2  42 
 RUS  HZ EP       11 0 59.75                             143   -0.3110  101 174 
 RUS  HN ES       11 1 17.69                             143   -0.6610  101 174 
 RUS  HZ I        11 1 19.80         6.0 0.28            145            101 174 
 PTB  HZ EP       11 1  2.61                             132   -0.31 9  144 259 
 PTB  HN ES       11 1 22.84                             132   -0.60 9  144 259 
 PTB  HZ I        11 1 25.60         5.9 0.14            132            144 259 
 SPBC HZ EP       11 1  4.86                             129    0.26 9  160 218 
 SPBC HN ES       11 1 27.05                             129    0.63 9  160 218 
 SPBC HZ I        11 1 31.64         8.0 0.26            130            160 218 
 SML  HZ EP   2   11 1 12.46                             117   -0.41 4  242 336 
 SML  HN ES   2   11 1 40.36                             117   -0.78 4  242 336 
 SML  HZ I        11 1 45.00         7.2 0.10            118            242 336 
 CHI  HZ EP   2   11 1 13.51                             116   -0.50 4  247 194 
 CHI  HN ES       11 1 43.59                             116    0.42 8  247 194 
 CHI  HZ I        11 1 49.27         1.9 0.44            118            247 194 
 GUY2CHZ EP   4   11 1 22.17                             112    2.50 0  298 234 
 GUY2CHN ES   4   11 1 57.38                             112    4.13 0  298 234 
 GUY2CHZ I        11 2  8.08         2.2 0.54                           298 234 
                                                                                
