 2016  518 1125 25.6 L   6.810 -73.166135.4  RSN 20 0.4 2.7LRSN                1
 GAP= 64        0.91       2.7     2.6  4.9 -0.1620E+01  0.3751E+01  0.2222E+01E
 Epicentro: LOS SANTOS - SANTANDER                                             3
 ACTION:UPD 16-08-18 17:47 OP:cam  STATUS:               ID:20160518112525 L   I
 OLDACT:UP  16-05-24 15:32 OP:dnl  STATUS:               ID:20160518112525 L   3
 OLDACT:UP  16-05-18 21:40 OP:drio STATUS:               ID:20160518111743     3
 OLDACT:UP  16-05-18 21:39 OP:drio STATUS:               ID:20160518111743     3
 OLDACT:REG 16-05-18 21:01 OP:drio STATUS:               ID:20160518111743     3
 2016-05-18-1117-43M.COL___300                                                 6
 STAT SP IPHASW D HRMM SECON CODA AMPLIT PERI AZIMU VELO AIN AR TRES W  DIS CAZ7
 BAR2 EZ IP     C 1125 44.01                             169    0.0110 24.2 184 
 BAR2 EZ ES       1125 57.96                             169   -0.4010 24.2 184 
 BAR2 EZ I        1126  0.17       172.3 0.20            170           24.2 184 
 BRR  HZ EP     C 1125 45.94                             151    0.4510 68.7 299 
 BRR  HE ES   4   1126  2.86                             151    1.86 0 68.7 299 
 BRR  HZ I        1126  7.48        74.2 0.14            151           68.7 299 
 PAM  EZ EP       1125 46.93                             149    0.1710 78.0  41 
 PAM  EE ES       1126  3.86                             149    0.6010 78.0  41 
 PAM  EZ I        1126  6.19       172.8 0.54            154           78.0  41 
 RUS  HZ EP       1125 48.31                             141   -0.1410  102 175 
 RUS  HN ES   4   1126  5.64                             141   -0.63 0  102 175 
 RUS  HZ I        1126  7.25        47.7 0.20            145            102 175 
 PTB  HZ EP       1125 50.88                             130   -0.68 9  146 258 
 PTB  HN ES       1126 11.48                             130   -0.32 9  146 258 
 PTB  HZ I        1126 14.05        96.6 0.12            132            146 258 
 TAM  HZ IP     D 1125 52.36                             127   -0.36 9  158 105 
 TAM  HE ES       1126 13.99                             127    0.12 9  158 105 
 TAM  HZ I        1126 14.28        20.6 0.22            134            158 105 
 OCA  HZ EP       1125 52.32                             127   -0.67 9  159 354 
 OCA  HE ES       1126 14.40                             127    0.05 9  159 354 
 OCA  HZ I        1126 21.44       124.9 0.28            131            159 354 
 SPBC HZ EP       1125 52.99                             127   -0.29 9  163 218 
 SPBC HE ES       1126 15.02                             127    0.16 9  163 218 
 SPBC HZ I        1126 19.35        62.1 0.38            129            163 218 
 ZAR  HZ EP       1125 57.36                             120    0.23 9  202 292 
 ZAR  HE ES   4   1126 23.02                             120    1.31 0  202 292 
 ZAR  HZ I        1126 30.77        80.6 0.52            122            202 292 
 NOR  HZ EP       1126  0.41                             116   -0.21 8  234 234 
 NOR  HE ES       1126 28.52                             116    0.58 8  234 234 
 NOR  HZ I        1126 32.91        28.3 0.14            119            234 234 
 CHI  HZ EP       1126  3.14                             115    0.33 8  249 195 
 CHI  HN ES       1126 31.73                             115   -0.09 8  249 195 
 CHI  HZ I        1126 38.05        10.4 0.30            118            249 195 
 HEL  HZ EP       1126  5.33                             113    0.24 8  270 255 
 HEL  HE ES       1126 35.51                             113   -0.38 8  270 255 
 HEL  HZ I        1126 43.00        24.4 0.32            115            270 255 
 URE  HZ EP   9   1126  4.72                             112   -1.18 0  281 292 
 URE  HN ES       1126 36.14                             112   -0.01 7  281 292 
 URE  HZ I        1126 38.03        54.6 0.12            114            281 292 
 PTGC HZ EP   9   1126  7.30                             109   -1.93 0  311 158 
 PTGC HN ES       1126 40.66                             110   -0.67 7  311 158 
 PTGC HZ I        1126 42.94        31.5 0.48            113            311 158 
 CBOC HZ EP       1126 12.23                             108    0.33 7  332 252 
 CBOC HE ES       1126 47.67                             108   -0.34 7  332 252 
 CBOC HZ I        1126 52.60         6.6 0.44            110            332 252 
 PRA  HZ EP       1126 18.60                             105   -0.17 6  392 209 
 PRA  HE ES       1127  0.79                             105    0.55 6  392 209 
 PRA  HZ I        1127  4.66        14.7 0.26            107            392 209 
 ORTC HZ EP   4   1126 20.05                             104    0.91 0  395 216 
 ORTC HE ES   4   1127  2.42                             104    1.52 0  395 216 
 ORTC HZ I        1127  7.36         7.9 0.46            107            395 216 
 PAL  HZ EP       1126 20.57                             104    0.29 6  404 239 
 PAL  HE ES       1127  3.93                             104    1.01 6  404 239 
 SJC  HZ EP   4   1126 18.94                             104   -1.64 0  407 327 
 SJC  HE ES   4   1126 59.86                             104   -3.61 0  407 327 
 SJC  HZ I        1127  4.06        19.3 0.46            106            407 327 
 CRJC HZ EP   4   1126 24.68                             102   -3.03 0  467   4 
 CRJC HE ES   4   1127 10.63                             102   -5.52 0  467   4 
 CRJC HZ I        1127 12.89         8.9 0.44            104            467   4 
                                                                                
