 2015  318 1733 14.1 L   6.821 -73.131150.5  RSN  8 0.4 2.0LRSN                1
 GAP=241        0.93       4.7     4.8  6.2  0.4787E+01  0.7422E+01  0.4553E+01E
 Epicentro: LOS SANTOS - SANTANDER                                             3
 ACTION:UPD 15-04-30 16:27 OP:nd   STATUS:               ID:20150318173314 L   I
 OLDACT:REG 15-03-18 23:30 OP:cam  STATUS:               ID:20150318172745     3
 2015-03-18-1727-45M.COL___281                                                 6
 STAT SP IPHASW D HRMM SECON CODA AMPLIT PERI AZIMU VELO AIN AR TRES W  DIS CAZ7
 BAR2 EZ IP     D 1733 34.57                             170    0.2210 25.9 193 
 BAR2 EZ ES       1733 49.62                             170   -0.5310 25.9 193 
 BAR2 EZ I        1733 52.32         7.9 0.28            167           25.9 193 
 BRR  HZ EP       1733 35.73                             153   -0.0510 71.6 296 
 BRR  HN ES       1733 53.28                             153    0.5910 71.6 296 
 BRR  HN I        1733 57.20        28.0 0.44            150           71.6 296 
 RUS  HZ EP       1733 38.14                             144   -0.3310  103 177 
 RUS  HN ES       1733 58.06                             144    0.5810  103 177 
 PTB  HZ EP       1733 41.56                             133   -0.08 9  150 258 
 PTB  HN ES       1734  2.77                             133   -0.35 9  150 258 
 PTB  HZ I        1734  9.86         8.6 0.48            132            150 258 
 SPBC HZ EP       1733 43.24                             130    0.02 9  166 219 
 SPBC HN ES       1734  5.65                             130   -0.29 9  166 219 
 SPBC HN I        1734 10.97        24.0 0.10            130            166 219 
 ZAR  HN ES       1734 12.41                             123   -0.12 9  205 291 
 ZAR  HN I        1734 18.67        12.0 0.56            124            205 291 
 NOR  HZ EP   1   1733 50.04                             119   -0.34 6  237 234 
 NOR  HN ES       1734 18.50                             119   -0.19 8  237 234 
 NOR  HZ I        1734 24.50         5.2 0.60            120            237 234 
 GUY2CHZ EP   1   1733 58.92                             113    0.70 5  304 235 
 GUY2CHE ES   1   1734 33.51                             113    0.87 5  304 235 
 GUY2CHZ I        1734 41.45         4.6 0.68                           304 235 
                                                                                
