 2016 1118 1415 13.5 L   6.841 -73.126140.9  RSN  4 0.3 1.3LRSN                1
 GAP=152        0.68       6.5     3.7  5.6 -0.2146E+01  0.5663E+01 -0.1103E+02E
 Epicentro: LOS SANTOS - SANTANDER                                             3
 ACTION:UPD 17-10-26 21:09 OP:lp   STATUS:               ID:20161118141513 L   I
 OLDACT:UP  16-11-18 23:45 OP:edw  STATUS:               ID:20161118140746     3
 OLDACT:REG 16-11-18 20:38 OP:edw  STATUS:               ID:20161118140746     3
 2016-11-18-1408-00M.COL___340                                                 6
 STAT SP IPHASW D HRMM SECON CODA AMPLIT PERI AZIMU VELO AIN AR TRES W  DIS CAZ7
 BAR2 EZ EP       1415 32.25                             168   -0.4010 28.2 193 
 BAR2 EZ ES       1415 47.83                             168    0.2410 28.2 193 
 BAR2 EZ I        1415 49.13         6.7 0.19            171           28.2 193 
 PAM  EZ EP       1415 35.28                             151    0.3710 72.5  40 
 PAM  EE ES       1415 51.39                             151   -0.2110 72.5  40 
 PAM  EZ I        1415 54.65         2.8 0.44            151           72.5  40 
 PTB  HZ EP   9   1415 39.90                             130   -0.45 0  151 257 
 PTB  HN ES       1416  0.73                                   -0.11 9  151 257 
 ZAR  HZ EP       1415 45.69                             121    0.02 9  204 291 
 ZAR  HN ES       1416 10.73                             121   -0.03 9  204 291 
                                                                                
