 2016  418 1729 54.4 L   6.818 -73.141147.0  RSN 21 0.5 2.5LRSN                1
 GAP= 61        1.15       3.1     2.8  5.2 -0.1725E+01  0.3390E+01  0.5864E+00E
 Epicentro: LOS SANTOS - SANTANDER                                             3
 ACTION:UPD 16-05-05 14:22 OP:rebc STATUS:               ID:20160418172954 L   I
 OLDACT:ARG 16-04-18 20:49 OP:ar   STATUS:               ID:20160418172750     3
 2016-04-18-1727-50M.COL___292                                                 6
 STAT SP IPHASW D HRMM SECON CODA AMPLIT PERI AZIMU VELO AIN AR TRES W  DIS CAZ7
 BAR2 EZ IP     D 1730 14.17                             170   -0.0510 25.4 190 
 BAR2 EZ ES       1730 29.32                             170   -0.3710 25.4 190 
 BAR2 EZ I        1730 30.71        56.4 0.20            170           25.4 190 
 PAM  EZ EP       1730 17.12                             151    0.4810 75.5  40 
 PAM  EN ES       1730 34.48                             151    0.4910 75.5  40 
 PAM  EZ I        1730 36.81        27.1 0.52            153           75.5  40 
 RUS  HZ EP       1730 18.24                             143   -0.1810  103 176 
 RUS  HN ES       1730 36.83                             143   -0.3210  103 176 
 RUS  HZ I        1730 38.21        23.5 0.26            145            103 176 
 PTB  HZ EP       1730 20.80                             132   -0.75 9  149 258 
 PTB  HN ES       1730 41.94                             132   -0.78 9  149 258 
 PTB  HZ I        1730 42.95        38.7 0.16            132            149 258 
 TAM  HZ EP       1730 22.75                             131    0.57 9  155 106 
 TAM  HE ES       1730 44.52                             131    0.67 9  155 106 
 TAM  HZ I        1730 45.12        22.3 0.50            134            155 106 
 OCA  HZ EP       1730 23.08                             130    0.45 9  158 353 
 OCA  HN ES       1730 44.38                             130   -0.27 9  158 353 
 OCA  HZ I        1730 49.53        80.1 0.36            131            158 353 
 SPBC HZ EP       1730 23.15                             129   -0.02 9  165 219 
 SPBC HN ES       1730 45.28                             129   -0.33 9  165 219 
 SPBC HZ I        1730 50.27        52.1 0.12            130            165 219 
 ZAR  HZ EP       1730 26.59                             123   -0.31 9  204 292 
 ZAR  HN ES       1730 52.44                             123    0.20 9  204 292 
 ZAR  HZ I        1730 57.04        27.5 0.22            123            204 292 
 NOR  HZ EP       1730 30.32                             118   -0.05 8  236 234 
 NOR  HN ES       1730 58.15                             118   -0.27 8  236 234 
 NOR  HZ I        1731  0.70        26.6 0.16            119            236 234 
 CHI  HZ EP       1730 32.43                             117    0.04 8  251 195 
 CHI  HN ES       1731  2.31                             117    0.29 8  251 195 
 CHI  HZ I        1731  7.98        16.0 0.30            118            251 195 
 ROSC BZ EP   1   1730 33.35                             117    0.55 6  255 211 
 ROSC BN ES   4   1731  5.35                             117    2.60 0  255 211 
 ROSC BZ I        1731  8.76        28.4 0.35            118            255 211 
 HEL  HZ EP       1730 35.76                             115    0.98 8  273 255 
 HEL  HN ES       1731  7.25                             115    0.97 8  273 255 
 HEL  HZ I        1731 12.91        22.4 0.40            115            273 255 
 URE  HZ EP   2   1730 34.65                             114   -0.85 4  284 292 
 URE  HE ES   4   1731  4.53                             114   -3.02 0  284 292 
 URE  HZ I        1731 16.75        23.3 0.18            114            284 292 
 SOCV BZ EP       1730 36.92                             112   -0.42 7  300  57 
 SOCV BN ES   4   1731  9.10                             112   -1.73 0  300  57 
 GUY2CHZ EP       1730 39.16                             112    0.92 7  303 235 
 GUY2CHN ES       1731 12.59                             112    0.16 7  303 235 
 GUY2CHZ I        1731 24.49        18.0 0.42                           303 235 
 PTGC HZ EP       1730 37.49                             112   -1.01 7  310 159 
 PTGC HN ES   4   1731 10.83                             112   -2.07 0  310 159 
 CBOC HZ EP       1730 41.62                             110    0.13 7  335 252 
 CBOC HE ES       1731 18.68                             110    0.46 7  335 252 
 CBOC HZ I        1731 20.54         5.1 0.26            111            335 252 
 DBB  SZ EP       1730 41.39                             110   -0.57 7  340 274 
 DBB  SZ ES       1731 18.96                             110   -0.10 7  340 274 
 DBB  SZ I        1731 26.75        24.7 0.26            110            340 274 
 SDV  BZ EP       1730 43.12                             108   -1.18 6  359  50 
 SDV  BN ES   4   1731 21.04                             108   -2.18 0  359  50 
 ORTC HZ EP       1730 48.38                             106   -0.20 6  397 216 
 ORTC HN ES       1731 30.81                             106   -0.04 6  397 216 
 ORTC HZ I        1731 35.19         9.0 0.34            107            397 216 
 SJC  HZ EP   4   1730 47.65                             106   -2.19 0  408 327 
 SJC  HE ES   4   1731 28.90                             106   -4.18 0  408 327 
 SJC  HZ I        1731 36.99         6.7 0.30            106            408 327 
                                                                                
