 2015  718 1521 50.9 L   6.835 -73.097147.4  RSN 13 0.4 2.1LRSN                1
 GAP=122        0.92       2.8     3.6  5.8 -0.2274E+01  0.7127E+01  0.1343E+01E
 Epicentro: LOS SANTOS - SANTANDER                                             3
 ACTION:UPD 15-09-08 21:49 OP:cam  STATUS:               ID:20150718152150 L   I
 OLDACT:REG 15-07-18 20:38 OP:spq  STATUS:               ID:20150718151749     3
 2015-07-18-1517-49M.COL___340                                                 6
 STAT SP IPHASW D HRMM SECON CODA AMPLIT PERI AZIMU VELO AIN AR TRES W  DIS CAZ7
 BAR2 EZ EP       1522 10.74                             169   -0.1010 28.4 199 
 BAR2 EZ ES   1   1522 25.79                             169   -0.60 7 28.4 199 
 BAR2 EZ I        1522 26.79        16.9 0.24            167           28.4 199 
 PAM  EZ EP       1522 13.74                             153    0.8110 71.0  38 
 PAM  EN ES       1522 30.60                             153    0.4910 71.0  38 
 PAM  EZ I        1522 32.84        14.5 0.32            156           71.0  38 
 RUS  HZ EP       1522 14.83                             143   -0.2410  104 179 
 RUS  HN ES       1522 33.78                             143   -0.1510  104 179 
 RUS  HZ I        1522 34.53         6.7 0.32            144            104 179 
 OCA  HN ES       1522 41.00                             131   -0.01 9  157 351 
 OCA  HZ I        1522 43.85        37.1 0.18            131            157 351 
 ZAR  HZ EP   1   1522 23.63                             122   -0.19 6  208 291 
 ZAR  HN ES       1522 48.97                             122   -0.52 8  208 291 
 ZAR  HZ I        1522 54.24        14.2 0.38            122            208 291 
 NOR  HZ EP       1522 27.20                             118   -0.23 8  241 234 
 NOR  HE ES       1522 55.61                             118   -0.31 8  241 234 
 NOR  HZ I        1523  0.87         8.7 0.16            118            241 234 
 SML  HZ EP   1   1522 27.42                             118   -0.07 6  243 334 
 SML  HN ES   1   1522 55.83                             118   -0.20 6  243 334 
 SML  HZ I        1522 57.49        13.0 0.28            118            243 334 
 CHI  HZ EP       1522 29.36                             117    0.11 8  254 196 
 CHI  HN ES   1   1522 58.70                             117   -0.46 6  254 196 
 CHI  HZ I        1523  3.51         4.7 0.28            118            254 196 
 HEL  HN ES       1523  4.17                             114    0.34 7  278 255 
 HEL  HZ I        1523  9.93         7.2 0.52            115            278 255 
 SOCV BZ EP       1522 32.65                             113   -0.64 7  295  57 
 SOCV BE ES   4   1523  4.48                             113   -1.86 0  295  57 
 GUY2CHZ EP   1   1522 35.05                             112   -0.28 5  308 235 
 GUY2CHE ES       1523 10.61                             112    0.63 7  308 235 
 GUY2CHZ I        1523 18.72         4.8 0.58                           308 235 
 TOL  SZ EP   1   1522 40.43                             109    0.46 5  350 225 
 TOL  SN ES       1523 18.97                             109    0.73 6  350 225 
 TOL  SZ I        1523 25.42         5.6 0.44            110            350 225 
 MON  HE ES   4   1523 16.68                             109   -1.94 0  356 307 
 MON  HZ I        1523 20.93         3.6 0.48            109            356 307 
                                                                                
