 2016  818 1602 18.3 L   6.794 -73.180145.5  RSN  5 0.2 1.7LRSN                1
 GAP=275        0.43       4.1     2.6  3.9  0.9641E+00  0.3289E+01 -0.1307E+01E
 Epicentro: LOS SANTOS - SANTANDER                                             3
 ACTION:UPD 16-10-29 15:36 OP:rebc STATUS:               ID:20160818160218 L   I
 OLDACT:REG 16-08-18 20:31 OP:dnl  STATUS:               ID:20160818155738     3
 2016-08-18-1558-00M.COL___362                                                 6
 STAT SP IPHASW D HRMM SECON CODA AMPLIT PERI AZIMU VELO AIN AR TRES W  DIS CAZ7
 BAR2 EZ EP       16 2 37.93                             171    0.0510 22.3 181 
 BAR2 EZ ES       16 2 53.20                             171    0.0510 22.3 181 
 BAR2 EZ I        16 2 55.74        14.5 0.32                          22.3 181 
 RUS  HZ EP       16 2 41.97                             144   -0.0310  100 174 
 RUS  HN ES       16 3  0.43                             144   -0.0610  100 174 
 RUS  HZ I        16 3  2.03         4.3 0.24                           100 174 
 PTB  HZ EP       16 2 44.68                             133   -0.21 9  144 259 
 PTB  HN ES       16 3  5.73                             133    0.09 9  144 259 
 PTB  HZ I        16 3  8.29         4.8 0.16                           144 259 
 NOR  HZ EP   2   16 2 54.35                             119    0.71 4  231 234 
 NOR  HE ES       16 3 21.18                             119   -0.03 8  231 234 
 NOR  HZ I        16 3 29.78         3.2 0.18                           231 234 
 GUY2CHZ EP   4   16 3  2.88                             113    1.38 0  298 234 
 GUY2CHN ES   4   16 3 38.01                             113    2.81 0  298 234 
 GUY2CHZ I        16 3 44.16         3.4 0.38                           298 234 
                                                                                
