 2015 1018 1003 38.5 L   6.912 -73.249123.8  RSN  4 0.4 1.7LRSN                1
 GAP=192        1.01       7.9     8.2  8.7  0.3299E+02 -0.1018E+01 -0.3502E+02E
 Epicentro: BETULIA - SANTANDER                                                3
 ACTION:UPD 15-12-22 20:41 OP:cam  STATUS:               ID:20151018100338 L   I
 OLDACT:REG 15-10-18 20:43 OP:stll STATUS:               ID:20151018095748     3
 2015-10-18-0957-48M.COL___337                                                 6
 STAT SP IPHASW D HRMM SECON CODA AMPLIT PERI AZIMU VELO AIN AR TRES W  DIS CAZ7
 BAR2 EZ EP     C 10 3 56.29                             163    0.4610 36.1 168 
 BAR2 EZ ES       10 4  8.76                             163   -0.6210 36.1 168 
 BAR2 EZ I        10 4 10.60        16.4 0.26            170           36.1 168 
 BRR  HN ES       10 4 10.88                             154    0.5710 55.6 293 
 ZAR  HZ EP       10 4  7.94                             119   -0.01 9  189 290 
 ZAR  HN ES       10 4 30.65                             119   -0.30 9  189 290 
 ZAR  HZ I        10 4 35.61         2.9 0.46            120            189 290 
 SML  HZ EP       10 4 12.05                             114   -0.11 8  228 337 
 SML  HN ES       10 4 38.29                             114   -0.16 8  228 337 
 SML  HZ I        10 4 45.00         5.6 0.12            114            228 337 
                                                                                
