 2013  318 1424 44.9 L   6.708 -73.184155.0  RSN  4 0.3 2.0LRSN                1
 GAP=135        0.77       5.3     5.3  8.2  0.7558E+01 -0.1341E+02 -0.9938E+01E
 Epicentro: VILLANUEVA - SANTANDER                                             3
 ACTION:UPD 13-04-09 14:03 OP:ep   STATUS:               ID:20130318142444 L   I
 2013-03-18-1420-00M.COL___243                                                 6
 STAT SP IPHASW D HRMM SECON CODA AMPLIT PERI AZIMU VELO AIN AR TRES W  DIS CAZ7
 BRR  HZ EP       1425  7.71                             153    0.5710 73.1 307 
 BRR  HN ES       1425 24.49                             153   -0.0110 73.1 307 
 BRR  HN I        1425 25.26        33.2 0.20            153           73.1 307 
 PAM  SZ EP       1425  8.38                             149   -0.3310 88.0  37 
 RUS  HZ EP       1425  8.75                             148   -0.1510 90.9 173 
 RUS  HN ES       1425 27.78                             148    0.1410 90.9 173 
 RUS  HN I        1425 28.32         8.9 0.40            148           90.9 173 
 PTB  HZ EP   1   1425 12.17                             135    0.07 7  142 263 
 PTB  HN ES       1425 33.05                             135   -0.29 9  142 263 
 PTB  HN I        1425 35.35         9.1 0.18            135            142 263 
                                                                                
