 2015  318 1135 33.3 L   6.809 -73.162139.9  RSN 17 0.4 2.7LRSN                1
 GAP= 70        1.04       3.0     2.8  5.6 -0.1045E+01  0.5504E+01 -0.9001E+00E
 Epicentro: LOS SANTOS - SANTANDER                                             3
 ACTION:UPD 15-04-30 16:27 OP:nd   STATUS:               ID:20150318113533 L   I
 OLDACT:UP  15-03-19 00:01 OP:cam  STATUS:               ID:20150318112748     3
 OLDACT:REG 15-03-18 22:50 OP:cam  STATUS:               ID:20150318112748     3
 2015-03-18-1127-48M.COL___278                                                 6
 STAT SP IPHASW D HRMM SECON CODA AMPLIT PERI AZIMU VELO AIN AR TRES W  DIS CAZ7
 BAR2 EZ IP     C 1135 52.39                             170    0.1110 24.1 185 
 BAR2 EZ ES       1136  7.03                             170   -0.0210 24.1 185 
 BAR2 EZ I        1136  8.14       131.8 0.22            169           24.1 185 
 BRR  HZ IP     C 1135 54.31                             152    0.5810 69.2 298 
 BRR  HN ES   4   1136 10.98                             152    1.33 0 69.2 298 
 BRR  HZ I        1136 16.20        75.8 0.14            151           69.2 298 
 PAM  SZ EP     C 1135 55.26                             150    0.3110 77.7  41 
 PAM  SN ES       1136 11.96                             150    0.1510 77.7  41 
 PAM  SZ I        1136 14.58        76.8 0.54            154           77.7  41 
 RUS  HZ EP       1135 56.38                             142   -0.2210  102 175 
 RUS  HE ES       1136 14.38                             142   -0.3610  102 175 
 RUS  HZ I        1136 15.61        55.3 0.24            144            102 175 
 PTB  HZ EP       1135 58.95                             131   -0.74 9  146 258 
 PTB  HN ES       1136 20.07                             131   -0.18 9  146 258 
 PTB  HZ I        1136 22.07        75.3 0.18            132            146 258 
 TAM  HZ EP       1136  0.76                             129    0.02 9  157 105 
 TAM  HE ES       1136 22.46                             129    0.35 9  157 105 
 TAM  HE I        1136 22.74        83.4 0.28            133            157 105 
 OCA  HZ EP       1136  0.57                             128   -0.51 9  159 354 
 OCA  HN ES       1136 22.22                             128   -0.50 9  159 354 
 OCA  HZ I        1136 24.53       106.1 0.22            131            159 354 
 SPBC HZ IP     C 1136  1.33                             128   -0.03 9  163 218 
 SPBC HN ES       1136 23.39                             128    0.17 9  163 218 
 SPBC HN I        1136 28.68        95.5 0.16            129            163 218 
 ZAR  HZ EP       1136  5.44                             121    0.25 9  202 292 
 ZAR  HE ES       1136 30.96                             121    0.92 9  202 292 
 ZAR  HZ I        1136 32.21        53.8 0.42            123            202 292 
 NOR  HZ EP       1136  8.35                             117   -0.29 8  234 234 
 NOR  HN ES       1136 36.02                             117   -0.16 8  234 234 
 NOR  HZ I        1136 41.97        33.3 0.26            119            234 234 
 SML  HZ EP       1136  9.08                             116   -0.38 8  242 336 
 SML  HN ES   4   1136 36.08                             116   -1.55 0  242 336 
 SML  HZ I        1136 40.46        52.0 0.26            118            242 336 
 HEL  HZ EP   4   1136 14.32                             114    1.23 0  271 255 
 HEL  HN ES       1136 43.30                             114   -0.80 8  271 255 
 HEL  HZ I        1136 50.94        25.3 0.28            115            271 255 
 URE  HZ EP   4   1136 15.55                             113    1.65 0  282 292 
 URE  HN ES       1136 45.33                             113   -0.21 7  282 292 
 URE  HZ I        1136 47.40        29.4 0.12            114            282 292 
 GUY2CHZ EP       1136 17.35                             111    0.77 7  300 234 
 GUY2CHN ES   4   1136 48.02                             111   -2.29 0  300 234 
 GUY2CHZ I        1136 57.64        19.8 0.24                           300 234 
 CBOC HZ EP       1136 20.47                             109    0.62 7  332 252 
 CBOC HN ES       1136 56.98                             109    0.84 7  332 252 
 CBOC HZ I        1137  5.80         7.3 0.46            110            332 252 
 ANIL HZ EP   4   1136 24.93                             107    2.07 0  357 224 
 ANIL HN ES   4   1137  4.23                             107    2.74 0  357 224 
 ANIL HN I        1137  9.89         8.3 0.44            109            357 224 
 PRA  HZ EP       1136 26.30                             105   -0.36 6  392 209 
 PRA  HN ES   4   1137  6.83                             105   -1.42 0  392 209 
 PRA  HZ I        1137  9.36        10.3 0.34            107            392 209 
                                                                                
