 2012  718 1148 58.2 L   6.645 -73.033142.0  RSN  5 0.4 1.9LRSN                1
 GAP=225        1.01      10.8     6.8 10.5 -0.5259E+01  0.2807E+02  0.1677E+02E
 Epicentro: ARATOCA - SANTANDER                                                3
 ACTION:UPD 12-08-14 11:45 OP:ep   STATUS:               ID:20120718114858 L   I
 2012-07-18-1148-43M.COL___204                                                 6
 STAT SP IPHASW D HRMM SECON CODA AMPLIT PERI AZIMU VELO AIN AR TRES W  DIS CAZ7
 BAR2 SZ EP   1   1149 17.73                             173     0.4 7   18 251 
 BAR2 SZ ES   1   1149 32.46                             173     0.3 7   18 251 
 BAR2 SZ I        1149 34.00        10.6 0.21            170             18 251 
 PAM  SZ EP   1   1149 20.63                             148     0.1 7   85  26 
 PAM  SN ES       1149 37.96                             148     0.010   85  26 
 BRR  HZ EP   1   1149 19.65                             145    -0.6 7   91 304 
 BRR  HN ES   1   1149 36.67                             145    -0.7 7   91 304 
 BRR  HZ I        1149 37.94        19.5 0.12            145             91 304 
 PTB  HZ EP   1   1149 25.39                             129    -0.4 7  158 266 
 ZAR  HZ EP   2   1149 32.52                             119     0.2 4  222 295 
 ZAR  HN ES       1149 59.60                             119     0.6 8  222 295 
 ZAR  HZ I        1150  2.01         6.6 0.23            120            222 295 
