 2013  818 1859 53.2 L   6.698 -73.209157.0  RSN  4 0.2 1.2LRSN                1
 GAP=217        0.45       5.2     5.0  5.8  0.1567E+02 -0.7989E+00 -0.2517E+01E
 Epicentro: VILLANUEVA - SANTANDER                                             3
 ACTION:UPD 14-01-14 09:04 OP:ep   STATUS:               ID:20130818185953 L   I
 OLDACT:REG 13-08-18 15:06 OP:jn   STATUS:               ID:20130818185959     3
 2013-08-18-1859-59M.COL___269                                                 6
 STAT SP IPHASW D HRMM SECON CODA AMPLIT PERI AZIMU VELO AIN AR TRES W  DIS CAZ7
 BAR2 SZ EP   1   19 0 13.74                             175   -0.29 7 12.1 166 
 BAR2 SZ I        19 0 31.13         4.1 0.30            165           12.1 166 
 BRR  HN ES   1   19 0 33.20                             154    0.12 7 71.6 309 
 RUS  HZ EP   1   19 0 17.70                             149    0.31 7 90.2 171 
 RUS  HE ES       19 0 36.22                             149   -0.0410 90.2 171 
 RUS  HZ I        19 0 38.64         1.4 0.52            151           90.2 171 
 PTB  HZ EP   1   19 0 20.32                             136   -0.04 7  139 263 
 PTB  HN ES   1   19 0 41.51                             136   -0.04 7  139 263 
 PTB  HZ I        19 0 47.52         2.4 0.28            134            139 263 
                                                                                
