 2015  418 1737 49.7 L   7.414 -73.203132.0  RSN  5 0.2 1.6LRSN                1
 GAP=186        0.50       4.8     2.5  4.4 -0.2030E+01  0.3633E+01 -0.3897E+01E
 Epicentro: EL PLAYON - SANTANDER                                              3
 ACTION:UPD 15-06-03 16:55 OP:cam  STATUS:               ID:20150418173750dL   I
 OLDACT:DUP 15-04-19 01:13 OP:spq  STATUS:               ID:20150418172748d    3
 2015-04-18-1727-47M.COL___275                                                 6
 STAT SP IPHASW D HRMM SECON CODA AMPLIT PERI AZIMU VELO AIN AR TRES W  DIS CAZ7
 PAM  SZ EP       1738  9.17                             156   -0.0810 56.2  98 
 PAM  SE ES       1738 24.47                             156   -0.0310 56.2  98 
 PAM  SZ I        1738 27.38         3.2 0.56            160           56.2  98 
 BRR  HZ EP       1738  9.05                             152    0.0110 65.6 239 
 BRR  HN ES       1738 24.41                             152    0.2810 65.6 239 
 BRR  HZ I        1738 25.14        11.7 0.08            153           65.6 239 
 BAR2 EZ EP       1738 10.99                             144   -0.0510 90.9 179 
 BAR2 EZ ES   1   1738 27.62                             144   -0.06 7 90.9 179 
 BAR2 EZ I        1738 28.62        14.1 0.15            148           90.9 179 
 PTB  HZ EP   1   1738 17.69                             125    0.05 7  169 235 
 PTB  HN ES   1   1738 39.26                             125   -0.18 7  169 235 
 PTB  HZ I        1738 42.47         3.7 0.14            127            169 235 
 ZAR  HZ EP   1   1738 19.47                             122    0.41 7  183 273 
 ZAR  HE ES   1   1738 41.47                             122   -0.49 7  183 273 
 ZAR  HZ I        1738 46.88         5.6 0.30            123            183 273 
                                                                                
