 2012  618 1700 20.7 L   6.786 -73.144143.8  RSN  8 0.4 1.9LRSN                1
 GAP=137        0.83       3.7     4.9  7.4  0.5953E-01  0.1447E+02  0.2767E+01E
 Epicentro: LOS SANTOS - SANTANDER                                             3
 ACTION:UPD 12-08-06 17:50 OP:ep   STATUS:               ID:20120618170020 L   I
 2012-06-18-1700-00M.COL___199                                                 6
 STAT SP IPHASW D HRMM SECON CODA AMPLIT PERI AZIMU VELO AIN AR TRES W  DIS CAZ7
 BAR2 SZ EP       17 0 40.02                             171   -0.0810 21.8 191 
 BAR2 SZ I        17 0 40.38        25.7 0.11            167           21.8 191 
 BAR2 SZ ES   1   17 0 55.28                             171    0.08 7 21.8 191 
 PAM  SZ EP   1   17 0 42.89                             150    0.08 7 78.5  39 
 PAM  SE ES   1   17 0 59.77                             150   -0.25 7 78.5  39 
 RUS  HZ EP   1   17 0 44.12                             144   -0.06 7 99.0 176 
 RUS  HN ES   1   17 1  2.83                             144    0.37 7 99.0 176 
 RUS  HZ I        17 1  3.61         8.6 0.28            143           99.0 176 
 PTB  HZ EP       17 0 46.73                             132   -0.80 9  148 259 
 PTB  HN ES   1   17 1  7.95                             132   -0.48 7  148 259 
 PTB  HZ I        17 1 10.09         8.8 0.27            129            148 259 
 OCA  HN ES   1   17 1 11.23                             129    0.11 7  162 353 
 ZAR  HZ EP   1   17 0 53.93                             122    0.80 6  205 293 
 ZAR  HN ES   1   17 1 19.19                             122    0.79 6  205 293 
 ZAR  HZ I        17 1 23.92        16.4 0.41            121            205 293 
 CHI  HZ EP   1   17 0 58.38                             117    0.21 6  247 195 
 CHI  HE ES   1   17 1 27.71                             117    0.35 6  247 195 
 CHI  HZ I        17 1 31.97         3.3 0.27            116            247 195 
 HEL  HZ EP   2   17 1  0.70                             114   -0.13 4  272 256 
 HEL  HN ES   2   17 1 32.19                             114    0.09 4  272 256 
 HEL  HZ I        17 1 38.55         6.1 0.47            113            272 256 
                                                                                
