 2013  818 1052  7.0 L   6.730 -73.199142.7  RSN  6 0.5 1.3LRSN                1
 GAP=195        1.02       6.8     6.9  8.1  0.2507E+02  0.7580E+01 -0.1449E+01E
 Epicentro: VILLANUEVA - SANTANDER                                             3
 ACTION:UPD 14-01-14 09:04 OP:ep   STATUS:               ID:20130818105207 L   I
 OLDACT:REG 13-08-18 14:20 OP:jn   STATUS:               ID:20130818104959     3
 2013-08-18-1049-59M.COL___269                                                 6
 STAT SP IPHASW D HRMM SECON CODA AMPLIT PERI AZIMU VELO AIN AR TRES W  DIS CAZ7
 BAR2 SZ EP       1052 26.00                             173   -0.0810 15.3 173 
 BAR2 SZ ES       1052 40.79                             173   -0.2110 15.3 173 
 BAR2 SZ I        1052 42.14         6.7 0.20            165           15.3 173 
 BRR  HZ EP       1052 27.85                             152    0.1210 70.4 306 
 BRR  HN ES       1052 43.66                             152   -0.2710 70.4 306 
 RUS  HZ EP       1052 29.87                             145   -0.0310 93.4 172 
 RUS  HN ES       1052 48.42                             145    0.6310 93.4 172 
 RUS  HZ I        1052 52.96         1.3 0.20            142           93.4 172 
 PTB  HZ EP       1052 32.63                             133   -0.40 9  141 261 
 PTB  HN ES       1052 52.97                             133   -0.40 9  141 261 
 PTB  HZ I        1052 59.38         2.6 0.24            128            141 261 
 ZAR  HN ES   1   1053  5.12                             122    1.19 6  202 295 
 ZAR  HZ I        1053 14.47         2.5 0.44            120            202 295 
 SML  HE ES   2   1053 13.25                             116    0.48 4  248 337 
                                                                                
