 2015  118 1406 55.9 L   6.789 -73.149144.0  RSN 14 0.5 2.6LRSN                1
 GAP= 71        1.09       3.2     3.2  5.6 -0.1251E+01  0.3900E+01 -0.3965E+00E
 Epicentro: LOS SANTOS - SANTANDER                                             3
 ACTION:UPD 15-03-02 15:40 OP:nd   STATUS:               ID:20150118140655 L   I
 OLDACT:REG 15-01-18 21:16 OP:mh   STATUS:               ID:20150118135746     3
 2015-01-18-1357-46M.COL___258                                                 6
 STAT SP IPHASW D HRMM SECON CODA AMPLIT PERI AZIMU VELO AIN AR TRES W  DIS CAZ7
 BAR2 EZ EP     C 14 7 15.31                             171    0.0710 22.0 190 
 BAR2 EZ ES       14 7 30.07                             171   -0.3010 22.0 190 
 BAR2 EZ I        14 7 31.11        88.5 0.16            170           22.0 190 
 BRR  HZ EP     C 14 7 17.15                             152    0.3310 71.5 300 
 BRR  HN ES       14 7 33.79                             152    0.6110 71.5 300 
 BRR  HZ I        14 7 37.88        63.2 0.12            148           71.5 300 
 PAM  SZ EP     C 14 7 18.08                             150    0.1310 78.6  39 
 PAM  SN ES       14 7 35.14                             150   -0.0510 78.6  39 
 PAM  SZ I        14 7 37.43        60.6 0.52            146           78.6  39 
 RUS  HZ EP   1   14 7 19.24                             144   -0.10 7 99.4 176 
 RUS  HN ES       14 7 37.51                             144   -0.1510 99.4 176 
 RUS  HZ I        14 7 38.25        29.0 0.22            140           99.4 176 
 PTB  HZ EP   1   14 7 22.22                             132   -0.40 7  147 259 
 PTB  HN ES       14 7 42.44                             132   -1.06 9  147 259 
 PTB  HZ I        14 7 44.82        52.8 0.12            127            147 259 
 TAM  HZ EP       14 7 23.56                             130    0.17 9  155 105 
 TAM  HZ I        14 7 43.98        23.3 0.32            126            155 105 
 TAM  HN ES       14 7 44.91                             130    0.03 9  155 105 
 OCA  HZ EP       14 7 23.34                             129   -0.80 9  161 353 
 OCA  HE ES       14 7 46.96                             129    0.76 9  161 353 
 OCA  HZ I        14 7 51.92        46.4 0.62            124            161 353 
 SPBC HZ EP   1   14 7 24.31                             129    0.21 7  162 219 
 SPBC HN ES       14 7 46.03                             129   -0.10 9  162 219 
 SPBC HZ I        14 7 51.77        43.4 0.26            124            162 219 
 ZAR  HZ EP       14 7 28.11                             122   -0.08 9  204 293 
 ZAR  HN ES   1   14 7 54.01                             122    0.59 6  204 293 
 ZAR  HZ I        14 7 59.85        49.6 0.44            118            204 293 
 NOR  HZ EP   1   14 7 31.73                             118    0.36 6  234 235 
 NOR  HN ES       14 7 58.90                             118   -0.17 8  234 235 
 NOR  HZ I        14 8  7.75        22.7 0.16            114            234 235 
 SML  HZ EP   1   14 7 31.52                             117   -0.96 6  245 335 
 SML  HN ES   1   14 8  0.23                             117   -0.83 6  245 335 
 SML  HZ I        14 8  6.47        66.8 0.10            113            245 335 
 ROSC BZ EP       14 7 34.39                             116    0.65 8  251 211 
 ROSC BN ES   4   14 8  7.38                             116    4.10 0  251 211 
 ROSC BZ I        14 8 10.43        22.4 0.35            112            251 211 
 HEL  HZ EP       14 7 36.07                             114    0.17 8  271 256 
 HEL  HN ES       14 8  7.67                             114    0.54 8  271 256 
 HEL  HZ I        14 8 14.22        22.2 0.44            111            271 256 
 URE  HZ EP   4   14 7 35.28                             113   -1.57 0  284 292 
 URE  HN ES   4   14 8 10.97                             113    2.15 0  284 292 
 URE  HZ I        14 8 19.32        25.0 0.22            109            284 292 
                                                                                
