 2010 1018 1342 27.7 L   6.781 -73.133139.3  RSN 10 0.5 2.5LRSN                1
 GAP=160        0.93       4.4     7.5  8.8 -0.1335E+02  0.1162E+02  0.1736E+01E
 Epicentro: LOS SANTOS - SANTANDER                                             3
 ACTION:UP  11-02-18 11:10 OP:tino STATUS:               ID:20101018134227 L   I
 2010-10-18-1338-11S.COL___130                                                 6
 STAT SP IPHASW D HRMM SECON CODA AMPLIT PERI AZIMU VELO SNR AR TRES W  DIS CAZ7
 BAR2 SZ IP     D 1342 46.48                             171     0.010   22 195 
 BAR2 SZ I        1342 47.03       112.6 0.43                            22 195 
 BAR2 SZ ES   2   1343  1.02                             171    -0.2 5   22 195 
 BRR  HZ IP     C 1342 48.39                             151     0.110   73 299 
 BRR  HZ I        1342 48.73        95.7 0.11                            73 299 
 BRR  HE ES   2   1343  5.07                             151     0.7 5   73 299 
 RUS  HZ EP   1   1342 50.42                             143    -0.3 7   98 177 
 RUS  HN ES   2   1343  8.55                             143     0.0 5   98 177 
 RUS  HZ I        1343 11.07        26.9 0.41                            98 177 
 GUE  SZ EP   1   1342 52.73                             137     0.8 7  118  11 
 GRA  SZ IP     D 1342 52.51                             135     0.010  127  17 
 GRA  SZ ES   2   1343 11.64                             135    -0.2 5  127  17 
 GRA  SZ I        1343 14.17        55.3 0.39                           127  17 
 OCA  SZ EP   1   1342 55.49                             128    -0.2 7  162 353 
 OCA  SZ ES   2   1343 16.61                             128    -1.0 5  162 353 
 OCA  SZ I        1343 21.96        34.6 0.31                           162 353 
 NOR  SZ EP   1   1343  2.15                             117    -0.9 6  235 235 
 NOR  SE ES   2   1343 30.72                             117     0.1 4  235 235 
 CHI  HZ EP   1   1343  4.68                             116    -0.2 6  247 196 
 CHI  HE ES   2   1343 33.36                             116    -0.5 4  247 196 
 CHI  HZ I        1343 40.69        10.7 1.01                           247 196 
 ROSC BZ EP   1   1343  6.33                             115     1.0 6  252 212 
 ROSC BE ES   2   1343 35.38                             115     0.6 4  252 212 
 ROSC BZ I        1343 41.26        24.6 0.42                           252 212 
 HEL  HZ EP   1   1343  7.89                             113     0.2 6  273 256 
 HEL  HN ES   2   1343 38.44                             113    -0.4 4  273 256 
 HEL  HZ I        1343 45.53        29.6 0.49                           273 256 
                                                                                
