 2015 1118 1650 11.4 L   6.681 -73.119132.6  RSN  6 0.6 1.8LRSN                1
 GAP=145        1.31       8.9     7.1 10.0  0.5878E+01  0.1980E+02 -0.7523E+01E
 Epicentro: VILLANUEVA - SANTANDER                                             3
 ACTION:UPD 15-12-28 16:11 OP:cam  STATUS:               ID:20151118165011 L   I
 OLDACT:REG 15-11-18 21:10 OP:dnl  STATUS:               ID:20151118164750     3
 2015-11-18-1647-50M.COL___303                                                 6
 STAT SP IPHASW D HRMM SECON CODA AMPLIT PERI AZIMU VELO AIN AR TRES W  DIS CAZ7
 BAR2 EZ EP       1650 29.74                             175    0.4510 12.1 216 
 BAR2 EZ ES       1650 42.66                             175   -0.5610 12.1 216 
 BAR2 EZ I        1650 45.50        13.5 0.24            172           12.1 216 
 BRR  HZ EP       1650 31.60                             147   -0.1810 80.7 306 
 BRR  HN ES       1650 48.50                             147    0.8410 80.7 306 
 PAM  EZ IP     C 1650 32.27                             145   -0.5910 86.3  32 
 PAM  EE ES       1650 49.75                             145    0.1810 86.3  32 
 PAM  EZ I        1650 51.62        11.0 0.58            149           86.3  32 
 RUS  HZ EP   2   1650 33.57                             145    0.64 5 87.3 177 
 RUS  HN ES   2   1650 49.37                             145   -0.33 5 87.3 177 
 RUS  HZ I        1650 52.76         5.4 0.44            146           87.3 177 
 ZAR  HZ EP       1650 44.41                             118    0.50 8  212 295 
 ZAR  HE ES       1651  8.43                             118   -0.81 8  212 295 
 ZAR  HZ I        1651 14.42         6.8 0.23            120            212 295 
 SML  HE ES   4   1651 14.49                             113   -3.50 0  257 336 
 SML  HZ I        1651 18.41         7.2 0.10            115            257 336 
 MON  HE ES   4   1651 36.00                             106   -4.01 0  364 310 
                                                                                
