 2015  418 1002 25.6 L   6.830 -73.167141.5  RSN 11 0.4 2.0LRSN                1
 GAP=181        0.92       3.1     5.0  7.3 -0.2269E+01  0.9454E+01 -0.5912E+01E
 Epicentro: LOS SANTOS - SANTANDER                                             3
 ACTION:UPD 15-06-03 16:55 OP:cam  STATUS:               ID:20150418100225 L   I
 OLDACT:REG 15-04-18 20:43 OP:spq  STATUS:               ID:20150418095749     3
 2015-04-18-0957-49M.COL___266                                                 6
 STAT SP IPHASW D HRMM SECON CODA AMPLIT PERI AZIMU VELO AIN AR TRES W  DIS CAZ7
 BAR2 EZ EP       10 2 44.75                             169   -0.0010 26.3 184 
 BAR2 EZ ES   1   10 3  0.03                             169    0.32 7 26.3 184 
 BAR2 EZ I        10 3  2.53        17.3 0.46            171           26.3 184 
 BRR  HZ EP     C 10 2 46.59                             153    0.5410 67.6 297 
 BRR  HN ES   4   10 3  3.98                             153    1.95 0 67.6 297 
 BRR  HZ I        10 3  8.08        10.5 0.10            151           67.6 297 
 RUS  HZ EP   1   10 2 48.97                             142   -0.19 7  104 175 
 RUS  HE ES   1   10 3  7.16                             142   -0.40 7  104 175 
 RUS  HZ I        10 3  8.02         9.0 0.26            149            104 175 
 PTB  HZ EP       10 2 51.38                             131   -0.66 9  146 257 
 PTB  HN ES       10 3 12.60                             131   -0.10 9  146 257 
 PTB  HZ I        10 3 15.29         8.1 0.14            133            146 257 
 OCA  HZ EP   1   10 2 53.10                             129   -0.11 7  157 354 
 OCA  HN ES       10 3 14.66                             129   -0.12 9  157 354 
 OCA  HZ I        10 3 20.39        27.5 0.40            132            157 354 
 SPBC HE ES       10 3 16.05                             128    0.14 9  164 218 
 SPBC HZ I        10 3 18.47        19.5 0.36            132            164 218 
 ZAR  HZ EP   1   10 2 58.00                             122    0.61 6  201 292 
 ZAR  HE ES   1   10 3 22.78                             122    0.57 6  201 292 
 ZAR  HZ I        10 3 28.92        11.2 0.22            124            201 292 
 NOR  HZ EP   1   10 3  1.08                             118    0.02 6  235 233 
 NOR  HE ES   1   10 3 27.99                             118   -0.75 6  235 233 
 NOR  HZ I        10 3 33.33         7.6 0.26            121            235 233 
 SML  HZ EP       10 3  1.28                             117   -0.25 8  240 335 
 SML  HN ES   1   10 3 29.50                             117   -0.07 6  240 335 
 HEL  HZ EP   4   10 3  6.98                             114    1.57 0  271 255 
 GUY2CHZ EP       10 3  9.91                             111    0.93 7  301 234 
 GUY2CHN ES   4   10 3 46.21                             111    3.36 0  301 234 
 GUY2CHZ I        10 3 55.60         4.7 0.42                           301 234 
 MON  HE ES   1   10 3 50.91                             108   -0.79 5  350 308 
 MON  HZ I        10 3 56.97         1.9 0.60            111            350 308 
                                                                                
