 2011  918 1923  0.2 L   6.716 -73.206154.5  RSN  5 0.3 1.6LRSN                1
 GAP=221        0.50       6.2     6.6  8.9  0.1661E+02  0.1586E+02  0.6741E+01E
 Epicentro: VILLANUEVA - SANTANDER                                             3
 ACTION:UPD 12-07-13 15:58 OP:ep   STATUS:               ID:20110918192300 L   I
 2011-09-18-1918-09S.COL___171                                                 6
 STAT SP IPHASW D HRMM SECON CODA AMPLIT PERI AZIMU VELO AIN AR TRES W  DIS CAZ7
 BAR2 SZ EP   2   1923 20.45                             175   -0.32 5 14.0 169 
 BAR2 SZ ES   2   1923 36.24                             175   -0.55 5 14.0 169 
 BAR2 SZ I        1923 37.14        10.4 0.18                          14.0 169 
 BRR  HZ EP   2   1923 22.41                             154    0.11 5 70.6 308 
 BRR  HE ES   2   1923 39.76                             154    0.25 5 70.6 308 
 BRR  HZ I        1923 43.20         9.1 0.68                          70.6 308 
 RUS  HZ EP   2   1923 24.35                             148    0.07 5 92.1 171 
 RUS  HZ I        1923 25.50         2.5 0.24                          92.1 171 
 RUS  HN ES   2   1923 43.59                             148    0.55 5 92.1 171 
 ZAR  HE ES   2   1923 58.76                             125    0.17 4  202 295 
 ZAR  HZ I        1924  0.97         4.8 0.21                           202 295 
 NOR  SN ES   2   1924  2.40                             122   -0.35 4  224 235 
                                                                                
