 2015  118 1822 41.0 L   6.803 -73.178139.9  RSN 14 0.3 2.3LRSN                1
 GAP=132        0.70       2.3     2.9  3.7 -0.5862E+00  0.2313E+01  0.1605E+01E
 Epicentro: LOS SANTOS - SANTANDER                                             3
 ACTION:UPD 15-03-02 15:40 OP:nd   STATUS:               ID:20150118182241 L   I
 OLDACT:UP  15-01-19 00:37 OP:mh   STATUS:               ID:20150118181744     3
 OLDACT:UP  15-01-19 00:37 OP:mh   STATUS:               ID:20150118181744     3
 OLDACT:REG 15-01-18 21:20 OP:mh   STATUS:               ID:20150118181744     3
 2015-01-18-1817-44M.COL___259                                                 6
 STAT SP IPHASW D HRMM SECON CODA AMPLIT PERI AZIMU VELO AIN AR TRES W  DIS CAZ7
 BAR2 EZ EP       1822 59.78                             170   -0.1010 23.3 181 
 BAR2 EZ ES       1823 14.62                             170   -0.0210 23.3 181 
 BAR2 EZ I        1823 15.93        38.3 0.28            166           23.3 181 
 BRR  HZ EP       1823  1.69                             153    0.4010 68.0 300 
 BRR  HN ES       1823 17.35                             153    0.2010 68.0 300 
 BRR  HZ I        1823 22.03        28.2 0.19            149           68.0 300 
 PAM  SZ EP       1823  2.93                             149    0.2510 79.4  42 
 PAM  SN ES   1   1823 19.67                             149    0.05 7 79.4  42 
 PAM  SZ I        1823 21.88        45.1 0.50            156           79.4  42 
 RUS  HZ EP       1823  3.94                             142   -0.2510  101 174 
 RUS  HN ES   1   1823 22.20                             142   -0.10 7  101 174 
 RUS  HZ I        1823 23.55        20.3 0.26            143            101 174 
 PTB  HZ EP       1823  6.96                             131   -0.18 9  144 258 
 PTB  HN ES       1823 27.47                             131   -0.09 9  144 258 
 PTB  HZ I        1823 34.86        12.6 0.14            129            144 258 
 SPBC HZ EP       1823  9.04                             128    0.21 9  161 218 
 SPBC HN ES   1   1823 30.25                             128   -0.32 7  161 218 
 SPBC HZ I        1823 33.96        30.7 0.40            127            161 218 
 ZAR  HZ EP       1823 12.80                             121    0.12 9  201 292 
 ZAR  HN ES   1   1823 37.30                             121   -0.11 6  201 292 
 ZAR  HZ I        1823 44.78        14.9 0.28            121            201 292 
 NOR  HZ EP       1823 16.47                             117    0.40 8  232 234 
 NOR  HN ES       1823 43.15                             117   -0.30 8  232 234 
 NOR  HZ I        1823 49.55        15.6 0.22            117            232 234 
 SML  HZ EP   1   1823 16.24                             116   -0.83 6  242 336 
 SML  HN ES   1   1823 44.66                             116   -0.58 6  242 336 
 SML  HZ I        1823 49.37        26.1 0.53            118            242 336 
 ROSC BZ EP   4   1823 20.15                             116    1.55 0  251 210 
 ROSC BN ES   1   1823 48.11                             116    0.15 6  251 210 
 ROSC BZ I        1823 54.02        20.6 0.50            116            251 210 
 VIL  SZ EP       1823 23.66                             111   -0.41 7  303 191 
 VIL  SN ES   1   1823 57.44                             111   -0.26 5  303 191 
 VIL  SZ I        1824  7.49        18.3 0.38            112            303 191 
 RREF HZ EP   4   1823 28.11                             110    1.54 0  319 229 
 RREF HN ES   4   1824  6.02                             110    3.87 0  319 229 
 RREF HZ I        1824 11.69        10.2 0.36            110            319 229 
 TOL  SZ EP       1823 29.59                             108    0.86 7  341 224 
 TOL  SN ES   4   1824  7.19                             108    1.20 0  341 224 
 TOL  SZ I        1824 13.21        19.2 0.52            109            341 224 
 ORTC HZ EP       1823 34.24                             105   -0.23 6  394 216 
 ORTC HN ES   1   1824 16.72                             105    0.51 4  394 216 
 ORTC HZ I        1824 20.91         6.4 0.30            106            394 216 
                                                                                
