 2016 1018 1634 51.3 L   6.779 -73.140150.6  RSN  7 0.4 1.9LRSN                1
 GAP=120        0.88       4.5     4.3  5.6 -0.4599E+01 -0.1190E+01 -0.6095E+00E
 Epicentro: LOS SANTOS - SANTANDER                                             3
 ACTION:UPD 16-11-09 19:20 OP:rebc STATUS:               ID:20161018163451 L   I
 OLDACT:UP  16-10-19 00:56 OP:ar   STATUS:               ID:20161018162738     3
 OLDACT:REG 16-10-18 21:57 OP:ar   STATUS:               ID:20161018162738     3
 2016-10-18-1628-00M.COL___338                                                 6
 STAT SP IPHASW D HRMM SECON CODA AMPLIT PERI AZIMU VELO AIN AR TRES W  DIS CAZ7
 BAR2 EZ EP       1635 11.44                             172   -0.0310 21.2 193 
 BAR2 EZ ES       1635 27.11                             172   -0.0910 21.2 193 
 BAR2 EZ I        1635 27.60        18.2 0.18            172           21.2 193 
 BRR  HZ EP       1635 13.36                             153    0.3010 72.8 300 
 BRR  HN ES       1635 30.58                             153    0.5510 72.8 300 
 BRR  HZ I        1635 33.62        12.5 0.34            153           72.8 300 
 PAM  EZ EP       1635 14.38                             151    0.2710 78.8  38 
 PAM  EN ES       1635 31.58                             151   -0.3210 78.8  38 
 PAM  EZ I        1635 33.92        12.3 0.62            152           78.8  38 
 RUS  HZ EP       1635 15.78                             145    0.4210 98.2 176 
 RUS  HN ES       1635 34.02                             145   -0.1110 98.2 176 
 RUS  HZ I        1635 35.16         6.5 0.30            147           98.2 176 
 PTB  HZ EP       1635 18.42                             133   -0.26 9  148 260 
 PTB  HN ES       1635 39.37                             133   -0.66 9  148 260 
 PTB  HZ I        1635 40.40         8.7 0.18            134            148 260 
 SPBC HZ EP   2   1635 20.34                             130    0.30 5  162 220 
 SPBC HN ES   2   1635 42.49                             130    0.04 5  162 220 
 SPBC HZ I        1635 44.97        15.0 0.24            132            162 220 
 SOCV BZ EP       1635 34.15                             113   -0.51 7  302  56 
 SOCV BE ES   4   1636  5.16                             113   -3.32 0  302  56 
                                                                                
