 2013 1218 1816 20.8 L   6.049 -73.730112.3  RSN  5 0.3 1.4LRSN                1
 GAP=101        0.88       3.4     3.6  7.0 -0.2917E+00  0.1453E+01  0.3670E+01E
 Epicentro: BOLIVAR - SANTANDER                                                3
 ACTION:UPD 14-01-13 10:19 OP:ep   STATUS:               ID:20131218181620 L   I
 OLDACT:DUP 13-12-18 17:07 OP:nd   STATUS:               ID:20131218181001d    3
 2013-12-18-1810-00M.COL___285                                                 6
 STAT SP IPHASW D HRMM SECON CODA AMPLIT PERI AZIMU VELO AIN AR TRES W  DIS CAZ7
 SPBC HZ EP       1816 37.99                             151    0.3110 58.0 221 
 SPBC HN ES       1816 51.31                             151    0.4310 58.0 221 
 SPBC HZ I        1816 53.19         8.6 0.22            150           58.0 221 
 RUS  HZ EP       1816 39.17                             145   -0.1110 73.6 104 
 RUS  HN ES       1816 53.92                             145    0.2010 73.6 104 
 RUS  HZ I        1816 54.95         2.3 0.26            147           73.6 104 
 BAR2 SZ EP       1816 39.83                             140    0.0410 85.3  45 
 BAR2 SZ ES       1816 54.43                             140   -0.2010 85.3  45 
 BAR2 SZ I        1816 55.65        29.2 0.34            145           85.3  45 
 PTB  HZ EP       1816 40.62                             136    0.1910 97.0 304 
 PTB  HN ES       1816 55.33                             136   -0.4510 97.0 304 
 PTB  HZ I        1816 58.55         5.9 0.30            139           97.0 304 
 CHI  HZ EP       1816 46.89                             122    0.19 9  157 180 
 CHI  HN ES       1817  6.24                             122   -0.69 9  157 180 
 CHI  HZ I        1817 13.10         2.5 0.36            123            157 180 
                                                                                
