 2010  718 1301 25.8 L   6.805 -73.028142.5  RSN  7 0.4 1.8LRSN                1
 GAP=172        0.93       4.0     8.4  9.2 -0.2357E+01 -0.9413E+01 -0.4947E+01E
 Epicentro: CEPITA - SANTANDER                                                 3
 ACTION:UPD 10-12-01 15:18 OP:pat  STATUS:               ID:20100718130125 L   I
 2010-07-18-1259-52S.COL___119                                                 6
 STAT SP IPHASW D HRMM SECON CODA AMPLIT PERI AZIMU VELO AIN AR TRES W  DIS CAZ7
 BRR  HZ EP       13 1 46.92                             149    -0.410   83 294 
 BRR  HN ES       13 2  4.02                             149     0.010   83 294 
 BRR  HZ I        13 2  9.17        14.6 0.26                            83 294 
 RUS  HZ EP   1   13 1 48.83                             143    -0.4 7  101 183 
 RUS  HN ES       13 2  7.65                             143     0.110  101 183 
 RUS  HZ I        13 2  8.35         4.8 0.30                           101 183 
 GUE  SZ EP   1   13 1 50.45                             140     0.5 7  114   6 
 GUE  SZ I        13 2 11.31         2.8 0.28                           114   6 
 GRA  SZ ES   2   13 2 10.26                             137     0.6 5  122  12 
 GRA  SZ I        13 2 11.61        10.8 0.35                           122  12 
 OCA  SZ EP       13 1 53.68                             129    -0.3 9  162 349 
 OCA  SZ ES   1   13 2 16.30                             129     0.3 7  162 349 
 OCA  SZ I        13 2 20.79        13.4 0.38                           162 349 
 RREF HN ES   1   13 2 50.24                             110     0.5 5  332 231 
 RREF HZ I        13 2 54.65         3.9 0.05                           332 231 
 PRA  HN ES   2   13 3  3.29                             106     1.0 3  399 211 
 PRA  HZ I        13 3  4.40         3.6 1.10                           399 211 
                                                                                
