 2010  818 1053 39.2 L   6.781 -73.078149.1  RSN  5 0.3 1.6LRSN                1
 GAP=166        0.87       4.6     9.2  8.5  0.1253E+01 -0.3235E+02 -0.5295E+01E
 Epicentro: LOS SANTOS - SANTANDER                                             3
 ACTION:UP  10-09-07 10:56 OP:vdl  STATUS:               ID:20100818105339 L   I
 2010-08-18-1050-02S.COL___117                                                 6
 STAT SP IPHASW D HRMM SECON CODA AMPLIT PERI AZIMU VELO SNR AR TRES W  DIS CAZ7
 BAR2 SZ EP       1053 59.01                             171    -0.210   24 209 
 BAR2 SZ ES   1   1054 14.31                             171    -0.5 7   24 209 
 BAR2 SZ I        1054 15.77        10.3 0.22                            24 209 
 BRR  HZ EP       1054  0.91                             151    -0.210   79 297 
 BRR  HN ES       1054 18.44                             151     0.210   79 297 
 BRR  HZ I        1054 20.79        11.4 0.19                            79 297 
 RUS  HZ EP       1054  2.94                             145    -0.110   98 180 
 RUS  HN ES   1   1054 22.38                             145     0.6 7   98 180 
 RUS  HZ I        1054 24.53         3.1 0.18                            98 180 
 GUE  SZ EP   1   1054  4.65                             140     0.4 7  117   8 
 GRA  SZ EP       1054  4.82                             138     0.110  126  14 
 GRA  SZ ES   1   1054 24.57                             138    -0.1 7  126  14 
 GRA  SZ I        1054 26.08         6.3 0.32                           126  14 
                                                                                
