 2017  218 1152 34.3 L   6.694 -73.157147.3  RSN  8 0.5 1.8LRSN                1
 GAP=122        1.20       5.1     5.1  7.1  0.8572E+01  0.4809E+01  0.7031E+01E
 Epicentro: VILLANUEVA - SANTANDER                                             3
 ACTION:UPD 17-05-24 15:37 OP:jn   STATUS:               ID:20170218115234 L   I
 OLDACT:UP  17-02-18 22:37 OP:dani STATUS:               ID:20170218114745     3
 OLDACT:REG 17-02-18 21:21 OP:dani STATUS:               ID:20170218114745     3
 2017-02-18-1148-00M.COL___349                                                 6
 STAT SP IPHASW D HRMM SECON CODA AMPLIT PERI AZIMU VELO AIN AR TRES W  DIS CAZ7
 BAR2 EZ EP     C 1152 54.19                             175    0.2410 11.6 194 
 BAR2 EZ ES       1153  8.58                             175   -0.6810 11.6 194 
 BAR2 EZ I        1153 11.05        14.6 0.32            174           11.6 194 
 BRR  HZ EP       1152 56.34                             151    0.4110 76.5 307 
 BRR  HN ES       1153 13.55                             151    0.7610 76.5 307 
 BRR  HZ I        1153 18.02        16.5 0.17            150           76.5 307 
 PAM  EZ EP       1152 57.32                             148    0.0110 87.5  35 
 PAM  EE ES       1153 14.73                             148   -0.5210 87.5  35 
 PAM  EZ I        1153 17.21         5.4 0.68            151           87.5  35 
 RUS  HZ EP       1152 58.01                             147    0.5910 89.0 175 
 RUS  HN ES       1153 15.93                             147    0.4910 89.0 175 
 RUS  HZ I        1153 17.68        11.3 0.32            150           89.0 175 
 PTB  HZ EP       1153  0.90                             133   -0.23 9  145 263 
 PTB  HN ES       1153 21.35                             133   -0.70 9  145 263 
 PTB  HZ I        1153 26.02         6.2 0.14            133            145 263 
 ZAR  HZ EP   3   1153  8.04                             122    0.82 2  208 295 
 ZAR  HE ES       1153 33.01                             122    0.11 8  208 295 
 ZAR  HZ I        1153 40.81         6.0 0.30            123            208 295 
 URE  HZ EP       1153 15.31                             113   -0.53 7  287 294 
 URE  HE ES   4   1153 45.11                             113   -3.12 0  287 294 
 PTGC HZ EP       1153 16.93                             113   -0.13 7  298 158 
 PTGC HN ES       1153 49.91                             113   -0.49 7  298 158 
                                                                                
