 2010  318 1812 50.4 L   6.953 -73.325109.2  RSN  5 0.3 2.3LRSN                1
 GAP=158        0.64       3.9     5.4  5.7  0.1423E+00  0.2028E+01 -0.3868E+01E
 Epicentro: BETULIA - SANTANDER                                                3
 ACTION:UP  10-08-24 09:54 OP:vdl  STATUS:               ID:20100318181250 L   I
 2010-03-18-1810-09S.COL___098                                                 6
 STAT SP IPHASW D HRMM SECON CODA AMPLIT PERI AZIMU VELO SNR AR TRES W  DIS CAZ7
 BAR2 SZ IP       1813  6.40                             157     0.010   43 159 
 BAR2 SZ ES   1   1813 18.93                             157     0.1 7   43 159 
 BRR  HZ IP       1813  5.81                             155    -0.410   46 292 
 BRR  HZ I        1813  6.01        79.9 0.10                            46 292 
 BRR  HE ES       1813 18.55                             155     0.010   46 292 
 OCA  SZ EP   1   1813 14.66                             123     0.4 7  142   0 
 OCA  SZ ES   1   1813 32.90                             123     0.0 7  142   0 
 OCA  SZ I        1813 34.83        55.3 0.27                           142   0 
 HEL  HZ EP   2   1813 27.05                             108    -0.3 4  258 251 
 HEL  HN ES   2   1813 57.02                             108     0.8 4  258 251 
 HEL  HZ I        1813 58.46         5.6 0.39                           258 251 
 DBB  SZ EP   2   1813 33.87                             103    -0.3 3  319 271 
                                                                                
