 2015  318 1321 34.9 L   6.832 -73.244136.7  RSN  4 0.4 1.6LRSN                1
 GAP=188        0.91       5.6     7.1  8.8 -0.2348E+01  0.2009E+02 -0.1755E+02E
 Epicentro: ZAPATOCA - SANTANDER                                               3
 ACTION:UPD 15-04-30 16:27 OP:nd   STATUS:               ID:20150318132134 L   I
 OLDACT:REG 15-03-18 23:19 OP:cam  STATUS:               ID:20150318131747     3
 2015-03-18-1317-47M.COL___281                                                 6
 STAT SP IPHASW D HRMM SECON CODA AMPLIT PERI AZIMU VELO AIN AR TRES W  DIS CAZ7
 BAR2 EZ EP       1321 53.18                             168   -0.3910 27.3 166 
 BAR2 EZ ES       1322  8.37                             168    0.2710 27.3 166 
 BAR2 EZ I        1322  9.58         7.8 0.22            167           27.3 166 
 PTB  HN ES       1322 19.75                             132   -0.27 9  138 257 
 PTB  HZ I        1322 28.06         4.0 0.44            130            138 257 
 SML  HZ EP   1   1322  9.68                             116   -0.56 6  236 337 
 SML  HE ES       1322 38.10                             116    0.33 8  236 337 
 SML  HZ I        1322 39.82         5.3 0.24            118            236 337 
 GUY2CHZ EP       1322 18.05                             111    0.68 7  294 233 
                                                                                
