 2010  118 1744 24.2 L   6.807 -73.075148.0  RSN  4 0.2 1.8LRSN                1
 GAP=330        0.43       7.0    13.3  8.0 -0.5156E+02  0.5807E+02 -0.3497E+01E
 Epicentro: LOS SANTOS - SANTANDER                                             3
 ACTION:UP  10-08-24 09:44 OP:vdl  STATUS:               ID:20100118174424 L   I
 2010-01-18-1739-50S.COL___093                                                 6
 STAT SP IPHASW D HRMM SECON CODA AMPLIT PERI AZIMU VELO SNR AR TRES W  DIS CAZ7
 BAR2 SZ IP       1744 44.19                             169     0.010   27 207 
 BAR2 SZ ES   3   1744 59.19                             169    -0.5 2   27 207 
 RUS  HZ IP       1744 48.15                             144     0.010  101 181 
 RUS  HZ I        1744 49.19         3.5 0.12                           101 181 
 RUS  HN ES   2   1745  7.12                             144     0.2 5  101 181 
 CHI  HZ EP   2   1745  1.81                             117    -0.5 4  252 197 
 CHI  HZ I        1745 39.46         4.4 0.17                           252 197 
 PRA  HZ IP       1745 18.50                             107     0.2 6  397 211 
 PRA  HE ES   1   1746  0.47                             107    -0.1 4  397 211 
 PRA  HZ I        1746  5.77         5.3 0.29                           397 211 
                                                                                
