 2015  618 1754 23.3 L   7.444 -73.204129.5  RSN  5 0.4 1.9LRSN                1
 GAP=187        0.96       4.2     6.1  7.8  0.1300E+01  0.5915E+01 -0.7434E+01E
 Epicentro: EL PLAYON - SANTANDER                                              3
 ACTION:UPD 15-09-10 22:13 OP:cam  STATUS:               ID:20150618175423 L   I
 OLDACT:DUP 15-06-19 01:13 OP:stll STATUS:               ID:20150618174749d    3
 2015-06-18-1747-48M.COL___307                                                 6
 STAT SP IPHASW D HRMM SECON CODA AMPLIT PERI AZIMU VELO AIN AR TRES W  DIS CAZ7
 BRR  HZ EP       1754 42.38                             151   -0.1410 67.4 236 
 BRR  HN ES       1754 57.48                             151    0.0110 67.4 236 
 OCA  HZ EP       1754 44.22                             143    0.0610 88.8 352 
 OCA  HN ES       1755  0.59                             143    0.1910 88.8 352 
 OCA  HZ I        1755  3.36        21.5 0.24            130           88.8 352 
 BAR2 EZ EP       1754 45.42                             142    0.7410 94.3 179 
 BAR2 EZ ES       1755  0.83                             142   -0.5010 94.3 179 
 BAR2 EZ I        1755  2.62         6.8 0.36            135           94.3 179 
 SML  HZ EP       1754 51.45                             122   -0.56 9  178 328 
 SML  HZ I        1755 14.48        17.2 0.10            112            178 328 
 ZAR  HZ EP       1754 52.38                             122   -0.14 9  183 272 
 ZAR  HN ES       1755 15.52                             122    0.24 9  183 272 
 ZAR  HZ I        1755 18.79         7.8 0.46            113            183 272 
                                                                                
