 2017  718 1759 26.8 L   6.811 -73.203139.7  RSN  6 0.4 1.6LRSN                1
 GAP=146        0.86       5.0     4.4  6.4 -0.1037E+02  0.9930E+01 -0.2691E+01E
 Epicentro: ZAPATOCA - SANTANDER                                               3
 ACTION:UPD 17-08-30 15:34 OP:rebc STATUS:               ID:20170718175926 L   I
 OLDACT:REG 17-07-18 20:53 OP:lv   STATUS:               ID:20170718175742     3
 2017-07-18-1758-00M.COL___386                                                 6
 STAT SP IPHASW D HRMM SECON CODA AMPLIT PERI AZIMU VELO AIN AR TRES W  DIS CAZ7
 BAR2 EZ EP       1759 45.86                             170    0.1010 24.3 175 
 BAR2 EZ ES       18 0  0.69                             170    0.1710 24.3 175 
 BAR2 EZ I        18 0  1.97        15.5 0.24            170           24.3 175 
 PAM  EZ EP       1759 48.42                             149   -0.1910 80.6  44 
 PAM  EN ES       18 0  5.86                             149    0.2710 80.6  44 
 PAM  EZ I        18 0  8.23        11.4 0.30            153           80.6  44 
 RUS  HZ EP       1759 50.14                             142    0.0110  102 173 
 RUS  HN ES       18 0  7.94                             142   -0.3710  102 173 
 RUS  HZ I        18 0  9.45         2.7 0.24            146            102 173 
 PTB  HZ EP       1759 52.20                             132   -0.57 9  142 258 
 PTB  HN ES       18 0 12.70                             132   -0.30 9  142 258 
 PTB  HZ I        18 0 19.49         3.4 0.16            131            142 258 
 NOR  HZ EP       18 0  2.35                             118    0.60 8  230 233 
 NOR  HN ES       18 0 29.54                             118    0.56 8  230 233 
 NOR  HZ I        18 0 38.41         2.7 0.06            119            230 233 
 GUY2CHZ EP   9   18 0 11.68                             111    2.01 0  297 234 
 GUY2CHN ES       18 0 45.00                                   -0.09 7  297 234 
 GUY2CHZ I        18 0 51.01         1.9 0.29                           297 234 
 SJC  HZ EP   4   18 0 20.11                             105   -1.56 0  405 328 
 SJC  HN ES   4   18 1  1.23                             105   -3.22 0  405 328 
                                                                                
