 2013  518 1734  7.0 L   6.868 -73.308125.2  RSN  7 0.4 1.8LRSN                1
 GAP=103        0.96       4.2     5.0  6.9  0.6679E+00  0.8410E+01 -0.5792E+01E
 Epicentro: BETULIA - SANTANDER                                                3
 ACTION:UPD 13-06-20 09:51 OP:ep   STATUS:               ID:20130518173407 L   I
 2013-05-18-1730-00M.COL___256                                                 6
 STAT SP IPHASW D HRMM SECON CODA AMPLIT PERI AZIMU VELO AIN AR TRES W  DIS CAZ7
 GIR2 SZ EP       1734 24.41                             167    0.2710 26.5  29 
 GIR2 SZ ES   1   1734 36.99                             167   -0.48 7 26.5  29 
 GIR2 SZ I        1734 38.10        27.8 0.28            170           26.5  29 
 BAR2 SZ EP       1734 24.75                             164    0.2610 33.5 155 
 BAR2 SZ ES   1   1734 37.58                             164   -0.52 7 33.5 155 
 BAR2 SZ I        1734 39.09        42.7 0.26            165           33.5 155 
 BRR  HZ EP       1734 25.17                             156    0.2710 51.8 301 
 BRR  HN ES   1   1734 39.27                             156    0.44 7 51.8 301 
 BRR  HZ I        1734 40.14        23.5 0.12            156           51.8 301 
 PAM  SZ EP       1734 28.20                             144    0.5510 85.1  52 
 PAM  SN ES   1   1734 43.61                             144   -0.11 7 85.1  52 
 PAM  SZ I        1734 46.94         9.1 0.24            147           85.1  52 
 RUS  HZ EP   1   1734 29.52                             136   -0.14 7  111 167 
 RUS  HN ES   1   1734 47.14                             136   -0.17 7  111 167 
 RUS  HZ I        1734 49.04         5.2 0.36            138            111 167 
 PTB  HZ EP       1734 30.16                             130   -0.7510  132 254 
 PTB  HN ES   1   1734 50.07                             130    0.54 7  132 254 
 PTB  HZ I        1734 54.64         5.4 0.30            131            132 254 
 SML  HZ EP       1734 40.84                             114   -0.20 8  230 339 
 SML  HN ES       1735  7.17                             114   -0.39 8  230 339 
                                                                                
