 2017  318 1308 44.1 L   6.789 -73.154144.3  RSN  6 0.4 1.7LRSN                1
 GAP=136        1.05       5.5     4.8  7.9  0.5462E+00  0.9987E+01 -0.4482E+01E
 Epicentro: LOS SANTOS - SANTANDER                                             3
 ACTION:UPD 17-05-25 18:42 OP:jn   STATUS:               ID:20170318130844 L   I
 OLDACT:REG 17-03-18 20:50 OP:dnl  STATUS:               ID:20170318130747     3
 2017-03-18-1308-00M.COL___388                                                 6
 STAT SP IPHASW D HRMM SECON CODA AMPLIT PERI AZIMU VELO AIN AR TRES W  DIS CAZ7
 BAR2 EZ EP       13 9  3.27                             171   -0.2610 21.9 188 
 BAR2 EZ ES       13 9 18.90                             171    0.2110 21.9 188 
 BAR2 EZ I        13 9 19.36        12.1 0.22            173           21.9 188 
 BRR  HN EP       13 9  5.63                             152    0.5510 71.0 300 
 BRR  HZ ES       13 9 20.67                             152   -0.7810 71.0 300 
 BRR  HN I        13 9 24.28        33.8 0.24            152           71.0 300 
 PAM  EZ IP     D 13 9  6.27                             150    0.0110 79.0  39 
 PAM  EN ES       13 9 23.68                             150    0.1410 79.0  39 
 PAM  EZ I        13 9 25.93         8.3 0.56            151           79.0  39 
 RUS  HZ EP   2   13 9  7.95                             144    0.32 5 99.4 175 
 RUS  HE ES       13 9 26.03                             144    0.0510 99.4 175 
 RUS  HZ I        13 9 26.76         4.4 0.34            147           99.4 175 
 PTB  HZ EP       13 9 10.12                             132   -0.73 9  147 259 
 PTB  HE ES       13 9 32.05                             132    0.34 9  147 259 
 PTB  HZ I        13 9 33.73         5.6 0.40            133            147 259 
 ZAR  HZ EP   2   13 9 16.26                             122   -0.15 4  204 293 
 ZAR  HE ES       13 9 42.12                             122    0.51 9  204 293 
 ZAR  HZ I        13 9 44.28         4.3 0.10            123            204 293 
                                                                                
