 2013  718 1205  2.5 L   6.827 -73.140139.9  RSN  6 0.5 1.7LRSN                1
 GAP=188        1.14       5.3     6.7  9.5  0.1128E+02  0.6442E+01 -0.1462E+02E
 Epicentro: LOS SANTOS - SANTANDER                                             3
 ACTION:UPD 13-08-12 10:38 OP:ep   STATUS:               ID:20130718120502 L   I
 OLDACT:REG 13-07-18 14:35 OP:nd   STATUS:               ID:20130718115959     3
 2013-07-18-1159-59M.COL___267                                                 6
 STAT SP IPHASW D HRMM SECON CODA AMPLIT PERI AZIMU VELO AIN AR TRES W  DIS CAZ7
 GIR2 SZ EP       12 5 21.40                             168    0.0110 28.5 348 
 GIR2 SZ ES   1   12 5 36.13                             168   -0.00 7 28.5 348 
 GIR2 SZ I        12 5 37.84         7.5 0.42            166           28.5 348 
 BRR  HZ IP     C 12 5 23.34                             152    0.3810 70.4 296 
 BRR  HN ES   2   12 5 39.48                             152    0.56 5 70.4 296 
 BRR  HZ I        12 5 43.52        14.6 0.44            150           70.4 296 
 RUS  HZ EP       12 5 26.17                             142    0.2810  104 176 
 RUS  HN ES       12 5 43.99                             142   -0.1510  104 176 
 RUS  HZ I        12 5 45.97         4.0 0.28            146            104 176 
 PTB  HZ EP       12 5 28.36                             130   -0.74 9  149 258 
 PTB  HN ES       12 5 49.36                             130   -0.49 9  149 258 
 PTB  HZ I        12 5 53.56         5.2 0.26            132            149 258 
 ZAR  HZ EP       12 5 35.44                             121    0.93 9  204 291 
 ZAR  HE ES       12 6  0.00                             121    0.53 9  204 291 
 ZAR  HZ I        12 6  5.80         7.1 0.40            123            204 291 
 SML  HZ EP       12 5 38.08                             116   -0.45 8  241 335 
 SML  HN ES       12 6  6.07                             116   -0.57 8  241 335 
 SML  HZ I        12 6 10.39         8.3 0.10            119            241 335 
                                                                                
