 2010  318 1342 36.4 L   6.757 -73.014143.9  RSN  4 0.3 1.6LRSN                1
 GAP=248        0.61       6.3    12.2  7.0  0.4298E+02 -0.9448E+01  0.1469E+01E
 Epicentro: CEPITA - SANTANDER                                                 3
 ACTION:UP  10-08-24 09:54 OP:vdl  STATUS:               ID:20100318134236 L   I
 2010-03-18-1337-58S.COL___098                                                 6
 STAT SP IPHASW D HRMM SECON CODA AMPLIT PERI AZIMU VELO SNR AR TRES W  DIS CAZ7
 BAR2 SZ IP       1342 56.02                             170     0.210   26 226 
 BAR2 SZ ES   1   1343 11.23                             170     0.2 7   26 226 
 BRR  HZ IP       1342 57.93                             148    -0.310   86 297 
 BRR  HZ I        1342 58.26        13.5 0.12                            86 297 
 BRR  HE ES   1   1343 15.42                             148     0.1 7   86 297 
 RUS  HZ EP   2   1342 59.62                             145     0.0 5   96 185 
 RUS  HN ES   2   1343 17.09                             145    -0.6 5   96 185 
 RUS  HZ I        1343 19.93         4.3 0.34                            96 185 
 CHI  HZ EP   2   1343 14.04                             117     0.1 4  248 199 
 CHI  HZ I        1343 15.06         2.2 0.50                           248 199 
 CHI  HE ES   2   1343 43.43                             117     0.2 4  248 199 
                                                                                
