 2013  418 1207 28.2 L   6.839 -73.134148.4  RSN 23 0.5 2.9LRSN                1
 GAP= 49        1.16       2.7     3.0  4.5 -0.1611E+01  0.1505E+01  0.1287E+01E
 Epicentro: LOS SANTOS - SANTANDER                                             3
 ACTION:UPD 13-05-22 14:39 OP:EP   STATUS:               ID:20130418120728 L   I
 2013-04-18-1158-35M.COL___218                                                 6
 STAT SP IPHASW D HRMM SECON CODA AMPLIT PERI AZIMU VELO AIN AR TRES W  DIS CAZ7
 GIR2 SZ EP       12 7 48.23                             169    0.1910 27.3 346 
 GIR2 SZ ES       12 8  3.45                             169   -0.1110 27.3 346 
 BAR2 SZ IP     C 12 7 48.23                             169    0.0310 27.8 191 
 BAR2 SZ ES       12 8  3.27                             169   -0.5710 27.8 191 
 BAR2 SZ I        12 8  6.15       183.5 0.36            167           27.8 191 
 BRR  HZ IP     C 12 7 50.13                             153    0.5910 70.4 295 
 BRR  HN ES       12 8  7.23                             153    1.0010 70.4 295 
 BRR  HN I        12 8  7.91       240.0 0.32            144           70.4 295 
 PAM  SZ IP     D 12 7 50.96                             153    0.5410 73.3  41 
 PAM  SN ES       12 8  8.04                             153    0.2610 73.3  41 
 PAM  SN I        12 8  9.23       169.0 0.48            148           73.3  41 
 RUS  HZ IP     C 12 7 52.22                             143   -0.2510  105 177 
 RUS  HN ES       12 8 10.95                             143   -0.4910  105 177 
 RUS  HE I        12 8 12.83       118.7 0.28            140            105 177 
 CAPV BZ IP     D 12 7 56.01                             133    0.62 9  145  39 
 CAPV BZ ES       12 8 16.22                             133   -0.42 9  145  39 
 PTB  HZ EP       12 7 54.85                             132   -0.68 9  150 257 
 PTB  HE ES       12 8 16.27                             132   -0.61 9  150 257 
 PTB  HE I        12 8 21.86       138.9 0.16            124            150 257 
 TAM  HZ IP     D 12 7 56.44                             131    0.40 9  155 107 
 TAM  HZ I        12 7 56.60        94.4 0.34            128            155 107 
 TAM  HN ES   1   12 8 18.11                             131    0.32 7  155 107 
 OCA  HN ES       12 8 17.75                             131   -0.48 9  156 353 
 YOP  SZ EP       12 7 58.82                             126    0.10 9  182 154 
 YOP  SN ES       12 8 22.64                             126    0.08 9  182 154 
 YOP  SE I        12 8 25.37        69.2 0.46            122            182 154 
 ZAR  HZ EP   4   12 7 59.08                             123   -1.65 0  204 291 
 ZAR  HN ES       12 8 26.08                             123   -0.06 9  204 291 
 NOR  HZ EP       12 8  3.99                             119   -0.43 8  238 234 
 NOR  HE ES       12 8 32.56                             119   -0.14 8  238 234 
 NOR  HE I        12 8 36.33       179.2 0.20            113            238 234 
 SML  HZ EP       12 8  4.72                             118    0.16 8  240 335 
 CHI  HZ EP       12 8  6.40                             117   -0.09 8  253 195 
 CHI  HN ES       12 8 35.73                             117   -0.66 8  253 195 
 CHI  HN I        12 8 38.29        51.4 0.58            112            253 195 
 ROSC BZ EP   4   12 8  7.00                             117    0.11 0  257 211 
 ROSC BN ES       12 8 38.07                             117    0.96 8  257 211 
 ROSC BZ I        12 8 44.18        67.3 0.40            111            257 211 
 HEL  HZ EP       12 8  9.36                             115    0.61 8  274 255 
 HEL  HN ES   4   12 8 38.73                             115   -1.69 0  274 255 
 HEL  HN I        12 8 48.21        32.8 0.36            109            274 255 
 SOCV BZ EP       12 8 10.24                             113   -0.70 7  298  57 
 GUY  HZ EP       12 8 12.86                             112    0.32 7  307 235 
 GUY  HN ES       12 8 48.04                             112    0.87 7  307 235 
 GUY  HN I        12 8 58.33        48.9 0.64            107            307 235 
 DBB  SZ EP       12 8 15.61                             110   -0.24 7  340 274 
 DBB  SZ I        12 8 56.11        19.4 0.38            105            340 274 
 COD  HZ EP       12 8 15.91                             110   -0.24 7  344 354 
 COD  HN I        12 8 59.13        19.1 0.32            105            344 354 
 SDV  BE EP       12 8 17.60                             109   -0.27 6  357  51 
 PRA  HZ EP       12 8 21.92                             107   -0.36 6  396 209 
 PRA  HN ES       12 9  4.14                             107   -0.35 6  396 209 
 PRA  HN I        12 9  9.67        20.1 0.60            102            396 209 
 SJC  HZ EP       12 8 22.44                             106   -1.02 6  406 326 
                                                                                
