 2012  218 1044 16.3 L   6.717 -73.157154.8  RSN  4 0.2 1.3LRSN                1
 GAP=181        0.44       5.8     9.8  6.6  0.4099E+02 -0.1925E+02 -0.1059E+02E
 ACTION:UP  12-03-07 16:31 OP:epov STATUS:               ID:20120218104416 L   I
 2012-02-18-1040-00M.COL___188                                                 6
 STAT SP IPHASW D HRMM SECON CODA AMPLIT PERI AZIMU VELO AIN AR TRES W  DIS CAZ7
 GIR2 SZ EP   1   1044 37.06                             165   -0.25 7 40.2 354 
 BRR  HZ EP   1   1044 38.84                             153    0.19 7 75.0 305 
 BRR  HZ I        1044 40.43         5.2 0.55                          75.0 305 
 BRR  HN ES   1   1044 56.12                             153    0.04 7 75.0 305 
 RUS  HZ EP   1   1044 40.57                             148    0.21 7 91.6 175 
 RUS  HE ES   1   1044 59.03                             148   -0.09 7 91.6 175 
 RUS  HZ I        1045  0.62         2.1 0.59                          91.6 175 
 PTB  HZ EP   2   1044 43.50                             134   -0.29 5  145 262 
                                                                                
