 2016  318 1941 23.4 L   6.787 -73.159137.4  RSN  9 0.3 2.2LRSN                1
 GAP=136        0.76       2.8     3.0  4.7 -0.1399E+01  0.5567E+01  0.1073E+01E
 Epicentro: LOS SANTOS - SANTANDER                                             3
 ACTION:UPD 16-05-13 21:25 OP:cam  STATUS:               ID:20160318194123 L   I
 OLDACT:REG 16-03-18 21:27 OP:cara STATUS:               ID:20160318193746     3
 2016-03-18-1937-46M.COL___328                                                 6
 STAT SP IPHASW D HRMM SECON CODA AMPLIT PERI AZIMU VELO AIN AR TRES W  DIS CAZ7
 BAR2 EZ IP     C 1941 41.98                             171   -0.0110 21.6 187 
 BAR2 EZ ES       1941 56.14                             171   -0.3410 21.6 187 
 BAR2 EZ I        1941 57.65        42.2 0.24            169           21.6 187 
 PAM  EZ IP       1941 44.87                             149    0.0110 79.4  40 
 PAM  EE ES       1942  2.03                             149    0.4310 79.4  40 
 PAM  EZ I        1942  3.68        21.6 0.44            154           79.4  40 
 RUS  HZ EP       1941 46.01                             142   -0.2210 99.2 175 
 RUS  HN ES       1942  3.99                             142   -0.0510 99.2 175 
 RUS  HZ I        1942  6.39        15.0 0.14            144           99.2 175 
 PTB  HZ EP       1941 48.92                             130   -0.62 9  146 259 
 PTB  HN ES       1942  9.76                             130   -0.16 9  146 259 
 PTB  HZ I        1942 15.36        33.3 0.76            131            146 259 
 SPBC HZ EP       1941 51.20                             127    0.13 9  161 219 
 SPBC HN ES       1942 12.75                             127    0.10 9  161 219 
 SPBC HZ I        1942 18.97        35.8 0.16            129            161 219 
 ZAR  HZ EP       1941 54.92                             121   -0.31 9  203 293 
 ZAR  HN ES       1942 20.42                             121    0.36 9  203 293 
 ZAR  HZ I        1942 25.74        35.4 0.48            122            203 293 
 NOR  HZ EP       1941 58.23                             117   -0.20 8  233 235 
 NOR  HN ES       1942 26.29                             117    0.53 8  233 235 
 NOR  HZ I        1942 27.83        15.0 0.22            119            233 235 
 CHI  HZ EP       1942  0.49                             115    0.04 8  247 195 
 CHI  HN ES       1942 29.65                             115    0.31 8  247 195 
 CHI  HZ I        1942 36.69         6.8 0.36            118            247 195 
 GUY2CHZ EP       1942  6.96                             111    0.56 7  299 235 
 GUY2CHN ES       1942 39.75                             111   -0.19 7  299 235 
 GUY2CHZ I        1942 47.78         8.7 0.26                           299 235 
                                                                                
