 2013  918 1022 26.3 L   6.729 -73.190141.1  RSN  5 0.3 1.4LRSN                1
 GAP=227        0.74       7.1     6.3  7.1  0.2817E+02  0.7302E+01  0.3823E+01E
 Epicentro: VILLANUEVA - SANTANDER                                             3
 ACTION:UPD 13-10-22 09:23 OP:ep   STATUS:               ID:20130918102226 L   I
 OLDACT:DUP 13-09-18 15:59 OP:jn   STATUS:               ID:20130918101960d    3
 2013-09-18-1019-59M.COL___269                                                 6
 STAT SP IPHASW D HRMM SECON CODA AMPLIT PERI AZIMU VELO AIN AR TRES W  DIS CAZ7
 BAR2 SZ EP       1022 45.18                             174   -0.0310 15.2 177 
 BAR2 SZ ES   1   1022 59.32                             174   -0.65 7 15.2 177 
 BAR2 SZ I        1023  1.67         6.2 0.26            162           15.2 177 
 BRR  HZ EP   1   1022 46.92                             152   -0.01 7 71.2 306 
 BRR  HN ES   1   1023  3.48                             152    0.45 7 71.2 306 
 RUS  HZ EP       1022 49.18                             145    0.1310 93.3 173 
 RUS  HN ES   1   1023  7.27                             145    0.47 7 93.3 173 
 RUS  HZ I        1023  9.30         4.2 0.26            141           93.3 173 
 PTB  HZ EP       1022 51.99                             132   -0.32 9  142 262 
 PTB  HN ES   1   1023 12.40                             132   -0.21 7  142 262 
 PTB  HZ I        1023 19.92         3.6 0.68            129            142 262 
 ZAR  HN ES   1   1023 23.58                             122    0.34 6  203 295 
                                                                                
