 2014  418 1209 44.2 L   6.405 -73.667 95.1  RSN 10 0.4 1.6LRSN                1
 GAP=141        1.00       2.7     3.1  7.1  0.1051E+01  0.2585E+01 -0.3596E+01E
 Epicentro: SANTA HELENA DEL OPON - SANTANDER                                  3
 ACTION:UPD 14-05-13 23:09 OP:nd   STATUS:               ID:20140418120944 L   I
 OLDACT:REG 14-04-18 21:20 OP:stll STATUS:               ID:20140418120809     3
 2014-04-18-1208-09M.COL___230                                                 6
 STAT SP IPHASW D HRMM SECON CODA AMPLIT PERI AZIMU VELO AIN AR TRES W  DIS CAZ7
 RUS  HZ EP       1210  2.14                             135    0.0210 85.9 131 
 RUS  HZ I        1210  2.31         7.6 0.32            139           85.9 131 
 RUS  HN ES       1210 16.52                             135    0.4510 85.9 131 
 PTB  HZ EP       1210  1.11                             134   -0.5910 88.6 280 
 PTB  HN ES       1210 15.09                             134   -0.2310 88.6 280 
 PTB  HZ I        1210 17.91         8.5 0.22            135           88.6 280 
 SPBC HZ EP       1210  1.99                             132   -0.3510 94.6 208 
 SPBC HE ES       1210 16.25                             132   -0.2210 94.6 208 
 SPBC HZ I        1210 19.47         9.8 0.36            135           94.6 208 
 NOR  HN ES       1210 29.04                             116    0.19 9  162 235 
 ZAR  HZ EP       1210 11.36                             114    0.34 9  178 312 
 ZAR  HN ES       1210 32.45                             114    0.54 9  178 312 
 ZAR  HZ I        1210 37.72         5.9 0.16            114            178 312 
 CHI  HZ EP       1210 13.18                             112   -0.42 9  196 182 
 CHI  HN ES       1210 36.69                             112    0.18 9  196 182 
 CHI  HZ I        1210 39.94         2.9 0.22            113            196 182 
 HEL  HE ES       1210 39.00                             110    0.35 8  207 264 
 GUY2CHZ EP       1210 18.07                             108    0.62 8  229 235 
 GUY2CHN ES       1210 43.82                             108    0.46 8  229 235 
 GUY2CHZ I        1210 47.91         2.5 0.30                           229 235 
 RREF HZ EP       1210 20.21                             107    0.13 8  250 228 
 RREF HN ES       1210 47.20                             107   -0.84 8  250 228 
 SML  HZ EP       1210 21.62                             105    0.06 8  269 350 
 SML  HN ES       1210 50.12                             105   -0.55 8  269 350 
 SML  HZ I        1210 55.90         6.2 0.10            104            269 350 
                                                                                
