 2010 1118 1856 38.3 L   6.805 -73.105142.8  RSN 13 0.4 2.7LRSN                1
 GAP=163        0.71       3.3     5.5  6.0 -0.8532E+01  0.2297E+01  0.4350E+01E
 Epicentro: LOS SANTOS - SANTANDER                                             3
 ACTION:UP  10-12-17 16:53 OP:REBC STATUS:               ID:20101118185638 L   I
 2010-11-18-1854-14S.COL___129                                                 6
 STAT SP IPHASW D HRMM SECON CODA AMPLIT PERI AZIMU VELO SNR AR TRES W  DIS CAZ7
 BAR2 SZ IP       1856 57.65                             170     0.110   25 200 
 BAR2 SZ ES   2   1857 12.27                             170    -0.4 5   25 200 
 BAR2 SZ I        1857 14.03        88.9 0.27                            25 200 
 BRR  HZ EP       1856 59.42                             151     0.110   75 297 
 BRR  HN ES   1   1857 16.20                             151     0.5 7   75 297 
 BRR  HZ I        1857 20.07       177.5 0.18                            75 297 
 RUS  HZ EP       1857  1.65                             143    -0.110  101 179 
 RUS  HZ I        1857 21.55        52.4 0.58                           101 179 
 GUE  SZ EP   1   1857  2.88                             139     0.3 7  115  10 
 GRA  SZ EP       1857  3.36                             137     0.310  124  16 
 GRA  SZ ES   1   1857 21.77                             137    -0.7 7  124  16 
 GRA  SZ I        1857 23.88        57.0 0.59                           124  16 
 OCA  SZ EP       1857  6.31                             129     0.0 9  160 352 
 OCA  SZ I        1857 31.83        76.7 0.59                           160 352 
 NOR  SZ EP       1857 14.00                             117    -0.3 8  239 235 
 NOR  SN ES   2   1857 41.60                             117    -0.7 4  239 235 
 CHI  HZ EP   1   1857 16.14                             116     0.2 6  250 196 
 CHI  HN ES   1   1857 45.35                             116     0.0 6  250 196 
 CHI  HZ I        1857 52.63        29.3 0.48                           250 196 
 ROSC BN ES   2   1857 46.70                             116     0.3 4  256 212 
 ROSC BZ I        1857 50.54        32.2 0.52                           256 212 
 HEL  HZ EP   2   1857 18.53                             114    -0.3 4  277 256 
 HEL  HZ I        1857 56.72        30.6 0.51                           277 256 
 RREF HZ EP   1   1857 24.73                             110     0.0 5  326 230 
 RREF HN ES   2   1858  1.80                             110     0.9 3  326 230 
 RREF HZ I        1858 11.68        29.5 0.42                           326 230 
 DBB  SZ EP   1   1857 25.61                             109    -0.5 5  344 274 
 PRA  HZ EP   2   1857 31.97                             106     0.0 3  395 210 
 PRA  HN ES   2   1858 13.31                             106    -0.6 3  395 210 
                                                                                
