 2012  918 1105  9.8 L   6.763 -73.116149.9  RSN 12 0.4 2.6LRSN                1
 GAP= 74        0.80       3.5     3.5  4.8 -0.9626E+00  0.3801E+01  0.3759E+01E
 Epicentro: LOS SANTOS - SANTANDER                                             3
 ACTION:UPD 12-10-22 14:19 OP:ep   STATUS:               ID:20120918110509 L   I
 2012-09-18-1100-00M.COL___227                                                 6
 STAT SP IPHASW D HRMM SECON CODA AMPLIT PERI AZIMU VELO AIN AR TRES W  DIS CAZ7
 BAR2 SZ IP       11 5 29.93                             172    0.0310 20.2 201 
 BAR2 SZ I        11 5 30.11       100.6 0.19                          20.2 201 
 BAR2 SZ ES       11 5 45.43                             172   -0.1310 20.2 201 
 GIR2 SZ EP       11 5 29.98                             166   -0.1410 36.0 346 
 GIR2 SZ ES   2   11 5 45.68                             166   -0.28 5 36.0 346 
 BRR  HZ EP       11 5 31.80                             152    0.1010 76.1 300 
 BRR  HZ I        11 5 32.32        89.8 0.21                          76.1 300 
 BRR  HN ES       11 5 49.48                             152    0.7210 76.1 300 
 PAM  SZ EP       11 5 32.77                             151    0.2110 78.7  36 
 PAM  SE ES   1   11 5 50.09                             151   -0.20 7 78.7  36 
 PAM  SZ I        11 5 52.26        55.3 0.18                          78.7  36 
 RUS  HZ EP       11 5 33.72                             146    0.0310 96.3 178 
 RUS  HN ES   1   11 5 51.71                             146   -0.59 7 96.3 178 
 TAM  HZ EP   1   11 5 37.88                             132    0.43 7  151 104 
 TAM  HZ I        11 5 38.34        88.5 0.23                           151 104 
 ZAR  HZ EP       11 5 42.25                             123   -0.76 8  209 293 
 ZAR  HN ES   1   11 6  8.12                             123   -0.78 6  209 293 
 ZAR  HZ I        11 6 15.03        40.7 0.18                           209 293 
 NOR  SZ EP       11 5 45.93                             119    0.10 8  235 236 
 NOR  SN ES   1   11 6 13.93                             119    0.01 6  235 236 
 CHI  HZ EP   1   11 5 47.56                             118    0.14 6  246 196 
 CHI  HE ES   1   11 6 16.51                             118   -0.24 6  246 196 
 ROSC BZ EP   9   11 5 49.81                             118    1.83 0  251 212 
 ROSC BN ES   9   11 6 18.30                                   -1.27 0  251 212 
 ROSC BZ I        11 6 27.11        18.5 0.47                           251 212 
 HEL  HZ EP   1   11 5 50.68                             115    0.19 6  274 257 
 HEL  HN ES   1   11 6 22.39                             115    0.18 6  274 257 
 HEL  HZ I        11 6 28.11        17.4 0.29                           274 257 
 RREF HZ EP   2   11 5 56.62                             112    0.49 3  322 230 
 RREF HE ES   1   11 6 32.79                             112    0.54 5  322 230 
 RREF HZ I        11 6 41.56        22.8 0.41                           322 230 
                                                                                
