 2010  918 1249 44.9 L   6.815 -73.249144.2  RSN 12 0.5 2.5LRSN                1
 GAP=141        0.90       4.6     7.9  8.0 -0.1470E+02  0.1824E+02  0.2392E+01E
 Epicentro: ZAPATOCA - SANTANDER                                               3
 ACTION:UP  11-02-18 11:03 OP:tino STATUS:               ID:20100918124944 L   I
 2010-09-18-1246-53S.COL___121                                                 6
 STAT SP IPHASW D HRMM SECON CODA AMPLIT PERI AZIMU VELO SNR AR TRES W  DIS CAZ7
 BTL  SZ EP   1   1250  5.21                             175     1.0 7   12 350 
 BAR2 SZ EP   1   1250  4.28                             169    -0.1 7   26 164 
 BAR2 SZ ES   2   1250 18.86                             169    -0.7 5   26 164 
 BAR2 SZ I        1250 20.91        82.8 0.49                            26 164 
 GIR2 SZ EP   1   1250  4.31                             168     0.0 7   30  12 
 GIR2 SZ ES   2   1250 19.60                             168     0.1 5   30  12 
 BRR  HZ IP     C 1250  5.30                             156     0.010   61 302 
 BRR  HZ I        1250  5.60        68.2 0.17                            61 302 
 BRR  HN ES   2   1250 22.04                             156     0.8 5   61 302 
 RUS  HZ EP   1   1250  8.61                             143    -0.1 7  104 170 
 RUS  HN ES   2   1250 27.25                             143    -0.1 5  104 170 
 GUE  SZ EP   1   1250  9.27                             139    -0.3 7  118  18 
 GRA  SZ EP   1   1250 10.40                             136     0.2 7  128  23 
 GRA  SZ ES   2   1250 29.92                             136     0.0 5  128  23 
 GRA  SZ I        1250 31.14        88.4 0.27                           128  23 
 OCA  SZ EP   1   1250 12.55                             130    -0.3 7  158 357 
 OCA  SZ I        1250 12.95        85.7 0.19                           158 357 
 OCA  SZ ES   2   1250 34.05                             130    -0.6 5  158 357 
 NOR  HZ EP   1   1250 19.28                             119    -0.4 6  227 233 
 NOR  HE ES   2   1250 45.41                             119    -1.4 4  227 233 
 CHI  HZ EP   1   1250 22.58                             117     0.2 6  247 192 
 CHI  HE ES   2   1250 51.66                             117     0.0 4  247 192 
 CHI  HZ I        1251  0.82         7.9 0.30                           247 192 
 HEL  HZ EP   1   1250 24.17                             115     0.3 6  261 255 
 HEL  HZ I        1251  1.57        14.2 0.19                           261 255 
 RREF HZ EP   1   1250 30.01                             111    -0.1 5  314 228 
 RREF HE ES   2   1251  6.50                             111     1.1 3  314 228 
 RREF HZ I        1251 12.92        15.7 0.53                           314 228 
                                                                                
