 2013  418 1104 32.9 L   6.834 -73.152143.2  RSN 13 0.5 2.3LRSN                1
 GAP=134        1.20       3.6     4.4  6.1 -0.4076E+01  0.6739E+01  0.1508E+01E
 Epicentro: LOS SANTOS - SANTANDER                                             3
 ACTION:UPD 13-05-22 14:39 OP:EP   STATUS:               ID:20130418110432 L   I
 2013-04-18-1058-48M.COL___218                                                 6
 STAT SP IPHASW D HRMM SECON CODA AMPLIT PERI AZIMU VELO AIN AR TRES W  DIS CAZ7
 BAR2 SZ EP       11 4 52.32                             169    0.0110 26.9 187 
 BAR2 SZ ES       11 5  7.50                             169    0.0610 26.9 187 
 BAR2 SZ I        11 5  8.66        29.5 0.56            166           26.9 187 
 GIR2 SZ EP   1   11 4 52.17                             168   -0.01 7 27.5 350 
 BRR  HZ EP       11 4 54.07                             153    0.4210 68.8 296 
 BRR  HN ES       11 5 10.68                             153    0.8610 68.8 296 
 BRR  HN I        11 5 11.39        64.0 0.28            151           68.8 296 
 PAM  SZ EP       11 4 55.08                             151    0.3610 75.0  42 
 PAM  SZ I        11 4 55.28        19.3 0.46            155           75.0  42 
 PAM  SN ES       11 5 11.82                             151    0.1010 75.0  42 
 RUS  HZ EP       11 4 56.43                             142   -0.2610  104 176 
 RUS  HN ES       11 5 14.51                             142   -0.7210  104 176 
 RUS  HN I        11 5 16.92        14.0 0.42            141            104 176 
 CAPV BZ EP       11 5  0.03                             132    0.15 9  147  39 
 PTB  HZ EP       11 4 58.90                             131   -0.78 9  148 257 
 PTB  HN ES       11 5 19.88                             131   -0.67 9  148 257 
 PTB  HN I        11 5 25.47        29.1 0.36            130            148 257 
 NOR  HZ EP       11 5  8.84                             118    0.18 8  236 234 
 NOR  HN ES       11 5 37.27                             118    0.72 8  236 234 
 SML  HZ EP       11 5  8.80                             117   -0.20 8  240 335 
 SML  HN ES       11 5 36.14                             117   -1.00 8  240 335 
 CHI  HZ EP       11 5 11.16                             116    0.32 8  252 195 
 CHI  HN ES       11 5 40.11                             116   -0.31 8  252 195 
 CHI  HN I        11 5 45.02        14.0 0.22            116            252 195 
 HEL  HZ EP       11 5 14.08                             114    1.06 8  272 255 
 HEL  HN ES       11 5 44.16                             114   -0.14 8  272 255 
 HEL  HN I        11 5 51.77         7.5 0.50            114            272 255 
 GUY  HZ EP   4   11 5 18.76                             111    1.92 0  305 234 
 GUY  HN ES       11 5 50.96                             111   -0.14 7  305 234 
 GUY  HZ I        11 6  0.48         7.1 0.44            111            305 234 
 PRA  HZ EP       11 5 26.60                             106   -0.08 6  395 209 
 PRA  HN ES       11 6  8.73                             106    0.11 6  395 209 
 PRA  HN I        11 6 14.53        59.9 1.12            106            395 209 
                                                                                
