 2015 1118 1243 14.8 L   6.848 -73.232132.0  RSN  7 0.5 1.9LRSN                1
 GAP=122        1.13       5.1     5.6  7.3 -0.1354E+00  0.1153E+02 -0.7056E+01E
 Epicentro: ZAPATOCA - SANTANDER                                               3
 ACTION:UPD 15-12-28 16:11 OP:cam  STATUS:               ID:20151118124314 L   I
 OLDACT:REG 15-11-18 20:58 OP:dnl  STATUS:               ID:20151118123750     3
 2015-11-18-1237-50M.COL___313                                                 6
 STAT SP IPHASW D HRMM SECON CODA AMPLIT PERI AZIMU VELO AIN AR TRES W  DIS CAZ7
 BAR2 EZ EP       1243 32.71                             167   -0.2010 28.8 169 
 BAR2 EZ ES       1243 47.21                             167    0.1710 28.8 169 
 BAR2 EZ I        1243 48.69        13.4 0.26            172           28.8 169 
 BRR  HZ EP       1243 34.44                             154    0.5910 60.3 298 
 BRR  HN ES       1243 48.06                             154   -0.6510 60.3 298 
 PAM  EZ EP       1243 35.32                             147   -0.4210 80.0  47 
 PAM  EN ES       1243 52.47                             147    0.3910 80.0  47 
 PAM  EZ I        1243 54.91        11.6 0.56            150           80.0  47 
 OCA  HZ EP       1243 40.99                             128   -0.48 9  154 356 
 OCA  HN ES       1244  2.58                             128    0.30 9  154 356 
 OCA  HZ I        1244  6.66        21.8 0.20            128            154 356 
 ZAR  HZ EP   2   1243 45.66                             121    0.42 4  193 292 
 ZAR  HN ES       1244  8.94                             121   -0.05 9  193 292 
 ZAR  HZ I        1244 17.79         4.4 0.29            121            193 292 
 SML  HZ EP       1243 48.98                             115   -0.74 8  235 337 
 SML  HE ES       1244 17.57                             115    0.60 8  235 337 
 SML  HZ I        1244 20.28        13.1 0.10            117            235 337 
 GUY2CHZ EP       1243 57.91                             110    0.62 7  297 233 
 GUY2CHN ES   4   1244 32.74                             110    2.31 0  297 233 
 GUY2CHZ I        1244 39.21         2.3 0.40                           297 233 
                                                                                
