 2011  118 1018  1.9 L   6.769 -73.186140.0  RSN  4 0.3 1.1LRSN                1
 GAP=154        0.64       6.7    30.1  9.0  0.1583E+02 -0.1365E+03 -0.1569E+02E
 Epicentro: VILLANUEVA - SANTANDER                                             3
 ACTION:UP  11-02-08 08:41 OP:pat  STATUS:               ID:20110118101801 L   I
 2011-01-18-1013-38S.COL___137                                                 6
 STAT SP IPHASW D HRMM SECON CODA AMPLIT PERI AZIMU VELO SNR AR TRES W  DIS CAZ7
 BTL  SZ EP       1018 20.43                             172    -0.310   19 331 
 BTL  SZ ES   1   1018 35.73                             172     0.3 7   19 331 
 BAR2 SZ EP   1   1018 21.12                             172     0.4 7   20 179 
 BAR2 SZ ES   2   1018 35.24                             172    -0.2 5   20 179 
 BAR2 SZ I        1018 37.37         6.0 0.28                            20 179 
 RUS  HZ EP   2   1018 25.11                             144     0.2 5   98 173 
 RUS  HE ES   2   1018 42.57                             144    -0.2 5   98 173 
 RUS  HZ I        1018 44.88         1.4 0.14                            98 173 
 GRA  SZ EP   1   1018 27.03                             135     0.0 7  130  19 
 GRA  SZ I        1018 49.60         1.9 0.61                           130  19 
                                                                                
