 2014  318 1346 32.6 L   6.806 -73.127144.5  RSN 15 0.4 2.3LRSN                1
 GAP=139        0.83       2.4     3.2  4.5 -0.1214E+01  0.3264E+01  0.9757E+00E
 Epicentro: LOS SANTOS - SANTANDER                                             3
 OLDACT:REG 14-03-18 15:11 OP:fm   STATUS:               ID:20140318133805     3
 ACTION:UPD 14-04-09 23:18 OP:nd   STATUS:               ID:20140318134633dL   I
 OLDACT:DUP 14-03-18 17:16 OP:fm   STATUS:               ID:20140318133806d    3
 2014-03-18-1338-05M.COL___238                                                 6
 STAT SP IPHASW D HRMM SECON CODA AMPLIT PERI AZIMU VELO AIN AR TRES W  DIS CAZ7
 BAR2 SZ EP       1346 52.01                             170   -0.1110 24.4 194 
 BAR2 SZ ES   1   1347  7.13                             170   -0.20 7 24.4 194 
 BAR2 SZ I        1347  8.05        71.6 0.16            169           24.4 194 
 BRR  HZ EP       1346 54.00                             152    0.2810 72.7 297 
 BRR  HN ES       1347 10.65                             152    0.4810 72.7 297 
 BRR  SZ I        1347 14.74        27.8 0.10            147           72.7 297 
 PAM  SZ EP       1346 54.99                             151    0.4010 75.6  39 
 PAM  SE ES       1347 12.09                             151    0.3610 75.6  39 
 PAM  SZ I        1347 13.73        40.7 0.48            153           75.6  39 
 RUS  HZ EP       1346 56.25                             143   -0.0310  101 177 
 RUS  HE ES       1347 14.37                             143   -0.3710  101 177 
 RUS  SZ I        1347 15.53        22.1 0.38            146            101 177 
 PTB  HZ EP       1346 59.64                             131   -0.04 9  150 259 
 PTB  HN ES       1347 20.27                             131   -0.51 9  150 259 
 PTB  SZ I        1347 23.08        21.5 0.12            129            150 259 
 OCA  HZ EP       1347  0.69                             129   -0.11 9  160 352 
 OCA  HN ES       1347 22.08                             129   -0.69 9  160 352 
 OCA  SZ I        1347 25.73        22.1 0.28            129            160 352 
 SPBC HZ EP       1347  1.15                             128   -0.04 9  165 219 
 SPBC HN ES       1347 23.32                             128   -0.15 9  165 219 
 SPBC SZ I        1347 24.00        20.6 0.22            128            165 219 
 ZAR  HZ EP       1347  5.15                             122   -0.00 8  206 292 
 ZAR  HN ES       1347 30.93                             122    0.40 8  206 292 
 ZAR  SZ I        1347 36.10        16.3 0.28            121            206 292 
 NOR  HZ EP       1347  8.64                             118    0.15 8  237 235 
 NOR  HN ES   1   1347 36.17                             118   -0.30 6  237 235 
 NOR  SZ I        1347 41.64        11.6 0.46            118            237 235 
 SML  HZ EP   1   1347  8.36                             117   -0.85 6  244 335 
 SML  HN ES   4   1347 36.15                             117   -1.59 0  244 335 
 SML  SZ I        1347 40.39        22.5 0.10            117            244 335 
 CHI  HZ EP       1347 10.29                             117   -0.08 8  250 196 
 CHI  HN ES   1   1347 40.45                             117    0.63 6  250 196 
 HEL  HZ EP   4   1347 14.94                             114    1.94 0  274 256 
 HEL  HN ES   1   1347 44.83                             114    0.33 6  274 256 
 HEL  SZ I        1347 50.19         7.8 0.50            114            274 256 
 URE  HE ES   4   1347 43.52                             113   -2.43 0  285 292 
 GUY2CHZ EP   4   1347 18.62                             112    2.22 0  303 235 
 GUY2CHN ES   4   1347 53.36                             112    2.81 0  303 235 
 GUY2CSZ I        1348  0.20         5.0 0.90                           303 235 
 RREF HZ EP       1347 19.30                             110    0.37 7  324 230 
 RREF HN ES   4   1347 57.06                             110    2.01 0  324 230 
 RREF SZ I        1348  5.01         6.7 0.76            111            324 230 
 SJC  HZ EP   4   1347 26.98                             105   -1.23 0  410 327 
 SJC  HN ES   4   1348  7.55                             105   -4.02 0  410 327 
 SJC  SZ I        1348 22.50        10.6 3.80            106            410 327 
                                                                                
