 2012  818 1647 45.5 L   6.822 -73.149143.5  RSN  5 0.2 2.0LRSN                1
 GAP=135        0.56       3.4     3.3  4.7 -0.1551E+01  0.5813E+00  0.3024E+01E
 Epicentro: LOS SANTOS - SANTANDER                                             3
 ACTION:UPD 12-09-10 11:57 OP:ep   STATUS:               ID:20120818164745 L   I
 2012-08-18-1640-00M.COL___217                                                 6
 STAT SP IPHASW D HRMM SECON CODA AMPLIT PERI AZIMU VELO AIN AR TRES W  DIS CAZ7
 BAR2 SZ EP   1   1648  4.93                             169   -0.02 7 25.7 188 
 BAR2 SZ ES   1   1648 20.10                             169    0.02 7 25.7 188 
 BAR2 SZ I        1648 21.82        19.8 0.24                          25.7 188 
 BRR  HZ EP       1648  6.59                             153    0.2310 69.7 297 
 BRR  HZ I        1648  8.04        27.1 0.13                          69.7 297 
 BRR  HE ES       1648 22.85                             153    0.2610 69.7 297 
 PAM  SZ EP       1648  7.44                             151    0.0210 75.7  41 
 PAM  SZ I        1648  7.79        34.5 0.17                          75.7  41 
 PAM  SN ES       1648 24.20                             151   -0.2810 75.7  41 
 RUS  HZ EP       1648  9.41                             143    0.1610  103 176 
 RUS  HE ES   1   1648 27.75                             143    0.00 7  103 176 
 RUS  HZ I        1648 29.69         5.2 0.34                           103 176 
 PTB  HZ EP   1   1648 11.93                             131   -0.41 7  148 258 
 PTB  HE ES   1   1648 32.84                             131   -0.39 7  148 258 
 PTB  HZ I        1648 34.76        29.8 0.48                           148 258 
                                                                                
