 2010  818 1636 22.1 L   6.814 -73.021141.7  RSN 11 0.4 2.5LRSN                1
 GAP=172        0.83       3.9     6.5  6.1 -0.8041E+01  0.6779E+01  0.1504E+01E
 Epicentro: CEPITA - SANTANDER                                                 3
 ACTION:UP  10-09-07 10:56 OP:vdl  STATUS:               ID:20100818163622 L   I
 2010-08-18-1633-49S.COL___116                                                 6
 STAT SP IPHASW D HRMM SECON CODA AMPLIT PERI AZIMU VELO SNR AR TRES W  DIS CAZ7
 BAR2 SZ IP       1636 41.33                             167    -0.110   30 216 
 BAR2 SZ I        1636 41.79        50.8 0.10                            30 216 
 BAR2 SZ ES   1   1636 56.38                             167    -0.1 7   30 216 
 GIR2 SZ EP       1636 41.41                             165     0.010   35 327 
 GIR2 SZ ES   3   1636 56.69                             165     0.2 2   35 327 
 BRR  HZ IP     C 1636 43.14                             148    -0.410   83 293 
 BRR  HZ I        1636 43.38        88.2 0.11                            83 293 
 BRR  HE ES   1   1637  0.20                             148    -0.1 7   83 293 
 RUS  HZ EP       1636 45.34                             142    -0.210  102 184 
 RUS  HN ES   1   1637  4.34                             142     0.5 7  102 184 
 RUS  HZ I        1637  6.44        21.6 0.36                           102 184 
 GUE  SZ EP       1636 46.36                             139     0.210  113   5 
 GRA  SZ EP   1   1636 47.14                             137     0.6 7  121  11 
 CHI  HZ EP   1   1636 59.66                             116    -0.5 6  254 198 
 CHI  HN ES   1   1637 29.57                             116    -0.3 6  254 198 
 CHI  HZ I        1637 32.16        15.1 0.34                           254 198 
 HEL  HZ EP   1   1637  3.07                             113    -0.6 6  286 256 
 HEL  HZ I        1637 40.92        14.8 0.29                           286 256 
 GUY  SZ EP   2   1637  6.93                             111     0.0 3  314 236 
 GUY  SZ I        1637 50.00        46.6 0.65                           314 236 
 RREF HZ EP       1637 10.04                             109     0.6 7  333 231 
 RREF HN ES   1   1637 46.75                             109     0.5 5  333 231 
 RREF HZ I        1637 53.56        10.3 0.20                           333 231 
 ANIL HZ EP   1   1637 13.16                             107     0.1 5  368 226 
 ANIL HN ES   1   1637 53.42                             107     0.7 5  368 226 
 ANIL HZ I        1638  4.33        20.2 0.27                           368 226 
                                                                                
